[
  {
    "postal": "M9C9J6",
    "result": []
  },
  {
    "postal": "M9C9Z5",
    "result": []
  },
  {
    "postal": "M9C7H8",
    "result": []
  },
  {
    "postal": "M9C0P6",
    "result": []
  },
  {
    "postal": "M9C0S7",
    "result": []
  },
  {
    "postal": "M9C8B9",
    "result": []
  },
  {
    "postal": "M9C2A6",
    "result": [
      {
        "electoralDistricts": [
          {
            "election": null,
            "id": 28,
            "name": "Etobicoke Centre"
          }
        ],
        "pollDivisionIds": [
          10138067
        ],
        "postalCode": "M9C2A6",
        "streetName": "BLOOR",
        "streetDirectionId": "W",
        "streetTypeId": "ST",
        "placeName": "ETOBICOKE",
        "streetNameDisplayText": "BLOOR ST W, ETOBICOKE"
      }
    ]
  },
  {
    "postal": "M9C7V2",
    "result": []
  },
  {
    "postal": "M9C9P4",
    "result": []
  },
  {
    "postal": "M9C6G0",
    "result": []
  },
  {
    "postal": "M9C2K0",
    "result": []
  },
  {
    "postal": "M9C7N6",
    "result": []
  },
  {
    "postal": "M9C5R3",
    "result": []
  },
  {
    "postal": "M9C7K0",
    "result": []
  },
  {
    "postal": "M9C3R2",
    "result": [
      {
        "electoralDistricts": [
          {
            "election": null,
            "id": 28,
            "name": "Etobicoke Centre"
          }
        ],
        "pollDivisionIds": [
          10138068
        ],
        "postalCode": "M9C3R2",
        "streetName": "IVY BRIDGE",
        "streetDirectionId": null,
        "streetTypeId": "DR",
        "placeName": "ETOBICOKE",
        "streetNameDisplayText": "IVY BRIDGE DR, ETOBICOKE"
      }
    ]
  },
  {
    "postal": "M9C0J1",
    "result": []
  },
  {
    "postal": "M9C0B0",
    "result": []
  },
  {
    "postal": "M9C5Z2",
    "result": []
  },
  {
    "postal": "M9C7P3",
    "result": []
  },
  {
    "postal": "M9C2K3",
    "result": [
      {
        "electoralDistricts": [
          {
            "election": null,
            "id": 28,
            "name": "Etobicoke Centre"
          }
        ],
        "pollDivisionIds": [
          10138067
        ],
        "postalCode": "M9C2K3",
        "streetName": "GOLF VALLEY",
        "streetDirectionId": null,
        "streetTypeId": "LANE",
        "placeName": "ETOBICOKE",
        "streetNameDisplayText": "GOLF VALLEY LANE, ETOBICOKE"
      }
    ]
  },
  {
    "postal": "M9C7Y6",
    "result": []
  },
  {
    "postal": "M9C1L9",
    "result": [
      {
        "electoralDistricts": [
          {
            "election": null,
            "id": 28,
            "name": "Etobicoke Centre"
          }
        ],
        "pollDivisionIds": [
          10138063
        ],
        "postalCode": "M9C1L9",
        "streetName": "TRAILSMOKE",
        "streetDirectionId": null,
        "streetTypeId": "CRES",
        "placeName": "ETOBICOKE",
        "streetNameDisplayText": "TRAILSMOKE CRES, ETOBICOKE"
      }
    ]
  },
  {
    "postal": "M9C8T0",
    "result": []
  },
  {
    "postal": "M9C3K8",
    "result": [
      {
        "electoralDistricts": [
          {
            "election": null,
            "id": 28,
            "name": "Etobicoke Centre"
          }
        ],
        "pollDivisionIds": [
          10143747
        ],
        "postalCode": "M9C3K8",
        "streetName": "BECKENHAM",
        "streetDirectionId": null,
        "streetTypeId": "CRT",
        "placeName": "ETOBICOKE",
        "streetNameDisplayText": "BECKENHAM CRT, ETOBICOKE"
      }
    ]
  },
  {
    "postal": "M9C5W9",
    "result": []
  },
  {
    "postal": "M9C6T9",
    "result": []
  },
  {
    "postal": "M9C4H1",
    "result": [
      {
        "electoralDistricts": [
          {
            "election": null,
            "id": 28,
            "name": "Etobicoke Centre"
          }
        ],
        "pollDivisionIds": [
          10138070
        ],
        "postalCode": "M9C4H1",
        "streetName": "SHEATH",
        "streetDirectionId": null,
        "streetTypeId": "RD",
        "placeName": "ETOBICOKE",
        "streetNameDisplayText": "SHEATH RD, ETOBICOKE"
      }
    ]
  },
  {
    "postal": "M9C7A2",
    "result": []
  },
  {
    "postal": "M9C5G0",
    "result": []
  },
  {
    "postal": "M9C8V5",
    "result": []
  },
  {
    "postal": "M9C2Y8",
    "result": [
      {
        "electoralDistricts": [
          {
            "election": null,
            "id": 28,
            "name": "Etobicoke Centre"
          }
        ],
        "pollDivisionIds": [
          10138066
        ],
        "postalCode": "M9C2Y8",
        "streetName": "BURNHAMTHORPE",
        "streetDirectionId": null,
        "streetTypeId": "RD",
        "placeName": "ETOBICOKE",
        "streetNameDisplayText": "BURNHAMTHORPE RD, ETOBICOKE"
      }
    ]
  },
  {
    "postal": "M9C2B6",
    "result": [
      {
        "electoralDistricts": [
          {
            "election": null,
            "id": 28,
            "name": "Etobicoke Centre"
          }
        ],
        "pollDivisionIds": [
          10138066
        ],
        "postalCode": "M9C2B6",
        "streetName": "ERIKSDALE",
        "streetDirectionId": null,
        "streetTypeId": "RD",
        "placeName": "ETOBICOKE",
        "streetNameDisplayText": "ERIKSDALE RD, ETOBICOKE"
      }
    ]
  },
  {
    "postal": "M9C4W8",
    "result": [
      {
        "electoralDistricts": [
          {
            "election": null,
            "id": 28,
            "name": "Etobicoke Centre"
          }
        ],
        "pollDivisionIds": [
          10138068
        ],
        "postalCode": "M9C4W8",
        "streetName": "CENTENNIAL PARK",
        "streetDirectionId": null,
        "streetTypeId": "RD",
        "placeName": "ETOBICOKE",
        "streetNameDisplayText": "CENTENNIAL PARK RD, ETOBICOKE"
      }
    ]
  },
  {
    "postal": "M9C8H7",
    "result": []
  },
  {
    "postal": "M9C5P1",
    "result": []
  },
  {
    "postal": "M9C2B8",
    "result": [
      {
        "electoralDistricts": [
          {
            "election": null,
            "id": 28,
            "name": "Etobicoke Centre"
          }
        ],
        "pollDivisionIds": [
          10138066
        ],
        "postalCode": "M9C2B8",
        "streetName": "ERIKSDALE",
        "streetDirectionId": null,
        "streetTypeId": "RD",
        "placeName": "ETOBICOKE",
        "streetNameDisplayText": "ERIKSDALE RD, ETOBICOKE"
      }
    ]
  },
  {
    "postal": "M9C0P2",
    "result": []
  },
  {
    "postal": "M9C9M1",
    "result": []
  },
  {
    "postal": "M9C3G0",
    "result": []
  },
  {
    "postal": "M9C9Z2",
    "result": []
  },
  {
    "postal": "M9C2A0",
    "result": []
  },
  {
    "postal": "M9C6Y0",
    "result": []
  },
  {
    "postal": "M9C2Z8",
    "result": [
      {
        "electoralDistricts": [
          {
            "election": null,
            "id": 28,
            "name": "Etobicoke Centre"
          }
        ],
        "pollDivisionIds": [
          10143747
        ],
        "postalCode": "M9C2Z8",
        "streetName": "GLOS",
        "streetDirectionId": null,
        "streetTypeId": "RD",
        "placeName": "ETOBICOKE",
        "streetNameDisplayText": "GLOS RD, ETOBICOKE"
      }
    ]
  },
  {
    "postal": "M9C7Y3",
    "result": []
  },
  {
    "postal": "M9C6Z5",
    "result": []
  },
  {
    "postal": "M9C6E0",
    "result": []
  },
  {
    "postal": "M9C9B7",
    "result": []
  },
  {
    "postal": "M9C9S5",
    "result": []
  },
  {
    "postal": "M9C3X3",
    "result": [
      {
        "electoralDistricts": [
          {
            "election": null,
            "id": 28,
            "name": "Etobicoke Centre"
          }
        ],
        "pollDivisionIds": [
          10138070
        ],
        "postalCode": "M9C3X3",
        "streetName": "SUMMERFIELD",
        "streetDirectionId": null,
        "streetTypeId": "CRES",
        "placeName": "ETOBICOKE",
        "streetNameDisplayText": "SUMMERFIELD CRES, ETOBICOKE"
      }
    ]
  },
  {
    "postal": "M9C7R5",
    "result": []
  },
  {
    "postal": "M9C2X3",
    "result": [
      {
        "electoralDistricts": [
          {
            "election": null,
            "id": 28,
            "name": "Etobicoke Centre"
          }
        ],
        "pollDivisionIds": [
          10138067
        ],
        "postalCode": "M9C2X3",
        "streetName": "SILVERTHORNE BUSH",
        "streetDirectionId": null,
        "streetTypeId": "DR",
        "placeName": "ETOBICOKE",
        "streetNameDisplayText": "SILVERTHORNE BUSH DR, ETOBICOKE"
      }
    ]
  },
  {
    "postal": "M9C8Z9",
    "result": []
  },
  {
    "postal": "M9C0N4",
    "result": []
  },
  {
    "postal": "M9C1K1",
    "result": [
      {
        "electoralDistricts": [
          {
            "election": null,
            "id": 28,
            "name": "Etobicoke Centre"
          }
        ],
        "pollDivisionIds": [
          10138063
        ],
        "postalCode": "M9C1K1",
        "streetName": "AVERY",
        "streetDirectionId": null,
        "streetTypeId": "AVE",
        "placeName": "ETOBICOKE",
        "streetNameDisplayText": "AVERY AVE, ETOBICOKE"
      }
    ]
  },
  {
    "postal": "M9C1S3",
    "result": [
      {
        "electoralDistricts": [
          {
            "election": null,
            "id": 28,
            "name": "Etobicoke Centre"
          }
        ],
        "pollDivisionIds": [
          10138063
        ],
        "postalCode": "M9C1S3",
        "streetName": "MARKLAND",
        "streetDirectionId": null,
        "streetTypeId": "DR",
        "placeName": "ETOBICOKE",
        "streetNameDisplayText": "MARKLAND DR, ETOBICOKE"
      }
    ]
  },
  {
    "postal": "M9C6M4",
    "result": []
  },
  {
    "postal": "M9C9A9",
    "result": []
  },
  {
    "postal": "M9C9Z9",
    "result": []
  },
  {
    "postal": "M9C6T4",
    "result": []
  },
  {
    "postal": "M9C0B2",
    "result": []
  },
  {
    "postal": "M9C2L9",
    "result": [
      {
        "electoralDistricts": [
          {
            "election": null,
            "id": 28,
            "name": "Etobicoke Centre"
          }
        ],
        "pollDivisionIds": [
          10143747
        ],
        "postalCode": "M9C2L9",
        "streetName": "RENFORTH",
        "streetDirectionId": null,
        "streetTypeId": "DR",
        "placeName": "ETOBICOKE",
        "streetNameDisplayText": "RENFORTH DR, ETOBICOKE"
      }
    ]
  },
  {
    "postal": "M9C8K9",
    "result": []
  },
  {
    "postal": "M9C2H9",
    "result": [
      {
        "electoralDistricts": [
          {
            "election": null,
            "id": 28,
            "name": "Etobicoke Centre"
          }
        ],
        "pollDivisionIds": [
          10138067
        ],
        "postalCode": "M9C2H9",
        "streetName": "TOLEDO",
        "streetDirectionId": null,
        "streetTypeId": "RD",
        "placeName": "ETOBICOKE",
        "streetNameDisplayText": "TOLEDO RD, ETOBICOKE"
      }
    ]
  },
  {
    "postal": "M9C3Z6",
    "result": [
      {
        "electoralDistricts": [
          {
            "election": null,
            "id": 28,
            "name": "Etobicoke Centre"
          }
        ],
        "pollDivisionIds": [
          10138069
        ],
        "postalCode": "M9C3Z6",
        "streetName": "ERINGATE",
        "streetDirectionId": null,
        "streetTypeId": "DR",
        "placeName": "ETOBICOKE",
        "streetNameDisplayText": "ERINGATE DR, ETOBICOKE"
      }
    ]
  },
  {
    "postal": "M9C3B0",
    "result": []
  },
  {
    "postal": "M9C2H8",
    "result": [
      {
        "electoralDistricts": [
          {
            "election": null,
            "id": 28,
            "name": "Etobicoke Centre"
          }
        ],
        "pollDivisionIds": [
          10138067
        ],
        "postalCode": "M9C2H8",
        "streetName": "TOLEDO",
        "streetDirectionId": null,
        "streetTypeId": "RD",
        "placeName": "ETOBICOKE",
        "streetNameDisplayText": "TOLEDO RD, ETOBICOKE"
      }
    ]
  },
  {
    "postal": "M9C3X2",
    "result": [
      {
        "electoralDistricts": [
          {
            "election": null,
            "id": 28,
            "name": "Etobicoke Centre"
          }
        ],
        "pollDivisionIds": [
          10138070
        ],
        "postalCode": "M9C3X2",
        "streetName": "SUMMERFIELD",
        "streetDirectionId": null,
        "streetTypeId": "CRES",
        "placeName": "ETOBICOKE",
        "streetNameDisplayText": "SUMMERFIELD CRES, ETOBICOKE"
      }
    ]
  },
  {
    "postal": "M9C2E9",
    "result": [
      {
        "electoralDistricts": [
          {
            "election": null,
            "id": 28,
            "name": "Etobicoke Centre"
          }
        ],
        "pollDivisionIds": [
          10138066
        ],
        "postalCode": "M9C2E9",
        "streetName": "BOREAL",
        "streetDirectionId": null,
        "streetTypeId": "RD",
        "placeName": "ETOBICOKE",
        "streetNameDisplayText": "BOREAL RD, ETOBICOKE"
      }
    ]
  },
  {
    "postal": "M9C9P6",
    "result": []
  },
  {
    "postal": "M9C9E2",
    "result": []
  },
  {
    "postal": "M9C9H2",
    "result": []
  },
  {
    "postal": "M9C1S8",
    "result": [
      {
        "electoralDistricts": [
          {
            "election": null,
            "id": 28,
            "name": "Etobicoke Centre"
          }
        ],
        "pollDivisionIds": [
          10138063
        ],
        "postalCode": "M9C1S8",
        "streetName": "RAYSIDE",
        "streetDirectionId": null,
        "streetTypeId": "DR",
        "placeName": "ETOBICOKE",
        "streetNameDisplayText": "RAYSIDE DR, ETOBICOKE"
      }
    ]
  },
  {
    "postal": "M9C3M6",
    "result": [
      {
        "electoralDistricts": [
          {
            "election": null,
            "id": 28,
            "name": "Etobicoke Centre"
          }
        ],
        "pollDivisionIds": [
          10143747
        ],
        "postalCode": "M9C3M6",
        "streetName": "HERNSHAW",
        "streetDirectionId": null,
        "streetTypeId": "CRES",
        "placeName": "ETOBICOKE",
        "streetNameDisplayText": "HERNSHAW CRES, ETOBICOKE"
      }
    ]
  },
  {
    "postal": "M9C6Z8",
    "result": []
  },
  {
    "postal": "M9C4J2",
    "result": [
      {
        "electoralDistricts": [
          {
            "election": null,
            "id": 28,
            "name": "Etobicoke Centre"
          }
        ],
        "pollDivisionIds": [
          10138070
        ],
        "postalCode": "M9C4J2",
        "streetName": "DIXFIELD",
        "streetDirectionId": null,
        "streetTypeId": "DR",
        "placeName": "ETOBICOKE",
        "streetNameDisplayText": "DIXFIELD DR, ETOBICOKE"
      }
    ]
  },
  {
    "postal": "M9C9Y1",
    "result": []
  },
  {
    "postal": "M9C8V6",
    "result": []
  },
  {
    "postal": "M9C6B2",
    "result": []
  },
  {
    "postal": "M9C1P8",
    "result": [
      {
        "electoralDistricts": [
          {
            "election": null,
            "id": 28,
            "name": "Etobicoke Centre"
          }
        ],
        "pollDivisionIds": [
          10138067
        ],
        "postalCode": "M9C1P8",
        "streetName": "MARKLAND",
        "streetDirectionId": null,
        "streetTypeId": "DR",
        "placeName": "ETOBICOKE",
        "streetNameDisplayText": "MARKLAND DR, ETOBICOKE"
      }
    ]
  },
  {
    "postal": "M9C0V8",
    "result": []
  },
  {
    "postal": "M9C4Y0",
    "result": []
  },
  {
    "postal": "M9C2T4",
    "result": [
      {
        "electoralDistricts": [
          {
            "election": null,
            "id": 28,
            "name": "Etobicoke Centre"
          }
        ],
        "pollDivisionIds": [
          10138066
        ],
        "postalCode": "M9C2T4",
        "streetName": "THICKET",
        "streetDirectionId": null,
        "streetTypeId": "RD",
        "placeName": "ETOBICOKE",
        "streetNameDisplayText": "THICKET RD, ETOBICOKE"
      }
    ]
  },
  {
    "postal": "M9C2S3",
    "result": [
      {
        "electoralDistricts": [
          {
            "election": null,
            "id": 28,
            "name": "Etobicoke Centre"
          }
        ],
        "pollDivisionIds": [
          10138066
        ],
        "postalCode": "M9C2S3",
        "streetName": "MOORESHEAD",
        "streetDirectionId": null,
        "streetTypeId": "DR",
        "placeName": "ETOBICOKE",
        "streetNameDisplayText": "MOORESHEAD DR, ETOBICOKE"
      }
    ]
  },
  {
    "postal": "M9C0K0",
    "result": []
  },
  {
    "postal": "M9C5N1",
    "result": []
  },
  {
    "postal": "M9C7T0",
    "result": []
  },
  {
    "postal": "M9C9N2",
    "result": []
  },
  {
    "postal": "M9C5L1",
    "result": []
  },
  {
    "postal": "M9C7G5",
    "result": []
  },
  {
    "postal": "M9C6K2",
    "result": []
  },
  {
    "postal": "M9C6P9",
    "result": []
  },
  {
    "postal": "M9C0E6",
    "result": []
  },
  {
    "postal": "M9C8R9",
    "result": []
  },
  {
    "postal": "M9C3G9",
    "result": [
      {
        "electoralDistricts": [
          {
            "election": null,
            "id": 28,
            "name": "Etobicoke Centre"
          }
        ],
        "pollDivisionIds": [
          10143747
        ],
        "postalCode": "M9C3G9",
        "streetName": "CRENDON",
        "streetDirectionId": null,
        "streetTypeId": "DR",
        "placeName": "ETOBICOKE",
        "streetNameDisplayText": "CRENDON DR, ETOBICOKE"
      }
    ]
  },
  {
    "postal": "M9C0V7",
    "result": []
  },
  {
    "postal": "M9C2Z1",
    "result": [
      {
        "electoralDistricts": [
          {
            "election": null,
            "id": 28,
            "name": "Etobicoke Centre"
          }
        ],
        "pollDivisionIds": [
          10138068
        ],
        "postalCode": "M9C2Z1",
        "streetName": "BURNHAMTHORPE",
        "streetDirectionId": null,
        "streetTypeId": "RD",
        "placeName": "ETOBICOKE",
        "streetNameDisplayText": "BURNHAMTHORPE RD, ETOBICOKE"
      }
    ]
  },
  {
    "postal": "M9C7N1",
    "result": []
  },
  {
    "postal": "M9C3C6",
    "result": [
      {
        "electoralDistricts": [
          {
            "election": null,
            "id": 28,
            "name": "Etobicoke Centre"
          }
        ],
        "pollDivisionIds": [
          10138068
        ],
        "postalCode": "M9C3C6",
        "streetName": "CARSBROOKE",
        "streetDirectionId": null,
        "streetTypeId": "RD",
        "placeName": "ETOBICOKE",
        "streetNameDisplayText": "CARSBROOKE RD, ETOBICOKE"
      }
    ]
  },
  {
    "postal": "M9C4M1",
    "result": [
      {
        "electoralDistricts": [
          {
            "election": null,
            "id": 28,
            "name": "Etobicoke Centre"
          }
        ],
        "pollDivisionIds": [
          10138069
        ],
        "postalCode": "M9C4M1",
        "streetName": "INVERDON",
        "streetDirectionId": null,
        "streetTypeId": "RD",
        "placeName": "ETOBICOKE",
        "streetNameDisplayText": "INVERDON RD, ETOBICOKE"
      }
    ]
  },
  {
    "postal": "M9C9K2",
    "result": []
  },
  {
    "postal": "M9C9S6",
    "result": []
  },
  {
    "postal": "M9C4X1",
    "result": [
      {
        "electoralDistricts": [
          {
            "election": null,
            "id": 28,
            "name": "Etobicoke Centre"
          }
        ],
        "pollDivisionIds": [
          10138099
        ],
        "postalCode": "M9C4X1",
        "streetName": "THE WEST MALL",
        "streetDirectionId": null,
        "streetTypeId": "MALL",
        "placeName": "ETOBICOKE",
        "streetNameDisplayText": "THE WEST MALL MALL, ETOBICOKE"
      }
    ]
  },
  {
    "postal": "M9C8W2",
    "result": []
  },
  {
    "postal": "M9C7N2",
    "result": []
  },
  {
    "postal": "M9C8S3",
    "result": []
  },
  {
    "postal": "M9C4V0",
    "result": []
  },
  {
    "postal": "M9C6W4",
    "result": []
  },
  {
    "postal": "M9C5M1",
    "result": [
      {
        "electoralDistricts": [
          {
            "election": null,
            "id": 28,
            "name": "Etobicoke Centre"
          }
        ],
        "pollDivisionIds": [
          10138068
        ],
        "postalCode": "M9C5M1",
        "streetName": "EGLINTON",
        "streetDirectionId": "W",
        "streetTypeId": "AVE",
        "placeName": "ETOBICOKE",
        "streetNameDisplayText": "EGLINTON AVE W, ETOBICOKE"
      }
    ]
  },
  {
    "postal": "M9C0S4",
    "result": []
  },
  {
    "postal": "M9C5X6",
    "result": []
  },
  {
    "postal": "M9C8L5",
    "result": []
  },
  {
    "postal": "M9C5M8",
    "result": []
  },
  {
    "postal": "M9C2G3",
    "result": [
      {
        "electoralDistricts": [
          {
            "election": null,
            "id": 28,
            "name": "Etobicoke Centre"
          }
        ],
        "pollDivisionIds": [
          10138066
        ],
        "postalCode": "M9C2G3",
        "streetName": "COSWAY",
        "streetDirectionId": null,
        "streetTypeId": "CRT",
        "placeName": "ETOBICOKE",
        "streetNameDisplayText": "COSWAY CRT, ETOBICOKE"
      }
    ]
  },
  {
    "postal": "M9C8E4",
    "result": []
  },
  {
    "postal": "M9C7S9",
    "result": []
  },
  {
    "postal": "M9C1K3",
    "result": [
      {
        "electoralDistricts": [
          {
            "election": null,
            "id": 28,
            "name": "Etobicoke Centre"
          }
        ],
        "pollDivisionIds": [
          10138063
        ],
        "postalCode": "M9C1K3",
        "streetName": "NEILOR",
        "streetDirectionId": null,
        "streetTypeId": "CRES",
        "placeName": "ETOBICOKE",
        "streetNameDisplayText": "NEILOR CRES, ETOBICOKE"
      }
    ]
  },
  {
    "postal": "M9C4E1",
    "result": [
      {
        "electoralDistricts": [
          {
            "election": null,
            "id": 28,
            "name": "Etobicoke Centre"
          }
        ],
        "pollDivisionIds": [
          10138070
        ],
        "postalCode": "M9C4E1",
        "streetName": "CLUMBER",
        "streetDirectionId": null,
        "streetTypeId": "RD",
        "placeName": "ETOBICOKE",
        "streetNameDisplayText": "CLUMBER RD, ETOBICOKE"
      }
    ]
  },
  {
    "postal": "M9C4R2",
    "result": [
      {
        "electoralDistricts": [
          {
            "election": null,
            "id": 28,
            "name": "Etobicoke Centre"
          }
        ],
        "pollDivisionIds": [
          10138069
        ],
        "postalCode": "M9C4R2",
        "streetName": "WELLESWORTH",
        "streetDirectionId": null,
        "streetTypeId": "DR",
        "placeName": "ETOBICOKE",
        "streetNameDisplayText": "WELLESWORTH DR, ETOBICOKE"
      }
    ]
  },
  {
    "postal": "M9C6T0",
    "result": []
  },
  {
    "postal": "M9C3K5",
    "result": [
      {
        "electoralDistricts": [
          {
            "election": null,
            "id": 28,
            "name": "Etobicoke Centre"
          }
        ],
        "pollDivisionIds": [
          10138068
        ],
        "postalCode": "M9C3K5",
        "streetName": "LAVER",
        "streetDirectionId": null,
        "streetTypeId": "RD",
        "placeName": "ETOBICOKE",
        "streetNameDisplayText": "LAVER RD, ETOBICOKE"
      }
    ]
  },
  {
    "postal": "M9C3S3",
    "result": [
      {
        "electoralDistricts": [
          {
            "election": null,
            "id": 28,
            "name": "Etobicoke Centre"
          }
        ],
        "pollDivisionIds": [
          10138068
        ],
        "postalCode": "M9C3S3",
        "streetName": "BURNHAMILL",
        "streetDirectionId": null,
        "streetTypeId": "PL",
        "placeName": "ETOBICOKE",
        "streetNameDisplayText": "BURNHAMILL PL, ETOBICOKE"
      }
    ]
  },
  {
    "postal": "M9C3L4",
    "result": [
      {
        "electoralDistricts": [
          {
            "election": null,
            "id": 28,
            "name": "Etobicoke Centre"
          }
        ],
        "pollDivisionIds": [
          10143747
        ],
        "postalCode": "M9C3L4",
        "streetName": "CAMBRIAN",
        "streetDirectionId": null,
        "streetTypeId": "RD",
        "placeName": "ETOBICOKE",
        "streetNameDisplayText": "CAMBRIAN RD, ETOBICOKE"
      }
    ]
  },
  {
    "postal": "M9C9Y2",
    "result": []
  },
  {
    "postal": "M9C1E0",
    "result": []
  },
  {
    "postal": "M9C9A4",
    "result": []
  },
  {
    "postal": "M9C1L3",
    "result": [
      {
        "electoralDistricts": [
          {
            "election": null,
            "id": 28,
            "name": "Etobicoke Centre"
          }
        ],
        "pollDivisionIds": [
          10138063
        ],
        "postalCode": "M9C1L3",
        "streetName": "MOUNTAIN ASH",
        "streetDirectionId": null,
        "streetTypeId": "CRT",
        "placeName": "ETOBICOKE",
        "streetNameDisplayText": "MOUNTAIN ASH CRT, ETOBICOKE"
      }
    ]
  },
  {
    "postal": "M9C6N1",
    "result": []
  },
  {
    "postal": "M9C6G7",
    "result": []
  },
  {
    "postal": "M9C7W1",
    "result": []
  },
  {
    "postal": "M9C4M6",
    "result": [
      {
        "electoralDistricts": [
          {
            "election": null,
            "id": 28,
            "name": "Etobicoke Centre"
          }
        ],
        "pollDivisionIds": [
          10138069
        ],
        "postalCode": "M9C4M6",
        "streetName": "HOLLISTER",
        "streetDirectionId": null,
        "streetTypeId": "RD",
        "placeName": "ETOBICOKE",
        "streetNameDisplayText": "HOLLISTER RD, ETOBICOKE"
      }
    ]
  },
  {
    "postal": "M9C1K0",
    "result": []
  },
  {
    "postal": "M9C3E2",
    "result": [
      {
        "electoralDistricts": [
          {
            "election": null,
            "id": 28,
            "name": "Etobicoke Centre"
          }
        ],
        "pollDivisionIds": [
          10143747
        ],
        "postalCode": "M9C3E2",
        "streetName": "ENDWOOD",
        "streetDirectionId": null,
        "streetTypeId": "RD",
        "placeName": "ETOBICOKE",
        "streetNameDisplayText": "ENDWOOD RD, ETOBICOKE"
      }
    ]
  },
  {
    "postal": "M9C5H4",
    "result": [
      {
        "electoralDistricts": [
          {
            "election": null,
            "id": 28,
            "name": "Etobicoke Centre"
          }
        ],
        "pollDivisionIds": [
          10138069
        ],
        "postalCode": "M9C5H4",
        "streetName": "ELMBROOK",
        "streetDirectionId": null,
        "streetTypeId": "CRES",
        "placeName": "ETOBICOKE",
        "streetNameDisplayText": "ELMBROOK CRES, ETOBICOKE"
      }
    ]
  },
  {
    "postal": "M9C1K7",
    "result": [
      {
        "electoralDistricts": [
          {
            "election": null,
            "id": 28,
            "name": "Etobicoke Centre"
          }
        ],
        "pollDivisionIds": [
          10138063
        ],
        "postalCode": "M9C1K7",
        "streetName": "TREELINE",
        "streetDirectionId": null,
        "streetTypeId": "CRT",
        "placeName": "ETOBICOKE",
        "streetNameDisplayText": "TREELINE CRT, ETOBICOKE"
      }
    ]
  },
  {
    "postal": "M9C0H0",
    "result": []
  },
  {
    "postal": "M9C0J3",
    "result": []
  },
  {
    "postal": "M9C1X6",
    "result": [
      {
        "electoralDistricts": [
          {
            "election": null,
            "id": 28,
            "name": "Etobicoke Centre"
          }
        ],
        "pollDivisionIds": [
          10138063
        ],
        "postalCode": "M9C1X6",
        "streetName": "MILL",
        "streetDirectionId": null,
        "streetTypeId": "RD",
        "placeName": "ETOBICOKE",
        "streetNameDisplayText": "MILL RD, ETOBICOKE"
      }
    ]
  },
  {
    "postal": "M9C2Z6",
    "result": [
      {
        "electoralDistricts": [
          {
            "election": null,
            "id": 28,
            "name": "Etobicoke Centre"
          }
        ],
        "pollDivisionIds": [
          10138068
        ],
        "postalCode": "M9C2Z6",
        "streetName": "BURNHAMTHORPE",
        "streetDirectionId": null,
        "streetTypeId": "RD",
        "placeName": "ETOBICOKE",
        "streetNameDisplayText": "BURNHAMTHORPE RD, ETOBICOKE"
      }
    ]
  },
  {
    "postal": "M9C4R9",
    "result": [
      {
        "electoralDistricts": [
          {
            "election": null,
            "id": 28,
            "name": "Etobicoke Centre"
          }
        ],
        "pollDivisionIds": [
          10138069
        ],
        "postalCode": "M9C4R9",
        "streetName": "WELLESWORTH",
        "streetDirectionId": null,
        "streetTypeId": "DR",
        "placeName": "ETOBICOKE",
        "streetNameDisplayText": "WELLESWORTH DR, ETOBICOKE"
      }
    ]
  },
  {
    "postal": "M9C0W8",
    "result": []
  },
  {
    "postal": "M9C1L4",
    "result": [
      {
        "electoralDistricts": [
          {
            "election": null,
            "id": 28,
            "name": "Etobicoke Centre"
          }
        ],
        "pollDivisionIds": [
          10138063
        ],
        "postalCode": "M9C1L4",
        "streetName": "BROADFIELD",
        "streetDirectionId": null,
        "streetTypeId": "DR",
        "placeName": "ETOBICOKE",
        "streetNameDisplayText": "BROADFIELD DR, ETOBICOKE"
      }
    ]
  },
  {
    "postal": "M9C0C8",
    "result": []
  },
  {
    "postal": "M9C9X7",
    "result": []
  },
  {
    "postal": "M9C4T1",
    "result": [
      {
        "electoralDistricts": [
          {
            "election": null,
            "id": 28,
            "name": "Etobicoke Centre"
          }
        ],
        "pollDivisionIds": [
          10138069
        ],
        "postalCode": "M9C4T1",
        "streetName": "HARTLAND",
        "streetDirectionId": null,
        "streetTypeId": "RD",
        "placeName": "ETOBICOKE",
        "streetNameDisplayText": "HARTLAND RD, ETOBICOKE"
      }
    ]
  },
  {
    "postal": "M9C0M0",
    "result": []
  },
  {
    "postal": "M9C6A2",
    "result": []
  },
  {
    "postal": "M9C9S8",
    "result": []
  },
  {
    "postal": "M9C9T4",
    "result": []
  },
  {
    "postal": "M9C9Y4",
    "result": []
  },
  {
    "postal": "M9C6G5",
    "result": []
  },
  {
    "postal": "M9C6H9",
    "result": []
  },
  {
    "postal": "M9C2P3",
    "result": [
      {
        "electoralDistricts": [
          {
            "election": null,
            "id": 28,
            "name": "Etobicoke Centre"
          }
        ],
        "pollDivisionIds": [
          10138066
        ],
        "postalCode": "M9C2P3",
        "streetName": "BRIDGETOWN",
        "streetDirectionId": null,
        "streetTypeId": "DR",
        "placeName": "ETOBICOKE",
        "streetNameDisplayText": "BRIDGETOWN DR, ETOBICOKE"
      }
    ]
  },
  {
    "postal": "M9C1T6",
    "result": [
      {
        "electoralDistricts": [
          {
            "election": null,
            "id": 28,
            "name": "Etobicoke Centre"
          }
        ],
        "pollDivisionIds": [
          10138063
        ],
        "postalCode": "M9C1T6",
        "streetName": "BASKERVILLE",
        "streetDirectionId": null,
        "streetTypeId": "CRES",
        "placeName": "ETOBICOKE",
        "streetNameDisplayText": "BASKERVILLE CRES, ETOBICOKE"
      }
    ]
  },
  {
    "postal": "M9C4P6",
    "result": [
      {
        "electoralDistricts": [
          {
            "election": null,
            "id": 28,
            "name": "Etobicoke Centre"
          }
        ],
        "pollDivisionIds": [
          10138069
        ],
        "postalCode": "M9C4P6",
        "streetName": "WELLESWORTH",
        "streetDirectionId": null,
        "streetTypeId": "DR",
        "placeName": "ETOBICOKE",
        "streetNameDisplayText": "WELLESWORTH DR, ETOBICOKE"
      }
    ]
  },
  {
    "postal": "M9C3K1",
    "result": [
      {
        "electoralDistricts": [
          {
            "election": null,
            "id": 28,
            "name": "Etobicoke Centre"
          }
        ],
        "pollDivisionIds": [
          10138068
        ],
        "postalCode": "M9C3K1",
        "streetName": "REDTHORN",
        "streetDirectionId": null,
        "streetTypeId": "CRT",
        "placeName": "ETOBICOKE",
        "streetNameDisplayText": "REDTHORN CRT, ETOBICOKE"
      }
    ]
  },
  {
    "postal": "M9C6X4",
    "result": []
  },
  {
    "postal": "M9C4M8",
    "result": [
      {
        "electoralDistricts": [
          {
            "election": null,
            "id": 28,
            "name": "Etobicoke Centre"
          }
        ],
        "pollDivisionIds": [
          10138069
        ],
        "postalCode": "M9C4M8",
        "streetName": "HOLLISTER",
        "streetDirectionId": null,
        "streetTypeId": "RD",
        "placeName": "ETOBICOKE",
        "streetNameDisplayText": "HOLLISTER RD, ETOBICOKE"
      }
    ]
  },
  {
    "postal": "M9C2Y1",
    "result": []
  },
  {
    "postal": "M9C6M1",
    "result": []
  },
  {
    "postal": "M9C5L8",
    "result": []
  },
  {
    "postal": "M9C3P6",
    "result": [
      {
        "electoralDistricts": [
          {
            "election": null,
            "id": 28,
            "name": "Etobicoke Centre"
          }
        ],
        "pollDivisionIds": [
          10138068
        ],
        "postalCode": "M9C3P6",
        "streetName": "MELBERT",
        "streetDirectionId": null,
        "streetTypeId": "RD",
        "placeName": "ETOBICOKE",
        "streetNameDisplayText": "MELBERT RD, ETOBICOKE"
      }
    ]
  },
  {
    "postal": "M9C9A5",
    "result": []
  },
  {
    "postal": "M9C7K1",
    "result": []
  },
  {
    "postal": "M9C3J4",
    "result": [
      {
        "electoralDistricts": [
          {
            "election": null,
            "id": 28,
            "name": "Etobicoke Centre"
          }
        ],
        "pollDivisionIds": [
          10138068
        ],
        "postalCode": "M9C3J4",
        "streetName": "OLD BURNHAMTHORPE",
        "streetDirectionId": null,
        "streetTypeId": "RD",
        "placeName": "ETOBICOKE",
        "streetNameDisplayText": "OLD BURNHAMTHORPE RD, ETOBICOKE"
      }
    ]
  },
  {
    "postal": "M9C5E7",
    "result": [
      {
        "electoralDistricts": [
          {
            "election": null,
            "id": 28,
            "name": "Etobicoke Centre"
          }
        ],
        "pollDivisionIds": [
          10138069
        ],
        "postalCode": "M9C5E7",
        "streetName": "MILLSBOROUGH",
        "streetDirectionId": null,
        "streetTypeId": "CRES",
        "placeName": "ETOBICOKE",
        "streetNameDisplayText": "MILLSBOROUGH CRES, ETOBICOKE"
      }
    ]
  },
  {
    "postal": "M9C3A7",
    "result": [
      {
        "electoralDistricts": [
          {
            "election": null,
            "id": 28,
            "name": "Etobicoke Centre"
          }
        ],
        "pollDivisionIds": [
          10143747
        ],
        "postalCode": "M9C3A7",
        "streetName": "GUERNSEY",
        "streetDirectionId": null,
        "streetTypeId": "DR",
        "placeName": "ETOBICOKE",
        "streetNameDisplayText": "GUERNSEY DR, ETOBICOKE"
      }
    ]
  },
  {
    "postal": "M9C1B9",
    "result": [
      {
        "electoralDistricts": [
          {
            "election": null,
            "id": 29,
            "name": "Etobicoke—Lakeshore"
          }
        ],
        "pollDivisionIds": [
          10138160
        ],
        "postalCode": "M9C1B9",
        "streetName": "THE WEST MALL",
        "streetDirectionId": null,
        "streetTypeId": "MALL",
        "placeName": "ETOBICOKE",
        "streetNameDisplayText": "THE WEST MALL MALL, ETOBICOKE"
      }
    ]
  },
  {
    "postal": "M9C9E8",
    "result": []
  },
  {
    "postal": "M9C1C9",
    "result": [
      {
        "electoralDistricts": [
          {
            "election": null,
            "id": 28,
            "name": "Etobicoke Centre"
          }
        ],
        "pollDivisionIds": [
          10138063
        ],
        "postalCode": "M9C1C9",
        "streetName": "THE WEST MALL",
        "streetDirectionId": null,
        "streetTypeId": "MALL",
        "placeName": "ETOBICOKE",
        "streetNameDisplayText": "THE WEST MALL MALL, ETOBICOKE"
      }
    ]
  },
  {
    "postal": "M9C3B5",
    "result": [
      {
        "electoralDistricts": [
          {
            "election": null,
            "id": 28,
            "name": "Etobicoke Centre"
          }
        ],
        "pollDivisionIds": [
          10143747
        ],
        "postalCode": "M9C3B5",
        "streetName": "WARESIDE",
        "streetDirectionId": null,
        "streetTypeId": "RD",
        "placeName": "ETOBICOKE",
        "streetNameDisplayText": "WARESIDE RD, ETOBICOKE"
      }
    ]
  },
  {
    "postal": "M9C8R0",
    "result": []
  },
  {
    "postal": "M9C3P2",
    "result": [
      {
        "electoralDistricts": [
          {
            "election": null,
            "id": 28,
            "name": "Etobicoke Centre"
          }
        ],
        "pollDivisionIds": [
          10138068
        ],
        "postalCode": "M9C3P2",
        "streetName": "INDIANOLA",
        "streetDirectionId": null,
        "streetTypeId": "DR",
        "placeName": "ETOBICOKE",
        "streetNameDisplayText": "INDIANOLA DR, ETOBICOKE"
      }
    ]
  },
  {
    "postal": "M9C5V4",
    "result": []
  },
  {
    "postal": "M9C4H0",
    "result": []
  },
  {
    "postal": "M9C4S7",
    "result": [
      {
        "electoralDistricts": [
          {
            "election": null,
            "id": 28,
            "name": "Etobicoke Centre"
          }
        ],
        "pollDivisionIds": [
          10138070
        ],
        "postalCode": "M9C4S7",
        "streetName": "WELLESWORTH",
        "streetDirectionId": null,
        "streetTypeId": "DR",
        "placeName": "ETOBICOKE",
        "streetNameDisplayText": "WELLESWORTH DR, ETOBICOKE"
      }
    ]
  },
  {
    "postal": "M9C6C2",
    "result": []
  },
  {
    "postal": "M9C8W3",
    "result": []
  },
  {
    "postal": "M9C4M5",
    "result": [
      {
        "electoralDistricts": [
          {
            "election": null,
            "id": 28,
            "name": "Etobicoke Centre"
          }
        ],
        "pollDivisionIds": [
          10138069
        ],
        "postalCode": "M9C4M5",
        "streetName": "SANCTBURY",
        "streetDirectionId": null,
        "streetTypeId": "PL",
        "placeName": "ETOBICOKE",
        "streetNameDisplayText": "SANCTBURY PL, ETOBICOKE"
      }
    ]
  },
  {
    "postal": "M9C5T1",
    "result": []
  },
  {
    "postal": "M9C3B3",
    "result": [
      {
        "electoralDistricts": [
          {
            "election": null,
            "id": 28,
            "name": "Etobicoke Centre"
          }
        ],
        "pollDivisionIds": [
          10143747
        ],
        "postalCode": "M9C3B3",
        "streetName": "WARESIDE",
        "streetDirectionId": null,
        "streetTypeId": "RD",
        "placeName": "ETOBICOKE",
        "streetNameDisplayText": "WARESIDE RD, ETOBICOKE"
      }
    ]
  },
  {
    "postal": "M9C6C6",
    "result": []
  },
  {
    "postal": "M9C7N8",
    "result": []
  },
  {
    "postal": "M9C2Y3",
    "result": [
      {
        "electoralDistricts": [
          {
            "election": null,
            "id": 28,
            "name": "Etobicoke Centre"
          }
        ],
        "pollDivisionIds": [
          10143747
        ],
        "postalCode": "M9C2Y3",
        "streetName": "BURNHAMTHORPE",
        "streetDirectionId": null,
        "streetTypeId": "RD",
        "placeName": "ETOBICOKE",
        "streetNameDisplayText": "BURNHAMTHORPE RD, ETOBICOKE"
      }
    ]
  },
  {
    "postal": "M9C2R6",
    "result": [
      {
        "electoralDistricts": [
          {
            "election": null,
            "id": 28,
            "name": "Etobicoke Centre"
          }
        ],
        "pollDivisionIds": [
          10138066
        ],
        "postalCode": "M9C2R6",
        "streetName": "MULGROVE",
        "streetDirectionId": null,
        "streetTypeId": "DR",
        "placeName": "ETOBICOKE",
        "streetNameDisplayText": "MULGROVE DR, ETOBICOKE"
      }
    ]
  },
  {
    "postal": "M9C7N3",
    "result": []
  },
  {
    "postal": "M9C8J2",
    "result": []
  },
  {
    "postal": "M9C6A9",
    "result": []
  },
  {
    "postal": "M9C3V2",
    "result": [
      {
        "electoralDistricts": [
          {
            "election": null,
            "id": 28,
            "name": "Etobicoke Centre"
          }
        ],
        "pollDivisionIds": [
          10138070
        ],
        "postalCode": "M9C3V2",
        "streetName": "RYMER",
        "streetDirectionId": null,
        "streetTypeId": "RD",
        "placeName": "ETOBICOKE",
        "streetNameDisplayText": "RYMER RD, ETOBICOKE"
      }
    ]
  },
  {
    "postal": "M9C2N3",
    "result": [
      {
        "electoralDistricts": [
          {
            "election": null,
            "id": 28,
            "name": "Etobicoke Centre"
          }
        ],
        "pollDivisionIds": [
          10138068
        ],
        "postalCode": "M9C2N3",
        "streetName": "RENFORTH",
        "streetDirectionId": null,
        "streetTypeId": "DR",
        "placeName": "ETOBICOKE",
        "streetNameDisplayText": "RENFORTH DR, ETOBICOKE"
      }
    ]
  },
  {
    "postal": "M9C1S5",
    "result": [
      {
        "electoralDistricts": [
          {
            "election": null,
            "id": 28,
            "name": "Etobicoke Centre"
          }
        ],
        "pollDivisionIds": [
          10138063
        ],
        "postalCode": "M9C1S5",
        "streetName": "MARKLAND",
        "streetDirectionId": null,
        "streetTypeId": "DR",
        "placeName": "ETOBICOKE",
        "streetNameDisplayText": "MARKLAND DR, ETOBICOKE"
      }
    ]
  },
  {
    "postal": "M9C4T7",
    "result": [
      {
        "electoralDistricts": [
          {
            "election": null,
            "id": 28,
            "name": "Etobicoke Centre"
          }
        ],
        "pollDivisionIds": [
          10138069
        ],
        "postalCode": "M9C4T7",
        "streetName": "ASHFIELD",
        "streetDirectionId": null,
        "streetTypeId": "DR",
        "placeName": "ETOBICOKE",
        "streetNameDisplayText": "ASHFIELD DR, ETOBICOKE"
      }
    ]
  },
  {
    "postal": "M9C6Y7",
    "result": []
  },
  {
    "postal": "M9C0W7",
    "result": []
  },
  {
    "postal": "M9C2W9",
    "result": [
      {
        "electoralDistricts": [
          {
            "election": null,
            "id": 28,
            "name": "Etobicoke Centre"
          }
        ],
        "pollDivisionIds": [
          10138067
        ],
        "postalCode": "M9C2W9",
        "streetName": "WINSDALE",
        "streetDirectionId": null,
        "streetTypeId": "RD",
        "placeName": "ETOBICOKE",
        "streetNameDisplayText": "WINSDALE RD, ETOBICOKE"
      }
    ]
  },
  {
    "postal": "M9C8V0",
    "result": []
  },
  {
    "postal": "M9C0H4",
    "result": []
  },
  {
    "postal": "M9C2T1",
    "result": [
      {
        "electoralDistricts": [
          {
            "election": null,
            "id": 28,
            "name": "Etobicoke Centre"
          }
        ],
        "pollDivisionIds": [
          10138066
        ],
        "postalCode": "M9C2T1",
        "streetName": "ARBROATH",
        "streetDirectionId": null,
        "streetTypeId": "CRES",
        "placeName": "ETOBICOKE",
        "streetNameDisplayText": "ARBROATH CRES, ETOBICOKE"
      }
    ]
  },
  {
    "postal": "M9C1B1",
    "result": [
      {
        "electoralDistricts": [
          {
            "election": null,
            "id": 29,
            "name": "Etobicoke—Lakeshore"
          }
        ],
        "pollDivisionIds": [
          10138160
        ],
        "postalCode": "M9C1B1",
        "streetName": "MANSTOR",
        "streetDirectionId": null,
        "streetTypeId": "RD",
        "placeName": "ETOBICOKE",
        "streetNameDisplayText": "MANSTOR RD, ETOBICOKE"
      }
    ]
  },
  {
    "postal": "M9C8B6",
    "result": []
  },
  {
    "postal": "M9C6H1",
    "result": []
  },
  {
    "postal": "M9C8T8",
    "result": []
  },
  {
    "postal": "M9C0T4",
    "result": []
  },
  {
    "postal": "M9C2C4",
    "result": [
      {
        "electoralDistricts": [
          {
            "election": null,
            "id": 28,
            "name": "Etobicoke Centre"
          }
        ],
        "pollDivisionIds": [
          10138066
        ],
        "postalCode": "M9C2C4",
        "streetName": "SEALCOVE",
        "streetDirectionId": null,
        "streetTypeId": "DR",
        "placeName": "ETOBICOKE",
        "streetNameDisplayText": "SEALCOVE DR, ETOBICOKE"
      }
    ]
  },
  {
    "postal": "M9C8N3",
    "result": []
  },
  {
    "postal": "M9C4L8",
    "result": [
      {
        "electoralDistricts": [
          {
            "election": null,
            "id": 28,
            "name": "Etobicoke Centre"
          }
        ],
        "pollDivisionIds": [
          10138069
        ],
        "postalCode": "M9C4L8",
        "streetName": "INVERDON",
        "streetDirectionId": null,
        "streetTypeId": "RD",
        "placeName": "ETOBICOKE",
        "streetNameDisplayText": "INVERDON RD, ETOBICOKE"
      }
    ]
  },
  {
    "postal": "M9C2B5",
    "result": [
      {
        "electoralDistricts": [
          {
            "election": null,
            "id": 28,
            "name": "Etobicoke Centre"
          }
        ],
        "pollDivisionIds": [
          10138066
        ],
        "postalCode": "M9C2B5",
        "streetName": "ERIKSDALE",
        "streetDirectionId": null,
        "streetTypeId": "RD",
        "placeName": "ETOBICOKE",
        "streetNameDisplayText": "ERIKSDALE RD, ETOBICOKE"
      }
    ]
  },
  {
    "postal": "M9C3H1",
    "result": [
      {
        "electoralDistricts": [
          {
            "election": null,
            "id": 28,
            "name": "Etobicoke Centre"
          }
        ],
        "pollDivisionIds": [
          10143747
        ],
        "postalCode": "M9C3H1",
        "streetName": "CRENDON",
        "streetDirectionId": null,
        "streetTypeId": "DR",
        "placeName": "ETOBICOKE",
        "streetNameDisplayText": "CRENDON DR, ETOBICOKE"
      }
    ]
  },
  {
    "postal": "M9C4Y1",
    "result": [
      {
        "electoralDistricts": [
          {
            "election": null,
            "id": 29,
            "name": "Etobicoke—Lakeshore"
          }
        ],
        "pollDivisionIds": [
          10138160
        ],
        "postalCode": "M9C4Y1",
        "streetName": "NORTH QUEEN",
        "streetDirectionId": null,
        "streetTypeId": "ST",
        "placeName": "ETOBICOKE",
        "streetNameDisplayText": "NORTH QUEEN ST, ETOBICOKE"
      }
    ]
  },
  {
    "postal": "M9C7E2",
    "result": []
  },
  {
    "postal": "M9C2P5",
    "result": [
      {
        "electoralDistricts": [
          {
            "election": null,
            "id": 28,
            "name": "Etobicoke Centre"
          }
        ],
        "pollDivisionIds": [
          10138066
        ],
        "postalCode": "M9C2P5",
        "streetName": "BRIDGETOWN",
        "streetDirectionId": null,
        "streetTypeId": "DR",
        "placeName": "ETOBICOKE",
        "streetNameDisplayText": "BRIDGETOWN DR, ETOBICOKE"
      }
    ]
  },
  {
    "postal": "M9C8R7",
    "result": []
  },
  {
    "postal": "M9C9P1",
    "result": []
  },
  {
    "postal": "M9C3B8",
    "result": [
      {
        "electoralDistricts": [
          {
            "election": null,
            "id": 28,
            "name": "Etobicoke Centre"
          }
        ],
        "pollDivisionIds": [
          10143747
        ],
        "postalCode": "M9C3B8",
        "streetName": "WARESIDE",
        "streetDirectionId": null,
        "streetTypeId": "RD",
        "placeName": "ETOBICOKE",
        "streetNameDisplayText": "WARESIDE RD, ETOBICOKE"
      }
    ]
  },
  {
    "postal": "M9C3P7",
    "result": [
      {
        "electoralDistricts": [
          {
            "election": null,
            "id": 28,
            "name": "Etobicoke Centre"
          }
        ],
        "pollDivisionIds": [
          10138068
        ],
        "postalCode": "M9C3P7",
        "streetName": "MELBERT",
        "streetDirectionId": null,
        "streetTypeId": "RD",
        "placeName": "ETOBICOKE",
        "streetNameDisplayText": "MELBERT RD, ETOBICOKE"
      }
    ]
  },
  {
    "postal": "M9C9B2",
    "result": []
  },
  {
    "postal": "M9C6Z3",
    "result": []
  },
  {
    "postal": "M9C4N5",
    "result": [
      {
        "electoralDistricts": [
          {
            "election": null,
            "id": 28,
            "name": "Etobicoke Centre"
          }
        ],
        "pollDivisionIds": [
          10138069
        ],
        "postalCode": "M9C4N5",
        "streetName": "RANGOON",
        "streetDirectionId": null,
        "streetTypeId": "RD",
        "placeName": "ETOBICOKE",
        "streetNameDisplayText": "RANGOON RD, ETOBICOKE"
      }
    ]
  },
  {
    "postal": "M9C8T3",
    "result": []
  },
  {
    "postal": "M9C1V2",
    "result": [
      {
        "electoralDistricts": [
          {
            "election": null,
            "id": 28,
            "name": "Etobicoke Centre"
          }
        ],
        "pollDivisionIds": [
          10138063
        ],
        "postalCode": "M9C1V2",
        "streetName": "STEVENHARRIS",
        "streetDirectionId": null,
        "streetTypeId": "DR",
        "placeName": "ETOBICOKE",
        "streetNameDisplayText": "STEVENHARRIS DR, ETOBICOKE"
      }
    ]
  },
  {
    "postal": "M9C1Y0",
    "result": []
  },
  {
    "postal": "M9C3G6",
    "result": [
      {
        "electoralDistricts": [
          {
            "election": null,
            "id": 28,
            "name": "Etobicoke Centre"
          }
        ],
        "pollDivisionIds": [
          10143747
        ],
        "postalCode": "M9C3G6",
        "streetName": "CRENDON",
        "streetDirectionId": null,
        "streetTypeId": "DR",
        "placeName": "ETOBICOKE",
        "streetNameDisplayText": "CRENDON DR, ETOBICOKE"
      }
    ]
  },
  {
    "postal": "M9C3H7",
    "result": [
      {
        "electoralDistricts": [
          {
            "election": null,
            "id": 28,
            "name": "Etobicoke Centre"
          }
        ],
        "pollDivisionIds": [
          10138068
        ],
        "postalCode": "M9C3H7",
        "streetName": "CRENDON",
        "streetDirectionId": null,
        "streetTypeId": "DR",
        "placeName": "ETOBICOKE",
        "streetNameDisplayText": "CRENDON DR, ETOBICOKE"
      }
    ]
  },
  {
    "postal": "M9C7X8",
    "result": []
  },
  {
    "postal": "M9C0C7",
    "result": []
  },
  {
    "postal": "M9C0W9",
    "result": []
  },
  {
    "postal": "M9C8E6",
    "result": []
  },
  {
    "postal": "M9C9Z8",
    "result": []
  },
  {
    "postal": "M9C3P4",
    "result": [
      {
        "electoralDistricts": [
          {
            "election": null,
            "id": 28,
            "name": "Etobicoke Centre"
          }
        ],
        "pollDivisionIds": [
          10138068
        ],
        "postalCode": "M9C3P4",
        "streetName": "TRIBURNHAM",
        "streetDirectionId": null,
        "streetTypeId": "PL",
        "placeName": "ETOBICOKE",
        "streetNameDisplayText": "TRIBURNHAM PL, ETOBICOKE"
      }
    ]
  },
  {
    "postal": "M9C6L8",
    "result": []
  },
  {
    "postal": "M9C2R4",
    "result": [
      {
        "electoralDistricts": [
          {
            "election": null,
            "id": 28,
            "name": "Etobicoke Centre"
          }
        ],
        "pollDivisionIds": [
          10138066
        ],
        "postalCode": "M9C2R4",
        "streetName": "MULGROVE",
        "streetDirectionId": null,
        "streetTypeId": "DR",
        "placeName": "ETOBICOKE",
        "streetNameDisplayText": "MULGROVE DR, ETOBICOKE"
      }
    ]
  },
  {
    "postal": "M9C2W1",
    "result": [
      {
        "electoralDistricts": [
          {
            "election": null,
            "id": 28,
            "name": "Etobicoke Centre"
          }
        ],
        "pollDivisionIds": [
          10138067
        ],
        "postalCode": "M9C2W1",
        "streetName": "BOXBURY",
        "streetDirectionId": null,
        "streetTypeId": "RD",
        "placeName": "ETOBICOKE",
        "streetNameDisplayText": "BOXBURY RD, ETOBICOKE"
      }
    ]
  },
  {
    "postal": "M9C9H8",
    "result": []
  },
  {
    "postal": "M9C8X9",
    "result": []
  },
  {
    "postal": "M9C7H4",
    "result": []
  },
  {
    "postal": "M9C3J1",
    "result": [
      {
        "electoralDistricts": [
          {
            "election": null,
            "id": 28,
            "name": "Etobicoke Centre"
          }
        ],
        "pollDivisionIds": [
          10138068
        ],
        "postalCode": "M9C3J1",
        "streetName": "WEST WARESIDE",
        "streetDirectionId": null,
        "streetTypeId": "RD",
        "placeName": "ETOBICOKE",
        "streetNameDisplayText": "WEST WARESIDE RD, ETOBICOKE"
      }
    ]
  },
  {
    "postal": "M9C1P4",
    "result": [
      {
        "electoralDistricts": [
          {
            "election": null,
            "id": 28,
            "name": "Etobicoke Centre"
          }
        ],
        "pollDivisionIds": [
          10138067
        ],
        "postalCode": "M9C1P4",
        "streetName": "MARKLAND",
        "streetDirectionId": null,
        "streetTypeId": "DR",
        "placeName": "ETOBICOKE",
        "streetNameDisplayText": "MARKLAND DR, ETOBICOKE"
      }
    ]
  },
  {
    "postal": "M9C2A3",
    "result": [
      {
        "electoralDistricts": [
          {
            "election": null,
            "id": 28,
            "name": "Etobicoke Centre"
          }
        ],
        "pollDivisionIds": [
          10138067
        ],
        "postalCode": "M9C2A3",
        "streetName": "BLOOR",
        "streetDirectionId": "W",
        "streetTypeId": "ST",
        "placeName": "ETOBICOKE",
        "streetNameDisplayText": "BLOOR ST W, ETOBICOKE"
      }
    ]
  },
  {
    "postal": "M9C0Z1",
    "result": []
  },
  {
    "postal": "M9C1C1",
    "result": [
      {
        "electoralDistricts": [
          {
            "election": null,
            "id": 29,
            "name": "Etobicoke—Lakeshore"
          }
        ],
        "pollDivisionIds": [
          10138160
        ],
        "postalCode": "M9C1C1",
        "streetName": "THE WEST MALL",
        "streetDirectionId": null,
        "streetTypeId": "MALL",
        "placeName": "ETOBICOKE",
        "streetNameDisplayText": "THE WEST MALL MALL, ETOBICOKE"
      }
    ]
  },
  {
    "postal": "M9C0H3",
    "result": []
  },
  {
    "postal": "M9C7B0",
    "result": []
  },
  {
    "postal": "M9C5K2",
    "result": []
  },
  {
    "postal": "M9C1E9",
    "result": [
      {
        "electoralDistricts": [
          {
            "election": null,
            "id": 28,
            "name": "Etobicoke Centre"
          }
        ],
        "pollDivisionIds": [
          10143747
        ],
        "postalCode": "M9C1E9",
        "streetName": "THE WEST MALL",
        "streetDirectionId": null,
        "streetTypeId": "MALL",
        "placeName": "ETOBICOKE",
        "streetNameDisplayText": "THE WEST MALL MALL, ETOBICOKE"
      },
      {
        "electoralDistricts": [
          {
            "election": null,
            "id": 28,
            "name": "Etobicoke Centre"
          }
        ],
        "pollDivisionIds": [
          10143747
        ],
        "postalCode": "M9C1E9",
        "streetName": "THE WEST MALL",
        "streetDirectionId": null,
        "streetTypeId": null,
        "placeName": "ETOBICOKE",
        "streetNameDisplayText": "THE WEST MALL, ETOBICOKE"
      }
    ]
  },
  {
    "postal": "M9C9W7",
    "result": []
  },
  {
    "postal": "M9C5W6",
    "result": []
  },
  {
    "postal": "M9C6S6",
    "result": []
  },
  {
    "postal": "M9C2P8",
    "result": [
      {
        "electoralDistricts": [
          {
            "election": null,
            "id": 28,
            "name": "Etobicoke Centre"
          }
        ],
        "pollDivisionIds": [
          10138066
        ],
        "postalCode": "M9C2P8",
        "streetName": "ROSSBURN",
        "streetDirectionId": null,
        "streetTypeId": "DR",
        "placeName": "ETOBICOKE",
        "streetNameDisplayText": "ROSSBURN DR, ETOBICOKE"
      }
    ]
  },
  {
    "postal": "M9C4P8",
    "result": [
      {
        "electoralDistricts": [
          {
            "election": null,
            "id": 28,
            "name": "Etobicoke Centre"
          }
        ],
        "pollDivisionIds": [
          10138069
        ],
        "postalCode": "M9C4P8",
        "streetName": "WELLESWORTH",
        "streetDirectionId": null,
        "streetTypeId": "DR",
        "placeName": "ETOBICOKE",
        "streetNameDisplayText": "WELLESWORTH DR, ETOBICOKE"
      }
    ]
  },
  {
    "postal": "M9C0V9",
    "result": []
  },
  {
    "postal": "M9C5Y2",
    "result": []
  },
  {
    "postal": "M9C7Z7",
    "result": []
  },
  {
    "postal": "M9C6Y8",
    "result": []
  },
  {
    "postal": "M9C2G7",
    "result": [
      {
        "electoralDistricts": [
          {
            "election": null,
            "id": 28,
            "name": "Etobicoke Centre"
          }
        ],
        "pollDivisionIds": [
          10138066
        ],
        "postalCode": "M9C2G7",
        "streetName": "CLEARSIDE",
        "streetDirectionId": null,
        "streetTypeId": "PL",
        "placeName": "ETOBICOKE",
        "streetNameDisplayText": "CLEARSIDE PL, ETOBICOKE"
      }
    ]
  },
  {
    "postal": "M9C8C1",
    "result": []
  },
  {
    "postal": "M9C5C5",
    "result": [
      {
        "electoralDistricts": [
          {
            "election": null,
            "id": 28,
            "name": "Etobicoke Centre"
          }
        ],
        "pollDivisionIds": [
          10138069
        ],
        "postalCode": "M9C5C5",
        "streetName": "BIGHAM",
        "streetDirectionId": null,
        "streetTypeId": "CRES",
        "placeName": "ETOBICOKE",
        "streetNameDisplayText": "BIGHAM CRES, ETOBICOKE"
      }
    ]
  },
  {
    "postal": "M9C2X8",
    "result": [
      {
        "electoralDistricts": [
          {
            "election": null,
            "id": 28,
            "name": "Etobicoke Centre"
          }
        ],
        "pollDivisionIds": [
          10138067
        ],
        "postalCode": "M9C2X8",
        "streetName": "SILVERTHORNE BUSH",
        "streetDirectionId": null,
        "streetTypeId": "DR",
        "placeName": "ETOBICOKE",
        "streetNameDisplayText": "SILVERTHORNE BUSH DR, ETOBICOKE"
      }
    ]
  },
  {
    "postal": "M9C1W5",
    "result": [
      {
        "electoralDistricts": [
          {
            "election": null,
            "id": 28,
            "name": "Etobicoke Centre"
          }
        ],
        "pollDivisionIds": [
          10138063
        ],
        "postalCode": "M9C1W5",
        "streetName": "KOOS",
        "streetDirectionId": null,
        "streetTypeId": "RD",
        "placeName": "ETOBICOKE",
        "streetNameDisplayText": "KOOS RD, ETOBICOKE"
      }
    ]
  },
  {
    "postal": "M9C7G0",
    "result": []
  },
  {
    "postal": "M9C8J8",
    "result": []
  },
  {
    "postal": "M9C3Y0",
    "result": []
  },
  {
    "postal": "M9C9T7",
    "result": []
  },
  {
    "postal": "M9C5P4",
    "result": []
  },
  {
    "postal": "M9C4B0",
    "result": []
  },
  {
    "postal": "M9C9N8",
    "result": []
  },
  {
    "postal": "M9C4A7",
    "result": [
      {
        "electoralDistricts": [
          {
            "election": null,
            "id": 28,
            "name": "Etobicoke Centre"
          }
        ],
        "pollDivisionIds": [
          10138069
        ],
        "postalCode": "M9C4A7",
        "streetName": "DANISH",
        "streetDirectionId": null,
        "streetTypeId": "CRES",
        "placeName": "ETOBICOKE",
        "streetNameDisplayText": "DANISH CRES, ETOBICOKE"
      }
    ]
  },
  {
    "postal": "M9C4H9",
    "result": [
      {
        "electoralDistricts": [
          {
            "election": null,
            "id": 28,
            "name": "Etobicoke Centre"
          }
        ],
        "pollDivisionIds": [
          10138070
        ],
        "postalCode": "M9C4H9",
        "streetName": "WESTRUM",
        "streetDirectionId": null,
        "streetTypeId": "RD",
        "placeName": "ETOBICOKE",
        "streetNameDisplayText": "WESTRUM RD, ETOBICOKE"
      }
    ]
  },
  {
    "postal": "M9C6X1",
    "result": []
  },
  {
    "postal": "M9C9Y7",
    "result": []
  },
  {
    "postal": "M9C2Y5",
    "result": [
      {
        "electoralDistricts": [
          {
            "election": null,
            "id": 28,
            "name": "Etobicoke Centre"
          }
        ],
        "pollDivisionIds": [
          10138066
        ],
        "postalCode": "M9C2Y5",
        "streetName": "BURNHAMTHORPE",
        "streetDirectionId": null,
        "streetTypeId": "RD",
        "placeName": "ETOBICOKE",
        "streetNameDisplayText": "BURNHAMTHORPE RD, ETOBICOKE"
      }
    ]
  },
  {
    "postal": "M9C8L7",
    "result": []
  },
  {
    "postal": "M9C2A8",
    "result": []
  },
  {
    "postal": "M9C2K9",
    "result": [
      {
        "electoralDistricts": [
          {
            "election": null,
            "id": 28,
            "name": "Etobicoke Centre"
          }
        ],
        "pollDivisionIds": [
          10138066
        ],
        "postalCode": "M9C2K9",
        "streetName": "RENFORTH",
        "streetDirectionId": null,
        "streetTypeId": "DR",
        "placeName": "ETOBICOKE",
        "streetNameDisplayText": "RENFORTH DR, ETOBICOKE"
      }
    ]
  },
  {
    "postal": "M9C3E5",
    "result": [
      {
        "electoralDistricts": [
          {
            "election": null,
            "id": 28,
            "name": "Etobicoke Centre"
          }
        ],
        "pollDivisionIds": [
          10138068
        ],
        "postalCode": "M9C3E5",
        "streetName": "EMBERS",
        "streetDirectionId": null,
        "streetTypeId": "DR",
        "placeName": "ETOBICOKE",
        "streetNameDisplayText": "EMBERS DR, ETOBICOKE"
      }
    ]
  },
  {
    "postal": "M9C8N6",
    "result": []
  },
  {
    "postal": "M9C8J4",
    "result": []
  },
  {
    "postal": "M9C4R7",
    "result": [
      {
        "electoralDistricts": [
          {
            "election": null,
            "id": 28,
            "name": "Etobicoke Centre"
          }
        ],
        "pollDivisionIds": [
          10138069
        ],
        "postalCode": "M9C4R7",
        "streetName": "WELLESWORTH",
        "streetDirectionId": null,
        "streetTypeId": "DR",
        "placeName": "ETOBICOKE",
        "streetNameDisplayText": "WELLESWORTH DR, ETOBICOKE"
      }
    ]
  },
  {
    "postal": "M9C9K1",
    "result": []
  },
  {
    "postal": "M9C8E1",
    "result": []
  },
  {
    "postal": "M9C0R1",
    "result": []
  },
  {
    "postal": "M9C4J3",
    "result": [
      {
        "electoralDistricts": [
          {
            "election": null,
            "id": 28,
            "name": "Etobicoke Centre"
          }
        ],
        "pollDivisionIds": [
          10138070
        ],
        "postalCode": "M9C4J3",
        "streetName": "DIXFIELD",
        "streetDirectionId": null,
        "streetTypeId": "DR",
        "placeName": "ETOBICOKE",
        "streetNameDisplayText": "DIXFIELD DR, ETOBICOKE"
      }
    ]
  },
  {
    "postal": "M9C7E7",
    "result": []
  },
  {
    "postal": "M9C0J0",
    "result": []
  },
  {
    "postal": "M9C7R8",
    "result": []
  },
  {
    "postal": "M9C9X0",
    "result": []
  },
  {
    "postal": "M9C7P6",
    "result": []
  },
  {
    "postal": "M9C0R7",
    "result": []
  },
  {
    "postal": "M9C5W1",
    "result": []
  },
  {
    "postal": "M9C0K4",
    "result": []
  },
  {
    "postal": "M9C7N9",
    "result": []
  },
  {
    "postal": "M9C1N0",
    "result": []
  },
  {
    "postal": "M9C6P3",
    "result": []
  },
  {
    "postal": "M9C5A1",
    "result": []
  },
  {
    "postal": "M9C9M9",
    "result": []
  },
  {
    "postal": "M9C7T6",
    "result": []
  },
  {
    "postal": "M9C3X0",
    "result": []
  },
  {
    "postal": "M9C2T0",
    "result": []
  },
  {
    "postal": "M9C5X9",
    "result": []
  },
  {
    "postal": "M9C2R3",
    "result": [
      {
        "electoralDistricts": [
          {
            "election": null,
            "id": 28,
            "name": "Etobicoke Centre"
          }
        ],
        "pollDivisionIds": [
          10138066
        ],
        "postalCode": "M9C2R3",
        "streetName": "MULGROVE",
        "streetDirectionId": null,
        "streetTypeId": "DR",
        "placeName": "ETOBICOKE",
        "streetNameDisplayText": "MULGROVE DR, ETOBICOKE"
      }
    ]
  },
  {
    "postal": "M9C5N2",
    "result": [
      {
        "electoralDistricts": [
          {
            "election": null,
            "id": 29,
            "name": "Etobicoke—Lakeshore"
          }
        ],
        "pollDivisionIds": [
          10138160
        ],
        "postalCode": "M9C5N2",
        "streetName": "SHERWAY",
        "streetDirectionId": null,
        "streetTypeId": "DR",
        "placeName": "ETOBICOKE",
        "streetNameDisplayText": "SHERWAY DR, ETOBICOKE"
      }
    ]
  },
  {
    "postal": "M9C4Y7",
    "result": [
      {
        "electoralDistricts": [
          {
            "election": null,
            "id": 28,
            "name": "Etobicoke Centre"
          }
        ],
        "pollDivisionIds": [
          10138068
        ],
        "postalCode": "M9C4Y7",
        "streetName": "STONEHAM",
        "streetDirectionId": null,
        "streetTypeId": "RD",
        "placeName": "ETOBICOKE",
        "streetNameDisplayText": "STONEHAM RD, ETOBICOKE"
      }
    ]
  },
  {
    "postal": "M9C7M0",
    "result": []
  },
  {
    "postal": "M9C8P3",
    "result": []
  },
  {
    "postal": "M9C3N3",
    "result": [
      {
        "electoralDistricts": [
          {
            "election": null,
            "id": 28,
            "name": "Etobicoke Centre"
          }
        ],
        "pollDivisionIds": [
          10138068
        ],
        "postalCode": "M9C3N3",
        "streetName": "WINDUST",
        "streetDirectionId": null,
        "streetTypeId": "GATE",
        "placeName": "ETOBICOKE",
        "streetNameDisplayText": "WINDUST GATE, ETOBICOKE"
      }
    ]
  },
  {
    "postal": "M9C7S3",
    "result": []
  },
  {
    "postal": "M9C3V9",
    "result": [
      {
        "electoralDistricts": [
          {
            "election": null,
            "id": 28,
            "name": "Etobicoke Centre"
          }
        ],
        "pollDivisionIds": [
          10143747
        ],
        "postalCode": "M9C3V9",
        "streetName": "TORRINGTON",
        "streetDirectionId": null,
        "streetTypeId": "DR",
        "placeName": "ETOBICOKE",
        "streetNameDisplayText": "TORRINGTON DR, ETOBICOKE"
      }
    ]
  },
  {
    "postal": "M9C9N7",
    "result": []
  },
  {
    "postal": "M9C0G4",
    "result": []
  },
  {
    "postal": "M9C2E2",
    "result": [
      {
        "electoralDistricts": [
          {
            "election": null,
            "id": 28,
            "name": "Etobicoke Centre"
          }
        ],
        "pollDivisionIds": [
          10138066
        ],
        "postalCode": "M9C2E2",
        "streetName": "REXTON",
        "streetDirectionId": null,
        "streetTypeId": "RD",
        "placeName": "ETOBICOKE",
        "streetNameDisplayText": "REXTON RD, ETOBICOKE"
      }
    ]
  },
  {
    "postal": "M9C7W8",
    "result": []
  },
  {
    "postal": "M9C7M5",
    "result": []
  },
  {
    "postal": "M9C5W8",
    "result": []
  },
  {
    "postal": "M9C5E5",
    "result": [
      {
        "electoralDistricts": [
          {
            "election": null,
            "id": 28,
            "name": "Etobicoke Centre"
          }
        ],
        "pollDivisionIds": [
          10138069
        ],
        "postalCode": "M9C5E5",
        "streetName": "HELLENSFIELD",
        "streetDirectionId": null,
        "streetTypeId": "CRES",
        "placeName": "ETOBICOKE",
        "streetNameDisplayText": "HELLENSFIELD CRES, ETOBICOKE"
      }
    ]
  },
  {
    "postal": "M9C1P9",
    "result": [
      {
        "electoralDistricts": [
          {
            "election": null,
            "id": 28,
            "name": "Etobicoke Centre"
          }
        ],
        "pollDivisionIds": [
          10138067
        ],
        "postalCode": "M9C1P9",
        "streetName": "MARKLAND",
        "streetDirectionId": null,
        "streetTypeId": "DR",
        "placeName": "ETOBICOKE",
        "streetNameDisplayText": "MARKLAND DR, ETOBICOKE"
      }
    ]
  },
  {
    "postal": "M9C8V8",
    "result": []
  },
  {
    "postal": "M9C9G8",
    "result": []
  },
  {
    "postal": "M9C8H9",
    "result": []
  },
  {
    "postal": "M9C1Z1",
    "result": [
      {
        "electoralDistricts": [
          {
            "election": null,
            "id": 28,
            "name": "Etobicoke Centre"
          }
        ],
        "pollDivisionIds": [
          10138097
        ],
        "postalCode": "M9C1Z1",
        "streetName": "MILL",
        "streetDirectionId": null,
        "streetTypeId": "RD",
        "placeName": "ETOBICOKE",
        "streetNameDisplayText": "MILL RD, ETOBICOKE"
      }
    ]
  },
  {
    "postal": "M9C8M3",
    "result": []
  },
  {
    "postal": "M9C5H6",
    "result": [
      {
        "electoralDistricts": [
          {
            "election": null,
            "id": 28,
            "name": "Etobicoke Centre"
          }
        ],
        "pollDivisionIds": [
          10138068
        ],
        "postalCode": "M9C5H6",
        "streetName": "ESPOSITO",
        "streetDirectionId": null,
        "streetTypeId": "CRT",
        "placeName": "ETOBICOKE",
        "streetNameDisplayText": "ESPOSITO CRT, ETOBICOKE"
      }
    ]
  },
  {
    "postal": "M9C7W7",
    "result": []
  },
  {
    "postal": "M9C4L0",
    "result": []
  },
  {
    "postal": "M9C2N1",
    "result": [
      {
        "electoralDistricts": [
          {
            "election": null,
            "id": 28,
            "name": "Etobicoke Centre"
          }
        ],
        "pollDivisionIds": [
          10138068
        ],
        "postalCode": "M9C2N1",
        "streetName": "RENFORTH",
        "streetDirectionId": null,
        "streetTypeId": "DR",
        "placeName": "ETOBICOKE",
        "streetNameDisplayText": "RENFORTH DR, ETOBICOKE"
      }
    ]
  },
  {
    "postal": "M9C2H4",
    "result": [
      {
        "electoralDistricts": [
          {
            "election": null,
            "id": 28,
            "name": "Etobicoke Centre"
          }
        ],
        "pollDivisionIds": [
          10138066
        ],
        "postalCode": "M9C2H4",
        "streetName": "TOLEDO",
        "streetDirectionId": null,
        "streetTypeId": "RD",
        "placeName": "ETOBICOKE",
        "streetNameDisplayText": "TOLEDO RD, ETOBICOKE"
      }
    ]
  },
  {
    "postal": "M9C5C8",
    "result": [
      {
        "electoralDistricts": [
          {
            "election": null,
            "id": 28,
            "name": "Etobicoke Centre"
          }
        ],
        "pollDivisionIds": [
          10138069
        ],
        "postalCode": "M9C5C8",
        "streetName": "ELMBROOK",
        "streetDirectionId": null,
        "streetTypeId": "CRES",
        "placeName": "ETOBICOKE",
        "streetNameDisplayText": "ELMBROOK CRES, ETOBICOKE"
      }
    ]
  },
  {
    "postal": "M9C8B0",
    "result": []
  },
  {
    "postal": "M9C1T4",
    "result": [
      {
        "electoralDistricts": [
          {
            "election": null,
            "id": 28,
            "name": "Etobicoke Centre"
          }
        ],
        "pollDivisionIds": [
          10138063
        ],
        "postalCode": "M9C1T4",
        "streetName": "LEAVENWORTH",
        "streetDirectionId": null,
        "streetTypeId": "CRES",
        "placeName": "ETOBICOKE",
        "streetNameDisplayText": "LEAVENWORTH CRES, ETOBICOKE"
      }
    ]
  },
  {
    "postal": "M9C7N7",
    "result": []
  },
  {
    "postal": "M9C4L3",
    "result": [
      {
        "electoralDistricts": [
          {
            "election": null,
            "id": 28,
            "name": "Etobicoke Centre"
          }
        ],
        "pollDivisionIds": [
          10138069
        ],
        "postalCode": "M9C4L3",
        "streetName": "INVERDON",
        "streetDirectionId": null,
        "streetTypeId": "RD",
        "placeName": "ETOBICOKE",
        "streetNameDisplayText": "INVERDON RD, ETOBICOKE"
      }
    ]
  },
  {
    "postal": "M9C2N2",
    "result": [
      {
        "electoralDistricts": [
          {
            "election": null,
            "id": 28,
            "name": "Etobicoke Centre"
          }
        ],
        "pollDivisionIds": [
          10138068
        ],
        "postalCode": "M9C2N2",
        "streetName": "RENFORTH",
        "streetDirectionId": null,
        "streetTypeId": "DR",
        "placeName": "ETOBICOKE",
        "streetNameDisplayText": "RENFORTH DR, ETOBICOKE"
      }
    ]
  },
  {
    "postal": "M9C4N8",
    "result": [
      {
        "electoralDistricts": [
          {
            "election": null,
            "id": 28,
            "name": "Etobicoke Centre"
          }
        ],
        "pollDivisionIds": [
          10138069
        ],
        "postalCode": "M9C4N8",
        "streetName": "RANGOON",
        "streetDirectionId": null,
        "streetTypeId": "RD",
        "placeName": "ETOBICOKE",
        "streetNameDisplayText": "RANGOON RD, ETOBICOKE"
      }
    ]
  },
  {
    "postal": "M9C3M5",
    "result": [
      {
        "electoralDistricts": [
          {
            "election": null,
            "id": 28,
            "name": "Etobicoke Centre"
          }
        ],
        "pollDivisionIds": [
          10143747
        ],
        "postalCode": "M9C3M5",
        "streetName": "HERNSHAW",
        "streetDirectionId": null,
        "streetTypeId": "CRES",
        "placeName": "ETOBICOKE",
        "streetNameDisplayText": "HERNSHAW CRES, ETOBICOKE"
      }
    ]
  },
  {
    "postal": "M9C6H7",
    "result": []
  },
  {
    "postal": "M9C8Y8",
    "result": []
  },
  {
    "postal": "M9C5R9",
    "result": [
      {
        "electoralDistricts": [
          {
            "election": null,
            "id": 28,
            "name": "Etobicoke Centre"
          }
        ],
        "pollDivisionIds": [
          10138068
        ],
        "postalCode": "M9C5R9",
        "streetName": "LONE OAK",
        "streetDirectionId": null,
        "streetTypeId": "CRT",
        "placeName": "ETOBICOKE",
        "streetNameDisplayText": "LONE OAK CRT, ETOBICOKE"
      }
    ]
  },
  {
    "postal": "M9C8G3",
    "result": []
  },
  {
    "postal": "M9C4N7",
    "result": [
      {
        "electoralDistricts": [
          {
            "election": null,
            "id": 28,
            "name": "Etobicoke Centre"
          }
        ],
        "pollDivisionIds": [
          10138069
        ],
        "postalCode": "M9C4N7",
        "streetName": "RANGOON",
        "streetDirectionId": null,
        "streetTypeId": "RD",
        "placeName": "ETOBICOKE",
        "streetNameDisplayText": "RANGOON RD, ETOBICOKE"
      }
    ]
  },
  {
    "postal": "M9C0B9",
    "result": []
  },
  {
    "postal": "M9C9K7",
    "result": []
  },
  {
    "postal": "M9C9K9",
    "result": []
  },
  {
    "postal": "M9C3Z2",
    "result": [
      {
        "electoralDistricts": [
          {
            "election": null,
            "id": 28,
            "name": "Etobicoke Centre"
          }
        ],
        "pollDivisionIds": [
          10138070
        ],
        "postalCode": "M9C3Z2",
        "streetName": "ERINGATE",
        "streetDirectionId": null,
        "streetTypeId": "DR",
        "placeName": "ETOBICOKE",
        "streetNameDisplayText": "ERINGATE DR, ETOBICOKE"
      }
    ]
  },
  {
    "postal": "M9C6W7",
    "result": []
  },
  {
    "postal": "M9C0P1",
    "result": []
  },
  {
    "postal": "M9C3A0",
    "result": []
  },
  {
    "postal": "M9C8L9",
    "result": []
  },
  {
    "postal": "M9C6X0",
    "result": []
  },
  {
    "postal": "M9C3E9",
    "result": [
      {
        "electoralDistricts": [
          {
            "election": null,
            "id": 28,
            "name": "Etobicoke Centre"
          }
        ],
        "pollDivisionIds": [
          10138068
        ],
        "postalCode": "M9C3E9",
        "streetName": "RENOVA",
        "streetDirectionId": null,
        "streetTypeId": "DR",
        "placeName": "ETOBICOKE",
        "streetNameDisplayText": "RENOVA DR, ETOBICOKE"
      }
    ]
  },
  {
    "postal": "M9C0S5",
    "result": []
  },
  {
    "postal": "M9C1A2",
    "result": [
      {
        "electoralDistricts": [
          {
            "election": null,
            "id": 29,
            "name": "Etobicoke—Lakeshore"
          }
        ],
        "pollDivisionIds": [
          10138170
        ],
        "postalCode": "M9C1A2",
        "streetName": "EVANS",
        "streetDirectionId": null,
        "streetTypeId": "AVE",
        "placeName": "ETOBICOKE",
        "streetNameDisplayText": "EVANS AVE, ETOBICOKE"
      }
    ]
  },
  {
    "postal": "M9C5V8",
    "result": []
  },
  {
    "postal": "M9C8C5",
    "result": []
  },
  {
    "postal": "M9C6N0",
    "result": []
  },
  {
    "postal": "M9C9E6",
    "result": []
  },
  {
    "postal": "M9C5J7",
    "result": []
  },
  {
    "postal": "M9C2R2",
    "result": [
      {
        "electoralDistricts": [
          {
            "election": null,
            "id": 28,
            "name": "Etobicoke Centre"
          }
        ],
        "pollDivisionIds": [
          10138066
        ],
        "postalCode": "M9C2R2",
        "streetName": "MULGROVE",
        "streetDirectionId": null,
        "streetTypeId": "DR",
        "placeName": "ETOBICOKE",
        "streetNameDisplayText": "MULGROVE DR, ETOBICOKE"
      }
    ]
  },
  {
    "postal": "M9C0P5",
    "result": []
  },
  {
    "postal": "M9C5A7",
    "result": []
  },
  {
    "postal": "M9C1G1",
    "result": [
      {
        "electoralDistricts": [
          {
            "election": null,
            "id": 28,
            "name": "Etobicoke Centre"
          }
        ],
        "pollDivisionIds": [
          10138106
        ],
        "postalCode": "M9C1G1",
        "streetName": "THE WEST MALL",
        "streetDirectionId": null,
        "streetTypeId": "MALL",
        "placeName": "ETOBICOKE",
        "streetNameDisplayText": "THE WEST MALL MALL, ETOBICOKE"
      },
      {
        "electoralDistricts": [
          {
            "election": null,
            "id": 28,
            "name": "Etobicoke Centre"
          }
        ],
        "pollDivisionIds": [
          10138063
        ],
        "postalCode": "M9C1G1",
        "streetName": "THE WEST MALL",
        "streetDirectionId": null,
        "streetTypeId": null,
        "placeName": "ETOBICOKE",
        "streetNameDisplayText": "THE WEST MALL, ETOBICOKE"
      }
    ]
  },
  {
    "postal": "M9C9R6",
    "result": []
  },
  {
    "postal": "M9C4Z9",
    "result": []
  },
  {
    "postal": "M9C1V5",
    "result": [
      {
        "electoralDistricts": [
          {
            "election": null,
            "id": 28,
            "name": "Etobicoke Centre"
          }
        ],
        "pollDivisionIds": [
          10138063
        ],
        "postalCode": "M9C1V5",
        "streetName": "NEILSON",
        "streetDirectionId": null,
        "streetTypeId": "DR",
        "placeName": "ETOBICOKE",
        "streetNameDisplayText": "NEILSON DR, ETOBICOKE"
      }
    ]
  },
  {
    "postal": "M9C9Y5",
    "result": []
  },
  {
    "postal": "M9C1P2",
    "result": [
      {
        "electoralDistricts": [
          {
            "election": null,
            "id": 28,
            "name": "Etobicoke Centre"
          }
        ],
        "pollDivisionIds": [
          10138067
        ],
        "postalCode": "M9C1P2",
        "streetName": "MARKLAND",
        "streetDirectionId": null,
        "streetTypeId": "DR",
        "placeName": "ETOBICOKE",
        "streetNameDisplayText": "MARKLAND DR, ETOBICOKE"
      }
    ]
  },
  {
    "postal": "M9C5X0",
    "result": []
  },
  {
    "postal": "M9C7B8",
    "result": []
  },
  {
    "postal": "M9C0C6",
    "result": []
  },
  {
    "postal": "M9C6G1",
    "result": []
  },
  {
    "postal": "M9C3K3",
    "result": [
      {
        "electoralDistricts": [
          {
            "election": null,
            "id": 28,
            "name": "Etobicoke Centre"
          }
        ],
        "pollDivisionIds": [
          10138068
        ],
        "postalCode": "M9C3K3",
        "streetName": "WARLINGHAM",
        "streetDirectionId": null,
        "streetTypeId": "CRT",
        "placeName": "ETOBICOKE",
        "streetNameDisplayText": "WARLINGHAM CRT, ETOBICOKE"
      }
    ]
  },
  {
    "postal": "M9C9R0",
    "result": []
  },
  {
    "postal": "M9C4R8",
    "result": [
      {
        "electoralDistricts": [
          {
            "election": null,
            "id": 28,
            "name": "Etobicoke Centre"
          }
        ],
        "pollDivisionIds": [
          10138069
        ],
        "postalCode": "M9C4R8",
        "streetName": "WELLESWORTH",
        "streetDirectionId": null,
        "streetTypeId": "DR",
        "placeName": "ETOBICOKE",
        "streetNameDisplayText": "WELLESWORTH DR, ETOBICOKE"
      }
    ]
  },
  {
    "postal": "M9C5P9",
    "result": []
  },
  {
    "postal": "M9C8N4",
    "result": []
  },
  {
    "postal": "M9C8H4",
    "result": []
  },
  {
    "postal": "M9C4V1",
    "result": []
  },
  {
    "postal": "M9C1K5",
    "result": [
      {
        "electoralDistricts": [
          {
            "election": null,
            "id": 28,
            "name": "Etobicoke Centre"
          }
        ],
        "pollDivisionIds": [
          10138063
        ],
        "postalCode": "M9C1K5",
        "streetName": "NEILOR",
        "streetDirectionId": null,
        "streetTypeId": "CRES",
        "placeName": "ETOBICOKE",
        "streetNameDisplayText": "NEILOR CRES, ETOBICOKE"
      }
    ]
  },
  {
    "postal": "M9C1Z5",
    "result": [
      {
        "electoralDistricts": [
          {
            "election": null,
            "id": 28,
            "name": "Etobicoke Centre"
          }
        ],
        "pollDivisionIds": [
          10138066
        ],
        "postalCode": "M9C1Z5",
        "streetName": "BLOOR",
        "streetDirectionId": "W",
        "streetTypeId": "ST",
        "placeName": "ETOBICOKE",
        "streetNameDisplayText": "BLOOR ST W, ETOBICOKE"
      }
    ]
  },
  {
    "postal": "M9C9L9",
    "result": []
  },
  {
    "postal": "M9C5L2",
    "result": [
      {
        "electoralDistricts": [
          {
            "election": null,
            "id": 29,
            "name": "Etobicoke—Lakeshore"
          }
        ],
        "pollDivisionIds": [
          10138160
        ],
        "postalCode": "M9C5L2",
        "streetName": "NORTH QUEEN",
        "streetDirectionId": null,
        "streetTypeId": "ST",
        "placeName": "ETOBICOKE",
        "streetNameDisplayText": "NORTH QUEEN ST, ETOBICOKE"
      }
    ]
  },
  {
    "postal": "M9C0M2",
    "result": []
  },
  {
    "postal": "M9C1K8",
    "result": [
      {
        "electoralDistricts": [
          {
            "election": null,
            "id": 28,
            "name": "Etobicoke Centre"
          }
        ],
        "pollDivisionIds": [
          10138063
        ],
        "postalCode": "M9C1K8",
        "streetName": "TREELINE",
        "streetDirectionId": null,
        "streetTypeId": "CRT",
        "placeName": "ETOBICOKE",
        "streetNameDisplayText": "TREELINE CRT, ETOBICOKE"
      }
    ]
  },
  {
    "postal": "M9C3M7",
    "result": [
      {
        "electoralDistricts": [
          {
            "election": null,
            "id": 28,
            "name": "Etobicoke Centre"
          }
        ],
        "pollDivisionIds": [
          10143747
        ],
        "postalCode": "M9C3M7",
        "streetName": "GROVERDALE",
        "streetDirectionId": null,
        "streetTypeId": "RD",
        "placeName": "ETOBICOKE",
        "streetNameDisplayText": "GROVERDALE RD, ETOBICOKE"
      }
    ]
  },
  {
    "postal": "M9C1B2",
    "result": [
      {
        "electoralDistricts": [
          {
            "election": null,
            "id": 29,
            "name": "Etobicoke—Lakeshore"
          }
        ],
        "pollDivisionIds": [
          10138160
        ],
        "postalCode": "M9C1B2",
        "streetName": "WESTSIDE",
        "streetDirectionId": null,
        "streetTypeId": "DR",
        "placeName": "ETOBICOKE",
        "streetNameDisplayText": "WESTSIDE DR, ETOBICOKE"
      }
    ]
  },
  {
    "postal": "M9C0H9",
    "result": []
  },
  {
    "postal": "M9C8M4",
    "result": []
  },
  {
    "postal": "M9C2M5",
    "result": [
      {
        "electoralDistricts": [
          {
            "election": null,
            "id": 28,
            "name": "Etobicoke Centre"
          }
        ],
        "pollDivisionIds": [
          10138068
        ],
        "postalCode": "M9C2M5",
        "streetName": "RENFORTH",
        "streetDirectionId": null,
        "streetTypeId": "DR",
        "placeName": "ETOBICOKE",
        "streetNameDisplayText": "RENFORTH DR, ETOBICOKE"
      }
    ]
  },
  {
    "postal": "M9C0T9",
    "result": []
  },
  {
    "postal": "M9C3P1",
    "result": [
      {
        "electoralDistricts": [
          {
            "election": null,
            "id": 28,
            "name": "Etobicoke Centre"
          }
        ],
        "pollDivisionIds": [
          10138068
        ],
        "postalCode": "M9C3P1",
        "streetName": "INDIANOLA",
        "streetDirectionId": null,
        "streetTypeId": "DR",
        "placeName": "ETOBICOKE",
        "streetNameDisplayText": "INDIANOLA DR, ETOBICOKE"
      }
    ]
  },
  {
    "postal": "M9C1R6",
    "result": [
      {
        "electoralDistricts": [
          {
            "election": null,
            "id": 28,
            "name": "Etobicoke Centre"
          }
        ],
        "pollDivisionIds": [
          10138089
        ],
        "postalCode": "M9C1R6",
        "streetName": "MARKLAND",
        "streetDirectionId": null,
        "streetTypeId": "DR",
        "placeName": "ETOBICOKE",
        "streetNameDisplayText": "MARKLAND DR, ETOBICOKE"
      }
    ]
  },
  {
    "postal": "M9C9V5",
    "result": []
  },
  {
    "postal": "M9C9T0",
    "result": []
  },
  {
    "postal": "M9C0A9",
    "result": [
      {
        "electoralDistricts": [
          {
            "election": null,
            "id": 28,
            "name": "Etobicoke Centre"
          }
        ],
        "pollDivisionIds": [
          10138066
        ],
        "postalCode": "M9C0A9",
        "streetName": "EVA",
        "streetDirectionId": null,
        "streetTypeId": "RD",
        "placeName": "ETOBICOKE",
        "streetNameDisplayText": "EVA RD, ETOBICOKE"
      }
    ]
  },
  {
    "postal": "M9C1M3",
    "result": [
      {
        "electoralDistricts": [
          {
            "election": null,
            "id": 28,
            "name": "Etobicoke Centre"
          }
        ],
        "pollDivisionIds": [
          10138063
        ],
        "postalCode": "M9C1M3",
        "streetName": "SUNPLAINS",
        "streetDirectionId": null,
        "streetTypeId": "CRES",
        "placeName": "ETOBICOKE",
        "streetNameDisplayText": "SUNPLAINS CRES, ETOBICOKE"
      }
    ]
  },
  {
    "postal": "M9C1W8",
    "result": [
      {
        "electoralDistricts": [
          {
            "election": null,
            "id": 28,
            "name": "Etobicoke Centre"
          }
        ],
        "pollDivisionIds": [
          10138063
        ],
        "postalCode": "M9C1W8",
        "streetName": "FOREST VIEW",
        "streetDirectionId": null,
        "streetTypeId": "RD",
        "placeName": "ETOBICOKE",
        "streetNameDisplayText": "FOREST VIEW RD, ETOBICOKE"
      }
    ]
  },
  {
    "postal": "M9C9J1",
    "result": []
  },
  {
    "postal": "M9C8N5",
    "result": []
  },
  {
    "postal": "M9C5X1",
    "result": []
  },
  {
    "postal": "M9C6S2",
    "result": []
  },
  {
    "postal": "M9C2A2",
    "result": [
      {
        "electoralDistricts": [
          {
            "election": null,
            "id": 28,
            "name": "Etobicoke Centre"
          }
        ],
        "pollDivisionIds": [
          10138063
        ],
        "postalCode": "M9C2A2",
        "streetName": "BLOOR",
        "streetDirectionId": "W",
        "streetTypeId": "ST",
        "placeName": "ETOBICOKE",
        "streetNameDisplayText": "BLOOR ST W, ETOBICOKE"
      }
    ]
  },
  {
    "postal": "M9C6A6",
    "result": []
  },
  {
    "postal": "M9C0S3",
    "result": []
  },
  {
    "postal": "M9C3E7",
    "result": [
      {
        "electoralDistricts": [
          {
            "election": null,
            "id": 28,
            "name": "Etobicoke Centre"
          }
        ],
        "pollDivisionIds": [
          10138068
        ],
        "postalCode": "M9C3E7",
        "streetName": "EMBERS",
        "streetDirectionId": null,
        "streetTypeId": "DR",
        "placeName": "ETOBICOKE",
        "streetNameDisplayText": "EMBERS DR, ETOBICOKE"
      }
    ]
  },
  {
    "postal": "M9C5R7",
    "result": [
      {
        "electoralDistricts": [
          {
            "election": null,
            "id": 28,
            "name": "Etobicoke Centre"
          }
        ],
        "pollDivisionIds": [
          10138096
        ],
        "postalCode": "M9C5R7",
        "streetName": "MILL",
        "streetDirectionId": null,
        "streetTypeId": "RD",
        "placeName": "ETOBICOKE",
        "streetNameDisplayText": "MILL RD, ETOBICOKE"
      }
    ]
  },
  {
    "postal": "M9C3R6",
    "result": [
      {
        "electoralDistricts": [
          {
            "election": null,
            "id": 28,
            "name": "Etobicoke Centre"
          }
        ],
        "pollDivisionIds": [
          10138068
        ],
        "postalCode": "M9C3R6",
        "streetName": "CANEROUTH",
        "streetDirectionId": null,
        "streetTypeId": "DR",
        "placeName": "ETOBICOKE",
        "streetNameDisplayText": "CANEROUTH DR, ETOBICOKE"
      }
    ]
  },
  {
    "postal": "M9C6K4",
    "result": []
  },
  {
    "postal": "M9C2W5",
    "result": [
      {
        "electoralDistricts": [
          {
            "election": null,
            "id": 28,
            "name": "Etobicoke Centre"
          }
        ],
        "pollDivisionIds": [
          10138067
        ],
        "postalCode": "M9C2W5",
        "streetName": "BOXWOOD",
        "streetDirectionId": null,
        "streetTypeId": "RD",
        "placeName": "ETOBICOKE",
        "streetNameDisplayText": "BOXWOOD RD, ETOBICOKE"
      }
    ]
  },
  {
    "postal": "M9C8W4",
    "result": []
  },
  {
    "postal": "M9C9C2",
    "result": []
  },
  {
    "postal": "M9C2C0",
    "result": []
  },
  {
    "postal": "M9C0E1",
    "result": []
  },
  {
    "postal": "M9C1K9",
    "result": [
      {
        "electoralDistricts": [
          {
            "election": null,
            "id": 28,
            "name": "Etobicoke Centre"
          }
        ],
        "pollDivisionIds": [
          10138063
        ],
        "postalCode": "M9C1K9",
        "streetName": "SAPLING",
        "streetDirectionId": null,
        "streetTypeId": "CRT",
        "placeName": "ETOBICOKE",
        "streetNameDisplayText": "SAPLING CRT, ETOBICOKE"
      }
    ]
  },
  {
    "postal": "M9C1G7",
    "result": [
      {
        "electoralDistricts": [
          {
            "election": null,
            "id": 28,
            "name": "Etobicoke Centre"
          }
        ],
        "pollDivisionIds": [
          10138102
        ],
        "postalCode": "M9C1G7",
        "streetName": "THE WEST MALL",
        "streetDirectionId": null,
        "streetTypeId": "MALL",
        "placeName": "ETOBICOKE",
        "streetNameDisplayText": "THE WEST MALL MALL, ETOBICOKE"
      },
      {
        "electoralDistricts": [
          {
            "election": null,
            "id": 28,
            "name": "Etobicoke Centre"
          }
        ],
        "pollDivisionIds": [
          10138102
        ],
        "postalCode": "M9C1G7",
        "streetName": "THE WEST",
        "streetDirectionId": null,
        "streetTypeId": "MALL",
        "placeName": "ETOBICOKE",
        "streetNameDisplayText": "THE WEST MALL, ETOBICOKE"
      }
    ]
  },
  {
    "postal": "M9C4E9",
    "result": [
      {
        "electoralDistricts": [
          {
            "election": null,
            "id": 28,
            "name": "Etobicoke Centre"
          }
        ],
        "pollDivisionIds": [
          10138069
        ],
        "postalCode": "M9C4E9",
        "streetName": "GENTIAN",
        "streetDirectionId": null,
        "streetTypeId": "DR",
        "placeName": "ETOBICOKE",
        "streetNameDisplayText": "GENTIAN DR, ETOBICOKE"
      }
    ]
  },
  {
    "postal": "M9C9P0",
    "result": []
  },
  {
    "postal": "M9C5H3",
    "result": []
  },
  {
    "postal": "M9C9X6",
    "result": []
  },
  {
    "postal": "M9C5N7",
    "result": []
  },
  {
    "postal": "M9C5A6",
    "result": []
  },
  {
    "postal": "M9C4M0",
    "result": []
  },
  {
    "postal": "M9C3V6",
    "result": [
      {
        "electoralDistricts": [
          {
            "election": null,
            "id": 28,
            "name": "Etobicoke Centre"
          }
        ],
        "pollDivisionIds": [
          10143747
        ],
        "postalCode": "M9C3V6",
        "streetName": "TORRINGTON",
        "streetDirectionId": null,
        "streetTypeId": "DR",
        "placeName": "ETOBICOKE",
        "streetNameDisplayText": "TORRINGTON DR, ETOBICOKE"
      }
    ]
  },
  {
    "postal": "M9C1L7",
    "result": [
      {
        "electoralDistricts": [
          {
            "election": null,
            "id": 28,
            "name": "Etobicoke Centre"
          }
        ],
        "pollDivisionIds": [
          10138063
        ],
        "postalCode": "M9C1L7",
        "streetName": "BROADFIELD",
        "streetDirectionId": null,
        "streetTypeId": "DR",
        "placeName": "ETOBICOKE",
        "streetNameDisplayText": "BROADFIELD DR, ETOBICOKE"
      }
    ]
  },
  {
    "postal": "M9C2P9",
    "result": [
      {
        "electoralDistricts": [
          {
            "election": null,
            "id": 28,
            "name": "Etobicoke Centre"
          }
        ],
        "pollDivisionIds": [
          10138066
        ],
        "postalCode": "M9C2P9",
        "streetName": "ROSSBURN",
        "streetDirectionId": null,
        "streetTypeId": "DR",
        "placeName": "ETOBICOKE",
        "streetNameDisplayText": "ROSSBURN DR, ETOBICOKE"
      }
    ]
  },
  {
    "postal": "M9C5T4",
    "result": []
  },
  {
    "postal": "M9C5Z1",
    "result": []
  },
  {
    "postal": "M9C2X0",
    "result": []
  },
  {
    "postal": "M9C6Z2",
    "result": []
  },
  {
    "postal": "M9C0E0",
    "result": []
  },
  {
    "postal": "M9C3Z5",
    "result": [
      {
        "electoralDistricts": [
          {
            "election": null,
            "id": 28,
            "name": "Etobicoke Centre"
          }
        ],
        "pollDivisionIds": [
          10138069
        ],
        "postalCode": "M9C3Z5",
        "streetName": "ERINGATE",
        "streetDirectionId": null,
        "streetTypeId": "DR",
        "placeName": "ETOBICOKE",
        "streetNameDisplayText": "ERINGATE DR, ETOBICOKE"
      }
    ]
  },
  {
    "postal": "M9C8H3",
    "result": []
  },
  {
    "postal": "M9C7S6",
    "result": []
  },
  {
    "postal": "M9C4C1",
    "result": [
      {
        "electoralDistricts": [
          {
            "election": null,
            "id": 28,
            "name": "Etobicoke Centre"
          }
        ],
        "pollDivisionIds": [
          10138070
        ],
        "postalCode": "M9C4C1",
        "streetName": "RICHLAND",
        "streetDirectionId": null,
        "streetTypeId": "CRES",
        "placeName": "ETOBICOKE",
        "streetNameDisplayText": "RICHLAND CRES, ETOBICOKE"
      }
    ]
  },
  {
    "postal": "M9C3K2",
    "result": [
      {
        "electoralDistricts": [
          {
            "election": null,
            "id": 28,
            "name": "Etobicoke Centre"
          }
        ],
        "pollDivisionIds": [
          10138068
        ],
        "postalCode": "M9C3K2",
        "streetName": "WARLINGHAM",
        "streetDirectionId": null,
        "streetTypeId": "CRT",
        "placeName": "ETOBICOKE",
        "streetNameDisplayText": "WARLINGHAM CRT, ETOBICOKE"
      }
    ]
  },
  {
    "postal": "M9C1Y5",
    "result": [
      {
        "electoralDistricts": [
          {
            "election": null,
            "id": 28,
            "name": "Etobicoke Centre"
          }
        ],
        "pollDivisionIds": [
          10138067,
          10138068
        ],
        "postalCode": "M9C1Y5",
        "streetName": "MILL",
        "streetDirectionId": null,
        "streetTypeId": "RD",
        "placeName": "ETOBICOKE",
        "streetNameDisplayText": "MILL RD, ETOBICOKE"
      }
    ]
  },
  {
    "postal": "M9C6P6",
    "result": []
  },
  {
    "postal": "M9C3N9",
    "result": [
      {
        "electoralDistricts": [
          {
            "election": null,
            "id": 28,
            "name": "Etobicoke Centre"
          }
        ],
        "pollDivisionIds": [
          10143747
        ],
        "postalCode": "M9C3N9",
        "streetName": "FORESTONE",
        "streetDirectionId": null,
        "streetTypeId": "RD",
        "placeName": "ETOBICOKE",
        "streetNameDisplayText": "FORESTONE RD, ETOBICOKE"
      }
    ]
  },
  {
    "postal": "M9C3W2",
    "result": [
      {
        "electoralDistricts": [
          {
            "election": null,
            "id": 28,
            "name": "Etobicoke Centre"
          }
        ],
        "pollDivisionIds": [
          10138070
        ],
        "postalCode": "M9C3W2",
        "streetName": "BIRGITTA",
        "streetDirectionId": null,
        "streetTypeId": "CRES",
        "placeName": "ETOBICOKE",
        "streetNameDisplayText": "BIRGITTA CRES, ETOBICOKE"
      }
    ]
  },
  {
    "postal": "M9C6H8",
    "result": []
  },
  {
    "postal": "M9C9T3",
    "result": []
  },
  {
    "postal": "M9C5L9",
    "result": []
  },
  {
    "postal": "M9C7X7",
    "result": []
  },
  {
    "postal": "M9C3J5",
    "result": [
      {
        "electoralDistricts": [
          {
            "election": null,
            "id": 28,
            "name": "Etobicoke Centre"
          }
        ],
        "pollDivisionIds": [
          10138068
        ],
        "postalCode": "M9C3J5",
        "streetName": "OLD BURNHAMTHORPE",
        "streetDirectionId": null,
        "streetTypeId": "RD",
        "placeName": "ETOBICOKE",
        "streetNameDisplayText": "OLD BURNHAMTHORPE RD, ETOBICOKE"
      }
    ]
  },
  {
    "postal": "M9C4J5",
    "result": [
      {
        "electoralDistricts": [
          {
            "election": null,
            "id": 28,
            "name": "Etobicoke Centre"
          }
        ],
        "pollDivisionIds": [
          10138070
        ],
        "postalCode": "M9C4J5",
        "streetName": "ANGEL",
        "streetDirectionId": null,
        "streetTypeId": "CRT",
        "placeName": "ETOBICOKE",
        "streetNameDisplayText": "ANGEL CRT, ETOBICOKE"
      }
    ]
  },
  {
    "postal": "M9C6J2",
    "result": []
  },
  {
    "postal": "M9C5V6",
    "result": []
  },
  {
    "postal": "M9C3N2",
    "result": [
      {
        "electoralDistricts": [
          {
            "election": null,
            "id": 28,
            "name": "Etobicoke Centre"
          }
        ],
        "pollDivisionIds": [
          10143747
        ],
        "postalCode": "M9C3N2",
        "streetName": "WINDUST",
        "streetDirectionId": null,
        "streetTypeId": "GATE",
        "placeName": "ETOBICOKE",
        "streetNameDisplayText": "WINDUST GATE, ETOBICOKE"
      }
    ]
  },
  {
    "postal": "M9C3B1",
    "result": [
      {
        "electoralDistricts": [
          {
            "election": null,
            "id": 28,
            "name": "Etobicoke Centre"
          }
        ],
        "pollDivisionIds": [
          10143747
        ],
        "postalCode": "M9C3B1",
        "streetName": "WARESIDE",
        "streetDirectionId": null,
        "streetTypeId": "RD",
        "placeName": "ETOBICOKE",
        "streetNameDisplayText": "WARESIDE RD, ETOBICOKE"
      }
    ]
  },
  {
    "postal": "M9C8B5",
    "result": []
  },
  {
    "postal": "M9C0K1",
    "result": []
  },
  {
    "postal": "M9C7M7",
    "result": []
  },
  {
    "postal": "M9C2M2",
    "result": [
      {
        "electoralDistricts": [
          {
            "election": null,
            "id": 28,
            "name": "Etobicoke Centre"
          }
        ],
        "pollDivisionIds": [
          10143747
        ],
        "postalCode": "M9C2M2",
        "streetName": "RENFORTH",
        "streetDirectionId": null,
        "streetTypeId": "DR",
        "placeName": "ETOBICOKE",
        "streetNameDisplayText": "RENFORTH DR, ETOBICOKE"
      }
    ]
  },
  {
    "postal": "M9C9N3",
    "result": []
  },
  {
    "postal": "M9C4Y8",
    "result": [
      {
        "electoralDistricts": [
          {
            "election": null,
            "id": 28,
            "name": "Etobicoke Centre"
          }
        ],
        "pollDivisionIds": [
          10138068
        ],
        "postalCode": "M9C4Y8",
        "streetName": "STONEHAM",
        "streetDirectionId": null,
        "streetTypeId": "RD",
        "placeName": "ETOBICOKE",
        "streetNameDisplayText": "STONEHAM RD, ETOBICOKE"
      }
    ]
  },
  {
    "postal": "M9C3V7",
    "result": [
      {
        "electoralDistricts": [
          {
            "election": null,
            "id": 28,
            "name": "Etobicoke Centre"
          }
        ],
        "pollDivisionIds": [
          10143747
        ],
        "postalCode": "M9C3V7",
        "streetName": "TORRINGTON",
        "streetDirectionId": null,
        "streetTypeId": "DR",
        "placeName": "ETOBICOKE",
        "streetNameDisplayText": "TORRINGTON DR, ETOBICOKE"
      }
    ]
  },
  {
    "postal": "M9C8Z1",
    "result": []
  },
  {
    "postal": "M9C7B3",
    "result": []
  },
  {
    "postal": "M9C3A8",
    "result": [
      {
        "electoralDistricts": [
          {
            "election": null,
            "id": 28,
            "name": "Etobicoke Centre"
          }
        ],
        "pollDivisionIds": [
          10143747
        ],
        "postalCode": "M9C3A8",
        "streetName": "WARESIDE",
        "streetDirectionId": null,
        "streetTypeId": "RD",
        "placeName": "ETOBICOKE",
        "streetNameDisplayText": "WARESIDE RD, ETOBICOKE"
      }
    ]
  },
  {
    "postal": "M9C7V5",
    "result": []
  },
  {
    "postal": "M9C2T2",
    "result": [
      {
        "electoralDistricts": [
          {
            "election": null,
            "id": 28,
            "name": "Etobicoke Centre"
          }
        ],
        "pollDivisionIds": [
          10138066
        ],
        "postalCode": "M9C2T2",
        "streetName": "ARBROATH",
        "streetDirectionId": null,
        "streetTypeId": "CRES",
        "placeName": "ETOBICOKE",
        "streetNameDisplayText": "ARBROATH CRES, ETOBICOKE"
      }
    ]
  },
  {
    "postal": "M9C6L3",
    "result": []
  },
  {
    "postal": "M9C0L2",
    "result": []
  },
  {
    "postal": "M9C5Y8",
    "result": []
  },
  {
    "postal": "M9C0B8",
    "result": []
  },
  {
    "postal": "M9C6R5",
    "result": []
  },
  {
    "postal": "M9C8W6",
    "result": []
  },
  {
    "postal": "M9C8G6",
    "result": []
  },
  {
    "postal": "M9C6X3",
    "result": []
  },
  {
    "postal": "M9C7R7",
    "result": []
  },
  {
    "postal": "M9C4B6",
    "result": [
      {
        "electoralDistricts": [
          {
            "election": null,
            "id": 28,
            "name": "Etobicoke Centre"
          }
        ],
        "pollDivisionIds": [
          10138069
        ],
        "postalCode": "M9C4B6",
        "streetName": "COURTWRIGHT",
        "streetDirectionId": null,
        "streetTypeId": "RD",
        "placeName": "ETOBICOKE",
        "streetNameDisplayText": "COURTWRIGHT RD, ETOBICOKE"
      }
    ]
  },
  {
    "postal": "M9C3P9",
    "result": [
      {
        "electoralDistricts": [
          {
            "election": null,
            "id": 28,
            "name": "Etobicoke Centre"
          }
        ],
        "pollDivisionIds": [
          10138068
        ],
        "postalCode": "M9C3P9",
        "streetName": "MELBERT",
        "streetDirectionId": null,
        "streetTypeId": "RD",
        "placeName": "ETOBICOKE",
        "streetNameDisplayText": "MELBERT RD, ETOBICOKE"
      }
    ]
  },
  {
    "postal": "M9C2T3",
    "result": [
      {
        "electoralDistricts": [
          {
            "election": null,
            "id": 28,
            "name": "Etobicoke Centre"
          }
        ],
        "pollDivisionIds": [
          10138066
        ],
        "postalCode": "M9C2T3",
        "streetName": "THICKET",
        "streetDirectionId": null,
        "streetTypeId": "RD",
        "placeName": "ETOBICOKE",
        "streetNameDisplayText": "THICKET RD, ETOBICOKE"
      }
    ]
  },
  {
    "postal": "M9C1M4",
    "result": [
      {
        "electoralDistricts": [
          {
            "election": null,
            "id": 28,
            "name": "Etobicoke Centre"
          }
        ],
        "pollDivisionIds": [
          10138063
        ],
        "postalCode": "M9C1M4",
        "streetName": "SUNPLAINS",
        "streetDirectionId": null,
        "streetTypeId": "CRES",
        "placeName": "ETOBICOKE",
        "streetNameDisplayText": "SUNPLAINS CRES, ETOBICOKE"
      }
    ]
  },
  {
    "postal": "M9C0H1",
    "result": []
  },
  {
    "postal": "M9C9W3",
    "result": []
  },
  {
    "postal": "M9C6P1",
    "result": []
  },
  {
    "postal": "M9C7G2",
    "result": []
  },
  {
    "postal": "M9C4J9",
    "result": [
      {
        "electoralDistricts": [
          {
            "election": null,
            "id": 28,
            "name": "Etobicoke Centre"
          }
        ],
        "pollDivisionIds": [
          10138070
        ],
        "postalCode": "M9C4J9",
        "streetName": "ODESSA",
        "streetDirectionId": null,
        "streetTypeId": "AVE",
        "placeName": "ETOBICOKE",
        "streetNameDisplayText": "ODESSA AVE, ETOBICOKE"
      }
    ]
  },
  {
    "postal": "M9C9E4",
    "result": []
  },
  {
    "postal": "M9C8H0",
    "result": []
  },
  {
    "postal": "M9C4M7",
    "result": [
      {
        "electoralDistricts": [
          {
            "election": null,
            "id": 28,
            "name": "Etobicoke Centre"
          }
        ],
        "pollDivisionIds": [
          10138069
        ],
        "postalCode": "M9C4M7",
        "streetName": "HOLLISTER",
        "streetDirectionId": null,
        "streetTypeId": "RD",
        "placeName": "ETOBICOKE",
        "streetNameDisplayText": "HOLLISTER RD, ETOBICOKE"
      }
    ]
  },
  {
    "postal": "M9C2G9",
    "result": [
      {
        "electoralDistricts": [
          {
            "election": null,
            "id": 28,
            "name": "Etobicoke Centre"
          }
        ],
        "pollDivisionIds": [
          10138066
        ],
        "postalCode": "M9C2G9",
        "streetName": "BEARBURY",
        "streetDirectionId": null,
        "streetTypeId": "DR",
        "placeName": "ETOBICOKE",
        "streetNameDisplayText": "BEARBURY DR, ETOBICOKE"
      }
    ]
  },
  {
    "postal": "M9C8T2",
    "result": []
  },
  {
    "postal": "M9C7G7",
    "result": []
  },
  {
    "postal": "M9C4Z3",
    "result": [
      {
        "electoralDistricts": [
          {
            "election": null,
            "id": 28,
            "name": "Etobicoke Centre"
          }
        ],
        "pollDivisionIds": [
          10138105
        ],
        "postalCode": "M9C4Z3",
        "streetName": "THE WEST MALL",
        "streetDirectionId": null,
        "streetTypeId": "MALL",
        "placeName": "ETOBICOKE",
        "streetNameDisplayText": "THE WEST MALL MALL, ETOBICOKE"
      }
    ]
  },
  {
    "postal": "M9C5B3",
    "result": [
      {
        "electoralDistricts": [
          {
            "election": null,
            "id": 28,
            "name": "Etobicoke Centre"
          }
        ],
        "pollDivisionIds": [
          10138069
        ],
        "postalCode": "M9C5B3",
        "streetName": "ELMBROOK",
        "streetDirectionId": null,
        "streetTypeId": "CRES",
        "placeName": "ETOBICOKE",
        "streetNameDisplayText": "ELMBROOK CRES, ETOBICOKE"
      }
    ]
  },
  {
    "postal": "M9C1S7",
    "result": [
      {
        "electoralDistricts": [
          {
            "election": null,
            "id": 28,
            "name": "Etobicoke Centre"
          }
        ],
        "pollDivisionIds": [
          10138063
        ],
        "postalCode": "M9C1S7",
        "streetName": "RAYSIDE",
        "streetDirectionId": null,
        "streetTypeId": "DR",
        "placeName": "ETOBICOKE",
        "streetNameDisplayText": "RAYSIDE DR, ETOBICOKE"
      }
    ]
  },
  {
    "postal": "M9C2N7",
    "result": [
      {
        "electoralDistricts": [
          {
            "election": null,
            "id": 28,
            "name": "Etobicoke Centre"
          }
        ],
        "pollDivisionIds": [
          10138069
        ],
        "postalCode": "M9C2N7",
        "streetName": "RENFORTH",
        "streetDirectionId": null,
        "streetTypeId": "DR",
        "placeName": "ETOBICOKE",
        "streetNameDisplayText": "RENFORTH DR, ETOBICOKE"
      }
    ]
  },
  {
    "postal": "M9C0H8",
    "result": []
  },
  {
    "postal": "M9C7Z4",
    "result": []
  },
  {
    "postal": "M9C7B1",
    "result": []
  },
  {
    "postal": "M9C7P8",
    "result": []
  },
  {
    "postal": "M9C7N0",
    "result": []
  },
  {
    "postal": "M9C3Y5",
    "result": [
      {
        "electoralDistricts": [
          {
            "election": null,
            "id": 28,
            "name": "Etobicoke Centre"
          }
        ],
        "pollDivisionIds": [
          10138070
        ],
        "postalCode": "M9C3Y5",
        "streetName": "BELGATE",
        "streetDirectionId": null,
        "streetTypeId": "PL",
        "placeName": "ETOBICOKE",
        "streetNameDisplayText": "BELGATE PL, ETOBICOKE"
      }
    ]
  },
  {
    "postal": "M9C6K1",
    "result": []
  },
  {
    "postal": "M9C9X5",
    "result": []
  },
  {
    "postal": "M9C7S5",
    "result": []
  },
  {
    "postal": "M9C0A4",
    "result": [
      {
        "electoralDistricts": [
          {
            "election": null,
            "id": 29,
            "name": "Etobicoke—Lakeshore"
          }
        ],
        "pollDivisionIds": [
          10138160
        ],
        "postalCode": "M9C0A4",
        "streetName": "SHERWAY GARDENS",
        "streetDirectionId": null,
        "streetTypeId": "RD",
        "placeName": "ETOBICOKE",
        "streetNameDisplayText": "SHERWAY GARDENS RD, ETOBICOKE"
      }
    ]
  },
  {
    "postal": "M9C4T5",
    "result": [
      {
        "electoralDistricts": [
          {
            "election": null,
            "id": 28,
            "name": "Etobicoke Centre"
          }
        ],
        "pollDivisionIds": [
          10138069
        ],
        "postalCode": "M9C4T5",
        "streetName": "ASHFIELD",
        "streetDirectionId": null,
        "streetTypeId": "DR",
        "placeName": "ETOBICOKE",
        "streetNameDisplayText": "ASHFIELD DR, ETOBICOKE"
      }
    ]
  },
  {
    "postal": "M9C5K1",
    "result": [
      {
        "electoralDistricts": [
          {
            "election": null,
            "id": 29,
            "name": "Etobicoke—Lakeshore"
          }
        ],
        "pollDivisionIds": [
          10138160
        ],
        "postalCode": "M9C5K1",
        "streetName": "THE WEST MALL",
        "streetDirectionId": null,
        "streetTypeId": "MALL",
        "placeName": "ETOBICOKE",
        "streetNameDisplayText": "THE WEST MALL MALL, ETOBICOKE"
      }
    ]
  },
  {
    "postal": "M9C0Z9",
    "result": []
  },
  {
    "postal": "M9C7T2",
    "result": []
  },
  {
    "postal": "M9C1L5",
    "result": [
      {
        "electoralDistricts": [
          {
            "election": null,
            "id": 28,
            "name": "Etobicoke Centre"
          }
        ],
        "pollDivisionIds": [
          10138063
        ],
        "postalCode": "M9C1L5",
        "streetName": "BROADFIELD",
        "streetDirectionId": null,
        "streetTypeId": "DR",
        "placeName": "ETOBICOKE",
        "streetNameDisplayText": "BROADFIELD DR, ETOBICOKE"
      }
    ]
  },
  {
    "postal": "M9C3N5",
    "result": [
      {
        "electoralDistricts": [
          {
            "election": null,
            "id": 28,
            "name": "Etobicoke Centre"
          }
        ],
        "pollDivisionIds": [
          10143747
        ],
        "postalCode": "M9C3N5",
        "streetName": "ALLONSIUS",
        "streetDirectionId": null,
        "streetTypeId": "DR",
        "placeName": "ETOBICOKE",
        "streetNameDisplayText": "ALLONSIUS DR, ETOBICOKE"
      }
    ]
  },
  {
    "postal": "M9C6H4",
    "result": []
  },
  {
    "postal": "M9C5A5",
    "result": [
      {
        "electoralDistricts": [
          {
            "election": null,
            "id": 28,
            "name": "Etobicoke Centre"
          }
        ],
        "pollDivisionIds": [
          10138068
        ],
        "postalCode": "M9C5A5",
        "streetName": "RAKELY",
        "streetDirectionId": null,
        "streetTypeId": "CRT",
        "placeName": "ETOBICOKE",
        "streetNameDisplayText": "RAKELY CRT, ETOBICOKE"
      }
    ]
  },
  {
    "postal": "M9C3R9",
    "result": [
      {
        "electoralDistricts": [
          {
            "election": null,
            "id": 28,
            "name": "Etobicoke Centre"
          }
        ],
        "pollDivisionIds": [
          10138068
        ],
        "postalCode": "M9C3R9",
        "streetName": "ELMCREST",
        "streetDirectionId": null,
        "streetTypeId": "RD",
        "placeName": "ETOBICOKE",
        "streetNameDisplayText": "ELMCREST RD, ETOBICOKE"
      }
    ]
  },
  {
    "postal": "M9C7L8",
    "result": []
  },
  {
    "postal": "M9C6T6",
    "result": []
  },
  {
    "postal": "M9C7Y7",
    "result": []
  },
  {
    "postal": "M9C3M8",
    "result": [
      {
        "electoralDistricts": [
          {
            "election": null,
            "id": 28,
            "name": "Etobicoke Centre"
          }
        ],
        "pollDivisionIds": [
          10143747
        ],
        "postalCode": "M9C3M8",
        "streetName": "GROVERDALE",
        "streetDirectionId": null,
        "streetTypeId": "RD",
        "placeName": "ETOBICOKE",
        "streetNameDisplayText": "GROVERDALE RD, ETOBICOKE"
      }
    ]
  },
  {
    "postal": "M9C2E0",
    "result": []
  },
  {
    "postal": "M9C4B5",
    "result": [
      {
        "electoralDistricts": [
          {
            "election": null,
            "id": 28,
            "name": "Etobicoke Centre"
          }
        ],
        "pollDivisionIds": [
          10138069
        ],
        "postalCode": "M9C4B5",
        "streetName": "COURTWRIGHT",
        "streetDirectionId": null,
        "streetTypeId": "RD",
        "placeName": "ETOBICOKE",
        "streetNameDisplayText": "COURTWRIGHT RD, ETOBICOKE"
      }
    ]
  },
  {
    "postal": "M9C1J3",
    "result": [
      {
        "electoralDistricts": [
          {
            "election": null,
            "id": 28,
            "name": "Etobicoke Centre"
          }
        ],
        "pollDivisionIds": [
          10138063
        ],
        "postalCode": "M9C1J3",
        "streetName": "RICKSHAW",
        "streetDirectionId": null,
        "streetTypeId": "AVE",
        "placeName": "ETOBICOKE",
        "streetNameDisplayText": "RICKSHAW AVE, ETOBICOKE"
      }
    ]
  },
  {
    "postal": "M9C5S6",
    "result": [
      {
        "electoralDistricts": [
          {
            "election": null,
            "id": 28,
            "name": "Etobicoke Centre"
          }
        ],
        "pollDivisionIds": [
          10138069
        ],
        "postalCode": "M9C5S6",
        "streetName": "RAMAGE",
        "streetDirectionId": null,
        "streetTypeId": "LANE",
        "placeName": "ETOBICOKE",
        "streetNameDisplayText": "RAMAGE LANE, ETOBICOKE"
      }
    ]
  },
  {
    "postal": "M9C8P7",
    "result": []
  },
  {
    "postal": "M9C7S7",
    "result": []
  },
  {
    "postal": "M9C4C2",
    "result": [
      {
        "electoralDistricts": [
          {
            "election": null,
            "id": 28,
            "name": "Etobicoke Centre"
          }
        ],
        "pollDivisionIds": [
          10138070
        ],
        "postalCode": "M9C4C2",
        "streetName": "RICHLAND",
        "streetDirectionId": null,
        "streetTypeId": "CRES",
        "placeName": "ETOBICOKE",
        "streetNameDisplayText": "RICHLAND CRES, ETOBICOKE"
      }
    ]
  },
  {
    "postal": "M9C5Y0",
    "result": []
  },
  {
    "postal": "M9C2V7",
    "result": [
      {
        "electoralDistricts": [
          {
            "election": null,
            "id": 28,
            "name": "Etobicoke Centre"
          }
        ],
        "pollDivisionIds": [
          10138066
        ],
        "postalCode": "M9C2V7",
        "streetName": "MAPLEDAWN",
        "streetDirectionId": null,
        "streetTypeId": "RD",
        "placeName": "ETOBICOKE",
        "streetNameDisplayText": "MAPLEDAWN RD, ETOBICOKE"
      }
    ]
  },
  {
    "postal": "M9C8P5",
    "result": []
  },
  {
    "postal": "M9C5P5",
    "result": [
      {
        "electoralDistricts": [
          {
            "election": null,
            "id": 29,
            "name": "Etobicoke—Lakeshore"
          }
        ],
        "pollDivisionIds": [
          10138160
        ],
        "postalCode": "M9C5P5",
        "streetName": "THE WEST MALL",
        "streetDirectionId": null,
        "streetTypeId": "MALL",
        "placeName": "ETOBICOKE",
        "streetNameDisplayText": "THE WEST MALL MALL, ETOBICOKE"
      }
    ]
  },
  {
    "postal": "M9C5Z0",
    "result": []
  },
  {
    "postal": "M9C9B0",
    "result": []
  },
  {
    "postal": "M9C1L0",
    "result": []
  },
  {
    "postal": "M9C0B5",
    "result": []
  },
  {
    "postal": "M9C3L2",
    "result": [
      {
        "electoralDistricts": [
          {
            "election": null,
            "id": 28,
            "name": "Etobicoke Centre"
          }
        ],
        "pollDivisionIds": [
          10143747
        ],
        "postalCode": "M9C3L2",
        "streetName": "WELKIN",
        "streetDirectionId": null,
        "streetTypeId": "GATE",
        "placeName": "ETOBICOKE",
        "streetNameDisplayText": "WELKIN GATE, ETOBICOKE"
      }
    ]
  },
  {
    "postal": "M9C3B7",
    "result": [
      {
        "electoralDistricts": [
          {
            "election": null,
            "id": 28,
            "name": "Etobicoke Centre"
          }
        ],
        "pollDivisionIds": [
          10143747
        ],
        "postalCode": "M9C3B7",
        "streetName": "WARESIDE",
        "streetDirectionId": null,
        "streetTypeId": "RD",
        "placeName": "ETOBICOKE",
        "streetNameDisplayText": "WARESIDE RD, ETOBICOKE"
      }
    ]
  },
  {
    "postal": "M9C8L1",
    "result": []
  },
  {
    "postal": "M9C5M4",
    "result": [
      {
        "electoralDistricts": [
          {
            "election": null,
            "id": 29,
            "name": "Etobicoke—Lakeshore"
          }
        ],
        "pollDivisionIds": [
          10138160
        ],
        "postalCode": "M9C5M4",
        "streetName": "MANSTOR",
        "streetDirectionId": null,
        "streetTypeId": "RD",
        "placeName": "ETOBICOKE",
        "streetNameDisplayText": "MANSTOR RD, ETOBICOKE"
      }
    ]
  },
  {
    "postal": "M9C4G9",
    "result": [
      {
        "electoralDistricts": [
          {
            "election": null,
            "id": 28,
            "name": "Etobicoke Centre"
          }
        ],
        "pollDivisionIds": [
          10143747
        ],
        "postalCode": "M9C4G9",
        "streetName": "SHEATH",
        "streetDirectionId": null,
        "streetTypeId": "RD",
        "placeName": "ETOBICOKE",
        "streetNameDisplayText": "SHEATH RD, ETOBICOKE"
      }
    ]
  },
  {
    "postal": "M9C0P0",
    "result": []
  },
  {
    "postal": "M9C8G2",
    "result": []
  },
  {
    "postal": "M9C1V9",
    "result": [
      {
        "electoralDistricts": [
          {
            "election": null,
            "id": 28,
            "name": "Etobicoke Centre"
          }
        ],
        "pollDivisionIds": [
          10138063
        ],
        "postalCode": "M9C1V9",
        "streetName": "NEILSON",
        "streetDirectionId": null,
        "streetTypeId": "DR",
        "placeName": "ETOBICOKE",
        "streetNameDisplayText": "NEILSON DR, ETOBICOKE"
      }
    ]
  },
  {
    "postal": "M9C8N8",
    "result": []
  },
  {
    "postal": "M9C6S8",
    "result": []
  },
  {
    "postal": "M9C8H2",
    "result": []
  },
  {
    "postal": "M9C5R8",
    "result": []
  },
  {
    "postal": "M9C5L4",
    "result": [
      {
        "electoralDistricts": [
          {
            "election": null,
            "id": 29,
            "name": "Etobicoke—Lakeshore"
          }
        ],
        "pollDivisionIds": [
          10138160
        ],
        "postalCode": "M9C5L4",
        "streetName": "BONCER",
        "streetDirectionId": null,
        "streetTypeId": "DR",
        "placeName": "ETOBICOKE",
        "streetNameDisplayText": "BONCER DR, ETOBICOKE"
      }
    ]
  },
  {
    "postal": "M9C9E1",
    "result": []
  },
  {
    "postal": "M9C1C4",
    "result": [
      {
        "electoralDistricts": [
          {
            "election": null,
            "id": 28,
            "name": "Etobicoke Centre"
          }
        ],
        "pollDivisionIds": [
          10138063
        ],
        "postalCode": "M9C1C4",
        "streetName": "THE WEST MALL",
        "streetDirectionId": null,
        "streetTypeId": "MALL",
        "placeName": "ETOBICOKE",
        "streetNameDisplayText": "THE WEST MALL MALL, ETOBICOKE"
      },
      {
        "electoralDistricts": [
          {
            "election": null,
            "id": 28,
            "name": "Etobicoke Centre"
          }
        ],
        "pollDivisionIds": [
          10138063
        ],
        "postalCode": "M9C1C4",
        "streetName": "THE WEST MALL",
        "streetDirectionId": null,
        "streetTypeId": null,
        "placeName": "ETOBICOKE",
        "streetNameDisplayText": "THE WEST MALL, ETOBICOKE"
      }
    ]
  },
  {
    "postal": "M9C8W5",
    "result": []
  },
  {
    "postal": "M9C1Y4",
    "result": [
      {
        "electoralDistricts": [
          {
            "election": null,
            "id": 28,
            "name": "Etobicoke Centre"
          }
        ],
        "pollDivisionIds": [
          10138067
        ],
        "postalCode": "M9C1Y4",
        "streetName": "MILL",
        "streetDirectionId": null,
        "streetTypeId": "RD",
        "placeName": "ETOBICOKE",
        "streetNameDisplayText": "MILL RD, ETOBICOKE"
      }
    ]
  },
  {
    "postal": "M9C1C0",
    "result": []
  },
  {
    "postal": "M9C2J2",
    "result": [
      {
        "electoralDistricts": [
          {
            "election": null,
            "id": 28,
            "name": "Etobicoke Centre"
          }
        ],
        "pollDivisionIds": [
          10138066
        ],
        "postalCode": "M9C2J2",
        "streetName": "THORNBUSH",
        "streetDirectionId": null,
        "streetTypeId": "CRES",
        "placeName": "ETOBICOKE",
        "streetNameDisplayText": "THORNBUSH CRES, ETOBICOKE"
      }
    ]
  },
  {
    "postal": "M9C2J0",
    "result": []
  },
  {
    "postal": "M9C7A3",
    "result": []
  },
  {
    "postal": "M9C8M1",
    "result": []
  },
  {
    "postal": "M9C7T9",
    "result": []
  },
  {
    "postal": "M9C6C0",
    "result": []
  },
  {
    "postal": "M9C7X1",
    "result": []
  },
  {
    "postal": "M9C0G1",
    "result": []
  },
  {
    "postal": "M9C4X2",
    "result": [
      {
        "electoralDistricts": [
          {
            "election": null,
            "id": 28,
            "name": "Etobicoke Centre"
          }
        ],
        "pollDivisionIds": [
          10138068
        ],
        "postalCode": "M9C4X2",
        "streetName": "PEBBLE VALLEY",
        "streetDirectionId": null,
        "streetTypeId": "LANE",
        "placeName": "ETOBICOKE",
        "streetNameDisplayText": "PEBBLE VALLEY LANE, ETOBICOKE"
      }
    ]
  },
  {
    "postal": "M9C0N6",
    "result": []
  },
  {
    "postal": "M9C8E3",
    "result": []
  },
  {
    "postal": "M9C5S8",
    "result": []
  },
  {
    "postal": "M9C0R0",
    "result": []
  },
  {
    "postal": "M9C6J6",
    "result": []
  },
  {
    "postal": "M9C4B4",
    "result": [
      {
        "electoralDistricts": [
          {
            "election": null,
            "id": 28,
            "name": "Etobicoke Centre"
          }
        ],
        "pollDivisionIds": [
          10138069
        ],
        "postalCode": "M9C4B4",
        "streetName": "COURTWRIGHT",
        "streetDirectionId": null,
        "streetTypeId": "RD",
        "placeName": "ETOBICOKE",
        "streetNameDisplayText": "COURTWRIGHT RD, ETOBICOKE"
      }
    ]
  },
  {
    "postal": "M9C7E3",
    "result": []
  },
  {
    "postal": "M9C3N6",
    "result": [
      {
        "electoralDistricts": [
          {
            "election": null,
            "id": 28,
            "name": "Etobicoke Centre"
          }
        ],
        "pollDivisionIds": [
          10138068
        ],
        "postalCode": "M9C3N6",
        "streetName": "ALLONSIUS",
        "streetDirectionId": null,
        "streetTypeId": "DR",
        "placeName": "ETOBICOKE",
        "streetNameDisplayText": "ALLONSIUS DR, ETOBICOKE"
      }
    ]
  },
  {
    "postal": "M9C3X6",
    "result": [
      {
        "electoralDistricts": [
          {
            "election": null,
            "id": 28,
            "name": "Etobicoke Centre"
          }
        ],
        "pollDivisionIds": [
          10138070
        ],
        "postalCode": "M9C3X6",
        "streetName": "FAVERSHAM",
        "streetDirectionId": null,
        "streetTypeId": "CRES",
        "placeName": "ETOBICOKE",
        "streetNameDisplayText": "FAVERSHAM CRES, ETOBICOKE"
      }
    ]
  },
  {
    "postal": "M9C8L0",
    "result": []
  },
  {
    "postal": "M9C8N1",
    "result": []
  },
  {
    "postal": "M9C4J0",
    "result": []
  },
  {
    "postal": "M9C0X7",
    "result": []
  },
  {
    "postal": "M9C6S4",
    "result": []
  },
  {
    "postal": "M9C0Z0",
    "result": []
  },
  {
    "postal": "M9C9X8",
    "result": []
  },
  {
    "postal": "M9C3H3",
    "result": [
      {
        "electoralDistricts": [
          {
            "election": null,
            "id": 28,
            "name": "Etobicoke Centre"
          }
        ],
        "pollDivisionIds": [
          10143747
        ],
        "postalCode": "M9C3H3",
        "streetName": "CRENDON",
        "streetDirectionId": null,
        "streetTypeId": "DR",
        "placeName": "ETOBICOKE",
        "streetNameDisplayText": "CRENDON DR, ETOBICOKE"
      }
    ]
  },
  {
    "postal": "M9C7S2",
    "result": []
  },
  {
    "postal": "M9C3T3",
    "result": [
      {
        "electoralDistricts": [
          {
            "election": null,
            "id": 28,
            "name": "Etobicoke Centre"
          }
        ],
        "pollDivisionIds": [
          10138068
        ],
        "postalCode": "M9C3T3",
        "streetName": "RATHBURN",
        "streetDirectionId": null,
        "streetTypeId": "RD",
        "placeName": "ETOBICOKE",
        "streetNameDisplayText": "RATHBURN RD, ETOBICOKE"
      }
    ]
  },
  {
    "postal": "M9C9P3",
    "result": []
  },
  {
    "postal": "M9C4H8",
    "result": [
      {
        "electoralDistricts": [
          {
            "election": null,
            "id": 28,
            "name": "Etobicoke Centre"
          }
        ],
        "pollDivisionIds": [
          10138070
        ],
        "postalCode": "M9C4H8",
        "streetName": "WESTRUM",
        "streetDirectionId": null,
        "streetTypeId": "RD",
        "placeName": "ETOBICOKE",
        "streetNameDisplayText": "WESTRUM RD, ETOBICOKE"
      }
    ]
  },
  {
    "postal": "M9C6R1",
    "result": []
  },
  {
    "postal": "M9C1S0",
    "result": []
  },
  {
    "postal": "M9C3W8",
    "result": [
      {
        "electoralDistricts": [
          {
            "election": null,
            "id": 28,
            "name": "Etobicoke Centre"
          }
        ],
        "pollDivisionIds": [
          10138070
        ],
        "postalCode": "M9C3W8",
        "streetName": "RHINESTONE",
        "streetDirectionId": null,
        "streetTypeId": "DR",
        "placeName": "ETOBICOKE",
        "streetNameDisplayText": "RHINESTONE DR, ETOBICOKE"
      }
    ]
  },
  {
    "postal": "M9C4S3",
    "result": [
      {
        "electoralDistricts": [
          {
            "election": null,
            "id": 28,
            "name": "Etobicoke Centre"
          }
        ],
        "pollDivisionIds": [
          10138070
        ],
        "postalCode": "M9C4S3",
        "streetName": "WELLESWORTH",
        "streetDirectionId": null,
        "streetTypeId": "DR",
        "placeName": "ETOBICOKE",
        "streetNameDisplayText": "WELLESWORTH DR, ETOBICOKE"
      }
    ]
  },
  {
    "postal": "M9C1B6",
    "result": [
      {
        "electoralDistricts": [
          {
            "election": null,
            "id": 29,
            "name": "Etobicoke—Lakeshore"
          }
        ],
        "pollDivisionIds": [
          10138160
        ],
        "postalCode": "M9C1B6",
        "streetName": "PAXMAN",
        "streetDirectionId": null,
        "streetTypeId": "RD",
        "placeName": "ETOBICOKE",
        "streetNameDisplayText": "PAXMAN RD, ETOBICOKE"
      }
    ]
  },
  {
    "postal": "M9C8R3",
    "result": []
  },
  {
    "postal": "M9C4V9",
    "result": [
      {
        "electoralDistricts": [
          {
            "election": null,
            "id": 28,
            "name": "Etobicoke Centre"
          }
        ],
        "pollDivisionIds": [
          10138067
        ],
        "postalCode": "M9C4V9",
        "streetName": "MILL",
        "streetDirectionId": null,
        "streetTypeId": "RD",
        "placeName": "ETOBICOKE",
        "streetNameDisplayText": "MILL RD, ETOBICOKE"
      }
    ]
  },
  {
    "postal": "M9C9W4",
    "result": []
  },
  {
    "postal": "M9C3T4",
    "result": [
      {
        "electoralDistricts": [
          {
            "election": null,
            "id": 28,
            "name": "Etobicoke Centre"
          }
        ],
        "pollDivisionIds": [
          10138068
        ],
        "postalCode": "M9C3T4",
        "streetName": "RATHBURN",
        "streetDirectionId": null,
        "streetTypeId": "RD",
        "placeName": "ETOBICOKE",
        "streetNameDisplayText": "RATHBURN RD, ETOBICOKE"
      }
    ]
  },
  {
    "postal": "M9C5C7",
    "result": [
      {
        "electoralDistricts": [
          {
            "election": null,
            "id": 28,
            "name": "Etobicoke Centre"
          }
        ],
        "pollDivisionIds": [
          10138069
        ],
        "postalCode": "M9C5C7",
        "streetName": "ELMBROOK",
        "streetDirectionId": null,
        "streetTypeId": "CRES",
        "placeName": "ETOBICOKE",
        "streetNameDisplayText": "ELMBROOK CRES, ETOBICOKE"
      }
    ]
  },
  {
    "postal": "M9C3Y1",
    "result": [
      {
        "electoralDistricts": [
          {
            "election": null,
            "id": 28,
            "name": "Etobicoke Centre"
          }
        ],
        "pollDivisionIds": [
          10138070
        ],
        "postalCode": "M9C3Y1",
        "streetName": "BECKWITH",
        "streetDirectionId": null,
        "streetTypeId": "RD",
        "placeName": "ETOBICOKE",
        "streetNameDisplayText": "BECKWITH RD, ETOBICOKE"
      }
    ]
  },
  {
    "postal": "M9C5V0",
    "result": []
  },
  {
    "postal": "M9C8G8",
    "result": []
  },
  {
    "postal": "M9C8B1",
    "result": []
  },
  {
    "postal": "M9C4P5",
    "result": [
      {
        "electoralDistricts": [
          {
            "election": null,
            "id": 28,
            "name": "Etobicoke Centre"
          }
        ],
        "pollDivisionIds": [
          10138069
        ],
        "postalCode": "M9C4P5",
        "streetName": "WELLESWORTH",
        "streetDirectionId": null,
        "streetTypeId": "DR",
        "placeName": "ETOBICOKE",
        "streetNameDisplayText": "WELLESWORTH DR, ETOBICOKE"
      }
    ]
  },
  {
    "postal": "M9C7B2",
    "result": []
  },
  {
    "postal": "M9C0R2",
    "result": []
  },
  {
    "postal": "M9C4M4",
    "result": [
      {
        "electoralDistricts": [
          {
            "election": null,
            "id": 28,
            "name": "Etobicoke Centre"
          }
        ],
        "pollDivisionIds": [
          10138069
        ],
        "postalCode": "M9C4M4",
        "streetName": "SANCTBURY",
        "streetDirectionId": null,
        "streetTypeId": "PL",
        "placeName": "ETOBICOKE",
        "streetNameDisplayText": "SANCTBURY PL, ETOBICOKE"
      }
    ]
  },
  {
    "postal": "M9C7M4",
    "result": []
  },
  {
    "postal": "M9C9S7",
    "result": []
  },
  {
    "postal": "M9C5Z7",
    "result": []
  },
  {
    "postal": "M9C7J7",
    "result": []
  },
  {
    "postal": "M9C8R8",
    "result": []
  },
  {
    "postal": "M9C9X1",
    "result": []
  },
  {
    "postal": "M9C5M9",
    "result": []
  },
  {
    "postal": "M9C9B4",
    "result": []
  },
  {
    "postal": "M9C0L9",
    "result": []
  },
  {
    "postal": "M9C9G4",
    "result": []
  },
  {
    "postal": "M9C1J4",
    "result": [
      {
        "electoralDistricts": [
          {
            "election": null,
            "id": 28,
            "name": "Etobicoke Centre"
          }
        ],
        "pollDivisionIds": [
          10138063
        ],
        "postalCode": "M9C1J4",
        "streetName": "RICKSHAW",
        "streetDirectionId": null,
        "streetTypeId": "AVE",
        "placeName": "ETOBICOKE",
        "streetNameDisplayText": "RICKSHAW AVE, ETOBICOKE"
      }
    ]
  },
  {
    "postal": "M9C0W6",
    "result": []
  }
]
