[
  {
    "postal": "L1V9J6",
    "result": []
  },
  {
    "postal": "L1V9Z5",
    "result": []
  },
  {
    "postal": "L1V7H8",
    "result": [
      {
        "electoralDistricts": [
          {
            "election": null,
            "id": 87,
            "name": "Pickering—Uxbridge"
          }
        ],
        "pollDivisionIds": [
          10143385
        ],
        "postalCode": "L1V7H8",
        "streetName": "HUMMINGBIRD",
        "streetDirectionId": null,
        "streetTypeId": "CRT",
        "placeName": "PICKERING",
        "streetNameDisplayText": "HUMMINGBIRD CRT, PICKERING"
      }
    ]
  },
  {
    "postal": "L1V0P6",
    "result": []
  },
  {
    "postal": "L1V0S7",
    "result": []
  },
  {
    "postal": "L1V8B9",
    "result": []
  },
  {
    "postal": "L1V2A6",
    "result": []
  },
  {
    "postal": "L1V7V2",
    "result": []
  },
  {
    "postal": "L1V9P4",
    "result": []
  },
  {
    "postal": "L1V6G0",
    "result": []
  },
  {
    "postal": "L1V2K0",
    "result": []
  },
  {
    "postal": "L1V7N6",
    "result": []
  },
  {
    "postal": "L1V5R3",
    "result": [
      {
        "electoralDistricts": [
          {
            "election": null,
            "id": 87,
            "name": "Pickering—Uxbridge"
          }
        ],
        "pollDivisionIds": [
          10143397
        ],
        "postalCode": "L1V5R3",
        "streetName": "HOOVER",
        "streetDirectionId": null,
        "streetTypeId": "DR",
        "placeName": "PICKERING",
        "streetNameDisplayText": "HOOVER DR, PICKERING"
      }
    ]
  },
  {
    "postal": "L1V7K0",
    "result": []
  },
  {
    "postal": "L1V3R2",
    "result": [
      {
        "electoralDistricts": [
          {
            "election": null,
            "id": 87,
            "name": "Pickering—Uxbridge"
          }
        ],
        "pollDivisionIds": [
          10143389
        ],
        "postalCode": "L1V3R2",
        "streetName": "PARKSIDE",
        "streetDirectionId": null,
        "streetTypeId": "DR",
        "placeName": "PICKERING",
        "streetNameDisplayText": "PARKSIDE DR, PICKERING"
      }
    ]
  },
  {
    "postal": "L1V0J1",
    "result": []
  },
  {
    "postal": "L1V0B0",
    "result": []
  },
  {
    "postal": "L1V5Z2",
    "result": [
      {
        "electoralDistricts": [
          {
            "election": null,
            "id": 87,
            "name": "Pickering—Uxbridge"
          }
        ],
        "pollDivisionIds": [
          10143388
        ],
        "postalCode": "L1V5Z2",
        "streetName": "RAINY DAY",
        "streetDirectionId": null,
        "streetTypeId": "DR",
        "placeName": "PICKERING",
        "streetNameDisplayText": "RAINY DAY DR, PICKERING"
      },
      {
        "electoralDistricts": [
          {
            "election": null,
            "id": 87,
            "name": "Pickering—Uxbridge"
          }
        ],
        "pollDivisionIds": [
          10143388
        ],
        "postalCode": "L1V5Z2",
        "streetName": "STEEPLE",
        "streetDirectionId": null,
        "streetTypeId": "HILL",
        "placeName": "PICKERING",
        "streetNameDisplayText": "STEEPLE HILL, PICKERING"
      }
    ]
  },
  {
    "postal": "L1V7P3",
    "result": []
  },
  {
    "postal": "L1V2K3",
    "result": []
  },
  {
    "postal": "L1V7Y6",
    "result": []
  },
  {
    "postal": "L1V1L9",
    "result": []
  },
  {
    "postal": "L1V8T0",
    "result": []
  },
  {
    "postal": "L1V3K8",
    "result": [
      {
        "electoralDistricts": [
          {
            "election": null,
            "id": 87,
            "name": "Pickering—Uxbridge"
          }
        ],
        "pollDivisionIds": [
          10143392
        ],
        "postalCode": "L1V3K8",
        "streetName": "CANBOROUGH",
        "streetDirectionId": null,
        "streetTypeId": "CRES",
        "placeName": "PICKERING",
        "streetNameDisplayText": "CANBOROUGH CRES, PICKERING"
      }
    ]
  },
  {
    "postal": "L1V5W9",
    "result": [
      {
        "electoralDistricts": [
          {
            "election": null,
            "id": 87,
            "name": "Pickering—Uxbridge"
          }
        ],
        "pollDivisionIds": [
          10143390
        ],
        "postalCode": "L1V5W9",
        "streetName": "HEATHSIDE",
        "streetDirectionId": null,
        "streetTypeId": "CRES",
        "placeName": "PICKERING",
        "streetNameDisplayText": "HEATHSIDE CRES, PICKERING"
      }
    ]
  },
  {
    "postal": "L1V6T9",
    "result": [
      {
        "electoralDistricts": [
          {
            "election": null,
            "id": 87,
            "name": "Pickering—Uxbridge"
          }
        ],
        "pollDivisionIds": [
          10143387
        ],
        "postalCode": "L1V6T9",
        "streetName": "NIPISSING",
        "streetDirectionId": null,
        "streetTypeId": "CRT",
        "placeName": "PICKERING",
        "streetNameDisplayText": "NIPISSING CRT, PICKERING"
      }
    ]
  },
  {
    "postal": "L1V4H1",
    "result": []
  },
  {
    "postal": "L1V7A2",
    "result": [
      {
        "electoralDistricts": [
          {
            "election": null,
            "id": 87,
            "name": "Pickering—Uxbridge"
          }
        ],
        "pollDivisionIds": [
          10143383
        ],
        "postalCode": "L1V7A2",
        "streetName": "ROUGE FOREST",
        "streetDirectionId": null,
        "streetTypeId": "CRES",
        "placeName": "PICKERING",
        "streetNameDisplayText": "ROUGE FOREST CRES, PICKERING"
      }
    ]
  },
  {
    "postal": "L1V5G0",
    "result": []
  },
  {
    "postal": "L1V8V5",
    "result": []
  },
  {
    "postal": "L1V2Y8",
    "result": [
      {
        "electoralDistricts": [
          {
            "election": null,
            "id": 87,
            "name": "Pickering—Uxbridge"
          }
        ],
        "pollDivisionIds": [
          10143378
        ],
        "postalCode": "L1V2Y8",
        "streetName": "FIELDLIGHT",
        "streetDirectionId": null,
        "streetTypeId": "BLVD",
        "placeName": "PICKERING",
        "streetNameDisplayText": "FIELDLIGHT BLVD, PICKERING"
      }
    ]
  },
  {
    "postal": "L1V2B6",
    "result": []
  },
  {
    "postal": "L1V4W8",
    "result": [
      {
        "electoralDistricts": [
          {
            "election": null,
            "id": 87,
            "name": "Pickering—Uxbridge"
          }
        ],
        "pollDivisionIds": [
          10143387
        ],
        "postalCode": "L1V4W8",
        "streetName": "KIRKWOOD",
        "streetDirectionId": null,
        "streetTypeId": "LANE",
        "placeName": "PICKERING",
        "streetNameDisplayText": "KIRKWOOD LANE, PICKERING"
      }
    ]
  },
  {
    "postal": "L1V8H7",
    "result": []
  },
  {
    "postal": "L1V5P1",
    "result": [
      {
        "electoralDistricts": [
          {
            "election": null,
            "id": 87,
            "name": "Pickering—Uxbridge"
          }
        ],
        "pollDivisionIds": [
          10143387
        ],
        "postalCode": "L1V5P1",
        "streetName": "AMBERLEA",
        "streetDirectionId": null,
        "streetTypeId": "RD",
        "placeName": "PICKERING",
        "streetNameDisplayText": "AMBERLEA RD, PICKERING"
      },
      {
        "electoralDistricts": [
          {
            "election": null,
            "id": 87,
            "name": "Pickering—Uxbridge"
          }
        ],
        "pollDivisionIds": [
          10143387
        ],
        "postalCode": "L1V5P1",
        "streetName": "NAPANEE",
        "streetDirectionId": null,
        "streetTypeId": "RD",
        "placeName": "PICKERING",
        "streetNameDisplayText": "NAPANEE RD, PICKERING"
      }
    ]
  },
  {
    "postal": "L1V2B8",
    "result": []
  },
  {
    "postal": "L1V0P2",
    "result": []
  },
  {
    "postal": "L1V9M1",
    "result": []
  },
  {
    "postal": "L1V3G0",
    "result": []
  },
  {
    "postal": "L1V9Z2",
    "result": []
  },
  {
    "postal": "L1V2A0",
    "result": []
  },
  {
    "postal": "L1V6Y0",
    "result": []
  },
  {
    "postal": "L1V2Z8",
    "result": [
      {
        "electoralDistricts": [
          {
            "election": null,
            "id": 87,
            "name": "Pickering—Uxbridge"
          }
        ],
        "pollDivisionIds": [
          10143389
        ],
        "postalCode": "L1V2Z8",
        "streetName": "EDGEWOOD",
        "streetDirectionId": null,
        "streetTypeId": "RD",
        "placeName": "PICKERING",
        "streetNameDisplayText": "EDGEWOOD RD, PICKERING"
      }
    ]
  },
  {
    "postal": "L1V7Y3",
    "result": []
  },
  {
    "postal": "L1V6Z5",
    "result": [
      {
        "electoralDistricts": [
          {
            "election": null,
            "id": 87,
            "name": "Pickering—Uxbridge"
          }
        ],
        "pollDivisionIds": [
          10143382
        ],
        "postalCode": "L1V6Z5",
        "streetName": "PICKERING",
        "streetDirectionId": null,
        "streetTypeId": "PKY",
        "placeName": "PICKERING",
        "streetNameDisplayText": "PICKERING PKY, PICKERING"
      }
    ]
  },
  {
    "postal": "L1V6E0",
    "result": []
  },
  {
    "postal": "L1V9B7",
    "result": []
  },
  {
    "postal": "L1V9S5",
    "result": []
  },
  {
    "postal": "L1V3X3",
    "result": [
      {
        "electoralDistricts": [
          {
            "election": null,
            "id": 87,
            "name": "Pickering—Uxbridge"
          }
        ],
        "pollDivisionIds": [
          10143386
        ],
        "postalCode": "L1V3X3",
        "streetName": "BECKWORTH",
        "streetDirectionId": null,
        "streetTypeId": "SQ",
        "placeName": "PICKERING",
        "streetNameDisplayText": "BECKWORTH SQ, PICKERING"
      }
    ]
  },
  {
    "postal": "L1V7R5",
    "result": []
  },
  {
    "postal": "L1V2X3",
    "result": [
      {
        "electoralDistricts": [
          {
            "election": null,
            "id": 87,
            "name": "Pickering—Uxbridge"
          }
        ],
        "pollDivisionIds": [
          10143392
        ],
        "postalCode": "L1V2X3",
        "streetName": "WALNUT",
        "streetDirectionId": null,
        "streetTypeId": "LANE",
        "placeName": "PICKERING",
        "streetNameDisplayText": "WALNUT LANE, PICKERING"
      }
    ]
  },
  {
    "postal": "L1V8Z9",
    "result": []
  },
  {
    "postal": "L1V0N4",
    "result": []
  },
  {
    "postal": "L1V1K1",
    "result": [
      {
        "electoralDistricts": [
          {
            "election": null,
            "id": 87,
            "name": "Pickering—Uxbridge"
          }
        ],
        "pollDivisionIds": [
          10143379
        ],
        "postalCode": "L1V1K1",
        "streetName": "FINCH",
        "streetDirectionId": null,
        "streetTypeId": "AVE",
        "placeName": "PICKERING",
        "streetNameDisplayText": "FINCH AVE, PICKERING"
      }
    ]
  },
  {
    "postal": "L1V1S3",
    "result": [
      {
        "electoralDistricts": [
          {
            "election": null,
            "id": 87,
            "name": "Pickering—Uxbridge"
          }
        ],
        "pollDivisionIds": [
          10143389
        ],
        "postalCode": "L1V1S3",
        "streetName": "SPRUCE HILL",
        "streetDirectionId": null,
        "streetTypeId": "RD",
        "placeName": "PICKERING",
        "streetNameDisplayText": "SPRUCE HILL RD, PICKERING"
      }
    ]
  },
  {
    "postal": "L1V6M4",
    "result": [
      {
        "electoralDistricts": [
          {
            "election": null,
            "id": 87,
            "name": "Pickering—Uxbridge"
          }
        ],
        "pollDivisionIds": [
          10143390
        ],
        "postalCode": "L1V6M4",
        "streetName": "DIXIE",
        "streetDirectionId": null,
        "streetTypeId": "RD",
        "placeName": "PICKERING",
        "streetNameDisplayText": "DIXIE RD, PICKERING"
      }
    ]
  },
  {
    "postal": "L1V9A9",
    "result": []
  },
  {
    "postal": "L1V9Z9",
    "result": []
  },
  {
    "postal": "L1V6T4",
    "result": [
      {
        "electoralDistricts": [
          {
            "election": null,
            "id": 87,
            "name": "Pickering—Uxbridge"
          }
        ],
        "pollDivisionIds": [
          10143387
        ],
        "postalCode": "L1V6T4",
        "streetName": "OTONABEE",
        "streetDirectionId": null,
        "streetTypeId": "DR",
        "placeName": "PICKERING",
        "streetNameDisplayText": "OTONABEE DR, PICKERING"
      },
      {
        "electoralDistricts": [
          {
            "election": null,
            "id": 87,
            "name": "Pickering—Uxbridge"
          }
        ],
        "pollDivisionIds": [
          10143387
        ],
        "postalCode": "L1V6T4",
        "streetName": "SEGUIN",
        "streetDirectionId": null,
        "streetTypeId": "SQ",
        "placeName": "PICKERING",
        "streetNameDisplayText": "SEGUIN SQ, PICKERING"
      }
    ]
  },
  {
    "postal": "L1V0B2",
    "result": [
      {
        "electoralDistricts": [
          {
            "election": null,
            "id": 87,
            "name": "Pickering—Uxbridge"
          }
        ],
        "pollDivisionIds": [
          10143375
        ],
        "postalCode": "L1V0B2",
        "streetName": "FINCH",
        "streetDirectionId": null,
        "streetTypeId": "AVE",
        "placeName": "PICKERING",
        "streetNameDisplayText": "FINCH AVE, PICKERING"
      }
    ]
  },
  {
    "postal": "L1V2L9",
    "result": []
  },
  {
    "postal": "L1V8K9",
    "result": []
  },
  {
    "postal": "L1V2H9",
    "result": []
  },
  {
    "postal": "L1V3Z6",
    "result": [
      {
        "electoralDistricts": [
          {
            "election": null,
            "id": 87,
            "name": "Pickering—Uxbridge"
          }
        ],
        "pollDivisionIds": [
          10143389
        ],
        "postalCode": "L1V3Z6",
        "streetName": "PEBBLE",
        "streetDirectionId": null,
        "streetTypeId": "CRT",
        "placeName": "PICKERING",
        "streetNameDisplayText": "PEBBLE CRT, PICKERING"
      }
    ]
  },
  {
    "postal": "L1V3B0",
    "result": []
  },
  {
    "postal": "L1V2H8",
    "result": []
  },
  {
    "postal": "L1V3X2",
    "result": [
      {
        "electoralDistricts": [
          {
            "election": null,
            "id": 87,
            "name": "Pickering—Uxbridge"
          }
        ],
        "pollDivisionIds": [
          10143386
        ],
        "postalCode": "L1V3X2",
        "streetName": "BECKWORTH",
        "streetDirectionId": null,
        "streetTypeId": "SQ",
        "placeName": "PICKERING",
        "streetNameDisplayText": "BECKWORTH SQ, PICKERING"
      }
    ]
  },
  {
    "postal": "L1V2E9",
    "result": []
  },
  {
    "postal": "L1V9P6",
    "result": []
  },
  {
    "postal": "L1V9E2",
    "result": []
  },
  {
    "postal": "L1V9H2",
    "result": []
  },
  {
    "postal": "L1V1S8",
    "result": [
      {
        "electoralDistricts": [
          {
            "election": null,
            "id": 87,
            "name": "Pickering—Uxbridge"
          }
        ],
        "pollDivisionIds": [
          10143389
        ],
        "postalCode": "L1V1S8",
        "streetName": "FAIRPORT",
        "streetDirectionId": null,
        "streetTypeId": "RD",
        "placeName": "PICKERING",
        "streetNameDisplayText": "FAIRPORT RD, PICKERING"
      }
    ]
  },
  {
    "postal": "L1V3M6",
    "result": []
  },
  {
    "postal": "L1V6Z8",
    "result": [
      {
        "electoralDistricts": [
          {
            "election": null,
            "id": 87,
            "name": "Pickering—Uxbridge"
          }
        ],
        "pollDivisionIds": [
          10143392
        ],
        "postalCode": "L1V6Z8",
        "streetName": "WALNUT",
        "streetDirectionId": null,
        "streetTypeId": "LANE",
        "placeName": "PICKERING",
        "streetNameDisplayText": "WALNUT LANE, PICKERING"
      }
    ]
  },
  {
    "postal": "L1V4J2",
    "result": []
  },
  {
    "postal": "L1V9Y1",
    "result": []
  },
  {
    "postal": "L1V8V6",
    "result": []
  },
  {
    "postal": "L1V6B2",
    "result": [
      {
        "electoralDistricts": [
          {
            "election": null,
            "id": 87,
            "name": "Pickering—Uxbridge"
          }
        ],
        "pollDivisionIds": [
          10143388
        ],
        "postalCode": "L1V6B2",
        "streetName": "DAYLIGHT",
        "streetDirectionId": null,
        "streetTypeId": "CRT",
        "placeName": "PICKERING",
        "streetNameDisplayText": "DAYLIGHT CRT, PICKERING"
      },
      {
        "electoralDistricts": [
          {
            "election": null,
            "id": 87,
            "name": "Pickering—Uxbridge"
          }
        ],
        "pollDivisionIds": [
          10143388
        ],
        "postalCode": "L1V6B2",
        "streetName": "EDMUND",
        "streetDirectionId": null,
        "streetTypeId": "DR",
        "placeName": "PICKERING",
        "streetNameDisplayText": "EDMUND DR, PICKERING"
      },
      {
        "electoralDistricts": [
          {
            "election": null,
            "id": 87,
            "name": "Pickering—Uxbridge"
          }
        ],
        "pollDivisionIds": [
          10143388
        ],
        "postalCode": "L1V6B2",
        "streetName": "SUNDOWN",
        "streetDirectionId": null,
        "streetTypeId": "CRES",
        "placeName": "PICKERING",
        "streetNameDisplayText": "SUNDOWN CRES, PICKERING"
      }
    ]
  },
  {
    "postal": "L1V1P8",
    "result": [
      {
        "electoralDistricts": [
          {
            "election": null,
            "id": 87,
            "name": "Pickering—Uxbridge"
          }
        ],
        "pollDivisionIds": [
          10143385
        ],
        "postalCode": "L1V1P8",
        "streetName": "ROSEBANK",
        "streetDirectionId": null,
        "streetTypeId": "RD",
        "placeName": "PICKERING",
        "streetNameDisplayText": "ROSEBANK RD, PICKERING"
      }
    ]
  },
  {
    "postal": "L1V0V8",
    "result": []
  },
  {
    "postal": "L1V4Y0",
    "result": []
  },
  {
    "postal": "L1V2T4",
    "result": [
      {
        "electoralDistricts": [
          {
            "election": null,
            "id": 87,
            "name": "Pickering—Uxbridge"
          }
        ],
        "pollDivisionIds": [
          10143378
        ],
        "postalCode": "L1V2T4",
        "streetName": "POPPY",
        "streetDirectionId": null,
        "streetTypeId": "LANE",
        "placeName": "PICKERING",
        "streetNameDisplayText": "POPPY LANE, PICKERING"
      }
    ]
  },
  {
    "postal": "L1V2S3",
    "result": [
      {
        "electoralDistricts": [
          {
            "election": null,
            "id": 87,
            "name": "Pickering—Uxbridge"
          }
        ],
        "pollDivisionIds": [
          10143378
        ],
        "postalCode": "L1V2S3",
        "streetName": "FIELDLIGHT",
        "streetDirectionId": null,
        "streetTypeId": "BLVD",
        "placeName": "PICKERING",
        "streetNameDisplayText": "FIELDLIGHT BLVD, PICKERING"
      }
    ]
  },
  {
    "postal": "L1V0K0",
    "result": []
  },
  {
    "postal": "L1V5N1",
    "result": [
      {
        "electoralDistricts": [
          {
            "election": null,
            "id": 87,
            "name": "Pickering—Uxbridge"
          }
        ],
        "pollDivisionIds": [
          10143387
        ],
        "postalCode": "L1V5N1",
        "streetName": "ERAMOSA",
        "streetDirectionId": null,
        "streetTypeId": "CRES",
        "placeName": "PICKERING",
        "streetNameDisplayText": "ERAMOSA CRES, PICKERING"
      }
    ]
  },
  {
    "postal": "L1V7T0",
    "result": []
  },
  {
    "postal": "L1V9N2",
    "result": []
  },
  {
    "postal": "L1V5L1",
    "result": [
      {
        "electoralDistricts": [
          {
            "election": null,
            "id": 87,
            "name": "Pickering—Uxbridge"
          }
        ],
        "pollDivisionIds": [
          10143392
        ],
        "postalCode": "L1V5L1",
        "streetName": "LYDIA",
        "streetDirectionId": null,
        "streetTypeId": "CRES",
        "placeName": "PICKERING",
        "streetNameDisplayText": "LYDIA CRES, PICKERING"
      }
    ]
  },
  {
    "postal": "L1V7G5",
    "result": []
  },
  {
    "postal": "L1V6K2",
    "result": [
      {
        "electoralDistricts": [
          {
            "election": null,
            "id": 87,
            "name": "Pickering—Uxbridge"
          }
        ],
        "pollDivisionIds": [
          10143384
        ],
        "postalCode": "L1V6K2",
        "streetName": "TRANQUIL",
        "streetDirectionId": null,
        "streetTypeId": "CRT",
        "placeName": "PICKERING",
        "streetNameDisplayText": "TRANQUIL CRT, PICKERING"
      },
      {
        "electoralDistricts": [
          {
            "election": null,
            "id": 87,
            "name": "Pickering—Uxbridge"
          }
        ],
        "pollDivisionIds": [
          10143384
        ],
        "postalCode": "L1V6K2",
        "streetName": "WESTCREEK",
        "streetDirectionId": null,
        "streetTypeId": "DR",
        "placeName": "PICKERING",
        "streetNameDisplayText": "WESTCREEK DR, PICKERING"
      }
    ]
  },
  {
    "postal": "L1V6P9",
    "result": [
      {
        "electoralDistricts": [
          {
            "election": null,
            "id": 87,
            "name": "Pickering—Uxbridge"
          }
        ],
        "pollDivisionIds": [
          10143384
        ],
        "postalCode": "L1V6P9",
        "streetName": "MOSSBROOK",
        "streetDirectionId": null,
        "streetTypeId": "SQ",
        "placeName": "PICKERING",
        "streetNameDisplayText": "MOSSBROOK SQ, PICKERING"
      }
    ]
  },
  {
    "postal": "L1V0E6",
    "result": [
      {
        "electoralDistricts": [
          {
            "election": null,
            "id": 87,
            "name": "Pickering—Uxbridge"
          }
        ],
        "pollDivisionIds": [
          10143384
        ],
        "postalCode": "L1V0E6",
        "streetName": "FINCH",
        "streetDirectionId": null,
        "streetTypeId": "AVE",
        "placeName": "PICKERING",
        "streetNameDisplayText": "FINCH AVE, PICKERING"
      }
    ]
  },
  {
    "postal": "L1V8R9",
    "result": []
  },
  {
    "postal": "L1V3G9",
    "result": [
      {
        "electoralDistricts": [
          {
            "election": null,
            "id": 87,
            "name": "Pickering—Uxbridge"
          }
        ],
        "pollDivisionIds": [
          10143389
        ],
        "postalCode": "L1V3G9",
        "streetName": "EASTBANK",
        "streetDirectionId": null,
        "streetTypeId": "RD",
        "placeName": "PICKERING",
        "streetNameDisplayText": "EASTBANK RD, PICKERING"
      }
    ]
  },
  {
    "postal": "L1V0V7",
    "result": []
  },
  {
    "postal": "L1V2Z1",
    "result": [
      {
        "electoralDistricts": [
          {
            "election": null,
            "id": 87,
            "name": "Pickering—Uxbridge"
          }
        ],
        "pollDivisionIds": [
          10143389
        ],
        "postalCode": "L1V2Z1",
        "streetName": "ADA",
        "streetDirectionId": null,
        "streetTypeId": "CRT",
        "placeName": "PICKERING",
        "streetNameDisplayText": "ADA CRT, PICKERING"
      }
    ]
  },
  {
    "postal": "L1V7N1",
    "result": []
  },
  {
    "postal": "L1V3C6",
    "result": []
  },
  {
    "postal": "L1V4M1",
    "result": [
      {
        "electoralDistricts": [
          {
            "election": null,
            "id": 87,
            "name": "Pickering—Uxbridge"
          }
        ],
        "pollDivisionIds": [
          10143397
        ],
        "postalCode": "L1V4M1",
        "streetName": "FAWNDALE",
        "streetDirectionId": null,
        "streetTypeId": "RD",
        "placeName": "PICKERING",
        "streetNameDisplayText": "FAWNDALE RD, PICKERING"
      },
      {
        "electoralDistricts": [
          {
            "election": null,
            "id": 87,
            "name": "Pickering—Uxbridge"
          }
        ],
        "pollDivisionIds": [
          10143387
        ],
        "postalCode": "L1V4M1",
        "streetName": "WHITES",
        "streetDirectionId": null,
        "streetTypeId": "RD",
        "placeName": "PICKERING",
        "streetNameDisplayText": "WHITES RD, PICKERING"
      }
    ]
  },
  {
    "postal": "L1V9K2",
    "result": []
  },
  {
    "postal": "L1V9S6",
    "result": []
  },
  {
    "postal": "L1V4X1",
    "result": [
      {
        "electoralDistricts": [
          {
            "election": null,
            "id": 87,
            "name": "Pickering—Uxbridge"
          }
        ],
        "pollDivisionIds": [
          10143387
        ],
        "postalCode": "L1V4X1",
        "streetName": "SPRINGVIEW",
        "streetDirectionId": null,
        "streetTypeId": "DR",
        "placeName": "PICKERING",
        "streetNameDisplayText": "SPRINGVIEW DR, PICKERING"
      }
    ]
  },
  {
    "postal": "L1V8W2",
    "result": []
  },
  {
    "postal": "L1V7N2",
    "result": []
  },
  {
    "postal": "L1V8S3",
    "result": []
  },
  {
    "postal": "L1V4V0",
    "result": []
  },
  {
    "postal": "L1V6W4",
    "result": [
      {
        "electoralDistricts": [
          {
            "election": null,
            "id": 87,
            "name": "Pickering—Uxbridge"
          }
        ],
        "pollDivisionIds": [
          10143384
        ],
        "postalCode": "L1V6W4",
        "streetName": "PINE GROVE",
        "streetDirectionId": null,
        "streetTypeId": "AVE",
        "placeName": "PICKERING",
        "streetNameDisplayText": "PINE GROVE AVE, PICKERING"
      }
    ]
  },
  {
    "postal": "L1V5M1",
    "result": []
  },
  {
    "postal": "L1V0S4",
    "result": []
  },
  {
    "postal": "L1V5X6",
    "result": [
      {
        "electoralDistricts": [
          {
            "election": null,
            "id": 87,
            "name": "Pickering—Uxbridge"
          }
        ],
        "pollDivisionIds": [
          10143390
        ],
        "postalCode": "L1V5X6",
        "streetName": "KELVINWAY",
        "streetDirectionId": null,
        "streetTypeId": "LANE",
        "placeName": "PICKERING",
        "streetNameDisplayText": "KELVINWAY LANE, PICKERING"
      },
      {
        "electoralDistricts": [
          {
            "election": null,
            "id": 87,
            "name": "Pickering—Uxbridge"
          }
        ],
        "pollDivisionIds": [
          10143390
        ],
        "postalCode": "L1V5X6",
        "streetName": "RAMBLEBERRY",
        "streetDirectionId": null,
        "streetTypeId": "AVE",
        "placeName": "PICKERING",
        "streetNameDisplayText": "RAMBLEBERRY AVE, PICKERING"
      }
    ]
  },
  {
    "postal": "L1V8L5",
    "result": []
  },
  {
    "postal": "L1V5M8",
    "result": [
      {
        "electoralDistricts": [
          {
            "election": null,
            "id": 87,
            "name": "Pickering—Uxbridge"
          }
        ],
        "pollDivisionIds": [
          10143387
        ],
        "postalCode": "L1V5M8",
        "streetName": "AMBERLEA",
        "streetDirectionId": null,
        "streetTypeId": "RD",
        "placeName": "PICKERING",
        "streetNameDisplayText": "AMBERLEA RD, PICKERING"
      }
    ]
  },
  {
    "postal": "L1V2G3",
    "result": [
      {
        "electoralDistricts": [
          {
            "election": null,
            "id": 87,
            "name": "Pickering—Uxbridge"
          }
        ],
        "pollDivisionIds": [
          10143382
        ],
        "postalCode": "L1V2G3",
        "streetName": "NOTION",
        "streetDirectionId": null,
        "streetTypeId": "RD",
        "placeName": "PICKERING",
        "streetNameDisplayText": "NOTION RD, PICKERING"
      }
    ]
  },
  {
    "postal": "L1V8E4",
    "result": []
  },
  {
    "postal": "L1V7S9",
    "result": []
  },
  {
    "postal": "L1V1K3",
    "result": [
      {
        "electoralDistricts": [
          {
            "election": null,
            "id": 87,
            "name": "Pickering—Uxbridge"
          }
        ],
        "pollDivisionIds": [
          10143382
        ],
        "postalCode": "L1V1K3",
        "streetName": "FINCH",
        "streetDirectionId": null,
        "streetTypeId": "AVE",
        "placeName": "PICKERING",
        "streetNameDisplayText": "FINCH AVE, PICKERING"
      }
    ]
  },
  {
    "postal": "L1V4E1",
    "result": []
  },
  {
    "postal": "L1V4R2",
    "result": [
      {
        "electoralDistricts": [
          {
            "election": null,
            "id": 87,
            "name": "Pickering—Uxbridge"
          }
        ],
        "pollDivisionIds": [
          10143386
        ],
        "postalCode": "L1V4R2",
        "streetName": "LAURIER",
        "streetDirectionId": null,
        "streetTypeId": "CRES",
        "placeName": "PICKERING",
        "streetNameDisplayText": "LAURIER CRES, PICKERING"
      }
    ]
  },
  {
    "postal": "L1V6T0",
    "result": []
  },
  {
    "postal": "L1V3K5",
    "result": [
      {
        "electoralDistricts": [
          {
            "election": null,
            "id": 87,
            "name": "Pickering—Uxbridge"
          }
        ],
        "pollDivisionIds": [
          10143392
        ],
        "postalCode": "L1V3K5",
        "streetName": "BOWLER",
        "streetDirectionId": null,
        "streetTypeId": "DR",
        "placeName": "PICKERING",
        "streetNameDisplayText": "BOWLER DR, PICKERING"
      }
    ]
  },
  {
    "postal": "L1V3S3",
    "result": [
      {
        "electoralDistricts": [
          {
            "election": null,
            "id": 87,
            "name": "Pickering—Uxbridge"
          }
        ],
        "pollDivisionIds": [
          10143389
        ],
        "postalCode": "L1V3S3",
        "streetName": "ASPEN",
        "streetDirectionId": null,
        "streetTypeId": "RD",
        "placeName": "PICKERING",
        "streetNameDisplayText": "ASPEN RD, PICKERING"
      }
    ]
  },
  {
    "postal": "L1V3L4",
    "result": [
      {
        "electoralDistricts": [
          {
            "election": null,
            "id": 87,
            "name": "Pickering—Uxbridge"
          }
        ],
        "pollDivisionIds": [
          10143392
        ],
        "postalCode": "L1V3L4",
        "streetName": "LUTTERWORTH",
        "streetDirectionId": null,
        "streetTypeId": "CRT",
        "placeName": "PICKERING",
        "streetNameDisplayText": "LUTTERWORTH CRT, PICKERING"
      }
    ]
  },
  {
    "postal": "L1V9Y2",
    "result": []
  },
  {
    "postal": "L1V1E0",
    "result": []
  },
  {
    "postal": "L1V9A4",
    "result": []
  },
  {
    "postal": "L1V1L3",
    "result": [
      {
        "electoralDistricts": [
          {
            "election": null,
            "id": 87,
            "name": "Pickering—Uxbridge"
          }
        ],
        "pollDivisionIds": [
          10143384,
          10143383
        ],
        "postalCode": "L1V1L3",
        "streetName": "WOODVIEW",
        "streetDirectionId": null,
        "streetTypeId": "AVE",
        "placeName": "PICKERING",
        "streetNameDisplayText": "WOODVIEW AVE, PICKERING"
      }
    ]
  },
  {
    "postal": "L1V6N1",
    "result": [
      {
        "electoralDistricts": [
          {
            "election": null,
            "id": 87,
            "name": "Pickering—Uxbridge"
          }
        ],
        "pollDivisionIds": [
          10143384
        ],
        "postalCode": "L1V6N1",
        "streetName": "SENATOR",
        "streetDirectionId": null,
        "streetTypeId": "ST",
        "placeName": "PICKERING",
        "streetNameDisplayText": "SENATOR ST, PICKERING"
      }
    ]
  },
  {
    "postal": "L1V6G7",
    "result": [
      {
        "electoralDistricts": [
          {
            "election": null,
            "id": 87,
            "name": "Pickering—Uxbridge"
          }
        ],
        "pollDivisionIds": [
          10143382
        ],
        "postalCode": "L1V6G7",
        "streetName": "MARSHCOURT",
        "streetDirectionId": null,
        "streetTypeId": "DR",
        "placeName": "PICKERING",
        "streetNameDisplayText": "MARSHCOURT DR, PICKERING"
      }
    ]
  },
  {
    "postal": "L1V7W1",
    "result": []
  },
  {
    "postal": "L1V4M6",
    "result": [
      {
        "electoralDistricts": [
          {
            "election": null,
            "id": 87,
            "name": "Pickering—Uxbridge"
          }
        ],
        "pollDivisionIds": [
          10143397
        ],
        "postalCode": "L1V4M6",
        "streetName": "RIVERVIEW",
        "streetDirectionId": null,
        "streetTypeId": "CRES",
        "placeName": "PICKERING",
        "streetNameDisplayText": "RIVERVIEW CRES, PICKERING"
      }
    ]
  },
  {
    "postal": "L1V1K0",
    "result": []
  },
  {
    "postal": "L1V3E2",
    "result": [
      {
        "electoralDistricts": [
          {
            "election": null,
            "id": 87,
            "name": "Pickering—Uxbridge"
          }
        ],
        "pollDivisionIds": [
          10143382
        ],
        "postalCode": "L1V3E2",
        "streetName": "DENMAR",
        "streetDirectionId": null,
        "streetTypeId": "RD",
        "placeName": "PICKERING",
        "streetNameDisplayText": "DENMAR RD, PICKERING"
      }
    ]
  },
  {
    "postal": "L1V5H4",
    "result": [
      {
        "electoralDistricts": [
          {
            "election": null,
            "id": 87,
            "name": "Pickering—Uxbridge"
          }
        ],
        "pollDivisionIds": [
          10143390
        ],
        "postalCode": "L1V5H4",
        "streetName": "EAGLEVIEW",
        "streetDirectionId": null,
        "streetTypeId": "DR",
        "placeName": "PICKERING",
        "streetNameDisplayText": "EAGLEVIEW DR, PICKERING"
      }
    ]
  },
  {
    "postal": "L1V1K7",
    "result": [
      {
        "electoralDistricts": [
          {
            "election": null,
            "id": 87,
            "name": "Pickering—Uxbridge"
          }
        ],
        "pollDivisionIds": [
          10143384,
          10143383
        ],
        "postalCode": "L1V1K7",
        "streetName": "PINE GROVE",
        "streetDirectionId": null,
        "streetTypeId": "AVE",
        "placeName": "PICKERING",
        "streetNameDisplayText": "PINE GROVE AVE, PICKERING"
      }
    ]
  },
  {
    "postal": "L1V0H0",
    "result": []
  },
  {
    "postal": "L1V0J3",
    "result": []
  },
  {
    "postal": "L1V1X6",
    "result": [
      {
        "electoralDistricts": [
          {
            "election": null,
            "id": 87,
            "name": "Pickering—Uxbridge"
          }
        ],
        "pollDivisionIds": [
          10143382
        ],
        "postalCode": "L1V1X6",
        "streetName": "VALLEY FARM",
        "streetDirectionId": null,
        "streetTypeId": "RD",
        "placeName": "PICKERING",
        "streetNameDisplayText": "VALLEY FARM RD, PICKERING"
      }
    ]
  },
  {
    "postal": "L1V2Z6",
    "result": [
      {
        "electoralDistricts": [
          {
            "election": null,
            "id": 87,
            "name": "Pickering—Uxbridge"
          }
        ],
        "pollDivisionIds": [
          10143389
        ],
        "postalCode": "L1V2Z6",
        "streetName": "EDGEWOOD",
        "streetDirectionId": null,
        "streetTypeId": "RD",
        "placeName": "PICKERING",
        "streetNameDisplayText": "EDGEWOOD RD, PICKERING"
      }
    ]
  },
  {
    "postal": "L1V4R9",
    "result": [
      {
        "electoralDistricts": [
          {
            "election": null,
            "id": 87,
            "name": "Pickering—Uxbridge"
          }
        ],
        "pollDivisionIds": [
          10143388
        ],
        "postalCode": "L1V4R9",
        "streetName": "CHARTWELL",
        "streetDirectionId": null,
        "streetTypeId": "CRT",
        "placeName": "PICKERING",
        "streetNameDisplayText": "CHARTWELL CRT, PICKERING"
      }
    ]
  },
  {
    "postal": "L1V0W8",
    "result": []
  },
  {
    "postal": "L1V1L4",
    "result": [
      {
        "electoralDistricts": [
          {
            "election": null,
            "id": 87,
            "name": "Pickering—Uxbridge"
          }
        ],
        "pollDivisionIds": [
          10143384
        ],
        "postalCode": "L1V1L4",
        "streetName": "WOODVIEW",
        "streetDirectionId": null,
        "streetTypeId": "AVE",
        "placeName": "PICKERING",
        "streetNameDisplayText": "WOODVIEW AVE, PICKERING"
      }
    ]
  },
  {
    "postal": "L1V0C8",
    "result": []
  },
  {
    "postal": "L1V9X7",
    "result": []
  },
  {
    "postal": "L1V4T1",
    "result": [
      {
        "electoralDistricts": [
          {
            "election": null,
            "id": 87,
            "name": "Pickering—Uxbridge"
          }
        ],
        "pollDivisionIds": [
          10143386
        ],
        "postalCode": "L1V4T1",
        "streetName": "ALDER",
        "streetDirectionId": null,
        "streetTypeId": "CRT",
        "placeName": "PICKERING",
        "streetNameDisplayText": "ALDER CRT, PICKERING"
      }
    ]
  },
  {
    "postal": "L1V0M0",
    "result": []
  },
  {
    "postal": "L1V6A2",
    "result": [
      {
        "electoralDistricts": [
          {
            "election": null,
            "id": 87,
            "name": "Pickering—Uxbridge"
          }
        ],
        "pollDivisionIds": [
          10143388
        ],
        "postalCode": "L1V6A2",
        "streetName": "CATTAIL",
        "streetDirectionId": null,
        "streetTypeId": "CRT",
        "placeName": "PICKERING",
        "streetNameDisplayText": "CATTAIL CRT, PICKERING"
      },
      {
        "electoralDistricts": [
          {
            "election": null,
            "id": 87,
            "name": "Pickering—Uxbridge"
          }
        ],
        "pollDivisionIds": [
          10143388
        ],
        "postalCode": "L1V6A2",
        "streetName": "LIGHTFOOT",
        "streetDirectionId": null,
        "streetTypeId": "PL",
        "placeName": "PICKERING",
        "streetNameDisplayText": "LIGHTFOOT PL, PICKERING"
      }
    ]
  },
  {
    "postal": "L1V9S8",
    "result": []
  },
  {
    "postal": "L1V9T4",
    "result": []
  },
  {
    "postal": "L1V9Y4",
    "result": []
  },
  {
    "postal": "L1V6G5",
    "result": [
      {
        "electoralDistricts": [
          {
            "election": null,
            "id": 87,
            "name": "Pickering—Uxbridge"
          }
        ],
        "pollDivisionIds": [
          10143382
        ],
        "postalCode": "L1V6G5",
        "streetName": "MARSHCOURT",
        "streetDirectionId": null,
        "streetTypeId": "DR",
        "placeName": "PICKERING",
        "streetNameDisplayText": "MARSHCOURT DR, PICKERING"
      },
      {
        "electoralDistricts": [
          {
            "election": null,
            "id": 87,
            "name": "Pickering—Uxbridge"
          }
        ],
        "pollDivisionIds": [
          10143382
        ],
        "postalCode": "L1V6G5",
        "streetName": "MARSHCOURT DR.",
        "streetDirectionId": null,
        "streetTypeId": "DR",
        "placeName": "PICKERING",
        "streetNameDisplayText": "MARSHCOURT DR. DR, PICKERING"
      }
    ]
  },
  {
    "postal": "L1V6H9",
    "result": [
      {
        "electoralDistricts": [
          {
            "election": null,
            "id": 87,
            "name": "Pickering—Uxbridge"
          }
        ],
        "pollDivisionIds": [
          10143384
        ],
        "postalCode": "L1V6H9",
        "streetName": "LANCREST",
        "streetDirectionId": null,
        "streetTypeId": "ST",
        "placeName": "PICKERING",
        "streetNameDisplayText": "LANCREST ST, PICKERING"
      }
    ]
  },
  {
    "postal": "L1V2P3",
    "result": []
  },
  {
    "postal": "L1V1T6",
    "result": [
      {
        "electoralDistricts": [
          {
            "election": null,
            "id": 87,
            "name": "Pickering—Uxbridge"
          }
        ],
        "pollDivisionIds": [
          10143389
        ],
        "postalCode": "L1V1T6",
        "streetName": "FAIRPORT",
        "streetDirectionId": null,
        "streetTypeId": "RD",
        "placeName": "PICKERING",
        "streetNameDisplayText": "FAIRPORT RD, PICKERING"
      }
    ]
  },
  {
    "postal": "L1V4P6",
    "result": [
      {
        "electoralDistricts": [
          {
            "election": null,
            "id": 87,
            "name": "Pickering—Uxbridge"
          }
        ],
        "pollDivisionIds": [
          10143397
        ],
        "postalCode": "L1V4P6",
        "streetName": "DALEWOOD",
        "streetDirectionId": null,
        "streetTypeId": "DR",
        "placeName": "PICKERING",
        "streetNameDisplayText": "DALEWOOD DR, PICKERING"
      }
    ]
  },
  {
    "postal": "L1V3K1",
    "result": [
      {
        "electoralDistricts": [
          {
            "election": null,
            "id": 87,
            "name": "Pickering—Uxbridge"
          }
        ],
        "pollDivisionIds": [
          10143378
        ],
        "postalCode": "L1V3K1",
        "streetName": "ROSEFIELD",
        "streetDirectionId": null,
        "streetTypeId": "RD",
        "placeName": "PICKERING",
        "streetNameDisplayText": "ROSEFIELD RD, PICKERING"
      }
    ]
  },
  {
    "postal": "L1V6X4",
    "result": [
      {
        "electoralDistricts": [
          {
            "election": null,
            "id": 87,
            "name": "Pickering—Uxbridge"
          }
        ],
        "pollDivisionIds": [
          10143386
        ],
        "postalCode": "L1V6X4",
        "streetName": "AUTUMN",
        "streetDirectionId": null,
        "streetTypeId": "CRES",
        "placeName": "PICKERING",
        "streetNameDisplayText": "AUTUMN CRES, PICKERING"
      },
      {
        "electoralDistricts": [
          {
            "election": null,
            "id": 87,
            "name": "Pickering—Uxbridge"
          }
        ],
        "pollDivisionIds": [
          10143386
        ],
        "postalCode": "L1V6X4",
        "streetName": "FOXWOOD",
        "streetDirectionId": null,
        "streetTypeId": "TRAIL",
        "placeName": "PICKERING",
        "streetNameDisplayText": "FOXWOOD TRAIL, PICKERING"
      },
      {
        "electoralDistricts": [
          {
            "election": null,
            "id": 87,
            "name": "Pickering—Uxbridge"
          }
        ],
        "pollDivisionIds": [
          10143386
        ],
        "postalCode": "L1V6X4",
        "streetName": "PINEVIEW",
        "streetDirectionId": null,
        "streetTypeId": "LANE",
        "placeName": "PICKERING",
        "streetNameDisplayText": "PINEVIEW LANE, PICKERING"
      }
    ]
  },
  {
    "postal": "L1V4M8",
    "result": [
      {
        "electoralDistricts": [
          {
            "election": null,
            "id": 87,
            "name": "Pickering—Uxbridge"
          }
        ],
        "pollDivisionIds": [
          10143397
        ],
        "postalCode": "L1V4M8",
        "streetName": "RIVERVIEW",
        "streetDirectionId": null,
        "streetTypeId": "CRES",
        "placeName": "PICKERING",
        "streetNameDisplayText": "RIVERVIEW CRES, PICKERING"
      },
      {
        "electoralDistricts": [
          {
            "election": null,
            "id": 87,
            "name": "Pickering—Uxbridge"
          }
        ],
        "pollDivisionIds": [
          10143397
        ],
        "postalCode": "L1V4M8",
        "streetName": "VALLEY",
        "streetDirectionId": null,
        "streetTypeId": "GATE",
        "placeName": "PICKERING",
        "streetNameDisplayText": "VALLEY GATE, PICKERING"
      }
    ]
  },
  {
    "postal": "L1V2Y1",
    "result": [
      {
        "electoralDistricts": [
          {
            "election": null,
            "id": 87,
            "name": "Pickering—Uxbridge"
          }
        ],
        "pollDivisionIds": [
          10143392
        ],
        "postalCode": "L1V2Y1",
        "streetName": "STORRINGTON",
        "streetDirectionId": null,
        "streetTypeId": "ST",
        "placeName": "PICKERING",
        "streetNameDisplayText": "STORRINGTON ST, PICKERING"
      }
    ]
  },
  {
    "postal": "L1V6M1",
    "result": [
      {
        "electoralDistricts": [
          {
            "election": null,
            "id": 87,
            "name": "Pickering—Uxbridge"
          }
        ],
        "pollDivisionIds": [
          10143392
        ],
        "postalCode": "L1V6M1",
        "streetName": "RIDGEWOOD",
        "streetDirectionId": null,
        "streetTypeId": "CRT",
        "placeName": "PICKERING",
        "streetNameDisplayText": "RIDGEWOOD CRT, PICKERING"
      }
    ]
  },
  {
    "postal": "L1V5L8",
    "result": [
      {
        "electoralDistricts": [
          {
            "election": null,
            "id": 87,
            "name": "Pickering—Uxbridge"
          }
        ],
        "pollDivisionIds": [
          10143382
        ],
        "postalCode": "L1V5L8",
        "streetName": "PICKERING",
        "streetDirectionId": null,
        "streetTypeId": "PKY",
        "placeName": "PICKERING",
        "streetNameDisplayText": "PICKERING PKY, PICKERING"
      }
    ]
  },
  {
    "postal": "L1V3P6",
    "result": [
      {
        "electoralDistricts": [
          {
            "election": null,
            "id": 87,
            "name": "Pickering—Uxbridge"
          }
        ],
        "pollDivisionIds": [
          10143392
        ],
        "postalCode": "L1V3P6",
        "streetName": "GLOUCESTER",
        "streetDirectionId": null,
        "streetTypeId": "SQ",
        "placeName": "PICKERING",
        "streetNameDisplayText": "GLOUCESTER SQ, PICKERING"
      }
    ]
  },
  {
    "postal": "L1V9A5",
    "result": []
  },
  {
    "postal": "L1V7K1",
    "result": [
      {
        "electoralDistricts": [
          {
            "election": null,
            "id": 87,
            "name": "Pickering—Uxbridge"
          }
        ],
        "pollDivisionIds": [
          10143382
        ],
        "postalCode": "L1V7K1",
        "streetName": "GLENANNA",
        "streetDirectionId": null,
        "streetTypeId": "RD",
        "placeName": "PICKERING",
        "streetNameDisplayText": "GLENANNA RD, PICKERING"
      }
    ]
  },
  {
    "postal": "L1V3J4",
    "result": [
      {
        "electoralDistricts": [
          {
            "election": null,
            "id": 87,
            "name": "Pickering—Uxbridge"
          }
        ],
        "pollDivisionIds": [
          10143389
        ],
        "postalCode": "L1V3J4",
        "streetName": "EASTBANK",
        "streetDirectionId": null,
        "streetTypeId": "RD",
        "placeName": "PICKERING",
        "streetNameDisplayText": "EASTBANK RD, PICKERING"
      }
    ]
  },
  {
    "postal": "L1V5E7",
    "result": [
      {
        "electoralDistricts": [
          {
            "election": null,
            "id": 87,
            "name": "Pickering—Uxbridge"
          }
        ],
        "pollDivisionIds": [
          10143390
        ],
        "postalCode": "L1V5E7",
        "streetName": "GLENANNA",
        "streetDirectionId": null,
        "streetTypeId": "RD",
        "placeName": "PICKERING",
        "streetNameDisplayText": "GLENANNA RD, PICKERING"
      }
    ]
  },
  {
    "postal": "L1V3A7",
    "result": [
      {
        "electoralDistricts": [
          {
            "election": null,
            "id": 87,
            "name": "Pickering—Uxbridge"
          }
        ],
        "pollDivisionIds": [
          10143389
        ],
        "postalCode": "L1V3A7",
        "streetName": "SHADYBROOK",
        "streetDirectionId": null,
        "streetTypeId": "DR",
        "placeName": "PICKERING",
        "streetNameDisplayText": "SHADYBROOK DR, PICKERING"
      }
    ]
  },
  {
    "postal": "L1V1B9",
    "result": [
      {
        "electoralDistricts": [
          {
            "election": null,
            "id": 87,
            "name": "Pickering—Uxbridge"
          }
        ],
        "pollDivisionIds": [
          10143378
        ],
        "postalCode": "L1V1B9",
        "streetName": "KINGSTON",
        "streetDirectionId": null,
        "streetTypeId": "RD",
        "placeName": "PICKERING",
        "streetNameDisplayText": "KINGSTON RD, PICKERING"
      }
    ]
  },
  {
    "postal": "L1V9E8",
    "result": []
  },
  {
    "postal": "L1V1C9",
    "result": [
      {
        "electoralDistricts": [
          {
            "election": null,
            "id": 87,
            "name": "Pickering—Uxbridge"
          }
        ],
        "pollDivisionIds": [
          10143382
        ],
        "postalCode": "L1V1C9",
        "streetName": "KINGSTON",
        "streetDirectionId": null,
        "streetTypeId": "RD",
        "placeName": "PICKERING",
        "streetNameDisplayText": "KINGSTON RD, PICKERING"
      }
    ]
  },
  {
    "postal": "L1V3B5",
    "result": [
      {
        "electoralDistricts": [
          {
            "election": null,
            "id": 87,
            "name": "Pickering—Uxbridge"
          }
        ],
        "pollDivisionIds": [
          10143382
        ],
        "postalCode": "L1V3B5",
        "streetName": "GETA",
        "streetDirectionId": null,
        "streetTypeId": "CIR",
        "placeName": "PICKERING",
        "streetNameDisplayText": "GETA CIR, PICKERING"
      }
    ]
  },
  {
    "postal": "L1V8R0",
    "result": []
  },
  {
    "postal": "L1V3P2",
    "result": [
      {
        "electoralDistricts": [
          {
            "election": null,
            "id": 87,
            "name": "Pickering—Uxbridge"
          }
        ],
        "pollDivisionIds": [
          10143382
        ],
        "postalCode": "L1V3P2",
        "streetName": "PICKERING",
        "streetDirectionId": null,
        "streetTypeId": "PKY",
        "placeName": "PICKERING",
        "streetNameDisplayText": "PICKERING PKY, PICKERING"
      }
    ]
  },
  {
    "postal": "L1V5V4",
    "result": []
  },
  {
    "postal": "L1V4H0",
    "result": []
  },
  {
    "postal": "L1V4S7",
    "result": [
      {
        "electoralDistricts": [
          {
            "election": null,
            "id": 87,
            "name": "Pickering—Uxbridge"
          }
        ],
        "pollDivisionIds": [
          10143387
        ],
        "postalCode": "L1V4S7",
        "streetName": "POST",
        "streetDirectionId": null,
        "streetTypeId": "DR",
        "placeName": "PICKERING",
        "streetNameDisplayText": "POST DR, PICKERING"
      }
    ]
  },
  {
    "postal": "L1V6C2",
    "result": [
      {
        "electoralDistricts": [
          {
            "election": null,
            "id": 87,
            "name": "Pickering—Uxbridge"
          }
        ],
        "pollDivisionIds": [
          10143383
        ],
        "postalCode": "L1V6C2",
        "streetName": "HOOVER",
        "streetDirectionId": null,
        "streetTypeId": "DR",
        "placeName": "PICKERING",
        "streetNameDisplayText": "HOOVER DR, PICKERING"
      }
    ]
  },
  {
    "postal": "L1V8W3",
    "result": []
  },
  {
    "postal": "L1V4M5",
    "result": [
      {
        "electoralDistricts": [
          {
            "election": null,
            "id": 87,
            "name": "Pickering—Uxbridge"
          }
        ],
        "pollDivisionIds": [
          10143397
        ],
        "postalCode": "L1V4M5",
        "streetName": "RIVERVIEW",
        "streetDirectionId": null,
        "streetTypeId": "CRES",
        "placeName": "PICKERING",
        "streetNameDisplayText": "RIVERVIEW CRES, PICKERING"
      }
    ]
  },
  {
    "postal": "L1V5T1",
    "result": [
      {
        "electoralDistricts": [
          {
            "election": null,
            "id": 87,
            "name": "Pickering—Uxbridge"
          }
        ],
        "pollDivisionIds": [
          10143378
        ],
        "postalCode": "L1V5T1",
        "streetName": "ANTON",
        "streetDirectionId": null,
        "streetTypeId": "SQ",
        "placeName": "PICKERING",
        "streetNameDisplayText": "ANTON SQ, PICKERING"
      }
    ]
  },
  {
    "postal": "L1V3B3",
    "result": [
      {
        "electoralDistricts": [
          {
            "election": null,
            "id": 87,
            "name": "Pickering—Uxbridge"
          }
        ],
        "pollDivisionIds": [
          10143389
        ],
        "postalCode": "L1V3B3",
        "streetName": "JACQUELINE",
        "streetDirectionId": null,
        "streetTypeId": "AVE",
        "placeName": "PICKERING",
        "streetNameDisplayText": "JACQUELINE AVE, PICKERING"
      }
    ]
  },
  {
    "postal": "L1V6C6",
    "result": [
      {
        "electoralDistricts": [
          {
            "election": null,
            "id": 87,
            "name": "Pickering—Uxbridge"
          }
        ],
        "pollDivisionIds": [
          10143382
        ],
        "postalCode": "L1V6C6",
        "streetName": "ASHFORD",
        "streetDirectionId": null,
        "streetTypeId": "DR",
        "placeName": "PICKERING",
        "streetNameDisplayText": "ASHFORD DR, PICKERING"
      },
      {
        "electoralDistricts": [
          {
            "election": null,
            "id": 87,
            "name": "Pickering—Uxbridge"
          }
        ],
        "pollDivisionIds": [
          10143382
        ],
        "postalCode": "L1V6C6",
        "streetName": "MARSHCOURT",
        "streetDirectionId": null,
        "streetTypeId": "DR",
        "placeName": "PICKERING",
        "streetNameDisplayText": "MARSHCOURT DR, PICKERING"
      }
    ]
  },
  {
    "postal": "L1V7N8",
    "result": []
  },
  {
    "postal": "L1V2Y3",
    "result": [
      {
        "electoralDistricts": [
          {
            "election": null,
            "id": 87,
            "name": "Pickering—Uxbridge"
          }
        ],
        "pollDivisionIds": [
          10143392
        ],
        "postalCode": "L1V2Y3",
        "streetName": "LISTOWELL",
        "streetDirectionId": null,
        "streetTypeId": "CRES",
        "placeName": "PICKERING",
        "streetNameDisplayText": "LISTOWELL CRES, PICKERING"
      }
    ]
  },
  {
    "postal": "L1V2R6",
    "result": [
      {
        "electoralDistricts": [
          {
            "election": null,
            "id": 87,
            "name": "Pickering—Uxbridge"
          }
        ],
        "pollDivisionIds": [
          10143376
        ],
        "postalCode": "L1V2R6",
        "streetName": "CONCESSION ROAD 4",
        "streetDirectionId": null,
        "streetTypeId": null,
        "placeName": "PICKERING",
        "streetNameDisplayText": "CONCESSION ROAD 4, PICKERING"
      }
    ]
  },
  {
    "postal": "L1V7N3",
    "result": []
  },
  {
    "postal": "L1V8J2",
    "result": []
  },
  {
    "postal": "L1V6A9",
    "result": [
      {
        "electoralDistricts": [
          {
            "election": null,
            "id": 87,
            "name": "Pickering—Uxbridge"
          }
        ],
        "pollDivisionIds": [
          10143388
        ],
        "postalCode": "L1V6A9",
        "streetName": "DAYLIGHT",
        "streetDirectionId": null,
        "streetTypeId": "CRT",
        "placeName": "PICKERING",
        "streetNameDisplayText": "DAYLIGHT CRT, PICKERING"
      }
    ]
  },
  {
    "postal": "L1V3V2",
    "result": [
      {
        "electoralDistricts": [
          {
            "election": null,
            "id": 87,
            "name": "Pickering—Uxbridge"
          }
        ],
        "pollDivisionIds": [
          10143388
        ],
        "postalCode": "L1V3V2",
        "streetName": "FOXWOOD",
        "streetDirectionId": null,
        "streetTypeId": "TRAIL",
        "placeName": "PICKERING",
        "streetNameDisplayText": "FOXWOOD TRAIL, PICKERING"
      }
    ]
  },
  {
    "postal": "L1V2N3",
    "result": []
  },
  {
    "postal": "L1V1S5",
    "result": [
      {
        "electoralDistricts": [
          {
            "election": null,
            "id": 87,
            "name": "Pickering—Uxbridge"
          }
        ],
        "pollDivisionIds": [
          10143389
        ],
        "postalCode": "L1V1S5",
        "streetName": "SPRUCE HILL",
        "streetDirectionId": null,
        "streetTypeId": "RD",
        "placeName": "PICKERING",
        "streetNameDisplayText": "SPRUCE HILL RD, PICKERING"
      }
    ]
  },
  {
    "postal": "L1V4T7",
    "result": [
      {
        "electoralDistricts": [
          {
            "election": null,
            "id": 87,
            "name": "Pickering—Uxbridge"
          }
        ],
        "pollDivisionIds": [
          10143387
        ],
        "postalCode": "L1V4T7",
        "streetName": "AMBERLEA",
        "streetDirectionId": null,
        "streetTypeId": "RD",
        "placeName": "PICKERING",
        "streetNameDisplayText": "AMBERLEA RD, PICKERING"
      },
      {
        "electoralDistricts": [
          {
            "election": null,
            "id": 87,
            "name": "Pickering—Uxbridge"
          }
        ],
        "pollDivisionIds": [
          10143387
        ],
        "postalCode": "L1V4T7",
        "streetName": "MIRANDA",
        "streetDirectionId": null,
        "streetTypeId": "CRT",
        "placeName": "PICKERING",
        "streetNameDisplayText": "MIRANDA CRT, PICKERING"
      }
    ]
  },
  {
    "postal": "L1V6Y7",
    "result": [
      {
        "electoralDistricts": [
          {
            "election": null,
            "id": 87,
            "name": "Pickering—Uxbridge"
          }
        ],
        "pollDivisionIds": [
          10143384
        ],
        "postalCode": "L1V6Y7",
        "streetName": "DEERHURST",
        "streetDirectionId": null,
        "streetTypeId": "CRT",
        "placeName": "PICKERING",
        "streetNameDisplayText": "DEERHURST CRT, PICKERING"
      },
      {
        "electoralDistricts": [
          {
            "election": null,
            "id": 87,
            "name": "Pickering—Uxbridge"
          }
        ],
        "pollDivisionIds": [
          10143384
        ],
        "postalCode": "L1V6Y7",
        "streetName": "MELDRON",
        "streetDirectionId": null,
        "streetTypeId": "DR",
        "placeName": "PICKERING",
        "streetNameDisplayText": "MELDRON DR, PICKERING"
      },
      {
        "electoralDistricts": [
          {
            "election": null,
            "id": 87,
            "name": "Pickering—Uxbridge"
          }
        ],
        "pollDivisionIds": [
          10143384
        ],
        "postalCode": "L1V6Y7",
        "streetName": "SANDHURST",
        "streetDirectionId": null,
        "streetTypeId": "CRES",
        "placeName": "PICKERING",
        "streetNameDisplayText": "SANDHURST CRES, PICKERING"
      }
    ]
  },
  {
    "postal": "L1V0W7",
    "result": []
  },
  {
    "postal": "L1V2W9",
    "result": [
      {
        "electoralDistricts": [
          {
            "election": null,
            "id": 87,
            "name": "Pickering—Uxbridge"
          }
        ],
        "pollDivisionIds": [
          10143392
        ],
        "postalCode": "L1V2W9",
        "streetName": "WOLLASTON",
        "streetDirectionId": null,
        "streetTypeId": "CRT",
        "placeName": "PICKERING",
        "streetNameDisplayText": "WOLLASTON CRT, PICKERING"
      }
    ]
  },
  {
    "postal": "L1V8V0",
    "result": []
  },
  {
    "postal": "L1V0H4",
    "result": []
  },
  {
    "postal": "L1V2T1",
    "result": [
      {
        "electoralDistricts": [
          {
            "election": null,
            "id": 87,
            "name": "Pickering—Uxbridge"
          }
        ],
        "pollDivisionIds": [
          10143378
        ],
        "postalCode": "L1V2T1",
        "streetName": "EVERTON",
        "streetDirectionId": null,
        "streetTypeId": "ST",
        "placeName": "PICKERING",
        "streetNameDisplayText": "EVERTON ST, PICKERING"
      }
    ]
  },
  {
    "postal": "L1V1B1",
    "result": [
      {
        "electoralDistricts": [
          {
            "election": null,
            "id": 87,
            "name": "Pickering—Uxbridge"
          }
        ],
        "pollDivisionIds": [
          10143390
        ],
        "postalCode": "L1V1B1",
        "streetName": "MERRITTON",
        "streetDirectionId": null,
        "streetTypeId": "RD",
        "placeName": "PICKERING",
        "streetNameDisplayText": "MERRITTON RD, PICKERING"
      },
      {
        "electoralDistricts": [
          {
            "election": null,
            "id": 87,
            "name": "Pickering—Uxbridge"
          }
        ],
        "pollDivisionIds": [
          10143390
        ],
        "postalCode": "L1V1B1",
        "streetName": "SHEPPARD",
        "streetDirectionId": null,
        "streetTypeId": "AVE",
        "placeName": "PICKERING",
        "streetNameDisplayText": "SHEPPARD AVE, PICKERING"
      }
    ]
  },
  {
    "postal": "L1V8B6",
    "result": []
  },
  {
    "postal": "L1V6H1",
    "result": [
      {
        "electoralDistricts": [
          {
            "election": null,
            "id": 87,
            "name": "Pickering—Uxbridge"
          }
        ],
        "pollDivisionIds": [
          10143382
        ],
        "postalCode": "L1V6H1",
        "streetName": "BAINBRIDGE",
        "streetDirectionId": null,
        "streetTypeId": "DR",
        "placeName": "PICKERING",
        "streetNameDisplayText": "BAINBRIDGE DR, PICKERING"
      },
      {
        "electoralDistricts": [
          {
            "election": null,
            "id": 87,
            "name": "Pickering—Uxbridge"
          }
        ],
        "pollDivisionIds": [
          10143382
        ],
        "postalCode": "L1V6H1",
        "streetName": "FAIRFIELD",
        "streetDirectionId": null,
        "streetTypeId": "CRES",
        "placeName": "PICKERING",
        "streetNameDisplayText": "FAIRFIELD CRES, PICKERING"
      }
    ]
  },
  {
    "postal": "L1V8T8",
    "result": []
  },
  {
    "postal": "L1V0T4",
    "result": []
  },
  {
    "postal": "L1V2C4",
    "result": []
  },
  {
    "postal": "L1V8N3",
    "result": []
  },
  {
    "postal": "L1V4L8",
    "result": [
      {
        "electoralDistricts": [
          {
            "election": null,
            "id": 87,
            "name": "Pickering—Uxbridge"
          }
        ],
        "pollDivisionIds": [
          10143388
        ],
        "postalCode": "L1V4L8",
        "streetName": "BAYFIELD",
        "streetDirectionId": null,
        "streetTypeId": "ST",
        "placeName": "PICKERING",
        "streetNameDisplayText": "BAYFIELD ST, PICKERING"
      }
    ]
  },
  {
    "postal": "L1V2B5",
    "result": []
  },
  {
    "postal": "L1V3H1",
    "result": [
      {
        "electoralDistricts": [
          {
            "election": null,
            "id": 87,
            "name": "Pickering—Uxbridge"
          }
        ],
        "pollDivisionIds": [
          10143389
        ],
        "postalCode": "L1V3H1",
        "streetName": "EASTBANK",
        "streetDirectionId": null,
        "streetTypeId": "RD",
        "placeName": "PICKERING",
        "streetNameDisplayText": "EASTBANK RD, PICKERING"
      }
    ]
  },
  {
    "postal": "L1V4Y1",
    "result": [
      {
        "electoralDistricts": [
          {
            "election": null,
            "id": 87,
            "name": "Pickering—Uxbridge"
          }
        ],
        "pollDivisionIds": [
          10143387
        ],
        "postalCode": "L1V4Y1",
        "streetName": "CHARNWOOD",
        "streetDirectionId": null,
        "streetTypeId": "CRT",
        "placeName": "PICKERING",
        "streetNameDisplayText": "CHARNWOOD CRT, PICKERING"
      }
    ]
  },
  {
    "postal": "L1V7E2",
    "result": []
  },
  {
    "postal": "L1V2P5",
    "result": []
  },
  {
    "postal": "L1V8R7",
    "result": []
  },
  {
    "postal": "L1V9P1",
    "result": []
  },
  {
    "postal": "L1V3B8",
    "result": [
      {
        "electoralDistricts": [
          {
            "election": null,
            "id": 87,
            "name": "Pickering—Uxbridge"
          }
        ],
        "pollDivisionIds": [
          10143392
        ],
        "postalCode": "L1V3B8",
        "streetName": "BRONTE",
        "streetDirectionId": null,
        "streetTypeId": "SQ",
        "placeName": "PICKERING",
        "streetNameDisplayText": "BRONTE SQ, PICKERING"
      }
    ]
  },
  {
    "postal": "L1V3P7",
    "result": [
      {
        "electoralDistricts": [
          {
            "election": null,
            "id": 87,
            "name": "Pickering—Uxbridge"
          }
        ],
        "pollDivisionIds": [
          10143392
        ],
        "postalCode": "L1V3P7",
        "streetName": "GLOUCESTER",
        "streetDirectionId": null,
        "streetTypeId": "SQ",
        "placeName": "PICKERING",
        "streetNameDisplayText": "GLOUCESTER SQ, PICKERING"
      }
    ]
  },
  {
    "postal": "L1V9B2",
    "result": []
  },
  {
    "postal": "L1V6Z3",
    "result": [
      {
        "electoralDistricts": [
          {
            "election": null,
            "id": 87,
            "name": "Pickering—Uxbridge"
          }
        ],
        "pollDivisionIds": [
          10143386
        ],
        "postalCode": "L1V6Z3",
        "streetName": "SILVER MAPLE",
        "streetDirectionId": null,
        "streetTypeId": "DR",
        "placeName": "PICKERING",
        "streetNameDisplayText": "SILVER MAPLE DR, PICKERING"
      },
      {
        "electoralDistricts": [
          {
            "election": null,
            "id": 87,
            "name": "Pickering—Uxbridge"
          }
        ],
        "pollDivisionIds": [
          10143386
        ],
        "postalCode": "L1V6Z3",
        "streetName": "WHITE CEDAR",
        "streetDirectionId": null,
        "streetTypeId": "DR",
        "placeName": "PICKERING",
        "streetNameDisplayText": "WHITE CEDAR DR, PICKERING"
      }
    ]
  },
  {
    "postal": "L1V4N5",
    "result": [
      {
        "electoralDistricts": [
          {
            "election": null,
            "id": 87,
            "name": "Pickering—Uxbridge"
          }
        ],
        "pollDivisionIds": [
          10143397
        ],
        "postalCode": "L1V4N5",
        "streetName": "GWENDOLYN",
        "streetDirectionId": null,
        "streetTypeId": "ST",
        "placeName": "PICKERING",
        "streetNameDisplayText": "GWENDOLYN ST, PICKERING"
      },
      {
        "electoralDistricts": [
          {
            "election": null,
            "id": 87,
            "name": "Pickering—Uxbridge"
          }
        ],
        "pollDivisionIds": [
          10143397
        ],
        "postalCode": "L1V4N5",
        "streetName": "PETUNIA",
        "streetDirectionId": null,
        "streetTypeId": "PL",
        "placeName": "PICKERING",
        "streetNameDisplayText": "PETUNIA PL, PICKERING"
      }
    ]
  },
  {
    "postal": "L1V8T3",
    "result": []
  },
  {
    "postal": "L1V1V2",
    "result": []
  },
  {
    "postal": "L1V1Y0",
    "result": []
  },
  {
    "postal": "L1V3G6",
    "result": [
      {
        "electoralDistricts": [
          {
            "election": null,
            "id": 87,
            "name": "Pickering—Uxbridge"
          }
        ],
        "pollDivisionIds": [
          10143392
        ],
        "postalCode": "L1V3G6",
        "streetName": "MALDEN",
        "streetDirectionId": null,
        "streetTypeId": "CRES",
        "placeName": "PICKERING",
        "streetNameDisplayText": "MALDEN CRES, PICKERING"
      }
    ]
  },
  {
    "postal": "L1V3H7",
    "result": [
      {
        "electoralDistricts": [
          {
            "election": null,
            "id": 87,
            "name": "Pickering—Uxbridge"
          }
        ],
        "pollDivisionIds": [
          10143382
        ],
        "postalCode": "L1V3H7",
        "streetName": "GETA",
        "streetDirectionId": null,
        "streetTypeId": "CIR",
        "placeName": "PICKERING",
        "streetNameDisplayText": "GETA CIR, PICKERING"
      }
    ]
  },
  {
    "postal": "L1V7X8",
    "result": []
  },
  {
    "postal": "L1V0C7",
    "result": []
  },
  {
    "postal": "L1V0W9",
    "result": []
  },
  {
    "postal": "L1V8E6",
    "result": []
  },
  {
    "postal": "L1V9Z8",
    "result": []
  },
  {
    "postal": "L1V3P4",
    "result": [
      {
        "electoralDistricts": [
          {
            "election": null,
            "id": 87,
            "name": "Pickering—Uxbridge"
          }
        ],
        "pollDivisionIds": [
          10143389
        ],
        "postalCode": "L1V3P4",
        "streetName": "ASPEN",
        "streetDirectionId": null,
        "streetTypeId": "RD",
        "placeName": "PICKERING",
        "streetNameDisplayText": "ASPEN RD, PICKERING"
      }
    ]
  },
  {
    "postal": "L1V6L8",
    "result": [
      {
        "electoralDistricts": [
          {
            "election": null,
            "id": 87,
            "name": "Pickering—Uxbridge"
          }
        ],
        "pollDivisionIds": [
          10143382
        ],
        "postalCode": "L1V6L8",
        "streetName": "BAINBRIDGE",
        "streetDirectionId": null,
        "streetTypeId": "DR",
        "placeName": "PICKERING",
        "streetNameDisplayText": "BAINBRIDGE DR, PICKERING"
      }
    ]
  },
  {
    "postal": "L1V2R4",
    "result": []
  },
  {
    "postal": "L1V2W1",
    "result": [
      {
        "electoralDistricts": [
          {
            "election": null,
            "id": 87,
            "name": "Pickering—Uxbridge"
          }
        ],
        "pollDivisionIds": [
          10143382
        ],
        "postalCode": "L1V2W1",
        "streetName": "ALWIN",
        "streetDirectionId": null,
        "streetTypeId": "CIR",
        "placeName": "PICKERING",
        "streetNameDisplayText": "ALWIN CIR, PICKERING"
      }
    ]
  },
  {
    "postal": "L1V9H8",
    "result": []
  },
  {
    "postal": "L1V8X9",
    "result": []
  },
  {
    "postal": "L1V7H4",
    "result": [
      {
        "electoralDistricts": [
          {
            "election": null,
            "id": 87,
            "name": "Pickering—Uxbridge"
          }
        ],
        "pollDivisionIds": [
          10143382
        ],
        "postalCode": "L1V7H4",
        "streetName": "AVONMORE",
        "streetDirectionId": null,
        "streetTypeId": "SQ",
        "placeName": "PICKERING",
        "streetNameDisplayText": "AVONMORE SQ, PICKERING"
      }
    ]
  },
  {
    "postal": "L1V3J1",
    "result": [
      {
        "electoralDistricts": [
          {
            "election": null,
            "id": 87,
            "name": "Pickering—Uxbridge"
          }
        ],
        "pollDivisionIds": [
          10143389
        ],
        "postalCode": "L1V3J1",
        "streetName": "STROUDS",
        "streetDirectionId": null,
        "streetTypeId": "LANE",
        "placeName": "PICKERING",
        "streetNameDisplayText": "STROUDS LANE, PICKERING"
      }
    ]
  },
  {
    "postal": "L1V1P4",
    "result": [
      {
        "electoralDistricts": [
          {
            "election": null,
            "id": 87,
            "name": "Pickering—Uxbridge"
          }
        ],
        "pollDivisionIds": [
          10143388
        ],
        "postalCode": "L1V1P4",
        "streetName": "ROSEBANK",
        "streetDirectionId": null,
        "streetTypeId": "RD",
        "placeName": "PICKERING",
        "streetNameDisplayText": "ROSEBANK RD, PICKERING"
      }
    ]
  },
  {
    "postal": "L1V2A3",
    "result": []
  },
  {
    "postal": "L1V0Z1",
    "result": []
  },
  {
    "postal": "L1V1C1",
    "result": [
      {
        "electoralDistricts": [
          {
            "election": null,
            "id": 87,
            "name": "Pickering—Uxbridge"
          }
        ],
        "pollDivisionIds": [
          10143378
        ],
        "postalCode": "L1V1C1",
        "streetName": "KINGSTON",
        "streetDirectionId": null,
        "streetTypeId": "RD",
        "placeName": "PICKERING",
        "streetNameDisplayText": "KINGSTON RD, PICKERING"
      }
    ]
  },
  {
    "postal": "L1V0H3",
    "result": []
  },
  {
    "postal": "L1V7B0",
    "result": []
  },
  {
    "postal": "L1V5K2",
    "result": [
      {
        "electoralDistricts": [
          {
            "election": null,
            "id": 87,
            "name": "Pickering—Uxbridge"
          }
        ],
        "pollDivisionIds": [
          10143390
        ],
        "postalCode": "L1V5K2",
        "streetName": "HUNTSMILL",
        "streetDirectionId": null,
        "streetTypeId": "DR",
        "placeName": "PICKERING",
        "streetNameDisplayText": "HUNTSMILL DR, PICKERING"
      }
    ]
  },
  {
    "postal": "L1V1E9",
    "result": [
      {
        "electoralDistricts": [
          {
            "election": null,
            "id": 87,
            "name": "Pickering—Uxbridge"
          }
        ],
        "pollDivisionIds": [
          10143388
        ],
        "postalCode": "L1V1E9",
        "streetName": "SHEPPARD",
        "streetDirectionId": null,
        "streetTypeId": "AVE",
        "placeName": "PICKERING",
        "streetNameDisplayText": "SHEPPARD AVE, PICKERING"
      }
    ]
  },
  {
    "postal": "L1V9W7",
    "result": []
  },
  {
    "postal": "L1V5W6",
    "result": [
      {
        "electoralDistricts": [
          {
            "election": null,
            "id": 87,
            "name": "Pickering—Uxbridge"
          }
        ],
        "pollDivisionIds": [
          10143390
        ],
        "postalCode": "L1V5W6",
        "streetName": "HEATHSIDE",
        "streetDirectionId": null,
        "streetTypeId": "CRES",
        "placeName": "PICKERING",
        "streetNameDisplayText": "HEATHSIDE CRES, PICKERING"
      }
    ]
  },
  {
    "postal": "L1V6S6",
    "result": [
      {
        "electoralDistricts": [
          {
            "election": null,
            "id": 87,
            "name": "Pickering—Uxbridge"
          }
        ],
        "pollDivisionIds": [
          10143383
        ],
        "postalCode": "L1V6S6",
        "streetName": "THICKET",
        "streetDirectionId": null,
        "streetTypeId": "CRES",
        "placeName": "PICKERING",
        "streetNameDisplayText": "THICKET CRES, PICKERING"
      }
    ]
  },
  {
    "postal": "L1V2P8",
    "result": [
      {
        "electoralDistricts": [
          {
            "election": null,
            "id": 87,
            "name": "Pickering—Uxbridge"
          }
        ],
        "pollDivisionIds": [
          10143374
        ],
        "postalCode": "L1V2P8",
        "streetName": "AUDLEY",
        "streetDirectionId": null,
        "streetTypeId": "RD",
        "placeName": "PICKERING",
        "streetNameDisplayText": "AUDLEY RD, PICKERING"
      },
      {
        "electoralDistricts": [
          {
            "election": null,
            "id": 87,
            "name": "Pickering—Uxbridge"
          }
        ],
        "pollDivisionIds": [
          10143396
        ],
        "postalCode": "L1V2P8",
        "streetName": "BAYLY",
        "streetDirectionId": null,
        "streetTypeId": "ST",
        "placeName": "PICKERING",
        "streetNameDisplayText": "BAYLY ST, PICKERING"
      },
      {
        "electoralDistricts": [
          {
            "election": null,
            "id": 87,
            "name": "Pickering—Uxbridge"
          }
        ],
        "pollDivisionIds": [
          10143376,
          10143379
        ],
        "postalCode": "L1V2P8",
        "streetName": "BROCK",
        "streetDirectionId": null,
        "streetTypeId": "RD",
        "placeName": "PICKERING",
        "streetNameDisplayText": "BROCK RD, PICKERING"
      },
      {
        "electoralDistricts": [
          {
            "election": null,
            "id": 87,
            "name": "Pickering—Uxbridge"
          }
        ],
        "pollDivisionIds": [
          10143376,
          10143377,
          10143375
        ],
        "postalCode": "L1V2P8",
        "streetName": "CONCESSION ROAD 3",
        "streetDirectionId": null,
        "streetTypeId": null,
        "placeName": "PICKERING",
        "streetNameDisplayText": "CONCESSION ROAD 3, PICKERING"
      },
      {
        "electoralDistricts": [
          {
            "election": null,
            "id": 87,
            "name": "Pickering—Uxbridge"
          }
        ],
        "pollDivisionIds": [
          10143374
        ],
        "postalCode": "L1V2P8",
        "streetName": "CONCESSION ROAD 5",
        "streetDirectionId": null,
        "streetTypeId": null,
        "placeName": "PICKERING",
        "streetNameDisplayText": "CONCESSION ROAD 5, PICKERING"
      },
      {
        "electoralDistricts": [
          {
            "election": null,
            "id": 87,
            "name": "Pickering—Uxbridge"
          }
        ],
        "pollDivisionIds": [
          10143376
        ],
        "postalCode": "L1V2P8",
        "streetName": "FORBROCK",
        "streetDirectionId": null,
        "streetTypeId": "ST",
        "placeName": "PICKERING",
        "streetNameDisplayText": "FORBROCK ST, PICKERING"
      },
      {
        "electoralDistricts": [
          {
            "election": null,
            "id": 87,
            "name": "Pickering—Uxbridge"
          }
        ],
        "pollDivisionIds": [
          10143396
        ],
        "postalCode": "L1V2P8",
        "streetName": "JODREL",
        "streetDirectionId": null,
        "streetTypeId": "RD",
        "placeName": "PICKERING",
        "streetNameDisplayText": "JODREL RD, PICKERING"
      },
      {
        "electoralDistricts": [
          {
            "election": null,
            "id": 87,
            "name": "Pickering—Uxbridge"
          }
        ],
        "pollDivisionIds": [
          10143374
        ],
        "postalCode": "L1V2P8",
        "streetName": "SIDELINE 16",
        "streetDirectionId": null,
        "streetTypeId": null,
        "placeName": "LOCUST HILL",
        "streetNameDisplayText": "SIDELINE 16, LOCUST HILL"
      },
      {
        "electoralDistricts": [
          {
            "election": null,
            "id": 87,
            "name": "Pickering—Uxbridge"
          }
        ],
        "pollDivisionIds": [
          10143396
        ],
        "postalCode": "L1V2P8",
        "streetName": "SUSAN",
        "streetDirectionId": null,
        "streetTypeId": "DR",
        "placeName": "PICKERING",
        "streetNameDisplayText": "SUSAN DR, PICKERING"
      },
      {
        "electoralDistricts": [
          {
            "election": null,
            "id": 87,
            "name": "Pickering—Uxbridge"
          }
        ],
        "pollDivisionIds": [
          10143374
        ],
        "postalCode": "L1V2P8",
        "streetName": "TAUNTON",
        "streetDirectionId": "W",
        "streetTypeId": "RD",
        "placeName": "PICKERING",
        "streetNameDisplayText": "TAUNTON RD W, PICKERING"
      },
      {
        "electoralDistricts": [
          {
            "election": null,
            "id": 87,
            "name": "Pickering—Uxbridge"
          }
        ],
        "pollDivisionIds": [
          10143374,
          10143376
        ],
        "postalCode": "L1V2P8",
        "streetName": "TAUNTON",
        "streetDirectionId": null,
        "streetTypeId": "RD",
        "placeName": "PICKERING",
        "streetNameDisplayText": "TAUNTON RD, PICKERING"
      },
      {
        "electoralDistricts": [
          {
            "election": null,
            "id": 87,
            "name": "Pickering—Uxbridge"
          }
        ],
        "pollDivisionIds": [
          10143376
        ],
        "postalCode": "L1V2P8",
        "streetName": "TILLINGS",
        "streetDirectionId": null,
        "streetTypeId": "DR",
        "placeName": "PICKERING",
        "streetNameDisplayText": "TILLINGS DR, PICKERING"
      },
      {
        "electoralDistricts": [
          {
            "election": null,
            "id": 87,
            "name": "Pickering—Uxbridge"
          }
        ],
        "pollDivisionIds": [
          10143376
        ],
        "postalCode": "L1V2P8",
        "streetName": "TILLINGS",
        "streetDirectionId": null,
        "streetTypeId": "RD",
        "placeName": "PICKERING",
        "streetNameDisplayText": "TILLINGS RD, PICKERING"
      },
      {
        "electoralDistricts": [
          {
            "election": null,
            "id": 87,
            "name": "Pickering—Uxbridge"
          }
        ],
        "pollDivisionIds": [
          10143376
        ],
        "postalCode": "L1V2P8",
        "streetName": "WILLIAM JACKSON",
        "streetDirectionId": null,
        "streetTypeId": "DR",
        "placeName": "PICKERING",
        "streetNameDisplayText": "WILLIAM JACKSON DR, PICKERING"
      }
    ]
  },
  {
    "postal": "L1V4P8",
    "result": [
      {
        "electoralDistricts": [
          {
            "election": null,
            "id": 87,
            "name": "Pickering—Uxbridge"
          }
        ],
        "pollDivisionIds": [
          10143386
        ],
        "postalCode": "L1V4P8",
        "streetName": "FOXWOOD",
        "streetDirectionId": null,
        "streetTypeId": "TRAIL",
        "placeName": "PICKERING",
        "streetNameDisplayText": "FOXWOOD TRAIL, PICKERING"
      },
      {
        "electoralDistricts": [
          {
            "election": null,
            "id": 87,
            "name": "Pickering—Uxbridge"
          }
        ],
        "pollDivisionIds": [
          10143386
        ],
        "postalCode": "L1V4P8",
        "streetName": "LAURIER",
        "streetDirectionId": null,
        "streetTypeId": "CRES",
        "placeName": "PICKERING",
        "streetNameDisplayText": "LAURIER CRES, PICKERING"
      }
    ]
  },
  {
    "postal": "L1V0V9",
    "result": []
  },
  {
    "postal": "L1V5Y2",
    "result": [
      {
        "electoralDistricts": [
          {
            "election": null,
            "id": 87,
            "name": "Pickering—Uxbridge"
          }
        ],
        "pollDivisionIds": [
          10143390
        ],
        "postalCode": "L1V5Y2",
        "streetName": "KELVINWAY",
        "streetDirectionId": null,
        "streetTypeId": "LANE",
        "placeName": "PICKERING",
        "streetNameDisplayText": "KELVINWAY LANE, PICKERING"
      }
    ]
  },
  {
    "postal": "L1V7Z7",
    "result": []
  },
  {
    "postal": "L1V6Y8",
    "result": [
      {
        "electoralDistricts": [
          {
            "election": null,
            "id": 87,
            "name": "Pickering—Uxbridge"
          }
        ],
        "pollDivisionIds": [
          10143384
        ],
        "postalCode": "L1V6Y8",
        "streetName": "SANDHURST",
        "streetDirectionId": null,
        "streetTypeId": "CRES",
        "placeName": "PICKERING",
        "streetNameDisplayText": "SANDHURST CRES, PICKERING"
      }
    ]
  },
  {
    "postal": "L1V2G7",
    "result": []
  },
  {
    "postal": "L1V8C1",
    "result": []
  },
  {
    "postal": "L1V5C5",
    "result": [
      {
        "electoralDistricts": [
          {
            "election": null,
            "id": 87,
            "name": "Pickering—Uxbridge"
          }
        ],
        "pollDivisionIds": [
          10143390
        ],
        "postalCode": "L1V5C5",
        "streetName": "SILVERTHORN",
        "streetDirectionId": null,
        "streetTypeId": "SQ",
        "placeName": "PICKERING",
        "streetNameDisplayText": "SILVERTHORN SQ, PICKERING"
      }
    ]
  },
  {
    "postal": "L1V2X8",
    "result": [
      {
        "electoralDistricts": [
          {
            "election": null,
            "id": 87,
            "name": "Pickering—Uxbridge"
          }
        ],
        "pollDivisionIds": [
          10143390,
          10143392
        ],
        "postalCode": "L1V2X8",
        "streetName": "FOLEYET",
        "streetDirectionId": null,
        "streetTypeId": "CRES",
        "placeName": "PICKERING",
        "streetNameDisplayText": "FOLEYET CRES, PICKERING"
      }
    ]
  },
  {
    "postal": "L1V1W5",
    "result": [
      {
        "electoralDistricts": [
          {
            "election": null,
            "id": 87,
            "name": "Pickering—Uxbridge"
          }
        ],
        "pollDivisionIds": [
          10143392,
          10143378
        ],
        "postalCode": "L1V1W5",
        "streetName": "LIVERPOOL",
        "streetDirectionId": null,
        "streetTypeId": "RD",
        "placeName": "PICKERING",
        "streetNameDisplayText": "LIVERPOOL RD, PICKERING"
      }
    ]
  },
  {
    "postal": "L1V7G0",
    "result": []
  },
  {
    "postal": "L1V8J8",
    "result": []
  },
  {
    "postal": "L1V3Y0",
    "result": []
  },
  {
    "postal": "L1V9T7",
    "result": []
  },
  {
    "postal": "L1V5P4",
    "result": [
      {
        "electoralDistricts": [
          {
            "election": null,
            "id": 87,
            "name": "Pickering—Uxbridge"
          }
        ],
        "pollDivisionIds": [
          10143387
        ],
        "postalCode": "L1V5P4",
        "streetName": "AMBERLEA",
        "streetDirectionId": null,
        "streetTypeId": "RD",
        "placeName": "PICKERING",
        "streetNameDisplayText": "AMBERLEA RD, PICKERING"
      },
      {
        "electoralDistricts": [
          {
            "election": null,
            "id": 87,
            "name": "Pickering—Uxbridge"
          }
        ],
        "pollDivisionIds": [
          10143387
        ],
        "postalCode": "L1V5P4",
        "streetName": "OTONABEE",
        "streetDirectionId": null,
        "streetTypeId": "DR",
        "placeName": "PICKERING",
        "streetNameDisplayText": "OTONABEE DR, PICKERING"
      }
    ]
  },
  {
    "postal": "L1V4B0",
    "result": []
  },
  {
    "postal": "L1V9N8",
    "result": []
  },
  {
    "postal": "L1V4A7",
    "result": []
  },
  {
    "postal": "L1V4H9",
    "result": []
  },
  {
    "postal": "L1V6X1",
    "result": [
      {
        "electoralDistricts": [
          {
            "election": null,
            "id": 87,
            "name": "Pickering—Uxbridge"
          }
        ],
        "pollDivisionIds": [
          10143388
        ],
        "postalCode": "L1V6X1",
        "streetName": "WHITES",
        "streetDirectionId": null,
        "streetTypeId": "RD",
        "placeName": "PICKERING",
        "streetNameDisplayText": "WHITES RD, PICKERING"
      }
    ]
  },
  {
    "postal": "L1V9Y7",
    "result": []
  },
  {
    "postal": "L1V2Y5",
    "result": [
      {
        "electoralDistricts": [
          {
            "election": null,
            "id": 87,
            "name": "Pickering—Uxbridge"
          }
        ],
        "pollDivisionIds": [
          10143392
        ],
        "postalCode": "L1V2Y5",
        "streetName": "STORRINGTON",
        "streetDirectionId": null,
        "streetTypeId": "ST",
        "placeName": "PICKERING",
        "streetNameDisplayText": "STORRINGTON ST, PICKERING"
      }
    ]
  },
  {
    "postal": "L1V8L7",
    "result": []
  },
  {
    "postal": "L1V2A8",
    "result": []
  },
  {
    "postal": "L1V2K9",
    "result": []
  },
  {
    "postal": "L1V3E5",
    "result": [
      {
        "electoralDistricts": [
          {
            "election": null,
            "id": 87,
            "name": "Pickering—Uxbridge"
          }
        ],
        "pollDivisionIds": [
          10143392
        ],
        "postalCode": "L1V3E5",
        "streetName": "BOWLER",
        "streetDirectionId": null,
        "streetTypeId": "DR",
        "placeName": "PICKERING",
        "streetNameDisplayText": "BOWLER DR, PICKERING"
      }
    ]
  },
  {
    "postal": "L1V8N6",
    "result": []
  },
  {
    "postal": "L1V8J4",
    "result": []
  },
  {
    "postal": "L1V4R7",
    "result": [
      {
        "electoralDistricts": [
          {
            "election": null,
            "id": 87,
            "name": "Pickering—Uxbridge"
          }
        ],
        "pollDivisionIds": [
          10143386
        ],
        "postalCode": "L1V4R7",
        "streetName": "GARDENVIEW",
        "streetDirectionId": null,
        "streetTypeId": "SQ",
        "placeName": "PICKERING",
        "streetNameDisplayText": "GARDENVIEW SQ, PICKERING"
      }
    ]
  },
  {
    "postal": "L1V9K1",
    "result": []
  },
  {
    "postal": "L1V8E1",
    "result": []
  },
  {
    "postal": "L1V0R1",
    "result": []
  },
  {
    "postal": "L1V4J3",
    "result": []
  },
  {
    "postal": "L1V7E7",
    "result": [
      {
        "electoralDistricts": [
          {
            "election": null,
            "id": 87,
            "name": "Pickering—Uxbridge"
          }
        ],
        "pollDivisionIds": [
          10143385
        ],
        "postalCode": "L1V7E7",
        "streetName": "SPARROW",
        "streetDirectionId": null,
        "streetTypeId": "CIR",
        "placeName": "PICKERING",
        "streetNameDisplayText": "SPARROW CIR, PICKERING"
      }
    ]
  },
  {
    "postal": "L1V0J0",
    "result": []
  },
  {
    "postal": "L1V7R8",
    "result": []
  },
  {
    "postal": "L1V9X0",
    "result": []
  },
  {
    "postal": "L1V7P6",
    "result": []
  },
  {
    "postal": "L1V0R7",
    "result": []
  },
  {
    "postal": "L1V5W1",
    "result": [
      {
        "electoralDistricts": [
          {
            "election": null,
            "id": 87,
            "name": "Pickering—Uxbridge"
          }
        ],
        "pollDivisionIds": [
          10143390
        ],
        "postalCode": "L1V5W1",
        "streetName": "LONGBOW",
        "streetDirectionId": null,
        "streetTypeId": "DR",
        "placeName": "PICKERING",
        "streetNameDisplayText": "LONGBOW DR, PICKERING"
      }
    ]
  },
  {
    "postal": "L1V0K4",
    "result": []
  },
  {
    "postal": "L1V7N9",
    "result": []
  },
  {
    "postal": "L1V1N0",
    "result": []
  },
  {
    "postal": "L1V6P3",
    "result": [
      {
        "electoralDistricts": [
          {
            "election": null,
            "id": 87,
            "name": "Pickering—Uxbridge"
          }
        ],
        "pollDivisionIds": [
          10143397
        ],
        "postalCode": "L1V6P3",
        "streetName": "FIDDLERS",
        "streetDirectionId": null,
        "streetTypeId": "CRT",
        "placeName": "PICKERING",
        "streetNameDisplayText": "FIDDLERS CRT, PICKERING"
      },
      {
        "electoralDistricts": [
          {
            "election": null,
            "id": 87,
            "name": "Pickering—Uxbridge"
          }
        ],
        "pollDivisionIds": [
          10143397
        ],
        "postalCode": "L1V6P3",
        "streetName": "TOMLINSON",
        "streetDirectionId": null,
        "streetTypeId": "CRT",
        "placeName": "PICKERING",
        "streetNameDisplayText": "TOMLINSON CRT, PICKERING"
      }
    ]
  },
  {
    "postal": "L1V5A1",
    "result": [
      {
        "electoralDistricts": [
          {
            "election": null,
            "id": 87,
            "name": "Pickering—Uxbridge"
          }
        ],
        "pollDivisionIds": [
          10143390
        ],
        "postalCode": "L1V5A1",
        "streetName": "RATHMORE",
        "streetDirectionId": null,
        "streetTypeId": "CRES",
        "placeName": "PICKERING",
        "streetNameDisplayText": "RATHMORE CRES, PICKERING"
      }
    ]
  },
  {
    "postal": "L1V9M9",
    "result": []
  },
  {
    "postal": "L1V7T6",
    "result": []
  },
  {
    "postal": "L1V3X0",
    "result": []
  },
  {
    "postal": "L1V2T0",
    "result": []
  },
  {
    "postal": "L1V5X9",
    "result": [
      {
        "electoralDistricts": [
          {
            "election": null,
            "id": 87,
            "name": "Pickering—Uxbridge"
          }
        ],
        "pollDivisionIds": [
          10143390
        ],
        "postalCode": "L1V5X9",
        "streetName": "RAMBLEBERRY",
        "streetDirectionId": null,
        "streetTypeId": "AVE",
        "placeName": "PICKERING",
        "streetNameDisplayText": "RAMBLEBERRY AVE, PICKERING"
      }
    ]
  },
  {
    "postal": "L1V2R3",
    "result": []
  },
  {
    "postal": "L1V5N2",
    "result": [
      {
        "electoralDistricts": [
          {
            "election": null,
            "id": 87,
            "name": "Pickering—Uxbridge"
          }
        ],
        "pollDivisionIds": [
          10143387
        ],
        "postalCode": "L1V5N2",
        "streetName": "ERAMOSA",
        "streetDirectionId": null,
        "streetTypeId": "CRES",
        "placeName": "PICKERING",
        "streetNameDisplayText": "ERAMOSA CRES, PICKERING"
      }
    ]
  },
  {
    "postal": "L1V4Y7",
    "result": [
      {
        "electoralDistricts": [
          {
            "election": null,
            "id": 87,
            "name": "Pickering—Uxbridge"
          }
        ],
        "pollDivisionIds": [
          10143387
        ],
        "postalCode": "L1V4Y7",
        "streetName": "DENCOURT",
        "streetDirectionId": null,
        "streetTypeId": "DR",
        "placeName": "PICKERING",
        "streetNameDisplayText": "DENCOURT DR, PICKERING"
      },
      {
        "electoralDistricts": [
          {
            "election": null,
            "id": 87,
            "name": "Pickering—Uxbridge"
          }
        ],
        "pollDivisionIds": [
          10143387
        ],
        "postalCode": "L1V4Y7",
        "streetName": "FERNAM",
        "streetDirectionId": null,
        "streetTypeId": "ST",
        "placeName": "PICKERING",
        "streetNameDisplayText": "FERNAM ST, PICKERING"
      }
    ]
  },
  {
    "postal": "L1V7M0",
    "result": []
  },
  {
    "postal": "L1V8P3",
    "result": []
  },
  {
    "postal": "L1V3N3",
    "result": [
      {
        "electoralDistricts": [
          {
            "election": null,
            "id": 87,
            "name": "Pickering—Uxbridge"
          }
        ],
        "pollDivisionIds": [
          10143389
        ],
        "postalCode": "L1V3N3",
        "streetName": "CRICKET",
        "streetDirectionId": null,
        "streetTypeId": "LANE",
        "placeName": "PICKERING",
        "streetNameDisplayText": "CRICKET LANE, PICKERING"
      }
    ]
  },
  {
    "postal": "L1V7S3",
    "result": []
  },
  {
    "postal": "L1V3V9",
    "result": [
      {
        "electoralDistricts": [
          {
            "election": null,
            "id": 87,
            "name": "Pickering—Uxbridge"
          }
        ],
        "pollDivisionIds": [
          10143382
        ],
        "postalCode": "L1V3V9",
        "streetName": "PICKERING",
        "streetDirectionId": null,
        "streetTypeId": "PKY",
        "placeName": "PICKERING",
        "streetNameDisplayText": "PICKERING PKY, PICKERING"
      }
    ]
  },
  {
    "postal": "L1V9N7",
    "result": []
  },
  {
    "postal": "L1V0G4",
    "result": []
  },
  {
    "postal": "L1V2E2",
    "result": []
  },
  {
    "postal": "L1V7W8",
    "result": []
  },
  {
    "postal": "L1V7M5",
    "result": []
  },
  {
    "postal": "L1V5W8",
    "result": [
      {
        "electoralDistricts": [
          {
            "election": null,
            "id": 87,
            "name": "Pickering—Uxbridge"
          }
        ],
        "pollDivisionIds": [
          10143390
        ],
        "postalCode": "L1V5W8",
        "streetName": "HEATHSIDE",
        "streetDirectionId": null,
        "streetTypeId": "CRES",
        "placeName": "PICKERING",
        "streetNameDisplayText": "HEATHSIDE CRES, PICKERING"
      }
    ]
  },
  {
    "postal": "L1V5E5",
    "result": [
      {
        "electoralDistricts": [
          {
            "election": null,
            "id": 87,
            "name": "Pickering—Uxbridge"
          }
        ],
        "pollDivisionIds": [
          10143390
        ],
        "postalCode": "L1V5E5",
        "streetName": "GLENANNA",
        "streetDirectionId": null,
        "streetTypeId": "RD",
        "placeName": "PICKERING",
        "streetNameDisplayText": "GLENANNA RD, PICKERING"
      }
    ]
  },
  {
    "postal": "L1V1P9",
    "result": [
      {
        "electoralDistricts": [
          {
            "election": null,
            "id": 87,
            "name": "Pickering—Uxbridge"
          }
        ],
        "pollDivisionIds": [
          10143388
        ],
        "postalCode": "L1V1P9",
        "streetName": "BARRY",
        "streetDirectionId": null,
        "streetTypeId": "DR",
        "placeName": "PICKERING",
        "streetNameDisplayText": "BARRY DR, PICKERING"
      }
    ]
  },
  {
    "postal": "L1V8V8",
    "result": []
  },
  {
    "postal": "L1V9G8",
    "result": []
  },
  {
    "postal": "L1V8H9",
    "result": []
  },
  {
    "postal": "L1V1Z1",
    "result": []
  },
  {
    "postal": "L1V8M3",
    "result": []
  },
  {
    "postal": "L1V5H6",
    "result": [
      {
        "electoralDistricts": [
          {
            "election": null,
            "id": 87,
            "name": "Pickering—Uxbridge"
          }
        ],
        "pollDivisionIds": [
          10143390
        ],
        "postalCode": "L1V5H6",
        "streetName": "EAGLEVIEW",
        "streetDirectionId": null,
        "streetTypeId": "DR",
        "placeName": "PICKERING",
        "streetNameDisplayText": "EAGLEVIEW DR, PICKERING"
      }
    ]
  },
  {
    "postal": "L1V7W7",
    "result": []
  },
  {
    "postal": "L1V4L0",
    "result": []
  },
  {
    "postal": "L1V2N1",
    "result": []
  },
  {
    "postal": "L1V2H4",
    "result": []
  },
  {
    "postal": "L1V5C8",
    "result": [
      {
        "electoralDistricts": [
          {
            "election": null,
            "id": 87,
            "name": "Pickering—Uxbridge"
          }
        ],
        "pollDivisionIds": [
          10143390
        ],
        "postalCode": "L1V5C8",
        "streetName": "ECHO POINT",
        "streetDirectionId": null,
        "streetTypeId": "CRT",
        "placeName": "PICKERING",
        "streetNameDisplayText": "ECHO POINT CRT, PICKERING"
      }
    ]
  },
  {
    "postal": "L1V8B0",
    "result": []
  },
  {
    "postal": "L1V1T4",
    "result": [
      {
        "electoralDistricts": [
          {
            "election": null,
            "id": 87,
            "name": "Pickering—Uxbridge"
          }
        ],
        "pollDivisionIds": [
          10143389
        ],
        "postalCode": "L1V1T4",
        "streetName": "FAIRPORT",
        "streetDirectionId": null,
        "streetTypeId": "RD",
        "placeName": "PICKERING",
        "streetNameDisplayText": "FAIRPORT RD, PICKERING"
      }
    ]
  },
  {
    "postal": "L1V7N7",
    "result": []
  },
  {
    "postal": "L1V4L3",
    "result": []
  },
  {
    "postal": "L1V2N2",
    "result": []
  },
  {
    "postal": "L1V4N8",
    "result": [
      {
        "electoralDistricts": [
          {
            "election": null,
            "id": 87,
            "name": "Pickering—Uxbridge"
          }
        ],
        "pollDivisionIds": [
          10143397
        ],
        "postalCode": "L1V4N8",
        "streetName": "ROUGE VALLEY",
        "streetDirectionId": null,
        "streetTypeId": "DR",
        "placeName": "PICKERING",
        "streetNameDisplayText": "ROUGE VALLEY DR, PICKERING"
      }
    ]
  },
  {
    "postal": "L1V3M5",
    "result": []
  },
  {
    "postal": "L1V6H7",
    "result": [
      {
        "electoralDistricts": [
          {
            "election": null,
            "id": 87,
            "name": "Pickering—Uxbridge"
          }
        ],
        "pollDivisionIds": [
          10143382
        ],
        "postalCode": "L1V6H7",
        "streetName": "BAINBRIDGE",
        "streetDirectionId": null,
        "streetTypeId": "DR",
        "placeName": "PICKERING",
        "streetNameDisplayText": "BAINBRIDGE DR, PICKERING"
      }
    ]
  },
  {
    "postal": "L1V8Y8",
    "result": []
  },
  {
    "postal": "L1V5R9",
    "result": [
      {
        "electoralDistricts": [
          {
            "election": null,
            "id": 87,
            "name": "Pickering—Uxbridge"
          }
        ],
        "pollDivisionIds": [
          10143397
        ],
        "postalCode": "L1V5R9",
        "streetName": "HOOVER",
        "streetDirectionId": null,
        "streetTypeId": "DR",
        "placeName": "PICKERING",
        "streetNameDisplayText": "HOOVER DR, PICKERING"
      }
    ]
  },
  {
    "postal": "L1V8G3",
    "result": []
  },
  {
    "postal": "L1V4N7",
    "result": [
      {
        "electoralDistricts": [
          {
            "election": null,
            "id": 87,
            "name": "Pickering—Uxbridge"
          }
        ],
        "pollDivisionIds": [
          10143397
        ],
        "postalCode": "L1V4N7",
        "streetName": "ROUGE VALLEY",
        "streetDirectionId": null,
        "streetTypeId": "DR",
        "placeName": "PICKERING",
        "streetNameDisplayText": "ROUGE VALLEY DR, PICKERING"
      }
    ]
  },
  {
    "postal": "L1V0B9",
    "result": [
      {
        "electoralDistricts": [
          {
            "election": null,
            "id": 87,
            "name": "Pickering—Uxbridge"
          }
        ],
        "pollDivisionIds": [
          10143390
        ],
        "postalCode": "L1V0B9",
        "streetName": "FAIRPORT",
        "streetDirectionId": null,
        "streetTypeId": "RD",
        "placeName": "PICKERING",
        "streetNameDisplayText": "FAIRPORT RD, PICKERING"
      }
    ]
  },
  {
    "postal": "L1V9K7",
    "result": []
  },
  {
    "postal": "L1V9K9",
    "result": []
  },
  {
    "postal": "L1V3Z2",
    "result": [
      {
        "electoralDistricts": [
          {
            "election": null,
            "id": 87,
            "name": "Pickering—Uxbridge"
          }
        ],
        "pollDivisionIds": [
          10143389
        ],
        "postalCode": "L1V3Z2",
        "streetName": "NEW",
        "streetDirectionId": null,
        "streetTypeId": "ST",
        "placeName": "PICKERING",
        "streetNameDisplayText": "NEW ST, PICKERING"
      }
    ]
  },
  {
    "postal": "L1V6W7",
    "result": [
      {
        "electoralDistricts": [
          {
            "election": null,
            "id": 87,
            "name": "Pickering—Uxbridge"
          }
        ],
        "pollDivisionIds": [
          10143386
        ],
        "postalCode": "L1V6W7",
        "streetName": "AUTUMN",
        "streetDirectionId": null,
        "streetTypeId": "CRES",
        "placeName": "PICKERING",
        "streetNameDisplayText": "AUTUMN CRES, PICKERING"
      },
      {
        "electoralDistricts": [
          {
            "election": null,
            "id": 87,
            "name": "Pickering—Uxbridge"
          }
        ],
        "pollDivisionIds": [
          10143385,
          10143386
        ],
        "postalCode": "L1V6W7",
        "streetName": "STROUDS",
        "streetDirectionId": null,
        "streetTypeId": "LANE",
        "placeName": "PICKERING",
        "streetNameDisplayText": "STROUDS LANE, PICKERING"
      },
      {
        "electoralDistricts": [
          {
            "election": null,
            "id": 87,
            "name": "Pickering—Uxbridge"
          }
        ],
        "pollDivisionIds": [
          10143386
        ],
        "postalCode": "L1V6W7",
        "streetName": "WHITE CEDAR",
        "streetDirectionId": null,
        "streetTypeId": "DR",
        "placeName": "PICKERING",
        "streetNameDisplayText": "WHITE CEDAR DR, PICKERING"
      }
    ]
  },
  {
    "postal": "L1V0P1",
    "result": []
  },
  {
    "postal": "L1V3A0",
    "result": []
  },
  {
    "postal": "L1V8L9",
    "result": []
  },
  {
    "postal": "L1V6X0",
    "result": []
  },
  {
    "postal": "L1V3E9",
    "result": [
      {
        "electoralDistricts": [
          {
            "election": null,
            "id": 87,
            "name": "Pickering—Uxbridge"
          }
        ],
        "pollDivisionIds": [
          10143392
        ],
        "postalCode": "L1V3E9",
        "streetName": "BICROFT",
        "streetDirectionId": null,
        "streetTypeId": "CRT",
        "placeName": "PICKERING",
        "streetNameDisplayText": "BICROFT CRT, PICKERING"
      }
    ]
  },
  {
    "postal": "L1V0S5",
    "result": []
  },
  {
    "postal": "L1V1A2",
    "result": [
      {
        "electoralDistricts": [
          {
            "election": null,
            "id": 87,
            "name": "Pickering—Uxbridge"
          }
        ],
        "pollDivisionIds": [
          10143397
        ],
        "postalCode": "L1V1A2",
        "streetName": "KINGSTON",
        "streetDirectionId": null,
        "streetTypeId": "RD",
        "placeName": "PICKERING",
        "streetNameDisplayText": "KINGSTON RD, PICKERING"
      }
    ]
  },
  {
    "postal": "L1V5V8",
    "result": [
      {
        "electoralDistricts": [
          {
            "election": null,
            "id": 87,
            "name": "Pickering—Uxbridge"
          }
        ],
        "pollDivisionIds": [
          10143390
        ],
        "postalCode": "L1V5V8",
        "streetName": "HEATHSIDE",
        "streetDirectionId": null,
        "streetTypeId": "CRES",
        "placeName": "PICKERING",
        "streetNameDisplayText": "HEATHSIDE CRES, PICKERING"
      }
    ]
  },
  {
    "postal": "L1V8C5",
    "result": []
  },
  {
    "postal": "L1V6N0",
    "result": []
  },
  {
    "postal": "L1V9E6",
    "result": []
  },
  {
    "postal": "L1V5J7",
    "result": [
      {
        "electoralDistricts": [
          {
            "election": null,
            "id": 87,
            "name": "Pickering—Uxbridge"
          }
        ],
        "pollDivisionIds": [
          10143390
        ],
        "postalCode": "L1V5J7",
        "streetName": "MOUNTCASTLE",
        "streetDirectionId": null,
        "streetTypeId": "CRES",
        "placeName": "PICKERING",
        "streetNameDisplayText": "MOUNTCASTLE CRES, PICKERING"
      }
    ]
  },
  {
    "postal": "L1V2R2",
    "result": []
  },
  {
    "postal": "L1V0P5",
    "result": []
  },
  {
    "postal": "L1V5A7",
    "result": [
      {
        "electoralDistricts": [
          {
            "election": null,
            "id": 87,
            "name": "Pickering—Uxbridge"
          }
        ],
        "pollDivisionIds": [
          10143390
        ],
        "postalCode": "L1V5A7",
        "streetName": "ROWNTREE",
        "streetDirectionId": null,
        "streetTypeId": "CRES",
        "placeName": "PICKERING",
        "streetNameDisplayText": "ROWNTREE CRES, PICKERING"
      }
    ]
  },
  {
    "postal": "L1V1G1",
    "result": [
      {
        "electoralDistricts": [
          {
            "election": null,
            "id": 87,
            "name": "Pickering—Uxbridge"
          }
        ],
        "pollDivisionIds": [
          10143388
        ],
        "postalCode": "L1V1G1",
        "streetName": "SHEPPARD",
        "streetDirectionId": null,
        "streetTypeId": "AVE",
        "placeName": "PICKERING",
        "streetNameDisplayText": "SHEPPARD AVE, PICKERING"
      }
    ]
  },
  {
    "postal": "L1V9R6",
    "result": []
  },
  {
    "postal": "L1V4Z9",
    "result": [
      {
        "electoralDistricts": [
          {
            "election": null,
            "id": 87,
            "name": "Pickering—Uxbridge"
          }
        ],
        "pollDivisionIds": [
          10143390
        ],
        "postalCode": "L1V4Z9",
        "streetName": "RAMBLEBERRY",
        "streetDirectionId": null,
        "streetTypeId": "AVE",
        "placeName": "PICKERING",
        "streetNameDisplayText": "RAMBLEBERRY AVE, PICKERING"
      },
      {
        "electoralDistricts": [
          {
            "election": null,
            "id": 87,
            "name": "Pickering—Uxbridge"
          }
        ],
        "pollDivisionIds": [
          10143390
        ],
        "postalCode": "L1V4Z9",
        "streetName": "RAWLINGS",
        "streetDirectionId": null,
        "streetTypeId": "DR",
        "placeName": "PICKERING",
        "streetNameDisplayText": "RAWLINGS DR, PICKERING"
      }
    ]
  },
  {
    "postal": "L1V1V5",
    "result": [
      {
        "electoralDistricts": [
          {
            "election": null,
            "id": 87,
            "name": "Pickering—Uxbridge"
          }
        ],
        "pollDivisionIds": [
          10143392
        ],
        "postalCode": "L1V1V5",
        "streetName": "GLENDALE",
        "streetDirectionId": null,
        "streetTypeId": "DR",
        "placeName": "PICKERING",
        "streetNameDisplayText": "GLENDALE DR, PICKERING"
      }
    ]
  },
  {
    "postal": "L1V9Y5",
    "result": []
  },
  {
    "postal": "L1V1P2",
    "result": []
  },
  {
    "postal": "L1V5X0",
    "result": []
  },
  {
    "postal": "L1V7B8",
    "result": [
      {
        "electoralDistricts": [
          {
            "election": null,
            "id": 87,
            "name": "Pickering—Uxbridge"
          }
        ],
        "pollDivisionIds": [
          10143386
        ],
        "postalCode": "L1V7B8",
        "streetName": "GRANBY",
        "streetDirectionId": null,
        "streetTypeId": "CRT",
        "placeName": "PICKERING",
        "streetNameDisplayText": "GRANBY CRT, PICKERING"
      }
    ]
  },
  {
    "postal": "L1V0C6",
    "result": [
      {
        "electoralDistricts": [
          {
            "election": null,
            "id": 87,
            "name": "Pickering—Uxbridge"
          }
        ],
        "pollDivisionIds": [
          10141179
        ],
        "postalCode": "L1V0C6",
        "streetName": "GLENGROVE",
        "streetDirectionId": null,
        "streetTypeId": "RD",
        "placeName": "PICKERING",
        "streetNameDisplayText": "GLENGROVE RD, PICKERING"
      }
    ]
  },
  {
    "postal": "L1V6G1",
    "result": [
      {
        "electoralDistricts": [
          {
            "election": null,
            "id": 87,
            "name": "Pickering—Uxbridge"
          }
        ],
        "pollDivisionIds": [
          10143382
        ],
        "postalCode": "L1V6G1",
        "streetName": "BEECHLAWN",
        "streetDirectionId": null,
        "streetTypeId": "DR",
        "placeName": "PICKERING",
        "streetNameDisplayText": "BEECHLAWN DR, PICKERING"
      }
    ]
  },
  {
    "postal": "L1V3K3",
    "result": [
      {
        "electoralDistricts": [
          {
            "election": null,
            "id": 87,
            "name": "Pickering—Uxbridge"
          }
        ],
        "pollDivisionIds": [
          10143392
        ],
        "postalCode": "L1V3K3",
        "streetName": "BOWLER",
        "streetDirectionId": null,
        "streetTypeId": "DR",
        "placeName": "PICKERING",
        "streetNameDisplayText": "BOWLER DR, PICKERING"
      }
    ]
  },
  {
    "postal": "L1V9R0",
    "result": []
  },
  {
    "postal": "L1V4R8",
    "result": [
      {
        "electoralDistricts": [
          {
            "election": null,
            "id": 87,
            "name": "Pickering—Uxbridge"
          }
        ],
        "pollDivisionIds": [
          10143388
        ],
        "postalCode": "L1V4R8",
        "streetName": "CHARTWELL",
        "streetDirectionId": null,
        "streetTypeId": "CRT",
        "placeName": "PICKERING",
        "streetNameDisplayText": "CHARTWELL CRT, PICKERING"
      }
    ]
  },
  {
    "postal": "L1V5P9",
    "result": [
      {
        "electoralDistricts": [
          {
            "election": null,
            "id": 87,
            "name": "Pickering—Uxbridge"
          }
        ],
        "pollDivisionIds": [
          10143387
        ],
        "postalCode": "L1V5P9",
        "streetName": "SAUGEEN",
        "streetDirectionId": null,
        "streetTypeId": "DR",
        "placeName": "PICKERING",
        "streetNameDisplayText": "SAUGEEN DR, PICKERING"
      }
    ]
  },
  {
    "postal": "L1V8N4",
    "result": []
  },
  {
    "postal": "L1V8H4",
    "result": []
  },
  {
    "postal": "L1V4V1",
    "result": [
      {
        "electoralDistricts": [
          {
            "election": null,
            "id": 87,
            "name": "Pickering—Uxbridge"
          }
        ],
        "pollDivisionIds": [
          10143387
        ],
        "postalCode": "L1V4V1",
        "streetName": "CHIRON",
        "streetDirectionId": null,
        "streetTypeId": "CRES",
        "placeName": "PICKERING",
        "streetNameDisplayText": "CHIRON CRES, PICKERING"
      }
    ]
  },
  {
    "postal": "L1V1K5",
    "result": [
      {
        "electoralDistricts": [
          {
            "election": null,
            "id": 87,
            "name": "Pickering—Uxbridge"
          }
        ],
        "pollDivisionIds": [
          10143376
        ],
        "postalCode": "L1V1K5",
        "streetName": "FINCH",
        "streetDirectionId": null,
        "streetTypeId": "AVE",
        "placeName": "PICKERING",
        "streetNameDisplayText": "FINCH AVE, PICKERING"
      }
    ]
  },
  {
    "postal": "L1V1Z5",
    "result": []
  },
  {
    "postal": "L1V9L9",
    "result": []
  },
  {
    "postal": "L1V5L2",
    "result": [
      {
        "electoralDistricts": [
          {
            "election": null,
            "id": 87,
            "name": "Pickering—Uxbridge"
          }
        ],
        "pollDivisionIds": [
          10143392
        ],
        "postalCode": "L1V5L2",
        "streetName": "LYDIA",
        "streetDirectionId": null,
        "streetTypeId": "CRES",
        "placeName": "PICKERING",
        "streetNameDisplayText": "LYDIA CRES, PICKERING"
      }
    ]
  },
  {
    "postal": "L1V0M2",
    "result": []
  },
  {
    "postal": "L1V1K8",
    "result": [
      {
        "electoralDistricts": [
          {
            "election": null,
            "id": 87,
            "name": "Pickering—Uxbridge"
          }
        ],
        "pollDivisionIds": [
          10143384
        ],
        "postalCode": "L1V1K8",
        "streetName": "PINE GROVE",
        "streetDirectionId": null,
        "streetTypeId": "AVE",
        "placeName": "PICKERING",
        "streetNameDisplayText": "PINE GROVE AVE, PICKERING"
      }
    ]
  },
  {
    "postal": "L1V3M7",
    "result": [
      {
        "electoralDistricts": [
          {
            "election": null,
            "id": 87,
            "name": "Pickering—Uxbridge"
          }
        ],
        "pollDivisionIds": [
          10143392
        ],
        "postalCode": "L1V3M7",
        "streetName": "MONTEAGLE",
        "streetDirectionId": null,
        "streetTypeId": "LANE",
        "placeName": "PICKERING",
        "streetNameDisplayText": "MONTEAGLE LANE, PICKERING"
      }
    ]
  },
  {
    "postal": "L1V1B2",
    "result": [
      {
        "electoralDistricts": [
          {
            "election": null,
            "id": 87,
            "name": "Pickering—Uxbridge"
          }
        ],
        "pollDivisionIds": [
          10143390
        ],
        "postalCode": "L1V1B2",
        "streetName": "MERRITTON",
        "streetDirectionId": null,
        "streetTypeId": "RD",
        "placeName": "PICKERING",
        "streetNameDisplayText": "MERRITTON RD, PICKERING"
      }
    ]
  },
  {
    "postal": "L1V0H9",
    "result": []
  },
  {
    "postal": "L1V8M4",
    "result": []
  },
  {
    "postal": "L1V2M5",
    "result": []
  },
  {
    "postal": "L1V0T9",
    "result": []
  },
  {
    "postal": "L1V3P1",
    "result": []
  },
  {
    "postal": "L1V1R6",
    "result": [
      {
        "electoralDistricts": [
          {
            "election": null,
            "id": 87,
            "name": "Pickering—Uxbridge"
          }
        ],
        "pollDivisionIds": [
          10143387
        ],
        "postalCode": "L1V1R6",
        "streetName": "WHITES",
        "streetDirectionId": null,
        "streetTypeId": "RD",
        "placeName": "PICKERING",
        "streetNameDisplayText": "WHITES RD, PICKERING"
      }
    ]
  },
  {
    "postal": "L1V9V5",
    "result": []
  },
  {
    "postal": "L1V9T0",
    "result": []
  },
  {
    "postal": "L1V0A9",
    "result": []
  },
  {
    "postal": "L1V1M3",
    "result": [
      {
        "electoralDistricts": [
          {
            "election": null,
            "id": 87,
            "name": "Pickering—Uxbridge"
          }
        ],
        "pollDivisionIds": [
          10143397,
          10143383
        ],
        "postalCode": "L1V1M3",
        "streetName": "ALTONA",
        "streetDirectionId": null,
        "streetTypeId": "RD",
        "placeName": "PICKERING",
        "streetNameDisplayText": "ALTONA RD, PICKERING"
      }
    ]
  },
  {
    "postal": "L1V1W8",
    "result": [
      {
        "electoralDistricts": [
          {
            "election": null,
            "id": 87,
            "name": "Pickering—Uxbridge"
          }
        ],
        "pollDivisionIds": [
          10143378
        ],
        "postalCode": "L1V1W8",
        "streetName": "GLENVIEW",
        "streetDirectionId": null,
        "streetTypeId": "RD",
        "placeName": "PICKERING",
        "streetNameDisplayText": "GLENVIEW RD, PICKERING"
      }
    ]
  },
  {
    "postal": "L1V9J1",
    "result": []
  },
  {
    "postal": "L1V8N5",
    "result": []
  },
  {
    "postal": "L1V5X1",
    "result": [
      {
        "electoralDistricts": [
          {
            "election": null,
            "id": 87,
            "name": "Pickering—Uxbridge"
          }
        ],
        "pollDivisionIds": [
          10143390
        ],
        "postalCode": "L1V5X1",
        "streetName": "HEATHSIDE",
        "streetDirectionId": null,
        "streetTypeId": "CRES",
        "placeName": "PICKERING",
        "streetNameDisplayText": "HEATHSIDE CRES, PICKERING"
      }
    ]
  },
  {
    "postal": "L1V6S2",
    "result": [
      {
        "electoralDistricts": [
          {
            "election": null,
            "id": 87,
            "name": "Pickering—Uxbridge"
          }
        ],
        "pollDivisionIds": [
          10143383
        ],
        "postalCode": "L1V6S2",
        "streetName": "VALLEY RIDGE",
        "streetDirectionId": null,
        "streetTypeId": "CRES",
        "placeName": "PICKERING",
        "streetNameDisplayText": "VALLEY RIDGE CRES, PICKERING"
      }
    ]
  },
  {
    "postal": "L1V2A2",
    "result": []
  },
  {
    "postal": "L1V6A6",
    "result": [
      {
        "electoralDistricts": [
          {
            "election": null,
            "id": 87,
            "name": "Pickering—Uxbridge"
          }
        ],
        "pollDivisionIds": [
          10143388
        ],
        "postalCode": "L1V6A6",
        "streetName": "SUNDOWN",
        "streetDirectionId": null,
        "streetTypeId": "CRES",
        "placeName": "PICKERING",
        "streetNameDisplayText": "SUNDOWN CRES, PICKERING"
      }
    ]
  },
  {
    "postal": "L1V0S3",
    "result": []
  },
  {
    "postal": "L1V3E7",
    "result": [
      {
        "electoralDistricts": [
          {
            "election": null,
            "id": 87,
            "name": "Pickering—Uxbridge"
          }
        ],
        "pollDivisionIds": [
          10143392
        ],
        "postalCode": "L1V3E7",
        "streetName": "BOWLER",
        "streetDirectionId": null,
        "streetTypeId": "DR",
        "placeName": "PICKERING",
        "streetNameDisplayText": "BOWLER DR, PICKERING"
      }
    ]
  },
  {
    "postal": "L1V5R7",
    "result": [
      {
        "electoralDistricts": [
          {
            "election": null,
            "id": 87,
            "name": "Pickering—Uxbridge"
          }
        ],
        "pollDivisionIds": [
          10143397
        ],
        "postalCode": "L1V5R7",
        "streetName": "ROUGE VALLEY",
        "streetDirectionId": null,
        "streetTypeId": "DR",
        "placeName": "PICKERING",
        "streetNameDisplayText": "ROUGE VALLEY DR, PICKERING"
      }
    ]
  },
  {
    "postal": "L1V3R6",
    "result": [
      {
        "electoralDistricts": [
          {
            "election": null,
            "id": 87,
            "name": "Pickering—Uxbridge"
          }
        ],
        "pollDivisionIds": [
          10141182,
          10141180
        ],
        "postalCode": "L1V3R6",
        "streetName": "VALLEY FARM",
        "streetDirectionId": null,
        "streetTypeId": "RD",
        "placeName": "PICKERING",
        "streetNameDisplayText": "VALLEY FARM RD, PICKERING"
      }
    ]
  },
  {
    "postal": "L1V6K4",
    "result": [
      {
        "electoralDistricts": [
          {
            "election": null,
            "id": 87,
            "name": "Pickering—Uxbridge"
          }
        ],
        "pollDivisionIds": [
          10143388
        ],
        "postalCode": "L1V6K4",
        "streetName": "KINGSTON",
        "streetDirectionId": null,
        "streetTypeId": "RD",
        "placeName": "PICKERING",
        "streetNameDisplayText": "KINGSTON RD, PICKERING"
      }
    ]
  },
  {
    "postal": "L1V2W5",
    "result": [
      {
        "electoralDistricts": [
          {
            "election": null,
            "id": 87,
            "name": "Pickering—Uxbridge"
          }
        ],
        "pollDivisionIds": [
          10143378
        ],
        "postalCode": "L1V2W5",
        "streetName": "FIELDLIGHT",
        "streetDirectionId": null,
        "streetTypeId": "BLVD",
        "placeName": "PICKERING",
        "streetNameDisplayText": "FIELDLIGHT BLVD, PICKERING"
      }
    ]
  },
  {
    "postal": "L1V8W4",
    "result": []
  },
  {
    "postal": "L1V9C2",
    "result": []
  },
  {
    "postal": "L1V2C0",
    "result": []
  },
  {
    "postal": "L1V0E1",
    "result": [
      {
        "electoralDistricts": [
          {
            "election": null,
            "id": 87,
            "name": "Pickering—Uxbridge"
          }
        ],
        "pollDivisionIds": [
          10143390
        ],
        "postalCode": "L1V0E1",
        "streetName": "GOLDENRIDGE",
        "streetDirectionId": null,
        "streetTypeId": "RD",
        "placeName": "PICKERING",
        "streetNameDisplayText": "GOLDENRIDGE RD, PICKERING"
      }
    ]
  },
  {
    "postal": "L1V1K9",
    "result": [
      {
        "electoralDistricts": [
          {
            "election": null,
            "id": 87,
            "name": "Pickering—Uxbridge"
          }
        ],
        "pollDivisionIds": [
          10143384
        ],
        "postalCode": "L1V1K9",
        "streetName": "PINE GROVE",
        "streetDirectionId": null,
        "streetTypeId": "AVE",
        "placeName": "PICKERING",
        "streetNameDisplayText": "PINE GROVE AVE, PICKERING"
      }
    ]
  },
  {
    "postal": "L1V1G7",
    "result": [
      {
        "electoralDistricts": [
          {
            "election": null,
            "id": 87,
            "name": "Pickering—Uxbridge"
          }
        ],
        "pollDivisionIds": [
          10143390
        ],
        "postalCode": "L1V1G7",
        "streetName": "DUNBARTON",
        "streetDirectionId": null,
        "streetTypeId": "RD",
        "placeName": "PICKERING",
        "streetNameDisplayText": "DUNBARTON RD, PICKERING"
      }
    ]
  },
  {
    "postal": "L1V4E9",
    "result": []
  },
  {
    "postal": "L1V9P0",
    "result": []
  },
  {
    "postal": "L1V5H3",
    "result": [
      {
        "electoralDistricts": [
          {
            "election": null,
            "id": 87,
            "name": "Pickering—Uxbridge"
          }
        ],
        "pollDivisionIds": [
          10143390
        ],
        "postalCode": "L1V5H3",
        "streetName": "GLENANNA",
        "streetDirectionId": null,
        "streetTypeId": "RD",
        "placeName": "PICKERING",
        "streetNameDisplayText": "GLENANNA RD, PICKERING"
      },
      {
        "electoralDistricts": [
          {
            "election": null,
            "id": 87,
            "name": "Pickering—Uxbridge"
          }
        ],
        "pollDivisionIds": [
          10143390
        ],
        "postalCode": "L1V5H3",
        "streetName": "SILVER SPRUCE",
        "streetDirectionId": null,
        "streetTypeId": "DR",
        "placeName": "PICKERING",
        "streetNameDisplayText": "SILVER SPRUCE DR, PICKERING"
      }
    ]
  },
  {
    "postal": "L1V9X6",
    "result": []
  },
  {
    "postal": "L1V5N7",
    "result": [
      {
        "electoralDistricts": [
          {
            "election": null,
            "id": 87,
            "name": "Pickering—Uxbridge"
          }
        ],
        "pollDivisionIds": [
          10143387
        ],
        "postalCode": "L1V5N7",
        "streetName": "SAUGEEN",
        "streetDirectionId": null,
        "streetTypeId": "DR",
        "placeName": "PICKERING",
        "streetNameDisplayText": "SAUGEEN DR, PICKERING"
      }
    ]
  },
  {
    "postal": "L1V5A6",
    "result": [
      {
        "electoralDistricts": [
          {
            "election": null,
            "id": 87,
            "name": "Pickering—Uxbridge"
          }
        ],
        "pollDivisionIds": [
          10143390
        ],
        "postalCode": "L1V5A6",
        "streetName": "RAWLINGS",
        "streetDirectionId": null,
        "streetTypeId": "DR",
        "placeName": "PICKERING",
        "streetNameDisplayText": "RAWLINGS DR, PICKERING"
      }
    ]
  },
  {
    "postal": "L1V4M0",
    "result": []
  },
  {
    "postal": "L1V3V6",
    "result": [
      {
        "electoralDistricts": [
          {
            "election": null,
            "id": 87,
            "name": "Pickering—Uxbridge"
          }
        ],
        "pollDivisionIds": [
          10143382
        ],
        "postalCode": "L1V3V6",
        "streetName": "GLENANNA",
        "streetDirectionId": null,
        "streetTypeId": "RD",
        "placeName": "PICKERING",
        "streetNameDisplayText": "GLENANNA RD, PICKERING"
      }
    ]
  },
  {
    "postal": "L1V1L7",
    "result": []
  },
  {
    "postal": "L1V2P9",
    "result": [
      {
        "electoralDistricts": [
          {
            "election": null,
            "id": 87,
            "name": "Pickering—Uxbridge"
          }
        ],
        "pollDivisionIds": [
          10143376,
          10143375,
          10143374
        ],
        "postalCode": "L1V2P9",
        "streetName": "ALTONA",
        "streetDirectionId": null,
        "streetTypeId": "RD",
        "placeName": "PICKERING",
        "streetNameDisplayText": "ALTONA RD, PICKERING"
      },
      {
        "electoralDistricts": [
          {
            "election": null,
            "id": 87,
            "name": "Pickering—Uxbridge"
          }
        ],
        "pollDivisionIds": [
          10143375
        ],
        "postalCode": "L1V2P9",
        "streetName": "CHERRYWOOD",
        "streetDirectionId": null,
        "streetTypeId": "AVE",
        "placeName": "PICKERING",
        "streetNameDisplayText": "CHERRYWOOD AVE, PICKERING"
      },
      {
        "electoralDistricts": [
          {
            "election": null,
            "id": 87,
            "name": "Pickering—Uxbridge"
          }
        ],
        "pollDivisionIds": [
          10143375,
          10143376
        ],
        "postalCode": "L1V2P9",
        "streetName": "CONCESSION ROAD 3",
        "streetDirectionId": null,
        "streetTypeId": null,
        "placeName": "PICKERING",
        "streetNameDisplayText": "CONCESSION ROAD 3, PICKERING"
      },
      {
        "electoralDistricts": [
          {
            "election": null,
            "id": 87,
            "name": "Pickering—Uxbridge"
          }
        ],
        "pollDivisionIds": [
          10143374,
          10143376
        ],
        "postalCode": "L1V2P9",
        "streetName": "CONCESSION ROAD 4",
        "streetDirectionId": null,
        "streetTypeId": null,
        "placeName": "PICKERING",
        "streetNameDisplayText": "CONCESSION ROAD 4, PICKERING"
      },
      {
        "electoralDistricts": [
          {
            "election": null,
            "id": 87,
            "name": "Pickering—Uxbridge"
          }
        ],
        "pollDivisionIds": [
          10143375
        ],
        "postalCode": "L1V2P9",
        "streetName": "DAVIDSON",
        "streetDirectionId": null,
        "streetTypeId": "RD",
        "placeName": "PICKERING",
        "streetNameDisplayText": "DAVIDSON RD, PICKERING"
      },
      {
        "electoralDistricts": [
          {
            "election": null,
            "id": 87,
            "name": "Pickering—Uxbridge"
          }
        ],
        "pollDivisionIds": [
          10143375
        ],
        "postalCode": "L1V2P9",
        "streetName": "DAVIDSON",
        "streetDirectionId": null,
        "streetTypeId": "ST",
        "placeName": "PICKERING",
        "streetNameDisplayText": "DAVIDSON ST, PICKERING"
      },
      {
        "electoralDistricts": [
          {
            "election": null,
            "id": 87,
            "name": "Pickering—Uxbridge"
          }
        ],
        "pollDivisionIds": [
          10143377
        ],
        "postalCode": "L1V2P9",
        "streetName": "DIXIE",
        "streetDirectionId": null,
        "streetTypeId": "RD",
        "placeName": "PICKERING",
        "streetNameDisplayText": "DIXIE RD, PICKERING"
      },
      {
        "electoralDistricts": [
          {
            "election": null,
            "id": 87,
            "name": "Pickering—Uxbridge"
          }
        ],
        "pollDivisionIds": [
          10143377
        ],
        "postalCode": "L1V2P9",
        "streetName": "FAIRPORT",
        "streetDirectionId": null,
        "streetTypeId": "RD",
        "placeName": "PICKERING",
        "streetNameDisplayText": "FAIRPORT RD, PICKERING"
      },
      {
        "electoralDistricts": [
          {
            "election": null,
            "id": 87,
            "name": "Pickering—Uxbridge"
          }
        ],
        "pollDivisionIds": [
          10143375
        ],
        "postalCode": "L1V2P9",
        "streetName": "HESKA",
        "streetDirectionId": null,
        "streetTypeId": "RD",
        "placeName": "PICKERING",
        "streetNameDisplayText": "HESKA RD, PICKERING"
      },
      {
        "electoralDistricts": [
          {
            "election": null,
            "id": 87,
            "name": "Pickering—Uxbridge"
          }
        ],
        "pollDivisionIds": [
          10143375
        ],
        "postalCode": "L1V2P9",
        "streetName": "JOMAR",
        "streetDirectionId": null,
        "streetTypeId": "AVE",
        "placeName": "PICKERING",
        "streetNameDisplayText": "JOMAR AVE, PICKERING"
      },
      {
        "electoralDistricts": [
          {
            "election": null,
            "id": 87,
            "name": "Pickering—Uxbridge"
          }
        ],
        "pollDivisionIds": [
          10143375
        ],
        "postalCode": "L1V2P9",
        "streetName": "MARTINS",
        "streetDirectionId": null,
        "streetTypeId": "ST",
        "placeName": "PICKERING",
        "streetNameDisplayText": "MARTINS ST, PICKERING"
      },
      {
        "electoralDistricts": [
          {
            "election": null,
            "id": 87,
            "name": "Pickering—Uxbridge"
          }
        ],
        "pollDivisionIds": [
          10143366
        ],
        "postalCode": "L1V2P9",
        "streetName": "SCARBORO/PICKERING",
        "streetDirectionId": null,
        "streetTypeId": "TLINE",
        "placeName": "PICKERING",
        "streetNameDisplayText": "SCARBORO/PICKERING TLINE, PICKERING"
      },
      {
        "electoralDistricts": [
          {
            "election": null,
            "id": 87,
            "name": "Pickering—Uxbridge"
          }
        ],
        "pollDivisionIds": [
          10143376
        ],
        "postalCode": "L1V2P9",
        "streetName": "TOWNLINE",
        "streetDirectionId": null,
        "streetTypeId": "RD",
        "placeName": "PICKERING",
        "streetNameDisplayText": "TOWNLINE RD, PICKERING"
      },
      {
        "electoralDistricts": [
          {
            "election": null,
            "id": 87,
            "name": "Pickering—Uxbridge"
          }
        ],
        "pollDivisionIds": [
          10143379,
          10143377
        ],
        "postalCode": "L1V2P9",
        "streetName": "VALLEY FARM",
        "streetDirectionId": null,
        "streetTypeId": "RD",
        "placeName": "PICKERING",
        "streetNameDisplayText": "VALLEY FARM RD, PICKERING"
      },
      {
        "electoralDistricts": [
          {
            "election": null,
            "id": 87,
            "name": "Pickering—Uxbridge"
          }
        ],
        "pollDivisionIds": [
          10143374
        ],
        "postalCode": "L1V2P9",
        "streetName": "YORK-DURHAM",
        "streetDirectionId": null,
        "streetTypeId": "LINE",
        "placeName": "PICKERING",
        "streetNameDisplayText": "YORK-DURHAM LINE, PICKERING"
      }
    ]
  },
  {
    "postal": "L1V5T4",
    "result": [
      {
        "electoralDistricts": [
          {
            "election": null,
            "id": 87,
            "name": "Pickering—Uxbridge"
          }
        ],
        "pollDivisionIds": [
          10143378
        ],
        "postalCode": "L1V5T4",
        "streetName": "ANTON",
        "streetDirectionId": null,
        "streetTypeId": "SQ",
        "placeName": "PICKERING",
        "streetNameDisplayText": "ANTON SQ, PICKERING"
      }
    ]
  },
  {
    "postal": "L1V5Z1",
    "result": [
      {
        "electoralDistricts": [
          {
            "election": null,
            "id": 87,
            "name": "Pickering—Uxbridge"
          }
        ],
        "pollDivisionIds": [
          10143388
        ],
        "postalCode": "L1V5Z1",
        "streetName": "RAINY DAY",
        "streetDirectionId": null,
        "streetTypeId": "DR",
        "placeName": "PICKERING",
        "streetNameDisplayText": "RAINY DAY DR, PICKERING"
      }
    ]
  },
  {
    "postal": "L1V2X0",
    "result": []
  },
  {
    "postal": "L1V6Z2",
    "result": [
      {
        "electoralDistricts": [
          {
            "election": null,
            "id": 87,
            "name": "Pickering—Uxbridge"
          }
        ],
        "pollDivisionIds": [
          10143386
        ],
        "postalCode": "L1V6Z2",
        "streetName": "SILVER MAPLE",
        "streetDirectionId": null,
        "streetTypeId": "DR",
        "placeName": "PICKERING",
        "streetNameDisplayText": "SILVER MAPLE DR, PICKERING"
      }
    ]
  },
  {
    "postal": "L1V0E0",
    "result": []
  },
  {
    "postal": "L1V3Z5",
    "result": [
      {
        "electoralDistricts": [
          {
            "election": null,
            "id": 87,
            "name": "Pickering—Uxbridge"
          }
        ],
        "pollDivisionIds": [
          10143389
        ],
        "postalCode": "L1V3Z5",
        "streetName": "PEBBLE",
        "streetDirectionId": null,
        "streetTypeId": "CRT",
        "placeName": "PICKERING",
        "streetNameDisplayText": "PEBBLE CRT, PICKERING"
      }
    ]
  },
  {
    "postal": "L1V8H3",
    "result": []
  },
  {
    "postal": "L1V7S6",
    "result": []
  },
  {
    "postal": "L1V4C1",
    "result": []
  },
  {
    "postal": "L1V3K2",
    "result": [
      {
        "electoralDistricts": [
          {
            "election": null,
            "id": 87,
            "name": "Pickering—Uxbridge"
          }
        ],
        "pollDivisionIds": [
          10143392
        ],
        "postalCode": "L1V3K2",
        "streetName": "BOWLER",
        "streetDirectionId": null,
        "streetTypeId": "DR",
        "placeName": "PICKERING",
        "streetNameDisplayText": "BOWLER DR, PICKERING"
      }
    ]
  },
  {
    "postal": "L1V1Y5",
    "result": [
      {
        "electoralDistricts": [
          {
            "election": null,
            "id": 87,
            "name": "Pickering—Uxbridge"
          }
        ],
        "pollDivisionIds": [
          10143376
        ],
        "postalCode": "L1V1Y5",
        "streetName": "BLUEBIRD",
        "streetDirectionId": null,
        "streetTypeId": "CRES",
        "placeName": "PICKERING",
        "streetNameDisplayText": "BLUEBIRD CRES, PICKERING"
      }
    ]
  },
  {
    "postal": "L1V6P6",
    "result": []
  },
  {
    "postal": "L1V3N9",
    "result": [
      {
        "electoralDistricts": [
          {
            "election": null,
            "id": 87,
            "name": "Pickering—Uxbridge"
          }
        ],
        "pollDivisionIds": [
          10143389
        ],
        "postalCode": "L1V3N9",
        "streetName": "PARKSIDE",
        "streetDirectionId": null,
        "streetTypeId": "DR",
        "placeName": "PICKERING",
        "streetNameDisplayText": "PARKSIDE DR, PICKERING"
      }
    ]
  },
  {
    "postal": "L1V3W2",
    "result": [
      {
        "electoralDistricts": [
          {
            "election": null,
            "id": 87,
            "name": "Pickering—Uxbridge"
          }
        ],
        "pollDivisionIds": [
          10143382
        ],
        "postalCode": "L1V3W2",
        "streetName": "DIEFENBAKER",
        "streetDirectionId": null,
        "streetTypeId": "CRT",
        "placeName": "PICKERING",
        "streetNameDisplayText": "DIEFENBAKER CRT, PICKERING"
      }
    ]
  },
  {
    "postal": "L1V6H8",
    "result": [
      {
        "electoralDistricts": [
          {
            "election": null,
            "id": 87,
            "name": "Pickering—Uxbridge"
          }
        ],
        "pollDivisionIds": [
          10143382
        ],
        "postalCode": "L1V6H8",
        "streetName": "FAIRFIELD",
        "streetDirectionId": null,
        "streetTypeId": "CRES",
        "placeName": "PICKERING",
        "streetNameDisplayText": "FAIRFIELD CRES, PICKERING"
      }
    ]
  },
  {
    "postal": "L1V9T3",
    "result": []
  },
  {
    "postal": "L1V5L9",
    "result": [
      {
        "electoralDistricts": [
          {
            "election": null,
            "id": 87,
            "name": "Pickering—Uxbridge"
          }
        ],
        "pollDivisionIds": [
          10143382
        ],
        "postalCode": "L1V5L9",
        "streetName": "PICKERING",
        "streetDirectionId": null,
        "streetTypeId": "PKY",
        "placeName": "PICKERING",
        "streetNameDisplayText": "PICKERING PKY, PICKERING"
      }
    ]
  },
  {
    "postal": "L1V7X7",
    "result": []
  },
  {
    "postal": "L1V3J5",
    "result": [
      {
        "electoralDistricts": [
          {
            "election": null,
            "id": 87,
            "name": "Pickering—Uxbridge"
          }
        ],
        "pollDivisionIds": [
          10143389
        ],
        "postalCode": "L1V3J5",
        "streetName": "UNA",
        "streetDirectionId": null,
        "streetTypeId": "RD",
        "placeName": "PICKERING",
        "streetNameDisplayText": "UNA RD, PICKERING"
      }
    ]
  },
  {
    "postal": "L1V4J5",
    "result": []
  },
  {
    "postal": "L1V6J2",
    "result": [
      {
        "electoralDistricts": [
          {
            "election": null,
            "id": 87,
            "name": "Pickering—Uxbridge"
          }
        ],
        "pollDivisionIds": [
          10143384
        ],
        "postalCode": "L1V6J2",
        "streetName": "LANCREST",
        "streetDirectionId": null,
        "streetTypeId": "ST",
        "placeName": "PICKERING",
        "streetNameDisplayText": "LANCREST ST, PICKERING"
      },
      {
        "electoralDistricts": [
          {
            "election": null,
            "id": 87,
            "name": "Pickering—Uxbridge"
          }
        ],
        "pollDivisionIds": [
          10143384
        ],
        "postalCode": "L1V6J2",
        "streetName": "VALLEYVIEW",
        "streetDirectionId": null,
        "streetTypeId": "DR",
        "placeName": "PICKERING",
        "streetNameDisplayText": "VALLEYVIEW DR, PICKERING"
      }
    ]
  },
  {
    "postal": "L1V5V6",
    "result": [
      {
        "electoralDistricts": [
          {
            "election": null,
            "id": 87,
            "name": "Pickering—Uxbridge"
          }
        ],
        "pollDivisionIds": [
          10143390
        ],
        "postalCode": "L1V5V6",
        "streetName": "HEATHSIDE",
        "streetDirectionId": null,
        "streetTypeId": "CRES",
        "placeName": "PICKERING",
        "streetNameDisplayText": "HEATHSIDE CRES, PICKERING"
      },
      {
        "electoralDistricts": [
          {
            "election": null,
            "id": 87,
            "name": "Pickering—Uxbridge"
          }
        ],
        "pollDivisionIds": [
          10143390
        ],
        "postalCode": "L1V5V6",
        "streetName": "LONGBOW",
        "streetDirectionId": null,
        "streetTypeId": "DR",
        "placeName": "PICKERING",
        "streetNameDisplayText": "LONGBOW DR, PICKERING"
      }
    ]
  },
  {
    "postal": "L1V3N2",
    "result": [
      {
        "electoralDistricts": [
          {
            "election": null,
            "id": 87,
            "name": "Pickering—Uxbridge"
          }
        ],
        "pollDivisionIds": [
          10143390
        ],
        "postalCode": "L1V3N2",
        "streetName": "BONITA",
        "streetDirectionId": null,
        "streetTypeId": "AVE",
        "placeName": "PICKERING",
        "streetNameDisplayText": "BONITA AVE, PICKERING"
      }
    ]
  },
  {
    "postal": "L1V3B1",
    "result": [
      {
        "electoralDistricts": [
          {
            "election": null,
            "id": 87,
            "name": "Pickering—Uxbridge"
          }
        ],
        "pollDivisionIds": [
          10143378
        ],
        "postalCode": "L1V3B1",
        "streetName": "FAYLEE",
        "streetDirectionId": null,
        "streetTypeId": "CRES",
        "placeName": "PICKERING",
        "streetNameDisplayText": "FAYLEE CRES, PICKERING"
      }
    ]
  },
  {
    "postal": "L1V8B5",
    "result": []
  },
  {
    "postal": "L1V0K1",
    "result": []
  },
  {
    "postal": "L1V7M7",
    "result": []
  },
  {
    "postal": "L1V2M2",
    "result": []
  },
  {
    "postal": "L1V9N3",
    "result": []
  },
  {
    "postal": "L1V4Y8",
    "result": [
      {
        "electoralDistricts": [
          {
            "election": null,
            "id": 87,
            "name": "Pickering—Uxbridge"
          }
        ],
        "pollDivisionIds": [
          10143387,
          10143386
        ],
        "postalCode": "L1V4Y8",
        "streetName": "FERNAM",
        "streetDirectionId": null,
        "streetTypeId": "ST",
        "placeName": "PICKERING",
        "streetNameDisplayText": "FERNAM ST, PICKERING"
      },
      {
        "electoralDistricts": [
          {
            "election": null,
            "id": 87,
            "name": "Pickering—Uxbridge"
          }
        ],
        "pollDivisionIds": [
          10143387,
          10143386
        ],
        "postalCode": "L1V4Y8",
        "streetName": "POST",
        "streetDirectionId": null,
        "streetTypeId": "DR",
        "placeName": "PICKERING",
        "streetNameDisplayText": "POST DR, PICKERING"
      }
    ]
  },
  {
    "postal": "L1V3V7",
    "result": [
      {
        "electoralDistricts": [
          {
            "election": null,
            "id": 87,
            "name": "Pickering—Uxbridge"
          }
        ],
        "pollDivisionIds": [
          10143382
        ],
        "postalCode": "L1V3V7",
        "streetName": "PICKERING",
        "streetDirectionId": null,
        "streetTypeId": "PKY",
        "placeName": "PICKERING",
        "streetNameDisplayText": "PICKERING PKY, PICKERING"
      }
    ]
  },
  {
    "postal": "L1V8Z1",
    "result": []
  },
  {
    "postal": "L1V7B3",
    "result": [
      {
        "electoralDistricts": [
          {
            "election": null,
            "id": 87,
            "name": "Pickering—Uxbridge"
          }
        ],
        "pollDivisionIds": [
          10143385
        ],
        "postalCode": "L1V7B3",
        "streetName": "GARLAND",
        "streetDirectionId": null,
        "streetTypeId": "CRES",
        "placeName": "PICKERING",
        "streetNameDisplayText": "GARLAND CRES, PICKERING"
      },
      {
        "electoralDistricts": [
          {
            "election": null,
            "id": 87,
            "name": "Pickering—Uxbridge"
          }
        ],
        "pollDivisionIds": [
          10143385
        ],
        "postalCode": "L1V7B3",
        "streetName": "SUMMERPARK",
        "streetDirectionId": null,
        "streetTypeId": "CRES",
        "placeName": "PICKERING",
        "streetNameDisplayText": "SUMMERPARK CRES, PICKERING"
      }
    ]
  },
  {
    "postal": "L1V3A8",
    "result": [
      {
        "electoralDistricts": [
          {
            "election": null,
            "id": 87,
            "name": "Pickering—Uxbridge"
          }
        ],
        "pollDivisionIds": [
          10143388
        ],
        "postalCode": "L1V3A8",
        "streetName": "SHADYBROOK",
        "streetDirectionId": null,
        "streetTypeId": "DR",
        "placeName": "PICKERING",
        "streetNameDisplayText": "SHADYBROOK DR, PICKERING"
      }
    ]
  },
  {
    "postal": "L1V7V5",
    "result": []
  },
  {
    "postal": "L1V2T2",
    "result": [
      {
        "electoralDistricts": [
          {
            "election": null,
            "id": 87,
            "name": "Pickering—Uxbridge"
          }
        ],
        "pollDivisionIds": [
          10143378
        ],
        "postalCode": "L1V2T2",
        "streetName": "BRANDS",
        "streetDirectionId": null,
        "streetTypeId": "CRT",
        "placeName": "PICKERING",
        "streetNameDisplayText": "BRANDS CRT, PICKERING"
      }
    ]
  },
  {
    "postal": "L1V6L3",
    "result": [
      {
        "electoralDistricts": [
          {
            "election": null,
            "id": 87,
            "name": "Pickering—Uxbridge"
          }
        ],
        "pollDivisionIds": [
          10141172
        ],
        "postalCode": "L1V6L3",
        "streetName": "PICKERING",
        "streetDirectionId": null,
        "streetTypeId": "PKY",
        "placeName": "PICKERING",
        "streetNameDisplayText": "PICKERING PKY, PICKERING"
      }
    ]
  },
  {
    "postal": "L1V0L2",
    "result": []
  },
  {
    "postal": "L1V5Y8",
    "result": [
      {
        "electoralDistricts": [
          {
            "election": null,
            "id": 87,
            "name": "Pickering—Uxbridge"
          }
        ],
        "pollDivisionIds": [
          10143390
        ],
        "postalCode": "L1V5Y8",
        "streetName": "RAMBLEBERRY",
        "streetDirectionId": null,
        "streetTypeId": "AVE",
        "placeName": "PICKERING",
        "streetNameDisplayText": "RAMBLEBERRY AVE, PICKERING"
      }
    ]
  },
  {
    "postal": "L1V0B8",
    "result": []
  },
  {
    "postal": "L1V6R5",
    "result": [
      {
        "electoralDistricts": [
          {
            "election": null,
            "id": 87,
            "name": "Pickering—Uxbridge"
          }
        ],
        "pollDivisionIds": [
          10143384
        ],
        "postalCode": "L1V6R5",
        "streetName": "MELDRON",
        "streetDirectionId": null,
        "streetTypeId": "DR",
        "placeName": "PICKERING",
        "streetNameDisplayText": "MELDRON DR, PICKERING"
      },
      {
        "electoralDistricts": [
          {
            "election": null,
            "id": 87,
            "name": "Pickering—Uxbridge"
          }
        ],
        "pollDivisionIds": [
          10143384
        ],
        "postalCode": "L1V6R5",
        "streetName": "PINE GROVE",
        "streetDirectionId": null,
        "streetTypeId": "AVE",
        "placeName": "PICKERING",
        "streetNameDisplayText": "PINE GROVE AVE, PICKERING"
      },
      {
        "electoralDistricts": [
          {
            "election": null,
            "id": 87,
            "name": "Pickering—Uxbridge"
          }
        ],
        "pollDivisionIds": [
          10143384
        ],
        "postalCode": "L1V6R5",
        "streetName": "SANDHURST",
        "streetDirectionId": null,
        "streetTypeId": "CRES",
        "placeName": "PICKERING",
        "streetNameDisplayText": "SANDHURST CRES, PICKERING"
      }
    ]
  },
  {
    "postal": "L1V8W6",
    "result": []
  },
  {
    "postal": "L1V8G6",
    "result": []
  },
  {
    "postal": "L1V6X3",
    "result": [
      {
        "electoralDistricts": [
          {
            "election": null,
            "id": 87,
            "name": "Pickering—Uxbridge"
          }
        ],
        "pollDivisionIds": [
          10143386
        ],
        "postalCode": "L1V6X3",
        "streetName": "AUTUMN",
        "streetDirectionId": null,
        "streetTypeId": "CRES",
        "placeName": "PICKERING",
        "streetNameDisplayText": "AUTUMN CRES, PICKERING"
      },
      {
        "electoralDistricts": [
          {
            "election": null,
            "id": 87,
            "name": "Pickering—Uxbridge"
          }
        ],
        "pollDivisionIds": [
          10143386
        ],
        "postalCode": "L1V6X3",
        "streetName": "FOXWOOD",
        "streetDirectionId": null,
        "streetTypeId": "TRAIL",
        "placeName": "PICKERING",
        "streetNameDisplayText": "FOXWOOD TRAIL, PICKERING"
      }
    ]
  },
  {
    "postal": "L1V7R7",
    "result": []
  },
  {
    "postal": "L1V4B6",
    "result": []
  },
  {
    "postal": "L1V3P9",
    "result": [
      {
        "electoralDistricts": [
          {
            "election": null,
            "id": 87,
            "name": "Pickering—Uxbridge"
          }
        ],
        "pollDivisionIds": [
          10143392
        ],
        "postalCode": "L1V3P9",
        "streetName": "CHARLOTTE",
        "streetDirectionId": null,
        "streetTypeId": "CIR",
        "placeName": "PICKERING",
        "streetNameDisplayText": "CHARLOTTE CIR, PICKERING"
      }
    ]
  },
  {
    "postal": "L1V2T3",
    "result": [
      {
        "electoralDistricts": [
          {
            "election": null,
            "id": 87,
            "name": "Pickering—Uxbridge"
          }
        ],
        "pollDivisionIds": [
          10143378
        ],
        "postalCode": "L1V2T3",
        "streetName": "FAYLEE",
        "streetDirectionId": null,
        "streetTypeId": "CRES",
        "placeName": "PICKERING",
        "streetNameDisplayText": "FAYLEE CRES, PICKERING"
      }
    ]
  },
  {
    "postal": "L1V1M4",
    "result": [
      {
        "electoralDistricts": [
          {
            "election": null,
            "id": 87,
            "name": "Pickering—Uxbridge"
          }
        ],
        "pollDivisionIds": [
          10143388
        ],
        "postalCode": "L1V1M4",
        "streetName": "ALTONA",
        "streetDirectionId": null,
        "streetTypeId": "RD",
        "placeName": "PICKERING",
        "streetNameDisplayText": "ALTONA RD, PICKERING"
      }
    ]
  },
  {
    "postal": "L1V0H1",
    "result": []
  },
  {
    "postal": "L1V9W3",
    "result": []
  },
  {
    "postal": "L1V6P1",
    "result": [
      {
        "electoralDistricts": [
          {
            "election": null,
            "id": 87,
            "name": "Pickering—Uxbridge"
          }
        ],
        "pollDivisionIds": [
          10143387
        ],
        "postalCode": "L1V6P1",
        "streetName": "GRACELAND",
        "streetDirectionId": null,
        "streetTypeId": "CRT",
        "placeName": "PICKERING",
        "streetNameDisplayText": "GRACELAND CRT, PICKERING"
      }
    ]
  },
  {
    "postal": "L1V7G2",
    "result": [
      {
        "electoralDistricts": [
          {
            "election": null,
            "id": 87,
            "name": "Pickering—Uxbridge"
          }
        ],
        "pollDivisionIds": [
          10143389
        ],
        "postalCode": "L1V7G2",
        "streetName": "GRAYABBEY",
        "streetDirectionId": null,
        "streetTypeId": "CRT",
        "placeName": "PICKERING",
        "streetNameDisplayText": "GRAYABBEY CRT, PICKERING"
      },
      {
        "electoralDistricts": [
          {
            "election": null,
            "id": 87,
            "name": "Pickering—Uxbridge"
          }
        ],
        "pollDivisionIds": [
          10143389
        ],
        "postalCode": "L1V7G2",
        "streetName": "HELM",
        "streetDirectionId": null,
        "streetTypeId": "ST",
        "placeName": "PICKERING",
        "streetNameDisplayText": "HELM ST, PICKERING"
      },
      {
        "electoralDistricts": [
          {
            "election": null,
            "id": 87,
            "name": "Pickering—Uxbridge"
          }
        ],
        "pollDivisionIds": [
          10143389
        ],
        "postalCode": "L1V7G2",
        "streetName": "VOYAGER",
        "streetDirectionId": null,
        "streetTypeId": "AVE",
        "placeName": "PICKERING",
        "streetNameDisplayText": "VOYAGER AVE, PICKERING"
      }
    ]
  },
  {
    "postal": "L1V4J9",
    "result": []
  },
  {
    "postal": "L1V9E4",
    "result": []
  },
  {
    "postal": "L1V8H0",
    "result": []
  },
  {
    "postal": "L1V4M7",
    "result": [
      {
        "electoralDistricts": [
          {
            "election": null,
            "id": 87,
            "name": "Pickering—Uxbridge"
          }
        ],
        "pollDivisionIds": [
          10143397
        ],
        "postalCode": "L1V4M7",
        "streetName": "RIVERVIEW",
        "streetDirectionId": null,
        "streetTypeId": "CRES",
        "placeName": "PICKERING",
        "streetNameDisplayText": "RIVERVIEW CRES, PICKERING"
      }
    ]
  },
  {
    "postal": "L1V2G9",
    "result": []
  },
  {
    "postal": "L1V8T2",
    "result": []
  },
  {
    "postal": "L1V7G7",
    "result": [
      {
        "electoralDistricts": [
          {
            "election": null,
            "id": 87,
            "name": "Pickering—Uxbridge"
          }
        ],
        "pollDivisionIds": [
          10143382
        ],
        "postalCode": "L1V7G7",
        "streetName": "PICKERING",
        "streetDirectionId": null,
        "streetTypeId": "PKY",
        "placeName": "PICKERING",
        "streetNameDisplayText": "PICKERING PKY, PICKERING"
      }
    ]
  },
  {
    "postal": "L1V4Z3",
    "result": [
      {
        "electoralDistricts": [
          {
            "election": null,
            "id": 87,
            "name": "Pickering—Uxbridge"
          }
        ],
        "pollDivisionIds": [
          10143390
        ],
        "postalCode": "L1V4Z3",
        "streetName": "MEADOWRIDGE",
        "streetDirectionId": null,
        "streetTypeId": "CRES",
        "placeName": "PICKERING",
        "streetNameDisplayText": "MEADOWRIDGE CRES, PICKERING"
      }
    ]
  },
  {
    "postal": "L1V5B3",
    "result": [
      {
        "electoralDistricts": [
          {
            "election": null,
            "id": 87,
            "name": "Pickering—Uxbridge"
          }
        ],
        "pollDivisionIds": [
          10143390
        ],
        "postalCode": "L1V5B3",
        "streetName": "RAWLINGS",
        "streetDirectionId": null,
        "streetTypeId": "DR",
        "placeName": "PICKERING",
        "streetNameDisplayText": "RAWLINGS DR, PICKERING"
      }
    ]
  },
  {
    "postal": "L1V1S7",
    "result": [
      {
        "electoralDistricts": [
          {
            "election": null,
            "id": 87,
            "name": "Pickering—Uxbridge"
          }
        ],
        "pollDivisionIds": [
          10143389
        ],
        "postalCode": "L1V1S7",
        "streetName": "SPRUCE HILL",
        "streetDirectionId": null,
        "streetTypeId": "RD",
        "placeName": "PICKERING",
        "streetNameDisplayText": "SPRUCE HILL RD, PICKERING"
      }
    ]
  },
  {
    "postal": "L1V2N7",
    "result": []
  },
  {
    "postal": "L1V0H8",
    "result": []
  },
  {
    "postal": "L1V7Z4",
    "result": []
  },
  {
    "postal": "L1V7B1",
    "result": [
      {
        "electoralDistricts": [
          {
            "election": null,
            "id": 87,
            "name": "Pickering—Uxbridge"
          }
        ],
        "pollDivisionIds": [
          10143385
        ],
        "postalCode": "L1V7B1",
        "streetName": "WILDFLOWER",
        "streetDirectionId": null,
        "streetTypeId": "DR",
        "placeName": "PICKERING",
        "streetNameDisplayText": "WILDFLOWER DR, PICKERING"
      }
    ]
  },
  {
    "postal": "L1V7P8",
    "result": []
  },
  {
    "postal": "L1V7N0",
    "result": []
  },
  {
    "postal": "L1V3Y5",
    "result": [
      {
        "electoralDistricts": [
          {
            "election": null,
            "id": 87,
            "name": "Pickering—Uxbridge"
          }
        ],
        "pollDivisionIds": [
          10143386
        ],
        "postalCode": "L1V3Y5",
        "streetName": "NORFOLK",
        "streetDirectionId": null,
        "streetTypeId": "SQ",
        "placeName": "PICKERING",
        "streetNameDisplayText": "NORFOLK SQ, PICKERING"
      }
    ]
  },
  {
    "postal": "L1V6K1",
    "result": [
      {
        "electoralDistricts": [
          {
            "election": null,
            "id": 87,
            "name": "Pickering—Uxbridge"
          }
        ],
        "pollDivisionIds": [
          10143384
        ],
        "postalCode": "L1V6K1",
        "streetName": "TRANQUIL",
        "streetDirectionId": null,
        "streetTypeId": "CRT",
        "placeName": "PICKERING",
        "streetNameDisplayText": "TRANQUIL CRT, PICKERING"
      }
    ]
  },
  {
    "postal": "L1V9X5",
    "result": []
  },
  {
    "postal": "L1V7S5",
    "result": []
  },
  {
    "postal": "L1V0A4",
    "result": [
      {
        "electoralDistricts": [
          {
            "election": null,
            "id": 87,
            "name": "Pickering—Uxbridge"
          }
        ],
        "pollDivisionIds": [
          10143390
        ],
        "postalCode": "L1V0A4",
        "streetName": "GOLDENRIDGE",
        "streetDirectionId": null,
        "streetTypeId": "RD",
        "placeName": "PICKERING",
        "streetNameDisplayText": "GOLDENRIDGE RD, PICKERING"
      }
    ]
  },
  {
    "postal": "L1V4T5",
    "result": [
      {
        "electoralDistricts": [
          {
            "election": null,
            "id": 87,
            "name": "Pickering—Uxbridge"
          }
        ],
        "pollDivisionIds": [
          10143387
        ],
        "postalCode": "L1V4T5",
        "streetName": "CHIRON",
        "streetDirectionId": null,
        "streetTypeId": "CRES",
        "placeName": "PICKERING",
        "streetNameDisplayText": "CHIRON CRES, PICKERING"
      }
    ]
  },
  {
    "postal": "L1V5K1",
    "result": [
      {
        "electoralDistricts": [
          {
            "election": null,
            "id": 87,
            "name": "Pickering—Uxbridge"
          }
        ],
        "pollDivisionIds": [
          10143390
        ],
        "postalCode": "L1V5K1",
        "streetName": "MOUNTCASTLE",
        "streetDirectionId": null,
        "streetTypeId": "CRES",
        "placeName": "PICKERING",
        "streetNameDisplayText": "MOUNTCASTLE CRES, PICKERING"
      }
    ]
  },
  {
    "postal": "L1V0Z9",
    "result": []
  },
  {
    "postal": "L1V7T2",
    "result": []
  },
  {
    "postal": "L1V1L5",
    "result": [
      {
        "electoralDistricts": [
          {
            "election": null,
            "id": 87,
            "name": "Pickering—Uxbridge"
          }
        ],
        "pollDivisionIds": [
          10143384
        ],
        "postalCode": "L1V1L5",
        "streetName": "WOODVIEW",
        "streetDirectionId": null,
        "streetTypeId": "AVE",
        "placeName": "PICKERING",
        "streetNameDisplayText": "WOODVIEW AVE, PICKERING"
      }
    ]
  },
  {
    "postal": "L1V3N5",
    "result": [
      {
        "electoralDistricts": [
          {
            "election": null,
            "id": 87,
            "name": "Pickering—Uxbridge"
          }
        ],
        "pollDivisionIds": [
          10143389
        ],
        "postalCode": "L1V3N5",
        "streetName": "PARKSIDE",
        "streetDirectionId": null,
        "streetTypeId": "DR",
        "placeName": "PICKERING",
        "streetNameDisplayText": "PARKSIDE DR, PICKERING"
      }
    ]
  },
  {
    "postal": "L1V6H4",
    "result": [
      {
        "electoralDistricts": [
          {
            "election": null,
            "id": 87,
            "name": "Pickering—Uxbridge"
          }
        ],
        "pollDivisionIds": [
          10143382
        ],
        "postalCode": "L1V6H4",
        "streetName": "BANBURY",
        "streetDirectionId": null,
        "streetTypeId": "CRT",
        "placeName": "PICKERING",
        "streetNameDisplayText": "BANBURY CRT, PICKERING"
      },
      {
        "electoralDistricts": [
          {
            "election": null,
            "id": 87,
            "name": "Pickering—Uxbridge"
          }
        ],
        "pollDivisionIds": [
          10143382
        ],
        "postalCode": "L1V6H4",
        "streetName": "FAIRFIELD",
        "streetDirectionId": null,
        "streetTypeId": "CRES",
        "placeName": "PICKERING",
        "streetNameDisplayText": "FAIRFIELD CRES, PICKERING"
      }
    ]
  },
  {
    "postal": "L1V5A5",
    "result": [
      {
        "electoralDistricts": [
          {
            "election": null,
            "id": 87,
            "name": "Pickering—Uxbridge"
          }
        ],
        "pollDivisionIds": [
          10143390
        ],
        "postalCode": "L1V5A5",
        "streetName": "RAWLINGS",
        "streetDirectionId": null,
        "streetTypeId": "DR",
        "placeName": "PICKERING",
        "streetNameDisplayText": "RAWLINGS DR, PICKERING"
      }
    ]
  },
  {
    "postal": "L1V3R9",
    "result": [
      {
        "electoralDistricts": [
          {
            "election": null,
            "id": 87,
            "name": "Pickering—Uxbridge"
          }
        ],
        "pollDivisionIds": [
          10143392
        ],
        "postalCode": "L1V3R9",
        "streetName": "WALNUT",
        "streetDirectionId": null,
        "streetTypeId": "LANE",
        "placeName": "PICKERING",
        "streetNameDisplayText": "WALNUT LANE, PICKERING"
      }
    ]
  },
  {
    "postal": "L1V7L8",
    "result": []
  },
  {
    "postal": "L1V6T6",
    "result": [
      {
        "electoralDistricts": [
          {
            "election": null,
            "id": 87,
            "name": "Pickering—Uxbridge"
          }
        ],
        "pollDivisionIds": [
          10143387
        ],
        "postalCode": "L1V6T6",
        "streetName": "OTONABEE",
        "streetDirectionId": null,
        "streetTypeId": "DR",
        "placeName": "PICKERING",
        "streetNameDisplayText": "OTONABEE DR, PICKERING"
      }
    ]
  },
  {
    "postal": "L1V7Y7",
    "result": []
  },
  {
    "postal": "L1V3M8",
    "result": [
      {
        "electoralDistricts": [
          {
            "election": null,
            "id": 87,
            "name": "Pickering—Uxbridge"
          }
        ],
        "pollDivisionIds": [
          10143392
        ],
        "postalCode": "L1V3M8",
        "streetName": "MONTEAGLE",
        "streetDirectionId": null,
        "streetTypeId": "LANE",
        "placeName": "PICKERING",
        "streetNameDisplayText": "MONTEAGLE LANE, PICKERING"
      }
    ]
  },
  {
    "postal": "L1V2E0",
    "result": []
  },
  {
    "postal": "L1V4B5",
    "result": []
  },
  {
    "postal": "L1V1J3",
    "result": [
      {
        "electoralDistricts": [
          {
            "election": null,
            "id": 87,
            "name": "Pickering—Uxbridge"
          }
        ],
        "pollDivisionIds": [
          10143375
        ],
        "postalCode": "L1V1J3",
        "streetName": "FINCH",
        "streetDirectionId": null,
        "streetTypeId": "AVE",
        "placeName": "PICKERING",
        "streetNameDisplayText": "FINCH AVE, PICKERING"
      }
    ]
  },
  {
    "postal": "L1V5S6",
    "result": [
      {
        "electoralDistricts": [
          {
            "election": null,
            "id": 87,
            "name": "Pickering—Uxbridge"
          }
        ],
        "pollDivisionIds": [
          10143378
        ],
        "postalCode": "L1V5S6",
        "streetName": "ANTON",
        "streetDirectionId": null,
        "streetTypeId": "SQ",
        "placeName": "PICKERING",
        "streetNameDisplayText": "ANTON SQ, PICKERING"
      }
    ]
  },
  {
    "postal": "L1V8P7",
    "result": []
  },
  {
    "postal": "L1V7S7",
    "result": []
  },
  {
    "postal": "L1V4C2",
    "result": []
  },
  {
    "postal": "L1V5Y0",
    "result": []
  },
  {
    "postal": "L1V2V7",
    "result": [
      {
        "electoralDistricts": [
          {
            "election": null,
            "id": 87,
            "name": "Pickering—Uxbridge"
          }
        ],
        "pollDivisionIds": [
          10143378
        ],
        "postalCode": "L1V2V7",
        "streetName": "POPPY",
        "streetDirectionId": null,
        "streetTypeId": "LANE",
        "placeName": "PICKERING",
        "streetNameDisplayText": "POPPY LANE, PICKERING"
      }
    ]
  },
  {
    "postal": "L1V8P5",
    "result": []
  },
  {
    "postal": "L1V5P5",
    "result": [
      {
        "electoralDistricts": [
          {
            "election": null,
            "id": 87,
            "name": "Pickering—Uxbridge"
          }
        ],
        "pollDivisionIds": [
          10143387
        ],
        "postalCode": "L1V5P5",
        "streetName": "SAUGEEN",
        "streetDirectionId": null,
        "streetTypeId": "DR",
        "placeName": "PICKERING",
        "streetNameDisplayText": "SAUGEEN DR, PICKERING"
      }
    ]
  },
  {
    "postal": "L1V5Z0",
    "result": []
  },
  {
    "postal": "L1V9B0",
    "result": []
  },
  {
    "postal": "L1V1L0",
    "result": []
  },
  {
    "postal": "L1V0B5",
    "result": [
      {
        "electoralDistricts": [
          {
            "election": null,
            "id": 87,
            "name": "Pickering—Uxbridge"
          }
        ],
        "pollDivisionIds": [
          10143375
        ],
        "postalCode": "L1V0B5",
        "streetName": "FINCH",
        "streetDirectionId": null,
        "streetTypeId": "AVE",
        "placeName": "PICKERING",
        "streetNameDisplayText": "FINCH AVE, PICKERING"
      }
    ]
  },
  {
    "postal": "L1V3L2",
    "result": [
      {
        "electoralDistricts": [
          {
            "election": null,
            "id": 87,
            "name": "Pickering—Uxbridge"
          }
        ],
        "pollDivisionIds": [
          10143392
        ],
        "postalCode": "L1V3L2",
        "streetName": "KITLEY",
        "streetDirectionId": null,
        "streetTypeId": "AVE",
        "placeName": "PICKERING",
        "streetNameDisplayText": "KITLEY AVE, PICKERING"
      }
    ]
  },
  {
    "postal": "L1V3B7",
    "result": [
      {
        "electoralDistricts": [
          {
            "election": null,
            "id": 87,
            "name": "Pickering—Uxbridge"
          }
        ],
        "pollDivisionIds": [
          10143392
        ],
        "postalCode": "L1V3B7",
        "streetName": "GLENANNA",
        "streetDirectionId": null,
        "streetTypeId": "RD",
        "placeName": "PICKERING",
        "streetNameDisplayText": "GLENANNA RD, PICKERING"
      }
    ]
  },
  {
    "postal": "L1V8L1",
    "result": []
  },
  {
    "postal": "L1V5M4",
    "result": [
      {
        "electoralDistricts": [
          {
            "election": null,
            "id": 87,
            "name": "Pickering—Uxbridge"
          }
        ],
        "pollDivisionIds": [
          10143388
        ],
        "postalCode": "L1V5M4",
        "streetName": "BARRY",
        "streetDirectionId": null,
        "streetTypeId": "DR",
        "placeName": "PICKERING",
        "streetNameDisplayText": "BARRY DR, PICKERING"
      }
    ]
  },
  {
    "postal": "L1V4G9",
    "result": []
  },
  {
    "postal": "L1V0P0",
    "result": []
  },
  {
    "postal": "L1V8G2",
    "result": []
  },
  {
    "postal": "L1V1V9",
    "result": [
      {
        "electoralDistricts": [
          {
            "election": null,
            "id": 87,
            "name": "Pickering—Uxbridge"
          }
        ],
        "pollDivisionIds": [
          10143392
        ],
        "postalCode": "L1V1V9",
        "streetName": "LIVERPOOL",
        "streetDirectionId": null,
        "streetTypeId": "RD",
        "placeName": "PICKERING",
        "streetNameDisplayText": "LIVERPOOL RD, PICKERING"
      }
    ]
  },
  {
    "postal": "L1V8N8",
    "result": []
  },
  {
    "postal": "L1V6S8",
    "result": [
      {
        "electoralDistricts": [
          {
            "election": null,
            "id": 87,
            "name": "Pickering—Uxbridge"
          }
        ],
        "pollDivisionIds": [
          10143383
        ],
        "postalCode": "L1V6S8",
        "streetName": "COPLEY",
        "streetDirectionId": null,
        "streetTypeId": "ST",
        "placeName": "PICKERING",
        "streetNameDisplayText": "COPLEY ST, PICKERING"
      },
      {
        "electoralDistricts": [
          {
            "election": null,
            "id": 87,
            "name": "Pickering—Uxbridge"
          }
        ],
        "pollDivisionIds": [
          10143383
        ],
        "postalCode": "L1V6S8",
        "streetName": "SANDCHERRY",
        "streetDirectionId": null,
        "streetTypeId": "CRT",
        "placeName": "PICKERING",
        "streetNameDisplayText": "SANDCHERRY CRT, PICKERING"
      },
      {
        "electoralDistricts": [
          {
            "election": null,
            "id": 87,
            "name": "Pickering—Uxbridge"
          }
        ],
        "pollDivisionIds": [
          10143383
        ],
        "postalCode": "L1V6S8",
        "streetName": "THICKET",
        "streetDirectionId": null,
        "streetTypeId": "CRES",
        "placeName": "PICKERING",
        "streetNameDisplayText": "THICKET CRES, PICKERING"
      },
      {
        "electoralDistricts": [
          {
            "election": null,
            "id": 87,
            "name": "Pickering—Uxbridge"
          }
        ],
        "pollDivisionIds": [
          10143383
        ],
        "postalCode": "L1V6S8",
        "streetName": "VALLEY RIDGE",
        "streetDirectionId": null,
        "streetTypeId": "CRES",
        "placeName": "PICKERING",
        "streetNameDisplayText": "VALLEY RIDGE CRES, PICKERING"
      }
    ]
  },
  {
    "postal": "L1V8H2",
    "result": []
  },
  {
    "postal": "L1V5R8",
    "result": [
      {
        "electoralDistricts": [
          {
            "election": null,
            "id": 87,
            "name": "Pickering—Uxbridge"
          }
        ],
        "pollDivisionIds": [
          10143397
        ],
        "postalCode": "L1V5R8",
        "streetName": "HOOVER",
        "streetDirectionId": null,
        "streetTypeId": "DR",
        "placeName": "PICKERING",
        "streetNameDisplayText": "HOOVER DR, PICKERING"
      }
    ]
  },
  {
    "postal": "L1V5L4",
    "result": [
      {
        "electoralDistricts": [
          {
            "election": null,
            "id": 87,
            "name": "Pickering—Uxbridge"
          }
        ],
        "pollDivisionIds": [
          10143382
        ],
        "postalCode": "L1V5L4",
        "streetName": "PORTLAND",
        "streetDirectionId": null,
        "streetTypeId": "CRT",
        "placeName": "PICKERING",
        "streetNameDisplayText": "PORTLAND CRT, PICKERING"
      }
    ]
  },
  {
    "postal": "L1V9E1",
    "result": []
  },
  {
    "postal": "L1V1C4",
    "result": [
      {
        "electoralDistricts": [
          {
            "election": null,
            "id": 87,
            "name": "Pickering—Uxbridge"
          }
        ],
        "pollDivisionIds": [
          10143382
        ],
        "postalCode": "L1V1C4",
        "streetName": "KINGSTON",
        "streetDirectionId": null,
        "streetTypeId": "RD",
        "placeName": "PICKERING",
        "streetNameDisplayText": "KINGSTON RD, PICKERING"
      }
    ]
  },
  {
    "postal": "L1V8W5",
    "result": []
  },
  {
    "postal": "L1V1Y4",
    "result": []
  },
  {
    "postal": "L1V1C0",
    "result": []
  },
  {
    "postal": "L1V2J2",
    "result": []
  },
  {
    "postal": "L1V2J0",
    "result": []
  },
  {
    "postal": "L1V7A3",
    "result": [
      {
        "electoralDistricts": [
          {
            "election": null,
            "id": 87,
            "name": "Pickering—Uxbridge"
          }
        ],
        "pollDivisionIds": [
          10143385
        ],
        "postalCode": "L1V7A3",
        "streetName": "WILDFLOWER",
        "streetDirectionId": null,
        "streetTypeId": "DR",
        "placeName": "PICKERING",
        "streetNameDisplayText": "WILDFLOWER DR, PICKERING"
      },
      {
        "electoralDistricts": [
          {
            "election": null,
            "id": 87,
            "name": "Pickering—Uxbridge"
          }
        ],
        "pollDivisionIds": [
          10143385
        ],
        "postalCode": "L1V7A3",
        "streetName": "WOODSMERE",
        "streetDirectionId": null,
        "streetTypeId": "CRES",
        "placeName": "PICKERING",
        "streetNameDisplayText": "WOODSMERE CRES, PICKERING"
      }
    ]
  },
  {
    "postal": "L1V8M1",
    "result": []
  },
  {
    "postal": "L1V7T9",
    "result": []
  },
  {
    "postal": "L1V6C0",
    "result": []
  },
  {
    "postal": "L1V7X1",
    "result": []
  },
  {
    "postal": "L1V0G1",
    "result": []
  },
  {
    "postal": "L1V4X2",
    "result": [
      {
        "electoralDistricts": [
          {
            "election": null,
            "id": 87,
            "name": "Pickering—Uxbridge"
          }
        ],
        "pollDivisionIds": [
          10143387
        ],
        "postalCode": "L1V4X2",
        "streetName": "SPRINGVIEW",
        "streetDirectionId": null,
        "streetTypeId": "DR",
        "placeName": "PICKERING",
        "streetNameDisplayText": "SPRINGVIEW DR, PICKERING"
      },
      {
        "electoralDistricts": [
          {
            "election": null,
            "id": 87,
            "name": "Pickering—Uxbridge"
          }
        ],
        "pollDivisionIds": [
          10143387
        ],
        "postalCode": "L1V4X2",
        "streetName": "WOODSIDE",
        "streetDirectionId": null,
        "streetTypeId": "LANE",
        "placeName": "PICKERING",
        "streetNameDisplayText": "WOODSIDE LANE, PICKERING"
      }
    ]
  },
  {
    "postal": "L1V0N6",
    "result": []
  },
  {
    "postal": "L1V8E3",
    "result": []
  },
  {
    "postal": "L1V5S8",
    "result": [
      {
        "electoralDistricts": [
          {
            "election": null,
            "id": 87,
            "name": "Pickering—Uxbridge"
          }
        ],
        "pollDivisionIds": [
          10143378
        ],
        "postalCode": "L1V5S8",
        "streetName": "ANTON",
        "streetDirectionId": null,
        "streetTypeId": "SQ",
        "placeName": "PICKERING",
        "streetNameDisplayText": "ANTON SQ, PICKERING"
      }
    ]
  },
  {
    "postal": "L1V0R0",
    "result": []
  },
  {
    "postal": "L1V6J6",
    "result": []
  },
  {
    "postal": "L1V4B4",
    "result": []
  },
  {
    "postal": "L1V7E3",
    "result": [
      {
        "electoralDistricts": [
          {
            "election": null,
            "id": 87,
            "name": "Pickering—Uxbridge"
          }
        ],
        "pollDivisionIds": [
          10143383
        ],
        "postalCode": "L1V7E3",
        "streetName": "VALLEY RIDGE",
        "streetDirectionId": null,
        "streetTypeId": "CRES",
        "placeName": "PICKERING",
        "streetNameDisplayText": "VALLEY RIDGE CRES, PICKERING"
      }
    ]
  },
  {
    "postal": "L1V3N6",
    "result": [
      {
        "electoralDistricts": [
          {
            "election": null,
            "id": 87,
            "name": "Pickering—Uxbridge"
          }
        ],
        "pollDivisionIds": [
          10143389
        ],
        "postalCode": "L1V3N6",
        "streetName": "PARKSIDE",
        "streetDirectionId": null,
        "streetTypeId": "DR",
        "placeName": "PICKERING",
        "streetNameDisplayText": "PARKSIDE DR, PICKERING"
      }
    ]
  },
  {
    "postal": "L1V3X6",
    "result": []
  },
  {
    "postal": "L1V8L0",
    "result": []
  },
  {
    "postal": "L1V8N1",
    "result": []
  },
  {
    "postal": "L1V4J0",
    "result": []
  },
  {
    "postal": "L1V0X7",
    "result": []
  },
  {
    "postal": "L1V6S4",
    "result": [
      {
        "electoralDistricts": [
          {
            "election": null,
            "id": 87,
            "name": "Pickering—Uxbridge"
          }
        ],
        "pollDivisionIds": [
          10143383
        ],
        "postalCode": "L1V6S4",
        "streetName": "WHITE PINE",
        "streetDirectionId": null,
        "streetTypeId": "CRES",
        "placeName": "PICKERING",
        "streetNameDisplayText": "WHITE PINE CRES, PICKERING"
      }
    ]
  },
  {
    "postal": "L1V0Z0",
    "result": []
  },
  {
    "postal": "L1V9X8",
    "result": []
  },
  {
    "postal": "L1V3H3",
    "result": [
      {
        "electoralDistricts": [
          {
            "election": null,
            "id": 87,
            "name": "Pickering—Uxbridge"
          }
        ],
        "pollDivisionIds": [
          10143389
        ],
        "postalCode": "L1V3H3",
        "streetName": "HEDGEROW",
        "streetDirectionId": null,
        "streetTypeId": "PL",
        "placeName": "PICKERING",
        "streetNameDisplayText": "HEDGEROW PL, PICKERING"
      }
    ]
  },
  {
    "postal": "L1V7S2",
    "result": []
  },
  {
    "postal": "L1V3T3",
    "result": []
  },
  {
    "postal": "L1V9P3",
    "result": []
  },
  {
    "postal": "L1V4H8",
    "result": []
  },
  {
    "postal": "L1V6R1",
    "result": [
      {
        "electoralDistricts": [
          {
            "election": null,
            "id": 87,
            "name": "Pickering—Uxbridge"
          }
        ],
        "pollDivisionIds": [
          10143397
        ],
        "postalCode": "L1V6R1",
        "streetName": "STOVER",
        "streetDirectionId": null,
        "streetTypeId": "CRES",
        "placeName": "PICKERING",
        "streetNameDisplayText": "STOVER CRES, PICKERING"
      }
    ]
  },
  {
    "postal": "L1V1S0",
    "result": []
  },
  {
    "postal": "L1V3W8",
    "result": [
      {
        "electoralDistricts": [
          {
            "election": null,
            "id": 87,
            "name": "Pickering—Uxbridge"
          }
        ],
        "pollDivisionIds": [
          10143387
        ],
        "postalCode": "L1V3W8",
        "streetName": "ASPEN",
        "streetDirectionId": null,
        "streetTypeId": "RD",
        "placeName": "PICKERING",
        "streetNameDisplayText": "ASPEN RD, PICKERING"
      }
    ]
  },
  {
    "postal": "L1V4S3",
    "result": [
      {
        "electoralDistricts": [
          {
            "election": null,
            "id": 87,
            "name": "Pickering—Uxbridge"
          }
        ],
        "pollDivisionIds": [
          10143386
        ],
        "postalCode": "L1V4S3",
        "streetName": "BROADOAK",
        "streetDirectionId": null,
        "streetTypeId": "CRES",
        "placeName": "PICKERING",
        "streetNameDisplayText": "BROADOAK CRES, PICKERING"
      }
    ]
  },
  {
    "postal": "L1V1B6",
    "result": []
  },
  {
    "postal": "L1V8R3",
    "result": []
  },
  {
    "postal": "L1V4V9",
    "result": [
      {
        "electoralDistricts": [
          {
            "election": null,
            "id": 87,
            "name": "Pickering—Uxbridge"
          }
        ],
        "pollDivisionIds": [
          10143387
        ],
        "postalCode": "L1V4V9",
        "streetName": "AMBERLEA",
        "streetDirectionId": null,
        "streetTypeId": "RD",
        "placeName": "PICKERING",
        "streetNameDisplayText": "AMBERLEA RD, PICKERING"
      },
      {
        "electoralDistricts": [
          {
            "election": null,
            "id": 87,
            "name": "Pickering—Uxbridge"
          }
        ],
        "pollDivisionIds": [
          10143387
        ],
        "postalCode": "L1V4V9",
        "streetName": "HIGHVIEW",
        "streetDirectionId": null,
        "streetTypeId": "RD",
        "placeName": "PICKERING",
        "streetNameDisplayText": "HIGHVIEW RD, PICKERING"
      },
      {
        "electoralDistricts": [
          {
            "election": null,
            "id": 87,
            "name": "Pickering—Uxbridge"
          }
        ],
        "pollDivisionIds": [
          10143387
        ],
        "postalCode": "L1V4V9",
        "streetName": "VILLAGE",
        "streetDirectionId": null,
        "streetTypeId": "ST",
        "placeName": "PICKERING",
        "streetNameDisplayText": "VILLAGE ST, PICKERING"
      }
    ]
  },
  {
    "postal": "L1V9W4",
    "result": []
  },
  {
    "postal": "L1V3T4",
    "result": [
      {
        "electoralDistricts": [
          {
            "election": null,
            "id": 87,
            "name": "Pickering—Uxbridge"
          }
        ],
        "pollDivisionIds": [
          10143388
        ],
        "postalCode": "L1V3T4",
        "streetName": "BELINDA",
        "streetDirectionId": null,
        "streetTypeId": "CRT",
        "placeName": "PICKERING",
        "streetNameDisplayText": "BELINDA CRT, PICKERING"
      }
    ]
  },
  {
    "postal": "L1V5C7",
    "result": [
      {
        "electoralDistricts": [
          {
            "election": null,
            "id": 87,
            "name": "Pickering—Uxbridge"
          }
        ],
        "pollDivisionIds": [
          10143390
        ],
        "postalCode": "L1V5C7",
        "streetName": "SILVERTHORN",
        "streetDirectionId": null,
        "streetTypeId": "SQ",
        "placeName": "PICKERING",
        "streetNameDisplayText": "SILVERTHORN SQ, PICKERING"
      }
    ]
  },
  {
    "postal": "L1V3Y1",
    "result": [
      {
        "electoralDistricts": [
          {
            "election": null,
            "id": 87,
            "name": "Pickering—Uxbridge"
          }
        ],
        "pollDivisionIds": [
          10143386
        ],
        "postalCode": "L1V3Y1",
        "streetName": "FOXWOOD",
        "streetDirectionId": null,
        "streetTypeId": "TRAIL",
        "placeName": "PICKERING",
        "streetNameDisplayText": "FOXWOOD TRAIL, PICKERING"
      }
    ]
  },
  {
    "postal": "L1V5V0",
    "result": []
  },
  {
    "postal": "L1V8G8",
    "result": []
  },
  {
    "postal": "L1V8B1",
    "result": []
  },
  {
    "postal": "L1V4P5",
    "result": [
      {
        "electoralDistricts": [
          {
            "election": null,
            "id": 87,
            "name": "Pickering—Uxbridge"
          }
        ],
        "pollDivisionIds": [
          10143397
        ],
        "postalCode": "L1V4P5",
        "streetName": "DALEWOOD",
        "streetDirectionId": null,
        "streetTypeId": "DR",
        "placeName": "PICKERING",
        "streetNameDisplayText": "DALEWOOD DR, PICKERING"
      }
    ]
  },
  {
    "postal": "L1V7B2",
    "result": [
      {
        "electoralDistricts": [
          {
            "election": null,
            "id": 87,
            "name": "Pickering—Uxbridge"
          }
        ],
        "pollDivisionIds": [
          10143385
        ],
        "postalCode": "L1V7B2",
        "streetName": "GARLAND",
        "streetDirectionId": null,
        "streetTypeId": "CRES",
        "placeName": "PICKERING",
        "streetNameDisplayText": "GARLAND CRES, PICKERING"
      },
      {
        "electoralDistricts": [
          {
            "election": null,
            "id": 87,
            "name": "Pickering—Uxbridge"
          }
        ],
        "pollDivisionIds": [
          10143385
        ],
        "postalCode": "L1V7B2",
        "streetName": "SUMMERPARK",
        "streetDirectionId": null,
        "streetTypeId": "CRES",
        "placeName": "PICKERING",
        "streetNameDisplayText": "SUMMERPARK CRES, PICKERING"
      }
    ]
  },
  {
    "postal": "L1V0R2",
    "result": []
  },
  {
    "postal": "L1V4M4",
    "result": [
      {
        "electoralDistricts": [
          {
            "election": null,
            "id": 87,
            "name": "Pickering—Uxbridge"
          }
        ],
        "pollDivisionIds": [
          10143397
        ],
        "postalCode": "L1V4M4",
        "streetName": "FAWNDALE",
        "streetDirectionId": null,
        "streetTypeId": "RD",
        "placeName": "PICKERING",
        "streetNameDisplayText": "FAWNDALE RD, PICKERING"
      },
      {
        "electoralDistricts": [
          {
            "election": null,
            "id": 87,
            "name": "Pickering—Uxbridge"
          }
        ],
        "pollDivisionIds": [
          10143397
        ],
        "postalCode": "L1V4M4",
        "streetName": "RIVERVIEW",
        "streetDirectionId": null,
        "streetTypeId": "CRES",
        "placeName": "PICKERING",
        "streetNameDisplayText": "RIVERVIEW CRES, PICKERING"
      }
    ]
  },
  {
    "postal": "L1V7M4",
    "result": []
  },
  {
    "postal": "L1V9S7",
    "result": []
  },
  {
    "postal": "L1V5Z7",
    "result": [
      {
        "electoralDistricts": [
          {
            "election": null,
            "id": 87,
            "name": "Pickering—Uxbridge"
          }
        ],
        "pollDivisionIds": [
          10143388
        ],
        "postalCode": "L1V5Z7",
        "streetName": "LIGHTFOOT",
        "streetDirectionId": null,
        "streetTypeId": "PL",
        "placeName": "PICKERING",
        "streetNameDisplayText": "LIGHTFOOT PL, PICKERING"
      }
    ]
  },
  {
    "postal": "L1V7J7",
    "result": [
      {
        "electoralDistricts": [
          {
            "election": null,
            "id": 87,
            "name": "Pickering—Uxbridge"
          }
        ],
        "pollDivisionIds": [
          10143390
        ],
        "postalCode": "L1V7J7",
        "streetName": "DUNBARTON",
        "streetDirectionId": null,
        "streetTypeId": "RD",
        "placeName": "PICKERING",
        "streetNameDisplayText": "DUNBARTON RD, PICKERING"
      }
    ]
  },
  {
    "postal": "L1V8R8",
    "result": []
  },
  {
    "postal": "L1V9X1",
    "result": []
  },
  {
    "postal": "L1V5M9",
    "result": [
      {
        "electoralDistricts": [
          {
            "election": null,
            "id": 87,
            "name": "Pickering—Uxbridge"
          }
        ],
        "pollDivisionIds": [
          10143387
        ],
        "postalCode": "L1V5M9",
        "streetName": "ERAMOSA",
        "streetDirectionId": null,
        "streetTypeId": "CRES",
        "placeName": "PICKERING",
        "streetNameDisplayText": "ERAMOSA CRES, PICKERING"
      }
    ]
  },
  {
    "postal": "L1V9B4",
    "result": []
  },
  {
    "postal": "L1V0L9",
    "result": []
  },
  {
    "postal": "L1V9G4",
    "result": []
  },
  {
    "postal": "L1V1J4",
    "result": [
      {
        "electoralDistricts": [
          {
            "election": null,
            "id": 87,
            "name": "Pickering—Uxbridge"
          }
        ],
        "pollDivisionIds": [
          10143389
        ],
        "postalCode": "L1V1J4",
        "streetName": "FINCH",
        "streetDirectionId": null,
        "streetTypeId": "AVE",
        "placeName": "PICKERING",
        "streetNameDisplayText": "FINCH AVE, PICKERING"
      }
    ]
  },
  {
    "postal": "L1V0W6",
    "result": []
  }
]
