[
  {
    "postal": "N4N9J6",
    "result": []
  },
  {
    "postal": "N4N9Z5",
    "result": []
  },
  {
    "postal": "N4N7H8",
    "result": []
  },
  {
    "postal": "N4N0P6",
    "result": []
  },
  {
    "postal": "N4N0S7",
    "result": []
  },
  {
    "postal": "N4N8B9",
    "result": []
  },
  {
    "postal": "N4N2A6",
    "result": [
      {
        "electoralDistricts": [
          {
            "election": null,
            "id": 14,
            "name": "Bruce—Grey—Owen Sound"
          }
        ],
        "pollDivisionIds": [
          10137294
        ],
        "postalCode": "N4N2A6",
        "streetName": "16TH",
        "streetDirectionId": null,
        "streetTypeId": "ST",
        "placeName": "HANOVER",
        "streetNameDisplayText": "16TH ST, HANOVER"
      }
    ]
  },
  {
    "postal": "N4N7V2",
    "result": []
  },
  {
    "postal": "N4N9P4",
    "result": []
  },
  {
    "postal": "N4N6G0",
    "result": []
  },
  {
    "postal": "N4N2K0",
    "result": []
  },
  {
    "postal": "N4N7N6",
    "result": []
  },
  {
    "postal": "N4N5R3",
    "result": []
  },
  {
    "postal": "N4N7K0",
    "result": []
  },
  {
    "postal": "N4N3R2",
    "result": [
      {
        "electoralDistricts": [
          {
            "election": null,
            "id": 14,
            "name": "Bruce—Grey—Owen Sound"
          }
        ],
        "pollDivisionIds": [
          10137296
        ],
        "postalCode": "N4N3R2",
        "streetName": "2ND",
        "streetDirectionId": null,
        "streetTypeId": "AVE",
        "placeName": "HANOVER",
        "streetNameDisplayText": "2ND AVE, HANOVER"
      },
      {
        "electoralDistricts": [
          {
            "election": null,
            "id": 14,
            "name": "Bruce—Grey—Owen Sound"
          }
        ],
        "pollDivisionIds": [
          10137296
        ],
        "postalCode": "N4N3R2",
        "streetName": "2ND ST",
        "streetDirectionId": null,
        "streetTypeId": "CRES",
        "placeName": "HANOVER",
        "streetNameDisplayText": "2ND ST CRES, HANOVER"
      }
    ]
  },
  {
    "postal": "N4N0J1",
    "result": []
  },
  {
    "postal": "N4N0B0",
    "result": []
  },
  {
    "postal": "N4N5Z2",
    "result": []
  },
  {
    "postal": "N4N7P3",
    "result": []
  },
  {
    "postal": "N4N2K3",
    "result": [
      {
        "electoralDistricts": [
          {
            "election": null,
            "id": 14,
            "name": "Bruce—Grey—Owen Sound"
          }
        ],
        "pollDivisionIds": [
          10137294
        ],
        "postalCode": "N4N2K3",
        "streetName": "7TH",
        "streetDirectionId": null,
        "streetTypeId": "AVE",
        "placeName": "HANOVER",
        "streetNameDisplayText": "7TH AVE, HANOVER"
      }
    ]
  },
  {
    "postal": "N4N7Y6",
    "result": []
  },
  {
    "postal": "N4N1L9",
    "result": [
      {
        "electoralDistricts": [
          {
            "election": null,
            "id": 14,
            "name": "Bruce—Grey—Owen Sound"
          }
        ],
        "pollDivisionIds": [
          10137296
        ],
        "postalCode": "N4N1L9",
        "streetName": "9TH",
        "streetDirectionId": null,
        "streetTypeId": "ST",
        "placeName": "HANOVER",
        "streetNameDisplayText": "9TH ST, HANOVER"
      }
    ]
  },
  {
    "postal": "N4N8T0",
    "result": []
  },
  {
    "postal": "N4N3K8",
    "result": [
      {
        "electoralDistricts": [
          {
            "election": null,
            "id": 14,
            "name": "Bruce—Grey—Owen Sound"
          }
        ],
        "pollDivisionIds": [
          10137294
        ],
        "postalCode": "N4N3K8",
        "streetName": "7TH",
        "streetDirectionId": null,
        "streetTypeId": "AVE",
        "placeName": "HANOVER",
        "streetNameDisplayText": "7TH AVE, HANOVER"
      },
      {
        "electoralDistricts": [
          {
            "election": null,
            "id": 14,
            "name": "Bruce—Grey—Owen Sound"
          }
        ],
        "pollDivisionIds": [
          10137294
        ],
        "postalCode": "N4N3K8",
        "streetName": "7TH AVENUE",
        "streetDirectionId": null,
        "streetTypeId": "AVE",
        "placeName": "HANOVER",
        "streetNameDisplayText": "7TH AVENUE AVE, HANOVER"
      }
    ]
  },
  {
    "postal": "N4N5W9",
    "result": []
  },
  {
    "postal": "N4N6T9",
    "result": []
  },
  {
    "postal": "N4N4H1",
    "result": []
  },
  {
    "postal": "N4N7A2",
    "result": []
  },
  {
    "postal": "N4N5G0",
    "result": []
  },
  {
    "postal": "N4N8V5",
    "result": []
  },
  {
    "postal": "N4N2Y8",
    "result": [
      {
        "electoralDistricts": [
          {
            "election": null,
            "id": 14,
            "name": "Bruce—Grey—Owen Sound"
          }
        ],
        "pollDivisionIds": [
          10137296
        ],
        "postalCode": "N4N2Y8",
        "streetName": "15TH",
        "streetDirectionId": null,
        "streetTypeId": "AVE",
        "placeName": "HANOVER",
        "streetNameDisplayText": "15TH AVE, HANOVER"
      }
    ]
  },
  {
    "postal": "N4N2B6",
    "result": [
      {
        "electoralDistricts": [
          {
            "election": null,
            "id": 14,
            "name": "Bruce—Grey—Owen Sound"
          }
        ],
        "pollDivisionIds": [
          10137296
        ],
        "postalCode": "N4N2B6",
        "streetName": "4TH",
        "streetDirectionId": null,
        "streetTypeId": "AVE",
        "placeName": "HANOVER",
        "streetNameDisplayText": "4TH AVE, HANOVER"
      }
    ]
  },
  {
    "postal": "N4N4W8",
    "result": []
  },
  {
    "postal": "N4N8H7",
    "result": []
  },
  {
    "postal": "N4N5P1",
    "result": []
  },
  {
    "postal": "N4N2B8",
    "result": [
      {
        "electoralDistricts": [
          {
            "election": null,
            "id": 14,
            "name": "Bruce—Grey—Owen Sound"
          }
        ],
        "pollDivisionIds": [
          10137296
        ],
        "postalCode": "N4N2B8",
        "streetName": "4TH",
        "streetDirectionId": null,
        "streetTypeId": "AVE",
        "placeName": "HANOVER",
        "streetNameDisplayText": "4TH AVE, HANOVER"
      }
    ]
  },
  {
    "postal": "N4N0P2",
    "result": []
  },
  {
    "postal": "N4N9M1",
    "result": []
  },
  {
    "postal": "N4N3G0",
    "result": []
  },
  {
    "postal": "N4N9Z2",
    "result": []
  },
  {
    "postal": "N4N2A0",
    "result": []
  },
  {
    "postal": "N4N6Y0",
    "result": []
  },
  {
    "postal": "N4N2Z8",
    "result": [
      {
        "electoralDistricts": [
          {
            "election": null,
            "id": 14,
            "name": "Bruce—Grey—Owen Sound"
          }
        ],
        "pollDivisionIds": [
          10137294
        ],
        "postalCode": "N4N2Z8",
        "streetName": "16TH",
        "streetDirectionId": null,
        "streetTypeId": "AVE",
        "placeName": "HANOVER",
        "streetNameDisplayText": "16TH AVE, HANOVER"
      }
    ]
  },
  {
    "postal": "N4N7Y3",
    "result": []
  },
  {
    "postal": "N4N6Z5",
    "result": []
  },
  {
    "postal": "N4N6E0",
    "result": []
  },
  {
    "postal": "N4N9B7",
    "result": []
  },
  {
    "postal": "N4N9S5",
    "result": []
  },
  {
    "postal": "N4N3X3",
    "result": []
  },
  {
    "postal": "N4N7R5",
    "result": []
  },
  {
    "postal": "N4N2X3",
    "result": [
      {
        "electoralDistricts": [
          {
            "election": null,
            "id": 14,
            "name": "Bruce—Grey—Owen Sound"
          }
        ],
        "pollDivisionIds": [
          10137294
        ],
        "postalCode": "N4N2X3",
        "streetName": "13TH",
        "streetDirectionId": null,
        "streetTypeId": "AVE",
        "placeName": "HANOVER",
        "streetNameDisplayText": "13TH AVE, HANOVER"
      }
    ]
  },
  {
    "postal": "N4N8Z9",
    "result": []
  },
  {
    "postal": "N4N0N4",
    "result": []
  },
  {
    "postal": "N4N1K1",
    "result": [
      {
        "electoralDistricts": [
          {
            "election": null,
            "id": 14,
            "name": "Bruce—Grey—Owen Sound"
          }
        ],
        "pollDivisionIds": [
          10137296
        ],
        "postalCode": "N4N1K1",
        "streetName": "8TH",
        "streetDirectionId": null,
        "streetTypeId": "ST",
        "placeName": "HANOVER",
        "streetNameDisplayText": "8TH ST, HANOVER"
      }
    ]
  },
  {
    "postal": "N4N1S3",
    "result": [
      {
        "electoralDistricts": [
          {
            "election": null,
            "id": 14,
            "name": "Bruce—Grey—Owen Sound"
          }
        ],
        "pollDivisionIds": [
          10137294
        ],
        "postalCode": "N4N1S3",
        "streetName": "10TH",
        "streetDirectionId": null,
        "streetTypeId": "ST",
        "placeName": "HANOVER",
        "streetNameDisplayText": "10TH ST, HANOVER"
      }
    ]
  },
  {
    "postal": "N4N6M4",
    "result": []
  },
  {
    "postal": "N4N9A9",
    "result": []
  },
  {
    "postal": "N4N9Z9",
    "result": []
  },
  {
    "postal": "N4N6T4",
    "result": []
  },
  {
    "postal": "N4N0B2",
    "result": []
  },
  {
    "postal": "N4N2L9",
    "result": [
      {
        "electoralDistricts": [
          {
            "election": null,
            "id": 14,
            "name": "Bruce—Grey—Owen Sound"
          }
        ],
        "pollDivisionIds": [
          10137294
        ],
        "postalCode": "N4N2L9",
        "streetName": "8TH A",
        "streetDirectionId": null,
        "streetTypeId": "AVE",
        "placeName": "HANOVER",
        "streetNameDisplayText": "8TH A AVE, HANOVER"
      }
    ]
  },
  {
    "postal": "N4N8K9",
    "result": []
  },
  {
    "postal": "N4N2H9",
    "result": [
      {
        "electoralDistricts": [
          {
            "election": null,
            "id": 14,
            "name": "Bruce—Grey—Owen Sound"
          }
        ],
        "pollDivisionIds": [
          10137296
        ],
        "postalCode": "N4N2H9",
        "streetName": "7TH",
        "streetDirectionId": null,
        "streetTypeId": "AVE",
        "placeName": "HANOVER",
        "streetNameDisplayText": "7TH AVE, HANOVER"
      }
    ]
  },
  {
    "postal": "N4N3Z6",
    "result": []
  },
  {
    "postal": "N4N3B0",
    "result": []
  },
  {
    "postal": "N4N2H8",
    "result": [
      {
        "electoralDistricts": [
          {
            "election": null,
            "id": 14,
            "name": "Bruce—Grey—Owen Sound"
          }
        ],
        "pollDivisionIds": [
          10137296
        ],
        "postalCode": "N4N2H8",
        "streetName": "7TH",
        "streetDirectionId": null,
        "streetTypeId": "AVE",
        "placeName": "HANOVER",
        "streetNameDisplayText": "7TH AVE, HANOVER"
      }
    ]
  },
  {
    "postal": "N4N3X2",
    "result": [
      {
        "electoralDistricts": [
          {
            "election": null,
            "id": 14,
            "name": "Bruce—Grey—Owen Sound"
          }
        ],
        "pollDivisionIds": [
          10137294
        ],
        "postalCode": "N4N3X2",
        "streetName": "21ST AVE A",
        "streetDirectionId": null,
        "streetTypeId": null,
        "placeName": "HANOVER",
        "streetNameDisplayText": "21ST AVE A, HANOVER"
      }
    ]
  },
  {
    "postal": "N4N2E9",
    "result": [
      {
        "electoralDistricts": [
          {
            "election": null,
            "id": 14,
            "name": "Bruce—Grey—Owen Sound"
          }
        ],
        "pollDivisionIds": [
          10137296
        ],
        "postalCode": "N4N2E9",
        "streetName": "6TH",
        "streetDirectionId": null,
        "streetTypeId": "AVE",
        "placeName": "HANOVER",
        "streetNameDisplayText": "6TH AVE, HANOVER"
      }
    ]
  },
  {
    "postal": "N4N9P6",
    "result": []
  },
  {
    "postal": "N4N9E2",
    "result": []
  },
  {
    "postal": "N4N9H2",
    "result": []
  },
  {
    "postal": "N4N1S8",
    "result": [
      {
        "electoralDistricts": [
          {
            "election": null,
            "id": 14,
            "name": "Bruce—Grey—Owen Sound"
          }
        ],
        "pollDivisionIds": [
          10137294
        ],
        "postalCode": "N4N1S8",
        "streetName": "11TH",
        "streetDirectionId": null,
        "streetTypeId": "ST",
        "placeName": "HANOVER",
        "streetNameDisplayText": "11TH ST, HANOVER"
      }
    ]
  },
  {
    "postal": "N4N3M6",
    "result": [
      {
        "electoralDistricts": [
          {
            "election": null,
            "id": 14,
            "name": "Bruce—Grey—Owen Sound"
          }
        ],
        "pollDivisionIds": [
          10137294
        ],
        "postalCode": "N4N3M6",
        "streetName": "21ST",
        "streetDirectionId": null,
        "streetTypeId": "AVE",
        "placeName": "HANOVER",
        "streetNameDisplayText": "21ST AVE, HANOVER"
      }
    ]
  },
  {
    "postal": "N4N6Z8",
    "result": []
  },
  {
    "postal": "N4N4J2",
    "result": []
  },
  {
    "postal": "N4N9Y1",
    "result": []
  },
  {
    "postal": "N4N8V6",
    "result": []
  },
  {
    "postal": "N4N6B2",
    "result": []
  },
  {
    "postal": "N4N1P8",
    "result": [
      {
        "electoralDistricts": [
          {
            "election": null,
            "id": 14,
            "name": "Bruce—Grey—Owen Sound"
          }
        ],
        "pollDivisionIds": [
          10137296
        ],
        "postalCode": "N4N1P8",
        "streetName": "10TH",
        "streetDirectionId": null,
        "streetTypeId": "ST",
        "placeName": "HANOVER",
        "streetNameDisplayText": "10TH ST, HANOVER"
      }
    ]
  },
  {
    "postal": "N4N0V8",
    "result": []
  },
  {
    "postal": "N4N4Y0",
    "result": []
  },
  {
    "postal": "N4N2T4",
    "result": [
      {
        "electoralDistricts": [
          {
            "election": null,
            "id": 14,
            "name": "Bruce—Grey—Owen Sound"
          }
        ],
        "pollDivisionIds": [
          10137296
        ],
        "postalCode": "N4N2T4",
        "streetName": "12TH",
        "streetDirectionId": null,
        "streetTypeId": "AVE",
        "placeName": "HANOVER",
        "streetNameDisplayText": "12TH AVE, HANOVER"
      }
    ]
  },
  {
    "postal": "N4N2S3",
    "result": [
      {
        "electoralDistricts": [
          {
            "election": null,
            "id": 14,
            "name": "Bruce—Grey—Owen Sound"
          }
        ],
        "pollDivisionIds": [
          10137294
        ],
        "postalCode": "N4N2S3",
        "streetName": "11TH",
        "streetDirectionId": null,
        "streetTypeId": "AVE",
        "placeName": "HANOVER",
        "streetNameDisplayText": "11TH AVE, HANOVER"
      }
    ]
  },
  {
    "postal": "N4N0K0",
    "result": []
  },
  {
    "postal": "N4N5N1",
    "result": []
  },
  {
    "postal": "N4N7T0",
    "result": []
  },
  {
    "postal": "N4N9N2",
    "result": []
  },
  {
    "postal": "N4N5L1",
    "result": []
  },
  {
    "postal": "N4N7G5",
    "result": []
  },
  {
    "postal": "N4N6K2",
    "result": []
  },
  {
    "postal": "N4N6P9",
    "result": []
  },
  {
    "postal": "N4N0E6",
    "result": []
  },
  {
    "postal": "N4N8R9",
    "result": []
  },
  {
    "postal": "N4N3G9",
    "result": [
      {
        "electoralDistricts": [
          {
            "election": null,
            "id": 14,
            "name": "Bruce—Grey—Owen Sound"
          }
        ],
        "pollDivisionIds": [
          10137294
        ],
        "postalCode": "N4N3G9",
        "streetName": "14TH",
        "streetDirectionId": null,
        "streetTypeId": "ST",
        "placeName": "HANOVER",
        "streetNameDisplayText": "14TH ST, HANOVER"
      }
    ]
  },
  {
    "postal": "N4N0V7",
    "result": []
  },
  {
    "postal": "N4N2Z1",
    "result": [
      {
        "electoralDistricts": [
          {
            "election": null,
            "id": 14,
            "name": "Bruce—Grey—Owen Sound"
          }
        ],
        "pollDivisionIds": [
          10137294
        ],
        "postalCode": "N4N2Z1",
        "streetName": "15TH",
        "streetDirectionId": null,
        "streetTypeId": "AVE",
        "placeName": "HANOVER",
        "streetNameDisplayText": "15TH AVE, HANOVER"
      }
    ]
  },
  {
    "postal": "N4N7N1",
    "result": []
  },
  {
    "postal": "N4N3C6",
    "result": []
  },
  {
    "postal": "N4N4M1",
    "result": []
  },
  {
    "postal": "N4N9K2",
    "result": []
  },
  {
    "postal": "N4N9S6",
    "result": []
  },
  {
    "postal": "N4N4X1",
    "result": []
  },
  {
    "postal": "N4N8W2",
    "result": []
  },
  {
    "postal": "N4N7N2",
    "result": []
  },
  {
    "postal": "N4N8S3",
    "result": []
  },
  {
    "postal": "N4N4V0",
    "result": []
  },
  {
    "postal": "N4N6W4",
    "result": []
  },
  {
    "postal": "N4N5M1",
    "result": []
  },
  {
    "postal": "N4N0S4",
    "result": []
  },
  {
    "postal": "N4N5X6",
    "result": []
  },
  {
    "postal": "N4N8L5",
    "result": []
  },
  {
    "postal": "N4N5M8",
    "result": []
  },
  {
    "postal": "N4N2G3",
    "result": [
      {
        "electoralDistricts": [
          {
            "election": null,
            "id": 14,
            "name": "Bruce—Grey—Owen Sound"
          }
        ],
        "pollDivisionIds": [
          10137296
        ],
        "postalCode": "N4N2G3",
        "streetName": "6TH",
        "streetDirectionId": null,
        "streetTypeId": "AVE",
        "placeName": "HANOVER",
        "streetNameDisplayText": "6TH AVE, HANOVER"
      }
    ]
  },
  {
    "postal": "N4N8E4",
    "result": []
  },
  {
    "postal": "N4N7S9",
    "result": []
  },
  {
    "postal": "N4N1K3",
    "result": [
      {
        "electoralDistricts": [
          {
            "election": null,
            "id": 14,
            "name": "Bruce—Grey—Owen Sound"
          }
        ],
        "pollDivisionIds": [
          10137296
        ],
        "postalCode": "N4N1K3",
        "streetName": "8TH",
        "streetDirectionId": null,
        "streetTypeId": "ST",
        "placeName": "HANOVER",
        "streetNameDisplayText": "8TH ST, HANOVER"
      }
    ]
  },
  {
    "postal": "N4N4E1",
    "result": []
  },
  {
    "postal": "N4N4R2",
    "result": []
  },
  {
    "postal": "N4N6T0",
    "result": []
  },
  {
    "postal": "N4N3K5",
    "result": [
      {
        "electoralDistricts": [
          {
            "election": null,
            "id": 14,
            "name": "Bruce—Grey—Owen Sound"
          }
        ],
        "pollDivisionIds": [
          10137296
        ],
        "postalCode": "N4N3K5",
        "streetName": "5TH STREET",
        "streetDirectionId": null,
        "streetTypeId": "CLOSE",
        "placeName": "HANOVER",
        "streetNameDisplayText": "5TH STREET CLOSE, HANOVER"
      }
    ]
  },
  {
    "postal": "N4N3S3",
    "result": [
      {
        "electoralDistricts": [
          {
            "election": null,
            "id": 14,
            "name": "Bruce—Grey—Owen Sound"
          }
        ],
        "pollDivisionIds": [
          10137294
        ],
        "postalCode": "N4N3S3",
        "streetName": "17TH",
        "streetDirectionId": null,
        "streetTypeId": "AVE",
        "placeName": "HANOVER",
        "streetNameDisplayText": "17TH AVE, HANOVER"
      }
    ]
  },
  {
    "postal": "N4N3L4",
    "result": [
      {
        "electoralDistricts": [
          {
            "election": null,
            "id": 14,
            "name": "Bruce—Grey—Owen Sound"
          }
        ],
        "pollDivisionIds": [
          10137296
        ],
        "postalCode": "N4N3L4",
        "streetName": "15TH",
        "streetDirectionId": null,
        "streetTypeId": "AVE",
        "placeName": "HANOVER",
        "streetNameDisplayText": "15TH AVE, HANOVER"
      }
    ]
  },
  {
    "postal": "N4N9Y2",
    "result": []
  },
  {
    "postal": "N4N1E0",
    "result": []
  },
  {
    "postal": "N4N9A4",
    "result": []
  },
  {
    "postal": "N4N1L3",
    "result": [
      {
        "electoralDistricts": [
          {
            "election": null,
            "id": 14,
            "name": "Bruce—Grey—Owen Sound"
          }
        ],
        "pollDivisionIds": [
          10137296
        ],
        "postalCode": "N4N1L3",
        "streetName": "9TH",
        "streetDirectionId": null,
        "streetTypeId": "ST",
        "placeName": "HANOVER",
        "streetNameDisplayText": "9TH ST, HANOVER"
      }
    ]
  },
  {
    "postal": "N4N6N1",
    "result": []
  },
  {
    "postal": "N4N6G7",
    "result": []
  },
  {
    "postal": "N4N7W1",
    "result": []
  },
  {
    "postal": "N4N4M6",
    "result": []
  },
  {
    "postal": "N4N1K0",
    "result": []
  },
  {
    "postal": "N4N3E2",
    "result": [
      {
        "electoralDistricts": [
          {
            "election": null,
            "id": 14,
            "name": "Bruce—Grey—Owen Sound"
          }
        ],
        "pollDivisionIds": [
          10137296
        ],
        "postalCode": "N4N3E2",
        "streetName": "6TH",
        "streetDirectionId": null,
        "streetTypeId": "ST",
        "placeName": "HANOVER",
        "streetNameDisplayText": "6TH ST, HANOVER"
      }
    ]
  },
  {
    "postal": "N4N5H4",
    "result": []
  },
  {
    "postal": "N4N1K7",
    "result": [
      {
        "electoralDistricts": [
          {
            "election": null,
            "id": 14,
            "name": "Bruce—Grey—Owen Sound"
          }
        ],
        "pollDivisionIds": [
          10137296
        ],
        "postalCode": "N4N1K7",
        "streetName": "9TH",
        "streetDirectionId": null,
        "streetTypeId": "ST",
        "placeName": "HANOVER",
        "streetNameDisplayText": "9TH ST, HANOVER"
      }
    ]
  },
  {
    "postal": "N4N0H0",
    "result": []
  },
  {
    "postal": "N4N0J3",
    "result": []
  },
  {
    "postal": "N4N1X6",
    "result": [
      {
        "electoralDistricts": [
          {
            "election": null,
            "id": 14,
            "name": "Bruce—Grey—Owen Sound"
          }
        ],
        "pollDivisionIds": [
          10137294
        ],
        "postalCode": "N4N1X6",
        "streetName": "13TH",
        "streetDirectionId": null,
        "streetTypeId": "ST",
        "placeName": "HANOVER",
        "streetNameDisplayText": "13TH ST, HANOVER"
      }
    ]
  },
  {
    "postal": "N4N2Z6",
    "result": [
      {
        "electoralDistricts": [
          {
            "election": null,
            "id": 14,
            "name": "Bruce—Grey—Owen Sound"
          }
        ],
        "pollDivisionIds": [
          10137294
        ],
        "postalCode": "N4N2Z6",
        "streetName": "16TH",
        "streetDirectionId": null,
        "streetTypeId": "AVE",
        "placeName": "HANOVER",
        "streetNameDisplayText": "16TH AVE, HANOVER"
      }
    ]
  },
  {
    "postal": "N4N4R9",
    "result": []
  },
  {
    "postal": "N4N0W8",
    "result": []
  },
  {
    "postal": "N4N1L4",
    "result": [
      {
        "electoralDistricts": [
          {
            "election": null,
            "id": 14,
            "name": "Bruce—Grey—Owen Sound"
          }
        ],
        "pollDivisionIds": [
          10137296
        ],
        "postalCode": "N4N1L4",
        "streetName": "9TH",
        "streetDirectionId": null,
        "streetTypeId": "ST",
        "placeName": "HANOVER",
        "streetNameDisplayText": "9TH ST, HANOVER"
      }
    ]
  },
  {
    "postal": "N4N0C8",
    "result": []
  },
  {
    "postal": "N4N9X7",
    "result": []
  },
  {
    "postal": "N4N4T1",
    "result": []
  },
  {
    "postal": "N4N0M0",
    "result": []
  },
  {
    "postal": "N4N6A2",
    "result": []
  },
  {
    "postal": "N4N9S8",
    "result": []
  },
  {
    "postal": "N4N9T4",
    "result": []
  },
  {
    "postal": "N4N9Y4",
    "result": []
  },
  {
    "postal": "N4N6G5",
    "result": []
  },
  {
    "postal": "N4N6H9",
    "result": []
  },
  {
    "postal": "N4N2P3",
    "result": [
      {
        "electoralDistricts": [
          {
            "election": null,
            "id": 14,
            "name": "Bruce—Grey—Owen Sound"
          }
        ],
        "pollDivisionIds": [
          10137294
        ],
        "postalCode": "N4N2P3",
        "streetName": "10TH",
        "streetDirectionId": null,
        "streetTypeId": "AVE",
        "placeName": "HANOVER",
        "streetNameDisplayText": "10TH AVE, HANOVER"
      }
    ]
  },
  {
    "postal": "N4N1T6",
    "result": [
      {
        "electoralDistricts": [
          {
            "election": null,
            "id": 14,
            "name": "Bruce—Grey—Owen Sound"
          }
        ],
        "pollDivisionIds": [
          10137294
        ],
        "postalCode": "N4N1T6",
        "streetName": "11TH",
        "streetDirectionId": null,
        "streetTypeId": "ST",
        "placeName": "HANOVER",
        "streetNameDisplayText": "11TH ST, HANOVER"
      }
    ]
  },
  {
    "postal": "N4N4P6",
    "result": []
  },
  {
    "postal": "N4N3K1",
    "result": [
      {
        "electoralDistricts": [
          {
            "election": null,
            "id": 14,
            "name": "Bruce—Grey—Owen Sound"
          }
        ],
        "pollDivisionIds": [
          10137296
        ],
        "postalCode": "N4N3K1",
        "streetName": "3RD",
        "streetDirectionId": null,
        "streetTypeId": "AVE",
        "placeName": "HANOVER",
        "streetNameDisplayText": "3RD AVE, HANOVER"
      }
    ]
  },
  {
    "postal": "N4N6X4",
    "result": []
  },
  {
    "postal": "N4N4M8",
    "result": []
  },
  {
    "postal": "N4N2Y1",
    "result": [
      {
        "electoralDistricts": [
          {
            "election": null,
            "id": 14,
            "name": "Bruce—Grey—Owen Sound"
          }
        ],
        "pollDivisionIds": [
          10137296
        ],
        "postalCode": "N4N2Y1",
        "streetName": "14TH",
        "streetDirectionId": null,
        "streetTypeId": "AVE",
        "placeName": "HANOVER",
        "streetNameDisplayText": "14TH AVE, HANOVER"
      }
    ]
  },
  {
    "postal": "N4N6M1",
    "result": []
  },
  {
    "postal": "N4N5L8",
    "result": []
  },
  {
    "postal": "N4N3P6",
    "result": [
      {
        "electoralDistricts": [
          {
            "election": null,
            "id": 14,
            "name": "Bruce—Grey—Owen Sound"
          }
        ],
        "pollDivisionIds": [
          10137296
        ],
        "postalCode": "N4N3P6",
        "streetName": "14TH",
        "streetDirectionId": null,
        "streetTypeId": "AVE",
        "placeName": "HANOVER",
        "streetNameDisplayText": "14TH AVE, HANOVER"
      },
      {
        "electoralDistricts": [
          {
            "election": null,
            "id": 14,
            "name": "Bruce—Grey—Owen Sound"
          }
        ],
        "pollDivisionIds": [
          10137296
        ],
        "postalCode": "N4N3P6",
        "streetName": "2ND ST A",
        "streetDirectionId": null,
        "streetTypeId": null,
        "placeName": "HANOVER",
        "streetNameDisplayText": "2ND ST A, HANOVER"
      }
    ]
  },
  {
    "postal": "N4N9A5",
    "result": []
  },
  {
    "postal": "N4N7K1",
    "result": []
  },
  {
    "postal": "N4N3J4",
    "result": [
      {
        "electoralDistricts": [
          {
            "election": null,
            "id": 14,
            "name": "Bruce—Grey—Owen Sound"
          }
        ],
        "pollDivisionIds": [
          10137294
        ],
        "postalCode": "N4N3J4",
        "streetName": "11TH",
        "streetDirectionId": null,
        "streetTypeId": "ST",
        "placeName": "HANOVER",
        "streetNameDisplayText": "11TH ST, HANOVER"
      }
    ]
  },
  {
    "postal": "N4N5E7",
    "result": []
  },
  {
    "postal": "N4N3A7",
    "result": [
      {
        "electoralDistricts": [
          {
            "election": null,
            "id": 14,
            "name": "Bruce—Grey—Owen Sound"
          }
        ],
        "pollDivisionIds": [
          10137294
        ],
        "postalCode": "N4N3A7",
        "streetName": "17TH",
        "streetDirectionId": null,
        "streetTypeId": "AVE",
        "placeName": "HANOVER",
        "streetNameDisplayText": "17TH AVE, HANOVER"
      }
    ]
  },
  {
    "postal": "N4N1B9",
    "result": [
      {
        "electoralDistricts": [
          {
            "election": null,
            "id": 14,
            "name": "Bruce—Grey—Owen Sound"
          }
        ],
        "pollDivisionIds": [
          10137296
        ],
        "postalCode": "N4N1B9",
        "streetName": "6TH",
        "streetDirectionId": null,
        "streetTypeId": "ST",
        "placeName": "HANOVER",
        "streetNameDisplayText": "6TH ST, HANOVER"
      }
    ]
  },
  {
    "postal": "N4N9E8",
    "result": []
  },
  {
    "postal": "N4N1C9",
    "result": [
      {
        "electoralDistricts": [
          {
            "election": null,
            "id": 14,
            "name": "Bruce—Grey—Owen Sound"
          }
        ],
        "pollDivisionIds": [
          10137296
        ],
        "postalCode": "N4N1C9",
        "streetName": "6TH",
        "streetDirectionId": null,
        "streetTypeId": "ST",
        "placeName": "HANOVER",
        "streetNameDisplayText": "6TH ST, HANOVER"
      }
    ]
  },
  {
    "postal": "N4N3B5",
    "result": []
  },
  {
    "postal": "N4N8R0",
    "result": []
  },
  {
    "postal": "N4N3P2",
    "result": [
      {
        "electoralDistricts": [
          {
            "election": null,
            "id": 14,
            "name": "Bruce—Grey—Owen Sound"
          }
        ],
        "pollDivisionIds": [
          10137294
        ],
        "postalCode": "N4N3P2",
        "streetName": "10TH",
        "streetDirectionId": null,
        "streetTypeId": "ST",
        "placeName": "HANOVER",
        "streetNameDisplayText": "10TH ST, HANOVER"
      }
    ]
  },
  {
    "postal": "N4N5V4",
    "result": []
  },
  {
    "postal": "N4N4H0",
    "result": []
  },
  {
    "postal": "N4N4S7",
    "result": []
  },
  {
    "postal": "N4N6C2",
    "result": []
  },
  {
    "postal": "N4N8W3",
    "result": []
  },
  {
    "postal": "N4N4M5",
    "result": []
  },
  {
    "postal": "N4N5T1",
    "result": []
  },
  {
    "postal": "N4N3B3",
    "result": [
      {
        "electoralDistricts": [
          {
            "election": null,
            "id": 14,
            "name": "Bruce—Grey—Owen Sound"
          }
        ],
        "pollDivisionIds": [
          10137294
        ],
        "postalCode": "N4N3B3",
        "streetName": "18TH",
        "streetDirectionId": null,
        "streetTypeId": "AVE",
        "placeName": "HANOVER",
        "streetNameDisplayText": "18TH AVE, HANOVER"
      }
    ]
  },
  {
    "postal": "N4N6C6",
    "result": []
  },
  {
    "postal": "N4N7N8",
    "result": []
  },
  {
    "postal": "N4N2Y3",
    "result": [
      {
        "electoralDistricts": [
          {
            "election": null,
            "id": 14,
            "name": "Bruce—Grey—Owen Sound"
          }
        ],
        "pollDivisionIds": [
          10137296
        ],
        "postalCode": "N4N2Y3",
        "streetName": "14TH",
        "streetDirectionId": null,
        "streetTypeId": "AVE",
        "placeName": "HANOVER",
        "streetNameDisplayText": "14TH AVE, HANOVER"
      }
    ]
  },
  {
    "postal": "N4N2R6",
    "result": [
      {
        "electoralDistricts": [
          {
            "election": null,
            "id": 14,
            "name": "Bruce—Grey—Owen Sound"
          }
        ],
        "pollDivisionIds": [
          10137296
        ],
        "postalCode": "N4N2R6",
        "streetName": "11TH",
        "streetDirectionId": null,
        "streetTypeId": "AVE",
        "placeName": "HANOVER",
        "streetNameDisplayText": "11TH AVE, HANOVER"
      }
    ]
  },
  {
    "postal": "N4N7N3",
    "result": []
  },
  {
    "postal": "N4N8J2",
    "result": []
  },
  {
    "postal": "N4N6A9",
    "result": []
  },
  {
    "postal": "N4N3V2",
    "result": [
      {
        "electoralDistricts": [
          {
            "election": null,
            "id": 14,
            "name": "Bruce—Grey—Owen Sound"
          }
        ],
        "pollDivisionIds": [
          10137296
        ],
        "postalCode": "N4N3V2",
        "streetName": "11TH",
        "streetDirectionId": null,
        "streetTypeId": "AVE",
        "placeName": "HANOVER",
        "streetNameDisplayText": "11TH AVE, HANOVER"
      },
      {
        "electoralDistricts": [
          {
            "election": null,
            "id": 14,
            "name": "Bruce—Grey—Owen Sound"
          }
        ],
        "pollDivisionIds": [
          10137296
        ],
        "postalCode": "N4N3V2",
        "streetName": "3RD",
        "streetDirectionId": "S",
        "streetTypeId": "ST",
        "placeName": "HANOVER",
        "streetNameDisplayText": "3RD ST S, HANOVER"
      },
      {
        "electoralDistricts": [
          {
            "election": null,
            "id": 14,
            "name": "Bruce—Grey—Owen Sound"
          }
        ],
        "pollDivisionIds": [
          10137296
        ],
        "postalCode": "N4N3V2",
        "streetName": "4TH",
        "streetDirectionId": "S",
        "streetTypeId": "ST",
        "placeName": "HANOVER",
        "streetNameDisplayText": "4TH ST S, HANOVER"
      }
    ]
  },
  {
    "postal": "N4N2N3",
    "result": [
      {
        "electoralDistricts": [
          {
            "election": null,
            "id": 14,
            "name": "Bruce—Grey—Owen Sound"
          }
        ],
        "pollDivisionIds": [
          10137296
        ],
        "postalCode": "N4N2N3",
        "streetName": "10TH",
        "streetDirectionId": null,
        "streetTypeId": "AVE",
        "placeName": "HANOVER",
        "streetNameDisplayText": "10TH AVE, HANOVER"
      }
    ]
  },
  {
    "postal": "N4N1S5",
    "result": [
      {
        "electoralDistricts": [
          {
            "election": null,
            "id": 14,
            "name": "Bruce—Grey—Owen Sound"
          }
        ],
        "pollDivisionIds": [
          10137294
        ],
        "postalCode": "N4N1S5",
        "streetName": "11TH",
        "streetDirectionId": null,
        "streetTypeId": "ST",
        "placeName": "HANOVER",
        "streetNameDisplayText": "11TH ST, HANOVER"
      }
    ]
  },
  {
    "postal": "N4N4T7",
    "result": []
  },
  {
    "postal": "N4N6Y7",
    "result": []
  },
  {
    "postal": "N4N0W7",
    "result": []
  },
  {
    "postal": "N4N2W9",
    "result": [
      {
        "electoralDistricts": [
          {
            "election": null,
            "id": 14,
            "name": "Bruce—Grey—Owen Sound"
          }
        ],
        "pollDivisionIds": [
          10137294
        ],
        "postalCode": "N4N2W9",
        "streetName": "13TH",
        "streetDirectionId": null,
        "streetTypeId": "AVE",
        "placeName": "HANOVER",
        "streetNameDisplayText": "13TH AVE, HANOVER"
      }
    ]
  },
  {
    "postal": "N4N8V0",
    "result": []
  },
  {
    "postal": "N4N0H4",
    "result": []
  },
  {
    "postal": "N4N2T1",
    "result": [
      {
        "electoralDistricts": [
          {
            "election": null,
            "id": 14,
            "name": "Bruce—Grey—Owen Sound"
          }
        ],
        "pollDivisionIds": [
          10137296
        ],
        "postalCode": "N4N2T1",
        "streetName": "12TH",
        "streetDirectionId": null,
        "streetTypeId": "AVE",
        "placeName": "HANOVER",
        "streetNameDisplayText": "12TH AVE, HANOVER"
      }
    ]
  },
  {
    "postal": "N4N1B1",
    "result": [
      {
        "electoralDistricts": [
          {
            "election": null,
            "id": 14,
            "name": "Bruce—Grey—Owen Sound"
          }
        ],
        "pollDivisionIds": [
          10137296
        ],
        "postalCode": "N4N1B1",
        "streetName": "3RD",
        "streetDirectionId": null,
        "streetTypeId": "ST",
        "placeName": "HANOVER",
        "streetNameDisplayText": "3RD ST, HANOVER"
      }
    ]
  },
  {
    "postal": "N4N8B6",
    "result": []
  },
  {
    "postal": "N4N6H1",
    "result": []
  },
  {
    "postal": "N4N8T8",
    "result": []
  },
  {
    "postal": "N4N0T4",
    "result": []
  },
  {
    "postal": "N4N2C4",
    "result": [
      {
        "electoralDistricts": [
          {
            "election": null,
            "id": 14,
            "name": "Bruce—Grey—Owen Sound"
          }
        ],
        "pollDivisionIds": [
          10137296
        ],
        "postalCode": "N4N2C4",
        "streetName": "5TH",
        "streetDirectionId": null,
        "streetTypeId": "AVE",
        "placeName": "HANOVER",
        "streetNameDisplayText": "5TH AVE, HANOVER"
      }
    ]
  },
  {
    "postal": "N4N8N3",
    "result": []
  },
  {
    "postal": "N4N4L8",
    "result": []
  },
  {
    "postal": "N4N2B5",
    "result": [
      {
        "electoralDistricts": [
          {
            "election": null,
            "id": 14,
            "name": "Bruce—Grey—Owen Sound"
          }
        ],
        "pollDivisionIds": [
          10137296
        ],
        "postalCode": "N4N2B5",
        "streetName": "4TH",
        "streetDirectionId": null,
        "streetTypeId": "AVE",
        "placeName": "HANOVER",
        "streetNameDisplayText": "4TH AVE, HANOVER"
      }
    ]
  },
  {
    "postal": "N4N3H1",
    "result": [
      {
        "electoralDistricts": [
          {
            "election": null,
            "id": 14,
            "name": "Bruce—Grey—Owen Sound"
          }
        ],
        "pollDivisionIds": [
          10137294
        ],
        "postalCode": "N4N3H1",
        "streetName": "14TH",
        "streetDirectionId": null,
        "streetTypeId": "ST",
        "placeName": "HANOVER",
        "streetNameDisplayText": "14TH ST, HANOVER"
      }
    ]
  },
  {
    "postal": "N4N4Y1",
    "result": []
  },
  {
    "postal": "N4N7E2",
    "result": []
  },
  {
    "postal": "N4N2P5",
    "result": [
      {
        "electoralDistricts": [
          {
            "election": null,
            "id": 14,
            "name": "Bruce—Grey—Owen Sound"
          }
        ],
        "pollDivisionIds": [
          10137294
        ],
        "postalCode": "N4N2P5",
        "streetName": "10TH",
        "streetDirectionId": null,
        "streetTypeId": "AVE",
        "placeName": "HANOVER",
        "streetNameDisplayText": "10TH AVE, HANOVER"
      }
    ]
  },
  {
    "postal": "N4N8R7",
    "result": []
  },
  {
    "postal": "N4N9P1",
    "result": []
  },
  {
    "postal": "N4N3B8",
    "result": [
      {
        "electoralDistricts": [
          {
            "election": null,
            "id": 14,
            "name": "Bruce—Grey—Owen Sound"
          }
        ],
        "pollDivisionIds": [
          10137296
        ],
        "postalCode": "N4N3B8",
        "streetName": "10TH",
        "streetDirectionId": null,
        "streetTypeId": "AVE",
        "placeName": "HANOVER",
        "streetNameDisplayText": "10TH AVE, HANOVER"
      },
      {
        "electoralDistricts": [
          {
            "election": null,
            "id": 14,
            "name": "Bruce—Grey—Owen Sound"
          }
        ],
        "pollDivisionIds": [
          10137294
        ],
        "postalCode": "N4N3B8",
        "streetName": "10TH NDR",
        "streetDirectionId": null,
        "streetTypeId": "SIDERD",
        "placeName": "HANOVER",
        "streetNameDisplayText": "10TH NDR SIDERD, HANOVER"
      },
      {
        "electoralDistricts": [
          {
            "election": null,
            "id": 14,
            "name": "Bruce—Grey—Owen Sound"
          }
        ],
        "pollDivisionIds": [
          10137294
        ],
        "postalCode": "N4N3B8",
        "streetName": "10TH SDR",
        "streetDirectionId": null,
        "streetTypeId": "SIDERD",
        "placeName": "HANOVER",
        "streetNameDisplayText": "10TH SDR SIDERD, HANOVER"
      },
      {
        "electoralDistricts": [
          {
            "election": null,
            "id": 14,
            "name": "Bruce—Grey—Owen Sound"
          }
        ],
        "pollDivisionIds": [
          10137294
        ],
        "postalCode": "N4N3B8",
        "streetName": "10TH SIDERD SDR",
        "streetDirectionId": null,
        "streetTypeId": null,
        "placeName": "HANOVER",
        "streetNameDisplayText": "10TH SIDERD SDR, HANOVER"
      },
      {
        "electoralDistricts": [
          {
            "election": null,
            "id": 14,
            "name": "Bruce—Grey—Owen Sound"
          }
        ],
        "pollDivisionIds": [
          10137294
        ],
        "postalCode": "N4N3B8",
        "streetName": "10TH SIDEROAD SDR",
        "streetDirectionId": null,
        "streetTypeId": null,
        "placeName": "HANOVER",
        "streetNameDisplayText": "10TH SIDEROAD SDR, HANOVER"
      },
      {
        "electoralDistricts": [
          {
            "election": null,
            "id": 14,
            "name": "Bruce—Grey—Owen Sound"
          }
        ],
        "pollDivisionIds": [
          10137294
        ],
        "postalCode": "N4N3B8",
        "streetName": "10TH",
        "streetDirectionId": null,
        "streetTypeId": "ST",
        "placeName": "HANOVER",
        "streetNameDisplayText": "10TH ST, HANOVER"
      },
      {
        "electoralDistricts": [
          {
            "election": null,
            "id": 14,
            "name": "Bruce—Grey—Owen Sound"
          }
        ],
        "pollDivisionIds": [
          10137299
        ],
        "postalCode": "N4N3B8",
        "streetName": "18",
        "streetDirectionId": null,
        "streetTypeId": "CONC",
        "placeName": "HANOVER",
        "streetNameDisplayText": "18 CONC, HANOVER"
      },
      {
        "electoralDistricts": [
          {
            "election": null,
            "id": 14,
            "name": "Bruce—Grey—Owen Sound"
          }
        ],
        "pollDivisionIds": [
          10137294,
          10137295
        ],
        "postalCode": "N4N3B8",
        "streetName": "2 SDR",
        "streetDirectionId": null,
        "streetTypeId": "CONC",
        "placeName": "HANOVER",
        "streetNameDisplayText": "2 SDR CONC, HANOVER"
      },
      {
        "electoralDistricts": [
          {
            "election": null,
            "id": 14,
            "name": "Bruce—Grey—Owen Sound"
          }
        ],
        "pollDivisionIds": [
          10137299
        ],
        "postalCode": "N4N3B8",
        "streetName": "20",
        "streetDirectionId": null,
        "streetTypeId": "SIDERD",
        "placeName": "HANOVER",
        "streetNameDisplayText": "20 SIDERD, HANOVER"
      },
      {
        "electoralDistricts": [
          {
            "election": null,
            "id": 14,
            "name": "Bruce—Grey—Owen Sound"
          }
        ],
        "pollDivisionIds": [
          10137299
        ],
        "postalCode": "N4N3B8",
        "streetName": "20",
        "streetDirectionId": null,
        "streetTypeId": "SIDERD",
        "placeName": "NEUSTADT",
        "streetNameDisplayText": "20 SIDERD, NEUSTADT"
      },
      {
        "electoralDistricts": [
          {
            "election": null,
            "id": 14,
            "name": "Bruce—Grey—Owen Sound"
          }
        ],
        "pollDivisionIds": [
          10137294
        ],
        "postalCode": "N4N3B8",
        "streetName": "24TH",
        "streetDirectionId": null,
        "streetTypeId": "AVE",
        "placeName": "HANOVER",
        "streetNameDisplayText": "24TH AVE, HANOVER"
      },
      {
        "electoralDistricts": [
          {
            "election": null,
            "id": 14,
            "name": "Bruce—Grey—Owen Sound"
          }
        ],
        "pollDivisionIds": [
          10137299
        ],
        "postalCode": "N4N3B8",
        "streetName": "25",
        "streetDirectionId": null,
        "streetTypeId": "SIDERD",
        "placeName": "HANOVER",
        "streetNameDisplayText": "25 SIDERD, HANOVER"
      },
      {
        "electoralDistricts": [
          {
            "election": null,
            "id": 14,
            "name": "Bruce—Grey—Owen Sound"
          }
        ],
        "pollDivisionIds": [
          10137295
        ],
        "postalCode": "N4N3B8",
        "streetName": "30 NDR",
        "streetDirectionId": null,
        "streetTypeId": "SIDERD",
        "placeName": "HANOVER",
        "streetNameDisplayText": "30 NDR SIDERD, HANOVER"
      },
      {
        "electoralDistricts": [
          {
            "election": null,
            "id": 14,
            "name": "Bruce—Grey—Owen Sound"
          }
        ],
        "pollDivisionIds": [
          10137295
        ],
        "postalCode": "N4N3B8",
        "streetName": "30TH SIDEROAD NDR",
        "streetDirectionId": null,
        "streetTypeId": null,
        "placeName": "HANOVER",
        "streetNameDisplayText": "30TH SIDEROAD NDR, HANOVER"
      },
      {
        "electoralDistricts": [
          {
            "election": null,
            "id": 14,
            "name": "Bruce—Grey—Owen Sound"
          }
        ],
        "pollDivisionIds": [
          10137294
        ],
        "postalCode": "N4N3B8",
        "streetName": "ALLAN PARK",
        "streetDirectionId": null,
        "streetTypeId": "RD",
        "placeName": "HANOVER",
        "streetNameDisplayText": "ALLAN PARK RD, HANOVER"
      },
      {
        "electoralDistricts": [
          {
            "election": null,
            "id": 14,
            "name": "Bruce—Grey—Owen Sound"
          }
        ],
        "pollDivisionIds": [
          10137295
        ],
        "postalCode": "N4N3B8",
        "streetName": "BASELINE",
        "streetDirectionId": null,
        "streetTypeId": "RD",
        "placeName": "HANOVER",
        "streetNameDisplayText": "BASELINE RD, HANOVER"
      },
      {
        "electoralDistricts": [
          {
            "election": null,
            "id": 14,
            "name": "Bruce—Grey—Owen Sound"
          }
        ],
        "pollDivisionIds": [
          10137295
        ],
        "postalCode": "N4N3B8",
        "streetName": "BASELINE",
        "streetDirectionId": null,
        "streetTypeId": null,
        "placeName": "HANOVER",
        "streetNameDisplayText": "BASELINE, HANOVER"
      },
      {
        "electoralDistricts": [
          {
            "election": null,
            "id": 14,
            "name": "Bruce—Grey—Owen Sound"
          }
        ],
        "pollDivisionIds": [
          10137295
        ],
        "postalCode": "N4N3B8",
        "streetName": "BLUESPRING",
        "streetDirectionId": null,
        "streetTypeId": "RD",
        "placeName": "HANOVER",
        "streetNameDisplayText": "BLUESPRING RD, HANOVER"
      },
      {
        "electoralDistricts": [
          {
            "election": null,
            "id": 14,
            "name": "Bruce—Grey—Owen Sound"
          }
        ],
        "pollDivisionIds": [
          10137294
        ],
        "postalCode": "N4N3B8",
        "streetName": "CEDAR VALLEYVIEW",
        "streetDirectionId": null,
        "streetTypeId": "RD",
        "placeName": "HANOVER",
        "streetNameDisplayText": "CEDAR VALLEYVIEW RD, HANOVER"
      },
      {
        "electoralDistricts": [
          {
            "election": null,
            "id": 14,
            "name": "Bruce—Grey—Owen Sound"
          }
        ],
        "pollDivisionIds": [
          10137244,
          10137299
        ],
        "postalCode": "N4N3B8",
        "streetName": "CON 18",
        "streetDirectionId": null,
        "streetTypeId": null,
        "placeName": "HANOVER",
        "streetNameDisplayText": "CON 18, HANOVER"
      },
      {
        "electoralDistricts": [
          {
            "election": null,
            "id": 14,
            "name": "Bruce—Grey—Owen Sound"
          }
        ],
        "pollDivisionIds": [
          10137294
        ],
        "postalCode": "N4N3B8",
        "streetName": "CON 2 SDR",
        "streetDirectionId": null,
        "streetTypeId": null,
        "placeName": "HANOVER",
        "streetNameDisplayText": "CON 2 SDR, HANOVER"
      },
      {
        "electoralDistricts": [
          {
            "election": null,
            "id": 14,
            "name": "Bruce—Grey—Owen Sound"
          }
        ],
        "pollDivisionIds": [
          10137294
        ],
        "postalCode": "N4N3B8",
        "streetName": "CON 2, SDR, RR1",
        "streetDirectionId": null,
        "streetTypeId": null,
        "placeName": "HANOVER",
        "streetNameDisplayText": "CON 2, SDR, RR1, HANOVER"
      },
      {
        "electoralDistricts": [
          {
            "election": null,
            "id": 14,
            "name": "Bruce—Grey—Owen Sound"
          }
        ],
        "pollDivisionIds": [
          10137299
        ],
        "postalCode": "N4N3B8",
        "streetName": "CONC 18",
        "streetDirectionId": null,
        "streetTypeId": null,
        "placeName": "HANOVER",
        "streetNameDisplayText": "CONC 18, HANOVER"
      },
      {
        "electoralDistricts": [
          {
            "election": null,
            "id": 14,
            "name": "Bruce—Grey—Owen Sound"
          }
        ],
        "pollDivisionIds": [
          10137294
        ],
        "postalCode": "N4N3B8",
        "streetName": "CONC 2 SDR",
        "streetDirectionId": null,
        "streetTypeId": null,
        "placeName": "HANOVER",
        "streetNameDisplayText": "CONC 2 SDR, HANOVER"
      },
      {
        "electoralDistricts": [
          {
            "election": null,
            "id": 14,
            "name": "Bruce—Grey—Owen Sound"
          }
        ],
        "pollDivisionIds": [
          10137237,
          10137294
        ],
        "postalCode": "N4N3B8",
        "streetName": "CONC 2",
        "streetDirectionId": null,
        "streetTypeId": null,
        "placeName": "HANOVER",
        "streetNameDisplayText": "CONC 2, HANOVER"
      },
      {
        "electoralDistricts": [
          {
            "election": null,
            "id": 14,
            "name": "Bruce—Grey—Owen Sound"
          }
        ],
        "pollDivisionIds": [
          10137294
        ],
        "postalCode": "N4N3B8",
        "streetName": "CONC 2,SDR",
        "streetDirectionId": null,
        "streetTypeId": null,
        "placeName": "HANOVER",
        "streetNameDisplayText": "CONC 2,SDR, HANOVER"
      },
      {
        "electoralDistricts": [
          {
            "election": null,
            "id": 14,
            "name": "Bruce—Grey—Owen Sound"
          }
        ],
        "pollDivisionIds": [
          10137299
        ],
        "postalCode": "N4N3B8",
        "streetName": "CONCESSION 18",
        "streetDirectionId": null,
        "streetTypeId": "RD",
        "placeName": "HANOVER",
        "streetNameDisplayText": "CONCESSION 18 RD, HANOVER"
      },
      {
        "electoralDistricts": [
          {
            "election": null,
            "id": 14,
            "name": "Bruce—Grey—Owen Sound"
          }
        ],
        "pollDivisionIds": [
          10137300,
          10137299
        ],
        "postalCode": "N4N3B8",
        "streetName": "CONCESSION 18",
        "streetDirectionId": null,
        "streetTypeId": null,
        "placeName": "HANOVER",
        "streetNameDisplayText": "CONCESSION 18, HANOVER"
      },
      {
        "electoralDistricts": [
          {
            "election": null,
            "id": 14,
            "name": "Bruce—Grey—Owen Sound"
          }
        ],
        "pollDivisionIds": [
          10137295,
          10137294
        ],
        "postalCode": "N4N3B8",
        "streetName": "CONCESSION 2 SDR",
        "streetDirectionId": null,
        "streetTypeId": null,
        "placeName": "HANOVER",
        "streetNameDisplayText": "CONCESSION 2 SDR, HANOVER"
      },
      {
        "electoralDistricts": [
          {
            "election": null,
            "id": 42,
            "name": "Huron—Bruce"
          }
        ],
        "pollDivisionIds": [
          10138850
        ],
        "postalCode": "N4N3B8",
        "streetName": "CONCESSION 2 SDR",
        "streetDirectionId": null,
        "streetTypeId": null,
        "placeName": "WALKERTON",
        "streetNameDisplayText": "CONCESSION 2 SDR, WALKERTON"
      },
      {
        "electoralDistricts": [
          {
            "election": null,
            "id": 14,
            "name": "Bruce—Grey—Owen Sound"
          }
        ],
        "pollDivisionIds": [
          10137244
        ],
        "postalCode": "N4N3B8",
        "streetName": "CONCESSION 3",
        "streetDirectionId": null,
        "streetTypeId": null,
        "placeName": "HANOVER",
        "streetNameDisplayText": "CONCESSION 3, HANOVER"
      },
      {
        "electoralDistricts": [
          {
            "election": null,
            "id": 14,
            "name": "Bruce—Grey—Owen Sound"
          }
        ],
        "pollDivisionIds": [
          10137294
        ],
        "postalCode": "N4N3B8",
        "streetName": "COUNTY 3",
        "streetDirectionId": null,
        "streetTypeId": "RD",
        "placeName": "HANOVER",
        "streetNameDisplayText": "COUNTY 3 RD, HANOVER"
      },
      {
        "electoralDistricts": [
          {
            "election": null,
            "id": 14,
            "name": "Bruce—Grey—Owen Sound"
          }
        ],
        "pollDivisionIds": [
          10137299
        ],
        "postalCode": "N4N3B8",
        "streetName": "GREY 10",
        "streetDirectionId": null,
        "streetTypeId": "RD",
        "placeName": "AYTON",
        "streetNameDisplayText": "GREY 10 RD, AYTON"
      },
      {
        "electoralDistricts": [
          {
            "election": null,
            "id": 14,
            "name": "Bruce—Grey—Owen Sound"
          }
        ],
        "pollDivisionIds": [
          10137299,
          10137296
        ],
        "postalCode": "N4N3B8",
        "streetName": "GREY 10",
        "streetDirectionId": null,
        "streetTypeId": "RD",
        "placeName": "HANOVER",
        "streetNameDisplayText": "GREY 10 RD, HANOVER"
      },
      {
        "electoralDistricts": [
          {
            "election": null,
            "id": 14,
            "name": "Bruce—Grey—Owen Sound"
          }
        ],
        "pollDivisionIds": [
          10137294,
          10137296
        ],
        "postalCode": "N4N3B8",
        "streetName": "GREY 28",
        "streetDirectionId": null,
        "streetTypeId": "RD",
        "placeName": "HANOVER",
        "streetNameDisplayText": "GREY 28 RD, HANOVER"
      },
      {
        "electoralDistricts": [
          {
            "election": null,
            "id": 14,
            "name": "Bruce—Grey—Owen Sound"
          }
        ],
        "pollDivisionIds": [
          10137294
        ],
        "postalCode": "N4N3B8",
        "streetName": "GREY 3",
        "streetDirectionId": null,
        "streetTypeId": "RD",
        "placeName": "HANOVER",
        "streetNameDisplayText": "GREY 3 RD, HANOVER"
      },
      {
        "electoralDistricts": [
          {
            "election": null,
            "id": 14,
            "name": "Bruce—Grey—Owen Sound"
          }
        ],
        "pollDivisionIds": [
          10137294
        ],
        "postalCode": "N4N3B8",
        "streetName": "GREY 3",
        "streetDirectionId": null,
        "streetTypeId": "RD",
        "placeName": "NEUSTADT",
        "streetNameDisplayText": "GREY 3 RD, NEUSTADT"
      },
      {
        "electoralDistricts": [
          {
            "election": null,
            "id": 14,
            "name": "Bruce—Grey—Owen Sound"
          }
        ],
        "pollDivisionIds": [
          10137240,
          10137295,
          10137294
        ],
        "postalCode": "N4N3B8",
        "streetName": "GREY 4",
        "streetDirectionId": null,
        "streetTypeId": "RD",
        "placeName": "HANOVER",
        "streetNameDisplayText": "GREY 4 RD, HANOVER"
      },
      {
        "electoralDistricts": [
          {
            "election": null,
            "id": 14,
            "name": "Bruce—Grey—Owen Sound"
          }
        ],
        "pollDivisionIds": [
          10137299
        ],
        "postalCode": "N4N3B8",
        "streetName": "GREY RD 10",
        "streetDirectionId": null,
        "streetTypeId": null,
        "placeName": "HANOVER",
        "streetNameDisplayText": "GREY RD 10, HANOVER"
      },
      {
        "electoralDistricts": [
          {
            "election": null,
            "id": 14,
            "name": "Bruce—Grey—Owen Sound"
          }
        ],
        "pollDivisionIds": [
          10137244
        ],
        "postalCode": "N4N3B8",
        "streetName": "GREY RD 28",
        "streetDirectionId": null,
        "streetTypeId": null,
        "placeName": "HANOVER",
        "streetNameDisplayText": "GREY RD 28, HANOVER"
      },
      {
        "electoralDistricts": [
          {
            "election": null,
            "id": 14,
            "name": "Bruce—Grey—Owen Sound"
          }
        ],
        "pollDivisionIds": [
          10137294
        ],
        "postalCode": "N4N3B8",
        "streetName": "GREY RD 3",
        "streetDirectionId": null,
        "streetTypeId": null,
        "placeName": "HANOVER",
        "streetNameDisplayText": "GREY RD 3, HANOVER"
      },
      {
        "electoralDistricts": [
          {
            "election": null,
            "id": 14,
            "name": "Bruce—Grey—Owen Sound"
          }
        ],
        "pollDivisionIds": [
          10137294,
          10137295
        ],
        "postalCode": "N4N3B8",
        "streetName": "GREY RD 4 RR 1",
        "streetDirectionId": null,
        "streetTypeId": null,
        "placeName": "HANOVER",
        "streetNameDisplayText": "GREY RD 4 RR 1, HANOVER"
      },
      {
        "electoralDistricts": [
          {
            "election": null,
            "id": 14,
            "name": "Bruce—Grey—Owen Sound"
          }
        ],
        "pollDivisionIds": [
          10137240,
          10137295,
          10137294,
          10137244
        ],
        "postalCode": "N4N3B8",
        "streetName": "GREY RD 4",
        "streetDirectionId": null,
        "streetTypeId": null,
        "placeName": "HANOVER",
        "streetNameDisplayText": "GREY RD 4, HANOVER"
      },
      {
        "electoralDistricts": [
          {
            "election": null,
            "id": 14,
            "name": "Bruce—Grey—Owen Sound"
          }
        ],
        "pollDivisionIds": [
          10137296,
          10137294,
          10137299
        ],
        "postalCode": "N4N3B8",
        "streetName": "GREY ROAD 28",
        "streetDirectionId": null,
        "streetTypeId": null,
        "placeName": "HANOVER",
        "streetNameDisplayText": "GREY ROAD 28, HANOVER"
      },
      {
        "electoralDistricts": [
          {
            "election": null,
            "id": 14,
            "name": "Bruce—Grey—Owen Sound"
          }
        ],
        "pollDivisionIds": [
          10137299,
          10137294
        ],
        "postalCode": "N4N3B8",
        "streetName": "GREY ROAD 3",
        "streetDirectionId": null,
        "streetTypeId": null,
        "placeName": "HANOVER",
        "streetNameDisplayText": "GREY ROAD 3, HANOVER"
      },
      {
        "electoralDistricts": [
          {
            "election": null,
            "id": 14,
            "name": "Bruce—Grey—Owen Sound"
          }
        ],
        "pollDivisionIds": [
          10137295,
          10137294
        ],
        "postalCode": "N4N3B8",
        "streetName": "GREY ROAD 4",
        "streetDirectionId": null,
        "streetTypeId": null,
        "placeName": "HANOVER",
        "streetNameDisplayText": "GREY ROAD 4, HANOVER"
      },
      {
        "electoralDistricts": [
          {
            "election": null,
            "id": 14,
            "name": "Bruce—Grey—Owen Sound"
          }
        ],
        "pollDivisionIds": [
          10137296
        ],
        "postalCode": "N4N3B8",
        "streetName": "KNAPPVILLE",
        "streetDirectionId": null,
        "streetTypeId": "RD",
        "placeName": "HANOVER",
        "streetNameDisplayText": "KNAPPVILLE RD, HANOVER"
      },
      {
        "electoralDistricts": [
          {
            "election": null,
            "id": 14,
            "name": "Bruce—Grey—Owen Sound"
          }
        ],
        "pollDivisionIds": [
          10137296,
          10137295
        ],
        "postalCode": "N4N3B8",
        "streetName": "MEADOWS",
        "streetDirectionId": null,
        "streetTypeId": "DR",
        "placeName": "HANOVER",
        "streetNameDisplayText": "MEADOWS DR, HANOVER"
      },
      {
        "electoralDistricts": [
          {
            "election": null,
            "id": 14,
            "name": "Bruce—Grey—Owen Sound"
          }
        ],
        "pollDivisionIds": [
          10137294,
          10137295
        ],
        "postalCode": "N4N3B8",
        "streetName": "MULOCK",
        "streetDirectionId": null,
        "streetTypeId": "RD",
        "placeName": "HANOVER",
        "streetNameDisplayText": "MULOCK RD, HANOVER"
      },
      {
        "electoralDistricts": [
          {
            "election": null,
            "id": 14,
            "name": "Bruce—Grey—Owen Sound"
          }
        ],
        "pollDivisionIds": [
          10137294
        ],
        "postalCode": "N4N3B8",
        "streetName": "NORMAMBY BENT TL",
        "streetDirectionId": null,
        "streetTypeId": null,
        "placeName": "HANOVER",
        "streetNameDisplayText": "NORMAMBY BENT TL, HANOVER"
      },
      {
        "electoralDistricts": [
          {
            "election": null,
            "id": 14,
            "name": "Bruce—Grey—Owen Sound"
          }
        ],
        "pollDivisionIds": [
          10137299
        ],
        "postalCode": "N4N3B8",
        "streetName": "NORMANBY BENTINCK",
        "streetDirectionId": null,
        "streetTypeId": null,
        "placeName": "HANOVER",
        "streetNameDisplayText": "NORMANBY BENTINCK, HANOVER"
      },
      {
        "electoralDistricts": [
          {
            "election": null,
            "id": 14,
            "name": "Bruce—Grey—Owen Sound"
          }
        ],
        "pollDivisionIds": [
          10137299
        ],
        "postalCode": "N4N3B8",
        "streetName": "NORMANBY ROAD 18",
        "streetDirectionId": null,
        "streetTypeId": null,
        "placeName": "HANOVER",
        "streetNameDisplayText": "NORMANBY ROAD 18, HANOVER"
      },
      {
        "electoralDistricts": [
          {
            "election": null,
            "id": 14,
            "name": "Bruce—Grey—Owen Sound"
          }
        ],
        "pollDivisionIds": [
          10137294,
          10137299
        ],
        "postalCode": "N4N3B8",
        "streetName": "NORMANBY-BENTINCK",
        "streetDirectionId": null,
        "streetTypeId": "TLINE",
        "placeName": "HANOVER",
        "streetNameDisplayText": "NORMANBY-BENTINCK TLINE, HANOVER"
      },
      {
        "electoralDistricts": [
          {
            "election": null,
            "id": 14,
            "name": "Bruce—Grey—Owen Sound"
          }
        ],
        "pollDivisionIds": [
          10137299
        ],
        "postalCode": "N4N3B8",
        "streetName": "NORM-BENT TNLN",
        "streetDirectionId": null,
        "streetTypeId": null,
        "placeName": "HANOVER",
        "streetNameDisplayText": "NORM-BENT TNLN, HANOVER"
      },
      {
        "electoralDistricts": [
          {
            "election": null,
            "id": 14,
            "name": "Bruce—Grey—Owen Sound"
          }
        ],
        "pollDivisionIds": [
          10137294
        ],
        "postalCode": "N4N3B8",
        "streetName": "NORM-BENT TOWN",
        "streetDirectionId": null,
        "streetTypeId": "LINE",
        "placeName": "HANOVER",
        "streetNameDisplayText": "NORM-BENT TOWN LINE, HANOVER"
      },
      {
        "electoralDistricts": [
          {
            "election": null,
            "id": 14,
            "name": "Bruce—Grey—Owen Sound"
          }
        ],
        "pollDivisionIds": [
          10137294
        ],
        "postalCode": "N4N3B8",
        "streetName": "OLD BRIDGE",
        "streetDirectionId": "N",
        "streetTypeId": "RD",
        "placeName": "HANOVER",
        "streetNameDisplayText": "OLD BRIDGE RD N, HANOVER"
      },
      {
        "electoralDistricts": [
          {
            "election": null,
            "id": 14,
            "name": "Bruce—Grey—Owen Sound"
          }
        ],
        "pollDivisionIds": [
          10137237,
          10137294
        ],
        "postalCode": "N4N3B8",
        "streetName": "OLD BRIDGE",
        "streetDirectionId": "S",
        "streetTypeId": "RD",
        "placeName": "HANOVER",
        "streetNameDisplayText": "OLD BRIDGE RD S, HANOVER"
      },
      {
        "electoralDistricts": [
          {
            "election": null,
            "id": 14,
            "name": "Bruce—Grey—Owen Sound"
          }
        ],
        "pollDivisionIds": [
          10137294
        ],
        "postalCode": "N4N3B8",
        "streetName": "PT L40 RP",
        "streetDirectionId": null,
        "streetTypeId": null,
        "placeName": "HANOVER",
        "streetNameDisplayText": "PT L40 RP, HANOVER"
      },
      {
        "electoralDistricts": [
          {
            "election": null,
            "id": 14,
            "name": "Bruce—Grey—Owen Sound"
          }
        ],
        "pollDivisionIds": [
          10137294
        ],
        "postalCode": "N4N3B8",
        "streetName": "SCOTT'S HILL",
        "streetDirectionId": null,
        "streetTypeId": "RD",
        "placeName": "HANOVER",
        "streetNameDisplayText": "SCOTT'S HILL RD, HANOVER"
      },
      {
        "electoralDistricts": [
          {
            "election": null,
            "id": 14,
            "name": "Bruce—Grey—Owen Sound"
          }
        ],
        "pollDivisionIds": [
          10137299
        ],
        "postalCode": "N4N3B8",
        "streetName": "SIDEROAD 25",
        "streetDirectionId": null,
        "streetTypeId": null,
        "placeName": "HANOVER",
        "streetNameDisplayText": "SIDEROAD 25, HANOVER"
      }
    ]
  },
  {
    "postal": "N4N3P7",
    "result": [
      {
        "electoralDistricts": [
          {
            "election": null,
            "id": 14,
            "name": "Bruce—Grey—Owen Sound"
          }
        ],
        "pollDivisionIds": [
          10137296
        ],
        "postalCode": "N4N3P7",
        "streetName": "14TH",
        "streetDirectionId": null,
        "streetTypeId": "AVE",
        "placeName": "HANOVER",
        "streetNameDisplayText": "14TH AVE, HANOVER"
      },
      {
        "electoralDistricts": [
          {
            "election": null,
            "id": 14,
            "name": "Bruce—Grey—Owen Sound"
          }
        ],
        "pollDivisionIds": [
          10137296
        ],
        "postalCode": "N4N3P7",
        "streetName": "2ND ST A",
        "streetDirectionId": null,
        "streetTypeId": null,
        "placeName": "HANOVER",
        "streetNameDisplayText": "2ND ST A, HANOVER"
      }
    ]
  },
  {
    "postal": "N4N9B2",
    "result": []
  },
  {
    "postal": "N4N6Z3",
    "result": []
  },
  {
    "postal": "N4N4N5",
    "result": []
  },
  {
    "postal": "N4N8T3",
    "result": []
  },
  {
    "postal": "N4N1V2",
    "result": [
      {
        "electoralDistricts": [
          {
            "election": null,
            "id": 14,
            "name": "Bruce—Grey—Owen Sound"
          }
        ],
        "pollDivisionIds": [
          10137294
        ],
        "postalCode": "N4N1V2",
        "streetName": "12TH",
        "streetDirectionId": null,
        "streetTypeId": "ST",
        "placeName": "HANOVER",
        "streetNameDisplayText": "12TH ST, HANOVER"
      }
    ]
  },
  {
    "postal": "N4N1Y0",
    "result": []
  },
  {
    "postal": "N4N3G6",
    "result": [
      {
        "electoralDistricts": [
          {
            "election": null,
            "id": 14,
            "name": "Bruce—Grey—Owen Sound"
          }
        ],
        "pollDivisionIds": [
          10137294
        ],
        "postalCode": "N4N3G6",
        "streetName": "20TH",
        "streetDirectionId": null,
        "streetTypeId": "AVE",
        "placeName": "HANOVER",
        "streetNameDisplayText": "20TH AVE, HANOVER"
      }
    ]
  },
  {
    "postal": "N4N3H7",
    "result": [
      {
        "electoralDistricts": [
          {
            "election": null,
            "id": 14,
            "name": "Bruce—Grey—Owen Sound"
          }
        ],
        "pollDivisionIds": [
          10137296
        ],
        "postalCode": "N4N3H7",
        "streetName": "5TH",
        "streetDirectionId": null,
        "streetTypeId": "ST",
        "placeName": "HANOVER",
        "streetNameDisplayText": "5TH ST, HANOVER"
      }
    ]
  },
  {
    "postal": "N4N7X8",
    "result": []
  },
  {
    "postal": "N4N0C7",
    "result": []
  },
  {
    "postal": "N4N0W9",
    "result": []
  },
  {
    "postal": "N4N8E6",
    "result": []
  },
  {
    "postal": "N4N9Z8",
    "result": []
  },
  {
    "postal": "N4N3P4",
    "result": [
      {
        "electoralDistricts": [
          {
            "election": null,
            "id": 14,
            "name": "Bruce—Grey—Owen Sound"
          }
        ],
        "pollDivisionIds": [
          10137296
        ],
        "postalCode": "N4N3P4",
        "streetName": "2ND ST A",
        "streetDirectionId": null,
        "streetTypeId": null,
        "placeName": "HANOVER",
        "streetNameDisplayText": "2ND ST A, HANOVER"
      }
    ]
  },
  {
    "postal": "N4N6L8",
    "result": []
  },
  {
    "postal": "N4N2R4",
    "result": [
      {
        "electoralDistricts": [
          {
            "election": null,
            "id": 14,
            "name": "Bruce—Grey—Owen Sound"
          }
        ],
        "pollDivisionIds": [
          10137296
        ],
        "postalCode": "N4N2R4",
        "streetName": "11TH",
        "streetDirectionId": null,
        "streetTypeId": "AVE",
        "placeName": "HANOVER",
        "streetNameDisplayText": "11TH AVE, HANOVER"
      }
    ]
  },
  {
    "postal": "N4N2W1",
    "result": [
      {
        "electoralDistricts": [
          {
            "election": null,
            "id": 14,
            "name": "Bruce—Grey—Owen Sound"
          }
        ],
        "pollDivisionIds": [
          10137296
        ],
        "postalCode": "N4N2W1",
        "streetName": "13TH",
        "streetDirectionId": null,
        "streetTypeId": "AVE",
        "placeName": "HANOVER",
        "streetNameDisplayText": "13TH AVE, HANOVER"
      }
    ]
  },
  {
    "postal": "N4N9H8",
    "result": []
  },
  {
    "postal": "N4N8X9",
    "result": []
  },
  {
    "postal": "N4N7H4",
    "result": []
  },
  {
    "postal": "N4N3J1",
    "result": [
      {
        "electoralDistricts": [
          {
            "election": null,
            "id": 14,
            "name": "Bruce—Grey—Owen Sound"
          }
        ],
        "pollDivisionIds": [
          10137296
        ],
        "postalCode": "N4N3J1",
        "streetName": "5TH",
        "streetDirectionId": null,
        "streetTypeId": "AVE",
        "placeName": "HANOVER",
        "streetNameDisplayText": "5TH AVE, HANOVER"
      }
    ]
  },
  {
    "postal": "N4N1P4",
    "result": [
      {
        "electoralDistricts": [
          {
            "election": null,
            "id": 14,
            "name": "Bruce—Grey—Owen Sound"
          }
        ],
        "pollDivisionIds": [
          10137294
        ],
        "postalCode": "N4N1P4",
        "streetName": "10TH",
        "streetDirectionId": null,
        "streetTypeId": "ST",
        "placeName": "HANOVER",
        "streetNameDisplayText": "10TH ST, HANOVER"
      }
    ]
  },
  {
    "postal": "N4N2A3",
    "result": [
      {
        "electoralDistricts": [
          {
            "election": null,
            "id": 14,
            "name": "Bruce—Grey—Owen Sound"
          }
        ],
        "pollDivisionIds": [
          10137294
        ],
        "postalCode": "N4N2A3",
        "streetName": "14TH",
        "streetDirectionId": null,
        "streetTypeId": "ST",
        "placeName": "HANOVER",
        "streetNameDisplayText": "14TH ST, HANOVER"
      }
    ]
  },
  {
    "postal": "N4N0Z1",
    "result": []
  },
  {
    "postal": "N4N1C1",
    "result": [
      {
        "electoralDistricts": [
          {
            "election": null,
            "id": 14,
            "name": "Bruce—Grey—Owen Sound"
          }
        ],
        "pollDivisionIds": [
          10137296
        ],
        "postalCode": "N4N1C1",
        "streetName": "6TH",
        "streetDirectionId": null,
        "streetTypeId": "ST",
        "placeName": "HANOVER",
        "streetNameDisplayText": "6TH ST, HANOVER"
      }
    ]
  },
  {
    "postal": "N4N0H3",
    "result": []
  },
  {
    "postal": "N4N7B0",
    "result": []
  },
  {
    "postal": "N4N5K2",
    "result": []
  },
  {
    "postal": "N4N1E9",
    "result": [
      {
        "electoralDistricts": [
          {
            "election": null,
            "id": 14,
            "name": "Bruce—Grey—Owen Sound"
          }
        ],
        "pollDivisionIds": [
          10137296
        ],
        "postalCode": "N4N1E9",
        "streetName": "6TH A",
        "streetDirectionId": null,
        "streetTypeId": "ST",
        "placeName": "HANOVER",
        "streetNameDisplayText": "6TH A ST, HANOVER"
      },
      {
        "electoralDistricts": [
          {
            "election": null,
            "id": 14,
            "name": "Bruce—Grey—Owen Sound"
          }
        ],
        "pollDivisionIds": [
          10137296
        ],
        "postalCode": "N4N1E9",
        "streetName": "6TH ST A",
        "streetDirectionId": null,
        "streetTypeId": null,
        "placeName": "HANOVER",
        "streetNameDisplayText": "6TH ST A, HANOVER"
      }
    ]
  },
  {
    "postal": "N4N9W7",
    "result": []
  },
  {
    "postal": "N4N5W6",
    "result": []
  },
  {
    "postal": "N4N6S6",
    "result": []
  },
  {
    "postal": "N4N2P8",
    "result": [
      {
        "electoralDistricts": [
          {
            "election": null,
            "id": 14,
            "name": "Bruce—Grey—Owen Sound"
          }
        ],
        "pollDivisionIds": [
          10137294
        ],
        "postalCode": "N4N2P8",
        "streetName": "10TH",
        "streetDirectionId": null,
        "streetTypeId": "AVE",
        "placeName": "HANOVER",
        "streetNameDisplayText": "10TH AVE, HANOVER"
      }
    ]
  },
  {
    "postal": "N4N4P8",
    "result": []
  },
  {
    "postal": "N4N0V9",
    "result": []
  },
  {
    "postal": "N4N5Y2",
    "result": []
  },
  {
    "postal": "N4N7Z7",
    "result": []
  },
  {
    "postal": "N4N6Y8",
    "result": []
  },
  {
    "postal": "N4N2G7",
    "result": [
      {
        "electoralDistricts": [
          {
            "election": null,
            "id": 14,
            "name": "Bruce—Grey—Owen Sound"
          }
        ],
        "pollDivisionIds": [
          10137294
        ],
        "postalCode": "N4N2G7",
        "streetName": "6TH",
        "streetDirectionId": null,
        "streetTypeId": "AVE",
        "placeName": "HANOVER",
        "streetNameDisplayText": "6TH AVE, HANOVER"
      }
    ]
  },
  {
    "postal": "N4N8C1",
    "result": []
  },
  {
    "postal": "N4N5C5",
    "result": []
  },
  {
    "postal": "N4N2X8",
    "result": [
      {
        "electoralDistricts": [
          {
            "election": null,
            "id": 14,
            "name": "Bruce—Grey—Owen Sound"
          }
        ],
        "pollDivisionIds": [
          10137296
        ],
        "postalCode": "N4N2X8",
        "streetName": "14TH",
        "streetDirectionId": null,
        "streetTypeId": "AVE",
        "placeName": "HANOVER",
        "streetNameDisplayText": "14TH AVE, HANOVER"
      }
    ]
  },
  {
    "postal": "N4N1W5",
    "result": [
      {
        "electoralDistricts": [
          {
            "election": null,
            "id": 14,
            "name": "Bruce—Grey—Owen Sound"
          }
        ],
        "pollDivisionIds": [
          10137294
        ],
        "postalCode": "N4N1W5",
        "streetName": "12TH",
        "streetDirectionId": null,
        "streetTypeId": "ST",
        "placeName": "HANOVER",
        "streetNameDisplayText": "12TH ST, HANOVER"
      }
    ]
  },
  {
    "postal": "N4N7G0",
    "result": []
  },
  {
    "postal": "N4N8J8",
    "result": []
  },
  {
    "postal": "N4N3Y0",
    "result": []
  },
  {
    "postal": "N4N9T7",
    "result": []
  },
  {
    "postal": "N4N5P4",
    "result": []
  },
  {
    "postal": "N4N4B0",
    "result": []
  },
  {
    "postal": "N4N9N8",
    "result": []
  },
  {
    "postal": "N4N4A7",
    "result": []
  },
  {
    "postal": "N4N4H9",
    "result": []
  },
  {
    "postal": "N4N6X1",
    "result": []
  },
  {
    "postal": "N4N9Y7",
    "result": []
  },
  {
    "postal": "N4N2Y5",
    "result": [
      {
        "electoralDistricts": [
          {
            "election": null,
            "id": 14,
            "name": "Bruce—Grey—Owen Sound"
          }
        ],
        "pollDivisionIds": [
          10137296
        ],
        "postalCode": "N4N2Y5",
        "streetName": "15TH",
        "streetDirectionId": null,
        "streetTypeId": "AVE",
        "placeName": "HANOVER",
        "streetNameDisplayText": "15TH AVE, HANOVER"
      }
    ]
  },
  {
    "postal": "N4N8L7",
    "result": []
  },
  {
    "postal": "N4N2A8",
    "result": [
      {
        "electoralDistricts": [
          {
            "election": null,
            "id": 14,
            "name": "Bruce—Grey—Owen Sound"
          }
        ],
        "pollDivisionIds": [
          10137294
        ],
        "postalCode": "N4N2A8",
        "streetName": "17TH",
        "streetDirectionId": null,
        "streetTypeId": "ST",
        "placeName": "HANOVER",
        "streetNameDisplayText": "17TH ST, HANOVER"
      }
    ]
  },
  {
    "postal": "N4N2K9",
    "result": [
      {
        "electoralDistricts": [
          {
            "election": null,
            "id": 14,
            "name": "Bruce—Grey—Owen Sound"
          }
        ],
        "pollDivisionIds": [
          10137294
        ],
        "postalCode": "N4N2K9",
        "streetName": "8TH",
        "streetDirectionId": null,
        "streetTypeId": "AVE",
        "placeName": "HANOVER",
        "streetNameDisplayText": "8TH AVE, HANOVER"
      }
    ]
  },
  {
    "postal": "N4N3E5",
    "result": [
      {
        "electoralDistricts": [
          {
            "election": null,
            "id": 14,
            "name": "Bruce—Grey—Owen Sound"
          }
        ],
        "pollDivisionIds": [
          10137296
        ],
        "postalCode": "N4N3E5",
        "streetName": "6TH A",
        "streetDirectionId": null,
        "streetTypeId": "ST",
        "placeName": "HANOVER",
        "streetNameDisplayText": "6TH A ST, HANOVER"
      },
      {
        "electoralDistricts": [
          {
            "election": null,
            "id": 14,
            "name": "Bruce—Grey—Owen Sound"
          }
        ],
        "pollDivisionIds": [
          10137296
        ],
        "postalCode": "N4N3E5",
        "streetName": "6TH ST A",
        "streetDirectionId": null,
        "streetTypeId": null,
        "placeName": "HANOVER",
        "streetNameDisplayText": "6TH ST A, HANOVER"
      }
    ]
  },
  {
    "postal": "N4N8N6",
    "result": []
  },
  {
    "postal": "N4N8J4",
    "result": []
  },
  {
    "postal": "N4N4R7",
    "result": []
  },
  {
    "postal": "N4N9K1",
    "result": []
  },
  {
    "postal": "N4N8E1",
    "result": []
  },
  {
    "postal": "N4N0R1",
    "result": []
  },
  {
    "postal": "N4N4J3",
    "result": []
  },
  {
    "postal": "N4N7E7",
    "result": []
  },
  {
    "postal": "N4N0J0",
    "result": []
  },
  {
    "postal": "N4N7R8",
    "result": []
  },
  {
    "postal": "N4N9X0",
    "result": []
  },
  {
    "postal": "N4N7P6",
    "result": []
  },
  {
    "postal": "N4N0R7",
    "result": []
  },
  {
    "postal": "N4N5W1",
    "result": []
  },
  {
    "postal": "N4N0K4",
    "result": []
  },
  {
    "postal": "N4N7N9",
    "result": []
  },
  {
    "postal": "N4N1N0",
    "result": []
  },
  {
    "postal": "N4N6P3",
    "result": []
  },
  {
    "postal": "N4N5A1",
    "result": []
  },
  {
    "postal": "N4N9M9",
    "result": []
  },
  {
    "postal": "N4N7T6",
    "result": []
  },
  {
    "postal": "N4N3X0",
    "result": []
  },
  {
    "postal": "N4N2T0",
    "result": []
  },
  {
    "postal": "N4N5X9",
    "result": []
  },
  {
    "postal": "N4N2R3",
    "result": [
      {
        "electoralDistricts": [
          {
            "election": null,
            "id": 14,
            "name": "Bruce—Grey—Owen Sound"
          }
        ],
        "pollDivisionIds": [
          10137296
        ],
        "postalCode": "N4N2R3",
        "streetName": "11TH",
        "streetDirectionId": null,
        "streetTypeId": "AVE",
        "placeName": "HANOVER",
        "streetNameDisplayText": "11TH AVE, HANOVER"
      }
    ]
  },
  {
    "postal": "N4N5N2",
    "result": []
  },
  {
    "postal": "N4N4Y7",
    "result": []
  },
  {
    "postal": "N4N7M0",
    "result": []
  },
  {
    "postal": "N4N8P3",
    "result": []
  },
  {
    "postal": "N4N3N3",
    "result": [
      {
        "electoralDistricts": [
          {
            "election": null,
            "id": 14,
            "name": "Bruce—Grey—Owen Sound"
          }
        ],
        "pollDivisionIds": [
          10137294
        ],
        "postalCode": "N4N3N3",
        "streetName": "16TH",
        "streetDirectionId": null,
        "streetTypeId": "AVE",
        "placeName": "HANOVER",
        "streetNameDisplayText": "16TH AVE, HANOVER"
      }
    ]
  },
  {
    "postal": "N4N7S3",
    "result": []
  },
  {
    "postal": "N4N3V9",
    "result": [
      {
        "electoralDistricts": [
          {
            "election": null,
            "id": 14,
            "name": "Bruce—Grey—Owen Sound"
          }
        ],
        "pollDivisionIds": [
          10137296
        ],
        "postalCode": "N4N3V9",
        "streetName": "14TH",
        "streetDirectionId": null,
        "streetTypeId": "AVE",
        "placeName": "HANOVER",
        "streetNameDisplayText": "14TH AVE, HANOVER"
      }
    ]
  },
  {
    "postal": "N4N9N7",
    "result": []
  },
  {
    "postal": "N4N0G4",
    "result": []
  },
  {
    "postal": "N4N2E2",
    "result": [
      {
        "electoralDistricts": [
          {
            "election": null,
            "id": 14,
            "name": "Bruce—Grey—Owen Sound"
          }
        ],
        "pollDivisionIds": [
          10137294
        ],
        "postalCode": "N4N2E2",
        "streetName": "5TH",
        "streetDirectionId": null,
        "streetTypeId": "AVE",
        "placeName": "HANOVER",
        "streetNameDisplayText": "5TH AVE, HANOVER"
      }
    ]
  },
  {
    "postal": "N4N7W8",
    "result": []
  },
  {
    "postal": "N4N7M5",
    "result": []
  },
  {
    "postal": "N4N5W8",
    "result": []
  },
  {
    "postal": "N4N5E5",
    "result": []
  },
  {
    "postal": "N4N1P9",
    "result": [
      {
        "electoralDistricts": [
          {
            "election": null,
            "id": 14,
            "name": "Bruce—Grey—Owen Sound"
          }
        ],
        "pollDivisionIds": [
          10137294
        ],
        "postalCode": "N4N1P9",
        "streetName": "10TH",
        "streetDirectionId": null,
        "streetTypeId": "ST",
        "placeName": "HANOVER",
        "streetNameDisplayText": "10TH ST, HANOVER"
      }
    ]
  },
  {
    "postal": "N4N8V8",
    "result": []
  },
  {
    "postal": "N4N9G8",
    "result": []
  },
  {
    "postal": "N4N8H9",
    "result": []
  },
  {
    "postal": "N4N1Z1",
    "result": [
      {
        "electoralDistricts": [
          {
            "election": null,
            "id": 14,
            "name": "Bruce—Grey—Owen Sound"
          }
        ],
        "pollDivisionIds": [
          10137294
        ],
        "postalCode": "N4N1Z1",
        "streetName": "13TH ST A",
        "streetDirectionId": null,
        "streetTypeId": null,
        "placeName": "HANOVER",
        "streetNameDisplayText": "13TH ST A, HANOVER"
      }
    ]
  },
  {
    "postal": "N4N8M3",
    "result": []
  },
  {
    "postal": "N4N5H6",
    "result": []
  },
  {
    "postal": "N4N7W7",
    "result": []
  },
  {
    "postal": "N4N4L0",
    "result": []
  },
  {
    "postal": "N4N2N1",
    "result": [
      {
        "electoralDistricts": [
          {
            "election": null,
            "id": 14,
            "name": "Bruce—Grey—Owen Sound"
          }
        ],
        "pollDivisionIds": [
          10137294
        ],
        "postalCode": "N4N2N1",
        "streetName": "9TH",
        "streetDirectionId": null,
        "streetTypeId": "AVE",
        "placeName": "HANOVER",
        "streetNameDisplayText": "9TH AVE, HANOVER"
      }
    ]
  },
  {
    "postal": "N4N2H4",
    "result": [
      {
        "electoralDistricts": [
          {
            "election": null,
            "id": 14,
            "name": "Bruce—Grey—Owen Sound"
          }
        ],
        "pollDivisionIds": [
          10137296
        ],
        "postalCode": "N4N2H4",
        "streetName": "7TH",
        "streetDirectionId": null,
        "streetTypeId": "AVE",
        "placeName": "HANOVER",
        "streetNameDisplayText": "7TH AVE, HANOVER"
      }
    ]
  },
  {
    "postal": "N4N5C8",
    "result": []
  },
  {
    "postal": "N4N8B0",
    "result": []
  },
  {
    "postal": "N4N1T4",
    "result": [
      {
        "electoralDistricts": [
          {
            "election": null,
            "id": 14,
            "name": "Bruce—Grey—Owen Sound"
          }
        ],
        "pollDivisionIds": [
          10137294
        ],
        "postalCode": "N4N1T4",
        "streetName": "11TH",
        "streetDirectionId": null,
        "streetTypeId": "ST",
        "placeName": "HANOVER",
        "streetNameDisplayText": "11TH ST, HANOVER"
      }
    ]
  },
  {
    "postal": "N4N7N7",
    "result": []
  },
  {
    "postal": "N4N4L3",
    "result": []
  },
  {
    "postal": "N4N2N2",
    "result": [
      {
        "electoralDistricts": [
          {
            "election": null,
            "id": 14,
            "name": "Bruce—Grey—Owen Sound"
          }
        ],
        "pollDivisionIds": [
          10137296
        ],
        "postalCode": "N4N2N2",
        "streetName": "10TH",
        "streetDirectionId": null,
        "streetTypeId": "AVE",
        "placeName": "HANOVER",
        "streetNameDisplayText": "10TH AVE, HANOVER"
      }
    ]
  },
  {
    "postal": "N4N4N8",
    "result": []
  },
  {
    "postal": "N4N3M5",
    "result": []
  },
  {
    "postal": "N4N6H7",
    "result": []
  },
  {
    "postal": "N4N8Y8",
    "result": []
  },
  {
    "postal": "N4N5R9",
    "result": []
  },
  {
    "postal": "N4N8G3",
    "result": []
  },
  {
    "postal": "N4N4N7",
    "result": []
  },
  {
    "postal": "N4N0B9",
    "result": []
  },
  {
    "postal": "N4N9K7",
    "result": []
  },
  {
    "postal": "N4N9K9",
    "result": []
  },
  {
    "postal": "N4N3Z2",
    "result": []
  },
  {
    "postal": "N4N6W7",
    "result": []
  },
  {
    "postal": "N4N0P1",
    "result": []
  },
  {
    "postal": "N4N3A0",
    "result": []
  },
  {
    "postal": "N4N8L9",
    "result": []
  },
  {
    "postal": "N4N6X0",
    "result": []
  },
  {
    "postal": "N4N3E9",
    "result": [
      {
        "electoralDistricts": [
          {
            "election": null,
            "id": 14,
            "name": "Bruce—Grey—Owen Sound"
          }
        ],
        "pollDivisionIds": [
          10137294
        ],
        "postalCode": "N4N3E9",
        "streetName": "19TH",
        "streetDirectionId": null,
        "streetTypeId": "AVE",
        "placeName": "HANOVER",
        "streetNameDisplayText": "19TH AVE, HANOVER"
      }
    ]
  },
  {
    "postal": "N4N0S5",
    "result": []
  },
  {
    "postal": "N4N1A2",
    "result": [
      {
        "electoralDistricts": [
          {
            "election": null,
            "id": 14,
            "name": "Bruce—Grey—Owen Sound"
          }
        ],
        "pollDivisionIds": [
          10137296
        ],
        "postalCode": "N4N1A2",
        "streetName": "2ND",
        "streetDirectionId": null,
        "streetTypeId": "ST",
        "placeName": "HANOVER",
        "streetNameDisplayText": "2ND ST, HANOVER"
      }
    ]
  },
  {
    "postal": "N4N5V8",
    "result": []
  },
  {
    "postal": "N4N8C5",
    "result": []
  },
  {
    "postal": "N4N6N0",
    "result": []
  },
  {
    "postal": "N4N9E6",
    "result": []
  },
  {
    "postal": "N4N5J7",
    "result": []
  },
  {
    "postal": "N4N2R2",
    "result": [
      {
        "electoralDistricts": [
          {
            "election": null,
            "id": 14,
            "name": "Bruce—Grey—Owen Sound"
          }
        ],
        "pollDivisionIds": [
          10137296
        ],
        "postalCode": "N4N2R2",
        "streetName": "11TH",
        "streetDirectionId": null,
        "streetTypeId": "AVE",
        "placeName": "HANOVER",
        "streetNameDisplayText": "11TH AVE, HANOVER"
      }
    ]
  },
  {
    "postal": "N4N0P5",
    "result": []
  },
  {
    "postal": "N4N5A7",
    "result": []
  },
  {
    "postal": "N4N1G1",
    "result": [
      {
        "electoralDistricts": [
          {
            "election": null,
            "id": 14,
            "name": "Bruce—Grey—Owen Sound"
          }
        ],
        "pollDivisionIds": [
          10137296
        ],
        "postalCode": "N4N1G1",
        "streetName": "6TH ST A",
        "streetDirectionId": null,
        "streetTypeId": null,
        "placeName": "HANOVER",
        "streetNameDisplayText": "6TH ST A, HANOVER"
      }
    ]
  },
  {
    "postal": "N4N9R6",
    "result": []
  },
  {
    "postal": "N4N4Z9",
    "result": []
  },
  {
    "postal": "N4N1V5",
    "result": [
      {
        "electoralDistricts": [
          {
            "election": null,
            "id": 14,
            "name": "Bruce—Grey—Owen Sound"
          }
        ],
        "pollDivisionIds": [
          10137294
        ],
        "postalCode": "N4N1V5",
        "streetName": "12TH",
        "streetDirectionId": null,
        "streetTypeId": "ST",
        "placeName": "HANOVER",
        "streetNameDisplayText": "12TH ST, HANOVER"
      }
    ]
  },
  {
    "postal": "N4N9Y5",
    "result": []
  },
  {
    "postal": "N4N1P2",
    "result": [
      {
        "electoralDistricts": [
          {
            "election": null,
            "id": 14,
            "name": "Bruce—Grey—Owen Sound"
          }
        ],
        "pollDivisionIds": [
          10137294
        ],
        "postalCode": "N4N1P2",
        "streetName": "10TH",
        "streetDirectionId": null,
        "streetTypeId": "ST",
        "placeName": "HANOVER",
        "streetNameDisplayText": "10TH ST, HANOVER"
      }
    ]
  },
  {
    "postal": "N4N5X0",
    "result": []
  },
  {
    "postal": "N4N7B8",
    "result": []
  },
  {
    "postal": "N4N0C6",
    "result": []
  },
  {
    "postal": "N4N6G1",
    "result": []
  },
  {
    "postal": "N4N3K3",
    "result": []
  },
  {
    "postal": "N4N9R0",
    "result": []
  },
  {
    "postal": "N4N4R8",
    "result": []
  },
  {
    "postal": "N4N5P9",
    "result": []
  },
  {
    "postal": "N4N8N4",
    "result": []
  },
  {
    "postal": "N4N8H4",
    "result": []
  },
  {
    "postal": "N4N4V1",
    "result": []
  },
  {
    "postal": "N4N1K5",
    "result": [
      {
        "electoralDistricts": [
          {
            "election": null,
            "id": 14,
            "name": "Bruce—Grey—Owen Sound"
          }
        ],
        "pollDivisionIds": [
          10137296
        ],
        "postalCode": "N4N1K5",
        "streetName": "8TH",
        "streetDirectionId": null,
        "streetTypeId": "ST",
        "placeName": "HANOVER",
        "streetNameDisplayText": "8TH ST, HANOVER"
      }
    ]
  },
  {
    "postal": "N4N1Z5",
    "result": [
      {
        "electoralDistricts": [
          {
            "election": null,
            "id": 14,
            "name": "Bruce—Grey—Owen Sound"
          }
        ],
        "pollDivisionIds": [
          10137294
        ],
        "postalCode": "N4N1Z5",
        "streetName": "14TH",
        "streetDirectionId": null,
        "streetTypeId": "ST",
        "placeName": "HANOVER",
        "streetNameDisplayText": "14TH ST, HANOVER"
      }
    ]
  },
  {
    "postal": "N4N9L9",
    "result": []
  },
  {
    "postal": "N4N5L2",
    "result": []
  },
  {
    "postal": "N4N0M2",
    "result": []
  },
  {
    "postal": "N4N1K8",
    "result": [
      {
        "electoralDistricts": [
          {
            "election": null,
            "id": 14,
            "name": "Bruce—Grey—Owen Sound"
          }
        ],
        "pollDivisionIds": [
          10137296
        ],
        "postalCode": "N4N1K8",
        "streetName": "9TH",
        "streetDirectionId": null,
        "streetTypeId": "ST",
        "placeName": "HANOVER",
        "streetNameDisplayText": "9TH ST, HANOVER"
      }
    ]
  },
  {
    "postal": "N4N3M7",
    "result": []
  },
  {
    "postal": "N4N1B2",
    "result": [
      {
        "electoralDistricts": [
          {
            "election": null,
            "id": 14,
            "name": "Bruce—Grey—Owen Sound"
          }
        ],
        "pollDivisionIds": [
          10137296
        ],
        "postalCode": "N4N1B2",
        "streetName": "3RD",
        "streetDirectionId": null,
        "streetTypeId": "ST",
        "placeName": "HANOVER",
        "streetNameDisplayText": "3RD ST, HANOVER"
      }
    ]
  },
  {
    "postal": "N4N0H9",
    "result": []
  },
  {
    "postal": "N4N8M4",
    "result": []
  },
  {
    "postal": "N4N2M5",
    "result": [
      {
        "electoralDistricts": [
          {
            "election": null,
            "id": 14,
            "name": "Bruce—Grey—Owen Sound"
          }
        ],
        "pollDivisionIds": [
          10137294
        ],
        "postalCode": "N4N2M5",
        "streetName": "9TH",
        "streetDirectionId": null,
        "streetTypeId": "AVE",
        "placeName": "HANOVER",
        "streetNameDisplayText": "9TH AVE, HANOVER"
      }
    ]
  },
  {
    "postal": "N4N0T9",
    "result": []
  },
  {
    "postal": "N4N3P1",
    "result": [
      {
        "electoralDistricts": [
          {
            "election": null,
            "id": 14,
            "name": "Bruce—Grey—Owen Sound"
          }
        ],
        "pollDivisionIds": [
          10137296
        ],
        "postalCode": "N4N3P1",
        "streetName": "18TH",
        "streetDirectionId": null,
        "streetTypeId": "AVE",
        "placeName": "HANOVER",
        "streetNameDisplayText": "18TH AVE, HANOVER"
      }
    ]
  },
  {
    "postal": "N4N1R6",
    "result": [
      {
        "electoralDistricts": [
          {
            "election": null,
            "id": 14,
            "name": "Bruce—Grey—Owen Sound"
          }
        ],
        "pollDivisionIds": [
          10137296
        ],
        "postalCode": "N4N1R6",
        "streetName": "10TH",
        "streetDirectionId": null,
        "streetTypeId": "ST",
        "placeName": "HANOVER",
        "streetNameDisplayText": "10TH ST, HANOVER"
      }
    ]
  },
  {
    "postal": "N4N9V5",
    "result": []
  },
  {
    "postal": "N4N9T0",
    "result": []
  },
  {
    "postal": "N4N0A9",
    "result": []
  },
  {
    "postal": "N4N1M3",
    "result": [
      {
        "electoralDistricts": [
          {
            "election": null,
            "id": 14,
            "name": "Bruce—Grey—Owen Sound"
          }
        ],
        "pollDivisionIds": [
          10137296
        ],
        "postalCode": "N4N1M3",
        "streetName": "9TH",
        "streetDirectionId": null,
        "streetTypeId": "ST",
        "placeName": "HANOVER",
        "streetNameDisplayText": "9TH ST, HANOVER"
      }
    ]
  },
  {
    "postal": "N4N1W8",
    "result": [
      {
        "electoralDistricts": [
          {
            "election": null,
            "id": 14,
            "name": "Bruce—Grey—Owen Sound"
          }
        ],
        "pollDivisionIds": [
          10137294
        ],
        "postalCode": "N4N1W8",
        "streetName": "13TH",
        "streetDirectionId": null,
        "streetTypeId": "ST",
        "placeName": "HANOVER",
        "streetNameDisplayText": "13TH ST, HANOVER"
      }
    ]
  },
  {
    "postal": "N4N9J1",
    "result": []
  },
  {
    "postal": "N4N8N5",
    "result": []
  },
  {
    "postal": "N4N5X1",
    "result": []
  },
  {
    "postal": "N4N6S2",
    "result": []
  },
  {
    "postal": "N4N2A2",
    "result": [
      {
        "electoralDistricts": [
          {
            "election": null,
            "id": 14,
            "name": "Bruce—Grey—Owen Sound"
          }
        ],
        "pollDivisionIds": [
          10137294
        ],
        "postalCode": "N4N2A2",
        "streetName": "14TH",
        "streetDirectionId": null,
        "streetTypeId": "ST",
        "placeName": "HANOVER",
        "streetNameDisplayText": "14TH ST, HANOVER"
      }
    ]
  },
  {
    "postal": "N4N6A6",
    "result": []
  },
  {
    "postal": "N4N0S3",
    "result": []
  },
  {
    "postal": "N4N3E7",
    "result": [
      {
        "electoralDistricts": [
          {
            "election": null,
            "id": 14,
            "name": "Bruce—Grey—Owen Sound"
          }
        ],
        "pollDivisionIds": [
          10137296
        ],
        "postalCode": "N4N3E7",
        "streetName": "5TH",
        "streetDirectionId": null,
        "streetTypeId": "AVE",
        "placeName": "HANOVER",
        "streetNameDisplayText": "5TH AVE, HANOVER"
      }
    ]
  },
  {
    "postal": "N4N5R7",
    "result": []
  },
  {
    "postal": "N4N3R6",
    "result": [
      {
        "electoralDistricts": [
          {
            "election": null,
            "id": 14,
            "name": "Bruce—Grey—Owen Sound"
          }
        ],
        "pollDivisionIds": [
          10137296
        ],
        "postalCode": "N4N3R6",
        "streetName": "2ND ST",
        "streetDirectionId": null,
        "streetTypeId": "CRES",
        "placeName": "HANOVER",
        "streetNameDisplayText": "2ND ST CRES, HANOVER"
      }
    ]
  },
  {
    "postal": "N4N6K4",
    "result": []
  },
  {
    "postal": "N4N2W5",
    "result": [
      {
        "electoralDistricts": [
          {
            "election": null,
            "id": 14,
            "name": "Bruce—Grey—Owen Sound"
          }
        ],
        "pollDivisionIds": [
          10137294
        ],
        "postalCode": "N4N2W5",
        "streetName": "13TH",
        "streetDirectionId": null,
        "streetTypeId": "AVE",
        "placeName": "HANOVER",
        "streetNameDisplayText": "13TH AVE, HANOVER"
      }
    ]
  },
  {
    "postal": "N4N8W4",
    "result": []
  },
  {
    "postal": "N4N9C2",
    "result": []
  },
  {
    "postal": "N4N2C0",
    "result": []
  },
  {
    "postal": "N4N0E1",
    "result": []
  },
  {
    "postal": "N4N1K9",
    "result": [
      {
        "electoralDistricts": [
          {
            "election": null,
            "id": 14,
            "name": "Bruce—Grey—Owen Sound"
          }
        ],
        "pollDivisionIds": [
          10137296
        ],
        "postalCode": "N4N1K9",
        "streetName": "9TH",
        "streetDirectionId": null,
        "streetTypeId": "ST",
        "placeName": "HANOVER",
        "streetNameDisplayText": "9TH ST, HANOVER"
      }
    ]
  },
  {
    "postal": "N4N1G7",
    "result": [
      {
        "electoralDistricts": [
          {
            "election": null,
            "id": 14,
            "name": "Bruce—Grey—Owen Sound"
          }
        ],
        "pollDivisionIds": [
          10137296
        ],
        "postalCode": "N4N1G7",
        "streetName": "7TH",
        "streetDirectionId": null,
        "streetTypeId": "ST",
        "placeName": "HANOVER",
        "streetNameDisplayText": "7TH ST, HANOVER"
      }
    ]
  },
  {
    "postal": "N4N4E9",
    "result": []
  },
  {
    "postal": "N4N9P0",
    "result": []
  },
  {
    "postal": "N4N5H3",
    "result": []
  },
  {
    "postal": "N4N9X6",
    "result": []
  },
  {
    "postal": "N4N5N7",
    "result": []
  },
  {
    "postal": "N4N5A6",
    "result": []
  },
  {
    "postal": "N4N4M0",
    "result": []
  },
  {
    "postal": "N4N3V6",
    "result": []
  },
  {
    "postal": "N4N1L7",
    "result": [
      {
        "electoralDistricts": [
          {
            "election": null,
            "id": 14,
            "name": "Bruce—Grey—Owen Sound"
          }
        ],
        "pollDivisionIds": [
          10137296
        ],
        "postalCode": "N4N1L7",
        "streetName": "9TH",
        "streetDirectionId": null,
        "streetTypeId": "ST",
        "placeName": "HANOVER",
        "streetNameDisplayText": "9TH ST, HANOVER"
      }
    ]
  },
  {
    "postal": "N4N2P9",
    "result": [
      {
        "electoralDistricts": [
          {
            "election": null,
            "id": 14,
            "name": "Bruce—Grey—Owen Sound"
          }
        ],
        "pollDivisionIds": [
          10137296
        ],
        "postalCode": "N4N2P9",
        "streetName": "11TH",
        "streetDirectionId": null,
        "streetTypeId": "AVE",
        "placeName": "HANOVER",
        "streetNameDisplayText": "11TH AVE, HANOVER"
      }
    ]
  },
  {
    "postal": "N4N5T4",
    "result": []
  },
  {
    "postal": "N4N5Z1",
    "result": []
  },
  {
    "postal": "N4N2X0",
    "result": []
  },
  {
    "postal": "N4N6Z2",
    "result": []
  },
  {
    "postal": "N4N0E0",
    "result": []
  },
  {
    "postal": "N4N3Z5",
    "result": []
  },
  {
    "postal": "N4N8H3",
    "result": []
  },
  {
    "postal": "N4N7S6",
    "result": []
  },
  {
    "postal": "N4N4C1",
    "result": []
  },
  {
    "postal": "N4N3K2",
    "result": []
  },
  {
    "postal": "N4N1Y5",
    "result": [
      {
        "electoralDistricts": [
          {
            "election": null,
            "id": 14,
            "name": "Bruce—Grey—Owen Sound"
          }
        ],
        "pollDivisionIds": [
          10137294
        ],
        "postalCode": "N4N1Y5",
        "streetName": "13TH",
        "streetDirectionId": null,
        "streetTypeId": "ST",
        "placeName": "HANOVER",
        "streetNameDisplayText": "13TH ST, HANOVER"
      }
    ]
  },
  {
    "postal": "N4N6P6",
    "result": []
  },
  {
    "postal": "N4N3N9",
    "result": []
  },
  {
    "postal": "N4N3W2",
    "result": []
  },
  {
    "postal": "N4N6H8",
    "result": []
  },
  {
    "postal": "N4N9T3",
    "result": []
  },
  {
    "postal": "N4N5L9",
    "result": []
  },
  {
    "postal": "N4N7X7",
    "result": []
  },
  {
    "postal": "N4N3J5",
    "result": [
      {
        "electoralDistricts": [
          {
            "election": null,
            "id": 14,
            "name": "Bruce—Grey—Owen Sound"
          }
        ],
        "pollDivisionIds": [
          10137294
        ],
        "postalCode": "N4N3J5",
        "streetName": "14TH",
        "streetDirectionId": null,
        "streetTypeId": "ST",
        "placeName": "HANOVER",
        "streetNameDisplayText": "14TH ST, HANOVER"
      }
    ]
  },
  {
    "postal": "N4N4J5",
    "result": []
  },
  {
    "postal": "N4N6J2",
    "result": []
  },
  {
    "postal": "N4N5V6",
    "result": []
  },
  {
    "postal": "N4N3N2",
    "result": [
      {
        "electoralDistricts": [
          {
            "election": null,
            "id": 14,
            "name": "Bruce—Grey—Owen Sound"
          }
        ],
        "pollDivisionIds": [
          10137294
        ],
        "postalCode": "N4N3N2",
        "streetName": "16TH",
        "streetDirectionId": null,
        "streetTypeId": "ST",
        "placeName": "HANOVER",
        "streetNameDisplayText": "16TH ST, HANOVER"
      }
    ]
  },
  {
    "postal": "N4N3B1",
    "result": [
      {
        "electoralDistricts": [
          {
            "election": null,
            "id": 14,
            "name": "Bruce—Grey—Owen Sound"
          }
        ],
        "pollDivisionIds": [
          10137294
        ],
        "postalCode": "N4N3B1",
        "streetName": "17TH",
        "streetDirectionId": null,
        "streetTypeId": "AVE",
        "placeName": "HANOVER",
        "streetNameDisplayText": "17TH AVE, HANOVER"
      }
    ]
  },
  {
    "postal": "N4N8B5",
    "result": []
  },
  {
    "postal": "N4N0K1",
    "result": []
  },
  {
    "postal": "N4N7M7",
    "result": []
  },
  {
    "postal": "N4N2M2",
    "result": [
      {
        "electoralDistricts": [
          {
            "election": null,
            "id": 14,
            "name": "Bruce—Grey—Owen Sound"
          }
        ],
        "pollDivisionIds": [
          10137296
        ],
        "postalCode": "N4N2M2",
        "streetName": "9TH",
        "streetDirectionId": null,
        "streetTypeId": "AVE",
        "placeName": "HANOVER",
        "streetNameDisplayText": "9TH AVE, HANOVER"
      }
    ]
  },
  {
    "postal": "N4N9N3",
    "result": []
  },
  {
    "postal": "N4N4Y8",
    "result": []
  },
  {
    "postal": "N4N3V7",
    "result": [
      {
        "electoralDistricts": [
          {
            "election": null,
            "id": 14,
            "name": "Bruce—Grey—Owen Sound"
          }
        ],
        "pollDivisionIds": [
          10137296
        ],
        "postalCode": "N4N3V7",
        "streetName": "1ST",
        "streetDirectionId": null,
        "streetTypeId": "ST",
        "placeName": "HANOVER",
        "streetNameDisplayText": "1ST ST, HANOVER"
      }
    ]
  },
  {
    "postal": "N4N8Z1",
    "result": []
  },
  {
    "postal": "N4N7B3",
    "result": []
  },
  {
    "postal": "N4N3A8",
    "result": [
      {
        "electoralDistricts": [
          {
            "election": null,
            "id": 14,
            "name": "Bruce—Grey—Owen Sound"
          }
        ],
        "pollDivisionIds": [
          10137294
        ],
        "postalCode": "N4N3A8",
        "streetName": "17TH",
        "streetDirectionId": null,
        "streetTypeId": "AVE",
        "placeName": "HANOVER",
        "streetNameDisplayText": "17TH AVE, HANOVER"
      }
    ]
  },
  {
    "postal": "N4N7V5",
    "result": []
  },
  {
    "postal": "N4N2T2",
    "result": [
      {
        "electoralDistricts": [
          {
            "election": null,
            "id": 14,
            "name": "Bruce—Grey—Owen Sound"
          }
        ],
        "pollDivisionIds": [
          10137296
        ],
        "postalCode": "N4N2T2",
        "streetName": "12TH",
        "streetDirectionId": null,
        "streetTypeId": "AVE",
        "placeName": "HANOVER",
        "streetNameDisplayText": "12TH AVE, HANOVER"
      }
    ]
  },
  {
    "postal": "N4N6L3",
    "result": []
  },
  {
    "postal": "N4N0L2",
    "result": []
  },
  {
    "postal": "N4N5Y8",
    "result": []
  },
  {
    "postal": "N4N0B8",
    "result": []
  },
  {
    "postal": "N4N6R5",
    "result": []
  },
  {
    "postal": "N4N8W6",
    "result": []
  },
  {
    "postal": "N4N8G6",
    "result": []
  },
  {
    "postal": "N4N6X3",
    "result": []
  },
  {
    "postal": "N4N7R7",
    "result": []
  },
  {
    "postal": "N4N4B6",
    "result": []
  },
  {
    "postal": "N4N3P9",
    "result": [
      {
        "electoralDistricts": [
          {
            "election": null,
            "id": 14,
            "name": "Bruce—Grey—Owen Sound"
          }
        ],
        "pollDivisionIds": [
          10137296
        ],
        "postalCode": "N4N3P9",
        "streetName": "2ND ST A",
        "streetDirectionId": null,
        "streetTypeId": null,
        "placeName": "HANOVER",
        "streetNameDisplayText": "2ND ST A, HANOVER"
      }
    ]
  },
  {
    "postal": "N4N2T3",
    "result": [
      {
        "electoralDistricts": [
          {
            "election": null,
            "id": 14,
            "name": "Bruce—Grey—Owen Sound"
          }
        ],
        "pollDivisionIds": [
          10137296
        ],
        "postalCode": "N4N2T3",
        "streetName": "12TH",
        "streetDirectionId": null,
        "streetTypeId": "AVE",
        "placeName": "HANOVER",
        "streetNameDisplayText": "12TH AVE, HANOVER"
      }
    ]
  },
  {
    "postal": "N4N1M4",
    "result": [
      {
        "electoralDistricts": [
          {
            "election": null,
            "id": 14,
            "name": "Bruce—Grey—Owen Sound"
          }
        ],
        "pollDivisionIds": [
          10137296
        ],
        "postalCode": "N4N1M4",
        "streetName": "9TH",
        "streetDirectionId": null,
        "streetTypeId": "ST",
        "placeName": "HANOVER",
        "streetNameDisplayText": "9TH ST, HANOVER"
      }
    ]
  },
  {
    "postal": "N4N0H1",
    "result": []
  },
  {
    "postal": "N4N9W3",
    "result": []
  },
  {
    "postal": "N4N6P1",
    "result": []
  },
  {
    "postal": "N4N7G2",
    "result": []
  },
  {
    "postal": "N4N4J9",
    "result": []
  },
  {
    "postal": "N4N9E4",
    "result": []
  },
  {
    "postal": "N4N8H0",
    "result": []
  },
  {
    "postal": "N4N4M7",
    "result": []
  },
  {
    "postal": "N4N2G9",
    "result": [
      {
        "electoralDistricts": [
          {
            "election": null,
            "id": 14,
            "name": "Bruce—Grey—Owen Sound"
          }
        ],
        "pollDivisionIds": [
          10137296
        ],
        "postalCode": "N4N2G9",
        "streetName": "7TH",
        "streetDirectionId": null,
        "streetTypeId": "AVE",
        "placeName": "HANOVER",
        "streetNameDisplayText": "7TH AVE, HANOVER"
      }
    ]
  },
  {
    "postal": "N4N8T2",
    "result": []
  },
  {
    "postal": "N4N7G7",
    "result": []
  },
  {
    "postal": "N4N4Z3",
    "result": []
  },
  {
    "postal": "N4N5B3",
    "result": []
  },
  {
    "postal": "N4N1S7",
    "result": [
      {
        "electoralDistricts": [
          {
            "election": null,
            "id": 14,
            "name": "Bruce—Grey—Owen Sound"
          }
        ],
        "pollDivisionIds": [
          10137294,
          10137296
        ],
        "postalCode": "N4N1S7",
        "streetName": "11TH",
        "streetDirectionId": null,
        "streetTypeId": "ST",
        "placeName": "HANOVER",
        "streetNameDisplayText": "11TH ST, HANOVER"
      }
    ]
  },
  {
    "postal": "N4N2N7",
    "result": [
      {
        "electoralDistricts": [
          {
            "election": null,
            "id": 14,
            "name": "Bruce—Grey—Owen Sound"
          }
        ],
        "pollDivisionIds": [
          10137296
        ],
        "postalCode": "N4N2N7",
        "streetName": "10TH",
        "streetDirectionId": null,
        "streetTypeId": "AVE",
        "placeName": "HANOVER",
        "streetNameDisplayText": "10TH AVE, HANOVER"
      }
    ]
  },
  {
    "postal": "N4N0H8",
    "result": []
  },
  {
    "postal": "N4N7Z4",
    "result": []
  },
  {
    "postal": "N4N7B1",
    "result": []
  },
  {
    "postal": "N4N7P8",
    "result": []
  },
  {
    "postal": "N4N7N0",
    "result": []
  },
  {
    "postal": "N4N3Y5",
    "result": []
  },
  {
    "postal": "N4N6K1",
    "result": []
  },
  {
    "postal": "N4N9X5",
    "result": []
  },
  {
    "postal": "N4N7S5",
    "result": []
  },
  {
    "postal": "N4N0A4",
    "result": [
      {
        "electoralDistricts": [
          {
            "election": null,
            "id": 14,
            "name": "Bruce—Grey—Owen Sound"
          }
        ],
        "pollDivisionIds": [
          10137244
        ],
        "postalCode": "N4N0A4",
        "streetName": "6TH ST, BLDG. 510",
        "streetDirectionId": null,
        "streetTypeId": "ST",
        "placeName": "HANOVER",
        "streetNameDisplayText": "6TH ST, BLDG. 510 ST, HANOVER"
      },
      {
        "electoralDistricts": [
          {
            "election": null,
            "id": 14,
            "name": "Bruce—Grey—Owen Sound"
          }
        ],
        "pollDivisionIds": [
          10137296
        ],
        "postalCode": "N4N0A4",
        "streetName": "6TH",
        "streetDirectionId": null,
        "streetTypeId": "ST",
        "placeName": "HANOVER",
        "streetNameDisplayText": "6TH ST, HANOVER"
      },
      {
        "electoralDistricts": [
          {
            "election": null,
            "id": 14,
            "name": "Bruce—Grey—Owen Sound"
          }
        ],
        "pollDivisionIds": [
          10137294
        ],
        "postalCode": "N4N0A4",
        "streetName": "NORMANBY-BENTINCK",
        "streetDirectionId": null,
        "streetTypeId": "TLINE",
        "placeName": "HANOVER",
        "streetNameDisplayText": "NORMANBY-BENTINCK TLINE, HANOVER"
      }
    ]
  },
  {
    "postal": "N4N4T5",
    "result": []
  },
  {
    "postal": "N4N5K1",
    "result": []
  },
  {
    "postal": "N4N0Z9",
    "result": []
  },
  {
    "postal": "N4N7T2",
    "result": []
  },
  {
    "postal": "N4N1L5",
    "result": [
      {
        "electoralDistricts": [
          {
            "election": null,
            "id": 14,
            "name": "Bruce—Grey—Owen Sound"
          }
        ],
        "pollDivisionIds": [
          10137296
        ],
        "postalCode": "N4N1L5",
        "streetName": "9TH",
        "streetDirectionId": null,
        "streetTypeId": "ST",
        "placeName": "HANOVER",
        "streetNameDisplayText": "9TH ST, HANOVER"
      }
    ]
  },
  {
    "postal": "N4N3N5",
    "result": []
  },
  {
    "postal": "N4N6H4",
    "result": []
  },
  {
    "postal": "N4N5A5",
    "result": []
  },
  {
    "postal": "N4N3R9",
    "result": [
      {
        "electoralDistricts": [
          {
            "election": null,
            "id": 14,
            "name": "Bruce—Grey—Owen Sound"
          }
        ],
        "pollDivisionIds": [
          10137294
        ],
        "postalCode": "N4N3R9",
        "streetName": "16TH",
        "streetDirectionId": null,
        "streetTypeId": "AVE",
        "placeName": "HANOVER",
        "streetNameDisplayText": "16TH AVE, HANOVER"
      }
    ]
  },
  {
    "postal": "N4N7L8",
    "result": []
  },
  {
    "postal": "N4N6T6",
    "result": []
  },
  {
    "postal": "N4N7Y7",
    "result": []
  },
  {
    "postal": "N4N3M8",
    "result": [
      {
        "electoralDistricts": [
          {
            "election": null,
            "id": 14,
            "name": "Bruce—Grey—Owen Sound"
          }
        ],
        "pollDivisionIds": [
          10137294
        ],
        "postalCode": "N4N3M8",
        "streetName": "19TH",
        "streetDirectionId": null,
        "streetTypeId": "AVE",
        "placeName": "HANOVER",
        "streetNameDisplayText": "19TH AVE, HANOVER"
      }
    ]
  },
  {
    "postal": "N4N2E0",
    "result": []
  },
  {
    "postal": "N4N4B5",
    "result": []
  },
  {
    "postal": "N4N1J3",
    "result": [
      {
        "electoralDistricts": [
          {
            "election": null,
            "id": 14,
            "name": "Bruce—Grey—Owen Sound"
          }
        ],
        "pollDivisionIds": [
          10137296
        ],
        "postalCode": "N4N1J3",
        "streetName": "8TH",
        "streetDirectionId": null,
        "streetTypeId": "ST",
        "placeName": "HANOVER",
        "streetNameDisplayText": "8TH ST, HANOVER"
      }
    ]
  },
  {
    "postal": "N4N5S6",
    "result": []
  },
  {
    "postal": "N4N8P7",
    "result": []
  },
  {
    "postal": "N4N7S7",
    "result": []
  },
  {
    "postal": "N4N4C2",
    "result": []
  },
  {
    "postal": "N4N5Y0",
    "result": []
  },
  {
    "postal": "N4N2V7",
    "result": [
      {
        "electoralDistricts": [
          {
            "election": null,
            "id": 14,
            "name": "Bruce—Grey—Owen Sound"
          }
        ],
        "pollDivisionIds": [
          10137294
        ],
        "postalCode": "N4N2V7",
        "streetName": "12TH",
        "streetDirectionId": null,
        "streetTypeId": "AVE",
        "placeName": "HANOVER",
        "streetNameDisplayText": "12TH AVE, HANOVER"
      }
    ]
  },
  {
    "postal": "N4N8P5",
    "result": []
  },
  {
    "postal": "N4N5P5",
    "result": []
  },
  {
    "postal": "N4N5Z0",
    "result": []
  },
  {
    "postal": "N4N9B0",
    "result": []
  },
  {
    "postal": "N4N1L0",
    "result": []
  },
  {
    "postal": "N4N0B5",
    "result": [
      {
        "electoralDistricts": [
          {
            "election": null,
            "id": 14,
            "name": "Bruce—Grey—Owen Sound"
          }
        ],
        "pollDivisionIds": [
          10137296
        ],
        "postalCode": "N4N0B5",
        "streetName": "17TH AVE A",
        "streetDirectionId": null,
        "streetTypeId": null,
        "placeName": "HANOVER",
        "streetNameDisplayText": "17TH AVE A, HANOVER"
      },
      {
        "electoralDistricts": [
          {
            "election": null,
            "id": 14,
            "name": "Bruce—Grey—Owen Sound"
          }
        ],
        "pollDivisionIds": [
          10137296
        ],
        "postalCode": "N4N0B5",
        "streetName": "17TH",
        "streetDirectionId": null,
        "streetTypeId": "AVE",
        "placeName": "HANOVER",
        "streetNameDisplayText": "17TH AVE, HANOVER"
      }
    ]
  },
  {
    "postal": "N4N3L2",
    "result": [
      {
        "electoralDistricts": [
          {
            "election": null,
            "id": 14,
            "name": "Bruce—Grey—Owen Sound"
          }
        ],
        "pollDivisionIds": [
          10137294
        ],
        "postalCode": "N4N3L2",
        "streetName": "21ST",
        "streetDirectionId": null,
        "streetTypeId": "AVE",
        "placeName": "HANOVER",
        "streetNameDisplayText": "21ST AVE, HANOVER"
      }
    ]
  },
  {
    "postal": "N4N3B7",
    "result": [
      {
        "electoralDistricts": [
          {
            "election": null,
            "id": 14,
            "name": "Bruce—Grey—Owen Sound"
          }
        ],
        "pollDivisionIds": [
          10137296
        ],
        "postalCode": "N4N3B7",
        "streetName": "13TH A",
        "streetDirectionId": null,
        "streetTypeId": "AVE",
        "placeName": "HANOVER",
        "streetNameDisplayText": "13TH A AVE, HANOVER"
      },
      {
        "electoralDistricts": [
          {
            "election": null,
            "id": 14,
            "name": "Bruce—Grey—Owen Sound"
          }
        ],
        "pollDivisionIds": [
          10137296
        ],
        "postalCode": "N4N3B7",
        "streetName": "13TH",
        "streetDirectionId": null,
        "streetTypeId": "AVE",
        "placeName": "HANOVER",
        "streetNameDisplayText": "13TH AVE, HANOVER"
      }
    ]
  },
  {
    "postal": "N4N8L1",
    "result": []
  },
  {
    "postal": "N4N5M4",
    "result": []
  },
  {
    "postal": "N4N4G9",
    "result": []
  },
  {
    "postal": "N4N0P0",
    "result": []
  },
  {
    "postal": "N4N8G2",
    "result": []
  },
  {
    "postal": "N4N1V9",
    "result": [
      {
        "electoralDistricts": [
          {
            "election": null,
            "id": 14,
            "name": "Bruce—Grey—Owen Sound"
          }
        ],
        "pollDivisionIds": [
          10137294
        ],
        "postalCode": "N4N1V9",
        "streetName": "12TH",
        "streetDirectionId": null,
        "streetTypeId": "ST",
        "placeName": "HANOVER",
        "streetNameDisplayText": "12TH ST, HANOVER"
      }
    ]
  },
  {
    "postal": "N4N8N8",
    "result": []
  },
  {
    "postal": "N4N6S8",
    "result": []
  },
  {
    "postal": "N4N8H2",
    "result": []
  },
  {
    "postal": "N4N5R8",
    "result": []
  },
  {
    "postal": "N4N5L4",
    "result": []
  },
  {
    "postal": "N4N9E1",
    "result": []
  },
  {
    "postal": "N4N1C4",
    "result": [
      {
        "electoralDistricts": [
          {
            "election": null,
            "id": 14,
            "name": "Bruce—Grey—Owen Sound"
          }
        ],
        "pollDivisionIds": [
          10137296
        ],
        "postalCode": "N4N1C4",
        "streetName": "6TH ST A",
        "streetDirectionId": null,
        "streetTypeId": "ST",
        "placeName": "HANOVER",
        "streetNameDisplayText": "6TH ST A ST, HANOVER"
      },
      {
        "electoralDistricts": [
          {
            "election": null,
            "id": 14,
            "name": "Bruce—Grey—Owen Sound"
          }
        ],
        "pollDivisionIds": [
          10137296
        ],
        "postalCode": "N4N1C4",
        "streetName": "6TH",
        "streetDirectionId": null,
        "streetTypeId": "ST",
        "placeName": "HANOVER",
        "streetNameDisplayText": "6TH ST, HANOVER"
      }
    ]
  },
  {
    "postal": "N4N8W5",
    "result": []
  },
  {
    "postal": "N4N1Y4",
    "result": [
      {
        "electoralDistricts": [
          {
            "election": null,
            "id": 14,
            "name": "Bruce—Grey—Owen Sound"
          }
        ],
        "pollDivisionIds": [
          10137294
        ],
        "postalCode": "N4N1Y4",
        "streetName": "13TH",
        "streetDirectionId": null,
        "streetTypeId": "ST",
        "placeName": "HANOVER",
        "streetNameDisplayText": "13TH ST, HANOVER"
      }
    ]
  },
  {
    "postal": "N4N1C0",
    "result": []
  },
  {
    "postal": "N4N2J2",
    "result": [
      {
        "electoralDistricts": [
          {
            "election": null,
            "id": 14,
            "name": "Bruce—Grey—Owen Sound"
          }
        ],
        "pollDivisionIds": [
          10137296
        ],
        "postalCode": "N4N2J2",
        "streetName": "7TH",
        "streetDirectionId": null,
        "streetTypeId": "AVE",
        "placeName": "HANOVER",
        "streetNameDisplayText": "7TH AVE, HANOVER"
      }
    ]
  },
  {
    "postal": "N4N2J0",
    "result": []
  },
  {
    "postal": "N4N7A3",
    "result": []
  },
  {
    "postal": "N4N8M1",
    "result": []
  },
  {
    "postal": "N4N7T9",
    "result": []
  },
  {
    "postal": "N4N6C0",
    "result": []
  },
  {
    "postal": "N4N7X1",
    "result": []
  },
  {
    "postal": "N4N0G1",
    "result": []
  },
  {
    "postal": "N4N4X2",
    "result": []
  },
  {
    "postal": "N4N0N6",
    "result": []
  },
  {
    "postal": "N4N8E3",
    "result": []
  },
  {
    "postal": "N4N5S8",
    "result": []
  },
  {
    "postal": "N4N0R0",
    "result": []
  },
  {
    "postal": "N4N6J6",
    "result": []
  },
  {
    "postal": "N4N4B4",
    "result": []
  },
  {
    "postal": "N4N7E3",
    "result": []
  },
  {
    "postal": "N4N3N6",
    "result": [
      {
        "electoralDistricts": [
          {
            "election": null,
            "id": 14,
            "name": "Bruce—Grey—Owen Sound"
          }
        ],
        "pollDivisionIds": [
          10137294
        ],
        "postalCode": "N4N3N6",
        "streetName": "16TH",
        "streetDirectionId": null,
        "streetTypeId": "ST",
        "placeName": "HANOVER",
        "streetNameDisplayText": "16TH ST, HANOVER"
      }
    ]
  },
  {
    "postal": "N4N3X6",
    "result": []
  },
  {
    "postal": "N4N8L0",
    "result": []
  },
  {
    "postal": "N4N8N1",
    "result": []
  },
  {
    "postal": "N4N4J0",
    "result": []
  },
  {
    "postal": "N4N0X7",
    "result": []
  },
  {
    "postal": "N4N6S4",
    "result": []
  },
  {
    "postal": "N4N0Z0",
    "result": []
  },
  {
    "postal": "N4N9X8",
    "result": []
  },
  {
    "postal": "N4N3H3",
    "result": [
      {
        "electoralDistricts": [
          {
            "election": null,
            "id": 14,
            "name": "Bruce—Grey—Owen Sound"
          }
        ],
        "pollDivisionIds": [
          10137296
        ],
        "postalCode": "N4N3H3",
        "streetName": "5TH",
        "streetDirectionId": null,
        "streetTypeId": "ST",
        "placeName": "HANOVER",
        "streetNameDisplayText": "5TH ST, HANOVER"
      }
    ]
  },
  {
    "postal": "N4N7S2",
    "result": []
  },
  {
    "postal": "N4N3T3",
    "result": [
      {
        "electoralDistricts": [
          {
            "election": null,
            "id": 14,
            "name": "Bruce—Grey—Owen Sound"
          }
        ],
        "pollDivisionIds": [
          10137296
        ],
        "postalCode": "N4N3T3",
        "streetName": "11TH",
        "streetDirectionId": null,
        "streetTypeId": "AVE",
        "placeName": "HANOVER",
        "streetNameDisplayText": "11TH AVE, HANOVER"
      }
    ]
  },
  {
    "postal": "N4N9P3",
    "result": []
  },
  {
    "postal": "N4N4H8",
    "result": []
  },
  {
    "postal": "N4N6R1",
    "result": []
  },
  {
    "postal": "N4N1S0",
    "result": []
  },
  {
    "postal": "N4N3W8",
    "result": [
      {
        "electoralDistricts": [
          {
            "election": null,
            "id": 14,
            "name": "Bruce—Grey—Owen Sound"
          }
        ],
        "pollDivisionIds": [
          10137294,
          10137290
        ],
        "postalCode": "N4N3W8",
        "streetName": "16TH",
        "streetDirectionId": null,
        "streetTypeId": "ST",
        "placeName": "HANOVER",
        "streetNameDisplayText": "16TH ST, HANOVER"
      },
      {
        "electoralDistricts": [
          {
            "election": null,
            "id": 14,
            "name": "Bruce—Grey—Owen Sound"
          }
        ],
        "pollDivisionIds": [
          10137294
        ],
        "postalCode": "N4N3W8",
        "streetName": "17TH",
        "streetDirectionId": null,
        "streetTypeId": "ST",
        "placeName": "HANOVER",
        "streetNameDisplayText": "17TH ST, HANOVER"
      },
      {
        "electoralDistricts": [
          {
            "election": null,
            "id": 14,
            "name": "Bruce—Grey—Owen Sound"
          }
        ],
        "pollDivisionIds": [
          10137294
        ],
        "postalCode": "N4N3W8",
        "streetName": "22ND",
        "streetDirectionId": null,
        "streetTypeId": "AVE",
        "placeName": "HANOVER",
        "streetNameDisplayText": "22ND AVE, HANOVER"
      }
    ]
  },
  {
    "postal": "N4N4S3",
    "result": []
  },
  {
    "postal": "N4N1B6",
    "result": [
      {
        "electoralDistricts": [
          {
            "election": null,
            "id": 14,
            "name": "Bruce—Grey—Owen Sound"
          }
        ],
        "pollDivisionIds": [
          10137296
        ],
        "postalCode": "N4N1B6",
        "streetName": "5TH",
        "streetDirectionId": null,
        "streetTypeId": "ST",
        "placeName": "HANOVER",
        "streetNameDisplayText": "5TH ST, HANOVER"
      }
    ]
  },
  {
    "postal": "N4N8R3",
    "result": []
  },
  {
    "postal": "N4N4V9",
    "result": []
  },
  {
    "postal": "N4N9W4",
    "result": []
  },
  {
    "postal": "N4N3T4",
    "result": []
  },
  {
    "postal": "N4N5C7",
    "result": []
  },
  {
    "postal": "N4N3Y1",
    "result": []
  },
  {
    "postal": "N4N5V0",
    "result": []
  },
  {
    "postal": "N4N8G8",
    "result": []
  },
  {
    "postal": "N4N8B1",
    "result": []
  },
  {
    "postal": "N4N4P5",
    "result": []
  },
  {
    "postal": "N4N7B2",
    "result": []
  },
  {
    "postal": "N4N0R2",
    "result": []
  },
  {
    "postal": "N4N4M4",
    "result": []
  },
  {
    "postal": "N4N7M4",
    "result": []
  },
  {
    "postal": "N4N9S7",
    "result": []
  },
  {
    "postal": "N4N5Z7",
    "result": []
  },
  {
    "postal": "N4N7J7",
    "result": []
  },
  {
    "postal": "N4N8R8",
    "result": []
  },
  {
    "postal": "N4N9X1",
    "result": []
  },
  {
    "postal": "N4N5M9",
    "result": []
  },
  {
    "postal": "N4N9B4",
    "result": []
  },
  {
    "postal": "N4N0L9",
    "result": []
  },
  {
    "postal": "N4N9G4",
    "result": []
  },
  {
    "postal": "N4N1J4",
    "result": [
      {
        "electoralDistricts": [
          {
            "election": null,
            "id": 14,
            "name": "Bruce—Grey—Owen Sound"
          }
        ],
        "pollDivisionIds": [
          10137296
        ],
        "postalCode": "N4N1J4",
        "streetName": "8TH",
        "streetDirectionId": null,
        "streetTypeId": "ST",
        "placeName": "HANOVER",
        "streetNameDisplayText": "8TH ST, HANOVER"
      }
    ]
  },
  {
    "postal": "N4N0W6",
    "result": []
  }
]
