[
  {
    "postal": "P2N9J6",
    "result": []
  },
  {
    "postal": "P2N9Z5",
    "result": []
  },
  {
    "postal": "P2N7H8",
    "result": []
  },
  {
    "postal": "P2N0P6",
    "result": []
  },
  {
    "postal": "P2N0S7",
    "result": []
  },
  {
    "postal": "P2N8B9",
    "result": []
  },
  {
    "postal": "P2N2A6",
    "result": [
      {
        "electoralDistricts": [
          {
            "election": null,
            "id": 107,
            "name": "Timiskaming—Cochrane"
          }
        ],
        "pollDivisionIds": [
          10142411
        ],
        "postalCode": "P2N2A6",
        "streetName": "FURLONG",
        "streetDirectionId": null,
        "streetTypeId": "AVE",
        "placeName": "KIRKLAND LAKE",
        "streetNameDisplayText": "FURLONG AVE, KIRKLAND LAKE"
      },
      {
        "electoralDistricts": [
          {
            "election": null,
            "id": 107,
            "name": "Timiskaming—Cochrane"
          }
        ],
        "pollDivisionIds": [
          10142411
        ],
        "postalCode": "P2N2A6",
        "streetName": "FURLONG",
        "streetDirectionId": null,
        "streetTypeId": "ST",
        "placeName": "KIRKLAND LAKE",
        "streetNameDisplayText": "FURLONG ST, KIRKLAND LAKE"
      }
    ]
  },
  {
    "postal": "P2N7V2",
    "result": []
  },
  {
    "postal": "P2N9P4",
    "result": []
  },
  {
    "postal": "P2N6G0",
    "result": []
  },
  {
    "postal": "P2N2K0",
    "result": []
  },
  {
    "postal": "P2N7N6",
    "result": []
  },
  {
    "postal": "P2N5R3",
    "result": []
  },
  {
    "postal": "P2N7K0",
    "result": []
  },
  {
    "postal": "P2N3R2",
    "result": [
      {
        "electoralDistricts": [
          {
            "election": null,
            "id": 107,
            "name": "Timiskaming—Cochrane"
          }
        ],
        "pollDivisionIds": [
          10142411
        ],
        "postalCode": "P2N3R2",
        "streetName": "POLLOCK",
        "streetDirectionId": null,
        "streetTypeId": "AVE",
        "placeName": "KIRKLAND LAKE",
        "streetNameDisplayText": "POLLOCK AVE, KIRKLAND LAKE"
      },
      {
        "electoralDistricts": [
          {
            "election": null,
            "id": 107,
            "name": "Timiskaming—Cochrane"
          }
        ],
        "pollDivisionIds": [
          10142411
        ],
        "postalCode": "P2N3R2",
        "streetName": "POLLOCK",
        "streetDirectionId": null,
        "streetTypeId": "ST",
        "placeName": "KIRKLAND LAKE",
        "streetNameDisplayText": "POLLOCK ST, KIRKLAND LAKE"
      }
    ]
  },
  {
    "postal": "P2N0J1",
    "result": []
  },
  {
    "postal": "P2N0B0",
    "result": []
  },
  {
    "postal": "P2N5Z2",
    "result": []
  },
  {
    "postal": "P2N7P3",
    "result": []
  },
  {
    "postal": "P2N2K3",
    "result": [
      {
        "electoralDistricts": [
          {
            "election": null,
            "id": 107,
            "name": "Timiskaming—Cochrane"
          }
        ],
        "pollDivisionIds": [
          10142410
        ],
        "postalCode": "P2N2K3",
        "streetName": "MCKELVIE",
        "streetDirectionId": null,
        "streetTypeId": "AVE",
        "placeName": "KIRKLAND LAKE",
        "streetNameDisplayText": "MCKELVIE AVE, KIRKLAND LAKE"
      }
    ]
  },
  {
    "postal": "P2N7Y6",
    "result": []
  },
  {
    "postal": "P2N1L9",
    "result": [
      {
        "electoralDistricts": [
          {
            "election": null,
            "id": 107,
            "name": "Timiskaming—Cochrane"
          }
        ],
        "pollDivisionIds": [
          10142409
        ],
        "postalCode": "P2N1L9",
        "streetName": "FOSS",
        "streetDirectionId": null,
        "streetTypeId": "RD",
        "placeName": "KIRKLAND LAKE",
        "streetNameDisplayText": "FOSS RD, KIRKLAND LAKE"
      }
    ]
  },
  {
    "postal": "P2N8T0",
    "result": []
  },
  {
    "postal": "P2N3K8",
    "result": [
      {
        "electoralDistricts": [
          {
            "election": null,
            "id": 107,
            "name": "Timiskaming—Cochrane"
          }
        ],
        "pollDivisionIds": [
          10142456
        ],
        "postalCode": "P2N3K8",
        "streetName": "17",
        "streetDirectionId": null,
        "streetTypeId": "HWY",
        "placeName": "STURGEON FALLS",
        "streetNameDisplayText": "17 HWY, STURGEON FALLS"
      }
    ]
  },
  {
    "postal": "P2N5W9",
    "result": []
  },
  {
    "postal": "P2N6T9",
    "result": []
  },
  {
    "postal": "P2N4H1",
    "result": []
  },
  {
    "postal": "P2N7A2",
    "result": []
  },
  {
    "postal": "P2N5G0",
    "result": []
  },
  {
    "postal": "P2N8V5",
    "result": []
  },
  {
    "postal": "P2N2Y8",
    "result": [
      {
        "electoralDistricts": [
          {
            "election": null,
            "id": 107,
            "name": "Timiskaming—Cochrane"
          }
        ],
        "pollDivisionIds": [
          10142410
        ],
        "postalCode": "P2N2Y8",
        "streetName": "LEBEL",
        "streetDirectionId": null,
        "streetTypeId": "AVE",
        "placeName": "KIRKLAND LAKE",
        "streetNameDisplayText": "LEBEL AVE, KIRKLAND LAKE"
      }
    ]
  },
  {
    "postal": "P2N2B6",
    "result": [
      {
        "electoralDistricts": [
          {
            "election": null,
            "id": 107,
            "name": "Timiskaming—Cochrane"
          }
        ],
        "pollDivisionIds": [
          10142411
        ],
        "postalCode": "P2N2B6",
        "streetName": "ALLEN",
        "streetDirectionId": null,
        "streetTypeId": "AVE",
        "placeName": "KIRKLAND LAKE",
        "streetNameDisplayText": "ALLEN AVE, KIRKLAND LAKE"
      }
    ]
  },
  {
    "postal": "P2N4W8",
    "result": []
  },
  {
    "postal": "P2N8H7",
    "result": []
  },
  {
    "postal": "P2N5P1",
    "result": []
  },
  {
    "postal": "P2N2B8",
    "result": [
      {
        "electoralDistricts": [
          {
            "election": null,
            "id": 107,
            "name": "Timiskaming—Cochrane"
          }
        ],
        "pollDivisionIds": [
          10142411
        ],
        "postalCode": "P2N2B8",
        "streetName": "ALLEN",
        "streetDirectionId": null,
        "streetTypeId": "AVE",
        "placeName": "KIRKLAND LAKE",
        "streetNameDisplayText": "ALLEN AVE, KIRKLAND LAKE"
      }
    ]
  },
  {
    "postal": "P2N0P2",
    "result": []
  },
  {
    "postal": "P2N9M1",
    "result": []
  },
  {
    "postal": "P2N3G0",
    "result": []
  },
  {
    "postal": "P2N9Z2",
    "result": []
  },
  {
    "postal": "P2N2A0",
    "result": []
  },
  {
    "postal": "P2N6Y0",
    "result": []
  },
  {
    "postal": "P2N2Z8",
    "result": [
      {
        "electoralDistricts": [
          {
            "election": null,
            "id": 107,
            "name": "Timiskaming—Cochrane"
          }
        ],
        "pollDivisionIds": [
          10142411
        ],
        "postalCode": "P2N2Z8",
        "streetName": "LEBEL",
        "streetDirectionId": null,
        "streetTypeId": "AVE",
        "placeName": "KIRKLAND LAKE",
        "streetNameDisplayText": "LEBEL AVE, KIRKLAND LAKE"
      }
    ]
  },
  {
    "postal": "P2N7Y3",
    "result": []
  },
  {
    "postal": "P2N6Z5",
    "result": []
  },
  {
    "postal": "P2N6E0",
    "result": []
  },
  {
    "postal": "P2N9B7",
    "result": []
  },
  {
    "postal": "P2N9S5",
    "result": []
  },
  {
    "postal": "P2N3X3",
    "result": []
  },
  {
    "postal": "P2N7R5",
    "result": []
  },
  {
    "postal": "P2N2X3",
    "result": [
      {
        "electoralDistricts": [
          {
            "election": null,
            "id": 107,
            "name": "Timiskaming—Cochrane"
          }
        ],
        "pollDivisionIds": [
          10142410
        ],
        "postalCode": "P2N2X3",
        "streetName": "TECK",
        "streetDirectionId": null,
        "streetTypeId": "AVE",
        "placeName": "KIRKLAND LAKE",
        "streetNameDisplayText": "TECK AVE, KIRKLAND LAKE"
      }
    ]
  },
  {
    "postal": "P2N8Z9",
    "result": []
  },
  {
    "postal": "P2N0N4",
    "result": []
  },
  {
    "postal": "P2N1K1",
    "result": [
      {
        "electoralDistricts": [
          {
            "election": null,
            "id": 107,
            "name": "Timiskaming—Cochrane"
          }
        ],
        "pollDivisionIds": [
          10142409
        ],
        "postalCode": "P2N1K1",
        "streetName": "HILTON",
        "streetDirectionId": null,
        "streetTypeId": "AVE",
        "placeName": "KIRKLAND LAKE",
        "streetNameDisplayText": "HILTON AVE, KIRKLAND LAKE"
      },
      {
        "electoralDistricts": [
          {
            "election": null,
            "id": 107,
            "name": "Timiskaming—Cochrane"
          }
        ],
        "pollDivisionIds": [
          10142409
        ],
        "postalCode": "P2N1K1",
        "streetName": "WILSON",
        "streetDirectionId": null,
        "streetTypeId": "AVE",
        "placeName": "KIRKLAND LAKE",
        "streetNameDisplayText": "WILSON AVE, KIRKLAND LAKE"
      }
    ]
  },
  {
    "postal": "P2N1S3",
    "result": [
      {
        "electoralDistricts": [
          {
            "election": null,
            "id": 107,
            "name": "Timiskaming—Cochrane"
          }
        ],
        "pollDivisionIds": [
          10142411
        ],
        "postalCode": "P2N1S3",
        "streetName": "THIRD",
        "streetDirectionId": null,
        "streetTypeId": "ST",
        "placeName": "KIRKLAND LAKE",
        "streetNameDisplayText": "THIRD ST, KIRKLAND LAKE"
      }
    ]
  },
  {
    "postal": "P2N6M4",
    "result": []
  },
  {
    "postal": "P2N9A9",
    "result": []
  },
  {
    "postal": "P2N9Z9",
    "result": []
  },
  {
    "postal": "P2N6T4",
    "result": []
  },
  {
    "postal": "P2N0B2",
    "result": []
  },
  {
    "postal": "P2N2L9",
    "result": [
      {
        "electoralDistricts": [
          {
            "election": null,
            "id": 107,
            "name": "Timiskaming—Cochrane"
          }
        ],
        "pollDivisionIds": [
          10142409
        ],
        "postalCode": "P2N2L9",
        "streetName": "TAYLOR",
        "streetDirectionId": null,
        "streetTypeId": "AVE",
        "placeName": "KIRKLAND LAKE",
        "streetNameDisplayText": "TAYLOR AVE, KIRKLAND LAKE"
      }
    ]
  },
  {
    "postal": "P2N8K9",
    "result": []
  },
  {
    "postal": "P2N2H9",
    "result": [
      {
        "electoralDistricts": [
          {
            "election": null,
            "id": 107,
            "name": "Timiskaming—Cochrane"
          }
        ],
        "pollDivisionIds": [
          10142410
        ],
        "postalCode": "P2N2H9",
        "streetName": "HUDSON BAY",
        "streetDirectionId": null,
        "streetTypeId": "AVE",
        "placeName": "KIRKLAND LAKE",
        "streetNameDisplayText": "HUDSON BAY AVE, KIRKLAND LAKE"
      }
    ]
  },
  {
    "postal": "P2N3Z6",
    "result": []
  },
  {
    "postal": "P2N3B0",
    "result": []
  },
  {
    "postal": "P2N2H8",
    "result": [
      {
        "electoralDistricts": [
          {
            "election": null,
            "id": 107,
            "name": "Timiskaming—Cochrane"
          }
        ],
        "pollDivisionIds": [
          10142410
        ],
        "postalCode": "P2N2H8",
        "streetName": "HUDSON BAY",
        "streetDirectionId": null,
        "streetTypeId": "AVE",
        "placeName": "KIRKLAND LAKE",
        "streetNameDisplayText": "HUDSON BAY AVE, KIRKLAND LAKE"
      }
    ]
  },
  {
    "postal": "P2N3X2",
    "result": []
  },
  {
    "postal": "P2N2E9",
    "result": [
      {
        "electoralDistricts": [
          {
            "election": null,
            "id": 107,
            "name": "Timiskaming—Cochrane"
          }
        ],
        "pollDivisionIds": [
          10142409
        ],
        "postalCode": "P2N2E9",
        "streetName": "GOVERNMENT",
        "streetDirectionId": "W",
        "streetTypeId": "RD",
        "placeName": "KIRKLAND LAKE",
        "streetNameDisplayText": "GOVERNMENT RD W, KIRKLAND LAKE"
      }
    ]
  },
  {
    "postal": "P2N9P6",
    "result": []
  },
  {
    "postal": "P2N9E2",
    "result": []
  },
  {
    "postal": "P2N9H2",
    "result": []
  },
  {
    "postal": "P2N1S8",
    "result": [
      {
        "electoralDistricts": [
          {
            "election": null,
            "id": 107,
            "name": "Timiskaming—Cochrane"
          }
        ],
        "pollDivisionIds": [
          10142411
        ],
        "postalCode": "P2N1S8",
        "streetName": "THIRD",
        "streetDirectionId": null,
        "streetTypeId": "ST",
        "placeName": "KIRKLAND LAKE",
        "streetNameDisplayText": "THIRD ST, KIRKLAND LAKE"
      }
    ]
  },
  {
    "postal": "P2N3M6",
    "result": [
      {
        "electoralDistricts": [
          {
            "election": null,
            "id": 107,
            "name": "Timiskaming—Cochrane"
          }
        ],
        "pollDivisionIds": [
          10142409
        ],
        "postalCode": "P2N3M6",
        "streetName": "BERNHARDT",
        "streetDirectionId": null,
        "streetTypeId": "DR",
        "placeName": "KIRKLAND LAKE",
        "streetNameDisplayText": "BERNHARDT DR, KIRKLAND LAKE"
      },
      {
        "electoralDistricts": [
          {
            "election": null,
            "id": 107,
            "name": "Timiskaming—Cochrane"
          }
        ],
        "pollDivisionIds": [
          10142409
        ],
        "postalCode": "P2N3M6",
        "streetName": "DELOYE",
        "streetDirectionId": null,
        "streetTypeId": "CRES",
        "placeName": "KIRKLAND LAKE",
        "streetNameDisplayText": "DELOYE CRES, KIRKLAND LAKE"
      },
      {
        "electoralDistricts": [
          {
            "election": null,
            "id": 107,
            "name": "Timiskaming—Cochrane"
          }
        ],
        "pollDivisionIds": [
          10142409,
          10142401
        ],
        "postalCode": "P2N3M6",
        "streetName": "GOODFISH",
        "streetDirectionId": null,
        "streetTypeId": "RD",
        "placeName": "KIRKLAND LAKE",
        "streetNameDisplayText": "GOODFISH RD, KIRKLAND LAKE"
      },
      {
        "electoralDistricts": [
          {
            "election": null,
            "id": 107,
            "name": "Timiskaming—Cochrane"
          }
        ],
        "pollDivisionIds": [
          10142409
        ],
        "postalCode": "P2N3M6",
        "streetName": "GOVERNMENT",
        "streetDirectionId": "W",
        "streetTypeId": "RD",
        "placeName": "KIRKLAND LAKE",
        "streetNameDisplayText": "GOVERNMENT RD W, KIRKLAND LAKE"
      },
      {
        "electoralDistricts": [
          {
            "election": null,
            "id": 107,
            "name": "Timiskaming—Cochrane"
          }
        ],
        "pollDivisionIds": [
          10142409
        ],
        "postalCode": "P2N3M6",
        "streetName": "HARVEY",
        "streetDirectionId": null,
        "streetTypeId": "DR",
        "placeName": "KIRKLAND LAKE",
        "streetNameDisplayText": "HARVEY DR, KIRKLAND LAKE"
      },
      {
        "electoralDistricts": [
          {
            "election": null,
            "id": 107,
            "name": "Timiskaming—Cochrane"
          }
        ],
        "pollDivisionIds": [
          10142409
        ],
        "postalCode": "P2N3M6",
        "streetName": "OAKES",
        "streetDirectionId": null,
        "streetTypeId": "DR",
        "placeName": "KIRKLAND LAKE",
        "streetNameDisplayText": "OAKES DR, KIRKLAND LAKE"
      },
      {
        "electoralDistricts": [
          {
            "election": null,
            "id": 107,
            "name": "Timiskaming—Cochrane"
          }
        ],
        "pollDivisionIds": [
          10142409
        ],
        "postalCode": "P2N3M6",
        "streetName": "PINETREE",
        "streetDirectionId": null,
        "streetTypeId": "RD",
        "placeName": "KIRKLAND LAKE",
        "streetNameDisplayText": "PINETREE RD, KIRKLAND LAKE"
      },
      {
        "electoralDistricts": [
          {
            "election": null,
            "id": 107,
            "name": "Timiskaming—Cochrane"
          }
        ],
        "pollDivisionIds": [
          10142409
        ],
        "postalCode": "P2N3M6",
        "streetName": "WOJTUS",
        "streetDirectionId": null,
        "streetTypeId": "WAY",
        "placeName": "KIRKLAND LAKE",
        "streetNameDisplayText": "WOJTUS WAY, KIRKLAND LAKE"
      }
    ]
  },
  {
    "postal": "P2N6Z8",
    "result": []
  },
  {
    "postal": "P2N4J2",
    "result": []
  },
  {
    "postal": "P2N9Y1",
    "result": []
  },
  {
    "postal": "P2N8V6",
    "result": []
  },
  {
    "postal": "P2N6B2",
    "result": []
  },
  {
    "postal": "P2N1P8",
    "result": [
      {
        "electoralDistricts": [
          {
            "election": null,
            "id": 107,
            "name": "Timiskaming—Cochrane"
          }
        ],
        "pollDivisionIds": [
          10142411
        ],
        "postalCode": "P2N1P8",
        "streetName": "TOWER",
        "streetDirectionId": null,
        "streetTypeId": "ST",
        "placeName": "KIRKLAND LAKE",
        "streetNameDisplayText": "TOWER ST, KIRKLAND LAKE"
      }
    ]
  },
  {
    "postal": "P2N0V8",
    "result": []
  },
  {
    "postal": "P2N4Y0",
    "result": []
  },
  {
    "postal": "P2N2T4",
    "result": [
      {
        "electoralDistricts": [
          {
            "election": null,
            "id": 107,
            "name": "Timiskaming—Cochrane"
          }
        ],
        "pollDivisionIds": [
          10142411
        ],
        "postalCode": "P2N2T4",
        "streetName": "PRINCE",
        "streetDirectionId": null,
        "streetTypeId": "ST",
        "placeName": "KIRKLAND LAKE",
        "streetNameDisplayText": "PRINCE ST, KIRKLAND LAKE"
      }
    ]
  },
  {
    "postal": "P2N2S3",
    "result": [
      {
        "electoralDistricts": [
          {
            "election": null,
            "id": 107,
            "name": "Timiskaming—Cochrane"
          }
        ],
        "pollDivisionIds": [
          10142410
        ],
        "postalCode": "P2N2S3",
        "streetName": "FOLGER",
        "streetDirectionId": null,
        "streetTypeId": "ST",
        "placeName": "KIRKLAND LAKE",
        "streetNameDisplayText": "FOLGER ST, KIRKLAND LAKE"
      }
    ]
  },
  {
    "postal": "P2N0K0",
    "result": []
  },
  {
    "postal": "P2N5N1",
    "result": []
  },
  {
    "postal": "P2N7T0",
    "result": []
  },
  {
    "postal": "P2N9N2",
    "result": []
  },
  {
    "postal": "P2N5L1",
    "result": []
  },
  {
    "postal": "P2N7G5",
    "result": []
  },
  {
    "postal": "P2N6K2",
    "result": []
  },
  {
    "postal": "P2N6P9",
    "result": []
  },
  {
    "postal": "P2N0E6",
    "result": []
  },
  {
    "postal": "P2N8R9",
    "result": []
  },
  {
    "postal": "P2N3G9",
    "result": []
  },
  {
    "postal": "P2N0V7",
    "result": []
  },
  {
    "postal": "P2N2Z1",
    "result": [
      {
        "electoralDistricts": [
          {
            "election": null,
            "id": 107,
            "name": "Timiskaming—Cochrane"
          }
        ],
        "pollDivisionIds": [
          10142410
        ],
        "postalCode": "P2N2Z1",
        "streetName": "LEBEL",
        "streetDirectionId": null,
        "streetTypeId": "AVE",
        "placeName": "KIRKLAND LAKE",
        "streetNameDisplayText": "LEBEL AVE, KIRKLAND LAKE"
      }
    ]
  },
  {
    "postal": "P2N7N1",
    "result": []
  },
  {
    "postal": "P2N3C6",
    "result": [
      {
        "electoralDistricts": [
          {
            "election": null,
            "id": 107,
            "name": "Timiskaming—Cochrane"
          }
        ],
        "pollDivisionIds": [
          10142410
        ],
        "postalCode": "P2N3C6",
        "streetName": "WOODS",
        "streetDirectionId": null,
        "streetTypeId": "ST",
        "placeName": "KIRKLAND LAKE",
        "streetNameDisplayText": "WOODS ST, KIRKLAND LAKE"
      }
    ]
  },
  {
    "postal": "P2N4M1",
    "result": []
  },
  {
    "postal": "P2N9K2",
    "result": []
  },
  {
    "postal": "P2N9S6",
    "result": []
  },
  {
    "postal": "P2N4X1",
    "result": []
  },
  {
    "postal": "P2N8W2",
    "result": []
  },
  {
    "postal": "P2N7N2",
    "result": []
  },
  {
    "postal": "P2N8S3",
    "result": []
  },
  {
    "postal": "P2N4V0",
    "result": []
  },
  {
    "postal": "P2N6W4",
    "result": []
  },
  {
    "postal": "P2N5M1",
    "result": []
  },
  {
    "postal": "P2N0S4",
    "result": []
  },
  {
    "postal": "P2N5X6",
    "result": []
  },
  {
    "postal": "P2N8L5",
    "result": []
  },
  {
    "postal": "P2N5M8",
    "result": []
  },
  {
    "postal": "P2N2G3",
    "result": [
      {
        "electoralDistricts": [
          {
            "election": null,
            "id": 107,
            "name": "Timiskaming—Cochrane"
          }
        ],
        "pollDivisionIds": [
          10142411
        ],
        "postalCode": "P2N2G3",
        "streetName": "HARVEY KIRKLAND",
        "streetDirectionId": "W",
        "streetTypeId": "RD",
        "placeName": "KIRKLAND LAKE",
        "streetNameDisplayText": "HARVEY KIRKLAND RD W, KIRKLAND LAKE"
      },
      {
        "electoralDistricts": [
          {
            "election": null,
            "id": 107,
            "name": "Timiskaming—Cochrane"
          }
        ],
        "pollDivisionIds": [
          10142409
        ],
        "postalCode": "P2N2G3",
        "streetName": "KIRKLAND",
        "streetDirectionId": "W",
        "streetTypeId": "AVE",
        "placeName": "KIRKLAND LAKE",
        "streetNameDisplayText": "KIRKLAND AVE W, KIRKLAND LAKE"
      },
      {
        "electoralDistricts": [
          {
            "election": null,
            "id": 107,
            "name": "Timiskaming—Cochrane"
          }
        ],
        "pollDivisionIds": [
          10142409
        ],
        "postalCode": "P2N2G3",
        "streetName": "KIRKLAND",
        "streetDirectionId": "W",
        "streetTypeId": "ST",
        "placeName": "KIRKLAND LAKE",
        "streetNameDisplayText": "KIRKLAND ST W, KIRKLAND LAKE"
      }
    ]
  },
  {
    "postal": "P2N8E4",
    "result": []
  },
  {
    "postal": "P2N7S9",
    "result": []
  },
  {
    "postal": "P2N1K3",
    "result": [
      {
        "electoralDistricts": [
          {
            "election": null,
            "id": 107,
            "name": "Timiskaming—Cochrane"
          }
        ],
        "pollDivisionIds": [
          10142409
        ],
        "postalCode": "P2N1K3",
        "streetName": "DAY",
        "streetDirectionId": null,
        "streetTypeId": "AVE",
        "placeName": "KIRKLAND LAKE",
        "streetNameDisplayText": "DAY AVE, KIRKLAND LAKE"
      }
    ]
  },
  {
    "postal": "P2N4E1",
    "result": []
  },
  {
    "postal": "P2N4R2",
    "result": []
  },
  {
    "postal": "P2N6T0",
    "result": []
  },
  {
    "postal": "P2N3K5",
    "result": []
  },
  {
    "postal": "P2N3S3",
    "result": []
  },
  {
    "postal": "P2N3L4",
    "result": []
  },
  {
    "postal": "P2N9Y2",
    "result": []
  },
  {
    "postal": "P2N1E0",
    "result": []
  },
  {
    "postal": "P2N9A4",
    "result": []
  },
  {
    "postal": "P2N1L3",
    "result": [
      {
        "electoralDistricts": [
          {
            "election": null,
            "id": 107,
            "name": "Timiskaming—Cochrane"
          }
        ],
        "pollDivisionIds": [
          10142409
        ],
        "postalCode": "P2N1L3",
        "streetName": "BROWN",
        "streetDirectionId": null,
        "streetTypeId": "AVE",
        "placeName": "KIRKLAND LAKE",
        "streetNameDisplayText": "BROWN AVE, KIRKLAND LAKE"
      }
    ]
  },
  {
    "postal": "P2N6N1",
    "result": []
  },
  {
    "postal": "P2N6G7",
    "result": []
  },
  {
    "postal": "P2N7W1",
    "result": []
  },
  {
    "postal": "P2N4M6",
    "result": []
  },
  {
    "postal": "P2N1K0",
    "result": []
  },
  {
    "postal": "P2N3E2",
    "result": [
      {
        "electoralDistricts": [
          {
            "election": null,
            "id": 107,
            "name": "Timiskaming—Cochrane"
          }
        ],
        "pollDivisionIds": [
          10142409
        ],
        "postalCode": "P2N3E2",
        "streetName": "MAIN",
        "streetDirectionId": null,
        "streetTypeId": "ST",
        "placeName": "KIRKLAND LAKE",
        "streetNameDisplayText": "MAIN ST, KIRKLAND LAKE"
      }
    ]
  },
  {
    "postal": "P2N5H4",
    "result": []
  },
  {
    "postal": "P2N1K7",
    "result": [
      {
        "electoralDistricts": [
          {
            "election": null,
            "id": 107,
            "name": "Timiskaming—Cochrane"
          }
        ],
        "pollDivisionIds": [
          10142409
        ],
        "postalCode": "P2N1K7",
        "streetName": "GREEN",
        "streetDirectionId": null,
        "streetTypeId": "AVE",
        "placeName": "KIRKLAND LAKE",
        "streetNameDisplayText": "GREEN AVE, KIRKLAND LAKE"
      }
    ]
  },
  {
    "postal": "P2N0H0",
    "result": []
  },
  {
    "postal": "P2N0J3",
    "result": []
  },
  {
    "postal": "P2N1X6",
    "result": [
      {
        "electoralDistricts": [
          {
            "election": null,
            "id": 107,
            "name": "Timiskaming—Cochrane"
          }
        ],
        "pollDivisionIds": [
          10142409
        ],
        "postalCode": "P2N1X6",
        "streetName": "DUNCAN",
        "streetDirectionId": "N",
        "streetTypeId": "AVE",
        "placeName": "KIRKLAND LAKE",
        "streetNameDisplayText": "DUNCAN AVE N, KIRKLAND LAKE"
      },
      {
        "electoralDistricts": [
          {
            "election": null,
            "id": 107,
            "name": "Timiskaming—Cochrane"
          }
        ],
        "pollDivisionIds": [
          10142411
        ],
        "postalCode": "P2N1X6",
        "streetName": "DUNCAN",
        "streetDirectionId": "S",
        "streetTypeId": "AVE",
        "placeName": "KIRKLAND LAKE",
        "streetNameDisplayText": "DUNCAN AVE S, KIRKLAND LAKE"
      }
    ]
  },
  {
    "postal": "P2N2Z6",
    "result": [
      {
        "electoralDistricts": [
          {
            "election": null,
            "id": 107,
            "name": "Timiskaming—Cochrane"
          }
        ],
        "pollDivisionIds": [
          10142410
        ],
        "postalCode": "P2N2Z6",
        "streetName": "LEBEL",
        "streetDirectionId": null,
        "streetTypeId": "AVE",
        "placeName": "KIRKLAND LAKE",
        "streetNameDisplayText": "LEBEL AVE, KIRKLAND LAKE"
      }
    ]
  },
  {
    "postal": "P2N4R9",
    "result": []
  },
  {
    "postal": "P2N0W8",
    "result": []
  },
  {
    "postal": "P2N1L4",
    "result": [
      {
        "electoralDistricts": [
          {
            "election": null,
            "id": 107,
            "name": "Timiskaming—Cochrane"
          }
        ],
        "pollDivisionIds": [
          10142409
        ],
        "postalCode": "P2N1L4",
        "streetName": "BROWN",
        "streetDirectionId": null,
        "streetTypeId": "AVE",
        "placeName": "KIRKLAND LAKE",
        "streetNameDisplayText": "BROWN AVE, KIRKLAND LAKE"
      }
    ]
  },
  {
    "postal": "P2N0C8",
    "result": []
  },
  {
    "postal": "P2N9X7",
    "result": []
  },
  {
    "postal": "P2N4T1",
    "result": []
  },
  {
    "postal": "P2N0M0",
    "result": []
  },
  {
    "postal": "P2N6A2",
    "result": []
  },
  {
    "postal": "P2N9S8",
    "result": []
  },
  {
    "postal": "P2N9T4",
    "result": []
  },
  {
    "postal": "P2N9Y4",
    "result": []
  },
  {
    "postal": "P2N6G5",
    "result": []
  },
  {
    "postal": "P2N6H9",
    "result": []
  },
  {
    "postal": "P2N2P3",
    "result": [
      {
        "electoralDistricts": [
          {
            "election": null,
            "id": 107,
            "name": "Timiskaming—Cochrane"
          }
        ],
        "pollDivisionIds": [
          10142410
        ],
        "postalCode": "P2N2P3",
        "streetName": "KING",
        "streetDirectionId": null,
        "streetTypeId": "ST",
        "placeName": "KIRKLAND LAKE",
        "streetNameDisplayText": "KING ST, KIRKLAND LAKE"
      }
    ]
  },
  {
    "postal": "P2N1T6",
    "result": [
      {
        "electoralDistricts": [
          {
            "election": null,
            "id": 107,
            "name": "Timiskaming—Cochrane"
          }
        ],
        "pollDivisionIds": [
          10142411
        ],
        "postalCode": "P2N1T6",
        "streetName": "FIFTH",
        "streetDirectionId": null,
        "streetTypeId": "ST",
        "placeName": "KIRKLAND LAKE",
        "streetNameDisplayText": "FIFTH ST, KIRKLAND LAKE"
      }
    ]
  },
  {
    "postal": "P2N4P6",
    "result": []
  },
  {
    "postal": "P2N3K1",
    "result": [
      {
        "electoralDistricts": [
          {
            "election": null,
            "id": 107,
            "name": "Timiskaming—Cochrane"
          }
        ],
        "pollDivisionIds": [
          10142415
        ],
        "postalCode": "P2N3K1",
        "streetName": "112",
        "streetDirectionId": null,
        "streetTypeId": "HWY",
        "placeName": "KIRKLAND LAKE",
        "streetNameDisplayText": "112 HWY, KIRKLAND LAKE"
      },
      {
        "electoralDistricts": [
          {
            "election": null,
            "id": 107,
            "name": "Timiskaming—Cochrane"
          }
        ],
        "pollDivisionIds": [
          10142409
        ],
        "postalCode": "P2N3K1",
        "streetName": "BERNHARDT",
        "streetDirectionId": null,
        "streetTypeId": "DR",
        "placeName": "KIRKLAND LAKE",
        "streetNameDisplayText": "BERNHARDT DR, KIRKLAND LAKE"
      },
      {
        "electoralDistricts": [
          {
            "election": null,
            "id": 107,
            "name": "Timiskaming—Cochrane"
          }
        ],
        "pollDivisionIds": [
          10142411
        ],
        "postalCode": "P2N3K1",
        "streetName": "CONROY",
        "streetDirectionId": null,
        "streetTypeId": "AVE",
        "placeName": "KIRKLAND LAKE",
        "streetNameDisplayText": "CONROY AVE, KIRKLAND LAKE"
      },
      {
        "electoralDistricts": [
          {
            "election": null,
            "id": 107,
            "name": "Timiskaming—Cochrane"
          }
        ],
        "pollDivisionIds": [
          10142409
        ],
        "postalCode": "P2N3K1",
        "streetName": "HARVEY",
        "streetDirectionId": null,
        "streetTypeId": "DR",
        "placeName": "KIRKLAND LAKE",
        "streetNameDisplayText": "HARVEY DR, KIRKLAND LAKE"
      },
      {
        "electoralDistricts": [
          {
            "election": null,
            "id": 107,
            "name": "Timiskaming—Cochrane"
          }
        ],
        "pollDivisionIds": [
          10142412
        ],
        "postalCode": "P2N3K1",
        "streetName": "HARVEY KIRKLAND",
        "streetDirectionId": null,
        "streetTypeId": "RD",
        "placeName": "KIRKLAND LAKE",
        "streetNameDisplayText": "HARVEY KIRKLAND RD, KIRKLAND LAKE"
      },
      {
        "electoralDistricts": [
          {
            "election": null,
            "id": 107,
            "name": "Timiskaming—Cochrane"
          }
        ],
        "pollDivisionIds": [
          10142409
        ],
        "postalCode": "P2N3K1",
        "streetName": "HARVEY",
        "streetDirectionId": null,
        "streetTypeId": "RD",
        "placeName": "KIRKLAND LAKE",
        "streetNameDisplayText": "HARVEY RD, KIRKLAND LAKE"
      },
      {
        "electoralDistricts": [
          {
            "election": null,
            "id": 107,
            "name": "Timiskaming—Cochrane"
          }
        ],
        "pollDivisionIds": [
          10142411
        ],
        "postalCode": "P2N3K1",
        "streetName": "ST. PETERS",
        "streetDirectionId": null,
        "streetTypeId": "LANE",
        "placeName": "KIRKLAND LAKE",
        "streetNameDisplayText": "ST. PETERS LANE, KIRKLAND LAKE"
      },
      {
        "electoralDistricts": [
          {
            "election": null,
            "id": 107,
            "name": "Timiskaming—Cochrane"
          }
        ],
        "pollDivisionIds": [
          10142411
        ],
        "postalCode": "P2N3K1",
        "streetName": "TOBURN PROP",
        "streetDirectionId": null,
        "streetTypeId": null,
        "placeName": "KIRKLAND LAKE",
        "streetNameDisplayText": "TOBURN PROP, KIRKLAND LAKE"
      }
    ]
  },
  {
    "postal": "P2N6X4",
    "result": []
  },
  {
    "postal": "P2N4M8",
    "result": []
  },
  {
    "postal": "P2N2Y1",
    "result": [
      {
        "electoralDistricts": [
          {
            "election": null,
            "id": 107,
            "name": "Timiskaming—Cochrane"
          }
        ],
        "pollDivisionIds": [
          10142411
        ],
        "postalCode": "P2N2Y1",
        "streetName": "BARON",
        "streetDirectionId": null,
        "streetTypeId": "ST",
        "placeName": "KIRKLAND LAKE",
        "streetNameDisplayText": "BARON ST, KIRKLAND LAKE"
      }
    ]
  },
  {
    "postal": "P2N6M1",
    "result": []
  },
  {
    "postal": "P2N5L8",
    "result": []
  },
  {
    "postal": "P2N3P6",
    "result": [
      {
        "electoralDistricts": [
          {
            "election": null,
            "id": 107,
            "name": "Timiskaming—Cochrane"
          }
        ],
        "pollDivisionIds": [
          10142411
        ],
        "postalCode": "P2N3P6",
        "streetName": "FIFTH",
        "streetDirectionId": null,
        "streetTypeId": "ST",
        "placeName": "KIRKLAND LAKE",
        "streetNameDisplayText": "FIFTH ST, KIRKLAND LAKE"
      }
    ]
  },
  {
    "postal": "P2N9A5",
    "result": []
  },
  {
    "postal": "P2N7K1",
    "result": []
  },
  {
    "postal": "P2N3J4",
    "result": []
  },
  {
    "postal": "P2N5E7",
    "result": []
  },
  {
    "postal": "P2N3A7",
    "result": [
      {
        "electoralDistricts": [
          {
            "election": null,
            "id": 107,
            "name": "Timiskaming—Cochrane"
          }
        ],
        "pollDivisionIds": [
          10142410
        ],
        "postalCode": "P2N3A7",
        "streetName": "PARK",
        "streetDirectionId": null,
        "streetTypeId": "ST",
        "placeName": "KIRKLAND LAKE",
        "streetNameDisplayText": "PARK ST, KIRKLAND LAKE"
      }
    ]
  },
  {
    "postal": "P2N1B9",
    "result": [
      {
        "electoralDistricts": [
          {
            "election": null,
            "id": 107,
            "name": "Timiskaming—Cochrane"
          }
        ],
        "pollDivisionIds": [
          10142409
        ],
        "postalCode": "P2N1B9",
        "streetName": "MACPHERSON",
        "streetDirectionId": null,
        "streetTypeId": "AVE",
        "placeName": "KIRKLAND LAKE",
        "streetNameDisplayText": "MACPHERSON AVE, KIRKLAND LAKE"
      }
    ]
  },
  {
    "postal": "P2N9E8",
    "result": []
  },
  {
    "postal": "P2N1C9",
    "result": [
      {
        "electoralDistricts": [
          {
            "election": null,
            "id": 107,
            "name": "Timiskaming—Cochrane"
          }
        ],
        "pollDivisionIds": [
          10142409
        ],
        "postalCode": "P2N1C9",
        "streetName": "GRIERSON",
        "streetDirectionId": null,
        "streetTypeId": "RD",
        "placeName": "KIRKLAND LAKE",
        "streetNameDisplayText": "GRIERSON RD, KIRKLAND LAKE"
      }
    ]
  },
  {
    "postal": "P2N3B5",
    "result": [
      {
        "electoralDistricts": [
          {
            "election": null,
            "id": 107,
            "name": "Timiskaming—Cochrane"
          }
        ],
        "pollDivisionIds": [
          10142411
        ],
        "postalCode": "P2N3B5",
        "streetName": "HARVEY KIRKLAND",
        "streetDirectionId": null,
        "streetTypeId": "RD",
        "placeName": "KIRKLAND LAKE",
        "streetNameDisplayText": "HARVEY KIRKLAND RD, KIRKLAND LAKE"
      },
      {
        "electoralDistricts": [
          {
            "election": null,
            "id": 107,
            "name": "Timiskaming—Cochrane"
          }
        ],
        "pollDivisionIds": [
          10142409
        ],
        "postalCode": "P2N3B5",
        "streetName": "WOOD",
        "streetDirectionId": null,
        "streetTypeId": "ST",
        "placeName": "KIRKLAND LAKE",
        "streetNameDisplayText": "WOOD ST, KIRKLAND LAKE"
      },
      {
        "electoralDistricts": [
          {
            "election": null,
            "id": 107,
            "name": "Timiskaming—Cochrane"
          }
        ],
        "pollDivisionIds": [
          10142409
        ],
        "postalCode": "P2N3B5",
        "streetName": "WOODS",
        "streetDirectionId": null,
        "streetTypeId": "ST",
        "placeName": "KIRKLAND LAKE",
        "streetNameDisplayText": "WOODS ST, KIRKLAND LAKE"
      }
    ]
  },
  {
    "postal": "P2N8R0",
    "result": []
  },
  {
    "postal": "P2N3P2",
    "result": [
      {
        "electoralDistricts": [
          {
            "election": null,
            "id": 107,
            "name": "Timiskaming—Cochrane"
          }
        ],
        "pollDivisionIds": [
          10142415
        ],
        "postalCode": "P2N3P2",
        "streetName": "112",
        "streetDirectionId": null,
        "streetTypeId": "HWY",
        "placeName": "KIRKLAND LAKE",
        "streetNameDisplayText": "112 HWY, KIRKLAND LAKE"
      },
      {
        "electoralDistricts": [
          {
            "election": null,
            "id": 107,
            "name": "Timiskaming—Cochrane"
          }
        ],
        "pollDivisionIds": [
          10142409
        ],
        "postalCode": "P2N3P2",
        "streetName": "AIRPORT",
        "streetDirectionId": null,
        "streetTypeId": "RD",
        "placeName": "KIRKLAND LAKE",
        "streetNameDisplayText": "AIRPORT RD, KIRKLAND LAKE"
      },
      {
        "electoralDistricts": [
          {
            "election": null,
            "id": 107,
            "name": "Timiskaming—Cochrane"
          }
        ],
        "pollDivisionIds": [
          10142409
        ],
        "postalCode": "P2N3P2",
        "streetName": "BERNHARDT",
        "streetDirectionId": null,
        "streetTypeId": "DR",
        "placeName": "KIRKLAND LAKE",
        "streetNameDisplayText": "BERNHARDT DR, KIRKLAND LAKE"
      },
      {
        "electoralDistricts": [
          {
            "election": null,
            "id": 107,
            "name": "Timiskaming—Cochrane"
          }
        ],
        "pollDivisionIds": [
          10142409
        ],
        "postalCode": "P2N3P2",
        "streetName": "PINETREE",
        "streetDirectionId": null,
        "streetTypeId": "RD",
        "placeName": "KIRKLAND LAKE",
        "streetNameDisplayText": "PINETREE RD, KIRKLAND LAKE"
      },
      {
        "electoralDistricts": [
          {
            "election": null,
            "id": 107,
            "name": "Timiskaming—Cochrane"
          }
        ],
        "pollDivisionIds": [
          10142412
        ],
        "postalCode": "P2N3P2",
        "streetName": "RIVERSIDE",
        "streetDirectionId": null,
        "streetTypeId": "DR",
        "placeName": "KIRKLAND LAKE",
        "streetNameDisplayText": "RIVERSIDE DR, KIRKLAND LAKE"
      }
    ]
  },
  {
    "postal": "P2N5V4",
    "result": []
  },
  {
    "postal": "P2N4H0",
    "result": []
  },
  {
    "postal": "P2N4S7",
    "result": []
  },
  {
    "postal": "P2N6C2",
    "result": []
  },
  {
    "postal": "P2N8W3",
    "result": []
  },
  {
    "postal": "P2N4M5",
    "result": []
  },
  {
    "postal": "P2N5T1",
    "result": []
  },
  {
    "postal": "P2N3B3",
    "result": [
      {
        "electoralDistricts": [
          {
            "election": null,
            "id": 107,
            "name": "Timiskaming—Cochrane"
          }
        ],
        "pollDivisionIds": [
          10142411
        ],
        "postalCode": "P2N3B3",
        "streetName": "COMFORT",
        "streetDirectionId": null,
        "streetTypeId": "ST",
        "placeName": "KIRKLAND LAKE",
        "streetNameDisplayText": "COMFORT ST, KIRKLAND LAKE"
      }
    ]
  },
  {
    "postal": "P2N6C6",
    "result": []
  },
  {
    "postal": "P2N7N8",
    "result": []
  },
  {
    "postal": "P2N2Y3",
    "result": []
  },
  {
    "postal": "P2N2R6",
    "result": [
      {
        "electoralDistricts": [
          {
            "election": null,
            "id": 107,
            "name": "Timiskaming—Cochrane"
          }
        ],
        "pollDivisionIds": [
          10142410
        ],
        "postalCode": "P2N2R6",
        "streetName": "QUEEN",
        "streetDirectionId": null,
        "streetTypeId": "ST",
        "placeName": "KIRKLAND LAKE",
        "streetNameDisplayText": "QUEEN ST, KIRKLAND LAKE"
      }
    ]
  },
  {
    "postal": "P2N7N3",
    "result": []
  },
  {
    "postal": "P2N8J2",
    "result": []
  },
  {
    "postal": "P2N6A9",
    "result": []
  },
  {
    "postal": "P2N3V2",
    "result": []
  },
  {
    "postal": "P2N2N3",
    "result": [
      {
        "electoralDistricts": [
          {
            "election": null,
            "id": 107,
            "name": "Timiskaming—Cochrane"
          }
        ],
        "pollDivisionIds": [
          10142410
        ],
        "postalCode": "P2N2N3",
        "streetName": "POPLAR",
        "streetDirectionId": null,
        "streetTypeId": "AVE",
        "placeName": "KIRKLAND LAKE",
        "streetNameDisplayText": "POPLAR AVE, KIRKLAND LAKE"
      }
    ]
  },
  {
    "postal": "P2N1S5",
    "result": [
      {
        "electoralDistricts": [
          {
            "election": null,
            "id": 107,
            "name": "Timiskaming—Cochrane"
          }
        ],
        "pollDivisionIds": [
          10142411
        ],
        "postalCode": "P2N1S5",
        "streetName": "THIRD",
        "streetDirectionId": null,
        "streetTypeId": "ST",
        "placeName": "KIRKLAND LAKE",
        "streetNameDisplayText": "THIRD ST, KIRKLAND LAKE"
      }
    ]
  },
  {
    "postal": "P2N4T7",
    "result": []
  },
  {
    "postal": "P2N6Y7",
    "result": []
  },
  {
    "postal": "P2N0W7",
    "result": []
  },
  {
    "postal": "P2N2W9",
    "result": [
      {
        "electoralDistricts": [
          {
            "election": null,
            "id": 107,
            "name": "Timiskaming—Cochrane"
          }
        ],
        "pollDivisionIds": [
          10142411
        ],
        "postalCode": "P2N2W9",
        "streetName": "PROSPECT",
        "streetDirectionId": null,
        "streetTypeId": "AVE",
        "placeName": "KIRKLAND LAKE",
        "streetNameDisplayText": "PROSPECT AVE, KIRKLAND LAKE"
      }
    ]
  },
  {
    "postal": "P2N8V0",
    "result": []
  },
  {
    "postal": "P2N0H4",
    "result": []
  },
  {
    "postal": "P2N2T1",
    "result": [
      {
        "electoralDistricts": [
          {
            "election": null,
            "id": 107,
            "name": "Timiskaming—Cochrane"
          }
        ],
        "pollDivisionIds": [
          10142411
        ],
        "postalCode": "P2N2T1",
        "streetName": "RAND",
        "streetDirectionId": "W",
        "streetTypeId": "AVE",
        "placeName": "KIRKLAND LAKE",
        "streetNameDisplayText": "RAND AVE W, KIRKLAND LAKE"
      }
    ]
  },
  {
    "postal": "P2N1B1",
    "result": [
      {
        "electoralDistricts": [
          {
            "election": null,
            "id": 107,
            "name": "Timiskaming—Cochrane"
          }
        ],
        "pollDivisionIds": [
          10142409
        ],
        "postalCode": "P2N1B1",
        "streetName": "WRIGHT HARGREAVES A",
        "streetDirectionId": null,
        "streetTypeId": "AVE",
        "placeName": "KIRKLAND LAKE",
        "streetNameDisplayText": "WRIGHT HARGREAVES A AVE, KIRKLAND LAKE"
      },
      {
        "electoralDistricts": [
          {
            "election": null,
            "id": 107,
            "name": "Timiskaming—Cochrane"
          }
        ],
        "pollDivisionIds": [
          10142409
        ],
        "postalCode": "P2N1B1",
        "streetName": "WRIGHT HARGREAVES",
        "streetDirectionId": null,
        "streetTypeId": "AVE",
        "placeName": "KIRKLAND LAKE",
        "streetNameDisplayText": "WRIGHT HARGREAVES AVE, KIRKLAND LAKE"
      }
    ]
  },
  {
    "postal": "P2N8B6",
    "result": []
  },
  {
    "postal": "P2N6H1",
    "result": []
  },
  {
    "postal": "P2N8T8",
    "result": []
  },
  {
    "postal": "P2N0T4",
    "result": []
  },
  {
    "postal": "P2N2C4",
    "result": [
      {
        "electoralDistricts": [
          {
            "election": null,
            "id": 107,
            "name": "Timiskaming—Cochrane"
          }
        ],
        "pollDivisionIds": [
          10142411
        ],
        "postalCode": "P2N2C4",
        "streetName": "ALLEN",
        "streetDirectionId": null,
        "streetTypeId": "AVE",
        "placeName": "KIRKLAND LAKE",
        "streetNameDisplayText": "ALLEN AVE, KIRKLAND LAKE"
      }
    ]
  },
  {
    "postal": "P2N8N3",
    "result": []
  },
  {
    "postal": "P2N4L8",
    "result": []
  },
  {
    "postal": "P2N2B5",
    "result": [
      {
        "electoralDistricts": [
          {
            "election": null,
            "id": 107,
            "name": "Timiskaming—Cochrane"
          }
        ],
        "pollDivisionIds": [
          10142411
        ],
        "postalCode": "P2N2B5",
        "streetName": "ALLEN",
        "streetDirectionId": null,
        "streetTypeId": "AVE",
        "placeName": "KIRKLAND LAKE",
        "streetNameDisplayText": "ALLEN AVE, KIRKLAND LAKE"
      }
    ]
  },
  {
    "postal": "P2N3H1",
    "result": []
  },
  {
    "postal": "P2N4Y1",
    "result": []
  },
  {
    "postal": "P2N7E2",
    "result": []
  },
  {
    "postal": "P2N2P5",
    "result": [
      {
        "electoralDistricts": [
          {
            "election": null,
            "id": 107,
            "name": "Timiskaming—Cochrane"
          }
        ],
        "pollDivisionIds": [
          10142410
        ],
        "postalCode": "P2N2P5",
        "streetName": "KING",
        "streetDirectionId": null,
        "streetTypeId": "ST",
        "placeName": "KIRKLAND LAKE",
        "streetNameDisplayText": "KING ST, KIRKLAND LAKE"
      }
    ]
  },
  {
    "postal": "P2N8R7",
    "result": []
  },
  {
    "postal": "P2N9P1",
    "result": []
  },
  {
    "postal": "P2N3B8",
    "result": [
      {
        "electoralDistricts": [
          {
            "election": null,
            "id": 107,
            "name": "Timiskaming—Cochrane"
          }
        ],
        "pollDivisionIds": [
          10142409
        ],
        "postalCode": "P2N3B8",
        "streetName": "WOODS",
        "streetDirectionId": null,
        "streetTypeId": "ST",
        "placeName": "KIRKLAND LAKE",
        "streetNameDisplayText": "WOODS ST, KIRKLAND LAKE"
      }
    ]
  },
  {
    "postal": "P2N3P7",
    "result": [
      {
        "electoralDistricts": [
          {
            "election": null,
            "id": 107,
            "name": "Timiskaming—Cochrane"
          }
        ],
        "pollDivisionIds": [
          10142411
        ],
        "postalCode": "P2N3P7",
        "streetName": "FIFTH",
        "streetDirectionId": null,
        "streetTypeId": "ST",
        "placeName": "KIRKLAND LAKE",
        "streetNameDisplayText": "FIFTH ST, KIRKLAND LAKE"
      }
    ]
  },
  {
    "postal": "P2N9B2",
    "result": []
  },
  {
    "postal": "P2N6Z3",
    "result": []
  },
  {
    "postal": "P2N4N5",
    "result": []
  },
  {
    "postal": "P2N8T3",
    "result": []
  },
  {
    "postal": "P2N1V2",
    "result": [
      {
        "electoralDistricts": [
          {
            "election": null,
            "id": 107,
            "name": "Timiskaming—Cochrane"
          }
        ],
        "pollDivisionIds": [
          10142411
        ],
        "postalCode": "P2N1V2",
        "streetName": "BROOKBANK",
        "streetDirectionId": null,
        "streetTypeId": "AVE",
        "placeName": "KIRKLAND LAKE",
        "streetNameDisplayText": "BROOKBANK AVE, KIRKLAND LAKE"
      }
    ]
  },
  {
    "postal": "P2N1Y0",
    "result": []
  },
  {
    "postal": "P2N3G6",
    "result": []
  },
  {
    "postal": "P2N3H7",
    "result": [
      {
        "electoralDistricts": [
          {
            "election": null,
            "id": 107,
            "name": "Timiskaming—Cochrane"
          }
        ],
        "pollDivisionIds": [
          10142415
        ],
        "postalCode": "P2N3H7",
        "streetName": "11",
        "streetDirectionId": null,
        "streetTypeId": "HWY",
        "placeName": "KIRKLAND LAKE",
        "streetNameDisplayText": "11 HWY, KIRKLAND LAKE"
      },
      {
        "electoralDistricts": [
          {
            "election": null,
            "id": 107,
            "name": "Timiskaming—Cochrane"
          }
        ],
        "pollDivisionIds": [
          10142413
        ],
        "postalCode": "P2N3H7",
        "streetName": "ARNOLD TWP",
        "streetDirectionId": null,
        "streetTypeId": null,
        "placeName": "LARDER LAKE",
        "streetNameDisplayText": "ARNOLD TWP, LARDER LAKE"
      },
      {
        "electoralDistricts": [
          {
            "election": null,
            "id": 107,
            "name": "Timiskaming—Cochrane"
          }
        ],
        "pollDivisionIds": [
          10142409
        ],
        "postalCode": "P2N3H7",
        "streetName": "BERNHARDT",
        "streetDirectionId": null,
        "streetTypeId": "DR",
        "placeName": "KIRKLAND LAKE",
        "streetNameDisplayText": "BERNHARDT DR, KIRKLAND LAKE"
      },
      {
        "electoralDistricts": [
          {
            "election": null,
            "id": 107,
            "name": "Timiskaming—Cochrane"
          }
        ],
        "pollDivisionIds": [
          10142409
        ],
        "postalCode": "P2N3H7",
        "streetName": "CHATEAU",
        "streetDirectionId": null,
        "streetTypeId": "DR",
        "placeName": "KIRKLAND LAKE",
        "streetNameDisplayText": "CHATEAU DR, KIRKLAND LAKE"
      },
      {
        "electoralDistricts": [
          {
            "election": null,
            "id": 107,
            "name": "Timiskaming—Cochrane"
          }
        ],
        "pollDivisionIds": [
          10142409
        ],
        "postalCode": "P2N3H7",
        "streetName": "DELOYE",
        "streetDirectionId": null,
        "streetTypeId": "CRES",
        "placeName": "KIRKLAND LAKE",
        "streetNameDisplayText": "DELOYE CRES, KIRKLAND LAKE"
      },
      {
        "electoralDistricts": [
          {
            "election": null,
            "id": 107,
            "name": "Timiskaming—Cochrane"
          }
        ],
        "pollDivisionIds": [
          10142409
        ],
        "postalCode": "P2N3H7",
        "streetName": "DUNCAN",
        "streetDirectionId": "N",
        "streetTypeId": "AVE",
        "placeName": "KIRKLAND LAKE",
        "streetNameDisplayText": "DUNCAN AVE N, KIRKLAND LAKE"
      },
      {
        "electoralDistricts": [
          {
            "election": null,
            "id": 107,
            "name": "Timiskaming—Cochrane"
          }
        ],
        "pollDivisionIds": [
          10142409
        ],
        "postalCode": "P2N3H7",
        "streetName": "GOODFISH",
        "streetDirectionId": null,
        "streetTypeId": "RD",
        "placeName": "KIRKLAND LAKE",
        "streetNameDisplayText": "GOODFISH RD, KIRKLAND LAKE"
      },
      {
        "electoralDistricts": [
          {
            "election": null,
            "id": 107,
            "name": "Timiskaming—Cochrane"
          }
        ],
        "pollDivisionIds": [
          10142411
        ],
        "postalCode": "P2N3H7",
        "streetName": "HARVEY KIRKLAND",
        "streetDirectionId": null,
        "streetTypeId": "RD",
        "placeName": "KIRKLAND LAKE",
        "streetNameDisplayText": "HARVEY KIRKLAND RD, KIRKLAND LAKE"
      },
      {
        "electoralDistricts": [
          {
            "election": null,
            "id": 107,
            "name": "Timiskaming—Cochrane"
          }
        ],
        "pollDivisionIds": [
          10142409
        ],
        "postalCode": "P2N3H7",
        "streetName": "HARVEY",
        "streetDirectionId": null,
        "streetTypeId": "RD",
        "placeName": "KIRKLAND LAKE",
        "streetNameDisplayText": "HARVEY RD, KIRKLAND LAKE"
      },
      {
        "electoralDistricts": [
          {
            "election": null,
            "id": 107,
            "name": "Timiskaming—Cochrane"
          }
        ],
        "pollDivisionIds": [
          10142410
        ],
        "postalCode": "P2N3H7",
        "streetName": "INDUSTRIAL",
        "streetDirectionId": null,
        "streetTypeId": "DR",
        "placeName": "KIRKLAND LAKE",
        "streetNameDisplayText": "INDUSTRIAL DR, KIRKLAND LAKE"
      },
      {
        "electoralDistricts": [
          {
            "election": null,
            "id": 107,
            "name": "Timiskaming—Cochrane"
          }
        ],
        "pollDivisionIds": [
          10142409
        ],
        "postalCode": "P2N3H7",
        "streetName": "NETTIE LAKE",
        "streetDirectionId": null,
        "streetTypeId": "RD",
        "placeName": "KIRKLAND LAKE",
        "streetNameDisplayText": "NETTIE LAKE RD, KIRKLAND LAKE"
      },
      {
        "electoralDistricts": [
          {
            "election": null,
            "id": 107,
            "name": "Timiskaming—Cochrane"
          }
        ],
        "pollDivisionIds": [
          10142409
        ],
        "postalCode": "P2N3H7",
        "streetName": "PINETREE",
        "streetDirectionId": null,
        "streetTypeId": "RD",
        "placeName": "KIRKLAND LAKE",
        "streetNameDisplayText": "PINETREE RD, KIRKLAND LAKE"
      },
      {
        "electoralDistricts": [
          {
            "election": null,
            "id": 107,
            "name": "Timiskaming—Cochrane"
          }
        ],
        "pollDivisionIds": [
          10142409
        ],
        "postalCode": "P2N3H7",
        "streetName": "SUMMERHAYES",
        "streetDirectionId": null,
        "streetTypeId": "AVE",
        "placeName": "KIRKLAND LAKE",
        "streetNameDisplayText": "SUMMERHAYES AVE, KIRKLAND LAKE"
      }
    ]
  },
  {
    "postal": "P2N7X8",
    "result": []
  },
  {
    "postal": "P2N0C7",
    "result": []
  },
  {
    "postal": "P2N0W9",
    "result": []
  },
  {
    "postal": "P2N8E6",
    "result": []
  },
  {
    "postal": "P2N9Z8",
    "result": []
  },
  {
    "postal": "P2N3P4",
    "result": []
  },
  {
    "postal": "P2N6L8",
    "result": []
  },
  {
    "postal": "P2N2R4",
    "result": [
      {
        "electoralDistricts": [
          {
            "election": null,
            "id": 107,
            "name": "Timiskaming—Cochrane"
          }
        ],
        "pollDivisionIds": [
          10142411
        ],
        "postalCode": "P2N2R4",
        "streetName": "QUEEN",
        "streetDirectionId": null,
        "streetTypeId": "ST",
        "placeName": "KIRKLAND LAKE",
        "streetNameDisplayText": "QUEEN ST, KIRKLAND LAKE"
      }
    ]
  },
  {
    "postal": "P2N2W1",
    "result": [
      {
        "electoralDistricts": [
          {
            "election": null,
            "id": 107,
            "name": "Timiskaming—Cochrane"
          }
        ],
        "pollDivisionIds": [
          10142410
        ],
        "postalCode": "P2N2W1",
        "streetName": "PROSPECT",
        "streetDirectionId": null,
        "streetTypeId": "AVE",
        "placeName": "KIRKLAND LAKE",
        "streetNameDisplayText": "PROSPECT AVE, KIRKLAND LAKE"
      }
    ]
  },
  {
    "postal": "P2N9H8",
    "result": []
  },
  {
    "postal": "P2N8X9",
    "result": []
  },
  {
    "postal": "P2N7H4",
    "result": []
  },
  {
    "postal": "P2N3J1",
    "result": [
      {
        "electoralDistricts": [
          {
            "election": null,
            "id": 107,
            "name": "Timiskaming—Cochrane"
          }
        ],
        "pollDivisionIds": [
          10142409
        ],
        "postalCode": "P2N3J1",
        "streetName": "AIRPORT",
        "streetDirectionId": null,
        "streetTypeId": "RD",
        "placeName": "KIRKLAND LAKE",
        "streetNameDisplayText": "AIRPORT RD, KIRKLAND LAKE"
      },
      {
        "electoralDistricts": [
          {
            "election": null,
            "id": 107,
            "name": "Timiskaming—Cochrane"
          }
        ],
        "pollDivisionIds": [
          10142409,
          10142401
        ],
        "postalCode": "P2N3J1",
        "streetName": "BERNHARDT",
        "streetDirectionId": null,
        "streetTypeId": "DR",
        "placeName": "KIRKLAND LAKE",
        "streetNameDisplayText": "BERNHARDT DR, KIRKLAND LAKE"
      },
      {
        "electoralDistricts": [
          {
            "election": null,
            "id": 107,
            "name": "Timiskaming—Cochrane"
          }
        ],
        "pollDivisionIds": [
          10142409
        ],
        "postalCode": "P2N3J1",
        "streetName": "BLOMFIELD",
        "streetDirectionId": null,
        "streetTypeId": "RD",
        "placeName": "KIRKLAND LAKE",
        "streetNameDisplayText": "BLOMFIELD RD, KIRKLAND LAKE"
      },
      {
        "electoralDistricts": [
          {
            "election": null,
            "id": 107,
            "name": "Timiskaming—Cochrane"
          }
        ],
        "pollDivisionIds": [
          10142412
        ],
        "postalCode": "P2N3J1",
        "streetName": "MAIN",
        "streetDirectionId": null,
        "streetTypeId": "ST",
        "placeName": "KING KIRKLAND",
        "streetNameDisplayText": "MAIN ST, KING KIRKLAND"
      },
      {
        "electoralDistricts": [
          {
            "election": null,
            "id": 107,
            "name": "Timiskaming—Cochrane"
          }
        ],
        "pollDivisionIds": [
          10142409
        ],
        "postalCode": "P2N3J1",
        "streetName": "NIPISSING",
        "streetDirectionId": null,
        "streetTypeId": "LANE",
        "placeName": "KIRKLAND LAKE",
        "streetNameDisplayText": "NIPISSING LANE, KIRKLAND LAKE"
      },
      {
        "electoralDistricts": [
          {
            "election": null,
            "id": 107,
            "name": "Timiskaming—Cochrane"
          }
        ],
        "pollDivisionIds": [
          10142409
        ],
        "postalCode": "P2N3J1",
        "streetName": "PINETREE",
        "streetDirectionId": null,
        "streetTypeId": "RD",
        "placeName": "KIRKLAND LAKE",
        "streetNameDisplayText": "PINETREE RD, KIRKLAND LAKE"
      },
      {
        "electoralDistricts": [
          {
            "election": null,
            "id": 107,
            "name": "Timiskaming—Cochrane"
          }
        ],
        "pollDivisionIds": [
          10142409
        ],
        "postalCode": "P2N3J1",
        "streetName": "RIVERSIDE",
        "streetDirectionId": null,
        "streetTypeId": "ST",
        "placeName": "SWASTIKA",
        "streetNameDisplayText": "RIVERSIDE ST, SWASTIKA"
      },
      {
        "electoralDistricts": [
          {
            "election": null,
            "id": 107,
            "name": "Timiskaming—Cochrane"
          }
        ],
        "pollDivisionIds": [
          10142409
        ],
        "postalCode": "P2N3J1",
        "streetName": "STATION",
        "streetDirectionId": "N",
        "streetTypeId": "RD",
        "placeName": "KIRKLAND LAKE",
        "streetNameDisplayText": "STATION RD N, KIRKLAND LAKE"
      },
      {
        "electoralDistricts": [
          {
            "election": null,
            "id": 107,
            "name": "Timiskaming—Cochrane"
          }
        ],
        "pollDivisionIds": [
          10142409
        ],
        "postalCode": "P2N3J1",
        "streetName": "STATION",
        "streetDirectionId": null,
        "streetTypeId": "RD",
        "placeName": "KIRKLAND LAKE",
        "streetNameDisplayText": "STATION RD, KIRKLAND LAKE"
      }
    ]
  },
  {
    "postal": "P2N1P4",
    "result": [
      {
        "electoralDistricts": [
          {
            "election": null,
            "id": 107,
            "name": "Timiskaming—Cochrane"
          }
        ],
        "pollDivisionIds": [
          10142411
        ],
        "postalCode": "P2N1P4",
        "streetName": "TOWER",
        "streetDirectionId": null,
        "streetTypeId": "ST",
        "placeName": "KIRKLAND LAKE",
        "streetNameDisplayText": "TOWER ST, KIRKLAND LAKE"
      }
    ]
  },
  {
    "postal": "P2N2A3",
    "result": [
      {
        "electoralDistricts": [
          {
            "election": null,
            "id": 107,
            "name": "Timiskaming—Cochrane"
          }
        ],
        "pollDivisionIds": [
          10142411
        ],
        "postalCode": "P2N2A3",
        "streetName": "CARTER",
        "streetDirectionId": null,
        "streetTypeId": "AVE",
        "placeName": "KIRKLAND LAKE",
        "streetNameDisplayText": "CARTER AVE, KIRKLAND LAKE"
      }
    ]
  },
  {
    "postal": "P2N0Z1",
    "result": []
  },
  {
    "postal": "P2N1C1",
    "result": [
      {
        "electoralDistricts": [
          {
            "election": null,
            "id": 107,
            "name": "Timiskaming—Cochrane"
          }
        ],
        "pollDivisionIds": [
          10142409
        ],
        "postalCode": "P2N1C1",
        "streetName": "ALGONQUIN",
        "streetDirectionId": null,
        "streetTypeId": "AVE",
        "placeName": "KIRKLAND LAKE",
        "streetNameDisplayText": "ALGONQUIN AVE, KIRKLAND LAKE"
      }
    ]
  },
  {
    "postal": "P2N0H3",
    "result": []
  },
  {
    "postal": "P2N7B0",
    "result": []
  },
  {
    "postal": "P2N5K2",
    "result": []
  },
  {
    "postal": "P2N1E9",
    "result": [
      {
        "electoralDistricts": [
          {
            "election": null,
            "id": 107,
            "name": "Timiskaming—Cochrane"
          }
        ],
        "pollDivisionIds": [
          10142409
        ],
        "postalCode": "P2N1E9",
        "streetName": "FEDERAL",
        "streetDirectionId": null,
        "streetTypeId": "ST",
        "placeName": "KIRKLAND LAKE",
        "streetNameDisplayText": "FEDERAL ST, KIRKLAND LAKE"
      }
    ]
  },
  {
    "postal": "P2N9W7",
    "result": []
  },
  {
    "postal": "P2N5W6",
    "result": []
  },
  {
    "postal": "P2N6S6",
    "result": []
  },
  {
    "postal": "P2N2P8",
    "result": []
  },
  {
    "postal": "P2N4P8",
    "result": []
  },
  {
    "postal": "P2N0V9",
    "result": []
  },
  {
    "postal": "P2N5Y2",
    "result": []
  },
  {
    "postal": "P2N7Z7",
    "result": []
  },
  {
    "postal": "P2N6Y8",
    "result": []
  },
  {
    "postal": "P2N2G7",
    "result": []
  },
  {
    "postal": "P2N8C1",
    "result": []
  },
  {
    "postal": "P2N5C5",
    "result": []
  },
  {
    "postal": "P2N2X8",
    "result": [
      {
        "electoralDistricts": [
          {
            "election": null,
            "id": 107,
            "name": "Timiskaming—Cochrane"
          }
        ],
        "pollDivisionIds": [
          10142411
        ],
        "postalCode": "P2N2X8",
        "streetName": "EARL",
        "streetDirectionId": null,
        "streetTypeId": "ST",
        "placeName": "KIRKLAND LAKE",
        "streetNameDisplayText": "EARL ST, KIRKLAND LAKE"
      }
    ]
  },
  {
    "postal": "P2N1W5",
    "result": [
      {
        "electoralDistricts": [
          {
            "election": null,
            "id": 107,
            "name": "Timiskaming—Cochrane"
          }
        ],
        "pollDivisionIds": [
          10142411
        ],
        "postalCode": "P2N1W5",
        "streetName": "DIXON",
        "streetDirectionId": null,
        "streetTypeId": "AVE",
        "placeName": "KIRKLAND LAKE",
        "streetNameDisplayText": "DIXON AVE, KIRKLAND LAKE"
      }
    ]
  },
  {
    "postal": "P2N7G0",
    "result": []
  },
  {
    "postal": "P2N8J8",
    "result": []
  },
  {
    "postal": "P2N3Y0",
    "result": []
  },
  {
    "postal": "P2N9T7",
    "result": []
  },
  {
    "postal": "P2N5P4",
    "result": []
  },
  {
    "postal": "P2N4B0",
    "result": []
  },
  {
    "postal": "P2N9N8",
    "result": []
  },
  {
    "postal": "P2N4A7",
    "result": []
  },
  {
    "postal": "P2N4H9",
    "result": []
  },
  {
    "postal": "P2N6X1",
    "result": []
  },
  {
    "postal": "P2N9Y7",
    "result": []
  },
  {
    "postal": "P2N2Y5",
    "result": [
      {
        "electoralDistricts": [
          {
            "election": null,
            "id": 107,
            "name": "Timiskaming—Cochrane"
          }
        ],
        "pollDivisionIds": [
          10142409
        ],
        "postalCode": "P2N2Y5",
        "streetName": "LEBEL",
        "streetDirectionId": null,
        "streetTypeId": "AVE",
        "placeName": "KIRKLAND LAKE",
        "streetNameDisplayText": "LEBEL AVE, KIRKLAND LAKE"
      }
    ]
  },
  {
    "postal": "P2N8L7",
    "result": []
  },
  {
    "postal": "P2N2A8",
    "result": [
      {
        "electoralDistricts": [
          {
            "election": null,
            "id": 107,
            "name": "Timiskaming—Cochrane"
          }
        ],
        "pollDivisionIds": [
          10142411
        ],
        "postalCode": "P2N2A8",
        "streetName": "YOUNG",
        "streetDirectionId": null,
        "streetTypeId": "AVE",
        "placeName": "KIRKLAND LAKE",
        "streetNameDisplayText": "YOUNG AVE, KIRKLAND LAKE"
      }
    ]
  },
  {
    "postal": "P2N2K9",
    "result": [
      {
        "electoralDistricts": [
          {
            "election": null,
            "id": 107,
            "name": "Timiskaming—Cochrane"
          }
        ],
        "pollDivisionIds": [
          10142410
        ],
        "postalCode": "P2N2K9",
        "streetName": "TAYLOR",
        "streetDirectionId": null,
        "streetTypeId": "AVE",
        "placeName": "KIRKLAND LAKE",
        "streetNameDisplayText": "TAYLOR AVE, KIRKLAND LAKE"
      }
    ]
  },
  {
    "postal": "P2N3E5",
    "result": [
      {
        "electoralDistricts": [
          {
            "election": null,
            "id": 107,
            "name": "Timiskaming—Cochrane"
          }
        ],
        "pollDivisionIds": [
          10142410
        ],
        "postalCode": "P2N3E5",
        "streetName": "MAIN",
        "streetDirectionId": null,
        "streetTypeId": "ST",
        "placeName": "KIRKLAND LAKE",
        "streetNameDisplayText": "MAIN ST, KIRKLAND LAKE"
      }
    ]
  },
  {
    "postal": "P2N8N6",
    "result": []
  },
  {
    "postal": "P2N8J4",
    "result": []
  },
  {
    "postal": "P2N4R7",
    "result": []
  },
  {
    "postal": "P2N9K1",
    "result": []
  },
  {
    "postal": "P2N8E1",
    "result": []
  },
  {
    "postal": "P2N0R1",
    "result": []
  },
  {
    "postal": "P2N4J3",
    "result": []
  },
  {
    "postal": "P2N7E7",
    "result": []
  },
  {
    "postal": "P2N0J0",
    "result": []
  },
  {
    "postal": "P2N7R8",
    "result": []
  },
  {
    "postal": "P2N9X0",
    "result": []
  },
  {
    "postal": "P2N7P6",
    "result": []
  },
  {
    "postal": "P2N0R7",
    "result": []
  },
  {
    "postal": "P2N5W1",
    "result": []
  },
  {
    "postal": "P2N0K4",
    "result": []
  },
  {
    "postal": "P2N7N9",
    "result": []
  },
  {
    "postal": "P2N1N0",
    "result": []
  },
  {
    "postal": "P2N6P3",
    "result": []
  },
  {
    "postal": "P2N5A1",
    "result": []
  },
  {
    "postal": "P2N9M9",
    "result": []
  },
  {
    "postal": "P2N7T6",
    "result": []
  },
  {
    "postal": "P2N3X0",
    "result": []
  },
  {
    "postal": "P2N2T0",
    "result": []
  },
  {
    "postal": "P2N5X9",
    "result": []
  },
  {
    "postal": "P2N2R3",
    "result": [
      {
        "electoralDistricts": [
          {
            "election": null,
            "id": 107,
            "name": "Timiskaming—Cochrane"
          }
        ],
        "pollDivisionIds": [
          10142410
        ],
        "postalCode": "P2N2R3",
        "streetName": "QUEEN",
        "streetDirectionId": null,
        "streetTypeId": "ST",
        "placeName": "KIRKLAND LAKE",
        "streetNameDisplayText": "QUEEN ST, KIRKLAND LAKE"
      }
    ]
  },
  {
    "postal": "P2N5N2",
    "result": []
  },
  {
    "postal": "P2N4Y7",
    "result": []
  },
  {
    "postal": "P2N7M0",
    "result": []
  },
  {
    "postal": "P2N8P3",
    "result": []
  },
  {
    "postal": "P2N3N3",
    "result": [
      {
        "electoralDistricts": [
          {
            "election": null,
            "id": 107,
            "name": "Timiskaming—Cochrane"
          }
        ],
        "pollDivisionIds": [
          10142409
        ],
        "postalCode": "P2N3N3",
        "streetName": "HARDING",
        "streetDirectionId": null,
        "streetTypeId": "AVE",
        "placeName": "KIRKLAND LAKE",
        "streetNameDisplayText": "HARDING AVE, KIRKLAND LAKE"
      }
    ]
  },
  {
    "postal": "P2N7S3",
    "result": []
  },
  {
    "postal": "P2N3V9",
    "result": []
  },
  {
    "postal": "P2N9N7",
    "result": []
  },
  {
    "postal": "P2N0G4",
    "result": []
  },
  {
    "postal": "P2N2E2",
    "result": [
      {
        "electoralDistricts": [
          {
            "election": null,
            "id": 107,
            "name": "Timiskaming—Cochrane"
          }
        ],
        "pollDivisionIds": [
          10142409
        ],
        "postalCode": "P2N2E2",
        "streetName": "GOVERNMENT",
        "streetDirectionId": "E",
        "streetTypeId": "RD",
        "placeName": "KIRKLAND LAKE",
        "streetNameDisplayText": "GOVERNMENT RD E, KIRKLAND LAKE"
      },
      {
        "electoralDistricts": [
          {
            "election": null,
            "id": 107,
            "name": "Timiskaming—Cochrane"
          }
        ],
        "pollDivisionIds": [
          10142409
        ],
        "postalCode": "P2N2E2",
        "streetName": "GOVERNMENT",
        "streetDirectionId": "W",
        "streetTypeId": "RD",
        "placeName": "KIRKLAND LAKE",
        "streetNameDisplayText": "GOVERNMENT RD W, KIRKLAND LAKE"
      }
    ]
  },
  {
    "postal": "P2N7W8",
    "result": []
  },
  {
    "postal": "P2N7M5",
    "result": []
  },
  {
    "postal": "P2N5W8",
    "result": []
  },
  {
    "postal": "P2N5E5",
    "result": []
  },
  {
    "postal": "P2N1P9",
    "result": [
      {
        "electoralDistricts": [
          {
            "election": null,
            "id": 107,
            "name": "Timiskaming—Cochrane"
          }
        ],
        "pollDivisionIds": [
          10142411
        ],
        "postalCode": "P2N1P9",
        "streetName": "TOWER",
        "streetDirectionId": null,
        "streetTypeId": "ST",
        "placeName": "KIRKLAND LAKE",
        "streetNameDisplayText": "TOWER ST, KIRKLAND LAKE"
      }
    ]
  },
  {
    "postal": "P2N8V8",
    "result": []
  },
  {
    "postal": "P2N9G8",
    "result": []
  },
  {
    "postal": "P2N8H9",
    "result": []
  },
  {
    "postal": "P2N1Z1",
    "result": [
      {
        "electoralDistricts": [
          {
            "election": null,
            "id": 107,
            "name": "Timiskaming—Cochrane"
          }
        ],
        "pollDivisionIds": [
          10142411
        ],
        "postalCode": "P2N1Z1",
        "streetName": "POLLOCK",
        "streetDirectionId": null,
        "streetTypeId": "ST",
        "placeName": "KIRKLAND LAKE",
        "streetNameDisplayText": "POLLOCK ST, KIRKLAND LAKE"
      }
    ]
  },
  {
    "postal": "P2N8M3",
    "result": []
  },
  {
    "postal": "P2N5H6",
    "result": []
  },
  {
    "postal": "P2N7W7",
    "result": []
  },
  {
    "postal": "P2N4L0",
    "result": []
  },
  {
    "postal": "P2N2N1",
    "result": [
      {
        "electoralDistricts": [
          {
            "election": null,
            "id": 107,
            "name": "Timiskaming—Cochrane"
          }
        ],
        "pollDivisionIds": [
          10142410
        ],
        "postalCode": "P2N2N1",
        "streetName": "POPLAR",
        "streetDirectionId": null,
        "streetTypeId": "AVE",
        "placeName": "KIRKLAND LAKE",
        "streetNameDisplayText": "POPLAR AVE, KIRKLAND LAKE"
      }
    ]
  },
  {
    "postal": "P2N2H4",
    "result": [
      {
        "electoralDistricts": [
          {
            "election": null,
            "id": 107,
            "name": "Timiskaming—Cochrane"
          }
        ],
        "pollDivisionIds": [
          10142410
        ],
        "postalCode": "P2N2H4",
        "streetName": "SECOND",
        "streetDirectionId": "W",
        "streetTypeId": "ST",
        "placeName": "KIRKLAND LAKE",
        "streetNameDisplayText": "SECOND ST W, KIRKLAND LAKE"
      }
    ]
  },
  {
    "postal": "P2N5C8",
    "result": []
  },
  {
    "postal": "P2N8B0",
    "result": []
  },
  {
    "postal": "P2N1T4",
    "result": [
      {
        "electoralDistricts": [
          {
            "election": null,
            "id": 107,
            "name": "Timiskaming—Cochrane"
          }
        ],
        "pollDivisionIds": [
          10142411
        ],
        "postalCode": "P2N1T4",
        "streetName": "4TH",
        "streetDirectionId": null,
        "streetTypeId": "ST",
        "placeName": "KIRKLAND LAKE",
        "streetNameDisplayText": "4TH ST, KIRKLAND LAKE"
      },
      {
        "electoralDistricts": [
          {
            "election": null,
            "id": 107,
            "name": "Timiskaming—Cochrane"
          }
        ],
        "pollDivisionIds": [
          10142411
        ],
        "postalCode": "P2N1T4",
        "streetName": "FOURTH",
        "streetDirectionId": null,
        "streetTypeId": "ST",
        "placeName": "KIRKLAND LAKE",
        "streetNameDisplayText": "FOURTH ST, KIRKLAND LAKE"
      }
    ]
  },
  {
    "postal": "P2N7N7",
    "result": []
  },
  {
    "postal": "P2N4L3",
    "result": []
  },
  {
    "postal": "P2N2N2",
    "result": [
      {
        "electoralDistricts": [
          {
            "election": null,
            "id": 107,
            "name": "Timiskaming—Cochrane"
          }
        ],
        "pollDivisionIds": [
          10142410
        ],
        "postalCode": "P2N2N2",
        "streetName": "POPLAR",
        "streetDirectionId": null,
        "streetTypeId": "AVE",
        "placeName": "KIRKLAND LAKE",
        "streetNameDisplayText": "POPLAR AVE, KIRKLAND LAKE"
      }
    ]
  },
  {
    "postal": "P2N4N8",
    "result": []
  },
  {
    "postal": "P2N3M5",
    "result": [
      {
        "electoralDistricts": [
          {
            "election": null,
            "id": 107,
            "name": "Timiskaming—Cochrane"
          }
        ],
        "pollDivisionIds": [
          10142409
        ],
        "postalCode": "P2N3M5",
        "streetName": "HILLCREST",
        "streetDirectionId": null,
        "streetTypeId": "DR",
        "placeName": "KIRKLAND LAKE",
        "streetNameDisplayText": "HILLCREST DR, KIRKLAND LAKE"
      }
    ]
  },
  {
    "postal": "P2N6H7",
    "result": []
  },
  {
    "postal": "P2N8Y8",
    "result": []
  },
  {
    "postal": "P2N5R9",
    "result": []
  },
  {
    "postal": "P2N8G3",
    "result": []
  },
  {
    "postal": "P2N4N7",
    "result": []
  },
  {
    "postal": "P2N0B9",
    "result": []
  },
  {
    "postal": "P2N9K7",
    "result": []
  },
  {
    "postal": "P2N9K9",
    "result": []
  },
  {
    "postal": "P2N3Z2",
    "result": []
  },
  {
    "postal": "P2N6W7",
    "result": []
  },
  {
    "postal": "P2N0P1",
    "result": []
  },
  {
    "postal": "P2N3A0",
    "result": []
  },
  {
    "postal": "P2N8L9",
    "result": []
  },
  {
    "postal": "P2N6X0",
    "result": []
  },
  {
    "postal": "P2N3E9",
    "result": [
      {
        "electoralDistricts": [
          {
            "election": null,
            "id": 107,
            "name": "Timiskaming—Cochrane"
          }
        ],
        "pollDivisionIds": [
          10142410
        ],
        "postalCode": "P2N3E9",
        "streetName": "MAIN",
        "streetDirectionId": null,
        "streetTypeId": "ST",
        "placeName": "KIRKLAND LAKE",
        "streetNameDisplayText": "MAIN ST, KIRKLAND LAKE"
      }
    ]
  },
  {
    "postal": "P2N0S5",
    "result": []
  },
  {
    "postal": "P2N1A2",
    "result": [
      {
        "electoralDistricts": [
          {
            "election": null,
            "id": 107,
            "name": "Timiskaming—Cochrane"
          }
        ],
        "pollDivisionIds": [
          10142409
        ],
        "postalCode": "P2N1A2",
        "streetName": "GOVERNMENT",
        "streetDirectionId": "E",
        "streetTypeId": "RD",
        "placeName": "KIRKLAND LAKE",
        "streetNameDisplayText": "GOVERNMENT RD E, KIRKLAND LAKE"
      }
    ]
  },
  {
    "postal": "P2N5V8",
    "result": []
  },
  {
    "postal": "P2N8C5",
    "result": []
  },
  {
    "postal": "P2N6N0",
    "result": []
  },
  {
    "postal": "P2N9E6",
    "result": []
  },
  {
    "postal": "P2N5J7",
    "result": []
  },
  {
    "postal": "P2N2R2",
    "result": [
      {
        "electoralDistricts": [
          {
            "election": null,
            "id": 107,
            "name": "Timiskaming—Cochrane"
          }
        ],
        "pollDivisionIds": [
          10142410
        ],
        "postalCode": "P2N2R2",
        "streetName": "QUEEN",
        "streetDirectionId": null,
        "streetTypeId": "ST",
        "placeName": "KIRKLAND LAKE",
        "streetNameDisplayText": "QUEEN ST, KIRKLAND LAKE"
      }
    ]
  },
  {
    "postal": "P2N0P5",
    "result": []
  },
  {
    "postal": "P2N5A7",
    "result": []
  },
  {
    "postal": "P2N1G1",
    "result": [
      {
        "electoralDistricts": [
          {
            "election": null,
            "id": 107,
            "name": "Timiskaming—Cochrane"
          }
        ],
        "pollDivisionIds": [
          10142409
        ],
        "postalCode": "P2N1G1",
        "streetName": "FEDERAL",
        "streetDirectionId": null,
        "streetTypeId": "ST",
        "placeName": "KIRKLAND LAKE",
        "streetNameDisplayText": "FEDERAL ST, KIRKLAND LAKE"
      }
    ]
  },
  {
    "postal": "P2N9R6",
    "result": []
  },
  {
    "postal": "P2N4Z9",
    "result": []
  },
  {
    "postal": "P2N1V5",
    "result": [
      {
        "electoralDistricts": [
          {
            "election": null,
            "id": 107,
            "name": "Timiskaming—Cochrane"
          }
        ],
        "pollDivisionIds": [
          10142411
        ],
        "postalCode": "P2N1V5",
        "streetName": "BROOKBANK",
        "streetDirectionId": null,
        "streetTypeId": "AVE",
        "placeName": "KIRKLAND LAKE",
        "streetNameDisplayText": "BROOKBANK AVE, KIRKLAND LAKE"
      }
    ]
  },
  {
    "postal": "P2N9Y5",
    "result": []
  },
  {
    "postal": "P2N1P2",
    "result": [
      {
        "electoralDistricts": [
          {
            "election": null,
            "id": 107,
            "name": "Timiskaming—Cochrane"
          }
        ],
        "pollDivisionIds": [
          10142411
        ],
        "postalCode": "P2N1P2",
        "streetName": "TOWER",
        "streetDirectionId": null,
        "streetTypeId": "ST",
        "placeName": "KIRKLAND LAKE",
        "streetNameDisplayText": "TOWER ST, KIRKLAND LAKE"
      }
    ]
  },
  {
    "postal": "P2N5X0",
    "result": []
  },
  {
    "postal": "P2N7B8",
    "result": []
  },
  {
    "postal": "P2N0C6",
    "result": []
  },
  {
    "postal": "P2N6G1",
    "result": []
  },
  {
    "postal": "P2N3K3",
    "result": []
  },
  {
    "postal": "P2N9R0",
    "result": []
  },
  {
    "postal": "P2N4R8",
    "result": []
  },
  {
    "postal": "P2N5P9",
    "result": []
  },
  {
    "postal": "P2N8N4",
    "result": []
  },
  {
    "postal": "P2N8H4",
    "result": []
  },
  {
    "postal": "P2N4V1",
    "result": []
  },
  {
    "postal": "P2N1K5",
    "result": [
      {
        "electoralDistricts": [
          {
            "election": null,
            "id": 107,
            "name": "Timiskaming—Cochrane"
          }
        ],
        "pollDivisionIds": [
          10142409
        ],
        "postalCode": "P2N1K5",
        "streetName": "DAY",
        "streetDirectionId": null,
        "streetTypeId": "AVE",
        "placeName": "KIRKLAND LAKE",
        "streetNameDisplayText": "DAY AVE, KIRKLAND LAKE"
      }
    ]
  },
  {
    "postal": "P2N1Z5",
    "result": [
      {
        "electoralDistricts": [
          {
            "election": null,
            "id": 107,
            "name": "Timiskaming—Cochrane"
          }
        ],
        "pollDivisionIds": [
          10142411
        ],
        "postalCode": "P2N1Z5",
        "streetName": "POLLOCK",
        "streetDirectionId": null,
        "streetTypeId": "ST",
        "placeName": "KIRKLAND LAKE",
        "streetNameDisplayText": "POLLOCK ST, KIRKLAND LAKE"
      }
    ]
  },
  {
    "postal": "P2N9L9",
    "result": []
  },
  {
    "postal": "P2N5L2",
    "result": []
  },
  {
    "postal": "P2N0M2",
    "result": []
  },
  {
    "postal": "P2N1K8",
    "result": [
      {
        "electoralDistricts": [
          {
            "election": null,
            "id": 107,
            "name": "Timiskaming—Cochrane"
          }
        ],
        "pollDivisionIds": [
          10142409
        ],
        "postalCode": "P2N1K8",
        "streetName": "GREEN",
        "streetDirectionId": null,
        "streetTypeId": "AVE",
        "placeName": "KIRKLAND LAKE",
        "streetNameDisplayText": "GREEN AVE, KIRKLAND LAKE"
      }
    ]
  },
  {
    "postal": "P2N3M7",
    "result": [
      {
        "electoralDistricts": [
          {
            "election": null,
            "id": 107,
            "name": "Timiskaming—Cochrane"
          }
        ],
        "pollDivisionIds": [
          10142409
        ],
        "postalCode": "P2N3M7",
        "streetName": "BERNHARDT",
        "streetDirectionId": null,
        "streetTypeId": "DR",
        "placeName": "KIRKLAND LAKE",
        "streetNameDisplayText": "BERNHARDT DR, KIRKLAND LAKE"
      },
      {
        "electoralDistricts": [
          {
            "election": null,
            "id": 107,
            "name": "Timiskaming—Cochrane"
          }
        ],
        "pollDivisionIds": [
          10142409
        ],
        "postalCode": "P2N3M7",
        "streetName": "GOODFISH",
        "streetDirectionId": null,
        "streetTypeId": "RD",
        "placeName": "KIRKLAND LAKE",
        "streetNameDisplayText": "GOODFISH RD, KIRKLAND LAKE"
      }
    ]
  },
  {
    "postal": "P2N1B2",
    "result": [
      {
        "electoralDistricts": [
          {
            "election": null,
            "id": 107,
            "name": "Timiskaming—Cochrane"
          }
        ],
        "pollDivisionIds": [
          10142409
        ],
        "postalCode": "P2N1B2",
        "streetName": "WRIGHT HARGREAVES",
        "streetDirectionId": null,
        "streetTypeId": "AVE",
        "placeName": "KIRKLAND LAKE",
        "streetNameDisplayText": "WRIGHT HARGREAVES AVE, KIRKLAND LAKE"
      },
      {
        "electoralDistricts": [
          {
            "election": null,
            "id": 107,
            "name": "Timiskaming—Cochrane"
          }
        ],
        "pollDivisionIds": [
          10142411
        ],
        "postalCode": "P2N1B2",
        "streetName": "YOUNG",
        "streetDirectionId": null,
        "streetTypeId": "AVE",
        "placeName": "KIRKLAND LAKE",
        "streetNameDisplayText": "YOUNG AVE, KIRKLAND LAKE"
      }
    ]
  },
  {
    "postal": "P2N0H9",
    "result": []
  },
  {
    "postal": "P2N8M4",
    "result": []
  },
  {
    "postal": "P2N2M5",
    "result": [
      {
        "electoralDistricts": [
          {
            "election": null,
            "id": 107,
            "name": "Timiskaming—Cochrane"
          }
        ],
        "pollDivisionIds": [
          10142411
        ],
        "postalCode": "P2N2M5",
        "streetName": "POPLAR",
        "streetDirectionId": null,
        "streetTypeId": "AVE",
        "placeName": "KIRKLAND LAKE",
        "streetNameDisplayText": "POPLAR AVE, KIRKLAND LAKE"
      }
    ]
  },
  {
    "postal": "P2N0T9",
    "result": []
  },
  {
    "postal": "P2N3P1",
    "result": []
  },
  {
    "postal": "P2N1R6",
    "result": [
      {
        "electoralDistricts": [
          {
            "election": null,
            "id": 107,
            "name": "Timiskaming—Cochrane"
          }
        ],
        "pollDivisionIds": [
          10142411
        ],
        "postalCode": "P2N1R6",
        "streetName": "SECOND",
        "streetDirectionId": "E",
        "streetTypeId": "ST",
        "placeName": "KIRKLAND LAKE",
        "streetNameDisplayText": "SECOND ST E, KIRKLAND LAKE"
      }
    ]
  },
  {
    "postal": "P2N9V5",
    "result": []
  },
  {
    "postal": "P2N9T0",
    "result": []
  },
  {
    "postal": "P2N0A9",
    "result": []
  },
  {
    "postal": "P2N1M3",
    "result": [
      {
        "electoralDistricts": [
          {
            "election": null,
            "id": 107,
            "name": "Timiskaming—Cochrane"
          }
        ],
        "pollDivisionIds": [
          10142409
        ],
        "postalCode": "P2N1M3",
        "streetName": "SUMMERSET",
        "streetDirectionId": null,
        "streetTypeId": "AVE",
        "placeName": "KIRKLAND LAKE",
        "streetNameDisplayText": "SUMMERSET AVE, KIRKLAND LAKE"
      },
      {
        "electoralDistricts": [
          {
            "election": null,
            "id": 107,
            "name": "Timiskaming—Cochrane"
          }
        ],
        "pollDivisionIds": [
          10142409
        ],
        "postalCode": "P2N1M3",
        "streetName": "SUMMERSET",
        "streetDirectionId": null,
        "streetTypeId": "DR",
        "placeName": "KIRKLAND LAKE",
        "streetNameDisplayText": "SUMMERSET DR, KIRKLAND LAKE"
      }
    ]
  },
  {
    "postal": "P2N1W8",
    "result": [
      {
        "electoralDistricts": [
          {
            "election": null,
            "id": 107,
            "name": "Timiskaming—Cochrane"
          }
        ],
        "pollDivisionIds": [
          10142409
        ],
        "postalCode": "P2N1W8",
        "streetName": "KIRKLAND",
        "streetDirectionId": null,
        "streetTypeId": "AVE",
        "placeName": "SWASTIKA",
        "streetNameDisplayText": "KIRKLAND AVE, SWASTIKA"
      },
      {
        "electoralDistricts": [
          {
            "election": null,
            "id": 107,
            "name": "Timiskaming—Cochrane"
          }
        ],
        "pollDivisionIds": [
          10142411
        ],
        "postalCode": "P2N1W8",
        "streetName": "PREMIER",
        "streetDirectionId": "E",
        "streetTypeId": "AVE",
        "placeName": "KIRKLAND LAKE",
        "streetNameDisplayText": "PREMIER AVE E, KIRKLAND LAKE"
      }
    ]
  },
  {
    "postal": "P2N9J1",
    "result": []
  },
  {
    "postal": "P2N8N5",
    "result": []
  },
  {
    "postal": "P2N5X1",
    "result": []
  },
  {
    "postal": "P2N6S2",
    "result": []
  },
  {
    "postal": "P2N2A2",
    "result": [
      {
        "electoralDistricts": [
          {
            "election": null,
            "id": 107,
            "name": "Timiskaming—Cochrane"
          }
        ],
        "pollDivisionIds": [
          10142411
        ],
        "postalCode": "P2N2A2",
        "streetName": "CARTER",
        "streetDirectionId": null,
        "streetTypeId": "AVE",
        "placeName": "KIRKLAND LAKE",
        "streetNameDisplayText": "CARTER AVE, KIRKLAND LAKE"
      }
    ]
  },
  {
    "postal": "P2N6A6",
    "result": []
  },
  {
    "postal": "P2N0S3",
    "result": []
  },
  {
    "postal": "P2N3E7",
    "result": [
      {
        "electoralDistricts": [
          {
            "election": null,
            "id": 107,
            "name": "Timiskaming—Cochrane"
          }
        ],
        "pollDivisionIds": [
          10142410
        ],
        "postalCode": "P2N3E7",
        "streetName": "MAIN",
        "streetDirectionId": null,
        "streetTypeId": "ST",
        "placeName": "KIRKLAND LAKE",
        "streetNameDisplayText": "MAIN ST, KIRKLAND LAKE"
      }
    ]
  },
  {
    "postal": "P2N5R7",
    "result": []
  },
  {
    "postal": "P2N3R6",
    "result": [
      {
        "electoralDistricts": [
          {
            "election": null,
            "id": 107,
            "name": "Timiskaming—Cochrane"
          }
        ],
        "pollDivisionIds": [
          10142411
        ],
        "postalCode": "P2N3R6",
        "streetName": "CALBECK",
        "streetDirectionId": null,
        "streetTypeId": "AVE",
        "placeName": "KIRKLAND LAKE",
        "streetNameDisplayText": "CALBECK AVE, KIRKLAND LAKE"
      },
      {
        "electoralDistricts": [
          {
            "election": null,
            "id": 107,
            "name": "Timiskaming—Cochrane"
          }
        ],
        "pollDivisionIds": [
          10142411
        ],
        "postalCode": "P2N3R6",
        "streetName": "CALBECK",
        "streetDirectionId": null,
        "streetTypeId": "ST",
        "placeName": "KIRKLAND LAKE",
        "streetNameDisplayText": "CALBECK ST, KIRKLAND LAKE"
      }
    ]
  },
  {
    "postal": "P2N6K4",
    "result": []
  },
  {
    "postal": "P2N2W5",
    "result": [
      {
        "electoralDistricts": [
          {
            "election": null,
            "id": 107,
            "name": "Timiskaming—Cochrane"
          }
        ],
        "pollDivisionIds": [
          10142411
        ],
        "postalCode": "P2N2W5",
        "streetName": "PROSPECT",
        "streetDirectionId": null,
        "streetTypeId": "AVE",
        "placeName": "KIRKLAND LAKE",
        "streetNameDisplayText": "PROSPECT AVE, KIRKLAND LAKE"
      }
    ]
  },
  {
    "postal": "P2N8W4",
    "result": []
  },
  {
    "postal": "P2N9C2",
    "result": []
  },
  {
    "postal": "P2N2C0",
    "result": []
  },
  {
    "postal": "P2N0E1",
    "result": []
  },
  {
    "postal": "P2N1K9",
    "result": [
      {
        "electoralDistricts": [
          {
            "election": null,
            "id": 107,
            "name": "Timiskaming—Cochrane"
          }
        ],
        "pollDivisionIds": [
          10142409
        ],
        "postalCode": "P2N1K9",
        "streetName": "GREEN",
        "streetDirectionId": null,
        "streetTypeId": "AVE",
        "placeName": "KIRKLAND LAKE",
        "streetNameDisplayText": "GREEN AVE, KIRKLAND LAKE"
      }
    ]
  },
  {
    "postal": "P2N1G7",
    "result": [
      {
        "electoralDistricts": [
          {
            "election": null,
            "id": 107,
            "name": "Timiskaming—Cochrane"
          }
        ],
        "pollDivisionIds": [
          10142409
        ],
        "postalCode": "P2N1G7",
        "streetName": "WISHMAN",
        "streetDirectionId": null,
        "streetTypeId": "ST",
        "placeName": "KIRKLAND LAKE",
        "streetNameDisplayText": "WISHMAN ST, KIRKLAND LAKE"
      }
    ]
  },
  {
    "postal": "P2N4E9",
    "result": []
  },
  {
    "postal": "P2N9P0",
    "result": []
  },
  {
    "postal": "P2N5H3",
    "result": []
  },
  {
    "postal": "P2N9X6",
    "result": []
  },
  {
    "postal": "P2N5N7",
    "result": []
  },
  {
    "postal": "P2N5A6",
    "result": []
  },
  {
    "postal": "P2N4M0",
    "result": []
  },
  {
    "postal": "P2N3V6",
    "result": []
  },
  {
    "postal": "P2N1L7",
    "result": [
      {
        "electoralDistricts": [
          {
            "election": null,
            "id": 107,
            "name": "Timiskaming—Cochrane"
          }
        ],
        "pollDivisionIds": [
          10142409
        ],
        "postalCode": "P2N1L7",
        "streetName": "FOSS",
        "streetDirectionId": null,
        "streetTypeId": "RD",
        "placeName": "KIRKLAND LAKE",
        "streetNameDisplayText": "FOSS RD, KIRKLAND LAKE"
      }
    ]
  },
  {
    "postal": "P2N2P9",
    "result": [
      {
        "electoralDistricts": [
          {
            "election": null,
            "id": 107,
            "name": "Timiskaming—Cochrane"
          }
        ],
        "pollDivisionIds": [
          10142411
        ],
        "postalCode": "P2N2P9",
        "streetName": "QUEEN",
        "streetDirectionId": null,
        "streetTypeId": "ST",
        "placeName": "KIRKLAND LAKE",
        "streetNameDisplayText": "QUEEN ST, KIRKLAND LAKE"
      }
    ]
  },
  {
    "postal": "P2N5T4",
    "result": []
  },
  {
    "postal": "P2N5Z1",
    "result": []
  },
  {
    "postal": "P2N2X0",
    "result": []
  },
  {
    "postal": "P2N6Z2",
    "result": []
  },
  {
    "postal": "P2N0E0",
    "result": []
  },
  {
    "postal": "P2N3Z5",
    "result": []
  },
  {
    "postal": "P2N8H3",
    "result": []
  },
  {
    "postal": "P2N7S6",
    "result": []
  },
  {
    "postal": "P2N4C1",
    "result": []
  },
  {
    "postal": "P2N3K2",
    "result": [
      {
        "electoralDistricts": [
          {
            "election": null,
            "id": 107,
            "name": "Timiskaming—Cochrane"
          }
        ],
        "pollDivisionIds": [
          10142409
        ],
        "postalCode": "P2N3K2",
        "streetName": "KIRKLAND",
        "streetDirectionId": "E",
        "streetTypeId": "ST",
        "placeName": "KIRKLAND LAKE",
        "streetNameDisplayText": "KIRKLAND ST E, KIRKLAND LAKE"
      },
      {
        "electoralDistricts": [
          {
            "election": null,
            "id": 107,
            "name": "Timiskaming—Cochrane"
          }
        ],
        "pollDivisionIds": [
          10142409
        ],
        "postalCode": "P2N3K2",
        "streetName": "POLLOCK",
        "streetDirectionId": null,
        "streetTypeId": "AVE",
        "placeName": "KIRKLAND LAKE",
        "streetNameDisplayText": "POLLOCK AVE, KIRKLAND LAKE"
      }
    ]
  },
  {
    "postal": "P2N1Y5",
    "result": [
      {
        "electoralDistricts": [
          {
            "election": null,
            "id": 107,
            "name": "Timiskaming—Cochrane"
          }
        ],
        "pollDivisionIds": [
          10142411
        ],
        "postalCode": "P2N1Y5",
        "streetName": "DUNCAN",
        "streetDirectionId": "S",
        "streetTypeId": "AVE",
        "placeName": "KIRKLAND LAKE",
        "streetNameDisplayText": "DUNCAN AVE S, KIRKLAND LAKE"
      }
    ]
  },
  {
    "postal": "P2N6P6",
    "result": []
  },
  {
    "postal": "P2N3N9",
    "result": [
      {
        "electoralDistricts": [
          {
            "election": null,
            "id": 107,
            "name": "Timiskaming—Cochrane"
          }
        ],
        "pollDivisionIds": [
          10142411
        ],
        "postalCode": "P2N3N9",
        "streetName": "BURNSIDE",
        "streetDirectionId": null,
        "streetTypeId": "DR",
        "placeName": "KIRKLAND LAKE",
        "streetNameDisplayText": "BURNSIDE DR, KIRKLAND LAKE"
      }
    ]
  },
  {
    "postal": "P2N3W2",
    "result": []
  },
  {
    "postal": "P2N6H8",
    "result": []
  },
  {
    "postal": "P2N9T3",
    "result": []
  },
  {
    "postal": "P2N5L9",
    "result": []
  },
  {
    "postal": "P2N7X7",
    "result": []
  },
  {
    "postal": "P2N3J5",
    "result": [
      {
        "electoralDistricts": [
          {
            "election": null,
            "id": 107,
            "name": "Timiskaming—Cochrane"
          }
        ],
        "pollDivisionIds": [
          10142411
        ],
        "postalCode": "P2N3J5",
        "streetName": "BLACK MINE",
        "streetDirectionId": null,
        "streetTypeId": "RD",
        "placeName": "KIRKLAND LAKE",
        "streetNameDisplayText": "BLACK MINE RD, KIRKLAND LAKE"
      },
      {
        "electoralDistricts": [
          {
            "election": null,
            "id": 107,
            "name": "Timiskaming—Cochrane"
          }
        ],
        "pollDivisionIds": [
          10142409
        ],
        "postalCode": "P2N3J5",
        "streetName": "CHILDS",
        "streetDirectionId": null,
        "streetTypeId": "AVE",
        "placeName": "SWASTIKA",
        "streetNameDisplayText": "CHILDS AVE, SWASTIKA"
      },
      {
        "electoralDistricts": [
          {
            "election": null,
            "id": 107,
            "name": "Timiskaming—Cochrane"
          }
        ],
        "pollDivisionIds": [
          10142401
        ],
        "postalCode": "P2N3J5",
        "streetName": "GOVERNMENT  RD W",
        "streetDirectionId": "W",
        "streetTypeId": "RD",
        "placeName": "KIRKLAND LAKE",
        "streetNameDisplayText": "GOVERNMENT  RD W RD W, KIRKLAND LAKE"
      }
    ]
  },
  {
    "postal": "P2N4J5",
    "result": []
  },
  {
    "postal": "P2N6J2",
    "result": []
  },
  {
    "postal": "P2N5V6",
    "result": []
  },
  {
    "postal": "P2N3N2",
    "result": []
  },
  {
    "postal": "P2N3B1",
    "result": [
      {
        "electoralDistricts": [
          {
            "election": null,
            "id": 107,
            "name": "Timiskaming—Cochrane"
          }
        ],
        "pollDivisionIds": [
          10142410
        ],
        "postalCode": "P2N3B1",
        "streetName": "COMFORT",
        "streetDirectionId": null,
        "streetTypeId": "ST",
        "placeName": "KIRKLAND LAKE",
        "streetNameDisplayText": "COMFORT ST, KIRKLAND LAKE"
      }
    ]
  },
  {
    "postal": "P2N8B5",
    "result": []
  },
  {
    "postal": "P2N0K1",
    "result": []
  },
  {
    "postal": "P2N7M7",
    "result": []
  },
  {
    "postal": "P2N2M2",
    "result": [
      {
        "electoralDistricts": [
          {
            "election": null,
            "id": 107,
            "name": "Timiskaming—Cochrane"
          }
        ],
        "pollDivisionIds": [
          10142411
        ],
        "postalCode": "P2N2M2",
        "streetName": "POPLAR",
        "streetDirectionId": null,
        "streetTypeId": "AVE",
        "placeName": "KIRKLAND LAKE",
        "streetNameDisplayText": "POPLAR AVE, KIRKLAND LAKE"
      }
    ]
  },
  {
    "postal": "P2N9N3",
    "result": []
  },
  {
    "postal": "P2N4Y8",
    "result": []
  },
  {
    "postal": "P2N3V7",
    "result": []
  },
  {
    "postal": "P2N8Z1",
    "result": []
  },
  {
    "postal": "P2N7B3",
    "result": []
  },
  {
    "postal": "P2N3A8",
    "result": [
      {
        "electoralDistricts": [
          {
            "election": null,
            "id": 107,
            "name": "Timiskaming—Cochrane"
          }
        ],
        "pollDivisionIds": [
          10142410
        ],
        "postalCode": "P2N3A8",
        "streetName": "COMFORT",
        "streetDirectionId": null,
        "streetTypeId": "ST",
        "placeName": "KIRKLAND LAKE",
        "streetNameDisplayText": "COMFORT ST, KIRKLAND LAKE"
      }
    ]
  },
  {
    "postal": "P2N7V5",
    "result": []
  },
  {
    "postal": "P2N2T2",
    "result": [
      {
        "electoralDistricts": [
          {
            "election": null,
            "id": 107,
            "name": "Timiskaming—Cochrane"
          }
        ],
        "pollDivisionIds": [
          10142411
        ],
        "postalCode": "P2N2T2",
        "streetName": "RAND",
        "streetDirectionId": "W",
        "streetTypeId": "AVE",
        "placeName": "KIRKLAND LAKE",
        "streetNameDisplayText": "RAND AVE W, KIRKLAND LAKE"
      }
    ]
  },
  {
    "postal": "P2N6L3",
    "result": []
  },
  {
    "postal": "P2N0L2",
    "result": []
  },
  {
    "postal": "P2N5Y8",
    "result": []
  },
  {
    "postal": "P2N0B8",
    "result": []
  },
  {
    "postal": "P2N6R5",
    "result": []
  },
  {
    "postal": "P2N8W6",
    "result": []
  },
  {
    "postal": "P2N8G6",
    "result": []
  },
  {
    "postal": "P2N6X3",
    "result": []
  },
  {
    "postal": "P2N7R7",
    "result": []
  },
  {
    "postal": "P2N4B6",
    "result": []
  },
  {
    "postal": "P2N3P9",
    "result": [
      {
        "electoralDistricts": [
          {
            "election": null,
            "id": 107,
            "name": "Timiskaming—Cochrane"
          }
        ],
        "pollDivisionIds": [
          10142411
        ],
        "postalCode": "P2N3P9",
        "streetName": "BURNSIDE",
        "streetDirectionId": null,
        "streetTypeId": "DR",
        "placeName": "KIRKLAND LAKE",
        "streetNameDisplayText": "BURNSIDE DR, KIRKLAND LAKE"
      }
    ]
  },
  {
    "postal": "P2N2T3",
    "result": [
      {
        "electoralDistricts": [
          {
            "election": null,
            "id": 107,
            "name": "Timiskaming—Cochrane"
          }
        ],
        "pollDivisionIds": [
          10142411
        ],
        "postalCode": "P2N2T3",
        "streetName": "112",
        "streetDirectionId": null,
        "streetTypeId": "HWY",
        "placeName": "KIRKLAND LAKE",
        "streetNameDisplayText": "112 HWY, KIRKLAND LAKE"
      },
      {
        "electoralDistricts": [
          {
            "election": null,
            "id": 107,
            "name": "Timiskaming—Cochrane"
          }
        ],
        "pollDivisionIds": [
          10142411
        ],
        "postalCode": "P2N2T3",
        "streetName": "PRINCE",
        "streetDirectionId": null,
        "streetTypeId": "ST",
        "placeName": "KIRKLAND LAKE",
        "streetNameDisplayText": "PRINCE ST, KIRKLAND LAKE"
      }
    ]
  },
  {
    "postal": "P2N1M4",
    "result": [
      {
        "electoralDistricts": [
          {
            "election": null,
            "id": 107,
            "name": "Timiskaming—Cochrane"
          }
        ],
        "pollDivisionIds": [
          10142409
        ],
        "postalCode": "P2N1M4",
        "streetName": "SUMMIT",
        "streetDirectionId": null,
        "streetTypeId": "AVE",
        "placeName": "KIRKLAND LAKE",
        "streetNameDisplayText": "SUMMIT AVE, KIRKLAND LAKE"
      }
    ]
  },
  {
    "postal": "P2N0H1",
    "result": []
  },
  {
    "postal": "P2N9W3",
    "result": []
  },
  {
    "postal": "P2N6P1",
    "result": []
  },
  {
    "postal": "P2N7G2",
    "result": []
  },
  {
    "postal": "P2N4J9",
    "result": []
  },
  {
    "postal": "P2N9E4",
    "result": []
  },
  {
    "postal": "P2N8H0",
    "result": []
  },
  {
    "postal": "P2N4M7",
    "result": []
  },
  {
    "postal": "P2N2G9",
    "result": [
      {
        "electoralDistricts": [
          {
            "election": null,
            "id": 107,
            "name": "Timiskaming—Cochrane"
          }
        ],
        "pollDivisionIds": [
          10142409
        ],
        "postalCode": "P2N2G9",
        "streetName": "KIRKPATRICK",
        "streetDirectionId": null,
        "streetTypeId": "ST",
        "placeName": "KIRKLAND LAKE",
        "streetNameDisplayText": "KIRKPATRICK ST, KIRKLAND LAKE"
      }
    ]
  },
  {
    "postal": "P2N8T2",
    "result": []
  },
  {
    "postal": "P2N7G7",
    "result": []
  },
  {
    "postal": "P2N4Z3",
    "result": []
  },
  {
    "postal": "P2N5B3",
    "result": []
  },
  {
    "postal": "P2N1S7",
    "result": [
      {
        "electoralDistricts": [
          {
            "election": null,
            "id": 107,
            "name": "Timiskaming—Cochrane"
          }
        ],
        "pollDivisionIds": [
          10142411
        ],
        "postalCode": "P2N1S7",
        "streetName": "THIRD",
        "streetDirectionId": null,
        "streetTypeId": "ST",
        "placeName": "KIRKLAND LAKE",
        "streetNameDisplayText": "THIRD ST, KIRKLAND LAKE"
      }
    ]
  },
  {
    "postal": "P2N2N7",
    "result": [
      {
        "electoralDistricts": [
          {
            "election": null,
            "id": 107,
            "name": "Timiskaming—Cochrane"
          }
        ],
        "pollDivisionIds": [
          10142411
        ],
        "postalCode": "P2N2N7",
        "streetName": "ROWAN",
        "streetDirectionId": null,
        "streetTypeId": "AVE",
        "placeName": "KIRKLAND LAKE",
        "streetNameDisplayText": "ROWAN AVE, KIRKLAND LAKE"
      }
    ]
  },
  {
    "postal": "P2N0H8",
    "result": []
  },
  {
    "postal": "P2N7Z4",
    "result": []
  },
  {
    "postal": "P2N7B1",
    "result": []
  },
  {
    "postal": "P2N7P8",
    "result": []
  },
  {
    "postal": "P2N7N0",
    "result": []
  },
  {
    "postal": "P2N3Y5",
    "result": []
  },
  {
    "postal": "P2N6K1",
    "result": []
  },
  {
    "postal": "P2N9X5",
    "result": []
  },
  {
    "postal": "P2N7S5",
    "result": []
  },
  {
    "postal": "P2N0A4",
    "result": []
  },
  {
    "postal": "P2N4T5",
    "result": []
  },
  {
    "postal": "P2N5K1",
    "result": []
  },
  {
    "postal": "P2N0Z9",
    "result": []
  },
  {
    "postal": "P2N7T2",
    "result": []
  },
  {
    "postal": "P2N1L5",
    "result": [
      {
        "electoralDistricts": [
          {
            "election": null,
            "id": 107,
            "name": "Timiskaming—Cochrane"
          }
        ],
        "pollDivisionIds": [
          10142409
        ],
        "postalCode": "P2N1L5",
        "streetName": "BROWN",
        "streetDirectionId": null,
        "streetTypeId": "AVE",
        "placeName": "KIRKLAND LAKE",
        "streetNameDisplayText": "BROWN AVE, KIRKLAND LAKE"
      }
    ]
  },
  {
    "postal": "P2N3N5",
    "result": [
      {
        "electoralDistricts": [
          {
            "election": null,
            "id": 107,
            "name": "Timiskaming—Cochrane"
          }
        ],
        "pollDivisionIds": [
          10142409
        ],
        "postalCode": "P2N3N5",
        "streetName": "ATKINS",
        "streetDirectionId": null,
        "streetTypeId": "AVE",
        "placeName": "KIRKLAND LAKE",
        "streetNameDisplayText": "ATKINS AVE, KIRKLAND LAKE"
      }
    ]
  },
  {
    "postal": "P2N6H4",
    "result": []
  },
  {
    "postal": "P2N5A5",
    "result": []
  },
  {
    "postal": "P2N3R9",
    "result": []
  },
  {
    "postal": "P2N7L8",
    "result": []
  },
  {
    "postal": "P2N6T6",
    "result": []
  },
  {
    "postal": "P2N7Y7",
    "result": []
  },
  {
    "postal": "P2N3M8",
    "result": [
      {
        "electoralDistricts": [
          {
            "election": null,
            "id": 107,
            "name": "Timiskaming—Cochrane"
          }
        ],
        "pollDivisionIds": [
          10142409
        ],
        "postalCode": "P2N3M8",
        "streetName": "TWEEDSMUIR",
        "streetDirectionId": null,
        "streetTypeId": "AVE",
        "placeName": "KIRKLAND LAKE",
        "streetNameDisplayText": "TWEEDSMUIR AVE, KIRKLAND LAKE"
      },
      {
        "electoralDistricts": [
          {
            "election": null,
            "id": 107,
            "name": "Timiskaming—Cochrane"
          }
        ],
        "pollDivisionIds": [
          10142409
        ],
        "postalCode": "P2N3M8",
        "streetName": "TWEEDSMUIR",
        "streetDirectionId": null,
        "streetTypeId": "RD",
        "placeName": "KIRKLAND LAKE",
        "streetNameDisplayText": "TWEEDSMUIR RD, KIRKLAND LAKE"
      }
    ]
  },
  {
    "postal": "P2N2E0",
    "result": []
  },
  {
    "postal": "P2N4B5",
    "result": []
  },
  {
    "postal": "P2N1J3",
    "result": [
      {
        "electoralDistricts": [
          {
            "election": null,
            "id": 107,
            "name": "Timiskaming—Cochrane"
          }
        ],
        "pollDivisionIds": [
          10142409
        ],
        "postalCode": "P2N1J3",
        "streetName": "TWEEDSMUIR",
        "streetDirectionId": null,
        "streetTypeId": "RD",
        "placeName": "KIRKLAND LAKE",
        "streetNameDisplayText": "TWEEDSMUIR RD, KIRKLAND LAKE"
      }
    ]
  },
  {
    "postal": "P2N5S6",
    "result": []
  },
  {
    "postal": "P2N8P7",
    "result": []
  },
  {
    "postal": "P2N7S7",
    "result": []
  },
  {
    "postal": "P2N4C2",
    "result": []
  },
  {
    "postal": "P2N5Y0",
    "result": []
  },
  {
    "postal": "P2N2V7",
    "result": [
      {
        "electoralDistricts": [
          {
            "election": null,
            "id": 107,
            "name": "Timiskaming—Cochrane"
          }
        ],
        "pollDivisionIds": [
          10142410
        ],
        "postalCode": "P2N2V7",
        "streetName": "PROSPECT",
        "streetDirectionId": null,
        "streetTypeId": "AVE",
        "placeName": "KIRKLAND LAKE",
        "streetNameDisplayText": "PROSPECT AVE, KIRKLAND LAKE"
      }
    ]
  },
  {
    "postal": "P2N8P5",
    "result": []
  },
  {
    "postal": "P2N5P5",
    "result": []
  },
  {
    "postal": "P2N5Z0",
    "result": []
  },
  {
    "postal": "P2N9B0",
    "result": []
  },
  {
    "postal": "P2N1L0",
    "result": []
  },
  {
    "postal": "P2N0B5",
    "result": []
  },
  {
    "postal": "P2N3L2",
    "result": []
  },
  {
    "postal": "P2N3B7",
    "result": [
      {
        "electoralDistricts": [
          {
            "election": null,
            "id": 107,
            "name": "Timiskaming—Cochrane"
          }
        ],
        "pollDivisionIds": [
          10142411,
          10142409
        ],
        "postalCode": "P2N3B7",
        "streetName": "WOODS",
        "streetDirectionId": null,
        "streetTypeId": "ST",
        "placeName": "KIRKLAND LAKE",
        "streetNameDisplayText": "WOODS ST, KIRKLAND LAKE"
      }
    ]
  },
  {
    "postal": "P2N8L1",
    "result": []
  },
  {
    "postal": "P2N5M4",
    "result": []
  },
  {
    "postal": "P2N4G9",
    "result": []
  },
  {
    "postal": "P2N0P0",
    "result": []
  },
  {
    "postal": "P2N8G2",
    "result": []
  },
  {
    "postal": "P2N1V9",
    "result": [
      {
        "electoralDistricts": [
          {
            "election": null,
            "id": 107,
            "name": "Timiskaming—Cochrane"
          }
        ],
        "pollDivisionIds": [
          10142411
        ],
        "postalCode": "P2N1V9",
        "streetName": "DIXON",
        "streetDirectionId": null,
        "streetTypeId": "AVE",
        "placeName": "KIRKLAND LAKE",
        "streetNameDisplayText": "DIXON AVE, KIRKLAND LAKE"
      }
    ]
  },
  {
    "postal": "P2N8N8",
    "result": []
  },
  {
    "postal": "P2N6S8",
    "result": []
  },
  {
    "postal": "P2N8H2",
    "result": []
  },
  {
    "postal": "P2N5R8",
    "result": []
  },
  {
    "postal": "P2N5L4",
    "result": []
  },
  {
    "postal": "P2N9E1",
    "result": []
  },
  {
    "postal": "P2N1C4",
    "result": [
      {
        "electoralDistricts": [
          {
            "election": null,
            "id": 107,
            "name": "Timiskaming—Cochrane"
          }
        ],
        "pollDivisionIds": [
          10142409
        ],
        "postalCode": "P2N1C4",
        "streetName": "ALEXANDER",
        "streetDirectionId": null,
        "streetTypeId": "AVE",
        "placeName": "KIRKLAND LAKE",
        "streetNameDisplayText": "ALEXANDER AVE, KIRKLAND LAKE"
      }
    ]
  },
  {
    "postal": "P2N8W5",
    "result": []
  },
  {
    "postal": "P2N1Y4",
    "result": [
      {
        "electoralDistricts": [
          {
            "election": null,
            "id": 107,
            "name": "Timiskaming—Cochrane"
          }
        ],
        "pollDivisionIds": [
          10142411
        ],
        "postalCode": "P2N1Y4",
        "streetName": "DUNCAN",
        "streetDirectionId": "S",
        "streetTypeId": "AVE",
        "placeName": "KIRKLAND LAKE",
        "streetNameDisplayText": "DUNCAN AVE S, KIRKLAND LAKE"
      }
    ]
  },
  {
    "postal": "P2N1C0",
    "result": []
  },
  {
    "postal": "P2N2J2",
    "result": [
      {
        "electoralDistricts": [
          {
            "election": null,
            "id": 107,
            "name": "Timiskaming—Cochrane"
          }
        ],
        "pollDivisionIds": [
          10142410
        ],
        "postalCode": "P2N2J2",
        "streetName": "HUDSON BAY",
        "streetDirectionId": null,
        "streetTypeId": "AVE",
        "placeName": "KIRKLAND LAKE",
        "streetNameDisplayText": "HUDSON BAY AVE, KIRKLAND LAKE"
      }
    ]
  },
  {
    "postal": "P2N2J0",
    "result": []
  },
  {
    "postal": "P2N7A3",
    "result": []
  },
  {
    "postal": "P2N8M1",
    "result": []
  },
  {
    "postal": "P2N7T9",
    "result": []
  },
  {
    "postal": "P2N6C0",
    "result": []
  },
  {
    "postal": "P2N7X1",
    "result": []
  },
  {
    "postal": "P2N0G1",
    "result": []
  },
  {
    "postal": "P2N4X2",
    "result": []
  },
  {
    "postal": "P2N0N6",
    "result": []
  },
  {
    "postal": "P2N8E3",
    "result": []
  },
  {
    "postal": "P2N5S8",
    "result": []
  },
  {
    "postal": "P2N0R0",
    "result": []
  },
  {
    "postal": "P2N6J6",
    "result": []
  },
  {
    "postal": "P2N4B4",
    "result": []
  },
  {
    "postal": "P2N7E3",
    "result": []
  },
  {
    "postal": "P2N3N6",
    "result": [
      {
        "electoralDistricts": [
          {
            "election": null,
            "id": 107,
            "name": "Timiskaming—Cochrane"
          }
        ],
        "pollDivisionIds": [
          10142409
        ],
        "postalCode": "P2N3N6",
        "streetName": "HILLCREST",
        "streetDirectionId": null,
        "streetTypeId": "DR",
        "placeName": "KIRKLAND LAKE",
        "streetNameDisplayText": "HILLCREST DR, KIRKLAND LAKE"
      }
    ]
  },
  {
    "postal": "P2N3X6",
    "result": []
  },
  {
    "postal": "P2N8L0",
    "result": []
  },
  {
    "postal": "P2N8N1",
    "result": []
  },
  {
    "postal": "P2N4J0",
    "result": []
  },
  {
    "postal": "P2N0X7",
    "result": []
  },
  {
    "postal": "P2N6S4",
    "result": []
  },
  {
    "postal": "P2N0Z0",
    "result": []
  },
  {
    "postal": "P2N9X8",
    "result": []
  },
  {
    "postal": "P2N3H3",
    "result": [
      {
        "electoralDistricts": [
          {
            "election": null,
            "id": 107,
            "name": "Timiskaming—Cochrane"
          }
        ],
        "pollDivisionIds": [
          10142411,
          10142409
        ],
        "postalCode": "P2N3H3",
        "streetName": "STATION",
        "streetDirectionId": "S",
        "streetTypeId": "RD",
        "placeName": "KIRKLAND LAKE",
        "streetNameDisplayText": "STATION RD S, KIRKLAND LAKE"
      }
    ]
  },
  {
    "postal": "P2N7S2",
    "result": []
  },
  {
    "postal": "P2N3T3",
    "result": []
  },
  {
    "postal": "P2N9P3",
    "result": []
  },
  {
    "postal": "P2N4H8",
    "result": []
  },
  {
    "postal": "P2N6R1",
    "result": []
  },
  {
    "postal": "P2N1S0",
    "result": []
  },
  {
    "postal": "P2N3W8",
    "result": []
  },
  {
    "postal": "P2N4S3",
    "result": []
  },
  {
    "postal": "P2N1B6",
    "result": [
      {
        "electoralDistricts": [
          {
            "election": null,
            "id": 107,
            "name": "Timiskaming—Cochrane"
          }
        ],
        "pollDivisionIds": [
          10142409
        ],
        "postalCode": "P2N1B6",
        "streetName": "HARDING",
        "streetDirectionId": null,
        "streetTypeId": "AVE",
        "placeName": "KIRKLAND LAKE",
        "streetNameDisplayText": "HARDING AVE, KIRKLAND LAKE"
      }
    ]
  },
  {
    "postal": "P2N8R3",
    "result": []
  },
  {
    "postal": "P2N4V9",
    "result": []
  },
  {
    "postal": "P2N9W4",
    "result": []
  },
  {
    "postal": "P2N3T4",
    "result": []
  },
  {
    "postal": "P2N5C7",
    "result": []
  },
  {
    "postal": "P2N3Y1",
    "result": []
  },
  {
    "postal": "P2N5V0",
    "result": []
  },
  {
    "postal": "P2N8G8",
    "result": []
  },
  {
    "postal": "P2N8B1",
    "result": []
  },
  {
    "postal": "P2N4P5",
    "result": []
  },
  {
    "postal": "P2N7B2",
    "result": []
  },
  {
    "postal": "P2N0R2",
    "result": []
  },
  {
    "postal": "P2N4M4",
    "result": []
  },
  {
    "postal": "P2N7M4",
    "result": []
  },
  {
    "postal": "P2N9S7",
    "result": []
  },
  {
    "postal": "P2N5Z7",
    "result": []
  },
  {
    "postal": "P2N7J7",
    "result": []
  },
  {
    "postal": "P2N8R8",
    "result": []
  },
  {
    "postal": "P2N9X1",
    "result": []
  },
  {
    "postal": "P2N5M9",
    "result": []
  },
  {
    "postal": "P2N9B4",
    "result": []
  },
  {
    "postal": "P2N0L9",
    "result": []
  },
  {
    "postal": "P2N9G4",
    "result": []
  },
  {
    "postal": "P2N1J4",
    "result": [
      {
        "electoralDistricts": [
          {
            "election": null,
            "id": 107,
            "name": "Timiskaming—Cochrane"
          }
        ],
        "pollDivisionIds": [
          10142409
        ],
        "postalCode": "P2N1J4",
        "streetName": "TWEEDSMUIR",
        "streetDirectionId": null,
        "streetTypeId": "RD",
        "placeName": "KIRKLAND LAKE",
        "streetNameDisplayText": "TWEEDSMUIR RD, KIRKLAND LAKE"
      }
    ]
  },
  {
    "postal": "P2N0W6",
    "result": []
  },
  {
    "postal": "P2N4C5",
    "result": []
  },
  {
    "postal": "P2N7E4",
    "result": []
  },
  {
    "postal": "P2N1R9",
    "result": [
      {
        "electoralDistricts": [
          {
            "election": null,
            "id": 107,
            "setId": 0,
            "name": "Timiskaming—Cochrane"
          }
        ],
        "pollDivisionIds": [
          10142411
        ],
        "postalCode": "P2N1R9",
        "streetName": "SECOND",
        "streetDirectionId": "E",
        "streetTypeId": "ST",
        "placeName": "KIRKLAND LAKE",
        "streetNameDisplayText": "SECOND ST E, KIRKLAND LAKE"
      }
    ]
  },
  {
    "postal": "P2N2P0",
    "result": []
  },
  {
    "postal": "P2N5S4",
    "result": []
  },
  {
    "postal": "P2N5K8",
    "result": []
  },
  {
    "postal": "P2N8K4",
    "result": []
  },
  {
    "postal": "P2N7C1",
    "result": []
  },
  {
    "postal": "P2N7K9",
    "result": []
  },
  {
    "postal": "P2N5J1",
    "result": []
  },
  {
    "postal": "P2N4P9",
    "result": []
  },
  {
    "postal": "P2N0N2",
    "result": []
  },
  {
    "postal": "P2N2G6",
    "result": [
      {
        "electoralDistricts": [
          {
            "election": null,
            "id": 107,
            "setId": 0,
            "name": "Timiskaming—Cochrane"
          }
        ],
        "pollDivisionIds": [
          10142409
        ],
        "postalCode": "P2N2G6",
        "streetName": "DUNCAN",
        "streetDirectionId": "S",
        "streetTypeId": "AVE",
        "placeName": "KIRKLAND LAKE",
        "streetNameDisplayText": "DUNCAN AVE S, KIRKLAND LAKE"
      },
      {
        "electoralDistricts": [
          {
            "election": null,
            "id": 107,
            "setId": 0,
            "name": "Timiskaming—Cochrane"
          }
        ],
        "pollDivisionIds": [
          10142409
        ],
        "postalCode": "P2N2G6",
        "streetName": "KIRKPATRICK",
        "streetDirectionId": null,
        "streetTypeId": "ST",
        "placeName": "KIRKLAND LAKE",
        "streetNameDisplayText": "KIRKPATRICK ST, KIRKLAND LAKE"
      }
    ]
  },
  {
    "postal": "P2N6P4",
    "result": []
  },
  {
    "postal": "P2N3J0",
    "result": []
  },
  {
    "postal": "P2N8X4",
    "result": []
  },
  {
    "postal": "P2N1Y3",
    "result": [
      {
        "electoralDistricts": [
          {
            "election": null,
            "id": 107,
            "setId": 0,
            "name": "Timiskaming—Cochrane"
          }
        ],
        "pollDivisionIds": [
          10142411
        ],
        "postalCode": "P2N1Y3",
        "streetName": "DUNCAN",
        "streetDirectionId": "S",
        "streetTypeId": "AVE",
        "placeName": "KIRKLAND LAKE",
        "streetNameDisplayText": "DUNCAN AVE S, KIRKLAND LAKE"
      }
    ]
  },
  {
    "postal": "P2N1A8",
    "result": [
      {
        "electoralDistricts": [
          {
            "election": null,
            "id": 107,
            "setId": 0,
            "name": "Timiskaming—Cochrane"
          }
        ],
        "pollDivisionIds": [
          10142411
        ],
        "postalCode": "P2N1A8",
        "streetName": "GOVERNMENT",
        "streetDirectionId": "E",
        "streetTypeId": "RD",
        "placeName": "KIRKLAND LAKE",
        "streetNameDisplayText": "GOVERNMENT RD E, KIRKLAND LAKE"
      }
    ]
  },
  {
    "postal": "P2N6Y5",
    "result": []
  },
  {
    "postal": "P2N0J6",
    "result": []
  },
  {
    "postal": "P2N2C9",
    "result": [
      {
        "electoralDistricts": [
          {
            "election": null,
            "id": 107,
            "setId": 0,
            "name": "Timiskaming—Cochrane"
          }
        ],
        "pollDivisionIds": [
          10142409
        ],
        "postalCode": "P2N2C9",
        "streetName": "GOVERNMENT",
        "streetDirectionId": "W",
        "streetTypeId": "RD",
        "placeName": "KIRKLAND LAKE",
        "streetNameDisplayText": "GOVERNMENT RD W, KIRKLAND LAKE"
      }
    ]
  },
  {
    "postal": "P2N8J6",
    "result": []
  },
  {
    "postal": "P2N8T4",
    "result": []
  },
  {
    "postal": "P2N1P7",
    "result": [
      {
        "electoralDistricts": [
          {
            "election": null,
            "id": 107,
            "setId": 0,
            "name": "Timiskaming—Cochrane"
          }
        ],
        "pollDivisionIds": [
          10142411
        ],
        "postalCode": "P2N1P7",
        "streetName": "TOWER",
        "streetDirectionId": null,
        "streetTypeId": "ST",
        "placeName": "KIRKLAND LAKE",
        "streetNameDisplayText": "TOWER ST, KIRKLAND LAKE"
      }
    ]
  },
  {
    "postal": "P2N9V9",
    "result": []
  },
  {
    "postal": "P2N0M1",
    "result": []
  },
  {
    "postal": "P2N6K5",
    "result": []
  },
  {
    "postal": "P2N2T5",
    "result": [
      {
        "electoralDistricts": [
          {
            "election": null,
            "id": 107,
            "setId": 0,
            "name": "Timiskaming—Cochrane"
          }
        ],
        "pollDivisionIds": [
          10142410
        ],
        "postalCode": "P2N2T5",
        "streetName": "O'MEARA",
        "streetDirectionId": null,
        "streetTypeId": "BLVD",
        "placeName": "KIRKLAND LAKE",
        "streetNameDisplayText": "O'MEARA BLVD, KIRKLAND LAKE"
      }
    ]
  },
  {
    "postal": "P2N7E9",
    "result": []
  },
  {
    "postal": "P2N5K5",
    "result": []
  },
  {
    "postal": "P2N3R5",
    "result": []
  },
  {
    "postal": "P2N5B1",
    "result": []
  },
  {
    "postal": "P2N2P1",
    "result": [
      {
        "electoralDistricts": [
          {
            "election": null,
            "id": 107,
            "setId": 0,
            "name": "Timiskaming—Cochrane"
          }
        ],
        "pollDivisionIds": [
          10142410
        ],
        "postalCode": "P2N2P1",
        "streetName": "PORTEOUS",
        "streetDirectionId": null,
        "streetTypeId": "AVE",
        "placeName": "KIRKLAND LAKE",
        "streetNameDisplayText": "PORTEOUS AVE, KIRKLAND LAKE"
      }
    ]
  },
  {
    "postal": "P2N7L0",
    "result": []
  },
  {
    "postal": "P2N3L6",
    "result": []
  },
  {
    "postal": "P2N2A4",
    "result": [
      {
        "electoralDistricts": [
          {
            "election": null,
            "id": 107,
            "setId": 0,
            "name": "Timiskaming—Cochrane"
          }
        ],
        "pollDivisionIds": [
          10142411
        ],
        "postalCode": "P2N2A4",
        "streetName": "SPRUCE",
        "streetDirectionId": null,
        "streetTypeId": "ST",
        "placeName": "KIRKLAND LAKE",
        "streetNameDisplayText": "SPRUCE ST, KIRKLAND LAKE"
      }
    ]
  },
  {
    "postal": "P2N8S0",
    "result": []
  },
  {
    "postal": "P2N3L5",
    "result": []
  },
  {
    "postal": "P2N2R5",
    "result": [
      {
        "electoralDistricts": [
          {
            "election": null,
            "id": 107,
            "setId": 0,
            "name": "Timiskaming—Cochrane"
          }
        ],
        "pollDivisionIds": [
          10142410
        ],
        "postalCode": "P2N2R5",
        "streetName": "QUEEN",
        "streetDirectionId": null,
        "streetTypeId": "ST",
        "placeName": "KIRKLAND LAKE",
        "streetNameDisplayText": "QUEEN ST, KIRKLAND LAKE"
      }
    ]
  },
  {
    "postal": "P2N9T6",
    "result": []
  },
  {
    "postal": "P2N8Z2",
    "result": []
  },
  {
    "postal": "P2N0E9",
    "result": []
  },
  {
    "postal": "P2N8C0",
    "result": []
  },
  {
    "postal": "P2N3K7",
    "result": []
  },
  {
    "postal": "P2N2H3",
    "result": [
      {
        "electoralDistricts": [
          {
            "election": null,
            "id": 107,
            "setId": 0,
            "name": "Timiskaming—Cochrane"
          }
        ],
        "pollDivisionIds": [
          10142409,
          10142410
        ],
        "postalCode": "P2N2H3",
        "streetName": "KIRKPATRICK",
        "streetDirectionId": null,
        "streetTypeId": "ST",
        "placeName": "KIRKLAND LAKE",
        "streetNameDisplayText": "KIRKPATRICK ST, KIRKLAND LAKE"
      }
    ]
  },
  {
    "postal": "P2N2Y6",
    "result": [
      {
        "electoralDistricts": [
          {
            "election": null,
            "id": 107,
            "setId": 0,
            "name": "Timiskaming—Cochrane"
          }
        ],
        "pollDivisionIds": [
          10142410
        ],
        "postalCode": "P2N2Y6",
        "streetName": "LEBEL",
        "streetDirectionId": null,
        "streetTypeId": "AVE",
        "placeName": "KIRKLAND LAKE",
        "streetNameDisplayText": "LEBEL AVE, KIRKLAND LAKE"
      }
    ]
  },
  {
    "postal": "P2N7M2",
    "result": []
  },
  {
    "postal": "P2N6E2",
    "result": []
  },
  {
    "postal": "P2N3R0",
    "result": []
  },
  {
    "postal": "P2N4J7",
    "result": []
  },
  {
    "postal": "P2N6N8",
    "result": []
  },
  {
    "postal": "P2N0J7",
    "result": []
  },
  {
    "postal": "P2N7P2",
    "result": []
  },
  {
    "postal": "P2N3T8",
    "result": []
  },
  {
    "postal": "P2N3S7",
    "result": []
  },
  {
    "postal": "P2N2S7",
    "result": [
      {
        "electoralDistricts": [
          {
            "election": null,
            "id": 107,
            "setId": 0,
            "name": "Timiskaming—Cochrane"
          }
        ],
        "pollDivisionIds": [
          10142411
        ],
        "postalCode": "P2N2S7",
        "streetName": "PREMIER",
        "streetDirectionId": "W",
        "streetTypeId": "AVE",
        "placeName": "KIRKLAND LAKE",
        "streetNameDisplayText": "PREMIER AVE W, KIRKLAND LAKE"
      }
    ]
  },
  {
    "postal": "P2N1S4",
    "result": [
      {
        "electoralDistricts": [
          {
            "election": null,
            "id": 107,
            "setId": 0,
            "name": "Timiskaming—Cochrane"
          }
        ],
        "pollDivisionIds": [
          10142411
        ],
        "postalCode": "P2N1S4",
        "streetName": "THIRD",
        "streetDirectionId": null,
        "streetTypeId": "ST",
        "placeName": "KIRKLAND LAKE",
        "streetNameDisplayText": "THIRD ST, KIRKLAND LAKE"
      }
    ]
  },
  {
    "postal": "P2N1L8",
    "result": [
      {
        "electoralDistricts": [
          {
            "election": null,
            "id": 107,
            "setId": 0,
            "name": "Timiskaming—Cochrane"
          }
        ],
        "pollDivisionIds": [
          10142409
        ],
        "postalCode": "P2N1L8",
        "streetName": "FOSS",
        "streetDirectionId": null,
        "streetTypeId": "RD",
        "placeName": "KIRKLAND LAKE",
        "streetNameDisplayText": "FOSS RD, KIRKLAND LAKE"
      }
    ]
  },
  {
    "postal": "P2N8E9",
    "result": []
  },
  {
    "postal": "P2N0T0",
    "result": []
  },
  {
    "postal": "P2N3G4",
    "result": [
      {
        "electoralDistricts": [
          {
            "election": null,
            "id": 107,
            "setId": 0,
            "name": "Timiskaming—Cochrane"
          }
        ],
        "pollDivisionIds": [
          10142409
        ],
        "postalCode": "P2N3G4",
        "streetName": "12 LAKESHORE",
        "streetDirectionId": null,
        "streetTypeId": "DR",
        "placeName": "KIRKLAND LAKE",
        "streetNameDisplayText": "12 LAKESHORE DR, KIRKLAND LAKE"
      },
      {
        "electoralDistricts": [
          {
            "election": null,
            "id": 107,
            "setId": 0,
            "name": "Timiskaming—Cochrane"
          }
        ],
        "pollDivisionIds": [
          10142409
        ],
        "postalCode": "P2N3G4",
        "streetName": "LAKESHORE",
        "streetDirectionId": null,
        "streetTypeId": "RD",
        "placeName": "KIRKLAND LAKE",
        "streetNameDisplayText": "LAKESHORE RD, KIRKLAND LAKE"
      }
    ]
  },
  {
    "postal": "P2N0V6",
    "result": []
  },
  {
    "postal": "P2N4W1",
    "result": []
  },
  {
    "postal": "P2N9G9",
    "result": []
  },
  {
    "postal": "P2N5W4",
    "result": []
  },
  {
    "postal": "P2N7M8",
    "result": []
  },
  {
    "postal": "P2N2C2",
    "result": [
      {
        "electoralDistricts": [
          {
            "election": null,
            "id": 107,
            "setId": 0,
            "name": "Timiskaming—Cochrane"
          }
        ],
        "pollDivisionIds": [
          10142411
        ],
        "postalCode": "P2N2C2",
        "streetName": "ALLEN",
        "streetDirectionId": null,
        "streetTypeId": "AVE",
        "placeName": "KIRKLAND LAKE",
        "streetNameDisplayText": "ALLEN AVE, KIRKLAND LAKE"
      }
    ]
  },
  {
    "postal": "P2N4Y2",
    "result": []
  },
  {
    "postal": "P2N9X9",
    "result": []
  },
  {
    "postal": "P2N3T0",
    "result": []
  },
  {
    "postal": "P2N4T8",
    "result": []
  },
  {
    "postal": "P2N9C4",
    "result": []
  },
  {
    "postal": "P2N8P2",
    "result": []
  },
  {
    "postal": "P2N0Y8",
    "result": []
  },
  {
    "postal": "P2N1G8",
    "result": [
      {
        "electoralDistricts": [
          {
            "election": null,
            "id": 107,
            "setId": 0,
            "name": "Timiskaming—Cochrane"
          }
        ],
        "pollDivisionIds": [
          10142409
        ],
        "postalCode": "P2N1G8",
        "streetName": "WISHMAN",
        "streetDirectionId": null,
        "streetTypeId": "ST",
        "placeName": "KIRKLAND LAKE",
        "streetNameDisplayText": "WISHMAN ST, KIRKLAND LAKE"
      }
    ]
  },
  {
    "postal": "P2N2T6",
    "result": [
      {
        "electoralDistricts": [
          {
            "election": null,
            "id": 107,
            "setId": 0,
            "name": "Timiskaming—Cochrane"
          }
        ],
        "pollDivisionIds": [
          10142411
        ],
        "postalCode": "P2N2T6",
        "streetName": "O'MEARA",
        "streetDirectionId": null,
        "streetTypeId": "BLVD",
        "placeName": "KIRKLAND LAKE",
        "streetNameDisplayText": "O'MEARA BLVD, KIRKLAND LAKE"
      }
    ]
  },
  {
    "postal": "P2N1N7",
    "result": [
      {
        "electoralDistricts": [
          {
            "election": null,
            "id": 107,
            "setId": 0,
            "name": "Timiskaming—Cochrane"
          }
        ],
        "pollDivisionIds": [
          10142411
        ],
        "postalCode": "P2N1N7",
        "streetName": "FIRST",
        "streetDirectionId": null,
        "streetTypeId": "ST",
        "placeName": "KIRKLAND LAKE",
        "streetNameDisplayText": "FIRST ST, KIRKLAND LAKE"
      }
    ]
  },
  {
    "postal": "P2N0L6",
    "result": []
  },
  {
    "postal": "P2N9V4",
    "result": []
  },
  {
    "postal": "P2N2V1",
    "result": []
  },
  {
    "postal": "P2N3L8",
    "result": []
  },
  {
    "postal": "P2N2R8",
    "result": [
      {
        "electoralDistricts": [
          {
            "election": null,
            "id": 107,
            "setId": 0,
            "name": "Timiskaming—Cochrane"
          }
        ],
        "pollDivisionIds": [
          10142410
        ],
        "postalCode": "P2N2R8",
        "streetName": "QUEEN",
        "streetDirectionId": null,
        "streetTypeId": "ST",
        "placeName": "KIRKLAND LAKE",
        "streetNameDisplayText": "QUEEN ST, KIRKLAND LAKE"
      }
    ]
  },
  {
    "postal": "P2N5C1",
    "result": []
  },
  {
    "postal": "P2N4W3",
    "result": []
  },
  {
    "postal": "P2N5X5",
    "result": []
  },
  {
    "postal": "P2N9W5",
    "result": []
  },
  {
    "postal": "P2N3C4",
    "result": [
      {
        "electoralDistricts": [
          {
            "election": null,
            "id": 107,
            "setId": 0,
            "name": "Timiskaming—Cochrane"
          }
        ],
        "pollDivisionIds": [
          10142410
        ],
        "postalCode": "P2N3C4",
        "streetName": "WOODS",
        "streetDirectionId": null,
        "streetTypeId": "ST",
        "placeName": "KIRKLAND LAKE",
        "streetNameDisplayText": "WOODS ST, KIRKLAND LAKE"
      }
    ]
  },
  {
    "postal": "P2N1N6",
    "result": [
      {
        "electoralDistricts": [
          {
            "election": null,
            "id": 107,
            "setId": 0,
            "name": "Timiskaming—Cochrane"
          }
        ],
        "pollDivisionIds": [
          10142411
        ],
        "postalCode": "P2N1N6",
        "streetName": "FIRST",
        "streetDirectionId": null,
        "streetTypeId": "ST",
        "placeName": "KIRKLAND LAKE",
        "streetNameDisplayText": "FIRST ST, KIRKLAND LAKE"
      }
    ]
  },
  {
    "postal": "P2N9S9",
    "result": []
  },
  {
    "postal": "P2N9M2",
    "result": []
  },
  {
    "postal": "P2N8Y4",
    "result": []
  },
  {
    "postal": "P2N7S4",
    "result": []
  },
  {
    "postal": "P2N0K6",
    "result": []
  },
  {
    "postal": "P2N1W3",
    "result": [
      {
        "electoralDistricts": [
          {
            "election": null,
            "id": 107,
            "setId": 0,
            "name": "Timiskaming—Cochrane"
          }
        ],
        "pollDivisionIds": [
          10142411
        ],
        "postalCode": "P2N1W3",
        "streetName": "DIXON",
        "streetDirectionId": null,
        "streetTypeId": "AVE",
        "placeName": "KIRKLAND LAKE",
        "streetNameDisplayText": "DIXON AVE, KIRKLAND LAKE"
      }
    ]
  },
  {
    "postal": "P2N7R2",
    "result": []
  },
  {
    "postal": "P2N2Y9",
    "result": [
      {
        "electoralDistricts": [
          {
            "election": null,
            "id": 107,
            "setId": 0,
            "name": "Timiskaming—Cochrane"
          }
        ],
        "pollDivisionIds": [
          10142410
        ],
        "postalCode": "P2N2Y9",
        "streetName": "LEBEL",
        "streetDirectionId": null,
        "streetTypeId": "AVE",
        "placeName": "KIRKLAND LAKE",
        "streetNameDisplayText": "LEBEL AVE, KIRKLAND LAKE"
      }
    ]
  },
  {
    "postal": "P2N7G4",
    "result": []
  },
  {
    "postal": "P2N7E5",
    "result": []
  },
  {
    "postal": "P2N9G2",
    "result": []
  },
  {
    "postal": "P2N7Y8",
    "result": []
  },
  {
    "postal": "P2N9V2",
    "result": []
  },
  {
    "postal": "P2N3T7",
    "result": []
  },
  {
    "postal": "P2N1H0",
    "result": []
  },
  {
    "postal": "P2N1M7",
    "result": [
      {
        "electoralDistricts": [
          {
            "election": null,
            "id": 107,
            "setId": 0,
            "name": "Timiskaming—Cochrane"
          }
        ],
        "pollDivisionIds": [
          10142409
        ],
        "postalCode": "P2N1M7",
        "streetName": "BURNSIDE",
        "streetDirectionId": null,
        "streetTypeId": "DR",
        "placeName": "KIRKLAND LAKE",
        "streetNameDisplayText": "BURNSIDE DR, KIRKLAND LAKE"
      }
    ]
  },
  {
    "postal": "P2N8V4",
    "result": []
  },
  {
    "postal": "P2N4M2",
    "result": []
  },
  {
    "postal": "P2N0X2",
    "result": []
  },
  {
    "postal": "P2N5Z4",
    "result": []
  },
  {
    "postal": "P2N6V4",
    "result": []
  },
  {
    "postal": "P2N8J3",
    "result": []
  },
  {
    "postal": "P2N8E5",
    "result": []
  },
  {
    "postal": "P2N2V5",
    "result": [
      {
        "electoralDistricts": [
          {
            "election": null,
            "id": 107,
            "setId": 0,
            "name": "Timiskaming—Cochrane"
          }
        ],
        "pollDivisionIds": [
          10142409
        ],
        "postalCode": "P2N2V5",
        "streetName": "PROSPECT",
        "streetDirectionId": null,
        "streetTypeId": "AVE",
        "placeName": "KIRKLAND LAKE",
        "streetNameDisplayText": "PROSPECT AVE, KIRKLAND LAKE"
      }
    ]
  },
  {
    "postal": "P2N7S1",
    "result": []
  },
  {
    "postal": "P2N6V3",
    "result": []
  },
  {
    "postal": "P2N2L8",
    "result": [
      {
        "electoralDistricts": [
          {
            "election": null,
            "id": 107,
            "setId": 0,
            "name": "Timiskaming—Cochrane"
          }
        ],
        "pollDivisionIds": [
          10142409
        ],
        "postalCode": "P2N2L8",
        "streetName": "TAYLOR",
        "streetDirectionId": null,
        "streetTypeId": "AVE",
        "placeName": "KIRKLAND LAKE",
        "streetNameDisplayText": "TAYLOR AVE, KIRKLAND LAKE"
      }
    ]
  },
  {
    "postal": "P2N9V0",
    "result": []
  },
  {
    "postal": "P2N3M4",
    "result": [
      {
        "electoralDistricts": [
          {
            "election": null,
            "id": 107,
            "setId": 0,
            "name": "Timiskaming—Cochrane"
          }
        ],
        "pollDivisionIds": [
          10142409
        ],
        "postalCode": "P2N3M4",
        "streetName": "HILLCREST",
        "streetDirectionId": null,
        "streetTypeId": "DR",
        "placeName": "KIRKLAND LAKE",
        "streetNameDisplayText": "HILLCREST DR, KIRKLAND LAKE"
      }
    ]
  },
  {
    "postal": "P2N5B2",
    "result": []
  },
  {
    "postal": "P2N3X5",
    "result": []
  },
  {
    "postal": "P2N9R7",
    "result": []
  },
  {
    "postal": "P2N2X2",
    "result": [
      {
        "electoralDistricts": [
          {
            "election": null,
            "id": 107,
            "setId": 0,
            "name": "Timiskaming—Cochrane"
          }
        ],
        "pollDivisionIds": [
          10142411
        ],
        "postalCode": "P2N2X2",
        "streetName": "PROSPECT",
        "streetDirectionId": null,
        "streetTypeId": "AVE",
        "placeName": "KIRKLAND LAKE",
        "streetNameDisplayText": "PROSPECT AVE, KIRKLAND LAKE"
      }
    ]
  },
  {
    "postal": "P2N8Z6",
    "result": []
  },
  {
    "postal": "P2N4R4",
    "result": []
  },
  {
    "postal": "P2N2R1",
    "result": [
      {
        "electoralDistricts": [
          {
            "election": null,
            "id": 107,
            "setId": 0,
            "name": "Timiskaming—Cochrane"
          }
        ],
        "pollDivisionIds": [
          10142411
        ],
        "postalCode": "P2N2R1",
        "streetName": "QUEEN",
        "streetDirectionId": null,
        "streetTypeId": "ST",
        "placeName": "KIRKLAND LAKE",
        "streetNameDisplayText": "QUEEN ST, KIRKLAND LAKE"
      }
    ]
  },
  {
    "postal": "P2N3R8",
    "result": []
  },
  {
    "postal": "P2N9A1",
    "result": []
  },
  {
    "postal": "P2N8L3",
    "result": []
  },
  {
    "postal": "P2N9K4",
    "result": []
  },
  {
    "postal": "P2N9S3",
    "result": []
  },
  {
    "postal": "P2N8N7",
    "result": []
  },
  {
    "postal": "P2N1C6",
    "result": [
      {
        "electoralDistricts": [
          {
            "election": null,
            "id": 107,
            "setId": 0,
            "name": "Timiskaming—Cochrane"
          }
        ],
        "pollDivisionIds": [
          10142409
        ],
        "postalCode": "P2N1C6",
        "streetName": "GRIERSON",
        "streetDirectionId": null,
        "streetTypeId": "RD",
        "placeName": "KIRKLAND LAKE",
        "streetNameDisplayText": "GRIERSON RD, KIRKLAND LAKE"
      }
    ]
  },
  {
    "postal": "P2N3Z8",
    "result": []
  },
  {
    "postal": "P2N8G5",
    "result": []
  },
  {
    "postal": "P2N5R6",
    "result": []
  },
  {
    "postal": "P2N2W3",
    "result": [
      {
        "electoralDistricts": [
          {
            "election": null,
            "id": 107,
            "setId": 0,
            "name": "Timiskaming—Cochrane"
          }
        ],
        "pollDivisionIds": [
          10142410
        ],
        "postalCode": "P2N2W3",
        "streetName": "PROSPECT",
        "streetDirectionId": null,
        "streetTypeId": "AVE",
        "placeName": "KIRKLAND LAKE",
        "streetNameDisplayText": "PROSPECT AVE, KIRKLAND LAKE"
      }
    ]
  },
  {
    "postal": "P2N0A0",
    "result": []
  },
  {
    "postal": "P2N6P8",
    "result": []
  },
  {
    "postal": "P2N8N9",
    "result": []
  },
  {
    "postal": "P2N0S9",
    "result": []
  },
  {
    "postal": "P2N8G0",
    "result": []
  },
  {
    "postal": "P2N8C7",
    "result": []
  },
  {
    "postal": "P2N5X8",
    "result": []
  },
  {
    "postal": "P2N7E8",
    "result": []
  },
  {
    "postal": "P2N6X2",
    "result": []
  },
  {
    "postal": "P2N4C6",
    "result": []
  },
  {
    "postal": "P2N7H2",
    "result": []
  },
  {
    "postal": "P2N4R0",
    "result": []
  },
  {
    "postal": "P2N6J3",
    "result": []
  },
  {
    "postal": "P2N4B8",
    "result": []
  },
  {
    "postal": "P2N6H6",
    "result": []
  },
  {
    "postal": "P2N0S1",
    "result": []
  },
  {
    "postal": "P2N4E3",
    "result": []
  },
  {
    "postal": "P2N7K2",
    "result": []
  },
  {
    "postal": "P2N7T8",
    "result": []
  },
  {
    "postal": "P2N0J9",
    "result": []
  },
  {
    "postal": "P2N5J9",
    "result": []
  },
  {
    "postal": "P2N5S7",
    "result": []
  },
  {
    "postal": "P2N0G9",
    "result": []
  },
  {
    "postal": "P2N3J9",
    "result": []
  },
  {
    "postal": "P2N2Y0",
    "result": []
  },
  {
    "postal": "P2N8X5",
    "result": []
  },
  {
    "postal": "P2N2M7",
    "result": []
  },
  {
    "postal": "P2N9Z3",
    "result": []
  },
  {
    "postal": "P2N7W2",
    "result": []
  },
  {
    "postal": "P2N3W0",
    "result": []
  },
  {
    "postal": "P2N3M1",
    "result": []
  },
  {
    "postal": "P2N6A5",
    "result": []
  },
  {
    "postal": "P2N2M9",
    "result": [
      {
        "electoralDistricts": [
          {
            "election": null,
            "id": 107,
            "setId": 0,
            "name": "Timiskaming—Cochrane"
          }
        ],
        "pollDivisionIds": [
          10142410
        ],
        "postalCode": "P2N2M9",
        "streetName": "POPLAR",
        "streetDirectionId": null,
        "streetTypeId": "AVE",
        "placeName": "KIRKLAND LAKE",
        "streetNameDisplayText": "POPLAR AVE, KIRKLAND LAKE"
      }
    ]
  },
  {
    "postal": "P2N5C3",
    "result": []
  },
  {
    "postal": "P2N0Y6",
    "result": []
  },
  {
    "postal": "P2N9H7",
    "result": []
  },
  {
    "postal": "P2N3L0",
    "result": []
  },
  {
    "postal": "P2N5N9",
    "result": []
  },
  {
    "postal": "P2N5E3",
    "result": []
  },
  {
    "postal": "P2N7M9",
    "result": []
  },
  {
    "postal": "P2N8N2",
    "result": []
  },
  {
    "postal": "P2N9H3",
    "result": []
  },
  {
    "postal": "P2N2K8",
    "result": [
      {
        "electoralDistricts": [
          {
            "election": null,
            "id": 107,
            "setId": 0,
            "name": "Timiskaming—Cochrane"
          }
        ],
        "pollDivisionIds": [
          10142409
        ],
        "postalCode": "P2N2K8",
        "streetName": "MCKELVIE",
        "streetDirectionId": null,
        "streetTypeId": "AVE",
        "placeName": "KIRKLAND LAKE",
        "streetNameDisplayText": "MCKELVIE AVE, KIRKLAND LAKE"
      }
    ]
  },
  {
    "postal": "P2N9L0",
    "result": []
  },
  {
    "postal": "P2N6L9",
    "result": []
  },
  {
    "postal": "P2N6A8",
    "result": []
  },
  {
    "postal": "P2N2K6",
    "result": [
      {
        "electoralDistricts": [
          {
            "election": null,
            "id": 107,
            "setId": 0,
            "name": "Timiskaming—Cochrane"
          }
        ],
        "pollDivisionIds": [
          10142410
        ],
        "postalCode": "P2N2K6",
        "streetName": "MCKELVIE",
        "streetDirectionId": null,
        "streetTypeId": "AVE",
        "placeName": "KIRKLAND LAKE",
        "streetNameDisplayText": "MCKELVIE AVE, KIRKLAND LAKE"
      }
    ]
  },
  {
    "postal": "P2N2M0",
    "result": []
  },
  {
    "postal": "P2N5X7",
    "result": []
  },
  {
    "postal": "P2N0M7",
    "result": []
  },
  {
    "postal": "P2N7A6",
    "result": []
  },
  {
    "postal": "P2N3C5",
    "result": [
      {
        "electoralDistricts": [
          {
            "election": null,
            "id": 107,
            "setId": 0,
            "name": "Timiskaming—Cochrane"
          }
        ],
        "pollDivisionIds": [
          10142410
        ],
        "postalCode": "P2N3C5",
        "streetName": "WOODS",
        "streetDirectionId": null,
        "streetTypeId": "ST",
        "placeName": "KIRKLAND LAKE",
        "streetNameDisplayText": "WOODS ST, KIRKLAND LAKE"
      }
    ]
  },
  {
    "postal": "P2N2P2",
    "result": [
      {
        "electoralDistricts": [
          {
            "election": null,
            "id": 107,
            "setId": 0,
            "name": "Timiskaming—Cochrane"
          }
        ],
        "pollDivisionIds": [
          10142410
        ],
        "postalCode": "P2N2P2",
        "streetName": "KING",
        "streetDirectionId": null,
        "streetTypeId": "ST",
        "placeName": "KIRKLAND LAKE",
        "streetNameDisplayText": "KING ST, KIRKLAND LAKE"
      }
    ]
  },
  {
    "postal": "P2N9N4",
    "result": []
  },
  {
    "postal": "P2N3M9",
    "result": [
      {
        "electoralDistricts": [
          {
            "election": null,
            "id": 107,
            "setId": 0,
            "name": "Timiskaming—Cochrane"
          }
        ],
        "pollDivisionIds": [
          10142409
        ],
        "postalCode": "P2N3M9",
        "streetName": "BURNSIDE",
        "streetDirectionId": null,
        "streetTypeId": "CRT",
        "placeName": "KIRKLAND LAKE",
        "streetNameDisplayText": "BURNSIDE CRT, KIRKLAND LAKE"
      }
    ]
  },
  {
    "postal": "P2N8K6",
    "result": []
  },
  {
    "postal": "P2N1L2",
    "result": [
      {
        "electoralDistricts": [
          {
            "election": null,
            "id": 107,
            "setId": 0,
            "name": "Timiskaming—Cochrane"
          }
        ],
        "pollDivisionIds": [
          10142409
        ],
        "postalCode": "P2N1L2",
        "streetName": "BROWN",
        "streetDirectionId": null,
        "streetTypeId": "AVE",
        "placeName": "KIRKLAND LAKE",
        "streetNameDisplayText": "BROWN AVE, KIRKLAND LAKE"
      }
    ]
  },
  {
    "postal": "P2N2Z9",
    "result": [
      {
        "electoralDistricts": [
          {
            "election": null,
            "id": 107,
            "setId": 0,
            "name": "Timiskaming—Cochrane"
          }
        ],
        "pollDivisionIds": [
          10142410
        ],
        "postalCode": "P2N2Z9",
        "streetName": "LEBEL",
        "streetDirectionId": null,
        "streetTypeId": "AVE",
        "placeName": "KIRKLAND LAKE",
        "streetNameDisplayText": "LEBEL AVE, KIRKLAND LAKE"
      }
    ]
  },
  {
    "postal": "P2N2S2",
    "result": [
      {
        "electoralDistricts": [
          {
            "election": null,
            "id": 107,
            "setId": 0,
            "name": "Timiskaming—Cochrane"
          }
        ],
        "pollDivisionIds": [
          10142410
        ],
        "postalCode": "P2N2S2",
        "streetName": "QUEEN",
        "streetDirectionId": null,
        "streetTypeId": "ST",
        "placeName": "KIRKLAND LAKE",
        "streetNameDisplayText": "QUEEN ST, KIRKLAND LAKE"
      }
    ]
  },
  {
    "postal": "P2N2W2",
    "result": [
      {
        "electoralDistricts": [
          {
            "election": null,
            "id": 107,
            "setId": 0,
            "name": "Timiskaming—Cochrane"
          }
        ],
        "pollDivisionIds": [
          10142410
        ],
        "postalCode": "P2N2W2",
        "streetName": "PROSPECT",
        "streetDirectionId": null,
        "streetTypeId": "AVE",
        "placeName": "KIRKLAND LAKE",
        "streetNameDisplayText": "PROSPECT AVE, KIRKLAND LAKE"
      }
    ]
  },
  {
    "postal": "P2N2C3",
    "result": [
      {
        "electoralDistricts": [
          {
            "election": null,
            "id": 107,
            "setId": 0,
            "name": "Timiskaming—Cochrane"
          }
        ],
        "pollDivisionIds": [
          10142411
        ],
        "postalCode": "P2N2C3",
        "streetName": "ALLEN",
        "streetDirectionId": null,
        "streetTypeId": "AVE",
        "placeName": "KIRKLAND LAKE",
        "streetNameDisplayText": "ALLEN AVE, KIRKLAND LAKE"
      },
      {
        "electoralDistricts": [
          {
            "election": null,
            "id": 107,
            "setId": 0,
            "name": "Timiskaming—Cochrane"
          }
        ],
        "pollDivisionIds": [
          10142411
        ],
        "postalCode": "P2N2C3",
        "streetName": "SECOND",
        "streetDirectionId": null,
        "streetTypeId": "AVE",
        "placeName": "KIRKLAND LAKE",
        "streetNameDisplayText": "SECOND AVE, KIRKLAND LAKE"
      }
    ]
  },
  {
    "postal": "P2N6L7",
    "result": []
  },
  {
    "postal": "P2N3K0",
    "result": []
  },
  {
    "postal": "P2N3C1",
    "result": [
      {
        "electoralDistricts": [
          {
            "election": null,
            "id": 107,
            "setId": 0,
            "name": "Timiskaming—Cochrane"
          }
        ],
        "pollDivisionIds": [
          10142410
        ],
        "postalCode": "P2N3C1",
        "streetName": "WOODS",
        "streetDirectionId": null,
        "streetTypeId": "ST",
        "placeName": "KIRKLAND LAKE",
        "streetNameDisplayText": "WOODS ST, KIRKLAND LAKE"
      }
    ]
  },
  {
    "postal": "P2N6M9",
    "result": []
  },
  {
    "postal": "P2N4N9",
    "result": []
  },
  {
    "postal": "P2N3Y7",
    "result": []
  },
  {
    "postal": "P2N2A9",
    "result": [
      {
        "electoralDistricts": [
          {
            "election": null,
            "id": 107,
            "setId": 0,
            "name": "Timiskaming—Cochrane"
          }
        ],
        "pollDivisionIds": [
          10142411
        ],
        "postalCode": "P2N2A9",
        "streetName": "YOUNG",
        "streetDirectionId": null,
        "streetTypeId": "AVE",
        "placeName": "KIRKLAND LAKE",
        "streetNameDisplayText": "YOUNG AVE, KIRKLAND LAKE"
      }
    ]
  },
  {
    "postal": "P2N6H5",
    "result": []
  },
  {
    "postal": "P2N8B4",
    "result": []
  },
  {
    "postal": "P2N4Z2",
    "result": []
  },
  {
    "postal": "P2N9J0",
    "result": []
  },
  {
    "postal": "P2N7V7",
    "result": []
  },
  {
    "postal": "P2N5T5",
    "result": []
  },
  {
    "postal": "P2N4W5",
    "result": []
  },
  {
    "postal": "P2N1T8",
    "result": [
      {
        "electoralDistricts": [
          {
            "election": null,
            "id": 107,
            "setId": 0,
            "name": "Timiskaming—Cochrane"
          }
        ],
        "pollDivisionIds": [
          10142411
        ],
        "postalCode": "P2N1T8",
        "streetName": "CHURCHILL",
        "streetDirectionId": null,
        "streetTypeId": "DR",
        "placeName": "KIRKLAND LAKE",
        "streetNameDisplayText": "CHURCHILL DR, KIRKLAND LAKE"
      }
    ]
  },
  {
    "postal": "P2N9G6",
    "result": []
  },
  {
    "postal": "P2N1H3",
    "result": [
      {
        "electoralDistricts": [
          {
            "election": null,
            "id": 107,
            "setId": 0,
            "name": "Timiskaming—Cochrane"
          }
        ],
        "pollDivisionIds": [
          10142409
        ],
        "postalCode": "P2N1H3",
        "streetName": "DUNCAN",
        "streetDirectionId": "N",
        "streetTypeId": "AVE",
        "placeName": "KIRKLAND LAKE",
        "streetNameDisplayText": "DUNCAN AVE N, KIRKLAND LAKE"
      },
      {
        "electoralDistricts": [
          {
            "election": null,
            "id": 107,
            "setId": 0,
            "name": "Timiskaming—Cochrane"
          }
        ],
        "pollDivisionIds": [
          10142409
        ],
        "postalCode": "P2N1H3",
        "streetName": "DUNCAN",
        "streetDirectionId": "S",
        "streetTypeId": "AVE",
        "placeName": "KIRKLAND LAKE",
        "streetNameDisplayText": "DUNCAN AVE S, KIRKLAND LAKE"
      }
    ]
  },
  {
    "postal": "P2N5R5",
    "result": []
  },
  {
    "postal": "P2N8A4",
    "result": []
  },
  {
    "postal": "P2N3T6",
    "result": []
  },
  {
    "postal": "P2N9W8",
    "result": []
  },
  {
    "postal": "P2N0N3",
    "result": []
  },
  {
    "postal": "P2N7V0",
    "result": []
  },
  {
    "postal": "P2N8T5",
    "result": []
  },
  {
    "postal": "P2N5N3",
    "result": []
  },
  {
    "postal": "P2N5G9",
    "result": []
  },
  {
    "postal": "P2N3X8",
    "result": []
  },
  {
    "postal": "P2N9R3",
    "result": []
  },
  {
    "postal": "P2N2S1",
    "result": [
      {
        "electoralDistricts": [
          {
            "election": null,
            "id": 107,
            "setId": 0,
            "name": "Timiskaming—Cochrane"
          }
        ],
        "pollDivisionIds": [
          10142410
        ],
        "postalCode": "P2N2S1",
        "streetName": "QUEEN",
        "streetDirectionId": null,
        "streetTypeId": "ST",
        "placeName": "KIRKLAND LAKE",
        "streetNameDisplayText": "QUEEN ST, KIRKLAND LAKE"
      }
    ]
  },
  {
    "postal": "P2N9J7",
    "result": []
  },
  {
    "postal": "P2N2J3",
    "result": [
      {
        "electoralDistricts": [
          {
            "election": null,
            "id": 107,
            "setId": 0,
            "name": "Timiskaming—Cochrane"
          }
        ],
        "pollDivisionIds": [
          10142410
        ],
        "postalCode": "P2N2J3",
        "streetName": "MCCAMUS",
        "streetDirectionId": null,
        "streetTypeId": "AVE",
        "placeName": "KIRKLAND LAKE",
        "streetNameDisplayText": "MCCAMUS AVE, KIRKLAND LAKE"
      }
    ]
  },
  {
    "postal": "P2N3B6",
    "result": [
      {
        "electoralDistricts": [
          {
            "election": null,
            "id": 107,
            "setId": 0,
            "name": "Timiskaming—Cochrane"
          }
        ],
        "pollDivisionIds": [
          10142409
        ],
        "postalCode": "P2N3B6",
        "streetName": "WOODS",
        "streetDirectionId": null,
        "streetTypeId": "ST",
        "placeName": "KIRKLAND LAKE",
        "streetNameDisplayText": "WOODS ST, KIRKLAND LAKE"
      }
    ]
  },
  {
    "postal": "P2N8J0",
    "result": []
  },
  {
    "postal": "P2N7R4",
    "result": []
  },
  {
    "postal": "P2N8K8",
    "result": []
  },
  {
    "postal": "P2N4P3",
    "result": []
  },
  {
    "postal": "P2N0A2",
    "result": []
  },
  {
    "postal": "P2N2G2",
    "result": [
      {
        "electoralDistricts": [
          {
            "election": null,
            "id": 107,
            "setId": 0,
            "name": "Timiskaming—Cochrane"
          }
        ],
        "pollDivisionIds": [
          10142409
        ],
        "postalCode": "P2N2G2",
        "streetName": "KIRKLAND",
        "streetDirectionId": "W",
        "streetTypeId": "AVE",
        "placeName": "KIRKLAND LAKE",
        "streetNameDisplayText": "KIRKLAND AVE W, KIRKLAND LAKE"
      }
    ]
  },
  {
    "postal": "P2N5Y9",
    "result": []
  },
  {
    "postal": "P2N7X0",
    "result": []
  },
  {
    "postal": "P2N7W3",
    "result": []
  },
  {
    "postal": "P2N7X5",
    "result": []
  },
  {
    "postal": "P2N5K6",
    "result": []
  },
  {
    "postal": "P2N5B6",
    "result": []
  },
  {
    "postal": "P2N7Z0",
    "result": []
  },
  {
    "postal": "P2N9H6",
    "result": []
  },
  {
    "postal": "P2N1B4",
    "result": [
      {
        "electoralDistricts": [
          {
            "election": null,
            "id": 107,
            "setId": 0,
            "name": "Timiskaming—Cochrane"
          }
        ],
        "pollDivisionIds": [
          10142409
        ],
        "postalCode": "P2N1B4",
        "streetName": "HARDING",
        "streetDirectionId": null,
        "streetTypeId": "AVE",
        "placeName": "KIRKLAND LAKE",
        "streetNameDisplayText": "HARDING AVE, KIRKLAND LAKE"
      }
    ]
  },
  {
    "postal": "P2N1A0",
    "result": []
  },
  {
    "postal": "P2N9A0",
    "result": []
  },
  {
    "postal": "P2N1M6",
    "result": [
      {
        "electoralDistricts": [
          {
            "election": null,
            "id": 107,
            "setId": 0,
            "name": "Timiskaming—Cochrane"
          }
        ],
        "pollDivisionIds": [
          10142409
        ],
        "postalCode": "P2N1M6",
        "streetName": "SUMMIT",
        "streetDirectionId": null,
        "streetTypeId": "AVE",
        "placeName": "KIRKLAND LAKE",
        "streetNameDisplayText": "SUMMIT AVE, KIRKLAND LAKE"
      }
    ]
  },
  {
    "postal": "P2N5H0",
    "result": []
  },
  {
    "postal": "P2N1K6",
    "result": [
      {
        "electoralDistricts": [
          {
            "election": null,
            "id": 107,
            "setId": 0,
            "name": "Timiskaming—Cochrane"
          }
        ],
        "pollDivisionIds": [
          10142409
        ],
        "postalCode": "P2N1K6",
        "streetName": "GREEN",
        "streetDirectionId": null,
        "streetTypeId": "AVE",
        "placeName": "KIRKLAND LAKE",
        "streetNameDisplayText": "GREEN AVE, KIRKLAND LAKE"
      }
    ]
  },
  {
    "postal": "P2N5E1",
    "result": []
  },
  {
    "postal": "P2N3T9",
    "result": []
  },
  {
    "postal": "P2N2M6",
    "result": [
      {
        "electoralDistricts": [
          {
            "election": null,
            "id": 107,
            "setId": 0,
            "name": "Timiskaming—Cochrane"
          }
        ],
        "pollDivisionIds": [
          10142410
        ],
        "postalCode": "P2N2M6",
        "streetName": "POPLAR",
        "streetDirectionId": null,
        "streetTypeId": "AVE",
        "placeName": "KIRKLAND LAKE",
        "streetNameDisplayText": "POPLAR AVE, KIRKLAND LAKE"
      }
    ]
  },
  {
    "postal": "P2N0G5",
    "result": []
  },
  {
    "postal": "P2N0Y2",
    "result": []
  },
  {
    "postal": "P2N2Y7",
    "result": [
      {
        "electoralDistricts": [
          {
            "election": null,
            "id": 107,
            "setId": 0,
            "name": "Timiskaming—Cochrane"
          }
        ],
        "pollDivisionIds": [
          10142410
        ],
        "postalCode": "P2N2Y7",
        "streetName": "LEBEL",
        "streetDirectionId": null,
        "streetTypeId": "AVE",
        "placeName": "KIRKLAND LAKE",
        "streetNameDisplayText": "LEBEL AVE, KIRKLAND LAKE"
      }
    ]
  },
  {
    "postal": "P2N2J7",
    "result": [
      {
        "electoralDistricts": [
          {
            "election": null,
            "id": 107,
            "setId": 0,
            "name": "Timiskaming—Cochrane"
          }
        ],
        "pollDivisionIds": [
          10142410
        ],
        "postalCode": "P2N2J7",
        "streetName": "MCCAMUS",
        "streetDirectionId": null,
        "streetTypeId": "AVE",
        "placeName": "KIRKLAND LAKE",
        "streetNameDisplayText": "MCCAMUS AVE, KIRKLAND LAKE"
      }
    ]
  },
  {
    "postal": "P2N4K7",
    "result": []
  },
  {
    "postal": "P2N7P9",
    "result": []
  },
  {
    "postal": "P2N8X0",
    "result": []
  },
  {
    "postal": "P2N3X1",
    "result": []
  },
  {
    "postal": "P2N1R5",
    "result": [
      {
        "electoralDistricts": [
          {
            "election": null,
            "id": 107,
            "setId": 0,
            "name": "Timiskaming—Cochrane"
          }
        ],
        "pollDivisionIds": [
          10142411
        ],
        "postalCode": "P2N1R5",
        "streetName": "SECOND",
        "streetDirectionId": "E",
        "streetTypeId": "ST",
        "placeName": "KIRKLAND LAKE",
        "streetNameDisplayText": "SECOND ST E, KIRKLAND LAKE"
      }
    ]
  },
  {
    "postal": "P2N6X6",
    "result": []
  },
  {
    "postal": "P2N0Y1",
    "result": []
  },
  {
    "postal": "P2N8G1",
    "result": []
  },
  {
    "postal": "P2N3J3",
    "result": []
  },
  {
    "postal": "P2N8C2",
    "result": []
  },
  {
    "postal": "P2N4X9",
    "result": []
  },
  {
    "postal": "P2N6G9",
    "result": []
  },
  {
    "postal": "P2N4M3",
    "result": []
  },
  {
    "postal": "P2N9P7",
    "result": []
  },
  {
    "postal": "P2N4E5",
    "result": []
  },
  {
    "postal": "P2N5K9",
    "result": []
  },
  {
    "postal": "P2N2V2",
    "result": [
      {
        "electoralDistricts": [
          {
            "election": null,
            "id": 107,
            "setId": 0,
            "name": "Timiskaming—Cochrane"
          }
        ],
        "pollDivisionIds": [
          10142410,
          10142409
        ],
        "postalCode": "P2N2V2",
        "streetName": "PROSPECT",
        "streetDirectionId": null,
        "streetTypeId": "AVE",
        "placeName": "KIRKLAND LAKE",
        "streetNameDisplayText": "PROSPECT AVE, KIRKLAND LAKE"
      }
    ]
  },
  {
    "postal": "P2N2N9",
    "result": [
      {
        "electoralDistricts": [
          {
            "election": null,
            "id": 107,
            "setId": 0,
            "name": "Timiskaming—Cochrane"
          }
        ],
        "pollDivisionIds": [
          10142410
        ],
        "postalCode": "P2N2N9",
        "streetName": "PORTEOUS",
        "streetDirectionId": null,
        "streetTypeId": "AVE",
        "placeName": "KIRKLAND LAKE",
        "streetNameDisplayText": "PORTEOUS AVE, KIRKLAND LAKE"
      }
    ]
  },
  {
    "postal": "P2N6L4",
    "result": []
  },
  {
    "postal": "P2N8E0",
    "result": []
  },
  {
    "postal": "P2N0N0",
    "result": []
  },
  {
    "postal": "P2N6R0",
    "result": []
  },
  {
    "postal": "P2N9C1",
    "result": []
  },
  {
    "postal": "P2N4H4",
    "result": []
  },
  {
    "postal": "P2N5W3",
    "result": []
  },
  {
    "postal": "P2N9N9",
    "result": []
  },
  {
    "postal": "P2N1V7",
    "result": [
      {
        "electoralDistricts": [
          {
            "election": null,
            "id": 107,
            "setId": 0,
            "name": "Timiskaming—Cochrane"
          }
        ],
        "pollDivisionIds": [
          10142411
        ],
        "postalCode": "P2N1V7",
        "streetName": "DIXON",
        "streetDirectionId": null,
        "streetTypeId": "AVE",
        "placeName": "KIRKLAND LAKE",
        "streetNameDisplayText": "DIXON AVE, KIRKLAND LAKE"
      }
    ]
  },
  {
    "postal": "P2N8J1",
    "result": []
  },
  {
    "postal": "P2N5V9",
    "result": []
  },
  {
    "postal": "P2N2S8",
    "result": [
      {
        "electoralDistricts": [
          {
            "election": null,
            "id": 107,
            "setId": 0,
            "name": "Timiskaming—Cochrane"
          }
        ],
        "pollDivisionIds": [
          10142411
        ],
        "postalCode": "P2N2S8",
        "streetName": "RAND",
        "streetDirectionId": "W",
        "streetTypeId": "AVE",
        "placeName": "KIRKLAND LAKE",
        "streetNameDisplayText": "RAND AVE W, KIRKLAND LAKE"
      }
    ]
  },
  {
    "postal": "P2N6P0",
    "result": []
  },
  {
    "postal": "P2N4J8",
    "result": []
  },
  {
    "postal": "P2N0N1",
    "result": []
  },
  {
    "postal": "P2N1Y7",
    "result": [
      {
        "electoralDistricts": [
          {
            "election": null,
            "id": 107,
            "setId": 0,
            "name": "Timiskaming—Cochrane"
          }
        ],
        "pollDivisionIds": [
          10142411
        ],
        "postalCode": "P2N1Y7",
        "streetName": "DUNCAN",
        "streetDirectionId": "S",
        "streetTypeId": "AVE",
        "placeName": "KIRKLAND LAKE",
        "streetNameDisplayText": "DUNCAN AVE S, KIRKLAND LAKE"
      }
    ]
  },
  {
    "postal": "P2N7W5",
    "result": []
  },
  {
    "postal": "P2N3Z1",
    "result": []
  },
  {
    "postal": "P2N7M6",
    "result": []
  },
  {
    "postal": "P2N1W7",
    "result": [
      {
        "electoralDistricts": [
          {
            "election": null,
            "id": 107,
            "setId": 0,
            "name": "Timiskaming—Cochrane"
          }
        ],
        "pollDivisionIds": [
          10142411
        ],
        "postalCode": "P2N1W7",
        "streetName": "BALSAM",
        "streetDirectionId": null,
        "streetTypeId": "AVE",
        "placeName": "KIRKLAND LAKE",
        "streetNameDisplayText": "BALSAM AVE, KIRKLAND LAKE"
      }
    ]
  },
  {
    "postal": "P2N1X1",
    "result": [
      {
        "electoralDistricts": [
          {
            "election": null,
            "id": 107,
            "setId": 0,
            "name": "Timiskaming—Cochrane"
          }
        ],
        "pollDivisionIds": [
          10142411
        ],
        "postalCode": "P2N1X1",
        "streetName": "RAND",
        "streetDirectionId": "E",
        "streetTypeId": "AVE",
        "placeName": "KIRKLAND LAKE",
        "streetNameDisplayText": "RAND AVE E, KIRKLAND LAKE"
      }
    ]
  },
  {
    "postal": "P2N0C1",
    "result": []
  },
  {
    "postal": "P2N4N3",
    "result": []
  },
  {
    "postal": "P2N4S8",
    "result": []
  },
  {
    "postal": "P2N1H6",
    "result": []
  },
  {
    "postal": "P2N2Z4",
    "result": [
      {
        "electoralDistricts": [
          {
            "election": null,
            "id": 107,
            "setId": 0,
            "name": "Timiskaming—Cochrane"
          }
        ],
        "pollDivisionIds": [
          10142410
        ],
        "postalCode": "P2N2Z4",
        "streetName": "LEBEL",
        "streetDirectionId": null,
        "streetTypeId": "AVE",
        "placeName": "KIRKLAND LAKE",
        "streetNameDisplayText": "LEBEL AVE, KIRKLAND LAKE"
      }
    ]
  },
  {
    "postal": "P2N7K3",
    "result": []
  },
  {
    "postal": "P2N8A2",
    "result": []
  },
  {
    "postal": "P2N6J1",
    "result": []
  },
  {
    "postal": "P2N5Z6",
    "result": []
  },
  {
    "postal": "P2N3Z0",
    "result": []
  },
  {
    "postal": "P2N8M0",
    "result": []
  },
  {
    "postal": "P2N1Z6",
    "result": [
      {
        "electoralDistricts": [
          {
            "election": null,
            "id": 107,
            "setId": 0,
            "name": "Timiskaming—Cochrane"
          }
        ],
        "pollDivisionIds": [
          10142411
        ],
        "postalCode": "P2N1Z6",
        "streetName": "CARTER",
        "streetDirectionId": null,
        "streetTypeId": "AVE",
        "placeName": "KIRKLAND LAKE",
        "streetNameDisplayText": "CARTER AVE, KIRKLAND LAKE"
      }
    ]
  },
  {
    "postal": "P2N8K7",
    "result": []
  },
  {
    "postal": "P2N1N3",
    "result": [
      {
        "electoralDistricts": [
          {
            "election": null,
            "id": 107,
            "setId": 0,
            "name": "Timiskaming—Cochrane"
          }
        ],
        "pollDivisionIds": [
          10142411
        ],
        "postalCode": "P2N1N3",
        "streetName": "FIRST",
        "streetDirectionId": null,
        "streetTypeId": "ST",
        "placeName": "KIRKLAND LAKE",
        "streetNameDisplayText": "FIRST ST, KIRKLAND LAKE"
      }
    ]
  },
  {
    "postal": "P2N9S2",
    "result": []
  },
  {
    "postal": "P2N2K1",
    "result": [
      {
        "electoralDistricts": [
          {
            "election": null,
            "id": 107,
            "setId": 0,
            "name": "Timiskaming—Cochrane"
          }
        ],
        "pollDivisionIds": [
          10142409
        ],
        "postalCode": "P2N2K1",
        "streetName": "MCCAMUS",
        "streetDirectionId": null,
        "streetTypeId": "AVE",
        "placeName": "KIRKLAND LAKE",
        "streetNameDisplayText": "MCCAMUS AVE, KIRKLAND LAKE"
      }
    ]
  },
  {
    "postal": "P2N1E8",
    "result": [
      {
        "electoralDistricts": [
          {
            "election": null,
            "id": 107,
            "setId": 0,
            "name": "Timiskaming—Cochrane"
          }
        ],
        "pollDivisionIds": [
          10142409
        ],
        "postalCode": "P2N1E8",
        "streetName": "FEDERAL",
        "streetDirectionId": null,
        "streetTypeId": "ST",
        "placeName": "KIRKLAND LAKE",
        "streetNameDisplayText": "FEDERAL ST, KIRKLAND LAKE"
      }
    ]
  },
  {
    "postal": "P2N9B8",
    "result": []
  },
  {
    "postal": "P2N7X4",
    "result": []
  },
  {
    "postal": "P2N1Z4",
    "result": [
      {
        "electoralDistricts": [
          {
            "election": null,
            "id": 107,
            "setId": 0,
            "name": "Timiskaming—Cochrane"
          }
        ],
        "pollDivisionIds": [
          10142411
        ],
        "postalCode": "P2N1Z4",
        "streetName": "POLLOCK",
        "streetDirectionId": null,
        "streetTypeId": "ST",
        "placeName": "KIRKLAND LAKE",
        "streetNameDisplayText": "POLLOCK ST, KIRKLAND LAKE"
      }
    ]
  },
  {
    "postal": "P2N2C7",
    "result": [
      {
        "electoralDistricts": [
          {
            "election": null,
            "id": 107,
            "setId": 0,
            "name": "Timiskaming—Cochrane"
          }
        ],
        "pollDivisionIds": [
          10142411
        ],
        "postalCode": "P2N2C7",
        "streetName": "SYLVANITE",
        "streetDirectionId": null,
        "streetTypeId": "AVE",
        "placeName": "KIRKLAND LAKE",
        "streetNameDisplayText": "SYLVANITE AVE, KIRKLAND LAKE"
      }
    ]
  },
  {
    "postal": "P2N2E7",
    "result": [
      {
        "electoralDistricts": [
          {
            "election": null,
            "id": 107,
            "setId": 0,
            "name": "Timiskaming—Cochrane"
          }
        ],
        "pollDivisionIds": [
          10142411
        ],
        "postalCode": "P2N2E7",
        "streetName": "GOVERNMENT",
        "streetDirectionId": "E",
        "streetTypeId": "RD",
        "placeName": "KIRKLAND LAKE",
        "streetNameDisplayText": "GOVERNMENT RD E, KIRKLAND LAKE"
      },
      {
        "electoralDistricts": [
          {
            "election": null,
            "id": 107,
            "setId": 0,
            "name": "Timiskaming—Cochrane"
          }
        ],
        "pollDivisionIds": [
          10142409
        ],
        "postalCode": "P2N2E7",
        "streetName": "GOVERNMENT",
        "streetDirectionId": "W",
        "streetTypeId": "RD",
        "placeName": "KIRKLAND LAKE",
        "streetNameDisplayText": "GOVERNMENT RD W, KIRKLAND LAKE"
      }
    ]
  },
  {
    "postal": "P2N3R1",
    "result": [
      {
        "electoralDistricts": [
          {
            "election": null,
            "id": 107,
            "setId": 0,
            "name": "Timiskaming—Cochrane"
          }
        ],
        "pollDivisionIds": [
          10142411
        ],
        "postalCode": "P2N3R1",
        "streetName": "POLLOCK",
        "streetDirectionId": null,
        "streetTypeId": "ST",
        "placeName": "KIRKLAND LAKE",
        "streetNameDisplayText": "POLLOCK ST, KIRKLAND LAKE"
      }
    ]
  },
  {
    "postal": "P2N4K4",
    "result": []
  },
  {
    "postal": "P2N9G3",
    "result": []
  },
  {
    "postal": "P2N6C9",
    "result": []
  },
  {
    "postal": "P2N9H5",
    "result": []
  },
  {
    "postal": "P2N1P5",
    "result": [
      {
        "electoralDistricts": [
          {
            "election": null,
            "id": 107,
            "setId": 0,
            "name": "Timiskaming—Cochrane"
          }
        ],
        "pollDivisionIds": [
          10142411
        ],
        "postalCode": "P2N1P5",
        "streetName": "TOWER",
        "streetDirectionId": null,
        "streetTypeId": "ST",
        "placeName": "KIRKLAND LAKE",
        "streetNameDisplayText": "TOWER ST, KIRKLAND LAKE"
      }
    ]
  },
  {
    "postal": "P2N2J5",
    "result": [
      {
        "electoralDistricts": [
          {
            "election": null,
            "id": 107,
            "setId": 0,
            "name": "Timiskaming—Cochrane"
          }
        ],
        "pollDivisionIds": [
          10142410
        ],
        "postalCode": "P2N2J5",
        "streetName": "MCCAMUS",
        "streetDirectionId": null,
        "streetTypeId": "AVE",
        "placeName": "KIRKLAND LAKE",
        "streetNameDisplayText": "MCCAMUS AVE, KIRKLAND LAKE"
      }
    ]
  },
  {
    "postal": "P2N4W6",
    "result": []
  },
  {
    "postal": "P2N8M8",
    "result": []
  },
  {
    "postal": "P2N6C5",
    "result": []
  },
  {
    "postal": "P2N9H0",
    "result": []
  },
  {
    "postal": "P2N1X8",
    "result": [
      {
        "electoralDistricts": [
          {
            "election": null,
            "id": 107,
            "setId": 0,
            "name": "Timiskaming—Cochrane"
          }
        ],
        "pollDivisionIds": [
          10142410
        ],
        "postalCode": "P2N1X8",
        "streetName": "DUNCAN",
        "streetDirectionId": "S",
        "streetTypeId": "AVE",
        "placeName": "KIRKLAND LAKE",
        "streetNameDisplayText": "DUNCAN AVE S, KIRKLAND LAKE"
      }
    ]
  },
  {
    "postal": "P2N3H4",
    "result": [
      {
        "electoralDistricts": [
          {
            "election": null,
            "id": 107,
            "setId": 0,
            "name": "Timiskaming—Cochrane"
          }
        ],
        "pollDivisionIds": [
          10142411
        ],
        "postalCode": "P2N3H4",
        "streetName": "STATION",
        "streetDirectionId": "S",
        "streetTypeId": "RD",
        "placeName": "KIRKLAND LAKE",
        "streetNameDisplayText": "STATION RD S, KIRKLAND LAKE"
      }
    ]
  },
  {
    "postal": "P2N4E7",
    "result": []
  },
  {
    "postal": "P2N8A0",
    "result": []
  },
  {
    "postal": "P2N1Z7",
    "result": [
      {
        "electoralDistricts": [
          {
            "election": null,
            "id": 107,
            "setId": 0,
            "name": "Timiskaming—Cochrane"
          }
        ],
        "pollDivisionIds": [
          10142409,
          10142411
        ],
        "postalCode": "P2N1Z7",
        "streetName": "CARTER",
        "streetDirectionId": null,
        "streetTypeId": "AVE",
        "placeName": "KIRKLAND LAKE",
        "streetNameDisplayText": "CARTER AVE, KIRKLAND LAKE"
      }
    ]
  },
  {
    "postal": "P2N7Z3",
    "result": []
  },
  {
    "postal": "P2N0L7",
    "result": []
  },
  {
    "postal": "P2N2C6",
    "result": [
      {
        "electoralDistricts": [
          {
            "election": null,
            "id": 107,
            "setId": 0,
            "name": "Timiskaming—Cochrane"
          }
        ],
        "pollDivisionIds": [
          10142411
        ],
        "postalCode": "P2N2C6",
        "streetName": "SYLVANITE",
        "streetDirectionId": null,
        "streetTypeId": "AVE",
        "placeName": "KIRKLAND LAKE",
        "streetNameDisplayText": "SYLVANITE AVE, KIRKLAND LAKE"
      }
    ]
  },
  {
    "postal": "P2N6M3",
    "result": []
  },
  {
    "postal": "P2N2J1",
    "result": [
      {
        "electoralDistricts": [
          {
            "election": null,
            "id": 107,
            "setId": 0,
            "name": "Timiskaming—Cochrane"
          }
        ],
        "pollDivisionIds": [
          10142410
        ],
        "postalCode": "P2N2J1",
        "streetName": "HUDSON BAY",
        "streetDirectionId": null,
        "streetTypeId": "AVE",
        "placeName": "KIRKLAND LAKE",
        "streetNameDisplayText": "HUDSON BAY AVE, KIRKLAND LAKE"
      }
    ]
  },
  {
    "postal": "P2N3E3",
    "result": [
      {
        "electoralDistricts": [
          {
            "election": null,
            "id": 107,
            "setId": 0,
            "name": "Timiskaming—Cochrane"
          }
        ],
        "pollDivisionIds": [
          10142409
        ],
        "postalCode": "P2N3E3",
        "streetName": "MAIN",
        "streetDirectionId": null,
        "streetTypeId": "ST",
        "placeName": "KIRKLAND LAKE",
        "streetNameDisplayText": "MAIN ST, KIRKLAND LAKE"
      }
    ]
  },
  {
    "postal": "P2N6Z9",
    "result": []
  },
  {
    "postal": "P2N3M3",
    "result": []
  },
  {
    "postal": "P2N9B1",
    "result": []
  },
  {
    "postal": "P2N9J5",
    "result": []
  },
  {
    "postal": "P2N4V8",
    "result": []
  },
  {
    "postal": "P2N6W2",
    "result": []
  },
  {
    "postal": "P2N0V5",
    "result": []
  },
  {
    "postal": "P2N0Z8",
    "result": []
  },
  {
    "postal": "P2N5G2",
    "result": []
  },
  {
    "postal": "P2N4N4",
    "result": []
  },
  {
    "postal": "P2N8G7",
    "result": []
  },
  {
    "postal": "P2N8W1",
    "result": []
  },
  {
    "postal": "P2N1S6",
    "result": [
      {
        "electoralDistricts": [
          {
            "election": null,
            "id": 107,
            "setId": 0,
            "name": "Timiskaming—Cochrane"
          }
        ],
        "pollDivisionIds": [
          10142411
        ],
        "postalCode": "P2N1S6",
        "streetName": "THIRD",
        "streetDirectionId": null,
        "streetTypeId": "ST",
        "placeName": "KIRKLAND LAKE",
        "streetNameDisplayText": "THIRD ST, KIRKLAND LAKE"
      }
    ]
  },
  {
    "postal": "P2N4E0",
    "result": []
  },
  {
    "postal": "P2N4L9",
    "result": []
  },
  {
    "postal": "P2N5Z9",
    "result": []
  },
  {
    "postal": "P2N5V3",
    "result": []
  },
  {
    "postal": "P2N4V2",
    "result": []
  },
  {
    "postal": "P2N7C0",
    "result": []
  },
  {
    "postal": "P2N6L0",
    "result": []
  },
  {
    "postal": "P2N1S9",
    "result": [
      {
        "electoralDistricts": [
          {
            "election": null,
            "id": 107,
            "setId": 0,
            "name": "Timiskaming—Cochrane"
          }
        ],
        "pollDivisionIds": [
          10142411
        ],
        "postalCode": "P2N1S9",
        "streetName": "FOURTH",
        "streetDirectionId": null,
        "streetTypeId": "ST",
        "placeName": "KIRKLAND LAKE",
        "streetNameDisplayText": "FOURTH ST, KIRKLAND LAKE"
      }
    ]
  },
  {
    "postal": "P2N7R6",
    "result": []
  },
  {
    "postal": "P2N7J0",
    "result": []
  },
  {
    "postal": "P2N5M0",
    "result": []
  },
  {
    "postal": "P2N2E5",
    "result": [
      {
        "electoralDistricts": [
          {
            "election": null,
            "id": 107,
            "setId": 0,
            "name": "Timiskaming—Cochrane"
          }
        ],
        "pollDivisionIds": [
          10142409
        ],
        "postalCode": "P2N2E5",
        "streetName": "GOVERNMENT",
        "streetDirectionId": "W",
        "streetTypeId": "RD",
        "placeName": "KIRKLAND LAKE",
        "streetNameDisplayText": "GOVERNMENT RD W, KIRKLAND LAKE"
      }
    ]
  },
  {
    "postal": "P2N7C7",
    "result": []
  },
  {
    "postal": "P2N5C0",
    "result": []
  },
  {
    "postal": "P2N8V9",
    "result": []
  },
  {
    "postal": "P2N7E0",
    "result": []
  },
  {
    "postal": "P2N6R4",
    "result": []
  },
  {
    "postal": "P2N3Z7",
    "result": []
  },
  {
    "postal": "P2N1J9",
    "result": [
      {
        "electoralDistricts": [
          {
            "election": null,
            "id": 107,
            "setId": 0,
            "name": "Timiskaming—Cochrane"
          }
        ],
        "pollDivisionIds": [
          10142409
        ],
        "postalCode": "P2N1J9",
        "streetName": "WILSON",
        "streetDirectionId": null,
        "streetTypeId": "AVE",
        "placeName": "KIRKLAND LAKE",
        "streetNameDisplayText": "WILSON AVE, KIRKLAND LAKE"
      }
    ]
  },
  {
    "postal": "P2N7K6",
    "result": []
  },
  {
    "postal": "P2N7Y5",
    "result": []
  },
  {
    "postal": "P2N1B7",
    "result": [
      {
        "electoralDistricts": [
          {
            "election": null,
            "id": 107,
            "setId": 0,
            "name": "Timiskaming—Cochrane"
          }
        ],
        "pollDivisionIds": [
          10142409
        ],
        "postalCode": "P2N1B7",
        "streetName": "MACPHERSON",
        "streetDirectionId": null,
        "streetTypeId": "AVE",
        "placeName": "KIRKLAND LAKE",
        "streetNameDisplayText": "MACPHERSON AVE, KIRKLAND LAKE"
      }
    ]
  },
  {
    "postal": "P2N4S9",
    "result": []
  },
  {
    "postal": "P2N9R9",
    "result": []
  },
  {
    "postal": "P2N5K7",
    "result": []
  },
  {
    "postal": "P2N6P2",
    "result": []
  },
  {
    "postal": "P2N2C5",
    "result": [
      {
        "electoralDistricts": [
          {
            "election": null,
            "id": 107,
            "setId": 0,
            "name": "Timiskaming—Cochrane"
          }
        ],
        "pollDivisionIds": [
          10142411
        ],
        "postalCode": "P2N2C5",
        "streetName": "DUNFIELD",
        "streetDirectionId": null,
        "streetTypeId": "RD",
        "placeName": "KIRKLAND LAKE",
        "streetNameDisplayText": "DUNFIELD RD, KIRKLAND LAKE"
      }
    ]
  },
  {
    "postal": "P2N2N0",
    "result": []
  },
  {
    "postal": "P2N1G0",
    "result": []
  },
  {
    "postal": "P2N4K5",
    "result": []
  },
  {
    "postal": "P2N9B5",
    "result": []
  },
  {
    "postal": "P2N6T5",
    "result": []
  },
  {
    "postal": "P2N1N8",
    "result": [
      {
        "electoralDistricts": [
          {
            "election": null,
            "id": 107,
            "setId": 0,
            "name": "Timiskaming—Cochrane"
          }
        ],
        "pollDivisionIds": [
          10142411
        ],
        "postalCode": "P2N1N8",
        "streetName": "FIRST",
        "streetDirectionId": null,
        "streetTypeId": "ST",
        "placeName": "KIRKLAND LAKE",
        "streetNameDisplayText": "FIRST ST, KIRKLAND LAKE"
      }
    ]
  },
  {
    "postal": "P2N0C0",
    "result": []
  },
  {
    "postal": "P2N0R9",
    "result": []
  },
  {
    "postal": "P2N7L1",
    "result": []
  },
  {
    "postal": "P2N3Y8",
    "result": []
  },
  {
    "postal": "P2N7X9",
    "result": []
  },
  {
    "postal": "P2N1A7",
    "result": [
      {
        "electoralDistricts": [
          {
            "election": null,
            "id": 107,
            "setId": 0,
            "name": "Timiskaming—Cochrane"
          }
        ],
        "pollDivisionIds": [
          10142411
        ],
        "postalCode": "P2N1A7",
        "streetName": "GOVERNMENT",
        "streetDirectionId": "E",
        "streetTypeId": "RD",
        "placeName": "KIRKLAND LAKE",
        "streetNameDisplayText": "GOVERNMENT RD E, KIRKLAND LAKE"
      }
    ]
  },
  {
    "postal": "P2N2T9",
    "result": [
      {
        "electoralDistricts": [
          {
            "election": null,
            "id": 107,
            "setId": 0,
            "name": "Timiskaming—Cochrane"
          }
        ],
        "pollDivisionIds": [
          10142409
        ],
        "postalCode": "P2N2T9",
        "streetName": "PROSPECT",
        "streetDirectionId": null,
        "streetTypeId": "AVE",
        "placeName": "KIRKLAND LAKE",
        "streetNameDisplayText": "PROSPECT AVE, KIRKLAND LAKE"
      }
    ]
  },
  {
    "postal": "P2N2E6",
    "result": [
      {
        "electoralDistricts": [
          {
            "election": null,
            "id": 107,
            "setId": 0,
            "name": "Timiskaming—Cochrane"
          }
        ],
        "pollDivisionIds": [
          10142409
        ],
        "postalCode": "P2N2E6",
        "streetName": "GOVERNMENT",
        "streetDirectionId": "W",
        "streetTypeId": "RD",
        "placeName": "KIRKLAND LAKE",
        "streetNameDisplayText": "GOVERNMENT RD W, KIRKLAND LAKE"
      }
    ]
  },
  {
    "postal": "P2N8Y1",
    "result": []
  },
  {
    "postal": "P2N0J5",
    "result": []
  },
  {
    "postal": "P2N4J1",
    "result": []
  },
  {
    "postal": "P2N1A5",
    "result": [
      {
        "electoralDistricts": [
          {
            "election": null,
            "id": 107,
            "setId": 0,
            "name": "Timiskaming—Cochrane"
          }
        ],
        "pollDivisionIds": [
          10142411
        ],
        "postalCode": "P2N1A5",
        "streetName": "GOVERNMENT",
        "streetDirectionId": "E",
        "streetTypeId": "RD",
        "placeName": "KIRKLAND LAKE",
        "streetNameDisplayText": "GOVERNMENT RD E, KIRKLAND LAKE"
      }
    ]
  },
  {
    "postal": "P2N6Z6",
    "result": []
  },
  {
    "postal": "P2N5K4",
    "result": []
  },
  {
    "postal": "P2N7R9",
    "result": []
  },
  {
    "postal": "P2N6G4",
    "result": []
  }
]
