[
  {
    "postal": "P0N1A0",
    "result": [
      {
        "electoralDistricts": [
          {
            "election": null,
            "id": 108,
            "name": "Timmins"
          }
        ],
        "pollDivisionIds": [
          10142486
        ],
        "postalCode": "P0N1A0",
        "streetName": "101",
        "streetDirectionId": "E",
        "streetTypeId": "HWY",
        "placeName": "CONNAUGHT",
        "streetNameDisplayText": "101 HWY E, CONNAUGHT"
      },
      {
        "electoralDistricts": [
          {
            "election": null,
            "id": 108,
            "name": "Timmins"
          }
        ],
        "pollDivisionIds": [
          10142486
        ],
        "postalCode": "P0N1A0",
        "streetName": "101",
        "streetDirectionId": null,
        "streetTypeId": "HWY",
        "placeName": "CONNAUGHT",
        "streetNameDisplayText": "101 HWY, CONNAUGHT"
      },
      {
        "electoralDistricts": [
          {
            "election": null,
            "id": 108,
            "name": "Timmins"
          }
        ],
        "pollDivisionIds": [
          10142486
        ],
        "postalCode": "P0N1A0",
        "streetName": "ANDERSON",
        "streetDirectionId": null,
        "streetTypeId": "DR",
        "placeName": "CONNAUGHT",
        "streetNameDisplayText": "ANDERSON DR, CONNAUGHT"
      },
      {
        "electoralDistricts": [
          {
            "election": null,
            "id": 108,
            "name": "Timmins"
          }
        ],
        "pollDivisionIds": [
          10142486
        ],
        "postalCode": "P0N1A0",
        "streetName": "BAYSIDE",
        "streetDirectionId": null,
        "streetTypeId": "DR",
        "placeName": "CONNAUGHT",
        "streetNameDisplayText": "BAYSIDE DR, CONNAUGHT"
      },
      {
        "electoralDistricts": [
          {
            "election": null,
            "id": 108,
            "name": "Timmins"
          }
        ],
        "pollDivisionIds": [
          10142486
        ],
        "postalCode": "P0N1A0",
        "streetName": "BERTRAND",
        "streetDirectionId": null,
        "streetTypeId": "RD",
        "placeName": "CONNAUGHT",
        "streetNameDisplayText": "BERTRAND RD, CONNAUGHT"
      },
      {
        "electoralDistricts": [
          {
            "election": null,
            "id": 108,
            "name": "Timmins"
          }
        ],
        "pollDivisionIds": [
          10142486
        ],
        "postalCode": "P0N1A0",
        "streetName": "BRENTWOOD",
        "streetDirectionId": null,
        "streetTypeId": "DR",
        "placeName": "CONNAUGHT",
        "streetNameDisplayText": "BRENTWOOD DR, CONNAUGHT"
      },
      {
        "electoralDistricts": [
          {
            "election": null,
            "id": 108,
            "name": "Timmins"
          }
        ],
        "pollDivisionIds": [
          10142486
        ],
        "postalCode": "P0N1A0",
        "streetName": "CAHILL",
        "streetDirectionId": null,
        "streetTypeId": "DR",
        "placeName": "CONNAUGHT",
        "streetNameDisplayText": "CAHILL DR, CONNAUGHT"
      },
      {
        "electoralDistricts": [
          {
            "election": null,
            "id": 107,
            "name": "Timiskaming—Cochrane"
          }
        ],
        "pollDivisionIds": [
          10142399
        ],
        "postalCode": "P0N1A0",
        "streetName": "CAMP BICKELL",
        "streetDirectionId": null,
        "streetTypeId": "RD",
        "placeName": "CONNAUGHT",
        "streetNameDisplayText": "CAMP BICKELL RD, CONNAUGHT"
      },
      {
        "electoralDistricts": [
          {
            "election": null,
            "id": 108,
            "name": "Timmins"
          }
        ],
        "pollDivisionIds": [
          10142486
        ],
        "postalCode": "P0N1A0",
        "streetName": "CARRIGAN",
        "streetDirectionId": null,
        "streetTypeId": "RD",
        "placeName": "CONNAUGHT",
        "streetNameDisplayText": "CARRIGAN RD, CONNAUGHT"
      },
      {
        "electoralDistricts": [
          {
            "election": null,
            "id": 108,
            "name": "Timmins"
          }
        ],
        "pollDivisionIds": [
          10142486
        ],
        "postalCode": "P0N1A0",
        "streetName": "CHARLAND LAKE",
        "streetDirectionId": null,
        "streetTypeId": "RD",
        "placeName": "CONNAUGHT",
        "streetNameDisplayText": "CHARLAND LAKE RD, CONNAUGHT"
      },
      {
        "electoralDistricts": [
          {
            "election": null,
            "id": 108,
            "name": "Timmins"
          }
        ],
        "pollDivisionIds": [
          10142486
        ],
        "postalCode": "P0N1A0",
        "streetName": "COMMANDO",
        "streetDirectionId": null,
        "streetTypeId": "ST",
        "placeName": "CONNAUGHT",
        "streetNameDisplayText": "COMMANDO ST, CONNAUGHT"
      },
      {
        "electoralDistricts": [
          {
            "election": null,
            "id": 108,
            "name": "Timmins"
          }
        ],
        "pollDivisionIds": [
          10142486
        ],
        "postalCode": "P0N1A0",
        "streetName": "CONNAUGHT",
        "streetDirectionId": null,
        "streetTypeId": "RD",
        "placeName": "CONNAUGHT",
        "streetNameDisplayText": "CONNAUGHT RD, CONNAUGHT"
      },
      {
        "electoralDistricts": [
          {
            "election": null,
            "id": 108,
            "name": "Timmins"
          }
        ],
        "pollDivisionIds": [
          10142486
        ],
        "postalCode": "P0N1A0",
        "streetName": "CUNNINGHAM",
        "streetDirectionId": null,
        "streetTypeId": "RD",
        "placeName": "CONNAUGHT",
        "streetNameDisplayText": "CUNNINGHAM RD, CONNAUGHT"
      },
      {
        "electoralDistricts": [
          {
            "election": null,
            "id": 108,
            "name": "Timmins"
          }
        ],
        "pollDivisionIds": [
          10142486
        ],
        "postalCode": "P0N1A0",
        "streetName": "DAVIS",
        "streetDirectionId": null,
        "streetTypeId": "RD",
        "placeName": "CONNAUGHT",
        "streetNameDisplayText": "DAVIS RD, CONNAUGHT"
      },
      {
        "electoralDistricts": [
          {
            "election": null,
            "id": 107,
            "name": "Timiskaming—Cochrane"
          }
        ],
        "pollDivisionIds": [
          10142399
        ],
        "postalCode": "P0N1A0",
        "streetName": "EDGEWATER",
        "streetDirectionId": null,
        "streetTypeId": "RD",
        "placeName": "CONNAUGHT",
        "streetNameDisplayText": "EDGEWATER RD, CONNAUGHT"
      },
      {
        "electoralDistricts": [
          {
            "election": null,
            "id": 108,
            "name": "Timmins"
          }
        ],
        "pollDivisionIds": [
          10142486
        ],
        "postalCode": "P0N1A0",
        "streetName": "ESKER",
        "streetDirectionId": null,
        "streetTypeId": "RD",
        "placeName": "CONNAUGHT",
        "streetNameDisplayText": "ESKER RD, CONNAUGHT"
      },
      {
        "electoralDistricts": [
          {
            "election": null,
            "id": 108,
            "name": "Timmins"
          }
        ],
        "pollDivisionIds": [
          10142485
        ],
        "postalCode": "P0N1A0",
        "streetName": "FEDERICK HOUSE LAKE",
        "streetDirectionId": null,
        "streetTypeId": null,
        "placeName": "CONNAUGHT",
        "streetNameDisplayText": "FEDERICK HOUSE LAKE, CONNAUGHT"
      },
      {
        "electoralDistricts": [
          {
            "election": null,
            "id": 108,
            "name": "Timmins"
          }
        ],
        "pollDivisionIds": [
          10142486
        ],
        "postalCode": "P0N1A0",
        "streetName": "FINN",
        "streetDirectionId": null,
        "streetTypeId": "RD",
        "placeName": "CONNAUGHT",
        "streetNameDisplayText": "FINN RD, CONNAUGHT"
      },
      {
        "electoralDistricts": [
          {
            "election": null,
            "id": 108,
            "name": "Timmins"
          }
        ],
        "pollDivisionIds": [
          10142486
        ],
        "postalCode": "P0N1A0",
        "streetName": "FRASER",
        "streetDirectionId": null,
        "streetTypeId": "RD",
        "placeName": "CONNAUGHT",
        "streetNameDisplayText": "FRASER RD, CONNAUGHT"
      },
      {
        "electoralDistricts": [
          {
            "election": null,
            "id": 108,
            "name": "Timmins"
          }
        ],
        "pollDivisionIds": [
          10142486
        ],
        "postalCode": "P0N1A0",
        "streetName": "FRASER",
        "streetDirectionId": null,
        "streetTypeId": "ST",
        "placeName": "CONNAUGHT",
        "streetNameDisplayText": "FRASER ST, CONNAUGHT"
      },
      {
        "electoralDistricts": [
          {
            "election": null,
            "id": 108,
            "name": "Timmins"
          }
        ],
        "pollDivisionIds": [
          10142472,
          10142486
        ],
        "postalCode": "P0N1A0",
        "streetName": "FREDERICK HOUSE LAKE",
        "streetDirectionId": null,
        "streetTypeId": "RD",
        "placeName": "CONNAUGHT",
        "streetNameDisplayText": "FREDERICK HOUSE LAKE RD, CONNAUGHT"
      },
      {
        "electoralDistricts": [
          {
            "election": null,
            "id": 108,
            "name": "Timmins"
          }
        ],
        "pollDivisionIds": [
          10142485
        ],
        "postalCode": "P0N1A0",
        "streetName": "FREDERICK",
        "streetDirectionId": null,
        "streetTypeId": "ST",
        "placeName": "PORCUPINE",
        "streetNameDisplayText": "FREDERICK ST, PORCUPINE"
      },
      {
        "electoralDistricts": [
          {
            "election": null,
            "id": 108,
            "name": "Timmins"
          }
        ],
        "pollDivisionIds": [
          10142486
        ],
        "postalCode": "P0N1A0",
        "streetName": "FREDERICKHOUSE LAKE",
        "streetDirectionId": null,
        "streetTypeId": "DR",
        "placeName": "CONNAUGHT",
        "streetNameDisplayText": "FREDERICKHOUSE LAKE DR, CONNAUGHT"
      },
      {
        "electoralDistricts": [
          {
            "election": null,
            "id": 108,
            "name": "Timmins"
          }
        ],
        "pollDivisionIds": [
          10142472
        ],
        "postalCode": "P0N1A0",
        "streetName": "FREDERICKHOUSE LAKE",
        "streetDirectionId": null,
        "streetTypeId": "RD",
        "placeName": "CONNAUGHT",
        "streetNameDisplayText": "FREDERICKHOUSE LAKE RD, CONNAUGHT"
      },
      {
        "electoralDistricts": [
          {
            "election": null,
            "id": 108,
            "name": "Timmins"
          }
        ],
        "pollDivisionIds": [
          10142486
        ],
        "postalCode": "P0N1A0",
        "streetName": "GIRL GUIDE CAMP",
        "streetDirectionId": null,
        "streetTypeId": "RD",
        "placeName": "CONNAUGHT",
        "streetNameDisplayText": "GIRL GUIDE CAMP RD, CONNAUGHT"
      },
      {
        "electoralDistricts": [
          {
            "election": null,
            "id": 108,
            "name": "Timmins"
          }
        ],
        "pollDivisionIds": [
          10142486
        ],
        "postalCode": "P0N1A0",
        "streetName": "HOYLE",
        "streetDirectionId": null,
        "streetTypeId": "RD",
        "placeName": "CONNAUGHT",
        "streetNameDisplayText": "HOYLE RD, CONNAUGHT"
      },
      {
        "electoralDistricts": [
          {
            "election": null,
            "id": 108,
            "name": "Timmins"
          }
        ],
        "pollDivisionIds": [
          10142486
        ],
        "postalCode": "P0N1A0",
        "streetName": "ICE CHEST LAKE",
        "streetDirectionId": null,
        "streetTypeId": "RD",
        "placeName": "CONNAUGHT",
        "streetNameDisplayText": "ICE CHEST LAKE RD, CONNAUGHT"
      },
      {
        "electoralDistricts": [
          {
            "election": null,
            "id": 108,
            "name": "Timmins"
          }
        ],
        "pollDivisionIds": [
          10142486
        ],
        "postalCode": "P0N1A0",
        "streetName": "JACK PINE",
        "streetDirectionId": null,
        "streetTypeId": "RD",
        "placeName": "CONNAUGHT",
        "streetNameDisplayText": "JACK PINE RD, CONNAUGHT"
      },
      {
        "electoralDistricts": [
          {
            "election": null,
            "id": 108,
            "name": "Timmins"
          }
        ],
        "pollDivisionIds": [
          10142486
        ],
        "postalCode": "P0N1A0",
        "streetName": "KEANS POINT",
        "streetDirectionId": null,
        "streetTypeId": "RD",
        "placeName": "CONNAUGHT",
        "streetNameDisplayText": "KEANS POINT RD, CONNAUGHT"
      },
      {
        "electoralDistricts": [
          {
            "election": null,
            "id": 108,
            "name": "Timmins"
          }
        ],
        "pollDivisionIds": [
          10142486
        ],
        "postalCode": "P0N1A0",
        "streetName": "KOIVU",
        "streetDirectionId": null,
        "streetTypeId": "TRAIL",
        "placeName": "CONNAUGHT",
        "streetNameDisplayText": "KOIVU TRAIL, CONNAUGHT"
      },
      {
        "electoralDistricts": [
          {
            "election": null,
            "id": 108,
            "name": "Timmins"
          }
        ],
        "pollDivisionIds": [
          10142486
        ],
        "postalCode": "P0N1A0",
        "streetName": "LITTLE",
        "streetDirectionId": null,
        "streetTypeId": "RD",
        "placeName": "CONNAUGHT",
        "streetNameDisplayText": "LITTLE RD, CONNAUGHT"
      },
      {
        "electoralDistricts": [
          {
            "election": null,
            "id": 108,
            "name": "Timmins"
          }
        ],
        "pollDivisionIds": [
          10142486,
          10142472
        ],
        "postalCode": "P0N1A0",
        "streetName": "MCINNIS LAKE",
        "streetDirectionId": null,
        "streetTypeId": "RD",
        "placeName": "CONNAUGHT",
        "streetNameDisplayText": "MCINNIS LAKE RD, CONNAUGHT"
      },
      {
        "electoralDistricts": [
          {
            "election": null,
            "id": 108,
            "name": "Timmins"
          },
          {
            "election": null,
            "id": 107,
            "name": "Timiskaming—Cochrane"
          }
        ],
        "pollDivisionIds": [
          10142486,
          10142399,
          10142472
        ],
        "postalCode": "P0N1A0",
        "streetName": "MUNICIPAL",
        "streetDirectionId": null,
        "streetTypeId": "RD",
        "placeName": "CONNAUGHT",
        "streetNameDisplayText": "MUNICIPAL RD, CONNAUGHT"
      },
      {
        "electoralDistricts": [
          {
            "election": null,
            "id": 108,
            "name": "Timmins"
          }
        ],
        "pollDivisionIds": [
          10142486
        ],
        "postalCode": "P0N1A0",
        "streetName": "NIGHTHAWK LAKE",
        "streetDirectionId": null,
        "streetTypeId": "RD",
        "placeName": "CONNAUGHT",
        "streetNameDisplayText": "NIGHTHAWK LAKE RD, CONNAUGHT"
      },
      {
        "electoralDistricts": [
          {
            "election": null,
            "id": 108,
            "name": "Timmins"
          }
        ],
        "pollDivisionIds": [
          10142486
        ],
        "postalCode": "P0N1A0",
        "streetName": "OJA",
        "streetDirectionId": null,
        "streetTypeId": "DR",
        "placeName": "CONNAUGHT",
        "streetNameDisplayText": "OJA DR, CONNAUGHT"
      },
      {
        "electoralDistricts": [
          {
            "election": null,
            "id": 108,
            "name": "Timmins"
          }
        ],
        "pollDivisionIds": [
          10142486
        ],
        "postalCode": "P0N1A0",
        "streetName": "PENINSULA",
        "streetDirectionId": null,
        "streetTypeId": "RD",
        "placeName": "CONNAUGHT",
        "streetNameDisplayText": "PENINSULA RD, CONNAUGHT"
      },
      {
        "electoralDistricts": [
          {
            "election": null,
            "id": 108,
            "name": "Timmins"
          }
        ],
        "pollDivisionIds": [
          10142486
        ],
        "postalCode": "P0N1A0",
        "streetName": "PURRA",
        "streetDirectionId": null,
        "streetTypeId": "RD",
        "placeName": "CONNAUGHT",
        "streetNameDisplayText": "PURRA RD, CONNAUGHT"
      },
      {
        "electoralDistricts": [
          {
            "election": null,
            "id": 108,
            "name": "Timmins"
          }
        ],
        "pollDivisionIds": [
          10142486
        ],
        "postalCode": "P0N1A0",
        "streetName": "QUIRION",
        "streetDirectionId": null,
        "streetTypeId": "RD",
        "placeName": "CONNAUGHT",
        "streetNameDisplayText": "QUIRION RD, CONNAUGHT"
      },
      {
        "electoralDistricts": [
          {
            "election": null,
            "id": 108,
            "name": "Timmins"
          }
        ],
        "pollDivisionIds": [
          10142486
        ],
        "postalCode": "P0N1A0",
        "streetName": "RACICOT",
        "streetDirectionId": null,
        "streetTypeId": "RD",
        "placeName": "CONNAUGHT",
        "streetNameDisplayText": "RACICOT RD, CONNAUGHT"
      },
      {
        "electoralDistricts": [
          {
            "election": null,
            "id": 108,
            "name": "Timmins"
          }
        ],
        "pollDivisionIds": [
          10142486
        ],
        "postalCode": "P0N1A0",
        "streetName": "RETREAT",
        "streetDirectionId": null,
        "streetTypeId": "RD",
        "placeName": "CONNAUGHT",
        "streetNameDisplayText": "RETREAT RD, CONNAUGHT"
      },
      {
        "electoralDistricts": [
          {
            "election": null,
            "id": 108,
            "name": "Timmins"
          }
        ],
        "pollDivisionIds": [
          10142486
        ],
        "postalCode": "P0N1A0",
        "streetName": "ROJO",
        "streetDirectionId": null,
        "streetTypeId": "RD",
        "placeName": "CONNAUGHT",
        "streetNameDisplayText": "ROJO RD, CONNAUGHT"
      },
      {
        "electoralDistricts": [
          {
            "election": null,
            "id": 108,
            "name": "Timmins"
          }
        ],
        "pollDivisionIds": [
          10142486
        ],
        "postalCode": "P0N1A0",
        "streetName": "URQUHART",
        "streetDirectionId": null,
        "streetTypeId": "RD",
        "placeName": "CONNAUGHT",
        "streetNameDisplayText": "URQUHART RD, CONNAUGHT"
      },
      {
        "electoralDistricts": [
          {
            "election": null,
            "id": 108,
            "name": "Timmins"
          }
        ],
        "pollDivisionIds": [
          10142486
        ],
        "postalCode": "P0N1A0",
        "streetName": "WINTERBERRY",
        "streetDirectionId": null,
        "streetTypeId": "DR",
        "placeName": "CONNAUGHT",
        "streetNameDisplayText": "WINTERBERRY DR, CONNAUGHT"
      }
    ]
  },
  {
    "postal": "P0N1C0",
    "result": [
      {
        "electoralDistricts": [
          {
            "election": null,
            "id": 108,
            "name": "Timmins"
          }
        ],
        "pollDivisionIds": [
          10142486
        ],
        "postalCode": "P0N1C0",
        "streetName": "101",
        "streetDirectionId": "E",
        "streetTypeId": "HWY",
        "placeName": "CONNAUGHT",
        "streetNameDisplayText": "101 HWY E, CONNAUGHT"
      },
      {
        "electoralDistricts": [
          {
            "election": null,
            "id": 108,
            "name": "Timmins"
          }
        ],
        "pollDivisionIds": [
          10142485
        ],
        "postalCode": "P0N1C0",
        "streetName": "101",
        "streetDirectionId": "E",
        "streetTypeId": "HWY",
        "placeName": "PORCUPINE",
        "streetNameDisplayText": "101 HWY E, PORCUPINE"
      },
      {
        "electoralDistricts": [
          {
            "election": null,
            "id": 108,
            "name": "Timmins"
          }
        ],
        "pollDivisionIds": [
          10142486
        ],
        "postalCode": "P0N1C0",
        "streetName": "101",
        "streetDirectionId": null,
        "streetTypeId": "HWY",
        "placeName": "CONNAUGHT",
        "streetNameDisplayText": "101 HWY, CONNAUGHT"
      },
      {
        "electoralDistricts": [
          {
            "election": null,
            "id": 108,
            "name": "Timmins"
          }
        ],
        "pollDivisionIds": [
          10142485
        ],
        "postalCode": "P0N1C0",
        "streetName": "101",
        "streetDirectionId": null,
        "streetTypeId": "HWY",
        "placeName": "PORCUPINE",
        "streetNameDisplayText": "101 HWY, PORCUPINE"
      },
      {
        "electoralDistricts": [
          {
            "election": null,
            "id": 108,
            "name": "Timmins"
          }
        ],
        "pollDivisionIds": [
          10142485
        ],
        "postalCode": "P0N1C0",
        "streetName": "101",
        "streetDirectionId": null,
        "streetTypeId": "HWY",
        "placeName": "SOUTH PORCUPINE",
        "streetNameDisplayText": "101 HWY, SOUTH PORCUPINE"
      },
      {
        "electoralDistricts": [
          {
            "election": null,
            "id": 108,
            "name": "Timmins"
          }
        ],
        "pollDivisionIds": [
          10142485
        ],
        "postalCode": "P0N1C0",
        "streetName": "101",
        "streetDirectionId": null,
        "streetTypeId": "HWY",
        "placeName": "TIMMINS",
        "streetNameDisplayText": "101 HWY, TIMMINS"
      },
      {
        "electoralDistricts": [
          {
            "election": null,
            "id": 108,
            "name": "Timmins"
          }
        ],
        "pollDivisionIds": [
          10142485
        ],
        "postalCode": "P0N1C0",
        "streetName": "2",
        "streetDirectionId": null,
        "streetTypeId": "ST",
        "placeName": "TIMMINS",
        "streetNameDisplayText": "2 ST, TIMMINS"
      },
      {
        "electoralDistricts": [
          {
            "election": null,
            "id": 108,
            "name": "Timmins"
          }
        ],
        "pollDivisionIds": [
          10142485
        ],
        "postalCode": "P0N1C0",
        "streetName": "3",
        "streetDirectionId": null,
        "streetTypeId": "ST",
        "placeName": "TIMMINS",
        "streetNameDisplayText": "3 ST, TIMMINS"
      },
      {
        "electoralDistricts": [
          {
            "election": null,
            "id": 108,
            "name": "Timmins"
          }
        ],
        "pollDivisionIds": [
          10142485
        ],
        "postalCode": "P0N1C0",
        "streetName": "ALFRED",
        "streetDirectionId": null,
        "streetTypeId": "ST",
        "placeName": "PORCUPINE",
        "streetNameDisplayText": "ALFRED ST, PORCUPINE"
      },
      {
        "electoralDistricts": [
          {
            "election": null,
            "id": 108,
            "name": "Timmins"
          }
        ],
        "pollDivisionIds": [
          10142485
        ],
        "postalCode": "P0N1C0",
        "streetName": "BELLEMARE",
        "streetDirectionId": null,
        "streetTypeId": "ST",
        "placeName": "PORCUPINE",
        "streetNameDisplayText": "BELLEMARE ST, PORCUPINE"
      },
      {
        "electoralDistricts": [
          {
            "election": null,
            "id": 108,
            "name": "Timmins"
          }
        ],
        "pollDivisionIds": [
          10142485
        ],
        "postalCode": "P0N1C0",
        "streetName": "BOBS LAKE",
        "streetDirectionId": null,
        "streetTypeId": "DR",
        "placeName": "PORCUPINE",
        "streetNameDisplayText": "BOBS LAKE DR, PORCUPINE"
      },
      {
        "electoralDistricts": [
          {
            "election": null,
            "id": 108,
            "name": "Timmins"
          }
        ],
        "pollDivisionIds": [
          10142485
        ],
        "postalCode": "P0N1C0",
        "streetName": "BOB'S LAKE",
        "streetDirectionId": null,
        "streetTypeId": "DR",
        "placeName": "PORCUPINE",
        "streetNameDisplayText": "BOB'S LAKE DR, PORCUPINE"
      },
      {
        "electoralDistricts": [
          {
            "election": null,
            "id": 108,
            "name": "Timmins"
          }
        ],
        "pollDivisionIds": [
          10142485
        ],
        "postalCode": "P0N1C0",
        "streetName": "BOUCHER",
        "streetDirectionId": null,
        "streetTypeId": "ST",
        "placeName": "PORCUPINE",
        "streetNameDisplayText": "BOUCHER ST, PORCUPINE"
      },
      {
        "electoralDistricts": [
          {
            "election": null,
            "id": 108,
            "name": "Timmins"
          }
        ],
        "pollDivisionIds": [
          10142485
        ],
        "postalCode": "P0N1C0",
        "streetName": "BRISTOL",
        "streetDirectionId": null,
        "streetTypeId": "RD",
        "placeName": "PORCUPINE",
        "streetNameDisplayText": "BRISTOL RD, PORCUPINE"
      },
      {
        "electoralDistricts": [
          {
            "election": null,
            "id": 108,
            "name": "Timmins"
          }
        ],
        "pollDivisionIds": [
          10142485
        ],
        "postalCode": "P0N1C0",
        "streetName": "CARLOS",
        "streetDirectionId": null,
        "streetTypeId": "AVE",
        "placeName": "PORCUPINE",
        "streetNameDisplayText": "CARLOS AVE, PORCUPINE"
      },
      {
        "electoralDistricts": [
          {
            "election": null,
            "id": 108,
            "name": "Timmins"
          }
        ],
        "pollDivisionIds": [
          10142486
        ],
        "postalCode": "P0N1C0",
        "streetName": "CARRIGAN",
        "streetDirectionId": null,
        "streetTypeId": "RD",
        "placeName": "CONNAUGHT",
        "streetNameDisplayText": "CARRIGAN RD, CONNAUGHT"
      },
      {
        "electoralDistricts": [
          {
            "election": null,
            "id": 108,
            "name": "Timmins"
          }
        ],
        "pollDivisionIds": [
          10142486
        ],
        "postalCode": "P0N1C0",
        "streetName": "CHARLAND",
        "streetDirectionId": "S",
        "streetTypeId": "RD",
        "placeName": "CONNAUGHT",
        "streetNameDisplayText": "CHARLAND RD S, CONNAUGHT"
      },
      {
        "electoralDistricts": [
          {
            "election": null,
            "id": 108,
            "name": "Timmins"
          }
        ],
        "pollDivisionIds": [
          10142485
        ],
        "postalCode": "P0N1C0",
        "streetName": "COLLINS",
        "streetDirectionId": null,
        "streetTypeId": "CRT",
        "placeName": "PORCUPINE",
        "streetNameDisplayText": "COLLINS CRT, PORCUPINE"
      },
      {
        "electoralDistricts": [
          {
            "election": null,
            "id": 108,
            "name": "Timmins"
          }
        ],
        "pollDivisionIds": [
          10142485
        ],
        "postalCode": "P0N1C0",
        "streetName": "CONLEY",
        "streetDirectionId": "N",
        "streetTypeId": "ST",
        "placeName": "PORCUPINE",
        "streetNameDisplayText": "CONLEY ST N, PORCUPINE"
      },
      {
        "electoralDistricts": [
          {
            "election": null,
            "id": 108,
            "name": "Timmins"
          }
        ],
        "pollDivisionIds": [
          10142485
        ],
        "postalCode": "P0N1C0",
        "streetName": "CONLEY",
        "streetDirectionId": "S",
        "streetTypeId": "ST",
        "placeName": "PORCUPINE",
        "streetNameDisplayText": "CONLEY ST S, PORCUPINE"
      },
      {
        "electoralDistricts": [
          {
            "election": null,
            "id": 108,
            "name": "Timmins"
          }
        ],
        "pollDivisionIds": [
          10142485
        ],
        "postalCode": "P0N1C0",
        "streetName": "COOTT",
        "streetDirectionId": null,
        "streetTypeId": "LANE",
        "placeName": "PORCUPINE",
        "streetNameDisplayText": "COOTT LANE, PORCUPINE"
      },
      {
        "electoralDistricts": [
          {
            "election": null,
            "id": 108,
            "name": "Timmins"
          }
        ],
        "pollDivisionIds": [
          10142485
        ],
        "postalCode": "P0N1C0",
        "streetName": "CORPORATION",
        "streetDirectionId": null,
        "streetTypeId": "ST",
        "placeName": "PORCUPINE",
        "streetNameDisplayText": "CORPORATION ST, PORCUPINE"
      },
      {
        "electoralDistricts": [
          {
            "election": null,
            "id": 108,
            "name": "Timmins"
          }
        ],
        "pollDivisionIds": [
          10142485
        ],
        "postalCode": "P0N1C0",
        "streetName": "DIVISION",
        "streetDirectionId": null,
        "streetTypeId": "ST",
        "placeName": "PORCUPINE",
        "streetNameDisplayText": "DIVISION ST, PORCUPINE"
      },
      {
        "electoralDistricts": [
          {
            "election": null,
            "id": 108,
            "name": "Timmins"
          }
        ],
        "pollDivisionIds": [
          10142481,
          10142485
        ],
        "postalCode": "P0N1C0",
        "streetName": "DIXON",
        "streetDirectionId": null,
        "streetTypeId": "ST",
        "placeName": "PORCUPINE",
        "streetNameDisplayText": "DIXON ST, PORCUPINE"
      },
      {
        "electoralDistricts": [
          {
            "election": null,
            "id": 108,
            "name": "Timmins"
          }
        ],
        "pollDivisionIds": [
          10142485
        ],
        "postalCode": "P0N1C0",
        "streetName": "DUKE",
        "streetDirectionId": "E",
        "streetTypeId": "ST",
        "placeName": "PORCUPINE",
        "streetNameDisplayText": "DUKE ST E, PORCUPINE"
      },
      {
        "electoralDistricts": [
          {
            "election": null,
            "id": 108,
            "name": "Timmins"
          }
        ],
        "pollDivisionIds": [
          10142485
        ],
        "postalCode": "P0N1C0",
        "streetName": "DUKE",
        "streetDirectionId": "E",
        "streetTypeId": "ST",
        "placeName": "TIMMINS",
        "streetNameDisplayText": "DUKE ST E, TIMMINS"
      },
      {
        "electoralDistricts": [
          {
            "election": null,
            "id": 108,
            "name": "Timmins"
          }
        ],
        "pollDivisionIds": [
          10142485
        ],
        "postalCode": "P0N1C0",
        "streetName": "DUKE",
        "streetDirectionId": "W",
        "streetTypeId": "ST",
        "placeName": "PORCUPINE",
        "streetNameDisplayText": "DUKE ST W, PORCUPINE"
      },
      {
        "electoralDistricts": [
          {
            "election": null,
            "id": 108,
            "name": "Timmins"
          }
        ],
        "pollDivisionIds": [
          10142485
        ],
        "postalCode": "P0N1C0",
        "streetName": "EARL",
        "streetDirectionId": "E",
        "streetTypeId": "ST",
        "placeName": "PORCUPINE",
        "streetNameDisplayText": "EARL ST E, PORCUPINE"
      },
      {
        "electoralDistricts": [
          {
            "election": null,
            "id": 108,
            "name": "Timmins"
          }
        ],
        "pollDivisionIds": [
          10142485
        ],
        "postalCode": "P0N1C0",
        "streetName": "EARL",
        "streetDirectionId": "W",
        "streetTypeId": "ST",
        "placeName": "PORCUPINE",
        "streetNameDisplayText": "EARL ST W, PORCUPINE"
      },
      {
        "electoralDistricts": [
          {
            "election": null,
            "id": 108,
            "name": "Timmins"
          }
        ],
        "pollDivisionIds": [
          10142485
        ],
        "postalCode": "P0N1C0",
        "streetName": "EARL",
        "streetDirectionId": null,
        "streetTypeId": "ST",
        "placeName": "TIMMINS",
        "streetNameDisplayText": "EARL ST, TIMMINS"
      },
      {
        "electoralDistricts": [
          {
            "election": null,
            "id": 108,
            "name": "Timmins"
          }
        ],
        "pollDivisionIds": [
          10142485
        ],
        "postalCode": "P0N1C0",
        "streetName": "EIGHTH",
        "streetDirectionId": null,
        "streetTypeId": "AVE",
        "placeName": "PORCUPINE",
        "streetNameDisplayText": "EIGHTH AVE, PORCUPINE"
      },
      {
        "electoralDistricts": [
          {
            "election": null,
            "id": 108,
            "name": "Timmins"
          }
        ],
        "pollDivisionIds": [
          10142485
        ],
        "postalCode": "P0N1C0",
        "streetName": "FALCON",
        "streetDirectionId": null,
        "streetTypeId": "ST",
        "placeName": "PORCUPINE",
        "streetNameDisplayText": "FALCON ST, PORCUPINE"
      },
      {
        "electoralDistricts": [
          {
            "election": null,
            "id": 108,
            "name": "Timmins"
          }
        ],
        "pollDivisionIds": [
          10142483
        ],
        "postalCode": "P0N1C0",
        "streetName": "FERGUSON",
        "streetDirectionId": null,
        "streetTypeId": "RD",
        "placeName": "PORCUPINE",
        "streetNameDisplayText": "FERGUSON RD, PORCUPINE"
      },
      {
        "electoralDistricts": [
          {
            "election": null,
            "id": 108,
            "name": "Timmins"
          }
        ],
        "pollDivisionIds": [
          10142483
        ],
        "postalCode": "P0N1C0",
        "streetName": "FERGUSON",
        "streetDirectionId": null,
        "streetTypeId": "RD",
        "placeName": "SOUTH PORCUPINE",
        "streetNameDisplayText": "FERGUSON RD, SOUTH PORCUPINE"
      },
      {
        "electoralDistricts": [
          {
            "election": null,
            "id": 108,
            "name": "Timmins"
          }
        ],
        "pollDivisionIds": [
          10142485
        ],
        "postalCode": "P0N1C0",
        "streetName": "FLORENCE",
        "streetDirectionId": null,
        "streetTypeId": "ST",
        "placeName": "PORCUPINE",
        "streetNameDisplayText": "FLORENCE ST, PORCUPINE"
      },
      {
        "electoralDistricts": [
          {
            "election": null,
            "id": 108,
            "name": "Timmins"
          }
        ],
        "pollDivisionIds": [
          10142485
        ],
        "postalCode": "P0N1C0",
        "streetName": "GAUTHIER",
        "streetDirectionId": null,
        "streetTypeId": "ST",
        "placeName": "PORCUPINE",
        "streetNameDisplayText": "GAUTHIER ST, PORCUPINE"
      },
      {
        "electoralDistricts": [
          {
            "election": null,
            "id": 108,
            "name": "Timmins"
          }
        ],
        "pollDivisionIds": [
          10142485
        ],
        "postalCode": "P0N1C0",
        "streetName": "GERVAIS",
        "streetDirectionId": "N",
        "streetTypeId": "ST",
        "placeName": "PORCUPINE",
        "streetNameDisplayText": "GERVAIS ST N, PORCUPINE"
      },
      {
        "electoralDistricts": [
          {
            "election": null,
            "id": 108,
            "name": "Timmins"
          }
        ],
        "pollDivisionIds": [
          10142485,
          10142482
        ],
        "postalCode": "P0N1C0",
        "streetName": "GERVAIS",
        "streetDirectionId": "S",
        "streetTypeId": "ST",
        "placeName": "PORCUPINE",
        "streetNameDisplayText": "GERVAIS ST S, PORCUPINE"
      },
      {
        "electoralDistricts": [
          {
            "election": null,
            "id": 108,
            "name": "Timmins"
          }
        ],
        "pollDivisionIds": [
          10142483
        ],
        "postalCode": "P0N1C0",
        "streetName": "GOVERNMENT",
        "streetDirectionId": "N",
        "streetTypeId": "RD",
        "placeName": "PORCUPINE",
        "streetNameDisplayText": "GOVERNMENT RD N, PORCUPINE"
      },
      {
        "electoralDistricts": [
          {
            "election": null,
            "id": 108,
            "name": "Timmins"
          }
        ],
        "pollDivisionIds": [
          10142485
        ],
        "postalCode": "P0N1C0",
        "streetName": "HAILEYBURY",
        "streetDirectionId": null,
        "streetTypeId": "CRES",
        "placeName": "PORCUPINE",
        "streetNameDisplayText": "HAILEYBURY CRES, PORCUPINE"
      },
      {
        "electoralDistricts": [
          {
            "election": null,
            "id": 108,
            "name": "Timmins"
          }
        ],
        "pollDivisionIds": [
          10142485
        ],
        "postalCode": "P0N1C0",
        "streetName": "HALLNOR MINE",
        "streetDirectionId": null,
        "streetTypeId": "RD",
        "placeName": "PORCUPINE",
        "streetNameDisplayText": "HALLNOR MINE RD, PORCUPINE"
      },
      {
        "electoralDistricts": [
          {
            "election": null,
            "id": 108,
            "name": "Timmins"
          }
        ],
        "pollDivisionIds": [
          10142485
        ],
        "postalCode": "P0N1C0",
        "streetName": "HALLNOR",
        "streetDirectionId": null,
        "streetTypeId": "RD",
        "placeName": "PORCUPINE",
        "streetNameDisplayText": "HALLNOR RD, PORCUPINE"
      },
      {
        "electoralDistricts": [
          {
            "election": null,
            "id": 108,
            "name": "Timmins"
          }
        ],
        "pollDivisionIds": [
          10142485
        ],
        "postalCode": "P0N1C0",
        "streetName": "HENRY",
        "streetDirectionId": null,
        "streetTypeId": "ST",
        "placeName": "PORCUPINE",
        "streetNameDisplayText": "HENRY ST, PORCUPINE"
      },
      {
        "electoralDistricts": [
          {
            "election": null,
            "id": 108,
            "name": "Timmins"
          }
        ],
        "pollDivisionIds": [
          10142485
        ],
        "postalCode": "P0N1C0",
        "streetName": "HIGHWAY 101 EAST",
        "streetDirectionId": "E",
        "streetTypeId": null,
        "placeName": "PORCUPINE",
        "streetNameDisplayText": "HIGHWAY 101 EAST E, PORCUPINE"
      },
      {
        "electoralDistricts": [
          {
            "election": null,
            "id": 108,
            "name": "Timmins"
          }
        ],
        "pollDivisionIds": [
          10142486
        ],
        "postalCode": "P0N1C0",
        "streetName": "HOYLE",
        "streetDirectionId": null,
        "streetTypeId": "RD",
        "placeName": "CONNAUGHT",
        "streetNameDisplayText": "HOYLE RD, CONNAUGHT"
      },
      {
        "electoralDistricts": [
          {
            "election": null,
            "id": 108,
            "name": "Timmins"
          }
        ],
        "pollDivisionIds": [
          10142485
        ],
        "postalCode": "P0N1C0",
        "streetName": "HWY 101 EAST",
        "streetDirectionId": "E",
        "streetTypeId": null,
        "placeName": "PORCUPINE",
        "streetNameDisplayText": "HWY 101 EAST E, PORCUPINE"
      },
      {
        "electoralDistricts": [
          {
            "election": null,
            "id": 108,
            "name": "Timmins"
          }
        ],
        "pollDivisionIds": [
          10142485
        ],
        "postalCode": "P0N1C0",
        "streetName": "IDA",
        "streetDirectionId": null,
        "streetTypeId": "ST",
        "placeName": "PORCUPINE",
        "streetNameDisplayText": "IDA ST, PORCUPINE"
      },
      {
        "electoralDistricts": [
          {
            "election": null,
            "id": 108,
            "name": "Timmins"
          }
        ],
        "pollDivisionIds": [
          10142485
        ],
        "postalCode": "P0N1C0",
        "streetName": "JARVI",
        "streetDirectionId": null,
        "streetTypeId": "ST",
        "placeName": "PORCUPINE",
        "streetNameDisplayText": "JARVI ST, PORCUPINE"
      },
      {
        "electoralDistricts": [
          {
            "election": null,
            "id": 108,
            "name": "Timmins"
          }
        ],
        "pollDivisionIds": [
          10142485,
          10142472
        ],
        "postalCode": "P0N1C0",
        "streetName": "KENNETH",
        "streetDirectionId": null,
        "streetTypeId": "CRES",
        "placeName": "PORCUPINE",
        "streetNameDisplayText": "KENNETH CRES, PORCUPINE"
      },
      {
        "electoralDistricts": [
          {
            "election": null,
            "id": 108,
            "name": "Timmins"
          }
        ],
        "pollDivisionIds": [
          10142485
        ],
        "postalCode": "P0N1C0",
        "streetName": "KENNETH",
        "streetDirectionId": null,
        "streetTypeId": "CRT",
        "placeName": "PORCUPINE",
        "streetNameDisplayText": "KENNETH CRT, PORCUPINE"
      },
      {
        "electoralDistricts": [
          {
            "election": null,
            "id": 108,
            "name": "Timmins"
          }
        ],
        "pollDivisionIds": [
          10142471
        ],
        "postalCode": "P0N1C0",
        "streetName": "KENOGAMISSI LAKE",
        "streetDirectionId": null,
        "streetTypeId": "RD",
        "placeName": "FOLEYET",
        "streetNameDisplayText": "KENOGAMISSI LAKE RD, FOLEYET"
      },
      {
        "electoralDistricts": [
          {
            "election": null,
            "id": 108,
            "name": "Timmins"
          }
        ],
        "pollDivisionIds": [
          10142485
        ],
        "postalCode": "P0N1C0",
        "streetName": "KING",
        "streetDirectionId": null,
        "streetTypeId": "ST",
        "placeName": "PORCUPINE",
        "streetNameDisplayText": "KING ST, PORCUPINE"
      },
      {
        "electoralDistricts": [
          {
            "election": null,
            "id": 108,
            "name": "Timmins"
          }
        ],
        "pollDivisionIds": [
          10142485
        ],
        "postalCode": "P0N1C0",
        "streetName": "KING",
        "streetDirectionId": null,
        "streetTypeId": "ST",
        "placeName": "TIMMINS",
        "streetNameDisplayText": "KING ST, TIMMINS"
      },
      {
        "electoralDistricts": [
          {
            "election": null,
            "id": 108,
            "name": "Timmins"
          }
        ],
        "pollDivisionIds": [
          10142485
        ],
        "postalCode": "P0N1C0",
        "streetName": "KRZNARIC",
        "streetDirectionId": null,
        "streetTypeId": "ST",
        "placeName": "PORCUPINE",
        "streetNameDisplayText": "KRZNARIC ST, PORCUPINE"
      },
      {
        "electoralDistricts": [
          {
            "election": null,
            "id": 108,
            "name": "Timmins"
          }
        ],
        "pollDivisionIds": [
          10142485
        ],
        "postalCode": "P0N1C0",
        "streetName": "LAMARCHE",
        "streetDirectionId": null,
        "streetTypeId": "ST",
        "placeName": "PORCUPINE",
        "streetNameDisplayText": "LAMARCHE ST, PORCUPINE"
      },
      {
        "electoralDistricts": [
          {
            "election": null,
            "id": 108,
            "name": "Timmins"
          }
        ],
        "pollDivisionIds": [
          10142483,
          10142485
        ],
        "postalCode": "P0N1C0",
        "streetName": "LAWRENCE",
        "streetDirectionId": null,
        "streetTypeId": "ST",
        "placeName": "PORCUPINE",
        "streetNameDisplayText": "LAWRENCE ST, PORCUPINE"
      },
      {
        "electoralDistricts": [
          {
            "election": null,
            "id": 108,
            "name": "Timmins"
          }
        ],
        "pollDivisionIds": [
          10142485
        ],
        "postalCode": "P0N1C0",
        "streetName": "LOVERS",
        "streetDirectionId": null,
        "streetTypeId": "LANE",
        "placeName": "PORCUPINE",
        "streetNameDisplayText": "LOVERS LANE, PORCUPINE"
      },
      {
        "electoralDistricts": [
          {
            "election": null,
            "id": 108,
            "name": "Timmins"
          }
        ],
        "pollDivisionIds": [
          10142485
        ],
        "postalCode": "P0N1C0",
        "streetName": "MARQUIS",
        "streetDirectionId": null,
        "streetTypeId": "ST",
        "placeName": "PORCUPINE",
        "streetNameDisplayText": "MARQUIS ST, PORCUPINE"
      },
      {
        "electoralDistricts": [
          {
            "election": null,
            "id": 108,
            "name": "Timmins"
          }
        ],
        "pollDivisionIds": [
          10142485
        ],
        "postalCode": "P0N1C0",
        "streetName": "MILDRED",
        "streetDirectionId": null,
        "streetTypeId": "AVE",
        "placeName": "PORCUPINE",
        "streetNameDisplayText": "MILDRED AVE, PORCUPINE"
      },
      {
        "electoralDistricts": [
          {
            "election": null,
            "id": 108,
            "name": "Timmins"
          }
        ],
        "pollDivisionIds": [
          10142485
        ],
        "postalCode": "P0N1C0",
        "streetName": "NEW",
        "streetDirectionId": null,
        "streetTypeId": "ST",
        "placeName": "PORCUPINE",
        "streetNameDisplayText": "NEW ST, PORCUPINE"
      },
      {
        "electoralDistricts": [
          {
            "election": null,
            "id": 108,
            "name": "Timmins"
          }
        ],
        "pollDivisionIds": [
          10142486
        ],
        "postalCode": "P0N1C0",
        "streetName": "NIGHTHAWK LAKE",
        "streetDirectionId": null,
        "streetTypeId": "RD",
        "placeName": "CONNAUGHT",
        "streetNameDisplayText": "NIGHTHAWK LAKE RD, CONNAUGHT"
      },
      {
        "electoralDistricts": [
          {
            "election": null,
            "id": 108,
            "name": "Timmins"
          }
        ],
        "pollDivisionIds": [
          10142485
        ],
        "postalCode": "P0N1C0",
        "streetName": "OTTOLEN",
        "streetDirectionId": null,
        "streetTypeId": "ST",
        "placeName": "PORCUPINE",
        "streetNameDisplayText": "OTTOLEN ST, PORCUPINE"
      },
      {
        "electoralDistricts": [
          {
            "election": null,
            "id": 108,
            "name": "Timmins"
          }
        ],
        "pollDivisionIds": [
          10142486
        ],
        "postalCode": "P0N1C0",
        "streetName": "PENINSULA",
        "streetDirectionId": null,
        "streetTypeId": "RD",
        "placeName": "CONNAUGHT",
        "streetNameDisplayText": "PENINSULA RD, CONNAUGHT"
      },
      {
        "electoralDistricts": [
          {
            "election": null,
            "id": 108,
            "name": "Timmins"
          }
        ],
        "pollDivisionIds": [
          10142485
        ],
        "postalCode": "P0N1C0",
        "streetName": "PRINCESS",
        "streetDirectionId": null,
        "streetTypeId": "ST",
        "placeName": "PORCUPINE",
        "streetNameDisplayText": "PRINCESS ST, PORCUPINE"
      },
      {
        "electoralDistricts": [
          {
            "election": null,
            "id": 108,
            "name": "Timmins"
          }
        ],
        "pollDivisionIds": [
          10142485
        ],
        "postalCode": "P0N1C0",
        "streetName": "QUEEN",
        "streetDirectionId": null,
        "streetTypeId": "ST",
        "placeName": "PORCUPINE",
        "streetNameDisplayText": "QUEEN ST, PORCUPINE"
      },
      {
        "electoralDistricts": [
          {
            "election": null,
            "id": 108,
            "name": "Timmins"
          }
        ],
        "pollDivisionIds": [
          10142485
        ],
        "postalCode": "P0N1C0",
        "streetName": "REKELA",
        "streetDirectionId": "N",
        "streetTypeId": "ST",
        "placeName": "PORCUPINE",
        "streetNameDisplayText": "REKELA ST N, PORCUPINE"
      },
      {
        "electoralDistricts": [
          {
            "election": null,
            "id": 108,
            "name": "Timmins"
          }
        ],
        "pollDivisionIds": [
          10142485
        ],
        "postalCode": "P0N1C0",
        "streetName": "REKELA",
        "streetDirectionId": "S",
        "streetTypeId": "ST",
        "placeName": "PORCUPINE",
        "streetNameDisplayText": "REKELA ST S, PORCUPINE"
      },
      {
        "electoralDistricts": [
          {
            "election": null,
            "id": 108,
            "name": "Timmins"
          }
        ],
        "pollDivisionIds": [
          10142485
        ],
        "postalCode": "P0N1C0",
        "streetName": "REMEMBRANCE",
        "streetDirectionId": null,
        "streetTypeId": "ST",
        "placeName": "PORCUPINE",
        "streetNameDisplayText": "REMEMBRANCE ST, PORCUPINE"
      },
      {
        "electoralDistricts": [
          {
            "election": null,
            "id": 108,
            "name": "Timmins"
          }
        ],
        "pollDivisionIds": [
          10142485
        ],
        "postalCode": "P0N1C0",
        "streetName": "RUTH",
        "streetDirectionId": null,
        "streetTypeId": "ST",
        "placeName": "PORCUPINE",
        "streetNameDisplayText": "RUTH ST, PORCUPINE"
      },
      {
        "electoralDistricts": [
          {
            "election": null,
            "id": 108,
            "name": "Timmins"
          }
        ],
        "pollDivisionIds": [
          10142485
        ],
        "postalCode": "P0N1C0",
        "streetName": "SEGUIN",
        "streetDirectionId": null,
        "streetTypeId": "ST",
        "placeName": "PORCUPINE",
        "streetNameDisplayText": "SEGUIN ST, PORCUPINE"
      },
      {
        "electoralDistricts": [
          {
            "election": null,
            "id": 108,
            "name": "Timmins"
          }
        ],
        "pollDivisionIds": [
          10142485
        ],
        "postalCode": "P0N1C0",
        "streetName": "SUTHERLAND",
        "streetDirectionId": null,
        "streetTypeId": "ST",
        "placeName": "PORCUPINE",
        "streetNameDisplayText": "SUTHERLAND ST, PORCUPINE"
      },
      {
        "electoralDistricts": [
          {
            "election": null,
            "id": 108,
            "name": "Timmins"
          }
        ],
        "pollDivisionIds": [
          10142485
        ],
        "postalCode": "P0N1C0",
        "streetName": "YOUNG",
        "streetDirectionId": null,
        "streetTypeId": "ST",
        "placeName": "PORCUPINE",
        "streetNameDisplayText": "YOUNG ST, PORCUPINE"
      }
    ]
  },
  {
    "postal": "P0N1E0",
    "result": [
      {
        "electoralDistricts": [
          {
            "election": null,
            "id": 107,
            "name": "Timiskaming—Cochrane"
          }
        ],
        "pollDivisionIds": [
          10142399
        ],
        "postalCode": "P0N1E0",
        "streetName": "11",
        "streetDirectionId": null,
        "streetTypeId": "HWY",
        "placeName": "IROQUOIS FALLS",
        "streetNameDisplayText": "11 HWY, IROQUOIS FALLS"
      },
      {
        "electoralDistricts": [
          {
            "election": null,
            "id": 107,
            "name": "Timiskaming—Cochrane"
          }
        ],
        "pollDivisionIds": [
          10142399
        ],
        "postalCode": "P0N1E0",
        "streetName": "11",
        "streetDirectionId": null,
        "streetTypeId": "HWY",
        "placeName": "PORQUIS JUNCTION",
        "streetNameDisplayText": "11 HWY, PORQUIS JUNCTION"
      },
      {
        "electoralDistricts": [
          {
            "election": null,
            "id": 107,
            "name": "Timiskaming—Cochrane"
          }
        ],
        "pollDivisionIds": [
          10142399
        ],
        "postalCode": "P0N1E0",
        "streetName": "ALBERT",
        "streetDirectionId": null,
        "streetTypeId": "ST",
        "placeName": "IROQUOIS FALLS A",
        "streetNameDisplayText": "ALBERT ST, IROQUOIS FALLS A"
      },
      {
        "electoralDistricts": [
          {
            "election": null,
            "id": 107,
            "name": "Timiskaming—Cochrane"
          }
        ],
        "pollDivisionIds": [
          10142399
        ],
        "postalCode": "P0N1E0",
        "streetName": "AUBREY",
        "streetDirectionId": null,
        "streetTypeId": "RD",
        "placeName": "IROQUOIS FALLS A",
        "streetNameDisplayText": "AUBREY RD, IROQUOIS FALLS A"
      },
      {
        "electoralDistricts": [
          {
            "election": null,
            "id": 107,
            "name": "Timiskaming—Cochrane"
          }
        ],
        "pollDivisionIds": [
          10142399
        ],
        "postalCode": "P0N1E0",
        "streetName": "CEMETERY",
        "streetDirectionId": null,
        "streetTypeId": "RD",
        "placeName": "IROQUOIS FALLS",
        "streetNameDisplayText": "CEMETERY RD, IROQUOIS FALLS"
      },
      {
        "electoralDistricts": [
          {
            "election": null,
            "id": 107,
            "name": "Timiskaming—Cochrane"
          }
        ],
        "pollDivisionIds": [
          10142399
        ],
        "postalCode": "P0N1E0",
        "streetName": "CEMETERY",
        "streetDirectionId": null,
        "streetTypeId": "RD",
        "placeName": "PORQUIS JUNCTION",
        "streetNameDisplayText": "CEMETERY RD, PORQUIS JUNCTION"
      },
      {
        "electoralDistricts": [
          {
            "election": null,
            "id": 107,
            "name": "Timiskaming—Cochrane"
          }
        ],
        "pollDivisionIds": [
          10142399
        ],
        "postalCode": "P0N1E0",
        "streetName": "COSEN'S",
        "streetDirectionId": null,
        "streetTypeId": "RD",
        "placeName": "PORQUIS JUNCTION",
        "streetNameDisplayText": "COSEN'S RD, PORQUIS JUNCTION"
      },
      {
        "electoralDistricts": [
          {
            "election": null,
            "id": 107,
            "name": "Timiskaming—Cochrane"
          }
        ],
        "pollDivisionIds": [
          10142399
        ],
        "postalCode": "P0N1E0",
        "streetName": "EDWARD",
        "streetDirectionId": null,
        "streetTypeId": "ST",
        "placeName": "IROQUOIS FALLS A",
        "streetNameDisplayText": "EDWARD ST, IROQUOIS FALLS A"
      },
      {
        "electoralDistricts": [
          {
            "election": null,
            "id": 107,
            "name": "Timiskaming—Cochrane"
          }
        ],
        "pollDivisionIds": [
          10142399
        ],
        "postalCode": "P0N1E0",
        "streetName": "EDWARD",
        "streetDirectionId": null,
        "streetTypeId": "ST",
        "placeName": "PORQUIS JUNCTION",
        "streetNameDisplayText": "EDWARD ST, PORQUIS JUNCTION"
      },
      {
        "electoralDistricts": [
          {
            "election": null,
            "id": 107,
            "name": "Timiskaming—Cochrane"
          }
        ],
        "pollDivisionIds": [
          10142399
        ],
        "postalCode": "P0N1E0",
        "streetName": "EVELYN",
        "streetDirectionId": null,
        "streetTypeId": "ST",
        "placeName": "IROQUOIS FALLS A",
        "streetNameDisplayText": "EVELYN ST, IROQUOIS FALLS A"
      },
      {
        "electoralDistricts": [
          {
            "election": null,
            "id": 107,
            "name": "Timiskaming—Cochrane"
          }
        ],
        "pollDivisionIds": [
          10142399
        ],
        "postalCode": "P0N1E0",
        "streetName": "JENSEN",
        "streetDirectionId": null,
        "streetTypeId": "RD",
        "placeName": "PORQUIS JUNCTION",
        "streetNameDisplayText": "JENSEN RD, PORQUIS JUNCTION"
      },
      {
        "electoralDistricts": [
          {
            "election": null,
            "id": 107,
            "name": "Timiskaming—Cochrane"
          }
        ],
        "pollDivisionIds": [
          10142399
        ],
        "postalCode": "P0N1E0",
        "streetName": "JOHN",
        "streetDirectionId": null,
        "streetTypeId": "ST",
        "placeName": "IROQUOIS FALLS A",
        "streetNameDisplayText": "JOHN ST, IROQUOIS FALLS A"
      },
      {
        "electoralDistricts": [
          {
            "election": null,
            "id": 107,
            "name": "Timiskaming—Cochrane"
          }
        ],
        "pollDivisionIds": [
          10142399
        ],
        "postalCode": "P0N1E0",
        "streetName": "JOHNSON",
        "streetDirectionId": null,
        "streetTypeId": "RD",
        "placeName": "PORQUIS JUNCTION",
        "streetNameDisplayText": "JOHNSON RD, PORQUIS JUNCTION"
      },
      {
        "electoralDistricts": [
          {
            "election": null,
            "id": 107,
            "name": "Timiskaming—Cochrane"
          }
        ],
        "pollDivisionIds": [
          10142399
        ],
        "postalCode": "P0N1E0",
        "streetName": "LANSDELL",
        "streetDirectionId": null,
        "streetTypeId": "RD",
        "placeName": "PORQUIS JUNCTION",
        "streetNameDisplayText": "LANSDELL RD, PORQUIS JUNCTION"
      },
      {
        "electoralDistricts": [
          {
            "election": null,
            "id": 107,
            "name": "Timiskaming—Cochrane"
          }
        ],
        "pollDivisionIds": [
          10142399
        ],
        "postalCode": "P0N1E0",
        "streetName": "MUNICIPAL",
        "streetDirectionId": null,
        "streetTypeId": "RD",
        "placeName": "IROQUOIS FALLS A",
        "streetNameDisplayText": "MUNICIPAL RD, IROQUOIS FALLS A"
      },
      {
        "electoralDistricts": [
          {
            "election": null,
            "id": 107,
            "name": "Timiskaming—Cochrane"
          }
        ],
        "pollDivisionIds": [
          10142399
        ],
        "postalCode": "P0N1E0",
        "streetName": "MUNICIPAL",
        "streetDirectionId": null,
        "streetTypeId": "RD",
        "placeName": "PORQUIS JUNCTION",
        "streetNameDisplayText": "MUNICIPAL RD, PORQUIS JUNCTION"
      },
      {
        "electoralDistricts": [
          {
            "election": null,
            "id": 107,
            "name": "Timiskaming—Cochrane"
          }
        ],
        "pollDivisionIds": [
          10142399
        ],
        "postalCode": "P0N1E0",
        "streetName": "O'FRANK",
        "streetDirectionId": null,
        "streetTypeId": "RD",
        "placeName": "IROQUOIS FALLS A",
        "streetNameDisplayText": "O'FRANK RD, IROQUOIS FALLS A"
      },
      {
        "electoralDistricts": [
          {
            "election": null,
            "id": 107,
            "name": "Timiskaming—Cochrane"
          }
        ],
        "pollDivisionIds": [
          10142399
        ],
        "postalCode": "P0N1E0",
        "streetName": "RESE",
        "streetDirectionId": null,
        "streetTypeId": "RD",
        "placeName": "IROQUOIS FALLS A",
        "streetNameDisplayText": "RESE RD, IROQUOIS FALLS A"
      },
      {
        "electoralDistricts": [
          {
            "election": null,
            "id": 107,
            "name": "Timiskaming—Cochrane"
          }
        ],
        "pollDivisionIds": [
          10142399
        ],
        "postalCode": "P0N1E0",
        "streetName": "RESE",
        "streetDirectionId": null,
        "streetTypeId": "RD",
        "placeName": "PORQUIS JUNCTION",
        "streetNameDisplayText": "RESE RD, PORQUIS JUNCTION"
      },
      {
        "electoralDistricts": [
          {
            "election": null,
            "id": 107,
            "name": "Timiskaming—Cochrane"
          }
        ],
        "pollDivisionIds": [
          10142399
        ],
        "postalCode": "P0N1E0",
        "streetName": "RICE LAKE",
        "streetDirectionId": null,
        "streetTypeId": "RD",
        "placeName": "IROQUOIS FALLS A",
        "streetNameDisplayText": "RICE LAKE RD, IROQUOIS FALLS A"
      },
      {
        "electoralDistricts": [
          {
            "election": null,
            "id": 107,
            "name": "Timiskaming—Cochrane"
          }
        ],
        "pollDivisionIds": [
          10142399
        ],
        "postalCode": "P0N1E0",
        "streetName": "SYBIL",
        "streetDirectionId": null,
        "streetTypeId": "ST",
        "placeName": "PORQUIS JUNCTION",
        "streetNameDisplayText": "SYBIL ST, PORQUIS JUNCTION"
      }
    ]
  },
  {
    "postal": "P0N1G0",
    "result": [
      {
        "electoralDistricts": [
          {
            "election": null,
            "id": 108,
            "name": "Timmins"
          }
        ],
        "pollDivisionIds": [
          10142484,
          10142481
        ],
        "postalCode": "P0N1G0",
        "streetName": "101",
        "streetDirectionId": "E",
        "streetTypeId": "HWY",
        "placeName": "SCHUMACHER",
        "streetNameDisplayText": "101 HWY E, SCHUMACHER"
      },
      {
        "electoralDistricts": [
          {
            "election": null,
            "id": 108,
            "name": "Timmins"
          }
        ],
        "pollDivisionIds": [
          10142470
        ],
        "postalCode": "P0N1G0",
        "streetName": "101",
        "streetDirectionId": "W",
        "streetTypeId": "HWY",
        "placeName": "TIMMINS",
        "streetNameDisplayText": "101 HWY W, TIMMINS"
      },
      {
        "electoralDistricts": [
          {
            "election": null,
            "id": 108,
            "name": "Timmins"
          }
        ],
        "pollDivisionIds": [
          10142484
        ],
        "postalCode": "P0N1G0",
        "streetName": "101",
        "streetDirectionId": null,
        "streetTypeId": "HWY",
        "placeName": "SCHUMACHER",
        "streetNameDisplayText": "101 HWY, SCHUMACHER"
      },
      {
        "electoralDistricts": [
          {
            "election": null,
            "id": 108,
            "name": "Timmins"
          }
        ],
        "pollDivisionIds": [
          10142485
        ],
        "postalCode": "P0N1G0",
        "streetName": "2",
        "streetDirectionId": null,
        "streetTypeId": "ST",
        "placeName": "TIMMINS",
        "streetNameDisplayText": "2 ST, TIMMINS"
      },
      {
        "electoralDistricts": [
          {
            "election": null,
            "id": 108,
            "name": "Timmins"
          }
        ],
        "pollDivisionIds": [
          10142485
        ],
        "postalCode": "P0N1G0",
        "streetName": "3",
        "streetDirectionId": null,
        "streetTypeId": "ST",
        "placeName": "TIMMINS",
        "streetNameDisplayText": "3 ST, TIMMINS"
      },
      {
        "electoralDistricts": [
          {
            "election": null,
            "id": 108,
            "name": "Timmins"
          }
        ],
        "pollDivisionIds": [
          10142485
        ],
        "postalCode": "P0N1G0",
        "streetName": "4",
        "streetDirectionId": null,
        "streetTypeId": "ST",
        "placeName": "TIMMINS",
        "streetNameDisplayText": "4 ST, TIMMINS"
      },
      {
        "electoralDistricts": [
          {
            "election": null,
            "id": 108,
            "name": "Timmins"
          }
        ],
        "pollDivisionIds": [
          10142481
        ],
        "postalCode": "P0N1G0",
        "streetName": "4TH",
        "streetDirectionId": null,
        "streetTypeId": "AVE",
        "placeName": "SCHUMACHER",
        "streetNameDisplayText": "4TH AVE, SCHUMACHER"
      },
      {
        "electoralDistricts": [
          {
            "election": null,
            "id": 108,
            "name": "Timmins"
          }
        ],
        "pollDivisionIds": [
          10142481
        ],
        "postalCode": "P0N1G0",
        "streetName": "ALGONQUIN",
        "streetDirectionId": "E",
        "streetTypeId": "BLVD",
        "placeName": "SCHUMACHER",
        "streetNameDisplayText": "ALGONQUIN BLVD E, SCHUMACHER"
      },
      {
        "electoralDistricts": [
          {
            "election": null,
            "id": 108,
            "name": "Timmins"
          }
        ],
        "pollDivisionIds": [
          10142481
        ],
        "postalCode": "P0N1G0",
        "streetName": "ALGONQUIN",
        "streetDirectionId": "E",
        "streetTypeId": "BLVD",
        "placeName": "TIMMINS",
        "streetNameDisplayText": "ALGONQUIN BLVD E, TIMMINS"
      },
      {
        "electoralDistricts": [
          {
            "election": null,
            "id": 108,
            "name": "Timmins"
          }
        ],
        "pollDivisionIds": [
          10142481
        ],
        "postalCode": "P0N1G0",
        "streetName": "AURA LAKE",
        "streetDirectionId": null,
        "streetTypeId": "ST",
        "placeName": "SCHUMACHER",
        "streetNameDisplayText": "AURA LAKE ST, SCHUMACHER"
      },
      {
        "electoralDistricts": [
          {
            "election": null,
            "id": 108,
            "name": "Timmins"
          }
        ],
        "pollDivisionIds": [
          10142481
        ],
        "postalCode": "P0N1G0",
        "streetName": "BATTOCHIO",
        "streetDirectionId": null,
        "streetTypeId": "ST",
        "placeName": "SCHUMACHER",
        "streetNameDisplayText": "BATTOCHIO ST, SCHUMACHER"
      },
      {
        "electoralDistricts": [
          {
            "election": null,
            "id": 108,
            "name": "Timmins"
          }
        ],
        "pollDivisionIds": [
          10142481
        ],
        "postalCode": "P0N1G0",
        "streetName": "BATTOCHIO",
        "streetDirectionId": null,
        "streetTypeId": "ST",
        "placeName": "TIMMINS",
        "streetNameDisplayText": "BATTOCHIO ST, TIMMINS"
      },
      {
        "electoralDistricts": [
          {
            "election": null,
            "id": 108,
            "name": "Timmins"
          }
        ],
        "pollDivisionIds": [
          10142481
        ],
        "postalCode": "P0N1G0",
        "streetName": "BOUNDARY",
        "streetDirectionId": null,
        "streetTypeId": "LANE",
        "placeName": "SCHUMACHER",
        "streetNameDisplayText": "BOUNDARY LANE, SCHUMACHER"
      },
      {
        "electoralDistricts": [
          {
            "election": null,
            "id": 108,
            "name": "Timmins"
          }
        ],
        "pollDivisionIds": [
          10142481
        ],
        "postalCode": "P0N1G0",
        "streetName": "BRUNDY",
        "streetDirectionId": null,
        "streetTypeId": "AVE",
        "placeName": "SCHUMACHER",
        "streetNameDisplayText": "BRUNDY AVE, SCHUMACHER"
      },
      {
        "electoralDistricts": [
          {
            "election": null,
            "id": 108,
            "name": "Timmins"
          }
        ],
        "pollDivisionIds": [
          10142481
        ],
        "postalCode": "P0N1G0",
        "streetName": "CARIUM",
        "streetDirectionId": null,
        "streetTypeId": "RD",
        "placeName": "SCHUMACHER",
        "streetNameDisplayText": "CARIUM RD, SCHUMACHER"
      },
      {
        "electoralDistricts": [
          {
            "election": null,
            "id": 108,
            "name": "Timmins"
          }
        ],
        "pollDivisionIds": [
          10142481
        ],
        "postalCode": "P0N1G0",
        "streetName": "CARIUM",
        "streetDirectionId": null,
        "streetTypeId": "RD",
        "placeName": "TIMMINS",
        "streetNameDisplayText": "CARIUM RD, TIMMINS"
      },
      {
        "electoralDistricts": [
          {
            "election": null,
            "id": 108,
            "name": "Timmins"
          }
        ],
        "pollDivisionIds": [
          10142481
        ],
        "postalCode": "P0N1G0",
        "streetName": "CLAIMPOST",
        "streetDirectionId": null,
        "streetTypeId": "TRAIL",
        "placeName": "SCHUMACHER",
        "streetNameDisplayText": "CLAIMPOST TRAIL, SCHUMACHER"
      },
      {
        "electoralDistricts": [
          {
            "election": null,
            "id": 108,
            "name": "Timmins"
          }
        ],
        "pollDivisionIds": [
          10142481
        ],
        "postalCode": "P0N1G0",
        "streetName": "CROATIA",
        "streetDirectionId": null,
        "streetTypeId": "AVE",
        "placeName": "SCHUMACHER",
        "streetNameDisplayText": "CROATIA AVE, SCHUMACHER"
      },
      {
        "electoralDistricts": [
          {
            "election": null,
            "id": 108,
            "name": "Timmins"
          }
        ],
        "pollDivisionIds": [
          10142481
        ],
        "postalCode": "P0N1G0",
        "streetName": "DELNITE",
        "streetDirectionId": null,
        "streetTypeId": "RD",
        "placeName": "TIMMINS",
        "streetNameDisplayText": "DELNITE RD, TIMMINS"
      },
      {
        "electoralDistricts": [
          {
            "election": null,
            "id": 108,
            "name": "Timmins"
          }
        ],
        "pollDivisionIds": [
          10142481
        ],
        "postalCode": "P0N1G0",
        "streetName": "DELOST",
        "streetDirectionId": null,
        "streetTypeId": "ST",
        "placeName": "SCHUMACHER",
        "streetNameDisplayText": "DELOST ST, SCHUMACHER"
      },
      {
        "electoralDistricts": [
          {
            "election": null,
            "id": 108,
            "name": "Timmins"
          }
        ],
        "pollDivisionIds": [
          10142481
        ],
        "postalCode": "P0N1G0",
        "streetName": "DWYER",
        "streetDirectionId": "E",
        "streetTypeId": "AVE",
        "placeName": "SCHUMACHER",
        "streetNameDisplayText": "DWYER AVE E, SCHUMACHER"
      },
      {
        "electoralDistricts": [
          {
            "election": null,
            "id": 108,
            "name": "Timmins"
          }
        ],
        "pollDivisionIds": [
          10142481
        ],
        "postalCode": "P0N1G0",
        "streetName": "DWYER",
        "streetDirectionId": null,
        "streetTypeId": "AVE",
        "placeName": "SCHUMACHER",
        "streetNameDisplayText": "DWYER AVE, SCHUMACHER"
      },
      {
        "electoralDistricts": [
          {
            "election": null,
            "id": 108,
            "name": "Timmins"
          }
        ],
        "pollDivisionIds": [
          10142481
        ],
        "postalCode": "P0N1G0",
        "streetName": "ENNIS",
        "streetDirectionId": null,
        "streetTypeId": "ST",
        "placeName": "SCHUMACHER",
        "streetNameDisplayText": "ENNIS ST, SCHUMACHER"
      },
      {
        "electoralDistricts": [
          {
            "election": null,
            "id": 108,
            "name": "Timmins"
          }
        ],
        "pollDivisionIds": [
          10142481
        ],
        "postalCode": "P0N1G0",
        "streetName": "FATHER COSTELLO",
        "streetDirectionId": null,
        "streetTypeId": "DR",
        "placeName": "SCHUMACHER",
        "streetNameDisplayText": "FATHER COSTELLO DR, SCHUMACHER"
      },
      {
        "electoralDistricts": [
          {
            "election": null,
            "id": 108,
            "name": "Timmins"
          }
        ],
        "pollDivisionIds": [
          10142481,
          10142480
        ],
        "postalCode": "P0N1G0",
        "streetName": "FATHER COSTELLO",
        "streetDirectionId": null,
        "streetTypeId": "DR",
        "placeName": "TIMMINS",
        "streetNameDisplayText": "FATHER COSTELLO DR, TIMMINS"
      },
      {
        "electoralDistricts": [
          {
            "election": null,
            "id": 108,
            "name": "Timmins"
          }
        ],
        "pollDivisionIds": [
          10142481
        ],
        "postalCode": "P0N1G0",
        "streetName": "FIRST",
        "streetDirectionId": null,
        "streetTypeId": "AVE",
        "placeName": "SCHUMACHER",
        "streetNameDisplayText": "FIRST AVE, SCHUMACHER"
      },
      {
        "electoralDistricts": [
          {
            "election": null,
            "id": 108,
            "name": "Timmins"
          }
        ],
        "pollDivisionIds": [
          10142481
        ],
        "postalCode": "P0N1G0",
        "streetName": "FOURTH",
        "streetDirectionId": null,
        "streetTypeId": "AVE",
        "placeName": "SCHUMACHER",
        "streetNameDisplayText": "FOURTH AVE, SCHUMACHER"
      },
      {
        "electoralDistricts": [
          {
            "election": null,
            "id": 108,
            "name": "Timmins"
          }
        ],
        "pollDivisionIds": [
          10142481
        ],
        "postalCode": "P0N1G0",
        "streetName": "GOLDALE",
        "streetDirectionId": null,
        "streetTypeId": "RD",
        "placeName": "SCHUMACHER",
        "streetNameDisplayText": "GOLDALE RD, SCHUMACHER"
      },
      {
        "electoralDistricts": [
          {
            "election": null,
            "id": 108,
            "name": "Timmins"
          }
        ],
        "pollDivisionIds": [
          10142481
        ],
        "postalCode": "P0N1G0",
        "streetName": "GOLDALE",
        "streetDirectionId": null,
        "streetTypeId": "RD",
        "placeName": "TIMMINS",
        "streetNameDisplayText": "GOLDALE RD, TIMMINS"
      },
      {
        "electoralDistricts": [
          {
            "election": null,
            "id": 108,
            "name": "Timmins"
          }
        ],
        "pollDivisionIds": [
          10142481
        ],
        "postalCode": "P0N1G0",
        "streetName": "GOLDALE",
        "streetDirectionId": null,
        "streetTypeId": "ST",
        "placeName": "SCHUMACHER",
        "streetNameDisplayText": "GOLDALE ST, SCHUMACHER"
      },
      {
        "electoralDistricts": [
          {
            "election": null,
            "id": 108,
            "name": "Timmins"
          }
        ],
        "pollDivisionIds": [
          10142481
        ],
        "postalCode": "P0N1G0",
        "streetName": "GOLDDALE",
        "streetDirectionId": null,
        "streetTypeId": "RD",
        "placeName": "SCHUMACHER",
        "streetNameDisplayText": "GOLDDALE RD, SCHUMACHER"
      },
      {
        "electoralDistricts": [
          {
            "election": null,
            "id": 108,
            "name": "Timmins"
          }
        ],
        "pollDivisionIds": [
          10142481
        ],
        "postalCode": "P0N1G0",
        "streetName": "GOLDDALE",
        "streetDirectionId": null,
        "streetTypeId": "RD",
        "placeName": "TIMMINS",
        "streetNameDisplayText": "GOLDDALE RD, TIMMINS"
      },
      {
        "electoralDistricts": [
          {
            "election": null,
            "id": 108,
            "name": "Timmins"
          }
        ],
        "pollDivisionIds": [
          10142481
        ],
        "postalCode": "P0N1G0",
        "streetName": "GRANT",
        "streetDirectionId": "E",
        "streetTypeId": "ST",
        "placeName": "SCHUMACHER",
        "streetNameDisplayText": "GRANT ST E, SCHUMACHER"
      },
      {
        "electoralDistricts": [
          {
            "election": null,
            "id": 108,
            "name": "Timmins"
          }
        ],
        "pollDivisionIds": [
          10142481
        ],
        "postalCode": "P0N1G0",
        "streetName": "GRANT",
        "streetDirectionId": "S",
        "streetTypeId": "ST",
        "placeName": "SCHUMACHER",
        "streetNameDisplayText": "GRANT ST S, SCHUMACHER"
      },
      {
        "electoralDistricts": [
          {
            "election": null,
            "id": 108,
            "name": "Timmins"
          }
        ],
        "pollDivisionIds": [
          10142481
        ],
        "postalCode": "P0N1G0",
        "streetName": "GRANT",
        "streetDirectionId": null,
        "streetTypeId": "ST",
        "placeName": "SCHUMACHER",
        "streetNameDisplayText": "GRANT ST, SCHUMACHER"
      },
      {
        "electoralDistricts": [
          {
            "election": null,
            "id": 108,
            "name": "Timmins"
          }
        ],
        "pollDivisionIds": [
          10142481
        ],
        "postalCode": "P0N1G0",
        "streetName": "HOLLINGER",
        "streetDirectionId": null,
        "streetTypeId": "LANE",
        "placeName": "SCHUMACHER",
        "streetNameDisplayText": "HOLLINGER LANE, SCHUMACHER"
      },
      {
        "electoralDistricts": [
          {
            "election": null,
            "id": 108,
            "name": "Timmins"
          }
        ],
        "pollDivisionIds": [
          10142481
        ],
        "postalCode": "P0N1G0",
        "streetName": "HOODO",
        "streetDirectionId": null,
        "streetTypeId": "BAY",
        "placeName": "TIMMINS",
        "streetNameDisplayText": "HOODO BAY, TIMMINS"
      },
      {
        "electoralDistricts": [
          {
            "election": null,
            "id": 108,
            "name": "Timmins"
          }
        ],
        "pollDivisionIds": [
          10142481
        ],
        "postalCode": "P0N1G0",
        "streetName": "HUMMINGBIRD",
        "streetDirectionId": null,
        "streetTypeId": "LANE",
        "placeName": "TIMMINS",
        "streetNameDisplayText": "HUMMINGBIRD LANE, TIMMINS"
      },
      {
        "electoralDistricts": [
          {
            "election": null,
            "id": 108,
            "name": "Timmins"
          }
        ],
        "pollDivisionIds": [
          10142481
        ],
        "postalCode": "P0N1G0",
        "streetName": "HWY 101 EAST",
        "streetDirectionId": "E",
        "streetTypeId": "HWY",
        "placeName": "SCHUMACHER",
        "streetNameDisplayText": "HWY 101 EAST HWY E, SCHUMACHER"
      },
      {
        "electoralDistricts": [
          {
            "election": null,
            "id": 108,
            "name": "Timmins"
          }
        ],
        "pollDivisionIds": [
          10142481
        ],
        "postalCode": "P0N1G0",
        "streetName": "LES HALL",
        "streetDirectionId": null,
        "streetTypeId": "ST",
        "placeName": "SCHUMACHER",
        "streetNameDisplayText": "LES HALL ST, SCHUMACHER"
      },
      {
        "electoralDistricts": [
          {
            "election": null,
            "id": 108,
            "name": "Timmins"
          }
        ],
        "pollDivisionIds": [
          10142481
        ],
        "postalCode": "P0N1G0",
        "streetName": "LIONSCREST",
        "streetDirectionId": "E",
        "streetTypeId": "LANE",
        "placeName": "SCHUMACHER",
        "streetNameDisplayText": "LIONSCREST LANE E, SCHUMACHER"
      },
      {
        "electoralDistricts": [
          {
            "election": null,
            "id": 108,
            "name": "Timmins"
          }
        ],
        "pollDivisionIds": [
          10142481
        ],
        "postalCode": "P0N1G0",
        "streetName": "LIONSCREST",
        "streetDirectionId": null,
        "streetTypeId": "LANE",
        "placeName": "SCHUMACHER",
        "streetNameDisplayText": "LIONSCREST LANE, SCHUMACHER"
      },
      {
        "electoralDistricts": [
          {
            "election": null,
            "id": 108,
            "name": "Timmins"
          }
        ],
        "pollDivisionIds": [
          10142481
        ],
        "postalCode": "P0N1G0",
        "streetName": "MCINTYRE",
        "streetDirectionId": null,
        "streetTypeId": "RD",
        "placeName": "TIMMINS",
        "streetNameDisplayText": "MCINTYRE RD, TIMMINS"
      },
      {
        "electoralDistricts": [
          {
            "election": null,
            "id": 71,
            "name": "Nickel Belt"
          }
        ],
        "pollDivisionIds": [
          10143203
        ],
        "postalCode": "P0N1G0",
        "streetName": "MCKEOWN",
        "streetDirectionId": null,
        "streetTypeId": "RD",
        "placeName": "FOLEYET",
        "streetNameDisplayText": "MCKEOWN RD, FOLEYET"
      },
      {
        "electoralDistricts": [
          {
            "election": null,
            "id": 108,
            "name": "Timmins"
          }
        ],
        "pollDivisionIds": [
          10142481
        ],
        "postalCode": "P0N1G0",
        "streetName": "MINERS",
        "streetDirectionId": null,
        "streetTypeId": "AVE",
        "placeName": "SCHUMACHER",
        "streetNameDisplayText": "MINERS AVE, SCHUMACHER"
      },
      {
        "electoralDistricts": [
          {
            "election": null,
            "id": 108,
            "name": "Timmins"
          }
        ],
        "pollDivisionIds": [
          10142481
        ],
        "postalCode": "P0N1G0",
        "streetName": "PLATT VET PROP",
        "streetDirectionId": null,
        "streetTypeId": null,
        "placeName": "SCHUMACHER",
        "streetNameDisplayText": "PLATT VET PROP, SCHUMACHER"
      },
      {
        "electoralDistricts": [
          {
            "election": null,
            "id": 108,
            "name": "Timmins"
          }
        ],
        "pollDivisionIds": [
          10142481
        ],
        "postalCode": "P0N1G0",
        "streetName": "PONDEROSA",
        "streetDirectionId": null,
        "streetTypeId": "ST",
        "placeName": "SCHUMACHER",
        "streetNameDisplayText": "PONDEROSA ST, SCHUMACHER"
      },
      {
        "electoralDistricts": [
          {
            "election": null,
            "id": 108,
            "name": "Timmins"
          }
        ],
        "pollDivisionIds": [
          10142481
        ],
        "postalCode": "P0N1G0",
        "streetName": "PROSPECTORS",
        "streetDirectionId": null,
        "streetTypeId": "ST",
        "placeName": "SCHUMACHER",
        "streetNameDisplayText": "PROSPECTORS ST, SCHUMACHER"
      },
      {
        "electoralDistricts": [
          {
            "election": null,
            "id": 108,
            "name": "Timmins"
          }
        ],
        "pollDivisionIds": [
          10142481
        ],
        "postalCode": "P0N1G0",
        "streetName": "SYLVIA",
        "streetDirectionId": null,
        "streetTypeId": "CRES",
        "placeName": "SCHUMACHER",
        "streetNameDisplayText": "SYLVIA CRES, SCHUMACHER"
      },
      {
        "electoralDistricts": [
          {
            "election": null,
            "id": 108,
            "name": "Timmins"
          }
        ],
        "pollDivisionIds": [
          10142481
        ],
        "postalCode": "P0N1G0",
        "streetName": "TEMPLETON",
        "streetDirectionId": null,
        "streetTypeId": "AVE",
        "placeName": "SCHUMACHER",
        "streetNameDisplayText": "TEMPLETON AVE, SCHUMACHER"
      },
      {
        "electoralDistricts": [
          {
            "election": null,
            "id": 108,
            "name": "Timmins"
          }
        ],
        "pollDivisionIds": [
          10142481
        ],
        "postalCode": "P0N1G0",
        "streetName": "VIPOND",
        "streetDirectionId": null,
        "streetTypeId": "RD",
        "placeName": "SCHUMACHER",
        "streetNameDisplayText": "VIPOND RD, SCHUMACHER"
      }
    ]
  },
  {
    "postal": "P0N1H0",
    "result": [
      {
        "electoralDistricts": [
          {
            "election": null,
            "id": 108,
            "name": "Timmins"
          }
        ],
        "pollDivisionIds": [
          10142483,
          10142484,
          10142485
        ],
        "postalCode": "P0N1H0",
        "streetName": "101",
        "streetDirectionId": "E",
        "streetTypeId": "HWY",
        "placeName": "SOUTH PORCUPINE",
        "streetNameDisplayText": "101 HWY E, SOUTH PORCUPINE"
      },
      {
        "electoralDistricts": [
          {
            "election": null,
            "id": 108,
            "name": "Timmins"
          }
        ],
        "pollDivisionIds": [
          10142485
        ],
        "postalCode": "P0N1H0",
        "streetName": "101",
        "streetDirectionId": null,
        "streetTypeId": "HWY",
        "placeName": "PORCUPINE",
        "streetNameDisplayText": "101 HWY, PORCUPINE"
      },
      {
        "electoralDistricts": [
          {
            "election": null,
            "id": 108,
            "name": "Timmins"
          }
        ],
        "pollDivisionIds": [
          10142484,
          10142483
        ],
        "postalCode": "P0N1H0",
        "streetName": "101",
        "streetDirectionId": null,
        "streetTypeId": "HWY",
        "placeName": "SOUTH PORCUPINE",
        "streetNameDisplayText": "101 HWY, SOUTH PORCUPINE"
      },
      {
        "electoralDistricts": [
          {
            "election": null,
            "id": 108,
            "name": "Timmins"
          }
        ],
        "pollDivisionIds": [
          10142484
        ],
        "postalCode": "P0N1H0",
        "streetName": "ALLAN",
        "streetDirectionId": null,
        "streetTypeId": "ST",
        "placeName": "SOUTH PORCUPINE",
        "streetNameDisplayText": "ALLAN ST, SOUTH PORCUPINE"
      },
      {
        "electoralDistricts": [
          {
            "election": null,
            "id": 108,
            "name": "Timmins"
          }
        ],
        "pollDivisionIds": [
          10142481
        ],
        "postalCode": "P0N1H0",
        "streetName": "BATTOCHIO",
        "streetDirectionId": null,
        "streetTypeId": "ST",
        "placeName": "SCHUMACHER",
        "streetNameDisplayText": "BATTOCHIO ST, SCHUMACHER"
      },
      {
        "electoralDistricts": [
          {
            "election": null,
            "id": 108,
            "name": "Timmins"
          }
        ],
        "pollDivisionIds": [
          10142481
        ],
        "postalCode": "P0N1H0",
        "streetName": "BATTOCHIO",
        "streetDirectionId": null,
        "streetTypeId": "ST",
        "placeName": "TIMMINS",
        "streetNameDisplayText": "BATTOCHIO ST, TIMMINS"
      },
      {
        "electoralDistricts": [
          {
            "election": null,
            "id": 108,
            "name": "Timmins"
          }
        ],
        "pollDivisionIds": [
          10142483
        ],
        "postalCode": "P0N1H0",
        "streetName": "BERGERON",
        "streetDirectionId": null,
        "streetTypeId": "CRT",
        "placeName": "SOUTH PORCUPINE",
        "streetNameDisplayText": "BERGERON CRT, SOUTH PORCUPINE"
      },
      {
        "electoralDistricts": [
          {
            "election": null,
            "id": 108,
            "name": "Timmins"
          }
        ],
        "pollDivisionIds": [
          10142484
        ],
        "postalCode": "P0N1H0",
        "streetName": "BLOOR",
        "streetDirectionId": null,
        "streetTypeId": "AVE",
        "placeName": "SOUTH PORCUPINE",
        "streetNameDisplayText": "BLOOR AVE, SOUTH PORCUPINE"
      },
      {
        "electoralDistricts": [
          {
            "election": null,
            "id": 108,
            "name": "Timmins"
          }
        ],
        "pollDivisionIds": [
          10142483
        ],
        "postalCode": "P0N1H0",
        "streetName": "BROADWAY",
        "streetDirectionId": null,
        "streetTypeId": "AVE",
        "placeName": "SOUTH PORCUPINE",
        "streetNameDisplayText": "BROADWAY AVE, SOUTH PORCUPINE"
      },
      {
        "electoralDistricts": [
          {
            "election": null,
            "id": 108,
            "name": "Timmins"
          }
        ],
        "pollDivisionIds": [
          10142484
        ],
        "postalCode": "P0N1H0",
        "streetName": "BRODERICK",
        "streetDirectionId": null,
        "streetTypeId": "AVE",
        "placeName": "SOUTH PORCUPINE",
        "streetNameDisplayText": "BRODERICK AVE, SOUTH PORCUPINE"
      },
      {
        "electoralDistricts": [
          {
            "election": null,
            "id": 108,
            "name": "Timmins"
          }
        ],
        "pollDivisionIds": [
          10142498
        ],
        "postalCode": "P0N1H0",
        "streetName": "BRUCE",
        "streetDirectionId": "W",
        "streetTypeId": "AVE",
        "placeName": "SOUTH PORCUPINE",
        "streetNameDisplayText": "BRUCE AVE W, SOUTH PORCUPINE"
      },
      {
        "electoralDistricts": [
          {
            "election": null,
            "id": 108,
            "name": "Timmins"
          }
        ],
        "pollDivisionIds": [
          10142484
        ],
        "postalCode": "P0N1H0",
        "streetName": "BRUCE",
        "streetDirectionId": null,
        "streetTypeId": "AVE",
        "placeName": "SOUTH PORCUPINE",
        "streetNameDisplayText": "BRUCE AVE, SOUTH PORCUPINE"
      },
      {
        "electoralDistricts": [
          {
            "election": null,
            "id": 108,
            "name": "Timmins"
          }
        ],
        "pollDivisionIds": [
          10142498
        ],
        "postalCode": "P0N1H0",
        "streetName": "BRUCE",
        "streetDirectionId": null,
        "streetTypeId": "AVE",
        "placeName": "TIMMINS",
        "streetNameDisplayText": "BRUCE AVE, TIMMINS"
      },
      {
        "electoralDistricts": [
          {
            "election": null,
            "id": 108,
            "name": "Timmins"
          }
        ],
        "pollDivisionIds": [
          10142483
        ],
        "postalCode": "P0N1H0",
        "streetName": "CECIL",
        "streetDirectionId": null,
        "streetTypeId": "AVE",
        "placeName": "SOUTH PORCUPINE",
        "streetNameDisplayText": "CECIL AVE, SOUTH PORCUPINE"
      },
      {
        "electoralDistricts": [
          {
            "election": null,
            "id": 108,
            "name": "Timmins"
          }
        ],
        "pollDivisionIds": [
          10142484
        ],
        "postalCode": "P0N1H0",
        "streetName": "CRAWFORD",
        "streetDirectionId": "N",
        "streetTypeId": "ST",
        "placeName": "SOUTH PORCUPINE",
        "streetNameDisplayText": "CRAWFORD ST N, SOUTH PORCUPINE"
      },
      {
        "electoralDistricts": [
          {
            "election": null,
            "id": 108,
            "name": "Timmins"
          }
        ],
        "pollDivisionIds": [
          10142483,
          10142484
        ],
        "postalCode": "P0N1H0",
        "streetName": "CRAWFORD",
        "streetDirectionId": null,
        "streetTypeId": "ST",
        "placeName": "SOUTH PORCUPINE",
        "streetNameDisplayText": "CRAWFORD ST, SOUTH PORCUPINE"
      },
      {
        "electoralDistricts": [
          {
            "election": null,
            "id": 108,
            "name": "Timmins"
          }
        ],
        "pollDivisionIds": [
          10142484,
          10142483
        ],
        "postalCode": "P0N1H0",
        "streetName": "DOME",
        "streetDirectionId": null,
        "streetTypeId": "AVE",
        "placeName": "SOUTH PORCUPINE",
        "streetNameDisplayText": "DOME AVE, SOUTH PORCUPINE"
      },
      {
        "electoralDistricts": [
          {
            "election": null,
            "id": 108,
            "name": "Timmins"
          }
        ],
        "pollDivisionIds": [
          10142484
        ],
        "postalCode": "P0N1H0",
        "streetName": "DUNN",
        "streetDirectionId": null,
        "streetTypeId": "AVE",
        "placeName": "SOUTH PORCUPINE",
        "streetNameDisplayText": "DUNN AVE, SOUTH PORCUPINE"
      },
      {
        "electoralDistricts": [
          {
            "election": null,
            "id": 108,
            "name": "Timmins"
          }
        ],
        "pollDivisionIds": [
          10142483
        ],
        "postalCode": "P0N1H0",
        "streetName": "ERIC",
        "streetDirectionId": null,
        "streetTypeId": "CRES",
        "placeName": "SOUTH PORCUPINE",
        "streetNameDisplayText": "ERIC CRES, SOUTH PORCUPINE"
      },
      {
        "electoralDistricts": [
          {
            "election": null,
            "id": 108,
            "name": "Timmins"
          }
        ],
        "pollDivisionIds": [
          10142483
        ],
        "postalCode": "P0N1H0",
        "streetName": "ESSA",
        "streetDirectionId": null,
        "streetTypeId": "AVE",
        "placeName": "SOUTH PORCUPINE",
        "streetNameDisplayText": "ESSA AVE, SOUTH PORCUPINE"
      },
      {
        "electoralDistricts": [
          {
            "election": null,
            "id": 108,
            "name": "Timmins"
          }
        ],
        "pollDivisionIds": [
          10142484
        ],
        "postalCode": "P0N1H0",
        "streetName": "EVANS",
        "streetDirectionId": null,
        "streetTypeId": "ST",
        "placeName": "SOUTH PORCUPINE",
        "streetNameDisplayText": "EVANS ST, SOUTH PORCUPINE"
      },
      {
        "electoralDistricts": [
          {
            "election": null,
            "id": 108,
            "name": "Timmins"
          }
        ],
        "pollDivisionIds": [
          10142481
        ],
        "postalCode": "P0N1H0",
        "streetName": "FATHER COSTELLO",
        "streetDirectionId": null,
        "streetTypeId": "DR",
        "placeName": "SCHUMACHER",
        "streetNameDisplayText": "FATHER COSTELLO DR, SCHUMACHER"
      },
      {
        "electoralDistricts": [
          {
            "election": null,
            "id": 108,
            "name": "Timmins"
          }
        ],
        "pollDivisionIds": [
          10142483,
          10142484
        ],
        "postalCode": "P0N1H0",
        "streetName": "FERGUSON",
        "streetDirectionId": null,
        "streetTypeId": "RD",
        "placeName": "SOUTH PORCUPINE",
        "streetNameDisplayText": "FERGUSON RD, SOUTH PORCUPINE"
      },
      {
        "electoralDistricts": [
          {
            "election": null,
            "id": 108,
            "name": "Timmins"
          }
        ],
        "pollDivisionIds": [
          10142484
        ],
        "postalCode": "P0N1H0",
        "streetName": "FERN",
        "streetDirectionId": null,
        "streetTypeId": "AVE",
        "placeName": "SOUTH PORCUPINE",
        "streetNameDisplayText": "FERN AVE, SOUTH PORCUPINE"
      },
      {
        "electoralDistricts": [
          {
            "election": null,
            "id": 108,
            "name": "Timmins"
          }
        ],
        "pollDivisionIds": [
          10142486
        ],
        "postalCode": "P0N1H0",
        "streetName": "FREDERICKHOUSE LAKE",
        "streetDirectionId": null,
        "streetTypeId": "DR",
        "placeName": "CONNAUGHT",
        "streetNameDisplayText": "FREDERICKHOUSE LAKE DR, CONNAUGHT"
      },
      {
        "electoralDistricts": [
          {
            "election": null,
            "id": 108,
            "name": "Timmins"
          }
        ],
        "pollDivisionIds": [
          10142483
        ],
        "postalCode": "P0N1H0",
        "streetName": "FRONT",
        "streetDirectionId": null,
        "streetTypeId": "ST",
        "placeName": "SOUTH PORCUPINE",
        "streetNameDisplayText": "FRONT ST, SOUTH PORCUPINE"
      },
      {
        "electoralDistricts": [
          {
            "election": null,
            "id": 108,
            "name": "Timmins"
          }
        ],
        "pollDivisionIds": [
          10142484
        ],
        "postalCode": "P0N1H0",
        "streetName": "GALBRAITH",
        "streetDirectionId": null,
        "streetTypeId": "ST",
        "placeName": "SOUTH PORCUPINE",
        "streetNameDisplayText": "GALBRAITH ST, SOUTH PORCUPINE"
      },
      {
        "electoralDistricts": [
          {
            "election": null,
            "id": 108,
            "name": "Timmins"
          }
        ],
        "pollDivisionIds": [
          10142484
        ],
        "postalCode": "P0N1H0",
        "streetName": "GLENN",
        "streetDirectionId": null,
        "streetTypeId": "AVE",
        "placeName": "SOUTH PORCUPINE",
        "streetNameDisplayText": "GLENN AVE, SOUTH PORCUPINE"
      },
      {
        "electoralDistricts": [
          {
            "election": null,
            "id": 108,
            "name": "Timmins"
          }
        ],
        "pollDivisionIds": [
          10142484
        ],
        "postalCode": "P0N1H0",
        "streetName": "GOLD MINE",
        "streetDirectionId": null,
        "streetTypeId": "RD",
        "placeName": "SOUTH PORCUPINE",
        "streetNameDisplayText": "GOLD MINE RD, SOUTH PORCUPINE"
      },
      {
        "electoralDistricts": [
          {
            "election": null,
            "id": 108,
            "name": "Timmins"
          }
        ],
        "pollDivisionIds": [
          10142484
        ],
        "postalCode": "P0N1H0",
        "streetName": "GOLDEN",
        "streetDirectionId": null,
        "streetTypeId": "AVE",
        "placeName": "SOUTH PORCUPINE",
        "streetNameDisplayText": "GOLDEN AVE, SOUTH PORCUPINE"
      },
      {
        "electoralDistricts": [
          {
            "election": null,
            "id": 108,
            "name": "Timmins"
          }
        ],
        "pollDivisionIds": [
          10142485,
          10142484
        ],
        "postalCode": "P0N1H0",
        "streetName": "GOLDRUSH",
        "streetDirectionId": null,
        "streetTypeId": "ST",
        "placeName": "SOUTH PORCUPINE",
        "streetNameDisplayText": "GOLDRUSH ST, SOUTH PORCUPINE"
      },
      {
        "electoralDistricts": [
          {
            "election": null,
            "id": 108,
            "name": "Timmins"
          }
        ],
        "pollDivisionIds": [
          10142485
        ],
        "postalCode": "P0N1H0",
        "streetName": "HAILEYBURY",
        "streetDirectionId": null,
        "streetTypeId": "CRES",
        "placeName": "SOUTH PORCUPINE",
        "streetNameDisplayText": "HAILEYBURY CRES, SOUTH PORCUPINE"
      },
      {
        "electoralDistricts": [
          {
            "election": null,
            "id": 108,
            "name": "Timmins"
          }
        ],
        "pollDivisionIds": [
          10142483,
          10142484
        ],
        "postalCode": "P0N1H0",
        "streetName": "HAROLD",
        "streetDirectionId": null,
        "streetTypeId": "AVE",
        "placeName": "SOUTH PORCUPINE",
        "streetNameDisplayText": "HAROLD AVE, SOUTH PORCUPINE"
      },
      {
        "electoralDistricts": [
          {
            "election": null,
            "id": 108,
            "name": "Timmins"
          }
        ],
        "pollDivisionIds": [
          10142474
        ],
        "postalCode": "P0N1H0",
        "streetName": "HELEN",
        "streetDirectionId": null,
        "streetTypeId": null,
        "placeName": "SOUTH PORCUPINE",
        "streetNameDisplayText": "HELEN, SOUTH PORCUPINE"
      },
      {
        "electoralDistricts": [
          {
            "election": null,
            "id": 108,
            "name": "Timmins"
          }
        ],
        "pollDivisionIds": [
          10142484
        ],
        "postalCode": "P0N1H0",
        "streetName": "HELLEN",
        "streetDirectionId": null,
        "streetTypeId": "AVE",
        "placeName": "SOUTH PORCUPINE",
        "streetNameDisplayText": "HELLEN AVE, SOUTH PORCUPINE"
      },
      {
        "electoralDistricts": [
          {
            "election": null,
            "id": 108,
            "name": "Timmins"
          }
        ],
        "pollDivisionIds": [
          10142484
        ],
        "postalCode": "P0N1H0",
        "streetName": "HELMER",
        "streetDirectionId": null,
        "streetTypeId": "AVE",
        "placeName": "SOUTH PORCUPINE",
        "streetNameDisplayText": "HELMER AVE, SOUTH PORCUPINE"
      },
      {
        "electoralDistricts": [
          {
            "election": null,
            "id": 108,
            "name": "Timmins"
          }
        ],
        "pollDivisionIds": [
          10142483
        ],
        "postalCode": "P0N1H0",
        "streetName": "HIGHWAY 101",
        "streetDirectionId": null,
        "streetTypeId": null,
        "placeName": "SOUTH PORCUPINE",
        "streetNameDisplayText": "HIGHWAY 101, SOUTH PORCUPINE"
      },
      {
        "electoralDistricts": [
          {
            "election": null,
            "id": 108,
            "name": "Timmins"
          }
        ],
        "pollDivisionIds": [
          10142481
        ],
        "postalCode": "P0N1H0",
        "streetName": "HOLLINGER",
        "streetDirectionId": null,
        "streetTypeId": "LANE",
        "placeName": "SCHUMACHER",
        "streetNameDisplayText": "HOLLINGER LANE, SCHUMACHER"
      },
      {
        "electoralDistricts": [
          {
            "election": null,
            "id": 108,
            "name": "Timmins"
          }
        ],
        "pollDivisionIds": [
          10142483
        ],
        "postalCode": "P0N1H0",
        "streetName": "HUOT",
        "streetDirectionId": null,
        "streetTypeId": "ST",
        "placeName": "SOUTH PORCUPINE",
        "streetNameDisplayText": "HUOT ST, SOUTH PORCUPINE"
      },
      {
        "electoralDistricts": [
          {
            "election": null,
            "id": 108,
            "name": "Timmins"
          }
        ],
        "pollDivisionIds": [
          10142472
        ],
        "postalCode": "P0N1H0",
        "streetName": "HWY 101 EAST",
        "streetDirectionId": "E",
        "streetTypeId": null,
        "placeName": "SOUTH PORCUPINE",
        "streetNameDisplayText": "HWY 101 EAST E, SOUTH PORCUPINE"
      },
      {
        "electoralDistricts": [
          {
            "election": null,
            "id": 108,
            "name": "Timmins"
          }
        ],
        "pollDivisionIds": [
          10142486
        ],
        "postalCode": "P0N1H0",
        "streetName": "ICE CHEST LAKE",
        "streetDirectionId": null,
        "streetTypeId": "RD",
        "placeName": "CONNAUGHT",
        "streetNameDisplayText": "ICE CHEST LAKE RD, CONNAUGHT"
      },
      {
        "electoralDistricts": [
          {
            "election": null,
            "id": 108,
            "name": "Timmins"
          }
        ],
        "pollDivisionIds": [
          10142484
        ],
        "postalCode": "P0N1H0",
        "streetName": "JULIE",
        "streetDirectionId": null,
        "streetTypeId": "AVE",
        "placeName": "SOUTH PORCUPINE",
        "streetNameDisplayText": "JULIE AVE, SOUTH PORCUPINE"
      },
      {
        "electoralDistricts": [
          {
            "election": null,
            "id": 108,
            "name": "Timmins"
          }
        ],
        "pollDivisionIds": [
          10142485
        ],
        "postalCode": "P0N1H0",
        "streetName": "KING",
        "streetDirectionId": null,
        "streetTypeId": "ST",
        "placeName": "PORCUPINE",
        "streetNameDisplayText": "KING ST, PORCUPINE"
      },
      {
        "electoralDistricts": [
          {
            "election": null,
            "id": 108,
            "name": "Timmins"
          }
        ],
        "pollDivisionIds": [
          10142484
        ],
        "postalCode": "P0N1H0",
        "streetName": "LAFFIN",
        "streetDirectionId": null,
        "streetTypeId": "CRES",
        "placeName": "SOUTH PORCUPINE",
        "streetNameDisplayText": "LAFFIN CRES, SOUTH PORCUPINE"
      },
      {
        "electoralDistricts": [
          {
            "election": null,
            "id": 108,
            "name": "Timmins"
          }
        ],
        "pollDivisionIds": [
          10142499
        ],
        "postalCode": "P0N1H0",
        "streetName": "LAKEVIEW",
        "streetDirectionId": null,
        "streetTypeId": "DR",
        "placeName": "SOUTH PORCUPINE",
        "streetNameDisplayText": "LAKEVIEW DR, SOUTH PORCUPINE"
      },
      {
        "electoralDistricts": [
          {
            "election": null,
            "id": 108,
            "name": "Timmins"
          }
        ],
        "pollDivisionIds": [
          10142472
        ],
        "postalCode": "P0N1H0",
        "streetName": "LAKEVIEW",
        "streetDirectionId": null,
        "streetTypeId": "RD",
        "placeName": "SOUTH PORCUPINE",
        "streetNameDisplayText": "LAKEVIEW RD, SOUTH PORCUPINE"
      },
      {
        "electoralDistricts": [
          {
            "election": null,
            "id": 108,
            "name": "Timmins"
          }
        ],
        "pollDivisionIds": [
          10142484
        ],
        "postalCode": "P0N1H0",
        "streetName": "LANGMUIR",
        "streetDirectionId": null,
        "streetTypeId": "RD",
        "placeName": "SOUTH PORCUPINE",
        "streetNameDisplayText": "LANGMUIR RD, SOUTH PORCUPINE"
      },
      {
        "electoralDistricts": [
          {
            "election": null,
            "id": 108,
            "name": "Timmins"
          }
        ],
        "pollDivisionIds": [
          10142483,
          10142484
        ],
        "postalCode": "P0N1H0",
        "streetName": "LEGION",
        "streetDirectionId": null,
        "streetTypeId": "DR",
        "placeName": "SOUTH PORCUPINE",
        "streetNameDisplayText": "LEGION DR, SOUTH PORCUPINE"
      },
      {
        "electoralDistricts": [
          {
            "election": null,
            "id": 108,
            "name": "Timmins"
          }
        ],
        "pollDivisionIds": [
          10142484
        ],
        "postalCode": "P0N1H0",
        "streetName": "LEIGHTON",
        "streetDirectionId": null,
        "streetTypeId": "ST",
        "placeName": "SOUTH PORCUPINE",
        "streetNameDisplayText": "LEIGHTON ST, SOUTH PORCUPINE"
      },
      {
        "electoralDistricts": [
          {
            "election": null,
            "id": 108,
            "name": "Timmins"
          }
        ],
        "pollDivisionIds": [
          10142484
        ],
        "postalCode": "P0N1H0",
        "streetName": "LYALL",
        "streetDirectionId": null,
        "streetTypeId": "AVE",
        "placeName": "SOUTH PORCUPINE",
        "streetNameDisplayText": "LYALL AVE, SOUTH PORCUPINE"
      },
      {
        "electoralDistricts": [
          {
            "election": null,
            "id": 108,
            "name": "Timmins"
          }
        ],
        "pollDivisionIds": [
          10142484
        ],
        "postalCode": "P0N1H0",
        "streetName": "LYALL",
        "streetDirectionId": null,
        "streetTypeId": "ST",
        "placeName": "SOUTH PORCUPINE",
        "streetNameDisplayText": "LYALL ST, SOUTH PORCUPINE"
      },
      {
        "electoralDistricts": [
          {
            "election": null,
            "id": 108,
            "name": "Timmins"
          }
        ],
        "pollDivisionIds": [
          10142484,
          10142483
        ],
        "postalCode": "P0N1H0",
        "streetName": "MAIN",
        "streetDirectionId": null,
        "streetTypeId": "ST",
        "placeName": "SOUTH PORCUPINE",
        "streetNameDisplayText": "MAIN ST, SOUTH PORCUPINE"
      },
      {
        "electoralDistricts": [
          {
            "election": null,
            "id": 108,
            "name": "Timmins"
          }
        ],
        "pollDivisionIds": [
          10142484
        ],
        "postalCode": "P0N1H0",
        "streetName": "MCDOUGALL",
        "streetDirectionId": null,
        "streetTypeId": "AVE",
        "placeName": "SOUTH PORCUPINE",
        "streetNameDisplayText": "MCDOUGALL AVE, SOUTH PORCUPINE"
      },
      {
        "electoralDistricts": [
          {
            "election": null,
            "id": 108,
            "name": "Timmins"
          }
        ],
        "pollDivisionIds": [
          10142483
        ],
        "postalCode": "P0N1H0",
        "streetName": "MICHENER",
        "streetDirectionId": null,
        "streetTypeId": "BLVD",
        "placeName": "SOUTH PORCUPINE",
        "streetNameDisplayText": "MICHENER BLVD, SOUTH PORCUPINE"
      },
      {
        "electoralDistricts": [
          {
            "election": null,
            "id": 108,
            "name": "Timmins"
          }
        ],
        "pollDivisionIds": [
          10142484,
          10142481,
          10142483
        ],
        "postalCode": "P0N1H0",
        "streetName": "MOORE",
        "streetDirectionId": null,
        "streetTypeId": "ST",
        "placeName": "SOUTH PORCUPINE",
        "streetNameDisplayText": "MOORE ST, SOUTH PORCUPINE"
      },
      {
        "electoralDistricts": [
          {
            "election": null,
            "id": 108,
            "name": "Timmins"
          }
        ],
        "pollDivisionIds": [
          10142484
        ],
        "postalCode": "P0N1H0",
        "streetName": "NADINE",
        "streetDirectionId": null,
        "streetTypeId": "AVE",
        "placeName": "SOUTH PORCUPINE",
        "streetNameDisplayText": "NADINE AVE, SOUTH PORCUPINE"
      },
      {
        "electoralDistricts": [
          {
            "election": null,
            "id": 108,
            "name": "Timmins"
          }
        ],
        "pollDivisionIds": [
          10142483
        ],
        "postalCode": "P0N1H0",
        "streetName": "OBRIEN",
        "streetDirectionId": null,
        "streetTypeId": "AV",
        "placeName": "SOUTH PORCUPINE",
        "streetNameDisplayText": "OBRIEN AV, SOUTH PORCUPINE"
      },
      {
        "electoralDistricts": [
          {
            "election": null,
            "id": 108,
            "name": "Timmins"
          }
        ],
        "pollDivisionIds": [
          10142483
        ],
        "postalCode": "P0N1H0",
        "streetName": "O'BRIEN",
        "streetDirectionId": null,
        "streetTypeId": "AVE",
        "placeName": "SOUTH PORCUPINE",
        "streetNameDisplayText": "O'BRIEN AVE, SOUTH PORCUPINE"
      },
      {
        "electoralDistricts": [
          {
            "election": null,
            "id": 108,
            "name": "Timmins"
          }
        ],
        "pollDivisionIds": [
          10142483
        ],
        "postalCode": "P0N1H0",
        "streetName": "POWELL",
        "streetDirectionId": null,
        "streetTypeId": "AVE",
        "placeName": "SOUTH PORCUPINE",
        "streetNameDisplayText": "POWELL AVE, SOUTH PORCUPINE"
      },
      {
        "electoralDistricts": [
          {
            "election": null,
            "id": 108,
            "name": "Timmins"
          }
        ],
        "pollDivisionIds": [
          10142484
        ],
        "postalCode": "P0N1H0",
        "streetName": "QUEBEC",
        "streetDirectionId": null,
        "streetTypeId": "AVE",
        "placeName": "SOUTH PORCUPINE",
        "streetNameDisplayText": "QUEBEC AVE, SOUTH PORCUPINE"
      },
      {
        "electoralDistricts": [
          {
            "election": null,
            "id": 108,
            "name": "Timmins"
          }
        ],
        "pollDivisionIds": [
          10142485
        ],
        "postalCode": "P0N1H0",
        "streetName": "REMEMBRANCE",
        "streetDirectionId": null,
        "streetTypeId": "ST",
        "placeName": "PORCUPINE",
        "streetNameDisplayText": "REMEMBRANCE ST, PORCUPINE"
      },
      {
        "electoralDistricts": [
          {
            "election": null,
            "id": 108,
            "name": "Timmins"
          }
        ],
        "pollDivisionIds": [
          10142483
        ],
        "postalCode": "P0N1H0",
        "streetName": "RENISON",
        "streetDirectionId": null,
        "streetTypeId": "AVE",
        "placeName": "SOUTH PORCUPINE",
        "streetNameDisplayText": "RENISON AVE, SOUTH PORCUPINE"
      },
      {
        "electoralDistricts": [
          {
            "election": null,
            "id": 108,
            "name": "Timmins"
          }
        ],
        "pollDivisionIds": [
          10142484
        ],
        "postalCode": "P0N1H0",
        "streetName": "SHAMROCK",
        "streetDirectionId": null,
        "streetTypeId": "AVE",
        "placeName": "SOUTH PORCUPINE",
        "streetNameDisplayText": "SHAMROCK AVE, SOUTH PORCUPINE"
      },
      {
        "electoralDistricts": [
          {
            "election": null,
            "id": 108,
            "name": "Timmins"
          }
        ],
        "pollDivisionIds": [
          10142484
        ],
        "postalCode": "P0N1H0",
        "streetName": "SMITH",
        "streetDirectionId": null,
        "streetTypeId": "AVE",
        "placeName": "SOUTH PORCUPINE",
        "streetNameDisplayText": "SMITH AVE, SOUTH PORCUPINE"
      },
      {
        "electoralDistricts": [
          {
            "election": null,
            "id": 108,
            "name": "Timmins"
          }
        ],
        "pollDivisionIds": [
          10142484
        ],
        "postalCode": "P0N1H0",
        "streetName": "SMITH",
        "streetDirectionId": null,
        "streetTypeId": "ST",
        "placeName": "SOUTH PORCUPINE",
        "streetNameDisplayText": "SMITH ST, SOUTH PORCUPINE"
      },
      {
        "electoralDistricts": [
          {
            "election": null,
            "id": 108,
            "name": "Timmins"
          }
        ],
        "pollDivisionIds": [
          10142484
        ],
        "postalCode": "P0N1H0",
        "streetName": "SONY",
        "streetDirectionId": null,
        "streetTypeId": "ST",
        "placeName": "SOUTH PORCUPINE",
        "streetNameDisplayText": "SONY ST, SOUTH PORCUPINE"
      },
      {
        "electoralDistricts": [
          {
            "election": null,
            "id": 108,
            "name": "Timmins"
          }
        ],
        "pollDivisionIds": [
          10142483
        ],
        "postalCode": "P0N1H0",
        "streetName": "SPILLENAAR",
        "streetDirectionId": null,
        "streetTypeId": "ST",
        "placeName": "SOUTH PORCUPINE",
        "streetNameDisplayText": "SPILLENAAR ST, SOUTH PORCUPINE"
      },
      {
        "electoralDistricts": [
          {
            "election": null,
            "id": 108,
            "name": "Timmins"
          }
        ],
        "pollDivisionIds": [
          10142484
        ],
        "postalCode": "P0N1H0",
        "streetName": "STATION",
        "streetDirectionId": null,
        "streetTypeId": "ST",
        "placeName": "SOUTH PORCUPINE",
        "streetNameDisplayText": "STATION ST, SOUTH PORCUPINE"
      },
      {
        "electoralDistricts": [
          {
            "election": null,
            "id": 108,
            "name": "Timmins"
          }
        ],
        "pollDivisionIds": [
          10142484
        ],
        "postalCode": "P0N1H0",
        "streetName": "STRACHAN",
        "streetDirectionId": null,
        "streetTypeId": "AVE",
        "placeName": "SOUTH PORCUPINE",
        "streetNameDisplayText": "STRACHAN AVE, SOUTH PORCUPINE"
      },
      {
        "electoralDistricts": [
          {
            "election": null,
            "id": 108,
            "name": "Timmins"
          }
        ],
        "pollDivisionIds": [
          10142484
        ],
        "postalCode": "P0N1H0",
        "streetName": "SUMMERS",
        "streetDirectionId": null,
        "streetTypeId": "AVE",
        "placeName": "SOUTH PORCUPINE",
        "streetNameDisplayText": "SUMMERS AVE, SOUTH PORCUPINE"
      },
      {
        "electoralDistricts": [
          {
            "election": null,
            "id": 108,
            "name": "Timmins"
          }
        ],
        "pollDivisionIds": [
          10142484
        ],
        "postalCode": "P0N1H0",
        "streetName": "TISDALE",
        "streetDirectionId": null,
        "streetTypeId": "ST",
        "placeName": "SOUTH PORCUPINE",
        "streetNameDisplayText": "TISDALE ST, SOUTH PORCUPINE"
      },
      {
        "electoralDistricts": [
          {
            "election": null,
            "id": 108,
            "name": "Timmins"
          }
        ],
        "pollDivisionIds": [
          10142484
        ],
        "postalCode": "P0N1H0",
        "streetName": "WALTER",
        "streetDirectionId": null,
        "streetTypeId": "LANE",
        "placeName": "SOUTH PORCUPINE",
        "streetNameDisplayText": "WALTER LANE, SOUTH PORCUPINE"
      },
      {
        "electoralDistricts": [
          {
            "election": null,
            "id": 108,
            "name": "Timmins"
          }
        ],
        "pollDivisionIds": [
          10142484
        ],
        "postalCode": "P0N1H0",
        "streetName": "WARNER",
        "streetDirectionId": null,
        "streetTypeId": "ST",
        "placeName": "SOUTH PORCUPINE",
        "streetNameDisplayText": "WARNER ST, SOUTH PORCUPINE"
      },
      {
        "electoralDistricts": [
          {
            "election": null,
            "id": 108,
            "name": "Timmins"
          }
        ],
        "pollDivisionIds": [
          10142483
        ],
        "postalCode": "P0N1H0",
        "streetName": "WILLIAM",
        "streetDirectionId": null,
        "streetTypeId": "AVE",
        "placeName": "SOUTH PORCUPINE",
        "streetNameDisplayText": "WILLIAM AVE, SOUTH PORCUPINE"
      }
    ]
  },
  {
    "postal": "P0N1J0",
    "result": [
      {
        "electoralDistricts": [
          {
            "election": null,
            "id": 108,
            "name": "Timmins"
          }
        ],
        "pollDivisionIds": [
          10142481
        ],
        "postalCode": "P0N1J0",
        "streetName": "AURA LAKE",
        "streetDirectionId": null,
        "streetTypeId": "ST",
        "placeName": "SCHUMACHER",
        "streetNameDisplayText": "AURA LAKE ST, SCHUMACHER"
      },
      {
        "electoralDistricts": [
          {
            "election": null,
            "id": 107,
            "name": "Timiskaming—Cochrane"
          }
        ],
        "pollDivisionIds": [
          10142398
        ],
        "postalCode": "P0N1J0",
        "streetName": "BERTRAND",
        "streetDirectionId": null,
        "streetTypeId": "RD",
        "placeName": "TUNIS",
        "streetNameDisplayText": "BERTRAND RD, TUNIS"
      },
      {
        "electoralDistricts": [
          {
            "election": null,
            "id": 107,
            "name": "Timiskaming—Cochrane"
          }
        ],
        "pollDivisionIds": [
          10142398
        ],
        "postalCode": "P0N1J0",
        "streetName": "FORTIER",
        "streetDirectionId": null,
        "streetTypeId": "RD",
        "placeName": "TUNIS",
        "streetNameDisplayText": "FORTIER RD, TUNIS"
      },
      {
        "electoralDistricts": [
          {
            "election": null,
            "id": 107,
            "name": "Timiskaming—Cochrane"
          }
        ],
        "pollDivisionIds": [
          10142398
        ],
        "postalCode": "P0N1J0",
        "streetName": "LATOUR",
        "streetDirectionId": null,
        "streetTypeId": "RD",
        "placeName": "TUNIS",
        "streetNameDisplayText": "LATOUR RD, TUNIS"
      },
      {
        "electoralDistricts": [
          {
            "election": null,
            "id": 107,
            "name": "Timiskaming—Cochrane"
          }
        ],
        "pollDivisionIds": [
          10142398
        ],
        "postalCode": "P0N1J0",
        "streetName": "NEWMARKET 2+3",
        "streetDirectionId": null,
        "streetTypeId": "CONC",
        "placeName": "TUNIS",
        "streetNameDisplayText": "NEWMARKET 2+3 CONC, TUNIS"
      },
      {
        "electoralDistricts": [
          {
            "election": null,
            "id": 107,
            "name": "Timiskaming—Cochrane"
          }
        ],
        "pollDivisionIds": [
          10142398
        ],
        "postalCode": "P0N1J0",
        "streetName": "NEWMARKET 3+4",
        "streetDirectionId": null,
        "streetTypeId": "CONC",
        "placeName": "TUNIS",
        "streetNameDisplayText": "NEWMARKET 3+4 CONC, TUNIS"
      },
      {
        "electoralDistricts": [
          {
            "election": null,
            "id": 107,
            "name": "Timiskaming—Cochrane"
          }
        ],
        "pollDivisionIds": [
          10142398
        ],
        "postalCode": "P0N1J0",
        "streetName": "NEWMARKET 5+6",
        "streetDirectionId": null,
        "streetTypeId": "CONC",
        "placeName": "TUNIS",
        "streetNameDisplayText": "NEWMARKET 5+6 CONC, TUNIS"
      }
    ]
  },
  {
    "postal": "P0N1K0",
    "result": [
      {
        "electoralDistricts": [
          {
            "election": null,
            "id": 108,
            "name": "Timmins"
          }
        ],
        "pollDivisionIds": [
          10142486
        ],
        "postalCode": "P0N1K0",
        "streetName": "101",
        "streetDirectionId": "E",
        "streetTypeId": "HWY",
        "placeName": "CONNAUGHT",
        "streetNameDisplayText": "101 HWY E, CONNAUGHT"
      },
      {
        "electoralDistricts": [
          {
            "election": null,
            "id": 108,
            "name": "Timmins"
          }
        ],
        "pollDivisionIds": [
          10142483
        ],
        "postalCode": "P0N1K0",
        "streetName": "101",
        "streetDirectionId": "E",
        "streetTypeId": "HWY",
        "placeName": "SOUTH PORCUPINE",
        "streetNameDisplayText": "101 HWY E, SOUTH PORCUPINE"
      },
      {
        "electoralDistricts": [
          {
            "election": null,
            "id": 108,
            "name": "Timmins"
          }
        ],
        "pollDivisionIds": [
          10142483
        ],
        "postalCode": "P0N1K0",
        "streetName": "101",
        "streetDirectionId": null,
        "streetTypeId": "HWY",
        "placeName": "SOUTH PORCUPINE",
        "streetNameDisplayText": "101 HWY, SOUTH PORCUPINE"
      },
      {
        "electoralDistricts": [
          {
            "election": null,
            "id": 108,
            "name": "Timmins"
          }
        ],
        "pollDivisionIds": [
          10142483
        ],
        "postalCode": "P0N1K0",
        "streetName": "BERGERON",
        "streetDirectionId": null,
        "streetTypeId": "CRT",
        "placeName": "PORCUPINE",
        "streetNameDisplayText": "BERGERON CRT, PORCUPINE"
      },
      {
        "electoralDistricts": [
          {
            "election": null,
            "id": 108,
            "name": "Timmins"
          }
        ],
        "pollDivisionIds": [
          10142483
        ],
        "postalCode": "P0N1K0",
        "streetName": "CLEMENT",
        "streetDirectionId": null,
        "streetTypeId": "AVE",
        "placeName": "PORCUPINE",
        "streetNameDisplayText": "CLEMENT AVE, PORCUPINE"
      },
      {
        "electoralDistricts": [
          {
            "election": null,
            "id": 108,
            "name": "Timmins"
          }
        ],
        "pollDivisionIds": [
          10142483
        ],
        "postalCode": "P0N1K0",
        "streetName": "DANIEL",
        "streetDirectionId": null,
        "streetTypeId": "CRES",
        "placeName": "PORCUPINE",
        "streetNameDisplayText": "DANIEL CRES, PORCUPINE"
      },
      {
        "electoralDistricts": [
          {
            "election": null,
            "id": 108,
            "name": "Timmins"
          }
        ],
        "pollDivisionIds": [
          10142483
        ],
        "postalCode": "P0N1K0",
        "streetName": "DAVID",
        "streetDirectionId": null,
        "streetTypeId": "AVE",
        "placeName": "PORCUPINE",
        "streetNameDisplayText": "DAVID AVE, PORCUPINE"
      },
      {
        "electoralDistricts": [
          {
            "election": null,
            "id": 108,
            "name": "Timmins"
          }
        ],
        "pollDivisionIds": [
          10142485
        ],
        "postalCode": "P0N1K0",
        "streetName": "EARL",
        "streetDirectionId": null,
        "streetTypeId": "ST",
        "placeName": "PORCUPINE",
        "streetNameDisplayText": "EARL ST, PORCUPINE"
      },
      {
        "electoralDistricts": [
          {
            "election": null,
            "id": 108,
            "name": "Timmins"
          }
        ],
        "pollDivisionIds": [
          10142483
        ],
        "postalCode": "P0N1K0",
        "streetName": "ERIC",
        "streetDirectionId": null,
        "streetTypeId": "CRES",
        "placeName": "PORCUPINE",
        "streetNameDisplayText": "ERIC CRES, PORCUPINE"
      },
      {
        "electoralDistricts": [
          {
            "election": null,
            "id": 108,
            "name": "Timmins"
          }
        ],
        "pollDivisionIds": [
          10142483,
          10142485,
          10142472
        ],
        "postalCode": "P0N1K0",
        "streetName": "FERGUSON",
        "streetDirectionId": null,
        "streetTypeId": "RD",
        "placeName": "PORCUPINE",
        "streetNameDisplayText": "FERGUSON RD, PORCUPINE"
      },
      {
        "electoralDistricts": [
          {
            "election": null,
            "id": 108,
            "name": "Timmins"
          }
        ],
        "pollDivisionIds": [
          10142481
        ],
        "postalCode": "P0N1K0",
        "streetName": "FOURTH",
        "streetDirectionId": null,
        "streetTypeId": "AVE",
        "placeName": "SCHUMACHER",
        "streetNameDisplayText": "FOURTH AVE, SCHUMACHER"
      },
      {
        "electoralDistricts": [
          {
            "election": null,
            "id": 108,
            "name": "Timmins"
          }
        ],
        "pollDivisionIds": [
          10142483
        ],
        "postalCode": "P0N1K0",
        "streetName": "GIRDWOOD",
        "streetDirectionId": null,
        "streetTypeId": "CRES",
        "placeName": "PORCUPINE",
        "streetNameDisplayText": "GIRDWOOD CRES, PORCUPINE"
      },
      {
        "electoralDistricts": [
          {
            "election": null,
            "id": 108,
            "name": "Timmins"
          }
        ],
        "pollDivisionIds": [
          10142483
        ],
        "postalCode": "P0N1K0",
        "streetName": "GRACE",
        "streetDirectionId": null,
        "streetTypeId": "AVE",
        "placeName": "PORCUPINE",
        "streetNameDisplayText": "GRACE AVE, PORCUPINE"
      },
      {
        "electoralDistricts": [
          {
            "election": null,
            "id": 108,
            "name": "Timmins"
          }
        ],
        "pollDivisionIds": [
          10142483
        ],
        "postalCode": "P0N1K0",
        "streetName": "MICHENER",
        "streetDirectionId": null,
        "streetTypeId": "BLVD",
        "placeName": "PORCUPINE",
        "streetNameDisplayText": "MICHENER BLVD, PORCUPINE"
      },
      {
        "electoralDistricts": [
          {
            "election": null,
            "id": 107,
            "name": "Timiskaming—Cochrane"
          }
        ],
        "pollDivisionIds": [
          10142400
        ],
        "postalCode": "P0N1K0",
        "streetName": "MOOSE",
        "streetDirectionId": "N",
        "streetTypeId": "RD",
        "placeName": "MATHESON",
        "streetNameDisplayText": "MOOSE RD N, MATHESON"
      },
      {
        "electoralDistricts": [
          {
            "election": null,
            "id": 108,
            "name": "Timmins"
          }
        ],
        "pollDivisionIds": [
          10142483
        ],
        "postalCode": "P0N1K0",
        "streetName": "RENISON",
        "streetDirectionId": null,
        "streetTypeId": "AVE",
        "placeName": "PORCUPINE",
        "streetNameDisplayText": "RENISON AVE, PORCUPINE"
      },
      {
        "electoralDistricts": [
          {
            "election": null,
            "id": 108,
            "name": "Timmins"
          }
        ],
        "pollDivisionIds": [
          10142483
        ],
        "postalCode": "P0N1K0",
        "streetName": "SPILLENAAR",
        "streetDirectionId": null,
        "streetTypeId": "ST",
        "placeName": "PORCUPINE",
        "streetNameDisplayText": "SPILLENAAR ST, PORCUPINE"
      },
      {
        "electoralDistricts": [
          {
            "election": null,
            "id": 108,
            "name": "Timmins"
          }
        ],
        "pollDivisionIds": [
          10142483
        ],
        "postalCode": "P0N1K0",
        "streetName": "TYYNE",
        "streetDirectionId": null,
        "streetTypeId": "CRT",
        "placeName": "PORCUPINE",
        "streetNameDisplayText": "TYYNE CRT, PORCUPINE"
      },
      {
        "electoralDistricts": [
          {
            "election": null,
            "id": 108,
            "name": "Timmins"
          }
        ],
        "pollDivisionIds": [
          10142483
        ],
        "postalCode": "P0N1K0",
        "streetName": "VIOLA",
        "streetDirectionId": null,
        "streetTypeId": "CRT",
        "placeName": "PORCUPINE",
        "streetNameDisplayText": "VIOLA CRT, PORCUPINE"
      }
    ]
  }
]
