[
  {
    "postal": "L3K9J6",
    "result": []
  },
  {
    "postal": "L3K9Z5",
    "result": []
  },
  {
    "postal": "L3K7H8",
    "result": []
  },
  {
    "postal": "L3K0P6",
    "result": []
  },
  {
    "postal": "L3K0S7",
    "result": []
  },
  {
    "postal": "L3K8B9",
    "result": []
  },
  {
    "postal": "L3K2A6",
    "result": [
      {
        "electoralDistricts": [
          {
            "election": null,
            "id": 68,
            "name": "Niagara Centre"
          }
        ],
        "pollDivisionIds": [
          10139945
        ],
        "postalCode": "L3K2A6",
        "streetName": "MCRAE",
        "streetDirectionId": null,
        "streetTypeId": "AVE",
        "placeName": "PORT COLBORNE",
        "streetNameDisplayText": "MCRAE AVE, PORT COLBORNE"
      }
    ]
  },
  {
    "postal": "L3K7V2",
    "result": []
  },
  {
    "postal": "L3K9P4",
    "result": []
  },
  {
    "postal": "L3K6G0",
    "result": []
  },
  {
    "postal": "L3K2K0",
    "result": []
  },
  {
    "postal": "L3K7N6",
    "result": []
  },
  {
    "postal": "L3K5R3",
    "result": [
      {
        "electoralDistricts": [
          {
            "election": null,
            "id": 68,
            "name": "Niagara Centre"
          }
        ],
        "pollDivisionIds": [
          10139944
        ],
        "postalCode": "L3K5R3",
        "streetName": "ROSEMOUNT",
        "streetDirectionId": null,
        "streetTypeId": "AVE",
        "placeName": "PORT COLBORNE",
        "streetNameDisplayText": "ROSEMOUNT AVE, PORT COLBORNE"
      }
    ]
  },
  {
    "postal": "L3K7K0",
    "result": []
  },
  {
    "postal": "L3K3R2",
    "result": [
      {
        "electoralDistricts": [
          {
            "election": null,
            "id": 68,
            "name": "Niagara Centre"
          }
        ],
        "pollDivisionIds": [
          10139941
        ],
        "postalCode": "L3K3R2",
        "streetName": "CHARLES",
        "streetDirectionId": null,
        "streetTypeId": "ST",
        "placeName": "PORT COLBORNE",
        "streetNameDisplayText": "CHARLES ST, PORT COLBORNE"
      }
    ]
  },
  {
    "postal": "L3K0J1",
    "result": []
  },
  {
    "postal": "L3K0B0",
    "result": []
  },
  {
    "postal": "L3K5Z2",
    "result": [
      {
        "electoralDistricts": [
          {
            "election": null,
            "id": 68,
            "name": "Niagara Centre"
          }
        ],
        "pollDivisionIds": [
          10139941
        ],
        "postalCode": "L3K5Z2",
        "streetName": "BRADY",
        "streetDirectionId": null,
        "streetTypeId": "ST",
        "placeName": "PORT COLBORNE",
        "streetNameDisplayText": "BRADY ST, PORT COLBORNE"
      }
    ]
  },
  {
    "postal": "L3K7P3",
    "result": []
  },
  {
    "postal": "L3K2K3",
    "result": [
      {
        "electoralDistricts": [
          {
            "election": null,
            "id": 68,
            "name": "Niagara Centre"
          }
        ],
        "pollDivisionIds": [
          10139942
        ],
        "postalCode": "L3K2K3",
        "streetName": "WELLINGTON",
        "streetDirectionId": null,
        "streetTypeId": "ST",
        "placeName": "PORT COLBORNE",
        "streetNameDisplayText": "WELLINGTON ST, PORT COLBORNE"
      }
    ]
  },
  {
    "postal": "L3K7Y6",
    "result": []
  },
  {
    "postal": "L3K1L9",
    "result": [
      {
        "electoralDistricts": [
          {
            "election": null,
            "id": 68,
            "name": "Niagara Centre"
          }
        ],
        "pollDivisionIds": [
          10139942
        ],
        "postalCode": "L3K1L9",
        "streetName": "SAINT ARNAUD",
        "streetDirectionId": null,
        "streetTypeId": "ST",
        "placeName": "PORT COLBORNE",
        "streetNameDisplayText": "SAINT ARNAUD ST, PORT COLBORNE"
      }
    ]
  },
  {
    "postal": "L3K8T0",
    "result": []
  },
  {
    "postal": "L3K3K8",
    "result": [
      {
        "electoralDistricts": [
          {
            "election": null,
            "id": 68,
            "name": "Niagara Centre"
          }
        ],
        "pollDivisionIds": [
          10139946
        ],
        "postalCode": "L3K3K8",
        "streetName": "DELHI",
        "streetDirectionId": null,
        "streetTypeId": "ST",
        "placeName": "PORT COLBORNE",
        "streetNameDisplayText": "DELHI ST, PORT COLBORNE"
      }
    ]
  },
  {
    "postal": "L3K5W9",
    "result": [
      {
        "electoralDistricts": [
          {
            "election": null,
            "id": 68,
            "name": "Niagara Centre"
          }
        ],
        "pollDivisionIds": [
          10139940
        ],
        "postalCode": "L3K5W9",
        "streetName": "ROYAL",
        "streetDirectionId": null,
        "streetTypeId": "RD",
        "placeName": "PORT COLBORNE",
        "streetNameDisplayText": "ROYAL RD, PORT COLBORNE"
      }
    ]
  },
  {
    "postal": "L3K6T9",
    "result": []
  },
  {
    "postal": "L3K4H1",
    "result": [
      {
        "electoralDistricts": [
          {
            "election": null,
            "id": 68,
            "name": "Niagara Centre"
          }
        ],
        "pollDivisionIds": [
          10139946
        ],
        "postalCode": "L3K4H1",
        "streetName": "KING",
        "streetDirectionId": null,
        "streetTypeId": "ST",
        "placeName": "PORT COLBORNE",
        "streetNameDisplayText": "KING ST, PORT COLBORNE"
      }
    ]
  },
  {
    "postal": "L3K7A2",
    "result": []
  },
  {
    "postal": "L3K5G0",
    "result": []
  },
  {
    "postal": "L3K8V5",
    "result": []
  },
  {
    "postal": "L3K2Y8",
    "result": [
      {
        "electoralDistricts": [
          {
            "election": null,
            "id": 68,
            "name": "Niagara Centre"
          }
        ],
        "pollDivisionIds": [
          10139946
        ],
        "postalCode": "L3K2Y8",
        "streetName": "ALEXANDRA",
        "streetDirectionId": null,
        "streetTypeId": "ST",
        "placeName": "PORT COLBORNE",
        "streetNameDisplayText": "ALEXANDRA ST, PORT COLBORNE"
      }
    ]
  },
  {
    "postal": "L3K2B6",
    "result": [
      {
        "electoralDistricts": [
          {
            "election": null,
            "id": 68,
            "name": "Niagara Centre"
          }
        ],
        "pollDivisionIds": [
          10139942
        ],
        "postalCode": "L3K2B6",
        "streetName": "ELIZABETH",
        "streetDirectionId": null,
        "streetTypeId": "ST",
        "placeName": "PORT COLBORNE",
        "streetNameDisplayText": "ELIZABETH ST, PORT COLBORNE"
      }
    ]
  },
  {
    "postal": "L3K4W8",
    "result": [
      {
        "electoralDistricts": [
          {
            "election": null,
            "id": 68,
            "name": "Niagara Centre"
          }
        ],
        "pollDivisionIds": [
          10139940
        ],
        "postalCode": "L3K4W8",
        "streetName": "DONLEA",
        "streetDirectionId": null,
        "streetTypeId": "DR",
        "placeName": "PORT COLBORNE",
        "streetNameDisplayText": "DONLEA DR, PORT COLBORNE"
      }
    ]
  },
  {
    "postal": "L3K8H7",
    "result": []
  },
  {
    "postal": "L3K5P1",
    "result": [
      {
        "electoralDistricts": [
          {
            "election": null,
            "id": 68,
            "name": "Niagara Centre"
          }
        ],
        "pollDivisionIds": [
          10139940
        ],
        "postalCode": "L3K5P1",
        "streetName": "SECOND",
        "streetDirectionId": null,
        "streetTypeId": "AVE",
        "placeName": "PORT COLBORNE",
        "streetNameDisplayText": "SECOND AVE, PORT COLBORNE"
      }
    ]
  },
  {
    "postal": "L3K2B8",
    "result": [
      {
        "electoralDistricts": [
          {
            "election": null,
            "id": 68,
            "name": "Niagara Centre"
          }
        ],
        "pollDivisionIds": [
          10139942
        ],
        "postalCode": "L3K2B8",
        "streetName": "ELIZABETH",
        "streetDirectionId": null,
        "streetTypeId": "ST",
        "placeName": "PORT COLBORNE",
        "streetNameDisplayText": "ELIZABETH ST, PORT COLBORNE"
      }
    ]
  },
  {
    "postal": "L3K0P2",
    "result": []
  },
  {
    "postal": "L3K9M1",
    "result": []
  },
  {
    "postal": "L3K3G0",
    "result": []
  },
  {
    "postal": "L3K9Z2",
    "result": []
  },
  {
    "postal": "L3K2A0",
    "result": []
  },
  {
    "postal": "L3K6Y0",
    "result": []
  },
  {
    "postal": "L3K2Z8",
    "result": [
      {
        "electoralDistricts": [
          {
            "election": null,
            "id": 68,
            "name": "Niagara Centre"
          }
        ],
        "pollDivisionIds": [
          10139946
        ],
        "postalCode": "L3K2Z8",
        "streetName": "KENT",
        "streetDirectionId": null,
        "streetTypeId": "ST",
        "placeName": "PORT COLBORNE",
        "streetNameDisplayText": "KENT ST, PORT COLBORNE"
      }
    ]
  },
  {
    "postal": "L3K7Y3",
    "result": []
  },
  {
    "postal": "L3K6Z5",
    "result": []
  },
  {
    "postal": "L3K6E0",
    "result": []
  },
  {
    "postal": "L3K9B7",
    "result": []
  },
  {
    "postal": "L3K9S5",
    "result": []
  },
  {
    "postal": "L3K3X3",
    "result": [
      {
        "electoralDistricts": [
          {
            "election": null,
            "id": 68,
            "name": "Niagara Centre"
          }
        ],
        "pollDivisionIds": [
          10139941
        ],
        "postalCode": "L3K3X3",
        "streetName": "WALLACE",
        "streetDirectionId": null,
        "streetTypeId": "AVE",
        "placeName": "PORT COLBORNE",
        "streetNameDisplayText": "WALLACE AVE, PORT COLBORNE"
      }
    ]
  },
  {
    "postal": "L3K7R5",
    "result": []
  },
  {
    "postal": "L3K2X3",
    "result": [
      {
        "electoralDistricts": [
          {
            "election": null,
            "id": 68,
            "name": "Niagara Centre"
          }
        ],
        "pollDivisionIds": [
          10139946
        ],
        "postalCode": "L3K2X3",
        "streetName": "ASH",
        "streetDirectionId": null,
        "streetTypeId": "ST",
        "placeName": "PORT COLBORNE",
        "streetNameDisplayText": "ASH ST, PORT COLBORNE"
      }
    ]
  },
  {
    "postal": "L3K8Z9",
    "result": []
  },
  {
    "postal": "L3K0N4",
    "result": []
  },
  {
    "postal": "L3K1K1",
    "result": [
      {
        "electoralDistricts": [
          {
            "election": null,
            "id": 68,
            "name": "Niagara Centre"
          }
        ],
        "pollDivisionIds": [
          10139942
        ],
        "postalCode": "L3K1K1",
        "streetName": "BELL",
        "streetDirectionId": null,
        "streetTypeId": "ST",
        "placeName": "PORT COLBORNE",
        "streetNameDisplayText": "BELL ST, PORT COLBORNE"
      }
    ]
  },
  {
    "postal": "L3K1S3",
    "result": [
      {
        "electoralDistricts": [
          {
            "election": null,
            "id": 68,
            "name": "Niagara Centre"
          }
        ],
        "pollDivisionIds": [
          10139942
        ],
        "postalCode": "L3K1S3",
        "streetName": "MAIN",
        "streetDirectionId": "E",
        "streetTypeId": "ST",
        "placeName": "PORT COLBORNE",
        "streetNameDisplayText": "MAIN ST E, PORT COLBORNE"
      }
    ]
  },
  {
    "postal": "L3K6M4",
    "result": []
  },
  {
    "postal": "L3K9A9",
    "result": []
  },
  {
    "postal": "L3K9Z9",
    "result": []
  },
  {
    "postal": "L3K6T4",
    "result": []
  },
  {
    "postal": "L3K0B2",
    "result": []
  },
  {
    "postal": "L3K2L9",
    "result": [
      {
        "electoralDistricts": [
          {
            "election": null,
            "id": 68,
            "name": "Niagara Centre"
          }
        ],
        "pollDivisionIds": [
          10139941
        ],
        "postalCode": "L3K2L9",
        "streetName": "MELLANBY",
        "streetDirectionId": null,
        "streetTypeId": "AVE",
        "placeName": "PORT COLBORNE",
        "streetNameDisplayText": "MELLANBY AVE, PORT COLBORNE"
      }
    ]
  },
  {
    "postal": "L3K8K9",
    "result": []
  },
  {
    "postal": "L3K2H9",
    "result": [
      {
        "electoralDistricts": [
          {
            "election": null,
            "id": 68,
            "name": "Niagara Centre"
          }
        ],
        "pollDivisionIds": [
          10139942
        ],
        "postalCode": "L3K2H9",
        "streetName": "DOLPHIN",
        "streetDirectionId": null,
        "streetTypeId": "ST",
        "placeName": "PORT COLBORNE",
        "streetNameDisplayText": "DOLPHIN ST, PORT COLBORNE"
      }
    ]
  },
  {
    "postal": "L3K3Z6",
    "result": [
      {
        "electoralDistricts": [
          {
            "election": null,
            "id": 68,
            "name": "Niagara Centre"
          }
        ],
        "pollDivisionIds": [
          10139941
        ],
        "postalCode": "L3K3Z6",
        "streetName": "BORDEN",
        "streetDirectionId": null,
        "streetTypeId": "AVE",
        "placeName": "PORT COLBORNE",
        "streetNameDisplayText": "BORDEN AVE, PORT COLBORNE"
      }
    ]
  },
  {
    "postal": "L3K3B0",
    "result": []
  },
  {
    "postal": "L3K2H8",
    "result": [
      {
        "electoralDistricts": [
          {
            "election": null,
            "id": 68,
            "name": "Niagara Centre"
          }
        ],
        "pollDivisionIds": [
          10139942
        ],
        "postalCode": "L3K2H8",
        "streetName": "HUMBOLDT",
        "streetDirectionId": null,
        "streetTypeId": "PKY",
        "placeName": "PORT COLBORNE",
        "streetNameDisplayText": "HUMBOLDT PKY, PORT COLBORNE"
      }
    ]
  },
  {
    "postal": "L3K3X2",
    "result": []
  },
  {
    "postal": "L3K2E9",
    "result": [
      {
        "electoralDistricts": [
          {
            "election": null,
            "id": 68,
            "name": "Niagara Centre"
          }
        ],
        "pollDivisionIds": [
          10139942
        ],
        "postalCode": "L3K2E9",
        "streetName": "CLARKE",
        "streetDirectionId": null,
        "streetTypeId": "ST",
        "placeName": "PORT COLBORNE",
        "streetNameDisplayText": "CLARKE ST, PORT COLBORNE"
      }
    ]
  },
  {
    "postal": "L3K9P6",
    "result": []
  },
  {
    "postal": "L3K9E2",
    "result": []
  },
  {
    "postal": "L3K9H2",
    "result": []
  },
  {
    "postal": "L3K1S8",
    "result": [
      {
        "electoralDistricts": [
          {
            "election": null,
            "id": 68,
            "name": "Niagara Centre"
          }
        ],
        "pollDivisionIds": [
          10139942
        ],
        "postalCode": "L3K1S8",
        "streetName": "WILLARD",
        "streetDirectionId": null,
        "streetTypeId": "ST",
        "placeName": "PORT COLBORNE",
        "streetNameDisplayText": "WILLARD ST, PORT COLBORNE"
      }
    ]
  },
  {
    "postal": "L3K3M6",
    "result": []
  },
  {
    "postal": "L3K6Z8",
    "result": []
  },
  {
    "postal": "L3K4J2",
    "result": [
      {
        "electoralDistricts": [
          {
            "election": null,
            "id": 68,
            "name": "Niagara Centre"
          }
        ],
        "pollDivisionIds": [
          10139941
        ],
        "postalCode": "L3K4J2",
        "streetName": "KING",
        "streetDirectionId": null,
        "streetTypeId": "ST",
        "placeName": "PORT COLBORNE",
        "streetNameDisplayText": "KING ST, PORT COLBORNE"
      }
    ]
  },
  {
    "postal": "L3K9Y1",
    "result": []
  },
  {
    "postal": "L3K8V6",
    "result": []
  },
  {
    "postal": "L3K6B2",
    "result": [
      {
        "electoralDistricts": [
          {
            "election": null,
            "id": 68,
            "name": "Niagara Centre"
          }
        ],
        "pollDivisionIds": [
          10139940
        ],
        "postalCode": "L3K6B2",
        "streetName": "HILLCREST",
        "streetDirectionId": null,
        "streetTypeId": "RD",
        "placeName": "PORT COLBORNE",
        "streetNameDisplayText": "HILLCREST RD, PORT COLBORNE"
      },
      {
        "electoralDistricts": [
          {
            "election": null,
            "id": 68,
            "name": "Niagara Centre"
          }
        ],
        "pollDivisionIds": [
          10139940
        ],
        "postalCode": "L3K6B2",
        "streetName": "SATURN",
        "streetDirectionId": null,
        "streetTypeId": "RD",
        "placeName": "PORT COLBORNE",
        "streetNameDisplayText": "SATURN RD, PORT COLBORNE"
      }
    ]
  },
  {
    "postal": "L3K1P8",
    "result": [
      {
        "electoralDistricts": [
          {
            "election": null,
            "id": 68,
            "name": "Niagara Centre"
          }
        ],
        "pollDivisionIds": [
          10139942
        ],
        "postalCode": "L3K1P8",
        "streetName": "KILLALY",
        "streetDirectionId": "E",
        "streetTypeId": "ST",
        "placeName": "PORT COLBORNE",
        "streetNameDisplayText": "KILLALY ST E, PORT COLBORNE"
      }
    ]
  },
  {
    "postal": "L3K0V8",
    "result": []
  },
  {
    "postal": "L3K4Y0",
    "result": []
  },
  {
    "postal": "L3K2T4",
    "result": [
      {
        "electoralDistricts": [
          {
            "election": null,
            "id": 68,
            "name": "Niagara Centre"
          }
        ],
        "pollDivisionIds": [
          10139944
        ],
        "postalCode": "L3K2T4",
        "streetName": "OAKRIDGE",
        "streetDirectionId": null,
        "streetTypeId": "CRES",
        "placeName": "PORT COLBORNE",
        "streetNameDisplayText": "OAKRIDGE CRES, PORT COLBORNE"
      }
    ]
  },
  {
    "postal": "L3K2S3",
    "result": [
      {
        "electoralDistricts": [
          {
            "election": null,
            "id": 68,
            "name": "Niagara Centre"
          }
        ],
        "pollDivisionIds": [
          10139944
        ],
        "postalCode": "L3K2S3",
        "streetName": "LAKESHORE",
        "streetDirectionId": "W",
        "streetTypeId": "RD",
        "placeName": "PORT COLBORNE",
        "streetNameDisplayText": "LAKESHORE RD W, PORT COLBORNE"
      }
    ]
  },
  {
    "postal": "L3K0K0",
    "result": []
  },
  {
    "postal": "L3K5N1",
    "result": [
      {
        "electoralDistricts": [
          {
            "election": null,
            "id": 68,
            "name": "Niagara Centre"
          }
        ],
        "pollDivisionIds": [
          10139944
        ],
        "postalCode": "L3K5N1",
        "streetName": "GLENWOOD",
        "streetDirectionId": null,
        "streetTypeId": "AVE",
        "placeName": "PORT COLBORNE",
        "streetNameDisplayText": "GLENWOOD AVE, PORT COLBORNE"
      }
    ]
  },
  {
    "postal": "L3K7T0",
    "result": []
  },
  {
    "postal": "L3K9N2",
    "result": []
  },
  {
    "postal": "L3K5L1",
    "result": [
      {
        "electoralDistricts": [
          {
            "election": null,
            "id": 68,
            "name": "Niagara Centre"
          }
        ],
        "pollDivisionIds": [
          10139940
        ],
        "postalCode": "L3K5L1",
        "streetName": "WEST SIDE",
        "streetDirectionId": null,
        "streetTypeId": "RD",
        "placeName": "PORT COLBORNE",
        "streetNameDisplayText": "WEST SIDE RD, PORT COLBORNE"
      }
    ]
  },
  {
    "postal": "L3K7G5",
    "result": []
  },
  {
    "postal": "L3K6K2",
    "result": []
  },
  {
    "postal": "L3K6P9",
    "result": []
  },
  {
    "postal": "L3K0E6",
    "result": []
  },
  {
    "postal": "L3K8R9",
    "result": []
  },
  {
    "postal": "L3K3G9",
    "result": [
      {
        "electoralDistricts": [
          {
            "election": null,
            "id": 68,
            "name": "Niagara Centre"
          }
        ],
        "pollDivisionIds": [
          10139944
        ],
        "postalCode": "L3K3G9",
        "streetName": "CLARENCE",
        "streetDirectionId": null,
        "streetTypeId": "ST",
        "placeName": "PORT COLBORNE",
        "streetNameDisplayText": "CLARENCE ST, PORT COLBORNE"
      }
    ]
  },
  {
    "postal": "L3K0V7",
    "result": []
  },
  {
    "postal": "L3K2Z1",
    "result": [
      {
        "electoralDistricts": [
          {
            "election": null,
            "id": 68,
            "name": "Niagara Centre"
          }
        ],
        "pollDivisionIds": [
          10139946
        ],
        "postalCode": "L3K2Z1",
        "streetName": "KENT",
        "streetDirectionId": null,
        "streetTypeId": "ST",
        "placeName": "PORT COLBORNE",
        "streetNameDisplayText": "KENT ST, PORT COLBORNE"
      }
    ]
  },
  {
    "postal": "L3K7N1",
    "result": []
  },
  {
    "postal": "L3K3C6",
    "result": [
      {
        "electoralDistricts": [
          {
            "election": null,
            "id": 68,
            "name": "Niagara Centre"
          }
        ],
        "pollDivisionIds": [
          10139946
        ],
        "postalCode": "L3K3C6",
        "streetName": "CHARLOTTE",
        "streetDirectionId": null,
        "streetTypeId": "ST",
        "placeName": "PORT COLBORNE",
        "streetNameDisplayText": "CHARLOTTE ST, PORT COLBORNE"
      }
    ]
  },
  {
    "postal": "L3K4M1",
    "result": [
      {
        "electoralDistricts": [
          {
            "election": null,
            "id": 68,
            "name": "Niagara Centre"
          }
        ],
        "pollDivisionIds": [
          10139941
        ],
        "postalCode": "L3K4M1",
        "streetName": "ERIE",
        "streetDirectionId": null,
        "streetTypeId": "ST",
        "placeName": "PORT COLBORNE",
        "streetNameDisplayText": "ERIE ST, PORT COLBORNE"
      }
    ]
  },
  {
    "postal": "L3K9K2",
    "result": []
  },
  {
    "postal": "L3K9S6",
    "result": []
  },
  {
    "postal": "L3K4X1",
    "result": [
      {
        "electoralDistricts": [
          {
            "election": null,
            "id": 68,
            "name": "Niagara Centre"
          }
        ],
        "pollDivisionIds": [
          10139944
        ],
        "postalCode": "L3K4X1",
        "streetName": "STEELE",
        "streetDirectionId": null,
        "streetTypeId": "ST",
        "placeName": "PORT COLBORNE",
        "streetNameDisplayText": "STEELE ST, PORT COLBORNE"
      }
    ]
  },
  {
    "postal": "L3K8W2",
    "result": []
  },
  {
    "postal": "L3K7N2",
    "result": []
  },
  {
    "postal": "L3K8S3",
    "result": []
  },
  {
    "postal": "L3K4V0",
    "result": []
  },
  {
    "postal": "L3K6W4",
    "result": []
  },
  {
    "postal": "L3K5M1",
    "result": [
      {
        "electoralDistricts": [
          {
            "election": null,
            "id": 68,
            "name": "Niagara Centre"
          }
        ],
        "pollDivisionIds": [
          10139946
        ],
        "postalCode": "L3K5M1",
        "streetName": "HOMEWOOD",
        "streetDirectionId": null,
        "streetTypeId": "AVE",
        "placeName": "PORT COLBORNE",
        "streetNameDisplayText": "HOMEWOOD AVE, PORT COLBORNE"
      }
    ]
  },
  {
    "postal": "L3K0S4",
    "result": []
  },
  {
    "postal": "L3K5X6",
    "result": [
      {
        "electoralDistricts": [
          {
            "election": null,
            "id": 68,
            "name": "Niagara Centre"
          }
        ],
        "pollDivisionIds": [
          10139940
        ],
        "postalCode": "L3K5X6",
        "streetName": "ROYAL",
        "streetDirectionId": null,
        "streetTypeId": "RD",
        "placeName": "PORT COLBORNE",
        "streetNameDisplayText": "ROYAL RD, PORT COLBORNE"
      }
    ]
  },
  {
    "postal": "L3K8L5",
    "result": []
  },
  {
    "postal": "L3K5M8",
    "result": [
      {
        "electoralDistricts": [
          {
            "election": null,
            "id": 68,
            "name": "Niagara Centre"
          }
        ],
        "pollDivisionIds": [
          10139944
        ],
        "postalCode": "L3K5M8",
        "streetName": "GLENWOOD",
        "streetDirectionId": null,
        "streetTypeId": "AVE",
        "placeName": "PORT COLBORNE",
        "streetNameDisplayText": "GLENWOOD AVE, PORT COLBORNE"
      }
    ]
  },
  {
    "postal": "L3K2G3",
    "result": [
      {
        "electoralDistricts": [
          {
            "election": null,
            "id": 68,
            "name": "Niagara Centre"
          }
        ],
        "pollDivisionIds": [
          10139942
        ],
        "postalCode": "L3K2G3",
        "streetName": "CLARKE",
        "streetDirectionId": null,
        "streetTypeId": "ST",
        "placeName": "PORT COLBORNE",
        "streetNameDisplayText": "CLARKE ST, PORT COLBORNE"
      }
    ]
  },
  {
    "postal": "L3K8E4",
    "result": []
  },
  {
    "postal": "L3K7S9",
    "result": []
  },
  {
    "postal": "L3K1K3",
    "result": [
      {
        "electoralDistricts": [
          {
            "election": null,
            "id": 68,
            "name": "Niagara Centre"
          }
        ],
        "pollDivisionIds": [
          10139942
        ],
        "postalCode": "L3K1K3",
        "streetName": "BELL",
        "streetDirectionId": null,
        "streetTypeId": "ST",
        "placeName": "PORT COLBORNE",
        "streetNameDisplayText": "BELL ST, PORT COLBORNE"
      }
    ]
  },
  {
    "postal": "L3K4E1",
    "result": [
      {
        "electoralDistricts": [
          {
            "election": null,
            "id": 68,
            "name": "Niagara Centre"
          }
        ],
        "pollDivisionIds": [
          10139946
        ],
        "postalCode": "L3K4E1",
        "streetName": "WEST",
        "streetDirectionId": null,
        "streetTypeId": "ST",
        "placeName": "PORT COLBORNE",
        "streetNameDisplayText": "WEST ST, PORT COLBORNE"
      }
    ]
  },
  {
    "postal": "L3K4R2",
    "result": [
      {
        "electoralDistricts": [
          {
            "election": null,
            "id": 68,
            "name": "Niagara Centre"
          }
        ],
        "pollDivisionIds": [
          10139941
        ],
        "postalCode": "L3K4R2",
        "streetName": "ELM",
        "streetDirectionId": null,
        "streetTypeId": "ST",
        "placeName": "PORT COLBORNE",
        "streetNameDisplayText": "ELM ST, PORT COLBORNE"
      }
    ]
  },
  {
    "postal": "L3K6T0",
    "result": []
  },
  {
    "postal": "L3K3K5",
    "result": [
      {
        "electoralDistricts": [
          {
            "election": null,
            "id": 68,
            "name": "Niagara Centre"
          }
        ],
        "pollDivisionIds": [
          10139946
        ],
        "postalCode": "L3K3K5",
        "streetName": "DELHI",
        "streetDirectionId": null,
        "streetTypeId": "ST",
        "placeName": "PORT COLBORNE",
        "streetNameDisplayText": "DELHI ST, PORT COLBORNE"
      }
    ]
  },
  {
    "postal": "L3K3S3",
    "result": [
      {
        "electoralDistricts": [
          {
            "election": null,
            "id": 68,
            "name": "Niagara Centre"
          }
        ],
        "pollDivisionIds": [
          10139941
        ],
        "postalCode": "L3K3S3",
        "streetName": "GEORGE",
        "streetDirectionId": null,
        "streetTypeId": "ST",
        "placeName": "PORT COLBORNE",
        "streetNameDisplayText": "GEORGE ST, PORT COLBORNE"
      }
    ]
  },
  {
    "postal": "L3K3L4",
    "result": [
      {
        "electoralDistricts": [
          {
            "election": null,
            "id": 68,
            "name": "Niagara Centre"
          }
        ],
        "pollDivisionIds": [
          10139941
        ],
        "postalCode": "L3K3L4",
        "streetName": "KILLALY",
        "streetDirectionId": "W",
        "streetTypeId": "ST",
        "placeName": "PORT COLBORNE",
        "streetNameDisplayText": "KILLALY ST W, PORT COLBORNE"
      }
    ]
  },
  {
    "postal": "L3K9Y2",
    "result": []
  },
  {
    "postal": "L3K1E0",
    "result": []
  },
  {
    "postal": "L3K9A4",
    "result": []
  },
  {
    "postal": "L3K1L3",
    "result": [
      {
        "electoralDistricts": [
          {
            "election": null,
            "id": 68,
            "name": "Niagara Centre"
          }
        ],
        "pollDivisionIds": [
          10139942
        ],
        "postalCode": "L3K1L3",
        "streetName": "CROSS",
        "streetDirectionId": null,
        "streetTypeId": "ST",
        "placeName": "PORT COLBORNE",
        "streetNameDisplayText": "CROSS ST, PORT COLBORNE"
      }
    ]
  },
  {
    "postal": "L3K6N1",
    "result": []
  },
  {
    "postal": "L3K6G7",
    "result": [
      {
        "electoralDistricts": [
          {
            "election": null,
            "id": 68,
            "name": "Niagara Centre"
          }
        ],
        "pollDivisionIds": [
          10139944
        ],
        "postalCode": "L3K6G7",
        "streetName": "MAPLE",
        "streetDirectionId": null,
        "streetTypeId": "ST",
        "placeName": "PORT COLBORNE",
        "streetNameDisplayText": "MAPLE ST, PORT COLBORNE"
      }
    ]
  },
  {
    "postal": "L3K7W1",
    "result": []
  },
  {
    "postal": "L3K4M6",
    "result": []
  },
  {
    "postal": "L3K1K0",
    "result": []
  },
  {
    "postal": "L3K3E2",
    "result": [
      {
        "electoralDistricts": [
          {
            "election": null,
            "id": 68,
            "name": "Niagara Centre"
          }
        ],
        "pollDivisionIds": [
          10139946
        ],
        "postalCode": "L3K3E2",
        "streetName": "CHARLOTTE",
        "streetDirectionId": null,
        "streetTypeId": "ST",
        "placeName": "PORT COLBORNE",
        "streetNameDisplayText": "CHARLOTTE ST, PORT COLBORNE"
      }
    ]
  },
  {
    "postal": "L3K5H4",
    "result": [
      {
        "electoralDistricts": [
          {
            "election": null,
            "id": 68,
            "name": "Niagara Centre"
          }
        ],
        "pollDivisionIds": [
          10139946
        ],
        "postalCode": "L3K5H4",
        "streetName": "CLARE",
        "streetDirectionId": null,
        "streetTypeId": "AVE",
        "placeName": "PORT COLBORNE",
        "streetNameDisplayText": "CLARE AVE, PORT COLBORNE"
      }
    ]
  },
  {
    "postal": "L3K1K7",
    "result": [
      {
        "electoralDistricts": [
          {
            "election": null,
            "id": 68,
            "name": "Niagara Centre"
          }
        ],
        "pollDivisionIds": [
          10139942
        ],
        "postalCode": "L3K1K7",
        "streetName": "BELL",
        "streetDirectionId": null,
        "streetTypeId": "ST",
        "placeName": "PORT COLBORNE",
        "streetNameDisplayText": "BELL ST, PORT COLBORNE"
      }
    ]
  },
  {
    "postal": "L3K0H0",
    "result": []
  },
  {
    "postal": "L3K0J3",
    "result": []
  },
  {
    "postal": "L3K1X6",
    "result": [
      {
        "electoralDistricts": [
          {
            "election": null,
            "id": 68,
            "name": "Niagara Centre"
          }
        ],
        "pollDivisionIds": [
          10139945
        ],
        "postalCode": "L3K1X6",
        "streetName": "MITCHELL",
        "streetDirectionId": null,
        "streetTypeId": "ST",
        "placeName": "PORT COLBORNE",
        "streetNameDisplayText": "MITCHELL ST, PORT COLBORNE"
      }
    ]
  },
  {
    "postal": "L3K2Z6",
    "result": [
      {
        "electoralDistricts": [
          {
            "election": null,
            "id": 68,
            "name": "Niagara Centre"
          }
        ],
        "pollDivisionIds": [
          10139946
        ],
        "postalCode": "L3K2Z6",
        "streetName": "KENT",
        "streetDirectionId": null,
        "streetTypeId": "ST",
        "placeName": "PORT COLBORNE",
        "streetNameDisplayText": "KENT ST, PORT COLBORNE"
      }
    ]
  },
  {
    "postal": "L3K4R9",
    "result": [
      {
        "electoralDistricts": [
          {
            "election": null,
            "id": 68,
            "name": "Niagara Centre"
          }
        ],
        "pollDivisionIds": [
          10139940
        ],
        "postalCode": "L3K4R9",
        "streetName": "ELM",
        "streetDirectionId": null,
        "streetTypeId": "ST",
        "placeName": "PORT COLBORNE",
        "streetNameDisplayText": "ELM ST, PORT COLBORNE"
      }
    ]
  },
  {
    "postal": "L3K0W8",
    "result": []
  },
  {
    "postal": "L3K1L4",
    "result": [
      {
        "electoralDistricts": [
          {
            "election": null,
            "id": 68,
            "name": "Niagara Centre"
          }
        ],
        "pollDivisionIds": [
          10139942
        ],
        "postalCode": "L3K1L4",
        "streetName": "CROSS",
        "streetDirectionId": null,
        "streetTypeId": "ST",
        "placeName": "PORT COLBORNE",
        "streetNameDisplayText": "CROSS ST, PORT COLBORNE"
      }
    ]
  },
  {
    "postal": "L3K0C8",
    "result": []
  },
  {
    "postal": "L3K9X7",
    "result": []
  },
  {
    "postal": "L3K4T1",
    "result": [
      {
        "electoralDistricts": [
          {
            "election": null,
            "id": 68,
            "name": "Niagara Centre"
          }
        ],
        "pollDivisionIds": [
          10139946
        ],
        "postalCode": "L3K4T1",
        "streetName": "FIELDEN",
        "streetDirectionId": null,
        "streetTypeId": "AVE",
        "placeName": "PORT COLBORNE",
        "streetNameDisplayText": "FIELDEN AVE, PORT COLBORNE"
      }
    ]
  },
  {
    "postal": "L3K0M0",
    "result": []
  },
  {
    "postal": "L3K6A2",
    "result": [
      {
        "electoralDistricts": [
          {
            "election": null,
            "id": 68,
            "name": "Niagara Centre"
          }
        ],
        "pollDivisionIds": [
          10139944
        ],
        "postalCode": "L3K6A2",
        "streetName": "ELGIN",
        "streetDirectionId": "W",
        "streetTypeId": "ST",
        "placeName": "PORT COLBORNE",
        "streetNameDisplayText": "ELGIN ST W, PORT COLBORNE"
      },
      {
        "electoralDistricts": [
          {
            "election": null,
            "id": 68,
            "name": "Niagara Centre"
          }
        ],
        "pollDivisionIds": [
          10139944
        ],
        "postalCode": "L3K6A2",
        "streetName": "ELGIN",
        "streetDirectionId": null,
        "streetTypeId": "ST",
        "placeName": "PORT COLBORNE",
        "streetNameDisplayText": "ELGIN ST, PORT COLBORNE"
      }
    ]
  },
  {
    "postal": "L3K9S8",
    "result": []
  },
  {
    "postal": "L3K9T4",
    "result": []
  },
  {
    "postal": "L3K9Y4",
    "result": []
  },
  {
    "postal": "L3K6G5",
    "result": [
      {
        "electoralDistricts": [
          {
            "election": null,
            "id": 68,
            "name": "Niagara Centre"
          }
        ],
        "pollDivisionIds": [
          10139940
        ],
        "postalCode": "L3K6G5",
        "streetName": "ROSEDALE",
        "streetDirectionId": null,
        "streetTypeId": "AVE",
        "placeName": "PORT COLBORNE",
        "streetNameDisplayText": "ROSEDALE AVE, PORT COLBORNE"
      }
    ]
  },
  {
    "postal": "L3K6H9",
    "result": []
  },
  {
    "postal": "L3K2P3",
    "result": [
      {
        "electoralDistricts": [
          {
            "election": null,
            "id": 68,
            "name": "Niagara Centre"
          }
        ],
        "pollDivisionIds": [
          10139944
        ],
        "postalCode": "L3K2P3",
        "streetName": "SUGARLOAF",
        "streetDirectionId": null,
        "streetTypeId": "ST",
        "placeName": "PORT COLBORNE",
        "streetNameDisplayText": "SUGARLOAF ST, PORT COLBORNE"
      }
    ]
  },
  {
    "postal": "L3K1T6",
    "result": [
      {
        "electoralDistricts": [
          {
            "election": null,
            "id": 68,
            "name": "Niagara Centre"
          }
        ],
        "pollDivisionIds": [
          10139942
        ],
        "postalCode": "L3K1T6",
        "streetName": "CHIPPAWA",
        "streetDirectionId": null,
        "streetTypeId": "RD",
        "placeName": "PORT COLBORNE",
        "streetNameDisplayText": "CHIPPAWA RD, PORT COLBORNE"
      }
    ]
  },
  {
    "postal": "L3K4P6",
    "result": [
      {
        "electoralDistricts": [
          {
            "election": null,
            "id": 68,
            "name": "Niagara Centre"
          }
        ],
        "pollDivisionIds": [
          10139941
        ],
        "postalCode": "L3K4P6",
        "streetName": "ELM",
        "streetDirectionId": null,
        "streetTypeId": "ST",
        "placeName": "PORT COLBORNE",
        "streetNameDisplayText": "ELM ST, PORT COLBORNE"
      }
    ]
  },
  {
    "postal": "L3K3K1",
    "result": [
      {
        "electoralDistricts": [
          {
            "election": null,
            "id": 68,
            "name": "Niagara Centre"
          }
        ],
        "pollDivisionIds": [
          10139946
        ],
        "postalCode": "L3K3K1",
        "streetName": "ELGIN",
        "streetDirectionId": null,
        "streetTypeId": "ST",
        "placeName": "PORT COLBORNE",
        "streetNameDisplayText": "ELGIN ST, PORT COLBORNE"
      },
      {
        "electoralDistricts": [
          {
            "election": null,
            "id": 121,
            "name": "Yorkâ€”Simcoe"
          }
        ],
        "pollDivisionIds": [
          10142905
        ],
        "postalCode": "L3K3K1",
        "streetName": "SIMCOE COUNTY RD 27",
        "streetDirectionId": null,
        "streetTypeId": null,
        "placeName": "BRADFORD",
        "streetNameDisplayText": "SIMCOE COUNTY RD 27, BRADFORD"
      }
    ]
  },
  {
    "postal": "L3K6X4",
    "result": []
  },
  {
    "postal": "L3K4M8",
    "result": [
      {
        "electoralDistricts": [
          {
            "election": null,
            "id": 68,
            "name": "Niagara Centre"
          }
        ],
        "pollDivisionIds": [
          10139946
        ],
        "postalCode": "L3K4M8",
        "streetName": "DAVID",
        "streetDirectionId": null,
        "streetTypeId": "ST",
        "placeName": "PORT COLBORNE",
        "streetNameDisplayText": "DAVID ST, PORT COLBORNE"
      }
    ]
  },
  {
    "postal": "L3K2Y1",
    "result": [
      {
        "electoralDistricts": [
          {
            "election": null,
            "id": 68,
            "name": "Niagara Centre"
          }
        ],
        "pollDivisionIds": [
          10139946
        ],
        "postalCode": "L3K2Y1",
        "streetName": "VICTORIA",
        "streetDirectionId": null,
        "streetTypeId": "ST",
        "placeName": "PORT COLBORNE",
        "streetNameDisplayText": "VICTORIA ST, PORT COLBORNE"
      }
    ]
  },
  {
    "postal": "L3K6M1",
    "result": []
  },
  {
    "postal": "L3K5L8",
    "result": [
      {
        "electoralDistricts": [
          {
            "election": null,
            "id": 68,
            "name": "Niagara Centre"
          }
        ],
        "pollDivisionIds": [
          10139944
        ],
        "postalCode": "L3K5L8",
        "streetName": "HOMEWOOD",
        "streetDirectionId": null,
        "streetTypeId": "AVE",
        "placeName": "PORT COLBORNE",
        "streetNameDisplayText": "HOMEWOOD AVE, PORT COLBORNE"
      }
    ]
  },
  {
    "postal": "L3K3P6",
    "result": [
      {
        "electoralDistricts": [
          {
            "election": null,
            "id": 68,
            "name": "Niagara Centre"
          }
        ],
        "pollDivisionIds": [
          10139941
        ],
        "postalCode": "L3K3P6",
        "streetName": "MCCAIN",
        "streetDirectionId": null,
        "streetTypeId": "ST",
        "placeName": "PORT COLBORNE",
        "streetNameDisplayText": "MCCAIN ST, PORT COLBORNE"
      }
    ]
  },
  {
    "postal": "L3K9A5",
    "result": []
  },
  {
    "postal": "L3K7K1",
    "result": []
  },
  {
    "postal": "L3K3J4",
    "result": []
  },
  {
    "postal": "L3K5E7",
    "result": [
      {
        "electoralDistricts": [
          {
            "election": null,
            "id": 68,
            "name": "Niagara Centre"
          }
        ],
        "pollDivisionIds": [
          10139944
        ],
        "postalCode": "L3K5E7",
        "streetName": "FOREST",
        "streetDirectionId": null,
        "streetTypeId": "AVE",
        "placeName": "PORT COLBORNE",
        "streetNameDisplayText": "FOREST AVE, PORT COLBORNE"
      }
    ]
  },
  {
    "postal": "L3K3A7",
    "result": [
      {
        "electoralDistricts": [
          {
            "election": null,
            "id": 68,
            "name": "Niagara Centre"
          }
        ],
        "pollDivisionIds": [
          10139944
        ],
        "postalCode": "L3K3A7",
        "streetName": "STANLEY",
        "streetDirectionId": null,
        "streetTypeId": "ST",
        "placeName": "PORT COLBORNE",
        "streetNameDisplayText": "STANLEY ST, PORT COLBORNE"
      }
    ]
  },
  {
    "postal": "L3K1B9",
    "result": [
      {
        "electoralDistricts": [
          {
            "election": null,
            "id": 68,
            "name": "Niagara Centre"
          }
        ],
        "pollDivisionIds": [
          10139945
        ],
        "postalCode": "L3K1B9",
        "streetName": "DECEW",
        "streetDirectionId": null,
        "streetTypeId": "ST",
        "placeName": "PORT COLBORNE",
        "streetNameDisplayText": "DECEW ST, PORT COLBORNE"
      }
    ]
  },
  {
    "postal": "L3K9E8",
    "result": []
  },
  {
    "postal": "L3K1C9",
    "result": [
      {
        "electoralDistricts": [
          {
            "election": null,
            "id": 68,
            "name": "Niagara Centre"
          }
        ],
        "pollDivisionIds": [
          10139946,
          10139945
        ],
        "postalCode": "L3K1C9",
        "streetName": "DURHAM",
        "streetDirectionId": null,
        "streetTypeId": "ST",
        "placeName": "PORT COLBORNE",
        "streetNameDisplayText": "DURHAM ST, PORT COLBORNE"
      }
    ]
  },
  {
    "postal": "L3K3B5",
    "result": [
      {
        "electoralDistricts": [
          {
            "election": null,
            "id": 68,
            "name": "Niagara Centre"
          }
        ],
        "pollDivisionIds": [
          10139944
        ],
        "postalCode": "L3K3B5",
        "streetName": "DIVISION",
        "streetDirectionId": null,
        "streetTypeId": "ST",
        "placeName": "PORT COLBORNE",
        "streetNameDisplayText": "DIVISION ST, PORT COLBORNE"
      }
    ]
  },
  {
    "postal": "L3K8R0",
    "result": []
  },
  {
    "postal": "L3K3P2",
    "result": [
      {
        "electoralDistricts": [
          {
            "election": null,
            "id": 68,
            "name": "Niagara Centre"
          }
        ],
        "pollDivisionIds": [
          10139941
        ],
        "postalCode": "L3K3P2",
        "streetName": "UNION",
        "streetDirectionId": null,
        "streetTypeId": "ST",
        "placeName": "PORT COLBORNE",
        "streetNameDisplayText": "UNION ST, PORT COLBORNE"
      }
    ]
  },
  {
    "postal": "L3K5V4",
    "result": [
      {
        "electoralDistricts": [
          {
            "election": null,
            "id": 70,
            "name": "Niagara West"
          }
        ],
        "pollDivisionIds": [
          10140091
        ],
        "postalCode": "L3K5V4",
        "streetName": "3",
        "streetDirectionId": null,
        "streetTypeId": "HWY",
        "placeName": "PORT COLBORNE",
        "streetNameDisplayText": "3 HWY, PORT COLBORNE"
      },
      {
        "electoralDistricts": [
          {
            "election": null,
            "id": 68,
            "name": "Niagara Centre"
          }
        ],
        "pollDivisionIds": [
          10139943
        ],
        "postalCode": "L3K5V4",
        "streetName": "3",
        "streetDirectionId": null,
        "streetTypeId": "HWY",
        "placeName": "SHERKSTON",
        "streetNameDisplayText": "3 HWY, SHERKSTON"
      },
      {
        "electoralDistricts": [
          {
            "election": null,
            "id": 70,
            "name": "Niagara West"
          }
        ],
        "pollDivisionIds": [
          10140091
        ],
        "postalCode": "L3K5V4",
        "streetName": "BESSEY",
        "streetDirectionId": null,
        "streetTypeId": "RD",
        "placeName": "PORT COLBORNE",
        "streetNameDisplayText": "BESSEY RD, PORT COLBORNE"
      },
      {
        "electoralDistricts": [
          {
            "election": null,
            "id": 70,
            "name": "Niagara West"
          }
        ],
        "pollDivisionIds": [
          10140091
        ],
        "postalCode": "L3K5V4",
        "streetName": "BIEDERMAN",
        "streetDirectionId": null,
        "streetTypeId": "RD",
        "placeName": "PORT COLBORNE",
        "streetNameDisplayText": "BIEDERMAN RD, PORT COLBORNE"
      },
      {
        "electoralDistricts": [
          {
            "election": null,
            "id": 70,
            "name": "Niagara West"
          }
        ],
        "pollDivisionIds": [
          10140091
        ],
        "postalCode": "L3K5V4",
        "streetName": "BUCKBEE",
        "streetDirectionId": null,
        "streetTypeId": "RD",
        "placeName": "PORT COLBORNE",
        "streetNameDisplayText": "BUCKBEE RD, PORT COLBORNE"
      },
      {
        "electoralDistricts": [
          {
            "election": null,
            "id": 70,
            "name": "Niagara West"
          }
        ],
        "pollDivisionIds": [
          10140091
        ],
        "postalCode": "L3K5V4",
        "streetName": "BURNABY",
        "streetDirectionId": null,
        "streetTypeId": "RD",
        "placeName": "PORT COLBORNE",
        "streetNameDisplayText": "BURNABY RD, PORT COLBORNE"
      },
      {
        "electoralDistricts": [
          {
            "election": null,
            "id": 70,
            "name": "Niagara West"
          }
        ],
        "pollDivisionIds": [
          10140091
        ],
        "postalCode": "L3K5V4",
        "streetName": "CAMELOT",
        "streetDirectionId": null,
        "streetTypeId": "DR",
        "placeName": "PORT COLBORNE",
        "streetNameDisplayText": "CAMELOT DR, PORT COLBORNE"
      },
      {
        "electoralDistricts": [
          {
            "election": null,
            "id": 70,
            "name": "Niagara West"
          }
        ],
        "pollDivisionIds": [
          10140091
        ],
        "postalCode": "L3K5V4",
        "streetName": "CEDAR CREST",
        "streetDirectionId": null,
        "streetTypeId": "RD",
        "placeName": "PORT COLBORNE",
        "streetNameDisplayText": "CEDAR CREST RD, PORT COLBORNE"
      },
      {
        "electoralDistricts": [
          {
            "election": null,
            "id": 70,
            "name": "Niagara West"
          }
        ],
        "pollDivisionIds": [
          10140091
        ],
        "postalCode": "L3K5V4",
        "streetName": "CEMENT PLANT",
        "streetDirectionId": null,
        "streetTypeId": "RD",
        "placeName": "PORT COLBORNE",
        "streetNameDisplayText": "CEMENT PLANT RD, PORT COLBORNE"
      },
      {
        "electoralDistricts": [
          {
            "election": null,
            "id": 70,
            "name": "Niagara West"
          }
        ],
        "pollDivisionIds": [
          10140091
        ],
        "postalCode": "L3K5V4",
        "streetName": "CEMENT",
        "streetDirectionId": null,
        "streetTypeId": "RD",
        "placeName": "PORT COLBORNE",
        "streetNameDisplayText": "CEMENT RD, PORT COLBORNE"
      },
      {
        "electoralDistricts": [
          {
            "election": null,
            "id": 70,
            "name": "Niagara West"
          }
        ],
        "pollDivisionIds": [
          10140091
        ],
        "postalCode": "L3K5V4",
        "streetName": "CHURCHILL",
        "streetDirectionId": null,
        "streetTypeId": "AVE",
        "placeName": "PORT COLBORNE",
        "streetNameDisplayText": "CHURCHILL AVE, PORT COLBORNE"
      },
      {
        "electoralDistricts": [
          {
            "election": null,
            "id": 70,
            "name": "Niagara West"
          }
        ],
        "pollDivisionIds": [
          10140091
        ],
        "postalCode": "L3K5V4",
        "streetName": "CHURCHILL",
        "streetDirectionId": null,
        "streetTypeId": "DR",
        "placeName": "PORT COLBORNE",
        "streetNameDisplayText": "CHURCHILL DR, PORT COLBORNE"
      },
      {
        "electoralDistricts": [
          {
            "election": null,
            "id": 70,
            "name": "Niagara West"
          }
        ],
        "pollDivisionIds": [
          10140091
        ],
        "postalCode": "L3K5V4",
        "streetName": "COLLINS",
        "streetDirectionId": null,
        "streetTypeId": "LANE",
        "placeName": "PORT COLBORNE",
        "streetNameDisplayText": "COLLINS LANE, PORT COLBORNE"
      },
      {
        "electoralDistricts": [
          {
            "election": null,
            "id": 70,
            "name": "Niagara West"
          }
        ],
        "pollDivisionIds": [
          10140091
        ],
        "postalCode": "L3K5V4",
        "streetName": "COOK",
        "streetDirectionId": null,
        "streetTypeId": "LANE",
        "placeName": "PORT COLBORNE",
        "streetNameDisplayText": "COOK LANE, PORT COLBORNE"
      },
      {
        "electoralDistricts": [
          {
            "election": null,
            "id": 70,
            "name": "Niagara West"
          }
        ],
        "pollDivisionIds": [
          10140091
        ],
        "postalCode": "L3K5V4",
        "streetName": "CRESCENT",
        "streetDirectionId": null,
        "streetTypeId": "HTS",
        "placeName": "PORT COLBORNE",
        "streetNameDisplayText": "CRESCENT HTS, PORT COLBORNE"
      },
      {
        "electoralDistricts": [
          {
            "election": null,
            "id": 70,
            "name": "Niagara West"
          }
        ],
        "pollDivisionIds": [
          10140091
        ],
        "postalCode": "L3K5V4",
        "streetName": "DESIREE",
        "streetDirectionId": null,
        "streetTypeId": "ST",
        "placeName": "PORT COLBORNE",
        "streetNameDisplayText": "DESIREE ST, PORT COLBORNE"
      },
      {
        "electoralDistricts": [
          {
            "election": null,
            "id": 70,
            "name": "Niagara West"
          }
        ],
        "pollDivisionIds": [
          10140091
        ],
        "postalCode": "L3K5V4",
        "streetName": "ELLSWORTH",
        "streetDirectionId": "N",
        "streetTypeId": "RD",
        "placeName": "PORT COLBORNE",
        "streetNameDisplayText": "ELLSWORTH RD N, PORT COLBORNE"
      },
      {
        "electoralDistricts": [
          {
            "election": null,
            "id": 70,
            "name": "Niagara West"
          }
        ],
        "pollDivisionIds": [
          10140091
        ],
        "postalCode": "L3K5V4",
        "streetName": "ELLSWORTH",
        "streetDirectionId": "S",
        "streetTypeId": "RD",
        "placeName": "PORT COLBORNE",
        "streetNameDisplayText": "ELLSWORTH RD S, PORT COLBORNE"
      },
      {
        "electoralDistricts": [
          {
            "election": null,
            "id": 70,
            "name": "Niagara West"
          }
        ],
        "pollDivisionIds": [
          10140091
        ],
        "postalCode": "L3K5V4",
        "streetName": "ERIE PEAT",
        "streetDirectionId": null,
        "streetTypeId": "RD",
        "placeName": "PORT COLBORNE",
        "streetNameDisplayText": "ERIE PEAT RD, PORT COLBORNE"
      },
      {
        "electoralDistricts": [
          {
            "election": null,
            "id": 70,
            "name": "Niagara West"
          }
        ],
        "pollDivisionIds": [
          10140091
        ],
        "postalCode": "L3K5V4",
        "streetName": "FLETCHER",
        "streetDirectionId": null,
        "streetTypeId": "AVE",
        "placeName": "PORT COLBORNE",
        "streetNameDisplayText": "FLETCHER AVE, PORT COLBORNE"
      },
      {
        "electoralDistricts": [
          {
            "election": null,
            "id": 70,
            "name": "Niagara West"
          }
        ],
        "pollDivisionIds": [
          10140091
        ],
        "postalCode": "L3K5V4",
        "streetName": "FOWLER",
        "streetDirectionId": null,
        "streetTypeId": "RD",
        "placeName": "PORT COLBORNE",
        "streetNameDisplayText": "FOWLER RD, PORT COLBORNE"
      },
      {
        "electoralDistricts": [
          {
            "election": null,
            "id": 70,
            "name": "Niagara West"
          }
        ],
        "pollDivisionIds": [
          10140091
        ],
        "postalCode": "L3K5V4",
        "streetName": "GOLF COURSE",
        "streetDirectionId": null,
        "streetTypeId": "RD",
        "placeName": "PORT COLBORNE",
        "streetNameDisplayText": "GOLF COURSE RD, PORT COLBORNE"
      },
      {
        "electoralDistricts": [
          {
            "election": null,
            "id": 70,
            "name": "Niagara West"
          }
        ],
        "pollDivisionIds": [
          10140091
        ],
        "postalCode": "L3K5V4",
        "streetName": "GRAYBIEL",
        "streetDirectionId": null,
        "streetTypeId": "RD",
        "placeName": "PORT COLBORNE",
        "streetNameDisplayText": "GRAYBIEL RD, PORT COLBORNE"
      },
      {
        "electoralDistricts": [
          {
            "election": null,
            "id": 70,
            "name": "Niagara West"
          }
        ],
        "pollDivisionIds": [
          10140091
        ],
        "postalCode": "L3K5V4",
        "streetName": "HARBOURVIEW",
        "streetDirectionId": null,
        "streetTypeId": "RD",
        "placeName": "PORT COLBORNE",
        "streetNameDisplayText": "HARBOURVIEW RD, PORT COLBORNE"
      },
      {
        "electoralDistricts": [
          {
            "election": null,
            "id": 70,
            "name": "Niagara West"
          }
        ],
        "pollDivisionIds": [
          10140052
        ],
        "postalCode": "L3K5V4",
        "streetName": "HWY 3",
        "streetDirectionId": null,
        "streetTypeId": null,
        "placeName": "PORT COLBORNE",
        "streetNameDisplayText": "HWY 3, PORT COLBORNE"
      },
      {
        "electoralDistricts": [
          {
            "election": null,
            "id": 68,
            "name": "Niagara Centre"
          }
        ],
        "pollDivisionIds": [
          10139940
        ],
        "postalCode": "L3K5V4",
        "streetName": "KILLALY",
        "streetDirectionId": "W",
        "streetTypeId": "ST",
        "placeName": "PORT COLBORNE",
        "streetNameDisplayText": "KILLALY ST W, PORT COLBORNE"
      },
      {
        "electoralDistricts": [
          {
            "election": null,
            "id": 70,
            "name": "Niagara West"
          }
        ],
        "pollDivisionIds": [
          10140091
        ],
        "postalCode": "L3K5V4",
        "streetName": "LAKEFIELD",
        "streetDirectionId": null,
        "streetTypeId": "CRES",
        "placeName": "PORT COLBORNE",
        "streetNameDisplayText": "LAKEFIELD CRES, PORT COLBORNE"
      },
      {
        "electoralDistricts": [
          {
            "election": null,
            "id": 70,
            "name": "Niagara West"
          },
          {
            "election": null,
            "id": 68,
            "name": "Niagara Centre"
          }
        ],
        "pollDivisionIds": [
          10140090,
          10140089,
          10139944,
          10140091
        ],
        "postalCode": "L3K5V4",
        "streetName": "LAKESHORE",
        "streetDirectionId": "W",
        "streetTypeId": "RD",
        "placeName": "PORT COLBORNE",
        "streetNameDisplayText": "LAKESHORE RD W, PORT COLBORNE"
      },
      {
        "electoralDistricts": [
          {
            "election": null,
            "id": 68,
            "name": "Niagara Centre"
          }
        ],
        "pollDivisionIds": [
          10139940,
          10139944
        ],
        "postalCode": "L3K5V4",
        "streetName": "MAIN",
        "streetDirectionId": "W",
        "streetTypeId": "ST",
        "placeName": "PORT COLBORNE",
        "streetNameDisplayText": "MAIN ST W, PORT COLBORNE"
      },
      {
        "electoralDistricts": [
          {
            "election": null,
            "id": 70,
            "name": "Niagara West"
          }
        ],
        "pollDivisionIds": [
          10140091
        ],
        "postalCode": "L3K5V4",
        "streetName": "MAPLE",
        "streetDirectionId": null,
        "streetTypeId": "RD",
        "placeName": "PORT COLBORNE",
        "streetNameDisplayText": "MAPLE RD, PORT COLBORNE"
      },
      {
        "electoralDistricts": [
          {
            "election": null,
            "id": 70,
            "name": "Niagara West"
          }
        ],
        "pollDivisionIds": [
          10140091
        ],
        "postalCode": "L3K5V4",
        "streetName": "MAPLEWOOD",
        "streetDirectionId": null,
        "streetTypeId": "DR",
        "placeName": "PORT COLBORNE",
        "streetNameDisplayText": "MAPLEWOOD DR, PORT COLBORNE"
      },
      {
        "electoralDistricts": [
          {
            "election": null,
            "id": 68,
            "name": "Niagara Centre"
          }
        ],
        "pollDivisionIds": [
          10139940
        ],
        "postalCode": "L3K5V4",
        "streetName": "MINOR",
        "streetDirectionId": null,
        "streetTypeId": "RD",
        "placeName": "PORT COLBORNE",
        "streetNameDisplayText": "MINOR RD, PORT COLBORNE"
      },
      {
        "electoralDistricts": [
          {
            "election": null,
            "id": 70,
            "name": "Niagara West"
          }
        ],
        "pollDivisionIds": [
          10140091
        ],
        "postalCode": "L3K5V4",
        "streetName": "MONARCH",
        "streetDirectionId": null,
        "streetTypeId": "LANE",
        "placeName": "PORT COLBORNE",
        "streetNameDisplayText": "MONARCH LANE, PORT COLBORNE"
      },
      {
        "electoralDistricts": [
          {
            "election": null,
            "id": 70,
            "name": "Niagara West"
          }
        ],
        "pollDivisionIds": [
          10140091
        ],
        "postalCode": "L3K5V4",
        "streetName": "MOORE",
        "streetDirectionId": "N",
        "streetTypeId": "RD",
        "placeName": "PORT COLBORNE",
        "streetNameDisplayText": "MOORE RD N, PORT COLBORNE"
      },
      {
        "electoralDistricts": [
          {
            "election": null,
            "id": 70,
            "name": "Niagara West"
          }
        ],
        "pollDivisionIds": [
          10140091
        ],
        "postalCode": "L3K5V4",
        "streetName": "MOORE",
        "streetDirectionId": "S",
        "streetTypeId": "RD",
        "placeName": "PORT COLBORNE",
        "streetNameDisplayText": "MOORE RD S, PORT COLBORNE"
      },
      {
        "electoralDistricts": [
          {
            "election": null,
            "id": 70,
            "name": "Niagara West"
          }
        ],
        "pollDivisionIds": [
          10140091
        ],
        "postalCode": "L3K5V4",
        "streetName": "MORGANS POINT",
        "streetDirectionId": null,
        "streetTypeId": "RD",
        "placeName": "PORT COLBORNE",
        "streetNameDisplayText": "MORGANS POINT RD, PORT COLBORNE"
      },
      {
        "electoralDistricts": [
          {
            "election": null,
            "id": 70,
            "name": "Niagara West"
          }
        ],
        "pollDivisionIds": [
          10140091
        ],
        "postalCode": "L3K5V4",
        "streetName": "NEFF",
        "streetDirectionId": null,
        "streetTypeId": "ST",
        "placeName": "PORT COLBORNE",
        "streetNameDisplayText": "NEFF ST, PORT COLBORNE"
      },
      {
        "electoralDistricts": [
          {
            "election": null,
            "id": 70,
            "name": "Niagara West"
          }
        ],
        "pollDivisionIds": [
          10140091
        ],
        "postalCode": "L3K5V4",
        "streetName": "OUTRED",
        "streetDirectionId": null,
        "streetTypeId": "RD",
        "placeName": "PORT COLBORNE",
        "streetNameDisplayText": "OUTRED RD, PORT COLBORNE"
      },
      {
        "electoralDistricts": [
          {
            "election": null,
            "id": 68,
            "name": "Niagara Centre"
          }
        ],
        "pollDivisionIds": [
          10139940
        ],
        "postalCode": "L3K5V4",
        "streetName": "PETERSBURG",
        "streetDirectionId": null,
        "streetTypeId": "CIR",
        "placeName": "PORT COLBORNE",
        "streetNameDisplayText": "PETERSBURG CIR, PORT COLBORNE"
      },
      {
        "electoralDistricts": [
          {
            "election": null,
            "id": 70,
            "name": "Niagara West"
          }
        ],
        "pollDivisionIds": [
          10140091
        ],
        "postalCode": "L3K5V4",
        "streetName": "PORT COLBORNE WAINFLEET TOWN",
        "streetDirectionId": "S",
        "streetTypeId": "LINE",
        "placeName": "PORT COLBORNE",
        "streetNameDisplayText": "PORT COLBORNE WAINFLEET TOWN LINE S, PORT COLBORNE"
      },
      {
        "electoralDistricts": [
          {
            "election": null,
            "id": 70,
            "name": "Niagara West"
          }
        ],
        "pollDivisionIds": [
          10140091
        ],
        "postalCode": "L3K5V4",
        "streetName": "QUARRY",
        "streetDirectionId": null,
        "streetTypeId": "RD",
        "placeName": "PORT COLBORNE",
        "streetNameDisplayText": "QUARRY RD, PORT COLBORNE"
      },
      {
        "electoralDistricts": [
          {
            "election": null,
            "id": 70,
            "name": "Niagara West"
          }
        ],
        "pollDivisionIds": [
          10140091
        ],
        "postalCode": "L3K5V4",
        "streetName": "RATHFON",
        "streetDirectionId": null,
        "streetTypeId": "RD",
        "placeName": "PORT COLBORNE",
        "streetNameDisplayText": "RATHFON RD, PORT COLBORNE"
      },
      {
        "electoralDistricts": [
          {
            "election": null,
            "id": 70,
            "name": "Niagara West"
          }
        ],
        "pollDivisionIds": [
          10140091
        ],
        "postalCode": "L3K5V4",
        "streetName": "RATTLER",
        "streetDirectionId": null,
        "streetTypeId": "RD",
        "placeName": "PORT COLBORNE",
        "streetNameDisplayText": "RATTLER RD, PORT COLBORNE"
      },
      {
        "electoralDistricts": [
          {
            "election": null,
            "id": 70,
            "name": "Niagara West"
          }
        ],
        "pollDivisionIds": [
          10140052
        ],
        "postalCode": "L3K5V4",
        "streetName": "TOWNLINE",
        "streetDirectionId": "S",
        "streetTypeId": "RD",
        "placeName": "PORT COLBORNE",
        "streetNameDisplayText": "TOWNLINE RD S, PORT COLBORNE"
      },
      {
        "electoralDistricts": [
          {
            "election": null,
            "id": 68,
            "name": "Niagara Centre"
          }
        ],
        "pollDivisionIds": [
          10139940
        ],
        "postalCode": "L3K5V4",
        "streetName": "TOWNLINE",
        "streetDirectionId": null,
        "streetTypeId": "RD",
        "placeName": "PORT COLBORNE",
        "streetNameDisplayText": "TOWNLINE RD, PORT COLBORNE"
      },
      {
        "electoralDistricts": [
          {
            "election": null,
            "id": 70,
            "name": "Niagara West"
          }
        ],
        "pollDivisionIds": [
          10140091
        ],
        "postalCode": "L3K5V4",
        "streetName": "WOODLAND",
        "streetDirectionId": null,
        "streetTypeId": "DR",
        "placeName": "PORT COLBORNE",
        "streetNameDisplayText": "WOODLAND DR, PORT COLBORNE"
      },
      {
        "electoralDistricts": [
          {
            "election": null,
            "id": 70,
            "name": "Niagara West"
          }
        ],
        "pollDivisionIds": [
          10140091
        ],
        "postalCode": "L3K5V4",
        "streetName": "YOUNGS",
        "streetDirectionId": "S",
        "streetTypeId": "RD",
        "placeName": "PORT COLBORNE",
        "streetNameDisplayText": "YOUNGS RD S, PORT COLBORNE"
      }
    ]
  },
  {
    "postal": "L3K4H0",
    "result": []
  },
  {
    "postal": "L3K4S7",
    "result": [
      {
        "electoralDistricts": [
          {
            "election": null,
            "id": 68,
            "name": "Niagara Centre"
          }
        ],
        "pollDivisionIds": [
          10139941
        ],
        "postalCode": "L3K4S7",
        "streetName": "OAK",
        "streetDirectionId": null,
        "streetTypeId": "ST",
        "placeName": "PORT COLBORNE",
        "streetNameDisplayText": "OAK ST, PORT COLBORNE"
      }
    ]
  },
  {
    "postal": "L3K6C2",
    "result": [
      {
        "electoralDistricts": [
          {
            "election": null,
            "id": 68,
            "name": "Niagara Centre"
          }
        ],
        "pollDivisionIds": [
          10139946
        ],
        "postalCode": "L3K6C2",
        "streetName": "SUGARLOAF",
        "streetDirectionId": null,
        "streetTypeId": "ST",
        "placeName": "PORT COLBORNE",
        "streetNameDisplayText": "SUGARLOAF ST, PORT COLBORNE"
      }
    ]
  },
  {
    "postal": "L3K8W3",
    "result": []
  },
  {
    "postal": "L3K4M5",
    "result": [
      {
        "electoralDistricts": [
          {
            "election": null,
            "id": 68,
            "name": "Niagara Centre"
          }
        ],
        "pollDivisionIds": [
          10139941
        ],
        "postalCode": "L3K4M5",
        "streetName": "ERIE",
        "streetDirectionId": null,
        "streetTypeId": "ST",
        "placeName": "PORT COLBORNE",
        "streetNameDisplayText": "ERIE ST, PORT COLBORNE"
      }
    ]
  },
  {
    "postal": "L3K5T1",
    "result": [
      {
        "electoralDistricts": [
          {
            "election": null,
            "id": 68,
            "name": "Niagara Centre"
          }
        ],
        "pollDivisionIds": [
          10139944
        ],
        "postalCode": "L3K5T1",
        "streetName": "SCHOLFIELD",
        "streetDirectionId": null,
        "streetTypeId": "AVE",
        "placeName": "PORT COLBORNE",
        "streetNameDisplayText": "SCHOLFIELD AVE, PORT COLBORNE"
      }
    ]
  },
  {
    "postal": "L3K3B3",
    "result": [
      {
        "electoralDistricts": [
          {
            "election": null,
            "id": 68,
            "name": "Niagara Centre"
          }
        ],
        "pollDivisionIds": [
          10139946
        ],
        "postalCode": "L3K3B3",
        "streetName": "DIVISION",
        "streetDirectionId": null,
        "streetTypeId": "ST",
        "placeName": "PORT COLBORNE",
        "streetNameDisplayText": "DIVISION ST, PORT COLBORNE"
      }
    ]
  },
  {
    "postal": "L3K6C6",
    "result": []
  },
  {
    "postal": "L3K7N8",
    "result": []
  },
  {
    "postal": "L3K2Y3",
    "result": [
      {
        "electoralDistricts": [
          {
            "election": null,
            "id": 68,
            "name": "Niagara Centre"
          }
        ],
        "pollDivisionIds": [
          10139946
        ],
        "postalCode": "L3K2Y3",
        "streetName": "VICTORIA",
        "streetDirectionId": null,
        "streetTypeId": "ST",
        "placeName": "PORT COLBORNE",
        "streetNameDisplayText": "VICTORIA ST, PORT COLBORNE"
      }
    ]
  },
  {
    "postal": "L3K2R6",
    "result": [
      {
        "electoralDistricts": [
          {
            "election": null,
            "id": 68,
            "name": "Niagara Centre"
          }
        ],
        "pollDivisionIds": [
          10139944
        ],
        "postalCode": "L3K2R6",
        "streetName": "SUGARLOAF",
        "streetDirectionId": null,
        "streetTypeId": "ST",
        "placeName": "PORT COLBORNE",
        "streetNameDisplayText": "SUGARLOAF ST, PORT COLBORNE"
      }
    ]
  },
  {
    "postal": "L3K7N3",
    "result": []
  },
  {
    "postal": "L3K8J2",
    "result": []
  },
  {
    "postal": "L3K6A9",
    "result": [
      {
        "electoralDistricts": [
          {
            "election": null,
            "id": 68,
            "name": "Niagara Centre"
          }
        ],
        "pollDivisionIds": [
          10139944
        ],
        "postalCode": "L3K6A9",
        "streetName": "BAYVIEW",
        "streetDirectionId": null,
        "streetTypeId": "LANE",
        "placeName": "PORT COLBORNE",
        "streetNameDisplayText": "BAYVIEW LANE, PORT COLBORNE"
      },
      {
        "electoralDistricts": [
          {
            "election": null,
            "id": 68,
            "name": "Niagara Centre"
          }
        ],
        "pollDivisionIds": [
          10139944
        ],
        "postalCode": "L3K6A9",
        "streetName": "HERON POINTE",
        "streetDirectionId": null,
        "streetTypeId": null,
        "placeName": "PORT COLBORNE",
        "streetNameDisplayText": "HERON POINTE, PORT COLBORNE"
      }
    ]
  },
  {
    "postal": "L3K3V2",
    "result": [
      {
        "electoralDistricts": [
          {
            "election": null,
            "id": 68,
            "name": "Niagara Centre"
          }
        ],
        "pollDivisionIds": [
          10139941
        ],
        "postalCode": "L3K3V2",
        "streetName": "MAIN",
        "streetDirectionId": "W",
        "streetTypeId": "ST",
        "placeName": "PORT COLBORNE",
        "streetNameDisplayText": "MAIN ST W, PORT COLBORNE"
      }
    ]
  },
  {
    "postal": "L3K2N3",
    "result": [
      {
        "electoralDistricts": [
          {
            "election": null,
            "id": 68,
            "name": "Niagara Centre"
          }
        ],
        "pollDivisionIds": [
          10139946
        ],
        "postalCode": "L3K2N3",
        "streetName": "SUGARLOAF",
        "streetDirectionId": null,
        "streetTypeId": "ST",
        "placeName": "PORT COLBORNE",
        "streetNameDisplayText": "SUGARLOAF ST, PORT COLBORNE"
      }
    ]
  },
  {
    "postal": "L3K1S5",
    "result": [
      {
        "electoralDistricts": [
          {
            "election": null,
            "id": 68,
            "name": "Niagara Centre"
          }
        ],
        "pollDivisionIds": [
          10139942
        ],
        "postalCode": "L3K1S5",
        "streetName": "MAIN",
        "streetDirectionId": "E",
        "streetTypeId": "ST",
        "placeName": "PORT COLBORNE",
        "streetNameDisplayText": "MAIN ST E, PORT COLBORNE"
      }
    ]
  },
  {
    "postal": "L3K4T7",
    "result": []
  },
  {
    "postal": "L3K6Y7",
    "result": []
  },
  {
    "postal": "L3K0W7",
    "result": []
  },
  {
    "postal": "L3K2W9",
    "result": [
      {
        "electoralDistricts": [
          {
            "election": null,
            "id": 68,
            "name": "Niagara Centre"
          }
        ],
        "pollDivisionIds": [
          10139946
        ],
        "postalCode": "L3K2W9",
        "streetName": "ASH",
        "streetDirectionId": null,
        "streetTypeId": "ST",
        "placeName": "PORT COLBORNE",
        "streetNameDisplayText": "ASH ST, PORT COLBORNE"
      }
    ]
  },
  {
    "postal": "L3K8V0",
    "result": []
  },
  {
    "postal": "L3K0H4",
    "result": []
  },
  {
    "postal": "L3K2T1",
    "result": [
      {
        "electoralDistricts": [
          {
            "election": null,
            "id": 68,
            "name": "Niagara Centre"
          }
        ],
        "pollDivisionIds": [
          10139944
        ],
        "postalCode": "L3K2T1",
        "streetName": "ORCHARD",
        "streetDirectionId": null,
        "streetTypeId": "DR",
        "placeName": "PORT COLBORNE",
        "streetNameDisplayText": "ORCHARD DR, PORT COLBORNE"
      }
    ]
  },
  {
    "postal": "L3K1B1",
    "result": [
      {
        "electoralDistricts": [
          {
            "election": null,
            "id": 68,
            "name": "Niagara Centre"
          }
        ],
        "pollDivisionIds": [
          10139945
        ],
        "postalCode": "L3K1B1",
        "streetName": "NICKEL",
        "streetDirectionId": null,
        "streetTypeId": "ST",
        "placeName": "PORT COLBORNE",
        "streetNameDisplayText": "NICKEL ST, PORT COLBORNE"
      }
    ]
  },
  {
    "postal": "L3K8B6",
    "result": []
  },
  {
    "postal": "L3K6H1",
    "result": []
  },
  {
    "postal": "L3K8T8",
    "result": []
  },
  {
    "postal": "L3K0T4",
    "result": []
  },
  {
    "postal": "L3K2C4",
    "result": [
      {
        "electoralDistricts": [
          {
            "election": null,
            "id": 68,
            "name": "Niagara Centre"
          }
        ],
        "pollDivisionIds": [
          10139942
        ],
        "postalCode": "L3K2C4",
        "streetName": "LINCOLN",
        "streetDirectionId": null,
        "streetTypeId": "AVE",
        "placeName": "PORT COLBORNE",
        "streetNameDisplayText": "LINCOLN AVE, PORT COLBORNE"
      }
    ]
  },
  {
    "postal": "L3K8N3",
    "result": []
  },
  {
    "postal": "L3K4L8",
    "result": [
      {
        "electoralDistricts": [
          {
            "election": null,
            "id": 68,
            "name": "Niagara Centre"
          }
        ],
        "pollDivisionIds": [
          10139941,
          10139943
        ],
        "postalCode": "L3K4L8",
        "streetName": "ERIE",
        "streetDirectionId": null,
        "streetTypeId": "ST",
        "placeName": "PORT COLBORNE",
        "streetNameDisplayText": "ERIE ST, PORT COLBORNE"
      }
    ]
  },
  {
    "postal": "L3K2B5",
    "result": [
      {
        "electoralDistricts": [
          {
            "election": null,
            "id": 68,
            "name": "Niagara Centre"
          }
        ],
        "pollDivisionIds": [
          10139942
        ],
        "postalCode": "L3K2B5",
        "streetName": "ELIZABETH",
        "streetDirectionId": null,
        "streetTypeId": "ST",
        "placeName": "PORT COLBORNE",
        "streetNameDisplayText": "ELIZABETH ST, PORT COLBORNE"
      }
    ]
  },
  {
    "postal": "L3K3H1",
    "result": [
      {
        "electoralDistricts": [
          {
            "election": null,
            "id": 68,
            "name": "Niagara Centre"
          }
        ],
        "pollDivisionIds": [
          10139944
        ],
        "postalCode": "L3K3H1",
        "streetName": "CLARENCE",
        "streetDirectionId": null,
        "streetTypeId": "ST",
        "placeName": "PORT COLBORNE",
        "streetNameDisplayText": "CLARENCE ST, PORT COLBORNE"
      }
    ]
  },
  {
    "postal": "L3K4Y1",
    "result": [
      {
        "electoralDistricts": [
          {
            "election": null,
            "id": 68,
            "name": "Niagara Centre"
          }
        ],
        "pollDivisionIds": [
          10139946
        ],
        "postalCode": "L3K4Y1",
        "streetName": "STEELE",
        "streetDirectionId": null,
        "streetTypeId": "ST",
        "placeName": "PORT COLBORNE",
        "streetNameDisplayText": "STEELE ST, PORT COLBORNE"
      }
    ]
  },
  {
    "postal": "L3K7E2",
    "result": []
  },
  {
    "postal": "L3K2P5",
    "result": [
      {
        "electoralDistricts": [
          {
            "election": null,
            "id": 68,
            "name": "Niagara Centre"
          }
        ],
        "pollDivisionIds": [
          10139946
        ],
        "postalCode": "L3K2P5",
        "streetName": "SUGARLOAF",
        "streetDirectionId": null,
        "streetTypeId": "ST",
        "placeName": "PORT COLBORNE",
        "streetNameDisplayText": "SUGARLOAF ST, PORT COLBORNE"
      }
    ]
  },
  {
    "postal": "L3K8R7",
    "result": []
  },
  {
    "postal": "L3K9P1",
    "result": []
  },
  {
    "postal": "L3K3B8",
    "result": [
      {
        "electoralDistricts": [
          {
            "election": null,
            "id": 68,
            "name": "Niagara Centre"
          }
        ],
        "pollDivisionIds": [
          10139944
        ],
        "postalCode": "L3K3B8",
        "streetName": "DIVISION",
        "streetDirectionId": null,
        "streetTypeId": "ST",
        "placeName": "PORT COLBORNE",
        "streetNameDisplayText": "DIVISION ST, PORT COLBORNE"
      }
    ]
  },
  {
    "postal": "L3K3P7",
    "result": [
      {
        "electoralDistricts": [
          {
            "election": null,
            "id": 68,
            "name": "Niagara Centre"
          }
        ],
        "pollDivisionIds": [
          10139941
        ],
        "postalCode": "L3K3P7",
        "streetName": "MCCAIN",
        "streetDirectionId": null,
        "streetTypeId": "ST",
        "placeName": "PORT COLBORNE",
        "streetNameDisplayText": "MCCAIN ST, PORT COLBORNE"
      }
    ]
  },
  {
    "postal": "L3K9B2",
    "result": []
  },
  {
    "postal": "L3K6Z3",
    "result": []
  },
  {
    "postal": "L3K4N5",
    "result": [
      {
        "electoralDistricts": [
          {
            "election": null,
            "id": 68,
            "name": "Niagara Centre"
          }
        ],
        "pollDivisionIds": [
          10139946
        ],
        "postalCode": "L3K4N5",
        "streetName": "ELM",
        "streetDirectionId": null,
        "streetTypeId": "ST",
        "placeName": "PORT COLBORNE",
        "streetNameDisplayText": "ELM ST, PORT COLBORNE"
      }
    ]
  },
  {
    "postal": "L3K8T3",
    "result": []
  },
  {
    "postal": "L3K1V2",
    "result": [
      {
        "electoralDistricts": [
          {
            "election": null,
            "id": 68,
            "name": "Niagara Centre"
          }
        ],
        "pollDivisionIds": [
          10139945
        ],
        "postalCode": "L3K1V2",
        "streetName": "WELLAND",
        "streetDirectionId": null,
        "streetTypeId": "ST",
        "placeName": "PORT COLBORNE",
        "streetNameDisplayText": "WELLAND ST, PORT COLBORNE"
      }
    ]
  },
  {
    "postal": "L3K1Y0",
    "result": []
  },
  {
    "postal": "L3K3G6",
    "result": [
      {
        "electoralDistricts": [
          {
            "election": null,
            "id": 68,
            "name": "Niagara Centre"
          }
        ],
        "pollDivisionIds": [
          10139946
        ],
        "postalCode": "L3K3G6",
        "streetName": "CLARENCE",
        "streetDirectionId": null,
        "streetTypeId": "ST",
        "placeName": "PORT COLBORNE",
        "streetNameDisplayText": "CLARENCE ST, PORT COLBORNE"
      }
    ]
  },
  {
    "postal": "L3K3H7",
    "result": [
      {
        "electoralDistricts": [
          {
            "election": null,
            "id": 68,
            "name": "Niagara Centre"
          }
        ],
        "pollDivisionIds": [
          10139944
        ],
        "postalCode": "L3K3H7",
        "streetName": "CLARENCE",
        "streetDirectionId": null,
        "streetTypeId": "ST",
        "placeName": "PORT COLBORNE",
        "streetNameDisplayText": "CLARENCE ST, PORT COLBORNE"
      }
    ]
  },
  {
    "postal": "L3K7X8",
    "result": []
  },
  {
    "postal": "L3K0C7",
    "result": []
  },
  {
    "postal": "L3K0W9",
    "result": []
  },
  {
    "postal": "L3K8E6",
    "result": []
  },
  {
    "postal": "L3K9Z8",
    "result": []
  },
  {
    "postal": "L3K3P4",
    "result": [
      {
        "electoralDistricts": [
          {
            "election": null,
            "id": 68,
            "name": "Niagara Centre"
          }
        ],
        "pollDivisionIds": [
          10139941
        ],
        "postalCode": "L3K3P4",
        "streetName": "UNION",
        "streetDirectionId": null,
        "streetTypeId": "ST",
        "placeName": "PORT COLBORNE",
        "streetNameDisplayText": "UNION ST, PORT COLBORNE"
      }
    ]
  },
  {
    "postal": "L3K6L8",
    "result": []
  },
  {
    "postal": "L3K2R4",
    "result": [
      {
        "electoralDistricts": [
          {
            "election": null,
            "id": 68,
            "name": "Niagara Centre"
          }
        ],
        "pollDivisionIds": [
          10139944
        ],
        "postalCode": "L3K2R4",
        "streetName": "SUGARLOAF",
        "streetDirectionId": null,
        "streetTypeId": "ST",
        "placeName": "PORT COLBORNE",
        "streetNameDisplayText": "SUGARLOAF ST, PORT COLBORNE"
      }
    ]
  },
  {
    "postal": "L3K2W1",
    "result": [
      {
        "electoralDistricts": [
          {
            "election": null,
            "id": 68,
            "name": "Niagara Centre"
          }
        ],
        "pollDivisionIds": [
          10139946
        ],
        "postalCode": "L3K2W1",
        "streetName": "ADELAIDE",
        "streetDirectionId": null,
        "streetTypeId": "ST",
        "placeName": "PORT COLBORNE",
        "streetNameDisplayText": "ADELAIDE ST, PORT COLBORNE"
      }
    ]
  },
  {
    "postal": "L3K9H8",
    "result": []
  },
  {
    "postal": "L3K8X9",
    "result": []
  },
  {
    "postal": "L3K7H4",
    "result": []
  },
  {
    "postal": "L3K3J1",
    "result": [
      {
        "electoralDistricts": [
          {
            "election": null,
            "id": 68,
            "name": "Niagara Centre"
          }
        ],
        "pollDivisionIds": [
          10139946
        ],
        "postalCode": "L3K3J1",
        "streetName": "PARK",
        "streetDirectionId": null,
        "streetTypeId": "ST",
        "placeName": "PORT COLBORNE",
        "streetNameDisplayText": "PARK ST, PORT COLBORNE"
      }
    ]
  },
  {
    "postal": "L3K1P4",
    "result": [
      {
        "electoralDistricts": [
          {
            "election": null,
            "id": 68,
            "name": "Niagara Centre"
          }
        ],
        "pollDivisionIds": [
          10139942
        ],
        "postalCode": "L3K1P4",
        "streetName": "KILLALY",
        "streetDirectionId": "E",
        "streetTypeId": "ST",
        "placeName": "PORT COLBORNE",
        "streetNameDisplayText": "KILLALY ST E, PORT COLBORNE"
      }
    ]
  },
  {
    "postal": "L3K2A3",
    "result": [
      {
        "electoralDistricts": [
          {
            "election": null,
            "id": 68,
            "name": "Niagara Centre"
          }
        ],
        "pollDivisionIds": [
          10139945
        ],
        "postalCode": "L3K2A3",
        "streetName": "MCRAE",
        "streetDirectionId": null,
        "streetTypeId": "AVE",
        "placeName": "PORT COLBORNE",
        "streetNameDisplayText": "MCRAE AVE, PORT COLBORNE"
      }
    ]
  },
  {
    "postal": "L3K0Z1",
    "result": []
  },
  {
    "postal": "L3K1C1",
    "result": [
      {
        "electoralDistricts": [
          {
            "election": null,
            "id": 68,
            "name": "Niagara Centre"
          }
        ],
        "pollDivisionIds": [
          10139945
        ],
        "postalCode": "L3K1C1",
        "streetName": "DECEW",
        "streetDirectionId": null,
        "streetTypeId": "ST",
        "placeName": "PORT COLBORNE",
        "streetNameDisplayText": "DECEW ST, PORT COLBORNE"
      }
    ]
  },
  {
    "postal": "L3K0H3",
    "result": []
  },
  {
    "postal": "L3K7B0",
    "result": []
  },
  {
    "postal": "L3K5K2",
    "result": [
      {
        "electoralDistricts": [
          {
            "election": null,
            "id": 68,
            "name": "Niagara Centre"
          }
        ],
        "pollDivisionIds": [
          10139944
        ],
        "postalCode": "L3K5K2",
        "streetName": "LINWOOD",
        "streetDirectionId": null,
        "streetTypeId": "AVE",
        "placeName": "PORT COLBORNE",
        "streetNameDisplayText": "LINWOOD AVE, PORT COLBORNE"
      }
    ]
  },
  {
    "postal": "L3K1E9",
    "result": [
      {
        "electoralDistricts": [
          {
            "election": null,
            "id": 68,
            "name": "Niagara Centre"
          }
        ],
        "pollDivisionIds": [
          10139945
        ],
        "postalCode": "L3K1E9",
        "streetName": "COLBORNE",
        "streetDirectionId": null,
        "streetTypeId": "ST",
        "placeName": "PORT COLBORNE",
        "streetNameDisplayText": "COLBORNE ST, PORT COLBORNE"
      }
    ]
  },
  {
    "postal": "L3K9W7",
    "result": []
  },
  {
    "postal": "L3K5W6",
    "result": [
      {
        "electoralDistricts": [
          {
            "election": null,
            "id": 68,
            "name": "Niagara Centre"
          }
        ],
        "pollDivisionIds": [
          10139941
        ],
        "postalCode": "L3K5W6",
        "streetName": "ELM",
        "streetDirectionId": null,
        "streetTypeId": "ST",
        "placeName": "PORT COLBORNE",
        "streetNameDisplayText": "ELM ST, PORT COLBORNE"
      }
    ]
  },
  {
    "postal": "L3K6S6",
    "result": []
  },
  {
    "postal": "L3K2P8",
    "result": [
      {
        "electoralDistricts": [
          {
            "election": null,
            "id": 68,
            "name": "Niagara Centre"
          }
        ],
        "pollDivisionIds": [
          10139944
        ],
        "postalCode": "L3K2P8",
        "streetName": "SUGARLOAF",
        "streetDirectionId": null,
        "streetTypeId": "ST",
        "placeName": "PORT COLBORNE",
        "streetNameDisplayText": "SUGARLOAF ST, PORT COLBORNE"
      }
    ]
  },
  {
    "postal": "L3K4P8",
    "result": [
      {
        "electoralDistricts": [
          {
            "election": null,
            "id": 68,
            "name": "Niagara Centre"
          }
        ],
        "pollDivisionIds": [
          10139941
        ],
        "postalCode": "L3K4P8",
        "streetName": "ELM",
        "streetDirectionId": null,
        "streetTypeId": "ST",
        "placeName": "PORT COLBORNE",
        "streetNameDisplayText": "ELM ST, PORT COLBORNE"
      }
    ]
  },
  {
    "postal": "L3K0V9",
    "result": []
  },
  {
    "postal": "L3K5Y2",
    "result": []
  },
  {
    "postal": "L3K7Z7",
    "result": []
  },
  {
    "postal": "L3K6Y8",
    "result": []
  },
  {
    "postal": "L3K2G7",
    "result": [
      {
        "electoralDistricts": [
          {
            "election": null,
            "id": 68,
            "name": "Niagara Centre"
          }
        ],
        "pollDivisionIds": [
          10139942
        ],
        "postalCode": "L3K2G7",
        "streetName": "CLARKE",
        "streetDirectionId": null,
        "streetTypeId": "ST",
        "placeName": "PORT COLBORNE",
        "streetNameDisplayText": "CLARKE ST, PORT COLBORNE"
      }
    ]
  },
  {
    "postal": "L3K8C1",
    "result": []
  },
  {
    "postal": "L3K5C5",
    "result": [
      {
        "electoralDistricts": [
          {
            "election": null,
            "id": 68,
            "name": "Niagara Centre"
          }
        ],
        "pollDivisionIds": [
          10139940
        ],
        "postalCode": "L3K5C5",
        "streetName": "THORNCREST",
        "streetDirectionId": null,
        "streetTypeId": "RD",
        "placeName": "PORT COLBORNE",
        "streetNameDisplayText": "THORNCREST RD, PORT COLBORNE"
      }
    ]
  },
  {
    "postal": "L3K2X8",
    "result": [
      {
        "electoralDistricts": [
          {
            "election": null,
            "id": 68,
            "name": "Niagara Centre"
          }
        ],
        "pollDivisionIds": [
          10139944
        ],
        "postalCode": "L3K2X8",
        "streetName": "SOUTH",
        "streetDirectionId": null,
        "streetTypeId": "CRES",
        "placeName": "PORT COLBORNE",
        "streetNameDisplayText": "SOUTH CRES, PORT COLBORNE"
      }
    ]
  },
  {
    "postal": "L3K1W5",
    "result": [
      {
        "electoralDistricts": [
          {
            "election": null,
            "id": 68,
            "name": "Niagara Centre"
          }
        ],
        "pollDivisionIds": [
          10139945
        ],
        "postalCode": "L3K1W5",
        "streetName": "FARES",
        "streetDirectionId": null,
        "streetTypeId": "ST",
        "placeName": "PORT COLBORNE",
        "streetNameDisplayText": "FARES ST, PORT COLBORNE"
      }
    ]
  },
  {
    "postal": "L3K7G0",
    "result": []
  },
  {
    "postal": "L3K8J8",
    "result": []
  },
  {
    "postal": "L3K3Y0",
    "result": []
  },
  {
    "postal": "L3K9T7",
    "result": []
  },
  {
    "postal": "L3K5P4",
    "result": [
      {
        "electoralDistricts": [
          {
            "election": null,
            "id": 68,
            "name": "Niagara Centre"
          }
        ],
        "pollDivisionIds": [
          10139940
        ],
        "postalCode": "L3K5P4",
        "streetName": "THIRD",
        "streetDirectionId": null,
        "streetTypeId": "AVE",
        "placeName": "PORT COLBORNE",
        "streetNameDisplayText": "THIRD AVE, PORT COLBORNE"
      }
    ]
  },
  {
    "postal": "L3K4B0",
    "result": []
  },
  {
    "postal": "L3K9N8",
    "result": []
  },
  {
    "postal": "L3K4A7",
    "result": [
      {
        "electoralDistricts": [
          {
            "election": null,
            "id": 68,
            "name": "Niagara Centre"
          }
        ],
        "pollDivisionIds": [
          10139940
        ],
        "postalCode": "L3K4A7",
        "streetName": "FRANKLIN",
        "streetDirectionId": null,
        "streetTypeId": "AVE",
        "placeName": "PORT COLBORNE",
        "streetNameDisplayText": "FRANKLIN AVE, PORT COLBORNE"
      }
    ]
  },
  {
    "postal": "L3K4H9",
    "result": [
      {
        "electoralDistricts": [
          {
            "election": null,
            "id": 68,
            "name": "Niagara Centre"
          }
        ],
        "pollDivisionIds": [
          10139941
        ],
        "postalCode": "L3K4H9",
        "streetName": "KING",
        "streetDirectionId": null,
        "streetTypeId": "ST",
        "placeName": "PORT COLBORNE",
        "streetNameDisplayText": "KING ST, PORT COLBORNE"
      }
    ]
  },
  {
    "postal": "L3K6X1",
    "result": []
  },
  {
    "postal": "L3K9Y7",
    "result": []
  },
  {
    "postal": "L3K2Y5",
    "result": [
      {
        "electoralDistricts": [
          {
            "election": null,
            "id": 68,
            "name": "Niagara Centre"
          }
        ],
        "pollDivisionIds": [
          10139946
        ],
        "postalCode": "L3K2Y5",
        "streetName": "VICTORIA",
        "streetDirectionId": null,
        "streetTypeId": "ST",
        "placeName": "PORT COLBORNE",
        "streetNameDisplayText": "VICTORIA ST, PORT COLBORNE"
      }
    ]
  },
  {
    "postal": "L3K8L7",
    "result": []
  },
  {
    "postal": "L3K2A8",
    "result": [
      {
        "electoralDistricts": [
          {
            "election": null,
            "id": 68,
            "name": "Niagara Centre"
          }
        ],
        "pollDivisionIds": [
          10139942
        ],
        "postalCode": "L3K2A8",
        "streetName": "MCRAE",
        "streetDirectionId": null,
        "streetTypeId": "AVE",
        "placeName": "PORT COLBORNE",
        "streetNameDisplayText": "MCRAE AVE, PORT COLBORNE"
      }
    ]
  },
  {
    "postal": "L3K2K9",
    "result": [
      {
        "electoralDistricts": [
          {
            "election": null,
            "id": 68,
            "name": "Niagara Centre"
          }
        ],
        "pollDivisionIds": [
          10139941
        ],
        "postalCode": "L3K2K9",
        "streetName": "AMELIA",
        "streetDirectionId": null,
        "streetTypeId": "ST",
        "placeName": "PORT COLBORNE",
        "streetNameDisplayText": "AMELIA ST, PORT COLBORNE"
      }
    ]
  },
  {
    "postal": "L3K3E5",
    "result": [
      {
        "electoralDistricts": [
          {
            "election": null,
            "id": 68,
            "name": "Niagara Centre"
          }
        ],
        "pollDivisionIds": [
          10139946
        ],
        "postalCode": "L3K3E5",
        "streetName": "CHARLOTTE",
        "streetDirectionId": null,
        "streetTypeId": "ST",
        "placeName": "PORT COLBORNE",
        "streetNameDisplayText": "CHARLOTTE ST, PORT COLBORNE"
      }
    ]
  },
  {
    "postal": "L3K8N6",
    "result": []
  },
  {
    "postal": "L3K8J4",
    "result": []
  },
  {
    "postal": "L3K4R7",
    "result": [
      {
        "electoralDistricts": [
          {
            "election": null,
            "id": 68,
            "name": "Niagara Centre"
          }
        ],
        "pollDivisionIds": [
          10139941
        ],
        "postalCode": "L3K4R7",
        "streetName": "ELM",
        "streetDirectionId": null,
        "streetTypeId": "ST",
        "placeName": "PORT COLBORNE",
        "streetNameDisplayText": "ELM ST, PORT COLBORNE"
      }
    ]
  },
  {
    "postal": "L3K9K1",
    "result": []
  },
  {
    "postal": "L3K8E1",
    "result": []
  },
  {
    "postal": "L3K0R1",
    "result": []
  },
  {
    "postal": "L3K4J3",
    "result": [
      {
        "electoralDistricts": [
          {
            "election": null,
            "id": 68,
            "name": "Niagara Centre"
          }
        ],
        "pollDivisionIds": [
          10139941
        ],
        "postalCode": "L3K4J3",
        "streetName": "KING",
        "streetDirectionId": null,
        "streetTypeId": "ST",
        "placeName": "PORT COLBORNE",
        "streetNameDisplayText": "KING ST, PORT COLBORNE"
      }
    ]
  },
  {
    "postal": "L3K7E7",
    "result": []
  },
  {
    "postal": "L3K0J0",
    "result": []
  },
  {
    "postal": "L3K7R8",
    "result": []
  },
  {
    "postal": "L3K9X0",
    "result": []
  },
  {
    "postal": "L3K7P6",
    "result": []
  },
  {
    "postal": "L3K0R7",
    "result": []
  },
  {
    "postal": "L3K5W1",
    "result": [
      {
        "electoralDistricts": [
          {
            "election": null,
            "id": 68,
            "name": "Niagara Centre"
          }
        ],
        "pollDivisionIds": [
          10139945
        ],
        "postalCode": "L3K5W1",
        "streetName": "REUTER",
        "streetDirectionId": null,
        "streetTypeId": "RD",
        "placeName": "PORT COLBORNE",
        "streetNameDisplayText": "REUTER RD, PORT COLBORNE"
      }
    ]
  },
  {
    "postal": "L3K0K4",
    "result": []
  },
  {
    "postal": "L3K7N9",
    "result": []
  },
  {
    "postal": "L3K1N0",
    "result": []
  },
  {
    "postal": "L3K6P3",
    "result": []
  },
  {
    "postal": "L3K5A1",
    "result": [
      {
        "electoralDistricts": [
          {
            "election": null,
            "id": 68,
            "name": "Niagara Centre"
          }
        ],
        "pollDivisionIds": [
          10139940
        ],
        "postalCode": "L3K5A1",
        "streetName": "STEELE",
        "streetDirectionId": null,
        "streetTypeId": "ST",
        "placeName": "PORT COLBORNE",
        "streetNameDisplayText": "STEELE ST, PORT COLBORNE"
      }
    ]
  },
  {
    "postal": "L3K9M9",
    "result": []
  },
  {
    "postal": "L3K7T6",
    "result": []
  },
  {
    "postal": "L3K3X0",
    "result": []
  },
  {
    "postal": "L3K2T0",
    "result": []
  },
  {
    "postal": "L3K5X9",
    "result": [
      {
        "electoralDistricts": [
          {
            "election": null,
            "id": 68,
            "name": "Niagara Centre"
          }
        ],
        "pollDivisionIds": [
          10139940
        ],
        "postalCode": "L3K5X9",
        "streetName": "PROSPERITY",
        "streetDirectionId": null,
        "streetTypeId": "AVE",
        "placeName": "PORT COLBORNE",
        "streetNameDisplayText": "PROSPERITY AVE, PORT COLBORNE"
      }
    ]
  },
  {
    "postal": "L3K2R3",
    "result": [
      {
        "electoralDistricts": [
          {
            "election": null,
            "id": 68,
            "name": "Niagara Centre"
          }
        ],
        "pollDivisionIds": [
          10139944
        ],
        "postalCode": "L3K2R3",
        "streetName": "SUGARLOAF",
        "streetDirectionId": null,
        "streetTypeId": "ST",
        "placeName": "PORT COLBORNE",
        "streetNameDisplayText": "SUGARLOAF ST, PORT COLBORNE"
      }
    ]
  },
  {
    "postal": "L3K5N2",
    "result": [
      {
        "electoralDistricts": [
          {
            "election": null,
            "id": 68,
            "name": "Niagara Centre"
          }
        ],
        "pollDivisionIds": [
          10139944
        ],
        "postalCode": "L3K5N2",
        "streetName": "GLENWOOD",
        "streetDirectionId": null,
        "streetTypeId": "AVE",
        "placeName": "PORT COLBORNE",
        "streetNameDisplayText": "GLENWOOD AVE, PORT COLBORNE"
      }
    ]
  },
  {
    "postal": "L3K4Y7",
    "result": [
      {
        "electoralDistricts": [
          {
            "election": null,
            "id": 68,
            "name": "Niagara Centre"
          }
        ],
        "pollDivisionIds": [
          10139941
        ],
        "postalCode": "L3K4Y7",
        "streetName": "STEELE",
        "streetDirectionId": null,
        "streetTypeId": "ST",
        "placeName": "PORT COLBORNE",
        "streetNameDisplayText": "STEELE ST, PORT COLBORNE"
      }
    ]
  },
  {
    "postal": "L3K7M0",
    "result": []
  },
  {
    "postal": "L3K8P3",
    "result": []
  },
  {
    "postal": "L3K3N3",
    "result": [
      {
        "electoralDistricts": [
          {
            "election": null,
            "id": 68,
            "name": "Niagara Centre"
          }
        ],
        "pollDivisionIds": [
          10139941
        ],
        "postalCode": "L3K3N3",
        "streetName": "PINE",
        "streetDirectionId": null,
        "streetTypeId": "ST",
        "placeName": "PORT COLBORNE",
        "streetNameDisplayText": "PINE ST, PORT COLBORNE"
      }
    ]
  },
  {
    "postal": "L3K7S3",
    "result": []
  },
  {
    "postal": "L3K3V9",
    "result": [
      {
        "electoralDistricts": [
          {
            "election": null,
            "id": 68,
            "name": "Niagara Centre"
          }
        ],
        "pollDivisionIds": [
          10139941
        ],
        "postalCode": "L3K3V9",
        "streetName": "MAIN",
        "streetDirectionId": "W",
        "streetTypeId": "ST",
        "placeName": "PORT COLBORNE",
        "streetNameDisplayText": "MAIN ST W, PORT COLBORNE"
      }
    ]
  },
  {
    "postal": "L3K9N7",
    "result": []
  },
  {
    "postal": "L3K0G4",
    "result": []
  },
  {
    "postal": "L3K2E2",
    "result": [
      {
        "electoralDistricts": [
          {
            "election": null,
            "id": 68,
            "name": "Niagara Centre"
          }
        ],
        "pollDivisionIds": [
          10139942
        ],
        "postalCode": "L3K2E2",
        "streetName": "JAMES",
        "streetDirectionId": null,
        "streetTypeId": "AVE",
        "placeName": "PORT COLBORNE",
        "streetNameDisplayText": "JAMES AVE, PORT COLBORNE"
      }
    ]
  },
  {
    "postal": "L3K7W8",
    "result": []
  },
  {
    "postal": "L3K7M5",
    "result": []
  },
  {
    "postal": "L3K5W8",
    "result": [
      {
        "electoralDistricts": [
          {
            "election": null,
            "id": 68,
            "name": "Niagara Centre"
          }
        ],
        "pollDivisionIds": [
          10139944
        ],
        "postalCode": "L3K5W8",
        "streetName": "STANLEY",
        "streetDirectionId": null,
        "streetTypeId": "ST",
        "placeName": "PORT COLBORNE",
        "streetNameDisplayText": "STANLEY ST, PORT COLBORNE"
      }
    ]
  },
  {
    "postal": "L3K5E5",
    "result": [
      {
        "electoralDistricts": [
          {
            "election": null,
            "id": 68,
            "name": "Niagara Centre"
          }
        ],
        "pollDivisionIds": [
          10139946
        ],
        "postalCode": "L3K5E5",
        "streetName": "FOREST",
        "streetDirectionId": null,
        "streetTypeId": "AVE",
        "placeName": "PORT COLBORNE",
        "streetNameDisplayText": "FOREST AVE, PORT COLBORNE"
      }
    ]
  },
  {
    "postal": "L3K1P9",
    "result": [
      {
        "electoralDistricts": [
          {
            "election": null,
            "id": 68,
            "name": "Niagara Centre"
          }
        ],
        "pollDivisionIds": [
          10139942
        ],
        "postalCode": "L3K1P9",
        "streetName": "KILLALY",
        "streetDirectionId": "E",
        "streetTypeId": "ST",
        "placeName": "PORT COLBORNE",
        "streetNameDisplayText": "KILLALY ST E, PORT COLBORNE"
      },
      {
        "electoralDistricts": [
          {
            "election": null,
            "id": 68,
            "name": "Niagara Centre"
          }
        ],
        "pollDivisionIds": [
          10139941
        ],
        "postalCode": "L3K1P9",
        "streetName": "KILLALY",
        "streetDirectionId": "W",
        "streetTypeId": "ST",
        "placeName": "PORT COLBORNE",
        "streetNameDisplayText": "KILLALY ST W, PORT COLBORNE"
      }
    ]
  },
  {
    "postal": "L3K8V8",
    "result": []
  },
  {
    "postal": "L3K9G8",
    "result": []
  },
  {
    "postal": "L3K8H9",
    "result": []
  },
  {
    "postal": "L3K1Z1",
    "result": [
      {
        "electoralDistricts": [
          {
            "election": null,
            "id": 68,
            "name": "Niagara Centre"
          }
        ],
        "pollDivisionIds": [
          10139945
        ],
        "postalCode": "L3K1Z1",
        "streetName": "DAVIS",
        "streetDirectionId": null,
        "streetTypeId": "ST",
        "placeName": "PORT COLBORNE",
        "streetNameDisplayText": "DAVIS ST, PORT COLBORNE"
      }
    ]
  },
  {
    "postal": "L3K8M3",
    "result": []
  },
  {
    "postal": "L3K5H6",
    "result": [
      {
        "electoralDistricts": [
          {
            "election": null,
            "id": 68,
            "name": "Niagara Centre"
          }
        ],
        "pollDivisionIds": [
          10139946
        ],
        "postalCode": "L3K5H6",
        "streetName": "CLARE",
        "streetDirectionId": null,
        "streetTypeId": "AVE",
        "placeName": "PORT COLBORNE",
        "streetNameDisplayText": "CLARE AVE, PORT COLBORNE"
      }
    ]
  },
  {
    "postal": "L3K7W7",
    "result": []
  },
  {
    "postal": "L3K4L0",
    "result": []
  },
  {
    "postal": "L3K2N1",
    "result": [
      {
        "electoralDistricts": [
          {
            "election": null,
            "id": 68,
            "name": "Niagara Centre"
          }
        ],
        "pollDivisionIds": [
          10139946
        ],
        "postalCode": "L3K2N1",
        "streetName": "SUGARLOAF",
        "streetDirectionId": null,
        "streetTypeId": "ST",
        "placeName": "PORT COLBORNE",
        "streetNameDisplayText": "SUGARLOAF ST, PORT COLBORNE"
      }
    ]
  },
  {
    "postal": "L3K2H4",
    "result": [
      {
        "electoralDistricts": [
          {
            "election": null,
            "id": 68,
            "name": "Niagara Centre"
          }
        ],
        "pollDivisionIds": [
          10139942
        ],
        "postalCode": "L3K2H4",
        "streetName": "HUMBOLDT",
        "streetDirectionId": null,
        "streetTypeId": "PKY",
        "placeName": "PORT COLBORNE",
        "streetNameDisplayText": "HUMBOLDT PKY, PORT COLBORNE"
      }
    ]
  },
  {
    "postal": "L3K5C8",
    "result": [
      {
        "electoralDistricts": [
          {
            "election": null,
            "id": 68,
            "name": "Niagara Centre"
          }
        ],
        "pollDivisionIds": [
          10139940
        ],
        "postalCode": "L3K5C8",
        "streetName": "OXFORD",
        "streetDirectionId": null,
        "streetTypeId": "BLVD",
        "placeName": "PORT COLBORNE",
        "streetNameDisplayText": "OXFORD BLVD, PORT COLBORNE"
      }
    ]
  },
  {
    "postal": "L3K8B0",
    "result": []
  },
  {
    "postal": "L3K1T4",
    "result": [
      {
        "electoralDistricts": [
          {
            "election": null,
            "id": 68,
            "name": "Niagara Centre"
          }
        ],
        "pollDivisionIds": [
          10139942
        ],
        "postalCode": "L3K1T4",
        "streetName": "CHIPPAWA",
        "streetDirectionId": null,
        "streetTypeId": "RD",
        "placeName": "PORT COLBORNE",
        "streetNameDisplayText": "CHIPPAWA RD, PORT COLBORNE"
      }
    ]
  },
  {
    "postal": "L3K7N7",
    "result": []
  },
  {
    "postal": "L3K4L3",
    "result": [
      {
        "electoralDistricts": [
          {
            "election": null,
            "id": 68,
            "name": "Niagara Centre"
          }
        ],
        "pollDivisionIds": [
          10139946
        ],
        "postalCode": "L3K4L3",
        "streetName": "CATHARINE",
        "streetDirectionId": null,
        "streetTypeId": "ST",
        "placeName": "PORT COLBORNE",
        "streetNameDisplayText": "CATHARINE ST, PORT COLBORNE"
      }
    ]
  },
  {
    "postal": "L3K2N2",
    "result": [
      {
        "electoralDistricts": [
          {
            "election": null,
            "id": 68,
            "name": "Niagara Centre"
          }
        ],
        "pollDivisionIds": [
          10139946
        ],
        "postalCode": "L3K2N2",
        "streetName": "SUGARLOAF",
        "streetDirectionId": null,
        "streetTypeId": "ST",
        "placeName": "PORT COLBORNE",
        "streetNameDisplayText": "SUGARLOAF ST, PORT COLBORNE"
      }
    ]
  },
  {
    "postal": "L3K4N8",
    "result": [
      {
        "electoralDistricts": [
          {
            "election": null,
            "id": 68,
            "name": "Niagara Centre"
          }
        ],
        "pollDivisionIds": [
          10139946
        ],
        "postalCode": "L3K4N8",
        "streetName": "ELM",
        "streetDirectionId": null,
        "streetTypeId": "ST",
        "placeName": "PORT COLBORNE",
        "streetNameDisplayText": "ELM ST, PORT COLBORNE"
      }
    ]
  },
  {
    "postal": "L3K3M5",
    "result": [
      {
        "electoralDistricts": [
          {
            "election": null,
            "id": 68,
            "name": "Niagara Centre"
          }
        ],
        "pollDivisionIds": [
          10139941
        ],
        "postalCode": "L3K3M5",
        "streetName": "KILLALY",
        "streetDirectionId": "W",
        "streetTypeId": "ST",
        "placeName": "PORT COLBORNE",
        "streetNameDisplayText": "KILLALY ST W, PORT COLBORNE"
      }
    ]
  },
  {
    "postal": "L3K6H7",
    "result": []
  },
  {
    "postal": "L3K8Y8",
    "result": []
  },
  {
    "postal": "L3K5R9",
    "result": [
      {
        "electoralDistricts": [
          {
            "election": null,
            "id": 68,
            "name": "Niagara Centre"
          }
        ],
        "pollDivisionIds": [
          10139944
        ],
        "postalCode": "L3K5R9",
        "streetName": "HAMPTON",
        "streetDirectionId": null,
        "streetTypeId": "AVE",
        "placeName": "PORT COLBORNE",
        "streetNameDisplayText": "HAMPTON AVE, PORT COLBORNE"
      }
    ]
  },
  {
    "postal": "L3K8G3",
    "result": []
  },
  {
    "postal": "L3K4N7",
    "result": [
      {
        "electoralDistricts": [
          {
            "election": null,
            "id": 68,
            "name": "Niagara Centre"
          }
        ],
        "pollDivisionIds": [
          10139946
        ],
        "postalCode": "L3K4N7",
        "streetName": "ELM",
        "streetDirectionId": null,
        "streetTypeId": "ST",
        "placeName": "PORT COLBORNE",
        "streetNameDisplayText": "ELM ST, PORT COLBORNE"
      }
    ]
  },
  {
    "postal": "L3K0B9",
    "result": []
  },
  {
    "postal": "L3K9K7",
    "result": []
  },
  {
    "postal": "L3K9K9",
    "result": []
  },
  {
    "postal": "L3K3Z2",
    "result": [
      {
        "electoralDistricts": [
          {
            "election": null,
            "id": 68,
            "name": "Niagara Centre"
          }
        ],
        "pollDivisionIds": [
          10139940
        ],
        "postalCode": "L3K3Z2",
        "streetName": "OMER",
        "streetDirectionId": null,
        "streetTypeId": "AVE",
        "placeName": "PORT COLBORNE",
        "streetNameDisplayText": "OMER AVE, PORT COLBORNE"
      }
    ]
  },
  {
    "postal": "L3K6W7",
    "result": []
  },
  {
    "postal": "L3K0P1",
    "result": []
  },
  {
    "postal": "L3K3A0",
    "result": []
  },
  {
    "postal": "L3K8L9",
    "result": []
  },
  {
    "postal": "L3K6X0",
    "result": []
  },
  {
    "postal": "L3K3E9",
    "result": [
      {
        "electoralDistricts": [
          {
            "election": null,
            "id": 68,
            "name": "Niagara Centre"
          }
        ],
        "pollDivisionIds": [
          10139946
        ],
        "postalCode": "L3K3E9",
        "streetName": "CLARENCE",
        "streetDirectionId": null,
        "streetTypeId": "ST",
        "placeName": "PORT COLBORNE",
        "streetNameDisplayText": "CLARENCE ST, PORT COLBORNE"
      }
    ]
  },
  {
    "postal": "L3K0S5",
    "result": []
  },
  {
    "postal": "L3K1A2",
    "result": [
      {
        "electoralDistricts": [
          {
            "election": null,
            "id": 68,
            "name": "Niagara Centre"
          }
        ],
        "pollDivisionIds": [
          10139945
        ],
        "postalCode": "L3K1A2",
        "streetName": "LAKE",
        "streetDirectionId": null,
        "streetTypeId": "RD",
        "placeName": "PORT COLBORNE",
        "streetNameDisplayText": "LAKE RD, PORT COLBORNE"
      }
    ]
  },
  {
    "postal": "L3K5V8",
    "result": [
      {
        "electoralDistricts": [
          {
            "election": null,
            "id": 70,
            "name": "Niagara West"
          }
        ],
        "pollDivisionIds": [
          10140091
        ],
        "postalCode": "L3K5V8",
        "streetName": "3",
        "streetDirectionId": null,
        "streetTypeId": "HWY",
        "placeName": "PORT COLBORNE",
        "streetNameDisplayText": "3 HWY, PORT COLBORNE"
      },
      {
        "electoralDistricts": [
          {
            "election": null,
            "id": 68,
            "name": "Niagara Centre"
          }
        ],
        "pollDivisionIds": [
          10139945
        ],
        "postalCode": "L3K5V8",
        "streetName": "WELLAND",
        "streetDirectionId": null,
        "streetTypeId": "ST",
        "placeName": "PORT COLBORNE",
        "streetNameDisplayText": "WELLAND ST, PORT COLBORNE"
      }
    ]
  },
  {
    "postal": "L3K8C5",
    "result": []
  },
  {
    "postal": "L3K6N0",
    "result": []
  },
  {
    "postal": "L3K9E6",
    "result": []
  },
  {
    "postal": "L3K5J7",
    "result": [
      {
        "electoralDistricts": [
          {
            "election": null,
            "id": 68,
            "name": "Niagara Centre"
          }
        ],
        "pollDivisionIds": [
          10139946
        ],
        "postalCode": "L3K5J7",
        "streetName": "LINWOOD",
        "streetDirectionId": null,
        "streetTypeId": "AVE",
        "placeName": "PORT COLBORNE",
        "streetNameDisplayText": "LINWOOD AVE, PORT COLBORNE"
      }
    ]
  },
  {
    "postal": "L3K2R2",
    "result": [
      {
        "electoralDistricts": [
          {
            "election": null,
            "id": 68,
            "name": "Niagara Centre"
          }
        ],
        "pollDivisionIds": [
          10139944
        ],
        "postalCode": "L3K2R2",
        "streetName": "SUGARLOAF",
        "streetDirectionId": null,
        "streetTypeId": "ST",
        "placeName": "PORT COLBORNE",
        "streetNameDisplayText": "SUGARLOAF ST, PORT COLBORNE"
      }
    ]
  },
  {
    "postal": "L3K0P5",
    "result": []
  },
  {
    "postal": "L3K5A7",
    "result": [
      {
        "electoralDistricts": [
          {
            "election": null,
            "id": 68,
            "name": "Niagara Centre"
          }
        ],
        "pollDivisionIds": [
          10139941
        ],
        "postalCode": "L3K5A7",
        "streetName": "KNOLL",
        "streetDirectionId": null,
        "streetTypeId": "ST",
        "placeName": "PORT COLBORNE",
        "streetNameDisplayText": "KNOLL ST, PORT COLBORNE"
      }
    ]
  },
  {
    "postal": "L3K1G1",
    "result": [
      {
        "electoralDistricts": [
          {
            "election": null,
            "id": 68,
            "name": "Niagara Centre"
          }
        ],
        "pollDivisionIds": [
          10139942
        ],
        "postalCode": "L3K1G1",
        "streetName": "COLBORNE",
        "streetDirectionId": null,
        "streetTypeId": "ST",
        "placeName": "PORT COLBORNE",
        "streetNameDisplayText": "COLBORNE ST, PORT COLBORNE"
      }
    ]
  },
  {
    "postal": "L3K9R6",
    "result": []
  },
  {
    "postal": "L3K4Z9",
    "result": [
      {
        "electoralDistricts": [
          {
            "election": null,
            "id": 68,
            "name": "Niagara Centre"
          }
        ],
        "pollDivisionIds": [
          10139940
        ],
        "postalCode": "L3K4Z9",
        "streetName": "STEELE",
        "streetDirectionId": null,
        "streetTypeId": "ST",
        "placeName": "PORT COLBORNE",
        "streetNameDisplayText": "STEELE ST, PORT COLBORNE"
      }
    ]
  },
  {
    "postal": "L3K1V5",
    "result": [
      {
        "electoralDistricts": [
          {
            "election": null,
            "id": 68,
            "name": "Niagara Centre"
          }
        ],
        "pollDivisionIds": [
          10139945
        ],
        "postalCode": "L3K1V5",
        "streetName": "WELLAND",
        "streetDirectionId": null,
        "streetTypeId": "ST",
        "placeName": "PORT COLBORNE",
        "streetNameDisplayText": "WELLAND ST, PORT COLBORNE"
      }
    ]
  },
  {
    "postal": "L3K9Y5",
    "result": []
  },
  {
    "postal": "L3K1P2",
    "result": [
      {
        "electoralDistricts": [
          {
            "election": null,
            "id": 68,
            "name": "Niagara Centre"
          }
        ],
        "pollDivisionIds": [
          10139942
        ],
        "postalCode": "L3K1P2",
        "streetName": "KILLALY",
        "streetDirectionId": "E",
        "streetTypeId": "ST",
        "placeName": "PORT COLBORNE",
        "streetNameDisplayText": "KILLALY ST E, PORT COLBORNE"
      }
    ]
  },
  {
    "postal": "L3K5X0",
    "result": []
  },
  {
    "postal": "L3K7B8",
    "result": []
  },
  {
    "postal": "L3K0C6",
    "result": []
  },
  {
    "postal": "L3K6G1",
    "result": [
      {
        "electoralDistricts": [
          {
            "election": null,
            "id": 68,
            "name": "Niagara Centre"
          }
        ],
        "pollDivisionIds": [
          10139940
        ],
        "postalCode": "L3K6G1",
        "streetName": "SHERWOOD",
        "streetDirectionId": null,
        "streetTypeId": "DR",
        "placeName": "PORT COLBORNE",
        "streetNameDisplayText": "SHERWOOD DR, PORT COLBORNE"
      },
      {
        "electoralDistricts": [
          {
            "election": null,
            "id": 68,
            "name": "Niagara Centre"
          }
        ],
        "pollDivisionIds": [
          10139940
        ],
        "postalCode": "L3K6G1",
        "streetName": "SPRINGSIDE",
        "streetDirectionId": null,
        "streetTypeId": "DR",
        "placeName": "PORT COLBORNE",
        "streetNameDisplayText": "SPRINGSIDE DR, PORT COLBORNE"
      }
    ]
  },
  {
    "postal": "L3K3K3",
    "result": [
      {
        "electoralDistricts": [
          {
            "election": null,
            "id": 68,
            "name": "Niagara Centre"
          }
        ],
        "pollDivisionIds": [
          10139946
        ],
        "postalCode": "L3K3K3",
        "streetName": "ELGIN",
        "streetDirectionId": null,
        "streetTypeId": "ST",
        "placeName": "PORT COLBORNE",
        "streetNameDisplayText": "ELGIN ST, PORT COLBORNE"
      }
    ]
  },
  {
    "postal": "L3K9R0",
    "result": []
  },
  {
    "postal": "L3K4R8",
    "result": [
      {
        "electoralDistricts": [
          {
            "election": null,
            "id": 68,
            "name": "Niagara Centre"
          }
        ],
        "pollDivisionIds": [
          10139940
        ],
        "postalCode": "L3K4R8",
        "streetName": "ELM",
        "streetDirectionId": null,
        "streetTypeId": "ST",
        "placeName": "PORT COLBORNE",
        "streetNameDisplayText": "ELM ST, PORT COLBORNE"
      }
    ]
  },
  {
    "postal": "L3K5P9",
    "result": [
      {
        "electoralDistricts": [
          {
            "election": null,
            "id": 68,
            "name": "Niagara Centre"
          }
        ],
        "pollDivisionIds": [
          10139944
        ],
        "postalCode": "L3K5P9",
        "streetName": "ROSEMOUNT",
        "streetDirectionId": null,
        "streetTypeId": "AVE",
        "placeName": "PORT COLBORNE",
        "streetNameDisplayText": "ROSEMOUNT AVE, PORT COLBORNE"
      }
    ]
  },
  {
    "postal": "L3K8N4",
    "result": []
  },
  {
    "postal": "L3K8H4",
    "result": []
  },
  {
    "postal": "L3K4V1",
    "result": [
      {
        "electoralDistricts": [
          {
            "election": null,
            "id": 68,
            "name": "Niagara Centre"
          }
        ],
        "pollDivisionIds": [
          10139941
        ],
        "postalCode": "L3K4V1",
        "streetName": "FIELDEN",
        "streetDirectionId": null,
        "streetTypeId": "AVE",
        "placeName": "PORT COLBORNE",
        "streetNameDisplayText": "FIELDEN AVE, PORT COLBORNE"
      }
    ]
  },
  {
    "postal": "L3K1K5",
    "result": [
      {
        "electoralDistricts": [
          {
            "election": null,
            "id": 68,
            "name": "Niagara Centre"
          }
        ],
        "pollDivisionIds": [
          10139942
        ],
        "postalCode": "L3K1K5",
        "streetName": "BELL",
        "streetDirectionId": null,
        "streetTypeId": "ST",
        "placeName": "PORT COLBORNE",
        "streetNameDisplayText": "BELL ST, PORT COLBORNE"
      }
    ]
  },
  {
    "postal": "L3K1Z5",
    "result": [
      {
        "electoralDistricts": [
          {
            "election": null,
            "id": 68,
            "name": "Niagara Centre"
          }
        ],
        "pollDivisionIds": [
          10139945
        ],
        "postalCode": "L3K1Z5",
        "streetName": "DAVIS",
        "streetDirectionId": null,
        "streetTypeId": "ST",
        "placeName": "PORT COLBORNE",
        "streetNameDisplayText": "DAVIS ST, PORT COLBORNE"
      }
    ]
  },
  {
    "postal": "L3K9L9",
    "result": []
  },
  {
    "postal": "L3K5L2",
    "result": [
      {
        "electoralDistricts": [
          {
            "election": null,
            "id": 68,
            "name": "Niagara Centre"
          }
        ],
        "pollDivisionIds": [
          10139940
        ],
        "postalCode": "L3K5L2",
        "streetName": "WEST SIDE",
        "streetDirectionId": null,
        "streetTypeId": "RD",
        "placeName": "PORT COLBORNE",
        "streetNameDisplayText": "WEST SIDE RD, PORT COLBORNE"
      }
    ]
  },
  {
    "postal": "L3K0M2",
    "result": []
  },
  {
    "postal": "L3K1K8",
    "result": [
      {
        "electoralDistricts": [
          {
            "election": null,
            "id": 68,
            "name": "Niagara Centre"
          }
        ],
        "pollDivisionIds": [
          10139942
        ],
        "postalCode": "L3K1K8",
        "streetName": "CROSS",
        "streetDirectionId": null,
        "streetTypeId": "ST",
        "placeName": "PORT COLBORNE",
        "streetNameDisplayText": "CROSS ST, PORT COLBORNE"
      }
    ]
  },
  {
    "postal": "L3K3M7",
    "result": [
      {
        "electoralDistricts": [
          {
            "election": null,
            "id": 68,
            "name": "Niagara Centre"
          }
        ],
        "pollDivisionIds": [
          10139941
        ],
        "postalCode": "L3K3M7",
        "streetName": "KILLALY",
        "streetDirectionId": "W",
        "streetTypeId": "ST",
        "placeName": "PORT COLBORNE",
        "streetNameDisplayText": "KILLALY ST W, PORT COLBORNE"
      }
    ]
  },
  {
    "postal": "L3K1B2",
    "result": [
      {
        "electoralDistricts": [
          {
            "election": null,
            "id": 68,
            "name": "Niagara Centre"
          }
        ],
        "pollDivisionIds": [
          10139945
        ],
        "postalCode": "L3K1B2",
        "streetName": "NICKEL",
        "streetDirectionId": null,
        "streetTypeId": "ST",
        "placeName": "PORT COLBORNE",
        "streetNameDisplayText": "NICKEL ST, PORT COLBORNE"
      }
    ]
  },
  {
    "postal": "L3K0H9",
    "result": []
  },
  {
    "postal": "L3K8M4",
    "result": []
  },
  {
    "postal": "L3K2M5",
    "result": [
      {
        "electoralDistricts": [
          {
            "election": null,
            "id": 68,
            "name": "Niagara Centre"
          }
        ],
        "pollDivisionIds": [
          10139941
        ],
        "postalCode": "L3K2M5",
        "streetName": "PORT COLBORNE",
        "streetDirectionId": null,
        "streetTypeId": "DR",
        "placeName": "PORT COLBORNE",
        "streetNameDisplayText": "PORT COLBORNE DR, PORT COLBORNE"
      }
    ]
  },
  {
    "postal": "L3K0T9",
    "result": []
  },
  {
    "postal": "L3K3P1",
    "result": [
      {
        "electoralDistricts": [
          {
            "election": null,
            "id": 68,
            "name": "Niagara Centre"
          }
        ],
        "pollDivisionIds": [
          10139941
        ],
        "postalCode": "L3K3P1",
        "streetName": "HELEN",
        "streetDirectionId": null,
        "streetTypeId": "ST",
        "placeName": "PORT COLBORNE",
        "streetNameDisplayText": "HELEN ST, PORT COLBORNE"
      }
    ]
  },
  {
    "postal": "L3K1R6",
    "result": [
      {
        "electoralDistricts": [
          {
            "election": null,
            "id": 68,
            "name": "Niagara Centre"
          }
        ],
        "pollDivisionIds": [
          10139942
        ],
        "postalCode": "L3K1R6",
        "streetName": "CHESTNUT",
        "streetDirectionId": null,
        "streetTypeId": "ST",
        "placeName": "PORT COLBORNE",
        "streetNameDisplayText": "CHESTNUT ST, PORT COLBORNE"
      }
    ]
  },
  {
    "postal": "L3K9V5",
    "result": []
  },
  {
    "postal": "L3K9T0",
    "result": []
  },
  {
    "postal": "L3K0A9",
    "result": [
      {
        "electoralDistricts": [
          {
            "election": null,
            "id": 68,
            "name": "Niagara Centre"
          }
        ],
        "pollDivisionIds": [
          10139945
        ],
        "postalCode": "L3K0A9",
        "streetName": "WELLAND",
        "streetDirectionId": null,
        "streetTypeId": "ST",
        "placeName": "PORT COLBORNE",
        "streetNameDisplayText": "WELLAND ST, PORT COLBORNE"
      }
    ]
  },
  {
    "postal": "L3K1M3",
    "result": [
      {
        "electoralDistricts": [
          {
            "election": null,
            "id": 68,
            "name": "Niagara Centre"
          }
        ],
        "pollDivisionIds": [
          10139942
        ],
        "postalCode": "L3K1M3",
        "streetName": "CHRISTMAS",
        "streetDirectionId": null,
        "streetTypeId": "ST",
        "placeName": "PORT COLBORNE",
        "streetNameDisplayText": "CHRISTMAS ST, PORT COLBORNE"
      }
    ]
  },
  {
    "postal": "L3K1W8",
    "result": [
      {
        "electoralDistricts": [
          {
            "election": null,
            "id": 68,
            "name": "Niagara Centre"
          }
        ],
        "pollDivisionIds": [
          10139945
        ],
        "postalCode": "L3K1W8",
        "streetName": "FARES",
        "streetDirectionId": null,
        "streetTypeId": "ST",
        "placeName": "PORT COLBORNE",
        "streetNameDisplayText": "FARES ST, PORT COLBORNE"
      }
    ]
  },
  {
    "postal": "L3K9J1",
    "result": []
  },
  {
    "postal": "L3K8N5",
    "result": []
  },
  {
    "postal": "L3K5X1",
    "result": [
      {
        "electoralDistricts": [
          {
            "election": null,
            "id": 68,
            "name": "Niagara Centre"
          }
        ],
        "pollDivisionIds": [
          10139940
        ],
        "postalCode": "L3K5X1",
        "streetName": "ELMVALE",
        "streetDirectionId": null,
        "streetTypeId": "CRES",
        "placeName": "PORT COLBORNE",
        "streetNameDisplayText": "ELMVALE CRES, PORT COLBORNE"
      }
    ]
  },
  {
    "postal": "L3K6S2",
    "result": []
  },
  {
    "postal": "L3K2A2",
    "result": [
      {
        "electoralDistricts": [
          {
            "election": null,
            "id": 68,
            "name": "Niagara Centre"
          }
        ],
        "pollDivisionIds": [
          10139942
        ],
        "postalCode": "L3K2A2",
        "streetName": "GRASSIE",
        "streetDirectionId": null,
        "streetTypeId": "AVE",
        "placeName": "PORT COLBORNE",
        "streetNameDisplayText": "GRASSIE AVE, PORT COLBORNE"
      }
    ]
  },
  {
    "postal": "L3K6A6",
    "result": [
      {
        "electoralDistricts": [
          {
            "election": null,
            "id": 68,
            "name": "Niagara Centre"
          }
        ],
        "pollDivisionIds": [
          10139944
        ],
        "postalCode": "L3K6A6",
        "streetName": "KILLALY",
        "streetDirectionId": "W",
        "streetTypeId": "ST",
        "placeName": "PORT COLBORNE",
        "streetNameDisplayText": "KILLALY ST W, PORT COLBORNE"
      }
    ]
  },
  {
    "postal": "L3K0S3",
    "result": []
  },
  {
    "postal": "L3K3E7",
    "result": [
      {
        "electoralDistricts": [
          {
            "election": null,
            "id": 68,
            "name": "Niagara Centre"
          }
        ],
        "pollDivisionIds": [
          10139946
        ],
        "postalCode": "L3K3E7",
        "streetName": "CLARENCE",
        "streetDirectionId": null,
        "streetTypeId": "ST",
        "placeName": "PORT COLBORNE",
        "streetNameDisplayText": "CLARENCE ST, PORT COLBORNE"
      }
    ]
  },
  {
    "postal": "L3K5R7",
    "result": [
      {
        "electoralDistricts": [
          {
            "election": null,
            "id": 68,
            "name": "Niagara Centre"
          }
        ],
        "pollDivisionIds": [
          10139944
        ],
        "postalCode": "L3K5R7",
        "streetName": "HAMPTON",
        "streetDirectionId": null,
        "streetTypeId": "AVE",
        "placeName": "PORT COLBORNE",
        "streetNameDisplayText": "HAMPTON AVE, PORT COLBORNE"
      }
    ]
  },
  {
    "postal": "L3K3R6",
    "result": [
      {
        "electoralDistricts": [
          {
            "election": null,
            "id": 68,
            "name": "Niagara Centre"
          }
        ],
        "pollDivisionIds": [
          10139941
        ],
        "postalCode": "L3K3R6",
        "streetName": "BRADY",
        "streetDirectionId": null,
        "streetTypeId": "ST",
        "placeName": "PORT COLBORNE",
        "streetNameDisplayText": "BRADY ST, PORT COLBORNE"
      }
    ]
  },
  {
    "postal": "L3K6K4",
    "result": []
  },
  {
    "postal": "L3K2W5",
    "result": [
      {
        "electoralDistricts": [
          {
            "election": null,
            "id": 68,
            "name": "Niagara Centre"
          }
        ],
        "pollDivisionIds": [
          10139946
        ],
        "postalCode": "L3K2W5",
        "streetName": "ADELAIDE",
        "streetDirectionId": null,
        "streetTypeId": "ST",
        "placeName": "PORT COLBORNE",
        "streetNameDisplayText": "ADELAIDE ST, PORT COLBORNE"
      }
    ]
  },
  {
    "postal": "L3K8W4",
    "result": []
  },
  {
    "postal": "L3K9C2",
    "result": []
  },
  {
    "postal": "L3K2C0",
    "result": []
  },
  {
    "postal": "L3K0E1",
    "result": []
  },
  {
    "postal": "L3K1K9",
    "result": [
      {
        "electoralDistricts": [
          {
            "election": null,
            "id": 68,
            "name": "Niagara Centre"
          }
        ],
        "pollDivisionIds": [
          10139942
        ],
        "postalCode": "L3K1K9",
        "streetName": "CROSS",
        "streetDirectionId": null,
        "streetTypeId": "ST",
        "placeName": "PORT COLBORNE",
        "streetNameDisplayText": "CROSS ST, PORT COLBORNE"
      }
    ]
  },
  {
    "postal": "L3K1G7",
    "result": [
      {
        "electoralDistricts": [
          {
            "election": null,
            "id": 68,
            "name": "Niagara Centre"
          }
        ],
        "pollDivisionIds": [
          10139942
        ],
        "postalCode": "L3K1G7",
        "streetName": "JOHNSTON",
        "streetDirectionId": null,
        "streetTypeId": "ST",
        "placeName": "PORT COLBORNE",
        "streetNameDisplayText": "JOHNSTON ST, PORT COLBORNE"
      }
    ]
  },
  {
    "postal": "L3K4E9",
    "result": [
      {
        "electoralDistricts": [
          {
            "election": null,
            "id": 68,
            "name": "Niagara Centre"
          }
        ],
        "pollDivisionIds": [
          10139946
        ],
        "postalCode": "L3K4E9",
        "streetName": "KING",
        "streetDirectionId": null,
        "streetTypeId": "ST",
        "placeName": "PORT COLBORNE",
        "streetNameDisplayText": "KING ST, PORT COLBORNE"
      }
    ]
  },
  {
    "postal": "L3K9P0",
    "result": []
  },
  {
    "postal": "L3K5H3",
    "result": [
      {
        "electoralDistricts": [
          {
            "election": null,
            "id": 68,
            "name": "Niagara Centre"
          }
        ],
        "pollDivisionIds": [
          10139946
        ],
        "postalCode": "L3K5H3",
        "streetName": "CLARE",
        "streetDirectionId": null,
        "streetTypeId": "AVE",
        "placeName": "PORT COLBORNE",
        "streetNameDisplayText": "CLARE AVE, PORT COLBORNE"
      }
    ]
  },
  {
    "postal": "L3K9X6",
    "result": []
  },
  {
    "postal": "L3K5N7",
    "result": [
      {
        "electoralDistricts": [
          {
            "election": null,
            "id": 68,
            "name": "Niagara Centre"
          }
        ],
        "pollDivisionIds": [
          10139944
        ],
        "postalCode": "L3K5N7",
        "streetName": "RIDGEWOOD",
        "streetDirectionId": null,
        "streetTypeId": "AVE",
        "placeName": "PORT COLBORNE",
        "streetNameDisplayText": "RIDGEWOOD AVE, PORT COLBORNE"
      }
    ]
  },
  {
    "postal": "L3K5A6",
    "result": [
      {
        "electoralDistricts": [
          {
            "election": null,
            "id": 68,
            "name": "Niagara Centre"
          }
        ],
        "pollDivisionIds": [
          10139941
        ],
        "postalCode": "L3K5A6",
        "streetName": "KNOLL",
        "streetDirectionId": null,
        "streetTypeId": "ST",
        "placeName": "PORT COLBORNE",
        "streetNameDisplayText": "KNOLL ST, PORT COLBORNE"
      }
    ]
  },
  {
    "postal": "L3K4M0",
    "result": []
  },
  {
    "postal": "L3K3V6",
    "result": [
      {
        "electoralDistricts": [
          {
            "election": null,
            "id": 68,
            "name": "Niagara Centre"
          }
        ],
        "pollDivisionIds": [
          10139941
        ],
        "postalCode": "L3K3V6",
        "streetName": "MAIN",
        "streetDirectionId": "W",
        "streetTypeId": "ST",
        "placeName": "PORT COLBORNE",
        "streetNameDisplayText": "MAIN ST W, PORT COLBORNE"
      }
    ]
  },
  {
    "postal": "L3K1L7",
    "result": [
      {
        "electoralDistricts": [
          {
            "election": null,
            "id": 68,
            "name": "Niagara Centre"
          }
        ],
        "pollDivisionIds": [
          10139942
        ],
        "postalCode": "L3K1L7",
        "streetName": "CROSS",
        "streetDirectionId": null,
        "streetTypeId": "ST",
        "placeName": "PORT COLBORNE",
        "streetNameDisplayText": "CROSS ST, PORT COLBORNE"
      }
    ]
  },
  {
    "postal": "L3K2P9",
    "result": [
      {
        "electoralDistricts": [
          {
            "election": null,
            "id": 68,
            "name": "Niagara Centre"
          }
        ],
        "pollDivisionIds": [
          10139944
        ],
        "postalCode": "L3K2P9",
        "streetName": "SUGARLOAF",
        "streetDirectionId": null,
        "streetTypeId": "ST",
        "placeName": "PORT COLBORNE",
        "streetNameDisplayText": "SUGARLOAF ST, PORT COLBORNE"
      }
    ]
  },
  {
    "postal": "L3K5T4",
    "result": [
      {
        "electoralDistricts": [
          {
            "election": null,
            "id": 68,
            "name": "Niagara Centre"
          }
        ],
        "pollDivisionIds": [
          10139944
        ],
        "postalCode": "L3K5T4",
        "streetName": "OLGA",
        "streetDirectionId": null,
        "streetTypeId": "DR",
        "placeName": "PORT COLBORNE",
        "streetNameDisplayText": "OLGA DR, PORT COLBORNE"
      }
    ]
  },
  {
    "postal": "L3K5Z1",
    "result": [
      {
        "electoralDistricts": [
          {
            "election": null,
            "id": 68,
            "name": "Niagara Centre"
          }
        ],
        "pollDivisionIds": [
          10139942
        ],
        "postalCode": "L3K5Z1",
        "streetName": "JAMES",
        "streetDirectionId": null,
        "streetTypeId": "AVE",
        "placeName": "PORT COLBORNE",
        "streetNameDisplayText": "JAMES AVE, PORT COLBORNE"
      }
    ]
  },
  {
    "postal": "L3K2X0",
    "result": []
  },
  {
    "postal": "L3K6Z2",
    "result": []
  },
  {
    "postal": "L3K0E0",
    "result": []
  },
  {
    "postal": "L3K3Z5",
    "result": [
      {
        "electoralDistricts": [
          {
            "election": null,
            "id": 68,
            "name": "Niagara Centre"
          }
        ],
        "pollDivisionIds": [
          10139940
        ],
        "postalCode": "L3K3Z5",
        "streetName": "CORONATION",
        "streetDirectionId": null,
        "streetTypeId": "DR",
        "placeName": "PORT COLBORNE",
        "streetNameDisplayText": "CORONATION DR, PORT COLBORNE"
      }
    ]
  },
  {
    "postal": "L3K8H3",
    "result": []
  },
  {
    "postal": "L3K7S6",
    "result": []
  },
  {
    "postal": "L3K4C1",
    "result": [
      {
        "electoralDistricts": [
          {
            "election": null,
            "id": 68,
            "name": "Niagara Centre"
          }
        ],
        "pollDivisionIds": [
          10139940
        ],
        "postalCode": "L3K4C1",
        "streetName": "BARRICK",
        "streetDirectionId": null,
        "streetTypeId": "RD",
        "placeName": "PORT COLBORNE",
        "streetNameDisplayText": "BARRICK RD, PORT COLBORNE"
      }
    ]
  },
  {
    "postal": "L3K3K2",
    "result": [
      {
        "electoralDistricts": [
          {
            "election": null,
            "id": 68,
            "name": "Niagara Centre"
          }
        ],
        "pollDivisionIds": [
          10139946
        ],
        "postalCode": "L3K3K2",
        "streetName": "ELGIN",
        "streetDirectionId": null,
        "streetTypeId": "ST",
        "placeName": "PORT COLBORNE",
        "streetNameDisplayText": "ELGIN ST, PORT COLBORNE"
      }
    ]
  },
  {
    "postal": "L3K1Y5",
    "result": [
      {
        "electoralDistricts": [
          {
            "election": null,
            "id": 68,
            "name": "Niagara Centre"
          }
        ],
        "pollDivisionIds": [
          10139945
        ],
        "postalCode": "L3K1Y5",
        "streetName": "MITCHELL",
        "streetDirectionId": null,
        "streetTypeId": "ST",
        "placeName": "PORT COLBORNE",
        "streetNameDisplayText": "MITCHELL ST, PORT COLBORNE"
      }
    ]
  },
  {
    "postal": "L3K6P6",
    "result": []
  },
  {
    "postal": "L3K3N9",
    "result": [
      {
        "electoralDistricts": [
          {
            "election": null,
            "id": 68,
            "name": "Niagara Centre"
          }
        ],
        "pollDivisionIds": [
          10139941
        ],
        "postalCode": "L3K3N9",
        "streetName": "HELEN",
        "streetDirectionId": null,
        "streetTypeId": "ST",
        "placeName": "PORT COLBORNE",
        "streetNameDisplayText": "HELEN ST, PORT COLBORNE"
      }
    ]
  },
  {
    "postal": "L3K3W2",
    "result": [
      {
        "electoralDistricts": [
          {
            "election": null,
            "id": 68,
            "name": "Niagara Centre"
          }
        ],
        "pollDivisionIds": [
          10139940
        ],
        "postalCode": "L3K3W2",
        "streetName": "MAIN",
        "streetDirectionId": "W",
        "streetTypeId": "ST",
        "placeName": "PORT COLBORNE",
        "streetNameDisplayText": "MAIN ST W, PORT COLBORNE"
      }
    ]
  },
  {
    "postal": "L3K6H8",
    "result": []
  },
  {
    "postal": "L3K9T3",
    "result": []
  },
  {
    "postal": "L3K5L9",
    "result": [
      {
        "electoralDistricts": [
          {
            "election": null,
            "id": 68,
            "name": "Niagara Centre"
          }
        ],
        "pollDivisionIds": [
          10139944
        ],
        "postalCode": "L3K5L9",
        "streetName": "HOMEWOOD",
        "streetDirectionId": null,
        "streetTypeId": "AVE",
        "placeName": "PORT COLBORNE",
        "streetNameDisplayText": "HOMEWOOD AVE, PORT COLBORNE"
      }
    ]
  },
  {
    "postal": "L3K7X7",
    "result": []
  },
  {
    "postal": "L3K3J5",
    "result": [
      {
        "electoralDistricts": [
          {
            "election": null,
            "id": 68,
            "name": "Niagara Centre"
          }
        ],
        "pollDivisionIds": [
          10139946
        ],
        "postalCode": "L3K3J5",
        "streetName": "PRINCESS",
        "streetDirectionId": null,
        "streetTypeId": "ST",
        "placeName": "PORT COLBORNE",
        "streetNameDisplayText": "PRINCESS ST, PORT COLBORNE"
      }
    ]
  },
  {
    "postal": "L3K4J5",
    "result": [
      {
        "electoralDistricts": [
          {
            "election": null,
            "id": 68,
            "name": "Niagara Centre"
          }
        ],
        "pollDivisionIds": [
          10139941
        ],
        "postalCode": "L3K4J5",
        "streetName": "KING",
        "streetDirectionId": null,
        "streetTypeId": "ST",
        "placeName": "PORT COLBORNE",
        "streetNameDisplayText": "KING ST, PORT COLBORNE"
      }
    ]
  },
  {
    "postal": "L3K6J2",
    "result": []
  },
  {
    "postal": "L3K5V6",
    "result": []
  },
  {
    "postal": "L3K3N2",
    "result": []
  },
  {
    "postal": "L3K3B1",
    "result": [
      {
        "electoralDistricts": [
          {
            "election": null,
            "id": 68,
            "name": "Niagara Centre"
          }
        ],
        "pollDivisionIds": [
          10139944
        ],
        "postalCode": "L3K3B1",
        "streetName": "STANLEY",
        "streetDirectionId": null,
        "streetTypeId": "ST",
        "placeName": "PORT COLBORNE",
        "streetNameDisplayText": "STANLEY ST, PORT COLBORNE"
      }
    ]
  },
  {
    "postal": "L3K8B5",
    "result": []
  },
  {
    "postal": "L3K0K1",
    "result": []
  },
  {
    "postal": "L3K7M7",
    "result": []
  },
  {
    "postal": "L3K2M2",
    "result": [
      {
        "electoralDistricts": [
          {
            "election": null,
            "id": 68,
            "name": "Niagara Centre"
          }
        ],
        "pollDivisionIds": [
          10139941
        ],
        "postalCode": "L3K2M2",
        "streetName": "MELLANBY",
        "streetDirectionId": null,
        "streetTypeId": "AVE",
        "placeName": "PORT COLBORNE",
        "streetNameDisplayText": "MELLANBY AVE, PORT COLBORNE"
      }
    ]
  },
  {
    "postal": "L3K9N3",
    "result": []
  },
  {
    "postal": "L3K4Y8",
    "result": [
      {
        "electoralDistricts": [
          {
            "election": null,
            "id": 68,
            "name": "Niagara Centre"
          }
        ],
        "pollDivisionIds": [
          10139941
        ],
        "postalCode": "L3K4Y8",
        "streetName": "STEELE",
        "streetDirectionId": null,
        "streetTypeId": "ST",
        "placeName": "PORT COLBORNE",
        "streetNameDisplayText": "STEELE ST, PORT COLBORNE"
      }
    ]
  },
  {
    "postal": "L3K3V7",
    "result": [
      {
        "electoralDistricts": [
          {
            "election": null,
            "id": 68,
            "name": "Niagara Centre"
          }
        ],
        "pollDivisionIds": [
          10139941
        ],
        "postalCode": "L3K3V7",
        "streetName": "MAIN",
        "streetDirectionId": "W",
        "streetTypeId": "ST",
        "placeName": "PORT COLBORNE",
        "streetNameDisplayText": "MAIN ST W, PORT COLBORNE"
      }
    ]
  },
  {
    "postal": "L3K8Z1",
    "result": []
  },
  {
    "postal": "L3K7B3",
    "result": []
  },
  {
    "postal": "L3K3A8",
    "result": [
      {
        "electoralDistricts": [
          {
            "election": null,
            "id": 68,
            "name": "Niagara Centre"
          }
        ],
        "pollDivisionIds": [
          10139944
        ],
        "postalCode": "L3K3A8",
        "streetName": "STANLEY",
        "streetDirectionId": null,
        "streetTypeId": "ST",
        "placeName": "PORT COLBORNE",
        "streetNameDisplayText": "STANLEY ST, PORT COLBORNE"
      }
    ]
  },
  {
    "postal": "L3K7V5",
    "result": []
  },
  {
    "postal": "L3K2T2",
    "result": [
      {
        "electoralDistricts": [
          {
            "election": null,
            "id": 68,
            "name": "Niagara Centre"
          }
        ],
        "pollDivisionIds": [
          10139944
        ],
        "postalCode": "L3K2T2",
        "streetName": "ORCHARD",
        "streetDirectionId": null,
        "streetTypeId": "DR",
        "placeName": "PORT COLBORNE",
        "streetNameDisplayText": "ORCHARD DR, PORT COLBORNE"
      }
    ]
  },
  {
    "postal": "L3K6L3",
    "result": []
  },
  {
    "postal": "L3K0L2",
    "result": []
  },
  {
    "postal": "L3K5Y8",
    "result": [
      {
        "electoralDistricts": [
          {
            "election": null,
            "id": 68,
            "name": "Niagara Centre"
          }
        ],
        "pollDivisionIds": [
          10139940
        ],
        "postalCode": "L3K5Y8",
        "streetName": "FIRST",
        "streetDirectionId": null,
        "streetTypeId": "AVE",
        "placeName": "PORT COLBORNE",
        "streetNameDisplayText": "FIRST AVE, PORT COLBORNE"
      }
    ]
  },
  {
    "postal": "L3K0B8",
    "result": []
  },
  {
    "postal": "L3K6R5",
    "result": []
  },
  {
    "postal": "L3K8W6",
    "result": []
  },
  {
    "postal": "L3K8G6",
    "result": []
  },
  {
    "postal": "L3K6X3",
    "result": []
  },
  {
    "postal": "L3K7R7",
    "result": []
  },
  {
    "postal": "L3K4B6",
    "result": [
      {
        "electoralDistricts": [
          {
            "election": null,
            "id": 68,
            "name": "Niagara Centre"
          }
        ],
        "pollDivisionIds": [
          10139940
        ],
        "postalCode": "L3K4B6",
        "streetName": "BARRICK",
        "streetDirectionId": null,
        "streetTypeId": "RD",
        "placeName": "PORT COLBORNE",
        "streetNameDisplayText": "BARRICK RD, PORT COLBORNE"
      }
    ]
  },
  {
    "postal": "L3K3P9",
    "result": [
      {
        "electoralDistricts": [
          {
            "election": null,
            "id": 68,
            "name": "Niagara Centre"
          }
        ],
        "pollDivisionIds": [
          10139941
        ],
        "postalCode": "L3K3P9",
        "streetName": "MCCAIN",
        "streetDirectionId": null,
        "streetTypeId": "ST",
        "placeName": "PORT COLBORNE",
        "streetNameDisplayText": "MCCAIN ST, PORT COLBORNE"
      }
    ]
  },
  {
    "postal": "L3K2T3",
    "result": [
      {
        "electoralDistricts": [
          {
            "election": null,
            "id": 68,
            "name": "Niagara Centre"
          }
        ],
        "pollDivisionIds": [
          10139944
        ],
        "postalCode": "L3K2T3",
        "streetName": "OAKRIDGE",
        "streetDirectionId": null,
        "streetTypeId": "CRES",
        "placeName": "PORT COLBORNE",
        "streetNameDisplayText": "OAKRIDGE CRES, PORT COLBORNE"
      }
    ]
  },
  {
    "postal": "L3K1M4",
    "result": [
      {
        "electoralDistricts": [
          {
            "election": null,
            "id": 68,
            "name": "Niagara Centre"
          }
        ],
        "pollDivisionIds": [
          10139942
        ],
        "postalCode": "L3K1M4",
        "streetName": "CHRISTMAS",
        "streetDirectionId": null,
        "streetTypeId": "ST",
        "placeName": "PORT COLBORNE",
        "streetNameDisplayText": "CHRISTMAS ST, PORT COLBORNE"
      }
    ]
  },
  {
    "postal": "L3K0H1",
    "result": []
  },
  {
    "postal": "L3K9W3",
    "result": []
  },
  {
    "postal": "L3K6P1",
    "result": []
  },
  {
    "postal": "L3K7G2",
    "result": []
  },
  {
    "postal": "L3K4J9",
    "result": [
      {
        "electoralDistricts": [
          {
            "election": null,
            "id": 68,
            "name": "Niagara Centre"
          }
        ],
        "pollDivisionIds": [
          10139946
        ],
        "postalCode": "L3K4J9",
        "streetName": "CATHARINE",
        "streetDirectionId": null,
        "streetTypeId": "ST",
        "placeName": "PORT COLBORNE",
        "streetNameDisplayText": "CATHARINE ST, PORT COLBORNE"
      }
    ]
  },
  {
    "postal": "L3K9E4",
    "result": []
  },
  {
    "postal": "L3K8H0",
    "result": []
  },
  {
    "postal": "L3K4M7",
    "result": [
      {
        "electoralDistricts": [
          {
            "election": null,
            "id": 68,
            "name": "Niagara Centre"
          }
        ],
        "pollDivisionIds": [
          10139941
        ],
        "postalCode": "L3K4M7",
        "streetName": "ERIE",
        "streetDirectionId": null,
        "streetTypeId": "ST",
        "placeName": "PORT COLBORNE",
        "streetNameDisplayText": "ERIE ST, PORT COLBORNE"
      }
    ]
  },
  {
    "postal": "L3K2G9",
    "result": [
      {
        "electoralDistricts": [
          {
            "election": null,
            "id": 68,
            "name": "Niagara Centre"
          }
        ],
        "pollDivisionIds": [
          10139942
        ],
        "postalCode": "L3K2G9",
        "streetName": "BRIDGE",
        "streetDirectionId": null,
        "streetTypeId": "ST",
        "placeName": "PORT COLBORNE",
        "streetNameDisplayText": "BRIDGE ST, PORT COLBORNE"
      }
    ]
  },
  {
    "postal": "L3K8T2",
    "result": []
  },
  {
    "postal": "L3K7G7",
    "result": []
  },
  {
    "postal": "L3K4Z3",
    "result": [
      {
        "electoralDistricts": [
          {
            "election": null,
            "id": 68,
            "name": "Niagara Centre"
          }
        ],
        "pollDivisionIds": [
          10139940
        ],
        "postalCode": "L3K4Z3",
        "streetName": "STEELE",
        "streetDirectionId": null,
        "streetTypeId": "ST",
        "placeName": "PORT COLBORNE",
        "streetNameDisplayText": "STEELE ST, PORT COLBORNE"
      }
    ]
  },
  {
    "postal": "L3K5B3",
    "result": [
      {
        "electoralDistricts": [
          {
            "election": null,
            "id": 68,
            "name": "Niagara Centre"
          }
        ],
        "pollDivisionIds": [
          10139940
        ],
        "postalCode": "L3K5B3",
        "streetName": "KNOLL",
        "streetDirectionId": null,
        "streetTypeId": "ST",
        "placeName": "PORT COLBORNE",
        "streetNameDisplayText": "KNOLL ST, PORT COLBORNE"
      }
    ]
  },
  {
    "postal": "L3K1S7",
    "result": [
      {
        "electoralDistricts": [
          {
            "election": null,
            "id": 68,
            "name": "Niagara Centre"
          }
        ],
        "pollDivisionIds": [
          10139942
        ],
        "postalCode": "L3K1S7",
        "streetName": "MAIN",
        "streetDirectionId": "E",
        "streetTypeId": "ST",
        "placeName": "PORT COLBORNE",
        "streetNameDisplayText": "MAIN ST E, PORT COLBORNE"
      },
      {
        "electoralDistricts": [
          {
            "election": null,
            "id": 68,
            "name": "Niagara Centre"
          }
        ],
        "pollDivisionIds": [
          10139940
        ],
        "postalCode": "L3K1S7",
        "streetName": "MAIN",
        "streetDirectionId": "W",
        "streetTypeId": "ST",
        "placeName": "PORT COLBORNE",
        "streetNameDisplayText": "MAIN ST W, PORT COLBORNE"
      }
    ]
  },
  {
    "postal": "L3K2N7",
    "result": [
      {
        "electoralDistricts": [
          {
            "election": null,
            "id": 68,
            "name": "Niagara Centre"
          }
        ],
        "pollDivisionIds": [
          10139946
        ],
        "postalCode": "L3K2N7",
        "streetName": "SUGARLOAF",
        "streetDirectionId": null,
        "streetTypeId": "ST",
        "placeName": "PORT COLBORNE",
        "streetNameDisplayText": "SUGARLOAF ST, PORT COLBORNE"
      }
    ]
  },
  {
    "postal": "L3K0H8",
    "result": []
  },
  {
    "postal": "L3K7Z4",
    "result": []
  },
  {
    "postal": "L3K7B1",
    "result": []
  },
  {
    "postal": "L3K7P8",
    "result": []
  },
  {
    "postal": "L3K7N0",
    "result": []
  },
  {
    "postal": "L3K3Y5",
    "result": [
      {
        "electoralDistricts": [
          {
            "election": null,
            "id": 68,
            "name": "Niagara Centre"
          }
        ],
        "pollDivisionIds": [
          10139941
        ],
        "postalCode": "L3K3Y5",
        "streetName": "OMER",
        "streetDirectionId": null,
        "streetTypeId": "AVE",
        "placeName": "PORT COLBORNE",
        "streetNameDisplayText": "OMER AVE, PORT COLBORNE"
      }
    ]
  },
  {
    "postal": "L3K6K1",
    "result": []
  },
  {
    "postal": "L3K9X5",
    "result": []
  },
  {
    "postal": "L3K7S5",
    "result": []
  },
  {
    "postal": "L3K0A4",
    "result": []
  },
  {
    "postal": "L3K4T5",
    "result": [
      {
        "electoralDistricts": [
          {
            "election": null,
            "id": 68,
            "name": "Niagara Centre"
          }
        ],
        "pollDivisionIds": [
          10139946
        ],
        "postalCode": "L3K4T5",
        "streetName": "FIELDEN",
        "streetDirectionId": null,
        "streetTypeId": "AVE",
        "placeName": "PORT COLBORNE",
        "streetNameDisplayText": "FIELDEN AVE, PORT COLBORNE"
      }
    ]
  },
  {
    "postal": "L3K5K1",
    "result": [
      {
        "electoralDistricts": [
          {
            "election": null,
            "id": 68,
            "name": "Niagara Centre"
          }
        ],
        "pollDivisionIds": [
          10139944
        ],
        "postalCode": "L3K5K1",
        "streetName": "LINWOOD",
        "streetDirectionId": null,
        "streetTypeId": "AVE",
        "placeName": "PORT COLBORNE",
        "streetNameDisplayText": "LINWOOD AVE, PORT COLBORNE"
      }
    ]
  },
  {
    "postal": "L3K0Z9",
    "result": []
  },
  {
    "postal": "L3K7T2",
    "result": []
  },
  {
    "postal": "L3K1L5",
    "result": [
      {
        "electoralDistricts": [
          {
            "election": null,
            "id": 68,
            "name": "Niagara Centre"
          }
        ],
        "pollDivisionIds": [
          10139942
        ],
        "postalCode": "L3K1L5",
        "streetName": "CROSS",
        "streetDirectionId": null,
        "streetTypeId": "ST",
        "placeName": "PORT COLBORNE",
        "streetNameDisplayText": "CROSS ST, PORT COLBORNE"
      }
    ]
  },
  {
    "postal": "L3K3N5",
    "result": [
      {
        "electoralDistricts": [
          {
            "election": null,
            "id": 68,
            "name": "Niagara Centre"
          }
        ],
        "pollDivisionIds": [
          10139941
        ],
        "postalCode": "L3K3N5",
        "streetName": "PINE",
        "streetDirectionId": null,
        "streetTypeId": "ST",
        "placeName": "PORT COLBORNE",
        "streetNameDisplayText": "PINE ST, PORT COLBORNE"
      }
    ]
  },
  {
    "postal": "L3K6H4",
    "result": []
  },
  {
    "postal": "L3K5A5",
    "result": [
      {
        "electoralDistricts": [
          {
            "election": null,
            "id": 68,
            "name": "Niagara Centre"
          }
        ],
        "pollDivisionIds": [
          10139941
        ],
        "postalCode": "L3K5A5",
        "streetName": "KNOLL",
        "streetDirectionId": null,
        "streetTypeId": "ST",
        "placeName": "PORT COLBORNE",
        "streetNameDisplayText": "KNOLL ST, PORT COLBORNE"
      }
    ]
  },
  {
    "postal": "L3K3R9",
    "result": [
      {
        "electoralDistricts": [
          {
            "election": null,
            "id": 68,
            "name": "Niagara Centre"
          }
        ],
        "pollDivisionIds": [
          10139941
        ],
        "postalCode": "L3K3R9",
        "streetName": "SNIDER",
        "streetDirectionId": null,
        "streetTypeId": "ST",
        "placeName": "PORT COLBORNE",
        "streetNameDisplayText": "SNIDER ST, PORT COLBORNE"
      }
    ]
  },
  {
    "postal": "L3K7L8",
    "result": []
  },
  {
    "postal": "L3K6T6",
    "result": []
  },
  {
    "postal": "L3K7Y7",
    "result": []
  },
  {
    "postal": "L3K3M8",
    "result": [
      {
        "electoralDistricts": [
          {
            "election": null,
            "id": 68,
            "name": "Niagara Centre"
          }
        ],
        "pollDivisionIds": [
          10139940
        ],
        "postalCode": "L3K3M8",
        "streetName": "KILLALY",
        "streetDirectionId": "W",
        "streetTypeId": "ST",
        "placeName": "PORT COLBORNE",
        "streetNameDisplayText": "KILLALY ST W, PORT COLBORNE"
      }
    ]
  },
  {
    "postal": "L3K2E0",
    "result": []
  },
  {
    "postal": "L3K4B5",
    "result": [
      {
        "electoralDistricts": [
          {
            "election": null,
            "id": 68,
            "name": "Niagara Centre"
          }
        ],
        "pollDivisionIds": [
          10139940
        ],
        "postalCode": "L3K4B5",
        "streetName": "BARRICK",
        "streetDirectionId": null,
        "streetTypeId": "RD",
        "placeName": "PORT COLBORNE",
        "streetNameDisplayText": "BARRICK RD, PORT COLBORNE"
      }
    ]
  },
  {
    "postal": "L3K1J3",
    "result": [
      {
        "electoralDistricts": [
          {
            "election": null,
            "id": 68,
            "name": "Niagara Centre"
          }
        ],
        "pollDivisionIds": [
          10139942
        ],
        "postalCode": "L3K1J3",
        "streetName": "BELL",
        "streetDirectionId": null,
        "streetTypeId": "ST",
        "placeName": "PORT COLBORNE",
        "streetNameDisplayText": "BELL ST, PORT COLBORNE"
      }
    ]
  },
  {
    "postal": "L3K5S6",
    "result": [
      {
        "electoralDistricts": [
          {
            "election": null,
            "id": 68,
            "name": "Niagara Centre"
          }
        ],
        "pollDivisionIds": [
          10139944
        ],
        "postalCode": "L3K5S6",
        "streetName": "HAMPTON",
        "streetDirectionId": null,
        "streetTypeId": "AVE",
        "placeName": "PORT COLBORNE",
        "streetNameDisplayText": "HAMPTON AVE, PORT COLBORNE"
      }
    ]
  },
  {
    "postal": "L3K8P7",
    "result": []
  },
  {
    "postal": "L3K7S7",
    "result": []
  },
  {
    "postal": "L3K4C2",
    "result": [
      {
        "electoralDistricts": [
          {
            "election": null,
            "id": 68,
            "name": "Niagara Centre"
          }
        ],
        "pollDivisionIds": [
          10139942,
          10139939
        ],
        "postalCode": "L3K4C2",
        "streetName": "HUBBARD",
        "streetDirectionId": null,
        "streetTypeId": "DR",
        "placeName": "PORT COLBORNE",
        "streetNameDisplayText": "HUBBARD DR, PORT COLBORNE"
      }
    ]
  },
  {
    "postal": "L3K5Y0",
    "result": []
  },
  {
    "postal": "L3K2V7",
    "result": [
      {
        "electoralDistricts": [
          {
            "election": null,
            "id": 68,
            "name": "Niagara Centre"
          }
        ],
        "pollDivisionIds": [
          10139944
        ],
        "postalCode": "L3K2V7",
        "streetName": "CATHY",
        "streetDirectionId": null,
        "streetTypeId": "CRES",
        "placeName": "PORT COLBORNE",
        "streetNameDisplayText": "CATHY CRES, PORT COLBORNE"
      }
    ]
  },
  {
    "postal": "L3K8P5",
    "result": []
  },
  {
    "postal": "L3K5P5",
    "result": [
      {
        "electoralDistricts": [
          {
            "election": null,
            "id": 68,
            "name": "Niagara Centre"
          }
        ],
        "pollDivisionIds": [
          10139940
        ],
        "postalCode": "L3K5P5",
        "streetName": "THIRD",
        "streetDirectionId": null,
        "streetTypeId": "AVE",
        "placeName": "PORT COLBORNE",
        "streetNameDisplayText": "THIRD AVE, PORT COLBORNE"
      }
    ]
  },
  {
    "postal": "L3K5Z0",
    "result": []
  },
  {
    "postal": "L3K9B0",
    "result": []
  },
  {
    "postal": "L3K1L0",
    "result": []
  },
  {
    "postal": "L3K0B5",
    "result": []
  },
  {
    "postal": "L3K3L2",
    "result": [
      {
        "electoralDistricts": [
          {
            "election": null,
            "id": 68,
            "name": "Niagara Centre"
          }
        ],
        "pollDivisionIds": [
          10139946
        ],
        "postalCode": "L3K3L2",
        "streetName": "BROCK",
        "streetDirectionId": null,
        "streetTypeId": "ST",
        "placeName": "PORT COLBORNE",
        "streetNameDisplayText": "BROCK ST, PORT COLBORNE"
      }
    ]
  },
  {
    "postal": "L3K3B7",
    "result": [
      {
        "electoralDistricts": [
          {
            "election": null,
            "id": 68,
            "name": "Niagara Centre"
          }
        ],
        "pollDivisionIds": [
          10139944
        ],
        "postalCode": "L3K3B7",
        "streetName": "DIVISION",
        "streetDirectionId": null,
        "streetTypeId": "ST",
        "placeName": "PORT COLBORNE",
        "streetNameDisplayText": "DIVISION ST, PORT COLBORNE"
      }
    ]
  },
  {
    "postal": "L3K8L1",
    "result": []
  },
  {
    "postal": "L3K5M4",
    "result": [
      {
        "electoralDistricts": [
          {
            "election": null,
            "id": 68,
            "name": "Niagara Centre"
          }
        ],
        "pollDivisionIds": [
          10139940
        ],
        "postalCode": "L3K5M4",
        "streetName": "SHEBA",
        "streetDirectionId": null,
        "streetTypeId": "CRES",
        "placeName": "PORT COLBORNE",
        "streetNameDisplayText": "SHEBA CRES, PORT COLBORNE"
      }
    ]
  },
  {
    "postal": "L3K4G9",
    "result": []
  },
  {
    "postal": "L3K0P0",
    "result": []
  },
  {
    "postal": "L3K8G2",
    "result": []
  },
  {
    "postal": "L3K1V9",
    "result": []
  },
  {
    "postal": "L3K8N8",
    "result": []
  },
  {
    "postal": "L3K6S8",
    "result": []
  },
  {
    "postal": "L3K8H2",
    "result": []
  },
  {
    "postal": "L3K5R8",
    "result": [
      {
        "electoralDistricts": [
          {
            "election": null,
            "id": 68,
            "name": "Niagara Centre"
          }
        ],
        "pollDivisionIds": [
          10139944
        ],
        "postalCode": "L3K5R8",
        "streetName": "HAMPTON",
        "streetDirectionId": null,
        "streetTypeId": "AVE",
        "placeName": "PORT COLBORNE",
        "streetNameDisplayText": "HAMPTON AVE, PORT COLBORNE"
      }
    ]
  },
  {
    "postal": "L3K5L4",
    "result": [
      {
        "electoralDistricts": [
          {
            "election": null,
            "id": 68,
            "name": "Niagara Centre"
          }
        ],
        "pollDivisionIds": [
          10139940
        ],
        "postalCode": "L3K5L4",
        "streetName": "WEST SIDE",
        "streetDirectionId": null,
        "streetTypeId": "RD",
        "placeName": "PORT COLBORNE",
        "streetNameDisplayText": "WEST SIDE RD, PORT COLBORNE"
      }
    ]
  },
  {
    "postal": "L3K9E1",
    "result": []
  },
  {
    "postal": "L3K1C4",
    "result": [
      {
        "electoralDistricts": [
          {
            "election": null,
            "id": 68,
            "name": "Niagara Centre"
          }
        ],
        "pollDivisionIds": [
          10139945
        ],
        "postalCode": "L3K1C4",
        "streetName": "LOUIS",
        "streetDirectionId": null,
        "streetTypeId": "ST",
        "placeName": "PORT COLBORNE",
        "streetNameDisplayText": "LOUIS ST, PORT COLBORNE"
      }
    ]
  },
  {
    "postal": "L3K8W5",
    "result": []
  },
  {
    "postal": "L3K1Y4",
    "result": [
      {
        "electoralDistricts": [
          {
            "election": null,
            "id": 68,
            "name": "Niagara Centre"
          }
        ],
        "pollDivisionIds": [
          10139945
        ],
        "postalCode": "L3K1Y4",
        "streetName": "MITCHELL",
        "streetDirectionId": null,
        "streetTypeId": "ST",
        "placeName": "PORT COLBORNE",
        "streetNameDisplayText": "MITCHELL ST, PORT COLBORNE"
      }
    ]
  },
  {
    "postal": "L3K1C0",
    "result": []
  },
  {
    "postal": "L3K2J2",
    "result": [
      {
        "electoralDistricts": [
          {
            "election": null,
            "id": 68,
            "name": "Niagara Centre"
          }
        ],
        "pollDivisionIds": [
          10139942
        ],
        "postalCode": "L3K2J2",
        "streetName": "DOLPHIN",
        "streetDirectionId": null,
        "streetTypeId": "ST",
        "placeName": "PORT COLBORNE",
        "streetNameDisplayText": "DOLPHIN ST, PORT COLBORNE"
      }
    ]
  },
  {
    "postal": "L3K2J0",
    "result": []
  },
  {
    "postal": "L3K7A3",
    "result": []
  },
  {
    "postal": "L3K8M1",
    "result": []
  },
  {
    "postal": "L3K7T9",
    "result": []
  },
  {
    "postal": "L3K6C0",
    "result": []
  },
  {
    "postal": "L3K7X1",
    "result": []
  },
  {
    "postal": "L3K0G1",
    "result": []
  },
  {
    "postal": "L3K4X2",
    "result": [
      {
        "electoralDistricts": [
          {
            "election": null,
            "id": 68,
            "name": "Niagara Centre"
          }
        ],
        "pollDivisionIds": [
          10139946
        ],
        "postalCode": "L3K4X2",
        "streetName": "STEELE",
        "streetDirectionId": null,
        "streetTypeId": "ST",
        "placeName": "PORT COLBORNE",
        "streetNameDisplayText": "STEELE ST, PORT COLBORNE"
      }
    ]
  },
  {
    "postal": "L3K0N6",
    "result": []
  },
  {
    "postal": "L3K8E3",
    "result": []
  },
  {
    "postal": "L3K5S8",
    "result": [
      {
        "electoralDistricts": [
          {
            "election": null,
            "id": 68,
            "name": "Niagara Centre"
          }
        ],
        "pollDivisionIds": [
          10139944
        ],
        "postalCode": "L3K5S8",
        "streetName": "SCHOLFIELD",
        "streetDirectionId": null,
        "streetTypeId": "AVE",
        "placeName": "PORT COLBORNE",
        "streetNameDisplayText": "SCHOLFIELD AVE, PORT COLBORNE"
      }
    ]
  },
  {
    "postal": "L3K0R0",
    "result": []
  },
  {
    "postal": "L3K6J6",
    "result": []
  },
  {
    "postal": "L3K4B4",
    "result": [
      {
        "electoralDistricts": [
          {
            "election": null,
            "id": 68,
            "name": "Niagara Centre"
          }
        ],
        "pollDivisionIds": [
          10139940
        ],
        "postalCode": "L3K4B4",
        "streetName": "BARRICK",
        "streetDirectionId": null,
        "streetTypeId": "RD",
        "placeName": "PORT COLBORNE",
        "streetNameDisplayText": "BARRICK RD, PORT COLBORNE"
      }
    ]
  },
  {
    "postal": "L3K7E3",
    "result": []
  },
  {
    "postal": "L3K3N6",
    "result": [
      {
        "electoralDistricts": [
          {
            "election": null,
            "id": 68,
            "name": "Niagara Centre"
          }
        ],
        "pollDivisionIds": [
          10139941
        ],
        "postalCode": "L3K3N6",
        "streetName": "PINE",
        "streetDirectionId": null,
        "streetTypeId": "ST",
        "placeName": "PORT COLBORNE",
        "streetNameDisplayText": "PINE ST, PORT COLBORNE"
      }
    ]
  },
  {
    "postal": "L3K3X6",
    "result": [
      {
        "electoralDistricts": [
          {
            "election": null,
            "id": 68,
            "name": "Niagara Centre"
          }
        ],
        "pollDivisionIds": [
          10139940
        ],
        "postalCode": "L3K3X6",
        "streetName": "WALLACE",
        "streetDirectionId": null,
        "streetTypeId": "AVE",
        "placeName": "PORT COLBORNE",
        "streetNameDisplayText": "WALLACE AVE, PORT COLBORNE"
      }
    ]
  },
  {
    "postal": "L3K8L0",
    "result": []
  },
  {
    "postal": "L3K8N1",
    "result": []
  },
  {
    "postal": "L3K4J0",
    "result": []
  },
  {
    "postal": "L3K0X7",
    "result": []
  },
  {
    "postal": "L3K6S4",
    "result": []
  },
  {
    "postal": "L3K0Z0",
    "result": []
  },
  {
    "postal": "L3K9X8",
    "result": []
  },
  {
    "postal": "L3K3H3",
    "result": [
      {
        "electoralDistricts": [
          {
            "election": null,
            "id": 68,
            "name": "Niagara Centre"
          }
        ],
        "pollDivisionIds": [
          10139944
        ],
        "postalCode": "L3K3H3",
        "streetName": "CLARENCE",
        "streetDirectionId": null,
        "streetTypeId": "ST",
        "placeName": "PORT COLBORNE",
        "streetNameDisplayText": "CLARENCE ST, PORT COLBORNE"
      }
    ]
  },
  {
    "postal": "L3K7S2",
    "result": []
  },
  {
    "postal": "L3K3T3",
    "result": [
      {
        "electoralDistricts": [
          {
            "election": null,
            "id": 68,
            "name": "Niagara Centre"
          }
        ],
        "pollDivisionIds": [
          10139941
        ],
        "postalCode": "L3K3T3",
        "streetName": "NEFF",
        "streetDirectionId": null,
        "streetTypeId": "ST",
        "placeName": "PORT COLBORNE",
        "streetNameDisplayText": "NEFF ST, PORT COLBORNE"
      }
    ]
  },
  {
    "postal": "L3K9P3",
    "result": []
  },
  {
    "postal": "L3K4H8",
    "result": [
      {
        "electoralDistricts": [
          {
            "election": null,
            "id": 68,
            "name": "Niagara Centre"
          }
        ],
        "pollDivisionIds": [
          10139941
        ],
        "postalCode": "L3K4H8",
        "streetName": "KING",
        "streetDirectionId": null,
        "streetTypeId": "ST",
        "placeName": "PORT COLBORNE",
        "streetNameDisplayText": "KING ST, PORT COLBORNE"
      }
    ]
  },
  {
    "postal": "L3K6R1",
    "result": []
  },
  {
    "postal": "L3K1S0",
    "result": []
  },
  {
    "postal": "L3K3W8",
    "result": [
      {
        "electoralDistricts": [
          {
            "election": null,
            "id": 68,
            "name": "Niagara Centre"
          }
        ],
        "pollDivisionIds": [
          10139940
        ],
        "postalCode": "L3K3W8",
        "streetName": "MAIN",
        "streetDirectionId": "W",
        "streetTypeId": "ST",
        "placeName": "PORT COLBORNE",
        "streetNameDisplayText": "MAIN ST W, PORT COLBORNE"
      }
    ]
  },
  {
    "postal": "L3K4S3",
    "result": [
      {
        "electoralDistricts": [
          {
            "election": null,
            "id": 68,
            "name": "Niagara Centre"
          }
        ],
        "pollDivisionIds": [
          10139941
        ],
        "postalCode": "L3K4S3",
        "streetName": "SILVER",
        "streetDirectionId": null,
        "streetTypeId": "ST",
        "placeName": "PORT COLBORNE",
        "streetNameDisplayText": "SILVER ST, PORT COLBORNE"
      }
    ]
  },
  {
    "postal": "L3K1B6",
    "result": []
  },
  {
    "postal": "L3K8R3",
    "result": []
  },
  {
    "postal": "L3K4V9",
    "result": [
      {
        "electoralDistricts": [
          {
            "election": null,
            "id": 68,
            "name": "Niagara Centre"
          }
        ],
        "pollDivisionIds": [
          10139941
        ],
        "postalCode": "L3K4V9",
        "streetName": "FIELDEN",
        "streetDirectionId": null,
        "streetTypeId": "AVE",
        "placeName": "PORT COLBORNE",
        "streetNameDisplayText": "FIELDEN AVE, PORT COLBORNE"
      }
    ]
  },
  {
    "postal": "L3K9W4",
    "result": []
  },
  {
    "postal": "L3K3T4",
    "result": [
      {
        "electoralDistricts": [
          {
            "election": null,
            "id": 68,
            "name": "Niagara Centre"
          }
        ],
        "pollDivisionIds": [
          10139941
        ],
        "postalCode": "L3K3T4",
        "streetName": "NEFF",
        "streetDirectionId": null,
        "streetTypeId": "ST",
        "placeName": "PORT COLBORNE",
        "streetNameDisplayText": "NEFF ST, PORT COLBORNE"
      }
    ]
  },
  {
    "postal": "L3K5C7",
    "result": [
      {
        "electoralDistricts": [
          {
            "election": null,
            "id": 68,
            "name": "Niagara Centre"
          }
        ],
        "pollDivisionIds": [
          10139940
        ],
        "postalCode": "L3K5C7",
        "streetName": "THORNCREST",
        "streetDirectionId": null,
        "streetTypeId": "RD",
        "placeName": "PORT COLBORNE",
        "streetNameDisplayText": "THORNCREST RD, PORT COLBORNE"
      }
    ]
  },
  {
    "postal": "L3K3Y1",
    "result": [
      {
        "electoralDistricts": [
          {
            "election": null,
            "id": 68,
            "name": "Niagara Centre"
          }
        ],
        "pollDivisionIds": [
          10139940
        ],
        "postalCode": "L3K3Y1",
        "streetName": "MERRITT",
        "streetDirectionId": null,
        "streetTypeId": "PKY",
        "placeName": "PORT COLBORNE",
        "streetNameDisplayText": "MERRITT PKY, PORT COLBORNE"
      }
    ]
  },
  {
    "postal": "L3K5V0",
    "result": []
  },
  {
    "postal": "L3K8G8",
    "result": []
  },
  {
    "postal": "L3K8B1",
    "result": []
  },
  {
    "postal": "L3K4P5",
    "result": [
      {
        "electoralDistricts": [
          {
            "election": null,
            "id": 68,
            "name": "Niagara Centre"
          }
        ],
        "pollDivisionIds": [
          10139941
        ],
        "postalCode": "L3K4P5",
        "streetName": "ELM",
        "streetDirectionId": null,
        "streetTypeId": "ST",
        "placeName": "PORT COLBORNE",
        "streetNameDisplayText": "ELM ST, PORT COLBORNE"
      }
    ]
  },
  {
    "postal": "L3K7B2",
    "result": []
  },
  {
    "postal": "L3K0R2",
    "result": []
  },
  {
    "postal": "L3K4M4",
    "result": [
      {
        "electoralDistricts": [
          {
            "election": null,
            "id": 68,
            "name": "Niagara Centre"
          }
        ],
        "pollDivisionIds": [
          10139941
        ],
        "postalCode": "L3K4M4",
        "streetName": "ERIE",
        "streetDirectionId": null,
        "streetTypeId": "ST",
        "placeName": "PORT COLBORNE",
        "streetNameDisplayText": "ERIE ST, PORT COLBORNE"
      }
    ]
  },
  {
    "postal": "L3K7M4",
    "result": []
  },
  {
    "postal": "L3K9S7",
    "result": []
  },
  {
    "postal": "L3K5Z7",
    "result": [
      {
        "electoralDistricts": [
          {
            "election": null,
            "id": 68,
            "name": "Niagara Centre"
          }
        ],
        "pollDivisionIds": [
          10139944
        ],
        "postalCode": "L3K5Z7",
        "streetName": "STEELE",
        "streetDirectionId": null,
        "streetTypeId": "ST",
        "placeName": "PORT COLBORNE",
        "streetNameDisplayText": "STEELE ST, PORT COLBORNE"
      }
    ]
  },
  {
    "postal": "L3K7J7",
    "result": []
  },
  {
    "postal": "L3K8R8",
    "result": []
  },
  {
    "postal": "L3K9X1",
    "result": []
  },
  {
    "postal": "L3K5M9",
    "result": [
      {
        "electoralDistricts": [
          {
            "election": null,
            "id": 68,
            "name": "Niagara Centre"
          }
        ],
        "pollDivisionIds": [
          10139944
        ],
        "postalCode": "L3K5M9",
        "streetName": "GLENWOOD",
        "streetDirectionId": null,
        "streetTypeId": "AVE",
        "placeName": "PORT COLBORNE",
        "streetNameDisplayText": "GLENWOOD AVE, PORT COLBORNE"
      }
    ]
  },
  {
    "postal": "L3K9B4",
    "result": []
  },
  {
    "postal": "L3K0L9",
    "result": []
  },
  {
    "postal": "L3K9G4",
    "result": []
  },
  {
    "postal": "L3K1J4",
    "result": [
      {
        "electoralDistricts": [
          {
            "election": null,
            "id": 68,
            "name": "Niagara Centre"
          }
        ],
        "pollDivisionIds": [
          10139942
        ],
        "postalCode": "L3K1J4",
        "streetName": "BELL",
        "streetDirectionId": null,
        "streetTypeId": "ST",
        "placeName": "PORT COLBORNE",
        "streetNameDisplayText": "BELL ST, PORT COLBORNE"
      }
    ]
  },
  {
    "postal": "L3K0W6",
    "result": []
  }
]
