[
  {
    "postal": "N6K9J6",
    "result": []
  },
  {
    "postal": "N6K9Z5",
    "result": []
  },
  {
    "postal": "N6K7H8",
    "result": []
  },
  {
    "postal": "N6K0P6",
    "result": []
  },
  {
    "postal": "N6K0S7",
    "result": []
  },
  {
    "postal": "N6K8B9",
    "result": []
  },
  {
    "postal": "N6K2A6",
    "result": [
      {
        "electoralDistricts": [
          {
            "election": null,
            "id": 55,
            "name": "London West"
          }
        ],
        "pollDivisionIds": [
          10139616
        ],
        "postalCode": "N6K2A6",
        "streetName": "NORMAN",
        "streetDirectionId": null,
        "streetTypeId": "AVE",
        "placeName": "LONDON",
        "streetNameDisplayText": "NORMAN AVE, LONDON"
      }
    ]
  },
  {
    "postal": "N6K7V2",
    "result": []
  },
  {
    "postal": "N6K9P4",
    "result": []
  },
  {
    "postal": "N6K6G0",
    "result": []
  },
  {
    "postal": "N6K2K0",
    "result": []
  },
  {
    "postal": "N6K7N6",
    "result": []
  },
  {
    "postal": "N6K5R3",
    "result": [
      {
        "electoralDistricts": [
          {
            "election": null,
            "id": 55,
            "name": "London West"
          }
        ],
        "pollDivisionIds": [
          10139615
        ],
        "postalCode": "N6K5R3",
        "streetName": "JACK NASH",
        "streetDirectionId": null,
        "streetTypeId": "DR",
        "placeName": "LONDON",
        "streetNameDisplayText": "JACK NASH DR, LONDON"
      },
      {
        "electoralDistricts": [
          {
            "election": null,
            "id": 55,
            "name": "London West"
          }
        ],
        "pollDivisionIds": [
          10139615
        ],
        "postalCode": "N6K5R3",
        "streetName": "MARLENE STEWART",
        "streetDirectionId": null,
        "streetTypeId": "PL",
        "placeName": "LONDON",
        "streetNameDisplayText": "MARLENE STEWART PL, LONDON"
      },
      {
        "electoralDistricts": [
          {
            "election": null,
            "id": 55,
            "name": "London West"
          }
        ],
        "pollDivisionIds": [
          10139615
        ],
        "postalCode": "N6K5R3",
        "streetName": "MARLENE STEWART",
        "streetDirectionId": null,
        "streetTypeId": "ST",
        "placeName": "LONDON",
        "streetNameDisplayText": "MARLENE STEWART ST, LONDON"
      },
      {
        "electoralDistricts": [
          {
            "election": null,
            "id": 55,
            "name": "London West"
          }
        ],
        "pollDivisionIds": [
          10139615
        ],
        "postalCode": "N6K5R3",
        "streetName": "SANDY SOMERVILLE",
        "streetDirectionId": null,
        "streetTypeId": "DR",
        "placeName": "LONDON",
        "streetNameDisplayText": "SANDY SOMERVILLE DR, LONDON"
      },
      {
        "electoralDistricts": [
          {
            "election": null,
            "id": 55,
            "name": "London West"
          }
        ],
        "pollDivisionIds": [
          10139615
        ],
        "postalCode": "N6K5R3",
        "streetName": "WEIR",
        "streetDirectionId": null,
        "streetTypeId": "AVE",
        "placeName": "LONDON",
        "streetNameDisplayText": "WEIR AVE, LONDON"
      }
    ]
  },
  {
    "postal": "N6K7K0",
    "result": []
  },
  {
    "postal": "N6K3R2",
    "result": [
      {
        "electoralDistricts": [
          {
            "election": null,
            "id": 55,
            "name": "London West"
          }
        ],
        "pollDivisionIds": [
          10139620
        ],
        "postalCode": "N6K3R2",
        "streetName": "OLD WONDERLAND",
        "streetDirectionId": null,
        "streetTypeId": "RD",
        "placeName": "LONDON",
        "streetNameDisplayText": "OLD WONDERLAND RD, LONDON"
      }
    ]
  },
  {
    "postal": "N6K0J1",
    "result": [
      {
        "electoralDistricts": [
          {
            "election": null,
            "id": 55,
            "name": "London West"
          }
        ],
        "pollDivisionIds": [
          10139615
        ],
        "postalCode": "N6K0J1",
        "streetName": "RIVERBEND",
        "streetDirectionId": null,
        "streetTypeId": "RD",
        "placeName": "LONDON",
        "streetNameDisplayText": "RIVERBEND RD, LONDON"
      },
      {
        "electoralDistricts": [
          {
            "election": null,
            "id": 55,
            "name": "London West"
          }
        ],
        "pollDivisionIds": [
          10139615
        ],
        "postalCode": "N6K0J1",
        "streetName": "TRAILSWAY",
        "streetDirectionId": null,
        "streetTypeId": "AVE",
        "placeName": "LONDON",
        "streetNameDisplayText": "TRAILSWAY AVE, LONDON"
      },
      {
        "electoralDistricts": [
          {
            "election": null,
            "id": 55,
            "name": "London West"
          }
        ],
        "pollDivisionIds": [
          10139615
        ],
        "postalCode": "N6K0J1",
        "streetName": "UPPER WEST",
        "streetDirectionId": null,
        "streetTypeId": "AVE",
        "placeName": "LONDON",
        "streetNameDisplayText": "UPPER WEST AVE, LONDON"
      }
    ]
  },
  {
    "postal": "N6K0B0",
    "result": []
  },
  {
    "postal": "N6K5Z2",
    "result": []
  },
  {
    "postal": "N6K7P3",
    "result": []
  },
  {
    "postal": "N6K2K3",
    "result": [
      {
        "electoralDistricts": [
          {
            "election": null,
            "id": 55,
            "name": "London West"
          }
        ],
        "pollDivisionIds": [
          10139618
        ],
        "postalCode": "N6K2K3",
        "streetName": "BOLER",
        "streetDirectionId": null,
        "streetTypeId": "RD",
        "placeName": "LONDON",
        "streetNameDisplayText": "BOLER RD, LONDON"
      }
    ]
  },
  {
    "postal": "N6K7Y6",
    "result": []
  },
  {
    "postal": "N6K1L9",
    "result": [
      {
        "electoralDistricts": [
          {
            "election": null,
            "id": 55,
            "name": "London West"
          }
        ],
        "pollDivisionIds": [
          10139629
        ],
        "postalCode": "N6K1L9",
        "streetName": "WONDERLAND",
        "streetDirectionId": "S",
        "streetTypeId": "RD",
        "placeName": "LONDON",
        "streetNameDisplayText": "WONDERLAND RD S, LONDON"
      }
    ]
  },
  {
    "postal": "N6K8T0",
    "result": []
  },
  {
    "postal": "N6K3K8",
    "result": [
      {
        "electoralDistricts": [
          {
            "election": null,
            "id": 55,
            "name": "London West"
          }
        ],
        "pollDivisionIds": [
          10139638
        ],
        "postalCode": "N6K3K8",
        "streetName": "BELORUN",
        "streetDirectionId": null,
        "streetTypeId": "CRT",
        "placeName": "LONDON",
        "streetNameDisplayText": "BELORUN CRT, LONDON"
      }
    ]
  },
  {
    "postal": "N6K5W9",
    "result": []
  },
  {
    "postal": "N6K6T9",
    "result": []
  },
  {
    "postal": "N6K4H1",
    "result": [
      {
        "electoralDistricts": [
          {
            "election": null,
            "id": 55,
            "name": "London West"
          }
        ],
        "pollDivisionIds": [
          10139617
        ],
        "postalCode": "N6K4H1",
        "streetName": "CADEAU",
        "streetDirectionId": null,
        "streetTypeId": "TERR",
        "placeName": "LONDON",
        "streetNameDisplayText": "CADEAU TERR, LONDON"
      }
    ]
  },
  {
    "postal": "N6K7A2",
    "result": []
  },
  {
    "postal": "N6K5G0",
    "result": []
  },
  {
    "postal": "N6K8V5",
    "result": []
  },
  {
    "postal": "N6K2Y8",
    "result": [
      {
        "electoralDistricts": [
          {
            "election": null,
            "id": 55,
            "name": "London West"
          }
        ],
        "pollDivisionIds": [
          10139629
        ],
        "postalCode": "N6K2Y8",
        "streetName": "WONDERLAND",
        "streetDirectionId": "S",
        "streetTypeId": "RD",
        "placeName": "LONDON",
        "streetNameDisplayText": "WONDERLAND RD S, LONDON"
      }
    ]
  },
  {
    "postal": "N6K2B6",
    "result": [
      {
        "electoralDistricts": [
          {
            "election": null,
            "id": 55,
            "name": "London West"
          }
        ],
        "pollDivisionIds": [
          10139618
        ],
        "postalCode": "N6K2B6",
        "streetName": "TANGLEWOOD",
        "streetDirectionId": null,
        "streetTypeId": "AVE",
        "placeName": "LONDON",
        "streetNameDisplayText": "TANGLEWOOD AVE, LONDON"
      }
    ]
  },
  {
    "postal": "N6K4W8",
    "result": [
      {
        "electoralDistricts": [
          {
            "election": null,
            "id": 55,
            "name": "London West"
          }
        ],
        "pollDivisionIds": [
          10139640
        ],
        "postalCode": "N6K4W8",
        "streetName": "ADIRONDACK",
        "streetDirectionId": null,
        "streetTypeId": "RD",
        "placeName": "LONDON",
        "streetNameDisplayText": "ADIRONDACK RD, LONDON"
      },
      {
        "electoralDistricts": [
          {
            "election": null,
            "id": 55,
            "name": "London West"
          }
        ],
        "pollDivisionIds": [
          10139640
        ],
        "postalCode": "N6K4W8",
        "streetName": "CRANBROOK",
        "streetDirectionId": null,
        "streetTypeId": "PL",
        "placeName": "LONDON",
        "streetNameDisplayText": "CRANBROOK PL, LONDON"
      },
      {
        "electoralDistricts": [
          {
            "election": null,
            "id": 55,
            "name": "London West"
          }
        ],
        "pollDivisionIds": [
          10139640
        ],
        "postalCode": "N6K4W8",
        "streetName": "CRANBROOK",
        "streetDirectionId": null,
        "streetTypeId": "RD",
        "placeName": "LONDON",
        "streetNameDisplayText": "CRANBROOK RD, LONDON"
      }
    ]
  },
  {
    "postal": "N6K8H7",
    "result": []
  },
  {
    "postal": "N6K5P1",
    "result": []
  },
  {
    "postal": "N6K2B8",
    "result": [
      {
        "electoralDistricts": [
          {
            "election": null,
            "id": 55,
            "name": "London West"
          }
        ],
        "pollDivisionIds": [
          10139618
        ],
        "postalCode": "N6K2B8",
        "streetName": "SOUTHFIELD",
        "streetDirectionId": null,
        "streetTypeId": "CRES",
        "placeName": "LONDON",
        "streetNameDisplayText": "SOUTHFIELD CRES, LONDON"
      }
    ]
  },
  {
    "postal": "N6K0P2",
    "result": []
  },
  {
    "postal": "N6K9M1",
    "result": []
  },
  {
    "postal": "N6K3G0",
    "result": []
  },
  {
    "postal": "N6K9Z2",
    "result": []
  },
  {
    "postal": "N6K2A0",
    "result": []
  },
  {
    "postal": "N6K6Y0",
    "result": []
  },
  {
    "postal": "N6K2Z8",
    "result": [
      {
        "electoralDistricts": [
          {
            "election": null,
            "id": 55,
            "name": "London West"
          }
        ],
        "pollDivisionIds": [
          10139637
        ],
        "postalCode": "N6K2Z8",
        "streetName": "GATINEAU",
        "streetDirectionId": null,
        "streetTypeId": "CRES",
        "placeName": "LONDON",
        "streetNameDisplayText": "GATINEAU CRES, LONDON"
      }
    ]
  },
  {
    "postal": "N6K7Y3",
    "result": []
  },
  {
    "postal": "N6K6Z5",
    "result": []
  },
  {
    "postal": "N6K6E0",
    "result": []
  },
  {
    "postal": "N6K9B7",
    "result": []
  },
  {
    "postal": "N6K9S5",
    "result": []
  },
  {
    "postal": "N6K3X3",
    "result": [
      {
        "electoralDistricts": [
          {
            "election": null,
            "id": 55,
            "name": "London West"
          }
        ],
        "pollDivisionIds": [
          10139640
        ],
        "postalCode": "N6K3X3",
        "streetName": "PINE VALLEY",
        "streetDirectionId": null,
        "streetTypeId": "BLVD",
        "placeName": "LONDON",
        "streetNameDisplayText": "PINE VALLEY BLVD, LONDON"
      }
    ]
  },
  {
    "postal": "N6K7R5",
    "result": []
  },
  {
    "postal": "N6K2X3",
    "result": [
      {
        "electoralDistricts": [
          {
            "election": null,
            "id": 55,
            "name": "London West"
          }
        ],
        "pollDivisionIds": [
          10139641
        ],
        "postalCode": "N6K2X3",
        "streetName": "CRANBROOK",
        "streetDirectionId": null,
        "streetTypeId": "RD",
        "placeName": "LONDON",
        "streetNameDisplayText": "CRANBROOK RD, LONDON"
      }
    ]
  },
  {
    "postal": "N6K8Z9",
    "result": []
  },
  {
    "postal": "N6K0N4",
    "result": []
  },
  {
    "postal": "N6K1K1",
    "result": [
      {
        "electoralDistricts": [
          {
            "election": null,
            "id": 55,
            "name": "London West"
          }
        ],
        "pollDivisionIds": [
          10139640
        ],
        "postalCode": "N6K1K1",
        "streetName": "FARNHAM",
        "streetDirectionId": null,
        "streetTypeId": "CRES",
        "placeName": "LONDON",
        "streetNameDisplayText": "FARNHAM CRES, LONDON"
      }
    ]
  },
  {
    "postal": "N6K1S3",
    "result": [
      {
        "electoralDistricts": [
          {
            "election": null,
            "id": 55,
            "name": "London West"
          }
        ],
        "pollDivisionIds": [
          10139640
        ],
        "postalCode": "N6K1S3",
        "streetName": "FARNHAM",
        "streetDirectionId": null,
        "streetTypeId": "RD",
        "placeName": "LONDON",
        "streetNameDisplayText": "FARNHAM RD, LONDON"
      }
    ]
  },
  {
    "postal": "N6K6M4",
    "result": []
  },
  {
    "postal": "N6K9A9",
    "result": []
  },
  {
    "postal": "N6K9Z9",
    "result": []
  },
  {
    "postal": "N6K6T4",
    "result": []
  },
  {
    "postal": "N6K0B2",
    "result": [
      {
        "electoralDistricts": [
          {
            "election": null,
            "id": 55,
            "name": "London West"
          }
        ],
        "pollDivisionIds": [
          10139640
        ],
        "postalCode": "N6K0B2",
        "streetName": "BUTTONBUSH",
        "streetDirectionId": null,
        "streetTypeId": "CRES",
        "placeName": "LONDON",
        "streetNameDisplayText": "BUTTONBUSH CRES, LONDON"
      },
      {
        "electoralDistricts": [
          {
            "election": null,
            "id": 55,
            "name": "London West"
          }
        ],
        "pollDivisionIds": [
          10139640
        ],
        "postalCode": "N6K0B2",
        "streetName": "THORNLEY",
        "streetDirectionId": null,
        "streetTypeId": "ST",
        "placeName": "LONDON",
        "streetNameDisplayText": "THORNLEY ST, LONDON"
      }
    ]
  },
  {
    "postal": "N6K2L9",
    "result": [
      {
        "electoralDistricts": [
          {
            "election": null,
            "id": 55,
            "name": "London West"
          }
        ],
        "pollDivisionIds": [
          10139637
        ],
        "postalCode": "N6K2L9",
        "streetName": "REGIS",
        "streetDirectionId": null,
        "streetTypeId": "AVE",
        "placeName": "LONDON",
        "streetNameDisplayText": "REGIS AVE, LONDON"
      }
    ]
  },
  {
    "postal": "N6K8K9",
    "result": []
  },
  {
    "postal": "N6K2H9",
    "result": [
      {
        "electoralDistricts": [
          {
            "election": null,
            "id": 55,
            "name": "London West"
          }
        ],
        "pollDivisionIds": [
          10139617
        ],
        "postalCode": "N6K2H9",
        "streetName": "LYNDEN",
        "streetDirectionId": null,
        "streetTypeId": "CRES",
        "placeName": "LONDON",
        "streetNameDisplayText": "LYNDEN CRES, LONDON"
      }
    ]
  },
  {
    "postal": "N6K3Z6",
    "result": [
      {
        "electoralDistricts": [
          {
            "election": null,
            "id": 55,
            "name": "London West"
          }
        ],
        "pollDivisionIds": [
          10139638
        ],
        "postalCode": "N6K3Z6",
        "streetName": "WAYNE",
        "streetDirectionId": null,
        "streetTypeId": "CRT",
        "placeName": "LONDON",
        "streetNameDisplayText": "WAYNE CRT, LONDON"
      }
    ]
  },
  {
    "postal": "N6K3B0",
    "result": []
  },
  {
    "postal": "N6K2H8",
    "result": [
      {
        "electoralDistricts": [
          {
            "election": null,
            "id": 55,
            "name": "London West"
          }
        ],
        "pollDivisionIds": [
          10139617
        ],
        "postalCode": "N6K2H8",
        "streetName": "WILLARD",
        "streetDirectionId": null,
        "streetTypeId": "CRES",
        "placeName": "LONDON",
        "streetNameDisplayText": "WILLARD CRES, LONDON"
      }
    ]
  },
  {
    "postal": "N6K3X2",
    "result": []
  },
  {
    "postal": "N6K2E9",
    "result": [
      {
        "electoralDistricts": [
          {
            "election": null,
            "id": 55,
            "name": "London West"
          }
        ],
        "pollDivisionIds": [
          10139618
        ],
        "postalCode": "N6K2E9",
        "streetName": "BYRON BASELINE",
        "streetDirectionId": null,
        "streetTypeId": "RD",
        "placeName": "LONDON",
        "streetNameDisplayText": "BYRON BASELINE RD, LONDON"
      }
    ]
  },
  {
    "postal": "N6K9P6",
    "result": []
  },
  {
    "postal": "N6K9E2",
    "result": []
  },
  {
    "postal": "N6K9H2",
    "result": []
  },
  {
    "postal": "N6K1S8",
    "result": [
      {
        "electoralDistricts": [
          {
            "election": null,
            "id": 55,
            "name": "London West"
          }
        ],
        "pollDivisionIds": [
          10139640
        ],
        "postalCode": "N6K1S8",
        "streetName": "FARNHAM",
        "streetDirectionId": null,
        "streetTypeId": "PL",
        "placeName": "LONDON",
        "streetNameDisplayText": "FARNHAM PL, LONDON"
      }
    ]
  },
  {
    "postal": "N6K3M6",
    "result": [
      {
        "electoralDistricts": [
          {
            "election": null,
            "id": 55,
            "name": "London West"
          }
        ],
        "pollDivisionIds": [
          10139638
        ],
        "postalCode": "N6K3M6",
        "streetName": "SOMERSET",
        "streetDirectionId": null,
        "streetTypeId": "RD",
        "placeName": "LONDON",
        "streetNameDisplayText": "SOMERSET RD, LONDON"
      }
    ]
  },
  {
    "postal": "N6K6Z8",
    "result": []
  },
  {
    "postal": "N6K4J2",
    "result": [
      {
        "electoralDistricts": [
          {
            "election": null,
            "id": 55,
            "name": "London West"
          }
        ],
        "pollDivisionIds": [
          10139617
        ],
        "postalCode": "N6K4J2",
        "streetName": "COMMISSIONERS",
        "streetDirectionId": "W",
        "streetTypeId": "RD",
        "placeName": "LONDON",
        "streetNameDisplayText": "COMMISSIONERS RD W, LONDON"
      }
    ]
  },
  {
    "postal": "N6K9Y1",
    "result": []
  },
  {
    "postal": "N6K8V6",
    "result": []
  },
  {
    "postal": "N6K6B2",
    "result": []
  },
  {
    "postal": "N6K1P8",
    "result": [
      {
        "electoralDistricts": [
          {
            "election": null,
            "id": 55,
            "name": "London West"
          }
        ],
        "pollDivisionIds": [
          10139642
        ],
        "postalCode": "N6K1P8",
        "streetName": "WOODCREST",
        "streetDirectionId": null,
        "streetTypeId": "BLVD",
        "placeName": "LONDON",
        "streetNameDisplayText": "WOODCREST BLVD, LONDON"
      }
    ]
  },
  {
    "postal": "N6K0V8",
    "result": []
  },
  {
    "postal": "N6K4Y0",
    "result": []
  },
  {
    "postal": "N6K2T4",
    "result": [
      {
        "electoralDistricts": [
          {
            "election": null,
            "id": 55,
            "name": "London West"
          }
        ],
        "pollDivisionIds": [
          10139618
        ],
        "postalCode": "N6K2T4",
        "streetName": "GRAND VIEW",
        "streetDirectionId": null,
        "streetTypeId": "AVE",
        "placeName": "LONDON",
        "streetNameDisplayText": "GRAND VIEW AVE, LONDON"
      }
    ]
  },
  {
    "postal": "N6K2S3",
    "result": [
      {
        "electoralDistricts": [
          {
            "election": null,
            "id": 55,
            "name": "London West"
          }
        ],
        "pollDivisionIds": [
          10139636
        ],
        "postalCode": "N6K2S3",
        "streetName": "GRIFFITH",
        "streetDirectionId": null,
        "streetTypeId": "ST",
        "placeName": "LONDON",
        "streetNameDisplayText": "GRIFFITH ST, LONDON"
      }
    ]
  },
  {
    "postal": "N6K0K0",
    "result": []
  },
  {
    "postal": "N6K5N1",
    "result": []
  },
  {
    "postal": "N6K7T0",
    "result": []
  },
  {
    "postal": "N6K9N2",
    "result": []
  },
  {
    "postal": "N6K5L1",
    "result": []
  },
  {
    "postal": "N6K7G5",
    "result": []
  },
  {
    "postal": "N6K6K2",
    "result": []
  },
  {
    "postal": "N6K6P9",
    "result": []
  },
  {
    "postal": "N6K0E6",
    "result": []
  },
  {
    "postal": "N6K8R9",
    "result": []
  },
  {
    "postal": "N6K3G9",
    "result": []
  },
  {
    "postal": "N6K0V7",
    "result": []
  },
  {
    "postal": "N6K2Z1",
    "result": [
      {
        "electoralDistricts": [
          {
            "election": null,
            "id": 55,
            "name": "London West"
          }
        ],
        "pollDivisionIds": [
          10139637
        ],
        "postalCode": "N6K2Z1",
        "streetName": "HALIBURTON",
        "streetDirectionId": null,
        "streetTypeId": "CRES",
        "placeName": "LONDON",
        "streetNameDisplayText": "HALIBURTON CRES, LONDON"
      }
    ]
  },
  {
    "postal": "N6K7N1",
    "result": []
  },
  {
    "postal": "N6K3C6",
    "result": [
      {
        "electoralDistricts": [
          {
            "election": null,
            "id": 55,
            "name": "London West"
          }
        ],
        "pollDivisionIds": [
          10139636
        ],
        "postalCode": "N6K3C6",
        "streetName": "CHALET",
        "streetDirectionId": null,
        "streetTypeId": "CRES",
        "placeName": "LONDON",
        "streetNameDisplayText": "CHALET CRES, LONDON"
      }
    ]
  },
  {
    "postal": "N6K4M1",
    "result": [
      {
        "electoralDistricts": [
          {
            "election": null,
            "id": 55,
            "name": "London West"
          }
        ],
        "pollDivisionIds": [
          10139637
        ],
        "postalCode": "N6K4M1",
        "streetName": "ALOMAR",
        "streetDirectionId": null,
        "streetTypeId": "DR",
        "placeName": "LONDON",
        "streetNameDisplayText": "ALOMAR DR, LONDON"
      },
      {
        "electoralDistricts": [
          {
            "election": null,
            "id": 55,
            "name": "London West"
          }
        ],
        "pollDivisionIds": [
          10139638,
          10139637
        ],
        "postalCode": "N6K4M1",
        "streetName": "OPTIMIST PARK",
        "streetDirectionId": null,
        "streetTypeId": "DR",
        "placeName": "LONDON",
        "streetNameDisplayText": "OPTIMIST PARK DR, LONDON"
      }
    ]
  },
  {
    "postal": "N6K9K2",
    "result": []
  },
  {
    "postal": "N6K9S6",
    "result": []
  },
  {
    "postal": "N6K4X1",
    "result": [
      {
        "electoralDistricts": [
          {
            "election": null,
            "id": 55,
            "name": "London West"
          }
        ],
        "pollDivisionIds": [
          10139637
        ],
        "postalCode": "N6K4X1",
        "streetName": "BRAMBLEWOOD",
        "streetDirectionId": null,
        "streetTypeId": "ST",
        "placeName": "LONDON",
        "streetNameDisplayText": "BRAMBLEWOOD ST, LONDON"
      }
    ]
  },
  {
    "postal": "N6K8W2",
    "result": []
  },
  {
    "postal": "N6K7N2",
    "result": []
  },
  {
    "postal": "N6K8S3",
    "result": []
  },
  {
    "postal": "N6K4V0",
    "result": []
  },
  {
    "postal": "N6K6W4",
    "result": []
  },
  {
    "postal": "N6K5M1",
    "result": []
  },
  {
    "postal": "N6K0S4",
    "result": []
  },
  {
    "postal": "N6K5X6",
    "result": []
  },
  {
    "postal": "N6K8L5",
    "result": []
  },
  {
    "postal": "N6K5M8",
    "result": []
  },
  {
    "postal": "N6K2G3",
    "result": [
      {
        "electoralDistricts": [
          {
            "election": null,
            "id": 55,
            "name": "London West"
          }
        ],
        "pollDivisionIds": [
          10139636
        ],
        "postalCode": "N6K2G3",
        "streetName": "LOLA",
        "streetDirectionId": null,
        "streetTypeId": "ST",
        "placeName": "LONDON",
        "streetNameDisplayText": "LOLA ST, LONDON"
      }
    ]
  },
  {
    "postal": "N6K8E4",
    "result": []
  },
  {
    "postal": "N6K7S9",
    "result": []
  },
  {
    "postal": "N6K1K3",
    "result": [
      {
        "electoralDistricts": [
          {
            "election": null,
            "id": 55,
            "name": "London West"
          }
        ],
        "pollDivisionIds": [
          10139643
        ],
        "postalCode": "N6K1K3",
        "streetName": "BARCLAY",
        "streetDirectionId": null,
        "streetTypeId": "RD",
        "placeName": "LONDON",
        "streetNameDisplayText": "BARCLAY RD, LONDON"
      }
    ]
  },
  {
    "postal": "N6K4E1",
    "result": [
      {
        "electoralDistricts": [
          {
            "election": null,
            "id": 55,
            "name": "London West"
          }
        ],
        "pollDivisionIds": [
          10139638
        ],
        "postalCode": "N6K4E1",
        "streetName": "OCTOBER",
        "streetDirectionId": null,
        "streetTypeId": "CRES",
        "placeName": "LONDON",
        "streetNameDisplayText": "OCTOBER CRES, LONDON"
      },
      {
        "electoralDistricts": [
          {
            "election": null,
            "id": 55,
            "name": "London West"
          }
        ],
        "pollDivisionIds": [
          10139638
        ],
        "postalCode": "N6K4E1",
        "streetName": "WHISPERWOOD",
        "streetDirectionId": null,
        "streetTypeId": "AVE",
        "placeName": "LONDON",
        "streetNameDisplayText": "WHISPERWOOD AVE, LONDON"
      }
    ]
  },
  {
    "postal": "N6K4R2",
    "result": [
      {
        "electoralDistricts": [
          {
            "election": null,
            "id": 55,
            "name": "London West"
          }
        ],
        "pollDivisionIds": [
          10139615
        ],
        "postalCode": "N6K4R2",
        "streetName": "WESTDEL BOURNE",
        "streetDirectionId": null,
        "streetTypeId": null,
        "placeName": "LONDON",
        "streetNameDisplayText": "WESTDEL BOURNE, LONDON"
      }
    ]
  },
  {
    "postal": "N6K6T0",
    "result": []
  },
  {
    "postal": "N6K3K5",
    "result": [
      {
        "electoralDistricts": [
          {
            "election": null,
            "id": 55,
            "name": "London West"
          }
        ],
        "pollDivisionIds": [
          10139638
        ],
        "postalCode": "N6K3K5",
        "streetName": "GRIFFITH",
        "streetDirectionId": null,
        "streetTypeId": "ST",
        "placeName": "LONDON",
        "streetNameDisplayText": "GRIFFITH ST, LONDON"
      }
    ]
  },
  {
    "postal": "N6K3S3",
    "result": [
      {
        "electoralDistricts": [
          {
            "election": null,
            "id": 55,
            "name": "London West"
          }
        ],
        "pollDivisionIds": [
          10139617
        ],
        "postalCode": "N6K3S3",
        "streetName": "COMMISSIONERS",
        "streetDirectionId": "W",
        "streetTypeId": "RD",
        "placeName": "LONDON",
        "streetNameDisplayText": "COMMISSIONERS RD W, LONDON"
      }
    ]
  },
  {
    "postal": "N6K3L4",
    "result": [
      {
        "electoralDistricts": [
          {
            "election": null,
            "id": 55,
            "name": "London West"
          }
        ],
        "pollDivisionIds": [
          10139638
        ],
        "postalCode": "N6K3L4",
        "streetName": "FOURWINDS",
        "streetDirectionId": null,
        "streetTypeId": "PL",
        "placeName": "LONDON",
        "streetNameDisplayText": "FOURWINDS PL, LONDON"
      }
    ]
  },
  {
    "postal": "N6K9Y2",
    "result": []
  },
  {
    "postal": "N6K1E0",
    "result": []
  },
  {
    "postal": "N6K9A4",
    "result": []
  },
  {
    "postal": "N6K1L3",
    "result": [
      {
        "electoralDistricts": [
          {
            "election": null,
            "id": 55,
            "name": "London West"
          }
        ],
        "pollDivisionIds": [
          10139620
        ],
        "postalCode": "N6K1L3",
        "streetName": "WONDERLAND",
        "streetDirectionId": "S",
        "streetTypeId": "RD",
        "placeName": "LONDON",
        "streetNameDisplayText": "WONDERLAND RD S, LONDON"
      }
    ]
  },
  {
    "postal": "N6K6N1",
    "result": []
  },
  {
    "postal": "N6K6G7",
    "result": []
  },
  {
    "postal": "N6K7W1",
    "result": []
  },
  {
    "postal": "N6K4M6",
    "result": [
      {
        "electoralDistricts": [
          {
            "election": null,
            "id": 55,
            "name": "London West"
          }
        ],
        "pollDivisionIds": [
          10139615
        ],
        "postalCode": "N6K4M6",
        "streetName": "WOODHULL",
        "streetDirectionId": null,
        "streetTypeId": "RD",
        "placeName": "LONDON",
        "streetNameDisplayText": "WOODHULL RD, LONDON"
      }
    ]
  },
  {
    "postal": "N6K1K0",
    "result": []
  },
  {
    "postal": "N6K3E2",
    "result": [
      {
        "electoralDistricts": [
          {
            "election": null,
            "id": 55,
            "name": "London West"
          }
        ],
        "pollDivisionIds": [
          10139636
        ],
        "postalCode": "N6K3E2",
        "streetName": "FAIRLANE",
        "streetDirectionId": null,
        "streetTypeId": "CRES",
        "placeName": "LONDON",
        "streetNameDisplayText": "FAIRLANE CRES, LONDON"
      }
    ]
  },
  {
    "postal": "N6K5H4",
    "result": []
  },
  {
    "postal": "N6K1K7",
    "result": [
      {
        "electoralDistricts": [
          {
            "election": null,
            "id": 55,
            "name": "London West"
          }
        ],
        "pollDivisionIds": [
          10139640
        ],
        "postalCode": "N6K1K7",
        "streetName": "BARCLAY",
        "streetDirectionId": null,
        "streetTypeId": "RD",
        "placeName": "LONDON",
        "streetNameDisplayText": "BARCLAY RD, LONDON"
      }
    ]
  },
  {
    "postal": "N6K0H0",
    "result": []
  },
  {
    "postal": "N6K0J3",
    "result": [
      {
        "electoralDistricts": [
          {
            "election": null,
            "id": 55,
            "name": "London West"
          }
        ],
        "pollDivisionIds": [
          10139615
        ],
        "postalCode": "N6K0J3",
        "streetName": "BOARDWALK",
        "streetDirectionId": null,
        "streetTypeId": "WAY",
        "placeName": "LONDON",
        "streetNameDisplayText": "BOARDWALK WAY, LONDON"
      },
      {
        "electoralDistricts": [
          {
            "election": null,
            "id": 55,
            "name": "London West"
          }
        ],
        "pollDivisionIds": [
          10139615
        ],
        "postalCode": "N6K0J3",
        "streetName": "RIVERBEND",
        "streetDirectionId": null,
        "streetTypeId": "RD",
        "placeName": "LONDON",
        "streetNameDisplayText": "RIVERBEND RD, LONDON"
      },
      {
        "electoralDistricts": [
          {
            "election": null,
            "id": 55,
            "name": "London West"
          }
        ],
        "pollDivisionIds": [
          10139615
        ],
        "postalCode": "N6K0J3",
        "streetName": "TRAILSWAY",
        "streetDirectionId": null,
        "streetTypeId": "AVE",
        "placeName": "LONDON",
        "streetNameDisplayText": "TRAILSWAY AVE, LONDON"
      }
    ]
  },
  {
    "postal": "N6K1X6",
    "result": [
      {
        "electoralDistricts": [
          {
            "election": null,
            "id": 55,
            "name": "London West"
          }
        ],
        "pollDivisionIds": [
          10139619
        ],
        "postalCode": "N6K1X6",
        "streetName": "WESTMOUNT",
        "streetDirectionId": null,
        "streetTypeId": "DR",
        "placeName": "LONDON",
        "streetNameDisplayText": "WESTMOUNT DR, LONDON"
      }
    ]
  },
  {
    "postal": "N6K2Z6",
    "result": [
      {
        "electoralDistricts": [
          {
            "election": null,
            "id": 55,
            "name": "London West"
          }
        ],
        "pollDivisionIds": [
          10139637
        ],
        "postalCode": "N6K2Z6",
        "streetName": "GATINEAU",
        "streetDirectionId": null,
        "streetTypeId": "RD",
        "placeName": "LONDON",
        "streetNameDisplayText": "GATINEAU RD, LONDON"
      }
    ]
  },
  {
    "postal": "N6K4R9",
    "result": [
      {
        "electoralDistricts": [
          {
            "election": null,
            "id": 55,
            "name": "London West"
          }
        ],
        "pollDivisionIds": [
          10139638
        ],
        "postalCode": "N6K4R9",
        "streetName": "COLONEL TALBOT",
        "streetDirectionId": null,
        "streetTypeId": "RD",
        "placeName": "LONDON",
        "streetNameDisplayText": "COLONEL TALBOT RD, LONDON"
      }
    ]
  },
  {
    "postal": "N6K0W8",
    "result": []
  },
  {
    "postal": "N6K1L4",
    "result": [
      {
        "electoralDistricts": [
          {
            "election": null,
            "id": 55,
            "name": "London West"
          }
        ],
        "pollDivisionIds": [
          10139620
        ],
        "postalCode": "N6K1L4",
        "streetName": "WONDERLAND",
        "streetDirectionId": "S",
        "streetTypeId": "RD",
        "placeName": "LONDON",
        "streetNameDisplayText": "WONDERLAND RD S, LONDON"
      }
    ]
  },
  {
    "postal": "N6K0C8",
    "result": [
      {
        "electoralDistricts": [
          {
            "election": null,
            "id": 55,
            "name": "London West"
          }
        ],
        "pollDivisionIds": [
          10139615
        ],
        "postalCode": "N6K0C8",
        "streetName": "GATENBY",
        "streetDirectionId": null,
        "streetTypeId": "ST",
        "placeName": "LONDON",
        "streetNameDisplayText": "GATENBY ST, LONDON"
      },
      {
        "electoralDistricts": [
          {
            "election": null,
            "id": 55,
            "name": "London West"
          }
        ],
        "pollDivisionIds": [
          10139615
        ],
        "postalCode": "N6K0C8",
        "streetName": "KAINS",
        "streetDirectionId": null,
        "streetTypeId": "RD",
        "placeName": "LONDON",
        "streetNameDisplayText": "KAINS RD, LONDON"
      }
    ]
  },
  {
    "postal": "N6K9X7",
    "result": []
  },
  {
    "postal": "N6K4T1",
    "result": [
      {
        "electoralDistricts": [
          {
            "election": null,
            "id": 55,
            "name": "London West"
          }
        ],
        "pollDivisionIds": [
          10139620,
          10139619
        ],
        "postalCode": "N6K4T1",
        "streetName": "SPRINGBANK",
        "streetDirectionId": null,
        "streetTypeId": "DR",
        "placeName": "LONDON",
        "streetNameDisplayText": "SPRINGBANK DR, LONDON"
      }
    ]
  },
  {
    "postal": "N6K0M0",
    "result": []
  },
  {
    "postal": "N6K6A2",
    "result": []
  },
  {
    "postal": "N6K9S8",
    "result": []
  },
  {
    "postal": "N6K9T4",
    "result": []
  },
  {
    "postal": "N6K9Y4",
    "result": []
  },
  {
    "postal": "N6K6G5",
    "result": []
  },
  {
    "postal": "N6K6H9",
    "result": []
  },
  {
    "postal": "N6K2P3",
    "result": [
      {
        "electoralDistricts": [
          {
            "election": null,
            "id": 55,
            "name": "London West"
          }
        ],
        "pollDivisionIds": [
          10139616
        ],
        "postalCode": "N6K2P3",
        "streetName": "REYNOLDS",
        "streetDirectionId": null,
        "streetTypeId": "RD",
        "placeName": "LONDON",
        "streetNameDisplayText": "REYNOLDS RD, LONDON"
      }
    ]
  },
  {
    "postal": "N6K1T6",
    "result": [
      {
        "electoralDistricts": [
          {
            "election": null,
            "id": 55,
            "name": "London West"
          }
        ],
        "pollDivisionIds": [
          10139643
        ],
        "postalCode": "N6K1T6",
        "streetName": "DUNSMOOR",
        "streetDirectionId": null,
        "streetTypeId": "RD",
        "placeName": "LONDON",
        "streetNameDisplayText": "DUNSMOOR RD, LONDON"
      }
    ]
  },
  {
    "postal": "N6K4P6",
    "result": [
      {
        "electoralDistricts": [
          {
            "election": null,
            "id": 55,
            "name": "London West"
          }
        ],
        "pollDivisionIds": [
          10139615
        ],
        "postalCode": "N6K4P6",
        "streetName": "LIME KILN",
        "streetDirectionId": null,
        "streetTypeId": "DR",
        "placeName": "LONDON",
        "streetNameDisplayText": "LIME KILN DR, LONDON"
      }
    ]
  },
  {
    "postal": "N6K3K1",
    "result": []
  },
  {
    "postal": "N6K6X4",
    "result": []
  },
  {
    "postal": "N6K4M8",
    "result": [
      {
        "electoralDistricts": [
          {
            "election": null,
            "id": 53,
            "name": "Londonâ€”Fanshawe"
          }
        ],
        "pollDivisionIds": [
          10139557
        ],
        "postalCode": "N6K4M8",
        "streetName": "OXFORD",
        "streetDirectionId": "E",
        "streetTypeId": "ST",
        "placeName": "LONDON",
        "streetNameDisplayText": "OXFORD ST E, LONDON"
      },
      {
        "electoralDistricts": [
          {
            "election": null,
            "id": 55,
            "name": "London West"
          }
        ],
        "pollDivisionIds": [
          10139615
        ],
        "postalCode": "N6K4M8",
        "streetName": "OXFORD",
        "streetDirectionId": "W",
        "streetTypeId": "ST",
        "placeName": "LONDON",
        "streetNameDisplayText": "OXFORD ST W, LONDON"
      }
    ]
  },
  {
    "postal": "N6K2Y1",
    "result": [
      {
        "electoralDistricts": [
          {
            "election": null,
            "id": 55,
            "name": "London West"
          }
        ],
        "pollDivisionIds": [
          10139640
        ],
        "postalCode": "N6K2Y1",
        "streetName": "DALHOUSIE",
        "streetDirectionId": null,
        "streetTypeId": "DR",
        "placeName": "LONDON",
        "streetNameDisplayText": "DALHOUSIE DR, LONDON"
      }
    ]
  },
  {
    "postal": "N6K6M1",
    "result": []
  },
  {
    "postal": "N6K5L8",
    "result": []
  },
  {
    "postal": "N6K3P6",
    "result": [
      {
        "electoralDistricts": [
          {
            "election": null,
            "id": 55,
            "name": "London West"
          }
        ],
        "pollDivisionIds": [
          10139641
        ],
        "postalCode": "N6K3P6",
        "streetName": "PARKS EDGE",
        "streetDirectionId": null,
        "streetTypeId": "CLOSE",
        "placeName": "LONDON",
        "streetNameDisplayText": "PARKS EDGE CLOSE, LONDON"
      },
      {
        "electoralDistricts": [
          {
            "election": null,
            "id": 55,
            "name": "London West"
          }
        ],
        "pollDivisionIds": [
          10139641
        ],
        "postalCode": "N6K3P6",
        "streetName": "PARKS EDGE",
        "streetDirectionId": null,
        "streetTypeId": "CRES",
        "placeName": "LONDON",
        "streetNameDisplayText": "PARKS EDGE CRES, LONDON"
      }
    ]
  },
  {
    "postal": "N6K9A5",
    "result": []
  },
  {
    "postal": "N6K7K1",
    "result": []
  },
  {
    "postal": "N6K3J4",
    "result": [
      {
        "electoralDistricts": [
          {
            "election": null,
            "id": 55,
            "name": "London West"
          }
        ],
        "pollDivisionIds": [
          10139642
        ],
        "postalCode": "N6K3J4",
        "streetName": "KNIGHTS BRIDGE",
        "streetDirectionId": null,
        "streetTypeId": "RD",
        "placeName": "LONDON",
        "streetNameDisplayText": "KNIGHTS BRIDGE RD, LONDON"
      }
    ]
  },
  {
    "postal": "N6K5E7",
    "result": []
  },
  {
    "postal": "N6K3A7",
    "result": [
      {
        "electoralDistricts": [
          {
            "election": null,
            "id": 55,
            "name": "London West"
          }
        ],
        "pollDivisionIds": [
          10139637
        ],
        "postalCode": "N6K3A7",
        "streetName": "GRIFFITH",
        "streetDirectionId": null,
        "streetTypeId": "ST",
        "placeName": "LONDON",
        "streetNameDisplayText": "GRIFFITH ST, LONDON"
      }
    ]
  },
  {
    "postal": "N6K1B9",
    "result": [
      {
        "electoralDistricts": [
          {
            "election": null,
            "id": 55,
            "name": "London West"
          }
        ],
        "pollDivisionIds": [
          10139641
        ],
        "postalCode": "N6K1B9",
        "streetName": "COMMISSIONERS",
        "streetDirectionId": "W",
        "streetTypeId": "RD",
        "placeName": "LONDON",
        "streetNameDisplayText": "COMMISSIONERS RD W, LONDON"
      }
    ]
  },
  {
    "postal": "N6K9E8",
    "result": []
  },
  {
    "postal": "N6K1C9",
    "result": [
      {
        "electoralDistricts": [
          {
            "election": null,
            "id": 55,
            "name": "London West"
          }
        ],
        "pollDivisionIds": [
          10139617
        ],
        "postalCode": "N6K1C9",
        "streetName": "COMMISSIONERS",
        "streetDirectionId": "W",
        "streetTypeId": "RD",
        "placeName": "LONDON",
        "streetNameDisplayText": "COMMISSIONERS RD W, LONDON"
      }
    ]
  },
  {
    "postal": "N6K3B5",
    "result": [
      {
        "electoralDistricts": [
          {
            "election": null,
            "id": 55,
            "name": "London West"
          }
        ],
        "pollDivisionIds": [
          10139637
        ],
        "postalCode": "N6K3B5",
        "streetName": "ROCKFORD",
        "streetDirectionId": null,
        "streetTypeId": "CRES",
        "placeName": "LONDON",
        "streetNameDisplayText": "ROCKFORD CRES, LONDON"
      }
    ]
  },
  {
    "postal": "N6K8R0",
    "result": []
  },
  {
    "postal": "N6K3P2",
    "result": [
      {
        "electoralDistricts": [
          {
            "election": null,
            "id": 55,
            "name": "London West"
          }
        ],
        "pollDivisionIds": [
          10139642
        ],
        "postalCode": "N6K3P2",
        "streetName": "KNIGHTS BRIDGE",
        "streetDirectionId": null,
        "streetTypeId": "RD",
        "placeName": "LONDON",
        "streetNameDisplayText": "KNIGHTS BRIDGE RD, LONDON"
      }
    ]
  },
  {
    "postal": "N6K5V4",
    "result": []
  },
  {
    "postal": "N6K4H0",
    "result": []
  },
  {
    "postal": "N6K4S7",
    "result": []
  },
  {
    "postal": "N6K6C2",
    "result": []
  },
  {
    "postal": "N6K8W3",
    "result": []
  },
  {
    "postal": "N6K4M5",
    "result": [
      {
        "electoralDistricts": [
          {
            "election": null,
            "id": 55,
            "name": "London West"
          }
        ],
        "pollDivisionIds": [
          10139640
        ],
        "postalCode": "N6K4M5",
        "streetName": "COLONEL TALBOT",
        "streetDirectionId": null,
        "streetTypeId": "RD",
        "placeName": "LONDON",
        "streetNameDisplayText": "COLONEL TALBOT RD, LONDON"
      }
    ]
  },
  {
    "postal": "N6K5T1",
    "result": []
  },
  {
    "postal": "N6K3B3",
    "result": [
      {
        "electoralDistricts": [
          {
            "election": null,
            "id": 55,
            "name": "London West"
          }
        ],
        "pollDivisionIds": [
          10139637
        ],
        "postalCode": "N6K3B3",
        "streetName": "ROBINWOOD",
        "streetDirectionId": null,
        "streetTypeId": "CRES",
        "placeName": "LONDON",
        "streetNameDisplayText": "ROBINWOOD CRES, LONDON"
      }
    ]
  },
  {
    "postal": "N6K6C6",
    "result": []
  },
  {
    "postal": "N6K7N8",
    "result": []
  },
  {
    "postal": "N6K2Y3",
    "result": [
      {
        "electoralDistricts": [
          {
            "election": null,
            "id": 55,
            "name": "London West"
          }
        ],
        "pollDivisionIds": [
          10139616
        ],
        "postalCode": "N6K2Y3",
        "streetName": "GRAND VIEW",
        "streetDirectionId": null,
        "streetTypeId": "CRES",
        "placeName": "LONDON",
        "streetNameDisplayText": "GRAND VIEW CRES, LONDON"
      }
    ]
  },
  {
    "postal": "N6K2R6",
    "result": [
      {
        "electoralDistricts": [
          {
            "election": null,
            "id": 55,
            "name": "London West"
          }
        ],
        "pollDivisionIds": [
          10139616
        ],
        "postalCode": "N6K2R6",
        "streetName": "GRIFFITH",
        "streetDirectionId": null,
        "streetTypeId": "ST",
        "placeName": "LONDON",
        "streetNameDisplayText": "GRIFFITH ST, LONDON"
      }
    ]
  },
  {
    "postal": "N6K7N3",
    "result": []
  },
  {
    "postal": "N6K8J2",
    "result": []
  },
  {
    "postal": "N6K6A9",
    "result": []
  },
  {
    "postal": "N6K3V2",
    "result": []
  },
  {
    "postal": "N6K2N3",
    "result": [
      {
        "electoralDistricts": [
          {
            "election": null,
            "id": 55,
            "name": "London West"
          }
        ],
        "pollDivisionIds": [
          10139618
        ],
        "postalCode": "N6K2N3",
        "streetName": "STEPHEN",
        "streetDirectionId": null,
        "streetTypeId": "ST",
        "placeName": "LONDON",
        "streetNameDisplayText": "STEPHEN ST, LONDON"
      }
    ]
  },
  {
    "postal": "N6K1S5",
    "result": [
      {
        "electoralDistricts": [
          {
            "election": null,
            "id": 55,
            "name": "London West"
          }
        ],
        "pollDivisionIds": [
          10139641
        ],
        "postalCode": "N6K1S5",
        "streetName": "LYNNGATE",
        "streetDirectionId": null,
        "streetTypeId": "PL",
        "placeName": "LONDON",
        "streetNameDisplayText": "LYNNGATE PL, LONDON"
      }
    ]
  },
  {
    "postal": "N6K4T7",
    "result": []
  },
  {
    "postal": "N6K6Y7",
    "result": []
  },
  {
    "postal": "N6K0W7",
    "result": []
  },
  {
    "postal": "N6K2W9",
    "result": [
      {
        "electoralDistricts": [
          {
            "election": null,
            "id": 55,
            "name": "London West"
          }
        ],
        "pollDivisionIds": [
          10139637
        ],
        "postalCode": "N6K2W9",
        "streetName": "BLUE RIDGE",
        "streetDirectionId": null,
        "streetTypeId": "CRES",
        "placeName": "LONDON",
        "streetNameDisplayText": "BLUE RIDGE CRES, LONDON"
      }
    ]
  },
  {
    "postal": "N6K8V0",
    "result": []
  },
  {
    "postal": "N6K0H4",
    "result": [
      {
        "electoralDistricts": [
          {
            "election": null,
            "id": 55,
            "name": "London West"
          }
        ],
        "pollDivisionIds": [
          10139637
        ],
        "postalCode": "N6K0H4",
        "streetName": "BRAYFORD",
        "streetDirectionId": null,
        "streetTypeId": "AVE",
        "placeName": "LONDON",
        "streetNameDisplayText": "BRAYFORD AVE, LONDON"
      }
    ]
  },
  {
    "postal": "N6K2T1",
    "result": [
      {
        "electoralDistricts": [
          {
            "election": null,
            "id": 55,
            "name": "London West"
          }
        ],
        "pollDivisionIds": [
          10139616
        ],
        "postalCode": "N6K2T1",
        "streetName": "GRAND VIEW",
        "streetDirectionId": null,
        "streetTypeId": "AVE",
        "placeName": "LONDON",
        "streetNameDisplayText": "GRAND VIEW AVE, LONDON"
      }
    ]
  },
  {
    "postal": "N6K1B1",
    "result": [
      {
        "electoralDistricts": [
          {
            "election": null,
            "id": 55,
            "name": "London West"
          }
        ],
        "pollDivisionIds": [
          10139619
        ],
        "postalCode": "N6K1B1",
        "streetName": "DAWSON",
        "streetDirectionId": null,
        "streetTypeId": "AVE",
        "placeName": "LONDON",
        "streetNameDisplayText": "DAWSON AVE, LONDON"
      }
    ]
  },
  {
    "postal": "N6K8B6",
    "result": []
  },
  {
    "postal": "N6K6H1",
    "result": []
  },
  {
    "postal": "N6K8T8",
    "result": []
  },
  {
    "postal": "N6K0T4",
    "result": []
  },
  {
    "postal": "N6K2C4",
    "result": [
      {
        "electoralDistricts": [
          {
            "election": null,
            "id": 55,
            "name": "London West"
          }
        ],
        "pollDivisionIds": [
          10139617
        ],
        "postalCode": "N6K2C4",
        "streetName": "NASHUA",
        "streetDirectionId": null,
        "streetTypeId": "AVE",
        "placeName": "LONDON",
        "streetNameDisplayText": "NASHUA AVE, LONDON"
      }
    ]
  },
  {
    "postal": "N6K8N3",
    "result": []
  },
  {
    "postal": "N6K4L8",
    "result": [
      {
        "electoralDistricts": [
          {
            "election": null,
            "id": 55,
            "name": "London West"
          }
        ],
        "pollDivisionIds": [
          10139643
        ],
        "postalCode": "N6K4L8",
        "streetName": "WONDERLAND",
        "streetDirectionId": "S",
        "streetTypeId": "RD",
        "placeName": "LONDON",
        "streetNameDisplayText": "WONDERLAND RD S, LONDON"
      }
    ]
  },
  {
    "postal": "N6K2B5",
    "result": [
      {
        "electoralDistricts": [
          {
            "election": null,
            "id": 55,
            "name": "London West"
          }
        ],
        "pollDivisionIds": [
          10139618
        ],
        "postalCode": "N6K2B5",
        "streetName": "TANGLEWOOD",
        "streetDirectionId": null,
        "streetTypeId": "AVE",
        "placeName": "LONDON",
        "streetNameDisplayText": "TANGLEWOOD AVE, LONDON"
      }
    ]
  },
  {
    "postal": "N6K3H1",
    "result": [
      {
        "electoralDistricts": [
          {
            "election": null,
            "id": 55,
            "name": "London West"
          }
        ],
        "pollDivisionIds": [
          10139636
        ],
        "postalCode": "N6K3H1",
        "streetName": "SKI VIEW",
        "streetDirectionId": null,
        "streetTypeId": "RD",
        "placeName": "LONDON",
        "streetNameDisplayText": "SKI VIEW RD, LONDON"
      }
    ]
  },
  {
    "postal": "N6K4Y1",
    "result": [
      {
        "electoralDistricts": [
          {
            "election": null,
            "id": 55,
            "name": "London West"
          }
        ],
        "pollDivisionIds": [
          10139620
        ],
        "postalCode": "N6K4Y1",
        "streetName": "TEEPLE",
        "streetDirectionId": null,
        "streetTypeId": "TERR",
        "placeName": "LONDON",
        "streetNameDisplayText": "TEEPLE TERR, LONDON"
      }
    ]
  },
  {
    "postal": "N6K7E2",
    "result": []
  },
  {
    "postal": "N6K2P5",
    "result": [
      {
        "electoralDistricts": [
          {
            "election": null,
            "id": 55,
            "name": "London West"
          }
        ],
        "pollDivisionIds": [
          10139616
        ],
        "postalCode": "N6K2P5",
        "streetName": "REYNOLDS",
        "streetDirectionId": null,
        "streetTypeId": "RD",
        "placeName": "LONDON",
        "streetNameDisplayText": "REYNOLDS RD, LONDON"
      }
    ]
  },
  {
    "postal": "N6K8R7",
    "result": []
  },
  {
    "postal": "N6K9P1",
    "result": []
  },
  {
    "postal": "N6K3B8",
    "result": [
      {
        "electoralDistricts": [
          {
            "election": null,
            "id": 55,
            "name": "London West"
          }
        ],
        "pollDivisionIds": [
          10139637
        ],
        "postalCode": "N6K3B8",
        "streetName": "WIDDICOMB",
        "streetDirectionId": null,
        "streetTypeId": "CRES",
        "placeName": "LONDON",
        "streetNameDisplayText": "WIDDICOMB CRES, LONDON"
      }
    ]
  },
  {
    "postal": "N6K3P7",
    "result": [
      {
        "electoralDistricts": [
          {
            "election": null,
            "id": 55,
            "name": "London West"
          }
        ],
        "pollDivisionIds": [
          10139642
        ],
        "postalCode": "N6K3P7",
        "streetName": "PARKS EDGE",
        "streetDirectionId": null,
        "streetTypeId": "CRES",
        "placeName": "LONDON",
        "streetNameDisplayText": "PARKS EDGE CRES, LONDON"
      }
    ]
  },
  {
    "postal": "N6K9B2",
    "result": []
  },
  {
    "postal": "N6K6Z3",
    "result": []
  },
  {
    "postal": "N6K4N5",
    "result": [
      {
        "electoralDistricts": [
          {
            "election": null,
            "id": 55,
            "name": "London West"
          }
        ],
        "pollDivisionIds": [
          10139615
        ],
        "postalCode": "N6K4N5",
        "streetName": "ELVIAGE",
        "streetDirectionId": null,
        "streetTypeId": "DR",
        "placeName": "LONDON",
        "streetNameDisplayText": "ELVIAGE DR, LONDON"
      }
    ]
  },
  {
    "postal": "N6K8T3",
    "result": []
  },
  {
    "postal": "N6K1V2",
    "result": [
      {
        "electoralDistricts": [
          {
            "election": null,
            "id": 55,
            "name": "London West"
          }
        ],
        "pollDivisionIds": [
          10139643
        ],
        "postalCode": "N6K1V2",
        "streetName": "CHAUCER",
        "streetDirectionId": null,
        "streetTypeId": "RD",
        "placeName": "LONDON",
        "streetNameDisplayText": "CHAUCER RD, LONDON"
      }
    ]
  },
  {
    "postal": "N6K1Y0",
    "result": []
  },
  {
    "postal": "N6K3G6",
    "result": [
      {
        "electoralDistricts": [
          {
            "election": null,
            "id": 55,
            "name": "London West"
          }
        ],
        "pollDivisionIds": [
          10139636
        ],
        "postalCode": "N6K3G6",
        "streetName": "GRAND VIEW",
        "streetDirectionId": null,
        "streetTypeId": "AVE",
        "placeName": "LONDON",
        "streetNameDisplayText": "GRAND VIEW AVE, LONDON"
      },
      {
        "electoralDistricts": [
          {
            "election": null,
            "id": 55,
            "name": "London West"
          }
        ],
        "pollDivisionIds": [
          10139636
        ],
        "postalCode": "N6K3G6",
        "streetName": "GRANDVIEW",
        "streetDirectionId": null,
        "streetTypeId": "AVE",
        "placeName": "LONDON",
        "streetNameDisplayText": "GRANDVIEW AVE, LONDON"
      }
    ]
  },
  {
    "postal": "N6K3H7",
    "result": [
      {
        "electoralDistricts": [
          {
            "election": null,
            "id": 55,
            "name": "London West"
          }
        ],
        "pollDivisionIds": [
          10139642
        ],
        "postalCode": "N6K3H7",
        "streetName": "CRANBROOK",
        "streetDirectionId": null,
        "streetTypeId": "RD",
        "placeName": "LONDON",
        "streetNameDisplayText": "CRANBROOK RD, LONDON"
      }
    ]
  },
  {
    "postal": "N6K7X8",
    "result": []
  },
  {
    "postal": "N6K0C7",
    "result": []
  },
  {
    "postal": "N6K0W9",
    "result": []
  },
  {
    "postal": "N6K8E6",
    "result": []
  },
  {
    "postal": "N6K9Z8",
    "result": []
  },
  {
    "postal": "N6K3P4",
    "result": [
      {
        "electoralDistricts": [
          {
            "election": null,
            "id": 55,
            "name": "London West"
          }
        ],
        "pollDivisionIds": [
          10139642
        ],
        "postalCode": "N6K3P4",
        "streetName": "PARKS EDGE",
        "streetDirectionId": null,
        "streetTypeId": "CRES",
        "placeName": "LONDON",
        "streetNameDisplayText": "PARKS EDGE CRES, LONDON"
      }
    ]
  },
  {
    "postal": "N6K6L8",
    "result": []
  },
  {
    "postal": "N6K2R4",
    "result": [
      {
        "electoralDistricts": [
          {
            "election": null,
            "id": 55,
            "name": "London West"
          }
        ],
        "pollDivisionIds": [
          10139636
        ],
        "postalCode": "N6K2R4",
        "streetName": "BELVEDERE",
        "streetDirectionId": null,
        "streetTypeId": "AVE",
        "placeName": "LONDON",
        "streetNameDisplayText": "BELVEDERE AVE, LONDON"
      }
    ]
  },
  {
    "postal": "N6K2W1",
    "result": [
      {
        "electoralDistricts": [
          {
            "election": null,
            "id": 55,
            "name": "London West"
          }
        ],
        "pollDivisionIds": [
          10139616
        ],
        "postalCode": "N6K2W1",
        "streetName": "SPRINGFIELD",
        "streetDirectionId": null,
        "streetTypeId": "CRES",
        "placeName": "LONDON",
        "streetNameDisplayText": "SPRINGFIELD CRES, LONDON"
      }
    ]
  },
  {
    "postal": "N6K9H8",
    "result": []
  },
  {
    "postal": "N6K8X9",
    "result": []
  },
  {
    "postal": "N6K7H4",
    "result": []
  },
  {
    "postal": "N6K3J1",
    "result": [
      {
        "electoralDistricts": [
          {
            "election": null,
            "id": 55,
            "name": "London West"
          }
        ],
        "pollDivisionIds": [
          10139640
        ],
        "postalCode": "N6K3J1",
        "streetName": "CRANBROOK",
        "streetDirectionId": null,
        "streetTypeId": "RD",
        "placeName": "LONDON",
        "streetNameDisplayText": "CRANBROOK RD, LONDON"
      },
      {
        "electoralDistricts": [
          {
            "election": null,
            "id": 55,
            "name": "London West"
          }
        ],
        "pollDivisionIds": [
          10139640
        ],
        "postalCode": "N6K3J1",
        "streetName": "CRANBROOK RD.",
        "streetDirectionId": null,
        "streetTypeId": "RD",
        "placeName": "LONDON",
        "streetNameDisplayText": "CRANBROOK RD. RD, LONDON"
      }
    ]
  },
  {
    "postal": "N6K1P4",
    "result": [
      {
        "electoralDistricts": [
          {
            "election": null,
            "id": 55,
            "name": "London West"
          }
        ],
        "pollDivisionIds": [
          10139641
        ],
        "postalCode": "N6K1P4",
        "streetName": "WESTMOUNT",
        "streetDirectionId": null,
        "streetTypeId": "CRES",
        "placeName": "LONDON",
        "streetNameDisplayText": "WESTMOUNT CRES, LONDON"
      }
    ]
  },
  {
    "postal": "N6K2A3",
    "result": [
      {
        "electoralDistricts": [
          {
            "election": null,
            "id": 55,
            "name": "London West"
          }
        ],
        "pollDivisionIds": [
          10139618
        ],
        "postalCode": "N6K2A3",
        "streetName": "NORMAN",
        "streetDirectionId": null,
        "streetTypeId": "AVE",
        "placeName": "LONDON",
        "streetNameDisplayText": "NORMAN AVE, LONDON"
      }
    ]
  },
  {
    "postal": "N6K0Z1",
    "result": []
  },
  {
    "postal": "N6K1C1",
    "result": [
      {
        "electoralDistricts": [
          {
            "election": null,
            "id": 53,
            "name": "Londonâ€”Fanshawe"
          }
        ],
        "pollDivisionIds": [
          10139577,
          10139596
        ],
        "postalCode": "N6K1C1",
        "streetName": "COMMISSIONERS",
        "streetDirectionId": "E",
        "streetTypeId": "RD",
        "placeName": "LONDON",
        "streetNameDisplayText": "COMMISSIONERS RD E, LONDON"
      },
      {
        "electoralDistricts": [
          {
            "election": null,
            "id": 55,
            "name": "London West"
          }
        ],
        "pollDivisionIds": [
          10139619
        ],
        "postalCode": "N6K1C1",
        "streetName": "COMMISSIONERS",
        "streetDirectionId": "W",
        "streetTypeId": "RD",
        "placeName": "LONDON",
        "streetNameDisplayText": "COMMISSIONERS RD W, LONDON"
      }
    ]
  },
  {
    "postal": "N6K0H3",
    "result": [
      {
        "electoralDistricts": [
          {
            "election": null,
            "id": 55,
            "name": "London West"
          }
        ],
        "pollDivisionIds": [
          10139637
        ],
        "postalCode": "N6K0H3",
        "streetName": "BLACK RAIL ",
        "streetDirectionId": null,
        "streetTypeId": "TERR",
        "placeName": "LONDON",
        "streetNameDisplayText": "BLACK RAIL  TERR, LONDON"
      }
    ]
  },
  {
    "postal": "N6K7B0",
    "result": []
  },
  {
    "postal": "N6K5K2",
    "result": []
  },
  {
    "postal": "N6K1E9",
    "result": [
      {
        "electoralDistricts": [
          {
            "election": null,
            "id": 55,
            "name": "London West"
          }
        ],
        "pollDivisionIds": [
          10139641
        ],
        "postalCode": "N6K1E9",
        "streetName": "SALEM",
        "streetDirectionId": null,
        "streetTypeId": "RD",
        "placeName": "LONDON",
        "streetNameDisplayText": "SALEM RD, LONDON"
      }
    ]
  },
  {
    "postal": "N6K9W7",
    "result": []
  },
  {
    "postal": "N6K5W6",
    "result": []
  },
  {
    "postal": "N6K6S6",
    "result": []
  },
  {
    "postal": "N6K2P8",
    "result": [
      {
        "electoralDistricts": [
          {
            "election": null,
            "id": 55,
            "name": "London West"
          }
        ],
        "pollDivisionIds": [
          10139618
        ],
        "postalCode": "N6K2P8",
        "streetName": "REYNOLDS",
        "streetDirectionId": null,
        "streetTypeId": "RD",
        "placeName": "LONDON",
        "streetNameDisplayText": "REYNOLDS RD, LONDON"
      }
    ]
  },
  {
    "postal": "N6K4P8",
    "result": [
      {
        "electoralDistricts": [
          {
            "election": null,
            "id": 55,
            "name": "London West"
          }
        ],
        "pollDivisionIds": [
          10139637
        ],
        "postalCode": "N6K4P8",
        "streetName": "SOUTHDALE",
        "streetDirectionId": "W",
        "streetTypeId": "RD",
        "placeName": "LONDON",
        "streetNameDisplayText": "SOUTHDALE RD W, LONDON"
      }
    ]
  },
  {
    "postal": "N6K0V9",
    "result": []
  },
  {
    "postal": "N6K5Y2",
    "result": []
  },
  {
    "postal": "N6K7Z7",
    "result": []
  },
  {
    "postal": "N6K6Y8",
    "result": []
  },
  {
    "postal": "N6K2G7",
    "result": [
      {
        "electoralDistricts": [
          {
            "election": null,
            "id": 55,
            "name": "London West"
          }
        ],
        "pollDivisionIds": [
          10139637
        ],
        "postalCode": "N6K2G7",
        "streetName": "WAYNE",
        "streetDirectionId": null,
        "streetTypeId": "RD",
        "placeName": "LONDON",
        "streetNameDisplayText": "WAYNE RD, LONDON"
      }
    ]
  },
  {
    "postal": "N6K8C1",
    "result": []
  },
  {
    "postal": "N6K5C5",
    "result": [
      {
        "electoralDistricts": [
          {
            "election": null,
            "id": 55,
            "name": "London West"
          }
        ],
        "pollDivisionIds": [
          10139636
        ],
        "postalCode": "N6K5C5",
        "streetName": "IRONWOOD",
        "streetDirectionId": null,
        "streetTypeId": "RD",
        "placeName": "LONDON",
        "streetNameDisplayText": "IRONWOOD RD, LONDON"
      },
      {
        "electoralDistricts": [
          {
            "election": null,
            "id": 55,
            "name": "London West"
          }
        ],
        "pollDivisionIds": [
          10139636
        ],
        "postalCode": "N6K5C5",
        "streetName": "LILAC",
        "streetDirectionId": null,
        "streetTypeId": "AVE",
        "placeName": "LONDON",
        "streetNameDisplayText": "LILAC AVE, LONDON"
      }
    ]
  },
  {
    "postal": "N6K2X8",
    "result": [
      {
        "electoralDistricts": [
          {
            "election": null,
            "id": 55,
            "name": "London West"
          }
        ],
        "pollDivisionIds": [
          10139640
        ],
        "postalCode": "N6K2X8",
        "streetName": "WONDERLAND",
        "streetDirectionId": "S",
        "streetTypeId": "RD",
        "placeName": "LONDON",
        "streetNameDisplayText": "WONDERLAND RD S, LONDON"
      },
      {
        "electoralDistricts": [
          {
            "election": null,
            "id": 55,
            "name": "London West"
          }
        ],
        "pollDivisionIds": [
          10139640
        ],
        "postalCode": "N6K2X8",
        "streetName": "WONDERLAND RD.",
        "streetDirectionId": "S",
        "streetTypeId": "RD",
        "placeName": "LONDON",
        "streetNameDisplayText": "WONDERLAND RD. RD S, LONDON"
      },
      {
        "electoralDistricts": [
          {
            "election": null,
            "id": 55,
            "name": "London West"
          }
        ],
        "pollDivisionIds": [
          10139640
        ],
        "postalCode": "N6K2X8",
        "streetName": "WONDERLAND RD.S",
        "streetDirectionId": "S",
        "streetTypeId": "RD",
        "placeName": "LONDON",
        "streetNameDisplayText": "WONDERLAND RD.S RD S, LONDON"
      }
    ]
  },
  {
    "postal": "N6K1W5",
    "result": [
      {
        "electoralDistricts": [
          {
            "election": null,
            "id": 55,
            "name": "London West"
          }
        ],
        "pollDivisionIds": [
          10139641
        ],
        "postalCode": "N6K1W5",
        "streetName": "CRANBROOK",
        "streetDirectionId": null,
        "streetTypeId": "RD",
        "placeName": "LONDON",
        "streetNameDisplayText": "CRANBROOK RD, LONDON"
      }
    ]
  },
  {
    "postal": "N6K7G0",
    "result": []
  },
  {
    "postal": "N6K8J8",
    "result": []
  },
  {
    "postal": "N6K3Y0",
    "result": []
  },
  {
    "postal": "N6K9T7",
    "result": []
  },
  {
    "postal": "N6K5P4",
    "result": []
  },
  {
    "postal": "N6K4B0",
    "result": []
  },
  {
    "postal": "N6K9N8",
    "result": []
  },
  {
    "postal": "N6K4A7",
    "result": [
      {
        "electoralDistricts": [
          {
            "election": null,
            "id": 55,
            "name": "London West"
          }
        ],
        "pollDivisionIds": [
          10139618
        ],
        "postalCode": "N6K4A7",
        "streetName": "FOXBOROUGH",
        "streetDirectionId": null,
        "streetTypeId": "GROVE",
        "placeName": "LONDON",
        "streetNameDisplayText": "FOXBOROUGH GROVE, LONDON"
      },
      {
        "electoralDistricts": [
          {
            "election": null,
            "id": 55,
            "name": "London West"
          }
        ],
        "pollDivisionIds": [
          10139618
        ],
        "postalCode": "N6K4A7",
        "streetName": "TIMBER",
        "streetDirectionId": null,
        "streetTypeId": "DR",
        "placeName": "LONDON",
        "streetNameDisplayText": "TIMBER DR, LONDON"
      }
    ]
  },
  {
    "postal": "N6K4H9",
    "result": [
      {
        "electoralDistricts": [
          {
            "election": null,
            "id": 55,
            "name": "London West"
          }
        ],
        "pollDivisionIds": [
          10139617
        ],
        "postalCode": "N6K4H9",
        "streetName": "CADEAU",
        "streetDirectionId": null,
        "streetTypeId": "TERR",
        "placeName": "LONDON",
        "streetNameDisplayText": "CADEAU TERR, LONDON"
      }
    ]
  },
  {
    "postal": "N6K6X1",
    "result": []
  },
  {
    "postal": "N6K9Y7",
    "result": []
  },
  {
    "postal": "N6K2Y5",
    "result": [
      {
        "electoralDistricts": [
          {
            "election": null,
            "id": 55,
            "name": "London West"
          }
        ],
        "pollDivisionIds": [
          10139641
        ],
        "postalCode": "N6K2Y5",
        "streetName": "WONDERLAND",
        "streetDirectionId": "S",
        "streetTypeId": "RD",
        "placeName": "LONDON",
        "streetNameDisplayText": "WONDERLAND RD S, LONDON"
      }
    ]
  },
  {
    "postal": "N6K8L7",
    "result": []
  },
  {
    "postal": "N6K2A8",
    "result": [
      {
        "electoralDistricts": [
          {
            "election": null,
            "id": 55,
            "name": "London West"
          }
        ],
        "pollDivisionIds": [
          10139617
        ],
        "postalCode": "N6K2A8",
        "streetName": "GLENROSE",
        "streetDirectionId": null,
        "streetTypeId": "DR",
        "placeName": "LONDON",
        "streetNameDisplayText": "GLENROSE DR, LONDON"
      }
    ]
  },
  {
    "postal": "N6K2K9",
    "result": [
      {
        "electoralDistricts": [
          {
            "election": null,
            "id": 55,
            "name": "London West"
          }
        ],
        "pollDivisionIds": [
          10139637
        ],
        "postalCode": "N6K2K9",
        "streetName": "BOLER",
        "streetDirectionId": null,
        "streetTypeId": "RD",
        "placeName": "LONDON",
        "streetNameDisplayText": "BOLER RD, LONDON"
      }
    ]
  },
  {
    "postal": "N6K3E5",
    "result": [
      {
        "electoralDistricts": [
          {
            "election": null,
            "id": 55,
            "name": "London West"
          }
        ],
        "pollDivisionIds": [
          10139636
        ],
        "postalCode": "N6K3E5",
        "streetName": "FAIRLANE",
        "streetDirectionId": null,
        "streetTypeId": "AVE",
        "placeName": "LONDON",
        "streetNameDisplayText": "FAIRLANE AVE, LONDON"
      }
    ]
  },
  {
    "postal": "N6K8N6",
    "result": []
  },
  {
    "postal": "N6K8J4",
    "result": []
  },
  {
    "postal": "N6K4R7",
    "result": [
      {
        "electoralDistricts": [
          {
            "election": null,
            "id": 55,
            "name": "London West"
          }
        ],
        "pollDivisionIds": [
          10139637
        ],
        "postalCode": "N6K4R7",
        "streetName": "WICKERSON",
        "streetDirectionId": null,
        "streetTypeId": "RD",
        "placeName": "LONDON",
        "streetNameDisplayText": "WICKERSON RD, LONDON"
      }
    ]
  },
  {
    "postal": "N6K9K1",
    "result": []
  },
  {
    "postal": "N6K8E1",
    "result": []
  },
  {
    "postal": "N6K0R1",
    "result": []
  },
  {
    "postal": "N6K4J3",
    "result": [
      {
        "electoralDistricts": [
          {
            "election": null,
            "id": 55,
            "name": "London West"
          }
        ],
        "pollDivisionIds": [
          10139616
        ],
        "postalCode": "N6K4J3",
        "streetName": "BUTTERNUT",
        "streetDirectionId": null,
        "streetTypeId": "GROVE",
        "placeName": "LONDON",
        "streetNameDisplayText": "BUTTERNUT GROVE, LONDON"
      },
      {
        "electoralDistricts": [
          {
            "election": null,
            "id": 55,
            "name": "London West"
          }
        ],
        "pollDivisionIds": [
          10139616
        ],
        "postalCode": "N6K4J3",
        "streetName": "BUTTERNUT",
        "streetDirectionId": null,
        "streetTypeId": "LANE",
        "placeName": "LONDON",
        "streetNameDisplayText": "BUTTERNUT LANE, LONDON"
      },
      {
        "electoralDistricts": [
          {
            "election": null,
            "id": 55,
            "name": "London West"
          }
        ],
        "pollDivisionIds": [
          10139616
        ],
        "postalCode": "N6K4J3",
        "streetName": "CHESTNUT",
        "streetDirectionId": null,
        "streetTypeId": "HILL",
        "placeName": "LONDON",
        "streetNameDisplayText": "CHESTNUT HILL, LONDON"
      }
    ]
  },
  {
    "postal": "N6K7E7",
    "result": []
  },
  {
    "postal": "N6K0J0",
    "result": []
  },
  {
    "postal": "N6K7R8",
    "result": []
  },
  {
    "postal": "N6K9X0",
    "result": []
  },
  {
    "postal": "N6K7P6",
    "result": []
  },
  {
    "postal": "N6K0R7",
    "result": []
  },
  {
    "postal": "N6K5W1",
    "result": []
  },
  {
    "postal": "N6K0K4",
    "result": []
  },
  {
    "postal": "N6K7N9",
    "result": []
  },
  {
    "postal": "N6K1N0",
    "result": []
  },
  {
    "postal": "N6K6P3",
    "result": []
  },
  {
    "postal": "N6K5A1",
    "result": [
      {
        "electoralDistricts": [
          {
            "election": null,
            "id": 55,
            "name": "London West"
          }
        ],
        "pollDivisionIds": [
          10139615
        ],
        "postalCode": "N6K5A1",
        "streetName": "KIRKPATRICK",
        "streetDirectionId": null,
        "streetTypeId": "WAY",
        "placeName": "LONDON",
        "streetNameDisplayText": "KIRKPATRICK WAY, LONDON"
      }
    ]
  },
  {
    "postal": "N6K9M9",
    "result": []
  },
  {
    "postal": "N6K7T6",
    "result": []
  },
  {
    "postal": "N6K3X0",
    "result": []
  },
  {
    "postal": "N6K2T0",
    "result": []
  },
  {
    "postal": "N6K5X9",
    "result": []
  },
  {
    "postal": "N6K2R3",
    "result": [
      {
        "electoralDistricts": [
          {
            "election": null,
            "id": 55,
            "name": "London West"
          }
        ],
        "pollDivisionIds": [
          10139636
        ],
        "postalCode": "N6K2R3",
        "streetName": "BELVEDERE",
        "streetDirectionId": null,
        "streetTypeId": "AVE",
        "placeName": "LONDON",
        "streetNameDisplayText": "BELVEDERE AVE, LONDON"
      }
    ]
  },
  {
    "postal": "N6K5N2",
    "result": []
  },
  {
    "postal": "N6K4Y7",
    "result": [
      {
        "electoralDistricts": [
          {
            "election": null,
            "id": 55,
            "name": "London West"
          }
        ],
        "pollDivisionIds": [
          10139640
        ],
        "postalCode": "N6K4Y7",
        "streetName": "ADIRONDACK",
        "streetDirectionId": null,
        "streetTypeId": "RD",
        "placeName": "LONDON",
        "streetNameDisplayText": "ADIRONDACK RD, LONDON"
      }
    ]
  },
  {
    "postal": "N6K7M0",
    "result": []
  },
  {
    "postal": "N6K8P3",
    "result": []
  },
  {
    "postal": "N6K3N3",
    "result": [
      {
        "electoralDistricts": [
          {
            "election": null,
            "id": 55,
            "name": "London West"
          }
        ],
        "pollDivisionIds": [
          10139642
        ],
        "postalCode": "N6K3N3",
        "streetName": "FARMINGTON",
        "streetDirectionId": null,
        "streetTypeId": "TERR",
        "placeName": "LONDON",
        "streetNameDisplayText": "FARMINGTON TERR, LONDON"
      }
    ]
  },
  {
    "postal": "N6K7S3",
    "result": []
  },
  {
    "postal": "N6K3V9",
    "result": []
  },
  {
    "postal": "N6K9N7",
    "result": []
  },
  {
    "postal": "N6K0G4",
    "result": []
  },
  {
    "postal": "N6K2E2",
    "result": [
      {
        "electoralDistricts": [
          {
            "election": null,
            "id": 55,
            "name": "London West"
          }
        ],
        "pollDivisionIds": [
          10139618
        ],
        "postalCode": "N6K2E2",
        "streetName": "BYRON BASELINE",
        "streetDirectionId": null,
        "streetTypeId": "RD",
        "placeName": "LONDON",
        "streetNameDisplayText": "BYRON BASELINE RD, LONDON"
      }
    ]
  },
  {
    "postal": "N6K7W8",
    "result": []
  },
  {
    "postal": "N6K7M5",
    "result": []
  },
  {
    "postal": "N6K5W8",
    "result": []
  },
  {
    "postal": "N6K5E5",
    "result": []
  },
  {
    "postal": "N6K1P9",
    "result": [
      {
        "electoralDistricts": [
          {
            "election": null,
            "id": 55,
            "name": "London West"
          }
        ],
        "pollDivisionIds": [
          10139641
        ],
        "postalCode": "N6K1P9",
        "streetName": "NOTTINGHILL",
        "streetDirectionId": null,
        "streetTypeId": "CRES",
        "placeName": "LONDON",
        "streetNameDisplayText": "NOTTINGHILL CRES, LONDON"
      }
    ]
  },
  {
    "postal": "N6K8V8",
    "result": []
  },
  {
    "postal": "N6K9G8",
    "result": []
  },
  {
    "postal": "N6K8H9",
    "result": []
  },
  {
    "postal": "N6K1Z1",
    "result": [
      {
        "electoralDistricts": [
          {
            "election": null,
            "id": 55,
            "name": "London West"
          }
        ],
        "pollDivisionIds": [
          10139617
        ],
        "postalCode": "N6K1Z1",
        "streetName": "HELENA MONTAGUE",
        "streetDirectionId": null,
        "streetTypeId": "AVE",
        "placeName": "LONDON",
        "streetNameDisplayText": "HELENA MONTAGUE AVE, LONDON"
      }
    ]
  },
  {
    "postal": "N6K8M3",
    "result": []
  },
  {
    "postal": "N6K5H6",
    "result": []
  },
  {
    "postal": "N6K7W7",
    "result": []
  },
  {
    "postal": "N6K4L0",
    "result": []
  },
  {
    "postal": "N6K2N1",
    "result": [
      {
        "electoralDistricts": [
          {
            "election": null,
            "id": 55,
            "name": "London West"
          }
        ],
        "pollDivisionIds": [
          10139617
        ],
        "postalCode": "N6K2N1",
        "streetName": "STEPHEN",
        "streetDirectionId": null,
        "streetTypeId": "ST",
        "placeName": "LONDON",
        "streetNameDisplayText": "STEPHEN ST, LONDON"
      }
    ]
  },
  {
    "postal": "N6K2H4",
    "result": [
      {
        "electoralDistricts": [
          {
            "election": null,
            "id": 55,
            "name": "London West"
          }
        ],
        "pollDivisionIds": [
          10139636
        ],
        "postalCode": "N6K2H4",
        "streetName": "DEARBORN",
        "streetDirectionId": null,
        "streetTypeId": "AVE",
        "placeName": "LONDON",
        "streetNameDisplayText": "DEARBORN AVE, LONDON"
      }
    ]
  },
  {
    "postal": "N6K5C8",
    "result": [
      {
        "electoralDistricts": [
          {
            "election": null,
            "id": 55,
            "name": "London West"
          }
        ],
        "pollDivisionIds": [
          10139637,
          10139636
        ],
        "postalCode": "N6K5C8",
        "streetName": "MULBERRY",
        "streetDirectionId": null,
        "streetTypeId": "ST",
        "placeName": "LONDON",
        "streetNameDisplayText": "MULBERRY ST, LONDON"
      }
    ]
  },
  {
    "postal": "N6K8B0",
    "result": []
  },
  {
    "postal": "N6K1T4",
    "result": [
      {
        "electoralDistricts": [
          {
            "election": null,
            "id": 55,
            "name": "London West"
          }
        ],
        "pollDivisionIds": [
          10139643
        ],
        "postalCode": "N6K1T4",
        "streetName": "DUNSMOOR",
        "streetDirectionId": null,
        "streetTypeId": "RD",
        "placeName": "LONDON",
        "streetNameDisplayText": "DUNSMOOR RD, LONDON"
      }
    ]
  },
  {
    "postal": "N6K7N7",
    "result": []
  },
  {
    "postal": "N6K4L3",
    "result": [
      {
        "electoralDistricts": [
          {
            "election": null,
            "id": 55,
            "name": "London West"
          }
        ],
        "pollDivisionIds": [
          10139640
        ],
        "postalCode": "N6K4L3",
        "streetName": "WONDERLAND",
        "streetDirectionId": "S",
        "streetTypeId": "RD",
        "placeName": "LONDON",
        "streetNameDisplayText": "WONDERLAND RD S, LONDON"
      }
    ]
  },
  {
    "postal": "N6K2N2",
    "result": [
      {
        "electoralDistricts": [
          {
            "election": null,
            "id": 55,
            "name": "London West"
          }
        ],
        "pollDivisionIds": [
          10139618
        ],
        "postalCode": "N6K2N2",
        "streetName": "STEPHEN",
        "streetDirectionId": null,
        "streetTypeId": "ST",
        "placeName": "LONDON",
        "streetNameDisplayText": "STEPHEN ST, LONDON"
      }
    ]
  },
  {
    "postal": "N6K4N8",
    "result": [
      {
        "electoralDistricts": [
          {
            "election": null,
            "id": 55,
            "name": "London West"
          }
        ],
        "pollDivisionIds": [
          10139615
        ],
        "postalCode": "N6K4N8",
        "streetName": "GIDEON",
        "streetDirectionId": null,
        "streetTypeId": "DR",
        "placeName": "LONDON",
        "streetNameDisplayText": "GIDEON DR, LONDON"
      }
    ]
  },
  {
    "postal": "N6K3M5",
    "result": []
  },
  {
    "postal": "N6K6H7",
    "result": []
  },
  {
    "postal": "N6K8Y8",
    "result": []
  },
  {
    "postal": "N6K5R9",
    "result": []
  },
  {
    "postal": "N6K8G3",
    "result": []
  },
  {
    "postal": "N6K4N7",
    "result": [
      {
        "electoralDistricts": [
          {
            "election": null,
            "id": 55,
            "name": "London West"
          }
        ],
        "pollDivisionIds": [
          10139615
        ],
        "postalCode": "N6K4N7",
        "streetName": "GIDEON",
        "streetDirectionId": null,
        "streetTypeId": "DR",
        "placeName": "LONDON",
        "streetNameDisplayText": "GIDEON DR, LONDON"
      }
    ]
  },
  {
    "postal": "N6K0B9",
    "result": [
      {
        "electoralDistricts": [
          {
            "election": null,
            "id": 55,
            "name": "London West"
          }
        ],
        "pollDivisionIds": [
          10139636
        ],
        "postalCode": "N6K0B9",
        "streetName": "WICKERSON",
        "streetDirectionId": null,
        "streetTypeId": "RD",
        "placeName": "LONDON",
        "streetNameDisplayText": "WICKERSON RD, LONDON"
      }
    ]
  },
  {
    "postal": "N6K9K7",
    "result": []
  },
  {
    "postal": "N6K9K9",
    "result": []
  },
  {
    "postal": "N6K3Z2",
    "result": [
      {
        "electoralDistricts": [
          {
            "election": null,
            "id": 55,
            "name": "London West"
          }
        ],
        "pollDivisionIds": [
          10139638
        ],
        "postalCode": "N6K3Z2",
        "streetName": "GRIFFITH",
        "streetDirectionId": null,
        "streetTypeId": "ST",
        "placeName": "LONDON",
        "streetNameDisplayText": "GRIFFITH ST, LONDON"
      }
    ]
  },
  {
    "postal": "N6K6W7",
    "result": []
  },
  {
    "postal": "N6K0P1",
    "result": []
  },
  {
    "postal": "N6K3A0",
    "result": []
  },
  {
    "postal": "N6K8L9",
    "result": []
  },
  {
    "postal": "N6K6X0",
    "result": []
  },
  {
    "postal": "N6K3E9",
    "result": [
      {
        "electoralDistricts": [
          {
            "election": null,
            "id": 55,
            "name": "London West"
          }
        ],
        "pollDivisionIds": [
          10139636
        ],
        "postalCode": "N6K3E9",
        "streetName": "GRAND VIEW",
        "streetDirectionId": null,
        "streetTypeId": "AVE",
        "placeName": "LONDON",
        "streetNameDisplayText": "GRAND VIEW AVE, LONDON"
      }
    ]
  },
  {
    "postal": "N6K0S5",
    "result": []
  },
  {
    "postal": "N6K1A2",
    "result": []
  },
  {
    "postal": "N6K5V8",
    "result": []
  },
  {
    "postal": "N6K8C5",
    "result": []
  },
  {
    "postal": "N6K6N0",
    "result": []
  },
  {
    "postal": "N6K9E6",
    "result": []
  },
  {
    "postal": "N6K5J7",
    "result": []
  },
  {
    "postal": "N6K2R2",
    "result": [
      {
        "electoralDistricts": [
          {
            "election": null,
            "id": 55,
            "name": "London West"
          }
        ],
        "pollDivisionIds": [
          10139636
        ],
        "postalCode": "N6K2R2",
        "streetName": "BELVEDERE",
        "streetDirectionId": null,
        "streetTypeId": "AVE",
        "placeName": "LONDON",
        "streetNameDisplayText": "BELVEDERE AVE, LONDON"
      }
    ]
  },
  {
    "postal": "N6K0P5",
    "result": []
  },
  {
    "postal": "N6K5A7",
    "result": [
      {
        "electoralDistricts": [
          {
            "election": null,
            "id": 55,
            "name": "London West"
          }
        ],
        "pollDivisionIds": [
          10139638,
          10139601
        ],
        "postalCode": "N6K5A7",
        "streetName": "APRICOT",
        "streetDirectionId": null,
        "streetTypeId": "DR",
        "placeName": "LONDON",
        "streetNameDisplayText": "APRICOT DR, LONDON"
      },
      {
        "electoralDistricts": [
          {
            "election": null,
            "id": 55,
            "name": "London West"
          }
        ],
        "pollDivisionIds": [
          10139638
        ],
        "postalCode": "N6K5A7",
        "streetName": "CHERRYHAVEN",
        "streetDirectionId": null,
        "streetTypeId": "DR",
        "placeName": "LONDON",
        "streetNameDisplayText": "CHERRYHAVEN DR, LONDON"
      }
    ]
  },
  {
    "postal": "N6K1G1",
    "result": [
      {
        "electoralDistricts": [
          {
            "election": null,
            "id": 55,
            "name": "London West"
          }
        ],
        "pollDivisionIds": [
          10139641
        ],
        "postalCode": "N6K1G1",
        "streetName": "SALEM",
        "streetDirectionId": null,
        "streetTypeId": "RD",
        "placeName": "LONDON",
        "streetNameDisplayText": "SALEM RD, LONDON"
      }
    ]
  },
  {
    "postal": "N6K9R6",
    "result": []
  },
  {
    "postal": "N6K4Z9",
    "result": [
      {
        "electoralDistricts": [
          {
            "election": null,
            "id": 55,
            "name": "London West"
          }
        ],
        "pollDivisionIds": [
          10139615
        ],
        "postalCode": "N6K4Z9",
        "streetName": "RIVERBEND",
        "streetDirectionId": null,
        "streetTypeId": "RD",
        "placeName": "LONDON",
        "streetNameDisplayText": "RIVERBEND RD, LONDON"
      }
    ]
  },
  {
    "postal": "N6K1V5",
    "result": [
      {
        "electoralDistricts": [
          {
            "election": null,
            "id": 55,
            "name": "London West"
          }
        ],
        "pollDivisionIds": [
          10139642
        ],
        "postalCode": "N6K1V5",
        "streetName": "HILLSMOUNT",
        "streetDirectionId": null,
        "streetTypeId": "CRES",
        "placeName": "LONDON",
        "streetNameDisplayText": "HILLSMOUNT CRES, LONDON"
      }
    ]
  },
  {
    "postal": "N6K9Y5",
    "result": []
  },
  {
    "postal": "N6K1P2",
    "result": [
      {
        "electoralDistricts": [
          {
            "election": null,
            "id": 55,
            "name": "London West"
          }
        ],
        "pollDivisionIds": [
          10139641
        ],
        "postalCode": "N6K1P2",
        "streetName": "WESTMOUNT",
        "streetDirectionId": null,
        "streetTypeId": "CRES",
        "placeName": "LONDON",
        "streetNameDisplayText": "WESTMOUNT CRES, LONDON"
      }
    ]
  },
  {
    "postal": "N6K5X0",
    "result": []
  },
  {
    "postal": "N6K7B8",
    "result": []
  },
  {
    "postal": "N6K0C6",
    "result": [
      {
        "electoralDistricts": [
          {
            "election": null,
            "id": 55,
            "name": "London West"
          }
        ],
        "pollDivisionIds": [
          10139654,
          10139615
        ],
        "postalCode": "N6K0C6",
        "streetName": "SHORE",
        "streetDirectionId": null,
        "streetTypeId": "RD",
        "placeName": "LONDON",
        "streetNameDisplayText": "SHORE RD, LONDON"
      }
    ]
  },
  {
    "postal": "N6K6G1",
    "result": []
  },
  {
    "postal": "N6K3K3",
    "result": [
      {
        "electoralDistricts": [
          {
            "election": null,
            "id": 55,
            "name": "London West"
          }
        ],
        "pollDivisionIds": [
          10139638
        ],
        "postalCode": "N6K3K3",
        "streetName": "GRIFFITH",
        "streetDirectionId": null,
        "streetTypeId": "ST",
        "placeName": "LONDON",
        "streetNameDisplayText": "GRIFFITH ST, LONDON"
      }
    ]
  },
  {
    "postal": "N6K9R0",
    "result": []
  },
  {
    "postal": "N6K4R8",
    "result": [
      {
        "electoralDistricts": [
          {
            "election": null,
            "id": 55,
            "name": "London West"
          }
        ],
        "pollDivisionIds": [
          10139615
        ],
        "postalCode": "N6K4R8",
        "streetName": "ELVIAGE",
        "streetDirectionId": null,
        "streetTypeId": "DR",
        "placeName": "LONDON",
        "streetNameDisplayText": "ELVIAGE DR, LONDON"
      }
    ]
  },
  {
    "postal": "N6K5P9",
    "result": []
  },
  {
    "postal": "N6K8N4",
    "result": []
  },
  {
    "postal": "N6K8H4",
    "result": []
  },
  {
    "postal": "N6K4V1",
    "result": [
      {
        "electoralDistricts": [
          {
            "election": null,
            "id": 55,
            "name": "London West"
          }
        ],
        "pollDivisionIds": [
          10139620
        ],
        "postalCode": "N6K4V1",
        "streetName": "SPRINGBANK",
        "streetDirectionId": null,
        "streetTypeId": "DR",
        "placeName": "LONDON",
        "streetNameDisplayText": "SPRINGBANK DR, LONDON"
      }
    ]
  },
  {
    "postal": "N6K1K5",
    "result": [
      {
        "electoralDistricts": [
          {
            "election": null,
            "id": 55,
            "name": "London West"
          }
        ],
        "pollDivisionIds": [
          10139643
        ],
        "postalCode": "N6K1K5",
        "streetName": "BARCLAY",
        "streetDirectionId": null,
        "streetTypeId": "RD",
        "placeName": "LONDON",
        "streetNameDisplayText": "BARCLAY RD, LONDON"
      }
    ]
  },
  {
    "postal": "N6K1Z5",
    "result": [
      {
        "electoralDistricts": [
          {
            "election": null,
            "id": 55,
            "name": "London West"
          }
        ],
        "pollDivisionIds": [
          10139616
        ],
        "postalCode": "N6K1Z5",
        "streetName": "HELENA MONTAGUE",
        "streetDirectionId": null,
        "streetTypeId": "AVE",
        "placeName": "LONDON",
        "streetNameDisplayText": "HELENA MONTAGUE AVE, LONDON"
      }
    ]
  },
  {
    "postal": "N6K9L9",
    "result": []
  },
  {
    "postal": "N6K5L2",
    "result": []
  },
  {
    "postal": "N6K0M2",
    "result": []
  },
  {
    "postal": "N6K1K8",
    "result": [
      {
        "electoralDistricts": [
          {
            "election": null,
            "id": 55,
            "name": "London West"
          }
        ],
        "pollDivisionIds": [
          10139640
        ],
        "postalCode": "N6K1K8",
        "streetName": "BARCLAY",
        "streetDirectionId": null,
        "streetTypeId": "RD",
        "placeName": "LONDON",
        "streetNameDisplayText": "BARCLAY RD, LONDON"
      }
    ]
  },
  {
    "postal": "N6K3M7",
    "result": [
      {
        "electoralDistricts": [
          {
            "election": null,
            "id": 55,
            "name": "London West"
          }
        ],
        "pollDivisionIds": [
          10139638
        ],
        "postalCode": "N6K3M7",
        "streetName": "SOMERSET",
        "streetDirectionId": null,
        "streetTypeId": "RD",
        "placeName": "LONDON",
        "streetNameDisplayText": "SOMERSET RD, LONDON"
      }
    ]
  },
  {
    "postal": "N6K1B2",
    "result": [
      {
        "electoralDistricts": [
          {
            "election": null,
            "id": 55,
            "name": "London West"
          }
        ],
        "pollDivisionIds": [
          10139619
        ],
        "postalCode": "N6K1B2",
        "streetName": "WESTMOUNT HILLS",
        "streetDirectionId": null,
        "streetTypeId": "DR",
        "placeName": "LONDON",
        "streetNameDisplayText": "WESTMOUNT HILLS DR, LONDON"
      }
    ]
  },
  {
    "postal": "N6K0H9",
    "result": [
      {
        "electoralDistricts": [
          {
            "election": null,
            "id": 55,
            "name": "London West"
          }
        ],
        "pollDivisionIds": [
          10139615
        ],
        "postalCode": "N6K0H9",
        "streetName": "TRAILSWAY",
        "streetDirectionId": null,
        "streetTypeId": "AVE",
        "placeName": "LONDON",
        "streetNameDisplayText": "TRAILSWAY AVE, LONDON"
      },
      {
        "electoralDistricts": [
          {
            "election": null,
            "id": 55,
            "name": "London West"
          }
        ],
        "pollDivisionIds": [
          10139615
        ],
        "postalCode": "N6K0H9",
        "streetName": "UPPER WEST",
        "streetDirectionId": null,
        "streetTypeId": "AVE",
        "placeName": "LONDON",
        "streetNameDisplayText": "UPPER WEST AVE, LONDON"
      },
      {
        "electoralDistricts": [
          {
            "election": null,
            "id": 55,
            "name": "London West"
          }
        ],
        "pollDivisionIds": [
          10139615
        ],
        "postalCode": "N6K0H9",
        "streetName": "WARBLER WOODS",
        "streetDirectionId": null,
        "streetTypeId": "WALK",
        "placeName": "LONDON",
        "streetNameDisplayText": "WARBLER WOODS WALK, LONDON"
      }
    ]
  },
  {
    "postal": "N6K8M4",
    "result": []
  },
  {
    "postal": "N6K2M5",
    "result": [
      {
        "electoralDistricts": [
          {
            "election": null,
            "id": 55,
            "name": "London West"
          }
        ],
        "pollDivisionIds": [
          10139637
        ],
        "postalCode": "N6K2M5",
        "streetName": "JELLICOE",
        "streetDirectionId": null,
        "streetTypeId": "CRES",
        "placeName": "LONDON",
        "streetNameDisplayText": "JELLICOE CRES, LONDON"
      }
    ]
  },
  {
    "postal": "N6K0T9",
    "result": []
  },
  {
    "postal": "N6K3P1",
    "result": [
      {
        "electoralDistricts": [
          {
            "election": null,
            "id": 55,
            "name": "London West"
          }
        ],
        "pollDivisionIds": [
          10139641
        ],
        "postalCode": "N6K3P1",
        "streetName": "NOTTINGHILL",
        "streetDirectionId": null,
        "streetTypeId": "RD",
        "placeName": "LONDON",
        "streetNameDisplayText": "NOTTINGHILL RD, LONDON"
      }
    ]
  },
  {
    "postal": "N6K1R6",
    "result": [
      {
        "electoralDistricts": [
          {
            "election": null,
            "id": 55,
            "name": "London West"
          }
        ],
        "pollDivisionIds": [
          10139643
        ],
        "postalCode": "N6K1R6",
        "streetName": "FARNHAM",
        "streetDirectionId": null,
        "streetTypeId": "RD",
        "placeName": "LONDON",
        "streetNameDisplayText": "FARNHAM RD, LONDON"
      }
    ]
  },
  {
    "postal": "N6K9V5",
    "result": []
  },
  {
    "postal": "N6K9T0",
    "result": []
  },
  {
    "postal": "N6K0A9",
    "result": [
      {
        "electoralDistricts": [
          {
            "election": null,
            "id": 55,
            "name": "London West"
          }
        ],
        "pollDivisionIds": [
          10139640
        ],
        "postalCode": "N6K0A9",
        "streetName": "BUTTONBUSH",
        "streetDirectionId": null,
        "streetTypeId": "CRES",
        "placeName": "LONDON",
        "streetNameDisplayText": "BUTTONBUSH CRES, LONDON"
      },
      {
        "electoralDistricts": [
          {
            "election": null,
            "id": 55,
            "name": "London West"
          }
        ],
        "pollDivisionIds": [
          10139640
        ],
        "postalCode": "N6K0A9",
        "streetName": "THORNLEY",
        "streetDirectionId": null,
        "streetTypeId": "ST",
        "placeName": "LONDON",
        "streetNameDisplayText": "THORNLEY ST, LONDON"
      }
    ]
  },
  {
    "postal": "N6K1M3",
    "result": [
      {
        "electoralDistricts": [
          {
            "election": null,
            "id": 55,
            "name": "London West"
          }
        ],
        "pollDivisionIds": [
          10139641
        ],
        "postalCode": "N6K1M3",
        "streetName": "WONDERLAND",
        "streetDirectionId": "S",
        "streetTypeId": "RD",
        "placeName": "LONDON",
        "streetNameDisplayText": "WONDERLAND RD S, LONDON"
      }
    ]
  },
  {
    "postal": "N6K1W8",
    "result": [
      {
        "electoralDistricts": [
          {
            "election": null,
            "id": 55,
            "name": "London West"
          }
        ],
        "pollDivisionIds": [
          10139642
        ],
        "postalCode": "N6K1W8",
        "streetName": "CRANBROOK",
        "streetDirectionId": null,
        "streetTypeId": "RD",
        "placeName": "LONDON",
        "streetNameDisplayText": "CRANBROOK RD, LONDON"
      }
    ]
  },
  {
    "postal": "N6K9J1",
    "result": []
  },
  {
    "postal": "N6K8N5",
    "result": []
  },
  {
    "postal": "N6K5X1",
    "result": []
  },
  {
    "postal": "N6K6S2",
    "result": []
  },
  {
    "postal": "N6K2A2",
    "result": [
      {
        "electoralDistricts": [
          {
            "election": null,
            "id": 55,
            "name": "London West"
          }
        ],
        "pollDivisionIds": [
          10139618
        ],
        "postalCode": "N6K2A2",
        "streetName": "NORMAN",
        "streetDirectionId": null,
        "streetTypeId": "AVE",
        "placeName": "LONDON",
        "streetNameDisplayText": "NORMAN AVE, LONDON"
      }
    ]
  },
  {
    "postal": "N6K6A6",
    "result": []
  },
  {
    "postal": "N6K0S3",
    "result": []
  },
  {
    "postal": "N6K3E7",
    "result": []
  },
  {
    "postal": "N6K5R7",
    "result": [
      {
        "electoralDistricts": [
          {
            "election": null,
            "id": 55,
            "name": "London West"
          }
        ],
        "pollDivisionIds": [
          10139615
        ],
        "postalCode": "N6K5R7",
        "streetName": "ED ERVASTI",
        "streetDirectionId": null,
        "streetTypeId": "CRES",
        "placeName": "LONDON",
        "streetNameDisplayText": "ED ERVASTI CRES, LONDON"
      },
      {
        "electoralDistricts": [
          {
            "election": null,
            "id": 55,
            "name": "London West"
          }
        ],
        "pollDivisionIds": [
          10139615
        ],
        "postalCode": "N6K5R7",
        "streetName": "ED ERVASTI",
        "streetDirectionId": null,
        "streetTypeId": "LANE",
        "placeName": "LONDON",
        "streetNameDisplayText": "ED ERVASTI LANE, LONDON"
      }
    ]
  },
  {
    "postal": "N6K3R6",
    "result": [
      {
        "electoralDistricts": [
          {
            "election": null,
            "id": 55,
            "name": "London West"
          }
        ],
        "pollDivisionIds": [
          10139637
        ],
        "postalCode": "N6K3R6",
        "streetName": "LOLA",
        "streetDirectionId": null,
        "streetTypeId": "ST",
        "placeName": "LONDON",
        "streetNameDisplayText": "LOLA ST, LONDON"
      }
    ]
  },
  {
    "postal": "N6K6K4",
    "result": []
  },
  {
    "postal": "N6K2W5",
    "result": [
      {
        "electoralDistricts": [
          {
            "election": null,
            "id": 55,
            "name": "London West"
          }
        ],
        "pollDivisionIds": [
          10139637
        ],
        "postalCode": "N6K2W5",
        "streetName": "DEARBORN",
        "streetDirectionId": null,
        "streetTypeId": "AVE",
        "placeName": "LONDON",
        "streetNameDisplayText": "DEARBORN AVE, LONDON"
      }
    ]
  },
  {
    "postal": "N6K8W4",
    "result": []
  },
  {
    "postal": "N6K9C2",
    "result": []
  },
  {
    "postal": "N6K2C0",
    "result": []
  },
  {
    "postal": "N6K0E1",
    "result": [
      {
        "electoralDistricts": [
          {
            "election": null,
            "id": 55,
            "name": "London West"
          }
        ],
        "pollDivisionIds": [
          10139615
        ],
        "postalCode": "N6K0E1",
        "streetName": "JIM ALLEN",
        "streetDirectionId": null,
        "streetTypeId": "WAY",
        "placeName": "LONDON",
        "streetNameDisplayText": "JIM ALLEN WAY, LONDON"
      }
    ]
  },
  {
    "postal": "N6K1K9",
    "result": [
      {
        "electoralDistricts": [
          {
            "election": null,
            "id": 55,
            "name": "London West"
          }
        ],
        "pollDivisionIds": [
          10139640
        ],
        "postalCode": "N6K1K9",
        "streetName": "BRIXHAM",
        "streetDirectionId": null,
        "streetTypeId": "CRES",
        "placeName": "LONDON",
        "streetNameDisplayText": "BRIXHAM CRES, LONDON"
      }
    ]
  },
  {
    "postal": "N6K1G7",
    "result": [
      {
        "electoralDistricts": [
          {
            "election": null,
            "id": 55,
            "name": "London West"
          }
        ],
        "pollDivisionIds": [
          10139641
        ],
        "postalCode": "N6K1G7",
        "streetName": "VILLAGE GREEN",
        "streetDirectionId": null,
        "streetTypeId": "AVE",
        "placeName": "LONDON",
        "streetNameDisplayText": "VILLAGE GREEN AVE, LONDON"
      }
    ]
  },
  {
    "postal": "N6K4E9",
    "result": [
      {
        "electoralDistricts": [
          {
            "election": null,
            "id": 55,
            "name": "London West"
          }
        ],
        "pollDivisionIds": [
          10139617
        ],
        "postalCode": "N6K4E9",
        "streetName": "CADEAU",
        "streetDirectionId": null,
        "streetTypeId": "TERR",
        "placeName": "LONDON",
        "streetNameDisplayText": "CADEAU TERR, LONDON"
      }
    ]
  },
  {
    "postal": "N6K9P0",
    "result": []
  },
  {
    "postal": "N6K5H3",
    "result": []
  },
  {
    "postal": "N6K9X6",
    "result": []
  },
  {
    "postal": "N6K5N7",
    "result": []
  },
  {
    "postal": "N6K5A6",
    "result": [
      {
        "electoralDistricts": [
          {
            "election": null,
            "id": 55,
            "name": "London West"
          }
        ],
        "pollDivisionIds": [
          10139638
        ],
        "postalCode": "N6K5A6",
        "streetName": "BYRONHILLS",
        "streetDirectionId": null,
        "streetTypeId": "DR",
        "placeName": "LONDON",
        "streetNameDisplayText": "BYRONHILLS DR, LONDON"
      },
      {
        "electoralDistricts": [
          {
            "election": null,
            "id": 55,
            "name": "London West"
          }
        ],
        "pollDivisionIds": [
          10139638
        ],
        "postalCode": "N6K5A6",
        "streetName": "BYRONMANOR",
        "streetDirectionId": null,
        "streetTypeId": "RD",
        "placeName": "LONDON",
        "streetNameDisplayText": "BYRONMANOR RD, LONDON"
      },
      {
        "electoralDistricts": [
          {
            "election": null,
            "id": 55,
            "name": "London West"
          }
        ],
        "pollDivisionIds": [
          10139638
        ],
        "postalCode": "N6K5A6",
        "streetName": "CHERRYHAVEN",
        "streetDirectionId": null,
        "streetTypeId": "DR",
        "placeName": "LONDON",
        "streetNameDisplayText": "CHERRYHAVEN DR, LONDON"
      }
    ]
  },
  {
    "postal": "N6K4M0",
    "result": []
  },
  {
    "postal": "N6K3V6",
    "result": [
      {
        "electoralDistricts": [
          {
            "election": null,
            "id": 55,
            "name": "London West"
          }
        ],
        "pollDivisionIds": [
          10139618
        ],
        "postalCode": "N6K3V6",
        "streetName": "TIMBER",
        "streetDirectionId": null,
        "streetTypeId": "DR",
        "placeName": "LONDON",
        "streetNameDisplayText": "TIMBER DR, LONDON"
      }
    ]
  },
  {
    "postal": "N6K1L7",
    "result": []
  },
  {
    "postal": "N6K2P9",
    "result": [
      {
        "electoralDistricts": [
          {
            "election": null,
            "id": 55,
            "name": "London West"
          }
        ],
        "pollDivisionIds": [
          10139636
        ],
        "postalCode": "N6K2P9",
        "streetName": "BELVEDERE",
        "streetDirectionId": null,
        "streetTypeId": "AVE",
        "placeName": "LONDON",
        "streetNameDisplayText": "BELVEDERE AVE, LONDON"
      }
    ]
  },
  {
    "postal": "N6K5T4",
    "result": []
  },
  {
    "postal": "N6K5Z1",
    "result": []
  },
  {
    "postal": "N6K2X0",
    "result": []
  },
  {
    "postal": "N6K6Z2",
    "result": []
  },
  {
    "postal": "N6K0E0",
    "result": []
  },
  {
    "postal": "N6K3Z5",
    "result": [
      {
        "electoralDistricts": [
          {
            "election": null,
            "id": 55,
            "name": "London West"
          }
        ],
        "pollDivisionIds": [
          10139638
        ],
        "postalCode": "N6K3Z5",
        "streetName": "GRIFFITH",
        "streetDirectionId": null,
        "streetTypeId": "ST",
        "placeName": "LONDON",
        "streetNameDisplayText": "GRIFFITH ST, LONDON"
      },
      {
        "electoralDistricts": [
          {
            "election": null,
            "id": 55,
            "name": "London West"
          }
        ],
        "pollDivisionIds": [
          10139638
        ],
        "postalCode": "N6K3Z5",
        "streetName": "WAYNE",
        "streetDirectionId": null,
        "streetTypeId": "CRT",
        "placeName": "LONDON",
        "streetNameDisplayText": "WAYNE CRT, LONDON"
      }
    ]
  },
  {
    "postal": "N6K8H3",
    "result": []
  },
  {
    "postal": "N6K7S6",
    "result": []
  },
  {
    "postal": "N6K4C1",
    "result": [
      {
        "electoralDistricts": [
          {
            "election": null,
            "id": 55,
            "name": "London West"
          }
        ],
        "pollDivisionIds": [
          10139638
        ],
        "postalCode": "N6K4C1",
        "streetName": "SUMMERDALE",
        "streetDirectionId": null,
        "streetTypeId": "CRES",
        "placeName": "LONDON",
        "streetNameDisplayText": "SUMMERDALE CRES, LONDON"
      },
      {
        "electoralDistricts": [
          {
            "election": null,
            "id": 55,
            "name": "London West"
          }
        ],
        "pollDivisionIds": [
          10139638
        ],
        "postalCode": "N6K4C1",
        "streetName": "WHISPERWOOD",
        "streetDirectionId": null,
        "streetTypeId": "AVE",
        "placeName": "LONDON",
        "streetNameDisplayText": "WHISPERWOOD AVE, LONDON"
      }
    ]
  },
  {
    "postal": "N6K3K2",
    "result": [
      {
        "electoralDistricts": [
          {
            "election": null,
            "id": 55,
            "name": "London West"
          }
        ],
        "pollDivisionIds": [
          10139638
        ],
        "postalCode": "N6K3K2",
        "streetName": "GRIFFITH",
        "streetDirectionId": null,
        "streetTypeId": "ST",
        "placeName": "LONDON",
        "streetNameDisplayText": "GRIFFITH ST, LONDON"
      }
    ]
  },
  {
    "postal": "N6K1Y5",
    "result": [
      {
        "electoralDistricts": [
          {
            "election": null,
            "id": 55,
            "name": "London West"
          }
        ],
        "pollDivisionIds": [
          10139616
        ],
        "postalCode": "N6K1Y5",
        "streetName": "WOODBINE",
        "streetDirectionId": null,
        "streetTypeId": "ST",
        "placeName": "LONDON",
        "streetNameDisplayText": "WOODBINE ST, LONDON"
      }
    ]
  },
  {
    "postal": "N6K6P6",
    "result": []
  },
  {
    "postal": "N6K3N9",
    "result": [
      {
        "electoralDistricts": [
          {
            "election": null,
            "id": 55,
            "name": "London West"
          }
        ],
        "pollDivisionIds": [
          10139642
        ],
        "postalCode": "N6K3N9",
        "streetName": "FARMINGTON",
        "streetDirectionId": null,
        "streetTypeId": "CRT",
        "placeName": "LONDON",
        "streetNameDisplayText": "FARMINGTON CRT, LONDON"
      }
    ]
  },
  {
    "postal": "N6K3W2",
    "result": []
  },
  {
    "postal": "N6K6H8",
    "result": []
  },
  {
    "postal": "N6K9T3",
    "result": []
  },
  {
    "postal": "N6K5L9",
    "result": []
  },
  {
    "postal": "N6K7X7",
    "result": []
  },
  {
    "postal": "N6K3J5",
    "result": [
      {
        "electoralDistricts": [
          {
            "election": null,
            "id": 55,
            "name": "London West"
          }
        ],
        "pollDivisionIds": [
          10139642
        ],
        "postalCode": "N6K3J5",
        "streetName": "TAMARACK",
        "streetDirectionId": null,
        "streetTypeId": "CRES",
        "placeName": "LONDON",
        "streetNameDisplayText": "TAMARACK CRES, LONDON"
      }
    ]
  },
  {
    "postal": "N6K4J5",
    "result": [
      {
        "electoralDistricts": [
          {
            "election": null,
            "id": 55,
            "name": "London West"
          }
        ],
        "pollDivisionIds": [
          10139616
        ],
        "postalCode": "N6K4J5",
        "streetName": "CHESTNUT",
        "streetDirectionId": null,
        "streetTypeId": "CRT",
        "placeName": "LONDON",
        "streetNameDisplayText": "CHESTNUT CRT, LONDON"
      },
      {
        "electoralDistricts": [
          {
            "election": null,
            "id": 55,
            "name": "London West"
          }
        ],
        "pollDivisionIds": [
          10139616
        ],
        "postalCode": "N6K4J5",
        "streetName": "CHESTNUT",
        "streetDirectionId": null,
        "streetTypeId": "HILL",
        "placeName": "LONDON",
        "streetNameDisplayText": "CHESTNUT HILL, LONDON"
      }
    ]
  },
  {
    "postal": "N6K6J2",
    "result": []
  },
  {
    "postal": "N6K5V6",
    "result": []
  },
  {
    "postal": "N6K3N2",
    "result": [
      {
        "electoralDistricts": [
          {
            "election": null,
            "id": 55,
            "name": "London West"
          }
        ],
        "pollDivisionIds": [
          10139640
        ],
        "postalCode": "N6K3N2",
        "streetName": "DALHOUSIE",
        "streetDirectionId": null,
        "streetTypeId": "CRES",
        "placeName": "LONDON",
        "streetNameDisplayText": "DALHOUSIE CRES, LONDON"
      }
    ]
  },
  {
    "postal": "N6K3B1",
    "result": [
      {
        "electoralDistricts": [
          {
            "election": null,
            "id": 55,
            "name": "London West"
          }
        ],
        "pollDivisionIds": [
          10139637
        ],
        "postalCode": "N6K3B1",
        "streetName": "GRIFFITH",
        "streetDirectionId": null,
        "streetTypeId": "ST",
        "placeName": "LONDON",
        "streetNameDisplayText": "GRIFFITH ST, LONDON"
      }
    ]
  },
  {
    "postal": "N6K8B5",
    "result": []
  },
  {
    "postal": "N6K0K1",
    "result": []
  },
  {
    "postal": "N6K7M7",
    "result": []
  },
  {
    "postal": "N6K2M2",
    "result": [
      {
        "electoralDistricts": [
          {
            "election": null,
            "id": 55,
            "name": "London West"
          }
        ],
        "pollDivisionIds": [
          10139618
        ],
        "postalCode": "N6K2M2",
        "streetName": "BROCK",
        "streetDirectionId": null,
        "streetTypeId": "ST",
        "placeName": "LONDON",
        "streetNameDisplayText": "BROCK ST, LONDON"
      }
    ]
  },
  {
    "postal": "N6K9N3",
    "result": []
  },
  {
    "postal": "N6K4Y8",
    "result": [
      {
        "electoralDistricts": [
          {
            "election": null,
            "id": 55,
            "name": "London West"
          }
        ],
        "pollDivisionIds": [
          10139640
        ],
        "postalCode": "N6K4Y8",
        "streetName": "CRANBROOK",
        "streetDirectionId": null,
        "streetTypeId": "RD",
        "placeName": "LONDON",
        "streetNameDisplayText": "CRANBROOK RD, LONDON"
      }
    ]
  },
  {
    "postal": "N6K3V7",
    "result": []
  },
  {
    "postal": "N6K8Z1",
    "result": []
  },
  {
    "postal": "N6K7B3",
    "result": []
  },
  {
    "postal": "N6K3A8",
    "result": [
      {
        "electoralDistricts": [
          {
            "election": null,
            "id": 55,
            "name": "London West"
          }
        ],
        "pollDivisionIds": [
          10139637
        ],
        "postalCode": "N6K3A8",
        "streetName": "GRIFFITH",
        "streetDirectionId": null,
        "streetTypeId": "ST",
        "placeName": "LONDON",
        "streetNameDisplayText": "GRIFFITH ST, LONDON"
      }
    ]
  },
  {
    "postal": "N6K7V5",
    "result": []
  },
  {
    "postal": "N6K2T2",
    "result": [
      {
        "electoralDistricts": [
          {
            "election": null,
            "id": 55,
            "name": "London West"
          }
        ],
        "pollDivisionIds": [
          10139616
        ],
        "postalCode": "N6K2T2",
        "streetName": "GRAND VIEW",
        "streetDirectionId": null,
        "streetTypeId": "AVE",
        "placeName": "LONDON",
        "streetNameDisplayText": "GRAND VIEW AVE, LONDON"
      }
    ]
  },
  {
    "postal": "N6K6L3",
    "result": []
  },
  {
    "postal": "N6K0L2",
    "result": []
  },
  {
    "postal": "N6K5Y8",
    "result": []
  },
  {
    "postal": "N6K0B8",
    "result": [
      {
        "electoralDistricts": [
          {
            "election": null,
            "id": 55,
            "name": "London West"
          }
        ],
        "pollDivisionIds": [
          10139641
        ],
        "postalCode": "N6K0B8",
        "streetName": "LONGWORTH",
        "streetDirectionId": null,
        "streetTypeId": "RD",
        "placeName": "LONDON",
        "streetNameDisplayText": "LONGWORTH RD, LONDON"
      },
      {
        "electoralDistricts": [
          {
            "election": null,
            "id": 55,
            "name": "London West"
          }
        ],
        "pollDivisionIds": [
          10139641
        ],
        "postalCode": "N6K0B8",
        "streetName": "THISTLERIDGE",
        "streetDirectionId": null,
        "streetTypeId": "CRES",
        "placeName": "LONDON",
        "streetNameDisplayText": "THISTLERIDGE CRES, LONDON"
      }
    ]
  },
  {
    "postal": "N6K6R5",
    "result": []
  },
  {
    "postal": "N6K8W6",
    "result": []
  },
  {
    "postal": "N6K8G6",
    "result": []
  },
  {
    "postal": "N6K6X3",
    "result": []
  },
  {
    "postal": "N6K7R7",
    "result": []
  },
  {
    "postal": "N6K4B6",
    "result": [
      {
        "electoralDistricts": [
          {
            "election": null,
            "id": 55,
            "name": "London West"
          }
        ],
        "pollDivisionIds": [
          10139618
        ],
        "postalCode": "N6K4B6",
        "streetName": "TIMBER",
        "streetDirectionId": null,
        "streetTypeId": "DR",
        "placeName": "LONDON",
        "streetNameDisplayText": "TIMBER DR, LONDON"
      }
    ]
  },
  {
    "postal": "N6K3P9",
    "result": [
      {
        "electoralDistricts": [
          {
            "election": null,
            "id": 55,
            "name": "London West"
          }
        ],
        "pollDivisionIds": [
          10139641
        ],
        "postalCode": "N6K3P9",
        "streetName": "JAMAICA",
        "streetDirectionId": null,
        "streetTypeId": "ST",
        "placeName": "LONDON",
        "streetNameDisplayText": "JAMAICA ST, LONDON"
      }
    ]
  },
  {
    "postal": "N6K2T3",
    "result": [
      {
        "electoralDistricts": [
          {
            "election": null,
            "id": 55,
            "name": "London West"
          }
        ],
        "pollDivisionIds": [
          10139616
        ],
        "postalCode": "N6K2T3",
        "streetName": "GRAND VIEW",
        "streetDirectionId": null,
        "streetTypeId": "AVE",
        "placeName": "LONDON",
        "streetNameDisplayText": "GRAND VIEW AVE, LONDON"
      }
    ]
  },
  {
    "postal": "N6K1M4",
    "result": [
      {
        "electoralDistricts": [
          {
            "election": null,
            "id": 55,
            "name": "London West"
          }
        ],
        "pollDivisionIds": [
          10139641
        ],
        "postalCode": "N6K1M4",
        "streetName": "WONDERLAND",
        "streetDirectionId": "S",
        "streetTypeId": "RD",
        "placeName": "LONDON",
        "streetNameDisplayText": "WONDERLAND RD S, LONDON"
      }
    ]
  },
  {
    "postal": "N6K0H1",
    "result": [
      {
        "electoralDistricts": [
          {
            "election": null,
            "id": 55,
            "name": "London West"
          }
        ],
        "pollDivisionIds": [
          10139637
        ],
        "postalCode": "N6K0H1",
        "streetName": "BRAYFORD",
        "streetDirectionId": null,
        "streetTypeId": "AVE",
        "placeName": "LONDON",
        "streetNameDisplayText": "BRAYFORD AVE, LONDON"
      },
      {
        "electoralDistricts": [
          {
            "election": null,
            "id": 55,
            "name": "London West"
          }
        ],
        "pollDivisionIds": [
          10139637
        ],
        "postalCode": "N6K0H1",
        "streetName": "BRUNSON",
        "streetDirectionId": null,
        "streetTypeId": "WAY",
        "placeName": "LONDON",
        "streetNameDisplayText": "BRUNSON WAY, LONDON"
      },
      {
        "electoralDistricts": [
          {
            "election": null,
            "id": 55,
            "name": "London West"
          }
        ],
        "pollDivisionIds": [
          10139637
        ],
        "postalCode": "N6K0H1",
        "streetName": "TIBET BUTLER",
        "streetDirectionId": null,
        "streetTypeId": "BLVD",
        "placeName": "LONDON",
        "streetNameDisplayText": "TIBET BUTLER BLVD, LONDON"
      }
    ]
  },
  {
    "postal": "N6K9W3",
    "result": []
  },
  {
    "postal": "N6K6P1",
    "result": []
  },
  {
    "postal": "N6K7G2",
    "result": []
  },
  {
    "postal": "N6K4J9",
    "result": [
      {
        "electoralDistricts": [
          {
            "election": null,
            "id": 55,
            "name": "London West"
          }
        ],
        "pollDivisionIds": [
          10139637
        ],
        "postalCode": "N6K4J9",
        "streetName": "OPTIMIST PARK",
        "streetDirectionId": null,
        "streetTypeId": "DR",
        "placeName": "LONDON",
        "streetNameDisplayText": "OPTIMIST PARK DR, LONDON"
      },
      {
        "electoralDistricts": [
          {
            "election": null,
            "id": 55,
            "name": "London West"
          }
        ],
        "pollDivisionIds": [
          10139638
        ],
        "postalCode": "N6K4J9",
        "streetName": "SPORTS FIELD",
        "streetDirectionId": null,
        "streetTypeId": "CRES",
        "placeName": "LONDON",
        "streetNameDisplayText": "SPORTS FIELD CRES, LONDON"
      }
    ]
  },
  {
    "postal": "N6K9E4",
    "result": []
  },
  {
    "postal": "N6K8H0",
    "result": []
  },
  {
    "postal": "N6K4M7",
    "result": [
      {
        "electoralDistricts": [
          {
            "election": null,
            "id": 55,
            "name": "London West"
          }
        ],
        "pollDivisionIds": [
          10139638
        ],
        "postalCode": "N6K4M7",
        "streetName": "BOLER",
        "streetDirectionId": null,
        "streetTypeId": "RD",
        "placeName": "LONDON",
        "streetNameDisplayText": "BOLER RD, LONDON"
      }
    ]
  },
  {
    "postal": "N6K2G9",
    "result": [
      {
        "electoralDistricts": [
          {
            "election": null,
            "id": 55,
            "name": "London West"
          }
        ],
        "pollDivisionIds": [
          10139637
        ],
        "postalCode": "N6K2G9",
        "streetName": "WAYNE",
        "streetDirectionId": null,
        "streetTypeId": "RD",
        "placeName": "LONDON",
        "streetNameDisplayText": "WAYNE RD, LONDON"
      }
    ]
  },
  {
    "postal": "N6K8T2",
    "result": []
  },
  {
    "postal": "N6K7G7",
    "result": []
  },
  {
    "postal": "N6K4Z3",
    "result": [
      {
        "electoralDistricts": [
          {
            "election": null,
            "id": 55,
            "name": "London West"
          }
        ],
        "pollDivisionIds": [
          10139615
        ],
        "postalCode": "N6K4Z3",
        "streetName": "WARBLER WOODS",
        "streetDirectionId": null,
        "streetTypeId": "WALK",
        "placeName": "LONDON",
        "streetNameDisplayText": "WARBLER WOODS WALK, LONDON"
      }
    ]
  },
  {
    "postal": "N6K5B3",
    "result": [
      {
        "electoralDistricts": [
          {
            "election": null,
            "id": 55,
            "name": "London West"
          }
        ],
        "pollDivisionIds": [
          10139638
        ],
        "postalCode": "N6K5B3",
        "streetName": "APRICOT",
        "streetDirectionId": null,
        "streetTypeId": "DR",
        "placeName": "LONDON",
        "streetNameDisplayText": "APRICOT DR, LONDON"
      }
    ]
  },
  {
    "postal": "N6K1S7",
    "result": [
      {
        "electoralDistricts": [
          {
            "election": null,
            "id": 55,
            "name": "London West"
          }
        ],
        "pollDivisionIds": [
          10139643
        ],
        "postalCode": "N6K1S7",
        "streetName": "FARNHAM",
        "streetDirectionId": null,
        "streetTypeId": "GROVE",
        "placeName": "LONDON",
        "streetNameDisplayText": "FARNHAM GROVE, LONDON"
      }
    ]
  },
  {
    "postal": "N6K2N7",
    "result": [
      {
        "electoralDistricts": [
          {
            "election": null,
            "id": 55,
            "name": "London West"
          }
        ],
        "pollDivisionIds": [
          10139637
        ],
        "postalCode": "N6K2N7",
        "streetName": "BLAKE",
        "streetDirectionId": null,
        "streetTypeId": "ST",
        "placeName": "LONDON",
        "streetNameDisplayText": "BLAKE ST, LONDON"
      }
    ]
  },
  {
    "postal": "N6K0H8",
    "result": [
      {
        "electoralDistricts": [
          {
            "election": null,
            "id": 55,
            "name": "London West"
          }
        ],
        "pollDivisionIds": [
          10139637
        ],
        "postalCode": "N6K0H8",
        "streetName": "BRAYFORD",
        "streetDirectionId": null,
        "streetTypeId": "CRES",
        "placeName": "LONDON",
        "streetNameDisplayText": "BRAYFORD CRES, LONDON"
      },
      {
        "electoralDistricts": [
          {
            "election": null,
            "id": 55,
            "name": "London West"
          }
        ],
        "pollDivisionIds": [
          10139637
        ],
        "postalCode": "N6K0H8",
        "streetName": "IRONWOOD",
        "streetDirectionId": null,
        "streetTypeId": "RD",
        "placeName": "LONDON",
        "streetNameDisplayText": "IRONWOOD RD, LONDON"
      },
      {
        "electoralDistricts": [
          {
            "election": null,
            "id": 55,
            "name": "London West"
          }
        ],
        "pollDivisionIds": [
          10139637
        ],
        "postalCode": "N6K0H8",
        "streetName": "TYSON",
        "streetDirectionId": null,
        "streetTypeId": "WALK",
        "placeName": "LONDON",
        "streetNameDisplayText": "TYSON WALK, LONDON"
      }
    ]
  },
  {
    "postal": "N6K7Z4",
    "result": []
  },
  {
    "postal": "N6K7B1",
    "result": []
  },
  {
    "postal": "N6K7P8",
    "result": []
  },
  {
    "postal": "N6K7N0",
    "result": []
  },
  {
    "postal": "N6K3Y5",
    "result": [
      {
        "electoralDistricts": [
          {
            "election": null,
            "id": 55,
            "name": "London West"
          },
          {
            "election": null,
            "id": 54,
            "name": "London North Centre"
          }
        ],
        "pollDivisionIds": [
          10139638,
          10135344
        ],
        "postalCode": "N6K3Y5",
        "streetName": "GRIFFITH",
        "streetDirectionId": null,
        "streetTypeId": "ST",
        "placeName": "LONDON",
        "streetNameDisplayText": "GRIFFITH ST, LONDON"
      }
    ]
  },
  {
    "postal": "N6K6K1",
    "result": []
  },
  {
    "postal": "N6K9X5",
    "result": []
  },
  {
    "postal": "N6K7S5",
    "result": []
  },
  {
    "postal": "N6K0A4",
    "result": [
      {
        "electoralDistricts": [
          {
            "election": null,
            "id": 55,
            "name": "London West"
          }
        ],
        "pollDivisionIds": [
          10139615
        ],
        "postalCode": "N6K0A4",
        "streetName": "LADYSLIPPER",
        "streetDirectionId": null,
        "streetTypeId": "CRES",
        "placeName": "LONDON",
        "streetNameDisplayText": "LADYSLIPPER CRES, LONDON"
      },
      {
        "electoralDistricts": [
          {
            "election": null,
            "id": 55,
            "name": "London West"
          }
        ],
        "pollDivisionIds": [
          10139615
        ],
        "postalCode": "N6K0A4",
        "streetName": "RIVERBEND",
        "streetDirectionId": null,
        "streetTypeId": "RD",
        "placeName": "LONDON",
        "streetNameDisplayText": "RIVERBEND RD, LONDON"
      }
    ]
  },
  {
    "postal": "N6K4T5",
    "result": [
      {
        "electoralDistricts": [
          {
            "election": null,
            "id": 55,
            "name": "London West"
          }
        ],
        "pollDivisionIds": [
          10139617
        ],
        "postalCode": "N6K4T5",
        "streetName": "CADEAU",
        "streetDirectionId": null,
        "streetTypeId": "TERR",
        "placeName": "LONDON",
        "streetNameDisplayText": "CADEAU TERR, LONDON"
      },
      {
        "electoralDistricts": [
          {
            "election": null,
            "id": 55,
            "name": "London West"
          }
        ],
        "pollDivisionIds": [
          10139617
        ],
        "postalCode": "N6K4T5",
        "streetName": "CADEAU TERRACE",
        "streetDirectionId": null,
        "streetTypeId": "TERR",
        "placeName": "LONDON",
        "streetNameDisplayText": "CADEAU TERRACE TERR, LONDON"
      }
    ]
  },
  {
    "postal": "N6K5K1",
    "result": []
  },
  {
    "postal": "N6K0Z9",
    "result": []
  },
  {
    "postal": "N6K7T2",
    "result": []
  },
  {
    "postal": "N6K1L5",
    "result": [
      {
        "electoralDistricts": [
          {
            "election": null,
            "id": 55,
            "name": "London West"
          }
        ],
        "pollDivisionIds": [
          10139619
        ],
        "postalCode": "N6K1L5",
        "streetName": "WONDERLAND",
        "streetDirectionId": "S",
        "streetTypeId": "RD",
        "placeName": "LONDON",
        "streetNameDisplayText": "WONDERLAND RD S, LONDON"
      }
    ]
  },
  {
    "postal": "N6K3N5",
    "result": [
      {
        "electoralDistricts": [
          {
            "election": null,
            "id": 55,
            "name": "London West"
          }
        ],
        "pollDivisionIds": [
          10139617
        ],
        "postalCode": "N6K3N5",
        "streetName": "COMMISSIONERS",
        "streetDirectionId": "W",
        "streetTypeId": "RD",
        "placeName": "LONDON",
        "streetNameDisplayText": "COMMISSIONERS RD W, LONDON"
      }
    ]
  },
  {
    "postal": "N6K6H4",
    "result": []
  },
  {
    "postal": "N6K5A5",
    "result": [
      {
        "electoralDistricts": [
          {
            "election": null,
            "id": 55,
            "name": "London West"
          }
        ],
        "pollDivisionIds": [
          10139638
        ],
        "postalCode": "N6K5A5",
        "streetName": "APRICOT",
        "streetDirectionId": null,
        "streetTypeId": "PL",
        "placeName": "LONDON",
        "streetNameDisplayText": "APRICOT PL, LONDON"
      },
      {
        "electoralDistricts": [
          {
            "election": null,
            "id": 55,
            "name": "London West"
          }
        ],
        "pollDivisionIds": [
          10139638
        ],
        "postalCode": "N6K5A5",
        "streetName": "CHERRYHAVEN",
        "streetDirectionId": null,
        "streetTypeId": "DR",
        "placeName": "LONDON",
        "streetNameDisplayText": "CHERRYHAVEN DR, LONDON"
      }
    ]
  },
  {
    "postal": "N6K3R9",
    "result": [
      {
        "electoralDistricts": [
          {
            "election": null,
            "id": 55,
            "name": "London West"
          }
        ],
        "pollDivisionIds": [
          10139638
        ],
        "postalCode": "N6K3R9",
        "streetName": "BOLER",
        "streetDirectionId": null,
        "streetTypeId": "RD",
        "placeName": "LONDON",
        "streetNameDisplayText": "BOLER RD, LONDON"
      }
    ]
  },
  {
    "postal": "N6K7L8",
    "result": []
  },
  {
    "postal": "N6K6T6",
    "result": []
  },
  {
    "postal": "N6K7Y7",
    "result": []
  },
  {
    "postal": "N6K3M8",
    "result": [
      {
        "electoralDistricts": [
          {
            "election": null,
            "id": 55,
            "name": "London West"
          }
        ],
        "pollDivisionIds": [
          10139638
        ],
        "postalCode": "N6K3M8",
        "streetName": "SOMERSET",
        "streetDirectionId": null,
        "streetTypeId": "RD",
        "placeName": "LONDON",
        "streetNameDisplayText": "SOMERSET RD, LONDON"
      }
    ]
  },
  {
    "postal": "N6K2E0",
    "result": []
  },
  {
    "postal": "N6K4B5",
    "result": [
      {
        "electoralDistricts": [
          {
            "election": null,
            "id": 55,
            "name": "London West"
          }
        ],
        "pollDivisionIds": [
          10139618
        ],
        "postalCode": "N6K4B5",
        "streetName": "CAMROSE",
        "streetDirectionId": null,
        "streetTypeId": "CRT",
        "placeName": "LONDON",
        "streetNameDisplayText": "CAMROSE CRT, LONDON"
      },
      {
        "electoralDistricts": [
          {
            "election": null,
            "id": 55,
            "name": "London West"
          }
        ],
        "pollDivisionIds": [
          10139618
        ],
        "postalCode": "N6K4B5",
        "streetName": "TIMBER",
        "streetDirectionId": null,
        "streetTypeId": "DR",
        "placeName": "LONDON",
        "streetNameDisplayText": "TIMBER DR, LONDON"
      }
    ]
  },
  {
    "postal": "N6K1J3",
    "result": [
      {
        "electoralDistricts": [
          {
            "election": null,
            "id": 55,
            "name": "London West"
          }
        ],
        "pollDivisionIds": [
          10139640
        ],
        "postalCode": "N6K1J3",
        "streetName": "MCMASTER",
        "streetDirectionId": null,
        "streetTypeId": "DR",
        "placeName": "LONDON",
        "streetNameDisplayText": "MCMASTER DR, LONDON"
      }
    ]
  },
  {
    "postal": "N6K5S6",
    "result": []
  },
  {
    "postal": "N6K8P7",
    "result": []
  },
  {
    "postal": "N6K7S7",
    "result": []
  },
  {
    "postal": "N6K4C2",
    "result": [
      {
        "electoralDistricts": [
          {
            "election": null,
            "id": 55,
            "name": "London West"
          }
        ],
        "pollDivisionIds": [
          10139638
        ],
        "postalCode": "N6K4C2",
        "streetName": "SUMMERDALE",
        "streetDirectionId": null,
        "streetTypeId": "CRES",
        "placeName": "LONDON",
        "streetNameDisplayText": "SUMMERDALE CRES, LONDON"
      },
      {
        "electoralDistricts": [
          {
            "election": null,
            "id": 55,
            "name": "London West"
          }
        ],
        "pollDivisionIds": [
          10139638
        ],
        "postalCode": "N6K4C2",
        "streetName": "WHISPERWOOD",
        "streetDirectionId": null,
        "streetTypeId": "AVE",
        "placeName": "LONDON",
        "streetNameDisplayText": "WHISPERWOOD AVE, LONDON"
      }
    ]
  },
  {
    "postal": "N6K5Y0",
    "result": []
  },
  {
    "postal": "N6K2V7",
    "result": [
      {
        "electoralDistricts": [
          {
            "election": null,
            "id": 55,
            "name": "London West"
          }
        ],
        "pollDivisionIds": [
          10139618
        ],
        "postalCode": "N6K2V7",
        "streetName": "BYRON BASELINE",
        "streetDirectionId": null,
        "streetTypeId": "RD",
        "placeName": "LONDON",
        "streetNameDisplayText": "BYRON BASELINE RD, LONDON"
      }
    ]
  },
  {
    "postal": "N6K8P5",
    "result": []
  },
  {
    "postal": "N6K5P5",
    "result": []
  },
  {
    "postal": "N6K5Z0",
    "result": []
  },
  {
    "postal": "N6K9B0",
    "result": []
  },
  {
    "postal": "N6K1L0",
    "result": []
  },
  {
    "postal": "N6K0B5",
    "result": [
      {
        "electoralDistricts": [
          {
            "election": null,
            "id": 55,
            "name": "London West"
          }
        ],
        "pollDivisionIds": [
          10139641
        ],
        "postalCode": "N6K0B5",
        "streetName": "LONGWORTH",
        "streetDirectionId": null,
        "streetTypeId": "RD",
        "placeName": "LONDON",
        "streetNameDisplayText": "LONGWORTH RD, LONDON"
      },
      {
        "electoralDistricts": [
          {
            "election": null,
            "id": 55,
            "name": "London West"
          }
        ],
        "pollDivisionIds": [
          10139641
        ],
        "postalCode": "N6K0B5",
        "streetName": "THISTLERIDGE",
        "streetDirectionId": null,
        "streetTypeId": "CRES",
        "placeName": "LONDON",
        "streetNameDisplayText": "THISTLERIDGE CRES, LONDON"
      }
    ]
  },
  {
    "postal": "N6K3L2",
    "result": [
      {
        "electoralDistricts": [
          {
            "election": null,
            "id": 55,
            "name": "London West"
          }
        ],
        "pollDivisionIds": [
          10139638
        ],
        "postalCode": "N6K3L2",
        "streetName": "FOURWINDS",
        "streetDirectionId": null,
        "streetTypeId": "RD",
        "placeName": "LONDON",
        "streetNameDisplayText": "FOURWINDS RD, LONDON"
      }
    ]
  },
  {
    "postal": "N6K3B7",
    "result": [
      {
        "electoralDistricts": [
          {
            "election": null,
            "id": 55,
            "name": "London West"
          }
        ],
        "pollDivisionIds": [
          10139637
        ],
        "postalCode": "N6K3B7",
        "streetName": "WIDDICOMB",
        "streetDirectionId": null,
        "streetTypeId": "CRES",
        "placeName": "LONDON",
        "streetNameDisplayText": "WIDDICOMB CRES, LONDON"
      }
    ]
  },
  {
    "postal": "N6K8L1",
    "result": []
  },
  {
    "postal": "N6K5M4",
    "result": []
  },
  {
    "postal": "N6K4G9",
    "result": [
      {
        "electoralDistricts": [
          {
            "election": null,
            "id": 55,
            "name": "London West"
          }
        ],
        "pollDivisionIds": [
          10139617
        ],
        "postalCode": "N6K4G9",
        "streetName": "COMMISSIONERS",
        "streetDirectionId": "W",
        "streetTypeId": "RD",
        "placeName": "LONDON",
        "streetNameDisplayText": "COMMISSIONERS RD W, LONDON"
      }
    ]
  },
  {
    "postal": "N6K0P0",
    "result": []
  },
  {
    "postal": "N6K8G2",
    "result": []
  },
  {
    "postal": "N6K1V9",
    "result": [
      {
        "electoralDistricts": [
          {
            "election": null,
            "id": 55,
            "name": "London West"
          }
        ],
        "pollDivisionIds": [
          10139642
        ],
        "postalCode": "N6K1V9",
        "streetName": "KINNEAR",
        "streetDirectionId": null,
        "streetTypeId": "CRES",
        "placeName": "LONDON",
        "streetNameDisplayText": "KINNEAR CRES, LONDON"
      }
    ]
  },
  {
    "postal": "N6K8N8",
    "result": []
  },
  {
    "postal": "N6K6S8",
    "result": []
  },
  {
    "postal": "N6K8H2",
    "result": []
  },
  {
    "postal": "N6K5R8",
    "result": []
  },
  {
    "postal": "N6K5L4",
    "result": []
  },
  {
    "postal": "N6K9E1",
    "result": []
  },
  {
    "postal": "N6K1C4",
    "result": [
      {
        "electoralDistricts": [
          {
            "election": null,
            "id": 55,
            "name": "London West"
          }
        ],
        "pollDivisionIds": [
          10139617
        ],
        "postalCode": "N6K1C4",
        "streetName": "COMMISSIONERS",
        "streetDirectionId": "W",
        "streetTypeId": "RD",
        "placeName": "LONDON",
        "streetNameDisplayText": "COMMISSIONERS RD W, LONDON"
      }
    ]
  },
  {
    "postal": "N6K8W5",
    "result": []
  },
  {
    "postal": "N6K1Y4",
    "result": [
      {
        "electoralDistricts": [
          {
            "election": null,
            "id": 55,
            "name": "London West"
          }
        ],
        "pollDivisionIds": [
          10139616
        ],
        "postalCode": "N6K1Y4",
        "streetName": "WOODBINE",
        "streetDirectionId": null,
        "streetTypeId": "ST",
        "placeName": "LONDON",
        "streetNameDisplayText": "WOODBINE ST, LONDON"
      }
    ]
  },
  {
    "postal": "N6K1C0",
    "result": []
  },
  {
    "postal": "N6K2J2",
    "result": [
      {
        "electoralDistricts": [
          {
            "election": null,
            "id": 55,
            "name": "London West"
          }
        ],
        "pollDivisionIds": [
          10139617
        ],
        "postalCode": "N6K2J2",
        "streetName": "LANSING",
        "streetDirectionId": null,
        "streetTypeId": "AVE",
        "placeName": "LONDON",
        "streetNameDisplayText": "LANSING AVE, LONDON"
      }
    ]
  },
  {
    "postal": "N6K2J0",
    "result": []
  },
  {
    "postal": "N6K7A3",
    "result": []
  },
  {
    "postal": "N6K8M1",
    "result": []
  },
  {
    "postal": "N6K7T9",
    "result": []
  },
  {
    "postal": "N6K6C0",
    "result": []
  },
  {
    "postal": "N6K7X1",
    "result": []
  },
  {
    "postal": "N6K0G1",
    "result": [
      {
        "electoralDistricts": [
          {
            "election": null,
            "id": 26,
            "name": "Elginâ€”Middlesexâ€”London"
          }
        ],
        "pollDivisionIds": [
          10137957
        ],
        "postalCode": "N6K0G1",
        "streetName": "SUMAC WAY",
        "streetDirectionId": null,
        "streetTypeId": "WAY",
        "placeName": "LONDON",
        "streetNameDisplayText": "SUMAC WAY WAY, LONDON"
      },
      {
        "electoralDistricts": [
          {
            "election": null,
            "id": 55,
            "name": "London West"
          }
        ],
        "pollDivisionIds": [
          10139615
        ],
        "postalCode": "N6K0G1",
        "streetName": "SUMAC",
        "streetDirectionId": null,
        "streetTypeId": "WAY",
        "placeName": "LONDON",
        "streetNameDisplayText": "SUMAC WAY, LONDON"
      }
    ]
  },
  {
    "postal": "N6K4X2",
    "result": [
      {
        "electoralDistricts": [
          {
            "election": null,
            "id": 55,
            "name": "London West"
          }
        ],
        "pollDivisionIds": [
          10139637
        ],
        "postalCode": "N6K4X2",
        "streetName": "BIRCHWOOD",
        "streetDirectionId": null,
        "streetTypeId": "DR",
        "placeName": "LONDON",
        "streetNameDisplayText": "BIRCHWOOD DR, LONDON"
      },
      {
        "electoralDistricts": [
          {
            "election": null,
            "id": 55,
            "name": "London West"
          }
        ],
        "pollDivisionIds": [
          10139637
        ],
        "postalCode": "N6K4X2",
        "streetName": "BRAMBLEWOOD",
        "streetDirectionId": null,
        "streetTypeId": "ST",
        "placeName": "LONDON",
        "streetNameDisplayText": "BRAMBLEWOOD ST, LONDON"
      }
    ]
  },
  {
    "postal": "N6K0N6",
    "result": []
  },
  {
    "postal": "N6K8E3",
    "result": []
  },
  {
    "postal": "N6K5S8",
    "result": []
  },
  {
    "postal": "N6K0R0",
    "result": []
  },
  {
    "postal": "N6K6J6",
    "result": []
  },
  {
    "postal": "N6K4B4",
    "result": [
      {
        "electoralDistricts": [
          {
            "election": null,
            "id": 55,
            "name": "London West"
          }
        ],
        "pollDivisionIds": [
          10139618
        ],
        "postalCode": "N6K4B4",
        "streetName": "CAMROSE",
        "streetDirectionId": null,
        "streetTypeId": "CRT",
        "placeName": "LONDON",
        "streetNameDisplayText": "CAMROSE CRT, LONDON"
      },
      {
        "electoralDistricts": [
          {
            "election": null,
            "id": 55,
            "name": "London West"
          }
        ],
        "pollDivisionIds": [
          10139618
        ],
        "postalCode": "N6K4B4",
        "streetName": "TIMBER",
        "streetDirectionId": null,
        "streetTypeId": "DR",
        "placeName": "LONDON",
        "streetNameDisplayText": "TIMBER DR, LONDON"
      }
    ]
  },
  {
    "postal": "N6K7E3",
    "result": []
  },
  {
    "postal": "N6K3N6",
    "result": [
      {
        "electoralDistricts": [
          {
            "election": null,
            "id": 55,
            "name": "London West"
          }
        ],
        "pollDivisionIds": [
          10139638
        ],
        "postalCode": "N6K3N6",
        "streetName": "GRIFFITH",
        "streetDirectionId": null,
        "streetTypeId": "ST",
        "placeName": "LONDON",
        "streetNameDisplayText": "GRIFFITH ST, LONDON"
      }
    ]
  },
  {
    "postal": "N6K3X6",
    "result": [
      {
        "electoralDistricts": [
          {
            "election": null,
            "id": 55,
            "name": "London West"
          }
        ],
        "pollDivisionIds": [
          10139619
        ],
        "postalCode": "N6K3X6",
        "streetName": "ROSECLIFFE",
        "streetDirectionId": null,
        "streetTypeId": "CRES",
        "placeName": "LONDON",
        "streetNameDisplayText": "ROSECLIFFE CRES, LONDON"
      }
    ]
  },
  {
    "postal": "N6K8L0",
    "result": []
  },
  {
    "postal": "N6K8N1",
    "result": []
  },
  {
    "postal": "N6K4J0",
    "result": []
  },
  {
    "postal": "N6K0X7",
    "result": []
  },
  {
    "postal": "N6K6S4",
    "result": []
  },
  {
    "postal": "N6K0Z0",
    "result": []
  },
  {
    "postal": "N6K9X8",
    "result": []
  },
  {
    "postal": "N6K3H3",
    "result": [
      {
        "electoralDistricts": [
          {
            "election": null,
            "id": 55,
            "name": "London West"
          }
        ],
        "pollDivisionIds": [
          10139636
        ],
        "postalCode": "N6K3H3",
        "streetName": "SKI VALLEY",
        "streetDirectionId": null,
        "streetTypeId": "CRES",
        "placeName": "LONDON",
        "streetNameDisplayText": "SKI VALLEY CRES, LONDON"
      }
    ]
  },
  {
    "postal": "N6K7S2",
    "result": []
  },
  {
    "postal": "N6K3T3",
    "result": [
      {
        "electoralDistricts": [
          {
            "election": null,
            "id": 55,
            "name": "London West"
          }
        ],
        "pollDivisionIds": [
          10139620
        ],
        "postalCode": "N6K3T3",
        "streetName": "WONDERLAND",
        "streetDirectionId": "S",
        "streetTypeId": "RD",
        "placeName": "LONDON",
        "streetNameDisplayText": "WONDERLAND RD S, LONDON"
      }
    ]
  },
  {
    "postal": "N6K9P3",
    "result": []
  },
  {
    "postal": "N6K4H8",
    "result": [
      {
        "electoralDistricts": [
          {
            "election": null,
            "id": 55,
            "name": "London West"
          }
        ],
        "pollDivisionIds": [
          10139617
        ],
        "postalCode": "N6K4H8",
        "streetName": "COMMISSIONERS",
        "streetDirectionId": "W",
        "streetTypeId": "RD",
        "placeName": "LONDON",
        "streetNameDisplayText": "COMMISSIONERS RD W, LONDON"
      }
    ]
  },
  {
    "postal": "N6K6R1",
    "result": []
  },
  {
    "postal": "N6K1S0",
    "result": []
  },
  {
    "postal": "N6K3W8",
    "result": []
  },
  {
    "postal": "N6K4S3",
    "result": []
  },
  {
    "postal": "N6K1B6",
    "result": [
      {
        "electoralDistricts": [
          {
            "election": null,
            "id": 55,
            "name": "London West"
          }
        ],
        "pollDivisionIds": [
          10139619
        ],
        "postalCode": "N6K1B6",
        "streetName": "COMMISSIONERS",
        "streetDirectionId": "W",
        "streetTypeId": "RD",
        "placeName": "LONDON",
        "streetNameDisplayText": "COMMISSIONERS RD W, LONDON"
      }
    ]
  },
  {
    "postal": "N6K8R3",
    "result": []
  },
  {
    "postal": "N6K4V9",
    "result": [
      {
        "electoralDistricts": [
          {
            "election": null,
            "id": 55,
            "name": "London West"
          }
        ],
        "pollDivisionIds": [
          10139641
        ],
        "postalCode": "N6K4V9",
        "streetName": "CRANBROOK",
        "streetDirectionId": null,
        "streetTypeId": "RD",
        "placeName": "LONDON",
        "streetNameDisplayText": "CRANBROOK RD, LONDON"
      }
    ]
  },
  {
    "postal": "N6K9W4",
    "result": []
  },
  {
    "postal": "N6K3T4",
    "result": [
      {
        "electoralDistricts": [
          {
            "election": null,
            "id": 55,
            "name": "London West"
          }
        ],
        "pollDivisionIds": [
          10139636
        ],
        "postalCode": "N6K3T4",
        "streetName": "FAIRLANE",
        "streetDirectionId": null,
        "streetTypeId": "AVE",
        "placeName": "LONDON",
        "streetNameDisplayText": "FAIRLANE AVE, LONDON"
      }
    ]
  },
  {
    "postal": "N6K5C7",
    "result": [
      {
        "electoralDistricts": [
          {
            "election": null,
            "id": 55,
            "name": "London West"
          }
        ],
        "pollDivisionIds": [
          10139636
        ],
        "postalCode": "N6K5C7",
        "streetName": "DOGWOOD",
        "streetDirectionId": null,
        "streetTypeId": "CRES",
        "placeName": "LONDON",
        "streetNameDisplayText": "DOGWOOD CRES, LONDON"
      },
      {
        "electoralDistricts": [
          {
            "election": null,
            "id": 55,
            "name": "London West"
          }
        ],
        "pollDivisionIds": [
          10139636
        ],
        "postalCode": "N6K5C7",
        "streetName": "IRONWOOD",
        "streetDirectionId": null,
        "streetTypeId": "RD",
        "placeName": "LONDON",
        "streetNameDisplayText": "IRONWOOD RD, LONDON"
      }
    ]
  },
  {
    "postal": "N6K3Y1",
    "result": [
      {
        "electoralDistricts": [
          {
            "election": null,
            "id": 55,
            "name": "London West"
          }
        ],
        "pollDivisionIds": [
          10139619
        ],
        "postalCode": "N6K3Y1",
        "streetName": "ROSECLIFFE",
        "streetDirectionId": null,
        "streetTypeId": "CRES",
        "placeName": "LONDON",
        "streetNameDisplayText": "ROSECLIFFE CRES, LONDON"
      },
      {
        "electoralDistricts": [
          {
            "election": null,
            "id": 55,
            "name": "London West"
          }
        ],
        "pollDivisionIds": [
          10139619
        ],
        "postalCode": "N6K3Y1",
        "streetName": "ROSECLIFFE",
        "streetDirectionId": null,
        "streetTypeId": "TERR",
        "placeName": "LONDON",
        "streetNameDisplayText": "ROSECLIFFE TERR, LONDON"
      }
    ]
  },
  {
    "postal": "N6K5V0",
    "result": []
  },
  {
    "postal": "N6K8G8",
    "result": []
  },
  {
    "postal": "N6K8B1",
    "result": []
  },
  {
    "postal": "N6K4P5",
    "result": [
      {
        "electoralDistricts": [
          {
            "election": null,
            "id": 55,
            "name": "London West"
          }
        ],
        "pollDivisionIds": [
          10139615
        ],
        "postalCode": "N6K4P5",
        "streetName": "KAINS",
        "streetDirectionId": null,
        "streetTypeId": "RD",
        "placeName": "LONDON",
        "streetNameDisplayText": "KAINS RD, LONDON"
      }
    ]
  },
  {
    "postal": "N6K7B2",
    "result": []
  },
  {
    "postal": "N6K0R2",
    "result": []
  },
  {
    "postal": "N6K4M4",
    "result": [
      {
        "electoralDistricts": [
          {
            "election": null,
            "id": 55,
            "name": "London West"
          }
        ],
        "pollDivisionIds": [
          10139638
        ],
        "postalCode": "N6K4M4",
        "streetName": "COLONEL TALBOT",
        "streetDirectionId": null,
        "streetTypeId": "RD",
        "placeName": "LONDON",
        "streetNameDisplayText": "COLONEL TALBOT RD, LONDON"
      }
    ]
  },
  {
    "postal": "N6K7M4",
    "result": []
  },
  {
    "postal": "N6K9S7",
    "result": []
  },
  {
    "postal": "N6K5Z7",
    "result": []
  },
  {
    "postal": "N6K7J7",
    "result": []
  },
  {
    "postal": "N6K8R8",
    "result": []
  },
  {
    "postal": "N6K9X1",
    "result": []
  },
  {
    "postal": "N6K5M9",
    "result": []
  },
  {
    "postal": "N6K9B4",
    "result": []
  },
  {
    "postal": "N6K0L9",
    "result": []
  },
  {
    "postal": "N6K9G4",
    "result": []
  },
  {
    "postal": "N6K1J4",
    "result": [
      {
        "electoralDistricts": [
          {
            "election": null,
            "id": 55,
            "name": "London West"
          }
        ],
        "pollDivisionIds": [
          10139643
        ],
        "postalCode": "N6K1J4",
        "streetName": "MCMASTER",
        "streetDirectionId": null,
        "streetTypeId": "DR",
        "placeName": "LONDON",
        "streetNameDisplayText": "MCMASTER DR, LONDON"
      }
    ]
  },
  {
    "postal": "N6K0W6",
    "result": []
  }
]
