[
  {
    "postal": "L1E9J6",
    "result": []
  },
  {
    "postal": "L1E9Z5",
    "result": []
  },
  {
    "postal": "L1E7H8",
    "result": []
  },
  {
    "postal": "L1E0P6",
    "result": []
  },
  {
    "postal": "L1E0S7",
    "result": []
  },
  {
    "postal": "L1E8B9",
    "result": []
  },
  {
    "postal": "L1E2A6",
    "result": [
      {
        "electoralDistricts": [
          {
            "election": null,
            "id": 24,
            "name": "Durham"
          }
        ],
        "pollDivisionIds": [
          10137846
        ],
        "postalCode": "L1E2A6",
        "streetName": "YORKVILLE",
        "streetDirectionId": null,
        "streetTypeId": "DR",
        "placeName": "COURTICE",
        "streetNameDisplayText": "YORKVILLE DR, COURTICE"
      }
    ]
  },
  {
    "postal": "L1E7V2",
    "result": []
  },
  {
    "postal": "L1E9P4",
    "result": []
  },
  {
    "postal": "L1E6G0",
    "result": []
  },
  {
    "postal": "L1E2K0",
    "result": []
  },
  {
    "postal": "L1E7N6",
    "result": []
  },
  {
    "postal": "L1E5R3",
    "result": []
  },
  {
    "postal": "L1E7K0",
    "result": []
  },
  {
    "postal": "L1E3R2",
    "result": []
  },
  {
    "postal": "L1E0J1",
    "result": [
      {
        "electoralDistricts": [
          {
            "election": null,
            "id": 24,
            "name": "Durham"
          }
        ],
        "pollDivisionIds": [
          10137839
        ],
        "postalCode": "L1E0J1",
        "streetName": "MAHAFFY",
        "streetDirectionId": null,
        "streetTypeId": "PL",
        "placeName": "COURTICE",
        "streetNameDisplayText": "MAHAFFY PL, COURTICE"
      },
      {
        "electoralDistricts": [
          {
            "election": null,
            "id": 24,
            "name": "Durham"
          }
        ],
        "pollDivisionIds": [
          10137839
        ],
        "postalCode": "L1E0J1",
        "streetName": "VARCOE",
        "streetDirectionId": null,
        "streetTypeId": "RD",
        "placeName": "COURTICE",
        "streetNameDisplayText": "VARCOE RD, COURTICE"
      }
    ]
  },
  {
    "postal": "L1E0B0",
    "result": []
  },
  {
    "postal": "L1E5Z2",
    "result": []
  },
  {
    "postal": "L1E7P3",
    "result": []
  },
  {
    "postal": "L1E2K3",
    "result": [
      {
        "electoralDistricts": [
          {
            "election": null,
            "id": 24,
            "name": "Durham"
          }
        ],
        "pollDivisionIds": [
          10137839
        ],
        "postalCode": "L1E2K3",
        "streetName": "LAWSON",
        "streetDirectionId": null,
        "streetTypeId": "RD",
        "placeName": "COURTICE",
        "streetNameDisplayText": "LAWSON RD, COURTICE"
      },
      {
        "electoralDistricts": [
          {
            "election": null,
            "id": 24,
            "name": "Durham"
          }
        ],
        "pollDivisionIds": [
          10137839
        ],
        "postalCode": "L1E2K3",
        "streetName": "TOWNLINE",
        "streetDirectionId": "N",
        "streetTypeId": "RD",
        "placeName": "COURTICE",
        "streetNameDisplayText": "TOWNLINE RD N, COURTICE"
      }
    ]
  },
  {
    "postal": "L1E7Y6",
    "result": []
  },
  {
    "postal": "L1E1L9",
    "result": [
      {
        "electoralDistricts": [
          {
            "election": null,
            "id": 24,
            "name": "Durham"
          }
        ],
        "pollDivisionIds": [
          10137839
        ],
        "postalCode": "L1E1L9",
        "streetName": "HARTSFIELD",
        "streetDirectionId": null,
        "streetTypeId": "DR",
        "placeName": "COURTICE",
        "streetNameDisplayText": "HARTSFIELD DR, COURTICE"
      },
      {
        "electoralDistricts": [
          {
            "election": null,
            "id": 24,
            "name": "Durham"
          }
        ],
        "pollDivisionIds": [
          10137839
        ],
        "postalCode": "L1E1L9",
        "streetName": "SPRINGFIELD",
        "streetDirectionId": null,
        "streetTypeId": "LANE",
        "placeName": "COURTICE",
        "streetNameDisplayText": "SPRINGFIELD LANE, COURTICE"
      }
    ]
  },
  {
    "postal": "L1E8T0",
    "result": []
  },
  {
    "postal": "L1E3K8",
    "result": []
  },
  {
    "postal": "L1E5W9",
    "result": []
  },
  {
    "postal": "L1E6T9",
    "result": []
  },
  {
    "postal": "L1E4H1",
    "result": []
  },
  {
    "postal": "L1E7A2",
    "result": []
  },
  {
    "postal": "L1E5G0",
    "result": []
  },
  {
    "postal": "L1E8V5",
    "result": []
  },
  {
    "postal": "L1E2Y8",
    "result": [
      {
        "electoralDistricts": [
          {
            "election": null,
            "id": 24,
            "name": "Durham"
          }
        ],
        "pollDivisionIds": [
          10137841
        ],
        "postalCode": "L1E2Y8",
        "streetName": "AVONDALE",
        "streetDirectionId": null,
        "streetTypeId": "DR",
        "placeName": "COURTICE",
        "streetNameDisplayText": "AVONDALE DR, COURTICE"
      }
    ]
  },
  {
    "postal": "L1E2B6",
    "result": [
      {
        "electoralDistricts": [
          {
            "election": null,
            "id": 24,
            "name": "Durham"
          }
        ],
        "pollDivisionIds": [
          10137844,
          10137843
        ],
        "postalCode": "L1E2B6",
        "streetName": "GLENABBEY",
        "streetDirectionId": null,
        "streetTypeId": "DR",
        "placeName": "COURTICE",
        "streetNameDisplayText": "GLENABBEY DR, COURTICE"
      }
    ]
  },
  {
    "postal": "L1E4W8",
    "result": []
  },
  {
    "postal": "L1E8H7",
    "result": []
  },
  {
    "postal": "L1E5P1",
    "result": []
  },
  {
    "postal": "L1E2B8",
    "result": [
      {
        "electoralDistricts": [
          {
            "election": null,
            "id": 24,
            "name": "Durham"
          }
        ],
        "pollDivisionIds": [
          10137843,
          10137844
        ],
        "postalCode": "L1E2B8",
        "streetName": "AUBURN",
        "streetDirectionId": null,
        "streetTypeId": "LANE",
        "placeName": "COURTICE",
        "streetNameDisplayText": "AUBURN LANE, COURTICE"
      },
      {
        "electoralDistricts": [
          {
            "election": null,
            "id": 24,
            "name": "Durham"
          }
        ],
        "pollDivisionIds": [
          10137843,
          10137844
        ],
        "postalCode": "L1E2B8",
        "streetName": "NEWPORT",
        "streetDirectionId": null,
        "streetTypeId": "AVE",
        "placeName": "COURTICE",
        "streetNameDisplayText": "NEWPORT AVE, COURTICE"
      }
    ]
  },
  {
    "postal": "L1E0P2",
    "result": []
  },
  {
    "postal": "L1E9M1",
    "result": []
  },
  {
    "postal": "L1E3G0",
    "result": []
  },
  {
    "postal": "L1E9Z2",
    "result": []
  },
  {
    "postal": "L1E2A0",
    "result": []
  },
  {
    "postal": "L1E6Y0",
    "result": []
  },
  {
    "postal": "L1E2Z8",
    "result": [
      {
        "electoralDistricts": [
          {
            "election": null,
            "id": 24,
            "name": "Durham"
          }
        ],
        "pollDivisionIds": [
          10137841
        ],
        "postalCode": "L1E2Z8",
        "streetName": "BUSHFORD",
        "streetDirectionId": null,
        "streetTypeId": "ST",
        "placeName": "COURTICE",
        "streetNameDisplayText": "BUSHFORD ST, COURTICE"
      }
    ]
  },
  {
    "postal": "L1E7Y3",
    "result": []
  },
  {
    "postal": "L1E6Z5",
    "result": []
  },
  {
    "postal": "L1E6E0",
    "result": []
  },
  {
    "postal": "L1E9B7",
    "result": []
  },
  {
    "postal": "L1E9S5",
    "result": []
  },
  {
    "postal": "L1E3X3",
    "result": []
  },
  {
    "postal": "L1E7R5",
    "result": []
  },
  {
    "postal": "L1E2X3",
    "result": [
      {
        "electoralDistricts": [
          {
            "election": null,
            "id": 24,
            "name": "Durham"
          }
        ],
        "pollDivisionIds": [
          10137846
        ],
        "postalCode": "L1E2X3",
        "streetName": "FIELDCREST",
        "streetDirectionId": null,
        "streetTypeId": "AVE",
        "placeName": "COURTICE",
        "streetNameDisplayText": "FIELDCREST AVE, COURTICE"
      }
    ]
  },
  {
    "postal": "L1E8Z9",
    "result": []
  },
  {
    "postal": "L1E0N4",
    "result": []
  },
  {
    "postal": "L1E1K1",
    "result": [
      {
        "electoralDistricts": [
          {
            "election": null,
            "id": 24,
            "name": "Durham"
          }
        ],
        "pollDivisionIds": [
          10137839
        ],
        "postalCode": "L1E1K1",
        "streetName": "CENTERFIELD",
        "streetDirectionId": null,
        "streetTypeId": "DR",
        "placeName": "COURTICE",
        "streetNameDisplayText": "CENTERFIELD DR, COURTICE"
      }
    ]
  },
  {
    "postal": "L1E1S3",
    "result": [
      {
        "electoralDistricts": [
          {
            "election": null,
            "id": 24,
            "name": "Durham"
          }
        ],
        "pollDivisionIds": [
          10137838
        ],
        "postalCode": "L1E1S3",
        "streetName": "DEVONDALE",
        "streetDirectionId": null,
        "streetTypeId": "ST",
        "placeName": "COURTICE",
        "streetNameDisplayText": "DEVONDALE ST, COURTICE"
      },
      {
        "electoralDistricts": [
          {
            "election": null,
            "id": 24,
            "name": "Durham"
          }
        ],
        "pollDivisionIds": [
          10137838
        ],
        "postalCode": "L1E1S3",
        "streetName": "GOLDPINE",
        "streetDirectionId": null,
        "streetTypeId": "AVE",
        "placeName": "COURTICE",
        "streetNameDisplayText": "GOLDPINE AVE, COURTICE"
      },
      {
        "electoralDistricts": [
          {
            "election": null,
            "id": 24,
            "name": "Durham"
          }
        ],
        "pollDivisionIds": [
          10137838
        ],
        "postalCode": "L1E1S3",
        "streetName": "LONGWOOD",
        "streetDirectionId": null,
        "streetTypeId": "CRT",
        "placeName": "COURTICE",
        "streetNameDisplayText": "LONGWOOD CRT, COURTICE"
      }
    ]
  },
  {
    "postal": "L1E6M4",
    "result": []
  },
  {
    "postal": "L1E9A9",
    "result": []
  },
  {
    "postal": "L1E9Z9",
    "result": []
  },
  {
    "postal": "L1E6T4",
    "result": []
  },
  {
    "postal": "L1E0B2",
    "result": [
      {
        "electoralDistricts": [
          {
            "election": null,
            "id": 24,
            "name": "Durham"
          }
        ],
        "pollDivisionIds": [
          10137837
        ],
        "postalCode": "L1E0B2",
        "streetName": "DUVAL",
        "streetDirectionId": null,
        "streetTypeId": "ST",
        "placeName": "COURTICE",
        "streetNameDisplayText": "DUVAL ST, COURTICE"
      },
      {
        "electoralDistricts": [
          {
            "election": null,
            "id": 24,
            "name": "Durham"
          }
        ],
        "pollDivisionIds": [
          10137837
        ],
        "postalCode": "L1E0B2",
        "streetName": "HARRY GAY",
        "streetDirectionId": null,
        "streetTypeId": "DR",
        "placeName": "COURTICE",
        "streetNameDisplayText": "HARRY GAY DR, COURTICE"
      },
      {
        "electoralDistricts": [
          {
            "election": null,
            "id": 24,
            "name": "Durham"
          }
        ],
        "pollDivisionIds": [
          10137837
        ],
        "postalCode": "L1E0B2",
        "streetName": "NASH",
        "streetDirectionId": null,
        "streetTypeId": "RD",
        "placeName": "COURTICE",
        "streetNameDisplayText": "NASH RD, COURTICE"
      },
      {
        "electoralDistricts": [
          {
            "election": null,
            "id": 24,
            "name": "Durham"
          }
        ],
        "pollDivisionIds": [
          10137837
        ],
        "postalCode": "L1E0B2",
        "streetName": "TABB",
        "streetDirectionId": null,
        "streetTypeId": "AVE",
        "placeName": "COURTICE",
        "streetNameDisplayText": "TABB AVE, COURTICE"
      },
      {
        "electoralDistricts": [
          {
            "election": null,
            "id": 24,
            "name": "Durham"
          }
        ],
        "pollDivisionIds": [
          10137837
        ],
        "postalCode": "L1E0B2",
        "streetName": "WILBERT HOAR",
        "streetDirectionId": null,
        "streetTypeId": "CRT",
        "placeName": "COURTICE",
        "streetNameDisplayText": "WILBERT HOAR CRT, COURTICE"
      }
    ]
  },
  {
    "postal": "L1E2L9",
    "result": [
      {
        "electoralDistricts": [
          {
            "election": null,
            "id": 24,
            "name": "Durham"
          }
        ],
        "pollDivisionIds": [
          10137837
        ],
        "postalCode": "L1E2L9",
        "streetName": "NASH",
        "streetDirectionId": null,
        "streetTypeId": "RD",
        "placeName": "COURTICE",
        "streetNameDisplayText": "NASH RD, COURTICE"
      }
    ]
  },
  {
    "postal": "L1E8K9",
    "result": []
  },
  {
    "postal": "L1E2H9",
    "result": [
      {
        "electoralDistricts": [
          {
            "election": null,
            "id": 24,
            "name": "Durham"
          }
        ],
        "pollDivisionIds": [
          10137837
        ],
        "postalCode": "L1E2H9",
        "streetName": "GLENVIEW",
        "streetDirectionId": null,
        "streetTypeId": "RD",
        "placeName": "COURTICE",
        "streetNameDisplayText": "GLENVIEW RD, COURTICE"
      },
      {
        "electoralDistricts": [
          {
            "election": null,
            "id": 24,
            "name": "Durham"
          }
        ],
        "pollDivisionIds": [
          10137837
        ],
        "postalCode": "L1E2H9",
        "streetName": "JANE",
        "streetDirectionId": null,
        "streetTypeId": "AVE",
        "placeName": "COURTICE",
        "streetNameDisplayText": "JANE AVE, COURTICE"
      },
      {
        "electoralDistricts": [
          {
            "election": null,
            "id": 24,
            "name": "Durham"
          }
        ],
        "pollDivisionIds": [
          10137837
        ],
        "postalCode": "L1E2H9",
        "streetName": "LYNWOOD",
        "streetDirectionId": null,
        "streetTypeId": "AVE",
        "placeName": "COURTICE",
        "streetNameDisplayText": "LYNWOOD AVE, COURTICE"
      }
    ]
  },
  {
    "postal": "L1E3Z6",
    "result": []
  },
  {
    "postal": "L1E3B0",
    "result": []
  },
  {
    "postal": "L1E2H8",
    "result": [
      {
        "electoralDistricts": [
          {
            "election": null,
            "id": 24,
            "name": "Durham"
          }
        ],
        "pollDivisionIds": [
          10137837,
          10137840
        ],
        "postalCode": "L1E2H8",
        "streetName": "COURTICE",
        "streetDirectionId": null,
        "streetTypeId": "RD",
        "placeName": "COURTICE",
        "streetNameDisplayText": "COURTICE RD, COURTICE"
      },
      {
        "electoralDistricts": [
          {
            "election": null,
            "id": 24,
            "name": "Durham"
          }
        ],
        "pollDivisionIds": [
          10137837
        ],
        "postalCode": "L1E2H8",
        "streetName": "LYNWOOD",
        "streetDirectionId": null,
        "streetTypeId": "AVE",
        "placeName": "COURTICE",
        "streetNameDisplayText": "LYNWOOD AVE, COURTICE"
      },
      {
        "electoralDistricts": [
          {
            "election": null,
            "id": 24,
            "name": "Durham"
          }
        ],
        "pollDivisionIds": [
          10137837
        ],
        "postalCode": "L1E2H8",
        "streetName": "WESTMORE",
        "streetDirectionId": null,
        "streetTypeId": "ST",
        "placeName": "COURTICE",
        "streetNameDisplayText": "WESTMORE ST, COURTICE"
      }
    ]
  },
  {
    "postal": "L1E3X2",
    "result": []
  },
  {
    "postal": "L1E2E9",
    "result": [
      {
        "electoralDistricts": [
          {
            "election": null,
            "id": 24,
            "name": "Durham"
          }
        ],
        "pollDivisionIds": [
          10137843
        ],
        "postalCode": "L1E2E9",
        "streetName": "AUBURN",
        "streetDirectionId": null,
        "streetTypeId": "CRT",
        "placeName": "COURTICE",
        "streetNameDisplayText": "AUBURN CRT, COURTICE"
      },
      {
        "electoralDistricts": [
          {
            "election": null,
            "id": 24,
            "name": "Durham"
          }
        ],
        "pollDivisionIds": [
          10137843
        ],
        "postalCode": "L1E2E9",
        "streetName": "AUBURN",
        "streetDirectionId": null,
        "streetTypeId": "LANE",
        "placeName": "COURTICE",
        "streetNameDisplayText": "AUBURN LANE, COURTICE"
      }
    ]
  },
  {
    "postal": "L1E9P6",
    "result": []
  },
  {
    "postal": "L1E9E2",
    "result": []
  },
  {
    "postal": "L1E9H2",
    "result": []
  },
  {
    "postal": "L1E1S8",
    "result": [
      {
        "electoralDistricts": [
          {
            "election": null,
            "id": 24,
            "name": "Durham"
          }
        ],
        "pollDivisionIds": [
          10137840
        ],
        "postalCode": "L1E1S8",
        "streetName": "NASH",
        "streetDirectionId": null,
        "streetTypeId": "RD",
        "placeName": "COURTICE",
        "streetNameDisplayText": "NASH RD, COURTICE"
      }
    ]
  },
  {
    "postal": "L1E3M6",
    "result": []
  },
  {
    "postal": "L1E6Z8",
    "result": []
  },
  {
    "postal": "L1E4J2",
    "result": []
  },
  {
    "postal": "L1E9Y1",
    "result": []
  },
  {
    "postal": "L1E8V6",
    "result": []
  },
  {
    "postal": "L1E6B2",
    "result": []
  },
  {
    "postal": "L1E1P8",
    "result": [
      {
        "electoralDistricts": [
          {
            "election": null,
            "id": 24,
            "name": "Durham"
          }
        ],
        "pollDivisionIds": [
          10137838
        ],
        "postalCode": "L1E1P8",
        "streetName": "BROADLANDS",
        "streetDirectionId": null,
        "streetTypeId": "CRES",
        "placeName": "COURTICE",
        "streetNameDisplayText": "BROADLANDS CRES, COURTICE"
      },
      {
        "electoralDistricts": [
          {
            "election": null,
            "id": 24,
            "name": "Durham"
          }
        ],
        "pollDivisionIds": [
          10137840
        ],
        "postalCode": "L1E1P8",
        "streetName": "DEVONDALE",
        "streetDirectionId": null,
        "streetTypeId": "ST",
        "placeName": "COURTICE",
        "streetNameDisplayText": "DEVONDALE ST, COURTICE"
      }
    ]
  },
  {
    "postal": "L1E0V8",
    "result": []
  },
  {
    "postal": "L1E4Y0",
    "result": []
  },
  {
    "postal": "L1E2T4",
    "result": [
      {
        "electoralDistricts": [
          {
            "election": null,
            "id": 24,
            "name": "Durham"
          }
        ],
        "pollDivisionIds": [
          10137846
        ],
        "postalCode": "L1E2T4",
        "streetName": "BASELINE",
        "streetDirectionId": null,
        "streetTypeId": "RD",
        "placeName": "COURTICE",
        "streetNameDisplayText": "BASELINE RD, COURTICE"
      },
      {
        "electoralDistricts": [
          {
            "election": null,
            "id": 24,
            "name": "Durham"
          }
        ],
        "pollDivisionIds": [
          10137846
        ],
        "postalCode": "L1E2T4",
        "streetName": "COURTICE",
        "streetDirectionId": null,
        "streetTypeId": "CRT",
        "placeName": "COURTICE",
        "streetNameDisplayText": "COURTICE CRT, COURTICE"
      }
    ]
  },
  {
    "postal": "L1E2S3",
    "result": [
      {
        "electoralDistricts": [
          {
            "election": null,
            "id": 24,
            "name": "Durham"
          }
        ],
        "pollDivisionIds": [
          10137846
        ],
        "postalCode": "L1E2S3",
        "streetName": "BLOOR",
        "streetDirectionId": null,
        "streetTypeId": "ST",
        "placeName": "COURTICE",
        "streetNameDisplayText": "BLOOR ST, COURTICE"
      },
      {
        "electoralDistricts": [
          {
            "election": null,
            "id": 24,
            "name": "Durham"
          }
        ],
        "pollDivisionIds": [
          10137846
        ],
        "postalCode": "L1E2S3",
        "streetName": "TRULLS",
        "streetDirectionId": null,
        "streetTypeId": "RD",
        "placeName": "COURTICE",
        "streetNameDisplayText": "TRULLS RD, COURTICE"
      }
    ]
  },
  {
    "postal": "L1E0K0",
    "result": []
  },
  {
    "postal": "L1E5N1",
    "result": []
  },
  {
    "postal": "L1E7T0",
    "result": []
  },
  {
    "postal": "L1E9N2",
    "result": []
  },
  {
    "postal": "L1E5L1",
    "result": []
  },
  {
    "postal": "L1E7G5",
    "result": []
  },
  {
    "postal": "L1E6K2",
    "result": []
  },
  {
    "postal": "L1E6P9",
    "result": []
  },
  {
    "postal": "L1E0E6",
    "result": [
      {
        "electoralDistricts": [
          {
            "election": null,
            "id": 24,
            "name": "Durham"
          }
        ],
        "pollDivisionIds": [
          10137837
        ],
        "postalCode": "L1E0E6",
        "streetName": "DUVAL",
        "streetDirectionId": null,
        "streetTypeId": "ST",
        "placeName": "COURTICE",
        "streetNameDisplayText": "DUVAL ST, COURTICE"
      }
    ]
  },
  {
    "postal": "L1E8R9",
    "result": []
  },
  {
    "postal": "L1E3G9",
    "result": [
      {
        "electoralDistricts": [
          {
            "election": null,
            "id": 24,
            "name": "Durham"
          }
        ],
        "pollDivisionIds": [
          10137845
        ],
        "postalCode": "L1E3G9",
        "streetName": "CORNISH",
        "streetDirectionId": null,
        "streetTypeId": "DR",
        "placeName": "COURTICE",
        "streetNameDisplayText": "CORNISH DR, COURTICE"
      }
    ]
  },
  {
    "postal": "L1E0V7",
    "result": []
  },
  {
    "postal": "L1E2Z1",
    "result": [
      {
        "electoralDistricts": [
          {
            "election": null,
            "id": 24,
            "name": "Durham"
          }
        ],
        "pollDivisionIds": [
          10137841
        ],
        "postalCode": "L1E2Z1",
        "streetName": "AVONDALE",
        "streetDirectionId": null,
        "streetTypeId": "DR",
        "placeName": "COURTICE",
        "streetNameDisplayText": "AVONDALE DR, COURTICE"
      },
      {
        "electoralDistricts": [
          {
            "election": null,
            "id": 24,
            "name": "Durham"
          }
        ],
        "pollDivisionIds": [
          10137841
        ],
        "postalCode": "L1E2Z1",
        "streetName": "FIELDCREST",
        "streetDirectionId": null,
        "streetTypeId": "AVE",
        "placeName": "COURTICE",
        "streetNameDisplayText": "FIELDCREST AVE, COURTICE"
      }
    ]
  },
  {
    "postal": "L1E7N1",
    "result": []
  },
  {
    "postal": "L1E3C6",
    "result": [
      {
        "electoralDistricts": [
          {
            "election": null,
            "id": 24,
            "name": "Durham"
          }
        ],
        "pollDivisionIds": [
          10137844
        ],
        "postalCode": "L1E3C6",
        "streetName": "EASTFIELD",
        "streetDirectionId": null,
        "streetTypeId": "CRES",
        "placeName": "COURTICE",
        "streetNameDisplayText": "EASTFIELD CRES, COURTICE"
      }
    ]
  },
  {
    "postal": "L1E4M1",
    "result": []
  },
  {
    "postal": "L1E9K2",
    "result": []
  },
  {
    "postal": "L1E9S6",
    "result": []
  },
  {
    "postal": "L1E4X1",
    "result": []
  },
  {
    "postal": "L1E8W2",
    "result": []
  },
  {
    "postal": "L1E7N2",
    "result": []
  },
  {
    "postal": "L1E8S3",
    "result": []
  },
  {
    "postal": "L1E4V0",
    "result": []
  },
  {
    "postal": "L1E6W4",
    "result": []
  },
  {
    "postal": "L1E5M1",
    "result": []
  },
  {
    "postal": "L1E0S4",
    "result": []
  },
  {
    "postal": "L1E5X6",
    "result": []
  },
  {
    "postal": "L1E8L5",
    "result": []
  },
  {
    "postal": "L1E5M8",
    "result": []
  },
  {
    "postal": "L1E2G3",
    "result": []
  },
  {
    "postal": "L1E8E4",
    "result": []
  },
  {
    "postal": "L1E7S9",
    "result": []
  },
  {
    "postal": "L1E1K3",
    "result": [
      {
        "electoralDistricts": [
          {
            "election": null,
            "id": 24,
            "name": "Durham"
          }
        ],
        "pollDivisionIds": [
          10137839
        ],
        "postalCode": "L1E1K3",
        "streetName": "CENTERFIELD",
        "streetDirectionId": null,
        "streetTypeId": "DR",
        "placeName": "COURTICE",
        "streetNameDisplayText": "CENTERFIELD DR, COURTICE"
      },
      {
        "electoralDistricts": [
          {
            "election": null,
            "id": 24,
            "name": "Durham"
          }
        ],
        "pollDivisionIds": [
          10137839
        ],
        "postalCode": "L1E1K3",
        "streetName": "CLOVERFIELD",
        "streetDirectionId": null,
        "streetTypeId": "ST",
        "placeName": "COURTICE",
        "streetNameDisplayText": "CLOVERFIELD ST, COURTICE"
      }
    ]
  },
  {
    "postal": "L1E4E1",
    "result": []
  },
  {
    "postal": "L1E4R2",
    "result": []
  },
  {
    "postal": "L1E6T0",
    "result": []
  },
  {
    "postal": "L1E3K5",
    "result": [
      {
        "electoralDistricts": [
          {
            "election": null,
            "id": 24,
            "name": "Durham"
          }
        ],
        "pollDivisionIds": [
          10137837
        ],
        "postalCode": "L1E3K5",
        "streetName": "SLEEMAN",
        "streetDirectionId": null,
        "streetTypeId": "SQ",
        "placeName": "COURTICE",
        "streetNameDisplayText": "SLEEMAN SQ, COURTICE"
      }
    ]
  },
  {
    "postal": "L1E3S3",
    "result": []
  },
  {
    "postal": "L1E3L4",
    "result": []
  },
  {
    "postal": "L1E9Y2",
    "result": []
  },
  {
    "postal": "L1E1E0",
    "result": []
  },
  {
    "postal": "L1E9A4",
    "result": []
  },
  {
    "postal": "L1E1L3",
    "result": [
      {
        "electoralDistricts": [
          {
            "election": null,
            "id": 24,
            "name": "Durham"
          }
        ],
        "pollDivisionIds": [
          10137839
        ],
        "postalCode": "L1E1L3",
        "streetName": "HOMEFIELD",
        "streetDirectionId": null,
        "streetTypeId": "SQ",
        "placeName": "COURTICE",
        "streetNameDisplayText": "HOMEFIELD SQ, COURTICE"
      }
    ]
  },
  {
    "postal": "L1E6N1",
    "result": []
  },
  {
    "postal": "L1E6G7",
    "result": []
  },
  {
    "postal": "L1E7W1",
    "result": []
  },
  {
    "postal": "L1E4M6",
    "result": []
  },
  {
    "postal": "L1E1K0",
    "result": []
  },
  {
    "postal": "L1E3E2",
    "result": [
      {
        "electoralDistricts": [
          {
            "election": null,
            "id": 24,
            "name": "Durham"
          }
        ],
        "pollDivisionIds": [
          10137845
        ],
        "postalCode": "L1E3E2",
        "streetName": "KILGANNON",
        "streetDirectionId": null,
        "streetTypeId": "AVE",
        "placeName": "COURTICE",
        "streetNameDisplayText": "KILGANNON AVE, COURTICE"
      }
    ]
  },
  {
    "postal": "L1E5H4",
    "result": []
  },
  {
    "postal": "L1E1K7",
    "result": [
      {
        "electoralDistricts": [
          {
            "election": null,
            "id": 24,
            "name": "Durham"
          }
        ],
        "pollDivisionIds": [
          10137839
        ],
        "postalCode": "L1E1K7",
        "streetName": "CENTERFIELD",
        "streetDirectionId": null,
        "streetTypeId": "DR",
        "placeName": "COURTICE",
        "streetNameDisplayText": "CENTERFIELD DR, COURTICE"
      },
      {
        "electoralDistricts": [
          {
            "election": null,
            "id": 24,
            "name": "Durham"
          }
        ],
        "pollDivisionIds": [
          10137839
        ],
        "postalCode": "L1E1K7",
        "streetName": "CLOVERFIELD",
        "streetDirectionId": null,
        "streetTypeId": "ST",
        "placeName": "COURTICE",
        "streetNameDisplayText": "CLOVERFIELD ST, COURTICE"
      }
    ]
  },
  {
    "postal": "L1E0H0",
    "result": []
  },
  {
    "postal": "L1E0J3",
    "result": [
      {
        "electoralDistricts": [
          {
            "election": null,
            "id": 24,
            "name": "Durham"
          }
        ],
        "pollDivisionIds": [
          10137838
        ],
        "postalCode": "L1E0J3",
        "streetName": "MALLORY",
        "streetDirectionId": null,
        "streetTypeId": "ST",
        "placeName": "COURTICE",
        "streetNameDisplayText": "MALLORY ST, COURTICE"
      }
    ]
  },
  {
    "postal": "L1E1X6",
    "result": [
      {
        "electoralDistricts": [
          {
            "election": null,
            "id": 24,
            "name": "Durham"
          }
        ],
        "pollDivisionIds": [
          10137842
        ],
        "postalCode": "L1E1X6",
        "streetName": "STIRLING",
        "streetDirectionId": null,
        "streetTypeId": "AVE",
        "placeName": "COURTICE",
        "streetNameDisplayText": "STIRLING AVE, COURTICE"
      }
    ]
  },
  {
    "postal": "L1E2Z6",
    "result": [
      {
        "electoralDistricts": [
          {
            "election": null,
            "id": 24,
            "name": "Durham"
          }
        ],
        "pollDivisionIds": [
          10137841
        ],
        "postalCode": "L1E2Z6",
        "streetName": "SHORT",
        "streetDirectionId": null,
        "streetTypeId": "CRES",
        "placeName": "COURTICE",
        "streetNameDisplayText": "SHORT CRES, COURTICE"
      }
    ]
  },
  {
    "postal": "L1E4R9",
    "result": []
  },
  {
    "postal": "L1E0W8",
    "result": []
  },
  {
    "postal": "L1E1L4",
    "result": [
      {
        "electoralDistricts": [
          {
            "election": null,
            "id": 24,
            "name": "Durham"
          }
        ],
        "pollDivisionIds": [
          10137839
        ],
        "postalCode": "L1E1L4",
        "streetName": "CENTERFIELD",
        "streetDirectionId": null,
        "streetTypeId": "DR",
        "placeName": "COURTICE",
        "streetNameDisplayText": "CENTERFIELD DR, COURTICE"
      }
    ]
  },
  {
    "postal": "L1E0C8",
    "result": [
      {
        "electoralDistricts": [
          {
            "election": null,
            "id": 24,
            "name": "Durham"
          }
        ],
        "pollDivisionIds": [
          10137846
        ],
        "postalCode": "L1E0C8",
        "streetName": "HAYMAN",
        "streetDirectionId": null,
        "streetTypeId": "ST",
        "placeName": "COURTICE",
        "streetNameDisplayText": "HAYMAN ST, COURTICE"
      },
      {
        "electoralDistricts": [
          {
            "election": null,
            "id": 24,
            "name": "Durham"
          }
        ],
        "pollDivisionIds": [
          10137846
        ],
        "postalCode": "L1E0C8",
        "streetName": "WORDEN",
        "streetDirectionId": null,
        "streetTypeId": "DR",
        "placeName": "COURTICE",
        "streetNameDisplayText": "WORDEN DR, COURTICE"
      }
    ]
  },
  {
    "postal": "L1E9X7",
    "result": []
  },
  {
    "postal": "L1E4T1",
    "result": []
  },
  {
    "postal": "L1E0M0",
    "result": []
  },
  {
    "postal": "L1E6A2",
    "result": []
  },
  {
    "postal": "L1E9S8",
    "result": []
  },
  {
    "postal": "L1E9T4",
    "result": []
  },
  {
    "postal": "L1E9Y4",
    "result": []
  },
  {
    "postal": "L1E6G5",
    "result": []
  },
  {
    "postal": "L1E6H9",
    "result": []
  },
  {
    "postal": "L1E2P3",
    "result": [
      {
        "electoralDistricts": [
          {
            "election": null,
            "id": 24,
            "name": "Durham"
          }
        ],
        "pollDivisionIds": [
          10137846
        ],
        "postalCode": "L1E2P3",
        "streetName": "PRESTONVALE",
        "streetDirectionId": null,
        "streetTypeId": "RD",
        "placeName": "COURTICE",
        "streetNameDisplayText": "PRESTONVALE RD, COURTICE"
      }
    ]
  },
  {
    "postal": "L1E1T6",
    "result": [
      {
        "electoralDistricts": [
          {
            "election": null,
            "id": 24,
            "name": "Durham"
          }
        ],
        "pollDivisionIds": [
          10137843
        ],
        "postalCode": "L1E1T6",
        "streetName": "HALSTEAD",
        "streetDirectionId": null,
        "streetTypeId": "RD",
        "placeName": "COURTICE",
        "streetNameDisplayText": "HALSTEAD RD, COURTICE"
      },
      {
        "electoralDistricts": [
          {
            "election": null,
            "id": 24,
            "name": "Durham"
          }
        ],
        "pollDivisionIds": [
          10137843
        ],
        "postalCode": "L1E1T6",
        "streetName": "HATHAWAY",
        "streetDirectionId": null,
        "streetTypeId": "DR",
        "placeName": "COURTICE",
        "streetNameDisplayText": "HATHAWAY DR, COURTICE"
      }
    ]
  },
  {
    "postal": "L1E4P6",
    "result": []
  },
  {
    "postal": "L1E3K1",
    "result": [
      {
        "electoralDistricts": [
          {
            "election": null,
            "id": 24,
            "name": "Durham"
          }
        ],
        "pollDivisionIds": [
          10137846
        ],
        "postalCode": "L1E3K1",
        "streetName": "ROSSWELL",
        "streetDirectionId": null,
        "streetTypeId": "DR",
        "placeName": "COURTICE",
        "streetNameDisplayText": "ROSSWELL DR, COURTICE"
      },
      {
        "electoralDistricts": [
          {
            "election": null,
            "id": 24,
            "name": "Durham"
          }
        ],
        "pollDivisionIds": [
          10137846
        ],
        "postalCode": "L1E3K1",
        "streetName": "SOUTHFIELD",
        "streetDirectionId": null,
        "streetTypeId": "AVE",
        "placeName": "COURTICE",
        "streetNameDisplayText": "SOUTHFIELD AVE, COURTICE"
      }
    ]
  },
  {
    "postal": "L1E6X4",
    "result": []
  },
  {
    "postal": "L1E4M8",
    "result": []
  },
  {
    "postal": "L1E2Y1",
    "result": [
      {
        "electoralDistricts": [
          {
            "election": null,
            "id": 24,
            "name": "Durham"
          }
        ],
        "pollDivisionIds": [
          10137841
        ],
        "postalCode": "L1E2Y1",
        "streetName": "AVONDALE",
        "streetDirectionId": null,
        "streetTypeId": "DR",
        "placeName": "COURTICE",
        "streetNameDisplayText": "AVONDALE DR, COURTICE"
      },
      {
        "electoralDistricts": [
          {
            "election": null,
            "id": 24,
            "name": "Durham"
          }
        ],
        "pollDivisionIds": [
          10137841
        ],
        "postalCode": "L1E2Y1",
        "streetName": "BROWNSTONE",
        "streetDirectionId": null,
        "streetTypeId": "CRES",
        "placeName": "COURTICE",
        "streetNameDisplayText": "BROWNSTONE CRES, COURTICE"
      },
      {
        "electoralDistricts": [
          {
            "election": null,
            "id": 24,
            "name": "Durham"
          }
        ],
        "pollDivisionIds": [
          10137841
        ],
        "postalCode": "L1E2Y1",
        "streetName": "GRANARY",
        "streetDirectionId": null,
        "streetTypeId": "LANE",
        "placeName": "COURTICE",
        "streetNameDisplayText": "GRANARY LANE, COURTICE"
      }
    ]
  },
  {
    "postal": "L1E6M1",
    "result": []
  },
  {
    "postal": "L1E5L8",
    "result": []
  },
  {
    "postal": "L1E3P6",
    "result": []
  },
  {
    "postal": "L1E9A5",
    "result": []
  },
  {
    "postal": "L1E7K1",
    "result": []
  },
  {
    "postal": "L1E3J4",
    "result": [
      {
        "electoralDistricts": [
          {
            "election": null,
            "id": 24,
            "name": "Durham"
          }
        ],
        "pollDivisionIds": [
          10137844
        ],
        "postalCode": "L1E3J4",
        "streetName": "BECKETT",
        "streetDirectionId": null,
        "streetTypeId": "CRES",
        "placeName": "COURTICE",
        "streetNameDisplayText": "BECKETT CRES, COURTICE"
      }
    ]
  },
  {
    "postal": "L1E5E7",
    "result": []
  },
  {
    "postal": "L1E3A7",
    "result": [
      {
        "electoralDistricts": [
          {
            "election": null,
            "id": 24,
            "name": "Durham"
          }
        ],
        "pollDivisionIds": [
          10137841
        ],
        "postalCode": "L1E3A7",
        "streetName": "SANDRINGHAM",
        "streetDirectionId": null,
        "streetTypeId": "DR",
        "placeName": "COURTICE",
        "streetNameDisplayText": "SANDRINGHAM DR, COURTICE"
      }
    ]
  },
  {
    "postal": "L1E1B9",
    "result": [
      {
        "electoralDistricts": [
          {
            "election": null,
            "id": 24,
            "name": "Durham"
          }
        ],
        "pollDivisionIds": [
          10137843,
          10137844
        ],
        "postalCode": "L1E1B9",
        "streetName": "GLENABBEY",
        "streetDirectionId": null,
        "streetTypeId": "DR",
        "placeName": "COURTICE",
        "streetNameDisplayText": "GLENABBEY DR, COURTICE"
      }
    ]
  },
  {
    "postal": "L1E9E8",
    "result": []
  },
  {
    "postal": "L1E1C9",
    "result": [
      {
        "electoralDistricts": [
          {
            "election": null,
            "id": 24,
            "name": "Durham"
          }
        ],
        "pollDivisionIds": [
          10137840
        ],
        "postalCode": "L1E1C9",
        "streetName": "EMPIRE",
        "streetDirectionId": null,
        "streetTypeId": "CRES",
        "placeName": "COURTICE",
        "streetNameDisplayText": "EMPIRE CRES, COURTICE"
      },
      {
        "electoralDistricts": [
          {
            "election": null,
            "id": 24,
            "name": "Durham"
          }
        ],
        "pollDivisionIds": [
          10137840
        ],
        "postalCode": "L1E1C9",
        "streetName": "FOXHUNT",
        "streetDirectionId": null,
        "streetTypeId": "TRAIL",
        "placeName": "COURTICE",
        "streetNameDisplayText": "FOXHUNT TRAIL, COURTICE"
      }
    ]
  },
  {
    "postal": "L1E3B5",
    "result": [
      {
        "electoralDistricts": [
          {
            "election": null,
            "id": 24,
            "name": "Durham"
          }
        ],
        "pollDivisionIds": [
          10137846
        ],
        "postalCode": "L1E3B5",
        "streetName": "WILKINS",
        "streetDirectionId": null,
        "streetTypeId": "CRES",
        "placeName": "COURTICE",
        "streetNameDisplayText": "WILKINS CRES, COURTICE"
      }
    ]
  },
  {
    "postal": "L1E8R0",
    "result": []
  },
  {
    "postal": "L1E3P2",
    "result": []
  },
  {
    "postal": "L1E5V4",
    "result": []
  },
  {
    "postal": "L1E4H0",
    "result": []
  },
  {
    "postal": "L1E4S7",
    "result": []
  },
  {
    "postal": "L1E6C2",
    "result": []
  },
  {
    "postal": "L1E8W3",
    "result": []
  },
  {
    "postal": "L1E4M5",
    "result": []
  },
  {
    "postal": "L1E5T1",
    "result": []
  },
  {
    "postal": "L1E3B3",
    "result": [
      {
        "electoralDistricts": [
          {
            "election": null,
            "id": 24,
            "name": "Durham"
          }
        ],
        "pollDivisionIds": [
          10137838
        ],
        "postalCode": "L1E3B3",
        "streetName": "DAISEYFIELD",
        "streetDirectionId": null,
        "streetTypeId": "AVE",
        "placeName": "COURTICE",
        "streetNameDisplayText": "DAISEYFIELD AVE, COURTICE"
      },
      {
        "electoralDistricts": [
          {
            "election": null,
            "id": 24,
            "name": "Durham"
          }
        ],
        "pollDivisionIds": [
          10137838
        ],
        "postalCode": "L1E3B3",
        "streetName": "FIRWOOD",
        "streetDirectionId": null,
        "streetTypeId": "AVE",
        "placeName": "COURTICE",
        "streetNameDisplayText": "FIRWOOD AVE, COURTICE"
      }
    ]
  },
  {
    "postal": "L1E6C6",
    "result": []
  },
  {
    "postal": "L1E7N8",
    "result": []
  },
  {
    "postal": "L1E2Y3",
    "result": [
      {
        "electoralDistricts": [
          {
            "election": null,
            "id": 24,
            "name": "Durham"
          }
        ],
        "pollDivisionIds": [
          10137841
        ],
        "postalCode": "L1E2Y3",
        "streetName": "BROWNSTONE",
        "streetDirectionId": null,
        "streetTypeId": "CRES",
        "placeName": "COURTICE",
        "streetNameDisplayText": "BROWNSTONE CRES, COURTICE"
      },
      {
        "electoralDistricts": [
          {
            "election": null,
            "id": 24,
            "name": "Durham"
          }
        ],
        "pollDivisionIds": [
          10137841
        ],
        "postalCode": "L1E2Y3",
        "streetName": "WEAVER",
        "streetDirectionId": null,
        "streetTypeId": "ST",
        "placeName": "COURTICE",
        "streetNameDisplayText": "WEAVER ST, COURTICE"
      }
    ]
  },
  {
    "postal": "L1E2R6",
    "result": [
      {
        "electoralDistricts": [
          {
            "election": null,
            "id": 24,
            "name": "Durham"
          }
        ],
        "pollDivisionIds": [
          10137840
        ],
        "postalCode": "L1E2R6",
        "streetName": "2",
        "streetDirectionId": null,
        "streetTypeId": "HWY",
        "placeName": "COURTICE",
        "streetNameDisplayText": "2 HWY, COURTICE"
      },
      {
        "electoralDistricts": [
          {
            "election": null,
            "id": 24,
            "name": "Durham"
          }
        ],
        "pollDivisionIds": [
          10137840
        ],
        "postalCode": "L1E2R6",
        "streetName": "TRULLS",
        "streetDirectionId": null,
        "streetTypeId": "RD",
        "placeName": "COURTICE",
        "streetNameDisplayText": "TRULLS RD, COURTICE"
      }
    ]
  },
  {
    "postal": "L1E7N3",
    "result": []
  },
  {
    "postal": "L1E8J2",
    "result": []
  },
  {
    "postal": "L1E6A9",
    "result": []
  },
  {
    "postal": "L1E3V2",
    "result": []
  },
  {
    "postal": "L1E2N3",
    "result": [
      {
        "electoralDistricts": [
          {
            "election": null,
            "id": 24,
            "name": "Durham"
          }
        ],
        "pollDivisionIds": [
          10137841,
          10137842
        ],
        "postalCode": "L1E2N3",
        "streetName": "TRULLS",
        "streetDirectionId": null,
        "streetTypeId": "RD",
        "placeName": "COURTICE",
        "streetNameDisplayText": "TRULLS RD, COURTICE"
      }
    ]
  },
  {
    "postal": "L1E1S5",
    "result": [
      {
        "electoralDistricts": [
          {
            "election": null,
            "id": 24,
            "name": "Durham"
          }
        ],
        "pollDivisionIds": [
          10137839
        ],
        "postalCode": "L1E1S5",
        "streetName": "VARCOE",
        "streetDirectionId": null,
        "streetTypeId": "RD",
        "placeName": "COURTICE",
        "streetNameDisplayText": "VARCOE RD, COURTICE"
      }
    ]
  },
  {
    "postal": "L1E4T7",
    "result": []
  },
  {
    "postal": "L1E6Y7",
    "result": []
  },
  {
    "postal": "L1E0W7",
    "result": []
  },
  {
    "postal": "L1E2W9",
    "result": [
      {
        "electoralDistricts": [
          {
            "election": null,
            "id": 24,
            "name": "Durham"
          }
        ],
        "pollDivisionIds": [
          10137842
        ],
        "postalCode": "L1E2W9",
        "streetName": "MCMANN",
        "streetDirectionId": null,
        "streetTypeId": "CRES",
        "placeName": "COURTICE",
        "streetNameDisplayText": "MCMANN CRES, COURTICE"
      }
    ]
  },
  {
    "postal": "L1E8V0",
    "result": []
  },
  {
    "postal": "L1E0H4",
    "result": [
      {
        "electoralDistricts": [
          {
            "election": null,
            "id": 24,
            "name": "Durham"
          }
        ],
        "pollDivisionIds": [
          10137844
        ],
        "postalCode": "L1E0H4",
        "streetName": "CALE",
        "streetDirectionId": null,
        "streetTypeId": "AVE",
        "placeName": "COURTICE",
        "streetNameDisplayText": "CALE AVE, COURTICE"
      },
      {
        "electoralDistricts": [
          {
            "election": null,
            "id": 24,
            "name": "Durham"
          }
        ],
        "pollDivisionIds": [
          10137844
        ],
        "postalCode": "L1E0H4",
        "streetName": "MCROBERTS",
        "streetDirectionId": null,
        "streetTypeId": "CRES",
        "placeName": "COURTICE",
        "streetNameDisplayText": "MCROBERTS CRES, COURTICE"
      }
    ]
  },
  {
    "postal": "L1E2T1",
    "result": [
      {
        "electoralDistricts": [
          {
            "election": null,
            "id": 24,
            "name": "Durham"
          }
        ],
        "pollDivisionIds": [
          10137846
        ],
        "postalCode": "L1E2T1",
        "streetName": "BASELINE",
        "streetDirectionId": null,
        "streetTypeId": "RD",
        "placeName": "COURTICE",
        "streetNameDisplayText": "BASELINE RD, COURTICE"
      },
      {
        "electoralDistricts": [
          {
            "election": null,
            "id": 24,
            "name": "Durham"
          }
        ],
        "pollDivisionIds": [
          10137846
        ],
        "postalCode": "L1E2T1",
        "streetName": "CIGAS",
        "streetDirectionId": null,
        "streetTypeId": "RD",
        "placeName": "COURTICE",
        "streetNameDisplayText": "CIGAS RD, COURTICE"
      }
    ]
  },
  {
    "postal": "L1E1B1",
    "result": [
      {
        "electoralDistricts": [
          {
            "election": null,
            "id": 24,
            "name": "Durham"
          }
        ],
        "pollDivisionIds": [
          10137844
        ],
        "postalCode": "L1E1B1",
        "streetName": "TURNBERRY",
        "streetDirectionId": null,
        "streetTypeId": "CRES",
        "placeName": "COURTICE",
        "streetNameDisplayText": "TURNBERRY CRES, COURTICE"
      }
    ]
  },
  {
    "postal": "L1E8B6",
    "result": []
  },
  {
    "postal": "L1E6H1",
    "result": []
  },
  {
    "postal": "L1E8T8",
    "result": []
  },
  {
    "postal": "L1E0T4",
    "result": []
  },
  {
    "postal": "L1E2C4",
    "result": [
      {
        "electoralDistricts": [
          {
            "election": null,
            "id": 24,
            "name": "Durham"
          }
        ],
        "pollDivisionIds": [
          10137843
        ],
        "postalCode": "L1E2C4",
        "streetName": "HEMMINGWAY",
        "streetDirectionId": null,
        "streetTypeId": "DR",
        "placeName": "COURTICE",
        "streetNameDisplayText": "HEMMINGWAY DR, COURTICE"
      },
      {
        "electoralDistricts": [
          {
            "election": null,
            "id": 24,
            "name": "Durham"
          }
        ],
        "pollDivisionIds": [
          10137844
        ],
        "postalCode": "L1E2C4",
        "streetName": "ROBERT ADAMS",
        "streetDirectionId": null,
        "streetTypeId": "DR",
        "placeName": "COURTICE",
        "streetNameDisplayText": "ROBERT ADAMS DR, COURTICE"
      }
    ]
  },
  {
    "postal": "L1E8N3",
    "result": []
  },
  {
    "postal": "L1E4L8",
    "result": []
  },
  {
    "postal": "L1E2B5",
    "result": [
      {
        "electoralDistricts": [
          {
            "election": null,
            "id": 24,
            "name": "Durham"
          }
        ],
        "pollDivisionIds": [
          10137844
        ],
        "postalCode": "L1E2B5",
        "streetName": "AUBURN",
        "streetDirectionId": null,
        "streetTypeId": "LANE",
        "placeName": "COURTICE",
        "streetNameDisplayText": "AUBURN LANE, COURTICE"
      },
      {
        "electoralDistricts": [
          {
            "election": null,
            "id": 24,
            "name": "Durham"
          }
        ],
        "pollDivisionIds": [
          10137844
        ],
        "postalCode": "L1E2B5",
        "streetName": "GLENABBEY",
        "streetDirectionId": null,
        "streetTypeId": "DR",
        "placeName": "COURTICE",
        "streetNameDisplayText": "GLENABBEY DR, COURTICE"
      }
    ]
  },
  {
    "postal": "L1E3H1",
    "result": [
      {
        "electoralDistricts": [
          {
            "election": null,
            "id": 24,
            "name": "Durham"
          }
        ],
        "pollDivisionIds": [
          10137845
        ],
        "postalCode": "L1E3H1",
        "streetName": "CORNISH",
        "streetDirectionId": null,
        "streetTypeId": "DR",
        "placeName": "COURTICE",
        "streetNameDisplayText": "CORNISH DR, COURTICE"
      },
      {
        "electoralDistricts": [
          {
            "election": null,
            "id": 24,
            "name": "Durham"
          }
        ],
        "pollDivisionIds": [
          10137846,
          10137845
        ],
        "postalCode": "L1E3H1",
        "streetName": "FENNING",
        "streetDirectionId": null,
        "streetTypeId": "DR",
        "placeName": "COURTICE",
        "streetNameDisplayText": "FENNING DR, COURTICE"
      },
      {
        "electoralDistricts": [
          {
            "election": null,
            "id": 24,
            "name": "Durham"
          }
        ],
        "pollDivisionIds": [
          10137845
        ],
        "postalCode": "L1E3H1",
        "streetName": "SOUTHFIELD",
        "streetDirectionId": null,
        "streetTypeId": "AVE",
        "placeName": "COURTICE",
        "streetNameDisplayText": "SOUTHFIELD AVE, COURTICE"
      },
      {
        "electoralDistricts": [
          {
            "election": null,
            "id": 24,
            "name": "Durham"
          }
        ],
        "pollDivisionIds": [
          10137845
        ],
        "postalCode": "L1E3H1",
        "streetName": "STAINTON",
        "streetDirectionId": null,
        "streetTypeId": "ST",
        "placeName": "COURTICE",
        "streetNameDisplayText": "STAINTON ST, COURTICE"
      },
      {
        "electoralDistricts": [
          {
            "election": null,
            "id": 24,
            "name": "Durham"
          }
        ],
        "pollDivisionIds": [
          10137845
        ],
        "postalCode": "L1E3H1",
        "streetName": "STAPLES",
        "streetDirectionId": null,
        "streetTypeId": "AVE",
        "placeName": "COURTICE",
        "streetNameDisplayText": "STAPLES AVE, COURTICE"
      }
    ]
  },
  {
    "postal": "L1E4Y1",
    "result": []
  },
  {
    "postal": "L1E7E2",
    "result": []
  },
  {
    "postal": "L1E2P5",
    "result": [
      {
        "electoralDistricts": [
          {
            "election": null,
            "id": 24,
            "name": "Durham"
          }
        ],
        "pollDivisionIds": [
          10137846
        ],
        "postalCode": "L1E2P5",
        "streetName": "BASELINE",
        "streetDirectionId": null,
        "streetTypeId": "RD",
        "placeName": "COURTICE",
        "streetNameDisplayText": "BASELINE RD, COURTICE"
      }
    ]
  },
  {
    "postal": "L1E8R7",
    "result": []
  },
  {
    "postal": "L1E9P1",
    "result": []
  },
  {
    "postal": "L1E3B8",
    "result": [
      {
        "electoralDistricts": [
          {
            "election": null,
            "id": 24,
            "name": "Durham"
          }
        ],
        "pollDivisionIds": [
          10137841,
          10137846
        ],
        "postalCode": "L1E3B8",
        "streetName": "WILKINS",
        "streetDirectionId": null,
        "streetTypeId": "CRES",
        "placeName": "COURTICE",
        "streetNameDisplayText": "WILKINS CRES, COURTICE"
      }
    ]
  },
  {
    "postal": "L1E3P7",
    "result": []
  },
  {
    "postal": "L1E9B2",
    "result": []
  },
  {
    "postal": "L1E6Z3",
    "result": []
  },
  {
    "postal": "L1E4N5",
    "result": []
  },
  {
    "postal": "L1E8T3",
    "result": []
  },
  {
    "postal": "L1E1V2",
    "result": [
      {
        "electoralDistricts": [
          {
            "election": null,
            "id": 24,
            "name": "Durham"
          }
        ],
        "pollDivisionIds": [
          10137842
        ],
        "postalCode": "L1E1V2",
        "streetName": "HAMPSTEAD",
        "streetDirectionId": null,
        "streetTypeId": "GATE",
        "placeName": "COURTICE",
        "streetNameDisplayText": "HAMPSTEAD GATE, COURTICE"
      },
      {
        "electoralDistricts": [
          {
            "election": null,
            "id": 24,
            "name": "Durham"
          }
        ],
        "pollDivisionIds": [
          10137840,
          10137842
        ],
        "postalCode": "L1E1V2",
        "streetName": "ROBERT ADAMS",
        "streetDirectionId": null,
        "streetTypeId": "DR",
        "placeName": "COURTICE",
        "streetNameDisplayText": "ROBERT ADAMS DR, COURTICE"
      },
      {
        "electoralDistricts": [
          {
            "election": null,
            "id": 24,
            "name": "Durham"
          }
        ],
        "pollDivisionIds": [
          10137840
        ],
        "postalCode": "L1E1V2",
        "streetName": "WHITE CLIFFE",
        "streetDirectionId": null,
        "streetTypeId": "DR",
        "placeName": "COURTICE",
        "streetNameDisplayText": "WHITE CLIFFE DR, COURTICE"
      }
    ]
  },
  {
    "postal": "L1E1Y0",
    "result": []
  },
  {
    "postal": "L1E3G6",
    "result": []
  },
  {
    "postal": "L1E3H7",
    "result": [
      {
        "electoralDistricts": [
          {
            "election": null,
            "id": 24,
            "name": "Durham"
          }
        ],
        "pollDivisionIds": [
          10137844
        ],
        "postalCode": "L1E3H7",
        "streetName": "EASTFIELD",
        "streetDirectionId": null,
        "streetTypeId": "CRES",
        "placeName": "COURTICE",
        "streetNameDisplayText": "EASTFIELD CRES, COURTICE"
      },
      {
        "electoralDistricts": [
          {
            "election": null,
            "id": 24,
            "name": "Durham"
          }
        ],
        "pollDivisionIds": [
          10137844
        ],
        "postalCode": "L1E3H7",
        "streetName": "GORD VINSON",
        "streetDirectionId": null,
        "streetTypeId": "AVE",
        "placeName": "COURTICE",
        "streetNameDisplayText": "GORD VINSON AVE, COURTICE"
      },
      {
        "electoralDistricts": [
          {
            "election": null,
            "id": 24,
            "name": "Durham"
          }
        ],
        "pollDivisionIds": [
          10137844
        ],
        "postalCode": "L1E3H7",
        "streetName": "ROSSWELL",
        "streetDirectionId": null,
        "streetTypeId": "DR",
        "placeName": "COURTICE",
        "streetNameDisplayText": "ROSSWELL DR, COURTICE"
      }
    ]
  },
  {
    "postal": "L1E7X8",
    "result": []
  },
  {
    "postal": "L1E0C7",
    "result": [
      {
        "electoralDistricts": [
          {
            "election": null,
            "id": 24,
            "name": "Durham"
          }
        ],
        "pollDivisionIds": [
          10137846
        ],
        "postalCode": "L1E0C7",
        "streetName": "CAMERON FERGUSON",
        "streetDirectionId": null,
        "streetTypeId": "ST",
        "placeName": "COURTICE",
        "streetNameDisplayText": "CAMERON FERGUSON ST, COURTICE"
      },
      {
        "electoralDistricts": [
          {
            "election": null,
            "id": 24,
            "name": "Durham"
          }
        ],
        "pollDivisionIds": [
          10137846
        ],
        "postalCode": "L1E0C7",
        "streetName": "WORDEN",
        "streetDirectionId": null,
        "streetTypeId": "DR",
        "placeName": "COURTICE",
        "streetNameDisplayText": "WORDEN DR, COURTICE"
      }
    ]
  },
  {
    "postal": "L1E0W9",
    "result": []
  },
  {
    "postal": "L1E8E6",
    "result": []
  },
  {
    "postal": "L1E9Z8",
    "result": []
  },
  {
    "postal": "L1E3P4",
    "result": []
  },
  {
    "postal": "L1E6L8",
    "result": []
  },
  {
    "postal": "L1E2R4",
    "result": []
  },
  {
    "postal": "L1E2W1",
    "result": [
      {
        "electoralDistricts": [
          {
            "election": null,
            "id": 24,
            "name": "Durham"
          }
        ],
        "pollDivisionIds": [
          10137837
        ],
        "postalCode": "L1E2W1",
        "streetName": "CECIL FOUND",
        "streetDirectionId": null,
        "streetTypeId": "CRES",
        "placeName": "COURTICE",
        "streetNameDisplayText": "CECIL FOUND CRES, COURTICE"
      }
    ]
  },
  {
    "postal": "L1E9H8",
    "result": []
  },
  {
    "postal": "L1E8X9",
    "result": []
  },
  {
    "postal": "L1E7H4",
    "result": []
  },
  {
    "postal": "L1E3J1",
    "result": [
      {
        "electoralDistricts": [
          {
            "election": null,
            "id": 24,
            "name": "Durham"
          }
        ],
        "pollDivisionIds": [
          10137844
        ],
        "postalCode": "L1E3J1",
        "streetName": "HUNTINGTON",
        "streetDirectionId": null,
        "streetTypeId": "CRES",
        "placeName": "COURTICE",
        "streetNameDisplayText": "HUNTINGTON CRES, COURTICE"
      },
      {
        "electoralDistricts": [
          {
            "election": null,
            "id": 24,
            "name": "Durham"
          }
        ],
        "pollDivisionIds": [
          10137844
        ],
        "postalCode": "L1E3J1",
        "streetName": "PARTNER",
        "streetDirectionId": null,
        "streetTypeId": "DR",
        "placeName": "COURTICE",
        "streetNameDisplayText": "PARTNER DR, COURTICE"
      },
      {
        "electoralDistricts": [
          {
            "election": null,
            "id": 24,
            "name": "Durham"
          }
        ],
        "pollDivisionIds": [
          10137844
        ],
        "postalCode": "L1E3J1",
        "streetName": "SHUTTLEWORTH",
        "streetDirectionId": null,
        "streetTypeId": "DR",
        "placeName": "COURTICE",
        "streetNameDisplayText": "SHUTTLEWORTH DR, COURTICE"
      }
    ]
  },
  {
    "postal": "L1E1P4",
    "result": [
      {
        "electoralDistricts": [
          {
            "election": null,
            "id": 24,
            "name": "Durham"
          }
        ],
        "pollDivisionIds": [
          10137838
        ],
        "postalCode": "L1E1P4",
        "streetName": "MOSSGROVE",
        "streetDirectionId": null,
        "streetTypeId": "CRT",
        "placeName": "COURTICE",
        "streetNameDisplayText": "MOSSGROVE CRT, COURTICE"
      }
    ]
  },
  {
    "postal": "L1E2A3",
    "result": [
      {
        "electoralDistricts": [
          {
            "election": null,
            "id": 24,
            "name": "Durham"
          }
        ],
        "pollDivisionIds": [
          10137841
        ],
        "postalCode": "L1E2A3",
        "streetName": "HILLHURST",
        "streetDirectionId": null,
        "streetTypeId": "CRES",
        "placeName": "COURTICE",
        "streetNameDisplayText": "HILLHURST CRES, COURTICE"
      },
      {
        "electoralDistricts": [
          {
            "election": null,
            "id": 24,
            "name": "Durham"
          }
        ],
        "pollDivisionIds": [
          10137841
        ],
        "postalCode": "L1E2A3",
        "streetName": "SANDRINGHAM",
        "streetDirectionId": null,
        "streetTypeId": "DR",
        "placeName": "COURTICE",
        "streetNameDisplayText": "SANDRINGHAM DR, COURTICE"
      }
    ]
  },
  {
    "postal": "L1E0Z1",
    "result": []
  },
  {
    "postal": "L1E1C1",
    "result": [
      {
        "electoralDistricts": [
          {
            "election": null,
            "id": 24,
            "name": "Durham"
          }
        ],
        "pollDivisionIds": [
          10137844
        ],
        "postalCode": "L1E1C1",
        "streetName": "GLENABBEY",
        "streetDirectionId": null,
        "streetTypeId": "DR",
        "placeName": "COURTICE",
        "streetNameDisplayText": "GLENABBEY DR, COURTICE"
      },
      {
        "electoralDistricts": [
          {
            "election": null,
            "id": 24,
            "name": "Durham"
          }
        ],
        "pollDivisionIds": [
          10137844
        ],
        "postalCode": "L1E1C1",
        "streetName": "PINEDALE",
        "streetDirectionId": null,
        "streetTypeId": "CRES",
        "placeName": "COURTICE",
        "streetNameDisplayText": "PINEDALE CRES, COURTICE"
      },
      {
        "electoralDistricts": [
          {
            "election": null,
            "id": 24,
            "name": "Durham"
          }
        ],
        "pollDivisionIds": [
          10137844
        ],
        "postalCode": "L1E1C1",
        "streetName": "TOWNLINE",
        "streetDirectionId": "S",
        "streetTypeId": "RD",
        "placeName": "COURTICE",
        "streetNameDisplayText": "TOWNLINE RD S, COURTICE"
      }
    ]
  },
  {
    "postal": "L1E0H3",
    "result": [
      {
        "electoralDistricts": [
          {
            "election": null,
            "id": 24,
            "name": "Durham"
          }
        ],
        "pollDivisionIds": [
          10137838
        ],
        "postalCode": "L1E0H3",
        "streetName": "PAGE",
        "streetDirectionId": null,
        "streetTypeId": "PL",
        "placeName": "COURTICE",
        "streetNameDisplayText": "PAGE PL, COURTICE"
      },
      {
        "electoralDistricts": [
          {
            "election": null,
            "id": 24,
            "name": "Durham"
          }
        ],
        "pollDivisionIds": [
          10137838
        ],
        "postalCode": "L1E0H3",
        "streetName": "VETZAL",
        "streetDirectionId": null,
        "streetTypeId": "CRT",
        "placeName": "COURTICE",
        "streetNameDisplayText": "VETZAL CRT, COURTICE"
      }
    ]
  },
  {
    "postal": "L1E7B0",
    "result": []
  },
  {
    "postal": "L1E5K2",
    "result": []
  },
  {
    "postal": "L1E1E9",
    "result": [
      {
        "electoralDistricts": [
          {
            "election": null,
            "id": 24,
            "name": "Durham"
          }
        ],
        "pollDivisionIds": [
          10137840
        ],
        "postalCode": "L1E1E9",
        "streetName": "FOXHUNT",
        "streetDirectionId": null,
        "streetTypeId": "TRAIL",
        "placeName": "COURTICE",
        "streetNameDisplayText": "FOXHUNT TRAIL, COURTICE"
      },
      {
        "electoralDistricts": [
          {
            "election": null,
            "id": 24,
            "name": "Durham"
          }
        ],
        "pollDivisionIds": [
          10137843
        ],
        "postalCode": "L1E1E9",
        "streetName": "KINGSWOOD",
        "streetDirectionId": null,
        "streetTypeId": "DR",
        "placeName": "COURTICE",
        "streetNameDisplayText": "KINGSWOOD DR, COURTICE"
      }
    ]
  },
  {
    "postal": "L1E9W7",
    "result": []
  },
  {
    "postal": "L1E5W6",
    "result": []
  },
  {
    "postal": "L1E6S6",
    "result": []
  },
  {
    "postal": "L1E2P8",
    "result": [
      {
        "electoralDistricts": [
          {
            "election": null,
            "id": 24,
            "name": "Durham"
          }
        ],
        "pollDivisionIds": [
          10137846
        ],
        "postalCode": "L1E2P8",
        "streetName": "COURTICE",
        "streetDirectionId": null,
        "streetTypeId": "RD",
        "placeName": "COURTICE",
        "streetNameDisplayText": "COURTICE RD, COURTICE"
      }
    ]
  },
  {
    "postal": "L1E4P8",
    "result": []
  },
  {
    "postal": "L1E0V9",
    "result": []
  },
  {
    "postal": "L1E5Y2",
    "result": []
  },
  {
    "postal": "L1E7Z7",
    "result": []
  },
  {
    "postal": "L1E6Y8",
    "result": []
  },
  {
    "postal": "L1E2G7",
    "result": [
      {
        "electoralDistricts": [
          {
            "election": null,
            "id": 24,
            "name": "Durham"
          }
        ],
        "pollDivisionIds": [
          10137846
        ],
        "postalCode": "L1E2G7",
        "streetName": "INGLIS",
        "streetDirectionId": null,
        "streetTypeId": "AVE",
        "placeName": "COURTICE",
        "streetNameDisplayText": "INGLIS AVE, COURTICE"
      },
      {
        "electoralDistricts": [
          {
            "election": null,
            "id": 24,
            "name": "Durham"
          }
        ],
        "pollDivisionIds": [
          10137846
        ],
        "postalCode": "L1E2G7",
        "streetName": "INGLIS",
        "streetDirectionId": null,
        "streetTypeId": "CRT",
        "placeName": "COURTICE",
        "streetNameDisplayText": "INGLIS CRT, COURTICE"
      }
    ]
  },
  {
    "postal": "L1E8C1",
    "result": []
  },
  {
    "postal": "L1E5C5",
    "result": []
  },
  {
    "postal": "L1E2X8",
    "result": [
      {
        "electoralDistricts": [
          {
            "election": null,
            "id": 24,
            "name": "Durham"
          }
        ],
        "pollDivisionIds": [
          10137841
        ],
        "postalCode": "L1E2X8",
        "streetName": "HEARTHSTONE",
        "streetDirectionId": null,
        "streetTypeId": "CRES",
        "placeName": "COURTICE",
        "streetNameDisplayText": "HEARTHSTONE CRES, COURTICE"
      },
      {
        "electoralDistricts": [
          {
            "election": null,
            "id": 24,
            "name": "Durham"
          }
        ],
        "pollDivisionIds": [
          10137841
        ],
        "postalCode": "L1E2X8",
        "streetName": "WEAVER",
        "streetDirectionId": null,
        "streetTypeId": "ST",
        "placeName": "COURTICE",
        "streetNameDisplayText": "WEAVER ST, COURTICE"
      }
    ]
  },
  {
    "postal": "L1E1W5",
    "result": [
      {
        "electoralDistricts": [
          {
            "election": null,
            "id": 24,
            "name": "Durham"
          }
        ],
        "pollDivisionIds": [
          10137842
        ],
        "postalCode": "L1E1W5",
        "streetName": "LYNDALE",
        "streetDirectionId": null,
        "streetTypeId": "CRES",
        "placeName": "COURTICE",
        "streetNameDisplayText": "LYNDALE CRES, COURTICE"
      }
    ]
  },
  {
    "postal": "L1E7G0",
    "result": []
  },
  {
    "postal": "L1E8J8",
    "result": []
  },
  {
    "postal": "L1E3Y0",
    "result": []
  },
  {
    "postal": "L1E9T7",
    "result": []
  },
  {
    "postal": "L1E5P4",
    "result": []
  },
  {
    "postal": "L1E4B0",
    "result": []
  },
  {
    "postal": "L1E9N8",
    "result": []
  },
  {
    "postal": "L1E4A7",
    "result": []
  },
  {
    "postal": "L1E4H9",
    "result": []
  },
  {
    "postal": "L1E6X1",
    "result": []
  },
  {
    "postal": "L1E9Y7",
    "result": []
  },
  {
    "postal": "L1E2Y5",
    "result": [
      {
        "electoralDistricts": [
          {
            "election": null,
            "id": 24,
            "name": "Durham"
          }
        ],
        "pollDivisionIds": [
          10137841
        ],
        "postalCode": "L1E2Y5",
        "streetName": "BUSHFORD",
        "streetDirectionId": null,
        "streetTypeId": "ST",
        "placeName": "COURTICE",
        "streetNameDisplayText": "BUSHFORD ST, COURTICE"
      },
      {
        "electoralDistricts": [
          {
            "election": null,
            "id": 24,
            "name": "Durham"
          }
        ],
        "pollDivisionIds": [
          10137842
        ],
        "postalCode": "L1E2Y5",
        "streetName": "MCMANN",
        "streetDirectionId": null,
        "streetTypeId": "CRES",
        "placeName": "COURTICE",
        "streetNameDisplayText": "MCMANN CRES, COURTICE"
      },
      {
        "electoralDistricts": [
          {
            "election": null,
            "id": 24,
            "name": "Durham"
          }
        ],
        "pollDivisionIds": [
          10137841
        ],
        "postalCode": "L1E2Y5",
        "streetName": "TRULLS",
        "streetDirectionId": null,
        "streetTypeId": "RD",
        "placeName": "COURTICE",
        "streetNameDisplayText": "TRULLS RD, COURTICE"
      }
    ]
  },
  {
    "postal": "L1E8L7",
    "result": []
  },
  {
    "postal": "L1E2A8",
    "result": [
      {
        "electoralDistricts": [
          {
            "election": null,
            "id": 24,
            "name": "Durham"
          }
        ],
        "pollDivisionIds": [
          10137846
        ],
        "postalCode": "L1E2A8",
        "streetName": "INGLIS",
        "streetDirectionId": null,
        "streetTypeId": "AVE",
        "placeName": "COURTICE",
        "streetNameDisplayText": "INGLIS AVE, COURTICE"
      },
      {
        "electoralDistricts": [
          {
            "election": null,
            "id": 24,
            "name": "Durham"
          }
        ],
        "pollDivisionIds": [
          10137846
        ],
        "postalCode": "L1E2A8",
        "streetName": "YORKVILLE",
        "streetDirectionId": null,
        "streetTypeId": "DR",
        "placeName": "COURTICE",
        "streetNameDisplayText": "YORKVILLE DR, COURTICE"
      }
    ]
  },
  {
    "postal": "L1E2K9",
    "result": [
      {
        "electoralDistricts": [
          {
            "election": null,
            "id": 24,
            "name": "Durham"
          }
        ],
        "pollDivisionIds": [
          10137840
        ],
        "postalCode": "L1E2K9",
        "streetName": "BARRINGTON",
        "streetDirectionId": null,
        "streetTypeId": "PL",
        "placeName": "COURTICE",
        "streetNameDisplayText": "BARRINGTON PL, COURTICE"
      },
      {
        "electoralDistricts": [
          {
            "election": null,
            "id": 24,
            "name": "Durham"
          }
        ],
        "pollDivisionIds": [
          10137840,
          10137838
        ],
        "postalCode": "L1E2K9",
        "streetName": "NASH",
        "streetDirectionId": null,
        "streetTypeId": "RD",
        "placeName": "COURTICE",
        "streetNameDisplayText": "NASH RD, COURTICE"
      }
    ]
  },
  {
    "postal": "L1E3E5",
    "result": [
      {
        "electoralDistricts": [
          {
            "election": null,
            "id": 24,
            "name": "Durham"
          }
        ],
        "pollDivisionIds": [
          10137846
        ],
        "postalCode": "L1E3E5",
        "streetName": "ADAIR",
        "streetDirectionId": null,
        "streetTypeId": "ST",
        "placeName": "COURTICE",
        "streetNameDisplayText": "ADAIR ST, COURTICE"
      },
      {
        "electoralDistricts": [
          {
            "election": null,
            "id": 24,
            "name": "Durham"
          }
        ],
        "pollDivisionIds": [
          10137846
        ],
        "postalCode": "L1E3E5",
        "streetName": "WADE",
        "streetDirectionId": null,
        "streetTypeId": "SQ",
        "placeName": "COURTICE",
        "streetNameDisplayText": "WADE SQ, COURTICE"
      }
    ]
  },
  {
    "postal": "L1E8N6",
    "result": []
  },
  {
    "postal": "L1E8J4",
    "result": []
  },
  {
    "postal": "L1E4R7",
    "result": []
  },
  {
    "postal": "L1E9K1",
    "result": []
  },
  {
    "postal": "L1E8E1",
    "result": []
  },
  {
    "postal": "L1E0R1",
    "result": []
  },
  {
    "postal": "L1E4J3",
    "result": []
  },
  {
    "postal": "L1E7E7",
    "result": []
  },
  {
    "postal": "L1E0J0",
    "result": []
  },
  {
    "postal": "L1E7R8",
    "result": []
  },
  {
    "postal": "L1E9X0",
    "result": []
  },
  {
    "postal": "L1E7P6",
    "result": []
  },
  {
    "postal": "L1E0R7",
    "result": []
  },
  {
    "postal": "L1E5W1",
    "result": []
  },
  {
    "postal": "L1E0K4",
    "result": [
      {
        "electoralDistricts": [
          {
            "election": null,
            "id": 24,
            "name": "Durham"
          }
        ],
        "pollDivisionIds": [
          10137838
        ],
        "postalCode": "L1E0K4",
        "streetName": "TAUNTON",
        "streetDirectionId": null,
        "streetTypeId": "RD",
        "placeName": "COURTICE",
        "streetNameDisplayText": "TAUNTON RD, COURTICE"
      }
    ]
  },
  {
    "postal": "L1E7N9",
    "result": []
  },
  {
    "postal": "L1E1N0",
    "result": []
  },
  {
    "postal": "L1E6P3",
    "result": []
  },
  {
    "postal": "L1E5A1",
    "result": []
  },
  {
    "postal": "L1E9M9",
    "result": []
  },
  {
    "postal": "L1E7T6",
    "result": []
  },
  {
    "postal": "L1E3X0",
    "result": []
  },
  {
    "postal": "L1E2T0",
    "result": []
  },
  {
    "postal": "L1E5X9",
    "result": []
  },
  {
    "postal": "L1E2R3",
    "result": [
      {
        "electoralDistricts": [
          {
            "election": null,
            "id": 24,
            "name": "Durham"
          }
        ],
        "pollDivisionIds": [
          10137846
        ],
        "postalCode": "L1E2R3",
        "streetName": "OSBOURNE",
        "streetDirectionId": null,
        "streetTypeId": "RD",
        "placeName": "COURTICE",
        "streetNameDisplayText": "OSBOURNE RD, COURTICE"
      }
    ]
  },
  {
    "postal": "L1E5N2",
    "result": []
  },
  {
    "postal": "L1E4Y7",
    "result": []
  },
  {
    "postal": "L1E7M0",
    "result": []
  },
  {
    "postal": "L1E8P3",
    "result": []
  },
  {
    "postal": "L1E3N3",
    "result": []
  },
  {
    "postal": "L1E7S3",
    "result": []
  },
  {
    "postal": "L1E3V9",
    "result": []
  },
  {
    "postal": "L1E9N7",
    "result": []
  },
  {
    "postal": "L1E0G4",
    "result": [
      {
        "electoralDistricts": [
          {
            "election": null,
            "id": 24,
            "name": "Durham"
          }
        ],
        "pollDivisionIds": [
          10137837
        ],
        "postalCode": "L1E0G4",
        "streetName": "ARTHUR TREWIN",
        "streetDirectionId": null,
        "streetTypeId": "ST",
        "placeName": "COURTICE",
        "streetNameDisplayText": "ARTHUR TREWIN ST, COURTICE"
      },
      {
        "electoralDistricts": [
          {
            "election": null,
            "id": 24,
            "name": "Durham"
          }
        ],
        "pollDivisionIds": [
          10137837
        ],
        "postalCode": "L1E0G4",
        "streetName": "ELMER ADAMS",
        "streetDirectionId": null,
        "streetTypeId": "DR",
        "placeName": "COURTICE",
        "streetNameDisplayText": "ELMER ADAMS DR, COURTICE"
      },
      {
        "electoralDistricts": [
          {
            "election": null,
            "id": 24,
            "name": "Durham"
          }
        ],
        "pollDivisionIds": [
          10137837
        ],
        "postalCode": "L1E0G4",
        "streetName": "HOLYROD",
        "streetDirectionId": null,
        "streetTypeId": "DR",
        "placeName": "COURTICE",
        "streetNameDisplayText": "HOLYROD DR, COURTICE"
      }
    ]
  },
  {
    "postal": "L1E2E2",
    "result": [
      {
        "electoralDistricts": [
          {
            "election": null,
            "id": 24,
            "name": "Durham"
          }
        ],
        "pollDivisionIds": [
          10137840
        ],
        "postalCode": "L1E2E2",
        "streetName": "GEORGE REYNOLDS",
        "streetDirectionId": null,
        "streetTypeId": "DR",
        "placeName": "COURTICE",
        "streetNameDisplayText": "GEORGE REYNOLDS DR, COURTICE"
      },
      {
        "electoralDistricts": [
          {
            "election": null,
            "id": 24,
            "name": "Durham"
          }
        ],
        "pollDivisionIds": [
          10137840
        ],
        "postalCode": "L1E2E2",
        "streetName": "MULL",
        "streetDirectionId": null,
        "streetTypeId": "CRES",
        "placeName": "COURTICE",
        "streetNameDisplayText": "MULL CRES, COURTICE"
      }
    ]
  },
  {
    "postal": "L1E7W8",
    "result": []
  },
  {
    "postal": "L1E7M5",
    "result": []
  },
  {
    "postal": "L1E5W8",
    "result": []
  },
  {
    "postal": "L1E5E5",
    "result": []
  },
  {
    "postal": "L1E1P9",
    "result": [
      {
        "electoralDistricts": [
          {
            "election": null,
            "id": 24,
            "name": "Durham"
          }
        ],
        "pollDivisionIds": [
          10137838
        ],
        "postalCode": "L1E1P9",
        "streetName": "DEVONDALE",
        "streetDirectionId": null,
        "streetTypeId": "ST",
        "placeName": "COURTICE",
        "streetNameDisplayText": "DEVONDALE ST, COURTICE"
      },
      {
        "electoralDistricts": [
          {
            "election": null,
            "id": 24,
            "name": "Durham"
          }
        ],
        "pollDivisionIds": [
          10137838,
          10137840
        ],
        "postalCode": "L1E1P9",
        "streetName": "FIRWOOD",
        "streetDirectionId": null,
        "streetTypeId": "AVE",
        "placeName": "COURTICE",
        "streetNameDisplayText": "FIRWOOD AVE, COURTICE"
      }
    ]
  },
  {
    "postal": "L1E8V8",
    "result": []
  },
  {
    "postal": "L1E9G8",
    "result": []
  },
  {
    "postal": "L1E8H9",
    "result": []
  },
  {
    "postal": "L1E1Z1",
    "result": [
      {
        "electoralDistricts": [
          {
            "election": null,
            "id": 24,
            "name": "Durham"
          }
        ],
        "pollDivisionIds": [
          10137842
        ],
        "postalCode": "L1E1Z1",
        "streetName": "STEPHEN",
        "streetDirectionId": null,
        "streetTypeId": "AVE",
        "placeName": "COURTICE",
        "streetNameDisplayText": "STEPHEN AVE, COURTICE"
      },
      {
        "electoralDistricts": [
          {
            "election": null,
            "id": 24,
            "name": "Durham"
          }
        ],
        "pollDivisionIds": [
          10137842
        ],
        "postalCode": "L1E1Z1",
        "streetName": "STUART",
        "streetDirectionId": null,
        "streetTypeId": "RD",
        "placeName": "COURTICE",
        "streetNameDisplayText": "STUART RD, COURTICE"
      }
    ]
  },
  {
    "postal": "L1E8M3",
    "result": []
  },
  {
    "postal": "L1E5H6",
    "result": []
  },
  {
    "postal": "L1E7W7",
    "result": []
  },
  {
    "postal": "L1E4L0",
    "result": []
  },
  {
    "postal": "L1E2N1",
    "result": [
      {
        "electoralDistricts": [
          {
            "election": null,
            "id": 24,
            "name": "Durham"
          }
        ],
        "pollDivisionIds": [
          10137846
        ],
        "postalCode": "L1E2N1",
        "streetName": "BLOOR",
        "streetDirectionId": null,
        "streetTypeId": "ST",
        "placeName": "COURTICE",
        "streetNameDisplayText": "BLOOR ST, COURTICE"
      },
      {
        "electoralDistricts": [
          {
            "election": null,
            "id": 24,
            "name": "Durham"
          }
        ],
        "pollDivisionIds": [
          10137846
        ],
        "postalCode": "L1E2N1",
        "streetName": "COURTICE",
        "streetDirectionId": null,
        "streetTypeId": "RD",
        "placeName": "COURTICE",
        "streetNameDisplayText": "COURTICE RD, COURTICE"
      }
    ]
  },
  {
    "postal": "L1E2H4",
    "result": [
      {
        "electoralDistricts": [
          {
            "election": null,
            "id": 24,
            "name": "Durham"
          }
        ],
        "pollDivisionIds": [
          10137842
        ],
        "postalCode": "L1E2H4",
        "streetName": "MCMANN",
        "streetDirectionId": null,
        "streetTypeId": "CRES",
        "placeName": "COURTICE",
        "streetNameDisplayText": "MCMANN CRES, COURTICE"
      },
      {
        "electoralDistricts": [
          {
            "election": null,
            "id": 24,
            "name": "Durham"
          }
        ],
        "pollDivisionIds": [
          10137842
        ],
        "postalCode": "L1E2H4",
        "streetName": "POOLTON",
        "streetDirectionId": null,
        "streetTypeId": "CRES",
        "placeName": "COURTICE",
        "streetNameDisplayText": "POOLTON CRES, COURTICE"
      },
      {
        "electoralDistricts": [
          {
            "election": null,
            "id": 24,
            "name": "Durham"
          }
        ],
        "pollDivisionIds": [
          10137842
        ],
        "postalCode": "L1E2H4",
        "streetName": "STRATHALLAN",
        "streetDirectionId": null,
        "streetTypeId": "DR",
        "placeName": "COURTICE",
        "streetNameDisplayText": "STRATHALLAN DR, COURTICE"
      }
    ]
  },
  {
    "postal": "L1E5C8",
    "result": []
  },
  {
    "postal": "L1E8B0",
    "result": []
  },
  {
    "postal": "L1E1T4",
    "result": [
      {
        "electoralDistricts": [
          {
            "election": null,
            "id": 24,
            "name": "Durham"
          }
        ],
        "pollDivisionIds": [
          10137840
        ],
        "postalCode": "L1E1T4",
        "streetName": "WHITE CLIFFE",
        "streetDirectionId": null,
        "streetTypeId": "DR",
        "placeName": "COURTICE",
        "streetNameDisplayText": "WHITE CLIFFE DR, COURTICE"
      }
    ]
  },
  {
    "postal": "L1E7N7",
    "result": []
  },
  {
    "postal": "L1E4L3",
    "result": []
  },
  {
    "postal": "L1E2N2",
    "result": [
      {
        "electoralDistricts": [
          {
            "election": null,
            "id": 24,
            "name": "Durham"
          }
        ],
        "pollDivisionIds": [
          10137841
        ],
        "postalCode": "L1E2N2",
        "streetName": "TRULLS",
        "streetDirectionId": null,
        "streetTypeId": "RD",
        "placeName": "BOWMANVILLE",
        "streetNameDisplayText": "TRULLS RD, BOWMANVILLE"
      },
      {
        "electoralDistricts": [
          {
            "election": null,
            "id": 24,
            "name": "Durham"
          }
        ],
        "pollDivisionIds": [
          10137846,
          10137841
        ],
        "postalCode": "L1E2N2",
        "streetName": "TRULLS",
        "streetDirectionId": null,
        "streetTypeId": "RD",
        "placeName": "COURTICE",
        "streetNameDisplayText": "TRULLS RD, COURTICE"
      }
    ]
  },
  {
    "postal": "L1E4N8",
    "result": []
  },
  {
    "postal": "L1E3M5",
    "result": []
  },
  {
    "postal": "L1E6H7",
    "result": []
  },
  {
    "postal": "L1E8Y8",
    "result": []
  },
  {
    "postal": "L1E5R9",
    "result": []
  },
  {
    "postal": "L1E8G3",
    "result": []
  },
  {
    "postal": "L1E4N7",
    "result": []
  },
  {
    "postal": "L1E0B9",
    "result": [
      {
        "electoralDistricts": [
          {
            "election": null,
            "id": 24,
            "name": "Durham"
          }
        ],
        "pollDivisionIds": [
          10137844
        ],
        "postalCode": "L1E0B9",
        "streetName": "DEWELL",
        "streetDirectionId": null,
        "streetTypeId": "CRES",
        "placeName": "COURTICE",
        "streetNameDisplayText": "DEWELL CRES, COURTICE"
      }
    ]
  },
  {
    "postal": "L1E9K7",
    "result": []
  },
  {
    "postal": "L1E9K9",
    "result": []
  },
  {
    "postal": "L1E3Z2",
    "result": []
  },
  {
    "postal": "L1E6W7",
    "result": []
  },
  {
    "postal": "L1E0P1",
    "result": []
  },
  {
    "postal": "L1E3A0",
    "result": []
  },
  {
    "postal": "L1E8L9",
    "result": []
  },
  {
    "postal": "L1E6X0",
    "result": []
  },
  {
    "postal": "L1E3E9",
    "result": []
  },
  {
    "postal": "L1E0S5",
    "result": []
  },
  {
    "postal": "L1E1A2",
    "result": [
      {
        "electoralDistricts": [
          {
            "election": null,
            "id": 24,
            "name": "Durham"
          }
        ],
        "pollDivisionIds": [
          10137844
        ],
        "postalCode": "L1E1A2",
        "streetName": "TURNBERRY",
        "streetDirectionId": null,
        "streetTypeId": "CRES",
        "placeName": "COURTICE",
        "streetNameDisplayText": "TURNBERRY CRES, COURTICE"
      }
    ]
  },
  {
    "postal": "L1E5V8",
    "result": []
  },
  {
    "postal": "L1E8C5",
    "result": []
  },
  {
    "postal": "L1E6N0",
    "result": []
  },
  {
    "postal": "L1E9E6",
    "result": []
  },
  {
    "postal": "L1E5J7",
    "result": []
  },
  {
    "postal": "L1E2R2",
    "result": [
      {
        "electoralDistricts": [
          {
            "election": null,
            "id": 24,
            "name": "Durham"
          }
        ],
        "pollDivisionIds": [
          10137846
        ],
        "postalCode": "L1E2R2",
        "streetName": "OSBOURNE",
        "streetDirectionId": null,
        "streetTypeId": "RD",
        "placeName": "COURTICE",
        "streetNameDisplayText": "OSBOURNE RD, COURTICE"
      }
    ]
  },
  {
    "postal": "L1E0P5",
    "result": []
  },
  {
    "postal": "L1E5A7",
    "result": []
  },
  {
    "postal": "L1E1G1",
    "result": [
      {
        "electoralDistricts": [
          {
            "election": null,
            "id": 24,
            "name": "Durham"
          }
        ],
        "pollDivisionIds": [
          10137843,
          10137840
        ],
        "postalCode": "L1E1G1",
        "streetName": "FOXHUNT",
        "streetDirectionId": null,
        "streetTypeId": "TRAIL",
        "placeName": "COURTICE",
        "streetNameDisplayText": "FOXHUNT TRAIL, COURTICE"
      },
      {
        "electoralDistricts": [
          {
            "election": null,
            "id": 24,
            "name": "Durham"
          }
        ],
        "pollDivisionIds": [
          10137840
        ],
        "postalCode": "L1E1G1",
        "streetName": "KINGSWOOD",
        "streetDirectionId": null,
        "streetTypeId": "DR",
        "placeName": "COURTICE",
        "streetNameDisplayText": "KINGSWOOD DR, COURTICE"
      }
    ]
  },
  {
    "postal": "L1E9R6",
    "result": []
  },
  {
    "postal": "L1E4Z9",
    "result": []
  },
  {
    "postal": "L1E1V5",
    "result": [
      {
        "electoralDistricts": [
          {
            "election": null,
            "id": 24,
            "name": "Durham"
          }
        ],
        "pollDivisionIds": [
          10137842
        ],
        "postalCode": "L1E1V5",
        "streetName": "HAMPSTEAD",
        "streetDirectionId": null,
        "streetTypeId": "GATE",
        "placeName": "COURTICE",
        "streetNameDisplayText": "HAMPSTEAD GATE, COURTICE"
      },
      {
        "electoralDistricts": [
          {
            "election": null,
            "id": 24,
            "name": "Durham"
          }
        ],
        "pollDivisionIds": [
          10137842
        ],
        "postalCode": "L1E1V5",
        "streetName": "RENWICK",
        "streetDirectionId": null,
        "streetTypeId": "RD",
        "placeName": "COURTICE",
        "streetNameDisplayText": "RENWICK RD, COURTICE"
      }
    ]
  },
  {
    "postal": "L1E9Y5",
    "result": []
  },
  {
    "postal": "L1E1P2",
    "result": [
      {
        "electoralDistricts": [
          {
            "election": null,
            "id": 24,
            "name": "Durham"
          }
        ],
        "pollDivisionIds": [
          10137838
        ],
        "postalCode": "L1E1P2",
        "streetName": "GOLDPINE",
        "streetDirectionId": null,
        "streetTypeId": "AVE",
        "placeName": "COURTICE",
        "streetNameDisplayText": "GOLDPINE AVE, COURTICE"
      }
    ]
  },
  {
    "postal": "L1E5X0",
    "result": []
  },
  {
    "postal": "L1E7B8",
    "result": []
  },
  {
    "postal": "L1E0C6",
    "result": [
      {
        "electoralDistricts": [
          {
            "election": null,
            "id": 24,
            "name": "Durham"
          }
        ],
        "pollDivisionIds": [
          10137846
        ],
        "postalCode": "L1E0C6",
        "streetName": "ARNOLD JOHNSTON",
        "streetDirectionId": null,
        "streetTypeId": "ST",
        "placeName": "COURTICE",
        "streetNameDisplayText": "ARNOLD JOHNSTON ST, COURTICE"
      },
      {
        "electoralDistricts": [
          {
            "election": null,
            "id": 24,
            "name": "Durham"
          }
        ],
        "pollDivisionIds": [
          10137846
        ],
        "postalCode": "L1E0C6",
        "streetName": "WORDEN",
        "streetDirectionId": null,
        "streetTypeId": "DR",
        "placeName": "COURTICE",
        "streetNameDisplayText": "WORDEN DR, COURTICE"
      }
    ]
  },
  {
    "postal": "L1E6G1",
    "result": []
  },
  {
    "postal": "L1E3K3",
    "result": [
      {
        "electoralDistricts": [
          {
            "election": null,
            "id": 24,
            "name": "Durham"
          }
        ],
        "pollDivisionIds": [
          10137845
        ],
        "postalCode": "L1E3K3",
        "streetName": "BINGHAM",
        "streetDirectionId": null,
        "streetTypeId": "GATE",
        "placeName": "COURTICE",
        "streetNameDisplayText": "BINGHAM GATE, COURTICE"
      },
      {
        "electoralDistricts": [
          {
            "election": null,
            "id": 24,
            "name": "Durham"
          }
        ],
        "pollDivisionIds": [
          10137845
        ],
        "postalCode": "L1E3K3",
        "streetName": "DUDLEY",
        "streetDirectionId": null,
        "streetTypeId": "CRT",
        "placeName": "COURTICE",
        "streetNameDisplayText": "DUDLEY CRT, COURTICE"
      }
    ]
  },
  {
    "postal": "L1E9R0",
    "result": []
  },
  {
    "postal": "L1E4R8",
    "result": []
  },
  {
    "postal": "L1E5P9",
    "result": []
  },
  {
    "postal": "L1E8N4",
    "result": []
  },
  {
    "postal": "L1E8H4",
    "result": []
  },
  {
    "postal": "L1E4V1",
    "result": []
  },
  {
    "postal": "L1E1K5",
    "result": [
      {
        "electoralDistricts": [
          {
            "election": null,
            "id": 24,
            "name": "Durham"
          }
        ],
        "pollDivisionIds": [
          10137839
        ],
        "postalCode": "L1E1K5",
        "streetName": "CLOVERFIELD",
        "streetDirectionId": null,
        "streetTypeId": "ST",
        "placeName": "COURTICE",
        "streetNameDisplayText": "CLOVERFIELD ST, COURTICE"
      }
    ]
  },
  {
    "postal": "L1E1Z5",
    "result": [
      {
        "electoralDistricts": [
          {
            "election": null,
            "id": 24,
            "name": "Durham"
          }
        ],
        "pollDivisionIds": [
          10137838
        ],
        "postalCode": "L1E1Z5",
        "streetName": "LORD DUNCAN",
        "streetDirectionId": null,
        "streetTypeId": "CRT",
        "placeName": "COURTICE",
        "streetNameDisplayText": "LORD DUNCAN CRT, COURTICE"
      },
      {
        "electoralDistricts": [
          {
            "election": null,
            "id": 24,
            "name": "Durham"
          }
        ],
        "pollDivisionIds": [
          10137838
        ],
        "postalCode": "L1E1Z5",
        "streetName": "PRINCE RUPERT",
        "streetDirectionId": null,
        "streetTypeId": "DR",
        "placeName": "COURTICE",
        "streetNameDisplayText": "PRINCE RUPERT DR, COURTICE"
      }
    ]
  },
  {
    "postal": "L1E9L9",
    "result": []
  },
  {
    "postal": "L1E5L2",
    "result": []
  },
  {
    "postal": "L1E0M2",
    "result": []
  },
  {
    "postal": "L1E1K8",
    "result": [
      {
        "electoralDistricts": [
          {
            "election": null,
            "id": 24,
            "name": "Durham"
          }
        ],
        "pollDivisionIds": [
          10137839
        ],
        "postalCode": "L1E1K8",
        "streetName": "CLOVERFIELD",
        "streetDirectionId": null,
        "streetTypeId": "ST",
        "placeName": "COURTICE",
        "streetNameDisplayText": "CLOVERFIELD ST, COURTICE"
      },
      {
        "electoralDistricts": [
          {
            "election": null,
            "id": 24,
            "name": "Durham"
          }
        ],
        "pollDivisionIds": [
          10137839
        ],
        "postalCode": "L1E1K8",
        "streetName": "HOMEFIELD",
        "streetDirectionId": null,
        "streetTypeId": "SQ",
        "placeName": "COURTICE",
        "streetNameDisplayText": "HOMEFIELD SQ, COURTICE"
      }
    ]
  },
  {
    "postal": "L1E3M7",
    "result": []
  },
  {
    "postal": "L1E1B2",
    "result": [
      {
        "electoralDistricts": [
          {
            "election": null,
            "id": 24,
            "name": "Durham"
          }
        ],
        "pollDivisionIds": [
          10137844
        ],
        "postalCode": "L1E1B2",
        "streetName": "TURNBERRY",
        "streetDirectionId": null,
        "streetTypeId": "CRES",
        "placeName": "COURTICE",
        "streetNameDisplayText": "TURNBERRY CRES, COURTICE"
      }
    ]
  },
  {
    "postal": "L1E0H9",
    "result": [
      {
        "electoralDistricts": [
          {
            "election": null,
            "id": 24,
            "name": "Durham"
          }
        ],
        "pollDivisionIds": [
          10137839
        ],
        "postalCode": "L1E0H9",
        "streetName": "MAHAFFY",
        "streetDirectionId": null,
        "streetTypeId": "PL",
        "placeName": "COURTICE",
        "streetNameDisplayText": "MAHAFFY PL, COURTICE"
      },
      {
        "electoralDistricts": [
          {
            "election": null,
            "id": 24,
            "name": "Durham"
          }
        ],
        "pollDivisionIds": [
          10137839
        ],
        "postalCode": "L1E0H9",
        "streetName": "VARCOE",
        "streetDirectionId": null,
        "streetTypeId": "RD",
        "placeName": "COURTICE",
        "streetNameDisplayText": "VARCOE RD, COURTICE"
      }
    ]
  },
  {
    "postal": "L1E8M4",
    "result": []
  },
  {
    "postal": "L1E2M5",
    "result": [
      {
        "electoralDistricts": [
          {
            "election": null,
            "id": 24,
            "name": "Durham"
          }
        ],
        "pollDivisionIds": [
          10137837
        ],
        "postalCode": "L1E2M5",
        "streetName": "2",
        "streetDirectionId": null,
        "streetTypeId": "HWY",
        "placeName": "COURTICE",
        "streetNameDisplayText": "2 HWY, COURTICE"
      },
      {
        "electoralDistricts": [
          {
            "election": null,
            "id": 24,
            "name": "Durham"
          }
        ],
        "pollDivisionIds": [
          10137837
        ],
        "postalCode": "L1E2M5",
        "streetName": "COURTICE",
        "streetDirectionId": null,
        "streetTypeId": "RD",
        "placeName": "COURTICE",
        "streetNameDisplayText": "COURTICE RD, COURTICE"
      }
    ]
  },
  {
    "postal": "L1E0T9",
    "result": []
  },
  {
    "postal": "L1E3P1",
    "result": []
  },
  {
    "postal": "L1E1R6",
    "result": [
      {
        "electoralDistricts": [
          {
            "election": null,
            "id": 24,
            "name": "Durham"
          }
        ],
        "pollDivisionIds": [
          10137838
        ],
        "postalCode": "L1E1R6",
        "streetName": "BROADLANDS",
        "streetDirectionId": null,
        "streetTypeId": "CRES",
        "placeName": "COURTICE",
        "streetNameDisplayText": "BROADLANDS CRES, COURTICE"
      },
      {
        "electoralDistricts": [
          {
            "election": null,
            "id": 24,
            "name": "Durham"
          }
        ],
        "pollDivisionIds": [
          10137838,
          10137840
        ],
        "postalCode": "L1E1R6",
        "streetName": "FIRWOOD",
        "streetDirectionId": null,
        "streetTypeId": "AVE",
        "placeName": "COURTICE",
        "streetNameDisplayText": "FIRWOOD AVE, COURTICE"
      }
    ]
  },
  {
    "postal": "L1E9V5",
    "result": []
  },
  {
    "postal": "L1E9T0",
    "result": []
  },
  {
    "postal": "L1E0A9",
    "result": [
      {
        "electoralDistricts": [
          {
            "election": null,
            "id": 24,
            "name": "Durham"
          }
        ],
        "pollDivisionIds": [
          10137837
        ],
        "postalCode": "L1E0A9",
        "streetName": "GEORGE REYNOLDS",
        "streetDirectionId": null,
        "streetTypeId": "DR",
        "placeName": "COURTICE",
        "streetNameDisplayText": "GEORGE REYNOLDS DR, COURTICE"
      },
      {
        "electoralDistricts": [
          {
            "election": null,
            "id": 24,
            "name": "Durham"
          }
        ],
        "pollDivisionIds": [
          10137837
        ],
        "postalCode": "L1E0A9",
        "streetName": "HARRY GAY",
        "streetDirectionId": null,
        "streetTypeId": "DR",
        "placeName": "COURTICE",
        "streetNameDisplayText": "HARRY GAY DR, COURTICE"
      }
    ]
  },
  {
    "postal": "L1E1M3",
    "result": [
      {
        "electoralDistricts": [
          {
            "election": null,
            "id": 24,
            "name": "Durham"
          }
        ],
        "pollDivisionIds": [
          10137839
        ],
        "postalCode": "L1E1M3",
        "streetName": "BIRCHFIELD",
        "streetDirectionId": null,
        "streetTypeId": "CRT",
        "placeName": "COURTICE",
        "streetNameDisplayText": "BIRCHFIELD CRT, COURTICE"
      }
    ]
  },
  {
    "postal": "L1E1W8",
    "result": [
      {
        "electoralDistricts": [
          {
            "election": null,
            "id": 24,
            "name": "Durham"
          }
        ],
        "pollDivisionIds": [
          10137842
        ],
        "postalCode": "L1E1W8",
        "streetName": "SANDRINGHAM",
        "streetDirectionId": null,
        "streetTypeId": "DR",
        "placeName": "COURTICE",
        "streetNameDisplayText": "SANDRINGHAM DR, COURTICE"
      }
    ]
  },
  {
    "postal": "L1E9J1",
    "result": []
  },
  {
    "postal": "L1E8N5",
    "result": []
  },
  {
    "postal": "L1E5X1",
    "result": []
  },
  {
    "postal": "L1E6S2",
    "result": []
  },
  {
    "postal": "L1E2A2",
    "result": [
      {
        "electoralDistricts": [
          {
            "election": null,
            "id": 24,
            "name": "Durham"
          }
        ],
        "pollDivisionIds": [
          10137842,
          10137841
        ],
        "postalCode": "L1E2A2",
        "streetName": "BUSHFORD",
        "streetDirectionId": null,
        "streetTypeId": "ST",
        "placeName": "COURTICE",
        "streetNameDisplayText": "BUSHFORD ST, COURTICE"
      },
      {
        "electoralDistricts": [
          {
            "election": null,
            "id": 24,
            "name": "Durham"
          }
        ],
        "pollDivisionIds": [
          10137841
        ],
        "postalCode": "L1E2A2",
        "streetName": "SANDRINGHAM",
        "streetDirectionId": null,
        "streetTypeId": "DR",
        "placeName": "COURTICE",
        "streetNameDisplayText": "SANDRINGHAM DR, COURTICE"
      },
      {
        "electoralDistricts": [
          {
            "election": null,
            "id": 24,
            "name": "Durham"
          }
        ],
        "pollDivisionIds": [
          10137841,
          10137842
        ],
        "postalCode": "L1E2A2",
        "streetName": "STUART",
        "streetDirectionId": null,
        "streetTypeId": "RD",
        "placeName": "COURTICE",
        "streetNameDisplayText": "STUART RD, COURTICE"
      }
    ]
  },
  {
    "postal": "L1E6A6",
    "result": []
  },
  {
    "postal": "L1E0S3",
    "result": []
  },
  {
    "postal": "L1E3E7",
    "result": [
      {
        "electoralDistricts": [
          {
            "election": null,
            "id": 24,
            "name": "Durham"
          }
        ],
        "pollDivisionIds": [
          10137837
        ],
        "postalCode": "L1E3E7",
        "streetName": "BELLMAN",
        "streetDirectionId": null,
        "streetTypeId": "CRT",
        "placeName": "COURTICE",
        "streetNameDisplayText": "BELLMAN CRT, COURTICE"
      },
      {
        "electoralDistricts": [
          {
            "election": null,
            "id": 24,
            "name": "Durham"
          }
        ],
        "pollDivisionIds": [
          10137837
        ],
        "postalCode": "L1E3E7",
        "streetName": "CECIL FOUND",
        "streetDirectionId": null,
        "streetTypeId": "CRES",
        "placeName": "COURTICE",
        "streetNameDisplayText": "CECIL FOUND CRES, COURTICE"
      },
      {
        "electoralDistricts": [
          {
            "election": null,
            "id": 24,
            "name": "Durham"
          }
        ],
        "pollDivisionIds": [
          10137837
        ],
        "postalCode": "L1E3E7",
        "streetName": "GEORGE REYNOLDS",
        "streetDirectionId": null,
        "streetTypeId": "DR",
        "placeName": "COURTICE",
        "streetNameDisplayText": "GEORGE REYNOLDS DR, COURTICE"
      }
    ]
  },
  {
    "postal": "L1E5R7",
    "result": []
  },
  {
    "postal": "L1E3R6",
    "result": []
  },
  {
    "postal": "L1E6K4",
    "result": []
  },
  {
    "postal": "L1E2W5",
    "result": [
      {
        "electoralDistricts": [
          {
            "election": null,
            "id": 24,
            "name": "Durham"
          }
        ],
        "pollDivisionIds": [
          10137842
        ],
        "postalCode": "L1E2W5",
        "streetName": "PHAIR",
        "streetDirectionId": null,
        "streetTypeId": "AVE",
        "placeName": "COURTICE",
        "streetNameDisplayText": "PHAIR AVE, COURTICE"
      },
      {
        "electoralDistricts": [
          {
            "election": null,
            "id": 24,
            "name": "Durham"
          }
        ],
        "pollDivisionIds": [
          10137842
        ],
        "postalCode": "L1E2W5",
        "streetName": "PRESTONVALE",
        "streetDirectionId": null,
        "streetTypeId": "RD",
        "placeName": "COURTICE",
        "streetNameDisplayText": "PRESTONVALE RD, COURTICE"
      },
      {
        "electoralDistricts": [
          {
            "election": null,
            "id": 24,
            "name": "Durham"
          }
        ],
        "pollDivisionIds": [
          10137842
        ],
        "postalCode": "L1E2W5",
        "streetName": "ROBERT ADAMS",
        "streetDirectionId": null,
        "streetTypeId": "DR",
        "placeName": "COURTICE",
        "streetNameDisplayText": "ROBERT ADAMS DR, COURTICE"
      }
    ]
  },
  {
    "postal": "L1E8W4",
    "result": []
  },
  {
    "postal": "L1E9C2",
    "result": []
  },
  {
    "postal": "L1E2C0",
    "result": []
  },
  {
    "postal": "L1E0E1",
    "result": [
      {
        "electoralDistricts": [
          {
            "election": null,
            "id": 24,
            "name": "Durham"
          }
        ],
        "pollDivisionIds": [
          10137846
        ],
        "postalCode": "L1E0E1",
        "streetName": "WORDEN",
        "streetDirectionId": null,
        "streetTypeId": "DR",
        "placeName": "COURTICE",
        "streetNameDisplayText": "WORDEN DR, COURTICE"
      }
    ]
  },
  {
    "postal": "L1E1K9",
    "result": [
      {
        "electoralDistricts": [
          {
            "election": null,
            "id": 24,
            "name": "Durham"
          }
        ],
        "pollDivisionIds": [
          10137839
        ],
        "postalCode": "L1E1K9",
        "streetName": "HOMEFIELD",
        "streetDirectionId": null,
        "streetTypeId": "SQ",
        "placeName": "COURTICE",
        "streetNameDisplayText": "HOMEFIELD SQ, COURTICE"
      }
    ]
  },
  {
    "postal": "L1E1G7",
    "result": [
      {
        "electoralDistricts": [
          {
            "election": null,
            "id": 24,
            "name": "Durham"
          }
        ],
        "pollDivisionIds": [
          10137839
        ],
        "postalCode": "L1E1G7",
        "streetName": "CHERRY BLOSSOM",
        "streetDirectionId": null,
        "streetTypeId": "CRES",
        "placeName": "COURTICE",
        "streetNameDisplayText": "CHERRY BLOSSOM CRES, COURTICE"
      }
    ]
  },
  {
    "postal": "L1E4E9",
    "result": []
  },
  {
    "postal": "L1E9P0",
    "result": []
  },
  {
    "postal": "L1E5H3",
    "result": []
  },
  {
    "postal": "L1E9X6",
    "result": []
  },
  {
    "postal": "L1E5N7",
    "result": []
  },
  {
    "postal": "L1E5A6",
    "result": []
  },
  {
    "postal": "L1E4M0",
    "result": []
  },
  {
    "postal": "L1E3V6",
    "result": []
  },
  {
    "postal": "L1E1L7",
    "result": [
      {
        "electoralDistricts": [
          {
            "election": null,
            "id": 24,
            "name": "Durham"
          }
        ],
        "pollDivisionIds": [
          10137839
        ],
        "postalCode": "L1E1L7",
        "streetName": "CENTERFIELD",
        "streetDirectionId": null,
        "streetTypeId": "DR",
        "placeName": "COURTICE",
        "streetNameDisplayText": "CENTERFIELD DR, COURTICE"
      },
      {
        "electoralDistricts": [
          {
            "election": null,
            "id": 24,
            "name": "Durham"
          }
        ],
        "pollDivisionIds": [
          10137839
        ],
        "postalCode": "L1E1L7",
        "streetName": "HARTSFIELD",
        "streetDirectionId": null,
        "streetTypeId": "DR",
        "placeName": "COURTICE",
        "streetNameDisplayText": "HARTSFIELD DR, COURTICE"
      }
    ]
  },
  {
    "postal": "L1E2P9",
    "result": [
      {
        "electoralDistricts": [
          {
            "election": null,
            "id": 24,
            "name": "Durham"
          }
        ],
        "pollDivisionIds": [
          10137846
        ],
        "postalCode": "L1E2P9",
        "streetName": "COURTICE",
        "streetDirectionId": null,
        "streetTypeId": "RD",
        "placeName": "COURTICE",
        "streetNameDisplayText": "COURTICE RD, COURTICE"
      }
    ]
  },
  {
    "postal": "L1E5T4",
    "result": []
  },
  {
    "postal": "L1E5Z1",
    "result": []
  },
  {
    "postal": "L1E2X0",
    "result": []
  },
  {
    "postal": "L1E6Z2",
    "result": []
  },
  {
    "postal": "L1E0E0",
    "result": []
  },
  {
    "postal": "L1E3Z5",
    "result": []
  },
  {
    "postal": "L1E8H3",
    "result": []
  },
  {
    "postal": "L1E7S6",
    "result": []
  },
  {
    "postal": "L1E4C1",
    "result": []
  },
  {
    "postal": "L1E3K2",
    "result": [
      {
        "electoralDistricts": [
          {
            "election": null,
            "id": 24,
            "name": "Durham"
          }
        ],
        "pollDivisionIds": [
          10137845
        ],
        "postalCode": "L1E3K2",
        "streetName": "BINGHAM",
        "streetDirectionId": null,
        "streetTypeId": "GATE",
        "placeName": "COURTICE",
        "streetNameDisplayText": "BINGHAM GATE, COURTICE"
      },
      {
        "electoralDistricts": [
          {
            "election": null,
            "id": 24,
            "name": "Durham"
          }
        ],
        "pollDivisionIds": [
          10137845
        ],
        "postalCode": "L1E3K2",
        "streetName": "COUSINS",
        "streetDirectionId": null,
        "streetTypeId": "ST",
        "placeName": "COURTICE",
        "streetNameDisplayText": "COUSINS ST, COURTICE"
      },
      {
        "electoralDistricts": [
          {
            "election": null,
            "id": 24,
            "name": "Durham"
          }
        ],
        "pollDivisionIds": [
          10137845
        ],
        "postalCode": "L1E3K2",
        "streetName": "FENNING",
        "streetDirectionId": null,
        "streetTypeId": "DR",
        "placeName": "COURTICE",
        "streetNameDisplayText": "FENNING DR, COURTICE"
      }
    ]
  },
  {
    "postal": "L1E1Y5",
    "result": [
      {
        "electoralDistricts": [
          {
            "election": null,
            "id": 24,
            "name": "Durham"
          }
        ],
        "pollDivisionIds": [
          10137843
        ],
        "postalCode": "L1E1Y5",
        "streetName": "BEECHNUT",
        "streetDirectionId": null,
        "streetTypeId": "CRES",
        "placeName": "COURTICE",
        "streetNameDisplayText": "BEECHNUT CRES, COURTICE"
      }
    ]
  },
  {
    "postal": "L1E6P6",
    "result": []
  },
  {
    "postal": "L1E3N9",
    "result": []
  },
  {
    "postal": "L1E3W2",
    "result": []
  },
  {
    "postal": "L1E6H8",
    "result": []
  },
  {
    "postal": "L1E9T3",
    "result": []
  },
  {
    "postal": "L1E5L9",
    "result": []
  },
  {
    "postal": "L1E7X7",
    "result": []
  },
  {
    "postal": "L1E3J5",
    "result": [
      {
        "electoralDistricts": [
          {
            "election": null,
            "id": 24,
            "name": "Durham"
          }
        ],
        "pollDivisionIds": [
          10137844
        ],
        "postalCode": "L1E3J5",
        "streetName": "BECKETT",
        "streetDirectionId": null,
        "streetTypeId": "CRES",
        "placeName": "COURTICE",
        "streetNameDisplayText": "BECKETT CRES, COURTICE"
      },
      {
        "electoralDistricts": [
          {
            "election": null,
            "id": 24,
            "name": "Durham"
          }
        ],
        "pollDivisionIds": [
          10137844
        ],
        "postalCode": "L1E3J5",
        "streetName": "HUNTINGTON",
        "streetDirectionId": null,
        "streetTypeId": "CRES",
        "placeName": "COURTICE",
        "streetNameDisplayText": "HUNTINGTON CRES, COURTICE"
      }
    ]
  },
  {
    "postal": "L1E4J5",
    "result": []
  },
  {
    "postal": "L1E6J2",
    "result": []
  },
  {
    "postal": "L1E5V6",
    "result": []
  },
  {
    "postal": "L1E3N2",
    "result": []
  },
  {
    "postal": "L1E3B1",
    "result": [
      {
        "electoralDistricts": [
          {
            "election": null,
            "id": 24,
            "name": "Durham"
          }
        ],
        "pollDivisionIds": [
          10137843
        ],
        "postalCode": "L1E3B1",
        "streetName": "SAGEWOOD",
        "streetDirectionId": null,
        "streetTypeId": "AVE",
        "placeName": "COURTICE",
        "streetNameDisplayText": "SAGEWOOD AVE, COURTICE"
      }
    ]
  },
  {
    "postal": "L1E8B5",
    "result": []
  },
  {
    "postal": "L1E0K1",
    "result": []
  },
  {
    "postal": "L1E7M7",
    "result": []
  },
  {
    "postal": "L1E2M2",
    "result": [
      {
        "electoralDistricts": [
          {
            "election": null,
            "id": 24,
            "name": "Durham"
          }
        ],
        "pollDivisionIds": [
          10137837
        ],
        "postalCode": "L1E2M2",
        "streetName": "HANCOCK",
        "streetDirectionId": null,
        "streetTypeId": "RD",
        "placeName": "COURTICE",
        "streetNameDisplayText": "HANCOCK RD, COURTICE"
      },
      {
        "electoralDistricts": [
          {
            "election": null,
            "id": 24,
            "name": "Durham"
          }
        ],
        "pollDivisionIds": [
          10137837
        ],
        "postalCode": "L1E2M2",
        "streetName": "NASH",
        "streetDirectionId": null,
        "streetTypeId": "RD",
        "placeName": "COURTICE",
        "streetNameDisplayText": "NASH RD, COURTICE"
      }
    ]
  },
  {
    "postal": "L1E9N3",
    "result": []
  },
  {
    "postal": "L1E4Y8",
    "result": []
  },
  {
    "postal": "L1E3V7",
    "result": []
  },
  {
    "postal": "L1E8Z1",
    "result": []
  },
  {
    "postal": "L1E7B3",
    "result": []
  },
  {
    "postal": "L1E3A8",
    "result": [
      {
        "electoralDistricts": [
          {
            "election": null,
            "id": 24,
            "name": "Durham"
          }
        ],
        "pollDivisionIds": [
          10137838
        ],
        "postalCode": "L1E3A8",
        "streetName": "MALLORY",
        "streetDirectionId": null,
        "streetTypeId": "ST",
        "placeName": "COURTICE",
        "streetNameDisplayText": "MALLORY ST, COURTICE"
      }
    ]
  },
  {
    "postal": "L1E7V5",
    "result": []
  },
  {
    "postal": "L1E2T2",
    "result": [
      {
        "electoralDistricts": [
          {
            "election": null,
            "id": 24,
            "name": "Durham"
          }
        ],
        "pollDivisionIds": [
          10137846
        ],
        "postalCode": "L1E2T2",
        "streetName": "CIGAS",
        "streetDirectionId": null,
        "streetTypeId": "RD",
        "placeName": "COURTICE",
        "streetNameDisplayText": "CIGAS RD, COURTICE"
      }
    ]
  },
  {
    "postal": "L1E6L3",
    "result": []
  },
  {
    "postal": "L1E0L2",
    "result": [
      {
        "electoralDistricts": [
          {
            "election": null,
            "id": 24,
            "name": "Durham"
          }
        ],
        "pollDivisionIds": [
          10137837
        ],
        "postalCode": "L1E0L2",
        "streetName": "PEBBLESTONE",
        "streetDirectionId": null,
        "streetTypeId": "RD",
        "placeName": "COURTICE",
        "streetNameDisplayText": "PEBBLESTONE RD, COURTICE"
      }
    ]
  },
  {
    "postal": "L1E5Y8",
    "result": []
  },
  {
    "postal": "L1E0B8",
    "result": [
      {
        "electoralDistricts": [
          {
            "election": null,
            "id": 24,
            "name": "Durham"
          }
        ],
        "pollDivisionIds": [
          10137844
        ],
        "postalCode": "L1E0B8",
        "streetName": "DEWELL",
        "streetDirectionId": null,
        "streetTypeId": "CRES",
        "placeName": "COURTICE",
        "streetNameDisplayText": "DEWELL CRES, COURTICE"
      }
    ]
  },
  {
    "postal": "L1E6R5",
    "result": []
  },
  {
    "postal": "L1E8W6",
    "result": []
  },
  {
    "postal": "L1E8G6",
    "result": []
  },
  {
    "postal": "L1E6X3",
    "result": []
  },
  {
    "postal": "L1E7R7",
    "result": []
  },
  {
    "postal": "L1E4B6",
    "result": []
  },
  {
    "postal": "L1E3P9",
    "result": []
  },
  {
    "postal": "L1E2T3",
    "result": [
      {
        "electoralDistricts": [
          {
            "election": null,
            "id": 24,
            "name": "Durham"
          }
        ],
        "pollDivisionIds": [
          10137846
        ],
        "postalCode": "L1E2T3",
        "streetName": "BASELINE",
        "streetDirectionId": null,
        "streetTypeId": "RD",
        "placeName": "COURTICE",
        "streetNameDisplayText": "BASELINE RD, COURTICE"
      },
      {
        "electoralDistricts": [
          {
            "election": null,
            "id": 24,
            "name": "Durham"
          }
        ],
        "pollDivisionIds": [
          10137846
        ],
        "postalCode": "L1E2T3",
        "streetName": "COURTICE",
        "streetDirectionId": null,
        "streetTypeId": "CRT",
        "placeName": "COURTICE",
        "streetNameDisplayText": "COURTICE CRT, COURTICE"
      },
      {
        "electoralDistricts": [
          {
            "election": null,
            "id": 24,
            "name": "Durham"
          }
        ],
        "pollDivisionIds": [
          10137846
        ],
        "postalCode": "L1E2T3",
        "streetName": "HANCOCK",
        "streetDirectionId": null,
        "streetTypeId": "RD",
        "placeName": "COURTICE",
        "streetNameDisplayText": "HANCOCK RD, COURTICE"
      },
      {
        "electoralDistricts": [
          {
            "election": null,
            "id": 24,
            "name": "Durham"
          }
        ],
        "pollDivisionIds": [
          10137846
        ],
        "postalCode": "L1E2T3",
        "streetName": "MCKNIGHT",
        "streetDirectionId": null,
        "streetTypeId": "RD",
        "placeName": "COURTICE",
        "streetNameDisplayText": "MCKNIGHT RD, COURTICE"
      },
      {
        "electoralDistricts": [
          {
            "election": null,
            "id": 24,
            "name": "Durham"
          }
        ],
        "pollDivisionIds": [
          10137846
        ],
        "postalCode": "L1E2T3",
        "streetName": "PROGRESS",
        "streetDirectionId": null,
        "streetTypeId": "DR",
        "placeName": "COURTICE",
        "streetNameDisplayText": "PROGRESS DR, COURTICE"
      }
    ]
  },
  {
    "postal": "L1E1M4",
    "result": [
      {
        "electoralDistricts": [
          {
            "election": null,
            "id": 24,
            "name": "Durham"
          }
        ],
        "pollDivisionIds": [
          10137839
        ],
        "postalCode": "L1E1M4",
        "streetName": "BIRCHFIELD",
        "streetDirectionId": null,
        "streetTypeId": "CRT",
        "placeName": "COURTICE",
        "streetNameDisplayText": "BIRCHFIELD CRT, COURTICE"
      },
      {
        "electoralDistricts": [
          {
            "election": null,
            "id": 24,
            "name": "Durham"
          }
        ],
        "pollDivisionIds": [
          10137839
        ],
        "postalCode": "L1E1M4",
        "streetName": "HARTSFIELD",
        "streetDirectionId": null,
        "streetTypeId": "DR",
        "placeName": "COURTICE",
        "streetNameDisplayText": "HARTSFIELD DR, COURTICE"
      }
    ]
  },
  {
    "postal": "L1E0H1",
    "result": [
      {
        "electoralDistricts": [
          {
            "election": null,
            "id": 24,
            "name": "Durham"
          }
        ],
        "pollDivisionIds": [
          10137844
        ],
        "postalCode": "L1E0H1",
        "streetName": "GORD VINSON",
        "streetDirectionId": null,
        "streetTypeId": "AVE",
        "placeName": "COURTICE",
        "streetNameDisplayText": "GORD VINSON AVE, COURTICE"
      }
    ]
  },
  {
    "postal": "L1E9W3",
    "result": []
  },
  {
    "postal": "L1E6P1",
    "result": []
  },
  {
    "postal": "L1E7G2",
    "result": []
  },
  {
    "postal": "L1E4J9",
    "result": []
  },
  {
    "postal": "L1E9E4",
    "result": []
  },
  {
    "postal": "L1E8H0",
    "result": []
  },
  {
    "postal": "L1E4M7",
    "result": []
  },
  {
    "postal": "L1E2G9",
    "result": [
      {
        "electoralDistricts": [
          {
            "election": null,
            "id": 24,
            "name": "Durham"
          }
        ],
        "pollDivisionIds": [
          10137838
        ],
        "postalCode": "L1E2G9",
        "streetName": "GEARINGS",
        "streetDirectionId": null,
        "streetTypeId": "LANE",
        "placeName": "COURTICE",
        "streetNameDisplayText": "GEARINGS LANE, COURTICE"
      },
      {
        "electoralDistricts": [
          {
            "election": null,
            "id": 24,
            "name": "Durham"
          }
        ],
        "pollDivisionIds": [
          10137838
        ],
        "postalCode": "L1E2G9",
        "streetName": "TOOLEY",
        "streetDirectionId": null,
        "streetTypeId": "RD",
        "placeName": "COURTICE",
        "streetNameDisplayText": "TOOLEY RD, COURTICE"
      }
    ]
  },
  {
    "postal": "L1E8T2",
    "result": []
  },
  {
    "postal": "L1E7G7",
    "result": []
  },
  {
    "postal": "L1E4Z3",
    "result": []
  },
  {
    "postal": "L1E5B3",
    "result": []
  },
  {
    "postal": "L1E1S7",
    "result": [
      {
        "electoralDistricts": [
          {
            "election": null,
            "id": 24,
            "name": "Durham"
          }
        ],
        "pollDivisionIds": [
          10137839
        ],
        "postalCode": "L1E1S7",
        "streetName": "NASH",
        "streetDirectionId": null,
        "streetTypeId": "RD",
        "placeName": "COURTICE",
        "streetNameDisplayText": "NASH RD, COURTICE"
      },
      {
        "electoralDistricts": [
          {
            "election": null,
            "id": 24,
            "name": "Durham"
          }
        ],
        "pollDivisionIds": [
          10137839
        ],
        "postalCode": "L1E1S7",
        "streetName": "VARCOE",
        "streetDirectionId": null,
        "streetTypeId": "RD",
        "placeName": "COURTICE",
        "streetNameDisplayText": "VARCOE RD, COURTICE"
      }
    ]
  },
  {
    "postal": "L1E2N7",
    "result": [
      {
        "electoralDistricts": [
          {
            "election": null,
            "id": 24,
            "name": "Durham"
          }
        ],
        "pollDivisionIds": [
          10137845
        ],
        "postalCode": "L1E2N7",
        "streetName": "GORD VINSON",
        "streetDirectionId": null,
        "streetTypeId": "AVE",
        "placeName": "COURTICE",
        "streetNameDisplayText": "GORD VINSON AVE, COURTICE"
      }
    ]
  },
  {
    "postal": "L1E0H8",
    "result": []
  },
  {
    "postal": "L1E7Z4",
    "result": []
  },
  {
    "postal": "L1E7B1",
    "result": []
  },
  {
    "postal": "L1E7P8",
    "result": []
  },
  {
    "postal": "L1E7N0",
    "result": []
  },
  {
    "postal": "L1E3Y5",
    "result": []
  },
  {
    "postal": "L1E6K1",
    "result": []
  },
  {
    "postal": "L1E9X5",
    "result": []
  },
  {
    "postal": "L1E7S5",
    "result": []
  },
  {
    "postal": "L1E0A4",
    "result": [
      {
        "electoralDistricts": [
          {
            "election": null,
            "id": 24,
            "name": "Durham"
          }
        ],
        "pollDivisionIds": [
          10137846
        ],
        "postalCode": "L1E0A4",
        "streetName": "KERSEY",
        "streetDirectionId": null,
        "streetTypeId": "CRES",
        "placeName": "COURTICE",
        "streetNameDisplayText": "KERSEY CRES, COURTICE"
      },
      {
        "electoralDistricts": [
          {
            "election": null,
            "id": 24,
            "name": "Durham"
          }
        ],
        "pollDivisionIds": [
          10137846
        ],
        "postalCode": "L1E0A4",
        "streetName": "ROSSWELL",
        "streetDirectionId": null,
        "streetTypeId": "DR",
        "placeName": "COURTICE",
        "streetNameDisplayText": "ROSSWELL DR, COURTICE"
      }
    ]
  },
  {
    "postal": "L1E4T5",
    "result": []
  },
  {
    "postal": "L1E5K1",
    "result": []
  },
  {
    "postal": "L1E0Z9",
    "result": []
  },
  {
    "postal": "L1E7T2",
    "result": []
  },
  {
    "postal": "L1E1L5",
    "result": [
      {
        "electoralDistricts": [
          {
            "election": null,
            "id": 24,
            "name": "Durham"
          }
        ],
        "pollDivisionIds": [
          10137839
        ],
        "postalCode": "L1E1L5",
        "streetName": "CENTERFIELD",
        "streetDirectionId": null,
        "streetTypeId": "DR",
        "placeName": "COURTICE",
        "streetNameDisplayText": "CENTERFIELD DR, COURTICE"
      }
    ]
  },
  {
    "postal": "L1E3N5",
    "result": []
  },
  {
    "postal": "L1E6H4",
    "result": []
  },
  {
    "postal": "L1E5A5",
    "result": []
  },
  {
    "postal": "L1E3R9",
    "result": []
  },
  {
    "postal": "L1E7L8",
    "result": []
  },
  {
    "postal": "L1E6T6",
    "result": []
  },
  {
    "postal": "L1E7Y7",
    "result": []
  },
  {
    "postal": "L1E3M8",
    "result": []
  },
  {
    "postal": "L1E2E0",
    "result": []
  },
  {
    "postal": "L1E4B5",
    "result": []
  },
  {
    "postal": "L1E1J3",
    "result": [
      {
        "electoralDistricts": [
          {
            "election": null,
            "id": 24,
            "name": "Durham"
          }
        ],
        "pollDivisionIds": [
          10137840
        ],
        "postalCode": "L1E1J3",
        "streetName": "WINDSOR VALLEY",
        "streetDirectionId": null,
        "streetTypeId": "PL",
        "placeName": "COURTICE",
        "streetNameDisplayText": "WINDSOR VALLEY PL, COURTICE"
      }
    ]
  },
  {
    "postal": "L1E5S6",
    "result": []
  },
  {
    "postal": "L1E8P7",
    "result": []
  },
  {
    "postal": "L1E7S7",
    "result": []
  },
  {
    "postal": "L1E4C2",
    "result": []
  },
  {
    "postal": "L1E5Y0",
    "result": []
  },
  {
    "postal": "L1E2V7",
    "result": [
      {
        "electoralDistricts": [
          {
            "election": null,
            "id": 24,
            "name": "Durham"
          }
        ],
        "pollDivisionIds": [
          10137837
        ],
        "postalCode": "L1E2V7",
        "streetName": "FEWSTER",
        "streetDirectionId": null,
        "streetTypeId": "ST",
        "placeName": "COURTICE",
        "streetNameDisplayText": "FEWSTER ST, COURTICE"
      },
      {
        "electoralDistricts": [
          {
            "election": null,
            "id": 24,
            "name": "Durham"
          }
        ],
        "pollDivisionIds": [
          10137837
        ],
        "postalCode": "L1E2V7",
        "streetName": "MOYSE",
        "streetDirectionId": null,
        "streetTypeId": "DR",
        "placeName": "COURTICE",
        "streetNameDisplayText": "MOYSE DR, COURTICE"
      }
    ]
  },
  {
    "postal": "L1E8P5",
    "result": []
  },
  {
    "postal": "L1E5P5",
    "result": []
  },
  {
    "postal": "L1E5Z0",
    "result": []
  },
  {
    "postal": "L1E9B0",
    "result": []
  },
  {
    "postal": "L1E1L0",
    "result": []
  },
  {
    "postal": "L1E0B5",
    "result": [
      {
        "electoralDistricts": [
          {
            "election": null,
            "id": 24,
            "name": "Durham"
          }
        ],
        "pollDivisionIds": [
          10137844,
          10137846
        ],
        "postalCode": "L1E0B5",
        "streetName": "BATHGATE",
        "streetDirectionId": null,
        "streetTypeId": "CRES",
        "placeName": "COURTICE",
        "streetNameDisplayText": "BATHGATE CRES, COURTICE"
      }
    ]
  },
  {
    "postal": "L1E3L2",
    "result": []
  },
  {
    "postal": "L1E3B7",
    "result": [
      {
        "electoralDistricts": [
          {
            "election": null,
            "id": 24,
            "name": "Durham"
          }
        ],
        "pollDivisionIds": [
          10137846,
          10137841
        ],
        "postalCode": "L1E3B7",
        "streetName": "WILKINS",
        "streetDirectionId": null,
        "streetTypeId": "CRES",
        "placeName": "COURTICE",
        "streetNameDisplayText": "WILKINS CRES, COURTICE"
      }
    ]
  },
  {
    "postal": "L1E8L1",
    "result": []
  },
  {
    "postal": "L1E5M4",
    "result": []
  },
  {
    "postal": "L1E4G9",
    "result": []
  },
  {
    "postal": "L1E0P0",
    "result": []
  },
  {
    "postal": "L1E8G2",
    "result": []
  },
  {
    "postal": "L1E1V9",
    "result": [
      {
        "electoralDistricts": [
          {
            "election": null,
            "id": 24,
            "name": "Durham"
          }
        ],
        "pollDivisionIds": [
          10137842,
          10137843
        ],
        "postalCode": "L1E1V9",
        "streetName": "CLARET",
        "streetDirectionId": null,
        "streetTypeId": "RD",
        "placeName": "COURTICE",
        "streetNameDisplayText": "CLARET RD, COURTICE"
      }
    ]
  },
  {
    "postal": "L1E8N8",
    "result": []
  },
  {
    "postal": "L1E6S8",
    "result": []
  },
  {
    "postal": "L1E8H2",
    "result": []
  },
  {
    "postal": "L1E5R8",
    "result": []
  },
  {
    "postal": "L1E5L4",
    "result": []
  },
  {
    "postal": "L1E9E1",
    "result": []
  },
  {
    "postal": "L1E1C4",
    "result": [
      {
        "electoralDistricts": [
          {
            "election": null,
            "id": 24,
            "name": "Durham"
          }
        ],
        "pollDivisionIds": [
          10137844,
          10137843
        ],
        "postalCode": "L1E1C4",
        "streetName": "PINEDALE",
        "streetDirectionId": null,
        "streetTypeId": "CRES",
        "placeName": "COURTICE",
        "streetNameDisplayText": "PINEDALE CRES, COURTICE"
      }
    ]
  },
  {
    "postal": "L1E8W5",
    "result": []
  },
  {
    "postal": "L1E1Y4",
    "result": [
      {
        "electoralDistricts": [
          {
            "election": null,
            "id": 24,
            "name": "Durham"
          }
        ],
        "pollDivisionIds": [
          10137843
        ],
        "postalCode": "L1E1Y4",
        "streetName": "BEECHNUT",
        "streetDirectionId": null,
        "streetTypeId": "CRES",
        "placeName": "COURTICE",
        "streetNameDisplayText": "BEECHNUT CRES, COURTICE"
      },
      {
        "electoralDistricts": [
          {
            "election": null,
            "id": 24,
            "name": "Durham"
          }
        ],
        "pollDivisionIds": [
          10137843
        ],
        "postalCode": "L1E1Y4",
        "streetName": "SANDRINGHAM",
        "streetDirectionId": null,
        "streetTypeId": "DR",
        "placeName": "COURTICE",
        "streetNameDisplayText": "SANDRINGHAM DR, COURTICE"
      }
    ]
  },
  {
    "postal": "L1E1C0",
    "result": []
  },
  {
    "postal": "L1E2J2",
    "result": [
      {
        "electoralDistricts": [
          {
            "election": null,
            "id": 24,
            "name": "Durham"
          }
        ],
        "pollDivisionIds": [
          10137839
        ],
        "postalCode": "L1E2J2",
        "streetName": "TOWNLINE",
        "streetDirectionId": "N",
        "streetTypeId": "RD",
        "placeName": "COURTICE",
        "streetNameDisplayText": "TOWNLINE RD N, COURTICE"
      }
    ]
  },
  {
    "postal": "L1E2J0",
    "result": []
  },
  {
    "postal": "L1E7A3",
    "result": []
  },
  {
    "postal": "L1E8M1",
    "result": []
  },
  {
    "postal": "L1E7T9",
    "result": []
  },
  {
    "postal": "L1E6C0",
    "result": []
  },
  {
    "postal": "L1E7X1",
    "result": []
  },
  {
    "postal": "L1E0G1",
    "result": [
      {
        "electoralDistricts": [
          {
            "election": null,
            "id": 24,
            "name": "Durham"
          }
        ],
        "pollDivisionIds": [
          10137842
        ],
        "postalCode": "L1E0G1",
        "streetName": "MCMANN",
        "streetDirectionId": null,
        "streetTypeId": "CRES",
        "placeName": "COURTICE",
        "streetNameDisplayText": "MCMANN CRES, COURTICE"
      }
    ]
  },
  {
    "postal": "L1E4X2",
    "result": []
  },
  {
    "postal": "L1E0N6",
    "result": []
  },
  {
    "postal": "L1E8E3",
    "result": []
  },
  {
    "postal": "L1E5S8",
    "result": []
  },
  {
    "postal": "L1E0R0",
    "result": []
  },
  {
    "postal": "L1E6J6",
    "result": []
  },
  {
    "postal": "L1E4B4",
    "result": []
  },
  {
    "postal": "L1E7E3",
    "result": []
  },
  {
    "postal": "L1E3N6",
    "result": []
  },
  {
    "postal": "L1E3X6",
    "result": []
  },
  {
    "postal": "L1E8L0",
    "result": []
  },
  {
    "postal": "L1E8N1",
    "result": []
  },
  {
    "postal": "L1E4J0",
    "result": []
  },
  {
    "postal": "L1E0X7",
    "result": [
      {
        "electoralDistricts": [
          {
            "election": null,
            "id": 24,
            "name": "Durham"
          }
        ],
        "pollDivisionIds": [
          10137846
        ],
        "postalCode": "L1E0X7",
        "streetName": "BASELINE",
        "streetDirectionId": "W",
        "streetTypeId": "RD",
        "placeName": "BOWMANVILLE",
        "streetNameDisplayText": "BASELINE RD W, BOWMANVILLE"
      }
    ]
  },
  {
    "postal": "L1E6S4",
    "result": []
  },
  {
    "postal": "L1E0Z0",
    "result": []
  },
  {
    "postal": "L1E9X8",
    "result": []
  },
  {
    "postal": "L1E3H3",
    "result": [
      {
        "electoralDistricts": [
          {
            "election": null,
            "id": 24,
            "name": "Durham"
          }
        ],
        "pollDivisionIds": [
          10137845
        ],
        "postalCode": "L1E3H3",
        "streetName": "CORNISH",
        "streetDirectionId": null,
        "streetTypeId": "DR",
        "placeName": "COURTICE",
        "streetNameDisplayText": "CORNISH DR, COURTICE"
      },
      {
        "electoralDistricts": [
          {
            "election": null,
            "id": 24,
            "name": "Durham"
          }
        ],
        "pollDivisionIds": [
          10137845
        ],
        "postalCode": "L1E3H3",
        "streetName": "STAPLES",
        "streetDirectionId": null,
        "streetTypeId": "AVE",
        "placeName": "COURTICE",
        "streetNameDisplayText": "STAPLES AVE, COURTICE"
      }
    ]
  },
  {
    "postal": "L1E7S2",
    "result": []
  },
  {
    "postal": "L1E3T3",
    "result": []
  },
  {
    "postal": "L1E9P3",
    "result": []
  },
  {
    "postal": "L1E4H8",
    "result": []
  },
  {
    "postal": "L1E6R1",
    "result": []
  },
  {
    "postal": "L1E1S0",
    "result": []
  },
  {
    "postal": "L1E3W8",
    "result": []
  },
  {
    "postal": "L1E4S3",
    "result": []
  },
  {
    "postal": "L1E1B6",
    "result": [
      {
        "electoralDistricts": [
          {
            "election": null,
            "id": 24,
            "name": "Durham"
          }
        ],
        "pollDivisionIds": [
          10137844
        ],
        "postalCode": "L1E1B6",
        "streetName": "SUMMERLEA",
        "streetDirectionId": null,
        "streetTypeId": "CRT",
        "placeName": "COURTICE",
        "streetNameDisplayText": "SUMMERLEA CRT, COURTICE"
      }
    ]
  },
  {
    "postal": "L1E8R3",
    "result": []
  },
  {
    "postal": "L1E4V9",
    "result": []
  },
  {
    "postal": "L1E9W4",
    "result": []
  },
  {
    "postal": "L1E3T4",
    "result": []
  },
  {
    "postal": "L1E5C7",
    "result": []
  },
  {
    "postal": "L1E3Y1",
    "result": []
  },
  {
    "postal": "L1E5V0",
    "result": []
  },
  {
    "postal": "L1E8G8",
    "result": []
  },
  {
    "postal": "L1E8B1",
    "result": []
  },
  {
    "postal": "L1E4P5",
    "result": []
  },
  {
    "postal": "L1E7B2",
    "result": []
  },
  {
    "postal": "L1E0R2",
    "result": []
  },
  {
    "postal": "L1E4M4",
    "result": []
  },
  {
    "postal": "L1E7M4",
    "result": []
  },
  {
    "postal": "L1E9S7",
    "result": []
  },
  {
    "postal": "L1E5Z7",
    "result": []
  },
  {
    "postal": "L1E7J7",
    "result": []
  },
  {
    "postal": "L1E8R8",
    "result": []
  },
  {
    "postal": "L1E9X1",
    "result": []
  },
  {
    "postal": "L1E5M9",
    "result": []
  },
  {
    "postal": "L1E9B4",
    "result": []
  },
  {
    "postal": "L1E0L9",
    "result": []
  },
  {
    "postal": "L1E9G4",
    "result": []
  },
  {
    "postal": "L1E1J4",
    "result": [
      {
        "electoralDistricts": [
          {
            "election": null,
            "id": 24,
            "name": "Durham"
          }
        ],
        "pollDivisionIds": [
          10137840
        ],
        "postalCode": "L1E1J4",
        "streetName": "WINDSOR VALLEY",
        "streetDirectionId": null,
        "streetTypeId": "PL",
        "placeName": "COURTICE",
        "streetNameDisplayText": "WINDSOR VALLEY PL, COURTICE"
      }
    ]
  },
  {
    "postal": "L1E0W6",
    "result": []
  }
]
