[
  {
    "postal": "K2H9J6",
    "result": [
      {
        "electoralDistricts": [
          {
            "election": null,
            "id": 81,
            "name": "Ottawa West—Nepean"
          }
        ],
        "pollDivisionIds": [
          10140827
        ],
        "postalCode": "K2H9J6",
        "streetName": "GLADECREST",
        "streetDirectionId": null,
        "streetTypeId": "CRT",
        "placeName": "NEPEAN",
        "streetNameDisplayText": "GLADECREST CRT, NEPEAN"
      }
    ]
  },
  {
    "postal": "K2H9Z5",
    "result": []
  },
  {
    "postal": "K2H7H8",
    "result": [
      {
        "electoralDistricts": [
          {
            "election": null,
            "id": 81,
            "name": "Ottawa West—Nepean"
          }
        ],
        "pollDivisionIds": [
          10140825
        ],
        "postalCode": "K2H7H8",
        "streetName": "CONSUL",
        "streetDirectionId": null,
        "streetTypeId": "AVE",
        "placeName": "OTTAWA",
        "streetNameDisplayText": "CONSUL AVE, OTTAWA"
      }
    ]
  },
  {
    "postal": "K2H0P6",
    "result": []
  },
  {
    "postal": "K2H0S7",
    "result": []
  },
  {
    "postal": "K2H8B9",
    "result": [
      {
        "electoralDistricts": [
          {
            "election": null,
            "id": 81,
            "name": "Ottawa West—Nepean"
          }
        ],
        "pollDivisionIds": [
          10140817
        ],
        "postalCode": "K2H8B9",
        "streetName": "GRANDVIEW",
        "streetDirectionId": null,
        "streetTypeId": "RD",
        "placeName": "NEPEAN",
        "streetNameDisplayText": "GRANDVIEW RD, NEPEAN"
      }
    ]
  },
  {
    "postal": "K2H2A6",
    "result": []
  },
  {
    "postal": "K2H7V2",
    "result": []
  },
  {
    "postal": "K2H9P4",
    "result": [
      {
        "electoralDistricts": [
          {
            "election": null,
            "id": 66,
            "name": "Nepean"
          }
        ],
        "pollDivisionIds": [
          10126644
        ],
        "postalCode": "K2H9P4",
        "streetName": "FORESTVIEW",
        "streetDirectionId": null,
        "streetTypeId": "CRES",
        "placeName": "NEPEAN",
        "streetNameDisplayText": "FORESTVIEW CRES, NEPEAN"
      },
      {
        "electoralDistricts": [
          {
            "election": null,
            "id": 66,
            "name": "Nepean"
          }
        ],
        "pollDivisionIds": [
          10126644
        ],
        "postalCode": "K2H9P4",
        "streetName": "STONE PARK",
        "streetDirectionId": null,
        "streetTypeId": "LANE",
        "placeName": "NEPEAN",
        "streetNameDisplayText": "STONE PARK LANE, NEPEAN"
      }
    ]
  },
  {
    "postal": "K2H6G0",
    "result": []
  },
  {
    "postal": "K2H2K0",
    "result": []
  },
  {
    "postal": "K2H7N6",
    "result": [
      {
        "electoralDistricts": [
          {
            "election": null,
            "id": 81,
            "name": "Ottawa West—Nepean"
          }
        ],
        "pollDivisionIds": [
          10140832
        ],
        "postalCode": "K2H7N6",
        "streetName": "HARRISON",
        "streetDirectionId": null,
        "streetTypeId": "ST",
        "placeName": "NEPEAN",
        "streetNameDisplayText": "HARRISON ST, NEPEAN"
      }
    ]
  },
  {
    "postal": "K2H5R3",
    "result": [
      {
        "electoralDistricts": [
          {
            "election": null,
            "id": 81,
            "name": "Ottawa West—Nepean"
          }
        ],
        "pollDivisionIds": [
          10140817
        ],
        "postalCode": "K2H5R3",
        "streetName": "NEWGALE",
        "streetDirectionId": null,
        "streetTypeId": "ST",
        "placeName": "NEPEAN",
        "streetNameDisplayText": "NEWGALE ST, NEPEAN"
      }
    ]
  },
  {
    "postal": "K2H7K0",
    "result": []
  },
  {
    "postal": "K2H3R2",
    "result": []
  },
  {
    "postal": "K2H0J1",
    "result": []
  },
  {
    "postal": "K2H0B0",
    "result": []
  },
  {
    "postal": "K2H5Z2",
    "result": [
      {
        "electoralDistricts": [
          {
            "election": null,
            "id": 66,
            "name": "Nepean"
          }
        ],
        "pollDivisionIds": [
          10126644
        ],
        "postalCode": "K2H5Z2",
        "streetName": "ROBERTSON",
        "streetDirectionId": null,
        "streetTypeId": "RD",
        "placeName": "NEPEAN",
        "streetNameDisplayText": "ROBERTSON RD, NEPEAN"
      }
    ]
  },
  {
    "postal": "K2H7P3",
    "result": [
      {
        "electoralDistricts": [
          {
            "election": null,
            "id": 66,
            "name": "Nepean"
          }
        ],
        "pollDivisionIds": [
          10126646
        ],
        "postalCode": "K2H7P3",
        "streetName": "VANIER",
        "streetDirectionId": null,
        "streetTypeId": "RD",
        "placeName": "NEPEAN",
        "streetNameDisplayText": "VANIER RD, NEPEAN"
      }
    ]
  },
  {
    "postal": "K2H2K3",
    "result": []
  },
  {
    "postal": "K2H7Y6",
    "result": [
      {
        "electoralDistricts": [
          {
            "election": null,
            "id": 66,
            "name": "Nepean"
          }
        ],
        "pollDivisionIds": [
          10126649
        ],
        "postalCode": "K2H7Y6",
        "streetName": "SELLERS",
        "streetDirectionId": null,
        "streetTypeId": "WAY",
        "placeName": "NEPEAN",
        "streetNameDisplayText": "SELLERS WAY, NEPEAN"
      }
    ]
  },
  {
    "postal": "K2H1L9",
    "result": []
  },
  {
    "postal": "K2H8T0",
    "result": []
  },
  {
    "postal": "K2H3K8",
    "result": []
  },
  {
    "postal": "K2H5W9",
    "result": [
      {
        "electoralDistricts": [
          {
            "election": null,
            "id": 66,
            "name": "Nepean"
          }
        ],
        "pollDivisionIds": [
          10126649
        ],
        "postalCode": "K2H5W9",
        "streetName": "ESTELLE",
        "streetDirectionId": null,
        "streetTypeId": "CRES",
        "placeName": "NEPEAN",
        "streetNameDisplayText": "ESTELLE CRES, NEPEAN"
      }
    ]
  },
  {
    "postal": "K2H6T9",
    "result": [
      {
        "electoralDistricts": [
          {
            "election": null,
            "id": 66,
            "name": "Nepean"
          }
        ],
        "pollDivisionIds": [
          10126645
        ],
        "postalCode": "K2H6T9",
        "streetName": "ELMSLEY",
        "streetDirectionId": null,
        "streetTypeId": "CRES",
        "placeName": "NEPEAN",
        "streetNameDisplayText": "ELMSLEY CRES, NEPEAN"
      }
    ]
  },
  {
    "postal": "K2H4H1",
    "result": []
  },
  {
    "postal": "K2H7A2",
    "result": [
      {
        "electoralDistricts": [
          {
            "election": null,
            "id": 81,
            "name": "Ottawa West—Nepean"
          }
        ],
        "pollDivisionIds": [
          10140825
        ],
        "postalCode": "K2H7A2",
        "streetName": "DRAPER",
        "streetDirectionId": null,
        "streetTypeId": "PL",
        "placeName": "NEPEAN",
        "streetNameDisplayText": "DRAPER PL, NEPEAN"
      }
    ]
  },
  {
    "postal": "K2H5G0",
    "result": []
  },
  {
    "postal": "K2H8V5",
    "result": [
      {
        "electoralDistricts": [
          {
            "election": null,
            "id": 66,
            "name": "Nepean"
          }
        ],
        "pollDivisionIds": [
          10126646
        ],
        "postalCode": "K2H8V5",
        "streetName": "ROBERTSON",
        "streetDirectionId": null,
        "streetTypeId": "RD",
        "placeName": "NEPEAN",
        "streetNameDisplayText": "ROBERTSON RD, NEPEAN"
      }
    ]
  },
  {
    "postal": "K2H2Y8",
    "result": []
  },
  {
    "postal": "K2H2B6",
    "result": []
  },
  {
    "postal": "K2H4W8",
    "result": []
  },
  {
    "postal": "K2H8H7",
    "result": [
      {
        "electoralDistricts": [
          {
            "election": null,
            "id": 81,
            "name": "Ottawa West—Nepean"
          }
        ],
        "pollDivisionIds": [
          10140825
        ],
        "postalCode": "K2H8H7",
        "streetName": "RICHMOND",
        "streetDirectionId": null,
        "streetTypeId": "RD",
        "placeName": "NEPEAN",
        "streetNameDisplayText": "RICHMOND RD, NEPEAN"
      }
    ]
  },
  {
    "postal": "K2H5P1",
    "result": [
      {
        "electoralDistricts": [
          {
            "election": null,
            "id": 81,
            "name": "Ottawa West—Nepean"
          }
        ],
        "pollDivisionIds": [
          10140818
        ],
        "postalCode": "K2H5P1",
        "streetName": "HARLOWE",
        "streetDirectionId": null,
        "streetTypeId": "CRES",
        "placeName": "NEPEAN",
        "streetNameDisplayText": "HARLOWE CRES, NEPEAN"
      }
    ]
  },
  {
    "postal": "K2H2B8",
    "result": []
  },
  {
    "postal": "K2H0P2",
    "result": []
  },
  {
    "postal": "K2H9M1",
    "result": [
      {
        "electoralDistricts": [
          {
            "election": null,
            "id": 66,
            "name": "Nepean"
          }
        ],
        "pollDivisionIds": [
          10126644
        ],
        "postalCode": "K2H9M1",
        "streetName": "STONEBANK",
        "streetDirectionId": null,
        "streetTypeId": "CRES",
        "placeName": "NEPEAN",
        "streetNameDisplayText": "STONEBANK CRES, NEPEAN"
      }
    ]
  },
  {
    "postal": "K2H3G0",
    "result": []
  },
  {
    "postal": "K2H9Z2",
    "result": []
  },
  {
    "postal": "K2H2A0",
    "result": []
  },
  {
    "postal": "K2H6Y0",
    "result": []
  },
  {
    "postal": "K2H2Z8",
    "result": []
  },
  {
    "postal": "K2H7Y3",
    "result": []
  },
  {
    "postal": "K2H6Z5",
    "result": [
      {
        "electoralDistricts": [
          {
            "election": null,
            "id": 81,
            "name": "Ottawa West—Nepean"
          }
        ],
        "pollDivisionIds": [
          10140825
        ],
        "postalCode": "K2H6Z5",
        "streetName": "ESQUIMAULT",
        "streetDirectionId": null,
        "streetTypeId": "AVE",
        "placeName": "NEPEAN",
        "streetNameDisplayText": "ESQUIMAULT AVE, NEPEAN"
      }
    ]
  },
  {
    "postal": "K2H6E0",
    "result": []
  },
  {
    "postal": "K2H9B7",
    "result": [
      {
        "electoralDistricts": [
          {
            "election": null,
            "id": 66,
            "name": "Nepean"
          }
        ],
        "pollDivisionIds": [
          10126644
        ],
        "postalCode": "K2H9B7",
        "streetName": "TYRRELL",
        "streetDirectionId": null,
        "streetTypeId": "PL",
        "placeName": "NEPEAN",
        "streetNameDisplayText": "TYRRELL PL, NEPEAN"
      }
    ]
  },
  {
    "postal": "K2H9S5",
    "result": []
  },
  {
    "postal": "K2H3X3",
    "result": []
  },
  {
    "postal": "K2H7R5",
    "result": [
      {
        "electoralDistricts": [
          {
            "election": null,
            "id": 66,
            "name": "Nepean"
          }
        ],
        "pollDivisionIds": [
          10126646
        ],
        "postalCode": "K2H7R5",
        "streetName": "DELL",
        "streetDirectionId": null,
        "streetTypeId": "AVE",
        "placeName": "NEPEAN",
        "streetNameDisplayText": "DELL AVE, NEPEAN"
      }
    ]
  },
  {
    "postal": "K2H2X3",
    "result": []
  },
  {
    "postal": "K2H8Z9",
    "result": [
      {
        "electoralDistricts": [
          {
            "election": null,
            "id": 81,
            "name": "Ottawa West—Nepean"
          }
        ],
        "pollDivisionIds": [
          10140819
        ],
        "postalCode": "K2H8Z9",
        "streetName": "ASPEN",
        "streetDirectionId": null,
        "streetTypeId": "GROVE",
        "placeName": "NEPEAN",
        "streetNameDisplayText": "ASPEN GROVE, NEPEAN"
      }
    ]
  },
  {
    "postal": "K2H0N4",
    "result": []
  },
  {
    "postal": "K2H1K1",
    "result": []
  },
  {
    "postal": "K2H1S3",
    "result": []
  },
  {
    "postal": "K2H6M4",
    "result": [
      {
        "electoralDistricts": [
          {
            "election": null,
            "id": 66,
            "name": "Nepean"
          }
        ],
        "pollDivisionIds": [
          10126646
        ],
        "postalCode": "K2H6M4",
        "streetName": "GARDEN",
        "streetDirectionId": null,
        "streetTypeId": "PL",
        "placeName": "NEPEAN",
        "streetNameDisplayText": "GARDEN PL, NEPEAN"
      }
    ]
  },
  {
    "postal": "K2H9A9",
    "result": [
      {
        "electoralDistricts": [
          {
            "election": null,
            "id": 81,
            "name": "Ottawa West—Nepean"
          }
        ],
        "pollDivisionIds": [
          10140825
        ],
        "postalCode": "K2H9A9",
        "streetName": "DRAPER",
        "streetDirectionId": null,
        "streetTypeId": "AVE",
        "placeName": "OTTAWA",
        "streetNameDisplayText": "DRAPER AVE, OTTAWA"
      }
    ]
  },
  {
    "postal": "K2H9Z9",
    "result": []
  },
  {
    "postal": "K2H6T4",
    "result": [
      {
        "electoralDistricts": [
          {
            "election": null,
            "id": 66,
            "name": "Nepean"
          }
        ],
        "pollDivisionIds": [
          10126645
        ],
        "postalCode": "K2H6T4",
        "streetName": "RIDGEFIELD",
        "streetDirectionId": null,
        "streetTypeId": "CRES",
        "placeName": "NEPEAN",
        "streetNameDisplayText": "RIDGEFIELD CRES, NEPEAN"
      }
    ]
  },
  {
    "postal": "K2H0B2",
    "result": []
  },
  {
    "postal": "K2H2L9",
    "result": []
  },
  {
    "postal": "K2H8K9",
    "result": [
      {
        "electoralDistricts": [
          {
            "election": null,
            "id": 66,
            "name": "Nepean"
          }
        ],
        "pollDivisionIds": [
          10126653
        ],
        "postalCode": "K2H8K9",
        "streetName": "GREENBANK",
        "streetDirectionId": null,
        "streetTypeId": "RD",
        "placeName": "NEPEAN",
        "streetNameDisplayText": "GREENBANK RD, NEPEAN"
      }
    ]
  },
  {
    "postal": "K2H2H9",
    "result": []
  },
  {
    "postal": "K2H3Z6",
    "result": []
  },
  {
    "postal": "K2H3B0",
    "result": []
  },
  {
    "postal": "K2H2H8",
    "result": []
  },
  {
    "postal": "K2H3X2",
    "result": []
  },
  {
    "postal": "K2H2E9",
    "result": []
  },
  {
    "postal": "K2H9P6",
    "result": [
      {
        "electoralDistricts": [
          {
            "election": null,
            "id": 66,
            "name": "Nepean"
          }
        ],
        "pollDivisionIds": [
          10126644
        ],
        "postalCode": "K2H9P6",
        "streetName": "FORESTVIEW",
        "streetDirectionId": null,
        "streetTypeId": "CRES",
        "placeName": "NEPEAN",
        "streetNameDisplayText": "FORESTVIEW CRES, NEPEAN"
      }
    ]
  },
  {
    "postal": "K2H9E2",
    "result": []
  },
  {
    "postal": "K2H9H2",
    "result": [
      {
        "electoralDistricts": [
          {
            "election": null,
            "id": 81,
            "name": "Ottawa West—Nepean"
          }
        ],
        "pollDivisionIds": [
          10140818
        ],
        "postalCode": "K2H9H2",
        "streetName": "FORSYTH",
        "streetDirectionId": null,
        "streetTypeId": "LANE",
        "placeName": "NEPEAN",
        "streetNameDisplayText": "FORSYTH LANE, NEPEAN"
      }
    ]
  },
  {
    "postal": "K2H1S8",
    "result": []
  },
  {
    "postal": "K2H3M6",
    "result": []
  },
  {
    "postal": "K2H6Z8",
    "result": [
      {
        "electoralDistricts": [
          {
            "election": null,
            "id": 81,
            "name": "Ottawa West—Nepean"
          }
        ],
        "pollDivisionIds": [
          10140825
        ],
        "postalCode": "K2H6Z8",
        "streetName": "DRAPER",
        "streetDirectionId": null,
        "streetTypeId": "AVE",
        "placeName": "NEPEAN",
        "streetNameDisplayText": "DRAPER AVE, NEPEAN"
      },
      {
        "electoralDistricts": [
          {
            "election": null,
            "id": 81,
            "name": "Ottawa West—Nepean"
          }
        ],
        "pollDivisionIds": [
          10140825
        ],
        "postalCode": "K2H6Z8",
        "streetName": "DRAPER",
        "streetDirectionId": null,
        "streetTypeId": "AVE",
        "placeName": "OTTAWA",
        "streetNameDisplayText": "DRAPER AVE, OTTAWA"
      }
    ]
  },
  {
    "postal": "K2H4J2",
    "result": []
  },
  {
    "postal": "K2H9Y1",
    "result": []
  },
  {
    "postal": "K2H8V6",
    "result": [
      {
        "electoralDistricts": [
          {
            "election": null,
            "id": 66,
            "name": "Nepean"
          }
        ],
        "pollDivisionIds": [
          10126645
        ],
        "postalCode": "K2H8V6",
        "streetName": "SYCAMORE",
        "streetDirectionId": null,
        "streetTypeId": "DR",
        "placeName": "NEPEAN",
        "streetNameDisplayText": "SYCAMORE DR, NEPEAN"
      }
    ]
  },
  {
    "postal": "K2H6B2",
    "result": [
      {
        "electoralDistricts": [
          {
            "election": null,
            "id": 66,
            "name": "Nepean"
          }
        ],
        "pollDivisionIds": [
          10126646
        ],
        "postalCode": "K2H6B2",
        "streetName": "VIRGIL",
        "streetDirectionId": null,
        "streetTypeId": "RD",
        "placeName": "NEPEAN",
        "streetNameDisplayText": "VIRGIL RD, NEPEAN"
      }
    ]
  },
  {
    "postal": "K2H1P8",
    "result": []
  },
  {
    "postal": "K2H0V8",
    "result": []
  },
  {
    "postal": "K2H4Y0",
    "result": []
  },
  {
    "postal": "K2H2T4",
    "result": []
  },
  {
    "postal": "K2H2S3",
    "result": []
  },
  {
    "postal": "K2H0K0",
    "result": []
  },
  {
    "postal": "K2H5N1",
    "result": [
      {
        "electoralDistricts": [
          {
            "election": null,
            "id": 81,
            "name": "Ottawa West—Nepean"
          }
        ],
        "pollDivisionIds": [
          10140818
        ],
        "postalCode": "K2H5N1",
        "streetName": "CRYSTAL BEACH",
        "streetDirectionId": null,
        "streetTypeId": "DR",
        "placeName": "NEPEAN",
        "streetNameDisplayText": "CRYSTAL BEACH DR, NEPEAN"
      }
    ]
  },
  {
    "postal": "K2H7T0",
    "result": []
  },
  {
    "postal": "K2H9N2",
    "result": [
      {
        "electoralDistricts": [
          {
            "election": null,
            "id": 66,
            "name": "Nepean"
          }
        ],
        "pollDivisionIds": [
          10126644
        ],
        "postalCode": "K2H9N2",
        "streetName": "TERRACE",
        "streetDirectionId": null,
        "streetTypeId": "DR",
        "placeName": "NEPEAN",
        "streetNameDisplayText": "TERRACE DR, NEPEAN"
      }
    ]
  },
  {
    "postal": "K2H5L1",
    "result": [
      {
        "electoralDistricts": [
          {
            "election": null,
            "id": 81,
            "name": "Ottawa West—Nepean"
          }
        ],
        "pollDivisionIds": [
          10140817
        ],
        "postalCode": "K2H5L1",
        "streetName": "HEXHAM",
        "streetDirectionId": null,
        "streetTypeId": "RD",
        "placeName": "NEPEAN",
        "streetNameDisplayText": "HEXHAM RD, NEPEAN"
      }
    ]
  },
  {
    "postal": "K2H7G5",
    "result": [
      {
        "electoralDistricts": [
          {
            "election": null,
            "id": 81,
            "name": "Ottawa West—Nepean"
          }
        ],
        "pollDivisionIds": [
          10140825
        ],
        "postalCode": "K2H7G5",
        "streetName": "KITIMAT",
        "streetDirectionId": null,
        "streetTypeId": "CRES",
        "placeName": "NEPEAN",
        "streetNameDisplayText": "KITIMAT CRES, NEPEAN"
      }
    ]
  },
  {
    "postal": "K2H6K2",
    "result": [
      {
        "electoralDistricts": [
          {
            "election": null,
            "id": 66,
            "name": "Nepean"
          }
        ],
        "pollDivisionIds": [
          10126646
        ],
        "postalCode": "K2H6K2",
        "streetName": "FOOTHILLS",
        "streetDirectionId": null,
        "streetTypeId": "DR",
        "placeName": "NEPEAN",
        "streetNameDisplayText": "FOOTHILLS DR, NEPEAN"
      }
    ]
  },
  {
    "postal": "K2H6P9",
    "result": [
      {
        "electoralDistricts": [
          {
            "election": null,
            "id": 66,
            "name": "Nepean"
          }
        ],
        "pollDivisionIds": [
          10126646
        ],
        "postalCode": "K2H6P9",
        "streetName": "HARWICK",
        "streetDirectionId": null,
        "streetTypeId": "CRES",
        "placeName": "NEPEAN",
        "streetNameDisplayText": "HARWICK CRES, NEPEAN"
      }
    ]
  },
  {
    "postal": "K2H0E6",
    "result": []
  },
  {
    "postal": "K2H8R9",
    "result": [
      {
        "electoralDistricts": [
          {
            "election": null,
            "id": 81,
            "name": "Ottawa West—Nepean"
          }
        ],
        "pollDivisionIds": [
          10140817
        ],
        "postalCode": "K2H8R9",
        "streetName": "ARARAT",
        "streetDirectionId": null,
        "streetTypeId": "CRT",
        "placeName": "NEPEAN",
        "streetNameDisplayText": "ARARAT CRT, NEPEAN"
      }
    ]
  },
  {
    "postal": "K2H3G9",
    "result": []
  },
  {
    "postal": "K2H0V7",
    "result": []
  },
  {
    "postal": "K2H2Z1",
    "result": []
  },
  {
    "postal": "K2H7N1",
    "result": [
      {
        "electoralDistricts": [
          {
            "election": null,
            "id": 81,
            "name": "Ottawa West—Nepean"
          }
        ],
        "pollDivisionIds": [
          10140832
        ],
        "postalCode": "K2H7N1",
        "streetName": "HARRISON",
        "streetDirectionId": null,
        "streetTypeId": "ST",
        "placeName": "NEPEAN",
        "streetNameDisplayText": "HARRISON ST, NEPEAN"
      }
    ]
  },
  {
    "postal": "K2H3C6",
    "result": []
  },
  {
    "postal": "K2H4M1",
    "result": []
  },
  {
    "postal": "K2H9K2",
    "result": [
      {
        "electoralDistricts": [
          {
            "election": null,
            "id": 81,
            "name": "Ottawa West—Nepean"
          }
        ],
        "pollDivisionIds": [
          10140827
        ],
        "postalCode": "K2H9K2",
        "streetName": "GLADECREST",
        "streetDirectionId": null,
        "streetTypeId": "CRT",
        "placeName": "NEPEAN",
        "streetNameDisplayText": "GLADECREST CRT, NEPEAN"
      }
    ]
  },
  {
    "postal": "K2H9S6",
    "result": []
  },
  {
    "postal": "K2H4X1",
    "result": []
  },
  {
    "postal": "K2H8W2",
    "result": [
      {
        "electoralDistricts": [
          {
            "election": null,
            "id": 66,
            "name": "Nepean"
          }
        ],
        "pollDivisionIds": [
          10126646
        ],
        "postalCode": "K2H8W2",
        "streetName": "BEXLEY",
        "streetDirectionId": null,
        "streetTypeId": "PL",
        "placeName": "NEPEAN",
        "streetNameDisplayText": "BEXLEY PL, NEPEAN"
      }
    ]
  },
  {
    "postal": "K2H7N2",
    "result": [
      {
        "electoralDistricts": [
          {
            "election": null,
            "id": 81,
            "name": "Ottawa West—Nepean"
          }
        ],
        "pollDivisionIds": [
          10140832
        ],
        "postalCode": "K2H7N2",
        "streetName": "HARRISON",
        "streetDirectionId": null,
        "streetTypeId": "ST",
        "placeName": "NEPEAN",
        "streetNameDisplayText": "HARRISON ST, NEPEAN"
      }
    ]
  },
  {
    "postal": "K2H8S3",
    "result": [
      {
        "electoralDistricts": [
          {
            "election": null,
            "id": 66,
            "name": "Nepean"
          }
        ],
        "pollDivisionIds": [
          10126649,
          10126651
        ],
        "postalCode": "K2H8S3",
        "streetName": "BELLMAN",
        "streetDirectionId": null,
        "streetTypeId": "DR",
        "placeName": "NEPEAN",
        "streetNameDisplayText": "BELLMAN DR, NEPEAN"
      }
    ]
  },
  {
    "postal": "K2H4V0",
    "result": []
  },
  {
    "postal": "K2H6W4",
    "result": [
      {
        "electoralDistricts": [
          {
            "election": null,
            "id": 81,
            "name": "Ottawa West—Nepean"
          }
        ],
        "pollDivisionIds": [
          10140825
        ],
        "postalCode": "K2H6W4",
        "streetName": "BRINTON",
        "streetDirectionId": null,
        "streetTypeId": "AVE",
        "placeName": "NEPEAN",
        "streetNameDisplayText": "BRINTON AVE, NEPEAN"
      }
    ]
  },
  {
    "postal": "K2H5M1",
    "result": [
      {
        "electoralDistricts": [
          {
            "election": null,
            "id": 81,
            "name": "Ottawa West—Nepean"
          }
        ],
        "pollDivisionIds": [
          10140817
        ],
        "postalCode": "K2H5M1",
        "streetName": "BEDALE",
        "streetDirectionId": null,
        "streetTypeId": "DR",
        "placeName": "NEPEAN",
        "streetNameDisplayText": "BEDALE DR, NEPEAN"
      }
    ]
  },
  {
    "postal": "K2H0S4",
    "result": []
  },
  {
    "postal": "K2H5X6",
    "result": [
      {
        "electoralDistricts": [
          {
            "election": null,
            "id": 66,
            "name": "Nepean"
          }
        ],
        "pollDivisionIds": [
          10126649
        ],
        "postalCode": "K2H5X6",
        "streetName": "CRAMER",
        "streetDirectionId": null,
        "streetTypeId": "DR",
        "placeName": "NEPEAN",
        "streetNameDisplayText": "CRAMER DR, NEPEAN"
      }
    ]
  },
  {
    "postal": "K2H8L5",
    "result": [
      {
        "electoralDistricts": [
          {
            "election": null,
            "id": 66,
            "name": "Nepean"
          }
        ],
        "pollDivisionIds": [
          10126649
        ],
        "postalCode": "K2H8L5",
        "streetName": "NANCY",
        "streetDirectionId": null,
        "streetTypeId": "AVE",
        "placeName": "NEPEAN",
        "streetNameDisplayText": "NANCY AVE, NEPEAN"
      }
    ]
  },
  {
    "postal": "K2H5M8",
    "result": [
      {
        "electoralDistricts": [
          {
            "election": null,
            "id": 81,
            "name": "Ottawa West—Nepean"
          }
        ],
        "pollDivisionIds": [
          10140817
        ],
        "postalCode": "K2H5M8",
        "streetName": "CRYSTAL BEACH",
        "streetDirectionId": null,
        "streetTypeId": "DR",
        "placeName": "NEPEAN",
        "streetNameDisplayText": "CRYSTAL BEACH DR, NEPEAN"
      }
    ]
  },
  {
    "postal": "K2H2G3",
    "result": []
  },
  {
    "postal": "K2H8E4",
    "result": [
      {
        "electoralDistricts": [
          {
            "election": null,
            "id": 81,
            "name": "Ottawa West—Nepean"
          }
        ],
        "pollDivisionIds": [
          10140817
        ],
        "postalCode": "K2H8E4",
        "streetName": "JAMES CUMMINGS",
        "streetDirectionId": null,
        "streetTypeId": "AVE",
        "placeName": "NEPEAN",
        "streetNameDisplayText": "JAMES CUMMINGS AVE, NEPEAN"
      }
    ]
  },
  {
    "postal": "K2H7S9",
    "result": [
      {
        "electoralDistricts": [
          {
            "election": null,
            "id": 66,
            "name": "Nepean"
          }
        ],
        "pollDivisionIds": [
          10126646
        ],
        "postalCode": "K2H7S9",
        "streetName": "BONNER",
        "streetDirectionId": null,
        "streetTypeId": "ST",
        "placeName": "NEPEAN",
        "streetNameDisplayText": "BONNER ST, NEPEAN"
      }
    ]
  },
  {
    "postal": "K2H1K3",
    "result": []
  },
  {
    "postal": "K2H4E1",
    "result": []
  },
  {
    "postal": "K2H4R2",
    "result": []
  },
  {
    "postal": "K2H6T0",
    "result": []
  },
  {
    "postal": "K2H3K5",
    "result": []
  },
  {
    "postal": "K2H3S3",
    "result": []
  },
  {
    "postal": "K2H3L4",
    "result": []
  },
  {
    "postal": "K2H9Y2",
    "result": []
  },
  {
    "postal": "K2H1E0",
    "result": []
  },
  {
    "postal": "K2H9A4",
    "result": [
      {
        "electoralDistricts": [
          {
            "election": null,
            "id": 66,
            "name": "Nepean"
          }
        ],
        "pollDivisionIds": [
          10126649
        ],
        "postalCode": "K2H9A4",
        "streetName": "PAULA",
        "streetDirectionId": null,
        "streetTypeId": "CRES",
        "placeName": "NEPEAN",
        "streetNameDisplayText": "PAULA CRES, NEPEAN"
      }
    ]
  },
  {
    "postal": "K2H1L3",
    "result": []
  },
  {
    "postal": "K2H6N1",
    "result": [
      {
        "electoralDistricts": [
          {
            "election": null,
            "id": 66,
            "name": "Nepean"
          }
        ],
        "pollDivisionIds": [
          10126646
        ],
        "postalCode": "K2H6N1",
        "streetName": "STINSON",
        "streetDirectionId": null,
        "streetTypeId": "AVE",
        "placeName": "NEPEAN",
        "streetNameDisplayText": "STINSON AVE, NEPEAN"
      }
    ]
  },
  {
    "postal": "K2H6G7",
    "result": [
      {
        "electoralDistricts": [
          {
            "election": null,
            "id": 66,
            "name": "Nepean"
          }
        ],
        "pollDivisionIds": [
          10126646
        ],
        "postalCode": "K2H6G7",
        "streetName": "CHERRYWOOD",
        "streetDirectionId": null,
        "streetTypeId": "DR",
        "placeName": "NEPEAN",
        "streetNameDisplayText": "CHERRYWOOD DR, NEPEAN"
      }
    ]
  },
  {
    "postal": "K2H7W1",
    "result": [
      {
        "electoralDistricts": [
          {
            "election": null,
            "id": 66,
            "name": "Nepean"
          }
        ],
        "pollDivisionIds": [
          10126649
        ],
        "postalCode": "K2H7W1",
        "streetName": "PLAZA",
        "streetDirectionId": null,
        "streetTypeId": "CRT",
        "placeName": "NEPEAN",
        "streetNameDisplayText": "PLAZA CRT, NEPEAN"
      }
    ]
  },
  {
    "postal": "K2H4M6",
    "result": []
  },
  {
    "postal": "K2H1K0",
    "result": []
  },
  {
    "postal": "K2H3E2",
    "result": []
  },
  {
    "postal": "K2H5H4",
    "result": [
      {
        "electoralDistricts": [
          {
            "election": null,
            "id": 81,
            "name": "Ottawa West—Nepean"
          }
        ],
        "pollDivisionIds": [
          10140817
        ],
        "postalCode": "K2H5H4",
        "streetName": "ULLSWATER",
        "streetDirectionId": null,
        "streetTypeId": "DR",
        "placeName": "NEPEAN",
        "streetNameDisplayText": "ULLSWATER DR, NEPEAN"
      }
    ]
  },
  {
    "postal": "K2H1K7",
    "result": []
  },
  {
    "postal": "K2H0H0",
    "result": []
  },
  {
    "postal": "K2H0J3",
    "result": []
  },
  {
    "postal": "K2H1X6",
    "result": []
  },
  {
    "postal": "K2H2Z6",
    "result": []
  },
  {
    "postal": "K2H4R9",
    "result": []
  },
  {
    "postal": "K2H0W8",
    "result": []
  },
  {
    "postal": "K2H1L4",
    "result": []
  },
  {
    "postal": "K2H0C8",
    "result": [
      {
        "electoralDistricts": [
          {
            "election": null,
            "id": 66,
            "name": "Nepean"
          }
        ],
        "pollDivisionIds": [
          10126644
        ],
        "postalCode": "K2H0C8",
        "streetName": "SEYTON",
        "streetDirectionId": null,
        "streetTypeId": "DR",
        "placeName": "NEPEAN",
        "streetNameDisplayText": "SEYTON DR, NEPEAN"
      }
    ]
  },
  {
    "postal": "K2H9X7",
    "result": []
  },
  {
    "postal": "K2H4T1",
    "result": []
  },
  {
    "postal": "K2H0M0",
    "result": []
  },
  {
    "postal": "K2H6A2",
    "result": [
      {
        "electoralDistricts": [
          {
            "election": null,
            "id": 66,
            "name": "Nepean"
          }
        ],
        "pollDivisionIds": [
          10126646
        ],
        "postalCode": "K2H6A2",
        "streetName": "DOMUS",
        "streetDirectionId": null,
        "streetTypeId": "CRES",
        "placeName": "NEPEAN",
        "streetNameDisplayText": "DOMUS CRES, NEPEAN"
      }
    ]
  },
  {
    "postal": "K2H9S8",
    "result": []
  },
  {
    "postal": "K2H9T4",
    "result": []
  },
  {
    "postal": "K2H9Y4",
    "result": []
  },
  {
    "postal": "K2H6G5",
    "result": [
      {
        "electoralDistricts": [
          {
            "election": null,
            "id": 66,
            "name": "Nepean"
          }
        ],
        "pollDivisionIds": [
          10126646
        ],
        "postalCode": "K2H6G5",
        "streetName": "LONGWOOD",
        "streetDirectionId": null,
        "streetTypeId": "AVE",
        "placeName": "NEPEAN",
        "streetNameDisplayText": "LONGWOOD AVE, NEPEAN"
      }
    ]
  },
  {
    "postal": "K2H6H9",
    "result": [
      {
        "electoralDistricts": [
          {
            "election": null,
            "id": 66,
            "name": "Nepean"
          }
        ],
        "pollDivisionIds": [
          10126645
        ],
        "postalCode": "K2H6H9",
        "streetName": "QUINPOOL",
        "streetDirectionId": null,
        "streetTypeId": "CRES",
        "placeName": "NEPEAN",
        "streetNameDisplayText": "QUINPOOL CRES, NEPEAN"
      }
    ]
  },
  {
    "postal": "K2H2P3",
    "result": []
  },
  {
    "postal": "K2H1T6",
    "result": []
  },
  {
    "postal": "K2H4P6",
    "result": []
  },
  {
    "postal": "K2H3K1",
    "result": []
  },
  {
    "postal": "K2H6X4",
    "result": [
      {
        "electoralDistricts": [
          {
            "election": null,
            "id": 81,
            "name": "Ottawa West—Nepean"
          }
        ],
        "pollDivisionIds": [
          10140825
        ],
        "postalCode": "K2H6X4",
        "streetName": "BRIAN",
        "streetDirectionId": null,
        "streetTypeId": "CRES",
        "placeName": "NEPEAN",
        "streetNameDisplayText": "BRIAN CRES, NEPEAN"
      }
    ]
  },
  {
    "postal": "K2H4M8",
    "result": []
  },
  {
    "postal": "K2H2Y1",
    "result": []
  },
  {
    "postal": "K2H6M1",
    "result": [
      {
        "electoralDistricts": [
          {
            "election": null,
            "id": 66,
            "name": "Nepean"
          }
        ],
        "pollDivisionIds": [
          10126646
        ],
        "postalCode": "K2H6M1",
        "streetName": "LYNHAR",
        "streetDirectionId": null,
        "streetTypeId": "RD",
        "placeName": "NEPEAN",
        "streetNameDisplayText": "LYNHAR RD, NEPEAN"
      }
    ]
  },
  {
    "postal": "K2H5L8",
    "result": [
      {
        "electoralDistricts": [
          {
            "election": null,
            "id": 81,
            "name": "Ottawa West—Nepean"
          }
        ],
        "pollDivisionIds": [
          10140817
        ],
        "postalCode": "K2H5L8",
        "streetName": "HARROGATE",
        "streetDirectionId": null,
        "streetTypeId": "PL",
        "placeName": "NEPEAN",
        "streetNameDisplayText": "HARROGATE PL, NEPEAN"
      }
    ]
  },
  {
    "postal": "K2H3P6",
    "result": []
  },
  {
    "postal": "K2H9A5",
    "result": [
      {
        "electoralDistricts": [
          {
            "election": null,
            "id": 66,
            "name": "Nepean"
          }
        ],
        "pollDivisionIds": [
          10126651
        ],
        "postalCode": "K2H9A5",
        "streetName": "GREENBANK",
        "streetDirectionId": null,
        "streetTypeId": "RD",
        "placeName": "NEPEAN",
        "streetNameDisplayText": "GREENBANK RD, NEPEAN"
      }
    ]
  },
  {
    "postal": "K2H7K1",
    "result": [
      {
        "electoralDistricts": [
          {
            "election": null,
            "id": 81,
            "name": "Ottawa West—Nepean"
          }
        ],
        "pollDivisionIds": [
          10140825
        ],
        "postalCode": "K2H7K1",
        "streetName": "BEAUMARIS",
        "streetDirectionId": null,
        "streetTypeId": "DR",
        "placeName": "NEPEAN",
        "streetNameDisplayText": "BEAUMARIS DR, NEPEAN"
      }
    ]
  },
  {
    "postal": "K2H3J4",
    "result": []
  },
  {
    "postal": "K2H5E7",
    "result": [
      {
        "electoralDistricts": [
          {
            "election": null,
            "id": 81,
            "name": "Ottawa West—Nepean"
          }
        ],
        "pollDivisionIds": [
          10140818
        ],
        "postalCode": "K2H5E7",
        "streetName": "HORNER",
        "streetDirectionId": null,
        "streetTypeId": "DR",
        "placeName": "NEPEAN",
        "streetNameDisplayText": "HORNER DR, NEPEAN"
      }
    ]
  },
  {
    "postal": "K2H3A7",
    "result": []
  },
  {
    "postal": "K2H1B9",
    "result": [
      {
        "electoralDistricts": [
          {
            "election": null,
            "id": 66,
            "name": "Nepean"
          }
        ],
        "pollDivisionIds": [
          10126646
        ],
        "postalCode": "K2H1B9",
        "streetName": "ROBERTSON",
        "streetDirectionId": null,
        "streetTypeId": "RD",
        "placeName": "NEPEAN",
        "streetNameDisplayText": "ROBERTSON RD, NEPEAN"
      },
      {
        "electoralDistricts": [
          {
            "election": null,
            "id": 66,
            "name": "Nepean"
          }
        ],
        "pollDivisionIds": [
          10126646
        ],
        "postalCode": "K2H1B9",
        "streetName": "STAFFORD",
        "streetDirectionId": null,
        "streetTypeId": "RD",
        "placeName": "NEPEAN",
        "streetNameDisplayText": "STAFFORD RD, NEPEAN"
      }
    ]
  },
  {
    "postal": "K2H9E8",
    "result": [
      {
        "electoralDistricts": [
          {
            "election": null,
            "id": 66,
            "name": "Nepean"
          }
        ],
        "pollDivisionIds": [
          10126646
        ],
        "postalCode": "K2H9E8",
        "streetName": "MENTEN",
        "streetDirectionId": null,
        "streetTypeId": "PL",
        "placeName": "NEPEAN",
        "streetNameDisplayText": "MENTEN PL, NEPEAN"
      }
    ]
  },
  {
    "postal": "K2H1C9",
    "result": [
      {
        "electoralDistricts": [
          {
            "election": null,
            "id": 81,
            "name": "Ottawa West—Nepean"
          }
        ],
        "pollDivisionIds": [
          10140818
        ],
        "postalCode": "K2H1C9",
        "streetName": "CORKSTOWN",
        "streetDirectionId": null,
        "streetTypeId": "RD",
        "placeName": "NEPEAN",
        "streetNameDisplayText": "CORKSTOWN RD, NEPEAN"
      }
    ]
  },
  {
    "postal": "K2H3B5",
    "result": []
  },
  {
    "postal": "K2H8R0",
    "result": []
  },
  {
    "postal": "K2H3P2",
    "result": []
  },
  {
    "postal": "K2H5V4",
    "result": [
      {
        "electoralDistricts": [
          {
            "election": null,
            "id": 66,
            "name": "Nepean"
          }
        ],
        "pollDivisionIds": [
          10126649
        ],
        "postalCode": "K2H5V4",
        "streetName": "PARKLAND",
        "streetDirectionId": null,
        "streetTypeId": "CRES",
        "placeName": "NEPEAN",
        "streetNameDisplayText": "PARKLAND CRES, NEPEAN"
      }
    ]
  },
  {
    "postal": "K2H4H0",
    "result": []
  },
  {
    "postal": "K2H4S7",
    "result": []
  },
  {
    "postal": "K2H6C2",
    "result": [
      {
        "electoralDistricts": [
          {
            "election": null,
            "id": 66,
            "name": "Nepean"
          }
        ],
        "pollDivisionIds": [
          10126646
        ],
        "postalCode": "K2H6C2",
        "streetName": "EDGEBROOK",
        "streetDirectionId": null,
        "streetTypeId": "RD",
        "placeName": "NEPEAN",
        "streetNameDisplayText": "EDGEBROOK RD, NEPEAN"
      }
    ]
  },
  {
    "postal": "K2H8W3",
    "result": [
      {
        "electoralDistricts": [
          {
            "election": null,
            "id": 66,
            "name": "Nepean"
          }
        ],
        "pollDivisionIds": [
          10126644
        ],
        "postalCode": "K2H8W3",
        "streetName": "SEYTON",
        "streetDirectionId": null,
        "streetTypeId": "DR",
        "placeName": "NEPEAN",
        "streetNameDisplayText": "SEYTON DR, NEPEAN"
      }
    ]
  },
  {
    "postal": "K2H4M5",
    "result": []
  },
  {
    "postal": "K2H5T1",
    "result": [
      {
        "electoralDistricts": [
          {
            "election": null,
            "id": 66,
            "name": "Nepean"
          }
        ],
        "pollDivisionIds": [
          10126649
        ],
        "postalCode": "K2H5T1",
        "streetName": "CANFIELD",
        "streetDirectionId": null,
        "streetTypeId": "RD",
        "placeName": "NEPEAN",
        "streetNameDisplayText": "CANFIELD RD, NEPEAN"
      }
    ]
  },
  {
    "postal": "K2H3B3",
    "result": []
  },
  {
    "postal": "K2H6C6",
    "result": [
      {
        "electoralDistricts": [
          {
            "election": null,
            "id": 66,
            "name": "Nepean"
          }
        ],
        "pollDivisionIds": [
          10126646
        ],
        "postalCode": "K2H6C6",
        "streetName": "EVERGREEN",
        "streetDirectionId": null,
        "streetTypeId": "DR",
        "placeName": "NEPEAN",
        "streetNameDisplayText": "EVERGREEN DR, NEPEAN"
      }
    ]
  },
  {
    "postal": "K2H7N8",
    "result": [
      {
        "electoralDistricts": [
          {
            "election": null,
            "id": 81,
            "name": "Ottawa West—Nepean"
          }
        ],
        "pollDivisionIds": [
          10140832
        ],
        "postalCode": "K2H7N8",
        "streetName": "DAYTON",
        "streetDirectionId": null,
        "streetTypeId": "CRES",
        "placeName": "NEPEAN",
        "streetNameDisplayText": "DAYTON CRES, NEPEAN"
      }
    ]
  },
  {
    "postal": "K2H2Y3",
    "result": []
  },
  {
    "postal": "K2H2R6",
    "result": []
  },
  {
    "postal": "K2H7N3",
    "result": [
      {
        "electoralDistricts": [
          {
            "election": null,
            "id": 81,
            "name": "Ottawa West—Nepean"
          }
        ],
        "pollDivisionIds": [
          10140832
        ],
        "postalCode": "K2H7N3",
        "streetName": "HARRISON",
        "streetDirectionId": null,
        "streetTypeId": "ST",
        "placeName": "NEPEAN",
        "streetNameDisplayText": "HARRISON ST, NEPEAN"
      }
    ]
  },
  {
    "postal": "K2H8J2",
    "result": [
      {
        "electoralDistricts": [
          {
            "election": null,
            "id": 66,
            "name": "Nepean"
          }
        ],
        "pollDivisionIds": [
          10126649
        ],
        "postalCode": "K2H8J2",
        "streetName": "SISKIN",
        "streetDirectionId": null,
        "streetTypeId": "CRT",
        "placeName": "NEPEAN",
        "streetNameDisplayText": "SISKIN CRT, NEPEAN"
      }
    ]
  },
  {
    "postal": "K2H6A9",
    "result": [
      {
        "electoralDistricts": [
          {
            "election": null,
            "id": 66,
            "name": "Nepean"
          }
        ],
        "pollDivisionIds": [
          10126646
        ],
        "postalCode": "K2H6A9",
        "streetName": "PINEPOINT",
        "streetDirectionId": null,
        "streetTypeId": "DR",
        "placeName": "NEPEAN",
        "streetNameDisplayText": "PINEPOINT DR, NEPEAN"
      }
    ]
  },
  {
    "postal": "K2H3V2",
    "result": []
  },
  {
    "postal": "K2H2N3",
    "result": []
  },
  {
    "postal": "K2H1S5",
    "result": []
  },
  {
    "postal": "K2H4T7",
    "result": []
  },
  {
    "postal": "K2H6Y7",
    "result": [
      {
        "electoralDistricts": [
          {
            "election": null,
            "id": 81,
            "name": "Ottawa West—Nepean"
          }
        ],
        "pollDivisionIds": [
          10140825
        ],
        "postalCode": "K2H6Y7",
        "streetName": "BAYLIE",
        "streetDirectionId": null,
        "streetTypeId": "AVE",
        "placeName": "OTTAWA",
        "streetNameDisplayText": "BAYLIE AVE, OTTAWA"
      }
    ]
  },
  {
    "postal": "K2H0W7",
    "result": []
  },
  {
    "postal": "K2H2W9",
    "result": []
  },
  {
    "postal": "K2H8V0",
    "result": []
  },
  {
    "postal": "K2H0H4",
    "result": []
  },
  {
    "postal": "K2H2T1",
    "result": []
  },
  {
    "postal": "K2H1B1",
    "result": []
  },
  {
    "postal": "K2H8B6",
    "result": [
      {
        "electoralDistricts": [
          {
            "election": null,
            "id": 81,
            "name": "Ottawa West—Nepean"
          }
        ],
        "pollDivisionIds": [
          10140817
        ],
        "postalCode": "K2H8B6",
        "streetName": "GRANDVIEW",
        "streetDirectionId": null,
        "streetTypeId": "RD",
        "placeName": "NEPEAN",
        "streetNameDisplayText": "GRANDVIEW RD, NEPEAN"
      }
    ]
  },
  {
    "postal": "K2H6H1",
    "result": [
      {
        "electoralDistricts": [
          {
            "election": null,
            "id": 66,
            "name": "Nepean"
          }
        ],
        "pollDivisionIds": [
          10126646,
          10126645
        ],
        "postalCode": "K2H6H1",
        "streetName": "CHERRYWOOD",
        "streetDirectionId": null,
        "streetTypeId": "DR",
        "placeName": "NEPEAN",
        "streetNameDisplayText": "CHERRYWOOD DR, NEPEAN"
      }
    ]
  },
  {
    "postal": "K2H8T8",
    "result": [
      {
        "electoralDistricts": [
          {
            "election": null,
            "id": 66,
            "name": "Nepean"
          }
        ],
        "pollDivisionIds": [
          10126646,
          10126645
        ],
        "postalCode": "K2H8T8",
        "streetName": "OLD RICHMOND",
        "streetDirectionId": null,
        "streetTypeId": "RD",
        "placeName": "NEPEAN",
        "streetNameDisplayText": "OLD RICHMOND RD, NEPEAN"
      }
    ]
  },
  {
    "postal": "K2H0T4",
    "result": []
  },
  {
    "postal": "K2H2C4",
    "result": []
  },
  {
    "postal": "K2H8N3",
    "result": [
      {
        "electoralDistricts": [
          {
            "election": null,
            "id": 66,
            "name": "Nepean"
          }
        ],
        "pollDivisionIds": [
          10126649
        ],
        "postalCode": "K2H8N3",
        "streetName": "MIDLAND",
        "streetDirectionId": null,
        "streetTypeId": "CRES",
        "placeName": "NEPEAN",
        "streetNameDisplayText": "MIDLAND CRES, NEPEAN"
      }
    ]
  },
  {
    "postal": "K2H4L8",
    "result": []
  },
  {
    "postal": "K2H2B5",
    "result": []
  },
  {
    "postal": "K2H3H1",
    "result": []
  },
  {
    "postal": "K2H4Y1",
    "result": []
  },
  {
    "postal": "K2H7E2",
    "result": [
      {
        "electoralDistricts": [
          {
            "election": null,
            "id": 81,
            "name": "Ottawa West—Nepean"
          }
        ],
        "pollDivisionIds": [
          10140825
        ],
        "postalCode": "K2H7E2",
        "streetName": "CHINOOK",
        "streetDirectionId": null,
        "streetTypeId": "CRES",
        "placeName": "NEPEAN",
        "streetNameDisplayText": "CHINOOK CRES, NEPEAN"
      }
    ]
  },
  {
    "postal": "K2H2P5",
    "result": []
  },
  {
    "postal": "K2H8R7",
    "result": [
      {
        "electoralDistricts": [
          {
            "election": null,
            "id": 81,
            "name": "Ottawa West—Nepean"
          }
        ],
        "pollDivisionIds": [
          10140817
        ],
        "postalCode": "K2H8R7",
        "streetName": "ERSKINE",
        "streetDirectionId": null,
        "streetTypeId": "PL",
        "placeName": "NEPEAN",
        "streetNameDisplayText": "ERSKINE PL, NEPEAN"
      }
    ]
  },
  {
    "postal": "K2H9P1",
    "result": [
      {
        "electoralDistricts": [
          {
            "election": null,
            "id": 66,
            "name": "Nepean"
          }
        ],
        "pollDivisionIds": [
          10126679
        ],
        "postalCode": "K2H9P1",
        "streetName": "EATON",
        "streetDirectionId": null,
        "streetTypeId": "ST",
        "placeName": "NEPEAN",
        "streetNameDisplayText": "EATON ST, NEPEAN"
      }
    ]
  },
  {
    "postal": "K2H3B8",
    "result": []
  },
  {
    "postal": "K2H3P7",
    "result": []
  },
  {
    "postal": "K2H9B2",
    "result": [
      {
        "electoralDistricts": [
          {
            "election": null,
            "id": 66,
            "name": "Nepean"
          }
        ],
        "pollDivisionIds": [
          10126644
        ],
        "postalCode": "K2H9B2",
        "streetName": "SEYTON",
        "streetDirectionId": null,
        "streetTypeId": "DR",
        "placeName": "NEPEAN",
        "streetNameDisplayText": "SEYTON DR, NEPEAN"
      }
    ]
  },
  {
    "postal": "K2H6Z3",
    "result": [
      {
        "electoralDistricts": [
          {
            "election": null,
            "id": 81,
            "name": "Ottawa West—Nepean"
          }
        ],
        "pollDivisionIds": [
          10140825
        ],
        "postalCode": "K2H6Z3",
        "streetName": "ESQUIMAULT",
        "streetDirectionId": null,
        "streetTypeId": "AVE",
        "placeName": "NEPEAN",
        "streetNameDisplayText": "ESQUIMAULT AVE, NEPEAN"
      }
    ]
  },
  {
    "postal": "K2H4N5",
    "result": []
  },
  {
    "postal": "K2H8T3",
    "result": [
      {
        "electoralDistricts": [
          {
            "election": null,
            "id": 66,
            "name": "Nepean"
          }
        ],
        "pollDivisionIds": [
          10126653,
          10126649
        ],
        "postalCode": "K2H8T3",
        "streetName": "BANNER",
        "streetDirectionId": null,
        "streetTypeId": "RD",
        "placeName": "NEPEAN",
        "streetNameDisplayText": "BANNER RD, NEPEAN"
      },
      {
        "electoralDistricts": [
          {
            "election": null,
            "id": 66,
            "name": "Nepean"
          }
        ],
        "pollDivisionIds": [
          10126649
        ],
        "postalCode": "K2H8T3",
        "streetName": "BANNER",
        "streetDirectionId": null,
        "streetTypeId": "RD",
        "placeName": "OTTAWA",
        "streetNameDisplayText": "BANNER RD, OTTAWA"
      }
    ]
  },
  {
    "postal": "K2H1V2",
    "result": []
  },
  {
    "postal": "K2H1Y0",
    "result": []
  },
  {
    "postal": "K2H3G6",
    "result": []
  },
  {
    "postal": "K2H3H7",
    "result": []
  },
  {
    "postal": "K2H7X8",
    "result": [
      {
        "electoralDistricts": [
          {
            "election": null,
            "id": 66,
            "name": "Nepean"
          }
        ],
        "pollDivisionIds": [
          10126644
        ],
        "postalCode": "K2H7X8",
        "streetName": "OBERON",
        "streetDirectionId": null,
        "streetTypeId": "ST",
        "placeName": "NEPEAN",
        "streetNameDisplayText": "OBERON ST, NEPEAN"
      }
    ]
  },
  {
    "postal": "K2H0C7",
    "result": []
  },
  {
    "postal": "K2H0W9",
    "result": []
  },
  {
    "postal": "K2H8E6",
    "result": [
      {
        "electoralDistricts": [
          {
            "election": null,
            "id": 81,
            "name": "Ottawa West—Nepean"
          }
        ],
        "pollDivisionIds": [
          10140817
        ],
        "postalCode": "K2H8E6",
        "streetName": "MYRLE",
        "streetDirectionId": null,
        "streetTypeId": "AVE",
        "placeName": "NEPEAN",
        "streetNameDisplayText": "MYRLE AVE, NEPEAN"
      },
      {
        "electoralDistricts": [
          {
            "election": null,
            "id": 81,
            "name": "Ottawa West—Nepean"
          }
        ],
        "pollDivisionIds": [
          10140817
        ],
        "postalCode": "K2H8E6",
        "streetName": "MYRLE",
        "streetDirectionId": null,
        "streetTypeId": "AVE",
        "placeName": "OTTAWA",
        "streetNameDisplayText": "MYRLE AVE, OTTAWA"
      }
    ]
  },
  {
    "postal": "K2H9Z8",
    "result": []
  },
  {
    "postal": "K2H3P4",
    "result": []
  },
  {
    "postal": "K2H6L8",
    "result": [
      {
        "electoralDistricts": [
          {
            "election": null,
            "id": 66,
            "name": "Nepean"
          }
        ],
        "pollDivisionIds": [
          10126646
        ],
        "postalCode": "K2H6L8",
        "streetName": "LYNHAR",
        "streetDirectionId": null,
        "streetTypeId": "RD",
        "placeName": "NEPEAN",
        "streetNameDisplayText": "LYNHAR RD, NEPEAN"
      }
    ]
  },
  {
    "postal": "K2H2R4",
    "result": []
  },
  {
    "postal": "K2H2W1",
    "result": []
  },
  {
    "postal": "K2H9H8",
    "result": [
      {
        "electoralDistricts": [
          {
            "election": null,
            "id": 81,
            "name": "Ottawa West—Nepean"
          }
        ],
        "pollDivisionIds": [
          10140825
        ],
        "postalCode": "K2H9H8",
        "streetName": "PATHWAY",
        "streetDirectionId": null,
        "streetTypeId": "PVT",
        "placeName": "OTTAWA",
        "streetNameDisplayText": "PATHWAY PVT, OTTAWA"
      }
    ]
  },
  {
    "postal": "K2H8X9",
    "result": [
      {
        "electoralDistricts": [
          {
            "election": null,
            "id": 66,
            "name": "Nepean"
          }
        ],
        "pollDivisionIds": [
          10126644
        ],
        "postalCode": "K2H8X9",
        "streetName": "FORESTER",
        "streetDirectionId": null,
        "streetTypeId": "CRES",
        "placeName": "NEPEAN",
        "streetNameDisplayText": "FORESTER CRES, NEPEAN"
      }
    ]
  },
  {
    "postal": "K2H7H4",
    "result": [
      {
        "electoralDistricts": [
          {
            "election": null,
            "id": 81,
            "name": "Ottawa West—Nepean"
          }
        ],
        "pollDivisionIds": [
          10140825
        ],
        "postalCode": "K2H7H4",
        "streetName": "QUALICUM",
        "streetDirectionId": null,
        "streetTypeId": "ST",
        "placeName": "NEPEAN",
        "streetNameDisplayText": "QUALICUM ST, NEPEAN"
      }
    ]
  },
  {
    "postal": "K2H3J1",
    "result": []
  },
  {
    "postal": "K2H1P4",
    "result": []
  },
  {
    "postal": "K2H2A3",
    "result": []
  },
  {
    "postal": "K2H0Z1",
    "result": []
  },
  {
    "postal": "K2H1C1",
    "result": []
  },
  {
    "postal": "K2H0H3",
    "result": []
  },
  {
    "postal": "K2H7B0",
    "result": []
  },
  {
    "postal": "K2H5K2",
    "result": [
      {
        "electoralDistricts": [
          {
            "election": null,
            "id": 81,
            "name": "Ottawa West—Nepean"
          }
        ],
        "pollDivisionIds": [
          10140817
        ],
        "postalCode": "K2H5K2",
        "streetName": "STILL WATER",
        "streetDirectionId": null,
        "streetTypeId": "DR",
        "placeName": "NEPEAN",
        "streetNameDisplayText": "STILL WATER DR, NEPEAN"
      },
      {
        "electoralDistricts": [
          {
            "election": null,
            "id": 81,
            "name": "Ottawa West—Nepean"
          }
        ],
        "pollDivisionIds": [
          10140817
        ],
        "postalCode": "K2H5K2",
        "streetName": "STILLWATER",
        "streetDirectionId": null,
        "streetTypeId": "DR",
        "placeName": "NEPEAN",
        "streetNameDisplayText": "STILLWATER DR, NEPEAN"
      }
    ]
  },
  {
    "postal": "K2H1E9",
    "result": []
  },
  {
    "postal": "K2H9W7",
    "result": []
  },
  {
    "postal": "K2H5W6",
    "result": [
      {
        "electoralDistricts": [
          {
            "election": null,
            "id": 66,
            "name": "Nepean"
          }
        ],
        "pollDivisionIds": [
          10126649
        ],
        "postalCode": "K2H5W6",
        "streetName": "JANSEN",
        "streetDirectionId": null,
        "streetTypeId": "RD",
        "placeName": "NEPEAN",
        "streetNameDisplayText": "JANSEN RD, NEPEAN"
      }
    ]
  },
  {
    "postal": "K2H6S6",
    "result": [
      {
        "electoralDistricts": [
          {
            "election": null,
            "id": 66,
            "name": "Nepean"
          }
        ],
        "pollDivisionIds": [
          10126645
        ],
        "postalCode": "K2H6S6",
        "streetName": "RIDGE FIELD",
        "streetDirectionId": null,
        "streetTypeId": "CRES",
        "placeName": "NEPEAN",
        "streetNameDisplayText": "RIDGE FIELD CRES, NEPEAN"
      },
      {
        "electoralDistricts": [
          {
            "election": null,
            "id": 66,
            "name": "Nepean"
          }
        ],
        "pollDivisionIds": [
          10126645,
          10126646
        ],
        "postalCode": "K2H6S6",
        "streetName": "RIDGEFIELD",
        "streetDirectionId": null,
        "streetTypeId": "CRES",
        "placeName": "NEPEAN",
        "streetNameDisplayText": "RIDGEFIELD CRES, NEPEAN"
      }
    ]
  },
  {
    "postal": "K2H2P8",
    "result": []
  },
  {
    "postal": "K2H4P8",
    "result": []
  },
  {
    "postal": "K2H0V9",
    "result": []
  },
  {
    "postal": "K2H5Y2",
    "result": [
      {
        "electoralDistricts": [
          {
            "election": null,
            "id": 66,
            "name": "Nepean"
          }
        ],
        "pollDivisionIds": [
          10126649
        ],
        "postalCode": "K2H5Y2",
        "streetName": "KEPPLER",
        "streetDirectionId": null,
        "streetTypeId": "CRES",
        "placeName": "NEPEAN",
        "streetNameDisplayText": "KEPPLER CRES, NEPEAN"
      }
    ]
  },
  {
    "postal": "K2H7Z7",
    "result": [
      {
        "electoralDistricts": [
          {
            "election": null,
            "id": 66,
            "name": "Nepean"
          }
        ],
        "pollDivisionIds": [
          10126649
        ],
        "postalCode": "K2H7Z7",
        "streetName": "RIVERBROOK",
        "streetDirectionId": null,
        "streetTypeId": "RD",
        "placeName": "NEPEAN",
        "streetNameDisplayText": "RIVERBROOK RD, NEPEAN"
      }
    ]
  },
  {
    "postal": "K2H6Y8",
    "result": [
      {
        "electoralDistricts": [
          {
            "election": null,
            "id": 81,
            "name": "Ottawa West—Nepean"
          }
        ],
        "pollDivisionIds": [
          10140825
        ],
        "postalCode": "K2H6Y8",
        "streetName": "BAYLIE",
        "streetDirectionId": null,
        "streetTypeId": "AVE",
        "placeName": "OTTAWA",
        "streetNameDisplayText": "BAYLIE AVE, OTTAWA"
      }
    ]
  },
  {
    "postal": "K2H2G7",
    "result": []
  },
  {
    "postal": "K2H8C1",
    "result": [
      {
        "electoralDistricts": [
          {
            "election": null,
            "id": 81,
            "name": "Ottawa West—Nepean"
          }
        ],
        "pollDivisionIds": [
          10140817
        ],
        "postalCode": "K2H8C1",
        "streetName": "GRANDVIEW",
        "streetDirectionId": null,
        "streetTypeId": "RD",
        "placeName": "NEPEAN",
        "streetNameDisplayText": "GRANDVIEW RD, NEPEAN"
      }
    ]
  },
  {
    "postal": "K2H5C5",
    "result": [
      {
        "electoralDistricts": [
          {
            "election": null,
            "id": 66,
            "name": "Nepean"
          }
        ],
        "pollDivisionIds": [
          10126645
        ],
        "postalCode": "K2H5C5",
        "streetName": "OLD RICHMOND",
        "streetDirectionId": null,
        "streetTypeId": "RD",
        "placeName": "NEPEAN",
        "streetNameDisplayText": "OLD RICHMOND RD, NEPEAN"
      }
    ]
  },
  {
    "postal": "K2H2X8",
    "result": []
  },
  {
    "postal": "K2H1W5",
    "result": []
  },
  {
    "postal": "K2H7G0",
    "result": []
  },
  {
    "postal": "K2H8J8",
    "result": [
      {
        "electoralDistricts": [
          {
            "election": null,
            "id": 66,
            "name": "Nepean"
          }
        ],
        "pollDivisionIds": [
          10126644
        ],
        "postalCode": "K2H8J8",
        "streetName": "TARQUIN",
        "streetDirectionId": null,
        "streetTypeId": "CRES",
        "placeName": "NEPEAN",
        "streetNameDisplayText": "TARQUIN CRES, NEPEAN"
      }
    ]
  },
  {
    "postal": "K2H3Y0",
    "result": []
  },
  {
    "postal": "K2H9T7",
    "result": []
  },
  {
    "postal": "K2H5P4",
    "result": [
      {
        "electoralDistricts": [
          {
            "election": null,
            "id": 81,
            "name": "Ottawa West—Nepean"
          }
        ],
        "pollDivisionIds": [
          10140818
        ],
        "postalCode": "K2H5P4",
        "streetName": "CLEADON",
        "streetDirectionId": null,
        "streetTypeId": "DR",
        "placeName": "NEPEAN",
        "streetNameDisplayText": "CLEADON DR, NEPEAN"
      }
    ]
  },
  {
    "postal": "K2H4B0",
    "result": []
  },
  {
    "postal": "K2H9N8",
    "result": [
      {
        "electoralDistricts": [
          {
            "election": null,
            "id": 66,
            "name": "Nepean"
          }
        ],
        "pollDivisionIds": [
          10126645
        ],
        "postalCode": "K2H9N8",
        "streetName": "MOODIE",
        "streetDirectionId": null,
        "streetTypeId": "DR",
        "placeName": "NEPEAN",
        "streetNameDisplayText": "MOODIE DR, NEPEAN"
      }
    ]
  },
  {
    "postal": "K2H4A7",
    "result": []
  },
  {
    "postal": "K2H4H9",
    "result": []
  },
  {
    "postal": "K2H6X1",
    "result": [
      {
        "electoralDistricts": [
          {
            "election": null,
            "id": 81,
            "name": "Ottawa West—Nepean"
          }
        ],
        "pollDivisionIds": [
          10140825
        ],
        "postalCode": "K2H6X1",
        "streetName": "BRIAN",
        "streetDirectionId": null,
        "streetTypeId": "CRES",
        "placeName": "NEPEAN",
        "streetNameDisplayText": "BRIAN CRES, NEPEAN"
      }
    ]
  },
  {
    "postal": "K2H9Y7",
    "result": []
  },
  {
    "postal": "K2H2Y5",
    "result": []
  },
  {
    "postal": "K2H8L7",
    "result": [
      {
        "electoralDistricts": [
          {
            "election": null,
            "id": 66,
            "name": "Nepean"
          }
        ],
        "pollDivisionIds": [
          10126649
        ],
        "postalCode": "K2H8L7",
        "streetName": "JEREMIAH",
        "streetDirectionId": null,
        "streetTypeId": "PL",
        "placeName": "NEPEAN",
        "streetNameDisplayText": "JEREMIAH PL, NEPEAN"
      }
    ]
  },
  {
    "postal": "K2H2A8",
    "result": []
  },
  {
    "postal": "K2H2K9",
    "result": []
  },
  {
    "postal": "K2H3E5",
    "result": []
  },
  {
    "postal": "K2H8N6",
    "result": [
      {
        "electoralDistricts": [
          {
            "election": null,
            "id": 66,
            "name": "Nepean"
          }
        ],
        "pollDivisionIds": [
          10126649
        ],
        "postalCode": "K2H8N6",
        "streetName": "MCCLELLAN",
        "streetDirectionId": null,
        "streetTypeId": "RD",
        "placeName": "NEPEAN",
        "streetNameDisplayText": "MCCLELLAN RD, NEPEAN"
      }
    ]
  },
  {
    "postal": "K2H8J4",
    "result": []
  },
  {
    "postal": "K2H4R7",
    "result": []
  },
  {
    "postal": "K2H9K1",
    "result": [
      {
        "electoralDistricts": [
          {
            "election": null,
            "id": 81,
            "name": "Ottawa West—Nepean"
          }
        ],
        "pollDivisionIds": [
          10140827
        ],
        "postalCode": "K2H9K1",
        "streetName": "GLADECREST",
        "streetDirectionId": null,
        "streetTypeId": "CRT",
        "placeName": "NEPEAN",
        "streetNameDisplayText": "GLADECREST CRT, NEPEAN"
      }
    ]
  },
  {
    "postal": "K2H8E1",
    "result": [
      {
        "electoralDistricts": [
          {
            "election": null,
            "id": 81,
            "name": "Ottawa West—Nepean"
          }
        ],
        "pollDivisionIds": [
          10140817
        ],
        "postalCode": "K2H8E1",
        "streetName": "JAMES CUMMINGS",
        "streetDirectionId": null,
        "streetTypeId": "AVE",
        "placeName": "NEPEAN",
        "streetNameDisplayText": "JAMES CUMMINGS AVE, NEPEAN"
      },
      {
        "electoralDistricts": [
          {
            "election": null,
            "id": 81,
            "name": "Ottawa West—Nepean"
          }
        ],
        "pollDivisionIds": [
          10140817
        ],
        "postalCode": "K2H8E1",
        "streetName": "JAMES CUMMINGS",
        "streetDirectionId": null,
        "streetTypeId": "AVE",
        "placeName": "OTTAWA",
        "streetNameDisplayText": "JAMES CUMMINGS AVE, OTTAWA"
      }
    ]
  },
  {
    "postal": "K2H0R1",
    "result": []
  },
  {
    "postal": "K2H4J3",
    "result": []
  },
  {
    "postal": "K2H7E7",
    "result": [
      {
        "electoralDistricts": [
          {
            "election": null,
            "id": 81,
            "name": "Ottawa West—Nepean"
          }
        ],
        "pollDivisionIds": [
          10140825
        ],
        "postalCode": "K2H7E7",
        "streetName": "OKANAGAN",
        "streetDirectionId": null,
        "streetTypeId": "DR",
        "placeName": "NEPEAN",
        "streetNameDisplayText": "OKANAGAN DR, NEPEAN"
      }
    ]
  },
  {
    "postal": "K2H0J0",
    "result": []
  },
  {
    "postal": "K2H7R8",
    "result": [
      {
        "electoralDistricts": [
          {
            "election": null,
            "id": 66,
            "name": "Nepean"
          }
        ],
        "pollDivisionIds": [
          10126646
        ],
        "postalCode": "K2H7R8",
        "streetName": "REDFERN",
        "streetDirectionId": null,
        "streetTypeId": "AVE",
        "placeName": "NEPEAN",
        "streetNameDisplayText": "REDFERN AVE, NEPEAN"
      }
    ]
  },
  {
    "postal": "K2H9X0",
    "result": []
  },
  {
    "postal": "K2H7P6",
    "result": [
      {
        "electoralDistricts": [
          {
            "election": null,
            "id": 66,
            "name": "Nepean"
          }
        ],
        "pollDivisionIds": [
          10126646
        ],
        "postalCode": "K2H7P6",
        "streetName": "VANIER",
        "streetDirectionId": null,
        "streetTypeId": "RD",
        "placeName": "NEPEAN",
        "streetNameDisplayText": "VANIER RD, NEPEAN"
      }
    ]
  },
  {
    "postal": "K2H0R7",
    "result": []
  },
  {
    "postal": "K2H5W1",
    "result": [
      {
        "electoralDistricts": [
          {
            "election": null,
            "id": 66,
            "name": "Nepean"
          }
        ],
        "pollDivisionIds": [
          10126649
        ],
        "postalCode": "K2H5W1",
        "streetName": "MCCLELLAN",
        "streetDirectionId": null,
        "streetTypeId": "RD",
        "placeName": "NEPEAN",
        "streetNameDisplayText": "MCCLELLAN RD, NEPEAN"
      }
    ]
  },
  {
    "postal": "K2H0K4",
    "result": []
  },
  {
    "postal": "K2H7N9",
    "result": [
      {
        "electoralDistricts": [
          {
            "election": null,
            "id": 81,
            "name": "Ottawa West—Nepean"
          }
        ],
        "pollDivisionIds": [
          10140832
        ],
        "postalCode": "K2H7N9",
        "streetName": "DAYTON",
        "streetDirectionId": null,
        "streetTypeId": "CRES",
        "placeName": "NEPEAN",
        "streetNameDisplayText": "DAYTON CRES, NEPEAN"
      }
    ]
  },
  {
    "postal": "K2H1N0",
    "result": []
  },
  {
    "postal": "K2H6P3",
    "result": [
      {
        "electoralDistricts": [
          {
            "election": null,
            "id": 66,
            "name": "Nepean"
          }
        ],
        "pollDivisionIds": [
          10126646
        ],
        "postalCode": "K2H6P3",
        "streetName": "TANGLEWOOD",
        "streetDirectionId": null,
        "streetTypeId": "DR",
        "placeName": "NEPEAN",
        "streetNameDisplayText": "TANGLEWOOD DR, NEPEAN"
      }
    ]
  },
  {
    "postal": "K2H5A1",
    "result": [
      {
        "electoralDistricts": [
          {
            "election": null,
            "id": 81,
            "name": "Ottawa West—Nepean"
          }
        ],
        "pollDivisionIds": [
          10140820
        ],
        "postalCode": "K2H5A1",
        "streetName": "BIRCHDALE",
        "streetDirectionId": null,
        "streetTypeId": "AVE",
        "placeName": "NEPEAN",
        "streetNameDisplayText": "BIRCHDALE AVE, NEPEAN"
      }
    ]
  },
  {
    "postal": "K2H9M9",
    "result": [
      {
        "electoralDistricts": [
          {
            "election": null,
            "id": 66,
            "name": "Nepean"
          }
        ],
        "pollDivisionIds": [
          10126644
        ],
        "postalCode": "K2H9M9",
        "streetName": "WATERFALL",
        "streetDirectionId": null,
        "streetTypeId": "LANE",
        "placeName": "NEPEAN",
        "streetNameDisplayText": "WATERFALL LANE, NEPEAN"
      }
    ]
  },
  {
    "postal": "K2H7T6",
    "result": []
  },
  {
    "postal": "K2H3X0",
    "result": []
  },
  {
    "postal": "K2H2T0",
    "result": []
  },
  {
    "postal": "K2H5X9",
    "result": [
      {
        "electoralDistricts": [
          {
            "election": null,
            "id": 66,
            "name": "Nepean"
          }
        ],
        "pollDivisionIds": [
          10126649
        ],
        "postalCode": "K2H5X9",
        "streetName": "KEPPLER",
        "streetDirectionId": null,
        "streetTypeId": "CRES",
        "placeName": "NEPEAN",
        "streetNameDisplayText": "KEPPLER CRES, NEPEAN"
      }
    ]
  },
  {
    "postal": "K2H2R3",
    "result": []
  },
  {
    "postal": "K2H5N2",
    "result": [
      {
        "electoralDistricts": [
          {
            "election": null,
            "id": 81,
            "name": "Ottawa West—Nepean"
          }
        ],
        "pollDivisionIds": [
          10140817
        ],
        "postalCode": "K2H5N2",
        "streetName": "CRYSTAL BEACH",
        "streetDirectionId": null,
        "streetTypeId": "DR",
        "placeName": "NEPEAN",
        "streetNameDisplayText": "CRYSTAL BEACH DR, NEPEAN"
      }
    ]
  },
  {
    "postal": "K2H4Y7",
    "result": []
  },
  {
    "postal": "K2H7M0",
    "result": []
  },
  {
    "postal": "K2H8P3",
    "result": [
      {
        "electoralDistricts": [
          {
            "election": null,
            "id": 66,
            "name": "Nepean"
          }
        ],
        "pollDivisionIds": [
          10126649
        ],
        "postalCode": "K2H8P3",
        "streetName": "GREENBANK",
        "streetDirectionId": null,
        "streetTypeId": "RD",
        "placeName": "NEPEAN",
        "streetNameDisplayText": "GREENBANK RD, NEPEAN"
      }
    ]
  },
  {
    "postal": "K2H3N3",
    "result": []
  },
  {
    "postal": "K2H7S3",
    "result": [
      {
        "electoralDistricts": [
          {
            "election": null,
            "id": 66,
            "name": "Nepean"
          }
        ],
        "pollDivisionIds": [
          10126646
        ],
        "postalCode": "K2H7S3",
        "streetName": "ASH",
        "streetDirectionId": null,
        "streetTypeId": "ST",
        "placeName": "NEPEAN",
        "streetNameDisplayText": "ASH ST, NEPEAN"
      }
    ]
  },
  {
    "postal": "K2H3V9",
    "result": []
  },
  {
    "postal": "K2H9N7",
    "result": []
  },
  {
    "postal": "K2H0G4",
    "result": []
  },
  {
    "postal": "K2H2E2",
    "result": []
  },
  {
    "postal": "K2H7W8",
    "result": [
      {
        "electoralDistricts": [
          {
            "election": null,
            "id": 66,
            "name": "Nepean"
          }
        ],
        "pollDivisionIds": [
          10126649
        ],
        "postalCode": "K2H7W8",
        "streetName": "MCCLELLAN",
        "streetDirectionId": null,
        "streetTypeId": "RD",
        "placeName": "NEPEAN",
        "streetNameDisplayText": "MCCLELLAN RD, NEPEAN"
      }
    ]
  },
  {
    "postal": "K2H7M5",
    "result": [
      {
        "electoralDistricts": [
          {
            "election": null,
            "id": 81,
            "name": "Ottawa West—Nepean"
          }
        ],
        "pollDivisionIds": [
          10140827
        ],
        "postalCode": "K2H7M5",
        "streetName": "ABINGDON",
        "streetDirectionId": null,
        "streetTypeId": "DR",
        "placeName": "NEPEAN",
        "streetNameDisplayText": "ABINGDON DR, NEPEAN"
      }
    ]
  },
  {
    "postal": "K2H5W8",
    "result": [
      {
        "electoralDistricts": [
          {
            "election": null,
            "id": 66,
            "name": "Nepean"
          }
        ],
        "pollDivisionIds": [
          10126649
        ],
        "postalCode": "K2H5W8",
        "streetName": "JANSEN",
        "streetDirectionId": null,
        "streetTypeId": "RD",
        "placeName": "NEPEAN",
        "streetNameDisplayText": "JANSEN RD, NEPEAN"
      }
    ]
  },
  {
    "postal": "K2H5E5",
    "result": [
      {
        "electoralDistricts": [
          {
            "election": null,
            "id": 81,
            "name": "Ottawa West—Nepean"
          }
        ],
        "pollDivisionIds": [
          10140818
        ],
        "postalCode": "K2H5E5",
        "streetName": "HORNER",
        "streetDirectionId": null,
        "streetTypeId": "DR",
        "placeName": "NEPEAN",
        "streetNameDisplayText": "HORNER DR, NEPEAN"
      }
    ]
  },
  {
    "postal": "K2H1P9",
    "result": []
  },
  {
    "postal": "K2H8V8",
    "result": [
      {
        "electoralDistricts": [
          {
            "election": null,
            "id": 66,
            "name": "Nepean"
          }
        ],
        "pollDivisionIds": [
          10126646
        ],
        "postalCode": "K2H8V8",
        "streetName": "STAFFORD",
        "streetDirectionId": null,
        "streetTypeId": "RD",
        "placeName": "NEPEAN",
        "streetNameDisplayText": "STAFFORD RD, NEPEAN"
      }
    ]
  },
  {
    "postal": "K2H9G8",
    "result": [
      {
        "electoralDistricts": [
          {
            "election": null,
            "id": 81,
            "name": "Ottawa West—Nepean"
          }
        ],
        "pollDivisionIds": [
          10140854
        ],
        "postalCode": "K2H9G8",
        "streetName": "VALLEY STREAM",
        "streetDirectionId": null,
        "streetTypeId": "DR",
        "placeName": "NEPEAN",
        "streetNameDisplayText": "VALLEY STREAM DR, NEPEAN"
      }
    ]
  },
  {
    "postal": "K2H8H9",
    "result": []
  },
  {
    "postal": "K2H1Z1",
    "result": []
  },
  {
    "postal": "K2H8M3",
    "result": [
      {
        "electoralDistricts": [
          {
            "election": null,
            "id": 66,
            "name": "Nepean"
          }
        ],
        "pollDivisionIds": [
          10126649
        ],
        "postalCode": "K2H8M3",
        "streetName": "VERONICA",
        "streetDirectionId": null,
        "streetTypeId": "PL",
        "placeName": "NEPEAN",
        "streetNameDisplayText": "VERONICA PL, NEPEAN"
      }
    ]
  },
  {
    "postal": "K2H5H6",
    "result": [
      {
        "electoralDistricts": [
          {
            "election": null,
            "id": 81,
            "name": "Ottawa West—Nepean"
          }
        ],
        "pollDivisionIds": [
          10140817
        ],
        "postalCode": "K2H5H6",
        "streetName": "ULLSWATER",
        "streetDirectionId": null,
        "streetTypeId": "DR",
        "placeName": "NEPEAN",
        "streetNameDisplayText": "ULLSWATER DR, NEPEAN"
      }
    ]
  },
  {
    "postal": "K2H7W7",
    "result": [
      {
        "electoralDistricts": [
          {
            "election": null,
            "id": 66,
            "name": "Nepean"
          }
        ],
        "pollDivisionIds": [
          10126649
        ],
        "postalCode": "K2H7W7",
        "streetName": "RIVERBROOK",
        "streetDirectionId": null,
        "streetTypeId": "RD",
        "placeName": "NEPEAN",
        "streetNameDisplayText": "RIVERBROOK RD, NEPEAN"
      }
    ]
  },
  {
    "postal": "K2H4L0",
    "result": []
  },
  {
    "postal": "K2H2N1",
    "result": []
  },
  {
    "postal": "K2H2H4",
    "result": []
  },
  {
    "postal": "K2H5C8",
    "result": [
      {
        "electoralDistricts": [
          {
            "election": null,
            "id": 66,
            "name": "Nepean"
          }
        ],
        "pollDivisionIds": [
          10126645
        ],
        "postalCode": "K2H5C8",
        "streetName": "BLACK FOREST",
        "streetDirectionId": null,
        "streetTypeId": "LANE",
        "placeName": "NEPEAN",
        "streetNameDisplayText": "BLACK FOREST LANE, NEPEAN"
      }
    ]
  },
  {
    "postal": "K2H8B0",
    "result": []
  },
  {
    "postal": "K2H1T4",
    "result": []
  },
  {
    "postal": "K2H7N7",
    "result": [
      {
        "electoralDistricts": [
          {
            "election": null,
            "id": 81,
            "name": "Ottawa West—Nepean"
          }
        ],
        "pollDivisionIds": [
          10140832
        ],
        "postalCode": "K2H7N7",
        "streetName": "HARRISON",
        "streetDirectionId": null,
        "streetTypeId": "ST",
        "placeName": "NEPEAN",
        "streetNameDisplayText": "HARRISON ST, NEPEAN"
      }
    ]
  },
  {
    "postal": "K2H4L3",
    "result": []
  },
  {
    "postal": "K2H2N2",
    "result": []
  },
  {
    "postal": "K2H4N8",
    "result": []
  },
  {
    "postal": "K2H3M5",
    "result": []
  },
  {
    "postal": "K2H6H7",
    "result": [
      {
        "electoralDistricts": [
          {
            "election": null,
            "id": 66,
            "name": "Nepean"
          }
        ],
        "pollDivisionIds": [
          10126645
        ],
        "postalCode": "K2H6H7",
        "streetName": "TREVOR",
        "streetDirectionId": null,
        "streetTypeId": "CRES",
        "placeName": "NEPEAN",
        "streetNameDisplayText": "TREVOR CRES, NEPEAN"
      }
    ]
  },
  {
    "postal": "K2H8Y8",
    "result": [
      {
        "electoralDistricts": [
          {
            "election": null,
            "id": 66,
            "name": "Nepean"
          }
        ],
        "pollDivisionIds": [
          10126649
        ],
        "postalCode": "K2H8Y8",
        "streetName": "PAULA",
        "streetDirectionId": null,
        "streetTypeId": "CRES",
        "placeName": "NEPEAN",
        "streetNameDisplayText": "PAULA CRES, NEPEAN"
      }
    ]
  },
  {
    "postal": "K2H5R9",
    "result": [
      {
        "electoralDistricts": [
          {
            "election": null,
            "id": 81,
            "name": "Ottawa West—Nepean"
          }
        ],
        "pollDivisionIds": [
          10140817
        ],
        "postalCode": "K2H5R9",
        "streetName": "GAYNOR",
        "streetDirectionId": null,
        "streetTypeId": "PL",
        "placeName": "NEPEAN",
        "streetNameDisplayText": "GAYNOR PL, NEPEAN"
      }
    ]
  },
  {
    "postal": "K2H8G3",
    "result": [
      {
        "electoralDistricts": [
          {
            "election": null,
            "id": 66,
            "name": "Nepean"
          }
        ],
        "pollDivisionIds": [
          10126644
        ],
        "postalCode": "K2H8G3",
        "streetName": "MOODIE",
        "streetDirectionId": null,
        "streetTypeId": "DR",
        "placeName": "NEPEAN",
        "streetNameDisplayText": "MOODIE DR, NEPEAN"
      }
    ]
  },
  {
    "postal": "K2H4N7",
    "result": []
  },
  {
    "postal": "K2H0B9",
    "result": []
  },
  {
    "postal": "K2H9K7",
    "result": [
      {
        "electoralDistricts": [
          {
            "election": null,
            "id": 66,
            "name": "Nepean"
          }
        ],
        "pollDivisionIds": [
          10126649
        ],
        "postalCode": "K2H9K7",
        "streetName": "OAKMORE",
        "streetDirectionId": null,
        "streetTypeId": "PL",
        "placeName": "NEPEAN",
        "streetNameDisplayText": "OAKMORE PL, NEPEAN"
      }
    ]
  },
  {
    "postal": "K2H9K9",
    "result": [
      {
        "electoralDistricts": [
          {
            "election": null,
            "id": 66,
            "name": "Nepean"
          }
        ],
        "pollDivisionIds": [
          10126649
        ],
        "postalCode": "K2H9K9",
        "streetName": "BANNER",
        "streetDirectionId": null,
        "streetTypeId": "RD",
        "placeName": "NEPEAN",
        "streetNameDisplayText": "BANNER RD, NEPEAN"
      }
    ]
  },
  {
    "postal": "K2H3Z2",
    "result": []
  },
  {
    "postal": "K2H6W7",
    "result": [
      {
        "electoralDistricts": [
          {
            "election": null,
            "id": 81,
            "name": "Ottawa West—Nepean"
          }
        ],
        "pollDivisionIds": [
          10140825
        ],
        "postalCode": "K2H6W7",
        "streetName": "HOBBS",
        "streetDirectionId": null,
        "streetTypeId": "AVE",
        "placeName": "NEPEAN",
        "streetNameDisplayText": "HOBBS AVE, NEPEAN"
      }
    ]
  },
  {
    "postal": "K2H0P1",
    "result": []
  },
  {
    "postal": "K2H3A0",
    "result": []
  },
  {
    "postal": "K2H8L9",
    "result": [
      {
        "electoralDistricts": [
          {
            "election": null,
            "id": 66,
            "name": "Nepean"
          }
        ],
        "pollDivisionIds": [
          10126649
        ],
        "postalCode": "K2H8L9",
        "streetName": "SHEAHAN",
        "streetDirectionId": null,
        "streetTypeId": "CRES",
        "placeName": "NEPEAN",
        "streetNameDisplayText": "SHEAHAN CRES, NEPEAN"
      }
    ]
  },
  {
    "postal": "K2H6X0",
    "result": []
  },
  {
    "postal": "K2H3E9",
    "result": []
  },
  {
    "postal": "K2H0S5",
    "result": []
  },
  {
    "postal": "K2H1A2",
    "result": []
  },
  {
    "postal": "K2H5V8",
    "result": [
      {
        "electoralDistricts": [
          {
            "election": null,
            "id": 66,
            "name": "Nepean"
          }
        ],
        "pollDivisionIds": [
          10126649
        ],
        "postalCode": "K2H5V8",
        "streetName": "MCCLELLAN",
        "streetDirectionId": null,
        "streetTypeId": "RD",
        "placeName": "NEPEAN",
        "streetNameDisplayText": "MCCLELLAN RD, NEPEAN"
      }
    ]
  },
  {
    "postal": "K2H8C5",
    "result": [
      {
        "electoralDistricts": [
          {
            "election": null,
            "id": 81,
            "name": "Ottawa West—Nepean"
          }
        ],
        "pollDivisionIds": [
          10140817
        ],
        "postalCode": "K2H8C5",
        "streetName": "NESBITT",
        "streetDirectionId": null,
        "streetTypeId": "ST",
        "placeName": "NEPEAN",
        "streetNameDisplayText": "NESBITT ST, NEPEAN"
      }
    ]
  },
  {
    "postal": "K2H6N0",
    "result": []
  },
  {
    "postal": "K2H9E6",
    "result": [
      {
        "electoralDistricts": [
          {
            "election": null,
            "id": 66,
            "name": "Nepean"
          }
        ],
        "pollDivisionIds": [
          10126645
        ],
        "postalCode": "K2H9E6",
        "streetName": "BLACK FOREST",
        "streetDirectionId": null,
        "streetTypeId": "LANE",
        "placeName": "NEPEAN",
        "streetNameDisplayText": "BLACK FOREST LANE, NEPEAN"
      }
    ]
  },
  {
    "postal": "K2H5J7",
    "result": [
      {
        "electoralDistricts": [
          {
            "election": null,
            "id": 81,
            "name": "Ottawa West—Nepean"
          }
        ],
        "pollDivisionIds": [
          10140818
        ],
        "postalCode": "K2H5J7",
        "streetName": "FAIRFIELD",
        "streetDirectionId": null,
        "streetTypeId": "ST",
        "placeName": "NEPEAN",
        "streetNameDisplayText": "FAIRFIELD ST, NEPEAN"
      }
    ]
  },
  {
    "postal": "K2H2R2",
    "result": []
  },
  {
    "postal": "K2H0P5",
    "result": []
  },
  {
    "postal": "K2H5A7",
    "result": []
  },
  {
    "postal": "K2H1G1",
    "result": []
  },
  {
    "postal": "K2H9R6",
    "result": []
  },
  {
    "postal": "K2H4Z9",
    "result": []
  },
  {
    "postal": "K2H1V5",
    "result": []
  },
  {
    "postal": "K2H9Y5",
    "result": []
  },
  {
    "postal": "K2H1P2",
    "result": []
  },
  {
    "postal": "K2H5X0",
    "result": []
  },
  {
    "postal": "K2H7B8",
    "result": [
      {
        "electoralDistricts": [
          {
            "election": null,
            "id": 81,
            "name": "Ottawa West—Nepean"
          }
        ],
        "pollDivisionIds": [
          10140827
        ],
        "postalCode": "K2H7B8",
        "streetName": "GUTHRIE",
        "streetDirectionId": null,
        "streetTypeId": "ST",
        "placeName": "NEPEAN",
        "streetNameDisplayText": "GUTHRIE ST, NEPEAN"
      }
    ]
  },
  {
    "postal": "K2H0C6",
    "result": []
  },
  {
    "postal": "K2H6G1",
    "result": [
      {
        "electoralDistricts": [
          {
            "election": null,
            "id": 66,
            "name": "Nepean"
          }
        ],
        "pollDivisionIds": [
          10126646
        ],
        "postalCode": "K2H6G1",
        "streetName": "LONGWOOD",
        "streetDirectionId": null,
        "streetTypeId": "AVE",
        "placeName": "NEPEAN",
        "streetNameDisplayText": "LONGWOOD AVE, NEPEAN"
      }
    ]
  },
  {
    "postal": "K2H3K3",
    "result": []
  },
  {
    "postal": "K2H9R0",
    "result": []
  },
  {
    "postal": "K2H4R8",
    "result": []
  },
  {
    "postal": "K2H5P9",
    "result": [
      {
        "electoralDistricts": [
          {
            "election": null,
            "id": 81,
            "name": "Ottawa West—Nepean"
          }
        ],
        "pollDivisionIds": [
          10140817
        ],
        "postalCode": "K2H5P9",
        "streetName": "ROCHE",
        "streetDirectionId": null,
        "streetTypeId": "PL",
        "placeName": "NEPEAN",
        "streetNameDisplayText": "ROCHE PL, NEPEAN"
      }
    ]
  },
  {
    "postal": "K2H8N4",
    "result": [
      {
        "electoralDistricts": [
          {
            "election": null,
            "id": 66,
            "name": "Nepean"
          }
        ],
        "pollDivisionIds": [
          10126649
        ],
        "postalCode": "K2H8N4",
        "streetName": "HALLOWELL",
        "streetDirectionId": null,
        "streetTypeId": "CRT",
        "placeName": "NEPEAN",
        "streetNameDisplayText": "HALLOWELL CRT, NEPEAN"
      }
    ]
  },
  {
    "postal": "K2H8H4",
    "result": [
      {
        "electoralDistricts": [
          {
            "election": null,
            "id": 81,
            "name": "Ottawa West—Nepean"
          }
        ],
        "pollDivisionIds": [
          10140817
        ],
        "postalCode": "K2H8H4",
        "streetName": "SUNNY BRAE",
        "streetDirectionId": null,
        "streetTypeId": "AVE",
        "placeName": "NEPEAN",
        "streetNameDisplayText": "SUNNY BRAE AVE, NEPEAN"
      }
    ]
  },
  {
    "postal": "K2H4V1",
    "result": []
  },
  {
    "postal": "K2H1K5",
    "result": []
  },
  {
    "postal": "K2H1Z5",
    "result": []
  },
  {
    "postal": "K2H9L9",
    "result": [
      {
        "electoralDistricts": [
          {
            "election": null,
            "id": 66,
            "name": "Nepean"
          }
        ],
        "pollDivisionIds": [
          10126644
        ],
        "postalCode": "K2H9L9",
        "streetName": "TERRACE",
        "streetDirectionId": null,
        "streetTypeId": "DR",
        "placeName": "NEPEAN",
        "streetNameDisplayText": "TERRACE DR, NEPEAN"
      }
    ]
  },
  {
    "postal": "K2H5L2",
    "result": [
      {
        "electoralDistricts": [
          {
            "election": null,
            "id": 81,
            "name": "Ottawa West—Nepean"
          }
        ],
        "pollDivisionIds": [
          10140817
        ],
        "postalCode": "K2H5L2",
        "streetName": "HEXHAM",
        "streetDirectionId": null,
        "streetTypeId": "RD",
        "placeName": "NEPEAN",
        "streetNameDisplayText": "HEXHAM RD, NEPEAN"
      }
    ]
  },
  {
    "postal": "K2H0M2",
    "result": []
  },
  {
    "postal": "K2H1K8",
    "result": []
  },
  {
    "postal": "K2H3M7",
    "result": []
  },
  {
    "postal": "K2H1B2",
    "result": []
  },
  {
    "postal": "K2H0H9",
    "result": []
  },
  {
    "postal": "K2H8M4",
    "result": [
      {
        "electoralDistricts": [
          {
            "election": null,
            "id": 66,
            "name": "Nepean"
          }
        ],
        "pollDivisionIds": [
          10126649
        ],
        "postalCode": "K2H8M4",
        "streetName": "VERONICA",
        "streetDirectionId": null,
        "streetTypeId": "PL",
        "placeName": "NEPEAN",
        "streetNameDisplayText": "VERONICA PL, NEPEAN"
      }
    ]
  },
  {
    "postal": "K2H2M5",
    "result": []
  },
  {
    "postal": "K2H0T9",
    "result": []
  },
  {
    "postal": "K2H3P1",
    "result": []
  },
  {
    "postal": "K2H1R6",
    "result": []
  },
  {
    "postal": "K2H9V5",
    "result": []
  },
  {
    "postal": "K2H9T0",
    "result": []
  },
  {
    "postal": "K2H0A9",
    "result": []
  },
  {
    "postal": "K2H1M3",
    "result": []
  },
  {
    "postal": "K2H1W8",
    "result": []
  },
  {
    "postal": "K2H9J1",
    "result": [
      {
        "electoralDistricts": [
          {
            "election": null,
            "id": 66,
            "name": "Nepean"
          }
        ],
        "pollDivisionIds": [
          10126644
        ],
        "postalCode": "K2H9J1",
        "streetName": "TERRACE",
        "streetDirectionId": null,
        "streetTypeId": "DR",
        "placeName": "NEPEAN",
        "streetNameDisplayText": "TERRACE DR, NEPEAN"
      },
      {
        "electoralDistricts": [
          {
            "election": null,
            "id": 66,
            "name": "Nepean"
          }
        ],
        "pollDivisionIds": [
          10126644
        ],
        "postalCode": "K2H9J1",
        "streetName": "TERRACE",
        "streetDirectionId": null,
        "streetTypeId": "DR",
        "placeName": "OTTAWA",
        "streetNameDisplayText": "TERRACE DR, OTTAWA"
      }
    ]
  },
  {
    "postal": "K2H8N5",
    "result": [
      {
        "electoralDistricts": [
          {
            "election": null,
            "id": 66,
            "name": "Nepean"
          }
        ],
        "pollDivisionIds": [
          10126649
        ],
        "postalCode": "K2H8N5",
        "streetName": "MCCLELLAN",
        "streetDirectionId": null,
        "streetTypeId": "RD",
        "placeName": "NEPEAN",
        "streetNameDisplayText": "MCCLELLAN RD, NEPEAN"
      }
    ]
  },
  {
    "postal": "K2H5X1",
    "result": [
      {
        "electoralDistricts": [
          {
            "election": null,
            "id": 66,
            "name": "Nepean"
          }
        ],
        "pollDivisionIds": [
          10126649
        ],
        "postalCode": "K2H5X1",
        "streetName": "ESTELLE",
        "streetDirectionId": null,
        "streetTypeId": "CRES",
        "placeName": "NEPEAN",
        "streetNameDisplayText": "ESTELLE CRES, NEPEAN"
      }
    ]
  },
  {
    "postal": "K2H6S2",
    "result": [
      {
        "electoralDistricts": [
          {
            "election": null,
            "id": 66,
            "name": "Nepean"
          }
        ],
        "pollDivisionIds": [
          10126646
        ],
        "postalCode": "K2H6S2",
        "streetName": "RIDGEFIELD",
        "streetDirectionId": null,
        "streetTypeId": "CRES",
        "placeName": "NEPEAN",
        "streetNameDisplayText": "RIDGEFIELD CRES, NEPEAN"
      }
    ]
  },
  {
    "postal": "K2H2A2",
    "result": []
  },
  {
    "postal": "K2H6A6",
    "result": [
      {
        "electoralDistricts": [
          {
            "election": null,
            "id": 66,
            "name": "Nepean"
          }
        ],
        "pollDivisionIds": [
          10126646
        ],
        "postalCode": "K2H6A6",
        "streetName": "GRANGEMILL",
        "streetDirectionId": null,
        "streetTypeId": "AVE",
        "placeName": "NEPEAN",
        "streetNameDisplayText": "GRANGEMILL AVE, NEPEAN"
      }
    ]
  },
  {
    "postal": "K2H0S3",
    "result": []
  },
  {
    "postal": "K2H3E7",
    "result": []
  },
  {
    "postal": "K2H5R7",
    "result": [
      {
        "electoralDistricts": [
          {
            "election": null,
            "id": 81,
            "name": "Ottawa West—Nepean"
          }
        ],
        "pollDivisionIds": [
          10140817
        ],
        "postalCode": "K2H5R7",
        "streetName": "SOLVA",
        "streetDirectionId": null,
        "streetTypeId": "DR",
        "placeName": "NEPEAN",
        "streetNameDisplayText": "SOLVA DR, NEPEAN"
      }
    ]
  },
  {
    "postal": "K2H3R6",
    "result": []
  },
  {
    "postal": "K2H6K4",
    "result": [
      {
        "electoralDistricts": [
          {
            "election": null,
            "id": 66,
            "name": "Nepean"
          }
        ],
        "pollDivisionIds": [
          10126646
        ],
        "postalCode": "K2H6K4",
        "streetName": "FOOTHILLS",
        "streetDirectionId": null,
        "streetTypeId": "DR",
        "placeName": "NEPEAN",
        "streetNameDisplayText": "FOOTHILLS DR, NEPEAN"
      }
    ]
  },
  {
    "postal": "K2H2W5",
    "result": []
  },
  {
    "postal": "K2H8W4",
    "result": [
      {
        "electoralDistricts": [
          {
            "election": null,
            "id": 66,
            "name": "Nepean"
          }
        ],
        "pollDivisionIds": [
          10126644
        ],
        "postalCode": "K2H8W4",
        "streetName": "SEYTON",
        "streetDirectionId": null,
        "streetTypeId": "DR",
        "placeName": "NEPEAN",
        "streetNameDisplayText": "SEYTON DR, NEPEAN"
      }
    ]
  },
  {
    "postal": "K2H9C2",
    "result": [
      {
        "electoralDistricts": [
          {
            "election": null,
            "id": 66,
            "name": "Nepean"
          }
        ],
        "pollDivisionIds": [
          10126644
        ],
        "postalCode": "K2H9C2",
        "streetName": "TYRRELL",
        "streetDirectionId": null,
        "streetTypeId": "PL",
        "placeName": "NEPEAN",
        "streetNameDisplayText": "TYRRELL PL, NEPEAN"
      }
    ]
  },
  {
    "postal": "K2H2C0",
    "result": []
  },
  {
    "postal": "K2H0E1",
    "result": []
  },
  {
    "postal": "K2H1K9",
    "result": []
  },
  {
    "postal": "K2H1G7",
    "result": [
      {
        "electoralDistricts": [
          {
            "election": null,
            "id": 66,
            "name": "Nepean"
          }
        ],
        "pollDivisionIds": [
          10126644
        ],
        "postalCode": "K2H1G7",
        "streetName": "WHARHOL",
        "streetDirectionId": null,
        "streetTypeId": "PVT",
        "placeName": "NEPEAN",
        "streetNameDisplayText": "WHARHOL PVT, NEPEAN"
      }
    ]
  },
  {
    "postal": "K2H4E9",
    "result": []
  },
  {
    "postal": "K2H9P0",
    "result": []
  },
  {
    "postal": "K2H5H3",
    "result": [
      {
        "electoralDistricts": [
          {
            "election": null,
            "id": 81,
            "name": "Ottawa West—Nepean"
          }
        ],
        "pollDivisionIds": [
          10140817
        ],
        "postalCode": "K2H5H3",
        "streetName": "ULLSWATER",
        "streetDirectionId": null,
        "streetTypeId": "DR",
        "placeName": "NEPEAN",
        "streetNameDisplayText": "ULLSWATER DR, NEPEAN"
      }
    ]
  },
  {
    "postal": "K2H9X6",
    "result": []
  },
  {
    "postal": "K2H5N7",
    "result": [
      {
        "electoralDistricts": [
          {
            "election": null,
            "id": 81,
            "name": "Ottawa West—Nepean"
          }
        ],
        "pollDivisionIds": [
          10140818
        ],
        "postalCode": "K2H5N7",
        "streetName": "WEST HERRINGTON",
        "streetDirectionId": null,
        "streetTypeId": "CRT",
        "placeName": "NEPEAN",
        "streetNameDisplayText": "WEST HERRINGTON CRT, NEPEAN"
      }
    ]
  },
  {
    "postal": "K2H5A6",
    "result": [
      {
        "electoralDistricts": [
          {
            "election": null,
            "id": 81,
            "name": "Ottawa West—Nepean"
          }
        ],
        "pollDivisionIds": [
          10140819,
          10140817
        ],
        "postalCode": "K2H5A6",
        "streetName": "CARLING",
        "streetDirectionId": null,
        "streetTypeId": "AVE",
        "placeName": "NEPEAN",
        "streetNameDisplayText": "CARLING AVE, NEPEAN"
      }
    ]
  },
  {
    "postal": "K2H4M0",
    "result": []
  },
  {
    "postal": "K2H3V6",
    "result": []
  },
  {
    "postal": "K2H1L7",
    "result": []
  },
  {
    "postal": "K2H2P9",
    "result": []
  },
  {
    "postal": "K2H5T4",
    "result": [
      {
        "electoralDistricts": [
          {
            "election": null,
            "id": 66,
            "name": "Nepean"
          }
        ],
        "pollDivisionIds": [
          10126649
        ],
        "postalCode": "K2H5T4",
        "streetName": "PARKMOUNT",
        "streetDirectionId": null,
        "streetTypeId": "CRES",
        "placeName": "NEPEAN",
        "streetNameDisplayText": "PARKMOUNT CRES, NEPEAN"
      }
    ]
  },
  {
    "postal": "K2H5Z1",
    "result": [
      {
        "electoralDistricts": [
          {
            "election": null,
            "id": 66,
            "name": "Nepean"
          }
        ],
        "pollDivisionIds": [
          10126644
        ],
        "postalCode": "K2H5Z1",
        "streetName": "ROBERTSON",
        "streetDirectionId": null,
        "streetTypeId": "RD",
        "placeName": "NEPEAN",
        "streetNameDisplayText": "ROBERTSON RD, NEPEAN"
      }
    ]
  },
  {
    "postal": "K2H2X0",
    "result": []
  },
  {
    "postal": "K2H6Z2",
    "result": [
      {
        "electoralDistricts": [
          {
            "election": null,
            "id": 81,
            "name": "Ottawa West—Nepean"
          }
        ],
        "pollDivisionIds": [
          10140825
        ],
        "postalCode": "K2H6Z2",
        "streetName": "ESQUIMAULT",
        "streetDirectionId": null,
        "streetTypeId": "AVE",
        "placeName": "NEPEAN",
        "streetNameDisplayText": "ESQUIMAULT AVE, NEPEAN"
      }
    ]
  },
  {
    "postal": "K2H0E0",
    "result": []
  },
  {
    "postal": "K2H3Z5",
    "result": []
  },
  {
    "postal": "K2H8H3",
    "result": [
      {
        "electoralDistricts": [
          {
            "election": null,
            "id": 81,
            "name": "Ottawa West—Nepean"
          }
        ],
        "pollDivisionIds": [
          10140817
        ],
        "postalCode": "K2H8H3",
        "streetName": "SUNNY BRAE",
        "streetDirectionId": null,
        "streetTypeId": "AVE",
        "placeName": "NEPEAN",
        "streetNameDisplayText": "SUNNY BRAE AVE, NEPEAN"
      }
    ]
  },
  {
    "postal": "K2H7S6",
    "result": [
      {
        "electoralDistricts": [
          {
            "election": null,
            "id": 66,
            "name": "Nepean"
          }
        ],
        "pollDivisionIds": [
          10126646
        ],
        "postalCode": "K2H7S6",
        "streetName": "ASH",
        "streetDirectionId": null,
        "streetTypeId": "ST",
        "placeName": "NEPEAN",
        "streetNameDisplayText": "ASH ST, NEPEAN"
      }
    ]
  },
  {
    "postal": "K2H4C1",
    "result": []
  },
  {
    "postal": "K2H3K2",
    "result": []
  },
  {
    "postal": "K2H1Y5",
    "result": []
  },
  {
    "postal": "K2H6P6",
    "result": [
      {
        "electoralDistricts": [
          {
            "election": null,
            "id": 66,
            "name": "Nepean"
          }
        ],
        "pollDivisionIds": [
          10126645,
          10126648
        ],
        "postalCode": "K2H6P6",
        "streetName": "MOODIE",
        "streetDirectionId": null,
        "streetTypeId": "DR",
        "placeName": "NEPEAN",
        "streetNameDisplayText": "MOODIE DR, NEPEAN"
      }
    ]
  },
  {
    "postal": "K2H3N9",
    "result": []
  },
  {
    "postal": "K2H3W2",
    "result": []
  },
  {
    "postal": "K2H6H8",
    "result": [
      {
        "electoralDistricts": [
          {
            "election": null,
            "id": 66,
            "name": "Nepean"
          }
        ],
        "pollDivisionIds": [
          10126645
        ],
        "postalCode": "K2H6H8",
        "streetName": "TREVOR",
        "streetDirectionId": null,
        "streetTypeId": "CRES",
        "placeName": "NEPEAN",
        "streetNameDisplayText": "TREVOR CRES, NEPEAN"
      }
    ]
  },
  {
    "postal": "K2H9T3",
    "result": []
  },
  {
    "postal": "K2H5L9",
    "result": [
      {
        "electoralDistricts": [
          {
            "election": null,
            "id": 81,
            "name": "Ottawa West—Nepean"
          }
        ],
        "pollDivisionIds": [
          10140817
        ],
        "postalCode": "K2H5L9",
        "streetName": "BEDALE",
        "streetDirectionId": null,
        "streetTypeId": "DR",
        "placeName": "NEPEAN",
        "streetNameDisplayText": "BEDALE DR, NEPEAN"
      }
    ]
  },
  {
    "postal": "K2H7X7",
    "result": [
      {
        "electoralDistricts": [
          {
            "election": null,
            "id": 66,
            "name": "Nepean"
          }
        ],
        "pollDivisionIds": [
          10126644
        ],
        "postalCode": "K2H7X7",
        "streetName": "OBERON",
        "streetDirectionId": null,
        "streetTypeId": "ST",
        "placeName": "NEPEAN",
        "streetNameDisplayText": "OBERON ST, NEPEAN"
      }
    ]
  },
  {
    "postal": "K2H3J5",
    "result": []
  },
  {
    "postal": "K2H4J5",
    "result": []
  },
  {
    "postal": "K2H6J2",
    "result": [
      {
        "electoralDistricts": [
          {
            "election": null,
            "id": 66,
            "name": "Nepean"
          }
        ],
        "pollDivisionIds": [
          10126645
        ],
        "postalCode": "K2H6J2",
        "streetName": "ARBEATHA",
        "streetDirectionId": null,
        "streetTypeId": "ST",
        "placeName": "NEPEAN",
        "streetNameDisplayText": "ARBEATHA ST, NEPEAN"
      }
    ]
  },
  {
    "postal": "K2H5V6",
    "result": [
      {
        "electoralDistricts": [
          {
            "election": null,
            "id": 66,
            "name": "Nepean"
          }
        ],
        "pollDivisionIds": [
          10126651
        ],
        "postalCode": "K2H5V6",
        "streetName": "GREENBANK",
        "streetDirectionId": null,
        "streetTypeId": "RD",
        "placeName": "NEPEAN",
        "streetNameDisplayText": "GREENBANK RD, NEPEAN"
      }
    ]
  },
  {
    "postal": "K2H3N2",
    "result": []
  },
  {
    "postal": "K2H3B1",
    "result": []
  },
  {
    "postal": "K2H8B5",
    "result": []
  },
  {
    "postal": "K2H0K1",
    "result": []
  },
  {
    "postal": "K2H7M7",
    "result": [
      {
        "electoralDistricts": [
          {
            "election": null,
            "id": 81,
            "name": "Ottawa West—Nepean"
          }
        ],
        "pollDivisionIds": [
          10140827
        ],
        "postalCode": "K2H7M7",
        "streetName": "ABINGDON",
        "streetDirectionId": null,
        "streetTypeId": "DR",
        "placeName": "NEPEAN",
        "streetNameDisplayText": "ABINGDON DR, NEPEAN"
      }
    ]
  },
  {
    "postal": "K2H2M2",
    "result": []
  },
  {
    "postal": "K2H9N3",
    "result": [
      {
        "electoralDistricts": [
          {
            "election": null,
            "id": 66,
            "name": "Nepean"
          }
        ],
        "pollDivisionIds": [
          10126644
        ],
        "postalCode": "K2H9N3",
        "streetName": "TERRACE",
        "streetDirectionId": null,
        "streetTypeId": "DR",
        "placeName": "NEPEAN",
        "streetNameDisplayText": "TERRACE DR, NEPEAN"
      }
    ]
  },
  {
    "postal": "K2H4Y8",
    "result": []
  },
  {
    "postal": "K2H3V7",
    "result": []
  },
  {
    "postal": "K2H8Z1",
    "result": [
      {
        "electoralDistricts": [
          {
            "election": null,
            "id": 81,
            "name": "Ottawa West—Nepean"
          }
        ],
        "pollDivisionIds": [
          10140819
        ],
        "postalCode": "K2H8Z1",
        "streetName": "STONEHEDGE",
        "streetDirectionId": null,
        "streetTypeId": "PK",
        "placeName": "NEPEAN",
        "streetNameDisplayText": "STONEHEDGE PK, NEPEAN"
      }
    ]
  },
  {
    "postal": "K2H7B3",
    "result": [
      {
        "electoralDistricts": [
          {
            "election": null,
            "id": 81,
            "name": "Ottawa West—Nepean"
          }
        ],
        "pollDivisionIds": [
          10140825
        ],
        "postalCode": "K2H7B3",
        "streetName": "BASELINE",
        "streetDirectionId": null,
        "streetTypeId": "RD",
        "placeName": "OTTAWA",
        "streetNameDisplayText": "BASELINE RD, OTTAWA"
      }
    ]
  },
  {
    "postal": "K2H3A8",
    "result": []
  },
  {
    "postal": "K2H7V5",
    "result": [
      {
        "electoralDistricts": [
          {
            "election": null,
            "id": 81,
            "name": "Ottawa West—Nepean"
          }
        ],
        "pollDivisionIds": [
          10140817
        ],
        "postalCode": "K2H7V5",
        "streetName": "CARLING",
        "streetDirectionId": null,
        "streetTypeId": "AVE",
        "placeName": "NEPEAN",
        "streetNameDisplayText": "CARLING AVE, NEPEAN"
      }
    ]
  },
  {
    "postal": "K2H2T2",
    "result": []
  },
  {
    "postal": "K2H6L3",
    "result": [
      {
        "electoralDistricts": [
          {
            "election": null,
            "id": 66,
            "name": "Nepean"
          }
        ],
        "pollDivisionIds": [
          10126651
        ],
        "postalCode": "K2H6L3",
        "streetName": "GREENBANK",
        "streetDirectionId": null,
        "streetTypeId": "RD",
        "placeName": "NEPEAN",
        "streetNameDisplayText": "GREENBANK RD, NEPEAN"
      }
    ]
  },
  {
    "postal": "K2H0L2",
    "result": []
  },
  {
    "postal": "K2H5Y8",
    "result": [
      {
        "electoralDistricts": [
          {
            "election": null,
            "id": 66,
            "name": "Nepean"
          }
        ],
        "pollDivisionIds": [
          10126644,
          10126646
        ],
        "postalCode": "K2H5Y8",
        "streetName": "ROBERTSON",
        "streetDirectionId": null,
        "streetTypeId": "RD",
        "placeName": "NEPEAN",
        "streetNameDisplayText": "ROBERTSON RD, NEPEAN"
      }
    ]
  },
  {
    "postal": "K2H0B8",
    "result": []
  },
  {
    "postal": "K2H6R5",
    "result": [
      {
        "electoralDistricts": [
          {
            "election": null,
            "id": 66,
            "name": "Nepean"
          }
        ],
        "pollDivisionIds": [
          10126645
        ],
        "postalCode": "K2H6R5",
        "streetName": "SYCAMORE",
        "streetDirectionId": null,
        "streetTypeId": "DR",
        "placeName": "NEPEAN",
        "streetNameDisplayText": "SYCAMORE DR, NEPEAN"
      }
    ]
  },
  {
    "postal": "K2H8W6",
    "result": [
      {
        "electoralDistricts": [
          {
            "election": null,
            "id": 81,
            "name": "Ottawa West—Nepean"
          },
          {
            "election": null,
            "id": 66,
            "name": "Nepean"
          }
        ],
        "pollDivisionIds": [
          10140819,
          10126644
        ],
        "postalCode": "K2H8W6",
        "streetName": "SONNET",
        "streetDirectionId": null,
        "streetTypeId": "CRES",
        "placeName": "NEPEAN",
        "streetNameDisplayText": "SONNET CRES, NEPEAN"
      }
    ]
  },
  {
    "postal": "K2H8G6",
    "result": [
      {
        "electoralDistricts": [
          {
            "election": null,
            "id": 81,
            "name": "Ottawa West—Nepean"
          }
        ],
        "pollDivisionIds": [
          10140817
        ],
        "postalCode": "K2H8G6",
        "streetName": "LOCH ISLE",
        "streetDirectionId": null,
        "streetTypeId": "RD",
        "placeName": "NEPEAN",
        "streetNameDisplayText": "LOCH ISLE RD, NEPEAN"
      }
    ]
  },
  {
    "postal": "K2H6X3",
    "result": [
      {
        "electoralDistricts": [
          {
            "election": null,
            "id": 81,
            "name": "Ottawa West—Nepean"
          }
        ],
        "pollDivisionIds": [
          10140825
        ],
        "postalCode": "K2H6X3",
        "streetName": "BRIAN",
        "streetDirectionId": null,
        "streetTypeId": "CRES",
        "placeName": "NEPEAN",
        "streetNameDisplayText": "BRIAN CRES, NEPEAN"
      }
    ]
  },
  {
    "postal": "K2H7R7",
    "result": [
      {
        "electoralDistricts": [
          {
            "election": null,
            "id": 66,
            "name": "Nepean"
          }
        ],
        "pollDivisionIds": [
          10126646
        ],
        "postalCode": "K2H7R7",
        "streetName": "EMPIRE",
        "streetDirectionId": null,
        "streetTypeId": "AVE",
        "placeName": "NEPEAN",
        "streetNameDisplayText": "EMPIRE AVE, NEPEAN"
      }
    ]
  },
  {
    "postal": "K2H4B6",
    "result": []
  },
  {
    "postal": "K2H3P9",
    "result": []
  },
  {
    "postal": "K2H2T3",
    "result": []
  },
  {
    "postal": "K2H1M4",
    "result": []
  },
  {
    "postal": "K2H0H1",
    "result": []
  },
  {
    "postal": "K2H9W3",
    "result": []
  },
  {
    "postal": "K2H6P1",
    "result": [
      {
        "electoralDistricts": [
          {
            "election": null,
            "id": 66,
            "name": "Nepean"
          }
        ],
        "pollDivisionIds": [
          10126646
        ],
        "postalCode": "K2H6P1",
        "streetName": "HADLEY",
        "streetDirectionId": null,
        "streetTypeId": "CIR",
        "placeName": "NEPEAN",
        "streetNameDisplayText": "HADLEY CIR, NEPEAN"
      }
    ]
  },
  {
    "postal": "K2H7G2",
    "result": [
      {
        "electoralDistricts": [
          {
            "election": null,
            "id": 81,
            "name": "Ottawa West—Nepean"
          }
        ],
        "pollDivisionIds": [
          10140825
        ],
        "postalCode": "K2H7G2",
        "streetName": "OKANAGAN",
        "streetDirectionId": null,
        "streetTypeId": "DR",
        "placeName": "NEPEAN",
        "streetNameDisplayText": "OKANAGAN DR, NEPEAN"
      }
    ]
  },
  {
    "postal": "K2H4J9",
    "result": []
  },
  {
    "postal": "K2H9E4",
    "result": [
      {
        "electoralDistricts": [
          {
            "election": null,
            "id": 81,
            "name": "Ottawa West—Nepean"
          }
        ],
        "pollDivisionIds": [
          10140825
        ],
        "postalCode": "K2H9E4",
        "streetName": "SHADOW",
        "streetDirectionId": null,
        "streetTypeId": "CRT",
        "placeName": "NEPEAN",
        "streetNameDisplayText": "SHADOW CRT, NEPEAN"
      }
    ]
  },
  {
    "postal": "K2H8H0",
    "result": []
  },
  {
    "postal": "K2H4M7",
    "result": []
  },
  {
    "postal": "K2H2G9",
    "result": []
  },
  {
    "postal": "K2H8T2",
    "result": [
      {
        "electoralDistricts": [
          {
            "election": null,
            "id": 66,
            "name": "Nepean"
          }
        ],
        "pollDivisionIds": [
          10126649
        ],
        "postalCode": "K2H8T2",
        "streetName": "CRAMER",
        "streetDirectionId": null,
        "streetTypeId": "DR",
        "placeName": "NEPEAN",
        "streetNameDisplayText": "CRAMER DR, NEPEAN"
      }
    ]
  },
  {
    "postal": "K2H7G7",
    "result": [
      {
        "electoralDistricts": [
          {
            "election": null,
            "id": 81,
            "name": "Ottawa West—Nepean"
          }
        ],
        "pollDivisionIds": [
          10140825
        ],
        "postalCode": "K2H7G7",
        "streetName": "MOHAWK",
        "streetDirectionId": null,
        "streetTypeId": "CRES",
        "placeName": "NEPEAN",
        "streetNameDisplayText": "MOHAWK CRES, NEPEAN"
      }
    ]
  },
  {
    "postal": "K2H4Z3",
    "result": []
  },
  {
    "postal": "K2H5B3",
    "result": [
      {
        "electoralDistricts": [
          {
            "election": null,
            "id": 81,
            "name": "Ottawa West—Nepean"
          }
        ],
        "pollDivisionIds": [
          10140818
        ],
        "postalCode": "K2H5B3",
        "streetName": "CORKSTOWN",
        "streetDirectionId": null,
        "streetTypeId": "RD",
        "placeName": "NEPEAN",
        "streetNameDisplayText": "CORKSTOWN RD, NEPEAN"
      }
    ]
  },
  {
    "postal": "K2H1S7",
    "result": []
  },
  {
    "postal": "K2H2N7",
    "result": []
  },
  {
    "postal": "K2H0H8",
    "result": []
  },
  {
    "postal": "K2H7Z4",
    "result": [
      {
        "electoralDistricts": [
          {
            "election": null,
            "id": 66,
            "name": "Nepean"
          }
        ],
        "pollDivisionIds": [
          10126649
        ],
        "postalCode": "K2H7Z4",
        "streetName": "BOXWOOD",
        "streetDirectionId": null,
        "streetTypeId": "CRT",
        "placeName": "NEPEAN",
        "streetNameDisplayText": "BOXWOOD CRT, NEPEAN"
      }
    ]
  },
  {
    "postal": "K2H7B1",
    "result": [
      {
        "electoralDistricts": [
          {
            "election": null,
            "id": 81,
            "name": "Ottawa West—Nepean"
          }
        ],
        "pollDivisionIds": [
          10140827
        ],
        "postalCode": "K2H7B1",
        "streetName": "MONTEREY",
        "streetDirectionId": null,
        "streetTypeId": "DR",
        "placeName": "NEPEAN",
        "streetNameDisplayText": "MONTEREY DR, NEPEAN"
      }
    ]
  },
  {
    "postal": "K2H7P8",
    "result": [
      {
        "electoralDistricts": [
          {
            "election": null,
            "id": 66,
            "name": "Nepean"
          }
        ],
        "pollDivisionIds": [
          10126646
        ],
        "postalCode": "K2H7P8",
        "streetName": "TRACY",
        "streetDirectionId": null,
        "streetTypeId": "AVE",
        "placeName": "NEPEAN",
        "streetNameDisplayText": "TRACY AVE, NEPEAN"
      }
    ]
  },
  {
    "postal": "K2H7N0",
    "result": []
  },
  {
    "postal": "K2H3Y5",
    "result": []
  },
  {
    "postal": "K2H6K1",
    "result": [
      {
        "electoralDistricts": [
          {
            "election": null,
            "id": 66,
            "name": "Nepean"
          }
        ],
        "pollDivisionIds": [
          10126646
        ],
        "postalCode": "K2H6K1",
        "streetName": "CASSIDY",
        "streetDirectionId": null,
        "streetTypeId": "RD",
        "placeName": "NEPEAN",
        "streetNameDisplayText": "CASSIDY RD, NEPEAN"
      }
    ]
  },
  {
    "postal": "K2H9X5",
    "result": []
  },
  {
    "postal": "K2H7S5",
    "result": [
      {
        "electoralDistricts": [
          {
            "election": null,
            "id": 66,
            "name": "Nepean"
          }
        ],
        "pollDivisionIds": [
          10126646
        ],
        "postalCode": "K2H7S5",
        "streetName": "ASH",
        "streetDirectionId": null,
        "streetTypeId": "ST",
        "placeName": "NEPEAN",
        "streetNameDisplayText": "ASH ST, NEPEAN"
      }
    ]
  },
  {
    "postal": "K2H0A4",
    "result": [
      {
        "electoralDistricts": [
          {
            "election": null,
            "id": 81,
            "name": "Ottawa West—Nepean"
          }
        ],
        "pollDivisionIds": [
          10140817
        ],
        "postalCode": "K2H0A4",
        "streetName": "JAY",
        "streetDirectionId": null,
        "streetTypeId": "ST",
        "placeName": "NEPEAN",
        "streetNameDisplayText": "JAY ST, NEPEAN"
      }
    ]
  },
  {
    "postal": "K2H4T5",
    "result": []
  },
  {
    "postal": "K2H5K1",
    "result": [
      {
        "electoralDistricts": [
          {
            "election": null,
            "id": 81,
            "name": "Ottawa West—Nepean"
          }
        ],
        "pollDivisionIds": [
          10140817
        ],
        "postalCode": "K2H5K1",
        "streetName": "STILLWATER",
        "streetDirectionId": null,
        "streetTypeId": "DR",
        "placeName": "NEPEAN",
        "streetNameDisplayText": "STILLWATER DR, NEPEAN"
      }
    ]
  },
  {
    "postal": "K2H0Z9",
    "result": []
  },
  {
    "postal": "K2H7T2",
    "result": [
      {
        "electoralDistricts": [
          {
            "election": null,
            "id": 66,
            "name": "Nepean"
          }
        ],
        "pollDivisionIds": [
          10126646
        ],
        "postalCode": "K2H7T2",
        "streetName": "WEBB",
        "streetDirectionId": null,
        "streetTypeId": "ST",
        "placeName": "NEPEAN",
        "streetNameDisplayText": "WEBB ST, NEPEAN"
      }
    ]
  },
  {
    "postal": "K2H1L5",
    "result": []
  },
  {
    "postal": "K2H3N5",
    "result": []
  },
  {
    "postal": "K2H6H4",
    "result": [
      {
        "electoralDistricts": [
          {
            "election": null,
            "id": 66,
            "name": "Nepean"
          }
        ],
        "pollDivisionIds": [
          10126646
        ],
        "postalCode": "K2H6H4",
        "streetName": "TRINITY",
        "streetDirectionId": null,
        "streetTypeId": "DR",
        "placeName": "NEPEAN",
        "streetNameDisplayText": "TRINITY DR, NEPEAN"
      }
    ]
  },
  {
    "postal": "K2H5A5",
    "result": [
      {
        "electoralDistricts": [
          {
            "election": null,
            "id": 81,
            "name": "Ottawa West—Nepean"
          }
        ],
        "pollDivisionIds": [
          10140820
        ],
        "postalCode": "K2H5A5",
        "streetName": "CARLING",
        "streetDirectionId": null,
        "streetTypeId": "AVE",
        "placeName": "NEPEAN",
        "streetNameDisplayText": "CARLING AVE, NEPEAN"
      }
    ]
  },
  {
    "postal": "K2H3R9",
    "result": []
  },
  {
    "postal": "K2H7L8",
    "result": [
      {
        "electoralDistricts": [
          {
            "election": null,
            "id": 81,
            "name": "Ottawa West—Nepean"
          }
        ],
        "pollDivisionIds": [
          10140825
        ],
        "postalCode": "K2H7L8",
        "streetName": "MORRISON",
        "streetDirectionId": null,
        "streetTypeId": "DR",
        "placeName": "OTTAWA",
        "streetNameDisplayText": "MORRISON DR, OTTAWA"
      }
    ]
  },
  {
    "postal": "K2H6T6",
    "result": [
      {
        "electoralDistricts": [
          {
            "election": null,
            "id": 66,
            "name": "Nepean"
          }
        ],
        "pollDivisionIds": [
          10126645
        ],
        "postalCode": "K2H6T6",
        "streetName": "LAURENTIDE",
        "streetDirectionId": null,
        "streetTypeId": "RD",
        "placeName": "NEPEAN",
        "streetNameDisplayText": "LAURENTIDE RD, NEPEAN"
      }
    ]
  },
  {
    "postal": "K2H7Y7",
    "result": [
      {
        "electoralDistricts": [
          {
            "election": null,
            "id": 66,
            "name": "Nepean"
          }
        ],
        "pollDivisionIds": [
          10126649
        ],
        "postalCode": "K2H7Y7",
        "streetName": "SMUGGLERS",
        "streetDirectionId": null,
        "streetTypeId": "CRT",
        "placeName": "NEPEAN",
        "streetNameDisplayText": "SMUGGLERS CRT, NEPEAN"
      }
    ]
  },
  {
    "postal": "K2H3M8",
    "result": []
  },
  {
    "postal": "K2H2E0",
    "result": []
  },
  {
    "postal": "K2H4B5",
    "result": []
  },
  {
    "postal": "K2H1J3",
    "result": []
  },
  {
    "postal": "K2H5S6",
    "result": [
      {
        "electoralDistricts": [
          {
            "election": null,
            "id": 66,
            "name": "Nepean"
          }
        ],
        "pollDivisionIds": [
          10126649
        ],
        "postalCode": "K2H5S6",
        "streetName": "HOBART",
        "streetDirectionId": null,
        "streetTypeId": "CRES",
        "placeName": "NEPEAN",
        "streetNameDisplayText": "HOBART CRES, NEPEAN"
      }
    ]
  },
  {
    "postal": "K2H8P7",
    "result": []
  },
  {
    "postal": "K2H7S7",
    "result": [
      {
        "electoralDistricts": [
          {
            "election": null,
            "id": 66,
            "name": "Nepean"
          }
        ],
        "pollDivisionIds": [
          10126646
        ],
        "postalCode": "K2H7S7",
        "streetName": "BONNER",
        "streetDirectionId": null,
        "streetTypeId": "ST",
        "placeName": "NEPEAN",
        "streetNameDisplayText": "BONNER ST, NEPEAN"
      }
    ]
  },
  {
    "postal": "K2H4C2",
    "result": []
  },
  {
    "postal": "K2H5Y0",
    "result": []
  },
  {
    "postal": "K2H2V7",
    "result": []
  },
  {
    "postal": "K2H8P5",
    "result": []
  },
  {
    "postal": "K2H5P5",
    "result": [
      {
        "electoralDistricts": [
          {
            "election": null,
            "id": 81,
            "name": "Ottawa West—Nepean"
          }
        ],
        "pollDivisionIds": [
          10140818
        ],
        "postalCode": "K2H5P5",
        "streetName": "CLEADON",
        "streetDirectionId": null,
        "streetTypeId": "DR",
        "placeName": "NEPEAN",
        "streetNameDisplayText": "CLEADON DR, NEPEAN"
      }
    ]
  },
  {
    "postal": "K2H5Z0",
    "result": []
  },
  {
    "postal": "K2H9B0",
    "result": []
  },
  {
    "postal": "K2H1L0",
    "result": []
  },
  {
    "postal": "K2H0B5",
    "result": [
      {
        "electoralDistricts": [
          {
            "election": null,
            "id": 81,
            "name": "Ottawa West—Nepean"
          }
        ],
        "pollDivisionIds": [
          10140825
        ],
        "postalCode": "K2H0B5",
        "streetName": "ESQUIMAULT",
        "streetDirectionId": null,
        "streetTypeId": "AVE",
        "placeName": "NEPEAN",
        "streetNameDisplayText": "ESQUIMAULT AVE, NEPEAN"
      },
      {
        "electoralDistricts": [
          {
            "election": null,
            "id": 81,
            "name": "Ottawa West—Nepean"
          }
        ],
        "pollDivisionIds": [
          10140825
        ],
        "postalCode": "K2H0B5",
        "streetName": "KITSILANO",
        "streetDirectionId": null,
        "streetTypeId": "CRT",
        "placeName": "NEPEAN",
        "streetNameDisplayText": "KITSILANO CRT, NEPEAN"
      }
    ]
  },
  {
    "postal": "K2H3L2",
    "result": []
  },
  {
    "postal": "K2H3B7",
    "result": []
  },
  {
    "postal": "K2H8L1",
    "result": [
      {
        "electoralDistricts": [
          {
            "election": null,
            "id": 66,
            "name": "Nepean"
          }
        ],
        "pollDivisionIds": [
          10126649
        ],
        "postalCode": "K2H8L1",
        "streetName": "BANNER",
        "streetDirectionId": null,
        "streetTypeId": "RD",
        "placeName": "NEPEAN",
        "streetNameDisplayText": "BANNER RD, NEPEAN"
      }
    ]
  },
  {
    "postal": "K2H5M4",
    "result": [
      {
        "electoralDistricts": [
          {
            "election": null,
            "id": 81,
            "name": "Ottawa West—Nepean"
          }
        ],
        "pollDivisionIds": [
          10140817
        ],
        "postalCode": "K2H5M4",
        "streetName": "CRYSTAL BEACH",
        "streetDirectionId": null,
        "streetTypeId": "DR",
        "placeName": "NEPEAN",
        "streetNameDisplayText": "CRYSTAL BEACH DR, NEPEAN"
      }
    ]
  },
  {
    "postal": "K2H4G9",
    "result": []
  },
  {
    "postal": "K2H0P0",
    "result": []
  },
  {
    "postal": "K2H8G2",
    "result": []
  },
  {
    "postal": "K2H1V9",
    "result": []
  },
  {
    "postal": "K2H8N8",
    "result": [
      {
        "electoralDistricts": [
          {
            "election": null,
            "id": 66,
            "name": "Nepean"
          }
        ],
        "pollDivisionIds": [
          10126649
        ],
        "postalCode": "K2H8N8",
        "streetName": "MCCLELLAN",
        "streetDirectionId": null,
        "streetTypeId": "RD",
        "placeName": "NEPEAN",
        "streetNameDisplayText": "MCCLELLAN RD, NEPEAN"
      }
    ]
  },
  {
    "postal": "K2H6S8",
    "result": [
      {
        "electoralDistricts": [
          {
            "election": null,
            "id": 66,
            "name": "Nepean"
          }
        ],
        "pollDivisionIds": [
          10126645
        ],
        "postalCode": "K2H6S8",
        "streetName": "RIDGEFIELD",
        "streetDirectionId": null,
        "streetTypeId": "CRES",
        "placeName": "NEPEAN",
        "streetNameDisplayText": "RIDGEFIELD CRES, NEPEAN"
      }
    ]
  },
  {
    "postal": "K2H8H2",
    "result": [
      {
        "electoralDistricts": [
          {
            "election": null,
            "id": 81,
            "name": "Ottawa West—Nepean"
          }
        ],
        "pollDivisionIds": [
          10140817
        ],
        "postalCode": "K2H8H2",
        "streetName": "ROCKY POINT",
        "streetDirectionId": null,
        "streetTypeId": "RD",
        "placeName": "NEPEAN",
        "streetNameDisplayText": "ROCKY POINT RD, NEPEAN"
      }
    ]
  },
  {
    "postal": "K2H5R8",
    "result": [
      {
        "electoralDistricts": [
          {
            "election": null,
            "id": 81,
            "name": "Ottawa West—Nepean"
          }
        ],
        "pollDivisionIds": [
          10140817
        ],
        "postalCode": "K2H5R8",
        "streetName": "GAYNOR",
        "streetDirectionId": null,
        "streetTypeId": "PL",
        "placeName": "NEPEAN",
        "streetNameDisplayText": "GAYNOR PL, NEPEAN"
      }
    ]
  },
  {
    "postal": "K2H5L4",
    "result": [
      {
        "electoralDistricts": [
          {
            "election": null,
            "id": 81,
            "name": "Ottawa West—Nepean"
          }
        ],
        "pollDivisionIds": [
          10140817
        ],
        "postalCode": "K2H5L4",
        "streetName": "MARSDEN",
        "streetDirectionId": null,
        "streetTypeId": "PL",
        "placeName": "NEPEAN",
        "streetNameDisplayText": "MARSDEN PL, NEPEAN"
      }
    ]
  },
  {
    "postal": "K2H9E1",
    "result": [
      {
        "electoralDistricts": [
          {
            "election": null,
            "id": 81,
            "name": "Ottawa West—Nepean"
          }
        ],
        "pollDivisionIds": [
          10140825
        ],
        "postalCode": "K2H9E1",
        "streetName": "VALLEY STREAM",
        "streetDirectionId": null,
        "streetTypeId": "DR",
        "placeName": "NEPEAN",
        "streetNameDisplayText": "VALLEY STREAM DR, NEPEAN"
      }
    ]
  },
  {
    "postal": "K2H1C4",
    "result": [
      {
        "electoralDistricts": [
          {
            "election": null,
            "id": 81,
            "name": "Ottawa West—Nepean"
          }
        ],
        "pollDivisionIds": [
          10140825
        ],
        "postalCode": "K2H1C4",
        "streetName": "MORRISON",
        "streetDirectionId": null,
        "streetTypeId": "DR",
        "placeName": "OTTAWA",
        "streetNameDisplayText": "MORRISON DR, OTTAWA"
      }
    ]
  },
  {
    "postal": "K2H8W5",
    "result": [
      {
        "electoralDistricts": [
          {
            "election": null,
            "id": 66,
            "name": "Nepean"
          }
        ],
        "pollDivisionIds": [
          10126644
        ],
        "postalCode": "K2H8W5",
        "streetName": "SEYTON",
        "streetDirectionId": null,
        "streetTypeId": "DR",
        "placeName": "NEPEAN",
        "streetNameDisplayText": "SEYTON DR, NEPEAN"
      }
    ]
  },
  {
    "postal": "K2H1Y4",
    "result": []
  },
  {
    "postal": "K2H1C0",
    "result": []
  },
  {
    "postal": "K2H2J2",
    "result": []
  },
  {
    "postal": "K2H2J0",
    "result": []
  },
  {
    "postal": "K2H7A3",
    "result": [
      {
        "electoralDistricts": [
          {
            "election": null,
            "id": 81,
            "name": "Ottawa West—Nepean"
          }
        ],
        "pollDivisionIds": [
          10140825
        ],
        "postalCode": "K2H7A3",
        "streetName": "DRAPER",
        "streetDirectionId": null,
        "streetTypeId": "AVE",
        "placeName": "OTTAWA",
        "streetNameDisplayText": "DRAPER AVE, OTTAWA"
      },
      {
        "electoralDistricts": [
          {
            "election": null,
            "id": 81,
            "name": "Ottawa West—Nepean"
          }
        ],
        "pollDivisionIds": [
          10140825
        ],
        "postalCode": "K2H7A3",
        "streetName": "DRAPER",
        "streetDirectionId": null,
        "streetTypeId": "PL",
        "placeName": "NEPEAN",
        "streetNameDisplayText": "DRAPER PL, NEPEAN"
      }
    ]
  },
  {
    "postal": "K2H8M1",
    "result": [
      {
        "electoralDistricts": [
          {
            "election": null,
            "id": 66,
            "name": "Nepean"
          }
        ],
        "pollDivisionIds": [
          10126649
        ],
        "postalCode": "K2H8M1",
        "streetName": "SHEAHAN",
        "streetDirectionId": null,
        "streetTypeId": "CRES",
        "placeName": "NEPEAN",
        "streetNameDisplayText": "SHEAHAN CRES, NEPEAN"
      }
    ]
  },
  {
    "postal": "K2H7T9",
    "result": []
  },
  {
    "postal": "K2H6C0",
    "result": []
  },
  {
    "postal": "K2H7X1",
    "result": [
      {
        "electoralDistricts": [
          {
            "election": null,
            "id": 66,
            "name": "Nepean"
          }
        ],
        "pollDivisionIds": [
          10126649
        ],
        "postalCode": "K2H7X1",
        "streetName": "CAMWOOD",
        "streetDirectionId": null,
        "streetTypeId": "CRES",
        "placeName": "NEPEAN",
        "streetNameDisplayText": "CAMWOOD CRES, NEPEAN"
      }
    ]
  },
  {
    "postal": "K2H0G1",
    "result": []
  },
  {
    "postal": "K2H4X2",
    "result": []
  },
  {
    "postal": "K2H0N6",
    "result": []
  },
  {
    "postal": "K2H8E3",
    "result": [
      {
        "electoralDistricts": [
          {
            "election": null,
            "id": 81,
            "name": "Ottawa West—Nepean"
          }
        ],
        "pollDivisionIds": [
          10140817
        ],
        "postalCode": "K2H8E3",
        "streetName": "JAMES CUMMINGS",
        "streetDirectionId": null,
        "streetTypeId": "AVE",
        "placeName": "NEPEAN",
        "streetNameDisplayText": "JAMES CUMMINGS AVE, NEPEAN"
      }
    ]
  },
  {
    "postal": "K2H5S8",
    "result": [
      {
        "electoralDistricts": [
          {
            "election": null,
            "id": 66,
            "name": "Nepean"
          }
        ],
        "pollDivisionIds": [
          10126649
        ],
        "postalCode": "K2H5S8",
        "streetName": "CANFIELD",
        "streetDirectionId": null,
        "streetTypeId": "RD",
        "placeName": "NEPEAN",
        "streetNameDisplayText": "CANFIELD RD, NEPEAN"
      }
    ]
  },
  {
    "postal": "K2H0R0",
    "result": []
  },
  {
    "postal": "K2H6J6",
    "result": [
      {
        "electoralDistricts": [
          {
            "election": null,
            "id": 66,
            "name": "Nepean"
          }
        ],
        "pollDivisionIds": [
          10126645
        ],
        "postalCode": "K2H6J6",
        "streetName": "ANWATIN",
        "streetDirectionId": null,
        "streetTypeId": "ST",
        "placeName": "NEPEAN",
        "streetNameDisplayText": "ANWATIN ST, NEPEAN"
      }
    ]
  },
  {
    "postal": "K2H4B4",
    "result": []
  },
  {
    "postal": "K2H7E3",
    "result": [
      {
        "electoralDistricts": [
          {
            "election": null,
            "id": 81,
            "name": "Ottawa West—Nepean"
          }
        ],
        "pollDivisionIds": [
          10140825
        ],
        "postalCode": "K2H7E3",
        "streetName": "SIOUX",
        "streetDirectionId": null,
        "streetTypeId": "CRES",
        "placeName": "NEPEAN",
        "streetNameDisplayText": "SIOUX CRES, NEPEAN"
      }
    ]
  },
  {
    "postal": "K2H3N6",
    "result": []
  },
  {
    "postal": "K2H3X6",
    "result": []
  },
  {
    "postal": "K2H8L0",
    "result": []
  },
  {
    "postal": "K2H8N1",
    "result": [
      {
        "electoralDistricts": [
          {
            "election": null,
            "id": 66,
            "name": "Nepean"
          }
        ],
        "pollDivisionIds": [
          10126649
        ],
        "postalCode": "K2H8N1",
        "streetName": "MIDLAND",
        "streetDirectionId": null,
        "streetTypeId": "CRES",
        "placeName": "NEPEAN",
        "streetNameDisplayText": "MIDLAND CRES, NEPEAN"
      }
    ]
  },
  {
    "postal": "K2H4J0",
    "result": []
  },
  {
    "postal": "K2H0X7",
    "result": []
  },
  {
    "postal": "K2H6S4",
    "result": [
      {
        "electoralDistricts": [
          {
            "election": null,
            "id": 66,
            "name": "Nepean"
          }
        ],
        "pollDivisionIds": [
          10126646
        ],
        "postalCode": "K2H6S4",
        "streetName": "RIDGEFIELD",
        "streetDirectionId": null,
        "streetTypeId": "CRES",
        "placeName": "NEPEAN",
        "streetNameDisplayText": "RIDGEFIELD CRES, NEPEAN"
      }
    ]
  },
  {
    "postal": "K2H0Z0",
    "result": []
  },
  {
    "postal": "K2H9X8",
    "result": []
  },
  {
    "postal": "K2H3H3",
    "result": []
  },
  {
    "postal": "K2H7S2",
    "result": [
      {
        "electoralDistricts": [
          {
            "election": null,
            "id": 66,
            "name": "Nepean"
          }
        ],
        "pollDivisionIds": [
          10126646
        ],
        "postalCode": "K2H7S2",
        "streetName": "EASTGATE",
        "streetDirectionId": null,
        "streetTypeId": "AVE",
        "placeName": "NEPEAN",
        "streetNameDisplayText": "EASTGATE AVE, NEPEAN"
      }
    ]
  },
  {
    "postal": "K2H3T3",
    "result": []
  },
  {
    "postal": "K2H9P3",
    "result": [
      {
        "electoralDistricts": [
          {
            "election": null,
            "id": 81,
            "name": "Ottawa West—Nepean"
          }
        ],
        "pollDivisionIds": [
          10140825
        ],
        "postalCode": "K2H9P3",
        "streetName": "BIRMINGHAM",
        "streetDirectionId": null,
        "streetTypeId": "PVT",
        "placeName": "OTTAWA",
        "streetNameDisplayText": "BIRMINGHAM PVT, OTTAWA"
      },
      {
        "electoralDistricts": [
          {
            "election": null,
            "id": 81,
            "name": "Ottawa West—Nepean"
          }
        ],
        "pollDivisionIds": [
          10140825
        ],
        "postalCode": "K2H9P3",
        "streetName": "SAXTON",
        "streetDirectionId": null,
        "streetTypeId": "PVT",
        "placeName": "OTTAWA",
        "streetNameDisplayText": "SAXTON PVT, OTTAWA"
      }
    ]
  },
  {
    "postal": "K2H4H8",
    "result": []
  },
  {
    "postal": "K2H6R1",
    "result": [
      {
        "electoralDistricts": [
          {
            "election": null,
            "id": 66,
            "name": "Nepean"
          }
        ],
        "pollDivisionIds": [
          10126646
        ],
        "postalCode": "K2H6R1",
        "streetName": "HARWICK",
        "streetDirectionId": null,
        "streetTypeId": "CRES",
        "placeName": "NEPEAN",
        "streetNameDisplayText": "HARWICK CRES, NEPEAN"
      }
    ]
  },
  {
    "postal": "K2H1S0",
    "result": []
  },
  {
    "postal": "K2H3W8",
    "result": []
  },
  {
    "postal": "K2H4S3",
    "result": []
  },
  {
    "postal": "K2H1B6",
    "result": [
      {
        "electoralDistricts": [
          {
            "election": null,
            "id": 81,
            "name": "Ottawa West—Nepean"
          }
        ],
        "pollDivisionIds": [
          10140869
        ],
        "postalCode": "K2H1B6",
        "streetName": "CORKSTOWN",
        "streetDirectionId": null,
        "streetTypeId": "RD",
        "placeName": "NEPEAN",
        "streetNameDisplayText": "CORKSTOWN RD, NEPEAN"
      }
    ]
  },
  {
    "postal": "K2H8R3",
    "result": [
      {
        "electoralDistricts": [
          {
            "election": null,
            "id": 81,
            "name": "Ottawa West—Nepean"
          }
        ],
        "pollDivisionIds": [
          10140832
        ],
        "postalCode": "K2H8R3",
        "streetName": "GREENBANK",
        "streetDirectionId": null,
        "streetTypeId": "RD",
        "placeName": "NEPEAN",
        "streetNameDisplayText": "GREENBANK RD, NEPEAN"
      }
    ]
  },
  {
    "postal": "K2H4V9",
    "result": []
  },
  {
    "postal": "K2H9W4",
    "result": []
  },
  {
    "postal": "K2H3T4",
    "result": []
  },
  {
    "postal": "K2H5C7",
    "result": []
  },
  {
    "postal": "K2H3Y1",
    "result": []
  },
  {
    "postal": "K2H5V0",
    "result": []
  },
  {
    "postal": "K2H8G8",
    "result": [
      {
        "electoralDistricts": [
          {
            "election": null,
            "id": 81,
            "name": "Ottawa West—Nepean"
          }
        ],
        "pollDivisionIds": [
          10140817
        ],
        "postalCode": "K2H8G8",
        "streetName": "LOCH ISLE",
        "streetDirectionId": null,
        "streetTypeId": "RD",
        "placeName": "NEPEAN",
        "streetNameDisplayText": "LOCH ISLE RD, NEPEAN"
      }
    ]
  },
  {
    "postal": "K2H8B1",
    "result": [
      {
        "electoralDistricts": [
          {
            "election": null,
            "id": 81,
            "name": "Ottawa West—Nepean"
          }
        ],
        "pollDivisionIds": [
          10140817
        ],
        "postalCode": "K2H8B1",
        "streetName": "GRANDVIEW",
        "streetDirectionId": null,
        "streetTypeId": "RD",
        "placeName": "NEPEAN",
        "streetNameDisplayText": "GRANDVIEW RD, NEPEAN"
      }
    ]
  },
  {
    "postal": "K2H4P5",
    "result": []
  },
  {
    "postal": "K2H7B2",
    "result": [
      {
        "electoralDistricts": [
          {
            "election": null,
            "id": 81,
            "name": "Ottawa West—Nepean"
          }
        ],
        "pollDivisionIds": [
          10140827
        ],
        "postalCode": "K2H7B2",
        "streetName": "MONTEREY",
        "streetDirectionId": null,
        "streetTypeId": "DR",
        "placeName": "NEPEAN",
        "streetNameDisplayText": "MONTEREY DR, NEPEAN"
      }
    ]
  },
  {
    "postal": "K2H0R2",
    "result": []
  },
  {
    "postal": "K2H4M4",
    "result": []
  },
  {
    "postal": "K2H7M4",
    "result": [
      {
        "electoralDistricts": [
          {
            "election": null,
            "id": 81,
            "name": "Ottawa West—Nepean"
          }
        ],
        "pollDivisionIds": [
          10140827
        ],
        "postalCode": "K2H7M4",
        "streetName": "ABINGDON",
        "streetDirectionId": null,
        "streetTypeId": "DR",
        "placeName": "NEPEAN",
        "streetNameDisplayText": "ABINGDON DR, NEPEAN"
      }
    ]
  },
  {
    "postal": "K2H9S7",
    "result": []
  },
  {
    "postal": "K2H5Z7",
    "result": [
      {
        "electoralDistricts": [
          {
            "election": null,
            "id": 66,
            "name": "Nepean"
          }
        ],
        "pollDivisionIds": [
          10126646
        ],
        "postalCode": "K2H5Z7",
        "streetName": "DANTE",
        "streetDirectionId": null,
        "streetTypeId": "AVE",
        "placeName": "NEPEAN",
        "streetNameDisplayText": "DANTE AVE, NEPEAN"
      }
    ]
  },
  {
    "postal": "K2H7J7",
    "result": [
      {
        "electoralDistricts": [
          {
            "election": null,
            "id": 81,
            "name": "Ottawa West—Nepean"
          }
        ],
        "pollDivisionIds": [
          10140825
        ],
        "postalCode": "K2H7J7",
        "streetName": "BEAUMARIS",
        "streetDirectionId": null,
        "streetTypeId": "DR",
        "placeName": "NEPEAN",
        "streetNameDisplayText": "BEAUMARIS DR, NEPEAN"
      }
    ]
  },
  {
    "postal": "K2H8R8",
    "result": [
      {
        "electoralDistricts": [
          {
            "election": null,
            "id": 81,
            "name": "Ottawa West—Nepean"
          }
        ],
        "pollDivisionIds": [
          10140817
        ],
        "postalCode": "K2H8R8",
        "streetName": "ERSKINE",
        "streetDirectionId": null,
        "streetTypeId": "PL",
        "placeName": "NEPEAN",
        "streetNameDisplayText": "ERSKINE PL, NEPEAN"
      }
    ]
  },
  {
    "postal": "K2H9X1",
    "result": []
  },
  {
    "postal": "K2H5M9",
    "result": [
      {
        "electoralDistricts": [
          {
            "election": null,
            "id": 81,
            "name": "Ottawa West—Nepean"
          }
        ],
        "pollDivisionIds": [
          10140818
        ],
        "postalCode": "K2H5M9",
        "streetName": "CRYSTAL BEACH",
        "streetDirectionId": null,
        "streetTypeId": "DR",
        "placeName": "NEPEAN",
        "streetNameDisplayText": "CRYSTAL BEACH DR, NEPEAN"
      }
    ]
  },
  {
    "postal": "K2H9B4",
    "result": [
      {
        "electoralDistricts": [
          {
            "election": null,
            "id": 66,
            "name": "Nepean"
          }
        ],
        "pollDivisionIds": [
          10126644
        ],
        "postalCode": "K2H9B4",
        "streetName": "SEYTON",
        "streetDirectionId": null,
        "streetTypeId": "DR",
        "placeName": "NEPEAN",
        "streetNameDisplayText": "SEYTON DR, NEPEAN"
      }
    ]
  },
  {
    "postal": "K2H0L9",
    "result": []
  },
  {
    "postal": "K2H9G4",
    "result": []
  },
  {
    "postal": "K2H1J4",
    "result": []
  },
  {
    "postal": "K2H0W6",
    "result": []
  }
]
