[
  {
    "postal": "P9A9J6",
    "result": []
  },
  {
    "postal": "P9A9Z5",
    "result": []
  },
  {
    "postal": "P9A7H8",
    "result": []
  },
  {
    "postal": "P9A0P6",
    "result": []
  },
  {
    "postal": "P9A0S7",
    "result": []
  },
  {
    "postal": "P9A8B9",
    "result": []
  },
  {
    "postal": "P9A2A6",
    "result": [
      {
        "electoralDistricts": [
          {
            "election": null,
            "id": 44,
            "name": "Kenora—Rainy River"
          }
        ],
        "pollDivisionIds": [
          10139064
        ],
        "postalCode": "P9A2A6",
        "streetName": "PORTAGE",
        "streetDirectionId": null,
        "streetTypeId": "AVE",
        "placeName": "FORT FRANCES",
        "streetNameDisplayText": "PORTAGE AVE, FORT FRANCES"
      }
    ]
  },
  {
    "postal": "P9A7V2",
    "result": []
  },
  {
    "postal": "P9A9P4",
    "result": []
  },
  {
    "postal": "P9A6G0",
    "result": []
  },
  {
    "postal": "P9A2K0",
    "result": []
  },
  {
    "postal": "P9A7N6",
    "result": []
  },
  {
    "postal": "P9A5R3",
    "result": []
  },
  {
    "postal": "P9A7K0",
    "result": []
  },
  {
    "postal": "P9A3R2",
    "result": [
      {
        "electoralDistricts": [
          {
            "election": null,
            "id": 44,
            "name": "Kenora—Rainy River"
          }
        ],
        "pollDivisionIds": [
          10139058
        ],
        "postalCode": "P9A3R2",
        "streetName": "ARMSTRONG",
        "streetDirectionId": null,
        "streetTypeId": "PL",
        "placeName": "FORT FRANCES",
        "streetNameDisplayText": "ARMSTRONG PL, FORT FRANCES"
      }
    ]
  },
  {
    "postal": "P9A0J1",
    "result": []
  },
  {
    "postal": "P9A0B0",
    "result": []
  },
  {
    "postal": "P9A5Z2",
    "result": []
  },
  {
    "postal": "P9A7P3",
    "result": []
  },
  {
    "postal": "P9A2K3",
    "result": [
      {
        "electoralDistricts": [
          {
            "election": null,
            "id": 44,
            "name": "Kenora—Rainy River"
          }
        ],
        "pollDivisionIds": [
          10139064
        ],
        "postalCode": "P9A2K3",
        "streetName": "SMITH",
        "streetDirectionId": null,
        "streetTypeId": "AVE",
        "placeName": "FORT FRANCES",
        "streetNameDisplayText": "SMITH AVE, FORT FRANCES"
      }
    ]
  },
  {
    "postal": "P9A7Y6",
    "result": []
  },
  {
    "postal": "P9A1L9",
    "result": [
      {
        "electoralDistricts": [
          {
            "election": null,
            "id": 44,
            "name": "Kenora—Rainy River"
          }
        ],
        "pollDivisionIds": [
          10139066
        ],
        "postalCode": "P9A1L9",
        "streetName": "1ST",
        "streetDirectionId": "E",
        "streetTypeId": "ST",
        "placeName": "FORT FRANCES",
        "streetNameDisplayText": "1ST ST E, FORT FRANCES"
      },
      {
        "electoralDistricts": [
          {
            "election": null,
            "id": 44,
            "name": "Kenora—Rainy River"
          }
        ],
        "pollDivisionIds": [
          10139066
        ],
        "postalCode": "P9A1L9",
        "streetName": "FIRST",
        "streetDirectionId": "E",
        "streetTypeId": "ST",
        "placeName": "FORT FRANCES",
        "streetNameDisplayText": "FIRST ST E, FORT FRANCES"
      }
    ]
  },
  {
    "postal": "P9A8T0",
    "result": []
  },
  {
    "postal": "P9A3K8",
    "result": [
      {
        "electoralDistricts": [
          {
            "election": null,
            "id": 44,
            "name": "Kenora—Rainy River"
          }
        ],
        "pollDivisionIds": [
          10139062,
          10139061,
          10139065
        ],
        "postalCode": "P9A3K8",
        "streetName": "KEATING",
        "streetDirectionId": null,
        "streetTypeId": "AVE",
        "placeName": "FORT FRANCES",
        "streetNameDisplayText": "KEATING AVE, FORT FRANCES"
      }
    ]
  },
  {
    "postal": "P9A5W9",
    "result": []
  },
  {
    "postal": "P9A6T9",
    "result": []
  },
  {
    "postal": "P9A4H1",
    "result": []
  },
  {
    "postal": "P9A7A2",
    "result": []
  },
  {
    "postal": "P9A5G0",
    "result": []
  },
  {
    "postal": "P9A8V5",
    "result": []
  },
  {
    "postal": "P9A2Y8",
    "result": [
      {
        "electoralDistricts": [
          {
            "election": null,
            "id": 44,
            "name": "Kenora—Rainy River"
          }
        ],
        "pollDivisionIds": [
          10139061
        ],
        "postalCode": "P9A2Y8",
        "streetName": "FIRST",
        "streetDirectionId": "W",
        "streetTypeId": "ST",
        "placeName": "FORT FRANCES",
        "streetNameDisplayText": "FIRST ST W, FORT FRANCES"
      }
    ]
  },
  {
    "postal": "P9A2B6",
    "result": [
      {
        "electoralDistricts": [
          {
            "election": null,
            "id": 44,
            "name": "Kenora—Rainy River"
          }
        ],
        "pollDivisionIds": [
          10139064
        ],
        "postalCode": "P9A2B6",
        "streetName": "MCKENZIE",
        "streetDirectionId": "N",
        "streetTypeId": "AVE",
        "placeName": "FORT FRANCES",
        "streetNameDisplayText": "MCKENZIE AVE N, FORT FRANCES"
      }
    ]
  },
  {
    "postal": "P9A4W8",
    "result": []
  },
  {
    "postal": "P9A8H7",
    "result": []
  },
  {
    "postal": "P9A5P1",
    "result": []
  },
  {
    "postal": "P9A2B8",
    "result": [
      {
        "electoralDistricts": [
          {
            "election": null,
            "id": 44,
            "name": "Kenora—Rainy River"
          }
        ],
        "pollDivisionIds": [
          10139063
        ],
        "postalCode": "P9A2B8",
        "streetName": "VICTORIA",
        "streetDirectionId": null,
        "streetTypeId": "AVE",
        "placeName": "FORT FRANCES",
        "streetNameDisplayText": "VICTORIA AVE, FORT FRANCES"
      }
    ]
  },
  {
    "postal": "P9A0P2",
    "result": []
  },
  {
    "postal": "P9A9M1",
    "result": []
  },
  {
    "postal": "P9A3G0",
    "result": []
  },
  {
    "postal": "P9A9Z2",
    "result": []
  },
  {
    "postal": "P9A2A0",
    "result": []
  },
  {
    "postal": "P9A6Y0",
    "result": []
  },
  {
    "postal": "P9A2Z8",
    "result": [
      {
        "electoralDistricts": [
          {
            "election": null,
            "id": 44,
            "name": "Kenora—Rainy River"
          }
        ],
        "pollDivisionIds": [
          10139062
        ],
        "postalCode": "P9A2Z8",
        "streetName": "SECOND",
        "streetDirectionId": "W",
        "streetTypeId": "ST",
        "placeName": "FORT FRANCES",
        "streetNameDisplayText": "SECOND ST W, FORT FRANCES"
      }
    ]
  },
  {
    "postal": "P9A7Y3",
    "result": []
  },
  {
    "postal": "P9A6Z5",
    "result": []
  },
  {
    "postal": "P9A6E0",
    "result": []
  },
  {
    "postal": "P9A9B7",
    "result": []
  },
  {
    "postal": "P9A9S5",
    "result": []
  },
  {
    "postal": "P9A3X3",
    "result": [
      {
        "electoralDistricts": [
          {
            "election": null,
            "id": 44,
            "name": "Kenora—Rainy River"
          }
        ],
        "pollDivisionIds": [
          10139065
        ],
        "postalCode": "P9A3X3",
        "streetName": "ERIN",
        "streetDirectionId": null,
        "streetTypeId": "CRES",
        "placeName": "FORT FRANCES",
        "streetNameDisplayText": "ERIN CRES, FORT FRANCES"
      },
      {
        "electoralDistricts": [
          {
            "election": null,
            "id": 44,
            "name": "Kenora—Rainy River"
          }
        ],
        "pollDivisionIds": [
          10139065
        ],
        "postalCode": "P9A3X3",
        "streetName": "KAITLYN",
        "streetDirectionId": null,
        "streetTypeId": "DR",
        "placeName": "FORT FRANCES",
        "streetNameDisplayText": "KAITLYN DR, FORT FRANCES"
      }
    ]
  },
  {
    "postal": "P9A7R5",
    "result": []
  },
  {
    "postal": "P9A2X3",
    "result": [
      {
        "electoralDistricts": [
          {
            "election": null,
            "id": 44,
            "name": "Kenora—Rainy River"
          }
        ],
        "pollDivisionIds": [
          10139061
        ],
        "postalCode": "P9A2X3",
        "streetName": "KING'S",
        "streetDirectionId": null,
        "streetTypeId": "HWY",
        "placeName": "FORT FRANCES",
        "streetNameDisplayText": "KING'S HWY, FORT FRANCES"
      }
    ]
  },
  {
    "postal": "P9A8Z9",
    "result": []
  },
  {
    "postal": "P9A0N4",
    "result": []
  },
  {
    "postal": "P9A1K1",
    "result": []
  },
  {
    "postal": "P9A1S3",
    "result": [
      {
        "electoralDistricts": [
          {
            "election": null,
            "id": 44,
            "name": "Kenora—Rainy River"
          }
        ],
        "pollDivisionIds": [
          10139066
        ],
        "postalCode": "P9A1S3",
        "streetName": "THIRD",
        "streetDirectionId": "E",
        "streetTypeId": "ST",
        "placeName": "FORT FRANCES",
        "streetNameDisplayText": "THIRD ST E, FORT FRANCES"
      }
    ]
  },
  {
    "postal": "P9A6M4",
    "result": []
  },
  {
    "postal": "P9A9A9",
    "result": []
  },
  {
    "postal": "P9A9Z9",
    "result": []
  },
  {
    "postal": "P9A6T4",
    "result": []
  },
  {
    "postal": "P9A0B2",
    "result": []
  },
  {
    "postal": "P9A2L9",
    "result": [
      {
        "electoralDistricts": [
          {
            "election": null,
            "id": 44,
            "name": "Kenora—Rainy River"
          }
        ],
        "pollDivisionIds": [
          10139065
        ],
        "postalCode": "P9A2L9",
        "streetName": "CROWE",
        "streetDirectionId": null,
        "streetTypeId": "AVE",
        "placeName": "FORT FRANCES",
        "streetNameDisplayText": "CROWE AVE, FORT FRANCES"
      }
    ]
  },
  {
    "postal": "P9A8K9",
    "result": []
  },
  {
    "postal": "P9A2H9",
    "result": [
      {
        "electoralDistricts": [
          {
            "election": null,
            "id": 44,
            "name": "Kenora—Rainy River"
          }
        ],
        "pollDivisionIds": [
          10139064
        ],
        "postalCode": "P9A2H9",
        "streetName": "ARMIT",
        "streetDirectionId": null,
        "streetTypeId": "AVE",
        "placeName": "FORT FRANCES",
        "streetNameDisplayText": "ARMIT AVE, FORT FRANCES"
      }
    ]
  },
  {
    "postal": "P9A3Z6",
    "result": []
  },
  {
    "postal": "P9A3B0",
    "result": []
  },
  {
    "postal": "P9A2H8",
    "result": [
      {
        "electoralDistricts": [
          {
            "election": null,
            "id": 44,
            "name": "Kenora—Rainy River"
          }
        ],
        "pollDivisionIds": [
          10139064
        ],
        "postalCode": "P9A2H8",
        "streetName": "ARMIT",
        "streetDirectionId": null,
        "streetTypeId": "AVE",
        "placeName": "FORT FRANCES",
        "streetNameDisplayText": "ARMIT AVE, FORT FRANCES"
      }
    ]
  },
  {
    "postal": "P9A3X2",
    "result": [
      {
        "electoralDistricts": [
          {
            "election": null,
            "id": 44,
            "name": "Kenora—Rainy River"
          }
        ],
        "pollDivisionIds": [
          10139067
        ],
        "postalCode": "P9A3X2",
        "streetName": "WOODWARD",
        "streetDirectionId": null,
        "streetTypeId": "ST",
        "placeName": "FORT FRANCES",
        "streetNameDisplayText": "WOODWARD ST, FORT FRANCES"
      }
    ]
  },
  {
    "postal": "P9A2E9",
    "result": [
      {
        "electoralDistricts": [
          {
            "election": null,
            "id": 44,
            "name": "Kenora—Rainy River"
          }
        ],
        "pollDivisionIds": [
          10139064
        ],
        "postalCode": "P9A2E9",
        "streetName": "CHRISTIE",
        "streetDirectionId": null,
        "streetTypeId": "AVE",
        "placeName": "FORT FRANCES",
        "streetNameDisplayText": "CHRISTIE AVE, FORT FRANCES"
      }
    ]
  },
  {
    "postal": "P9A9P6",
    "result": []
  },
  {
    "postal": "P9A9E2",
    "result": []
  },
  {
    "postal": "P9A9H2",
    "result": []
  },
  {
    "postal": "P9A1S8",
    "result": [
      {
        "electoralDistricts": [
          {
            "election": null,
            "id": 44,
            "name": "Kenora—Rainy River"
          }
        ],
        "pollDivisionIds": [
          10139066
        ],
        "postalCode": "P9A1S8",
        "streetName": "THIRD",
        "streetDirectionId": "E",
        "streetTypeId": "ST",
        "placeName": "FORT FRANCES",
        "streetNameDisplayText": "THIRD ST E, FORT FRANCES"
      }
    ]
  },
  {
    "postal": "P9A3M6",
    "result": [
      {
        "electoralDistricts": [
          {
            "election": null,
            "id": 44,
            "name": "Kenora—Rainy River"
          }
        ],
        "pollDivisionIds": [
          10139067
        ],
        "postalCode": "P9A3M6",
        "streetName": "BAYVIEW",
        "streetDirectionId": null,
        "streetTypeId": "DR",
        "placeName": "FORT FRANCES",
        "streetNameDisplayText": "BAYVIEW DR, FORT FRANCES"
      },
      {
        "electoralDistricts": [
          {
            "election": null,
            "id": 44,
            "name": "Kenora—Rainy River"
          }
        ],
        "pollDivisionIds": [
          10139056
        ],
        "postalCode": "P9A3M6",
        "streetName": "BOUCHER",
        "streetDirectionId": null,
        "streetTypeId": "RD",
        "placeName": "FORT FRANCES",
        "streetNameDisplayText": "BOUCHER RD, FORT FRANCES"
      },
      {
        "electoralDistricts": [
          {
            "election": null,
            "id": 44,
            "name": "Kenora—Rainy River"
          }
        ],
        "pollDivisionIds": [
          10139068
        ],
        "postalCode": "P9A3M6",
        "streetName": "GEORGE ARMSTRONG",
        "streetDirectionId": null,
        "streetTypeId": "DR",
        "placeName": "FORT FRANCES",
        "streetNameDisplayText": "GEORGE ARMSTRONG DR, FORT FRANCES"
      },
      {
        "electoralDistricts": [
          {
            "election": null,
            "id": 44,
            "name": "Kenora—Rainy River"
          }
        ],
        "pollDivisionIds": [
          10139061
        ],
        "postalCode": "P9A3M6",
        "streetName": "KING'S",
        "streetDirectionId": null,
        "streetTypeId": "HWY",
        "placeName": "FORT FRANCES",
        "streetNameDisplayText": "KING'S HWY, FORT FRANCES"
      },
      {
        "electoralDistricts": [
          {
            "election": null,
            "id": 44,
            "name": "Kenora—Rainy River"
          }
        ],
        "pollDivisionIds": [
          10139057
        ],
        "postalCode": "P9A3M6",
        "streetName": "RAINY LAKE",
        "streetDirectionId": null,
        "streetTypeId": "BLVD",
        "placeName": "FORT FRANCES",
        "streetNameDisplayText": "RAINY LAKE BLVD, FORT FRANCES"
      },
      {
        "electoralDistricts": [
          {
            "election": null,
            "id": 44,
            "name": "Kenora—Rainy River"
          }
        ],
        "pollDivisionIds": [
          10139057
        ],
        "postalCode": "P9A3M6",
        "streetName": "WAIKWAYIGUM",
        "streetDirectionId": "N",
        "streetTypeId": "DR",
        "placeName": "RAINY LAKE 18C",
        "streetNameDisplayText": "WAIKWAYIGUM DR N, RAINY LAKE 18C"
      }
    ]
  },
  {
    "postal": "P9A6Z8",
    "result": []
  },
  {
    "postal": "P9A4J2",
    "result": []
  },
  {
    "postal": "P9A9Y1",
    "result": []
  },
  {
    "postal": "P9A8V6",
    "result": []
  },
  {
    "postal": "P9A6B2",
    "result": []
  },
  {
    "postal": "P9A1P8",
    "result": [
      {
        "electoralDistricts": [
          {
            "election": null,
            "id": 44,
            "name": "Kenora—Rainy River"
          }
        ],
        "pollDivisionIds": [
          10139063
        ],
        "postalCode": "P9A1P8",
        "streetName": "THIRD",
        "streetDirectionId": "E",
        "streetTypeId": "ST",
        "placeName": "FORT FRANCES",
        "streetNameDisplayText": "THIRD ST E, FORT FRANCES"
      }
    ]
  },
  {
    "postal": "P9A0V8",
    "result": []
  },
  {
    "postal": "P9A4Y0",
    "result": []
  },
  {
    "postal": "P9A2T4",
    "result": [
      {
        "electoralDistricts": [
          {
            "election": null,
            "id": 44,
            "name": "Kenora—Rainy River"
          }
        ],
        "pollDivisionIds": [
          10139059
        ],
        "postalCode": "P9A2T4",
        "streetName": "COLONIZATION",
        "streetDirectionId": "W",
        "streetTypeId": "RD",
        "placeName": "FORT FRANCES",
        "streetNameDisplayText": "COLONIZATION RD W, FORT FRANCES"
      }
    ]
  },
  {
    "postal": "P9A2S3",
    "result": [
      {
        "electoralDistricts": [
          {
            "election": null,
            "id": 44,
            "name": "Kenora—Rainy River"
          }
        ],
        "pollDivisionIds": [
          10139066
        ],
        "postalCode": "P9A2S3",
        "streetName": "COLONIZATION",
        "streetDirectionId": "E",
        "streetTypeId": "RD",
        "placeName": "FORT FRANCES",
        "streetNameDisplayText": "COLONIZATION RD E, FORT FRANCES"
      }
    ]
  },
  {
    "postal": "P9A0K0",
    "result": []
  },
  {
    "postal": "P9A5N1",
    "result": []
  },
  {
    "postal": "P9A7T0",
    "result": []
  },
  {
    "postal": "P9A9N2",
    "result": []
  },
  {
    "postal": "P9A5L1",
    "result": []
  },
  {
    "postal": "P9A7G5",
    "result": []
  },
  {
    "postal": "P9A6K2",
    "result": []
  },
  {
    "postal": "P9A6P9",
    "result": []
  },
  {
    "postal": "P9A0E6",
    "result": []
  },
  {
    "postal": "P9A8R9",
    "result": []
  },
  {
    "postal": "P9A3G9",
    "result": [
      {
        "electoralDistricts": [
          {
            "election": null,
            "id": 44,
            "name": "Kenora—Rainy River"
          }
        ],
        "pollDivisionIds": [
          10139060
        ],
        "postalCode": "P9A3G9",
        "streetName": "CORNWALL",
        "streetDirectionId": "N",
        "streetTypeId": "AVE",
        "placeName": "FORT FRANCES",
        "streetNameDisplayText": "CORNWALL AVE N, FORT FRANCES"
      }
    ]
  },
  {
    "postal": "P9A0V7",
    "result": []
  },
  {
    "postal": "P9A2Z1",
    "result": [
      {
        "electoralDistricts": [
          {
            "election": null,
            "id": 44,
            "name": "Kenora—Rainy River"
          }
        ],
        "pollDivisionIds": [
          10139062
        ],
        "postalCode": "P9A2Z1",
        "streetName": "FIRST",
        "streetDirectionId": "W",
        "streetTypeId": "ST",
        "placeName": "FORT FRANCES",
        "streetNameDisplayText": "FIRST ST W, FORT FRANCES"
      }
    ]
  },
  {
    "postal": "P9A7N1",
    "result": []
  },
  {
    "postal": "P9A3C6",
    "result": [
      {
        "electoralDistricts": [
          {
            "election": null,
            "id": 44,
            "name": "Kenora—Rainy River"
          }
        ],
        "pollDivisionIds": [
          10139060
        ],
        "postalCode": "P9A3C6",
        "streetName": "FIFTH",
        "streetDirectionId": "W",
        "streetTypeId": "ST",
        "placeName": "FORT FRANCES",
        "streetNameDisplayText": "FIFTH ST W, FORT FRANCES"
      }
    ]
  },
  {
    "postal": "P9A4M1",
    "result": []
  },
  {
    "postal": "P9A9K2",
    "result": []
  },
  {
    "postal": "P9A9S6",
    "result": []
  },
  {
    "postal": "P9A4X1",
    "result": []
  },
  {
    "postal": "P9A8W2",
    "result": []
  },
  {
    "postal": "P9A7N2",
    "result": []
  },
  {
    "postal": "P9A8S3",
    "result": []
  },
  {
    "postal": "P9A4V0",
    "result": []
  },
  {
    "postal": "P9A6W4",
    "result": []
  },
  {
    "postal": "P9A5M1",
    "result": []
  },
  {
    "postal": "P9A0S4",
    "result": []
  },
  {
    "postal": "P9A5X6",
    "result": []
  },
  {
    "postal": "P9A8L5",
    "result": []
  },
  {
    "postal": "P9A5M8",
    "result": []
  },
  {
    "postal": "P9A2G3",
    "result": [
      {
        "electoralDistricts": [
          {
            "election": null,
            "id": 44,
            "name": "Kenora—Rainy River"
          }
        ],
        "pollDivisionIds": [
          10139064,
          10139063
        ],
        "postalCode": "P9A2G3",
        "streetName": "CHRISTIE",
        "streetDirectionId": null,
        "streetTypeId": "AVE",
        "placeName": "FORT FRANCES",
        "streetNameDisplayText": "CHRISTIE AVE, FORT FRANCES"
      }
    ]
  },
  {
    "postal": "P9A8E4",
    "result": []
  },
  {
    "postal": "P9A7S9",
    "result": []
  },
  {
    "postal": "P9A1K3",
    "result": [
      {
        "electoralDistricts": [
          {
            "election": null,
            "id": 44,
            "name": "Kenora—Rainy River"
          }
        ],
        "pollDivisionIds": [
          10139063
        ],
        "postalCode": "P9A1K3",
        "streetName": "FIRST",
        "streetDirectionId": "E",
        "streetTypeId": "ST",
        "placeName": "FORT FRANCES",
        "streetNameDisplayText": "FIRST ST E, FORT FRANCES"
      }
    ]
  },
  {
    "postal": "P9A4E1",
    "result": []
  },
  {
    "postal": "P9A4R2",
    "result": []
  },
  {
    "postal": "P9A6T0",
    "result": []
  },
  {
    "postal": "P9A3K5",
    "result": [
      {
        "electoralDistricts": [
          {
            "election": null,
            "id": 44,
            "name": "Kenora—Rainy River"
          }
        ],
        "pollDivisionIds": [
          10139061
        ],
        "postalCode": "P9A3K5",
        "streetName": "KEATING",
        "streetDirectionId": null,
        "streetTypeId": "AVE",
        "placeName": "FORT FRANCES",
        "streetNameDisplayText": "KEATING AVE, FORT FRANCES"
      }
    ]
  },
  {
    "postal": "P9A3S3",
    "result": [
      {
        "electoralDistricts": [
          {
            "election": null,
            "id": 44,
            "name": "Kenora—Rainy River"
          }
        ],
        "pollDivisionIds": [
          10139061
        ],
        "postalCode": "P9A3S3",
        "streetName": "MCIRVINE",
        "streetDirectionId": null,
        "streetTypeId": "RD",
        "placeName": "FORT FRANCES",
        "streetNameDisplayText": "MCIRVINE RD, FORT FRANCES"
      }
    ]
  },
  {
    "postal": "P9A3L4",
    "result": [
      {
        "electoralDistricts": [
          {
            "election": null,
            "id": 44,
            "name": "Kenora—Rainy River"
          }
        ],
        "pollDivisionIds": [
          10139060
        ],
        "postalCode": "P9A3L4",
        "streetName": "MCIRVINE",
        "streetDirectionId": "N",
        "streetTypeId": "RD",
        "placeName": "FORT FRANCES",
        "streetNameDisplayText": "MCIRVINE RD N, FORT FRANCES"
      }
    ]
  },
  {
    "postal": "P9A9Y2",
    "result": []
  },
  {
    "postal": "P9A1E0",
    "result": []
  },
  {
    "postal": "P9A9A4",
    "result": []
  },
  {
    "postal": "P9A1L3",
    "result": [
      {
        "electoralDistricts": [
          {
            "election": null,
            "id": 44,
            "name": "Kenora—Rainy River"
          }
        ],
        "pollDivisionIds": [
          10139066
        ],
        "postalCode": "P9A1L3",
        "streetName": "FIRST",
        "streetDirectionId": "E",
        "streetTypeId": "ST",
        "placeName": "FORT FRANCES",
        "streetNameDisplayText": "FIRST ST E, FORT FRANCES"
      }
    ]
  },
  {
    "postal": "P9A6N1",
    "result": []
  },
  {
    "postal": "P9A6G7",
    "result": []
  },
  {
    "postal": "P9A7W1",
    "result": []
  },
  {
    "postal": "P9A4M6",
    "result": []
  },
  {
    "postal": "P9A1K0",
    "result": []
  },
  {
    "postal": "P9A3E2",
    "result": [
      {
        "electoralDistricts": [
          {
            "election": null,
            "id": 44,
            "name": "Kenora—Rainy River"
          }
        ],
        "pollDivisionIds": [
          10139064
        ],
        "postalCode": "P9A3E2",
        "streetName": "SIXTH",
        "streetDirectionId": "W",
        "streetTypeId": "ST",
        "placeName": "FORT FRANCES",
        "streetNameDisplayText": "SIXTH ST W, FORT FRANCES"
      }
    ]
  },
  {
    "postal": "P9A5H4",
    "result": []
  },
  {
    "postal": "P9A1K7",
    "result": [
      {
        "electoralDistricts": [
          {
            "election": null,
            "id": 44,
            "name": "Kenora—Rainy River"
          }
        ],
        "pollDivisionIds": [
          10139064
        ],
        "postalCode": "P9A1K7",
        "streetName": "FIRST",
        "streetDirectionId": "E",
        "streetTypeId": "ST",
        "placeName": "FORT FRANCES",
        "streetNameDisplayText": "FIRST ST E, FORT FRANCES"
      }
    ]
  },
  {
    "postal": "P9A0H0",
    "result": []
  },
  {
    "postal": "P9A0J3",
    "result": []
  },
  {
    "postal": "P9A1X6",
    "result": [
      {
        "electoralDistricts": [
          {
            "election": null,
            "id": 44,
            "name": "Kenora—Rainy River"
          }
        ],
        "pollDivisionIds": [
          10139067
        ],
        "postalCode": "P9A1X6",
        "streetName": "EIGHTH",
        "streetDirectionId": "E",
        "streetTypeId": "ST",
        "placeName": "FORT FRANCES",
        "streetNameDisplayText": "EIGHTH ST E, FORT FRANCES"
      }
    ]
  },
  {
    "postal": "P9A2Z6",
    "result": [
      {
        "electoralDistricts": [
          {
            "election": null,
            "id": 44,
            "name": "Kenora—Rainy River"
          }
        ],
        "pollDivisionIds": [
          10139062
        ],
        "postalCode": "P9A2Z6",
        "streetName": "SECOND",
        "streetDirectionId": "W",
        "streetTypeId": "ST",
        "placeName": "FORT FRANCES",
        "streetNameDisplayText": "SECOND ST W, FORT FRANCES"
      }
    ]
  },
  {
    "postal": "P9A4R9",
    "result": []
  },
  {
    "postal": "P9A0W8",
    "result": []
  },
  {
    "postal": "P9A1L4",
    "result": [
      {
        "electoralDistricts": [
          {
            "election": null,
            "id": 44,
            "name": "Kenora—Rainy River"
          }
        ],
        "pollDivisionIds": [
          10139066
        ],
        "postalCode": "P9A1L4",
        "streetName": "FIRST",
        "streetDirectionId": "E",
        "streetTypeId": "ST",
        "placeName": "FORT FRANCES",
        "streetNameDisplayText": "FIRST ST E, FORT FRANCES"
      }
    ]
  },
  {
    "postal": "P9A0C8",
    "result": []
  },
  {
    "postal": "P9A9X7",
    "result": []
  },
  {
    "postal": "P9A4T1",
    "result": []
  },
  {
    "postal": "P9A0M0",
    "result": []
  },
  {
    "postal": "P9A6A2",
    "result": []
  },
  {
    "postal": "P9A9S8",
    "result": []
  },
  {
    "postal": "P9A9T4",
    "result": []
  },
  {
    "postal": "P9A9Y4",
    "result": []
  },
  {
    "postal": "P9A6G5",
    "result": []
  },
  {
    "postal": "P9A6H9",
    "result": []
  },
  {
    "postal": "P9A2P3",
    "result": []
  },
  {
    "postal": "P9A1T6",
    "result": [
      {
        "electoralDistricts": [
          {
            "election": null,
            "id": 44,
            "name": "Kenora—Rainy River"
          }
        ],
        "pollDivisionIds": [
          10139066
        ],
        "postalCode": "P9A1T6",
        "streetName": "FOURTH",
        "streetDirectionId": "E",
        "streetTypeId": "ST",
        "placeName": "FORT FRANCES",
        "streetNameDisplayText": "FOURTH ST E, FORT FRANCES"
      }
    ]
  },
  {
    "postal": "P9A4P6",
    "result": []
  },
  {
    "postal": "P9A3K1",
    "result": [
      {
        "electoralDistricts": [
          {
            "election": null,
            "id": 44,
            "name": "Kenora—Rainy River"
          }
        ],
        "pollDivisionIds": [
          10139061
        ],
        "postalCode": "P9A3K1",
        "streetName": "HOLMES",
        "streetDirectionId": null,
        "streetTypeId": "AVE",
        "placeName": "FORT FRANCES",
        "streetNameDisplayText": "HOLMES AVE, FORT FRANCES"
      }
    ]
  },
  {
    "postal": "P9A6X4",
    "result": []
  },
  {
    "postal": "P9A4M8",
    "result": []
  },
  {
    "postal": "P9A2Y1",
    "result": [
      {
        "electoralDistricts": [
          {
            "election": null,
            "id": 44,
            "name": "Kenora—Rainy River"
          }
        ],
        "pollDivisionIds": [
          10139059
        ],
        "postalCode": "P9A2Y1",
        "streetName": "KING'S",
        "streetDirectionId": null,
        "streetTypeId": "HWY",
        "placeName": "FORT FRANCES",
        "streetNameDisplayText": "KING'S HWY, FORT FRANCES"
      }
    ]
  },
  {
    "postal": "P9A6M1",
    "result": []
  },
  {
    "postal": "P9A5L8",
    "result": []
  },
  {
    "postal": "P9A3P6",
    "result": [
      {
        "electoralDistricts": [
          {
            "election": null,
            "id": 44,
            "name": "Kenora—Rainy River"
          }
        ],
        "pollDivisionIds": [
          10139060
        ],
        "postalCode": "P9A3P6",
        "streetName": "FIFTH",
        "streetDirectionId": "W",
        "streetTypeId": "ST",
        "placeName": "FORT FRANCES",
        "streetNameDisplayText": "FIFTH ST W, FORT FRANCES"
      }
    ]
  },
  {
    "postal": "P9A9A5",
    "result": []
  },
  {
    "postal": "P9A7K1",
    "result": []
  },
  {
    "postal": "P9A3J4",
    "result": [
      {
        "electoralDistricts": [
          {
            "election": null,
            "id": 44,
            "name": "Kenora—Rainy River"
          }
        ],
        "pollDivisionIds": [
          10139063,
          10139061
        ],
        "postalCode": "P9A3J4",
        "streetName": "ELM",
        "streetDirectionId": null,
        "streetTypeId": "AVE",
        "placeName": "FORT FRANCES",
        "streetNameDisplayText": "ELM AVE, FORT FRANCES"
      }
    ]
  },
  {
    "postal": "P9A5E7",
    "result": []
  },
  {
    "postal": "P9A3A7",
    "result": [
      {
        "electoralDistricts": [
          {
            "election": null,
            "id": 44,
            "name": "Kenora—Rainy River"
          }
        ],
        "pollDivisionIds": [
          10139062
        ],
        "postalCode": "P9A3A7",
        "streetName": "3RD",
        "streetDirectionId": "W",
        "streetTypeId": "ST",
        "placeName": "FORT FRANCES",
        "streetNameDisplayText": "3RD ST W, FORT FRANCES"
      },
      {
        "electoralDistricts": [
          {
            "election": null,
            "id": 44,
            "name": "Kenora—Rainy River"
          }
        ],
        "pollDivisionIds": [
          10139062
        ],
        "postalCode": "P9A3A7",
        "streetName": "THIRD",
        "streetDirectionId": "W",
        "streetTypeId": "ST",
        "placeName": "FORT FRANCES",
        "streetNameDisplayText": "THIRD ST W, FORT FRANCES"
      }
    ]
  },
  {
    "postal": "P9A1B9",
    "result": [
      {
        "electoralDistricts": [
          {
            "election": null,
            "id": 44,
            "name": "Kenora—Rainy River"
          }
        ],
        "pollDivisionIds": [
          10139066
        ],
        "postalCode": "P9A1B9",
        "streetName": "NELSON",
        "streetDirectionId": null,
        "streetTypeId": "ST",
        "placeName": "FORT FRANCES",
        "streetNameDisplayText": "NELSON ST, FORT FRANCES"
      }
    ]
  },
  {
    "postal": "P9A9E8",
    "result": []
  },
  {
    "postal": "P9A1C9",
    "result": [
      {
        "electoralDistricts": [
          {
            "election": null,
            "id": 44,
            "name": "Kenora—Rainy River"
          }
        ],
        "pollDivisionIds": [
          10139063
        ],
        "postalCode": "P9A1C9",
        "streetName": "CHURCH",
        "streetDirectionId": null,
        "streetTypeId": "ST",
        "placeName": "FORT FRANCES",
        "streetNameDisplayText": "CHURCH ST, FORT FRANCES"
      }
    ]
  },
  {
    "postal": "P9A3B5",
    "result": [
      {
        "electoralDistricts": [
          {
            "election": null,
            "id": 44,
            "name": "Kenora—Rainy River"
          }
        ],
        "pollDivisionIds": [
          10139062
        ],
        "postalCode": "P9A3B5",
        "streetName": "THIRD",
        "streetDirectionId": "W",
        "streetTypeId": "ST",
        "placeName": "FORT FRANCES",
        "streetNameDisplayText": "THIRD ST W, FORT FRANCES"
      }
    ]
  },
  {
    "postal": "P9A8R0",
    "result": []
  },
  {
    "postal": "P9A3P2",
    "result": [
      {
        "electoralDistricts": [
          {
            "election": null,
            "id": 44,
            "name": "Kenora—Rainy River"
          }
        ],
        "pollDivisionIds": [
          10139065
        ],
        "postalCode": "P9A3P2",
        "streetName": "SHEVLIN",
        "streetDirectionId": null,
        "streetTypeId": "AVE",
        "placeName": "FORT FRANCES",
        "streetNameDisplayText": "SHEVLIN AVE, FORT FRANCES"
      }
    ]
  },
  {
    "postal": "P9A5V4",
    "result": []
  },
  {
    "postal": "P9A4H0",
    "result": []
  },
  {
    "postal": "P9A4S7",
    "result": []
  },
  {
    "postal": "P9A6C2",
    "result": []
  },
  {
    "postal": "P9A8W3",
    "result": []
  },
  {
    "postal": "P9A4M5",
    "result": []
  },
  {
    "postal": "P9A5T1",
    "result": []
  },
  {
    "postal": "P9A3B3",
    "result": [
      {
        "electoralDistricts": [
          {
            "election": null,
            "id": 44,
            "name": "Kenora—Rainy River"
          }
        ],
        "pollDivisionIds": [
          10139062
        ],
        "postalCode": "P9A3B3",
        "streetName": "THIRD",
        "streetDirectionId": "W",
        "streetTypeId": "ST",
        "placeName": "FORT FRANCES",
        "streetNameDisplayText": "THIRD ST W, FORT FRANCES"
      }
    ]
  },
  {
    "postal": "P9A6C6",
    "result": []
  },
  {
    "postal": "P9A7N8",
    "result": []
  },
  {
    "postal": "P9A2Y3",
    "result": [
      {
        "electoralDistricts": [
          {
            "election": null,
            "id": 44,
            "name": "Kenora—Rainy River"
          }
        ],
        "pollDivisionIds": [
          10139062
        ],
        "postalCode": "P9A2Y3",
        "streetName": "MORRISON",
        "streetDirectionId": null,
        "streetTypeId": "CRES",
        "placeName": "FORT FRANCES",
        "streetNameDisplayText": "MORRISON CRES, FORT FRANCES"
      }
    ]
  },
  {
    "postal": "P9A2R6",
    "result": [
      {
        "electoralDistricts": [
          {
            "election": null,
            "id": 44,
            "name": "Kenora—Rainy River"
          }
        ],
        "pollDivisionIds": [
          10139067
        ],
        "postalCode": "P9A2R6",
        "streetName": "WILLIAMS",
        "streetDirectionId": null,
        "streetTypeId": "AVE",
        "placeName": "FORT FRANCES",
        "streetNameDisplayText": "WILLIAMS AVE, FORT FRANCES"
      }
    ]
  },
  {
    "postal": "P9A7N3",
    "result": []
  },
  {
    "postal": "P9A8J2",
    "result": []
  },
  {
    "postal": "P9A6A9",
    "result": []
  },
  {
    "postal": "P9A3V2",
    "result": [
      {
        "electoralDistricts": [
          {
            "election": null,
            "id": 44,
            "name": "Kenora—Rainy River"
          }
        ],
        "pollDivisionIds": [
          10139058
        ],
        "postalCode": "P9A3V2",
        "streetName": "COLONIZATION",
        "streetDirectionId": "W",
        "streetTypeId": "RD",
        "placeName": "FORT FRANCES",
        "streetNameDisplayText": "COLONIZATION RD W, FORT FRANCES"
      },
      {
        "electoralDistricts": [
          {
            "election": null,
            "id": 44,
            "name": "Kenora—Rainy River"
          }
        ],
        "pollDivisionIds": [
          10139058
        ],
        "postalCode": "P9A3V2",
        "streetName": "LYNDY",
        "streetDirectionId": "S",
        "streetTypeId": "PL",
        "placeName": "FORT FRANCES",
        "streetNameDisplayText": "LYNDY PL S, FORT FRANCES"
      }
    ]
  },
  {
    "postal": "P9A2N3",
    "result": []
  },
  {
    "postal": "P9A1S5",
    "result": [
      {
        "electoralDistricts": [
          {
            "election": null,
            "id": 44,
            "name": "Kenora—Rainy River"
          }
        ],
        "pollDivisionIds": [
          10139066
        ],
        "postalCode": "P9A1S5",
        "streetName": "THIRD",
        "streetDirectionId": "E",
        "streetTypeId": "ST",
        "placeName": "FORT FRANCES",
        "streetNameDisplayText": "THIRD ST E, FORT FRANCES"
      }
    ]
  },
  {
    "postal": "P9A4T7",
    "result": []
  },
  {
    "postal": "P9A6Y7",
    "result": []
  },
  {
    "postal": "P9A0W7",
    "result": []
  },
  {
    "postal": "P9A2W9",
    "result": [
      {
        "electoralDistricts": [
          {
            "election": null,
            "id": 44,
            "name": "Kenora—Rainy River"
          }
        ],
        "pollDivisionIds": [
          10139061
        ],
        "postalCode": "P9A2W9",
        "streetName": "KING'S",
        "streetDirectionId": null,
        "streetTypeId": "HWY",
        "placeName": "FORT FRANCES",
        "streetNameDisplayText": "KING'S HWY, FORT FRANCES"
      }
    ]
  },
  {
    "postal": "P9A8V0",
    "result": []
  },
  {
    "postal": "P9A0H4",
    "result": []
  },
  {
    "postal": "P9A2T1",
    "result": [
      {
        "electoralDistricts": [
          {
            "election": null,
            "id": 44,
            "name": "Kenora—Rainy River"
          }
        ],
        "pollDivisionIds": [
          10139061
        ],
        "postalCode": "P9A2T1",
        "streetName": "KING'S",
        "streetDirectionId": null,
        "streetTypeId": "HWY",
        "placeName": "FORT FRANCES",
        "streetNameDisplayText": "KING'S HWY, FORT FRANCES"
      }
    ]
  },
  {
    "postal": "P9A1B1",
    "result": []
  },
  {
    "postal": "P9A8B6",
    "result": []
  },
  {
    "postal": "P9A6H1",
    "result": []
  },
  {
    "postal": "P9A8T8",
    "result": []
  },
  {
    "postal": "P9A0T4",
    "result": []
  },
  {
    "postal": "P9A2C4",
    "result": [
      {
        "electoralDistricts": [
          {
            "election": null,
            "id": 44,
            "name": "Kenora—Rainy River"
          }
        ],
        "pollDivisionIds": [
          10139064
        ],
        "postalCode": "P9A2C4",
        "streetName": "VICTORIA",
        "streetDirectionId": null,
        "streetTypeId": "AVE",
        "placeName": "FORT FRANCES",
        "streetNameDisplayText": "VICTORIA AVE, FORT FRANCES"
      }
    ]
  },
  {
    "postal": "P9A8N3",
    "result": []
  },
  {
    "postal": "P9A4L8",
    "result": []
  },
  {
    "postal": "P9A2B5",
    "result": [
      {
        "electoralDistricts": [
          {
            "election": null,
            "id": 44,
            "name": "Kenora—Rainy River"
          }
        ],
        "pollDivisionIds": [
          10139064
        ],
        "postalCode": "P9A2B5",
        "streetName": "MCKENZIE",
        "streetDirectionId": "N",
        "streetTypeId": "AVE",
        "placeName": "FORT FRANCES",
        "streetNameDisplayText": "MCKENZIE AVE N, FORT FRANCES"
      }
    ]
  },
  {
    "postal": "P9A3H1",
    "result": [
      {
        "electoralDistricts": [
          {
            "election": null,
            "id": 44,
            "name": "Kenora—Rainy River"
          }
        ],
        "pollDivisionIds": [
          10139064
        ],
        "postalCode": "P9A3H1",
        "streetName": "CORNWALL",
        "streetDirectionId": "N",
        "streetTypeId": "AVE",
        "placeName": "FORT FRANCES",
        "streetNameDisplayText": "CORNWALL AVE N, FORT FRANCES"
      }
    ]
  },
  {
    "postal": "P9A4Y1",
    "result": []
  },
  {
    "postal": "P9A7E2",
    "result": []
  },
  {
    "postal": "P9A2P5",
    "result": [
      {
        "electoralDistricts": [
          {
            "election": null,
            "id": 44,
            "name": "Kenora—Rainy River"
          }
        ],
        "pollDivisionIds": [
          10139066
        ],
        "postalCode": "P9A2P5",
        "streetName": "MINNIE",
        "streetDirectionId": null,
        "streetTypeId": "AVE",
        "placeName": "FORT FRANCES",
        "streetNameDisplayText": "MINNIE AVE, FORT FRANCES"
      }
    ]
  },
  {
    "postal": "P9A8R7",
    "result": []
  },
  {
    "postal": "P9A9P1",
    "result": []
  },
  {
    "postal": "P9A3B8",
    "result": [
      {
        "electoralDistricts": [
          {
            "election": null,
            "id": 44,
            "name": "Kenora—Rainy River"
          }
        ],
        "pollDivisionIds": [
          10139059,
          10139063
        ],
        "postalCode": "P9A3B8",
        "streetName": "FOURTH",
        "streetDirectionId": "W",
        "streetTypeId": "ST",
        "placeName": "FORT FRANCES",
        "streetNameDisplayText": "FOURTH ST W, FORT FRANCES"
      }
    ]
  },
  {
    "postal": "P9A3P7",
    "result": [
      {
        "electoralDistricts": [
          {
            "election": null,
            "id": 44,
            "name": "Kenora—Rainy River"
          }
        ],
        "pollDivisionIds": [
          10139064
        ],
        "postalCode": "P9A3P7",
        "streetName": "HUDSON",
        "streetDirectionId": null,
        "streetTypeId": "DR",
        "placeName": "FORT FRANCES",
        "streetNameDisplayText": "HUDSON DR, FORT FRANCES"
      }
    ]
  },
  {
    "postal": "P9A9B2",
    "result": []
  },
  {
    "postal": "P9A6Z3",
    "result": []
  },
  {
    "postal": "P9A4N5",
    "result": []
  },
  {
    "postal": "P9A8T3",
    "result": []
  },
  {
    "postal": "P9A1V2",
    "result": []
  },
  {
    "postal": "P9A1Y0",
    "result": []
  },
  {
    "postal": "P9A3G6",
    "result": [
      {
        "electoralDistricts": [
          {
            "election": null,
            "id": 44,
            "name": "Kenora—Rainy River"
          }
        ],
        "pollDivisionIds": [
          10139064
        ],
        "postalCode": "P9A3G6",
        "streetName": "CORNWALL",
        "streetDirectionId": "N",
        "streetTypeId": "AVE",
        "placeName": "FORT FRANCES",
        "streetNameDisplayText": "CORNWALL AVE N, FORT FRANCES"
      }
    ]
  },
  {
    "postal": "P9A3H7",
    "result": [
      {
        "electoralDistricts": [
          {
            "election": null,
            "id": 44,
            "name": "Kenora—Rainy River"
          }
        ],
        "pollDivisionIds": [
          10139062
        ],
        "postalCode": "P9A3H7",
        "streetName": "WEBSTER",
        "streetDirectionId": null,
        "streetTypeId": "AVE",
        "placeName": "FORT FRANCES",
        "streetNameDisplayText": "WEBSTER AVE, FORT FRANCES"
      }
    ]
  },
  {
    "postal": "P9A7X8",
    "result": []
  },
  {
    "postal": "P9A0C7",
    "result": []
  },
  {
    "postal": "P9A0W9",
    "result": []
  },
  {
    "postal": "P9A8E6",
    "result": []
  },
  {
    "postal": "P9A9Z8",
    "result": []
  },
  {
    "postal": "P9A3P4",
    "result": [
      {
        "electoralDistricts": [
          {
            "election": null,
            "id": 44,
            "name": "Kenora—Rainy River"
          }
        ],
        "pollDivisionIds": [
          10139067
        ],
        "postalCode": "P9A3P4",
        "streetName": "WILLIAMS",
        "streetDirectionId": null,
        "streetTypeId": "AVE",
        "placeName": "FORT FRANCES",
        "streetNameDisplayText": "WILLIAMS AVE, FORT FRANCES"
      }
    ]
  },
  {
    "postal": "P9A6L8",
    "result": []
  },
  {
    "postal": "P9A2R4",
    "result": [
      {
        "electoralDistricts": [
          {
            "election": null,
            "id": 44,
            "name": "Kenora—Rainy River"
          }
        ],
        "pollDivisionIds": [
          10139066
        ],
        "postalCode": "P9A2R4",
        "streetName": "WILLIAMS",
        "streetDirectionId": null,
        "streetTypeId": "AVE",
        "placeName": "FORT FRANCES",
        "streetNameDisplayText": "WILLIAMS AVE, FORT FRANCES"
      }
    ]
  },
  {
    "postal": "P9A2W1",
    "result": [
      {
        "electoralDistricts": [
          {
            "election": null,
            "id": 44,
            "name": "Kenora—Rainy River"
          }
        ],
        "pollDivisionIds": [
          10139061
        ],
        "postalCode": "P9A2W1",
        "streetName": "RIVERVIEW",
        "streetDirectionId": null,
        "streetTypeId": "DR",
        "placeName": "FORT FRANCES",
        "streetNameDisplayText": "RIVERVIEW DR, FORT FRANCES"
      }
    ]
  },
  {
    "postal": "P9A9H8",
    "result": []
  },
  {
    "postal": "P9A8X9",
    "result": []
  },
  {
    "postal": "P9A7H4",
    "result": []
  },
  {
    "postal": "P9A3J1",
    "result": [
      {
        "electoralDistricts": [
          {
            "election": null,
            "id": 44,
            "name": "Kenora—Rainy River"
          }
        ],
        "pollDivisionIds": [
          10139062
        ],
        "postalCode": "P9A3J1",
        "streetName": "WEBSTER",
        "streetDirectionId": null,
        "streetTypeId": "AVE",
        "placeName": "FORT FRANCES",
        "streetNameDisplayText": "WEBSTER AVE, FORT FRANCES"
      }
    ]
  },
  {
    "postal": "P9A1P4",
    "result": [
      {
        "electoralDistricts": [
          {
            "election": null,
            "id": 44,
            "name": "Kenora—Rainy River"
          }
        ],
        "pollDivisionIds": [
          10139066
        ],
        "postalCode": "P9A1P4",
        "streetName": "SECOND",
        "streetDirectionId": "E",
        "streetTypeId": "ST",
        "placeName": "FORT FRANCES",
        "streetNameDisplayText": "SECOND ST E, FORT FRANCES"
      }
    ]
  },
  {
    "postal": "P9A2A3",
    "result": [
      {
        "electoralDistricts": [
          {
            "election": null,
            "id": 44,
            "name": "Kenora—Rainy River"
          }
        ],
        "pollDivisionIds": [
          10139064
        ],
        "postalCode": "P9A2A3",
        "streetName": "PORTAGE",
        "streetDirectionId": null,
        "streetTypeId": "AVE",
        "placeName": "FORT FRANCES",
        "streetNameDisplayText": "PORTAGE AVE, FORT FRANCES"
      }
    ]
  },
  {
    "postal": "P9A0Z1",
    "result": []
  },
  {
    "postal": "P9A1C1",
    "result": [
      {
        "electoralDistricts": [
          {
            "election": null,
            "id": 44,
            "name": "Kenora—Rainy River"
          }
        ],
        "pollDivisionIds": [
          10139066
        ],
        "postalCode": "P9A1C1",
        "streetName": "NELSON",
        "streetDirectionId": null,
        "streetTypeId": "ST",
        "placeName": "FORT FRANCES",
        "streetNameDisplayText": "NELSON ST, FORT FRANCES"
      }
    ]
  },
  {
    "postal": "P9A0H3",
    "result": []
  },
  {
    "postal": "P9A7B0",
    "result": []
  },
  {
    "postal": "P9A5K2",
    "result": []
  },
  {
    "postal": "P9A1E9",
    "result": [
      {
        "electoralDistricts": [
          {
            "election": null,
            "id": 44,
            "name": "Kenora—Rainy River"
          }
        ],
        "pollDivisionIds": [
          10139066
        ],
        "postalCode": "P9A1E9",
        "streetName": "CHURCH",
        "streetDirectionId": null,
        "streetTypeId": "ST",
        "placeName": "FORT FRANCES",
        "streetNameDisplayText": "CHURCH ST, FORT FRANCES"
      }
    ]
  },
  {
    "postal": "P9A9W7",
    "result": []
  },
  {
    "postal": "P9A5W6",
    "result": []
  },
  {
    "postal": "P9A6S6",
    "result": []
  },
  {
    "postal": "P9A2P8",
    "result": [
      {
        "electoralDistricts": [
          {
            "election": null,
            "id": 44,
            "name": "Kenora—Rainy River"
          }
        ],
        "pollDivisionIds": [
          10139066
        ],
        "postalCode": "P9A2P8",
        "streetName": "MINNIE",
        "streetDirectionId": null,
        "streetTypeId": "AVE",
        "placeName": "FORT FRANCES",
        "streetNameDisplayText": "MINNIE AVE, FORT FRANCES"
      }
    ]
  },
  {
    "postal": "P9A4P8",
    "result": []
  },
  {
    "postal": "P9A0V9",
    "result": []
  },
  {
    "postal": "P9A5Y2",
    "result": []
  },
  {
    "postal": "P9A7Z7",
    "result": []
  },
  {
    "postal": "P9A6Y8",
    "result": []
  },
  {
    "postal": "P9A2G7",
    "result": [
      {
        "electoralDistricts": [
          {
            "election": null,
            "id": 44,
            "name": "Kenora—Rainy River"
          }
        ],
        "pollDivisionIds": [
          10139064
        ],
        "postalCode": "P9A2G7",
        "streetName": "CHRISTIE",
        "streetDirectionId": "N",
        "streetTypeId": "AVE",
        "placeName": "FORT FRANCES",
        "streetNameDisplayText": "CHRISTIE AVE N, FORT FRANCES"
      }
    ]
  },
  {
    "postal": "P9A8C1",
    "result": []
  },
  {
    "postal": "P9A5C5",
    "result": []
  },
  {
    "postal": "P9A2X8",
    "result": [
      {
        "electoralDistricts": [
          {
            "election": null,
            "id": 44,
            "name": "Kenora—Rainy River"
          }
        ],
        "pollDivisionIds": [
          10139059
        ],
        "postalCode": "P9A2X8",
        "streetName": "KING'S",
        "streetDirectionId": null,
        "streetTypeId": "HWY",
        "placeName": "FORT FRANCES",
        "streetNameDisplayText": "KING'S HWY, FORT FRANCES"
      }
    ]
  },
  {
    "postal": "P9A1W5",
    "result": [
      {
        "electoralDistricts": [
          {
            "election": null,
            "id": 44,
            "name": "Kenora—Rainy River"
          }
        ],
        "pollDivisionIds": [
          10139064
        ],
        "postalCode": "P9A1W5",
        "streetName": "SIXTH",
        "streetDirectionId": "E",
        "streetTypeId": "ST",
        "placeName": "FORT FRANCES",
        "streetNameDisplayText": "SIXTH ST E, FORT FRANCES"
      }
    ]
  },
  {
    "postal": "P9A7G0",
    "result": []
  },
  {
    "postal": "P9A8J8",
    "result": []
  },
  {
    "postal": "P9A3Y0",
    "result": []
  },
  {
    "postal": "P9A9T7",
    "result": []
  },
  {
    "postal": "P9A5P4",
    "result": []
  },
  {
    "postal": "P9A4B0",
    "result": []
  },
  {
    "postal": "P9A9N8",
    "result": []
  },
  {
    "postal": "P9A4A7",
    "result": []
  },
  {
    "postal": "P9A4H9",
    "result": []
  },
  {
    "postal": "P9A6X1",
    "result": []
  },
  {
    "postal": "P9A9Y7",
    "result": []
  },
  {
    "postal": "P9A2Y5",
    "result": [
      {
        "electoralDistricts": [
          {
            "election": null,
            "id": 44,
            "name": "Kenora—Rainy River"
          }
        ],
        "pollDivisionIds": [
          10139062
        ],
        "postalCode": "P9A2Y5",
        "streetName": "FIRST",
        "streetDirectionId": "W",
        "streetTypeId": "ST",
        "placeName": "FORT FRANCES",
        "streetNameDisplayText": "FIRST ST W, FORT FRANCES"
      }
    ]
  },
  {
    "postal": "P9A8L7",
    "result": []
  },
  {
    "postal": "P9A2A8",
    "result": [
      {
        "electoralDistricts": [
          {
            "election": null,
            "id": 44,
            "name": "Kenora—Rainy River"
          }
        ],
        "pollDivisionIds": [
          10139064
        ],
        "postalCode": "P9A2A8",
        "streetName": "PORTAGE",
        "streetDirectionId": "N",
        "streetTypeId": "AVE",
        "placeName": "FORT FRANCES",
        "streetNameDisplayText": "PORTAGE AVE N, FORT FRANCES"
      }
    ]
  },
  {
    "postal": "P9A2K9",
    "result": [
      {
        "electoralDistricts": [
          {
            "election": null,
            "id": 44,
            "name": "Kenora—Rainy River"
          }
        ],
        "pollDivisionIds": [
          10139063
        ],
        "postalCode": "P9A2K9",
        "streetName": "CROWE",
        "streetDirectionId": null,
        "streetTypeId": "AVE",
        "placeName": "FORT FRANCES",
        "streetNameDisplayText": "CROWE AVE, FORT FRANCES"
      }
    ]
  },
  {
    "postal": "P9A3E5",
    "result": [
      {
        "electoralDistricts": [
          {
            "election": null,
            "id": 44,
            "name": "Kenora—Rainy River"
          }
        ],
        "pollDivisionIds": [
          10139060
        ],
        "postalCode": "P9A3E5",
        "streetName": "SIXTH",
        "streetDirectionId": "W",
        "streetTypeId": "ST",
        "placeName": "FORT FRANCES",
        "streetNameDisplayText": "SIXTH ST W, FORT FRANCES"
      }
    ]
  },
  {
    "postal": "P9A8N6",
    "result": []
  },
  {
    "postal": "P9A8J4",
    "result": []
  },
  {
    "postal": "P9A4R7",
    "result": []
  },
  {
    "postal": "P9A9K1",
    "result": []
  },
  {
    "postal": "P9A8E1",
    "result": []
  },
  {
    "postal": "P9A0R1",
    "result": []
  },
  {
    "postal": "P9A4J3",
    "result": []
  },
  {
    "postal": "P9A7E7",
    "result": []
  },
  {
    "postal": "P9A0J0",
    "result": []
  },
  {
    "postal": "P9A7R8",
    "result": []
  },
  {
    "postal": "P9A9X0",
    "result": []
  },
  {
    "postal": "P9A7P6",
    "result": []
  },
  {
    "postal": "P9A0R7",
    "result": []
  },
  {
    "postal": "P9A5W1",
    "result": []
  },
  {
    "postal": "P9A0K4",
    "result": []
  },
  {
    "postal": "P9A7N9",
    "result": []
  },
  {
    "postal": "P9A1N0",
    "result": []
  },
  {
    "postal": "P9A6P3",
    "result": []
  },
  {
    "postal": "P9A5A1",
    "result": []
  },
  {
    "postal": "P9A9M9",
    "result": []
  },
  {
    "postal": "P9A7T6",
    "result": []
  },
  {
    "postal": "P9A3X0",
    "result": []
  },
  {
    "postal": "P9A2T0",
    "result": []
  },
  {
    "postal": "P9A5X9",
    "result": []
  },
  {
    "postal": "P9A2R3",
    "result": [
      {
        "electoralDistricts": [
          {
            "election": null,
            "id": 44,
            "name": "Kenora—Rainy River"
          }
        ],
        "pollDivisionIds": [
          10139066
        ],
        "postalCode": "P9A2R3",
        "streetName": "WILLIAMS",
        "streetDirectionId": null,
        "streetTypeId": "AVE",
        "placeName": "FORT FRANCES",
        "streetNameDisplayText": "WILLIAMS AVE, FORT FRANCES"
      }
    ]
  },
  {
    "postal": "P9A5N2",
    "result": []
  },
  {
    "postal": "P9A4Y7",
    "result": []
  },
  {
    "postal": "P9A7M0",
    "result": []
  },
  {
    "postal": "P9A8P3",
    "result": []
  },
  {
    "postal": "P9A3N3",
    "result": [
      {
        "electoralDistricts": [
          {
            "election": null,
            "id": 44,
            "name": "Kenora—Rainy River"
          }
        ],
        "pollDivisionIds": [
          10139058
        ],
        "postalCode": "P9A3N3",
        "streetName": "MCIRVINE",
        "streetDirectionId": null,
        "streetTypeId": "RD",
        "placeName": "FORT FRANCES",
        "streetNameDisplayText": "MCIRVINE RD, FORT FRANCES"
      }
    ]
  },
  {
    "postal": "P9A7S3",
    "result": []
  },
  {
    "postal": "P9A3V9",
    "result": [
      {
        "electoralDistricts": [
          {
            "election": null,
            "id": 44,
            "name": "Kenora—Rainy River"
          }
        ],
        "pollDivisionIds": [
          10139059
        ],
        "postalCode": "P9A3V9",
        "streetName": "KIRSTI",
        "streetDirectionId": null,
        "streetTypeId": "PL",
        "placeName": "FORT FRANCES",
        "streetNameDisplayText": "KIRSTI PL, FORT FRANCES"
      }
    ]
  },
  {
    "postal": "P9A9N7",
    "result": []
  },
  {
    "postal": "P9A0G4",
    "result": []
  },
  {
    "postal": "P9A2E2",
    "result": [
      {
        "electoralDistricts": [
          {
            "election": null,
            "id": 44,
            "name": "Kenora—Rainy River"
          }
        ],
        "pollDivisionIds": [
          10139064
        ],
        "postalCode": "P9A2E2",
        "streetName": "VICTORIA",
        "streetDirectionId": null,
        "streetTypeId": "AVE",
        "placeName": "FORT FRANCES",
        "streetNameDisplayText": "VICTORIA AVE, FORT FRANCES"
      }
    ]
  },
  {
    "postal": "P9A7W8",
    "result": []
  },
  {
    "postal": "P9A7M5",
    "result": []
  },
  {
    "postal": "P9A5W8",
    "result": []
  },
  {
    "postal": "P9A5E5",
    "result": []
  },
  {
    "postal": "P9A1P9",
    "result": [
      {
        "electoralDistricts": [
          {
            "election": null,
            "id": 44,
            "name": "Kenora—Rainy River"
          }
        ],
        "pollDivisionIds": [
          10139064
        ],
        "postalCode": "P9A1P9",
        "streetName": "THIRD",
        "streetDirectionId": "E",
        "streetTypeId": "ST",
        "placeName": "FORT FRANCES",
        "streetNameDisplayText": "THIRD ST E, FORT FRANCES"
      }
    ]
  },
  {
    "postal": "P9A8V8",
    "result": []
  },
  {
    "postal": "P9A9G8",
    "result": []
  },
  {
    "postal": "P9A8H9",
    "result": []
  },
  {
    "postal": "P9A1Z1",
    "result": [
      {
        "electoralDistricts": [
          {
            "election": null,
            "id": 44,
            "name": "Kenora—Rainy River"
          }
        ],
        "pollDivisionIds": [
          10139063
        ],
        "postalCode": "P9A1Z1",
        "streetName": "MOWAT",
        "streetDirectionId": null,
        "streetTypeId": "AVE",
        "placeName": "FORT FRANCES",
        "streetNameDisplayText": "MOWAT AVE, FORT FRANCES"
      }
    ]
  },
  {
    "postal": "P9A8M3",
    "result": []
  },
  {
    "postal": "P9A5H6",
    "result": []
  },
  {
    "postal": "P9A7W7",
    "result": []
  },
  {
    "postal": "P9A4L0",
    "result": []
  },
  {
    "postal": "P9A2N1",
    "result": [
      {
        "electoralDistricts": [
          {
            "election": null,
            "id": 44,
            "name": "Kenora—Rainy River"
          }
        ],
        "pollDivisionIds": [
          10139066
        ],
        "postalCode": "P9A2N1",
        "streetName": "MOSHER",
        "streetDirectionId": null,
        "streetTypeId": "AVE",
        "placeName": "FORT FRANCES",
        "streetNameDisplayText": "MOSHER AVE, FORT FRANCES"
      }
    ]
  },
  {
    "postal": "P9A2H4",
    "result": [
      {
        "electoralDistricts": [
          {
            "election": null,
            "id": 44,
            "name": "Kenora—Rainy River"
          }
        ],
        "pollDivisionIds": [
          10139063
        ],
        "postalCode": "P9A2H4",
        "streetName": "ARMIT",
        "streetDirectionId": null,
        "streetTypeId": "AVE",
        "placeName": "FORT FRANCES",
        "streetNameDisplayText": "ARMIT AVE, FORT FRANCES"
      }
    ]
  },
  {
    "postal": "P9A5C8",
    "result": []
  },
  {
    "postal": "P9A8B0",
    "result": []
  },
  {
    "postal": "P9A1T4",
    "result": [
      {
        "electoralDistricts": [
          {
            "election": null,
            "id": 44,
            "name": "Kenora—Rainy River"
          }
        ],
        "pollDivisionIds": [
          10139058,
          10139066
        ],
        "postalCode": "P9A1T4",
        "streetName": "FOURTH",
        "streetDirectionId": "E",
        "streetTypeId": "ST",
        "placeName": "FORT FRANCES",
        "streetNameDisplayText": "FOURTH ST E, FORT FRANCES"
      }
    ]
  },
  {
    "postal": "P9A7N7",
    "result": []
  },
  {
    "postal": "P9A4L3",
    "result": []
  },
  {
    "postal": "P9A2N2",
    "result": [
      {
        "electoralDistricts": [
          {
            "election": null,
            "id": 44,
            "name": "Kenora—Rainy River"
          }
        ],
        "pollDivisionIds": [
          10139066
        ],
        "postalCode": "P9A2N2",
        "streetName": "MOSHER",
        "streetDirectionId": null,
        "streetTypeId": "AVE",
        "placeName": "FORT FRANCES",
        "streetNameDisplayText": "MOSHER AVE, FORT FRANCES"
      }
    ]
  },
  {
    "postal": "P9A4N8",
    "result": []
  },
  {
    "postal": "P9A3M5",
    "result": [
      {
        "electoralDistricts": [
          {
            "election": null,
            "id": 44,
            "name": "Kenora—Rainy River"
          }
        ],
        "pollDivisionIds": [
          10139056
        ],
        "postalCode": "P9A3M5",
        "streetName": "11",
        "streetDirectionId": null,
        "streetTypeId": "HWY",
        "placeName": "FORT FRANCES",
        "streetNameDisplayText": "11 HWY, FORT FRANCES"
      },
      {
        "electoralDistricts": [
          {
            "election": null,
            "id": 44,
            "name": "Kenora—Rainy River"
          }
        ],
        "pollDivisionIds": [
          10139056
        ],
        "postalCode": "P9A3M5",
        "streetName": "11/71",
        "streetDirectionId": null,
        "streetTypeId": "HWY",
        "placeName": "FORT FRANCES",
        "streetNameDisplayText": "11/71 HWY, FORT FRANCES"
      },
      {
        "electoralDistricts": [
          {
            "election": null,
            "id": 44,
            "name": "Kenora—Rainy River"
          }
        ],
        "pollDivisionIds": [
          10139047
        ],
        "postalCode": "P9A3M5",
        "streetName": "502",
        "streetDirectionId": null,
        "streetTypeId": "HWY",
        "placeName": "EMO",
        "streetNameDisplayText": "502 HWY, EMO"
      },
      {
        "electoralDistricts": [
          {
            "election": null,
            "id": 44,
            "name": "Kenora—Rainy River"
          }
        ],
        "pollDivisionIds": [
          10143953
        ],
        "postalCode": "P9A3M5",
        "streetName": "BAYVIEW",
        "streetDirectionId": null,
        "streetTypeId": "AVE",
        "placeName": "FORT FRANCES",
        "streetNameDisplayText": "BAYVIEW AVE, FORT FRANCES"
      },
      {
        "electoralDistricts": [
          {
            "election": null,
            "id": 44,
            "name": "Kenora—Rainy River"
          }
        ],
        "pollDivisionIds": [
          10143953
        ],
        "postalCode": "P9A3M5",
        "streetName": "BAYVIEW",
        "streetDirectionId": null,
        "streetTypeId": "DR",
        "placeName": "RAINY LAKE 26A",
        "streetNameDisplayText": "BAYVIEW DR, RAINY LAKE 26A"
      },
      {
        "electoralDistricts": [
          {
            "election": null,
            "id": 44,
            "name": "Kenora—Rainy River"
          }
        ],
        "pollDivisionIds": [
          10143951
        ],
        "postalCode": "P9A3M5",
        "streetName": "RED GOT",
        "streetDirectionId": null,
        "streetTypeId": "BAY",
        "placeName": "FORT FRANCES",
        "streetNameDisplayText": "RED GOT BAY, FORT FRANCES"
      },
      {
        "electoralDistricts": [
          {
            "election": null,
            "id": 44,
            "name": "Kenora—Rainy River"
          }
        ],
        "pollDivisionIds": [
          10143953
        ],
        "postalCode": "P9A3M5",
        "streetName": "U",
        "streetDirectionId": null,
        "streetTypeId": "DR",
        "placeName": "FORT FRANCES",
        "streetNameDisplayText": "U DR, FORT FRANCES"
      }
    ]
  },
  {
    "postal": "P9A6H7",
    "result": []
  },
  {
    "postal": "P9A8Y8",
    "result": []
  },
  {
    "postal": "P9A5R9",
    "result": []
  },
  {
    "postal": "P9A8G3",
    "result": []
  },
  {
    "postal": "P9A4N7",
    "result": []
  },
  {
    "postal": "P9A0B9",
    "result": []
  },
  {
    "postal": "P9A9K7",
    "result": []
  },
  {
    "postal": "P9A9K9",
    "result": []
  },
  {
    "postal": "P9A3Z2",
    "result": []
  },
  {
    "postal": "P9A6W7",
    "result": []
  },
  {
    "postal": "P9A0P1",
    "result": []
  },
  {
    "postal": "P9A3A0",
    "result": []
  },
  {
    "postal": "P9A8L9",
    "result": []
  },
  {
    "postal": "P9A6X0",
    "result": []
  },
  {
    "postal": "P9A3E9",
    "result": [
      {
        "electoralDistricts": [
          {
            "election": null,
            "id": 44,
            "name": "Kenora—Rainy River"
          }
        ],
        "pollDivisionIds": [
          10139060
        ],
        "postalCode": "P9A3E9",
        "streetName": "SIXTH",
        "streetDirectionId": "W",
        "streetTypeId": "ST",
        "placeName": "FORT FRANCES",
        "streetNameDisplayText": "SIXTH ST W, FORT FRANCES"
      }
    ]
  },
  {
    "postal": "P9A0S5",
    "result": []
  },
  {
    "postal": "P9A1A2",
    "result": [
      {
        "electoralDistricts": [
          {
            "election": null,
            "id": 44,
            "name": "Kenora—Rainy River"
          }
        ],
        "pollDivisionIds": [
          10139063
        ],
        "postalCode": "P9A1A2",
        "streetName": "FRONT",
        "streetDirectionId": "E",
        "streetTypeId": "ST",
        "placeName": "FORT FRANCES",
        "streetNameDisplayText": "FRONT ST E, FORT FRANCES"
      },
      {
        "electoralDistricts": [
          {
            "election": null,
            "id": 44,
            "name": "Kenora—Rainy River"
          }
        ],
        "pollDivisionIds": [
          10139063
        ],
        "postalCode": "P9A1A2",
        "streetName": "FRONT",
        "streetDirectionId": null,
        "streetTypeId": "ST",
        "placeName": "FORT FRANCES",
        "streetNameDisplayText": "FRONT ST, FORT FRANCES"
      }
    ]
  },
  {
    "postal": "P9A5V8",
    "result": []
  },
  {
    "postal": "P9A8C5",
    "result": []
  },
  {
    "postal": "P9A6N0",
    "result": []
  },
  {
    "postal": "P9A9E6",
    "result": []
  },
  {
    "postal": "P9A5J7",
    "result": []
  },
  {
    "postal": "P9A2R2",
    "result": [
      {
        "electoralDistricts": [
          {
            "election": null,
            "id": 44,
            "name": "Kenora—Rainy River"
          }
        ],
        "pollDivisionIds": [
          10139064,
          10139067
        ],
        "postalCode": "P9A2R2",
        "streetName": "MINNIE",
        "streetDirectionId": null,
        "streetTypeId": "AVE",
        "placeName": "FORT FRANCES",
        "streetNameDisplayText": "MINNIE AVE, FORT FRANCES"
      }
    ]
  },
  {
    "postal": "P9A0P5",
    "result": []
  },
  {
    "postal": "P9A5A7",
    "result": []
  },
  {
    "postal": "P9A1G1",
    "result": [
      {
        "electoralDistricts": [
          {
            "election": null,
            "id": 44,
            "name": "Kenora—Rainy River"
          }
        ],
        "pollDivisionIds": [
          10139066
        ],
        "postalCode": "P9A1G1",
        "streetName": "CHURCH",
        "streetDirectionId": null,
        "streetTypeId": "ST",
        "placeName": "FORT FRANCES",
        "streetNameDisplayText": "CHURCH ST, FORT FRANCES"
      }
    ]
  },
  {
    "postal": "P9A9R6",
    "result": []
  },
  {
    "postal": "P9A4Z9",
    "result": []
  },
  {
    "postal": "P9A1V5",
    "result": [
      {
        "electoralDistricts": [
          {
            "election": null,
            "id": 44,
            "name": "Kenora—Rainy River"
          }
        ],
        "pollDivisionIds": [
          10139067
        ],
        "postalCode": "P9A1V5",
        "streetName": "FIFTH",
        "streetDirectionId": "E",
        "streetTypeId": "ST",
        "placeName": "FORT FRANCES",
        "streetNameDisplayText": "FIFTH ST E, FORT FRANCES"
      }
    ]
  },
  {
    "postal": "P9A9Y5",
    "result": []
  },
  {
    "postal": "P9A1P2",
    "result": [
      {
        "electoralDistricts": [
          {
            "election": null,
            "id": 44,
            "name": "Kenora—Rainy River"
          }
        ],
        "pollDivisionIds": [
          10139066
        ],
        "postalCode": "P9A1P2",
        "streetName": "SECOND",
        "streetDirectionId": "E",
        "streetTypeId": "ST",
        "placeName": "FORT FRANCES",
        "streetNameDisplayText": "SECOND ST E, FORT FRANCES"
      }
    ]
  },
  {
    "postal": "P9A5X0",
    "result": []
  },
  {
    "postal": "P9A7B8",
    "result": []
  },
  {
    "postal": "P9A0C6",
    "result": []
  },
  {
    "postal": "P9A6G1",
    "result": []
  },
  {
    "postal": "P9A3K3",
    "result": [
      {
        "electoralDistricts": [
          {
            "election": null,
            "id": 44,
            "name": "Kenora—Rainy River"
          }
        ],
        "pollDivisionIds": [
          10139061
        ],
        "postalCode": "P9A3K3",
        "streetName": "HOLMES",
        "streetDirectionId": null,
        "streetTypeId": "AVE",
        "placeName": "FORT FRANCES",
        "streetNameDisplayText": "HOLMES AVE, FORT FRANCES"
      }
    ]
  },
  {
    "postal": "P9A9R0",
    "result": []
  },
  {
    "postal": "P9A4R8",
    "result": []
  },
  {
    "postal": "P9A5P9",
    "result": []
  },
  {
    "postal": "P9A8N4",
    "result": []
  },
  {
    "postal": "P9A8H4",
    "result": []
  },
  {
    "postal": "P9A4V1",
    "result": []
  },
  {
    "postal": "P9A1K5",
    "result": [
      {
        "electoralDistricts": [
          {
            "election": null,
            "id": 44,
            "name": "Kenora—Rainy River"
          }
        ],
        "pollDivisionIds": [
          10139063
        ],
        "postalCode": "P9A1K5",
        "streetName": "FIRST",
        "streetDirectionId": "E",
        "streetTypeId": "ST",
        "placeName": "FORT FRANCES",
        "streetNameDisplayText": "FIRST ST E, FORT FRANCES"
      }
    ]
  },
  {
    "postal": "P9A1Z5",
    "result": []
  },
  {
    "postal": "P9A9L9",
    "result": []
  },
  {
    "postal": "P9A5L2",
    "result": []
  },
  {
    "postal": "P9A0M2",
    "result": []
  },
  {
    "postal": "P9A1K8",
    "result": [
      {
        "electoralDistricts": [
          {
            "election": null,
            "id": 44,
            "name": "Kenora—Rainy River"
          }
        ],
        "pollDivisionIds": [
          10139064
        ],
        "postalCode": "P9A1K8",
        "streetName": "FIRST",
        "streetDirectionId": "E",
        "streetTypeId": "ST",
        "placeName": "FORT FRANCES",
        "streetNameDisplayText": "FIRST ST E, FORT FRANCES"
      }
    ]
  },
  {
    "postal": "P9A3M7",
    "result": [
      {
        "electoralDistricts": [
          {
            "election": null,
            "id": 44,
            "name": "Kenora—Rainy River"
          }
        ],
        "pollDivisionIds": [
          10139056
        ],
        "postalCode": "P9A3M7",
        "streetName": "11",
        "streetDirectionId": null,
        "streetTypeId": "HWY",
        "placeName": "FORT FRANCES",
        "streetNameDisplayText": "11 HWY, FORT FRANCES"
      },
      {
        "electoralDistricts": [
          {
            "election": null,
            "id": 44,
            "name": "Kenora—Rainy River"
          }
        ],
        "pollDivisionIds": [
          10139057
        ],
        "postalCode": "P9A3M7",
        "streetName": "COUCHICHING",
        "streetDirectionId": null,
        "streetTypeId": "DR",
        "placeName": "FORT FRANCES",
        "streetNameDisplayText": "COUCHICHING DR, FORT FRANCES"
      },
      {
        "electoralDistricts": [
          {
            "election": null,
            "id": 44,
            "name": "Kenora—Rainy River"
          }
        ],
        "pollDivisionIds": [
          10139056
        ],
        "postalCode": "P9A3M7",
        "streetName": "FROG CREEK",
        "streetDirectionId": null,
        "streetTypeId": "RD",
        "placeName": "FORT FRANCES",
        "streetNameDisplayText": "FROG CREEK RD, FORT FRANCES"
      },
      {
        "electoralDistricts": [
          {
            "election": null,
            "id": 44,
            "name": "Kenora—Rainy River"
          }
        ],
        "pollDivisionIds": [
          10139059
        ],
        "postalCode": "P9A3M7",
        "streetName": "PIT 1",
        "streetDirectionId": null,
        "streetTypeId": "RD",
        "placeName": "FORT FRANCES",
        "streetNameDisplayText": "PIT 1 RD, FORT FRANCES"
      },
      {
        "electoralDistricts": [
          {
            "election": null,
            "id": 44,
            "name": "Kenora—Rainy River"
          }
        ],
        "pollDivisionIds": [
          10139058
        ],
        "postalCode": "P9A3M7",
        "streetName": "RIVER",
        "streetDirectionId": "W",
        "streetTypeId": "RD",
        "placeName": "FORT FRANCES",
        "streetNameDisplayText": "RIVER RD W, FORT FRANCES"
      },
      {
        "electoralDistricts": [
          {
            "election": null,
            "id": 44,
            "name": "Kenora—Rainy River"
          }
        ],
        "pollDivisionIds": [
          10143953
        ],
        "postalCode": "P9A3M7",
        "streetName": "U",
        "streetDirectionId": null,
        "streetTypeId": "DR",
        "placeName": "FORT FRANCES",
        "streetNameDisplayText": "U DR, FORT FRANCES"
      },
      {
        "electoralDistricts": [
          {
            "election": null,
            "id": 44,
            "name": "Kenora—Rainy River"
          }
        ],
        "pollDivisionIds": [
          10143953
        ],
        "postalCode": "P9A3M7",
        "streetName": "U",
        "streetDirectionId": null,
        "streetTypeId": "DR",
        "placeName": "RAINY LAKE 26A",
        "streetNameDisplayText": "U DR, RAINY LAKE 26A"
      }
    ]
  },
  {
    "postal": "P9A1B2",
    "result": [
      {
        "electoralDistricts": [
          {
            "election": null,
            "id": 44,
            "name": "Kenora—Rainy River"
          }
        ],
        "pollDivisionIds": [
          10139063
        ],
        "postalCode": "P9A1B2",
        "streetName": "NELSON",
        "streetDirectionId": null,
        "streetTypeId": "ST",
        "placeName": "FORT FRANCES",
        "streetNameDisplayText": "NELSON ST, FORT FRANCES"
      }
    ]
  },
  {
    "postal": "P9A0H9",
    "result": []
  },
  {
    "postal": "P9A8M4",
    "result": []
  },
  {
    "postal": "P9A2M5",
    "result": [
      {
        "electoralDistricts": [
          {
            "election": null,
            "id": 44,
            "name": "Kenora—Rainy River"
          }
        ],
        "pollDivisionIds": [
          10139066
        ],
        "postalCode": "P9A2M5",
        "streetName": "PHAIR",
        "streetDirectionId": null,
        "streetTypeId": "AVE",
        "placeName": "FORT FRANCES",
        "streetNameDisplayText": "PHAIR AVE, FORT FRANCES"
      }
    ]
  },
  {
    "postal": "P9A0T9",
    "result": []
  },
  {
    "postal": "P9A3P1",
    "result": [
      {
        "electoralDistricts": [
          {
            "election": null,
            "id": 44,
            "name": "Kenora—Rainy River"
          }
        ],
        "pollDivisionIds": [
          10139065
        ],
        "postalCode": "P9A3P1",
        "streetName": "RUSSELL",
        "streetDirectionId": null,
        "streetTypeId": "BAY",
        "placeName": "FORT FRANCES",
        "streetNameDisplayText": "RUSSELL BAY, FORT FRANCES"
      }
    ]
  },
  {
    "postal": "P9A1R6",
    "result": [
      {
        "electoralDistricts": [
          {
            "election": null,
            "id": 44,
            "name": "Kenora—Rainy River"
          }
        ],
        "pollDivisionIds": [
          10139066
        ],
        "postalCode": "P9A1R6",
        "streetName": "THIRD",
        "streetDirectionId": "E",
        "streetTypeId": "ST",
        "placeName": "FORT FRANCES",
        "streetNameDisplayText": "THIRD ST E, FORT FRANCES"
      }
    ]
  },
  {
    "postal": "P9A9V5",
    "result": []
  },
  {
    "postal": "P9A9T0",
    "result": []
  },
  {
    "postal": "P9A0A9",
    "result": []
  },
  {
    "postal": "P9A1M3",
    "result": [
      {
        "electoralDistricts": [
          {
            "election": null,
            "id": 44,
            "name": "Kenora—Rainy River"
          }
        ],
        "pollDivisionIds": [
          10139066
        ],
        "postalCode": "P9A1M3",
        "streetName": "FIRST",
        "streetDirectionId": "E",
        "streetTypeId": "ST",
        "placeName": "FORT FRANCES",
        "streetNameDisplayText": "FIRST ST E, FORT FRANCES"
      }
    ]
  },
  {
    "postal": "P9A1W8",
    "result": [
      {
        "electoralDistricts": [
          {
            "election": null,
            "id": 44,
            "name": "Kenora—Rainy River"
          }
        ],
        "pollDivisionIds": [
          10139064
        ],
        "postalCode": "P9A1W8",
        "streetName": "6TH",
        "streetDirectionId": "E",
        "streetTypeId": "ST",
        "placeName": "FORT FRANCES",
        "streetNameDisplayText": "6TH ST E, FORT FRANCES"
      }
    ]
  },
  {
    "postal": "P9A9J1",
    "result": []
  },
  {
    "postal": "P9A8N5",
    "result": []
  },
  {
    "postal": "P9A5X1",
    "result": []
  },
  {
    "postal": "P9A6S2",
    "result": []
  },
  {
    "postal": "P9A2A2",
    "result": [
      {
        "electoralDistricts": [
          {
            "election": null,
            "id": 44,
            "name": "Kenora—Rainy River"
          }
        ],
        "pollDivisionIds": [
          10139063
        ],
        "postalCode": "P9A2A2",
        "streetName": "PORTAGE",
        "streetDirectionId": null,
        "streetTypeId": "AVE",
        "placeName": "FORT FRANCES",
        "streetNameDisplayText": "PORTAGE AVE, FORT FRANCES"
      }
    ]
  },
  {
    "postal": "P9A6A6",
    "result": []
  },
  {
    "postal": "P9A0S3",
    "result": []
  },
  {
    "postal": "P9A3E7",
    "result": [
      {
        "electoralDistricts": [
          {
            "election": null,
            "id": 44,
            "name": "Kenora—Rainy River"
          }
        ],
        "pollDivisionIds": [
          10139060
        ],
        "postalCode": "P9A3E7",
        "streetName": "SIXTH",
        "streetDirectionId": "W",
        "streetTypeId": "ST",
        "placeName": "FORT FRANCES",
        "streetNameDisplayText": "SIXTH ST W, FORT FRANCES"
      }
    ]
  },
  {
    "postal": "P9A5R7",
    "result": []
  },
  {
    "postal": "P9A3R6",
    "result": [
      {
        "electoralDistricts": [
          {
            "election": null,
            "id": 44,
            "name": "Kenora—Rainy River"
          }
        ],
        "pollDivisionIds": [
          10139067
        ],
        "postalCode": "P9A3R6",
        "streetName": "SHEVLIN",
        "streetDirectionId": null,
        "streetTypeId": "AVE",
        "placeName": "FORT FRANCES",
        "streetNameDisplayText": "SHEVLIN AVE, FORT FRANCES"
      }
    ]
  },
  {
    "postal": "P9A6K4",
    "result": []
  },
  {
    "postal": "P9A2W5",
    "result": [
      {
        "electoralDistricts": [
          {
            "election": null,
            "id": 44,
            "name": "Kenora—Rainy River"
          }
        ],
        "pollDivisionIds": [
          10139061
        ],
        "postalCode": "P9A2W5",
        "streetName": "THOMPSON",
        "streetDirectionId": null,
        "streetTypeId": "ST",
        "placeName": "FORT FRANCES",
        "streetNameDisplayText": "THOMPSON ST, FORT FRANCES"
      }
    ]
  },
  {
    "postal": "P9A8W4",
    "result": []
  },
  {
    "postal": "P9A9C2",
    "result": []
  },
  {
    "postal": "P9A2C0",
    "result": []
  },
  {
    "postal": "P9A0E1",
    "result": []
  },
  {
    "postal": "P9A1K9",
    "result": [
      {
        "electoralDistricts": [
          {
            "election": null,
            "id": 44,
            "name": "Kenora—Rainy River"
          }
        ],
        "pollDivisionIds": [
          10139064
        ],
        "postalCode": "P9A1K9",
        "streetName": "FIRST",
        "streetDirectionId": "E",
        "streetTypeId": "ST",
        "placeName": "FORT FRANCES",
        "streetNameDisplayText": "FIRST ST E, FORT FRANCES"
      }
    ]
  },
  {
    "postal": "P9A1G7",
    "result": [
      {
        "electoralDistricts": [
          {
            "election": null,
            "id": 44,
            "name": "Kenora—Rainy River"
          }
        ],
        "pollDivisionIds": [
          10139063
        ],
        "postalCode": "P9A1G7",
        "streetName": "SCOTT",
        "streetDirectionId": null,
        "streetTypeId": "ST",
        "placeName": "FORT FRANCES",
        "streetNameDisplayText": "SCOTT ST, FORT FRANCES"
      }
    ]
  },
  {
    "postal": "P9A4E9",
    "result": []
  },
  {
    "postal": "P9A9P0",
    "result": []
  },
  {
    "postal": "P9A5H3",
    "result": []
  },
  {
    "postal": "P9A9X6",
    "result": []
  },
  {
    "postal": "P9A5N7",
    "result": []
  },
  {
    "postal": "P9A5A6",
    "result": []
  },
  {
    "postal": "P9A4M0",
    "result": []
  },
  {
    "postal": "P9A3V6",
    "result": [
      {
        "electoralDistricts": [
          {
            "election": null,
            "id": 44,
            "name": "Kenora—Rainy River"
          }
        ],
        "pollDivisionIds": [
          10139060
        ],
        "postalCode": "P9A3V6",
        "streetName": "FIFTH",
        "streetDirectionId": "W",
        "streetTypeId": "ST",
        "placeName": "FORT FRANCES",
        "streetNameDisplayText": "FIFTH ST W, FORT FRANCES"
      }
    ]
  },
  {
    "postal": "P9A1L7",
    "result": [
      {
        "electoralDistricts": [
          {
            "election": null,
            "id": 44,
            "name": "Kenora—Rainy River"
          }
        ],
        "pollDivisionIds": [
          10139066
        ],
        "postalCode": "P9A1L7",
        "streetName": "FIRST",
        "streetDirectionId": "E",
        "streetTypeId": "ST",
        "placeName": "FORT FRANCES",
        "streetNameDisplayText": "FIRST ST E, FORT FRANCES"
      }
    ]
  },
  {
    "postal": "P9A2P9",
    "result": [
      {
        "electoralDistricts": [
          {
            "election": null,
            "id": 44,
            "name": "Kenora—Rainy River"
          }
        ],
        "pollDivisionIds": [
          10139066
        ],
        "postalCode": "P9A2P9",
        "streetName": "MINNIE",
        "streetDirectionId": null,
        "streetTypeId": "AVE",
        "placeName": "FORT FRANCES",
        "streetNameDisplayText": "MINNIE AVE, FORT FRANCES"
      }
    ]
  },
  {
    "postal": "P9A5T4",
    "result": []
  },
  {
    "postal": "P9A5Z1",
    "result": []
  },
  {
    "postal": "P9A2X0",
    "result": []
  },
  {
    "postal": "P9A6Z2",
    "result": []
  },
  {
    "postal": "P9A0E0",
    "result": []
  },
  {
    "postal": "P9A3Z5",
    "result": []
  },
  {
    "postal": "P9A8H3",
    "result": []
  },
  {
    "postal": "P9A7S6",
    "result": []
  },
  {
    "postal": "P9A4C1",
    "result": []
  },
  {
    "postal": "P9A3K2",
    "result": [
      {
        "electoralDistricts": [
          {
            "election": null,
            "id": 44,
            "name": "Kenora—Rainy River"
          }
        ],
        "pollDivisionIds": [
          10139061
        ],
        "postalCode": "P9A3K2",
        "streetName": "HOLMES",
        "streetDirectionId": null,
        "streetTypeId": "AVE",
        "placeName": "FORT FRANCES",
        "streetNameDisplayText": "HOLMES AVE, FORT FRANCES"
      }
    ]
  },
  {
    "postal": "P9A1Y5",
    "result": [
      {
        "electoralDistricts": [
          {
            "election": null,
            "id": 44,
            "name": "Kenora—Rainy River"
          }
        ],
        "pollDivisionIds": [
          10139064
        ],
        "postalCode": "P9A1Y5",
        "streetName": "WALKER",
        "streetDirectionId": null,
        "streetTypeId": "AVE",
        "placeName": "FORT FRANCES",
        "streetNameDisplayText": "WALKER AVE, FORT FRANCES"
      }
    ]
  },
  {
    "postal": "P9A6P6",
    "result": []
  },
  {
    "postal": "P9A3N9",
    "result": [
      {
        "electoralDistricts": [
          {
            "election": null,
            "id": 44,
            "name": "Kenora—Rainy River"
          }
        ],
        "pollDivisionIds": [
          10139065
        ],
        "postalCode": "P9A3N9",
        "streetName": "RUSSELL",
        "streetDirectionId": null,
        "streetTypeId": "BAY",
        "placeName": "FORT FRANCES",
        "streetNameDisplayText": "RUSSELL BAY, FORT FRANCES"
      }
    ]
  },
  {
    "postal": "P9A3W2",
    "result": [
      {
        "electoralDistricts": [
          {
            "election": null,
            "id": 44,
            "name": "Kenora—Rainy River"
          }
        ],
        "pollDivisionIds": [
          10139064
        ],
        "postalCode": "P9A3W2",
        "streetName": "PORTAGE",
        "streetDirectionId": "N",
        "streetTypeId": "AVE",
        "placeName": "FORT FRANCES",
        "streetNameDisplayText": "PORTAGE AVE N, FORT FRANCES"
      }
    ]
  },
  {
    "postal": "P9A6H8",
    "result": []
  },
  {
    "postal": "P9A9T3",
    "result": []
  },
  {
    "postal": "P9A5L9",
    "result": []
  },
  {
    "postal": "P9A7X7",
    "result": []
  },
  {
    "postal": "P9A3J5",
    "result": [
      {
        "electoralDistricts": [
          {
            "election": null,
            "id": 44,
            "name": "Kenora—Rainy River"
          }
        ],
        "pollDivisionIds": [
          10139062
        ],
        "postalCode": "P9A3J5",
        "streetName": "WRIGHT",
        "streetDirectionId": null,
        "streetTypeId": "AVE",
        "placeName": "FORT FRANCES",
        "streetNameDisplayText": "WRIGHT AVE, FORT FRANCES"
      }
    ]
  },
  {
    "postal": "P9A4J5",
    "result": []
  },
  {
    "postal": "P9A6J2",
    "result": []
  },
  {
    "postal": "P9A5V6",
    "result": []
  },
  {
    "postal": "P9A3N2",
    "result": [
      {
        "electoralDistricts": [
          {
            "election": null,
            "id": 44,
            "name": "Kenora—Rainy River"
          }
        ],
        "pollDivisionIds": [
          10139056,
          10139058
        ],
        "postalCode": "P9A3N2",
        "streetName": "OAKWOOD",
        "streetDirectionId": null,
        "streetTypeId": "RD",
        "placeName": "FORT FRANCES",
        "streetNameDisplayText": "OAKWOOD RD, FORT FRANCES"
      }
    ]
  },
  {
    "postal": "P9A3B1",
    "result": [
      {
        "electoralDistricts": [
          {
            "election": null,
            "id": 44,
            "name": "Kenora—Rainy River"
          }
        ],
        "pollDivisionIds": [
          10139062
        ],
        "postalCode": "P9A3B1",
        "streetName": "THIRD",
        "streetDirectionId": "W",
        "streetTypeId": "ST",
        "placeName": "FORT FRANCES",
        "streetNameDisplayText": "THIRD ST W, FORT FRANCES"
      }
    ]
  },
  {
    "postal": "P9A8B5",
    "result": []
  },
  {
    "postal": "P9A0K1",
    "result": []
  },
  {
    "postal": "P9A7M7",
    "result": []
  },
  {
    "postal": "P9A2M2",
    "result": [
      {
        "electoralDistricts": [
          {
            "election": null,
            "id": 44,
            "name": "Kenora—Rainy River"
          }
        ],
        "pollDivisionIds": [
          10139065
        ],
        "postalCode": "P9A2M2",
        "streetName": "CROWE",
        "streetDirectionId": null,
        "streetTypeId": "AVE",
        "placeName": "FORT FRANCES",
        "streetNameDisplayText": "CROWE AVE, FORT FRANCES"
      }
    ]
  },
  {
    "postal": "P9A9N3",
    "result": []
  },
  {
    "postal": "P9A4Y8",
    "result": []
  },
  {
    "postal": "P9A3V7",
    "result": [
      {
        "electoralDistricts": [
          {
            "election": null,
            "id": 44,
            "name": "Kenora—Rainy River"
          }
        ],
        "pollDivisionIds": [
          10139064
        ],
        "postalCode": "P9A3V7",
        "streetName": "OSBORNE",
        "streetDirectionId": null,
        "streetTypeId": "ST",
        "placeName": "FORT FRANCES",
        "streetNameDisplayText": "OSBORNE ST, FORT FRANCES"
      }
    ]
  },
  {
    "postal": "P9A8Z1",
    "result": []
  },
  {
    "postal": "P9A7B3",
    "result": []
  },
  {
    "postal": "P9A3A8",
    "result": [
      {
        "electoralDistricts": [
          {
            "election": null,
            "id": 44,
            "name": "Kenora—Rainy River"
          }
        ],
        "pollDivisionIds": [
          10139062
        ],
        "postalCode": "P9A3A8",
        "streetName": "THIRD",
        "streetDirectionId": "W",
        "streetTypeId": "ST",
        "placeName": "FORT FRANCES",
        "streetNameDisplayText": "THIRD ST W, FORT FRANCES"
      }
    ]
  },
  {
    "postal": "P9A7V5",
    "result": []
  },
  {
    "postal": "P9A2T2",
    "result": [
      {
        "electoralDistricts": [
          {
            "election": null,
            "id": 44,
            "name": "Kenora—Rainy River"
          }
        ],
        "pollDivisionIds": [
          10139061
        ],
        "postalCode": "P9A2T2",
        "streetName": "KING'S",
        "streetDirectionId": null,
        "streetTypeId": "HWY",
        "placeName": "FORT FRANCES",
        "streetNameDisplayText": "KING'S HWY, FORT FRANCES"
      }
    ]
  },
  {
    "postal": "P9A6L3",
    "result": []
  },
  {
    "postal": "P9A0L2",
    "result": []
  },
  {
    "postal": "P9A5Y8",
    "result": []
  },
  {
    "postal": "P9A0B8",
    "result": []
  },
  {
    "postal": "P9A6R5",
    "result": []
  },
  {
    "postal": "P9A8W6",
    "result": []
  },
  {
    "postal": "P9A8G6",
    "result": []
  },
  {
    "postal": "P9A6X3",
    "result": []
  },
  {
    "postal": "P9A7R7",
    "result": []
  },
  {
    "postal": "P9A4B6",
    "result": []
  },
  {
    "postal": "P9A3P9",
    "result": []
  },
  {
    "postal": "P9A2T3",
    "result": [
      {
        "electoralDistricts": [
          {
            "election": null,
            "id": 44,
            "name": "Kenora—Rainy River"
          }
        ],
        "pollDivisionIds": [
          10139061
        ],
        "postalCode": "P9A2T3",
        "streetName": "COLONIZATION",
        "streetDirectionId": "W",
        "streetTypeId": "RD",
        "placeName": "FORT FRANCES",
        "streetNameDisplayText": "COLONIZATION RD W, FORT FRANCES"
      }
    ]
  },
  {
    "postal": "P9A1M4",
    "result": []
  },
  {
    "postal": "P9A0H1",
    "result": []
  },
  {
    "postal": "P9A9W3",
    "result": []
  },
  {
    "postal": "P9A6P1",
    "result": []
  },
  {
    "postal": "P9A7G2",
    "result": []
  },
  {
    "postal": "P9A4J9",
    "result": []
  },
  {
    "postal": "P9A9E4",
    "result": []
  },
  {
    "postal": "P9A8H0",
    "result": []
  },
  {
    "postal": "P9A4M7",
    "result": []
  },
  {
    "postal": "P9A2G9",
    "result": [
      {
        "electoralDistricts": [
          {
            "election": null,
            "id": 44,
            "name": "Kenora—Rainy River"
          }
        ],
        "pollDivisionIds": [
          10139063
        ],
        "postalCode": "P9A2G9",
        "streetName": "ARMIT",
        "streetDirectionId": null,
        "streetTypeId": "AVE",
        "placeName": "FORT FRANCES",
        "streetNameDisplayText": "ARMIT AVE, FORT FRANCES"
      }
    ]
  },
  {
    "postal": "P9A8T2",
    "result": []
  },
  {
    "postal": "P9A7G7",
    "result": []
  },
  {
    "postal": "P9A4Z3",
    "result": []
  },
  {
    "postal": "P9A5B3",
    "result": []
  },
  {
    "postal": "P9A1S7",
    "result": [
      {
        "electoralDistricts": [
          {
            "election": null,
            "id": 44,
            "name": "Kenora—Rainy River"
          }
        ],
        "pollDivisionIds": [
          10139066
        ],
        "postalCode": "P9A1S7",
        "streetName": "THIRD",
        "streetDirectionId": "E",
        "streetTypeId": "ST",
        "placeName": "FORT FRANCES",
        "streetNameDisplayText": "THIRD ST E, FORT FRANCES"
      }
    ]
  },
  {
    "postal": "P9A2N7",
    "result": [
      {
        "electoralDistricts": [
          {
            "election": null,
            "id": 44,
            "name": "Kenora—Rainy River"
          }
        ],
        "pollDivisionIds": [
          10139066
        ],
        "postalCode": "P9A2N7",
        "streetName": "BUTLER",
        "streetDirectionId": null,
        "streetTypeId": "AVE",
        "placeName": "FORT FRANCES",
        "streetNameDisplayText": "BUTLER AVE, FORT FRANCES"
      }
    ]
  },
  {
    "postal": "P9A0H8",
    "result": []
  },
  {
    "postal": "P9A7Z4",
    "result": []
  },
  {
    "postal": "P9A7B1",
    "result": []
  },
  {
    "postal": "P9A7P8",
    "result": []
  },
  {
    "postal": "P9A7N0",
    "result": []
  },
  {
    "postal": "P9A3Y5",
    "result": []
  },
  {
    "postal": "P9A6K1",
    "result": []
  },
  {
    "postal": "P9A9X5",
    "result": []
  },
  {
    "postal": "P9A7S5",
    "result": []
  },
  {
    "postal": "P9A0A4",
    "result": [
      {
        "electoralDistricts": [
          {
            "election": null,
            "id": 44,
            "name": "Kenora—Rainy River"
          }
        ],
        "pollDivisionIds": [
          10139066
        ],
        "postalCode": "P9A0A4",
        "streetName": "HUFFMAN",
        "streetDirectionId": null,
        "streetTypeId": "CRT",
        "placeName": "FORT FRANCES",
        "streetNameDisplayText": "HUFFMAN CRT, FORT FRANCES"
      },
      {
        "electoralDistricts": [
          {
            "election": null,
            "id": 44,
            "name": "Kenora—Rainy River"
          }
        ],
        "pollDivisionIds": [
          10139066
        ],
        "postalCode": "P9A0A4",
        "streetName": "WILLIAMS",
        "streetDirectionId": null,
        "streetTypeId": "AVE",
        "placeName": "FORT FRANCES",
        "streetNameDisplayText": "WILLIAMS AVE, FORT FRANCES"
      }
    ]
  },
  {
    "postal": "P9A4T5",
    "result": []
  },
  {
    "postal": "P9A5K1",
    "result": []
  },
  {
    "postal": "P9A0Z9",
    "result": []
  },
  {
    "postal": "P9A7T2",
    "result": []
  },
  {
    "postal": "P9A1L5",
    "result": [
      {
        "electoralDistricts": [
          {
            "election": null,
            "id": 44,
            "name": "Kenora—Rainy River"
          }
        ],
        "pollDivisionIds": [
          10139066
        ],
        "postalCode": "P9A1L5",
        "streetName": "FIRST",
        "streetDirectionId": "E",
        "streetTypeId": "ST",
        "placeName": "FORT FRANCES",
        "streetNameDisplayText": "FIRST ST E, FORT FRANCES"
      }
    ]
  },
  {
    "postal": "P9A3N5",
    "result": [
      {
        "electoralDistricts": [
          {
            "election": null,
            "id": 44,
            "name": "Kenora—Rainy River"
          }
        ],
        "pollDivisionIds": [
          10139065
        ],
        "postalCode": "P9A3N5",
        "streetName": "BAEKER",
        "streetDirectionId": null,
        "streetTypeId": "BAY",
        "placeName": "FORT FRANCES",
        "streetNameDisplayText": "BAEKER BAY, FORT FRANCES"
      }
    ]
  },
  {
    "postal": "P9A6H4",
    "result": []
  },
  {
    "postal": "P9A5A5",
    "result": []
  },
  {
    "postal": "P9A3R9",
    "result": [
      {
        "electoralDistricts": [
          {
            "election": null,
            "id": 44,
            "name": "Kenora—Rainy River"
          }
        ],
        "pollDivisionIds": [
          10139067
        ],
        "postalCode": "P9A3R9",
        "streetName": "ELIZABETH",
        "streetDirectionId": "E",
        "streetTypeId": "ST",
        "placeName": "FORT FRANCES",
        "streetNameDisplayText": "ELIZABETH ST E, FORT FRANCES"
      }
    ]
  },
  {
    "postal": "P9A7L8",
    "result": []
  },
  {
    "postal": "P9A6T6",
    "result": []
  },
  {
    "postal": "P9A7Y7",
    "result": []
  },
  {
    "postal": "P9A3M8",
    "result": [
      {
        "electoralDistricts": [
          {
            "election": null,
            "id": 44,
            "name": "Kenora—Rainy River"
          }
        ],
        "pollDivisionIds": [
          10139056
        ],
        "postalCode": "P9A3M8",
        "streetName": "11/71",
        "streetDirectionId": null,
        "streetTypeId": "HWY",
        "placeName": "FORT FRANCES",
        "streetNameDisplayText": "11/71 HWY, FORT FRANCES"
      },
      {
        "electoralDistricts": [
          {
            "election": null,
            "id": 44,
            "name": "Kenora—Rainy River"
          }
        ],
        "pollDivisionIds": [
          10139067
        ],
        "postalCode": "P9A3M8",
        "streetName": "BAYVIEW",
        "streetDirectionId": null,
        "streetTypeId": "AVE",
        "placeName": "FORT FRANCES",
        "streetNameDisplayText": "BAYVIEW AVE, FORT FRANCES"
      },
      {
        "electoralDistricts": [
          {
            "election": null,
            "id": 44,
            "name": "Kenora—Rainy River"
          }
        ],
        "pollDivisionIds": [
          10143951
        ],
        "postalCode": "P9A3M8",
        "streetName": "COUSINEAU",
        "streetDirectionId": null,
        "streetTypeId": "RD",
        "placeName": "FORT FRANCES",
        "streetNameDisplayText": "COUSINEAU RD, FORT FRANCES"
      },
      {
        "electoralDistricts": [
          {
            "election": null,
            "id": 44,
            "name": "Kenora—Rainy River"
          }
        ],
        "pollDivisionIds": [
          10139056
        ],
        "postalCode": "P9A3M8",
        "streetName": "HAMMOND",
        "streetDirectionId": null,
        "streetTypeId": "RD",
        "placeName": "FORT FRANCES",
        "streetNameDisplayText": "HAMMOND RD, FORT FRANCES"
      },
      {
        "electoralDistricts": [
          {
            "election": null,
            "id": 44,
            "name": "Kenora—Rainy River"
          }
        ],
        "pollDivisionIds": [
          10139056
        ],
        "postalCode": "P9A3M8",
        "streetName": "MCIRVINE",
        "streetDirectionId": "N",
        "streetTypeId": "RD",
        "placeName": "FORT FRANCES",
        "streetNameDisplayText": "MCIRVINE RD N, FORT FRANCES"
      },
      {
        "electoralDistricts": [
          {
            "election": null,
            "id": 44,
            "name": "Kenora—Rainy River"
          }
        ],
        "pollDivisionIds": [
          10139068
        ],
        "postalCode": "P9A3M8",
        "streetName": "SHORTREED",
        "streetDirectionId": null,
        "streetTypeId": "RD",
        "placeName": "FORT FRANCES",
        "streetNameDisplayText": "SHORTREED RD, FORT FRANCES"
      }
    ]
  },
  {
    "postal": "P9A2E0",
    "result": []
  },
  {
    "postal": "P9A4B5",
    "result": []
  },
  {
    "postal": "P9A1J3",
    "result": [
      {
        "electoralDistricts": [
          {
            "election": null,
            "id": 44,
            "name": "Kenora—Rainy River"
          }
        ],
        "pollDivisionIds": [
          10139066
        ],
        "postalCode": "P9A1J3",
        "streetName": "SCOTT",
        "streetDirectionId": null,
        "streetTypeId": "ST",
        "placeName": "FORT FRANCES",
        "streetNameDisplayText": "SCOTT ST, FORT FRANCES"
      }
    ]
  },
  {
    "postal": "P9A5S6",
    "result": []
  },
  {
    "postal": "P9A8P7",
    "result": []
  },
  {
    "postal": "P9A7S7",
    "result": []
  },
  {
    "postal": "P9A4C2",
    "result": []
  },
  {
    "postal": "P9A5Y0",
    "result": []
  },
  {
    "postal": "P9A2V7",
    "result": []
  },
  {
    "postal": "P9A8P5",
    "result": []
  },
  {
    "postal": "P9A5P5",
    "result": []
  },
  {
    "postal": "P9A5Z0",
    "result": []
  },
  {
    "postal": "P9A9B0",
    "result": []
  },
  {
    "postal": "P9A1L0",
    "result": []
  },
  {
    "postal": "P9A0B5",
    "result": []
  },
  {
    "postal": "P9A3L2",
    "result": [
      {
        "electoralDistricts": [
          {
            "election": null,
            "id": 44,
            "name": "Kenora—Rainy River"
          }
        ],
        "pollDivisionIds": [
          10139062
        ],
        "postalCode": "P9A3L2",
        "streetName": "FLINDERS",
        "streetDirectionId": null,
        "streetTypeId": "AVE",
        "placeName": "FORT FRANCES",
        "streetNameDisplayText": "FLINDERS AVE, FORT FRANCES"
      }
    ]
  },
  {
    "postal": "P9A3B7",
    "result": [
      {
        "electoralDistricts": [
          {
            "election": null,
            "id": 44,
            "name": "Kenora—Rainy River"
          }
        ],
        "pollDivisionIds": [
          10139063
        ],
        "postalCode": "P9A3B7",
        "streetName": "4TH",
        "streetDirectionId": "W",
        "streetTypeId": "ST",
        "placeName": "FORT FRANCES",
        "streetNameDisplayText": "4TH ST W, FORT FRANCES"
      },
      {
        "electoralDistricts": [
          {
            "election": null,
            "id": 44,
            "name": "Kenora—Rainy River"
          }
        ],
        "pollDivisionIds": [
          10139063
        ],
        "postalCode": "P9A3B7",
        "streetName": "FOURTH",
        "streetDirectionId": "W",
        "streetTypeId": "ST",
        "placeName": "FORT FRANCES",
        "streetNameDisplayText": "FOURTH ST W, FORT FRANCES"
      }
    ]
  },
  {
    "postal": "P9A8L1",
    "result": []
  },
  {
    "postal": "P9A5M4",
    "result": []
  },
  {
    "postal": "P9A4G9",
    "result": []
  },
  {
    "postal": "P9A0P0",
    "result": []
  },
  {
    "postal": "P9A8G2",
    "result": []
  },
  {
    "postal": "P9A1V9",
    "result": [
      {
        "electoralDistricts": [
          {
            "election": null,
            "id": 44,
            "name": "Kenora—Rainy River"
          }
        ],
        "pollDivisionIds": [
          10139067
        ],
        "postalCode": "P9A1V9",
        "streetName": "FIFTH",
        "streetDirectionId": "E",
        "streetTypeId": "ST",
        "placeName": "FORT FRANCES",
        "streetNameDisplayText": "FIFTH ST E, FORT FRANCES"
      }
    ]
  },
  {
    "postal": "P9A8N8",
    "result": []
  },
  {
    "postal": "P9A6S8",
    "result": []
  },
  {
    "postal": "P9A8H2",
    "result": []
  },
  {
    "postal": "P9A5R8",
    "result": []
  },
  {
    "postal": "P9A5L4",
    "result": []
  },
  {
    "postal": "P9A9E1",
    "result": []
  },
  {
    "postal": "P9A1C4",
    "result": []
  },
  {
    "postal": "P9A8W5",
    "result": []
  },
  {
    "postal": "P9A1Y4",
    "result": [
      {
        "electoralDistricts": [
          {
            "election": null,
            "id": 44,
            "name": "Kenora—Rainy River"
          }
        ],
        "pollDivisionIds": [
          10139064
        ],
        "postalCode": "P9A1Y4",
        "streetName": "WALKER",
        "streetDirectionId": null,
        "streetTypeId": "AVE",
        "placeName": "FORT FRANCES",
        "streetNameDisplayText": "WALKER AVE, FORT FRANCES"
      }
    ]
  },
  {
    "postal": "P9A1C0",
    "result": []
  },
  {
    "postal": "P9A2J2",
    "result": [
      {
        "electoralDistricts": [
          {
            "election": null,
            "id": 44,
            "name": "Kenora—Rainy River"
          }
        ],
        "pollDivisionIds": [
          10139064
        ],
        "postalCode": "P9A2J2",
        "streetName": "ARMIT",
        "streetDirectionId": null,
        "streetTypeId": "AVE",
        "placeName": "FORT FRANCES",
        "streetNameDisplayText": "ARMIT AVE, FORT FRANCES"
      }
    ]
  },
  {
    "postal": "P9A2J0",
    "result": []
  },
  {
    "postal": "P9A7A3",
    "result": []
  },
  {
    "postal": "P9A8M1",
    "result": []
  },
  {
    "postal": "P9A7T9",
    "result": []
  },
  {
    "postal": "P9A6C0",
    "result": []
  },
  {
    "postal": "P9A7X1",
    "result": []
  },
  {
    "postal": "P9A0G1",
    "result": []
  },
  {
    "postal": "P9A4X2",
    "result": []
  },
  {
    "postal": "P9A0N6",
    "result": []
  },
  {
    "postal": "P9A8E3",
    "result": []
  },
  {
    "postal": "P9A5S8",
    "result": []
  },
  {
    "postal": "P9A0R0",
    "result": []
  },
  {
    "postal": "P9A6J6",
    "result": []
  },
  {
    "postal": "P9A4B4",
    "result": []
  },
  {
    "postal": "P9A7E3",
    "result": []
  },
  {
    "postal": "P9A3N6",
    "result": [
      {
        "electoralDistricts": [
          {
            "election": null,
            "id": 44,
            "name": "Kenora—Rainy River"
          }
        ],
        "pollDivisionIds": [
          10139065
        ],
        "postalCode": "P9A3N6",
        "streetName": "BAEKER",
        "streetDirectionId": null,
        "streetTypeId": "BAY",
        "placeName": "FORT FRANCES",
        "streetNameDisplayText": "BAEKER BAY, FORT FRANCES"
      }
    ]
  },
  {
    "postal": "P9A3X6",
    "result": []
  },
  {
    "postal": "P9A8L0",
    "result": []
  },
  {
    "postal": "P9A8N1",
    "result": []
  },
  {
    "postal": "P9A4J0",
    "result": []
  },
  {
    "postal": "P9A0X7",
    "result": []
  },
  {
    "postal": "P9A6S4",
    "result": []
  },
  {
    "postal": "P9A0Z0",
    "result": []
  },
  {
    "postal": "P9A9X8",
    "result": []
  },
  {
    "postal": "P9A3H3",
    "result": []
  },
  {
    "postal": "P9A7S2",
    "result": []
  },
  {
    "postal": "P9A3T3",
    "result": [
      {
        "electoralDistricts": [
          {
            "election": null,
            "id": 44,
            "name": "Kenora—Rainy River"
          }
        ],
        "pollDivisionIds": [
          10139067
        ],
        "postalCode": "P9A3T3",
        "streetName": "WILLIAMS",
        "streetDirectionId": null,
        "streetTypeId": "AVE",
        "placeName": "FORT FRANCES",
        "streetNameDisplayText": "WILLIAMS AVE, FORT FRANCES"
      }
    ]
  },
  {
    "postal": "P9A9P3",
    "result": []
  },
  {
    "postal": "P9A4H8",
    "result": []
  },
  {
    "postal": "P9A6R1",
    "result": []
  },
  {
    "postal": "P9A1S0",
    "result": []
  },
  {
    "postal": "P9A3W8",
    "result": [
      {
        "electoralDistricts": [
          {
            "election": null,
            "id": 44,
            "name": "Kenora—Rainy River"
          }
        ],
        "pollDivisionIds": [
          10139059
        ],
        "postalCode": "P9A3W8",
        "streetName": "KING'S",
        "streetDirectionId": null,
        "streetTypeId": "HWY",
        "placeName": "FORT FRANCES",
        "streetNameDisplayText": "KING'S HWY, FORT FRANCES"
      }
    ]
  },
  {
    "postal": "P9A4S3",
    "result": []
  },
  {
    "postal": "P9A1B6",
    "result": [
      {
        "electoralDistricts": [
          {
            "election": null,
            "id": 44,
            "name": "Kenora—Rainy River"
          }
        ],
        "pollDivisionIds": [
          10139063,
          10139066
        ],
        "postalCode": "P9A1B6",
        "streetName": "NELSON",
        "streetDirectionId": null,
        "streetTypeId": "ST",
        "placeName": "FORT FRANCES",
        "streetNameDisplayText": "NELSON ST, FORT FRANCES"
      }
    ]
  },
  {
    "postal": "P9A8R3",
    "result": []
  },
  {
    "postal": "P9A4V9",
    "result": []
  },
  {
    "postal": "P9A9W4",
    "result": []
  },
  {
    "postal": "P9A3T4",
    "result": [
      {
        "electoralDistricts": [
          {
            "election": null,
            "id": 44,
            "name": "Kenora—Rainy River"
          }
        ],
        "pollDivisionIds": [
          10139058
        ],
        "postalCode": "P9A3T4",
        "streetName": "COLONIZATION",
        "streetDirectionId": "W",
        "streetTypeId": "RD",
        "placeName": "FORT FRANCES",
        "streetNameDisplayText": "COLONIZATION RD W, FORT FRANCES"
      },
      {
        "electoralDistricts": [
          {
            "election": null,
            "id": 44,
            "name": "Kenora—Rainy River"
          }
        ],
        "pollDivisionIds": [
          10139058
        ],
        "postalCode": "P9A3T4",
        "streetName": "LYNDY",
        "streetDirectionId": "S",
        "streetTypeId": "PL",
        "placeName": "FORT FRANCES",
        "streetNameDisplayText": "LYNDY PL S, FORT FRANCES"
      },
      {
        "electoralDistricts": [
          {
            "election": null,
            "id": 44,
            "name": "Kenora—Rainy River"
          }
        ],
        "pollDivisionIds": [
          10139058
        ],
        "postalCode": "P9A3T4",
        "streetName": "OAKWOOD",
        "streetDirectionId": null,
        "streetTypeId": "RD",
        "placeName": "FORT FRANCES",
        "streetNameDisplayText": "OAKWOOD RD, FORT FRANCES"
      }
    ]
  },
  {
    "postal": "P9A5C7",
    "result": []
  },
  {
    "postal": "P9A3Y1",
    "result": [
      {
        "electoralDistricts": [
          {
            "election": null,
            "id": 44,
            "name": "Kenora—Rainy River"
          }
        ],
        "pollDivisionIds": [
          10139059
        ],
        "postalCode": "P9A3Y1",
        "streetName": "KING'S",
        "streetDirectionId": null,
        "streetTypeId": "HWY",
        "placeName": "FORT FRANCES",
        "streetNameDisplayText": "KING'S HWY, FORT FRANCES"
      }
    ]
  },
  {
    "postal": "P9A5V0",
    "result": []
  },
  {
    "postal": "P9A8G8",
    "result": []
  },
  {
    "postal": "P9A8B1",
    "result": []
  },
  {
    "postal": "P9A4P5",
    "result": []
  },
  {
    "postal": "P9A7B2",
    "result": []
  },
  {
    "postal": "P9A0R2",
    "result": []
  },
  {
    "postal": "P9A4M4",
    "result": []
  },
  {
    "postal": "P9A7M4",
    "result": []
  },
  {
    "postal": "P9A9S7",
    "result": []
  },
  {
    "postal": "P9A5Z7",
    "result": []
  },
  {
    "postal": "P9A7J7",
    "result": []
  },
  {
    "postal": "P9A8R8",
    "result": []
  },
  {
    "postal": "P9A9X1",
    "result": []
  },
  {
    "postal": "P9A5M9",
    "result": []
  },
  {
    "postal": "P9A9B4",
    "result": []
  },
  {
    "postal": "P9A0L9",
    "result": []
  },
  {
    "postal": "P9A9G4",
    "result": []
  },
  {
    "postal": "P9A1J4",
    "result": [
      {
        "electoralDistricts": [
          {
            "election": null,
            "id": 44,
            "name": "Kenora—Rainy River"
          }
        ],
        "pollDivisionIds": [
          10139066
        ],
        "postalCode": "P9A1J4",
        "streetName": "SCOTT",
        "streetDirectionId": null,
        "streetTypeId": "ST",
        "placeName": "FORT FRANCES",
        "streetNameDisplayText": "SCOTT ST, FORT FRANCES"
      }
    ]
  },
  {
    "postal": "P9A0W6",
    "result": []
  }
]
