[
  {
    "postal": "N5X9J6",
    "result": []
  },
  {
    "postal": "N5X9Z5",
    "result": []
  },
  {
    "postal": "N5X7H8",
    "result": []
  },
  {
    "postal": "N5X0P6",
    "result": []
  },
  {
    "postal": "N5X0S7",
    "result": []
  },
  {
    "postal": "N5X8B9",
    "result": []
  },
  {
    "postal": "N5X2A6",
    "result": [
      {
        "electoralDistricts": [
          {
            "election": null,
            "id": 54,
            "name": "London North Centre"
          }
        ],
        "pollDivisionIds": [
          10135354
        ],
        "postalCode": "N5X2A6",
        "streetName": "KILLARNEY",
        "streetDirectionId": null,
        "streetTypeId": "RD",
        "placeName": "LONDON",
        "streetNameDisplayText": "KILLARNEY RD, LONDON"
      }
    ]
  },
  {
    "postal": "N5X7V2",
    "result": []
  },
  {
    "postal": "N5X9P4",
    "result": []
  },
  {
    "postal": "N5X6G0",
    "result": []
  },
  {
    "postal": "N5X2K0",
    "result": []
  },
  {
    "postal": "N5X7N6",
    "result": []
  },
  {
    "postal": "N5X5R3",
    "result": []
  },
  {
    "postal": "N5X7K0",
    "result": []
  },
  {
    "postal": "N5X3R2",
    "result": [
      {
        "electoralDistricts": [
          {
            "election": null,
            "id": 54,
            "name": "London North Centre"
          }
        ],
        "pollDivisionIds": [
          10135356
        ],
        "postalCode": "N5X3R2",
        "streetName": "DOON",
        "streetDirectionId": null,
        "streetTypeId": "DR",
        "placeName": "LONDON",
        "streetNameDisplayText": "DOON DR, LONDON"
      }
    ]
  },
  {
    "postal": "N5X0J1",
    "result": [
      {
        "electoralDistricts": [
          {
            "election": null,
            "id": 53,
            "name": "London—Fanshawe"
          }
        ],
        "pollDivisionIds": [
          10139556
        ],
        "postalCode": "N5X0J1",
        "streetName": "CEDARPARK",
        "streetDirectionId": null,
        "streetTypeId": "DR",
        "placeName": "LONDON",
        "streetNameDisplayText": "CEDARPARK DR, LONDON"
      }
    ]
  },
  {
    "postal": "N5X0B0",
    "result": []
  },
  {
    "postal": "N5X5Z2",
    "result": []
  },
  {
    "postal": "N5X7P3",
    "result": []
  },
  {
    "postal": "N5X2K3",
    "result": [
      {
        "electoralDistricts": [
          {
            "election": null,
            "id": 54,
            "name": "London North Centre"
          }
        ],
        "pollDivisionIds": [
          10135351
        ],
        "postalCode": "N5X2K3",
        "streetName": "CAMDEN",
        "streetDirectionId": null,
        "streetTypeId": "RD",
        "placeName": "LONDON",
        "streetNameDisplayText": "CAMDEN RD, LONDON"
      }
    ]
  },
  {
    "postal": "N5X7Y6",
    "result": []
  },
  {
    "postal": "N5X1L9",
    "result": [
      {
        "electoralDistricts": [
          {
            "election": null,
            "id": 54,
            "name": "London North Centre"
          }
        ],
        "pollDivisionIds": [
          10135352
        ],
        "postalCode": "N5X1L9",
        "streetName": "TENNENT",
        "streetDirectionId": null,
        "streetTypeId": "AVE",
        "placeName": "LONDON",
        "streetNameDisplayText": "TENNENT AVE, LONDON"
      }
    ]
  },
  {
    "postal": "N5X8T0",
    "result": []
  },
  {
    "postal": "N5X3K8",
    "result": [
      {
        "electoralDistricts": [
          {
            "election": null,
            "id": 54,
            "name": "London North Centre"
          }
        ],
        "pollDivisionIds": [
          10135345
        ],
        "postalCode": "N5X3K8",
        "streetName": "JENNIFER",
        "streetDirectionId": null,
        "streetTypeId": "CRES",
        "placeName": "LONDON",
        "streetNameDisplayText": "JENNIFER CRES, LONDON"
      },
      {
        "electoralDistricts": [
          {
            "election": null,
            "id": 54,
            "name": "London North Centre"
          }
        ],
        "pollDivisionIds": [
          10135345
        ],
        "postalCode": "N5X3K8",
        "streetName": "JENNIFER",
        "streetDirectionId": null,
        "streetTypeId": "GDNS",
        "placeName": "LONDON",
        "streetNameDisplayText": "JENNIFER GDNS, LONDON"
      },
      {
        "electoralDistricts": [
          {
            "election": null,
            "id": 54,
            "name": "London North Centre"
          }
        ],
        "pollDivisionIds": [
          10135345
        ],
        "postalCode": "N5X3K8",
        "streetName": "NANETTE",
        "streetDirectionId": null,
        "streetTypeId": "CRES",
        "placeName": "LONDON",
        "streetNameDisplayText": "NANETTE CRES, LONDON"
      }
    ]
  },
  {
    "postal": "N5X5W9",
    "result": []
  },
  {
    "postal": "N5X6T9",
    "result": []
  },
  {
    "postal": "N5X4H1",
    "result": [
      {
        "electoralDistricts": [
          {
            "election": null,
            "id": 54,
            "name": "London North Centre"
          }
        ],
        "pollDivisionIds": [
          10135343
        ],
        "postalCode": "N5X4H1",
        "streetName": "OKANAGAN",
        "streetDirectionId": null,
        "streetTypeId": "WAY",
        "placeName": "LONDON",
        "streetNameDisplayText": "OKANAGAN WAY, LONDON"
      },
      {
        "electoralDistricts": [
          {
            "election": null,
            "id": 54,
            "name": "London North Centre"
          }
        ],
        "pollDivisionIds": [
          10135343
        ],
        "postalCode": "N5X4H1",
        "streetName": "REPTON",
        "streetDirectionId": null,
        "streetTypeId": "AVE",
        "placeName": "LONDON",
        "streetNameDisplayText": "REPTON AVE, LONDON"
      },
      {
        "electoralDistricts": [
          {
            "election": null,
            "id": 54,
            "name": "London North Centre"
          }
        ],
        "pollDivisionIds": [
          10135343
        ],
        "postalCode": "N5X4H1",
        "streetName": "SANDYBROOK",
        "streetDirectionId": null,
        "streetTypeId": "DR",
        "placeName": "LONDON",
        "streetNameDisplayText": "SANDYBROOK DR, LONDON"
      }
    ]
  },
  {
    "postal": "N5X7A2",
    "result": []
  },
  {
    "postal": "N5X5G0",
    "result": []
  },
  {
    "postal": "N5X8V5",
    "result": []
  },
  {
    "postal": "N5X2Y8",
    "result": [
      {
        "electoralDistricts": [
          {
            "election": null,
            "id": 54,
            "name": "London North Centre"
          }
        ],
        "pollDivisionIds": [
          10135347
        ],
        "postalCode": "N5X2Y8",
        "streetName": "BILLYBROOK",
        "streetDirectionId": null,
        "streetTypeId": "CRES",
        "placeName": "LONDON",
        "streetNameDisplayText": "BILLYBROOK CRES, LONDON"
      }
    ]
  },
  {
    "postal": "N5X2B6",
    "result": [
      {
        "electoralDistricts": [
          {
            "election": null,
            "id": 54,
            "name": "London North Centre"
          }
        ],
        "pollDivisionIds": [
          10135353
        ],
        "postalCode": "N5X2B6",
        "streetName": "KILLARNEY",
        "streetDirectionId": null,
        "streetTypeId": "CRT",
        "placeName": "LONDON",
        "streetNameDisplayText": "KILLARNEY CRT, LONDON"
      }
    ]
  },
  {
    "postal": "N5X4W8",
    "result": []
  },
  {
    "postal": "N5X8H7",
    "result": []
  },
  {
    "postal": "N5X5P1",
    "result": []
  },
  {
    "postal": "N5X2B8",
    "result": [
      {
        "electoralDistricts": [
          {
            "election": null,
            "id": 54,
            "name": "London North Centre"
          }
        ],
        "pollDivisionIds": [
          10135347
        ],
        "postalCode": "N5X2B8",
        "streetName": "MAPLEDALE",
        "streetDirectionId": null,
        "streetTypeId": "AVE",
        "placeName": "LONDON",
        "streetNameDisplayText": "MAPLEDALE AVE, LONDON"
      }
    ]
  },
  {
    "postal": "N5X0P2",
    "result": []
  },
  {
    "postal": "N5X9M1",
    "result": []
  },
  {
    "postal": "N5X3G0",
    "result": []
  },
  {
    "postal": "N5X9Z2",
    "result": []
  },
  {
    "postal": "N5X2A0",
    "result": []
  },
  {
    "postal": "N5X6Y0",
    "result": []
  },
  {
    "postal": "N5X2Z8",
    "result": [
      {
        "electoralDistricts": [
          {
            "election": null,
            "id": 54,
            "name": "London North Centre"
          }
        ],
        "pollDivisionIds": [
          10135347
        ],
        "postalCode": "N5X2Z8",
        "streetName": "PHILLBROOK",
        "streetDirectionId": null,
        "streetTypeId": "DR",
        "placeName": "LONDON",
        "streetNameDisplayText": "PHILLBROOK DR, LONDON"
      },
      {
        "electoralDistricts": [
          {
            "election": null,
            "id": 54,
            "name": "London North Centre"
          }
        ],
        "pollDivisionIds": [
          10135347
        ],
        "postalCode": "N5X2Z8",
        "streetName": "RAEBROOK",
        "streetDirectionId": null,
        "streetTypeId": "PL",
        "placeName": "LONDON",
        "streetNameDisplayText": "RAEBROOK PL, LONDON"
      }
    ]
  },
  {
    "postal": "N5X7Y3",
    "result": []
  },
  {
    "postal": "N5X6Z5",
    "result": []
  },
  {
    "postal": "N5X6E0",
    "result": []
  },
  {
    "postal": "N5X9B7",
    "result": []
  },
  {
    "postal": "N5X9S5",
    "result": []
  },
  {
    "postal": "N5X3X3",
    "result": [
      {
        "electoralDistricts": [
          {
            "election": null,
            "id": 54,
            "name": "London North Centre"
          }
        ],
        "pollDivisionIds": [
          10135351
        ],
        "postalCode": "N5X3X3",
        "streetName": "FAWN",
        "streetDirectionId": null,
        "streetTypeId": "CRT",
        "placeName": "LONDON",
        "streetNameDisplayText": "FAWN CRT, LONDON"
      },
      {
        "electoralDistricts": [
          {
            "election": null,
            "id": 54,
            "name": "London North Centre"
          }
        ],
        "pollDivisionIds": [
          10135351
        ],
        "postalCode": "N5X3X3",
        "streetName": "ROBINSON",
        "streetDirectionId": null,
        "streetTypeId": "LANE",
        "placeName": "LONDON",
        "streetNameDisplayText": "ROBINSON LANE, LONDON"
      }
    ]
  },
  {
    "postal": "N5X7R5",
    "result": []
  },
  {
    "postal": "N5X2X3",
    "result": []
  },
  {
    "postal": "N5X8Z9",
    "result": []
  },
  {
    "postal": "N5X0N4",
    "result": []
  },
  {
    "postal": "N5X1K1",
    "result": [
      {
        "electoralDistricts": [
          {
            "election": null,
            "id": 54,
            "name": "London North Centre"
          }
        ],
        "pollDivisionIds": [
          10135347
        ],
        "postalCode": "N5X1K1",
        "streetName": "ADELAIDE",
        "streetDirectionId": "N",
        "streetTypeId": "ST",
        "placeName": "LONDON",
        "streetNameDisplayText": "ADELAIDE ST N, LONDON"
      }
    ]
  },
  {
    "postal": "N5X1S3",
    "result": [
      {
        "electoralDistricts": [
          {
            "election": null,
            "id": 54,
            "name": "London North Centre"
          }
        ],
        "pollDivisionIds": [
          10135352
        ],
        "postalCode": "N5X1S3",
        "streetName": "DALKEITH",
        "streetDirectionId": null,
        "streetTypeId": "AVE",
        "placeName": "LONDON",
        "streetNameDisplayText": "DALKEITH AVE, LONDON"
      }
    ]
  },
  {
    "postal": "N5X6M4",
    "result": []
  },
  {
    "postal": "N5X9A9",
    "result": []
  },
  {
    "postal": "N5X9Z9",
    "result": []
  },
  {
    "postal": "N5X6T4",
    "result": []
  },
  {
    "postal": "N5X0B2",
    "result": [
      {
        "electoralDistricts": [
          {
            "election": null,
            "id": 54,
            "name": "London North Centre"
          }
        ],
        "pollDivisionIds": [
          10135343
        ],
        "postalCode": "N5X0B2",
        "streetName": "SKYLINE",
        "streetDirectionId": null,
        "streetTypeId": "AVE",
        "placeName": "LONDON",
        "streetNameDisplayText": "SKYLINE AVE, LONDON"
      }
    ]
  },
  {
    "postal": "N5X2L9",
    "result": [
      {
        "electoralDistricts": [
          {
            "election": null,
            "id": 54,
            "name": "London North Centre"
          }
        ],
        "pollDivisionIds": [
          10135348,
          10135345
        ],
        "postalCode": "N5X2L9",
        "streetName": "FANSHAWE PARK",
        "streetDirectionId": "E",
        "streetTypeId": "RD",
        "placeName": "LONDON",
        "streetNameDisplayText": "FANSHAWE PARK RD E, LONDON"
      },
      {
        "electoralDistricts": [
          {
            "election": null,
            "id": 54,
            "name": "London North Centre"
          }
        ],
        "pollDivisionIds": [
          10135348
        ],
        "postalCode": "N5X2L9",
        "streetName": "FANSHAWE PARK",
        "streetDirectionId": "W",
        "streetTypeId": "RD",
        "placeName": "LONDON",
        "streetNameDisplayText": "FANSHAWE PARK RD W, LONDON"
      }
    ]
  },
  {
    "postal": "N5X8K9",
    "result": []
  },
  {
    "postal": "N5X2H9",
    "result": [
      {
        "electoralDistricts": [
          {
            "election": null,
            "id": 54,
            "name": "London North Centre"
          }
        ],
        "pollDivisionIds": [
          10135351
        ],
        "postalCode": "N5X2H9",
        "streetName": "HASTINGS",
        "streetDirectionId": null,
        "streetTypeId": "DR",
        "placeName": "LONDON",
        "streetNameDisplayText": "HASTINGS DR, LONDON"
      }
    ]
  },
  {
    "postal": "N5X3Z6",
    "result": [
      {
        "electoralDistricts": [
          {
            "election": null,
            "id": 53,
            "name": "London—Fanshawe"
          }
        ],
        "pollDivisionIds": [
          10139556
        ],
        "postalCode": "N5X3Z6",
        "streetName": "CLARKE",
        "streetDirectionId": null,
        "streetTypeId": "RD",
        "placeName": "LONDON",
        "streetNameDisplayText": "CLARKE RD, LONDON"
      }
    ]
  },
  {
    "postal": "N5X3B0",
    "result": []
  },
  {
    "postal": "N5X2H8",
    "result": [
      {
        "electoralDistricts": [
          {
            "election": null,
            "id": 54,
            "name": "London North Centre"
          }
        ],
        "pollDivisionIds": [
          10135351
        ],
        "postalCode": "N5X2H8",
        "streetName": "HASTINGS",
        "streetDirectionId": null,
        "streetTypeId": "DR",
        "placeName": "LONDON",
        "streetNameDisplayText": "HASTINGS DR, LONDON"
      }
    ]
  },
  {
    "postal": "N5X3X2",
    "result": [
      {
        "electoralDistricts": [
          {
            "election": null,
            "id": 54,
            "name": "London North Centre"
          }
        ],
        "pollDivisionIds": [
          10135357
        ],
        "postalCode": "N5X3X2",
        "streetName": "DOON",
        "streetDirectionId": null,
        "streetTypeId": "DR",
        "placeName": "LONDON",
        "streetNameDisplayText": "DOON DR, LONDON"
      }
    ]
  },
  {
    "postal": "N5X2E9",
    "result": [
      {
        "electoralDistricts": [
          {
            "election": null,
            "id": 54,
            "name": "London North Centre"
          }
        ],
        "pollDivisionIds": [
          10135346
        ],
        "postalCode": "N5X2E9",
        "streetName": "MILESTONE",
        "streetDirectionId": null,
        "streetTypeId": "RD",
        "placeName": "LONDON",
        "streetNameDisplayText": "MILESTONE RD, LONDON"
      }
    ]
  },
  {
    "postal": "N5X9P6",
    "result": []
  },
  {
    "postal": "N5X9E2",
    "result": []
  },
  {
    "postal": "N5X9H2",
    "result": []
  },
  {
    "postal": "N5X1S8",
    "result": [
      {
        "electoralDistricts": [
          {
            "election": null,
            "id": 54,
            "name": "London North Centre"
          }
        ],
        "pollDivisionIds": [
          10135352
        ],
        "postalCode": "N5X1S8",
        "streetName": "MCLEOD",
        "streetDirectionId": null,
        "streetTypeId": "CRES",
        "placeName": "LONDON",
        "streetNameDisplayText": "MCLEOD CRES, LONDON"
      }
    ]
  },
  {
    "postal": "N5X3M6",
    "result": []
  },
  {
    "postal": "N5X6Z8",
    "result": []
  },
  {
    "postal": "N5X4J2",
    "result": [
      {
        "electoralDistricts": [
          {
            "election": null,
            "id": 54,
            "name": "London North Centre"
          }
        ],
        "pollDivisionIds": [
          10135342
        ],
        "postalCode": "N5X4J2",
        "streetName": "RICHMOND",
        "streetDirectionId": null,
        "streetTypeId": "ST",
        "placeName": "LONDON",
        "streetNameDisplayText": "RICHMOND ST, LONDON"
      }
    ]
  },
  {
    "postal": "N5X9Y1",
    "result": []
  },
  {
    "postal": "N5X8V6",
    "result": []
  },
  {
    "postal": "N5X6B2",
    "result": []
  },
  {
    "postal": "N5X1P8",
    "result": [
      {
        "electoralDistricts": [
          {
            "election": null,
            "id": 54,
            "name": "London North Centre"
          }
        ],
        "pollDivisionIds": [
          10135352
        ],
        "postalCode": "N5X1P8",
        "streetName": "GLENGARRY",
        "streetDirectionId": null,
        "streetTypeId": "AVE",
        "placeName": "LONDON",
        "streetNameDisplayText": "GLENGARRY AVE, LONDON"
      }
    ]
  },
  {
    "postal": "N5X0V8",
    "result": []
  },
  {
    "postal": "N5X4Y0",
    "result": []
  },
  {
    "postal": "N5X2T4",
    "result": []
  },
  {
    "postal": "N5X2S3",
    "result": [
      {
        "electoralDistricts": [
          {
            "election": null,
            "id": 54,
            "name": "London North Centre"
          }
        ],
        "pollDivisionIds": [
          10135347
        ],
        "postalCode": "N5X2S3",
        "streetName": "JEFFREYBROOK",
        "streetDirectionId": null,
        "streetTypeId": "DR",
        "placeName": "LONDON",
        "streetNameDisplayText": "JEFFREYBROOK DR, LONDON"
      }
    ]
  },
  {
    "postal": "N5X0K0",
    "result": []
  },
  {
    "postal": "N5X5N1",
    "result": []
  },
  {
    "postal": "N5X7T0",
    "result": []
  },
  {
    "postal": "N5X9N2",
    "result": []
  },
  {
    "postal": "N5X5L1",
    "result": []
  },
  {
    "postal": "N5X7G5",
    "result": []
  },
  {
    "postal": "N5X6K2",
    "result": []
  },
  {
    "postal": "N5X6P9",
    "result": []
  },
  {
    "postal": "N5X0E6",
    "result": [
      {
        "electoralDistricts": [
          {
            "election": null,
            "id": 54,
            "name": "London North Centre"
          },
          {
            "election": null,
            "id": 53,
            "name": "London—Fanshawe"
          }
        ],
        "pollDivisionIds": [
          10135348,
          10139556
        ],
        "postalCode": "N5X0E6",
        "streetName": "PENNYROYAL",
        "streetDirectionId": null,
        "streetTypeId": "ST",
        "placeName": "LONDON",
        "streetNameDisplayText": "PENNYROYAL ST, LONDON"
      },
      {
        "electoralDistricts": [
          {
            "election": null,
            "id": 53,
            "name": "London—Fanshawe"
          }
        ],
        "pollDivisionIds": [
          10139556
        ],
        "postalCode": "N5X0E6",
        "streetName": "SANDPIPER",
        "streetDirectionId": null,
        "streetTypeId": "DR",
        "placeName": "LONDON",
        "streetNameDisplayText": "SANDPIPER DR, LONDON"
      }
    ]
  },
  {
    "postal": "N5X8R9",
    "result": []
  },
  {
    "postal": "N5X3G9",
    "result": [
      {
        "electoralDistricts": [
          {
            "election": null,
            "id": 54,
            "name": "London North Centre"
          }
        ],
        "pollDivisionIds": [
          10135345
        ],
        "postalCode": "N5X3G9",
        "streetName": "PINE RIDGE",
        "streetDirectionId": null,
        "streetTypeId": "DR",
        "placeName": "LONDON",
        "streetNameDisplayText": "PINE RIDGE DR, LONDON"
      },
      {
        "electoralDistricts": [
          {
            "election": null,
            "id": 54,
            "name": "London North Centre"
          }
        ],
        "pollDivisionIds": [
          10135345
        ],
        "postalCode": "N5X3G9",
        "streetName": "PINE RIDGE",
        "streetDirectionId": null,
        "streetTypeId": "PL",
        "placeName": "LONDON",
        "streetNameDisplayText": "PINE RIDGE PL, LONDON"
      },
      {
        "electoralDistricts": [
          {
            "election": null,
            "id": 54,
            "name": "London North Centre"
          }
        ],
        "pollDivisionIds": [
          10135345
        ],
        "postalCode": "N5X3G9",
        "streetName": "SHAWNA",
        "streetDirectionId": null,
        "streetTypeId": "RD",
        "placeName": "LONDON",
        "streetNameDisplayText": "SHAWNA RD, LONDON"
      }
    ]
  },
  {
    "postal": "N5X0V7",
    "result": []
  },
  {
    "postal": "N5X2Z1",
    "result": []
  },
  {
    "postal": "N5X7N1",
    "result": []
  },
  {
    "postal": "N5X3C6",
    "result": [
      {
        "electoralDistricts": [
          {
            "election": null,
            "id": 54,
            "name": "London North Centre"
          }
        ],
        "pollDivisionIds": [
          10135345
        ],
        "postalCode": "N5X3C6",
        "streetName": "HASTINGS",
        "streetDirectionId": null,
        "streetTypeId": "DR",
        "placeName": "LONDON",
        "streetNameDisplayText": "HASTINGS DR, LONDON"
      },
      {
        "electoralDistricts": [
          {
            "election": null,
            "id": 54,
            "name": "London North Centre"
          }
        ],
        "pollDivisionIds": [
          10135345
        ],
        "postalCode": "N5X3C6",
        "streetName": "WENDY",
        "streetDirectionId": null,
        "streetTypeId": "CRES",
        "placeName": "LONDON",
        "streetNameDisplayText": "WENDY CRES, LONDON"
      }
    ]
  },
  {
    "postal": "N5X4M1",
    "result": [
      {
        "electoralDistricts": [
          {
            "election": null,
            "id": 54,
            "name": "London North Centre"
          }
        ],
        "pollDivisionIds": [
          10135344
        ],
        "postalCode": "N5X4M1",
        "streetName": "BLACKWATER",
        "streetDirectionId": null,
        "streetTypeId": "RD",
        "placeName": "LONDON",
        "streetNameDisplayText": "BLACKWATER RD, LONDON"
      },
      {
        "electoralDistricts": [
          {
            "election": null,
            "id": 54,
            "name": "London North Centre"
          }
        ],
        "pollDivisionIds": [
          10135344
        ],
        "postalCode": "N5X4M1",
        "streetName": "THISTLEWOOD",
        "streetDirectionId": null,
        "streetTypeId": "DR",
        "placeName": "LONDON",
        "streetNameDisplayText": "THISTLEWOOD DR, LONDON"
      }
    ]
  },
  {
    "postal": "N5X9K2",
    "result": []
  },
  {
    "postal": "N5X9S6",
    "result": []
  },
  {
    "postal": "N5X4X1",
    "result": []
  },
  {
    "postal": "N5X8W2",
    "result": []
  },
  {
    "postal": "N5X7N2",
    "result": []
  },
  {
    "postal": "N5X8S3",
    "result": []
  },
  {
    "postal": "N5X4V0",
    "result": []
  },
  {
    "postal": "N5X6W4",
    "result": []
  },
  {
    "postal": "N5X5M1",
    "result": []
  },
  {
    "postal": "N5X0S4",
    "result": []
  },
  {
    "postal": "N5X5X6",
    "result": []
  },
  {
    "postal": "N5X8L5",
    "result": []
  },
  {
    "postal": "N5X5M8",
    "result": []
  },
  {
    "postal": "N5X2G3",
    "result": [
      {
        "electoralDistricts": [
          {
            "election": null,
            "id": 54,
            "name": "London North Centre"
          }
        ],
        "pollDivisionIds": [
          10135348
        ],
        "postalCode": "N5X2G3",
        "streetName": "TROSSACKS",
        "streetDirectionId": null,
        "streetTypeId": "AVE",
        "placeName": "LONDON",
        "streetNameDisplayText": "TROSSACKS AVE, LONDON"
      }
    ]
  },
  {
    "postal": "N5X8E4",
    "result": []
  },
  {
    "postal": "N5X7S9",
    "result": []
  },
  {
    "postal": "N5X1K3",
    "result": [
      {
        "electoralDistricts": [
          {
            "election": null,
            "id": 54,
            "name": "London North Centre"
          }
        ],
        "pollDivisionIds": [
          10135347
        ],
        "postalCode": "N5X1K3",
        "streetName": "ADELAIDE",
        "streetDirectionId": "N",
        "streetTypeId": "ST",
        "placeName": "LONDON",
        "streetNameDisplayText": "ADELAIDE ST N, LONDON"
      }
    ]
  },
  {
    "postal": "N5X4E1",
    "result": []
  },
  {
    "postal": "N5X4R2",
    "result": [
      {
        "electoralDistricts": [
          {
            "election": null,
            "id": 54,
            "name": "London North Centre"
          }
        ],
        "pollDivisionIds": [
          10135346
        ],
        "postalCode": "N5X4R2",
        "streetName": "SAVANNAH",
        "streetDirectionId": null,
        "streetTypeId": "DR",
        "placeName": "LONDON",
        "streetNameDisplayText": "SAVANNAH DR, LONDON"
      }
    ]
  },
  {
    "postal": "N5X6T0",
    "result": []
  },
  {
    "postal": "N5X3K5",
    "result": [
      {
        "electoralDistricts": [
          {
            "election": null,
            "id": 54,
            "name": "London North Centre"
          }
        ],
        "pollDivisionIds": [
          10135345
        ],
        "postalCode": "N5X3K5",
        "streetName": "JENNIFER",
        "streetDirectionId": null,
        "streetTypeId": "CRES",
        "placeName": "LONDON",
        "streetNameDisplayText": "JENNIFER CRES, LONDON"
      },
      {
        "electoralDistricts": [
          {
            "election": null,
            "id": 54,
            "name": "London North Centre"
          }
        ],
        "pollDivisionIds": [
          10135345
        ],
        "postalCode": "N5X3K5",
        "streetName": "JENNIFER",
        "streetDirectionId": null,
        "streetTypeId": "CRES",
        "placeName": "LONDON,ON",
        "streetNameDisplayText": "JENNIFER CRES, LONDON,ON"
      }
    ]
  },
  {
    "postal": "N5X3S3",
    "result": [
      {
        "electoralDistricts": [
          {
            "election": null,
            "id": 54,
            "name": "London North Centre"
          }
        ],
        "pollDivisionIds": [
          10135356
        ],
        "postalCode": "N5X3S3",
        "streetName": "DOON",
        "streetDirectionId": null,
        "streetTypeId": "DR",
        "placeName": "LONDON",
        "streetNameDisplayText": "DOON DR, LONDON"
      }
    ]
  },
  {
    "postal": "N5X3L4",
    "result": [
      {
        "electoralDistricts": [
          {
            "election": null,
            "id": 54,
            "name": "London North Centre"
          }
        ],
        "pollDivisionIds": [
          10135345
        ],
        "postalCode": "N5X3L4",
        "streetName": "DEBBIE",
        "streetDirectionId": null,
        "streetTypeId": "LANE",
        "placeName": "LONDON",
        "streetNameDisplayText": "DEBBIE LANE, LONDON"
      },
      {
        "electoralDistricts": [
          {
            "election": null,
            "id": 54,
            "name": "London North Centre"
          }
        ],
        "pollDivisionIds": [
          10135345
        ],
        "postalCode": "N5X3L4",
        "streetName": "NANETTE",
        "streetDirectionId": null,
        "streetTypeId": "DR",
        "placeName": "LONDON",
        "streetNameDisplayText": "NANETTE DR, LONDON"
      }
    ]
  },
  {
    "postal": "N5X9Y2",
    "result": []
  },
  {
    "postal": "N5X1E0",
    "result": []
  },
  {
    "postal": "N5X9A4",
    "result": []
  },
  {
    "postal": "N5X1L3",
    "result": [
      {
        "electoralDistricts": [
          {
            "election": null,
            "id": 54,
            "name": "London North Centre"
          }
        ],
        "pollDivisionIds": [
          10135352
        ],
        "postalCode": "N5X1L3",
        "streetName": "FANSHAWE PARK",
        "streetDirectionId": "E",
        "streetTypeId": "RD",
        "placeName": "LONDON",
        "streetNameDisplayText": "FANSHAWE PARK RD E, LONDON"
      }
    ]
  },
  {
    "postal": "N5X6N1",
    "result": []
  },
  {
    "postal": "N5X6G7",
    "result": []
  },
  {
    "postal": "N5X7W1",
    "result": []
  },
  {
    "postal": "N5X4M6",
    "result": [
      {
        "electoralDistricts": [
          {
            "election": null,
            "id": 54,
            "name": "London North Centre"
          }
        ],
        "pollDivisionIds": [
          10135346
        ],
        "postalCode": "N5X4M6",
        "streetName": "STACKHOUSE",
        "streetDirectionId": null,
        "streetTypeId": "CRES",
        "placeName": "LONDON",
        "streetNameDisplayText": "STACKHOUSE CRES, LONDON"
      }
    ]
  },
  {
    "postal": "N5X1K0",
    "result": []
  },
  {
    "postal": "N5X3E2",
    "result": [
      {
        "electoralDistricts": [
          {
            "election": null,
            "id": 54,
            "name": "London North Centre"
          }
        ],
        "pollDivisionIds": [
          10135345
        ],
        "postalCode": "N5X3E2",
        "streetName": "HASTINGS",
        "streetDirectionId": null,
        "streetTypeId": "DR",
        "placeName": "LONDON",
        "streetNameDisplayText": "HASTINGS DR, LONDON"
      }
    ]
  },
  {
    "postal": "N5X5H4",
    "result": []
  },
  {
    "postal": "N5X1K7",
    "result": [
      {
        "electoralDistricts": [
          {
            "election": null,
            "id": 54,
            "name": "London North Centre"
          }
        ],
        "pollDivisionIds": [
          10135351
        ],
        "postalCode": "N5X1K7",
        "streetName": "FANSHAWE PARK",
        "streetDirectionId": "E",
        "streetTypeId": "RD",
        "placeName": "LONDON",
        "streetNameDisplayText": "FANSHAWE PARK RD E, LONDON"
      }
    ]
  },
  {
    "postal": "N5X0H0",
    "result": []
  },
  {
    "postal": "N5X0J3",
    "result": [
      {
        "electoralDistricts": [
          {
            "election": null,
            "id": 54,
            "name": "London North Centre"
          }
        ],
        "pollDivisionIds": [
          10135344
        ],
        "postalCode": "N5X0J3",
        "streetName": "BALLYMOTE",
        "streetDirectionId": null,
        "streetTypeId": "AVE",
        "placeName": "LONDON",
        "streetNameDisplayText": "BALLYMOTE AVE, LONDON"
      },
      {
        "electoralDistricts": [
          {
            "election": null,
            "id": 54,
            "name": "London North Centre"
          }
        ],
        "pollDivisionIds": [
          10135340
        ],
        "postalCode": "N5X0J3",
        "streetName": "BALLYMOTE",
        "streetDirectionId": null,
        "streetTypeId": "PL",
        "placeName": "LONDON,ON",
        "streetNameDisplayText": "BALLYMOTE PL, LONDON,ON"
      },
      {
        "electoralDistricts": [
          {
            "election": null,
            "id": 54,
            "name": "London North Centre"
          }
        ],
        "pollDivisionIds": [
          10135344
        ],
        "postalCode": "N5X0J3",
        "streetName": "WATERWHEEL",
        "streetDirectionId": null,
        "streetTypeId": "LANE",
        "placeName": "LONDON",
        "streetNameDisplayText": "WATERWHEEL LANE, LONDON"
      },
      {
        "electoralDistricts": [
          {
            "election": null,
            "id": 54,
            "name": "London North Centre"
          }
        ],
        "pollDivisionIds": [
          10135344
        ],
        "postalCode": "N5X0J3",
        "streetName": "WATERWHEEL",
        "streetDirectionId": null,
        "streetTypeId": "RD",
        "placeName": "LONDON",
        "streetNameDisplayText": "WATERWHEEL RD, LONDON"
      }
    ]
  },
  {
    "postal": "N5X1X6",
    "result": [
      {
        "electoralDistricts": [
          {
            "election": null,
            "id": 54,
            "name": "London North Centre"
          }
        ],
        "pollDivisionIds": [
          10135353
        ],
        "postalCode": "N5X1X6",
        "streetName": "RIDEAU",
        "streetDirectionId": null,
        "streetTypeId": "PL",
        "placeName": "LONDON",
        "streetNameDisplayText": "RIDEAU PL, LONDON"
      }
    ]
  },
  {
    "postal": "N5X2Z6",
    "result": [
      {
        "electoralDistricts": [
          {
            "election": null,
            "id": 54,
            "name": "London North Centre"
          }
        ],
        "pollDivisionIds": [
          10135347
        ],
        "postalCode": "N5X2Z6",
        "streetName": "PENNYBROOK",
        "streetDirectionId": null,
        "streetTypeId": "CRES",
        "placeName": "LONDON",
        "streetNameDisplayText": "PENNYBROOK CRES, LONDON"
      },
      {
        "electoralDistricts": [
          {
            "election": null,
            "id": 54,
            "name": "London North Centre"
          }
        ],
        "pollDivisionIds": [
          10135347
        ],
        "postalCode": "N5X2Z6",
        "streetName": "PENNYBROOK",
        "streetDirectionId": null,
        "streetTypeId": "CRT",
        "placeName": "LONDON",
        "streetNameDisplayText": "PENNYBROOK CRT, LONDON"
      }
    ]
  },
  {
    "postal": "N5X4R9",
    "result": [
      {
        "electoralDistricts": [
          {
            "election": null,
            "id": 54,
            "name": "London North Centre"
          }
        ],
        "pollDivisionIds": [
          10135344
        ],
        "postalCode": "N5X4R9",
        "streetName": "BLACKWATER",
        "streetDirectionId": null,
        "streetTypeId": "RD",
        "placeName": "LONDON",
        "streetNameDisplayText": "BLACKWATER RD, LONDON"
      }
    ]
  },
  {
    "postal": "N5X0W8",
    "result": []
  },
  {
    "postal": "N5X1L4",
    "result": [
      {
        "electoralDistricts": [
          {
            "election": null,
            "id": 54,
            "name": "London North Centre"
          }
        ],
        "pollDivisionIds": [
          10135352
        ],
        "postalCode": "N5X1L4",
        "streetName": "FANSHAWE PARK",
        "streetDirectionId": "E",
        "streetTypeId": "RD",
        "placeName": "LONDON",
        "streetNameDisplayText": "FANSHAWE PARK RD E, LONDON"
      }
    ]
  },
  {
    "postal": "N5X0C8",
    "result": [
      {
        "electoralDistricts": [
          {
            "election": null,
            "id": 53,
            "name": "London—Fanshawe"
          }
        ],
        "pollDivisionIds": [
          10139556
        ],
        "postalCode": "N5X0C8",
        "streetName": "CEDARCREEK",
        "streetDirectionId": null,
        "streetTypeId": "CRES",
        "placeName": "LONDON",
        "streetNameDisplayText": "CEDARCREEK CRES, LONDON"
      },
      {
        "electoralDistricts": [
          {
            "election": null,
            "id": 53,
            "name": "London—Fanshawe"
          }
        ],
        "pollDivisionIds": [
          10139556
        ],
        "postalCode": "N5X0C8",
        "streetName": "KILLARNEY",
        "streetDirectionId": null,
        "streetTypeId": "RD",
        "placeName": "LONDON",
        "streetNameDisplayText": "KILLARNEY RD, LONDON"
      }
    ]
  },
  {
    "postal": "N5X9X7",
    "result": []
  },
  {
    "postal": "N5X4T1",
    "result": []
  },
  {
    "postal": "N5X0M0",
    "result": []
  },
  {
    "postal": "N5X6A2",
    "result": []
  },
  {
    "postal": "N5X9S8",
    "result": []
  },
  {
    "postal": "N5X9T4",
    "result": []
  },
  {
    "postal": "N5X9Y4",
    "result": []
  },
  {
    "postal": "N5X6G5",
    "result": []
  },
  {
    "postal": "N5X6H9",
    "result": []
  },
  {
    "postal": "N5X2P3",
    "result": [
      {
        "electoralDistricts": [
          {
            "election": null,
            "id": 54,
            "name": "London North Centre"
          }
        ],
        "pollDivisionIds": [
          10135348
        ],
        "postalCode": "N5X2P3",
        "streetName": "TROSSACKS",
        "streetDirectionId": null,
        "streetTypeId": "AVE",
        "placeName": "LONDON",
        "streetNameDisplayText": "TROSSACKS AVE, LONDON"
      }
    ]
  },
  {
    "postal": "N5X1T6",
    "result": [
      {
        "electoralDistricts": [
          {
            "election": null,
            "id": 54,
            "name": "London North Centre"
          }
        ],
        "pollDivisionIds": [
          10135352
        ],
        "postalCode": "N5X1T6",
        "streetName": "GLENORA",
        "streetDirectionId": null,
        "streetTypeId": "DR",
        "placeName": "LONDON",
        "streetNameDisplayText": "GLENORA DR, LONDON"
      }
    ]
  },
  {
    "postal": "N5X4P6",
    "result": [
      {
        "electoralDistricts": [
          {
            "election": null,
            "id": 54,
            "name": "London North Centre"
          }
        ],
        "pollDivisionIds": [
          10135344
        ],
        "postalCode": "N5X4P6",
        "streetName": "GOUGH",
        "streetDirectionId": null,
        "streetTypeId": "AVE",
        "placeName": "LONDON",
        "streetNameDisplayText": "GOUGH AVE, LONDON"
      },
      {
        "electoralDistricts": [
          {
            "election": null,
            "id": 54,
            "name": "London North Centre"
          }
        ],
        "pollDivisionIds": [
          10135344
        ],
        "postalCode": "N5X4P6",
        "streetName": "PLEASANTVIEW",
        "streetDirectionId": null,
        "streetTypeId": "DR",
        "placeName": "LONDON",
        "streetNameDisplayText": "PLEASANTVIEW DR, LONDON"
      }
    ]
  },
  {
    "postal": "N5X3K1",
    "result": [
      {
        "electoralDistricts": [
          {
            "election": null,
            "id": 54,
            "name": "London North Centre"
          }
        ],
        "pollDivisionIds": [
          10135345
        ],
        "postalCode": "N5X3K1",
        "streetName": "WENDY",
        "streetDirectionId": null,
        "streetTypeId": "CRES",
        "placeName": "LONDON",
        "streetNameDisplayText": "WENDY CRES, LONDON"
      },
      {
        "electoralDistricts": [
          {
            "election": null,
            "id": 54,
            "name": "London North Centre"
          }
        ],
        "pollDivisionIds": [
          10135345
        ],
        "postalCode": "N5X3K1",
        "streetName": "WENDY",
        "streetDirectionId": null,
        "streetTypeId": "LANE",
        "placeName": "LONDON",
        "streetNameDisplayText": "WENDY LANE, LONDON"
      }
    ]
  },
  {
    "postal": "N5X6X4",
    "result": []
  },
  {
    "postal": "N5X4M8",
    "result": [
      {
        "electoralDistricts": [
          {
            "election": null,
            "id": 54,
            "name": "London North Centre"
          }
        ],
        "pollDivisionIds": [
          10135346
        ],
        "postalCode": "N5X4M8",
        "streetName": "NICOLE",
        "streetDirectionId": null,
        "streetTypeId": "AVE",
        "placeName": "LONDON",
        "streetNameDisplayText": "NICOLE AVE, LONDON"
      },
      {
        "electoralDistricts": [
          {
            "election": null,
            "id": 54,
            "name": "London North Centre"
          }
        ],
        "pollDivisionIds": [
          10135346
        ],
        "postalCode": "N5X4M8",
        "streetName": "SOUTH WENIGE",
        "streetDirectionId": null,
        "streetTypeId": "DR",
        "placeName": "LONDON",
        "streetNameDisplayText": "SOUTH WENIGE DR, LONDON"
      }
    ]
  },
  {
    "postal": "N5X2Y1",
    "result": [
      {
        "electoralDistricts": [
          {
            "election": null,
            "id": 54,
            "name": "London North Centre"
          }
        ],
        "pollDivisionIds": [
          10135348
        ],
        "postalCode": "N5X2Y1",
        "streetName": "TROSSACKS",
        "streetDirectionId": null,
        "streetTypeId": "AVE",
        "placeName": "LONDON",
        "streetNameDisplayText": "TROSSACKS AVE, LONDON"
      }
    ]
  },
  {
    "postal": "N5X6M1",
    "result": []
  },
  {
    "postal": "N5X5L8",
    "result": []
  },
  {
    "postal": "N5X3P6",
    "result": [
      {
        "electoralDistricts": [
          {
            "election": null,
            "id": 54,
            "name": "London North Centre"
          }
        ],
        "pollDivisionIds": [
          10135350
        ],
        "postalCode": "N5X3P6",
        "streetName": "SHADY",
        "streetDirectionId": null,
        "streetTypeId": "LANE",
        "placeName": "LONDON",
        "streetNameDisplayText": "SHADY LANE, LONDON"
      },
      {
        "electoralDistricts": [
          {
            "election": null,
            "id": 54,
            "name": "London North Centre"
          }
        ],
        "pollDivisionIds": [
          10135350
        ],
        "postalCode": "N5X3P6",
        "streetName": "SHETLAND",
        "streetDirectionId": null,
        "streetTypeId": "CRES",
        "placeName": "LONDON",
        "streetNameDisplayText": "SHETLAND CRES, LONDON"
      }
    ]
  },
  {
    "postal": "N5X9A5",
    "result": []
  },
  {
    "postal": "N5X7K1",
    "result": []
  },
  {
    "postal": "N5X3J4",
    "result": [
      {
        "electoralDistricts": [
          {
            "election": null,
            "id": 54,
            "name": "London North Centre"
          }
        ],
        "pollDivisionIds": [
          10135356
        ],
        "postalCode": "N5X3J4",
        "streetName": "ANGUS",
        "streetDirectionId": null,
        "streetTypeId": "CRT",
        "placeName": "LONDON",
        "streetNameDisplayText": "ANGUS CRT, LONDON"
      }
    ]
  },
  {
    "postal": "N5X5E7",
    "result": []
  },
  {
    "postal": "N5X3A7",
    "result": [
      {
        "electoralDistricts": [
          {
            "election": null,
            "id": 54,
            "name": "London North Centre"
          }
        ],
        "pollDivisionIds": [
          10135347
        ],
        "postalCode": "N5X3A7",
        "streetName": "SILVERBROOK",
        "streetDirectionId": null,
        "streetTypeId": "DR",
        "placeName": "LONDON",
        "streetNameDisplayText": "SILVERBROOK DR, LONDON"
      }
    ]
  },
  {
    "postal": "N5X1B9",
    "result": [
      {
        "electoralDistricts": [
          {
            "election": null,
            "id": 54,
            "name": "London North Centre"
          }
        ],
        "pollDivisionIds": [
          10135351
        ],
        "postalCode": "N5X1B9",
        "streetName": "STONEYBROOK",
        "streetDirectionId": null,
        "streetTypeId": "CRES",
        "placeName": "LONDON",
        "streetNameDisplayText": "STONEYBROOK CRES, LONDON"
      }
    ]
  },
  {
    "postal": "N5X9E8",
    "result": []
  },
  {
    "postal": "N5X1C9",
    "result": [
      {
        "electoralDistricts": [
          {
            "election": null,
            "id": 54,
            "name": "London North Centre"
          }
        ],
        "pollDivisionIds": [
          10135347
        ],
        "postalCode": "N5X1C9",
        "streetName": "STONEYBROOK",
        "streetDirectionId": null,
        "streetTypeId": "CRES",
        "placeName": "LONDON",
        "streetNameDisplayText": "STONEYBROOK CRES, LONDON"
      }
    ]
  },
  {
    "postal": "N5X3B5",
    "result": [
      {
        "electoralDistricts": [
          {
            "election": null,
            "id": 54,
            "name": "London North Centre"
          }
        ],
        "pollDivisionIds": [
          10135348
        ],
        "postalCode": "N5X3B5",
        "streetName": "BLACKWATER",
        "streetDirectionId": null,
        "streetTypeId": "CRT",
        "placeName": "LONDON",
        "streetNameDisplayText": "BLACKWATER CRT, LONDON"
      },
      {
        "electoralDistricts": [
          {
            "election": null,
            "id": 54,
            "name": "London North Centre"
          }
        ],
        "pollDivisionIds": [
          10135344,
          10135348
        ],
        "postalCode": "N5X3B5",
        "streetName": "BLACKWATER",
        "streetDirectionId": null,
        "streetTypeId": "RD",
        "placeName": "LONDON",
        "streetNameDisplayText": "BLACKWATER RD, LONDON"
      }
    ]
  },
  {
    "postal": "N5X8R0",
    "result": []
  },
  {
    "postal": "N5X3P2",
    "result": [
      {
        "electoralDistricts": [
          {
            "election": null,
            "id": 54,
            "name": "London North Centre"
          }
        ],
        "pollDivisionIds": [
          10135357
        ],
        "postalCode": "N5X3P2",
        "streetName": "DOON",
        "streetDirectionId": null,
        "streetTypeId": "DR",
        "placeName": "LONDON",
        "streetNameDisplayText": "DOON DR, LONDON"
      }
    ]
  },
  {
    "postal": "N5X5V4",
    "result": []
  },
  {
    "postal": "N5X4H0",
    "result": []
  },
  {
    "postal": "N5X4S7",
    "result": []
  },
  {
    "postal": "N5X6C2",
    "result": []
  },
  {
    "postal": "N5X8W3",
    "result": []
  },
  {
    "postal": "N5X4M5",
    "result": [
      {
        "electoralDistricts": [
          {
            "election": null,
            "id": 54,
            "name": "London North Centre"
          }
        ],
        "pollDivisionIds": [
          10135346
        ],
        "postalCode": "N5X4M5",
        "streetName": "STACKHOUSE",
        "streetDirectionId": null,
        "streetTypeId": "AVE",
        "placeName": "LONDON",
        "streetNameDisplayText": "STACKHOUSE AVE, LONDON"
      },
      {
        "electoralDistricts": [
          {
            "election": null,
            "id": 54,
            "name": "London North Centre"
          }
        ],
        "pollDivisionIds": [
          10135346
        ],
        "postalCode": "N5X4M5",
        "streetName": "STACKHOUSE",
        "streetDirectionId": null,
        "streetTypeId": "CRES",
        "placeName": "LONDON",
        "streetNameDisplayText": "STACKHOUSE CRES, LONDON"
      }
    ]
  },
  {
    "postal": "N5X5T1",
    "result": []
  },
  {
    "postal": "N5X3B3",
    "result": [
      {
        "electoralDistricts": [
          {
            "election": null,
            "id": 54,
            "name": "London North Centre"
          }
        ],
        "pollDivisionIds": [
          10135347
        ],
        "postalCode": "N5X3B3",
        "streetName": "SILVERBROOK",
        "streetDirectionId": null,
        "streetTypeId": "DR",
        "placeName": "LONDON",
        "streetNameDisplayText": "SILVERBROOK DR, LONDON"
      }
    ]
  },
  {
    "postal": "N5X6C6",
    "result": []
  },
  {
    "postal": "N5X7N8",
    "result": []
  },
  {
    "postal": "N5X2Y3",
    "result": []
  },
  {
    "postal": "N5X2R6",
    "result": [
      {
        "electoralDistricts": [
          {
            "election": null,
            "id": 54,
            "name": "London North Centre"
          }
        ],
        "pollDivisionIds": [
          10135351
        ],
        "postalCode": "N5X2R6",
        "streetName": "BROOKLINE",
        "streetDirectionId": null,
        "streetTypeId": "RD",
        "placeName": "LONDON",
        "streetNameDisplayText": "BROOKLINE RD, LONDON"
      }
    ]
  },
  {
    "postal": "N5X7N3",
    "result": []
  },
  {
    "postal": "N5X8J2",
    "result": []
  },
  {
    "postal": "N5X6A9",
    "result": []
  },
  {
    "postal": "N5X3V2",
    "result": [
      {
        "electoralDistricts": [
          {
            "election": null,
            "id": 54,
            "name": "London North Centre"
          }
        ],
        "pollDivisionIds": [
          10135357
        ],
        "postalCode": "N5X3V2",
        "streetName": "BRACEBRIDGE",
        "streetDirectionId": null,
        "streetTypeId": "CRT",
        "placeName": "LONDON",
        "streetNameDisplayText": "BRACEBRIDGE CRT, LONDON"
      },
      {
        "electoralDistricts": [
          {
            "election": null,
            "id": 54,
            "name": "London North Centre"
          }
        ],
        "pollDivisionIds": [
          10135357
        ],
        "postalCode": "N5X3V2",
        "streetName": "CARRICK",
        "streetDirectionId": null,
        "streetTypeId": "LANE",
        "placeName": "LONDON",
        "streetNameDisplayText": "CARRICK LANE, LONDON"
      },
      {
        "electoralDistricts": [
          {
            "election": null,
            "id": 54,
            "name": "London North Centre"
          }
        ],
        "pollDivisionIds": [
          10135357
        ],
        "postalCode": "N5X3V2",
        "streetName": "DOON",
        "streetDirectionId": null,
        "streetTypeId": "DR",
        "placeName": "LONDON",
        "streetNameDisplayText": "DOON DR, LONDON"
      }
    ]
  },
  {
    "postal": "N5X2N3",
    "result": []
  },
  {
    "postal": "N5X1S5",
    "result": [
      {
        "electoralDistricts": [
          {
            "election": null,
            "id": 54,
            "name": "London North Centre"
          }
        ],
        "pollDivisionIds": [
          10135352
        ],
        "postalCode": "N5X1S5",
        "streetName": "DALKEITH",
        "streetDirectionId": null,
        "streetTypeId": "AVE",
        "placeName": "LONDON",
        "streetNameDisplayText": "DALKEITH AVE, LONDON"
      },
      {
        "electoralDistricts": [
          {
            "election": null,
            "id": 54,
            "name": "London North Centre"
          }
        ],
        "pollDivisionIds": [
          10135352
        ],
        "postalCode": "N5X1S5",
        "streetName": "DALKEITH",
        "streetDirectionId": null,
        "streetTypeId": "CRES",
        "placeName": "LONDON",
        "streetNameDisplayText": "DALKEITH CRES, LONDON"
      }
    ]
  },
  {
    "postal": "N5X4T7",
    "result": []
  },
  {
    "postal": "N5X6Y7",
    "result": []
  },
  {
    "postal": "N5X0W7",
    "result": []
  },
  {
    "postal": "N5X2W9",
    "result": []
  },
  {
    "postal": "N5X8V0",
    "result": []
  },
  {
    "postal": "N5X0H4",
    "result": [
      {
        "electoralDistricts": [
          {
            "election": null,
            "id": 54,
            "name": "London North Centre"
          }
        ],
        "pollDivisionIds": [
          10135343
        ],
        "postalCode": "N5X0H4",
        "streetName": "SKYLINE",
        "streetDirectionId": null,
        "streetTypeId": "AVE",
        "placeName": "LONDON",
        "streetNameDisplayText": "SKYLINE AVE, LONDON"
      }
    ]
  },
  {
    "postal": "N5X2T1",
    "result": [
      {
        "electoralDistricts": [
          {
            "election": null,
            "id": 54,
            "name": "London North Centre"
          }
        ],
        "pollDivisionIds": [
          10135413,
          10135356
        ],
        "postalCode": "N5X2T1",
        "streetName": "WINDERMERE",
        "streetDirectionId": null,
        "streetTypeId": "RD",
        "placeName": "LONDON",
        "streetNameDisplayText": "WINDERMERE RD, LONDON"
      }
    ]
  },
  {
    "postal": "N5X1B1",
    "result": [
      {
        "electoralDistricts": [
          {
            "election": null,
            "id": 54,
            "name": "London North Centre"
          }
        ],
        "pollDivisionIds": [
          10135351
        ],
        "postalCode": "N5X1B1",
        "streetName": "HASTINGS",
        "streetDirectionId": null,
        "streetTypeId": "DR",
        "placeName": "LONDON",
        "streetNameDisplayText": "HASTINGS DR, LONDON"
      }
    ]
  },
  {
    "postal": "N5X8B6",
    "result": []
  },
  {
    "postal": "N5X6H1",
    "result": []
  },
  {
    "postal": "N5X8T8",
    "result": []
  },
  {
    "postal": "N5X0T4",
    "result": []
  },
  {
    "postal": "N5X2C4",
    "result": [
      {
        "electoralDistricts": [
          {
            "election": null,
            "id": 54,
            "name": "London North Centre"
          }
        ],
        "pollDivisionIds": [
          10135344,
          10135348
        ],
        "postalCode": "N5X2C4",
        "streetName": "GRENFELL",
        "streetDirectionId": null,
        "streetTypeId": "DR",
        "placeName": "LONDON",
        "streetNameDisplayText": "GRENFELL DR, LONDON"
      },
      {
        "electoralDistricts": [
          {
            "election": null,
            "id": 54,
            "name": "London North Centre"
          }
        ],
        "pollDivisionIds": [
          10135348
        ],
        "postalCode": "N5X2C4",
        "streetName": "LAING",
        "streetDirectionId": null,
        "streetTypeId": "CRT",
        "placeName": "LONDON",
        "streetNameDisplayText": "LAING CRT, LONDON"
      }
    ]
  },
  {
    "postal": "N5X8N3",
    "result": []
  },
  {
    "postal": "N5X4L8",
    "result": [
      {
        "electoralDistricts": [
          {
            "election": null,
            "id": 54,
            "name": "London North Centre"
          }
        ],
        "pollDivisionIds": [
          10135344
        ],
        "postalCode": "N5X4L8",
        "streetName": "CREEKSIDE",
        "streetDirectionId": null,
        "streetTypeId": "ST",
        "placeName": "LONDON",
        "streetNameDisplayText": "CREEKSIDE ST, LONDON"
      },
      {
        "electoralDistricts": [
          {
            "election": null,
            "id": 54,
            "name": "London North Centre"
          }
        ],
        "pollDivisionIds": [
          10135344
        ],
        "postalCode": "N5X4L8",
        "streetName": "SPRUCEWOOD",
        "streetDirectionId": null,
        "streetTypeId": "DR",
        "placeName": "LONDON",
        "streetNameDisplayText": "SPRUCEWOOD DR, LONDON"
      }
    ]
  },
  {
    "postal": "N5X2B5",
    "result": [
      {
        "electoralDistricts": [
          {
            "election": null,
            "id": 54,
            "name": "London North Centre"
          }
        ],
        "pollDivisionIds": [
          10135354
        ],
        "postalCode": "N5X2B5",
        "streetName": "KILLARNEY",
        "streetDirectionId": null,
        "streetTypeId": "PL",
        "placeName": "LONDON",
        "streetNameDisplayText": "KILLARNEY PL, LONDON"
      }
    ]
  },
  {
    "postal": "N5X3H1",
    "result": [
      {
        "electoralDistricts": [
          {
            "election": null,
            "id": 54,
            "name": "London North Centre"
          }
        ],
        "pollDivisionIds": [
          10135345
        ],
        "postalCode": "N5X3H1",
        "streetName": "DEBBIE",
        "streetDirectionId": null,
        "streetTypeId": "LANE",
        "placeName": "LONDON",
        "streetNameDisplayText": "DEBBIE LANE, LONDON"
      },
      {
        "electoralDistricts": [
          {
            "election": null,
            "id": 54,
            "name": "London North Centre"
          }
        ],
        "pollDivisionIds": [
          10135345
        ],
        "postalCode": "N5X3H1",
        "streetName": "PINE RIDGE",
        "streetDirectionId": null,
        "streetTypeId": "DR",
        "placeName": "LONDON",
        "streetNameDisplayText": "PINE RIDGE DR, LONDON"
      }
    ]
  },
  {
    "postal": "N5X4Y1",
    "result": []
  },
  {
    "postal": "N5X7E2",
    "result": []
  },
  {
    "postal": "N5X2P5",
    "result": [
      {
        "electoralDistricts": [
          {
            "election": null,
            "id": 54,
            "name": "London North Centre"
          }
        ],
        "pollDivisionIds": [
          10135348,
          10135340
        ],
        "postalCode": "N5X2P5",
        "streetName": "TROSSACKS",
        "streetDirectionId": null,
        "streetTypeId": "AVE",
        "placeName": "LONDON",
        "streetNameDisplayText": "TROSSACKS AVE, LONDON"
      }
    ]
  },
  {
    "postal": "N5X8R7",
    "result": []
  },
  {
    "postal": "N5X9P1",
    "result": []
  },
  {
    "postal": "N5X3B8",
    "result": [
      {
        "electoralDistricts": [
          {
            "election": null,
            "id": 54,
            "name": "London North Centre"
          }
        ],
        "pollDivisionIds": [
          10135348
        ],
        "postalCode": "N5X3B8",
        "streetName": "MIDALE",
        "streetDirectionId": null,
        "streetTypeId": "CRES",
        "placeName": "LONDON",
        "streetNameDisplayText": "MIDALE CRES, LONDON"
      }
    ]
  },
  {
    "postal": "N5X3P7",
    "result": [
      {
        "electoralDistricts": [
          {
            "election": null,
            "id": 54,
            "name": "London North Centre"
          }
        ],
        "pollDivisionIds": [
          10135350
        ],
        "postalCode": "N5X3P7",
        "streetName": "SHETLAND",
        "streetDirectionId": null,
        "streetTypeId": "CRES",
        "placeName": "LONDON",
        "streetNameDisplayText": "SHETLAND CRES, LONDON"
      },
      {
        "electoralDistricts": [
          {
            "election": null,
            "id": 54,
            "name": "London North Centre"
          }
        ],
        "pollDivisionIds": [
          10135356,
          10135350
        ],
        "postalCode": "N5X3P7",
        "streetName": "SUNNYSIDE",
        "streetDirectionId": null,
        "streetTypeId": "DR",
        "placeName": "LONDON",
        "streetNameDisplayText": "SUNNYSIDE DR, LONDON"
      }
    ]
  },
  {
    "postal": "N5X9B2",
    "result": []
  },
  {
    "postal": "N5X6Z3",
    "result": []
  },
  {
    "postal": "N5X4N5",
    "result": [
      {
        "electoralDistricts": [
          {
            "election": null,
            "id": 54,
            "name": "London North Centre"
          }
        ],
        "pollDivisionIds": [
          10135345
        ],
        "postalCode": "N5X4N5",
        "streetName": "BERRYHILL",
        "streetDirectionId": null,
        "streetTypeId": "DR",
        "placeName": "LONDON",
        "streetNameDisplayText": "BERRYHILL DR, LONDON"
      },
      {
        "electoralDistricts": [
          {
            "election": null,
            "id": 54,
            "name": "London North Centre"
          }
        ],
        "pollDivisionIds": [
          10135345
        ],
        "postalCode": "N5X4N5",
        "streetName": "BERRYHILL",
        "streetDirectionId": null,
        "streetTypeId": "PL",
        "placeName": "LONDON",
        "streetNameDisplayText": "BERRYHILL PL, LONDON"
      }
    ]
  },
  {
    "postal": "N5X8T3",
    "result": []
  },
  {
    "postal": "N5X1V2",
    "result": [
      {
        "electoralDistricts": [
          {
            "election": null,
            "id": 54,
            "name": "London North Centre"
          }
        ],
        "pollDivisionIds": [
          10135353
        ],
        "postalCode": "N5X1V2",
        "streetName": "GLENORA",
        "streetDirectionId": null,
        "streetTypeId": "DR",
        "placeName": "LONDON",
        "streetNameDisplayText": "GLENORA DR, LONDON"
      }
    ]
  },
  {
    "postal": "N5X1Y0",
    "result": []
  },
  {
    "postal": "N5X3G6",
    "result": [
      {
        "electoralDistricts": [
          {
            "election": null,
            "id": 54,
            "name": "London North Centre"
          }
        ],
        "pollDivisionIds": [
          10135345
        ],
        "postalCode": "N5X3G6",
        "streetName": "JENNIFER",
        "streetDirectionId": null,
        "streetTypeId": "RD",
        "placeName": "LONDON",
        "streetNameDisplayText": "JENNIFER RD, LONDON"
      },
      {
        "electoralDistricts": [
          {
            "election": null,
            "id": 54,
            "name": "London North Centre"
          }
        ],
        "pollDivisionIds": [
          10135345
        ],
        "postalCode": "N5X3G6",
        "streetName": "SHAWNA",
        "streetDirectionId": null,
        "streetTypeId": "RD",
        "placeName": "LONDON",
        "streetNameDisplayText": "SHAWNA RD, LONDON"
      }
    ]
  },
  {
    "postal": "N5X3H7",
    "result": [
      {
        "electoralDistricts": [
          {
            "election": null,
            "id": 54,
            "name": "London North Centre"
          }
        ],
        "pollDivisionIds": [
          10135356
        ],
        "postalCode": "N5X3H7",
        "streetName": "LAVENDER",
        "streetDirectionId": null,
        "streetTypeId": "PL",
        "placeName": "LONDON",
        "streetNameDisplayText": "LAVENDER PL, LONDON"
      },
      {
        "electoralDistricts": [
          {
            "election": null,
            "id": 54,
            "name": "London North Centre"
          }
        ],
        "pollDivisionIds": [
          10135356
        ],
        "postalCode": "N5X3H7",
        "streetName": "LAVENDER",
        "streetDirectionId": null,
        "streetTypeId": "WAY",
        "placeName": "LONDON",
        "streetNameDisplayText": "LAVENDER WAY, LONDON"
      }
    ]
  },
  {
    "postal": "N5X7X8",
    "result": []
  },
  {
    "postal": "N5X0C7",
    "result": [
      {
        "electoralDistricts": [
          {
            "election": null,
            "id": 53,
            "name": "London—Fanshawe"
          }
        ],
        "pollDivisionIds": [
          10139556
        ],
        "postalCode": "N5X0C7",
        "streetName": "CEDARCREEK",
        "streetDirectionId": null,
        "streetTypeId": "CRES",
        "placeName": "LONDON",
        "streetNameDisplayText": "CEDARCREEK CRES, LONDON"
      },
      {
        "electoralDistricts": [
          {
            "election": null,
            "id": 53,
            "name": "London—Fanshawe"
          }
        ],
        "pollDivisionIds": [
          10139556
        ],
        "postalCode": "N5X0C7",
        "streetName": "KILLARNEY",
        "streetDirectionId": null,
        "streetTypeId": "RD",
        "placeName": "LONDON",
        "streetNameDisplayText": "KILLARNEY RD, LONDON"
      }
    ]
  },
  {
    "postal": "N5X0W9",
    "result": []
  },
  {
    "postal": "N5X8E6",
    "result": []
  },
  {
    "postal": "N5X9Z8",
    "result": []
  },
  {
    "postal": "N5X3P4",
    "result": [
      {
        "electoralDistricts": [
          {
            "election": null,
            "id": 54,
            "name": "London North Centre"
          }
        ],
        "pollDivisionIds": [
          10135357
        ],
        "postalCode": "N5X3P4",
        "streetName": "DOON",
        "streetDirectionId": null,
        "streetTypeId": "DR",
        "placeName": "LONDON",
        "streetNameDisplayText": "DOON DR, LONDON"
      }
    ]
  },
  {
    "postal": "N5X6L8",
    "result": []
  },
  {
    "postal": "N5X2R4",
    "result": [
      {
        "electoralDistricts": [
          {
            "election": null,
            "id": 54,
            "name": "London North Centre"
          }
        ],
        "pollDivisionIds": [
          10135352
        ],
        "postalCode": "N5X2R4",
        "streetName": "GLENORA",
        "streetDirectionId": null,
        "streetTypeId": "DR",
        "placeName": "LONDON",
        "streetNameDisplayText": "GLENORA DR, LONDON"
      }
    ]
  },
  {
    "postal": "N5X2W1",
    "result": []
  },
  {
    "postal": "N5X9H8",
    "result": []
  },
  {
    "postal": "N5X8X9",
    "result": []
  },
  {
    "postal": "N5X7H4",
    "result": []
  },
  {
    "postal": "N5X3J1",
    "result": [
      {
        "electoralDistricts": [
          {
            "election": null,
            "id": 54,
            "name": "London North Centre"
          }
        ],
        "pollDivisionIds": [
          10135356
        ],
        "postalCode": "N5X3J1",
        "streetName": "ANGUS",
        "streetDirectionId": null,
        "streetTypeId": "RD",
        "placeName": "LONDON",
        "streetNameDisplayText": "ANGUS RD, LONDON"
      },
      {
        "electoralDistricts": [
          {
            "election": null,
            "id": 54,
            "name": "London North Centre"
          }
        ],
        "pollDivisionIds": [
          10135356
        ],
        "postalCode": "N5X3J1",
        "streetName": "LAVENDER",
        "streetDirectionId": null,
        "streetTypeId": "WAY",
        "placeName": "LONDON",
        "streetNameDisplayText": "LAVENDER WAY, LONDON"
      }
    ]
  },
  {
    "postal": "N5X1P4",
    "result": [
      {
        "electoralDistricts": [
          {
            "election": null,
            "id": 54,
            "name": "London North Centre"
          }
        ],
        "pollDivisionIds": [
          10135352
        ],
        "postalCode": "N5X1P4",
        "streetName": "BARRYMONT",
        "streetDirectionId": null,
        "streetTypeId": "AVE",
        "placeName": "LONDON",
        "streetNameDisplayText": "BARRYMONT AVE, LONDON"
      }
    ]
  },
  {
    "postal": "N5X2A3",
    "result": [
      {
        "electoralDistricts": [
          {
            "election": null,
            "id": 54,
            "name": "London North Centre"
          }
        ],
        "pollDivisionIds": [
          10135353
        ],
        "postalCode": "N5X2A3",
        "streetName": "GLENBURNIE",
        "streetDirectionId": null,
        "streetTypeId": "CRES",
        "placeName": "LONDON",
        "streetNameDisplayText": "GLENBURNIE CRES, LONDON"
      },
      {
        "electoralDistricts": [
          {
            "election": null,
            "id": 54,
            "name": "London North Centre"
          }
        ],
        "pollDivisionIds": [
          10135353
        ],
        "postalCode": "N5X2A3",
        "streetName": "GLENBURNIE",
        "streetDirectionId": null,
        "streetTypeId": "CRT",
        "placeName": "LONDON",
        "streetNameDisplayText": "GLENBURNIE CRT, LONDON"
      }
    ]
  },
  {
    "postal": "N5X0Z1",
    "result": []
  },
  {
    "postal": "N5X1C1",
    "result": [
      {
        "electoralDistricts": [
          {
            "election": null,
            "id": 54,
            "name": "London North Centre"
          }
        ],
        "pollDivisionIds": [
          10135351
        ],
        "postalCode": "N5X1C1",
        "streetName": "STONEYBROOK",
        "streetDirectionId": null,
        "streetTypeId": "CRES",
        "placeName": "LONDON",
        "streetNameDisplayText": "STONEYBROOK CRES, LONDON"
      }
    ]
  },
  {
    "postal": "N5X0H3",
    "result": [
      {
        "electoralDistricts": [
          {
            "election": null,
            "id": 54,
            "name": "London North Centre"
          }
        ],
        "pollDivisionIds": [
          10135344,
          10135343
        ],
        "postalCode": "N5X0H3",
        "streetName": "GOUGH",
        "streetDirectionId": null,
        "streetTypeId": "AVE",
        "placeName": "LONDON",
        "streetNameDisplayText": "GOUGH AVE, LONDON"
      },
      {
        "electoralDistricts": [
          {
            "election": null,
            "id": 54,
            "name": "London North Centre"
          }
        ],
        "pollDivisionIds": [
          10135344
        ],
        "postalCode": "N5X0H3",
        "streetName": "GOUGH",
        "streetDirectionId": null,
        "streetTypeId": "RD",
        "placeName": "LONDON",
        "streetNameDisplayText": "GOUGH RD, LONDON"
      },
      {
        "electoralDistricts": [
          {
            "election": null,
            "id": 54,
            "name": "London North Centre"
          }
        ],
        "pollDivisionIds": [
          10135344
        ],
        "postalCode": "N5X0H3",
        "streetName": "SPRINGRIDGE",
        "streetDirectionId": null,
        "streetTypeId": "DR",
        "placeName": "LONDON",
        "streetNameDisplayText": "SPRINGRIDGE DR, LONDON"
      }
    ]
  },
  {
    "postal": "N5X7B0",
    "result": []
  },
  {
    "postal": "N5X5K2",
    "result": []
  },
  {
    "postal": "N5X1E9",
    "result": [
      {
        "electoralDistricts": [
          {
            "election": null,
            "id": 54,
            "name": "London North Centre"
          }
        ],
        "pollDivisionIds": [
          10135351
        ],
        "postalCode": "N5X1E9",
        "streetName": "ROLAND",
        "streetDirectionId": null,
        "streetTypeId": "LANE",
        "placeName": "LONDON",
        "streetNameDisplayText": "ROLAND LANE, LONDON"
      }
    ]
  },
  {
    "postal": "N5X9W7",
    "result": []
  },
  {
    "postal": "N5X5W6",
    "result": []
  },
  {
    "postal": "N5X6S6",
    "result": []
  },
  {
    "postal": "N5X2P8",
    "result": [
      {
        "electoralDistricts": [
          {
            "election": null,
            "id": 54,
            "name": "London North Centre"
          }
        ],
        "pollDivisionIds": [
          10135352
        ],
        "postalCode": "N5X2P8",
        "streetName": "GLENVIEW",
        "streetDirectionId": null,
        "streetTypeId": "CRES",
        "placeName": "LONDON",
        "streetNameDisplayText": "GLENVIEW CRES, LONDON"
      }
    ]
  },
  {
    "postal": "N5X4P8",
    "result": [
      {
        "electoralDistricts": [
          {
            "election": null,
            "id": 54,
            "name": "London North Centre"
          }
        ],
        "pollDivisionIds": [
          10135344
        ],
        "postalCode": "N5X4P8",
        "streetName": "GOUGH",
        "streetDirectionId": null,
        "streetTypeId": "AVE",
        "placeName": "LONDON",
        "streetNameDisplayText": "GOUGH AVE, LONDON"
      },
      {
        "electoralDistricts": [
          {
            "election": null,
            "id": 54,
            "name": "London North Centre"
          }
        ],
        "pollDivisionIds": [
          10135344
        ],
        "postalCode": "N5X4P8",
        "streetName": "NORTH WENIGE",
        "streetDirectionId": null,
        "streetTypeId": "DR",
        "placeName": "LONDON",
        "streetNameDisplayText": "NORTH WENIGE DR, LONDON"
      },
      {
        "electoralDistricts": [
          {
            "election": null,
            "id": 54,
            "name": "London North Centre"
          }
        ],
        "pollDivisionIds": [
          10135344
        ],
        "postalCode": "N5X4P8",
        "streetName": "PLEASANTVIEW",
        "streetDirectionId": null,
        "streetTypeId": "DR",
        "placeName": "LONDON",
        "streetNameDisplayText": "PLEASANTVIEW DR, LONDON"
      }
    ]
  },
  {
    "postal": "N5X0V9",
    "result": []
  },
  {
    "postal": "N5X5Y2",
    "result": []
  },
  {
    "postal": "N5X7Z7",
    "result": []
  },
  {
    "postal": "N5X6Y8",
    "result": []
  },
  {
    "postal": "N5X2G7",
    "result": [
      {
        "electoralDistricts": [
          {
            "election": null,
            "id": 54,
            "name": "London North Centre"
          }
        ],
        "pollDivisionIds": [
          10135346
        ],
        "postalCode": "N5X2G7",
        "streetName": "IMPERIAL",
        "streetDirectionId": null,
        "streetTypeId": "RD",
        "placeName": "LONDON",
        "streetNameDisplayText": "IMPERIAL RD, LONDON"
      }
    ]
  },
  {
    "postal": "N5X8C1",
    "result": []
  },
  {
    "postal": "N5X5C5",
    "result": []
  },
  {
    "postal": "N5X2X8",
    "result": []
  },
  {
    "postal": "N5X1W5",
    "result": [
      {
        "electoralDistricts": [
          {
            "election": null,
            "id": 54,
            "name": "London North Centre"
          }
        ],
        "pollDivisionIds": [
          10135353
        ],
        "postalCode": "N5X1W5",
        "streetName": "ALGOMA",
        "streetDirectionId": null,
        "streetTypeId": "AVE",
        "placeName": "LONDON",
        "streetNameDisplayText": "ALGOMA AVE, LONDON"
      }
    ]
  },
  {
    "postal": "N5X7G0",
    "result": []
  },
  {
    "postal": "N5X8J8",
    "result": []
  },
  {
    "postal": "N5X3Y0",
    "result": []
  },
  {
    "postal": "N5X9T7",
    "result": []
  },
  {
    "postal": "N5X5P4",
    "result": []
  },
  {
    "postal": "N5X4B0",
    "result": []
  },
  {
    "postal": "N5X9N8",
    "result": []
  },
  {
    "postal": "N5X4A7",
    "result": []
  },
  {
    "postal": "N5X4H9",
    "result": [
      {
        "electoralDistricts": [
          {
            "election": null,
            "id": 54,
            "name": "London North Centre"
          }
        ],
        "pollDivisionIds": [
          10135346
        ],
        "postalCode": "N5X4H9",
        "streetName": "DEVOS",
        "streetDirectionId": null,
        "streetTypeId": "DR",
        "placeName": "LONDON",
        "streetNameDisplayText": "DEVOS DR, LONDON"
      },
      {
        "electoralDistricts": [
          {
            "election": null,
            "id": 54,
            "name": "London North Centre"
          }
        ],
        "pollDivisionIds": [
          10135346
        ],
        "postalCode": "N5X4H9",
        "streetName": "STACKHOUSE",
        "streetDirectionId": null,
        "streetTypeId": "AVE",
        "placeName": "LONDON",
        "streetNameDisplayText": "STACKHOUSE AVE, LONDON"
      }
    ]
  },
  {
    "postal": "N5X6X1",
    "result": []
  },
  {
    "postal": "N5X9Y7",
    "result": []
  },
  {
    "postal": "N5X2Y5",
    "result": [
      {
        "electoralDistricts": [
          {
            "election": null,
            "id": 54,
            "name": "London North Centre"
          }
        ],
        "pollDivisionIds": [
          10135348
        ],
        "postalCode": "N5X2Y5",
        "streetName": "GRENFELL",
        "streetDirectionId": null,
        "streetTypeId": "CRES",
        "placeName": "LONDON",
        "streetNameDisplayText": "GRENFELL CRES, LONDON"
      }
    ]
  },
  {
    "postal": "N5X8L7",
    "result": []
  },
  {
    "postal": "N5X2A8",
    "result": [
      {
        "electoralDistricts": [
          {
            "election": null,
            "id": 54,
            "name": "London North Centre"
          }
        ],
        "pollDivisionIds": [
          10135353
        ],
        "postalCode": "N5X2A8",
        "streetName": "KILLARNEY",
        "streetDirectionId": null,
        "streetTypeId": "RD",
        "placeName": "LONDON",
        "streetNameDisplayText": "KILLARNEY RD, LONDON"
      }
    ]
  },
  {
    "postal": "N5X2K9",
    "result": [
      {
        "electoralDistricts": [
          {
            "election": null,
            "id": 54,
            "name": "London North Centre"
          }
        ],
        "pollDivisionIds": [
          10135351
        ],
        "postalCode": "N5X2K9",
        "streetName": "PINEHURST",
        "streetDirectionId": null,
        "streetTypeId": "PL",
        "placeName": "LONDON",
        "streetNameDisplayText": "PINEHURST PL, LONDON"
      }
    ]
  },
  {
    "postal": "N5X3E5",
    "result": [
      {
        "electoralDistricts": [
          {
            "election": null,
            "id": 54,
            "name": "London North Centre"
          }
        ],
        "pollDivisionIds": [
          10135345
        ],
        "postalCode": "N5X3E5",
        "streetName": "VIRGINIA",
        "streetDirectionId": null,
        "streetTypeId": "CRES",
        "placeName": "LONDON",
        "streetNameDisplayText": "VIRGINIA CRES, LONDON"
      },
      {
        "electoralDistricts": [
          {
            "election": null,
            "id": 54,
            "name": "London North Centre"
          }
        ],
        "pollDivisionIds": [
          10135345
        ],
        "postalCode": "N5X3E5",
        "streetName": "VIRGINIA",
        "streetDirectionId": null,
        "streetTypeId": "RD",
        "placeName": "LONDON",
        "streetNameDisplayText": "VIRGINIA RD, LONDON"
      }
    ]
  },
  {
    "postal": "N5X8N6",
    "result": []
  },
  {
    "postal": "N5X8J4",
    "result": []
  },
  {
    "postal": "N5X4R7",
    "result": [
      {
        "electoralDistricts": [
          {
            "election": null,
            "id": 54,
            "name": "London North Centre"
          }
        ],
        "pollDivisionIds": [
          10135348
        ],
        "postalCode": "N5X4R7",
        "streetName": "DEVOS",
        "streetDirectionId": null,
        "streetTypeId": "DR",
        "placeName": "LONDON",
        "streetNameDisplayText": "DEVOS DR, LONDON"
      },
      {
        "electoralDistricts": [
          {
            "election": null,
            "id": 54,
            "name": "London North Centre"
          }
        ],
        "pollDivisionIds": [
          10135348
        ],
        "postalCode": "N5X4R7",
        "streetName": "ROSENBERG",
        "streetDirectionId": null,
        "streetTypeId": "RD",
        "placeName": "LONDON",
        "streetNameDisplayText": "ROSENBERG RD, LONDON"
      },
      {
        "electoralDistricts": [
          {
            "election": null,
            "id": 54,
            "name": "London North Centre"
          }
        ],
        "pollDivisionIds": [
          10135348
        ],
        "postalCode": "N5X4R7",
        "streetName": "SILLERS",
        "streetDirectionId": null,
        "streetTypeId": "DR",
        "placeName": "LONDON",
        "streetNameDisplayText": "SILLERS DR, LONDON"
      }
    ]
  },
  {
    "postal": "N5X9K1",
    "result": []
  },
  {
    "postal": "N5X8E1",
    "result": []
  },
  {
    "postal": "N5X0R1",
    "result": []
  },
  {
    "postal": "N5X4J3",
    "result": [
      {
        "electoralDistricts": [
          {
            "election": null,
            "id": 54,
            "name": "London North Centre"
          }
        ],
        "pollDivisionIds": [
          10135344
        ],
        "postalCode": "N5X4J3",
        "streetName": "MARIGOLD",
        "streetDirectionId": null,
        "streetTypeId": "ST",
        "placeName": "LONDON",
        "streetNameDisplayText": "MARIGOLD ST, LONDON"
      }
    ]
  },
  {
    "postal": "N5X7E7",
    "result": []
  },
  {
    "postal": "N5X0J0",
    "result": []
  },
  {
    "postal": "N5X7R8",
    "result": []
  },
  {
    "postal": "N5X9X0",
    "result": []
  },
  {
    "postal": "N5X7P6",
    "result": []
  },
  {
    "postal": "N5X0R7",
    "result": []
  },
  {
    "postal": "N5X5W1",
    "result": []
  },
  {
    "postal": "N5X0K4",
    "result": [
      {
        "electoralDistricts": [
          {
            "election": null,
            "id": 54,
            "name": "London North Centre"
          }
        ],
        "pollDivisionIds": [
          10135344
        ],
        "postalCode": "N5X0K4",
        "streetName": "GOUGH",
        "streetDirectionId": null,
        "streetTypeId": "AVE",
        "placeName": "LONDON",
        "streetNameDisplayText": "GOUGH AVE, LONDON"
      },
      {
        "electoralDistricts": [
          {
            "election": null,
            "id": 54,
            "name": "London North Centre"
          }
        ],
        "pollDivisionIds": [
          10135344
        ],
        "postalCode": "N5X0K4",
        "streetName": "GOUGH",
        "streetDirectionId": null,
        "streetTypeId": "RD",
        "placeName": "LONDON",
        "streetNameDisplayText": "GOUGH RD, LONDON"
      }
    ]
  },
  {
    "postal": "N5X7N9",
    "result": []
  },
  {
    "postal": "N5X1N0",
    "result": []
  },
  {
    "postal": "N5X6P3",
    "result": []
  },
  {
    "postal": "N5X5A1",
    "result": []
  },
  {
    "postal": "N5X9M9",
    "result": []
  },
  {
    "postal": "N5X7T6",
    "result": []
  },
  {
    "postal": "N5X3X0",
    "result": []
  },
  {
    "postal": "N5X2T0",
    "result": []
  },
  {
    "postal": "N5X5X9",
    "result": []
  },
  {
    "postal": "N5X2R3",
    "result": [
      {
        "electoralDistricts": [
          {
            "election": null,
            "id": 54,
            "name": "London North Centre"
          }
        ],
        "pollDivisionIds": [
          10135346
        ],
        "postalCode": "N5X2R3",
        "streetName": "MIDALE",
        "streetDirectionId": null,
        "streetTypeId": "CRT",
        "placeName": "LONDON",
        "streetNameDisplayText": "MIDALE CRT, LONDON"
      }
    ]
  },
  {
    "postal": "N5X5N2",
    "result": []
  },
  {
    "postal": "N5X4Y7",
    "result": []
  },
  {
    "postal": "N5X7M0",
    "result": []
  },
  {
    "postal": "N5X8P3",
    "result": []
  },
  {
    "postal": "N5X3N3",
    "result": [
      {
        "electoralDistricts": [
          {
            "election": null,
            "id": 54,
            "name": "London North Centre"
          }
        ],
        "pollDivisionIds": [
          10135350
        ],
        "postalCode": "N5X3N3",
        "streetName": "SUNNYSIDE",
        "streetDirectionId": null,
        "streetTypeId": "CRT",
        "placeName": "LONDON",
        "streetNameDisplayText": "SUNNYSIDE CRT, LONDON"
      },
      {
        "electoralDistricts": [
          {
            "election": null,
            "id": 54,
            "name": "London North Centre"
          }
        ],
        "pollDivisionIds": [
          10135350
        ],
        "postalCode": "N5X3N3",
        "streetName": "SUNNYSIDE",
        "streetDirectionId": null,
        "streetTypeId": "DR",
        "placeName": "LONDON",
        "streetNameDisplayText": "SUNNYSIDE DR, LONDON"
      }
    ]
  },
  {
    "postal": "N5X7S3",
    "result": []
  },
  {
    "postal": "N5X3V9",
    "result": [
      {
        "electoralDistricts": [
          {
            "election": null,
            "id": 54,
            "name": "London North Centre"
          }
        ],
        "pollDivisionIds": [
          10135350
        ],
        "postalCode": "N5X3V9",
        "streetName": "FANSHAWE PARK",
        "streetDirectionId": "E",
        "streetTypeId": "RD",
        "placeName": "LONDON",
        "streetNameDisplayText": "FANSHAWE PARK RD E, LONDON"
      }
    ]
  },
  {
    "postal": "N5X9N7",
    "result": []
  },
  {
    "postal": "N5X0G4",
    "result": [
      {
        "electoralDistricts": [
          {
            "election": null,
            "id": 53,
            "name": "London—Fanshawe"
          }
        ],
        "pollDivisionIds": [
          10139556
        ],
        "postalCode": "N5X0G4",
        "streetName": "BLACKWELL",
        "streetDirectionId": null,
        "streetTypeId": "BLVD",
        "placeName": "LONDON",
        "streetNameDisplayText": "BLACKWELL BLVD, LONDON"
      },
      {
        "electoralDistricts": [
          {
            "election": null,
            "id": 53,
            "name": "London—Fanshawe"
          }
        ],
        "pollDivisionIds": [
          10139556
        ],
        "postalCode": "N5X0G4",
        "streetName": "SANDPIPER",
        "streetDirectionId": null,
        "streetTypeId": "DR",
        "placeName": "LONDON",
        "streetNameDisplayText": "SANDPIPER DR, LONDON"
      }
    ]
  },
  {
    "postal": "N5X2E2",
    "result": [
      {
        "electoralDistricts": [
          {
            "election": null,
            "id": 54,
            "name": "London North Centre"
          }
        ],
        "pollDivisionIds": [
          10135348
        ],
        "postalCode": "N5X2E2",
        "streetName": "MCTAGGART",
        "streetDirectionId": null,
        "streetTypeId": "CRES",
        "placeName": "LONDON",
        "streetNameDisplayText": "MCTAGGART CRES, LONDON"
      }
    ]
  },
  {
    "postal": "N5X7W8",
    "result": []
  },
  {
    "postal": "N5X7M5",
    "result": []
  },
  {
    "postal": "N5X5W8",
    "result": []
  },
  {
    "postal": "N5X5E5",
    "result": []
  },
  {
    "postal": "N5X1P9",
    "result": [
      {
        "electoralDistricts": [
          {
            "election": null,
            "id": 54,
            "name": "London North Centre"
          }
        ],
        "pollDivisionIds": [
          10135352
        ],
        "postalCode": "N5X1P9",
        "streetName": "GLENGARRY",
        "streetDirectionId": null,
        "streetTypeId": "AVE",
        "placeName": "LONDON",
        "streetNameDisplayText": "GLENGARRY AVE, LONDON"
      }
    ]
  },
  {
    "postal": "N5X8V8",
    "result": []
  },
  {
    "postal": "N5X9G8",
    "result": []
  },
  {
    "postal": "N5X8H9",
    "result": []
  },
  {
    "postal": "N5X1Z1",
    "result": [
      {
        "electoralDistricts": [
          {
            "election": null,
            "id": 54,
            "name": "London North Centre"
          }
        ],
        "pollDivisionIds": [
          10135353
        ],
        "postalCode": "N5X1Z1",
        "streetName": "MAXWELL",
        "streetDirectionId": null,
        "streetTypeId": "CRES",
        "placeName": "LONDON",
        "streetNameDisplayText": "MAXWELL CRES, LONDON"
      }
    ]
  },
  {
    "postal": "N5X8M3",
    "result": []
  },
  {
    "postal": "N5X5H6",
    "result": []
  },
  {
    "postal": "N5X7W7",
    "result": []
  },
  {
    "postal": "N5X4L0",
    "result": []
  },
  {
    "postal": "N5X2N1",
    "result": [
      {
        "electoralDistricts": [
          {
            "election": null,
            "id": 54,
            "name": "London North Centre"
          }
        ],
        "pollDivisionIds": [
          10135348
        ],
        "postalCode": "N5X2N1",
        "streetName": "GRENFELL",
        "streetDirectionId": null,
        "streetTypeId": "CRT",
        "placeName": "LONDON",
        "streetNameDisplayText": "GRENFELL CRT, LONDON"
      }
    ]
  },
  {
    "postal": "N5X2H4",
    "result": [
      {
        "electoralDistricts": [
          {
            "election": null,
            "id": 54,
            "name": "London North Centre"
          }
        ],
        "pollDivisionIds": [
          10135346
        ],
        "postalCode": "N5X2H4",
        "streetName": "BALCARRES",
        "streetDirectionId": null,
        "streetTypeId": "RD",
        "placeName": "LONDON",
        "streetNameDisplayText": "BALCARRES RD, LONDON"
      }
    ]
  },
  {
    "postal": "N5X5C8",
    "result": []
  },
  {
    "postal": "N5X8B0",
    "result": []
  },
  {
    "postal": "N5X1T4",
    "result": [
      {
        "electoralDistricts": [
          {
            "election": null,
            "id": 54,
            "name": "London North Centre"
          }
        ],
        "pollDivisionIds": [
          10135352
        ],
        "postalCode": "N5X1T4",
        "streetName": "GLENORA",
        "streetDirectionId": null,
        "streetTypeId": "DR",
        "placeName": "LONDON",
        "streetNameDisplayText": "GLENORA DR, LONDON"
      }
    ]
  },
  {
    "postal": "N5X7N7",
    "result": []
  },
  {
    "postal": "N5X4L3",
    "result": [
      {
        "electoralDistricts": [
          {
            "election": null,
            "id": 54,
            "name": "London North Centre"
          }
        ],
        "pollDivisionIds": [
          10135345
        ],
        "postalCode": "N5X4L3",
        "streetName": "WHISKER",
        "streetDirectionId": null,
        "streetTypeId": "CRT",
        "placeName": "LONDON",
        "streetNameDisplayText": "WHISKER CRT, LONDON"
      },
      {
        "electoralDistricts": [
          {
            "election": null,
            "id": 54,
            "name": "London North Centre"
          }
        ],
        "pollDivisionIds": [
          10135345
        ],
        "postalCode": "N5X4L3",
        "streetName": "WHISKER",
        "streetDirectionId": null,
        "streetTypeId": "ST",
        "placeName": "LONDON",
        "streetNameDisplayText": "WHISKER ST, LONDON"
      }
    ]
  },
  {
    "postal": "N5X2N2",
    "result": [
      {
        "electoralDistricts": [
          {
            "election": null,
            "id": 54,
            "name": "London North Centre"
          }
        ],
        "pollDivisionIds": [
          10135348
        ],
        "postalCode": "N5X2N2",
        "streetName": "GRENFELL",
        "streetDirectionId": null,
        "streetTypeId": "DR",
        "placeName": "LONDON",
        "streetNameDisplayText": "GRENFELL DR, LONDON"
      }
    ]
  },
  {
    "postal": "N5X4N8",
    "result": [
      {
        "electoralDistricts": [
          {
            "election": null,
            "id": 54,
            "name": "London North Centre"
          }
        ],
        "pollDivisionIds": [
          10135344
        ],
        "postalCode": "N5X4N8",
        "streetName": "MARIGOLD",
        "streetDirectionId": null,
        "streetTypeId": "CRT",
        "placeName": "LONDON",
        "streetNameDisplayText": "MARIGOLD CRT, LONDON"
      },
      {
        "electoralDistricts": [
          {
            "election": null,
            "id": 54,
            "name": "London North Centre"
          }
        ],
        "pollDivisionIds": [
          10135344,
          10135346
        ],
        "postalCode": "N5X4N8",
        "streetName": "MARIGOLD",
        "streetDirectionId": null,
        "streetTypeId": "ST",
        "placeName": "LONDON",
        "streetNameDisplayText": "MARIGOLD ST, LONDON"
      }
    ]
  },
  {
    "postal": "N5X3M5",
    "result": [
      {
        "electoralDistricts": [
          {
            "election": null,
            "id": 54,
            "name": "London North Centre"
          }
        ],
        "pollDivisionIds": [
          10135350
        ],
        "postalCode": "N5X3M5",
        "streetName": "MASONVILLE",
        "streetDirectionId": null,
        "streetTypeId": "CRT",
        "placeName": "LONDON",
        "streetNameDisplayText": "MASONVILLE CRT, LONDON"
      }
    ]
  },
  {
    "postal": "N5X6H7",
    "result": []
  },
  {
    "postal": "N5X8Y8",
    "result": []
  },
  {
    "postal": "N5X5R9",
    "result": []
  },
  {
    "postal": "N5X8G3",
    "result": []
  },
  {
    "postal": "N5X4N7",
    "result": [
      {
        "electoralDistricts": [
          {
            "election": null,
            "id": 54,
            "name": "London North Centre"
          }
        ],
        "pollDivisionIds": [
          10135344
        ],
        "postalCode": "N5X4N7",
        "streetName": "THISTLEWOOD",
        "streetDirectionId": null,
        "streetTypeId": "DR",
        "placeName": "LONDON",
        "streetNameDisplayText": "THISTLEWOOD DR, LONDON"
      }
    ]
  },
  {
    "postal": "N5X0B9",
    "result": [
      {
        "electoralDistricts": [
          {
            "election": null,
            "id": 53,
            "name": "London—Fanshawe"
          }
        ],
        "pollDivisionIds": [
          10139556
        ],
        "postalCode": "N5X0B9",
        "streetName": "KILLARNEY",
        "streetDirectionId": null,
        "streetTypeId": "RD",
        "placeName": "LONDON",
        "streetNameDisplayText": "KILLARNEY RD, LONDON"
      },
      {
        "electoralDistricts": [
          {
            "election": null,
            "id": 53,
            "name": "London—Fanshawe"
          }
        ],
        "pollDivisionIds": [
          10139556
        ],
        "postalCode": "N5X0B9",
        "streetName": "PORTRUSH",
        "streetDirectionId": null,
        "streetTypeId": "WAY",
        "placeName": "LONDON",
        "streetNameDisplayText": "PORTRUSH WAY, LONDON"
      }
    ]
  },
  {
    "postal": "N5X9K7",
    "result": []
  },
  {
    "postal": "N5X9K9",
    "result": []
  },
  {
    "postal": "N5X3Z2",
    "result": [
      {
        "electoralDistricts": [
          {
            "election": null,
            "id": 54,
            "name": "London North Centre"
          }
        ],
        "pollDivisionIds": [
          10135342
        ],
        "postalCode": "N5X3Z2",
        "streetName": "RICHMOND",
        "streetDirectionId": null,
        "streetTypeId": "ST",
        "placeName": "LONDON",
        "streetNameDisplayText": "RICHMOND ST, LONDON"
      }
    ]
  },
  {
    "postal": "N5X6W7",
    "result": []
  },
  {
    "postal": "N5X0P1",
    "result": []
  },
  {
    "postal": "N5X3A0",
    "result": []
  },
  {
    "postal": "N5X8L9",
    "result": []
  },
  {
    "postal": "N5X6X0",
    "result": []
  },
  {
    "postal": "N5X3E9",
    "result": [
      {
        "electoralDistricts": [
          {
            "election": null,
            "id": 54,
            "name": "London North Centre"
          }
        ],
        "pollDivisionIds": [
          10135345
        ],
        "postalCode": "N5X3E9",
        "streetName": "VIRGINIA",
        "streetDirectionId": null,
        "streetTypeId": "CRES",
        "placeName": "LONDON",
        "streetNameDisplayText": "VIRGINIA CRES, LONDON"
      },
      {
        "electoralDistricts": [
          {
            "election": null,
            "id": 54,
            "name": "London North Centre"
          }
        ],
        "pollDivisionIds": [
          10135345
        ],
        "postalCode": "N5X3E9",
        "streetName": "VIRGINIA",
        "streetDirectionId": null,
        "streetTypeId": "CRT",
        "placeName": "LONDON",
        "streetNameDisplayText": "VIRGINIA CRT, LONDON"
      }
    ]
  },
  {
    "postal": "N5X0S5",
    "result": []
  },
  {
    "postal": "N5X1A2",
    "result": []
  },
  {
    "postal": "N5X5V8",
    "result": []
  },
  {
    "postal": "N5X8C5",
    "result": []
  },
  {
    "postal": "N5X6N0",
    "result": []
  },
  {
    "postal": "N5X9E6",
    "result": []
  },
  {
    "postal": "N5X5J7",
    "result": []
  },
  {
    "postal": "N5X2R2",
    "result": [
      {
        "electoralDistricts": [
          {
            "election": null,
            "id": 54,
            "name": "London North Centre"
          }
        ],
        "pollDivisionIds": [
          10135348
        ],
        "postalCode": "N5X2R2",
        "streetName": "MIDALE",
        "streetDirectionId": null,
        "streetTypeId": "RD",
        "placeName": "LONDON",
        "streetNameDisplayText": "MIDALE RD, LONDON"
      }
    ]
  },
  {
    "postal": "N5X0P5",
    "result": []
  },
  {
    "postal": "N5X5A7",
    "result": []
  },
  {
    "postal": "N5X1G1",
    "result": [
      {
        "electoralDistricts": [
          {
            "election": null,
            "id": 54,
            "name": "London North Centre"
          }
        ],
        "pollDivisionIds": [
          10135351
        ],
        "postalCode": "N5X1G1",
        "streetName": "ROLAND",
        "streetDirectionId": null,
        "streetTypeId": "LANE",
        "placeName": "LONDON",
        "streetNameDisplayText": "ROLAND LANE, LONDON"
      }
    ]
  },
  {
    "postal": "N5X9R6",
    "result": []
  },
  {
    "postal": "N5X4Z9",
    "result": []
  },
  {
    "postal": "N5X1V5",
    "result": [
      {
        "electoralDistricts": [
          {
            "election": null,
            "id": 54,
            "name": "London North Centre"
          }
        ],
        "pollDivisionIds": [
          10135353
        ],
        "postalCode": "N5X1V5",
        "streetName": "GLENORA",
        "streetDirectionId": null,
        "streetTypeId": "DR",
        "placeName": "LONDON",
        "streetNameDisplayText": "GLENORA DR, LONDON"
      }
    ]
  },
  {
    "postal": "N5X9Y5",
    "result": []
  },
  {
    "postal": "N5X1P2",
    "result": [
      {
        "electoralDistricts": [
          {
            "election": null,
            "id": 54,
            "name": "London North Centre"
          }
        ],
        "pollDivisionIds": [
          10135352
        ],
        "postalCode": "N5X1P2",
        "streetName": "BARRYMONT",
        "streetDirectionId": null,
        "streetTypeId": "AVE",
        "placeName": "LONDON",
        "streetNameDisplayText": "BARRYMONT AVE, LONDON"
      }
    ]
  },
  {
    "postal": "N5X5X0",
    "result": []
  },
  {
    "postal": "N5X7B8",
    "result": []
  },
  {
    "postal": "N5X0C6",
    "result": [
      {
        "electoralDistricts": [
          {
            "election": null,
            "id": 53,
            "name": "London—Fanshawe"
          }
        ],
        "pollDivisionIds": [
          10139556
        ],
        "postalCode": "N5X0C6",
        "streetName": "CEDARHOLLOW",
        "streetDirectionId": null,
        "streetTypeId": "BLVD",
        "placeName": "LONDON",
        "streetNameDisplayText": "CEDARHOLLOW BLVD, LONDON"
      },
      {
        "electoralDistricts": [
          {
            "election": null,
            "id": 53,
            "name": "London—Fanshawe"
          }
        ],
        "pollDivisionIds": [
          10139556
        ],
        "postalCode": "N5X0C6",
        "streetName": "GUINESS",
        "streetDirectionId": null,
        "streetTypeId": "WAY",
        "placeName": "LONDON",
        "streetNameDisplayText": "GUINESS WAY, LONDON"
      }
    ]
  },
  {
    "postal": "N5X6G1",
    "result": []
  },
  {
    "postal": "N5X3K3",
    "result": [
      {
        "electoralDistricts": [
          {
            "election": null,
            "id": 54,
            "name": "London North Centre"
          }
        ],
        "pollDivisionIds": [
          10135345
        ],
        "postalCode": "N5X3K3",
        "streetName": "JENNIFER",
        "streetDirectionId": null,
        "streetTypeId": "GDNS",
        "placeName": "LONDON",
        "streetNameDisplayText": "JENNIFER GDNS, LONDON"
      }
    ]
  },
  {
    "postal": "N5X9R0",
    "result": []
  },
  {
    "postal": "N5X4R8",
    "result": [
      {
        "electoralDistricts": [
          {
            "election": null,
            "id": 54,
            "name": "London North Centre"
          }
        ],
        "pollDivisionIds": [
          10135348,
          10135346
        ],
        "postalCode": "N5X4R8",
        "streetName": "GRENFELL",
        "streetDirectionId": null,
        "streetTypeId": "DR",
        "placeName": "LONDON",
        "streetNameDisplayText": "GRENFELL DR, LONDON"
      },
      {
        "electoralDistricts": [
          {
            "election": null,
            "id": 54,
            "name": "London North Centre"
          }
        ],
        "pollDivisionIds": [
          10135348
        ],
        "postalCode": "N5X4R8",
        "streetName": "ROSENBERG",
        "streetDirectionId": null,
        "streetTypeId": "RD",
        "placeName": "LONDON",
        "streetNameDisplayText": "ROSENBERG RD, LONDON"
      },
      {
        "electoralDistricts": [
          {
            "election": null,
            "id": 54,
            "name": "London North Centre"
          }
        ],
        "pollDivisionIds": [
          10135346,
          10135348
        ],
        "postalCode": "N5X4R8",
        "streetName": "STACKHOUSE",
        "streetDirectionId": null,
        "streetTypeId": "AVE",
        "placeName": "LONDON",
        "streetNameDisplayText": "STACKHOUSE AVE, LONDON"
      }
    ]
  },
  {
    "postal": "N5X5P9",
    "result": []
  },
  {
    "postal": "N5X8N4",
    "result": []
  },
  {
    "postal": "N5X8H4",
    "result": []
  },
  {
    "postal": "N5X4V1",
    "result": []
  },
  {
    "postal": "N5X1K5",
    "result": [
      {
        "electoralDistricts": [
          {
            "election": null,
            "id": 54,
            "name": "London North Centre"
          }
        ],
        "pollDivisionIds": [
          10135347
        ],
        "postalCode": "N5X1K5",
        "streetName": "ADELAIDE",
        "streetDirectionId": "N",
        "streetTypeId": "ST",
        "placeName": "LONDON",
        "streetNameDisplayText": "ADELAIDE ST N, LONDON"
      }
    ]
  },
  {
    "postal": "N5X1Z5",
    "result": [
      {
        "electoralDistricts": [
          {
            "election": null,
            "id": 54,
            "name": "London North Centre"
          }
        ],
        "pollDivisionIds": [
          10135353
        ],
        "postalCode": "N5X1Z5",
        "streetName": "TWEED",
        "streetDirectionId": null,
        "streetTypeId": "CRES",
        "placeName": "LONDON",
        "streetNameDisplayText": "TWEED CRES, LONDON"
      }
    ]
  },
  {
    "postal": "N5X9L9",
    "result": []
  },
  {
    "postal": "N5X5L2",
    "result": []
  },
  {
    "postal": "N5X0M2",
    "result": [
      {
        "electoralDistricts": [
          {
            "election": null,
            "id": 54,
            "name": "London North Centre"
          }
        ],
        "pollDivisionIds": [
          10135343
        ],
        "postalCode": "N5X0M2",
        "streetName": "DAUNCEY",
        "streetDirectionId": null,
        "streetTypeId": "CRES",
        "placeName": "LONDON",
        "streetNameDisplayText": "DAUNCEY CRES, LONDON"
      },
      {
        "electoralDistricts": [
          {
            "election": null,
            "id": 54,
            "name": "London North Centre"
          }
        ],
        "pollDivisionIds": [
          10135343
        ],
        "postalCode": "N5X0M2",
        "streetName": "SUPERIOR",
        "streetDirectionId": null,
        "streetTypeId": "DR",
        "placeName": "LONDON",
        "streetNameDisplayText": "SUPERIOR DR, LONDON"
      }
    ]
  },
  {
    "postal": "N5X1K8",
    "result": [
      {
        "electoralDistricts": [
          {
            "election": null,
            "id": 54,
            "name": "London North Centre"
          }
        ],
        "pollDivisionIds": [
          10135347
        ],
        "postalCode": "N5X1K8",
        "streetName": "FANSHAWE PARK",
        "streetDirectionId": "E",
        "streetTypeId": "RD",
        "placeName": "LONDON",
        "streetNameDisplayText": "FANSHAWE PARK RD E, LONDON"
      }
    ]
  },
  {
    "postal": "N5X3M7",
    "result": []
  },
  {
    "postal": "N5X1B2",
    "result": [
      {
        "electoralDistricts": [
          {
            "election": null,
            "id": 54,
            "name": "London North Centre"
          }
        ],
        "pollDivisionIds": [
          10135351
        ],
        "postalCode": "N5X1B2",
        "streetName": "HASTINGS",
        "streetDirectionId": null,
        "streetTypeId": "DR",
        "placeName": "LONDON",
        "streetNameDisplayText": "HASTINGS DR, LONDON"
      }
    ]
  },
  {
    "postal": "N5X0H9",
    "result": [
      {
        "electoralDistricts": [
          {
            "election": null,
            "id": 53,
            "name": "London—Fanshawe"
          }
        ],
        "pollDivisionIds": [
          10139556
        ],
        "postalCode": "N5X0H9",
        "streetName": "CEDARPARK",
        "streetDirectionId": null,
        "streetTypeId": "DR",
        "placeName": "LONDON",
        "streetNameDisplayText": "CEDARPARK DR, LONDON"
      },
      {
        "electoralDistricts": [
          {
            "election": null,
            "id": 53,
            "name": "London—Fanshawe"
          }
        ],
        "pollDivisionIds": [
          10139556
        ],
        "postalCode": "N5X0H9",
        "streetName": "REILLY",
        "streetDirectionId": null,
        "streetTypeId": "WALK",
        "placeName": "LONDON",
        "streetNameDisplayText": "REILLY WALK, LONDON"
      }
    ]
  },
  {
    "postal": "N5X8M4",
    "result": []
  },
  {
    "postal": "N5X2M5",
    "result": [
      {
        "electoralDistricts": [
          {
            "election": null,
            "id": 54,
            "name": "London North Centre"
          }
        ],
        "pollDivisionIds": [
          10135348
        ],
        "postalCode": "N5X2M5",
        "streetName": "FANSHAWE PARK",
        "streetDirectionId": "E",
        "streetTypeId": "RD",
        "placeName": "LONDON",
        "streetNameDisplayText": "FANSHAWE PARK RD E, LONDON"
      }
    ]
  },
  {
    "postal": "N5X0T9",
    "result": []
  },
  {
    "postal": "N5X3P1",
    "result": [
      {
        "electoralDistricts": [
          {
            "election": null,
            "id": 54,
            "name": "London North Centre"
          }
        ],
        "pollDivisionIds": [
          10135357
        ],
        "postalCode": "N5X3P1",
        "streetName": "DOON",
        "streetDirectionId": null,
        "streetTypeId": "DR",
        "placeName": "LONDON",
        "streetNameDisplayText": "DOON DR, LONDON"
      }
    ]
  },
  {
    "postal": "N5X1R6",
    "result": [
      {
        "electoralDistricts": [
          {
            "election": null,
            "id": 54,
            "name": "London North Centre"
          }
        ],
        "pollDivisionIds": [
          10135353
        ],
        "postalCode": "N5X1R6",
        "streetName": "DALKEITH",
        "streetDirectionId": null,
        "streetTypeId": "AVE",
        "placeName": "LONDON",
        "streetNameDisplayText": "DALKEITH AVE, LONDON"
      }
    ]
  },
  {
    "postal": "N5X9V5",
    "result": []
  },
  {
    "postal": "N5X9T0",
    "result": []
  },
  {
    "postal": "N5X0A9",
    "result": [
      {
        "electoralDistricts": [
          {
            "election": null,
            "id": 54,
            "name": "London North Centre"
          }
        ],
        "pollDivisionIds": [
          10135344
        ],
        "postalCode": "N5X0A9",
        "streetName": "THISTLEWOOD",
        "streetDirectionId": null,
        "streetTypeId": "DR",
        "placeName": "LONDON",
        "streetNameDisplayText": "THISTLEWOOD DR, LONDON"
      }
    ]
  },
  {
    "postal": "N5X1M3",
    "result": [
      {
        "electoralDistricts": [
          {
            "election": null,
            "id": 54,
            "name": "London North Centre"
          }
        ],
        "pollDivisionIds": [
          10135352
        ],
        "postalCode": "N5X1M3",
        "streetName": "DELMONT",
        "streetDirectionId": null,
        "streetTypeId": "AVE",
        "placeName": "LONDON",
        "streetNameDisplayText": "DELMONT AVE, LONDON"
      }
    ]
  },
  {
    "postal": "N5X1W8",
    "result": [
      {
        "electoralDistricts": [
          {
            "election": null,
            "id": 54,
            "name": "London North Centre"
          }
        ],
        "pollDivisionIds": [
          10135353
        ],
        "postalCode": "N5X1W8",
        "streetName": "RIDEAU",
        "streetDirectionId": null,
        "streetTypeId": "GATE",
        "placeName": "LONDON",
        "streetNameDisplayText": "RIDEAU GATE, LONDON"
      }
    ]
  },
  {
    "postal": "N5X9J1",
    "result": []
  },
  {
    "postal": "N5X8N5",
    "result": []
  },
  {
    "postal": "N5X5X1",
    "result": []
  },
  {
    "postal": "N5X6S2",
    "result": []
  },
  {
    "postal": "N5X2A2",
    "result": [
      {
        "electoralDistricts": [
          {
            "election": null,
            "id": 54,
            "name": "London North Centre"
          }
        ],
        "pollDivisionIds": [
          10135353
        ],
        "postalCode": "N5X2A2",
        "streetName": "GLENBURNIE",
        "streetDirectionId": null,
        "streetTypeId": "CRES",
        "placeName": "LONDON",
        "streetNameDisplayText": "GLENBURNIE CRES, LONDON"
      },
      {
        "electoralDistricts": [
          {
            "election": null,
            "id": 54,
            "name": "London North Centre"
          }
        ],
        "pollDivisionIds": [
          10135353
        ],
        "postalCode": "N5X2A2",
        "streetName": "GLENBURNIE",
        "streetDirectionId": null,
        "streetTypeId": "CRT",
        "placeName": "LONDON",
        "streetNameDisplayText": "GLENBURNIE CRT, LONDON"
      }
    ]
  },
  {
    "postal": "N5X6A6",
    "result": []
  },
  {
    "postal": "N5X0S3",
    "result": []
  },
  {
    "postal": "N5X3E7",
    "result": [
      {
        "electoralDistricts": [
          {
            "election": null,
            "id": 54,
            "name": "London North Centre"
          }
        ],
        "pollDivisionIds": [
          10135345
        ],
        "postalCode": "N5X3E7",
        "streetName": "VIRGINIA",
        "streetDirectionId": null,
        "streetTypeId": "CRES",
        "placeName": "LONDON",
        "streetNameDisplayText": "VIRGINIA CRES, LONDON"
      }
    ]
  },
  {
    "postal": "N5X5R7",
    "result": []
  },
  {
    "postal": "N5X3R6",
    "result": [
      {
        "electoralDistricts": [
          {
            "election": null,
            "id": 54,
            "name": "London North Centre"
          }
        ],
        "pollDivisionIds": [
          10135356
        ],
        "postalCode": "N5X3R6",
        "streetName": "ORKNEY",
        "streetDirectionId": null,
        "streetTypeId": "CRES",
        "placeName": "LONDON",
        "streetNameDisplayText": "ORKNEY CRES, LONDON"
      }
    ]
  },
  {
    "postal": "N5X6K4",
    "result": []
  },
  {
    "postal": "N5X2W5",
    "result": []
  },
  {
    "postal": "N5X8W4",
    "result": []
  },
  {
    "postal": "N5X9C2",
    "result": []
  },
  {
    "postal": "N5X2C0",
    "result": []
  },
  {
    "postal": "N5X0E1",
    "result": [
      {
        "electoralDistricts": [
          {
            "election": null,
            "id": 54,
            "name": "London North Centre"
          }
        ],
        "pollDivisionIds": [
          10135343
        ],
        "postalCode": "N5X0E1",
        "streetName": "GRASSLANDS",
        "streetDirectionId": null,
        "streetTypeId": "WAY",
        "placeName": "LONDON",
        "streetNameDisplayText": "GRASSLANDS WAY, LONDON"
      },
      {
        "electoralDistricts": [
          {
            "election": null,
            "id": 54,
            "name": "London North Centre"
          }
        ],
        "pollDivisionIds": [
          10135343
        ],
        "postalCode": "N5X0E1",
        "streetName": "OKANAGAN",
        "streetDirectionId": null,
        "streetTypeId": "WAY",
        "placeName": "LONDON",
        "streetNameDisplayText": "OKANAGAN WAY, LONDON"
      },
      {
        "electoralDistricts": [
          {
            "election": null,
            "id": 54,
            "name": "London North Centre"
          }
        ],
        "pollDivisionIds": [
          10135343
        ],
        "postalCode": "N5X0E1",
        "streetName": "SANDYBROOK",
        "streetDirectionId": null,
        "streetTypeId": "DR",
        "placeName": "LONDON",
        "streetNameDisplayText": "SANDYBROOK DR, LONDON"
      }
    ]
  },
  {
    "postal": "N5X1K9",
    "result": [
      {
        "electoralDistricts": [
          {
            "election": null,
            "id": 54,
            "name": "London North Centre"
          }
        ],
        "pollDivisionIds": [
          10135347
        ],
        "postalCode": "N5X1K9",
        "streetName": "FANSHAWE PARK",
        "streetDirectionId": "E",
        "streetTypeId": "RD",
        "placeName": "LONDON",
        "streetNameDisplayText": "FANSHAWE PARK RD E, LONDON"
      }
    ]
  },
  {
    "postal": "N5X1G7",
    "result": [
      {
        "electoralDistricts": [
          {
            "election": null,
            "id": 54,
            "name": "London North Centre"
          }
        ],
        "pollDivisionIds": [
          10135347,
          10135340
        ],
        "postalCode": "N5X1G7",
        "streetName": "GEARY",
        "streetDirectionId": null,
        "streetTypeId": "AVE",
        "placeName": "LONDON",
        "streetNameDisplayText": "GEARY AVE, LONDON"
      }
    ]
  },
  {
    "postal": "N5X4E9",
    "result": [
      {
        "electoralDistricts": [
          {
            "election": null,
            "id": 54,
            "name": "London North Centre"
          }
        ],
        "pollDivisionIds": [
          10135342
        ],
        "postalCode": "N5X4E9",
        "streetName": "RICHMOND",
        "streetDirectionId": null,
        "streetTypeId": "ST",
        "placeName": "LONDON",
        "streetNameDisplayText": "RICHMOND ST, LONDON"
      }
    ]
  },
  {
    "postal": "N5X9P0",
    "result": []
  },
  {
    "postal": "N5X5H3",
    "result": []
  },
  {
    "postal": "N5X9X6",
    "result": []
  },
  {
    "postal": "N5X5N7",
    "result": []
  },
  {
    "postal": "N5X5A6",
    "result": []
  },
  {
    "postal": "N5X4M0",
    "result": []
  },
  {
    "postal": "N5X3V6",
    "result": [
      {
        "electoralDistricts": [
          {
            "election": null,
            "id": 54,
            "name": "London North Centre"
          }
        ],
        "pollDivisionIds": [
          10135342
        ],
        "postalCode": "N5X3V6",
        "streetName": "REDFORD",
        "streetDirectionId": null,
        "streetTypeId": "RD",
        "placeName": "LONDON",
        "streetNameDisplayText": "REDFORD RD, LONDON"
      },
      {
        "electoralDistricts": [
          {
            "election": null,
            "id": 54,
            "name": "London North Centre"
          }
        ],
        "pollDivisionIds": [
          10135342
        ],
        "postalCode": "N5X3V6",
        "streetName": "RICHMOND",
        "streetDirectionId": null,
        "streetTypeId": "ST",
        "placeName": "LONDON",
        "streetNameDisplayText": "RICHMOND ST, LONDON"
      },
      {
        "electoralDistricts": [
          {
            "election": null,
            "id": 54,
            "name": "London North Centre"
          }
        ],
        "pollDivisionIds": [
          10135343,
          10135342
        ],
        "postalCode": "N5X3V6",
        "streetName": "UPLANDS",
        "streetDirectionId": null,
        "streetTypeId": "DR",
        "placeName": "LONDON",
        "streetNameDisplayText": "UPLANDS DR, LONDON"
      }
    ]
  },
  {
    "postal": "N5X1L7",
    "result": [
      {
        "electoralDistricts": [
          {
            "election": null,
            "id": 54,
            "name": "London North Centre"
          }
        ],
        "pollDivisionIds": [
          10135348
        ],
        "postalCode": "N5X1L7",
        "streetName": "ADELAIDE",
        "streetDirectionId": "N",
        "streetTypeId": "ST",
        "placeName": "LONDON,ON",
        "streetNameDisplayText": "ADELAIDE ST N, LONDON,ON"
      },
      {
        "electoralDistricts": [
          {
            "election": null,
            "id": 54,
            "name": "London North Centre"
          }
        ],
        "pollDivisionIds": [
          10135352
        ],
        "postalCode": "N5X1L7",
        "streetName": "TENNENT",
        "streetDirectionId": null,
        "streetTypeId": "AVE",
        "placeName": "LONDON",
        "streetNameDisplayText": "TENNENT AVE, LONDON"
      }
    ]
  },
  {
    "postal": "N5X2P9",
    "result": [
      {
        "electoralDistricts": [
          {
            "election": null,
            "id": 54,
            "name": "London North Centre"
          }
        ],
        "pollDivisionIds": [
          10135352
        ],
        "postalCode": "N5X2P9",
        "streetName": "GLENVIEW",
        "streetDirectionId": null,
        "streetTypeId": "CRES",
        "placeName": "LONDON",
        "streetNameDisplayText": "GLENVIEW CRES, LONDON"
      }
    ]
  },
  {
    "postal": "N5X5T4",
    "result": []
  },
  {
    "postal": "N5X5Z1",
    "result": []
  },
  {
    "postal": "N5X2X0",
    "result": []
  },
  {
    "postal": "N5X6Z2",
    "result": []
  },
  {
    "postal": "N5X0E0",
    "result": []
  },
  {
    "postal": "N5X3Z5",
    "result": [
      {
        "electoralDistricts": [
          {
            "election": null,
            "id": 53,
            "name": "London—Fanshawe"
          }
        ],
        "pollDivisionIds": [
          10139556
        ],
        "postalCode": "N5X3Z5",
        "streetName": "CLARKE",
        "streetDirectionId": null,
        "streetTypeId": "RD",
        "placeName": "LONDON",
        "streetNameDisplayText": "CLARKE RD, LONDON"
      }
    ]
  },
  {
    "postal": "N5X8H3",
    "result": []
  },
  {
    "postal": "N5X7S6",
    "result": []
  },
  {
    "postal": "N5X4C1",
    "result": [
      {
        "electoralDistricts": [
          {
            "election": null,
            "id": 54,
            "name": "London North Centre"
          }
        ],
        "pollDivisionIds": [
          10135342
        ],
        "postalCode": "N5X4C1",
        "streetName": "RICHMOND",
        "streetDirectionId": null,
        "streetTypeId": "ST",
        "placeName": "LONDON",
        "streetNameDisplayText": "RICHMOND ST, LONDON"
      }
    ]
  },
  {
    "postal": "N5X3K2",
    "result": [
      {
        "electoralDistricts": [
          {
            "election": null,
            "id": 54,
            "name": "London North Centre"
          }
        ],
        "pollDivisionIds": [
          10135345
        ],
        "postalCode": "N5X3K2",
        "streetName": "JENNIFER",
        "streetDirectionId": null,
        "streetTypeId": "GDNS",
        "placeName": "LONDON",
        "streetNameDisplayText": "JENNIFER GDNS, LONDON"
      }
    ]
  },
  {
    "postal": "N5X1Y5",
    "result": [
      {
        "electoralDistricts": [
          {
            "election": null,
            "id": 54,
            "name": "London North Centre"
          }
        ],
        "pollDivisionIds": [
          10135353
        ],
        "postalCode": "N5X1Y5",
        "streetName": "MCLEAN",
        "streetDirectionId": null,
        "streetTypeId": "DR",
        "placeName": "LONDON",
        "streetNameDisplayText": "MCLEAN DR, LONDON"
      }
    ]
  },
  {
    "postal": "N5X6P6",
    "result": []
  },
  {
    "postal": "N5X3N9",
    "result": [
      {
        "electoralDistricts": [
          {
            "election": null,
            "id": 54,
            "name": "London North Centre"
          }
        ],
        "pollDivisionIds": [
          10135357
        ],
        "postalCode": "N5X3N9",
        "streetName": "DOON",
        "streetDirectionId": null,
        "streetTypeId": "DR",
        "placeName": "LONDON",
        "streetNameDisplayText": "DOON DR, LONDON"
      }
    ]
  },
  {
    "postal": "N5X3W2",
    "result": [
      {
        "electoralDistricts": [
          {
            "election": null,
            "id": 54,
            "name": "London North Centre"
          }
        ],
        "pollDivisionIds": [
          10135356
        ],
        "postalCode": "N5X3W2",
        "streetName": "DENALI",
        "streetDirectionId": null,
        "streetTypeId": "TERR",
        "placeName": "LONDON",
        "streetNameDisplayText": "DENALI TERR, LONDON"
      },
      {
        "electoralDistricts": [
          {
            "election": null,
            "id": 54,
            "name": "London North Centre"
          }
        ],
        "pollDivisionIds": [
          10135356
        ],
        "postalCode": "N5X3W2",
        "streetName": "DERBY",
        "streetDirectionId": null,
        "streetTypeId": "PL",
        "placeName": "LONDON",
        "streetNameDisplayText": "DERBY PL, LONDON"
      },
      {
        "electoralDistricts": [
          {
            "election": null,
            "id": 54,
            "name": "London North Centre"
          }
        ],
        "pollDivisionIds": [
          10135356
        ],
        "postalCode": "N5X3W2",
        "streetName": "EXMOOR",
        "streetDirectionId": null,
        "streetTypeId": "PL",
        "placeName": "LONDON",
        "streetNameDisplayText": "EXMOOR PL, LONDON"
      },
      {
        "electoralDistricts": [
          {
            "election": null,
            "id": 54,
            "name": "London North Centre"
          }
        ],
        "pollDivisionIds": [
          10135356
        ],
        "postalCode": "N5X3W2",
        "streetName": "TETHERWOOD",
        "streetDirectionId": null,
        "streetTypeId": "BLVD",
        "placeName": "LONDON",
        "streetNameDisplayText": "TETHERWOOD BLVD, LONDON"
      }
    ]
  },
  {
    "postal": "N5X6H8",
    "result": []
  },
  {
    "postal": "N5X9T3",
    "result": []
  },
  {
    "postal": "N5X5L9",
    "result": []
  },
  {
    "postal": "N5X7X7",
    "result": []
  },
  {
    "postal": "N5X3J5",
    "result": [
      {
        "electoralDistricts": [
          {
            "election": null,
            "id": 54,
            "name": "London North Centre"
          }
        ],
        "pollDivisionIds": [
          10135356
        ],
        "postalCode": "N5X3J5",
        "streetName": "ANGUS",
        "streetDirectionId": null,
        "streetTypeId": "CRT",
        "placeName": "LONDON",
        "streetNameDisplayText": "ANGUS CRT, LONDON"
      },
      {
        "electoralDistricts": [
          {
            "election": null,
            "id": 54,
            "name": "London North Centre"
          }
        ],
        "pollDivisionIds": [
          10135356
        ],
        "postalCode": "N5X3J5",
        "streetName": "ANGUS",
        "streetDirectionId": null,
        "streetTypeId": "RD",
        "placeName": "LONDON",
        "streetNameDisplayText": "ANGUS RD, LONDON"
      }
    ]
  },
  {
    "postal": "N5X4J5",
    "result": [
      {
        "electoralDistricts": [
          {
            "election": null,
            "id": 54,
            "name": "London North Centre"
          }
        ],
        "pollDivisionIds": [
          10135344
        ],
        "postalCode": "N5X4J5",
        "streetName": "SPRUCEWOOD",
        "streetDirectionId": null,
        "streetTypeId": "DR",
        "placeName": "LONDON",
        "streetNameDisplayText": "SPRUCEWOOD DR, LONDON"
      }
    ]
  },
  {
    "postal": "N5X6J2",
    "result": []
  },
  {
    "postal": "N5X5V6",
    "result": []
  },
  {
    "postal": "N5X3N2",
    "result": [
      {
        "electoralDistricts": [
          {
            "election": null,
            "id": 54,
            "name": "London North Centre"
          }
        ],
        "pollDivisionIds": [
          10135350
        ],
        "postalCode": "N5X3N2",
        "streetName": "SUNNYSIDE",
        "streetDirectionId": null,
        "streetTypeId": "CRES",
        "placeName": "LONDON",
        "streetNameDisplayText": "SUNNYSIDE CRES, LONDON"
      },
      {
        "electoralDistricts": [
          {
            "election": null,
            "id": 54,
            "name": "London North Centre"
          }
        ],
        "pollDivisionIds": [
          10135350
        ],
        "postalCode": "N5X3N2",
        "streetName": "SUNNYSIDE",
        "streetDirectionId": null,
        "streetTypeId": "CRT",
        "placeName": "LONDON",
        "streetNameDisplayText": "SUNNYSIDE CRT, LONDON"
      }
    ]
  },
  {
    "postal": "N5X3B1",
    "result": [
      {
        "electoralDistricts": [
          {
            "election": null,
            "id": 54,
            "name": "London North Centre"
          }
        ],
        "pollDivisionIds": [
          10135347
        ],
        "postalCode": "N5X3B1",
        "streetName": "SILVERBROOK",
        "streetDirectionId": null,
        "streetTypeId": "DR",
        "placeName": "LONDON",
        "streetNameDisplayText": "SILVERBROOK DR, LONDON"
      }
    ]
  },
  {
    "postal": "N5X8B5",
    "result": []
  },
  {
    "postal": "N5X0K1",
    "result": [
      {
        "electoralDistricts": [
          {
            "election": null,
            "id": 54,
            "name": "London North Centre"
          }
        ],
        "pollDivisionIds": [
          10135343
        ],
        "postalCode": "N5X0K1",
        "streetName": "ECLIPSE",
        "streetDirectionId": null,
        "streetTypeId": "WALK",
        "placeName": "LONDON",
        "streetNameDisplayText": "ECLIPSE WALK, LONDON"
      },
      {
        "electoralDistricts": [
          {
            "election": null,
            "id": 54,
            "name": "London North Centre"
          }
        ],
        "pollDivisionIds": [
          10135343
        ],
        "postalCode": "N5X0K1",
        "streetName": "JACKPINE",
        "streetDirectionId": null,
        "streetTypeId": "WAY",
        "placeName": "LONDON",
        "streetNameDisplayText": "JACKPINE WAY, LONDON"
      },
      {
        "electoralDistricts": [
          {
            "election": null,
            "id": 54,
            "name": "London North Centre"
          }
        ],
        "pollDivisionIds": [
          10135343
        ],
        "postalCode": "N5X0K1",
        "streetName": "KLEINBURG",
        "streetDirectionId": null,
        "streetTypeId": "DR",
        "placeName": "LONDON",
        "streetNameDisplayText": "KLEINBURG DR, LONDON"
      }
    ]
  },
  {
    "postal": "N5X7M7",
    "result": []
  },
  {
    "postal": "N5X2M2",
    "result": [
      {
        "electoralDistricts": [
          {
            "election": null,
            "id": 54,
            "name": "London North Centre"
          }
        ],
        "pollDivisionIds": [
          10135347
        ],
        "postalCode": "N5X2M2",
        "streetName": "MERIDENE",
        "streetDirectionId": "W",
        "streetTypeId": "CRES",
        "placeName": "LONDON",
        "streetNameDisplayText": "MERIDENE CRES W, LONDON"
      }
    ]
  },
  {
    "postal": "N5X9N3",
    "result": []
  },
  {
    "postal": "N5X4Y8",
    "result": []
  },
  {
    "postal": "N5X3V7",
    "result": [
      {
        "electoralDistricts": [
          {
            "election": null,
            "id": 54,
            "name": "London North Centre"
          }
        ],
        "pollDivisionIds": [
          10135342
        ],
        "postalCode": "N5X3V7",
        "streetName": "NORTHCREST",
        "streetDirectionId": null,
        "streetTypeId": "DR",
        "placeName": "LONDON",
        "streetNameDisplayText": "NORTHCREST DR, LONDON"
      }
    ]
  },
  {
    "postal": "N5X8Z1",
    "result": []
  },
  {
    "postal": "N5X7B3",
    "result": []
  },
  {
    "postal": "N5X3A8",
    "result": [
      {
        "electoralDistricts": [
          {
            "election": null,
            "id": 54,
            "name": "London North Centre"
          }
        ],
        "pollDivisionIds": [
          10135347
        ],
        "postalCode": "N5X3A8",
        "streetName": "BYBROOK",
        "streetDirectionId": null,
        "streetTypeId": "CRT",
        "placeName": "LONDON",
        "streetNameDisplayText": "BYBROOK CRT, LONDON"
      },
      {
        "electoralDistricts": [
          {
            "election": null,
            "id": 54,
            "name": "London North Centre"
          }
        ],
        "pollDivisionIds": [
          10135347
        ],
        "postalCode": "N5X3A8",
        "streetName": "SILVERBROOK",
        "streetDirectionId": null,
        "streetTypeId": "DR",
        "placeName": "LONDON",
        "streetNameDisplayText": "SILVERBROOK DR, LONDON"
      }
    ]
  },
  {
    "postal": "N5X7V5",
    "result": []
  },
  {
    "postal": "N5X2T2",
    "result": [
      {
        "electoralDistricts": [
          {
            "election": null,
            "id": 54,
            "name": "London North Centre"
          }
        ],
        "pollDivisionIds": [
          10135356
        ],
        "postalCode": "N5X2T2",
        "streetName": "WINDERMERE",
        "streetDirectionId": null,
        "streetTypeId": "RD",
        "placeName": "LONDON",
        "streetNameDisplayText": "WINDERMERE RD, LONDON"
      }
    ]
  },
  {
    "postal": "N5X6L3",
    "result": []
  },
  {
    "postal": "N5X0L2",
    "result": [
      {
        "electoralDistricts": [
          {
            "election": null,
            "id": 54,
            "name": "London North Centre"
          }
        ],
        "pollDivisionIds": [
          10135352
        ],
        "postalCode": "N5X0L2",
        "streetName": "HORSESHOE",
        "streetDirectionId": null,
        "streetTypeId": "CRES",
        "placeName": "LONDON",
        "streetNameDisplayText": "HORSESHOE CRES, LONDON"
      },
      {
        "electoralDistricts": [
          {
            "election": null,
            "id": 54,
            "name": "London North Centre"
          }
        ],
        "pollDivisionIds": [
          10135352
        ],
        "postalCode": "N5X0L2",
        "streetName": "TENNENT",
        "streetDirectionId": null,
        "streetTypeId": "AVE",
        "placeName": "LONDON",
        "streetNameDisplayText": "TENNENT AVE, LONDON"
      }
    ]
  },
  {
    "postal": "N5X5Y8",
    "result": []
  },
  {
    "postal": "N5X0B8",
    "result": [
      {
        "electoralDistricts": [
          {
            "election": null,
            "id": 53,
            "name": "London—Fanshawe"
          }
        ],
        "pollDivisionIds": [
          10139556
        ],
        "postalCode": "N5X0B8",
        "streetName": "ARKLOW",
        "streetDirectionId": null,
        "streetTypeId": "PL",
        "placeName": "LONDON",
        "streetNameDisplayText": "ARKLOW PL, LONDON"
      },
      {
        "electoralDistricts": [
          {
            "election": null,
            "id": 53,
            "name": "London—Fanshawe"
          }
        ],
        "pollDivisionIds": [
          10139556
        ],
        "postalCode": "N5X0B8",
        "streetName": "DINGLE",
        "streetDirectionId": null,
        "streetTypeId": "PL",
        "placeName": "LONDON",
        "streetNameDisplayText": "DINGLE PL, LONDON"
      },
      {
        "electoralDistricts": [
          {
            "election": null,
            "id": 53,
            "name": "London—Fanshawe"
          }
        ],
        "pollDivisionIds": [
          10139556
        ],
        "postalCode": "N5X0B8",
        "streetName": "TRALEE",
        "streetDirectionId": null,
        "streetTypeId": "PL",
        "placeName": "LONDON",
        "streetNameDisplayText": "TRALEE PL, LONDON"
      }
    ]
  },
  {
    "postal": "N5X6R5",
    "result": []
  },
  {
    "postal": "N5X8W6",
    "result": []
  },
  {
    "postal": "N5X8G6",
    "result": []
  },
  {
    "postal": "N5X6X3",
    "result": []
  },
  {
    "postal": "N5X7R7",
    "result": []
  },
  {
    "postal": "N5X4B6",
    "result": [
      {
        "electoralDistricts": [
          {
            "election": null,
            "id": 53,
            "name": "London—Fanshawe"
          }
        ],
        "pollDivisionIds": [
          10139556
        ],
        "postalCode": "N5X4B6",
        "streetName": "HIGHBURY",
        "streetDirectionId": "N",
        "streetTypeId": "AVE",
        "placeName": "LONDON",
        "streetNameDisplayText": "HIGHBURY AVE N, LONDON"
      }
    ]
  },
  {
    "postal": "N5X3P9",
    "result": [
      {
        "electoralDistricts": [
          {
            "election": null,
            "id": 54,
            "name": "London North Centre"
          }
        ],
        "pollDivisionIds": [
          10135350
        ],
        "postalCode": "N5X3P9",
        "streetName": "SHETLAND",
        "streetDirectionId": null,
        "streetTypeId": "CRES",
        "placeName": "LONDON",
        "streetNameDisplayText": "SHETLAND CRES, LONDON"
      },
      {
        "electoralDistricts": [
          {
            "election": null,
            "id": 54,
            "name": "London North Centre"
          }
        ],
        "pollDivisionIds": [
          10135350,
          10135356
        ],
        "postalCode": "N5X3P9",
        "streetName": "SUNNYSIDE",
        "streetDirectionId": null,
        "streetTypeId": "DR",
        "placeName": "LONDON",
        "streetNameDisplayText": "SUNNYSIDE DR, LONDON"
      }
    ]
  },
  {
    "postal": "N5X2T3",
    "result": [
      {
        "electoralDistricts": [
          {
            "election": null,
            "id": 54,
            "name": "London North Centre"
          }
        ],
        "pollDivisionIds": [
          10135357,
          10135347
        ],
        "postalCode": "N5X2T3",
        "streetName": "WINDERMERE",
        "streetDirectionId": null,
        "streetTypeId": "RD",
        "placeName": "LONDON",
        "streetNameDisplayText": "WINDERMERE RD, LONDON"
      }
    ]
  },
  {
    "postal": "N5X1M4",
    "result": [
      {
        "electoralDistricts": [
          {
            "election": null,
            "id": 54,
            "name": "London North Centre"
          }
        ],
        "pollDivisionIds": [
          10135352
        ],
        "postalCode": "N5X1M4",
        "streetName": "DELMONT",
        "streetDirectionId": null,
        "streetTypeId": "AVE",
        "placeName": "LONDON",
        "streetNameDisplayText": "DELMONT AVE, LONDON"
      },
      {
        "electoralDistricts": [
          {
            "election": null,
            "id": 54,
            "name": "London North Centre"
          }
        ],
        "pollDivisionIds": [
          10135352
        ],
        "postalCode": "N5X1M4",
        "streetName": "DELMONT",
        "streetDirectionId": null,
        "streetTypeId": "PL",
        "placeName": "LONDON",
        "streetNameDisplayText": "DELMONT PL, LONDON"
      }
    ]
  },
  {
    "postal": "N5X0H1",
    "result": [
      {
        "electoralDistricts": [
          {
            "election": null,
            "id": 54,
            "name": "London North Centre"
          }
        ],
        "pollDivisionIds": [
          10135344
        ],
        "postalCode": "N5X0H1",
        "streetName": "GOUGH",
        "streetDirectionId": null,
        "streetTypeId": "RD",
        "placeName": "LONDON",
        "streetNameDisplayText": "GOUGH RD, LONDON"
      },
      {
        "electoralDistricts": [
          {
            "election": null,
            "id": 54,
            "name": "London North Centre"
          }
        ],
        "pollDivisionIds": [
          10135344
        ],
        "postalCode": "N5X0H1",
        "streetName": "ROLLINGACRES",
        "streetDirectionId": null,
        "streetTypeId": "DR",
        "placeName": "LONDON",
        "streetNameDisplayText": "ROLLINGACRES DR, LONDON"
      },
      {
        "electoralDistricts": [
          {
            "election": null,
            "id": 54,
            "name": "London North Centre"
          }
        ],
        "pollDivisionIds": [
          10135344
        ],
        "postalCode": "N5X0H1",
        "streetName": "SPRINGRIDGE",
        "streetDirectionId": null,
        "streetTypeId": "DR",
        "placeName": "LONDON",
        "streetNameDisplayText": "SPRINGRIDGE DR, LONDON"
      }
    ]
  },
  {
    "postal": "N5X9W3",
    "result": []
  },
  {
    "postal": "N5X6P1",
    "result": []
  },
  {
    "postal": "N5X7G2",
    "result": []
  },
  {
    "postal": "N5X4J9",
    "result": [
      {
        "electoralDistricts": [
          {
            "election": null,
            "id": 54,
            "name": "London North Centre"
          }
        ],
        "pollDivisionIds": [
          10135343
        ],
        "postalCode": "N5X4J9",
        "streetName": "BLACKWATER",
        "streetDirectionId": null,
        "streetTypeId": "RD",
        "placeName": "LONDON",
        "streetNameDisplayText": "BLACKWATER RD, LONDON"
      },
      {
        "electoralDistricts": [
          {
            "election": null,
            "id": 54,
            "name": "London North Centre"
          }
        ],
        "pollDivisionIds": [
          10135343
        ],
        "postalCode": "N5X4J9",
        "streetName": "CLEARWATER",
        "streetDirectionId": null,
        "streetTypeId": "CRES",
        "placeName": "LONDON",
        "streetNameDisplayText": "CLEARWATER CRES, LONDON"
      }
    ]
  },
  {
    "postal": "N5X9E4",
    "result": []
  },
  {
    "postal": "N5X8H0",
    "result": []
  },
  {
    "postal": "N5X4M7",
    "result": [
      {
        "electoralDistricts": [
          {
            "election": null,
            "id": 54,
            "name": "London North Centre"
          }
        ],
        "pollDivisionIds": [
          10135346
        ],
        "postalCode": "N5X4M7",
        "streetName": "NICOLE",
        "streetDirectionId": null,
        "streetTypeId": "AVE",
        "placeName": "LONDON",
        "streetNameDisplayText": "NICOLE AVE, LONDON"
      },
      {
        "electoralDistricts": [
          {
            "election": null,
            "id": 54,
            "name": "London North Centre"
          }
        ],
        "pollDivisionIds": [
          10135346
        ],
        "postalCode": "N5X4M7",
        "streetName": "STACKHOUSE",
        "streetDirectionId": null,
        "streetTypeId": "CRES",
        "placeName": "LONDON",
        "streetNameDisplayText": "STACKHOUSE CRES, LONDON"
      }
    ]
  },
  {
    "postal": "N5X2G9",
    "result": [
      {
        "electoralDistricts": [
          {
            "election": null,
            "id": 54,
            "name": "London North Centre"
          }
        ],
        "pollDivisionIds": [
          10135346
        ],
        "postalCode": "N5X2G9",
        "streetName": "ESTEVAN",
        "streetDirectionId": null,
        "streetTypeId": "RD",
        "placeName": "LONDON",
        "streetNameDisplayText": "ESTEVAN RD, LONDON"
      }
    ]
  },
  {
    "postal": "N5X8T2",
    "result": []
  },
  {
    "postal": "N5X7G7",
    "result": []
  },
  {
    "postal": "N5X4Z3",
    "result": []
  },
  {
    "postal": "N5X5B3",
    "result": []
  },
  {
    "postal": "N5X1S7",
    "result": [
      {
        "electoralDistricts": [
          {
            "election": null,
            "id": 54,
            "name": "London North Centre"
          }
        ],
        "pollDivisionIds": [
          10135352
        ],
        "postalCode": "N5X1S7",
        "streetName": "MCLEOD",
        "streetDirectionId": null,
        "streetTypeId": "CRES",
        "placeName": "LONDON",
        "streetNameDisplayText": "MCLEOD CRES, LONDON"
      }
    ]
  },
  {
    "postal": "N5X2N7",
    "result": [
      {
        "electoralDistricts": [
          {
            "election": null,
            "id": 54,
            "name": "London North Centre"
          }
        ],
        "pollDivisionIds": [
          10135347
        ],
        "postalCode": "N5X2N7",
        "streetName": "SPRUCEDALE",
        "streetDirectionId": null,
        "streetTypeId": "AVE",
        "placeName": "LONDON",
        "streetNameDisplayText": "SPRUCEDALE AVE, LONDON"
      }
    ]
  },
  {
    "postal": "N5X0H8",
    "result": [
      {
        "electoralDistricts": [
          {
            "election": null,
            "id": 53,
            "name": "London—Fanshawe"
          }
        ],
        "pollDivisionIds": [
          10139556
        ],
        "postalCode": "N5X0H8",
        "streetName": "GUINESS",
        "streetDirectionId": null,
        "streetTypeId": "WAY",
        "placeName": "LONDON",
        "streetNameDisplayText": "GUINESS WAY, LONDON"
      },
      {
        "electoralDistricts": [
          {
            "election": null,
            "id": 53,
            "name": "London—Fanshawe"
          }
        ],
        "pollDivisionIds": [
          10139556
        ],
        "postalCode": "N5X0H8",
        "streetName": "REILLY",
        "streetDirectionId": null,
        "streetTypeId": "WALK",
        "placeName": "LONDON",
        "streetNameDisplayText": "REILLY WALK, LONDON"
      }
    ]
  },
  {
    "postal": "N5X7Z4",
    "result": []
  },
  {
    "postal": "N5X7B1",
    "result": []
  },
  {
    "postal": "N5X7P8",
    "result": []
  },
  {
    "postal": "N5X7N0",
    "result": []
  },
  {
    "postal": "N5X3Y5",
    "result": [
      {
        "electoralDistricts": [
          {
            "election": null,
            "id": 53,
            "name": "London—Fanshawe"
          }
        ],
        "pollDivisionIds": [
          10139556
        ],
        "postalCode": "N5X3Y5",
        "streetName": "SUNNINGDALE",
        "streetDirectionId": "E",
        "streetTypeId": "RD",
        "placeName": "LONDON",
        "streetNameDisplayText": "SUNNINGDALE RD E, LONDON"
      }
    ]
  },
  {
    "postal": "N5X6K1",
    "result": []
  },
  {
    "postal": "N5X9X5",
    "result": []
  },
  {
    "postal": "N5X7S5",
    "result": []
  },
  {
    "postal": "N5X0A4",
    "result": [
      {
        "electoralDistricts": [
          {
            "election": null,
            "id": 54,
            "name": "London North Centre"
          }
        ],
        "pollDivisionIds": [
          10135345
        ],
        "postalCode": "N5X0A4",
        "streetName": "MEADOWSWEET",
        "streetDirectionId": null,
        "streetTypeId": "TRAIL",
        "placeName": "LONDON",
        "streetNameDisplayText": "MEADOWSWEET TRAIL, LONDON"
      },
      {
        "electoralDistricts": [
          {
            "election": null,
            "id": 54,
            "name": "London North Centre"
          }
        ],
        "pollDivisionIds": [
          10135345,
          10135343
        ],
        "postalCode": "N5X0A4",
        "streetName": "SKYLINE",
        "streetDirectionId": null,
        "streetTypeId": "AVE",
        "placeName": "LONDON",
        "streetNameDisplayText": "SKYLINE AVE, LONDON"
      }
    ]
  },
  {
    "postal": "N5X4T5",
    "result": []
  },
  {
    "postal": "N5X5K1",
    "result": []
  },
  {
    "postal": "N5X0Z9",
    "result": []
  },
  {
    "postal": "N5X7T2",
    "result": []
  },
  {
    "postal": "N5X1L5",
    "result": [
      {
        "electoralDistricts": [
          {
            "election": null,
            "id": 54,
            "name": "London North Centre"
          }
        ],
        "pollDivisionIds": [
          10135348
        ],
        "postalCode": "N5X1L5",
        "streetName": "FANSHAWE PARK",
        "streetDirectionId": "E",
        "streetTypeId": "RD",
        "placeName": "LONDON",
        "streetNameDisplayText": "FANSHAWE PARK RD E, LONDON"
      }
    ]
  },
  {
    "postal": "N5X3N5",
    "result": [
      {
        "electoralDistricts": [
          {
            "election": null,
            "id": 54,
            "name": "London North Centre"
          }
        ],
        "pollDivisionIds": [
          10135350
        ],
        "postalCode": "N5X3N5",
        "streetName": "SUNNYSIDE",
        "streetDirectionId": null,
        "streetTypeId": "CRES",
        "placeName": "LONDON",
        "streetNameDisplayText": "SUNNYSIDE CRES, LONDON"
      }
    ]
  },
  {
    "postal": "N5X6H4",
    "result": []
  },
  {
    "postal": "N5X5A5",
    "result": []
  },
  {
    "postal": "N5X3R9",
    "result": [
      {
        "electoralDistricts": [
          {
            "election": null,
            "id": 54,
            "name": "London North Centre"
          }
        ],
        "pollDivisionIds": [
          10135356
        ],
        "postalCode": "N5X3R9",
        "streetName": "ORKNEY",
        "streetDirectionId": null,
        "streetTypeId": "CRES",
        "placeName": "LONDON",
        "streetNameDisplayText": "ORKNEY CRES, LONDON"
      }
    ]
  },
  {
    "postal": "N5X7L8",
    "result": []
  },
  {
    "postal": "N5X6T6",
    "result": []
  },
  {
    "postal": "N5X7Y7",
    "result": []
  },
  {
    "postal": "N5X3M8",
    "result": []
  },
  {
    "postal": "N5X2E0",
    "result": []
  },
  {
    "postal": "N5X4B5",
    "result": [
      {
        "electoralDistricts": [
          {
            "election": null,
            "id": 54,
            "name": "London North Centre"
          }
        ],
        "pollDivisionIds": [
          10135344
        ],
        "postalCode": "N5X4B5",
        "streetName": "HIGHBURY",
        "streetDirectionId": "N",
        "streetTypeId": "AVE",
        "placeName": "LONDON",
        "streetNameDisplayText": "HIGHBURY AVE N, LONDON"
      }
    ]
  },
  {
    "postal": "N5X1J3",
    "result": [
      {
        "electoralDistricts": [
          {
            "election": null,
            "id": 54,
            "name": "London North Centre"
          }
        ],
        "pollDivisionIds": [
          10135347
        ],
        "postalCode": "N5X1J3",
        "streetName": "WILLOWDALE",
        "streetDirectionId": null,
        "streetTypeId": "AVE",
        "placeName": "LONDON",
        "streetNameDisplayText": "WILLOWDALE AVE, LONDON"
      }
    ]
  },
  {
    "postal": "N5X5S6",
    "result": []
  },
  {
    "postal": "N5X8P7",
    "result": []
  },
  {
    "postal": "N5X7S7",
    "result": []
  },
  {
    "postal": "N5X4C2",
    "result": [
      {
        "electoralDistricts": [
          {
            "election": null,
            "id": 54,
            "name": "London North Centre"
          }
        ],
        "pollDivisionIds": [
          10135351
        ],
        "postalCode": "N5X4C2",
        "streetName": "SPENCER",
        "streetDirectionId": null,
        "streetTypeId": "CRES",
        "placeName": "LONDON",
        "streetNameDisplayText": "SPENCER CRES, LONDON"
      }
    ]
  },
  {
    "postal": "N5X5Y0",
    "result": []
  },
  {
    "postal": "N5X2V7",
    "result": [
      {
        "electoralDistricts": [
          {
            "election": null,
            "id": 54,
            "name": "London North Centre"
          }
        ],
        "pollDivisionIds": [
          10135347
        ],
        "postalCode": "N5X2V7",
        "streetName": "PHILLBROOK",
        "streetDirectionId": null,
        "streetTypeId": "DR",
        "placeName": "LONDON",
        "streetNameDisplayText": "PHILLBROOK DR, LONDON"
      }
    ]
  },
  {
    "postal": "N5X8P5",
    "result": []
  },
  {
    "postal": "N5X5P5",
    "result": []
  },
  {
    "postal": "N5X5Z0",
    "result": []
  },
  {
    "postal": "N5X9B0",
    "result": []
  },
  {
    "postal": "N5X1L0",
    "result": []
  },
  {
    "postal": "N5X0B5",
    "result": [
      {
        "electoralDistricts": [
          {
            "election": null,
            "id": 54,
            "name": "London North Centre"
          }
        ],
        "pollDivisionIds": [
          10135343
        ],
        "postalCode": "N5X0B5",
        "streetName": "BLUEBELL",
        "streetDirectionId": null,
        "streetTypeId": "RD",
        "placeName": "LONDON",
        "streetNameDisplayText": "BLUEBELL RD, LONDON"
      },
      {
        "electoralDistricts": [
          {
            "election": null,
            "id": 54,
            "name": "London North Centre"
          }
        ],
        "pollDivisionIds": [
          10135343
        ],
        "postalCode": "N5X0B5",
        "streetName": "SKYLINE",
        "streetDirectionId": null,
        "streetTypeId": "AVE",
        "placeName": "LONDON",
        "streetNameDisplayText": "SKYLINE AVE, LONDON"
      }
    ]
  },
  {
    "postal": "N5X3L2",
    "result": [
      {
        "electoralDistricts": [
          {
            "election": null,
            "id": 54,
            "name": "London North Centre"
          }
        ],
        "pollDivisionIds": [
          10135345
        ],
        "postalCode": "N5X3L2",
        "streetName": "JENNIFER",
        "streetDirectionId": null,
        "streetTypeId": "GDNS",
        "placeName": "LONDON",
        "streetNameDisplayText": "JENNIFER GDNS, LONDON"
      },
      {
        "electoralDistricts": [
          {
            "election": null,
            "id": 54,
            "name": "London North Centre"
          }
        ],
        "pollDivisionIds": [
          10135345
        ],
        "postalCode": "N5X3L2",
        "streetName": "JENNIFER",
        "streetDirectionId": null,
        "streetTypeId": "RD",
        "placeName": "LONDON",
        "streetNameDisplayText": "JENNIFER RD, LONDON"
      },
      {
        "electoralDistricts": [
          {
            "election": null,
            "id": 54,
            "name": "London North Centre"
          }
        ],
        "pollDivisionIds": [
          10135345
        ],
        "postalCode": "N5X3L2",
        "streetName": "NANETTE",
        "streetDirectionId": null,
        "streetTypeId": "DR",
        "placeName": "LONDON",
        "streetNameDisplayText": "NANETTE DR, LONDON"
      }
    ]
  },
  {
    "postal": "N5X3B7",
    "result": [
      {
        "electoralDistricts": [
          {
            "election": null,
            "id": 54,
            "name": "London North Centre"
          }
        ],
        "pollDivisionIds": [
          10135348
        ],
        "postalCode": "N5X3B7",
        "streetName": "GRENFELL",
        "streetDirectionId": null,
        "streetTypeId": "PL",
        "placeName": "LONDON",
        "streetNameDisplayText": "GRENFELL PL, LONDON"
      }
    ]
  },
  {
    "postal": "N5X8L1",
    "result": []
  },
  {
    "postal": "N5X5M4",
    "result": []
  },
  {
    "postal": "N5X4G9",
    "result": [
      {
        "electoralDistricts": [
          {
            "election": null,
            "id": 53,
            "name": "London—Fanshawe"
          },
          {
            "election": null,
            "id": 54,
            "name": "London North Centre"
          }
        ],
        "pollDivisionIds": [
          10139556,
          10135344
        ],
        "postalCode": "N5X4G9",
        "streetName": "BRIAR",
        "streetDirectionId": null,
        "streetTypeId": "CRT",
        "placeName": "LONDON",
        "streetNameDisplayText": "BRIAR CRT, LONDON"
      },
      {
        "electoralDistricts": [
          {
            "election": null,
            "id": 54,
            "name": "London North Centre"
          }
        ],
        "pollDivisionIds": [
          10135344
        ],
        "postalCode": "N5X4G9",
        "streetName": "SOUTH WENIGE",
        "streetDirectionId": null,
        "streetTypeId": "DR",
        "placeName": "LONDON",
        "streetNameDisplayText": "SOUTH WENIGE DR, LONDON"
      }
    ]
  },
  {
    "postal": "N5X0P0",
    "result": []
  },
  {
    "postal": "N5X8G2",
    "result": []
  },
  {
    "postal": "N5X1V9",
    "result": [
      {
        "electoralDistricts": [
          {
            "election": null,
            "id": 54,
            "name": "London North Centre"
          }
        ],
        "pollDivisionIds": [
          10135353
        ],
        "postalCode": "N5X1V9",
        "streetName": "ERINDALE",
        "streetDirectionId": null,
        "streetTypeId": "CRES",
        "placeName": "LONDON",
        "streetNameDisplayText": "ERINDALE CRES, LONDON"
      }
    ]
  },
  {
    "postal": "N5X8N8",
    "result": []
  },
  {
    "postal": "N5X6S8",
    "result": []
  },
  {
    "postal": "N5X8H2",
    "result": []
  },
  {
    "postal": "N5X5R8",
    "result": []
  },
  {
    "postal": "N5X5L4",
    "result": []
  },
  {
    "postal": "N5X9E1",
    "result": []
  },
  {
    "postal": "N5X1C4",
    "result": [
      {
        "electoralDistricts": [
          {
            "election": null,
            "id": 54,
            "name": "London North Centre"
          }
        ],
        "pollDivisionIds": [
          10135357,
          10135347
        ],
        "postalCode": "N5X1C4",
        "streetName": "STONEYBROOK",
        "streetDirectionId": null,
        "streetTypeId": "CRES",
        "placeName": "LONDON",
        "streetNameDisplayText": "STONEYBROOK CRES, LONDON"
      }
    ]
  },
  {
    "postal": "N5X8W5",
    "result": []
  },
  {
    "postal": "N5X1Y4",
    "result": [
      {
        "electoralDistricts": [
          {
            "election": null,
            "id": 54,
            "name": "London North Centre"
          }
        ],
        "pollDivisionIds": [
          10135354,
          10135353
        ],
        "postalCode": "N5X1Y4",
        "streetName": "MCLEAN",
        "streetDirectionId": null,
        "streetTypeId": "DR",
        "placeName": "LONDON",
        "streetNameDisplayText": "MCLEAN DR, LONDON"
      }
    ]
  },
  {
    "postal": "N5X1C0",
    "result": []
  },
  {
    "postal": "N5X2J2",
    "result": [
      {
        "electoralDistricts": [
          {
            "election": null,
            "id": 54,
            "name": "London North Centre"
          }
        ],
        "pollDivisionIds": [
          10135351
        ],
        "postalCode": "N5X2J2",
        "streetName": "HASTINGS",
        "streetDirectionId": null,
        "streetTypeId": "DR",
        "placeName": "LONDON",
        "streetNameDisplayText": "HASTINGS DR, LONDON"
      }
    ]
  },
  {
    "postal": "N5X2J0",
    "result": []
  },
  {
    "postal": "N5X7A3",
    "result": []
  },
  {
    "postal": "N5X8M1",
    "result": []
  },
  {
    "postal": "N5X7T9",
    "result": []
  },
  {
    "postal": "N5X6C0",
    "result": []
  },
  {
    "postal": "N5X7X1",
    "result": []
  },
  {
    "postal": "N5X0G1",
    "result": [
      {
        "electoralDistricts": [
          {
            "election": null,
            "id": 54,
            "name": "London North Centre"
          }
        ],
        "pollDivisionIds": [
          10135346
        ],
        "postalCode": "N5X0G1",
        "streetName": "DEVOS",
        "streetDirectionId": null,
        "streetTypeId": "DR",
        "placeName": "LONDON",
        "streetNameDisplayText": "DEVOS DR, LONDON"
      },
      {
        "electoralDistricts": [
          {
            "election": null,
            "id": 54,
            "name": "London North Centre"
          }
        ],
        "pollDivisionIds": [
          10135346
        ],
        "postalCode": "N5X0G1",
        "streetName": "STACKHOUSE",
        "streetDirectionId": null,
        "streetTypeId": "AVE",
        "placeName": "LONDON",
        "streetNameDisplayText": "STACKHOUSE AVE, LONDON"
      }
    ]
  },
  {
    "postal": "N5X4X2",
    "result": []
  },
  {
    "postal": "N5X0N6",
    "result": []
  },
  {
    "postal": "N5X8E3",
    "result": []
  },
  {
    "postal": "N5X5S8",
    "result": []
  },
  {
    "postal": "N5X0R0",
    "result": []
  },
  {
    "postal": "N5X6J6",
    "result": []
  },
  {
    "postal": "N5X4B4",
    "result": [
      {
        "electoralDistricts": [
          {
            "election": null,
            "id": 54,
            "name": "London North Centre"
          }
        ],
        "pollDivisionIds": [
          10135344
        ],
        "postalCode": "N5X4B4",
        "streetName": "ADELAIDE",
        "streetDirectionId": "N",
        "streetTypeId": "ST",
        "placeName": "LONDON",
        "streetNameDisplayText": "ADELAIDE ST N, LONDON"
      }
    ]
  },
  {
    "postal": "N5X7E3",
    "result": []
  },
  {
    "postal": "N5X3N6",
    "result": [
      {
        "electoralDistricts": [
          {
            "election": null,
            "id": 54,
            "name": "London North Centre"
          }
        ],
        "pollDivisionIds": [
          10135350
        ],
        "postalCode": "N5X3N6",
        "streetName": "SUNNYSIDE",
        "streetDirectionId": null,
        "streetTypeId": "CRES",
        "placeName": "LONDON",
        "streetNameDisplayText": "SUNNYSIDE CRES, LONDON"
      }
    ]
  },
  {
    "postal": "N5X3X6",
    "result": [
      {
        "electoralDistricts": [
          {
            "election": null,
            "id": 54,
            "name": "London North Centre"
          }
        ],
        "pollDivisionIds": [
          10135353
        ],
        "postalCode": "N5X3X6",
        "streetName": "KILLARNEY",
        "streetDirectionId": null,
        "streetTypeId": "GROVE",
        "placeName": "LONDON",
        "streetNameDisplayText": "KILLARNEY GROVE, LONDON"
      },
      {
        "electoralDistricts": [
          {
            "election": null,
            "id": 54,
            "name": "London North Centre"
          }
        ],
        "pollDivisionIds": [
          10135381
        ],
        "postalCode": "N5X3X6",
        "streetName": "ONTARIO",
        "streetDirectionId": null,
        "streetTypeId": "ST",
        "placeName": "LONDON",
        "streetNameDisplayText": "ONTARIO ST, LONDON"
      }
    ]
  },
  {
    "postal": "N5X8L0",
    "result": []
  },
  {
    "postal": "N5X8N1",
    "result": []
  },
  {
    "postal": "N5X4J0",
    "result": []
  },
  {
    "postal": "N5X0X7",
    "result": []
  },
  {
    "postal": "N5X6S4",
    "result": []
  },
  {
    "postal": "N5X0Z0",
    "result": []
  },
  {
    "postal": "N5X9X8",
    "result": []
  },
  {
    "postal": "N5X3H3",
    "result": [
      {
        "electoralDistricts": [
          {
            "election": null,
            "id": 54,
            "name": "London North Centre"
          }
        ],
        "pollDivisionIds": [
          10135345
        ],
        "postalCode": "N5X3H3",
        "streetName": "PINE RIDGE",
        "streetDirectionId": null,
        "streetTypeId": "DR",
        "placeName": "LONDON",
        "streetNameDisplayText": "PINE RIDGE DR, LONDON"
      },
      {
        "electoralDistricts": [
          {
            "election": null,
            "id": 54,
            "name": "London North Centre"
          }
        ],
        "pollDivisionIds": [
          10135345
        ],
        "postalCode": "N5X3H3",
        "streetName": "PINE RIDGE",
        "streetDirectionId": null,
        "streetTypeId": "GROVE",
        "placeName": "LONDON",
        "streetNameDisplayText": "PINE RIDGE GROVE, LONDON"
      }
    ]
  },
  {
    "postal": "N5X7S2",
    "result": []
  },
  {
    "postal": "N5X3T3",
    "result": [
      {
        "electoralDistricts": [
          {
            "election": null,
            "id": 54,
            "name": "London North Centre"
          }
        ],
        "pollDivisionIds": [
          10135350
        ],
        "postalCode": "N5X3T3",
        "streetName": "MASONVILLE",
        "streetDirectionId": null,
        "streetTypeId": "CRES",
        "placeName": "LONDON",
        "streetNameDisplayText": "MASONVILLE CRES, LONDON"
      },
      {
        "electoralDistricts": [
          {
            "election": null,
            "id": 54,
            "name": "London North Centre"
          }
        ],
        "pollDivisionIds": [
          10135350
        ],
        "postalCode": "N5X3T3",
        "streetName": "MASONVILLE",
        "streetDirectionId": null,
        "streetTypeId": "CRT",
        "placeName": "LONDON",
        "streetNameDisplayText": "MASONVILLE CRT, LONDON"
      }
    ]
  },
  {
    "postal": "N5X9P3",
    "result": []
  },
  {
    "postal": "N5X4H8",
    "result": [
      {
        "electoralDistricts": [
          {
            "election": null,
            "id": 54,
            "name": "London North Centre"
          }
        ],
        "pollDivisionIds": [
          10135346
        ],
        "postalCode": "N5X4H8",
        "streetName": "DEVOS",
        "streetDirectionId": null,
        "streetTypeId": "DR",
        "placeName": "LONDON",
        "streetNameDisplayText": "DEVOS DR, LONDON"
      },
      {
        "electoralDistricts": [
          {
            "election": null,
            "id": 54,
            "name": "London North Centre"
          }
        ],
        "pollDivisionIds": [
          10135346
        ],
        "postalCode": "N5X4H8",
        "streetName": "GRENFELL",
        "streetDirectionId": null,
        "streetTypeId": "DR",
        "placeName": "LONDON",
        "streetNameDisplayText": "GRENFELL DR, LONDON"
      }
    ]
  },
  {
    "postal": "N5X6R1",
    "result": []
  },
  {
    "postal": "N5X1S0",
    "result": []
  },
  {
    "postal": "N5X3W8",
    "result": [
      {
        "electoralDistricts": [
          {
            "election": null,
            "id": 54,
            "name": "London North Centre"
          }
        ],
        "pollDivisionIds": [
          10135350
        ],
        "postalCode": "N5X3W8",
        "streetName": "CARRIAGE HILL",
        "streetDirectionId": null,
        "streetTypeId": "CRES",
        "placeName": "LONDON",
        "streetNameDisplayText": "CARRIAGE HILL CRES, LONDON"
      },
      {
        "electoralDistricts": [
          {
            "election": null,
            "id": 54,
            "name": "London North Centre"
          }
        ],
        "pollDivisionIds": [
          10135350
        ],
        "postalCode": "N5X3W8",
        "streetName": "CARRIAGE HILL",
        "streetDirectionId": null,
        "streetTypeId": "DR",
        "placeName": "LONDON",
        "streetNameDisplayText": "CARRIAGE HILL DR, LONDON"
      }
    ]
  },
  {
    "postal": "N5X4S3",
    "result": []
  },
  {
    "postal": "N5X1B6",
    "result": [
      {
        "electoralDistricts": [
          {
            "election": null,
            "id": 54,
            "name": "London North Centre"
          }
        ],
        "pollDivisionIds": [
          10135351
        ],
        "postalCode": "N5X1B6",
        "streetName": "CUMBERLAND",
        "streetDirectionId": null,
        "streetTypeId": "CRES",
        "placeName": "LONDON",
        "streetNameDisplayText": "CUMBERLAND CRES, LONDON"
      }
    ]
  },
  {
    "postal": "N5X8R3",
    "result": []
  },
  {
    "postal": "N5X4V9",
    "result": []
  },
  {
    "postal": "N5X9W4",
    "result": []
  },
  {
    "postal": "N5X3T4",
    "result": [
      {
        "electoralDistricts": [
          {
            "election": null,
            "id": 54,
            "name": "London North Centre"
          }
        ],
        "pollDivisionIds": [
          10135347
        ],
        "postalCode": "N5X3T4",
        "streetName": "FANSHAWE PARK",
        "streetDirectionId": "E",
        "streetTypeId": "RD",
        "placeName": "LONDON",
        "streetNameDisplayText": "FANSHAWE PARK RD E, LONDON"
      }
    ]
  },
  {
    "postal": "N5X5C7",
    "result": []
  },
  {
    "postal": "N5X3Y1",
    "result": [
      {
        "electoralDistricts": [
          {
            "election": null,
            "id": 54,
            "name": "London North Centre"
          }
        ],
        "pollDivisionIds": [
          10135352
        ],
        "postalCode": "N5X3Y1",
        "streetName": "ADELAIDE",
        "streetDirectionId": "N",
        "streetTypeId": "ST",
        "placeName": "LONDON",
        "streetNameDisplayText": "ADELAIDE ST N, LONDON"
      }
    ]
  },
  {
    "postal": "N5X5V0",
    "result": []
  },
  {
    "postal": "N5X8G8",
    "result": []
  },
  {
    "postal": "N5X8B1",
    "result": []
  },
  {
    "postal": "N5X4P5",
    "result": [
      {
        "electoralDistricts": [
          {
            "election": null,
            "id": 54,
            "name": "London North Centre"
          }
        ],
        "pollDivisionIds": [
          10135344
        ],
        "postalCode": "N5X4P5",
        "streetName": "PLEASANTVIEW",
        "streetDirectionId": null,
        "streetTypeId": "DR",
        "placeName": "LONDON",
        "streetNameDisplayText": "PLEASANTVIEW DR, LONDON"
      },
      {
        "electoralDistricts": [
          {
            "election": null,
            "id": 54,
            "name": "London North Centre"
          }
        ],
        "pollDivisionIds": [
          10135344
        ],
        "postalCode": "N5X4P5",
        "streetName": "WATERWHEEL",
        "streetDirectionId": null,
        "streetTypeId": "PL",
        "placeName": "LONDON",
        "streetNameDisplayText": "WATERWHEEL PL, LONDON"
      }
    ]
  },
  {
    "postal": "N5X7B2",
    "result": []
  },
  {
    "postal": "N5X0R2",
    "result": []
  },
  {
    "postal": "N5X4M4",
    "result": [
      {
        "electoralDistricts": [
          {
            "election": null,
            "id": 54,
            "name": "London North Centre"
          }
        ],
        "pollDivisionIds": [
          10135345
        ],
        "postalCode": "N5X4M4",
        "streetName": "BERRYHILL",
        "streetDirectionId": null,
        "streetTypeId": "DR",
        "placeName": "LONDON",
        "streetNameDisplayText": "BERRYHILL DR, LONDON"
      },
      {
        "electoralDistricts": [
          {
            "election": null,
            "id": 54,
            "name": "London North Centre"
          }
        ],
        "pollDivisionIds": [
          10135345
        ],
        "postalCode": "N5X4M4",
        "streetName": "COTTONTAIL",
        "streetDirectionId": null,
        "streetTypeId": "CRES",
        "placeName": "LONDON",
        "streetNameDisplayText": "COTTONTAIL CRES, LONDON"
      }
    ]
  },
  {
    "postal": "N5X7M4",
    "result": []
  },
  {
    "postal": "N5X9S7",
    "result": []
  },
  {
    "postal": "N5X5Z7",
    "result": []
  },
  {
    "postal": "N5X7J7",
    "result": []
  },
  {
    "postal": "N5X8R8",
    "result": []
  },
  {
    "postal": "N5X9X1",
    "result": []
  },
  {
    "postal": "N5X5M9",
    "result": []
  },
  {
    "postal": "N5X9B4",
    "result": []
  },
  {
    "postal": "N5X0L9",
    "result": [
      {
        "electoralDistricts": [
          {
            "election": null,
            "id": 54,
            "name": "London North Centre"
          }
        ],
        "pollDivisionIds": [
          10135343
        ],
        "postalCode": "N5X0L9",
        "streetName": "CANVAS",
        "streetDirectionId": null,
        "streetTypeId": "WAY",
        "placeName": "LONDON",
        "streetNameDisplayText": "CANVAS WAY, LONDON"
      },
      {
        "electoralDistricts": [
          {
            "election": null,
            "id": 54,
            "name": "London North Centre"
          }
        ],
        "pollDivisionIds": [
          10135343
        ],
        "postalCode": "N5X0L9",
        "streetName": "JACKPINE",
        "streetDirectionId": null,
        "streetTypeId": "WAY",
        "placeName": "LONDON",
        "streetNameDisplayText": "JACKPINE WAY, LONDON"
      }
    ]
  },
  {
    "postal": "N5X9G4",
    "result": []
  },
  {
    "postal": "N5X1J4",
    "result": [
      {
        "electoralDistricts": [
          {
            "election": null,
            "id": 54,
            "name": "London North Centre"
          }
        ],
        "pollDivisionIds": [
          10135347
        ],
        "postalCode": "N5X1J4",
        "streetName": "SPRUCEDALE",
        "streetDirectionId": null,
        "streetTypeId": "AVE",
        "placeName": "LONDON",
        "streetNameDisplayText": "SPRUCEDALE AVE, LONDON"
      }
    ]
  },
  {
    "postal": "N5X0W6",
    "result": []
  }
]
