[
  {
    "postal": "N8W9J6",
    "result": []
  },
  {
    "postal": "N8W9Z5",
    "result": []
  },
  {
    "postal": "N8W7H8",
    "result": []
  },
  {
    "postal": "N8W0P6",
    "result": []
  },
  {
    "postal": "N8W0S7",
    "result": []
  },
  {
    "postal": "N8W8B9",
    "result": []
  },
  {
    "postal": "N8W2A6",
    "result": [
      {
        "electoralDistricts": [
          {
            "election": null,
            "id": 119,
            "name": "Windsor West"
          }
        ],
        "pollDivisionIds": [
          10142814
        ],
        "postalCode": "N8W2A6",
        "streetName": "MARLIN",
        "streetDirectionId": null,
        "streetTypeId": "CRT",
        "placeName": "WINDSOR",
        "streetNameDisplayText": "MARLIN CRT, WINDSOR"
      }
    ]
  },
  {
    "postal": "N8W7V2",
    "result": []
  },
  {
    "postal": "N8W9P4",
    "result": []
  },
  {
    "postal": "N8W6G0",
    "result": []
  },
  {
    "postal": "N8W2K0",
    "result": []
  },
  {
    "postal": "N8W7N6",
    "result": []
  },
  {
    "postal": "N8W5R3",
    "result": [
      {
        "electoralDistricts": [
          {
            "election": null,
            "id": 119,
            "name": "Windsor West"
          }
        ],
        "pollDivisionIds": [
          10142814
        ],
        "postalCode": "N8W5R3",
        "streetName": "MAPLE LEAF",
        "streetDirectionId": null,
        "streetTypeId": "CRES",
        "placeName": "WINDSOR",
        "streetNameDisplayText": "MAPLE LEAF CRES, WINDSOR"
      }
    ]
  },
  {
    "postal": "N8W7K0",
    "result": []
  },
  {
    "postal": "N8W3R2",
    "result": [
      {
        "electoralDistricts": [
          {
            "election": null,
            "id": 119,
            "name": "Windsor West"
          }
        ],
        "pollDivisionIds": [
          10142808
        ],
        "postalCode": "N8W3R2",
        "streetName": "WALKER",
        "streetDirectionId": null,
        "streetTypeId": "RD",
        "placeName": "WINDSOR",
        "streetNameDisplayText": "WALKER RD, WINDSOR"
      }
    ]
  },
  {
    "postal": "N8W0J1",
    "result": []
  },
  {
    "postal": "N8W0B0",
    "result": []
  },
  {
    "postal": "N8W5Z2",
    "result": []
  },
  {
    "postal": "N8W7P3",
    "result": []
  },
  {
    "postal": "N8W2K3",
    "result": [
      {
        "electoralDistricts": [
          {
            "election": null,
            "id": 119,
            "name": "Windsor West"
          }
        ],
        "pollDivisionIds": [
          10142807
        ],
        "postalCode": "N8W2K3",
        "streetName": "PARKWOOD",
        "streetDirectionId": null,
        "streetTypeId": "AVE",
        "placeName": "WINDSOR",
        "streetNameDisplayText": "PARKWOOD AVE, WINDSOR"
      }
    ]
  },
  {
    "postal": "N8W7Y6",
    "result": []
  },
  {
    "postal": "N8W1L9",
    "result": [
      {
        "electoralDistricts": [
          {
            "election": null,
            "id": 119,
            "name": "Windsor West"
          }
        ],
        "pollDivisionIds": [
          10142804
        ],
        "postalCode": "N8W1L9",
        "streetName": "LENS",
        "streetDirectionId": null,
        "streetTypeId": "AVE",
        "placeName": "WINDSOR",
        "streetNameDisplayText": "LENS AVE, WINDSOR"
      }
    ]
  },
  {
    "postal": "N8W8T0",
    "result": []
  },
  {
    "postal": "N8W3K8",
    "result": [
      {
        "electoralDistricts": [
          {
            "election": null,
            "id": 119,
            "name": "Windsor West"
          }
        ],
        "pollDivisionIds": [
          10142807
        ],
        "postalCode": "N8W3K8",
        "streetName": "TURNER",
        "streetDirectionId": null,
        "streetTypeId": "RD",
        "placeName": "WINDSOR",
        "streetNameDisplayText": "TURNER RD, WINDSOR"
      }
    ]
  },
  {
    "postal": "N8W5W9",
    "result": [
      {
        "electoralDistricts": [
          {
            "election": null,
            "id": 119,
            "name": "Windsor West"
          }
        ],
        "pollDivisionIds": [
          10142809
        ],
        "postalCode": "N8W5W9",
        "streetName": "DIVISION",
        "streetDirectionId": null,
        "streetTypeId": "RD",
        "placeName": "WINDSOR",
        "streetNameDisplayText": "DIVISION RD, WINDSOR"
      }
    ]
  },
  {
    "postal": "N8W6T9",
    "result": []
  },
  {
    "postal": "N8W4H1",
    "result": [
      {
        "electoralDistricts": [
          {
            "election": null,
            "id": 119,
            "name": "Windsor West"
          }
        ],
        "pollDivisionIds": [
          10142813
        ],
        "postalCode": "N8W4H1",
        "streetName": "LARKIN",
        "streetDirectionId": null,
        "streetTypeId": "RD",
        "placeName": "WINDSOR",
        "streetNameDisplayText": "LARKIN RD, WINDSOR"
      }
    ]
  },
  {
    "postal": "N8W7A2",
    "result": []
  },
  {
    "postal": "N8W5G0",
    "result": []
  },
  {
    "postal": "N8W8V5",
    "result": []
  },
  {
    "postal": "N8W2Y8",
    "result": [
      {
        "electoralDistricts": [
          {
            "election": null,
            "id": 119,
            "name": "Windsor West"
          }
        ],
        "pollDivisionIds": [
          10142812
        ],
        "postalCode": "N8W2Y8",
        "streetName": "WOODWARD",
        "streetDirectionId": null,
        "streetTypeId": "BLVD",
        "placeName": "WINDSOR",
        "streetNameDisplayText": "WOODWARD BLVD, WINDSOR"
      }
    ]
  },
  {
    "postal": "N8W2B6",
    "result": [
      {
        "electoralDistricts": [
          {
            "election": null,
            "id": 119,
            "name": "Windsor West"
          }
        ],
        "pollDivisionIds": [
          10142804
        ],
        "postalCode": "N8W2B6",
        "streetName": "LOUIS",
        "streetDirectionId": null,
        "streetTypeId": "AVE",
        "placeName": "WINDSOR",
        "streetNameDisplayText": "LOUIS AVE, WINDSOR"
      }
    ]
  },
  {
    "postal": "N8W4W8",
    "result": [
      {
        "electoralDistricts": [
          {
            "election": null,
            "id": 119,
            "name": "Windsor West"
          }
        ],
        "pollDivisionIds": [
          10142808
        ],
        "postalCode": "N8W4W8",
        "streetName": "SOUTHDALE",
        "streetDirectionId": null,
        "streetTypeId": "DR",
        "placeName": "WINDSOR",
        "streetNameDisplayText": "SOUTHDALE DR, WINDSOR"
      }
    ]
  },
  {
    "postal": "N8W8H7",
    "result": []
  },
  {
    "postal": "N8W5P1",
    "result": [
      {
        "electoralDistricts": [
          {
            "election": null,
            "id": 119,
            "name": "Windsor West"
          }
        ],
        "pollDivisionIds": [
          10142813
        ],
        "postalCode": "N8W5P1",
        "streetName": "STARWAY",
        "streetDirectionId": null,
        "streetTypeId": "AVE",
        "placeName": "WINDSOR",
        "streetNameDisplayText": "STARWAY AVE, WINDSOR"
      }
    ]
  },
  {
    "postal": "N8W2B8",
    "result": [
      {
        "electoralDistricts": [
          {
            "election": null,
            "id": 119,
            "name": "Windsor West"
          }
        ],
        "pollDivisionIds": [
          10142807
        ],
        "postalCode": "N8W2B8",
        "streetName": "LOUIS",
        "streetDirectionId": null,
        "streetTypeId": "AVE",
        "placeName": "WINDSOR",
        "streetNameDisplayText": "LOUIS AVE, WINDSOR"
      }
    ]
  },
  {
    "postal": "N8W0P2",
    "result": []
  },
  {
    "postal": "N8W9M1",
    "result": []
  },
  {
    "postal": "N8W3G0",
    "result": []
  },
  {
    "postal": "N8W9Z2",
    "result": []
  },
  {
    "postal": "N8W2A0",
    "result": []
  },
  {
    "postal": "N8W6Y0",
    "result": []
  },
  {
    "postal": "N8W2Z8",
    "result": [
      {
        "electoralDistricts": [
          {
            "election": null,
            "id": 118,
            "name": "Windsor—Tecumseh"
          }
        ],
        "pollDivisionIds": [
          10142715
        ],
        "postalCode": "N8W2Z8",
        "streetName": "DURHAM",
        "streetDirectionId": null,
        "streetTypeId": "PL",
        "placeName": "WINDSOR",
        "streetNameDisplayText": "DURHAM PL, WINDSOR"
      }
    ]
  },
  {
    "postal": "N8W7Y3",
    "result": []
  },
  {
    "postal": "N8W6Z5",
    "result": []
  },
  {
    "postal": "N8W6E0",
    "result": []
  },
  {
    "postal": "N8W9B7",
    "result": []
  },
  {
    "postal": "N8W9S5",
    "result": []
  },
  {
    "postal": "N8W3X3",
    "result": [
      {
        "electoralDistricts": [
          {
            "election": null,
            "id": 118,
            "name": "Windsor—Tecumseh"
          }
        ],
        "pollDivisionIds": [
          10142715
        ],
        "postalCode": "N8W3X3",
        "streetName": "HICKORY",
        "streetDirectionId": null,
        "streetTypeId": "RD",
        "placeName": "WINDSOR",
        "streetNameDisplayText": "HICKORY RD, WINDSOR"
      }
    ]
  },
  {
    "postal": "N8W7R5",
    "result": []
  },
  {
    "postal": "N8W2X3",
    "result": []
  },
  {
    "postal": "N8W8Z9",
    "result": []
  },
  {
    "postal": "N8W0N4",
    "result": []
  },
  {
    "postal": "N8W1K1",
    "result": [
      {
        "electoralDistricts": [
          {
            "election": null,
            "id": 118,
            "name": "Windsor—Tecumseh"
          }
        ],
        "pollDivisionIds": [
          10142715
        ],
        "postalCode": "N8W1K1",
        "streetName": "TECUMSEH",
        "streetDirectionId": "E",
        "streetTypeId": "RD",
        "placeName": "WINDSOR",
        "streetNameDisplayText": "TECUMSEH RD E, WINDSOR"
      }
    ]
  },
  {
    "postal": "N8W1S3",
    "result": [
      {
        "electoralDistricts": [
          {
            "election": null,
            "id": 119,
            "name": "Windsor West"
          }
        ],
        "pollDivisionIds": [
          10142807
        ],
        "postalCode": "N8W1S3",
        "streetName": "YPRES",
        "streetDirectionId": null,
        "streetTypeId": "AVE",
        "placeName": "WINDSOR",
        "streetNameDisplayText": "YPRES AVE, WINDSOR"
      }
    ]
  },
  {
    "postal": "N8W6M4",
    "result": []
  },
  {
    "postal": "N8W9A9",
    "result": []
  },
  {
    "postal": "N8W9Z9",
    "result": []
  },
  {
    "postal": "N8W6T4",
    "result": []
  },
  {
    "postal": "N8W0B2",
    "result": [
      {
        "electoralDistricts": [
          {
            "election": null,
            "id": 119,
            "name": "Windsor West"
          }
        ],
        "pollDivisionIds": [
          10142809
        ],
        "postalCode": "N8W0B2",
        "streetName": "HALLEE",
        "streetDirectionId": null,
        "streetTypeId": "CRES",
        "placeName": "WINDSOR",
        "streetNameDisplayText": "HALLEE CRES, WINDSOR"
      }
    ]
  },
  {
    "postal": "N8W2L9",
    "result": [
      {
        "electoralDistricts": [
          {
            "election": null,
            "id": 119,
            "name": "Windsor West"
          }
        ],
        "pollDivisionIds": [
          10142807
        ],
        "postalCode": "N8W2L9",
        "streetName": "HALL",
        "streetDirectionId": null,
        "streetTypeId": "AVE",
        "placeName": "WINDSOR",
        "streetNameDisplayText": "HALL AVE, WINDSOR"
      }
    ]
  },
  {
    "postal": "N8W8K9",
    "result": []
  },
  {
    "postal": "N8W2H9",
    "result": [
      {
        "electoralDistricts": [
          {
            "election": null,
            "id": 119,
            "name": "Windsor West"
          }
        ],
        "pollDivisionIds": [
          10142809
        ],
        "postalCode": "N8W2H9",
        "streetName": "WOODLAWN",
        "streetDirectionId": null,
        "streetTypeId": "AVE",
        "placeName": "WINDSOR",
        "streetNameDisplayText": "WOODLAWN AVE, WINDSOR"
      }
    ]
  },
  {
    "postal": "N8W3Z6",
    "result": [
      {
        "electoralDistricts": [
          {
            "election": null,
            "id": 119,
            "name": "Windsor West"
          }
        ],
        "pollDivisionIds": [
          10142813
        ],
        "postalCode": "N8W3Z6",
        "streetName": "ALEXIS",
        "streetDirectionId": null,
        "streetTypeId": "RD",
        "placeName": "WINDSOR",
        "streetNameDisplayText": "ALEXIS RD, WINDSOR"
      }
    ]
  },
  {
    "postal": "N8W3B0",
    "result": []
  },
  {
    "postal": "N8W2H8",
    "result": [
      {
        "electoralDistricts": [
          {
            "election": null,
            "id": 119,
            "name": "Windsor West"
          }
        ],
        "pollDivisionIds": [
          10142809
        ],
        "postalCode": "N8W2H8",
        "streetName": "WOODLAWN",
        "streetDirectionId": null,
        "streetTypeId": "AVE",
        "placeName": "WINDSOR",
        "streetNameDisplayText": "WOODLAWN AVE, WINDSOR"
      }
    ]
  },
  {
    "postal": "N8W3X2",
    "result": [
      {
        "electoralDistricts": [
          {
            "election": null,
            "id": 118,
            "name": "Windsor—Tecumseh"
          }
        ],
        "pollDivisionIds": [
          10142715
        ],
        "postalCode": "N8W3X2",
        "streetName": "HICKORY",
        "streetDirectionId": null,
        "streetTypeId": "RD",
        "placeName": "WINDSOR",
        "streetNameDisplayText": "HICKORY RD, WINDSOR"
      }
    ]
  },
  {
    "postal": "N8W2E9",
    "result": [
      {
        "electoralDistricts": [
          {
            "election": null,
            "id": 119,
            "name": "Windsor West"
          }
        ],
        "pollDivisionIds": [
          10142804
        ],
        "postalCode": "N8W2E9",
        "streetName": "WELLESLEY",
        "streetDirectionId": null,
        "streetTypeId": "AVE",
        "placeName": "WINDSOR",
        "streetNameDisplayText": "WELLESLEY AVE, WINDSOR"
      }
    ]
  },
  {
    "postal": "N8W9P6",
    "result": []
  },
  {
    "postal": "N8W9E2",
    "result": []
  },
  {
    "postal": "N8W9H2",
    "result": []
  },
  {
    "postal": "N8W1S8",
    "result": [
      {
        "electoralDistricts": [
          {
            "election": null,
            "id": 119,
            "name": "Windsor West"
          }
        ],
        "pollDivisionIds": [
          10142807
        ],
        "postalCode": "N8W1S8",
        "streetName": "YPRES",
        "streetDirectionId": null,
        "streetTypeId": "AVE",
        "placeName": "WINDSOR",
        "streetNameDisplayText": "YPRES AVE, WINDSOR"
      }
    ]
  },
  {
    "postal": "N8W3M6",
    "result": [
      {
        "electoralDistricts": [
          {
            "election": null,
            "id": 119,
            "name": "Windsor West"
          }
        ],
        "pollDivisionIds": [
          10142812
        ],
        "postalCode": "N8W3M6",
        "streetName": "TURNER",
        "streetDirectionId": null,
        "streetTypeId": "RD",
        "placeName": "WINDSOR",
        "streetNameDisplayText": "TURNER RD, WINDSOR"
      }
    ]
  },
  {
    "postal": "N8W6Z8",
    "result": []
  },
  {
    "postal": "N8W4J2",
    "result": [
      {
        "electoralDistricts": [
          {
            "election": null,
            "id": 119,
            "name": "Windsor West"
          }
        ],
        "pollDivisionIds": [
          10142813
        ],
        "postalCode": "N8W4J2",
        "streetName": "CENTRAL",
        "streetDirectionId": null,
        "streetTypeId": "AVE",
        "placeName": "WINDSOR",
        "streetNameDisplayText": "CENTRAL AVE, WINDSOR"
      }
    ]
  },
  {
    "postal": "N8W9Y1",
    "result": []
  },
  {
    "postal": "N8W8V6",
    "result": []
  },
  {
    "postal": "N8W6B2",
    "result": []
  },
  {
    "postal": "N8W1P8",
    "result": [
      {
        "electoralDistricts": [
          {
            "election": null,
            "id": 119,
            "name": "Windsor West"
          }
        ],
        "pollDivisionIds": [
          10142807
        ],
        "postalCode": "N8W1P8",
        "streetName": "YPRES",
        "streetDirectionId": null,
        "streetTypeId": "AVE",
        "placeName": "WINDSOR",
        "streetNameDisplayText": "YPRES AVE, WINDSOR"
      },
      {
        "electoralDistricts": [
          {
            "election": null,
            "id": 119,
            "name": "Windsor West"
          }
        ],
        "pollDivisionIds": [
          10142807
        ],
        "postalCode": "N8W1P8",
        "streetName": "YPRES",
        "streetDirectionId": null,
        "streetTypeId": "BLVD",
        "placeName": "WINDSOR",
        "streetNameDisplayText": "YPRES BLVD, WINDSOR"
      }
    ]
  },
  {
    "postal": "N8W0V8",
    "result": []
  },
  {
    "postal": "N8W4Y0",
    "result": []
  },
  {
    "postal": "N8W2T4",
    "result": [
      {
        "electoralDistricts": [
          {
            "election": null,
            "id": 119,
            "name": "Windsor West"
          }
        ],
        "pollDivisionIds": [
          10142807
        ],
        "postalCode": "N8W2T4",
        "streetName": "WINDERMERE",
        "streetDirectionId": null,
        "streetTypeId": "RD",
        "placeName": "WINDSOR",
        "streetNameDisplayText": "WINDERMERE RD, WINDSOR"
      }
    ]
  },
  {
    "postal": "N8W2S3",
    "result": [
      {
        "electoralDistricts": [
          {
            "election": null,
            "id": 118,
            "name": "Windsor—Tecumseh"
          }
        ],
        "pollDivisionIds": [
          10142715
        ],
        "postalCode": "N8W2S3",
        "streetName": "WINDERMERE",
        "streetDirectionId": null,
        "streetTypeId": "RD",
        "placeName": "WINDSOR",
        "streetNameDisplayText": "WINDERMERE RD, WINDSOR"
      }
    ]
  },
  {
    "postal": "N8W0K0",
    "result": []
  },
  {
    "postal": "N8W5N1",
    "result": [
      {
        "electoralDistricts": [
          {
            "election": null,
            "id": 119,
            "name": "Windsor West"
          }
        ],
        "pollDivisionIds": [
          10142813
        ],
        "postalCode": "N8W5N1",
        "streetName": "CAPPELLETTO",
        "streetDirectionId": null,
        "streetTypeId": "RD",
        "placeName": "WINDSOR",
        "streetNameDisplayText": "CAPPELLETTO RD, WINDSOR"
      },
      {
        "electoralDistricts": [
          {
            "election": null,
            "id": 119,
            "name": "Windsor West"
          }
        ],
        "pollDivisionIds": [
          10142813
        ],
        "postalCode": "N8W5N1",
        "streetName": "LOVRIC",
        "streetDirectionId": null,
        "streetTypeId": "RD",
        "placeName": "WINDSOR",
        "streetNameDisplayText": "LOVRIC RD, WINDSOR"
      }
    ]
  },
  {
    "postal": "N8W7T0",
    "result": []
  },
  {
    "postal": "N8W9N2",
    "result": []
  },
  {
    "postal": "N8W5L1",
    "result": [
      {
        "electoralDistricts": [
          {
            "election": null,
            "id": 119,
            "name": "Windsor West"
          }
        ],
        "pollDivisionIds": [
          10142812
        ],
        "postalCode": "N8W5L1",
        "streetName": "BLISS",
        "streetDirectionId": null,
        "streetTypeId": "RD",
        "placeName": "WINDSOR",
        "streetNameDisplayText": "BLISS RD, WINDSOR"
      }
    ]
  },
  {
    "postal": "N8W7G5",
    "result": []
  },
  {
    "postal": "N8W6K2",
    "result": []
  },
  {
    "postal": "N8W6P9",
    "result": []
  },
  {
    "postal": "N8W0E6",
    "result": []
  },
  {
    "postal": "N8W8R9",
    "result": []
  },
  {
    "postal": "N8W3G9",
    "result": [
      {
        "electoralDistricts": [
          {
            "election": null,
            "id": 119,
            "name": "Windsor West"
          }
        ],
        "pollDivisionIds": [
          10142812
        ],
        "postalCode": "N8W3G9",
        "streetName": "BYNG",
        "streetDirectionId": null,
        "streetTypeId": "RD",
        "placeName": "WINDSOR",
        "streetNameDisplayText": "BYNG RD, WINDSOR"
      }
    ]
  },
  {
    "postal": "N8W0V7",
    "result": []
  },
  {
    "postal": "N8W2Z1",
    "result": [
      {
        "electoralDistricts": [
          {
            "election": null,
            "id": 119,
            "name": "Windsor West"
          }
        ],
        "pollDivisionIds": [
          10142812
        ],
        "postalCode": "N8W2Z1",
        "streetName": "WOODWARD",
        "streetDirectionId": null,
        "streetTypeId": "BLVD",
        "placeName": "WINDSOR",
        "streetNameDisplayText": "WOODWARD BLVD, WINDSOR"
      }
    ]
  },
  {
    "postal": "N8W7N1",
    "result": []
  },
  {
    "postal": "N8W3C6",
    "result": [
      {
        "electoralDistricts": [
          {
            "election": null,
            "id": 119,
            "name": "Windsor West"
          }
        ],
        "pollDivisionIds": [
          10142812
        ],
        "postalCode": "N8W3C6",
        "streetName": "BLISS",
        "streetDirectionId": null,
        "streetTypeId": "RD",
        "placeName": "WINDSOR",
        "streetNameDisplayText": "BLISS RD, WINDSOR"
      }
    ]
  },
  {
    "postal": "N8W4M1",
    "result": [
      {
        "electoralDistricts": [
          {
            "election": null,
            "id": 118,
            "name": "Windsor—Tecumseh"
          }
        ],
        "pollDivisionIds": [
          10142715
        ],
        "postalCode": "N8W4M1",
        "streetName": "GEORGE",
        "streetDirectionId": null,
        "streetTypeId": "AVE",
        "placeName": "WINDSOR",
        "streetNameDisplayText": "GEORGE AVE, WINDSOR"
      }
    ]
  },
  {
    "postal": "N8W9K2",
    "result": []
  },
  {
    "postal": "N8W9S6",
    "result": []
  },
  {
    "postal": "N8W4X1",
    "result": [
      {
        "electoralDistricts": [
          {
            "election": null,
            "id": 119,
            "name": "Windsor West"
          }
        ],
        "pollDivisionIds": [
          10142808
        ],
        "postalCode": "N8W4X1",
        "streetName": "SOUTHDALE",
        "streetDirectionId": null,
        "streetTypeId": "DR",
        "placeName": "WINDSOR",
        "streetNameDisplayText": "SOUTHDALE DR, WINDSOR"
      }
    ]
  },
  {
    "postal": "N8W8W2",
    "result": []
  },
  {
    "postal": "N8W7N2",
    "result": []
  },
  {
    "postal": "N8W8S3",
    "result": []
  },
  {
    "postal": "N8W4V0",
    "result": []
  },
  {
    "postal": "N8W6W4",
    "result": []
  },
  {
    "postal": "N8W5M1",
    "result": []
  },
  {
    "postal": "N8W0S4",
    "result": []
  },
  {
    "postal": "N8W5X6",
    "result": []
  },
  {
    "postal": "N8W8L5",
    "result": []
  },
  {
    "postal": "N8W5M8",
    "result": [
      {
        "electoralDistricts": [
          {
            "election": null,
            "id": 119,
            "name": "Windsor West"
          }
        ],
        "pollDivisionIds": [
          10142809
        ],
        "postalCode": "N8W5M8",
        "streetName": "CANDLEWOOD",
        "streetDirectionId": null,
        "streetTypeId": "CRES",
        "placeName": "WINDSOR",
        "streetNameDisplayText": "CANDLEWOOD CRES, WINDSOR"
      },
      {
        "electoralDistricts": [
          {
            "election": null,
            "id": 119,
            "name": "Windsor West"
          }
        ],
        "pollDivisionIds": [
          10142809
        ],
        "postalCode": "N8W5M8",
        "streetName": "HANSEN",
        "streetDirectionId": null,
        "streetTypeId": "CRES",
        "placeName": "WINDSOR",
        "streetNameDisplayText": "HANSEN CRES, WINDSOR"
      }
    ]
  },
  {
    "postal": "N8W2G3",
    "result": [
      {
        "electoralDistricts": [
          {
            "election": null,
            "id": 119,
            "name": "Windsor West"
          }
        ],
        "pollDivisionIds": [
          10142807
        ],
        "postalCode": "N8W2G3",
        "streetName": "WELLESLEY",
        "streetDirectionId": null,
        "streetTypeId": "AVE",
        "placeName": "WINDSOR",
        "streetNameDisplayText": "WELLESLEY AVE, WINDSOR"
      }
    ]
  },
  {
    "postal": "N8W8E4",
    "result": []
  },
  {
    "postal": "N8W7S9",
    "result": []
  },
  {
    "postal": "N8W1K3",
    "result": [
      {
        "electoralDistricts": [
          {
            "election": null,
            "id": 118,
            "name": "Windsor—Tecumseh"
          }
        ],
        "pollDivisionIds": [
          10142715
        ],
        "postalCode": "N8W1K3",
        "streetName": "TECUMSEH",
        "streetDirectionId": "E",
        "streetTypeId": "RD",
        "placeName": "WINDSOR",
        "streetNameDisplayText": "TECUMSEH RD E, WINDSOR"
      }
    ]
  },
  {
    "postal": "N8W4E1",
    "result": [
      {
        "electoralDistricts": [
          {
            "election": null,
            "id": 118,
            "name": "Windsor—Tecumseh"
          }
        ],
        "pollDivisionIds": [
          10142715
        ],
        "postalCode": "N8W4E1",
        "streetName": "MELDRUM",
        "streetDirectionId": null,
        "streetTypeId": "RD",
        "placeName": "WINDSOR",
        "streetNameDisplayText": "MELDRUM RD, WINDSOR"
      }
    ]
  },
  {
    "postal": "N8W4R2",
    "result": [
      {
        "electoralDistricts": [
          {
            "election": null,
            "id": 119,
            "name": "Windsor West"
          }
        ],
        "pollDivisionIds": [
          10142813
        ],
        "postalCode": "N8W4R2",
        "streetName": "ROSSINI",
        "streetDirectionId": null,
        "streetTypeId": "BLVD",
        "placeName": "WINDSOR",
        "streetNameDisplayText": "ROSSINI BLVD, WINDSOR"
      }
    ]
  },
  {
    "postal": "N8W6T0",
    "result": []
  },
  {
    "postal": "N8W3K5",
    "result": [
      {
        "electoralDistricts": [
          {
            "election": null,
            "id": 119,
            "name": "Windsor West"
          }
        ],
        "pollDivisionIds": [
          10142804
        ],
        "postalCode": "N8W3K5",
        "streetName": "TURNER",
        "streetDirectionId": null,
        "streetTypeId": "RD",
        "placeName": "WINDSOR",
        "streetNameDisplayText": "TURNER RD, WINDSOR"
      }
    ]
  },
  {
    "postal": "N8W3S3",
    "result": [
      {
        "electoralDistricts": [
          {
            "election": null,
            "id": 119,
            "name": "Windsor West"
          }
        ],
        "pollDivisionIds": [
          10142812
        ],
        "postalCode": "N8W3S3",
        "streetName": "WALKER",
        "streetDirectionId": null,
        "streetTypeId": "RD",
        "placeName": "WINDSOR",
        "streetNameDisplayText": "WALKER RD, WINDSOR"
      }
    ]
  },
  {
    "postal": "N8W3L4",
    "result": [
      {
        "electoralDistricts": [
          {
            "election": null,
            "id": 119,
            "name": "Windsor West"
          }
        ],
        "pollDivisionIds": [
          10142807
        ],
        "postalCode": "N8W3L4",
        "streetName": "TURNER",
        "streetDirectionId": null,
        "streetTypeId": "RD",
        "placeName": "WINDSOR",
        "streetNameDisplayText": "TURNER RD, WINDSOR"
      }
    ]
  },
  {
    "postal": "N8W9Y2",
    "result": []
  },
  {
    "postal": "N8W1E0",
    "result": []
  },
  {
    "postal": "N8W9A4",
    "result": []
  },
  {
    "postal": "N8W1L3",
    "result": [
      {
        "electoralDistricts": [
          {
            "election": null,
            "id": 119,
            "name": "Windsor West"
          }
        ],
        "pollDivisionIds": [
          10142804
        ],
        "postalCode": "N8W1L3",
        "streetName": "LENS",
        "streetDirectionId": null,
        "streetTypeId": "AVE",
        "placeName": "WINDSOR",
        "streetNameDisplayText": "LENS AVE, WINDSOR"
      }
    ]
  },
  {
    "postal": "N8W6N1",
    "result": []
  },
  {
    "postal": "N8W6G7",
    "result": []
  },
  {
    "postal": "N8W7W1",
    "result": []
  },
  {
    "postal": "N8W4M6",
    "result": [
      {
        "electoralDistricts": [
          {
            "election": null,
            "id": 119,
            "name": "Windsor West"
          }
        ],
        "pollDivisionIds": [
          10142813
        ],
        "postalCode": "N8W4M6",
        "streetName": "GEORGE",
        "streetDirectionId": null,
        "streetTypeId": "AVE",
        "placeName": "WINDSOR",
        "streetNameDisplayText": "GEORGE AVE, WINDSOR"
      }
    ]
  },
  {
    "postal": "N8W1K0",
    "result": []
  },
  {
    "postal": "N8W3E2",
    "result": [
      {
        "electoralDistricts": [
          {
            "election": null,
            "id": 119,
            "name": "Windsor West"
          }
        ],
        "pollDivisionIds": [
          10142804
        ],
        "postalCode": "N8W3E2",
        "streetName": "BYNG",
        "streetDirectionId": null,
        "streetTypeId": "RD",
        "placeName": "WINDSOR",
        "streetNameDisplayText": "BYNG RD, WINDSOR"
      }
    ]
  },
  {
    "postal": "N8W5H4",
    "result": [
      {
        "electoralDistricts": [
          {
            "election": null,
            "id": 119,
            "name": "Windsor West"
          }
        ],
        "pollDivisionIds": [
          10142808
        ],
        "postalCode": "N8W5H4",
        "streetName": "BROOKVIEW",
        "streetDirectionId": null,
        "streetTypeId": "CRES",
        "placeName": "WINDSOR",
        "streetNameDisplayText": "BROOKVIEW CRES, WINDSOR"
      }
    ]
  },
  {
    "postal": "N8W1K7",
    "result": [
      {
        "electoralDistricts": [
          {
            "election": null,
            "id": 118,
            "name": "Windsor—Tecumseh"
          },
          {
            "election": null,
            "id": 119,
            "name": "Windsor West"
          }
        ],
        "pollDivisionIds": [
          10142717,
          10142719,
          10142813
        ],
        "postalCode": "N8W1K7",
        "streetName": "TECUMSEH",
        "streetDirectionId": "E",
        "streetTypeId": "RD",
        "placeName": "WINDSOR",
        "streetNameDisplayText": "TECUMSEH RD E, WINDSOR"
      }
    ]
  },
  {
    "postal": "N8W0H0",
    "result": []
  },
  {
    "postal": "N8W0J3",
    "result": []
  },
  {
    "postal": "N8W1X6",
    "result": [
      {
        "electoralDistricts": [
          {
            "election": null,
            "id": 119,
            "name": "Windsor West"
          }
        ],
        "pollDivisionIds": [
          10142813
        ],
        "postalCode": "N8W1X6",
        "streetName": "GRAND MARAIS",
        "streetDirectionId": "E",
        "streetTypeId": "RD",
        "placeName": "WINDSOR",
        "streetNameDisplayText": "GRAND MARAIS RD E, WINDSOR"
      }
    ]
  },
  {
    "postal": "N8W2Z6",
    "result": [
      {
        "electoralDistricts": [
          {
            "election": null,
            "id": 119,
            "name": "Windsor West"
          }
        ],
        "pollDivisionIds": [
          10142807
        ],
        "postalCode": "N8W2Z6",
        "streetName": "GAIL",
        "streetDirectionId": null,
        "streetTypeId": "RD",
        "placeName": "WINDSOR",
        "streetNameDisplayText": "GAIL RD, WINDSOR"
      }
    ]
  },
  {
    "postal": "N8W4R9",
    "result": [
      {
        "electoralDistricts": [
          {
            "election": null,
            "id": 119,
            "name": "Windsor West"
          }
        ],
        "pollDivisionIds": [
          10142813
        ],
        "postalCode": "N8W4R9",
        "streetName": "BERNARD",
        "streetDirectionId": null,
        "streetTypeId": "RD",
        "placeName": "WINDSOR",
        "streetNameDisplayText": "BERNARD RD, WINDSOR"
      }
    ]
  },
  {
    "postal": "N8W0W8",
    "result": []
  },
  {
    "postal": "N8W1L4",
    "result": [
      {
        "electoralDistricts": [
          {
            "election": null,
            "id": 119,
            "name": "Windsor West"
          }
        ],
        "pollDivisionIds": [
          10142804
        ],
        "postalCode": "N8W1L4",
        "streetName": "LENS",
        "streetDirectionId": null,
        "streetTypeId": "AVE",
        "placeName": "WINDSOR",
        "streetNameDisplayText": "LENS AVE, WINDSOR"
      }
    ]
  },
  {
    "postal": "N8W0C8",
    "result": []
  },
  {
    "postal": "N8W9X7",
    "result": []
  },
  {
    "postal": "N8W4T1",
    "result": [
      {
        "electoralDistricts": [
          {
            "election": null,
            "id": 119,
            "name": "Windsor West"
          }
        ],
        "pollDivisionIds": [
          10142813
        ],
        "postalCode": "N8W4T1",
        "streetName": "FRANCOIS",
        "streetDirectionId": null,
        "streetTypeId": "RD",
        "placeName": "WINDSOR",
        "streetNameDisplayText": "FRANCOIS RD, WINDSOR"
      }
    ]
  },
  {
    "postal": "N8W0M0",
    "result": []
  },
  {
    "postal": "N8W6A2",
    "result": []
  },
  {
    "postal": "N8W9S8",
    "result": []
  },
  {
    "postal": "N8W9T4",
    "result": []
  },
  {
    "postal": "N8W9Y4",
    "result": []
  },
  {
    "postal": "N8W6G5",
    "result": []
  },
  {
    "postal": "N8W6H9",
    "result": []
  },
  {
    "postal": "N8W2P3",
    "result": [
      {
        "electoralDistricts": [
          {
            "election": null,
            "id": 119,
            "name": "Windsor West"
          }
        ],
        "pollDivisionIds": [
          10142807
        ],
        "postalCode": "N8W2P3",
        "streetName": "GLADSTONE",
        "streetDirectionId": null,
        "streetTypeId": "AVE",
        "placeName": "WINDSOR",
        "streetNameDisplayText": "GLADSTONE AVE, WINDSOR"
      }
    ]
  },
  {
    "postal": "N8W1T6",
    "result": [
      {
        "electoralDistricts": [
          {
            "election": null,
            "id": 119,
            "name": "Windsor West"
          }
        ],
        "pollDivisionIds": [
          10142807
        ],
        "postalCode": "N8W1T6",
        "streetName": "SOMME",
        "streetDirectionId": null,
        "streetTypeId": "AVE",
        "placeName": "WINDSOR",
        "streetNameDisplayText": "SOMME AVE, WINDSOR"
      }
    ]
  },
  {
    "postal": "N8W4P6",
    "result": [
      {
        "electoralDistricts": [
          {
            "election": null,
            "id": 118,
            "name": "Windsor—Tecumseh"
          }
        ],
        "pollDivisionIds": [
          10142715
        ],
        "postalCode": "N8W4P6",
        "streetName": "ROSSINI",
        "streetDirectionId": null,
        "streetTypeId": "BLVD",
        "placeName": "WINDSOR",
        "streetNameDisplayText": "ROSSINI BLVD, WINDSOR"
      }
    ]
  },
  {
    "postal": "N8W3K1",
    "result": []
  },
  {
    "postal": "N8W6X4",
    "result": []
  },
  {
    "postal": "N8W4M8",
    "result": [
      {
        "electoralDistricts": [
          {
            "election": null,
            "id": 119,
            "name": "Windsor West"
          }
        ],
        "pollDivisionIds": [
          10142813
        ],
        "postalCode": "N8W4M8",
        "streetName": "GEORGE",
        "streetDirectionId": null,
        "streetTypeId": "AVE",
        "placeName": "WINDSOR",
        "streetNameDisplayText": "GEORGE AVE, WINDSOR"
      }
    ]
  },
  {
    "postal": "N8W2Y1",
    "result": [
      {
        "electoralDistricts": [
          {
            "election": null,
            "id": 119,
            "name": "Windsor West"
          }
        ],
        "pollDivisionIds": [
          10142807
        ],
        "postalCode": "N8W2Y1",
        "streetName": "KILDARE",
        "streetDirectionId": null,
        "streetTypeId": "RD",
        "placeName": "WINDSOR",
        "streetNameDisplayText": "KILDARE RD, WINDSOR"
      }
    ]
  },
  {
    "postal": "N8W6M1",
    "result": []
  },
  {
    "postal": "N8W5L8",
    "result": [
      {
        "electoralDistricts": [
          {
            "election": null,
            "id": 119,
            "name": "Windsor West"
          }
        ],
        "pollDivisionIds": [
          10142813
        ],
        "postalCode": "N8W5L8",
        "streetName": "ROBERT",
        "streetDirectionId": null,
        "streetTypeId": "RD",
        "placeName": "WINDSOR",
        "streetNameDisplayText": "ROBERT RD, WINDSOR"
      }
    ]
  },
  {
    "postal": "N8W3P6",
    "result": [
      {
        "electoralDistricts": [
          {
            "election": null,
            "id": 119,
            "name": "Windsor West"
          }
        ],
        "pollDivisionIds": [
          10142804
        ],
        "postalCode": "N8W3P6",
        "streetName": "WALKER",
        "streetDirectionId": null,
        "streetTypeId": "RD",
        "placeName": "WINDSOR",
        "streetNameDisplayText": "WALKER RD, WINDSOR"
      }
    ]
  },
  {
    "postal": "N8W9A5",
    "result": []
  },
  {
    "postal": "N8W7K1",
    "result": []
  },
  {
    "postal": "N8W3J4",
    "result": [
      {
        "electoralDistricts": [
          {
            "election": null,
            "id": 119,
            "name": "Windsor West"
          }
        ],
        "pollDivisionIds": [
          10142812
        ],
        "postalCode": "N8W3J4",
        "streetName": "BYNG",
        "streetDirectionId": null,
        "streetTypeId": "RD",
        "placeName": "WINDSOR",
        "streetNameDisplayText": "BYNG RD, WINDSOR"
      }
    ]
  },
  {
    "postal": "N8W5E7",
    "result": [
      {
        "electoralDistricts": [
          {
            "election": null,
            "id": 119,
            "name": "Windsor West"
          }
        ],
        "pollDivisionIds": [
          10142812
        ],
        "postalCode": "N8W5E7",
        "streetName": "AIRPORT",
        "streetDirectionId": null,
        "streetTypeId": "RD",
        "placeName": "WINDSOR",
        "streetNameDisplayText": "AIRPORT RD, WINDSOR"
      }
    ]
  },
  {
    "postal": "N8W3A7",
    "result": [
      {
        "electoralDistricts": [
          {
            "election": null,
            "id": 119,
            "name": "Windsor West"
          }
        ],
        "pollDivisionIds": [
          10142807
        ],
        "postalCode": "N8W3A7",
        "streetName": "IDA",
        "streetDirectionId": null,
        "streetTypeId": "RD",
        "placeName": "WINDSOR",
        "streetNameDisplayText": "IDA RD, WINDSOR"
      }
    ]
  },
  {
    "postal": "N8W1B9",
    "result": [
      {
        "electoralDistricts": [
          {
            "election": null,
            "id": 119,
            "name": "Windsor West"
          }
        ],
        "pollDivisionIds": [
          10142804
        ],
        "postalCode": "N8W1B9",
        "streetName": "TECUMSEH",
        "streetDirectionId": "E",
        "streetTypeId": "RD",
        "placeName": "WINDSOR",
        "streetNameDisplayText": "TECUMSEH RD E, WINDSOR"
      }
    ]
  },
  {
    "postal": "N8W9E8",
    "result": []
  },
  {
    "postal": "N8W1C9",
    "result": [
      {
        "electoralDistricts": [
          {
            "election": null,
            "id": 119,
            "name": "Windsor West"
          }
        ],
        "pollDivisionIds": [
          10142804
        ],
        "postalCode": "N8W1C9",
        "streetName": "TECUMSEH",
        "streetDirectionId": "E",
        "streetTypeId": "RD",
        "placeName": "WINDSOR",
        "streetNameDisplayText": "TECUMSEH RD E, WINDSOR"
      }
    ]
  },
  {
    "postal": "N8W3B5",
    "result": [
      {
        "electoralDistricts": [
          {
            "election": null,
            "id": 119,
            "name": "Windsor West"
          }
        ],
        "pollDivisionIds": [
          10142812
        ],
        "postalCode": "N8W3B5",
        "streetName": "BLISS",
        "streetDirectionId": null,
        "streetTypeId": "RD",
        "placeName": "WINDSOR",
        "streetNameDisplayText": "BLISS RD, WINDSOR"
      }
    ]
  },
  {
    "postal": "N8W8R0",
    "result": []
  },
  {
    "postal": "N8W3P2",
    "result": [
      {
        "electoralDistricts": [
          {
            "election": null,
            "id": 118,
            "name": "Windsor—Tecumseh"
          }
        ],
        "pollDivisionIds": [
          10142715
        ],
        "postalCode": "N8W3P2",
        "streetName": "WALKER",
        "streetDirectionId": null,
        "streetTypeId": "RD",
        "placeName": "WINDSOR",
        "streetNameDisplayText": "WALKER RD, WINDSOR"
      }
    ]
  },
  {
    "postal": "N8W5V4",
    "result": [
      {
        "electoralDistricts": [
          {
            "election": null,
            "id": 119,
            "name": "Windsor West"
          }
        ],
        "pollDivisionIds": [
          10142809
        ],
        "postalCode": "N8W5V4",
        "streetName": "CARIBOU",
        "streetDirectionId": null,
        "streetTypeId": "CRES",
        "placeName": "WINDSOR",
        "streetNameDisplayText": "CARIBOU CRES, WINDSOR"
      },
      {
        "electoralDistricts": [
          {
            "election": null,
            "id": 119,
            "name": "Windsor West"
          }
        ],
        "pollDivisionIds": [
          10142809
        ],
        "postalCode": "N8W5V4",
        "streetName": "KLONDIKE",
        "streetDirectionId": null,
        "streetTypeId": "AVE",
        "placeName": "WINDSOR",
        "streetNameDisplayText": "KLONDIKE AVE, WINDSOR"
      }
    ]
  },
  {
    "postal": "N8W4H0",
    "result": []
  },
  {
    "postal": "N8W4S7",
    "result": [
      {
        "electoralDistricts": [
          {
            "election": null,
            "id": 118,
            "name": "Windsor—Tecumseh"
          }
        ],
        "pollDivisionIds": [
          10142717
        ],
        "postalCode": "N8W4S7",
        "streetName": "FRANCOIS",
        "streetDirectionId": null,
        "streetTypeId": "RD",
        "placeName": "WINDSOR",
        "streetNameDisplayText": "FRANCOIS RD, WINDSOR"
      }
    ]
  },
  {
    "postal": "N8W6C2",
    "result": []
  },
  {
    "postal": "N8W8W3",
    "result": []
  },
  {
    "postal": "N8W4M5",
    "result": [
      {
        "electoralDistricts": [
          {
            "election": null,
            "id": 119,
            "name": "Windsor West"
          }
        ],
        "pollDivisionIds": [
          10142813
        ],
        "postalCode": "N8W4M5",
        "streetName": "GEORGE",
        "streetDirectionId": null,
        "streetTypeId": "AVE",
        "placeName": "WINDSOR",
        "streetNameDisplayText": "GEORGE AVE, WINDSOR"
      }
    ]
  },
  {
    "postal": "N8W5T1",
    "result": [
      {
        "electoralDistricts": [
          {
            "election": null,
            "id": 119,
            "name": "Windsor West"
          }
        ],
        "pollDivisionIds": [
          10142813
        ],
        "postalCode": "N8W5T1",
        "streetName": "RHODES",
        "streetDirectionId": null,
        "streetTypeId": "DR",
        "placeName": "WINDSOR",
        "streetNameDisplayText": "RHODES DR, WINDSOR"
      }
    ]
  },
  {
    "postal": "N8W3B3",
    "result": [
      {
        "electoralDistricts": [
          {
            "election": null,
            "id": 119,
            "name": "Windsor West"
          }
        ],
        "pollDivisionIds": [
          10142812
        ],
        "postalCode": "N8W3B3",
        "streetName": "BLISS",
        "streetDirectionId": null,
        "streetTypeId": "RD",
        "placeName": "WINDSOR",
        "streetNameDisplayText": "BLISS RD, WINDSOR"
      }
    ]
  },
  {
    "postal": "N8W6C6",
    "result": []
  },
  {
    "postal": "N8W7N8",
    "result": []
  },
  {
    "postal": "N8W2Y3",
    "result": [
      {
        "electoralDistricts": [
          {
            "election": null,
            "id": 119,
            "name": "Windsor West"
          }
        ],
        "pollDivisionIds": [
          10142807
        ],
        "postalCode": "N8W2Y3",
        "streetName": "KILDARE",
        "streetDirectionId": null,
        "streetTypeId": "RD",
        "placeName": "WINDSOR",
        "streetNameDisplayText": "KILDARE RD, WINDSOR"
      }
    ]
  },
  {
    "postal": "N8W2R6",
    "result": [
      {
        "electoralDistricts": [
          {
            "election": null,
            "id": 119,
            "name": "Windsor West"
          }
        ],
        "pollDivisionIds": [
          10142807
        ],
        "postalCode": "N8W2R6",
        "streetName": "LINCOLN",
        "streetDirectionId": null,
        "streetTypeId": "RD",
        "placeName": "WINDSOR",
        "streetNameDisplayText": "LINCOLN RD, WINDSOR"
      }
    ]
  },
  {
    "postal": "N8W7N3",
    "result": []
  },
  {
    "postal": "N8W8J2",
    "result": []
  },
  {
    "postal": "N8W6A9",
    "result": []
  },
  {
    "postal": "N8W3V2",
    "result": [
      {
        "electoralDistricts": [
          {
            "election": null,
            "id": 119,
            "name": "Windsor West"
          }
        ],
        "pollDivisionIds": [
          10142812
        ],
        "postalCode": "N8W3V2",
        "streetName": "RIBERDY",
        "streetDirectionId": null,
        "streetTypeId": "RD",
        "placeName": "WINDSOR",
        "streetNameDisplayText": "RIBERDY RD, WINDSOR"
      }
    ]
  },
  {
    "postal": "N8W2N3",
    "result": [
      {
        "electoralDistricts": [
          {
            "election": null,
            "id": 118,
            "name": "Windsor—Tecumseh"
          }
        ],
        "pollDivisionIds": [
          10142715
        ],
        "postalCode": "N8W2N3",
        "streetName": "GLADSTONE",
        "streetDirectionId": null,
        "streetTypeId": "AVE",
        "placeName": "WINDSOR",
        "streetNameDisplayText": "GLADSTONE AVE, WINDSOR"
      }
    ]
  },
  {
    "postal": "N8W1S5",
    "result": [
      {
        "electoralDistricts": [
          {
            "election": null,
            "id": 119,
            "name": "Windsor West"
          }
        ],
        "pollDivisionIds": [
          10142807
        ],
        "postalCode": "N8W1S5",
        "streetName": "YPRES",
        "streetDirectionId": null,
        "streetTypeId": "AVE",
        "placeName": "WINDSOR",
        "streetNameDisplayText": "YPRES AVE, WINDSOR"
      }
    ]
  },
  {
    "postal": "N8W4T7",
    "result": [
      {
        "electoralDistricts": [
          {
            "election": null,
            "id": 118,
            "name": "Windsor—Tecumseh"
          }
        ],
        "pollDivisionIds": [
          10142717
        ],
        "postalCode": "N8W4T7",
        "streetName": "ELLROSE",
        "streetDirectionId": null,
        "streetTypeId": "AVE",
        "placeName": "WINDSOR",
        "streetNameDisplayText": "ELLROSE AVE, WINDSOR"
      }
    ]
  },
  {
    "postal": "N8W6Y7",
    "result": []
  },
  {
    "postal": "N8W0W7",
    "result": []
  },
  {
    "postal": "N8W2W9",
    "result": [
      {
        "electoralDistricts": [
          {
            "election": null,
            "id": 119,
            "name": "Windsor West"
          }
        ],
        "pollDivisionIds": [
          10142804
        ],
        "postalCode": "N8W2W9",
        "streetName": "KILDARE",
        "streetDirectionId": null,
        "streetTypeId": "RD",
        "placeName": "WINDSOR",
        "streetNameDisplayText": "KILDARE RD, WINDSOR"
      }
    ]
  },
  {
    "postal": "N8W8V0",
    "result": []
  },
  {
    "postal": "N8W0H4",
    "result": []
  },
  {
    "postal": "N8W2T1",
    "result": [
      {
        "electoralDistricts": [
          {
            "election": null,
            "id": 119,
            "name": "Windsor West"
          }
        ],
        "pollDivisionIds": [
          10142807
        ],
        "postalCode": "N8W2T1",
        "streetName": "WINDERMERE",
        "streetDirectionId": null,
        "streetTypeId": "RD",
        "placeName": "WINDSOR",
        "streetNameDisplayText": "WINDERMERE RD, WINDSOR"
      }
    ]
  },
  {
    "postal": "N8W1B1",
    "result": [
      {
        "electoralDistricts": [
          {
            "election": null,
            "id": 118,
            "name": "Windsor—Tecumseh"
          }
        ],
        "pollDivisionIds": [
          10142715
        ],
        "postalCode": "N8W1B1",
        "streetName": "MOHAWK",
        "streetDirectionId": null,
        "streetTypeId": "ST",
        "placeName": "WINDSOR",
        "streetNameDisplayText": "MOHAWK ST, WINDSOR"
      }
    ]
  },
  {
    "postal": "N8W8B6",
    "result": []
  },
  {
    "postal": "N8W6H1",
    "result": []
  },
  {
    "postal": "N8W8T8",
    "result": []
  },
  {
    "postal": "N8W0T4",
    "result": []
  },
  {
    "postal": "N8W2C4",
    "result": [
      {
        "electoralDistricts": [
          {
            "election": null,
            "id": 119,
            "name": "Windsor West"
          }
        ],
        "pollDivisionIds": [
          10142807
        ],
        "postalCode": "N8W2C4",
        "streetName": "MARENTETTE",
        "streetDirectionId": null,
        "streetTypeId": "AVE",
        "placeName": "WINDSOR",
        "streetNameDisplayText": "MARENTETTE AVE, WINDSOR"
      }
    ]
  },
  {
    "postal": "N8W8N3",
    "result": []
  },
  {
    "postal": "N8W4L8",
    "result": [
      {
        "electoralDistricts": [
          {
            "election": null,
            "id": 118,
            "name": "Windsor—Tecumseh"
          }
        ],
        "pollDivisionIds": [
          10142717
        ],
        "postalCode": "N8W4L8",
        "streetName": "GEORGE",
        "streetDirectionId": null,
        "streetTypeId": "AVE",
        "placeName": "WINDSOR",
        "streetNameDisplayText": "GEORGE AVE, WINDSOR"
      }
    ]
  },
  {
    "postal": "N8W2B5",
    "result": [
      {
        "electoralDistricts": [
          {
            "election": null,
            "id": 119,
            "name": "Windsor West"
          }
        ],
        "pollDivisionIds": [
          10142814
        ],
        "postalCode": "N8W2B5",
        "streetName": "BONITA",
        "streetDirectionId": null,
        "streetTypeId": "AVE",
        "placeName": "WINDSOR",
        "streetNameDisplayText": "BONITA AVE, WINDSOR"
      }
    ]
  },
  {
    "postal": "N8W3H1",
    "result": [
      {
        "electoralDistricts": [
          {
            "election": null,
            "id": 119,
            "name": "Windsor West"
          }
        ],
        "pollDivisionIds": [
          10142812
        ],
        "postalCode": "N8W3H1",
        "streetName": "BYNG",
        "streetDirectionId": null,
        "streetTypeId": "RD",
        "placeName": "WINDSOR",
        "streetNameDisplayText": "BYNG RD, WINDSOR"
      }
    ]
  },
  {
    "postal": "N8W4Y1",
    "result": [
      {
        "electoralDistricts": [
          {
            "election": null,
            "id": 119,
            "name": "Windsor West"
          }
        ],
        "pollDivisionIds": [
          10142809
        ],
        "postalCode": "N8W4Y1",
        "streetName": "HALLMARK",
        "streetDirectionId": null,
        "streetTypeId": "AVE",
        "placeName": "WINDSOR",
        "streetNameDisplayText": "HALLMARK AVE, WINDSOR"
      }
    ]
  },
  {
    "postal": "N8W7E2",
    "result": []
  },
  {
    "postal": "N8W2P5",
    "result": [
      {
        "electoralDistricts": [
          {
            "election": null,
            "id": 118,
            "name": "Windsor—Tecumseh"
          }
        ],
        "pollDivisionIds": [
          10142715
        ],
        "postalCode": "N8W2P5",
        "streetName": "LINCOLN",
        "streetDirectionId": null,
        "streetTypeId": "RD",
        "placeName": "WINDSOR",
        "streetNameDisplayText": "LINCOLN RD, WINDSOR"
      }
    ]
  },
  {
    "postal": "N8W8R7",
    "result": []
  },
  {
    "postal": "N8W9P1",
    "result": []
  },
  {
    "postal": "N8W3B8",
    "result": [
      {
        "electoralDistricts": [
          {
            "election": null,
            "id": 119,
            "name": "Windsor West"
          }
        ],
        "pollDivisionIds": [
          10142809
        ],
        "postalCode": "N8W3B8",
        "streetName": "BLISS",
        "streetDirectionId": null,
        "streetTypeId": "RD",
        "placeName": "WINDSOR",
        "streetNameDisplayText": "BLISS RD, WINDSOR"
      }
    ]
  },
  {
    "postal": "N8W3P7",
    "result": [
      {
        "electoralDistricts": [
          {
            "election": null,
            "id": 119,
            "name": "Windsor West"
          }
        ],
        "pollDivisionIds": [
          10142807
        ],
        "postalCode": "N8W3P7",
        "streetName": "WALKER",
        "streetDirectionId": null,
        "streetTypeId": "RD",
        "placeName": "WINDSOR",
        "streetNameDisplayText": "WALKER RD, WINDSOR"
      }
    ]
  },
  {
    "postal": "N8W9B2",
    "result": []
  },
  {
    "postal": "N8W6Z3",
    "result": []
  },
  {
    "postal": "N8W4N5",
    "result": [
      {
        "electoralDistricts": [
          {
            "election": null,
            "id": 119,
            "name": "Windsor West"
          }
        ],
        "pollDivisionIds": [
          10142813
        ],
        "postalCode": "N8W4N5",
        "streetName": "TOURANGEAU",
        "streetDirectionId": null,
        "streetTypeId": "RD",
        "placeName": "WINDSOR",
        "streetNameDisplayText": "TOURANGEAU RD, WINDSOR"
      }
    ]
  },
  {
    "postal": "N8W8T3",
    "result": []
  },
  {
    "postal": "N8W1V2",
    "result": [
      {
        "electoralDistricts": [
          {
            "election": null,
            "id": 119,
            "name": "Windsor West"
          }
        ],
        "pollDivisionIds": [
          10142807
        ],
        "postalCode": "N8W1V2",
        "streetName": "SOMME",
        "streetDirectionId": null,
        "streetTypeId": "AVE",
        "placeName": "WINDSOR",
        "streetNameDisplayText": "SOMME AVE, WINDSOR"
      }
    ]
  },
  {
    "postal": "N8W1Y0",
    "result": []
  },
  {
    "postal": "N8W3G6",
    "result": [
      {
        "electoralDistricts": [
          {
            "election": null,
            "id": 119,
            "name": "Windsor West"
          }
        ],
        "pollDivisionIds": [
          10142808
        ],
        "postalCode": "N8W3G6",
        "streetName": "BYNG",
        "streetDirectionId": null,
        "streetTypeId": "RD",
        "placeName": "WINDSOR",
        "streetNameDisplayText": "BYNG RD, WINDSOR"
      }
    ]
  },
  {
    "postal": "N8W3H7",
    "result": [
      {
        "electoralDistricts": [
          {
            "election": null,
            "id": 119,
            "name": "Windsor West"
          }
        ],
        "pollDivisionIds": [
          10142812
        ],
        "postalCode": "N8W3H7",
        "streetName": "BYNG",
        "streetDirectionId": null,
        "streetTypeId": "RD",
        "placeName": "WINDSOR",
        "streetNameDisplayText": "BYNG RD, WINDSOR"
      }
    ]
  },
  {
    "postal": "N8W7X8",
    "result": []
  },
  {
    "postal": "N8W0C7",
    "result": []
  },
  {
    "postal": "N8W0W9",
    "result": []
  },
  {
    "postal": "N8W8E6",
    "result": []
  },
  {
    "postal": "N8W9Z8",
    "result": []
  },
  {
    "postal": "N8W3P4",
    "result": [
      {
        "electoralDistricts": [
          {
            "election": null,
            "id": 118,
            "name": "Windsor—Tecumseh"
          }
        ],
        "pollDivisionIds": [
          10142715
        ],
        "postalCode": "N8W3P4",
        "streetName": "WALKER",
        "streetDirectionId": null,
        "streetTypeId": "RD",
        "placeName": "WINDSOR",
        "streetNameDisplayText": "WALKER RD, WINDSOR"
      }
    ]
  },
  {
    "postal": "N8W6L8",
    "result": []
  },
  {
    "postal": "N8W2R4",
    "result": [
      {
        "electoralDistricts": [
          {
            "election": null,
            "id": 119,
            "name": "Windsor West"
          }
        ],
        "pollDivisionIds": [
          10142807
        ],
        "postalCode": "N8W2R4",
        "streetName": "LINCOLN",
        "streetDirectionId": null,
        "streetTypeId": "RD",
        "placeName": "WINDSOR",
        "streetNameDisplayText": "LINCOLN RD, WINDSOR"
      }
    ]
  },
  {
    "postal": "N8W2W1",
    "result": [
      {
        "electoralDistricts": [
          {
            "election": null,
            "id": 119,
            "name": "Windsor West"
          }
        ],
        "pollDivisionIds": [
          10142807
        ],
        "postalCode": "N8W2W1",
        "streetName": "CHILVER",
        "streetDirectionId": null,
        "streetTypeId": "RD",
        "placeName": "WINDSOR",
        "streetNameDisplayText": "CHILVER RD, WINDSOR"
      }
    ]
  },
  {
    "postal": "N8W9H8",
    "result": []
  },
  {
    "postal": "N8W8X9",
    "result": []
  },
  {
    "postal": "N8W7H4",
    "result": []
  },
  {
    "postal": "N8W3J1",
    "result": [
      {
        "electoralDistricts": [
          {
            "election": null,
            "id": 119,
            "name": "Windsor West"
          }
        ],
        "pollDivisionIds": [
          10142812
        ],
        "postalCode": "N8W3J1",
        "streetName": "BYNG",
        "streetDirectionId": null,
        "streetTypeId": "RD",
        "placeName": "WINDSOR",
        "streetNameDisplayText": "BYNG RD, WINDSOR"
      }
    ]
  },
  {
    "postal": "N8W1P4",
    "result": [
      {
        "electoralDistricts": [
          {
            "election": null,
            "id": 119,
            "name": "Windsor West"
          }
        ],
        "pollDivisionIds": [
          10142807
        ],
        "postalCode": "N8W1P4",
        "streetName": "LORAINE",
        "streetDirectionId": null,
        "streetTypeId": "AVE",
        "placeName": "WINDSOR",
        "streetNameDisplayText": "LORAINE AVE, WINDSOR"
      }
    ]
  },
  {
    "postal": "N8W2A3",
    "result": [
      {
        "electoralDistricts": [
          {
            "election": null,
            "id": 119,
            "name": "Windsor West"
          }
        ],
        "pollDivisionIds": [
          10142812
        ],
        "postalCode": "N8W2A3",
        "streetName": "DIVISION",
        "streetDirectionId": null,
        "streetTypeId": "RD",
        "placeName": "WINDSOR",
        "streetNameDisplayText": "DIVISION RD, WINDSOR"
      }
    ]
  },
  {
    "postal": "N8W0Z1",
    "result": []
  },
  {
    "postal": "N8W1C1",
    "result": [
      {
        "electoralDistricts": [
          {
            "election": null,
            "id": 118,
            "name": "Windsor—Tecumseh"
          }
        ],
        "pollDivisionIds": [
          10142715
        ],
        "postalCode": "N8W1C1",
        "streetName": "TECUMSEH",
        "streetDirectionId": "E",
        "streetTypeId": "RD",
        "placeName": "WINDSOR",
        "streetNameDisplayText": "TECUMSEH RD E, WINDSOR"
      }
    ]
  },
  {
    "postal": "N8W0H3",
    "result": []
  },
  {
    "postal": "N8W7B0",
    "result": []
  },
  {
    "postal": "N8W5K2",
    "result": [
      {
        "electoralDistricts": [
          {
            "election": null,
            "id": 119,
            "name": "Windsor West"
          }
        ],
        "pollDivisionIds": [
          10142808
        ],
        "postalCode": "N8W5K2",
        "streetName": "SLATER",
        "streetDirectionId": null,
        "streetTypeId": "ST",
        "placeName": "WINDSOR",
        "streetNameDisplayText": "SLATER ST, WINDSOR"
      }
    ]
  },
  {
    "postal": "N8W1E9",
    "result": [
      {
        "electoralDistricts": [
          {
            "election": null,
            "id": 118,
            "name": "Windsor—Tecumseh"
          }
        ],
        "pollDivisionIds": [
          10142715
        ],
        "postalCode": "N8W1E9",
        "streetName": "TECUMSEH",
        "streetDirectionId": "E",
        "streetTypeId": "RD",
        "placeName": "WINDSOR",
        "streetNameDisplayText": "TECUMSEH RD E, WINDSOR"
      }
    ]
  },
  {
    "postal": "N8W9W7",
    "result": []
  },
  {
    "postal": "N8W5W6",
    "result": [
      {
        "electoralDistricts": [
          {
            "election": null,
            "id": 119,
            "name": "Windsor West"
          }
        ],
        "pollDivisionIds": [
          10142814
        ],
        "postalCode": "N8W5W6",
        "streetName": "SIXTH CONCESSION",
        "streetDirectionId": null,
        "streetTypeId": "RD",
        "placeName": "WINDSOR",
        "streetNameDisplayText": "SIXTH CONCESSION RD, WINDSOR"
      }
    ]
  },
  {
    "postal": "N8W6S6",
    "result": []
  },
  {
    "postal": "N8W2P8",
    "result": [
      {
        "electoralDistricts": [
          {
            "election": null,
            "id": 118,
            "name": "Windsor—Tecumseh"
          }
        ],
        "pollDivisionIds": [
          10142715
        ],
        "postalCode": "N8W2P8",
        "streetName": "LINCOLN",
        "streetDirectionId": null,
        "streetTypeId": "RD",
        "placeName": "WINDSOR",
        "streetNameDisplayText": "LINCOLN RD, WINDSOR"
      }
    ]
  },
  {
    "postal": "N8W4P8",
    "result": [
      {
        "electoralDistricts": [
          {
            "election": null,
            "id": 119,
            "name": "Windsor West"
          }
        ],
        "pollDivisionIds": [
          10142813
        ],
        "postalCode": "N8W4P8",
        "streetName": "ROSSINI",
        "streetDirectionId": null,
        "streetTypeId": "BLVD",
        "placeName": "WINDSOR",
        "streetNameDisplayText": "ROSSINI BLVD, WINDSOR"
      }
    ]
  },
  {
    "postal": "N8W0V9",
    "result": []
  },
  {
    "postal": "N8W5Y2",
    "result": []
  },
  {
    "postal": "N8W7Z7",
    "result": []
  },
  {
    "postal": "N8W6Y8",
    "result": []
  },
  {
    "postal": "N8W2G7",
    "result": [
      {
        "electoralDistricts": [
          {
            "election": null,
            "id": 119,
            "name": "Windsor West"
          }
        ],
        "pollDivisionIds": [
          10142804
        ],
        "postalCode": "N8W2G7",
        "streetName": "FOREST",
        "streetDirectionId": null,
        "streetTypeId": "AVE",
        "placeName": "WINDSOR",
        "streetNameDisplayText": "FOREST AVE, WINDSOR"
      }
    ]
  },
  {
    "postal": "N8W8C1",
    "result": []
  },
  {
    "postal": "N8W5C5",
    "result": [
      {
        "electoralDistricts": [
          {
            "election": null,
            "id": 119,
            "name": "Windsor West"
          }
        ],
        "pollDivisionIds": [
          10142809
        ],
        "postalCode": "N8W5C5",
        "streetName": "AZALIA",
        "streetDirectionId": null,
        "streetTypeId": "CRES",
        "placeName": "WINDSOR",
        "streetNameDisplayText": "AZALIA CRES, WINDSOR"
      }
    ]
  },
  {
    "postal": "N8W2X8",
    "result": [
      {
        "electoralDistricts": [
          {
            "election": null,
            "id": 119,
            "name": "Windsor West"
          }
        ],
        "pollDivisionIds": [
          10142807
        ],
        "postalCode": "N8W2X8",
        "streetName": "KILDARE",
        "streetDirectionId": null,
        "streetTypeId": "RD",
        "placeName": "WINDSOR",
        "streetNameDisplayText": "KILDARE RD, WINDSOR"
      }
    ]
  },
  {
    "postal": "N8W1W5",
    "result": [
      {
        "electoralDistricts": [
          {
            "election": null,
            "id": 119,
            "name": "Windsor West"
          }
        ],
        "pollDivisionIds": [
          10142813
        ],
        "postalCode": "N8W1W5",
        "streetName": "GRAND MARAIS",
        "streetDirectionId": "E",
        "streetTypeId": "RD",
        "placeName": "WINDSOR",
        "streetNameDisplayText": "GRAND MARAIS RD E, WINDSOR"
      }
    ]
  },
  {
    "postal": "N8W7G0",
    "result": []
  },
  {
    "postal": "N8W8J8",
    "result": []
  },
  {
    "postal": "N8W3Y0",
    "result": []
  },
  {
    "postal": "N8W9T7",
    "result": []
  },
  {
    "postal": "N8W5P4",
    "result": [
      {
        "electoralDistricts": [
          {
            "election": null,
            "id": 119,
            "name": "Windsor West"
          }
        ],
        "pollDivisionIds": [
          10142809
        ],
        "postalCode": "N8W5P4",
        "streetName": "HANSEN",
        "streetDirectionId": null,
        "streetTypeId": "CRES",
        "placeName": "WINDSOR",
        "streetNameDisplayText": "HANSEN CRES, WINDSOR"
      },
      {
        "electoralDistricts": [
          {
            "election": null,
            "id": 119,
            "name": "Windsor West"
          }
        ],
        "pollDivisionIds": [
          10142809
        ],
        "postalCode": "N8W5P4",
        "streetName": "JESSOP",
        "streetDirectionId": null,
        "streetTypeId": "ST",
        "placeName": "WINDSOR",
        "streetNameDisplayText": "JESSOP ST, WINDSOR"
      }
    ]
  },
  {
    "postal": "N8W4B0",
    "result": []
  },
  {
    "postal": "N8W9N8",
    "result": []
  },
  {
    "postal": "N8W4A7",
    "result": [
      {
        "electoralDistricts": [
          {
            "election": null,
            "id": 119,
            "name": "Windsor West"
          }
        ],
        "pollDivisionIds": [
          10142813
        ],
        "postalCode": "N8W4A7",
        "streetName": "CHANDLER",
        "streetDirectionId": null,
        "streetTypeId": "RD",
        "placeName": "WINDSOR",
        "streetNameDisplayText": "CHANDLER RD, WINDSOR"
      }
    ]
  },
  {
    "postal": "N8W4H9",
    "result": [
      {
        "electoralDistricts": [
          {
            "election": null,
            "id": 118,
            "name": "Windsor—Tecumseh"
          }
        ],
        "pollDivisionIds": [
          10142715
        ],
        "postalCode": "N8W4H9",
        "streetName": "CENTRAL",
        "streetDirectionId": null,
        "streetTypeId": "AVE",
        "placeName": "WINDSOR",
        "streetNameDisplayText": "CENTRAL AVE, WINDSOR"
      }
    ]
  },
  {
    "postal": "N8W6X1",
    "result": []
  },
  {
    "postal": "N8W9Y7",
    "result": []
  },
  {
    "postal": "N8W2Y5",
    "result": [
      {
        "electoralDistricts": [
          {
            "election": null,
            "id": 119,
            "name": "Windsor West"
          }
        ],
        "pollDivisionIds": [
          10142807
        ],
        "postalCode": "N8W2Y5",
        "streetName": "KILDARE",
        "streetDirectionId": null,
        "streetTypeId": "RD",
        "placeName": "WINDSOR",
        "streetNameDisplayText": "KILDARE RD, WINDSOR"
      }
    ]
  },
  {
    "postal": "N8W8L7",
    "result": []
  },
  {
    "postal": "N8W2A8",
    "result": [
      {
        "electoralDistricts": [
          {
            "election": null,
            "id": 119,
            "name": "Windsor West"
          }
        ],
        "pollDivisionIds": [
          10142814
        ],
        "postalCode": "N8W2A8",
        "streetName": "BARRACUDA",
        "streetDirectionId": null,
        "streetTypeId": "AVE",
        "placeName": "WINDSOR",
        "streetNameDisplayText": "BARRACUDA AVE, WINDSOR"
      }
    ]
  },
  {
    "postal": "N8W2K9",
    "result": [
      {
        "electoralDistricts": [
          {
            "election": null,
            "id": 119,
            "name": "Windsor West"
          }
        ],
        "pollDivisionIds": [
          10142809
        ],
        "postalCode": "N8W2K9",
        "streetName": "PARKWOOD",
        "streetDirectionId": null,
        "streetTypeId": "AVE",
        "placeName": "WINDSOR",
        "streetNameDisplayText": "PARKWOOD AVE, WINDSOR"
      }
    ]
  },
  {
    "postal": "N8W3E5",
    "result": [
      {
        "electoralDistricts": [
          {
            "election": null,
            "id": 119,
            "name": "Windsor West"
          }
        ],
        "pollDivisionIds": [
          10142807
        ],
        "postalCode": "N8W3E5",
        "streetName": "BYNG",
        "streetDirectionId": null,
        "streetTypeId": "RD",
        "placeName": "WINDSOR",
        "streetNameDisplayText": "BYNG RD, WINDSOR"
      }
    ]
  },
  {
    "postal": "N8W8N6",
    "result": []
  },
  {
    "postal": "N8W8J4",
    "result": []
  },
  {
    "postal": "N8W4R7",
    "result": [
      {
        "electoralDistricts": [
          {
            "election": null,
            "id": 119,
            "name": "Windsor West"
          }
        ],
        "pollDivisionIds": [
          10142813
        ],
        "postalCode": "N8W4R7",
        "streetName": "BERNARD",
        "streetDirectionId": null,
        "streetTypeId": "RD",
        "placeName": "WINDSOR",
        "streetNameDisplayText": "BERNARD RD, WINDSOR"
      }
    ]
  },
  {
    "postal": "N8W9K1",
    "result": []
  },
  {
    "postal": "N8W8E1",
    "result": []
  },
  {
    "postal": "N8W0R1",
    "result": []
  },
  {
    "postal": "N8W4J3",
    "result": [
      {
        "electoralDistricts": [
          {
            "election": null,
            "id": 119,
            "name": "Windsor West"
          }
        ],
        "pollDivisionIds": [
          10142813
        ],
        "postalCode": "N8W4J3",
        "streetName": "CENTRAL",
        "streetDirectionId": null,
        "streetTypeId": "AVE",
        "placeName": "WINDSOR",
        "streetNameDisplayText": "CENTRAL AVE, WINDSOR"
      }
    ]
  },
  {
    "postal": "N8W7E7",
    "result": []
  },
  {
    "postal": "N8W0J0",
    "result": []
  },
  {
    "postal": "N8W7R8",
    "result": []
  },
  {
    "postal": "N8W9X0",
    "result": []
  },
  {
    "postal": "N8W7P6",
    "result": []
  },
  {
    "postal": "N8W0R7",
    "result": []
  },
  {
    "postal": "N8W5W1",
    "result": [
      {
        "electoralDistricts": [
          {
            "election": null,
            "id": 119,
            "name": "Windsor West"
          }
        ],
        "pollDivisionIds": [
          10142814
        ],
        "postalCode": "N8W5W1",
        "streetName": "PROVINCIAL",
        "streetDirectionId": null,
        "streetTypeId": "RD",
        "placeName": "WINDSOR",
        "streetNameDisplayText": "PROVINCIAL RD, WINDSOR"
      }
    ]
  },
  {
    "postal": "N8W0K4",
    "result": []
  },
  {
    "postal": "N8W7N9",
    "result": []
  },
  {
    "postal": "N8W1N0",
    "result": []
  },
  {
    "postal": "N8W6P3",
    "result": []
  },
  {
    "postal": "N8W5A1",
    "result": [
      {
        "electoralDistricts": [
          {
            "election": null,
            "id": 119,
            "name": "Windsor West"
          }
        ],
        "pollDivisionIds": [
          10142809
        ],
        "postalCode": "N8W5A1",
        "streetName": "CONSERVATION",
        "streetDirectionId": null,
        "streetTypeId": "DR",
        "placeName": "WINDSOR",
        "streetNameDisplayText": "CONSERVATION DR, WINDSOR"
      }
    ]
  },
  {
    "postal": "N8W9M9",
    "result": []
  },
  {
    "postal": "N8W7T6",
    "result": []
  },
  {
    "postal": "N8W3X0",
    "result": []
  },
  {
    "postal": "N8W2T0",
    "result": []
  },
  {
    "postal": "N8W5X9",
    "result": []
  },
  {
    "postal": "N8W2R3",
    "result": [
      {
        "electoralDistricts": [
          {
            "election": null,
            "id": 119,
            "name": "Windsor West"
          }
        ],
        "pollDivisionIds": [
          10142804
        ],
        "postalCode": "N8W2R3",
        "streetName": "LINCOLN",
        "streetDirectionId": null,
        "streetTypeId": "RD",
        "placeName": "WINDSOR",
        "streetNameDisplayText": "LINCOLN RD, WINDSOR"
      }
    ]
  },
  {
    "postal": "N8W5N2",
    "result": [
      {
        "electoralDistricts": [
          {
            "election": null,
            "id": 119,
            "name": "Windsor West"
          }
        ],
        "pollDivisionIds": [
          10142808
        ],
        "postalCode": "N8W5N2",
        "streetName": "READING",
        "streetDirectionId": null,
        "streetTypeId": "ST",
        "placeName": "WINDSOR",
        "streetNameDisplayText": "READING ST, WINDSOR"
      },
      {
        "electoralDistricts": [
          {
            "election": null,
            "id": 119,
            "name": "Windsor West"
          }
        ],
        "pollDivisionIds": [
          10142808
        ],
        "postalCode": "N8W5N2",
        "streetName": "SOUTHRIDGE",
        "streetDirectionId": null,
        "streetTypeId": "ST",
        "placeName": "WINDSOR",
        "streetNameDisplayText": "SOUTHRIDGE ST, WINDSOR"
      }
    ]
  },
  {
    "postal": "N8W4Y7",
    "result": [
      {
        "electoralDistricts": [
          {
            "election": null,
            "id": 119,
            "name": "Windsor West"
          }
        ],
        "pollDivisionIds": [
          10142809
        ],
        "postalCode": "N8W4Y7",
        "streetName": "ERINDALE",
        "streetDirectionId": null,
        "streetTypeId": "CRES",
        "placeName": "WINDSOR",
        "streetNameDisplayText": "ERINDALE CRES, WINDSOR"
      }
    ]
  },
  {
    "postal": "N8W7M0",
    "result": []
  },
  {
    "postal": "N8W8P3",
    "result": []
  },
  {
    "postal": "N8W3N3",
    "result": [
      {
        "electoralDistricts": [
          {
            "election": null,
            "id": 119,
            "name": "Windsor West"
          }
        ],
        "pollDivisionIds": [
          10142812
        ],
        "postalCode": "N8W3N3",
        "streetName": "TURNER",
        "streetDirectionId": null,
        "streetTypeId": "RD",
        "placeName": "WINDSOR",
        "streetNameDisplayText": "TURNER RD, WINDSOR"
      }
    ]
  },
  {
    "postal": "N8W7S3",
    "result": []
  },
  {
    "postal": "N8W3V9",
    "result": [
      {
        "electoralDistricts": [
          {
            "election": null,
            "id": 119,
            "name": "Windsor West"
          }
        ],
        "pollDivisionIds": [
          10142812
        ],
        "postalCode": "N8W3V9",
        "streetName": "RIBERDY",
        "streetDirectionId": null,
        "streetTypeId": "RD",
        "placeName": "WINDSOR",
        "streetNameDisplayText": "RIBERDY RD, WINDSOR"
      }
    ]
  },
  {
    "postal": "N8W9N7",
    "result": []
  },
  {
    "postal": "N8W0G4",
    "result": []
  },
  {
    "postal": "N8W2E2",
    "result": [
      {
        "electoralDistricts": [
          {
            "election": null,
            "id": 119,
            "name": "Windsor West"
          }
        ],
        "pollDivisionIds": [
          10142804
        ],
        "postalCode": "N8W2E2",
        "streetName": "PARENT",
        "streetDirectionId": null,
        "streetTypeId": "AVE",
        "placeName": "WINDSOR",
        "streetNameDisplayText": "PARENT AVE, WINDSOR"
      }
    ]
  },
  {
    "postal": "N8W7W8",
    "result": []
  },
  {
    "postal": "N8W7M5",
    "result": []
  },
  {
    "postal": "N8W5W8",
    "result": [
      {
        "electoralDistricts": [
          {
            "election": null,
            "id": 119,
            "name": "Windsor West"
          }
        ],
        "pollDivisionIds": [
          10142814
        ],
        "postalCode": "N8W5W8",
        "streetName": "CABANA",
        "streetDirectionId": "E",
        "streetTypeId": "RD",
        "placeName": "WINDSOR",
        "streetNameDisplayText": "CABANA RD E, WINDSOR"
      }
    ]
  },
  {
    "postal": "N8W5E5",
    "result": [
      {
        "electoralDistricts": [
          {
            "election": null,
            "id": 119,
            "name": "Windsor West"
          }
        ],
        "pollDivisionIds": [
          10142813
        ],
        "postalCode": "N8W5E5",
        "streetName": "TEMPLE",
        "streetDirectionId": null,
        "streetTypeId": "DR",
        "placeName": "WINDSOR",
        "streetNameDisplayText": "TEMPLE DR, WINDSOR"
      }
    ]
  },
  {
    "postal": "N8W1P9",
    "result": [
      {
        "electoralDistricts": [
          {
            "election": null,
            "id": 119,
            "name": "Windsor West"
          }
        ],
        "pollDivisionIds": [
          10142807
        ],
        "postalCode": "N8W1P9",
        "streetName": "YPRES",
        "streetDirectionId": null,
        "streetTypeId": "AVE",
        "placeName": "WINDSOR",
        "streetNameDisplayText": "YPRES AVE, WINDSOR"
      }
    ]
  },
  {
    "postal": "N8W8V8",
    "result": []
  },
  {
    "postal": "N8W9G8",
    "result": []
  },
  {
    "postal": "N8W8H9",
    "result": []
  },
  {
    "postal": "N8W1Z1",
    "result": []
  },
  {
    "postal": "N8W8M3",
    "result": []
  },
  {
    "postal": "N8W5H6",
    "result": [
      {
        "electoralDistricts": [
          {
            "election": null,
            "id": 119,
            "name": "Windsor West"
          }
        ],
        "pollDivisionIds": [
          10142808
        ],
        "postalCode": "N8W5H6",
        "streetName": "BRAEMAR",
        "streetDirectionId": null,
        "streetTypeId": "CRT",
        "placeName": "WINDSOR",
        "streetNameDisplayText": "BRAEMAR CRT, WINDSOR"
      },
      {
        "electoralDistricts": [
          {
            "election": null,
            "id": 119,
            "name": "Windsor West"
          }
        ],
        "pollDivisionIds": [
          10142808
        ],
        "postalCode": "N8W5H6",
        "streetName": "BRAEMAR",
        "streetDirectionId": null,
        "streetTypeId": "PL",
        "placeName": "WINDSOR",
        "streetNameDisplayText": "BRAEMAR PL, WINDSOR"
      }
    ]
  },
  {
    "postal": "N8W7W7",
    "result": []
  },
  {
    "postal": "N8W4L0",
    "result": []
  },
  {
    "postal": "N8W2N1",
    "result": [
      {
        "electoralDistricts": [
          {
            "election": null,
            "id": 118,
            "name": "Windsor—Tecumseh"
          }
        ],
        "pollDivisionIds": [
          10142715
        ],
        "postalCode": "N8W2N1",
        "streetName": "GLADSTONE",
        "streetDirectionId": null,
        "streetTypeId": "AVE",
        "placeName": "WINDSOR",
        "streetNameDisplayText": "GLADSTONE AVE, WINDSOR"
      }
    ]
  },
  {
    "postal": "N8W2H4",
    "result": [
      {
        "electoralDistricts": [
          {
            "election": null,
            "id": 119,
            "name": "Windsor West"
          }
        ],
        "pollDivisionIds": [
          10142804
        ],
        "postalCode": "N8W2H4",
        "streetName": "WOODLAWN",
        "streetDirectionId": null,
        "streetTypeId": "AVE",
        "placeName": "WINDSOR",
        "streetNameDisplayText": "WOODLAWN AVE, WINDSOR"
      }
    ]
  },
  {
    "postal": "N8W5C8",
    "result": [
      {
        "electoralDistricts": [
          {
            "election": null,
            "id": 119,
            "name": "Windsor West"
          }
        ],
        "pollDivisionIds": [
          10142809
        ],
        "postalCode": "N8W5C8",
        "streetName": "AZALIA",
        "streetDirectionId": null,
        "streetTypeId": "CRES",
        "placeName": "WINDSOR",
        "streetNameDisplayText": "AZALIA CRES, WINDSOR"
      }
    ]
  },
  {
    "postal": "N8W8B0",
    "result": []
  },
  {
    "postal": "N8W1T4",
    "result": [
      {
        "electoralDistricts": [
          {
            "election": null,
            "id": 119,
            "name": "Windsor West"
          }
        ],
        "pollDivisionIds": [
          10142807
        ],
        "postalCode": "N8W1T4",
        "streetName": "ARRAS",
        "streetDirectionId": null,
        "streetTypeId": "AVE",
        "placeName": "WINDSOR",
        "streetNameDisplayText": "ARRAS AVE, WINDSOR"
      }
    ]
  },
  {
    "postal": "N8W7N7",
    "result": []
  },
  {
    "postal": "N8W4L3",
    "result": [
      {
        "electoralDistricts": [
          {
            "election": null,
            "id": 118,
            "name": "Windsor—Tecumseh"
          }
        ],
        "pollDivisionIds": [
          10142715
        ],
        "postalCode": "N8W4L3",
        "streetName": "AUBIN",
        "streetDirectionId": null,
        "streetTypeId": "RD",
        "placeName": "WINDSOR",
        "streetNameDisplayText": "AUBIN RD, WINDSOR"
      }
    ]
  },
  {
    "postal": "N8W2N2",
    "result": [
      {
        "electoralDistricts": [
          {
            "election": null,
            "id": 118,
            "name": "Windsor—Tecumseh"
          }
        ],
        "pollDivisionIds": [
          10142715
        ],
        "postalCode": "N8W2N2",
        "streetName": "GLADSTONE",
        "streetDirectionId": null,
        "streetTypeId": "AVE",
        "placeName": "WINDSOR",
        "streetNameDisplayText": "GLADSTONE AVE, WINDSOR"
      }
    ]
  },
  {
    "postal": "N8W4N8",
    "result": [
      {
        "electoralDistricts": [
          {
            "election": null,
            "id": 119,
            "name": "Windsor West"
          }
        ],
        "pollDivisionIds": [
          10142813
        ],
        "postalCode": "N8W4N8",
        "streetName": "TOURANGEAU",
        "streetDirectionId": null,
        "streetTypeId": "RD",
        "placeName": "WINDSOR",
        "streetNameDisplayText": "TOURANGEAU RD, WINDSOR"
      }
    ]
  },
  {
    "postal": "N8W3M5",
    "result": [
      {
        "electoralDistricts": [
          {
            "election": null,
            "id": 119,
            "name": "Windsor West"
          }
        ],
        "pollDivisionIds": [
          10142812
        ],
        "postalCode": "N8W3M5",
        "streetName": "TURNER",
        "streetDirectionId": null,
        "streetTypeId": "RD",
        "placeName": "WINDSOR",
        "streetNameDisplayText": "TURNER RD, WINDSOR"
      }
    ]
  },
  {
    "postal": "N8W6H7",
    "result": []
  },
  {
    "postal": "N8W8Y8",
    "result": []
  },
  {
    "postal": "N8W5R9",
    "result": [
      {
        "electoralDistricts": [
          {
            "election": null,
            "id": 119,
            "name": "Windsor West"
          }
        ],
        "pollDivisionIds": [
          10142809
        ],
        "postalCode": "N8W5R9",
        "streetName": "DIVISION",
        "streetDirectionId": null,
        "streetTypeId": "RD",
        "placeName": "WINDSOR",
        "streetNameDisplayText": "DIVISION RD, WINDSOR"
      }
    ]
  },
  {
    "postal": "N8W8G3",
    "result": []
  },
  {
    "postal": "N8W4N7",
    "result": [
      {
        "electoralDistricts": [
          {
            "election": null,
            "id": 119,
            "name": "Windsor West"
          }
        ],
        "pollDivisionIds": [
          10142813
        ],
        "postalCode": "N8W4N7",
        "streetName": "TOURANGEAU",
        "streetDirectionId": null,
        "streetTypeId": "RD",
        "placeName": "WINDSOR",
        "streetNameDisplayText": "TOURANGEAU RD, WINDSOR"
      }
    ]
  },
  {
    "postal": "N8W0B9",
    "result": []
  },
  {
    "postal": "N8W9K7",
    "result": []
  },
  {
    "postal": "N8W9K9",
    "result": []
  },
  {
    "postal": "N8W3Z2",
    "result": [
      {
        "electoralDistricts": [
          {
            "election": null,
            "id": 119,
            "name": "Windsor West"
          }
        ],
        "pollDivisionIds": [
          10142813
        ],
        "postalCode": "N8W3Z2",
        "streetName": "ALEXIS",
        "streetDirectionId": null,
        "streetTypeId": "RD",
        "placeName": "WINDSOR",
        "streetNameDisplayText": "ALEXIS RD, WINDSOR"
      }
    ]
  },
  {
    "postal": "N8W6W7",
    "result": []
  },
  {
    "postal": "N8W0P1",
    "result": []
  },
  {
    "postal": "N8W3A0",
    "result": []
  },
  {
    "postal": "N8W8L9",
    "result": []
  },
  {
    "postal": "N8W6X0",
    "result": []
  },
  {
    "postal": "N8W3E9",
    "result": [
      {
        "electoralDistricts": [
          {
            "election": null,
            "id": 119,
            "name": "Windsor West"
          }
        ],
        "pollDivisionIds": [
          10142807
        ],
        "postalCode": "N8W3E9",
        "streetName": "BYNG",
        "streetDirectionId": null,
        "streetTypeId": "RD",
        "placeName": "WINDSOR",
        "streetNameDisplayText": "BYNG RD, WINDSOR"
      }
    ]
  },
  {
    "postal": "N8W0S5",
    "result": []
  },
  {
    "postal": "N8W1A2",
    "result": [
      {
        "electoralDistricts": [
          {
            "election": null,
            "id": 118,
            "name": "Windsor—Tecumseh"
          }
        ],
        "pollDivisionIds": [
          10142715
        ],
        "postalCode": "N8W1A2",
        "streetName": "SENECA",
        "streetDirectionId": null,
        "streetTypeId": "ST",
        "placeName": "WINDSOR",
        "streetNameDisplayText": "SENECA ST, WINDSOR"
      }
    ]
  },
  {
    "postal": "N8W5V8",
    "result": [
      {
        "electoralDistricts": [
          {
            "election": null,
            "id": 119,
            "name": "Windsor West"
          }
        ],
        "pollDivisionIds": [
          10142814
        ],
        "postalCode": "N8W5V8",
        "streetName": "PROVINCIAL",
        "streetDirectionId": null,
        "streetTypeId": "RD",
        "placeName": "WINDSOR",
        "streetNameDisplayText": "PROVINCIAL RD, WINDSOR"
      }
    ]
  },
  {
    "postal": "N8W8C5",
    "result": []
  },
  {
    "postal": "N8W6N0",
    "result": []
  },
  {
    "postal": "N8W9E6",
    "result": []
  },
  {
    "postal": "N8W5J7",
    "result": [
      {
        "electoralDistricts": [
          {
            "election": null,
            "id": 119,
            "name": "Windsor West"
          }
        ],
        "pollDivisionIds": [
          10142812
        ],
        "postalCode": "N8W5J7",
        "streetName": "WALKER",
        "streetDirectionId": null,
        "streetTypeId": "RD",
        "placeName": "WINDSOR",
        "streetNameDisplayText": "WALKER RD, WINDSOR"
      }
    ]
  },
  {
    "postal": "N8W2R2",
    "result": [
      {
        "electoralDistricts": [
          {
            "election": null,
            "id": 119,
            "name": "Windsor West"
          }
        ],
        "pollDivisionIds": [
          10142804
        ],
        "postalCode": "N8W2R2",
        "streetName": "LINCOLN",
        "streetDirectionId": null,
        "streetTypeId": "RD",
        "placeName": "WINDSOR",
        "streetNameDisplayText": "LINCOLN RD, WINDSOR"
      }
    ]
  },
  {
    "postal": "N8W0P5",
    "result": []
  },
  {
    "postal": "N8W5A7",
    "result": [
      {
        "electoralDistricts": [
          {
            "election": null,
            "id": 119,
            "name": "Windsor West"
          }
        ],
        "pollDivisionIds": [
          10142813
        ],
        "postalCode": "N8W5A7",
        "streetName": "WHEELTON",
        "streetDirectionId": null,
        "streetTypeId": "DR",
        "placeName": "WINDSOR",
        "streetNameDisplayText": "WHEELTON DR, WINDSOR"
      }
    ]
  },
  {
    "postal": "N8W1G1",
    "result": []
  },
  {
    "postal": "N8W9R6",
    "result": []
  },
  {
    "postal": "N8W4Z9",
    "result": [
      {
        "electoralDistricts": [
          {
            "election": null,
            "id": 119,
            "name": "Windsor West"
          }
        ],
        "pollDivisionIds": [
          10142809
        ],
        "postalCode": "N8W4Z9",
        "streetName": "CALVERT",
        "streetDirectionId": null,
        "streetTypeId": "CRT",
        "placeName": "WINDSOR",
        "streetNameDisplayText": "CALVERT CRT, WINDSOR"
      }
    ]
  },
  {
    "postal": "N8W1V5",
    "result": [
      {
        "electoralDistricts": [
          {
            "election": null,
            "id": 119,
            "name": "Windsor West"
          }
        ],
        "pollDivisionIds": [
          10142813
        ],
        "postalCode": "N8W1V5",
        "streetName": "SOMME",
        "streetDirectionId": null,
        "streetTypeId": "AVE",
        "placeName": "WINDSOR",
        "streetNameDisplayText": "SOMME AVE, WINDSOR"
      }
    ]
  },
  {
    "postal": "N8W9Y5",
    "result": []
  },
  {
    "postal": "N8W1P2",
    "result": [
      {
        "electoralDistricts": [
          {
            "election": null,
            "id": 119,
            "name": "Windsor West"
          }
        ],
        "pollDivisionIds": [
          10142807
        ],
        "postalCode": "N8W1P2",
        "streetName": "VIMY",
        "streetDirectionId": null,
        "streetTypeId": "AVE",
        "placeName": "WINDSOR",
        "streetNameDisplayText": "VIMY AVE, WINDSOR"
      }
    ]
  },
  {
    "postal": "N8W5X0",
    "result": []
  },
  {
    "postal": "N8W7B8",
    "result": []
  },
  {
    "postal": "N8W0C6",
    "result": []
  },
  {
    "postal": "N8W6G1",
    "result": []
  },
  {
    "postal": "N8W3K3",
    "result": []
  },
  {
    "postal": "N8W9R0",
    "result": []
  },
  {
    "postal": "N8W4R8",
    "result": [
      {
        "electoralDistricts": [
          {
            "election": null,
            "id": 119,
            "name": "Windsor West"
          }
        ],
        "pollDivisionIds": [
          10142813
        ],
        "postalCode": "N8W4R8",
        "streetName": "BERNARD",
        "streetDirectionId": null,
        "streetTypeId": "RD",
        "placeName": "WINDSOR",
        "streetNameDisplayText": "BERNARD RD, WINDSOR"
      }
    ]
  },
  {
    "postal": "N8W5P9",
    "result": [
      {
        "electoralDistricts": [
          {
            "election": null,
            "id": 119,
            "name": "Windsor West"
          }
        ],
        "pollDivisionIds": [
          10142809,
          10142812
        ],
        "postalCode": "N8W5P9",
        "streetName": "FOSTER",
        "streetDirectionId": null,
        "streetTypeId": "AVE",
        "placeName": "WINDSOR",
        "streetNameDisplayText": "FOSTER AVE, WINDSOR"
      }
    ]
  },
  {
    "postal": "N8W8N4",
    "result": []
  },
  {
    "postal": "N8W8H4",
    "result": []
  },
  {
    "postal": "N8W4V1",
    "result": [
      {
        "electoralDistricts": [
          {
            "election": null,
            "id": 118,
            "name": "Windsor—Tecumseh"
          }
        ],
        "pollDivisionIds": [
          10142715
        ],
        "postalCode": "N8W4V1",
        "streetName": "ELLROSE",
        "streetDirectionId": null,
        "streetTypeId": "AVE",
        "placeName": "WINDSOR",
        "streetNameDisplayText": "ELLROSE AVE, WINDSOR"
      }
    ]
  },
  {
    "postal": "N8W1K5",
    "result": [
      {
        "electoralDistricts": [
          {
            "election": null,
            "id": 118,
            "name": "Windsor—Tecumseh"
          }
        ],
        "pollDivisionIds": [
          10142715
        ],
        "postalCode": "N8W1K5",
        "streetName": "TECUMSEH",
        "streetDirectionId": "E",
        "streetTypeId": "RD",
        "placeName": "WINDSOR",
        "streetNameDisplayText": "TECUMSEH RD E, WINDSOR"
      }
    ]
  },
  {
    "postal": "N8W1Z5",
    "result": []
  },
  {
    "postal": "N8W9L9",
    "result": []
  },
  {
    "postal": "N8W5L2",
    "result": [
      {
        "electoralDistricts": [
          {
            "election": null,
            "id": 119,
            "name": "Windsor West"
          }
        ],
        "pollDivisionIds": [
          10142808
        ],
        "postalCode": "N8W5L2",
        "streetName": "BLUE SPRING",
        "streetDirectionId": null,
        "streetTypeId": "DR",
        "placeName": "WINDSOR",
        "streetNameDisplayText": "BLUE SPRING DR, WINDSOR"
      },
      {
        "electoralDistricts": [
          {
            "election": null,
            "id": 119,
            "name": "Windsor West"
          }
        ],
        "pollDivisionIds": [
          10142808
        ],
        "postalCode": "N8W5L2",
        "streetName": "ROBILLARD",
        "streetDirectionId": null,
        "streetTypeId": "CRES",
        "placeName": "WINDSOR",
        "streetNameDisplayText": "ROBILLARD CRES, WINDSOR"
      }
    ]
  },
  {
    "postal": "N8W0M2",
    "result": []
  },
  {
    "postal": "N8W1K8",
    "result": [
      {
        "electoralDistricts": [
          {
            "election": null,
            "id": 119,
            "name": "Windsor West"
          }
        ],
        "pollDivisionIds": [
          10142813
        ],
        "postalCode": "N8W1K8",
        "streetName": "TECUMSEH",
        "streetDirectionId": "E",
        "streetTypeId": "RD",
        "placeName": "WINDSOR",
        "streetNameDisplayText": "TECUMSEH RD E, WINDSOR"
      }
    ]
  },
  {
    "postal": "N8W3M7",
    "result": [
      {
        "electoralDistricts": [
          {
            "election": null,
            "id": 119,
            "name": "Windsor West"
          }
        ],
        "pollDivisionIds": [
          10142812
        ],
        "postalCode": "N8W3M7",
        "streetName": "TURNER",
        "streetDirectionId": null,
        "streetTypeId": "RD",
        "placeName": "WINDSOR",
        "streetNameDisplayText": "TURNER RD, WINDSOR"
      }
    ]
  },
  {
    "postal": "N8W1B2",
    "result": [
      {
        "electoralDistricts": [
          {
            "election": null,
            "id": 118,
            "name": "Windsor—Tecumseh"
          }
        ],
        "pollDivisionIds": [
          10142715
        ],
        "postalCode": "N8W1B2",
        "streetName": "TECUMSEH",
        "streetDirectionId": "E",
        "streetTypeId": "RD",
        "placeName": "WINDSOR",
        "streetNameDisplayText": "TECUMSEH RD E, WINDSOR"
      }
    ]
  },
  {
    "postal": "N8W0H9",
    "result": []
  },
  {
    "postal": "N8W8M4",
    "result": []
  },
  {
    "postal": "N8W2M5",
    "result": [
      {
        "electoralDistricts": [
          {
            "election": null,
            "id": 119,
            "name": "Windsor West"
          }
        ],
        "pollDivisionIds": [
          10142804
        ],
        "postalCode": "N8W2M5",
        "streetName": "MOY",
        "streetDirectionId": null,
        "streetTypeId": "AVE",
        "placeName": "WINDSOR",
        "streetNameDisplayText": "MOY AVE, WINDSOR"
      }
    ]
  },
  {
    "postal": "N8W0T9",
    "result": []
  },
  {
    "postal": "N8W3P1",
    "result": [
      {
        "electoralDistricts": [
          {
            "election": null,
            "id": 118,
            "name": "Windsor—Tecumseh"
          }
        ],
        "pollDivisionIds": [
          10142715
        ],
        "postalCode": "N8W3P1",
        "streetName": "WALKER",
        "streetDirectionId": null,
        "streetTypeId": "RD",
        "placeName": "WINDSOR",
        "streetNameDisplayText": "WALKER RD, WINDSOR"
      }
    ]
  },
  {
    "postal": "N8W1R6",
    "result": [
      {
        "electoralDistricts": [
          {
            "election": null,
            "id": 119,
            "name": "Windsor West"
          }
        ],
        "pollDivisionIds": [
          10142807
        ],
        "postalCode": "N8W1R6",
        "streetName": "YPRES",
        "streetDirectionId": null,
        "streetTypeId": "AVE",
        "placeName": "WINDSOR",
        "streetNameDisplayText": "YPRES AVE, WINDSOR"
      }
    ]
  },
  {
    "postal": "N8W9V5",
    "result": []
  },
  {
    "postal": "N8W9T0",
    "result": []
  },
  {
    "postal": "N8W0A9",
    "result": []
  },
  {
    "postal": "N8W1M3",
    "result": [
      {
        "electoralDistricts": [
          {
            "election": null,
            "id": 119,
            "name": "Windsor West"
          }
        ],
        "pollDivisionIds": [
          10142804
        ],
        "postalCode": "N8W1M3",
        "streetName": "LENS",
        "streetDirectionId": null,
        "streetTypeId": "AVE",
        "placeName": "WINDSOR",
        "streetNameDisplayText": "LENS AVE, WINDSOR"
      }
    ]
  },
  {
    "postal": "N8W1W8",
    "result": []
  },
  {
    "postal": "N8W9J1",
    "result": []
  },
  {
    "postal": "N8W8N5",
    "result": []
  },
  {
    "postal": "N8W5X1",
    "result": []
  },
  {
    "postal": "N8W6S2",
    "result": []
  },
  {
    "postal": "N8W2A2",
    "result": []
  },
  {
    "postal": "N8W6A6",
    "result": []
  },
  {
    "postal": "N8W0S3",
    "result": []
  },
  {
    "postal": "N8W3E7",
    "result": [
      {
        "electoralDistricts": [
          {
            "election": null,
            "id": 119,
            "name": "Windsor West"
          }
        ],
        "pollDivisionIds": [
          10142807
        ],
        "postalCode": "N8W3E7",
        "streetName": "BYNG",
        "streetDirectionId": null,
        "streetTypeId": "RD",
        "placeName": "WINDSOR",
        "streetNameDisplayText": "BYNG RD, WINDSOR"
      }
    ]
  },
  {
    "postal": "N8W5R7",
    "result": [
      {
        "electoralDistricts": [
          {
            "election": null,
            "id": 119,
            "name": "Windsor West"
          }
        ],
        "pollDivisionIds": [
          10142813
        ],
        "postalCode": "N8W5R7",
        "streetName": "NORTH SERVICE",
        "streetDirectionId": "E",
        "streetTypeId": "RD",
        "placeName": "WINDSOR",
        "streetNameDisplayText": "NORTH SERVICE RD E, WINDSOR"
      }
    ]
  },
  {
    "postal": "N8W3R6",
    "result": [
      {
        "electoralDistricts": [
          {
            "election": null,
            "id": 119,
            "name": "Windsor West"
          }
        ],
        "pollDivisionIds": [
          10142812
        ],
        "postalCode": "N8W3R6",
        "streetName": "WALKER",
        "streetDirectionId": null,
        "streetTypeId": "RD",
        "placeName": "WINDSOR",
        "streetNameDisplayText": "WALKER RD, WINDSOR"
      }
    ]
  },
  {
    "postal": "N8W6K4",
    "result": []
  },
  {
    "postal": "N8W2W5",
    "result": [
      {
        "electoralDistricts": [
          {
            "election": null,
            "id": 118,
            "name": "Windsor—Tecumseh"
          }
        ],
        "pollDivisionIds": [
          10142715
        ],
        "postalCode": "N8W2W5",
        "streetName": "KILDARE",
        "streetDirectionId": null,
        "streetTypeId": "RD",
        "placeName": "WINDSOR",
        "streetNameDisplayText": "KILDARE RD, WINDSOR"
      }
    ]
  },
  {
    "postal": "N8W8W4",
    "result": []
  },
  {
    "postal": "N8W9C2",
    "result": []
  },
  {
    "postal": "N8W2C0",
    "result": []
  },
  {
    "postal": "N8W0E1",
    "result": []
  },
  {
    "postal": "N8W1K9",
    "result": [
      {
        "electoralDistricts": [
          {
            "election": null,
            "id": 119,
            "name": "Windsor West"
          }
        ],
        "pollDivisionIds": [
          10142804
        ],
        "postalCode": "N8W1K9",
        "streetName": "TERMINAL",
        "streetDirectionId": null,
        "streetTypeId": "ST",
        "placeName": "WINDSOR",
        "streetNameDisplayText": "TERMINAL ST, WINDSOR"
      }
    ]
  },
  {
    "postal": "N8W1G7",
    "result": [
      {
        "electoralDistricts": [
          {
            "election": null,
            "id": 118,
            "name": "Windsor—Tecumseh"
          }
        ],
        "pollDivisionIds": [
          10142715
        ],
        "postalCode": "N8W1G7",
        "streetName": "TECUMSEH",
        "streetDirectionId": "E",
        "streetTypeId": "RD",
        "placeName": "WINDSOR",
        "streetNameDisplayText": "TECUMSEH RD E, WINDSOR"
      }
    ]
  },
  {
    "postal": "N8W4E9",
    "result": [
      {
        "electoralDistricts": [
          {
            "election": null,
            "id": 119,
            "name": "Windsor West"
          }
        ],
        "pollDivisionIds": [
          10142813
        ],
        "postalCode": "N8W4E9",
        "streetName": "MELDRUM",
        "streetDirectionId": null,
        "streetTypeId": "RD",
        "placeName": "WINDSOR",
        "streetNameDisplayText": "MELDRUM RD, WINDSOR"
      }
    ]
  },
  {
    "postal": "N8W9P0",
    "result": []
  },
  {
    "postal": "N8W5H3",
    "result": [
      {
        "electoralDistricts": [
          {
            "election": null,
            "id": 119,
            "name": "Windsor West"
          }
        ],
        "pollDivisionIds": [
          10142808
        ],
        "postalCode": "N8W5H3",
        "streetName": "BROOKVIEW",
        "streetDirectionId": null,
        "streetTypeId": "CRES",
        "placeName": "WINDSOR",
        "streetNameDisplayText": "BROOKVIEW CRES, WINDSOR"
      },
      {
        "electoralDistricts": [
          {
            "election": null,
            "id": 119,
            "name": "Windsor West"
          }
        ],
        "pollDivisionIds": [
          10142808
        ],
        "postalCode": "N8W5H3",
        "streetName": "NORTH SERVICE",
        "streetDirectionId": "E",
        "streetTypeId": "RD",
        "placeName": "WINDSOR",
        "streetNameDisplayText": "NORTH SERVICE RD E, WINDSOR"
      }
    ]
  },
  {
    "postal": "N8W9X6",
    "result": []
  },
  {
    "postal": "N8W5N7",
    "result": [
      {
        "electoralDistricts": [
          {
            "election": null,
            "id": 119,
            "name": "Windsor West"
          }
        ],
        "pollDivisionIds": [
          10142813
        ],
        "postalCode": "N8W5N7",
        "streetName": "ALLYSON",
        "streetDirectionId": null,
        "streetTypeId": "AVE",
        "placeName": "WINDSOR",
        "streetNameDisplayText": "ALLYSON AVE, WINDSOR"
      },
      {
        "electoralDistricts": [
          {
            "election": null,
            "id": 119,
            "name": "Windsor West"
          }
        ],
        "pollDivisionIds": [
          10142813
        ],
        "postalCode": "N8W5N7",
        "streetName": "WHISPERING PINES",
        "streetDirectionId": null,
        "streetTypeId": "ST",
        "placeName": "WINDSOR",
        "streetNameDisplayText": "WHISPERING PINES ST, WINDSOR"
      }
    ]
  },
  {
    "postal": "N8W5A6",
    "result": [
      {
        "electoralDistricts": [
          {
            "election": null,
            "id": 119,
            "name": "Windsor West"
          }
        ],
        "pollDivisionIds": [
          10142813
        ],
        "postalCode": "N8W5A6",
        "streetName": "WHEELTON",
        "streetDirectionId": null,
        "streetTypeId": "DR",
        "placeName": "WINDSOR",
        "streetNameDisplayText": "WHEELTON DR, WINDSOR"
      }
    ]
  },
  {
    "postal": "N8W4M0",
    "result": []
  },
  {
    "postal": "N8W3V6",
    "result": [
      {
        "electoralDistricts": [
          {
            "election": null,
            "id": 119,
            "name": "Windsor West"
          }
        ],
        "pollDivisionIds": [
          10142812
        ],
        "postalCode": "N8W3V6",
        "streetName": "RIBERDY",
        "streetDirectionId": null,
        "streetTypeId": "RD",
        "placeName": "WINDSOR",
        "streetNameDisplayText": "RIBERDY RD, WINDSOR"
      }
    ]
  },
  {
    "postal": "N8W1L7",
    "result": [
      {
        "electoralDistricts": [
          {
            "election": null,
            "id": 119,
            "name": "Windsor West"
          }
        ],
        "pollDivisionIds": [
          10142804
        ],
        "postalCode": "N8W1L7",
        "streetName": "LENS",
        "streetDirectionId": null,
        "streetTypeId": "AVE",
        "placeName": "WINDSOR",
        "streetNameDisplayText": "LENS AVE, WINDSOR"
      }
    ]
  },
  {
    "postal": "N8W2P9",
    "result": [
      {
        "electoralDistricts": [
          {
            "election": null,
            "id": 119,
            "name": "Windsor West"
          }
        ],
        "pollDivisionIds": [
          10142804
        ],
        "postalCode": "N8W2P9",
        "streetName": "LINCOLN",
        "streetDirectionId": null,
        "streetTypeId": "RD",
        "placeName": "WINDSOR",
        "streetNameDisplayText": "LINCOLN RD, WINDSOR"
      }
    ]
  },
  {
    "postal": "N8W5T4",
    "result": [
      {
        "electoralDistricts": [
          {
            "election": null,
            "id": 119,
            "name": "Windsor West"
          }
        ],
        "pollDivisionIds": [
          10142809
        ],
        "postalCode": "N8W5T4",
        "streetName": "IRONGATE",
        "streetDirectionId": null,
        "streetTypeId": "CIR",
        "placeName": "WINDSOR",
        "streetNameDisplayText": "IRONGATE CIR, WINDSOR"
      }
    ]
  },
  {
    "postal": "N8W5Z1",
    "result": []
  },
  {
    "postal": "N8W2X0",
    "result": []
  },
  {
    "postal": "N8W6Z2",
    "result": []
  },
  {
    "postal": "N8W0E0",
    "result": []
  },
  {
    "postal": "N8W3Z5",
    "result": [
      {
        "electoralDistricts": [
          {
            "election": null,
            "id": 119,
            "name": "Windsor West"
          }
        ],
        "pollDivisionIds": [
          10142813
        ],
        "postalCode": "N8W3Z5",
        "streetName": "ALEXIS",
        "streetDirectionId": null,
        "streetTypeId": "RD",
        "placeName": "WINDSOR",
        "streetNameDisplayText": "ALEXIS RD, WINDSOR"
      }
    ]
  },
  {
    "postal": "N8W8H3",
    "result": []
  },
  {
    "postal": "N8W7S6",
    "result": []
  },
  {
    "postal": "N8W4C1",
    "result": [
      {
        "electoralDistricts": [
          {
            "election": null,
            "id": 119,
            "name": "Windsor West"
          }
        ],
        "pollDivisionIds": [
          10142813
        ],
        "postalCode": "N8W4C1",
        "streetName": "MEIGHEN",
        "streetDirectionId": null,
        "streetTypeId": "RD",
        "placeName": "WINDSOR",
        "streetNameDisplayText": "MEIGHEN RD, WINDSOR"
      }
    ]
  },
  {
    "postal": "N8W3K2",
    "result": [
      {
        "electoralDistricts": [
          {
            "election": null,
            "id": 118,
            "name": "Windsor—Tecumseh"
          }
        ],
        "pollDivisionIds": [
          10142715
        ],
        "postalCode": "N8W3K2",
        "streetName": "TURNER",
        "streetDirectionId": null,
        "streetTypeId": "RD",
        "placeName": "WINDSOR",
        "streetNameDisplayText": "TURNER RD, WINDSOR"
      }
    ]
  },
  {
    "postal": "N8W1Y5",
    "result": [
      {
        "electoralDistricts": [
          {
            "election": null,
            "id": 119,
            "name": "Windsor West"
          }
        ],
        "pollDivisionIds": [
          10142809
        ],
        "postalCode": "N8W1Y5",
        "streetName": "EC ROW",
        "streetDirectionId": "E",
        "streetTypeId": "AVE",
        "placeName": "WINDSOR",
        "streetNameDisplayText": "EC ROW AVE E, WINDSOR"
      }
    ]
  },
  {
    "postal": "N8W6P6",
    "result": []
  },
  {
    "postal": "N8W3N9",
    "result": []
  },
  {
    "postal": "N8W3W2",
    "result": [
      {
        "electoralDistricts": [
          {
            "election": null,
            "id": 119,
            "name": "Windsor West"
          }
        ],
        "pollDivisionIds": [
          10142812
        ],
        "postalCode": "N8W3W2",
        "streetName": "RIBERDY",
        "streetDirectionId": null,
        "streetTypeId": "RD",
        "placeName": "WINDSOR",
        "streetNameDisplayText": "RIBERDY RD, WINDSOR"
      }
    ]
  },
  {
    "postal": "N8W6H8",
    "result": []
  },
  {
    "postal": "N8W9T3",
    "result": []
  },
  {
    "postal": "N8W5L9",
    "result": [
      {
        "electoralDistricts": [
          {
            "election": null,
            "id": 119,
            "name": "Windsor West"
          }
        ],
        "pollDivisionIds": [
          10142813
        ],
        "postalCode": "N8W5L9",
        "streetName": "LOVRIC",
        "streetDirectionId": null,
        "streetTypeId": "RD",
        "placeName": "WINDSOR",
        "streetNameDisplayText": "LOVRIC RD, WINDSOR"
      },
      {
        "electoralDistricts": [
          {
            "election": null,
            "id": 119,
            "name": "Windsor West"
          }
        ],
        "pollDivisionIds": [
          10142813
        ],
        "postalCode": "N8W5L9",
        "streetName": "ROBERT",
        "streetDirectionId": null,
        "streetTypeId": "RD",
        "placeName": "WINDSOR",
        "streetNameDisplayText": "ROBERT RD, WINDSOR"
      }
    ]
  },
  {
    "postal": "N8W7X7",
    "result": []
  },
  {
    "postal": "N8W3J5",
    "result": [
      {
        "electoralDistricts": [
          {
            "election": null,
            "id": 119,
            "name": "Windsor West"
          }
        ],
        "pollDivisionIds": [
          10142812
        ],
        "postalCode": "N8W3J5",
        "streetName": "BYNG",
        "streetDirectionId": null,
        "streetTypeId": "RD",
        "placeName": "WINDSOR",
        "streetNameDisplayText": "BYNG RD, WINDSOR"
      }
    ]
  },
  {
    "postal": "N8W4J5",
    "result": [
      {
        "electoralDistricts": [
          {
            "election": null,
            "id": 119,
            "name": "Windsor West"
          }
        ],
        "pollDivisionIds": [
          10142813
        ],
        "postalCode": "N8W4J5",
        "streetName": "CENTRAL",
        "streetDirectionId": null,
        "streetTypeId": "AVE",
        "placeName": "WINDSOR",
        "streetNameDisplayText": "CENTRAL AVE, WINDSOR"
      }
    ]
  },
  {
    "postal": "N8W6J2",
    "result": []
  },
  {
    "postal": "N8W5V6",
    "result": [
      {
        "electoralDistricts": [
          {
            "election": null,
            "id": 119,
            "name": "Windsor West"
          }
        ],
        "pollDivisionIds": [
          10142814
        ],
        "postalCode": "N8W5V6",
        "streetName": "WALKER",
        "streetDirectionId": null,
        "streetTypeId": "RD",
        "placeName": "WINDSOR",
        "streetNameDisplayText": "WALKER RD, WINDSOR"
      }
    ]
  },
  {
    "postal": "N8W3N2",
    "result": [
      {
        "electoralDistricts": [
          {
            "election": null,
            "id": 119,
            "name": "Windsor West"
          }
        ],
        "pollDivisionIds": [
          10142812
        ],
        "postalCode": "N8W3N2",
        "streetName": "TURNER",
        "streetDirectionId": null,
        "streetTypeId": "RD",
        "placeName": "WINDSOR",
        "streetNameDisplayText": "TURNER RD, WINDSOR"
      }
    ]
  },
  {
    "postal": "N8W3B1",
    "result": [
      {
        "electoralDistricts": [
          {
            "election": null,
            "id": 119,
            "name": "Windsor West"
          }
        ],
        "pollDivisionIds": [
          10142812
        ],
        "postalCode": "N8W3B1",
        "streetName": "BLISS",
        "streetDirectionId": null,
        "streetTypeId": "RD",
        "placeName": "WINDSOR",
        "streetNameDisplayText": "BLISS RD, WINDSOR"
      }
    ]
  },
  {
    "postal": "N8W8B5",
    "result": []
  },
  {
    "postal": "N8W0K1",
    "result": []
  },
  {
    "postal": "N8W7M7",
    "result": []
  },
  {
    "postal": "N8W2M2",
    "result": [
      {
        "electoralDistricts": [
          {
            "election": null,
            "id": 118,
            "name": "Windsor—Tecumseh"
          }
        ],
        "pollDivisionIds": [
          10142715
        ],
        "postalCode": "N8W2M2",
        "streetName": "MOY",
        "streetDirectionId": null,
        "streetTypeId": "AVE",
        "placeName": "WINDSOR",
        "streetNameDisplayText": "MOY AVE, WINDSOR"
      }
    ]
  },
  {
    "postal": "N8W9N3",
    "result": []
  },
  {
    "postal": "N8W4Y8",
    "result": [
      {
        "electoralDistricts": [
          {
            "election": null,
            "id": 119,
            "name": "Windsor West"
          }
        ],
        "pollDivisionIds": [
          10142809
        ],
        "postalCode": "N8W4Y8",
        "streetName": "ERINDALE",
        "streetDirectionId": null,
        "streetTypeId": "CRES",
        "placeName": "WINDSOR",
        "streetNameDisplayText": "ERINDALE CRES, WINDSOR"
      }
    ]
  },
  {
    "postal": "N8W3V7",
    "result": [
      {
        "electoralDistricts": [
          {
            "election": null,
            "id": 119,
            "name": "Windsor West"
          }
        ],
        "pollDivisionIds": [
          10142812
        ],
        "postalCode": "N8W3V7",
        "streetName": "RIBERDY",
        "streetDirectionId": null,
        "streetTypeId": "RD",
        "placeName": "WINDSOR",
        "streetNameDisplayText": "RIBERDY RD, WINDSOR"
      }
    ]
  },
  {
    "postal": "N8W8Z1",
    "result": []
  },
  {
    "postal": "N8W7B3",
    "result": []
  },
  {
    "postal": "N8W3A8",
    "result": [
      {
        "electoralDistricts": [
          {
            "election": null,
            "id": 119,
            "name": "Windsor West"
          }
        ],
        "pollDivisionIds": [
          10142812
        ],
        "postalCode": "N8W3A8",
        "streetName": "BLISS",
        "streetDirectionId": null,
        "streetTypeId": "RD",
        "placeName": "WINDSOR",
        "streetNameDisplayText": "BLISS RD, WINDSOR"
      }
    ]
  },
  {
    "postal": "N8W7V5",
    "result": []
  },
  {
    "postal": "N8W2T2",
    "result": [
      {
        "electoralDistricts": [
          {
            "election": null,
            "id": 119,
            "name": "Windsor West"
          }
        ],
        "pollDivisionIds": [
          10142807
        ],
        "postalCode": "N8W2T2",
        "streetName": "WINDERMERE",
        "streetDirectionId": null,
        "streetTypeId": "RD",
        "placeName": "WINDSOR",
        "streetNameDisplayText": "WINDERMERE RD, WINDSOR"
      }
    ]
  },
  {
    "postal": "N8W6L3",
    "result": []
  },
  {
    "postal": "N8W0L2",
    "result": []
  },
  {
    "postal": "N8W5Y8",
    "result": []
  },
  {
    "postal": "N8W0B8",
    "result": []
  },
  {
    "postal": "N8W6R5",
    "result": []
  },
  {
    "postal": "N8W8W6",
    "result": []
  },
  {
    "postal": "N8W8G6",
    "result": []
  },
  {
    "postal": "N8W6X3",
    "result": []
  },
  {
    "postal": "N8W7R7",
    "result": []
  },
  {
    "postal": "N8W4B6",
    "result": [
      {
        "electoralDistricts": [
          {
            "election": null,
            "id": 119,
            "name": "Windsor West"
          }
        ],
        "pollDivisionIds": [
          10142813
        ],
        "postalCode": "N8W4B6",
        "streetName": "MEIGHEN",
        "streetDirectionId": null,
        "streetTypeId": "RD",
        "placeName": "WINDSOR",
        "streetNameDisplayText": "MEIGHEN RD, WINDSOR"
      }
    ]
  },
  {
    "postal": "N8W3P9",
    "result": [
      {
        "electoralDistricts": [
          {
            "election": null,
            "id": 119,
            "name": "Windsor West"
          }
        ],
        "pollDivisionIds": [
          10142807
        ],
        "postalCode": "N8W3P9",
        "streetName": "WALKER",
        "streetDirectionId": null,
        "streetTypeId": "RD",
        "placeName": "WINDSOR",
        "streetNameDisplayText": "WALKER RD, WINDSOR"
      }
    ]
  },
  {
    "postal": "N8W2T3",
    "result": [
      {
        "electoralDistricts": [
          {
            "election": null,
            "id": 119,
            "name": "Windsor West"
          }
        ],
        "pollDivisionIds": [
          10142807
        ],
        "postalCode": "N8W2T3",
        "streetName": "WINDERMERE",
        "streetDirectionId": null,
        "streetTypeId": "RD",
        "placeName": "WINDSOR",
        "streetNameDisplayText": "WINDERMERE RD, WINDSOR"
      }
    ]
  },
  {
    "postal": "N8W1M4",
    "result": [
      {
        "electoralDistricts": [
          {
            "election": null,
            "id": 119,
            "name": "Windsor West"
          }
        ],
        "pollDivisionIds": [
          10142804
        ],
        "postalCode": "N8W1M4",
        "streetName": "LENS",
        "streetDirectionId": null,
        "streetTypeId": "AVE",
        "placeName": "WINDSOR",
        "streetNameDisplayText": "LENS AVE, WINDSOR"
      }
    ]
  },
  {
    "postal": "N8W0H1",
    "result": []
  },
  {
    "postal": "N8W9W3",
    "result": []
  },
  {
    "postal": "N8W6P1",
    "result": []
  },
  {
    "postal": "N8W7G2",
    "result": []
  },
  {
    "postal": "N8W4J9",
    "result": [
      {
        "electoralDistricts": [
          {
            "election": null,
            "id": 118,
            "name": "Windsor—Tecumseh"
          }
        ],
        "pollDivisionIds": [
          10142715
        ],
        "postalCode": "N8W4J9",
        "streetName": "LABADIE",
        "streetDirectionId": null,
        "streetTypeId": "RD",
        "placeName": "WINDSOR",
        "streetNameDisplayText": "LABADIE RD, WINDSOR"
      }
    ]
  },
  {
    "postal": "N8W9E4",
    "result": []
  },
  {
    "postal": "N8W8H0",
    "result": []
  },
  {
    "postal": "N8W4M7",
    "result": [
      {
        "electoralDistricts": [
          {
            "election": null,
            "id": 119,
            "name": "Windsor West"
          }
        ],
        "pollDivisionIds": [
          10142813
        ],
        "postalCode": "N8W4M7",
        "streetName": "GEORGE",
        "streetDirectionId": null,
        "streetTypeId": "AVE",
        "placeName": "WINDSOR",
        "streetNameDisplayText": "GEORGE AVE, WINDSOR"
      }
    ]
  },
  {
    "postal": "N8W2G9",
    "result": [
      {
        "electoralDistricts": [
          {
            "election": null,
            "id": 119,
            "name": "Windsor West"
          }
        ],
        "pollDivisionIds": [
          10142807
        ],
        "postalCode": "N8W2G9",
        "streetName": "FOREST",
        "streetDirectionId": null,
        "streetTypeId": "AVE",
        "placeName": "WINDSOR",
        "streetNameDisplayText": "FOREST AVE, WINDSOR"
      }
    ]
  },
  {
    "postal": "N8W8T2",
    "result": []
  },
  {
    "postal": "N8W7G7",
    "result": []
  },
  {
    "postal": "N8W4Z3",
    "result": [
      {
        "electoralDistricts": [
          {
            "election": null,
            "id": 119,
            "name": "Windsor West"
          }
        ],
        "pollDivisionIds": [
          10142808
        ],
        "postalCode": "N8W4Z3",
        "streetName": "GARVEY",
        "streetDirectionId": null,
        "streetTypeId": "CRES",
        "placeName": "WINDSOR",
        "streetNameDisplayText": "GARVEY CRES, WINDSOR"
      }
    ]
  },
  {
    "postal": "N8W5B3",
    "result": [
      {
        "electoralDistricts": [
          {
            "election": null,
            "id": 119,
            "name": "Windsor West"
          }
        ],
        "pollDivisionIds": [
          10142813
        ],
        "postalCode": "N8W5B3",
        "streetName": "RHODES",
        "streetDirectionId": null,
        "streetTypeId": "DR",
        "placeName": "WINDSOR",
        "streetNameDisplayText": "RHODES DR, WINDSOR"
      }
    ]
  },
  {
    "postal": "N8W1S7",
    "result": [
      {
        "electoralDistricts": [
          {
            "election": null,
            "id": 119,
            "name": "Windsor West"
          }
        ],
        "pollDivisionIds": [
          10142807
        ],
        "postalCode": "N8W1S7",
        "streetName": "YPRES",
        "streetDirectionId": null,
        "streetTypeId": "AVE",
        "placeName": "WINDSOR",
        "streetNameDisplayText": "YPRES AVE, WINDSOR"
      }
    ]
  },
  {
    "postal": "N8W2N7",
    "result": [
      {
        "electoralDistricts": [
          {
            "election": null,
            "id": 119,
            "name": "Windsor West"
          }
        ],
        "pollDivisionIds": [
          10142804
        ],
        "postalCode": "N8W2N7",
        "streetName": "GLADSTONE",
        "streetDirectionId": null,
        "streetTypeId": "AVE",
        "placeName": "WINDSOR",
        "streetNameDisplayText": "GLADSTONE AVE, WINDSOR"
      }
    ]
  },
  {
    "postal": "N8W0H8",
    "result": []
  },
  {
    "postal": "N8W7Z4",
    "result": []
  },
  {
    "postal": "N8W7B1",
    "result": []
  },
  {
    "postal": "N8W7P8",
    "result": []
  },
  {
    "postal": "N8W7N0",
    "result": []
  },
  {
    "postal": "N8W3Y5",
    "result": [
      {
        "electoralDistricts": [
          {
            "election": null,
            "id": 119,
            "name": "Windsor West"
          }
        ],
        "pollDivisionIds": [
          10142813
        ],
        "postalCode": "N8W3Y5",
        "streetName": "CADILLAC",
        "streetDirectionId": null,
        "streetTypeId": "ST",
        "placeName": "WINDSOR",
        "streetNameDisplayText": "CADILLAC ST, WINDSOR"
      }
    ]
  },
  {
    "postal": "N8W6K1",
    "result": []
  },
  {
    "postal": "N8W9X5",
    "result": []
  },
  {
    "postal": "N8W7S5",
    "result": []
  },
  {
    "postal": "N8W0A4",
    "result": []
  },
  {
    "postal": "N8W4T5",
    "result": [
      {
        "electoralDistricts": [
          {
            "election": null,
            "id": 119,
            "name": "Windsor West"
          }
        ],
        "pollDivisionIds": [
          10142813
        ],
        "postalCode": "N8W4T5",
        "streetName": "FRANCOIS",
        "streetDirectionId": null,
        "streetTypeId": "RD",
        "placeName": "WINDSOR",
        "streetNameDisplayText": "FRANCOIS RD, WINDSOR"
      }
    ]
  },
  {
    "postal": "N8W5K1",
    "result": [
      {
        "electoralDistricts": [
          {
            "election": null,
            "id": 119,
            "name": "Windsor West"
          }
        ],
        "pollDivisionIds": [
          10142808
        ],
        "postalCode": "N8W5K1",
        "streetName": "SLATER",
        "streetDirectionId": null,
        "streetTypeId": "ST",
        "placeName": "WINDSOR",
        "streetNameDisplayText": "SLATER ST, WINDSOR"
      }
    ]
  },
  {
    "postal": "N8W0Z9",
    "result": []
  },
  {
    "postal": "N8W7T2",
    "result": []
  },
  {
    "postal": "N8W1L5",
    "result": [
      {
        "electoralDistricts": [
          {
            "election": null,
            "id": 119,
            "name": "Windsor West"
          }
        ],
        "pollDivisionIds": [
          10142804
        ],
        "postalCode": "N8W1L5",
        "streetName": "LENS",
        "streetDirectionId": null,
        "streetTypeId": "AVE",
        "placeName": "WINDSOR",
        "streetNameDisplayText": "LENS AVE, WINDSOR"
      }
    ]
  },
  {
    "postal": "N8W3N5",
    "result": [
      {
        "electoralDistricts": [
          {
            "election": null,
            "id": 119,
            "name": "Windsor West"
          }
        ],
        "pollDivisionIds": [
          10142812
        ],
        "postalCode": "N8W3N5",
        "streetName": "TURNER",
        "streetDirectionId": null,
        "streetTypeId": "RD",
        "placeName": "WINDSOR",
        "streetNameDisplayText": "TURNER RD, WINDSOR"
      }
    ]
  },
  {
    "postal": "N8W6H4",
    "result": []
  },
  {
    "postal": "N8W5A5",
    "result": [
      {
        "electoralDistricts": [
          {
            "election": null,
            "id": 119,
            "name": "Windsor West"
          }
        ],
        "pollDivisionIds": [
          10142813
        ],
        "postalCode": "N8W5A5",
        "streetName": "DEZIEL",
        "streetDirectionId": null,
        "streetTypeId": "DR",
        "placeName": "WINDSOR",
        "streetNameDisplayText": "DEZIEL DR, WINDSOR"
      }
    ]
  },
  {
    "postal": "N8W3R9",
    "result": [
      {
        "electoralDistricts": [
          {
            "election": null,
            "id": 119,
            "name": "Windsor West"
          }
        ],
        "pollDivisionIds": [
          10142812
        ],
        "postalCode": "N8W3R9",
        "streetName": "WALKER",
        "streetDirectionId": null,
        "streetTypeId": "RD",
        "placeName": "WINDSOR",
        "streetNameDisplayText": "WALKER RD, WINDSOR"
      }
    ]
  },
  {
    "postal": "N8W7L8",
    "result": []
  },
  {
    "postal": "N8W6T6",
    "result": []
  },
  {
    "postal": "N8W7Y7",
    "result": []
  },
  {
    "postal": "N8W3M8",
    "result": [
      {
        "electoralDistricts": [
          {
            "election": null,
            "id": 119,
            "name": "Windsor West"
          }
        ],
        "pollDivisionIds": [
          10142812
        ],
        "postalCode": "N8W3M8",
        "streetName": "TURNER",
        "streetDirectionId": null,
        "streetTypeId": "RD",
        "placeName": "WINDSOR",
        "streetNameDisplayText": "TURNER RD, WINDSOR"
      }
    ]
  },
  {
    "postal": "N8W2E0",
    "result": []
  },
  {
    "postal": "N8W4B5",
    "result": [
      {
        "electoralDistricts": [
          {
            "election": null,
            "id": 119,
            "name": "Windsor West"
          }
        ],
        "pollDivisionIds": [
          10142813
        ],
        "postalCode": "N8W4B5",
        "streetName": "CHANDLER",
        "streetDirectionId": null,
        "streetTypeId": "RD",
        "placeName": "WINDSOR",
        "streetNameDisplayText": "CHANDLER RD, WINDSOR"
      }
    ]
  },
  {
    "postal": "N8W1J3",
    "result": [
      {
        "electoralDistricts": [
          {
            "election": null,
            "id": 118,
            "name": "Windsor—Tecumseh"
          }
        ],
        "pollDivisionIds": [
          10142715
        ],
        "postalCode": "N8W1J3",
        "streetName": "TECUMSEH",
        "streetDirectionId": "E",
        "streetTypeId": "RD",
        "placeName": "WINDSOR",
        "streetNameDisplayText": "TECUMSEH RD E, WINDSOR"
      }
    ]
  },
  {
    "postal": "N8W5S6",
    "result": [
      {
        "electoralDistricts": [
          {
            "election": null,
            "id": 119,
            "name": "Windsor West"
          }
        ],
        "pollDivisionIds": [
          10142814
        ],
        "postalCode": "N8W5S6",
        "streetName": "WALKER",
        "streetDirectionId": null,
        "streetTypeId": "RD",
        "placeName": "WINDSOR",
        "streetNameDisplayText": "WALKER RD, WINDSOR"
      }
    ]
  },
  {
    "postal": "N8W8P7",
    "result": []
  },
  {
    "postal": "N8W7S7",
    "result": []
  },
  {
    "postal": "N8W4C2",
    "result": [
      {
        "electoralDistricts": [
          {
            "election": null,
            "id": 119,
            "name": "Windsor West"
          }
        ],
        "pollDivisionIds": [
          10142813
        ],
        "postalCode": "N8W4C2",
        "streetName": "MEIGHEN",
        "streetDirectionId": null,
        "streetTypeId": "RD",
        "placeName": "WINDSOR",
        "streetNameDisplayText": "MEIGHEN RD, WINDSOR"
      }
    ]
  },
  {
    "postal": "N8W5Y0",
    "result": []
  },
  {
    "postal": "N8W2V7",
    "result": [
      {
        "electoralDistricts": [
          {
            "election": null,
            "id": 119,
            "name": "Windsor West"
          }
        ],
        "pollDivisionIds": [
          10142807
        ],
        "postalCode": "N8W2V7",
        "streetName": "CHILVER",
        "streetDirectionId": null,
        "streetTypeId": "RD",
        "placeName": "WINDSOR",
        "streetNameDisplayText": "CHILVER RD, WINDSOR"
      }
    ]
  },
  {
    "postal": "N8W8P5",
    "result": []
  },
  {
    "postal": "N8W5P5",
    "result": [
      {
        "electoralDistricts": [
          {
            "election": null,
            "id": 119,
            "name": "Windsor West"
          }
        ],
        "pollDivisionIds": [
          10142809
        ],
        "postalCode": "N8W5P5",
        "streetName": "GISELLE",
        "streetDirectionId": null,
        "streetTypeId": "CRES",
        "placeName": "WINDSOR",
        "streetNameDisplayText": "GISELLE CRES, WINDSOR"
      }
    ]
  },
  {
    "postal": "N8W5Z0",
    "result": []
  },
  {
    "postal": "N8W9B0",
    "result": []
  },
  {
    "postal": "N8W1L0",
    "result": []
  },
  {
    "postal": "N8W0B5",
    "result": []
  },
  {
    "postal": "N8W3L2",
    "result": [
      {
        "electoralDistricts": [
          {
            "election": null,
            "id": 119,
            "name": "Windsor West"
          }
        ],
        "pollDivisionIds": [
          10142807
        ],
        "postalCode": "N8W3L2",
        "streetName": "TURNER",
        "streetDirectionId": null,
        "streetTypeId": "RD",
        "placeName": "WINDSOR",
        "streetNameDisplayText": "TURNER RD, WINDSOR"
      }
    ]
  },
  {
    "postal": "N8W3B7",
    "result": [
      {
        "electoralDistricts": [
          {
            "election": null,
            "id": 119,
            "name": "Windsor West"
          }
        ],
        "pollDivisionIds": [
          10142812
        ],
        "postalCode": "N8W3B7",
        "streetName": "BLISS",
        "streetDirectionId": null,
        "streetTypeId": "RD",
        "placeName": "WINDSOR",
        "streetNameDisplayText": "BLISS RD, WINDSOR"
      }
    ]
  },
  {
    "postal": "N8W8L1",
    "result": []
  },
  {
    "postal": "N8W5M4",
    "result": []
  },
  {
    "postal": "N8W4G9",
    "result": [
      {
        "electoralDistricts": [
          {
            "election": null,
            "id": 118,
            "name": "Windsor—Tecumseh"
          }
        ],
        "pollDivisionIds": [
          10142715
        ],
        "postalCode": "N8W4G9",
        "streetName": "LARKIN",
        "streetDirectionId": null,
        "streetTypeId": "RD",
        "placeName": "WINDSOR",
        "streetNameDisplayText": "LARKIN RD, WINDSOR"
      }
    ]
  },
  {
    "postal": "N8W0P0",
    "result": []
  },
  {
    "postal": "N8W8G2",
    "result": []
  },
  {
    "postal": "N8W1V9",
    "result": [
      {
        "electoralDistricts": [
          {
            "election": null,
            "id": 119,
            "name": "Windsor West"
          }
        ],
        "pollDivisionIds": [
          10142807
        ],
        "postalCode": "N8W1V9",
        "streetName": "MEMORIAL",
        "streetDirectionId": null,
        "streetTypeId": "DR",
        "placeName": "WINDSOR",
        "streetNameDisplayText": "MEMORIAL DR, WINDSOR"
      }
    ]
  },
  {
    "postal": "N8W8N8",
    "result": []
  },
  {
    "postal": "N8W6S8",
    "result": []
  },
  {
    "postal": "N8W8H2",
    "result": []
  },
  {
    "postal": "N8W5R8",
    "result": [
      {
        "electoralDistricts": [
          {
            "election": null,
            "id": 119,
            "name": "Windsor West"
          }
        ],
        "pollDivisionIds": [
          10142813
        ],
        "postalCode": "N8W5R8",
        "streetName": "RHODES",
        "streetDirectionId": null,
        "streetTypeId": "DR",
        "placeName": "WINDSOR",
        "streetNameDisplayText": "RHODES DR, WINDSOR"
      }
    ]
  },
  {
    "postal": "N8W5L4",
    "result": []
  },
  {
    "postal": "N8W9E1",
    "result": []
  },
  {
    "postal": "N8W1C4",
    "result": [
      {
        "electoralDistricts": [
          {
            "election": null,
            "id": 118,
            "name": "Windsor—Tecumseh"
          }
        ],
        "pollDivisionIds": [
          10142715
        ],
        "postalCode": "N8W1C4",
        "streetName": "TECUMSEH",
        "streetDirectionId": "E",
        "streetTypeId": "RD",
        "placeName": "WINDSOR",
        "streetNameDisplayText": "TECUMSEH RD E, WINDSOR"
      }
    ]
  },
  {
    "postal": "N8W8W5",
    "result": []
  },
  {
    "postal": "N8W1Y4",
    "result": [
      {
        "electoralDistricts": [
          {
            "election": null,
            "id": 119,
            "name": "Windsor West"
          }
        ],
        "pollDivisionIds": [
          10142809
        ],
        "postalCode": "N8W1Y4",
        "streetName": "EC ROW",
        "streetDirectionId": "E",
        "streetTypeId": "AVE",
        "placeName": "WINDSOR",
        "streetNameDisplayText": "EC ROW AVE E, WINDSOR"
      }
    ]
  },
  {
    "postal": "N8W1C0",
    "result": []
  },
  {
    "postal": "N8W2J2",
    "result": [
      {
        "electoralDistricts": [
          {
            "election": null,
            "id": 119,
            "name": "Windsor West"
          }
        ],
        "pollDivisionIds": [
          10142809
        ],
        "postalCode": "N8W2J2",
        "streetName": "WOODLAWN",
        "streetDirectionId": null,
        "streetTypeId": "AVE",
        "placeName": "WINDSOR",
        "streetNameDisplayText": "WOODLAWN AVE, WINDSOR"
      }
    ]
  },
  {
    "postal": "N8W2J0",
    "result": []
  },
  {
    "postal": "N8W7A3",
    "result": []
  },
  {
    "postal": "N8W8M1",
    "result": []
  },
  {
    "postal": "N8W7T9",
    "result": []
  },
  {
    "postal": "N8W6C0",
    "result": []
  },
  {
    "postal": "N8W7X1",
    "result": []
  },
  {
    "postal": "N8W0G1",
    "result": []
  },
  {
    "postal": "N8W4X2",
    "result": [
      {
        "electoralDistricts": [
          {
            "election": null,
            "id": 119,
            "name": "Windsor West"
          }
        ],
        "pollDivisionIds": [
          10142808
        ],
        "postalCode": "N8W4X2",
        "streetName": "BRAMLEY",
        "streetDirectionId": null,
        "streetTypeId": "CRES",
        "placeName": "WINDSOR",
        "streetNameDisplayText": "BRAMLEY CRES, WINDSOR"
      }
    ]
  },
  {
    "postal": "N8W0N6",
    "result": []
  },
  {
    "postal": "N8W8E3",
    "result": []
  },
  {
    "postal": "N8W5S8",
    "result": [
      {
        "electoralDistricts": [
          {
            "election": null,
            "id": 119,
            "name": "Windsor West"
          }
        ],
        "pollDivisionIds": [
          10142813
        ],
        "postalCode": "N8W5S8",
        "streetName": "ALLYSON",
        "streetDirectionId": null,
        "streetTypeId": "AVE",
        "placeName": "WINDSOR",
        "streetNameDisplayText": "ALLYSON AVE, WINDSOR"
      }
    ]
  },
  {
    "postal": "N8W0R0",
    "result": []
  },
  {
    "postal": "N8W6J6",
    "result": []
  },
  {
    "postal": "N8W4B4",
    "result": [
      {
        "electoralDistricts": [
          {
            "election": null,
            "id": 119,
            "name": "Windsor West"
          }
        ],
        "pollDivisionIds": [
          10142813
        ],
        "postalCode": "N8W4B4",
        "streetName": "CHANDLER",
        "streetDirectionId": null,
        "streetTypeId": "RD",
        "placeName": "WINDSOR",
        "streetNameDisplayText": "CHANDLER RD, WINDSOR"
      }
    ]
  },
  {
    "postal": "N8W7E3",
    "result": []
  },
  {
    "postal": "N8W3N6",
    "result": []
  },
  {
    "postal": "N8W3X6",
    "result": []
  },
  {
    "postal": "N8W8L0",
    "result": []
  },
  {
    "postal": "N8W8N1",
    "result": []
  },
  {
    "postal": "N8W4J0",
    "result": []
  },
  {
    "postal": "N8W0X7",
    "result": []
  },
  {
    "postal": "N8W6S4",
    "result": []
  },
  {
    "postal": "N8W0Z0",
    "result": []
  },
  {
    "postal": "N8W9X8",
    "result": []
  },
  {
    "postal": "N8W3H3",
    "result": [
      {
        "electoralDistricts": [
          {
            "election": null,
            "id": 119,
            "name": "Windsor West"
          }
        ],
        "pollDivisionIds": [
          10142812
        ],
        "postalCode": "N8W3H3",
        "streetName": "BYNG",
        "streetDirectionId": null,
        "streetTypeId": "RD",
        "placeName": "WINDSOR",
        "streetNameDisplayText": "BYNG RD, WINDSOR"
      }
    ]
  },
  {
    "postal": "N8W7S2",
    "result": []
  },
  {
    "postal": "N8W3T3",
    "result": [
      {
        "electoralDistricts": [
          {
            "election": null,
            "id": 119,
            "name": "Windsor West"
          }
        ],
        "pollDivisionIds": [
          10142812
        ],
        "postalCode": "N8W3T3",
        "streetName": "WALKER",
        "streetDirectionId": null,
        "streetTypeId": "RD",
        "placeName": "WINDSOR",
        "streetNameDisplayText": "WALKER RD, WINDSOR"
      }
    ]
  },
  {
    "postal": "N8W9P3",
    "result": []
  },
  {
    "postal": "N8W4H8",
    "result": [
      {
        "electoralDistricts": [
          {
            "election": null,
            "id": 118,
            "name": "Windsor—Tecumseh"
          }
        ],
        "pollDivisionIds": [
          10142715
        ],
        "postalCode": "N8W4H8",
        "streetName": "CENTRAL",
        "streetDirectionId": null,
        "streetTypeId": "AVE",
        "placeName": "WINDSOR",
        "streetNameDisplayText": "CENTRAL AVE, WINDSOR"
      }
    ]
  },
  {
    "postal": "N8W6R1",
    "result": []
  },
  {
    "postal": "N8W1S0",
    "result": []
  },
  {
    "postal": "N8W3W8",
    "result": [
      {
        "electoralDistricts": [
          {
            "election": null,
            "id": 118,
            "name": "Windsor—Tecumseh"
          }
        ],
        "pollDivisionIds": [
          10142715
        ],
        "postalCode": "N8W3W8",
        "streetName": "ST LUKE",
        "streetDirectionId": null,
        "streetTypeId": "RD",
        "placeName": "WINDSOR",
        "streetNameDisplayText": "ST LUKE RD, WINDSOR"
      }
    ]
  },
  {
    "postal": "N8W4S3",
    "result": [
      {
        "electoralDistricts": [
          {
            "election": null,
            "id": 119,
            "name": "Windsor West"
          }
        ],
        "pollDivisionIds": [
          10142813
        ],
        "postalCode": "N8W4S3",
        "streetName": "BERNARD",
        "streetDirectionId": null,
        "streetTypeId": "RD",
        "placeName": "WINDSOR",
        "streetNameDisplayText": "BERNARD RD, WINDSOR"
      }
    ]
  },
  {
    "postal": "N8W1B6",
    "result": [
      {
        "electoralDistricts": [
          {
            "election": null,
            "id": 118,
            "name": "Windsor—Tecumseh"
          }
        ],
        "pollDivisionIds": [
          10142715
        ],
        "postalCode": "N8W1B6",
        "streetName": "TECUMSEH",
        "streetDirectionId": "E",
        "streetTypeId": "RD",
        "placeName": "WINDSOR",
        "streetNameDisplayText": "TECUMSEH RD E, WINDSOR"
      }
    ]
  },
  {
    "postal": "N8W8R3",
    "result": []
  },
  {
    "postal": "N8W4V9",
    "result": [
      {
        "electoralDistricts": [
          {
            "election": null,
            "id": 119,
            "name": "Windsor West"
          }
        ],
        "pollDivisionIds": [
          10142813
        ],
        "postalCode": "N8W4V9",
        "streetName": "ARTHUR",
        "streetDirectionId": null,
        "streetTypeId": "RD",
        "placeName": "WINDSOR",
        "streetNameDisplayText": "ARTHUR RD, WINDSOR"
      }
    ]
  },
  {
    "postal": "N8W9W4",
    "result": []
  },
  {
    "postal": "N8W3T4",
    "result": [
      {
        "electoralDistricts": [
          {
            "election": null,
            "id": 119,
            "name": "Windsor West"
          }
        ],
        "pollDivisionIds": [
          10142812
        ],
        "postalCode": "N8W3T4",
        "streetName": "WALKER",
        "streetDirectionId": null,
        "streetTypeId": "RD",
        "placeName": "WINDSOR",
        "streetNameDisplayText": "WALKER RD, WINDSOR"
      }
    ]
  },
  {
    "postal": "N8W5C7",
    "result": [
      {
        "electoralDistricts": [
          {
            "election": null,
            "id": 119,
            "name": "Windsor West"
          }
        ],
        "pollDivisionIds": [
          10142809
        ],
        "postalCode": "N8W5C7",
        "streetName": "AZALIA",
        "streetDirectionId": null,
        "streetTypeId": "CRES",
        "placeName": "WINDSOR",
        "streetNameDisplayText": "AZALIA CRES, WINDSOR"
      }
    ]
  },
  {
    "postal": "N8W3Y1",
    "result": [
      {
        "electoralDistricts": [
          {
            "election": null,
            "id": 119,
            "name": "Windsor West"
          }
        ],
        "pollDivisionIds": [
          10142813
        ],
        "postalCode": "N8W3Y1",
        "streetName": "CADILLAC",
        "streetDirectionId": null,
        "streetTypeId": "ST",
        "placeName": "WINDSOR",
        "streetNameDisplayText": "CADILLAC ST, WINDSOR"
      }
    ]
  },
  {
    "postal": "N8W5V0",
    "result": []
  },
  {
    "postal": "N8W8G8",
    "result": []
  },
  {
    "postal": "N8W8B1",
    "result": []
  },
  {
    "postal": "N8W4P5",
    "result": [
      {
        "electoralDistricts": [
          {
            "election": null,
            "id": 118,
            "name": "Windsor—Tecumseh"
          }
        ],
        "pollDivisionIds": [
          10142715,
          10142717
        ],
        "postalCode": "N8W4P5",
        "streetName": "ROSSINI",
        "streetDirectionId": null,
        "streetTypeId": "BLVD",
        "placeName": "WINDSOR",
        "streetNameDisplayText": "ROSSINI BLVD, WINDSOR"
      }
    ]
  },
  {
    "postal": "N8W7B2",
    "result": []
  },
  {
    "postal": "N8W0R2",
    "result": []
  },
  {
    "postal": "N8W4M4",
    "result": [
      {
        "electoralDistricts": [
          {
            "election": null,
            "id": 119,
            "name": "Windsor West"
          },
          {
            "election": null,
            "id": 118,
            "name": "Windsor—Tecumseh"
          }
        ],
        "pollDivisionIds": [
          10142813,
          10142713
        ],
        "postalCode": "N8W4M4",
        "streetName": "GEORGE",
        "streetDirectionId": null,
        "streetTypeId": "AVE",
        "placeName": "WINDSOR",
        "streetNameDisplayText": "GEORGE AVE, WINDSOR"
      }
    ]
  },
  {
    "postal": "N8W7M4",
    "result": []
  },
  {
    "postal": "N8W9S7",
    "result": []
  },
  {
    "postal": "N8W5Z7",
    "result": []
  },
  {
    "postal": "N8W7J7",
    "result": []
  },
  {
    "postal": "N8W8R8",
    "result": []
  },
  {
    "postal": "N8W9X1",
    "result": []
  },
  {
    "postal": "N8W5M9",
    "result": [
      {
        "electoralDistricts": [
          {
            "election": null,
            "id": 119,
            "name": "Windsor West"
          }
        ],
        "pollDivisionIds": [
          10142813
        ],
        "postalCode": "N8W5M9",
        "streetName": "CAPPELLETTO",
        "streetDirectionId": null,
        "streetTypeId": "RD",
        "placeName": "WINDSOR",
        "streetNameDisplayText": "CAPPELLETTO RD, WINDSOR"
      }
    ]
  },
  {
    "postal": "N8W9B4",
    "result": []
  },
  {
    "postal": "N8W0L9",
    "result": []
  },
  {
    "postal": "N8W9G4",
    "result": []
  },
  {
    "postal": "N8W1J4",
    "result": [
      {
        "electoralDistricts": [
          {
            "election": null,
            "id": 119,
            "name": "Windsor West"
          }
        ],
        "pollDivisionIds": [
          10142813
        ],
        "postalCode": "N8W1J4",
        "streetName": "TECUMSEH",
        "streetDirectionId": "E",
        "streetTypeId": "RD",
        "placeName": "WINDSOR",
        "streetNameDisplayText": "TECUMSEH RD E, WINDSOR"
      }
    ]
  },
  {
    "postal": "N8W0W6",
    "result": []
  }
]
