[
  {
    "postal": "M1E9J6",
    "result": []
  },
  {
    "postal": "M1E9Z5",
    "result": []
  },
  {
    "postal": "M1E7H8",
    "result": []
  },
  {
    "postal": "M1E0P6",
    "result": []
  },
  {
    "postal": "M1E0S7",
    "result": []
  },
  {
    "postal": "M1E8B9",
    "result": []
  },
  {
    "postal": "M1E2A6",
    "result": [
      {
        "electoralDistricts": [
          {
            "election": null,
            "id": 95,
            "name": "Scarborough—Guildwood"
          }
        ],
        "pollDivisionIds": [
          10141670
        ],
        "postalCode": "M1E2A6",
        "streetName": "TIVOLI",
        "streetDirectionId": null,
        "streetTypeId": "CRT",
        "placeName": "SCARBOROUGH",
        "streetNameDisplayText": "TIVOLI CRT, SCARBOROUGH"
      }
    ]
  },
  {
    "postal": "M1E7V2",
    "result": []
  },
  {
    "postal": "M1E9P4",
    "result": []
  },
  {
    "postal": "M1E6G0",
    "result": []
  },
  {
    "postal": "M1E2K0",
    "result": []
  },
  {
    "postal": "M1E7N6",
    "result": []
  },
  {
    "postal": "M1E5R3",
    "result": []
  },
  {
    "postal": "M1E7K0",
    "result": []
  },
  {
    "postal": "M1E3R2",
    "result": [
      {
        "electoralDistricts": [
          {
            "election": null,
            "id": 97,
            "name": "Scarborough—Rouge Park"
          }
        ],
        "pollDivisionIds": [
          10141748
        ],
        "postalCode": "M1E3R2",
        "streetName": "SHOREVIEW",
        "streetDirectionId": null,
        "streetTypeId": "DR",
        "placeName": "SCARBOROUGH",
        "streetNameDisplayText": "SHOREVIEW DR, SCARBOROUGH"
      }
    ]
  },
  {
    "postal": "M1E0J1",
    "result": []
  },
  {
    "postal": "M1E0B0",
    "result": []
  },
  {
    "postal": "M1E5Z2",
    "result": []
  },
  {
    "postal": "M1E7P3",
    "result": []
  },
  {
    "postal": "M1E2K3",
    "result": [
      {
        "electoralDistricts": [
          {
            "election": null,
            "id": 97,
            "name": "Scarborough—Rouge Park"
          }
        ],
        "pollDivisionIds": [
          10141748
        ],
        "postalCode": "M1E2K3",
        "streetName": "CORONATION",
        "streetDirectionId": null,
        "streetTypeId": "DR",
        "placeName": "SCARBOROUGH",
        "streetNameDisplayText": "CORONATION DR, SCARBOROUGH"
      }
    ]
  },
  {
    "postal": "M1E7Y6",
    "result": []
  },
  {
    "postal": "M1E1L9",
    "result": [
      {
        "electoralDistricts": [
          {
            "election": null,
            "id": 95,
            "name": "Scarborough—Guildwood"
          }
        ],
        "pollDivisionIds": [
          10141680
        ],
        "postalCode": "M1E1L9",
        "streetName": "LIVINGSTON",
        "streetDirectionId": null,
        "streetTypeId": "RD",
        "placeName": "SCARBOROUGH",
        "streetNameDisplayText": "LIVINGSTON RD, SCARBOROUGH"
      }
    ]
  },
  {
    "postal": "M1E8T0",
    "result": []
  },
  {
    "postal": "M1E3K8",
    "result": [
      {
        "electoralDistricts": [
          {
            "election": null,
            "id": 97,
            "name": "Scarborough—Rouge Park"
          }
        ],
        "pollDivisionIds": [
          10141749
        ],
        "postalCode": "M1E3K8",
        "streetName": "WILDLARK",
        "streetDirectionId": null,
        "streetTypeId": "DR",
        "placeName": "SCARBOROUGH",
        "streetNameDisplayText": "WILDLARK DR, SCARBOROUGH"
      }
    ]
  },
  {
    "postal": "M1E5W9",
    "result": []
  },
  {
    "postal": "M1E6T9",
    "result": []
  },
  {
    "postal": "M1E4H1",
    "result": [
      {
        "electoralDistricts": [
          {
            "election": null,
            "id": 95,
            "name": "Scarborough—Guildwood"
          }
        ],
        "pollDivisionIds": [
          10141642
        ],
        "postalCode": "M1E4H1",
        "streetName": "OAKMEADOW",
        "streetDirectionId": null,
        "streetTypeId": "BLVD",
        "placeName": "SCARBOROUGH",
        "streetNameDisplayText": "OAKMEADOW BLVD, SCARBOROUGH"
      }
    ]
  },
  {
    "postal": "M1E7A2",
    "result": []
  },
  {
    "postal": "M1E5G0",
    "result": []
  },
  {
    "postal": "M1E8V5",
    "result": []
  },
  {
    "postal": "M1E2Y8",
    "result": [
      {
        "electoralDistricts": [
          {
            "election": null,
            "id": 95,
            "name": "Scarborough—Guildwood"
          }
        ],
        "pollDivisionIds": [
          10141671
        ],
        "postalCode": "M1E2Y8",
        "streetName": "BETTY FRANK",
        "streetDirectionId": null,
        "streetTypeId": "GATE",
        "placeName": "SCARBOROUGH",
        "streetNameDisplayText": "BETTY FRANK GATE, SCARBOROUGH"
      }
    ]
  },
  {
    "postal": "M1E2B6",
    "result": [
      {
        "electoralDistricts": [
          {
            "election": null,
            "id": 97,
            "name": "Scarborough—Rouge Park"
          }
        ],
        "pollDivisionIds": [
          10141748
        ],
        "postalCode": "M1E2B6",
        "streetName": "MOSS",
        "streetDirectionId": null,
        "streetTypeId": "ST",
        "placeName": "SCARBOROUGH",
        "streetNameDisplayText": "MOSS ST, SCARBOROUGH"
      }
    ]
  },
  {
    "postal": "M1E4W8",
    "result": [
      {
        "electoralDistricts": [
          {
            "election": null,
            "id": 97,
            "name": "Scarborough—Rouge Park"
          }
        ],
        "pollDivisionIds": [
          10141748
        ],
        "postalCode": "M1E4W8",
        "streetName": "DEANSCROFT",
        "streetDirectionId": null,
        "streetTypeId": "SQ",
        "placeName": "SCARBOROUGH",
        "streetNameDisplayText": "DEANSCROFT SQ, SCARBOROUGH"
      }
    ]
  },
  {
    "postal": "M1E8H7",
    "result": []
  },
  {
    "postal": "M1E5P1",
    "result": []
  },
  {
    "postal": "M1E2B8",
    "result": [
      {
        "electoralDistricts": [
          {
            "election": null,
            "id": 95,
            "name": "Scarborough—Guildwood"
          }
        ],
        "pollDivisionIds": [
          10141669
        ],
        "postalCode": "M1E2B8",
        "streetName": "GLORY",
        "streetDirectionId": null,
        "streetTypeId": "CRES",
        "placeName": "SCARBOROUGH",
        "streetNameDisplayText": "GLORY CRES, SCARBOROUGH"
      }
    ]
  },
  {
    "postal": "M1E0P2",
    "result": []
  },
  {
    "postal": "M1E9M1",
    "result": []
  },
  {
    "postal": "M1E3G0",
    "result": []
  },
  {
    "postal": "M1E9Z2",
    "result": []
  },
  {
    "postal": "M1E2A0",
    "result": []
  },
  {
    "postal": "M1E6Y0",
    "result": []
  },
  {
    "postal": "M1E2Z8",
    "result": [
      {
        "electoralDistricts": [
          {
            "election": null,
            "id": 95,
            "name": "Scarborough—Guildwood"
          }
        ],
        "pollDivisionIds": [
          10141659
        ],
        "postalCode": "M1E2Z8",
        "streetName": "RODDA",
        "streetDirectionId": null,
        "streetTypeId": "BLVD",
        "placeName": "SCARBOROUGH",
        "streetNameDisplayText": "RODDA BLVD, SCARBOROUGH"
      }
    ]
  },
  {
    "postal": "M1E7Y3",
    "result": []
  },
  {
    "postal": "M1E6Z5",
    "result": []
  },
  {
    "postal": "M1E6E0",
    "result": []
  },
  {
    "postal": "M1E9B7",
    "result": []
  },
  {
    "postal": "M1E9S5",
    "result": []
  },
  {
    "postal": "M1E3X3",
    "result": [
      {
        "electoralDistricts": [
          {
            "election": null,
            "id": 97,
            "name": "Scarborough—Rouge Park"
          }
        ],
        "pollDivisionIds": [
          10141749
        ],
        "postalCode": "M1E3X3",
        "streetName": "MORNING DEW",
        "streetDirectionId": null,
        "streetTypeId": "RD",
        "placeName": "SCARBOROUGH",
        "streetNameDisplayText": "MORNING DEW RD, SCARBOROUGH"
      }
    ]
  },
  {
    "postal": "M1E7R5",
    "result": []
  },
  {
    "postal": "M1E2X3",
    "result": [
      {
        "electoralDistricts": [
          {
            "election": null,
            "id": 95,
            "name": "Scarborough—Guildwood"
          }
        ],
        "pollDivisionIds": [
          10141670
        ],
        "postalCode": "M1E2X3",
        "streetName": "HAVENWAY",
        "streetDirectionId": null,
        "streetTypeId": "GATE",
        "placeName": "SCARBOROUGH",
        "streetNameDisplayText": "HAVENWAY GATE, SCARBOROUGH"
      }
    ]
  },
  {
    "postal": "M1E8Z9",
    "result": []
  },
  {
    "postal": "M1E0N4",
    "result": []
  },
  {
    "postal": "M1E1K1",
    "result": [
      {
        "electoralDistricts": [
          {
            "election": null,
            "id": 95,
            "name": "Scarborough—Guildwood"
          }
        ],
        "pollDivisionIds": [
          10141680
        ],
        "postalCode": "M1E1K1",
        "streetName": "ROWATSON",
        "streetDirectionId": null,
        "streetTypeId": "RD",
        "placeName": "SCARBOROUGH",
        "streetNameDisplayText": "ROWATSON RD, SCARBOROUGH"
      }
    ]
  },
  {
    "postal": "M1E1S3",
    "result": [
      {
        "electoralDistricts": [
          {
            "election": null,
            "id": 95,
            "name": "Scarborough—Guildwood"
          }
        ],
        "pollDivisionIds": [
          10141670
        ],
        "postalCode": "M1E1S3",
        "streetName": "DEARHAM",
        "streetDirectionId": null,
        "streetTypeId": "WOOD",
        "placeName": "SCARBOROUGH",
        "streetNameDisplayText": "DEARHAM WOOD, SCARBOROUGH"
      }
    ]
  },
  {
    "postal": "M1E6M4",
    "result": []
  },
  {
    "postal": "M1E9A9",
    "result": []
  },
  {
    "postal": "M1E9Z9",
    "result": []
  },
  {
    "postal": "M1E6T4",
    "result": []
  },
  {
    "postal": "M1E0B2",
    "result": [
      {
        "electoralDistricts": [
          {
            "election": null,
            "id": 95,
            "name": "Scarborough—Guildwood"
          }
        ],
        "pollDivisionIds": [
          10141660
        ],
        "postalCode": "M1E0B2",
        "streetName": "CAMPS",
        "streetDirectionId": null,
        "streetTypeId": "LANE",
        "placeName": "SCARBOROUGH",
        "streetNameDisplayText": "CAMPS LANE, SCARBOROUGH"
      }
    ]
  },
  {
    "postal": "M1E2L9",
    "result": [
      {
        "electoralDistricts": [
          {
            "election": null,
            "id": 95,
            "name": "Scarborough—Guildwood"
          }
        ],
        "pollDivisionIds": [
          10141659
        ],
        "postalCode": "M1E2L9",
        "streetName": "WARNSWORTH",
        "streetDirectionId": null,
        "streetTypeId": "ST",
        "placeName": "SCARBOROUGH",
        "streetNameDisplayText": "WARNSWORTH ST, SCARBOROUGH"
      }
    ]
  },
  {
    "postal": "M1E8K9",
    "result": []
  },
  {
    "postal": "M1E2H9",
    "result": [
      {
        "electoralDistricts": [
          {
            "election": null,
            "id": 95,
            "name": "Scarborough—Guildwood"
          }
        ],
        "pollDivisionIds": [
          10141671
        ],
        "postalCode": "M1E2H9",
        "streetName": "CORONATION",
        "streetDirectionId": null,
        "streetTypeId": "DR",
        "placeName": "SCARBOROUGH",
        "streetNameDisplayText": "CORONATION DR, SCARBOROUGH"
      }
    ]
  },
  {
    "postal": "M1E3Z6",
    "result": [
      {
        "electoralDistricts": [
          {
            "election": null,
            "id": 97,
            "name": "Scarborough—Rouge Park"
          }
        ],
        "pollDivisionIds": [
          10141749
        ],
        "postalCode": "M1E3Z6",
        "streetName": "BEECHGROVE",
        "streetDirectionId": null,
        "streetTypeId": "DR",
        "placeName": "SCARBOROUGH",
        "streetNameDisplayText": "BEECHGROVE DR, SCARBOROUGH"
      }
    ]
  },
  {
    "postal": "M1E3B0",
    "result": []
  },
  {
    "postal": "M1E2H8",
    "result": [
      {
        "electoralDistricts": [
          {
            "election": null,
            "id": 95,
            "name": "Scarborough—Guildwood"
          }
        ],
        "pollDivisionIds": [
          10141671
        ],
        "postalCode": "M1E2H8",
        "streetName": "CORONATION",
        "streetDirectionId": null,
        "streetTypeId": "DR",
        "placeName": "SCARBOROUGH",
        "streetNameDisplayText": "CORONATION DR, SCARBOROUGH"
      }
    ]
  },
  {
    "postal": "M1E3X2",
    "result": [
      {
        "electoralDistricts": [
          {
            "election": null,
            "id": 97,
            "name": "Scarborough—Rouge Park"
          }
        ],
        "pollDivisionIds": [
          10141749
        ],
        "postalCode": "M1E3X2",
        "streetName": "MORNING DEW",
        "streetDirectionId": null,
        "streetTypeId": "RD",
        "placeName": "SCARBOROUGH",
        "streetNameDisplayText": "MORNING DEW RD, SCARBOROUGH"
      }
    ]
  },
  {
    "postal": "M1E2E9",
    "result": [
      {
        "electoralDistricts": [
          {
            "election": null,
            "id": 95,
            "name": "Scarborough—Guildwood"
          }
        ],
        "pollDivisionIds": [
          10141670
        ],
        "postalCode": "M1E2E9",
        "streetName": "GARDENTREE",
        "streetDirectionId": null,
        "streetTypeId": "ST",
        "placeName": "SCARBOROUGH",
        "streetNameDisplayText": "GARDENTREE ST, SCARBOROUGH"
      }
    ]
  },
  {
    "postal": "M1E9P6",
    "result": []
  },
  {
    "postal": "M1E9E2",
    "result": []
  },
  {
    "postal": "M1E9H2",
    "result": []
  },
  {
    "postal": "M1E1S8",
    "result": [
      {
        "electoralDistricts": [
          {
            "election": null,
            "id": 95,
            "name": "Scarborough—Guildwood"
          }
        ],
        "pollDivisionIds": [
          10141670
        ],
        "postalCode": "M1E1S8",
        "streetName": "CUMBER",
        "streetDirectionId": null,
        "streetTypeId": "AVE",
        "placeName": "SCARBOROUGH",
        "streetNameDisplayText": "CUMBER AVE, SCARBOROUGH"
      }
    ]
  },
  {
    "postal": "M1E3M6",
    "result": [
      {
        "electoralDistricts": [
          {
            "election": null,
            "id": 97,
            "name": "Scarborough—Rouge Park"
          }
        ],
        "pollDivisionIds": [
          10141749
        ],
        "postalCode": "M1E3M6",
        "streetName": "BETHLEY",
        "streetDirectionId": null,
        "streetTypeId": "DR",
        "placeName": "SCARBOROUGH",
        "streetNameDisplayText": "BETHLEY DR, SCARBOROUGH"
      }
    ]
  },
  {
    "postal": "M1E6Z8",
    "result": []
  },
  {
    "postal": "M1E4J2",
    "result": [
      {
        "electoralDistricts": [
          {
            "election": null,
            "id": 95,
            "name": "Scarborough—Guildwood"
          }
        ],
        "pollDivisionIds": [
          10141642
        ],
        "postalCode": "M1E4J2",
        "streetName": "GROVENEST",
        "streetDirectionId": null,
        "streetTypeId": "DR",
        "placeName": "SCARBOROUGH",
        "streetNameDisplayText": "GROVENEST DR, SCARBOROUGH"
      }
    ]
  },
  {
    "postal": "M1E9Y1",
    "result": []
  },
  {
    "postal": "M1E8V6",
    "result": []
  },
  {
    "postal": "M1E6B2",
    "result": []
  },
  {
    "postal": "M1E1P8",
    "result": [
      {
        "electoralDistricts": [
          {
            "election": null,
            "id": 95,
            "name": "Scarborough—Guildwood"
          }
        ],
        "pollDivisionIds": [
          10141680
        ],
        "postalCode": "M1E1P8",
        "streetName": "GUILDWOOD",
        "streetDirectionId": null,
        "streetTypeId": "PKY",
        "placeName": "SCARBOROUGH",
        "streetNameDisplayText": "GUILDWOOD PKY, SCARBOROUGH"
      }
    ]
  },
  {
    "postal": "M1E0V8",
    "result": []
  },
  {
    "postal": "M1E4Y0",
    "result": []
  },
  {
    "postal": "M1E2T4",
    "result": [
      {
        "electoralDistricts": [
          {
            "election": null,
            "id": 97,
            "name": "Scarborough—Rouge Park"
          }
        ],
        "pollDivisionIds": [
          10141748,
          10141749
        ],
        "postalCode": "M1E2T4",
        "streetName": "LAWRENCE",
        "streetDirectionId": "E",
        "streetTypeId": "AVE",
        "placeName": "SCARBOROUGH",
        "streetNameDisplayText": "LAWRENCE AVE E, SCARBOROUGH"
      }
    ]
  },
  {
    "postal": "M1E2S3",
    "result": [
      {
        "electoralDistricts": [
          {
            "election": null,
            "id": 95,
            "name": "Scarborough—Guildwood"
          }
        ],
        "pollDivisionIds": [
          10141671
        ],
        "postalCode": "M1E2S3",
        "streetName": "LAWRENCE",
        "streetDirectionId": "E",
        "streetTypeId": "AVE",
        "placeName": "SCARBOROUGH",
        "streetNameDisplayText": "LAWRENCE AVE E, SCARBOROUGH"
      }
    ]
  },
  {
    "postal": "M1E0K0",
    "result": []
  },
  {
    "postal": "M1E5N1",
    "result": []
  },
  {
    "postal": "M1E7T0",
    "result": []
  },
  {
    "postal": "M1E9N2",
    "result": []
  },
  {
    "postal": "M1E5L1",
    "result": [
      {
        "electoralDistricts": [
          {
            "election": null,
            "id": 95,
            "name": "Scarborough—Guildwood"
          }
        ],
        "pollDivisionIds": [
          10141643
        ],
        "postalCode": "M1E5L1",
        "streetName": "CINDY NICHOLAS",
        "streetDirectionId": null,
        "streetTypeId": "DR",
        "placeName": "SCARBOROUGH",
        "streetNameDisplayText": "CINDY NICHOLAS DR, SCARBOROUGH"
      },
      {
        "electoralDistricts": [
          {
            "election": null,
            "id": 95,
            "name": "Scarborough—Guildwood"
          }
        ],
        "pollDivisionIds": [
          10141643
        ],
        "postalCode": "M1E5L1",
        "streetName": "LAMPMAN",
        "streetDirectionId": null,
        "streetTypeId": "DR",
        "placeName": "SCARBOROUGH",
        "streetNameDisplayText": "LAMPMAN DR, SCARBOROUGH"
      },
      {
        "electoralDistricts": [
          {
            "election": null,
            "id": 95,
            "name": "Scarborough—Guildwood"
          }
        ],
        "pollDivisionIds": [
          10141643
        ],
        "postalCode": "M1E5L1",
        "streetName": "PICKTHALL",
        "streetDirectionId": null,
        "streetTypeId": "TERR",
        "placeName": "SCARBOROUGH",
        "streetNameDisplayText": "PICKTHALL TERR, SCARBOROUGH"
      }
    ]
  },
  {
    "postal": "M1E7G5",
    "result": []
  },
  {
    "postal": "M1E6K2",
    "result": []
  },
  {
    "postal": "M1E6P9",
    "result": []
  },
  {
    "postal": "M1E0E6",
    "result": []
  },
  {
    "postal": "M1E8R9",
    "result": []
  },
  {
    "postal": "M1E3G9",
    "result": [
      {
        "electoralDistricts": [
          {
            "election": null,
            "id": 97,
            "name": "Scarborough—Rouge Park"
          }
        ],
        "pollDivisionIds": [
          10141748
        ],
        "postalCode": "M1E3G9",
        "streetName": "DALCOURT",
        "streetDirectionId": null,
        "streetTypeId": "DR",
        "placeName": "SCARBOROUGH",
        "streetNameDisplayText": "DALCOURT DR, SCARBOROUGH"
      }
    ]
  },
  {
    "postal": "M1E0V7",
    "result": []
  },
  {
    "postal": "M1E2Z1",
    "result": [
      {
        "electoralDistricts": [
          {
            "election": null,
            "id": 95,
            "name": "Scarborough—Guildwood"
          }
        ],
        "pollDivisionIds": [
          10141671
        ],
        "postalCode": "M1E2Z1",
        "streetName": "MARLENA",
        "streetDirectionId": null,
        "streetTypeId": "DR",
        "placeName": "SCARBOROUGH",
        "streetNameDisplayText": "MARLENA DR, SCARBOROUGH"
      }
    ]
  },
  {
    "postal": "M1E7N1",
    "result": []
  },
  {
    "postal": "M1E3C6",
    "result": [
      {
        "electoralDistricts": [
          {
            "election": null,
            "id": 97,
            "name": "Scarborough—Rouge Park"
          }
        ],
        "pollDivisionIds": [
          10141748
        ],
        "postalCode": "M1E3C6",
        "streetName": "MORNINGSIDE",
        "streetDirectionId": null,
        "streetTypeId": "AVE",
        "placeName": "SCARBOROUGH",
        "streetNameDisplayText": "MORNINGSIDE AVE, SCARBOROUGH"
      }
    ]
  },
  {
    "postal": "M1E4M1",
    "result": [
      {
        "electoralDistricts": [
          {
            "election": null,
            "id": 95,
            "name": "Scarborough—Guildwood"
          }
        ],
        "pollDivisionIds": [
          10141642
        ],
        "postalCode": "M1E4M1",
        "streetName": "EAGLEWING",
        "streetDirectionId": null,
        "streetTypeId": "CRT",
        "placeName": "SCARBOROUGH",
        "streetNameDisplayText": "EAGLEWING CRT, SCARBOROUGH"
      }
    ]
  },
  {
    "postal": "M1E9K2",
    "result": []
  },
  {
    "postal": "M1E9S6",
    "result": []
  },
  {
    "postal": "M1E4X1",
    "result": [
      {
        "electoralDistricts": [
          {
            "election": null,
            "id": 95,
            "name": "Scarborough—Guildwood"
          }
        ],
        "pollDivisionIds": [
          10141659
        ],
        "postalCode": "M1E4X1",
        "streetName": "RODDA",
        "streetDirectionId": null,
        "streetTypeId": "BLVD",
        "placeName": "SCARBOROUGH",
        "streetNameDisplayText": "RODDA BLVD, SCARBOROUGH"
      }
    ]
  },
  {
    "postal": "M1E8W2",
    "result": []
  },
  {
    "postal": "M1E7N2",
    "result": []
  },
  {
    "postal": "M1E8S3",
    "result": []
  },
  {
    "postal": "M1E4V0",
    "result": []
  },
  {
    "postal": "M1E6W4",
    "result": []
  },
  {
    "postal": "M1E5M1",
    "result": []
  },
  {
    "postal": "M1E0S4",
    "result": []
  },
  {
    "postal": "M1E5X6",
    "result": []
  },
  {
    "postal": "M1E8L5",
    "result": []
  },
  {
    "postal": "M1E5M8",
    "result": []
  },
  {
    "postal": "M1E2G3",
    "result": [
      {
        "electoralDistricts": [
          {
            "election": null,
            "id": 95,
            "name": "Scarborough—Guildwood"
          }
        ],
        "pollDivisionIds": [
          10141671
        ],
        "postalCode": "M1E2G3",
        "streetName": "GARDENTREE",
        "streetDirectionId": null,
        "streetTypeId": "ST",
        "placeName": "SCARBOROUGH",
        "streetNameDisplayText": "GARDENTREE ST, SCARBOROUGH"
      }
    ]
  },
  {
    "postal": "M1E8E4",
    "result": []
  },
  {
    "postal": "M1E7S9",
    "result": []
  },
  {
    "postal": "M1E1K3",
    "result": [
      {
        "electoralDistricts": [
          {
            "election": null,
            "id": 95,
            "name": "Scarborough—Guildwood"
          }
        ],
        "pollDivisionIds": [
          10141680
        ],
        "postalCode": "M1E1K3",
        "streetName": "ROWATSON",
        "streetDirectionId": null,
        "streetTypeId": "RD",
        "placeName": "SCARBOROUGH",
        "streetNameDisplayText": "ROWATSON RD, SCARBOROUGH"
      }
    ]
  },
  {
    "postal": "M1E4E1",
    "result": [
      {
        "electoralDistricts": [
          {
            "election": null,
            "id": 95,
            "name": "Scarborough—Guildwood"
          }
        ],
        "pollDivisionIds": [
          10141644
        ],
        "postalCode": "M1E4E1",
        "streetName": "PURPLEDUSK",
        "streetDirectionId": null,
        "streetTypeId": "TRAIL",
        "placeName": "SCARBOROUGH",
        "streetNameDisplayText": "PURPLEDUSK TRAIL, SCARBOROUGH"
      }
    ]
  },
  {
    "postal": "M1E4R2",
    "result": []
  },
  {
    "postal": "M1E6T0",
    "result": []
  },
  {
    "postal": "M1E3K5",
    "result": [
      {
        "electoralDistricts": [
          {
            "election": null,
            "id": 97,
            "name": "Scarborough—Rouge Park"
          }
        ],
        "pollDivisionIds": [
          10141749
        ],
        "postalCode": "M1E3K5",
        "streetName": "WILDLARK",
        "streetDirectionId": null,
        "streetTypeId": "DR",
        "placeName": "SCARBOROUGH",
        "streetNameDisplayText": "WILDLARK DR, SCARBOROUGH"
      }
    ]
  },
  {
    "postal": "M1E3S3",
    "result": [
      {
        "electoralDistricts": [
          {
            "election": null,
            "id": 97,
            "name": "Scarborough—Rouge Park"
          }
        ],
        "pollDivisionIds": [
          10141747
        ],
        "postalCode": "M1E3S3",
        "streetName": "COLLINSGROVE",
        "streetDirectionId": null,
        "streetTypeId": "RD",
        "placeName": "SCARBOROUGH",
        "streetNameDisplayText": "COLLINSGROVE RD, SCARBOROUGH"
      }
    ]
  },
  {
    "postal": "M1E3L4",
    "result": [
      {
        "electoralDistricts": [
          {
            "election": null,
            "id": 97,
            "name": "Scarborough—Rouge Park"
          }
        ],
        "pollDivisionIds": [
          10141749
        ],
        "postalCode": "M1E3L4",
        "streetName": "DAVIS DOWNS",
        "streetDirectionId": null,
        "streetTypeId": "PL",
        "placeName": "SCARBOROUGH",
        "streetNameDisplayText": "DAVIS DOWNS PL, SCARBOROUGH"
      }
    ]
  },
  {
    "postal": "M1E9Y2",
    "result": []
  },
  {
    "postal": "M1E1E0",
    "result": []
  },
  {
    "postal": "M1E9A4",
    "result": []
  },
  {
    "postal": "M1E1L3",
    "result": [
      {
        "electoralDistricts": [
          {
            "election": null,
            "id": 95,
            "name": "Scarborough—Guildwood"
          }
        ],
        "pollDivisionIds": [
          10141677
        ],
        "postalCode": "M1E1L3",
        "streetName": "LIVINGSTON",
        "streetDirectionId": null,
        "streetTypeId": "RD",
        "placeName": "SCARBOROUGH",
        "streetNameDisplayText": "LIVINGSTON RD, SCARBOROUGH"
      }
    ]
  },
  {
    "postal": "M1E6N1",
    "result": []
  },
  {
    "postal": "M1E6G7",
    "result": []
  },
  {
    "postal": "M1E7W1",
    "result": []
  },
  {
    "postal": "M1E4M6",
    "result": [
      {
        "electoralDistricts": [
          {
            "election": null,
            "id": 95,
            "name": "Scarborough—Guildwood"
          }
        ],
        "pollDivisionIds": [
          10141642
        ],
        "postalCode": "M1E4M6",
        "streetName": "HIGHCASTLE",
        "streetDirectionId": null,
        "streetTypeId": "RD",
        "placeName": "SCARBOROUGH",
        "streetNameDisplayText": "HIGHCASTLE RD, SCARBOROUGH"
      }
    ]
  },
  {
    "postal": "M1E1K0",
    "result": []
  },
  {
    "postal": "M1E3E2",
    "result": [
      {
        "electoralDistricts": [
          {
            "election": null,
            "id": 97,
            "name": "Scarborough—Rouge Park"
          },
          {
            "election": null,
            "id": 95,
            "name": "Scarborough—Guildwood"
          }
        ],
        "pollDivisionIds": [
          10141748,
          10141671
        ],
        "postalCode": "M1E3E2",
        "streetName": "MORNINGSIDE",
        "streetDirectionId": null,
        "streetTypeId": "AVE",
        "placeName": "SCARBOROUGH",
        "streetNameDisplayText": "MORNINGSIDE AVE, SCARBOROUGH"
      }
    ]
  },
  {
    "postal": "M1E5H4",
    "result": []
  },
  {
    "postal": "M1E1K7",
    "result": [
      {
        "electoralDistricts": [
          {
            "election": null,
            "id": 95,
            "name": "Scarborough—Guildwood"
          }
        ],
        "pollDivisionIds": [
          10141680
        ],
        "postalCode": "M1E1K7",
        "streetName": "LIVINGSTON",
        "streetDirectionId": null,
        "streetTypeId": "RD",
        "placeName": "SCARBOROUGH",
        "streetNameDisplayText": "LIVINGSTON RD, SCARBOROUGH"
      }
    ]
  },
  {
    "postal": "M1E0H0",
    "result": []
  },
  {
    "postal": "M1E0J3",
    "result": []
  },
  {
    "postal": "M1E1X6",
    "result": [
      {
        "electoralDistricts": [
          {
            "election": null,
            "id": 95,
            "name": "Scarborough—Guildwood"
          }
        ],
        "pollDivisionIds": [
          10141680,
          10141670
        ],
        "postalCode": "M1E1X6",
        "streetName": "LYNCROFT",
        "streetDirectionId": null,
        "streetTypeId": "DR",
        "placeName": "SCARBOROUGH",
        "streetNameDisplayText": "LYNCROFT DR, SCARBOROUGH"
      }
    ]
  },
  {
    "postal": "M1E2Z6",
    "result": [
      {
        "electoralDistricts": [
          {
            "election": null,
            "id": 95,
            "name": "Scarborough—Guildwood"
          }
        ],
        "pollDivisionIds": [
          10141660
        ],
        "postalCode": "M1E2Z6",
        "streetName": "RODDA",
        "streetDirectionId": null,
        "streetTypeId": "BLVD",
        "placeName": "SCARBOROUGH",
        "streetNameDisplayText": "RODDA BLVD, SCARBOROUGH"
      }
    ]
  },
  {
    "postal": "M1E4R9",
    "result": []
  },
  {
    "postal": "M1E0W8",
    "result": []
  },
  {
    "postal": "M1E1L4",
    "result": [
      {
        "electoralDistricts": [
          {
            "election": null,
            "id": 95,
            "name": "Scarborough—Guildwood"
          }
        ],
        "pollDivisionIds": [
          10141677
        ],
        "postalCode": "M1E1L4",
        "streetName": "LIVINGSTON",
        "streetDirectionId": null,
        "streetTypeId": "RD",
        "placeName": "SCARBOROUGH",
        "streetNameDisplayText": "LIVINGSTON RD, SCARBOROUGH"
      }
    ]
  },
  {
    "postal": "M1E0C8",
    "result": []
  },
  {
    "postal": "M1E9X7",
    "result": []
  },
  {
    "postal": "M1E4T1",
    "result": [
      {
        "electoralDistricts": [
          {
            "election": null,
            "id": 95,
            "name": "Scarborough—Guildwood"
          }
        ],
        "pollDivisionIds": [
          10141659
        ],
        "postalCode": "M1E4T1",
        "streetName": "WEIR",
        "streetDirectionId": null,
        "streetTypeId": "CRES",
        "placeName": "SCARBOROUGH",
        "streetNameDisplayText": "WEIR CRES, SCARBOROUGH"
      }
    ]
  },
  {
    "postal": "M1E0M0",
    "result": []
  },
  {
    "postal": "M1E6A2",
    "result": []
  },
  {
    "postal": "M1E9S8",
    "result": []
  },
  {
    "postal": "M1E9T4",
    "result": []
  },
  {
    "postal": "M1E9Y4",
    "result": []
  },
  {
    "postal": "M1E6G5",
    "result": []
  },
  {
    "postal": "M1E6H9",
    "result": []
  },
  {
    "postal": "M1E2P3",
    "result": [
      {
        "electoralDistricts": [
          {
            "election": null,
            "id": 97,
            "name": "Scarborough—Rouge Park"
          }
        ],
        "pollDivisionIds": [
          10141747
        ],
        "postalCode": "M1E2P3",
        "streetName": "KINGSTON",
        "streetDirectionId": null,
        "streetTypeId": "RD",
        "placeName": "SCARBOROUGH",
        "streetNameDisplayText": "KINGSTON RD, SCARBOROUGH"
      }
    ]
  },
  {
    "postal": "M1E1T6",
    "result": [
      {
        "electoralDistricts": [
          {
            "election": null,
            "id": 95,
            "name": "Scarborough—Guildwood"
          }
        ],
        "pollDivisionIds": [
          10141670
        ],
        "postalCode": "M1E1T6",
        "streetName": "PORTIA",
        "streetDirectionId": null,
        "streetTypeId": "ST",
        "placeName": "SCARBOROUGH",
        "streetNameDisplayText": "PORTIA ST, SCARBOROUGH"
      }
    ]
  },
  {
    "postal": "M1E4P6",
    "result": [
      {
        "electoralDistricts": [
          {
            "election": null,
            "id": 95,
            "name": "Scarborough—Guildwood"
          }
        ],
        "pollDivisionIds": [
          10141645
        ],
        "postalCode": "M1E4P6",
        "streetName": "MILITARY",
        "streetDirectionId": null,
        "streetTypeId": "TRAIL",
        "placeName": "SCARBOROUGH",
        "streetNameDisplayText": "MILITARY TRAIL, SCARBOROUGH"
      }
    ]
  },
  {
    "postal": "M1E3K1",
    "result": [
      {
        "electoralDistricts": [
          {
            "election": null,
            "id": 97,
            "name": "Scarborough—Rouge Park"
          }
        ],
        "pollDivisionIds": [
          10141749
        ],
        "postalCode": "M1E3K1",
        "streetName": "WOODGARDEN",
        "streetDirectionId": null,
        "streetTypeId": "CRES",
        "placeName": "SCARBOROUGH",
        "streetNameDisplayText": "WOODGARDEN CRES, SCARBOROUGH"
      }
    ]
  },
  {
    "postal": "M1E6X4",
    "result": []
  },
  {
    "postal": "M1E4M8",
    "result": [
      {
        "electoralDistricts": [
          {
            "election": null,
            "id": 95,
            "name": "Scarborough—Guildwood"
          }
        ],
        "pollDivisionIds": [
          10141642
        ],
        "postalCode": "M1E4M8",
        "streetName": "HIGHCASTLE",
        "streetDirectionId": null,
        "streetTypeId": "RD",
        "placeName": "SCARBOROUGH",
        "streetNameDisplayText": "HIGHCASTLE RD, SCARBOROUGH"
      }
    ]
  },
  {
    "postal": "M1E2Y1",
    "result": [
      {
        "electoralDistricts": [
          {
            "election": null,
            "id": 95,
            "name": "Scarborough—Guildwood"
          }
        ],
        "pollDivisionIds": [
          10141671
        ],
        "postalCode": "M1E2Y1",
        "streetName": "KITCHENER",
        "streetDirectionId": null,
        "streetTypeId": "RD",
        "placeName": "SCARBOROUGH",
        "streetNameDisplayText": "KITCHENER RD, SCARBOROUGH"
      }
    ]
  },
  {
    "postal": "M1E6M1",
    "result": []
  },
  {
    "postal": "M1E5L8",
    "result": []
  },
  {
    "postal": "M1E3P6",
    "result": [
      {
        "electoralDistricts": [
          {
            "election": null,
            "id": 97,
            "name": "Scarborough—Rouge Park"
          }
        ],
        "pollDivisionIds": [
          10141748
        ],
        "postalCode": "M1E3P6",
        "streetName": "DARLINGSIDE",
        "streetDirectionId": null,
        "streetTypeId": "DR",
        "placeName": "SCARBOROUGH",
        "streetNameDisplayText": "DARLINGSIDE DR, SCARBOROUGH"
      }
    ]
  },
  {
    "postal": "M1E9A5",
    "result": []
  },
  {
    "postal": "M1E7K1",
    "result": []
  },
  {
    "postal": "M1E3J4",
    "result": [
      {
        "electoralDistricts": [
          {
            "election": null,
            "id": 97,
            "name": "Scarborough—Rouge Park"
          }
        ],
        "pollDivisionIds": [
          10141747
        ],
        "postalCode": "M1E3J4",
        "streetName": "BEATH",
        "streetDirectionId": null,
        "streetTypeId": "ST",
        "placeName": "SCARBOROUGH",
        "streetNameDisplayText": "BEATH ST, SCARBOROUGH"
      }
    ]
  },
  {
    "postal": "M1E5E7",
    "result": [
      {
        "electoralDistricts": [
          {
            "election": null,
            "id": 97,
            "name": "Scarborough—Rouge Park"
          }
        ],
        "pollDivisionIds": [
          10141748
        ],
        "postalCode": "M1E5E7",
        "streetName": "CORONATION",
        "streetDirectionId": null,
        "streetTypeId": "DR",
        "placeName": "SCARBOROUGH",
        "streetNameDisplayText": "CORONATION DR, SCARBOROUGH"
      }
    ]
  },
  {
    "postal": "M1E3A7",
    "result": [
      {
        "electoralDistricts": [
          {
            "election": null,
            "id": 95,
            "name": "Scarborough—Guildwood"
          }
        ],
        "pollDivisionIds": [
          10141659
        ],
        "postalCode": "M1E3A7",
        "streetName": "PICKFORD",
        "streetDirectionId": null,
        "streetTypeId": "RD",
        "placeName": "SCARBOROUGH",
        "streetNameDisplayText": "PICKFORD RD, SCARBOROUGH"
      }
    ]
  },
  {
    "postal": "M1E1B9",
    "result": [
      {
        "electoralDistricts": [
          {
            "election": null,
            "id": 95,
            "name": "Scarborough—Guildwood"
          }
        ],
        "pollDivisionIds": [
          10141677
        ],
        "postalCode": "M1E1B9",
        "streetName": "CATALINA",
        "streetDirectionId": null,
        "streetTypeId": "DR",
        "placeName": "SCARBOROUGH",
        "streetNameDisplayText": "CATALINA DR, SCARBOROUGH"
      }
    ]
  },
  {
    "postal": "M1E9E8",
    "result": []
  },
  {
    "postal": "M1E1C9",
    "result": [
      {
        "electoralDistricts": [
          {
            "election": null,
            "id": 95,
            "name": "Scarborough—Guildwood"
          }
        ],
        "pollDivisionIds": [
          10141677
        ],
        "postalCode": "M1E1C9",
        "streetName": "AVONMORE",
        "streetDirectionId": null,
        "streetTypeId": "SQ",
        "placeName": "SCARBOROUGH",
        "streetNameDisplayText": "AVONMORE SQ, SCARBOROUGH"
      }
    ]
  },
  {
    "postal": "M1E3B5",
    "result": [
      {
        "electoralDistricts": [
          {
            "election": null,
            "id": 95,
            "name": "Scarborough—Guildwood"
          }
        ],
        "pollDivisionIds": [
          10141659
        ],
        "postalCode": "M1E3B5",
        "streetName": "FALAISE",
        "streetDirectionId": null,
        "streetTypeId": "RD",
        "placeName": "SCARBOROUGH",
        "streetNameDisplayText": "FALAISE RD, SCARBOROUGH"
      }
    ]
  },
  {
    "postal": "M1E8R0",
    "result": []
  },
  {
    "postal": "M1E3P2",
    "result": [
      {
        "electoralDistricts": [
          {
            "election": null,
            "id": 97,
            "name": "Scarborough—Rouge Park"
          }
        ],
        "pollDivisionIds": [
          10141748
        ],
        "postalCode": "M1E3P2",
        "streetName": "DARLINGSIDE",
        "streetDirectionId": null,
        "streetTypeId": "DR",
        "placeName": "SCARBOROUGH",
        "streetNameDisplayText": "DARLINGSIDE DR, SCARBOROUGH"
      }
    ]
  },
  {
    "postal": "M1E5V4",
    "result": []
  },
  {
    "postal": "M1E4H0",
    "result": []
  },
  {
    "postal": "M1E4S7",
    "result": [
      {
        "electoralDistricts": [
          {
            "election": null,
            "id": 95,
            "name": "Scarborough—Guildwood"
          }
        ],
        "pollDivisionIds": [
          10141643
        ],
        "postalCode": "M1E4S7",
        "streetName": "MILITARY",
        "streetDirectionId": null,
        "streetTypeId": "TRAIL",
        "placeName": "SCARBOROUGH",
        "streetNameDisplayText": "MILITARY TRAIL, SCARBOROUGH"
      }
    ]
  },
  {
    "postal": "M1E6C2",
    "result": []
  },
  {
    "postal": "M1E8W3",
    "result": []
  },
  {
    "postal": "M1E4M5",
    "result": [
      {
        "electoralDistricts": [
          {
            "election": null,
            "id": 95,
            "name": "Scarborough—Guildwood"
          }
        ],
        "pollDivisionIds": [
          10141642
        ],
        "postalCode": "M1E4M5",
        "streetName": "PINESLOPE",
        "streetDirectionId": null,
        "streetTypeId": "CRES",
        "placeName": "SCARBOROUGH",
        "streetNameDisplayText": "PINESLOPE CRES, SCARBOROUGH"
      }
    ]
  },
  {
    "postal": "M1E5T1",
    "result": []
  },
  {
    "postal": "M1E3B3",
    "result": [
      {
        "electoralDistricts": [
          {
            "election": null,
            "id": 95,
            "name": "Scarborough—Guildwood"
          }
        ],
        "pollDivisionIds": [
          10141659
        ],
        "postalCode": "M1E3B3",
        "streetName": "WEIR",
        "streetDirectionId": null,
        "streetTypeId": "CRES",
        "placeName": "SCARBOROUGH",
        "streetNameDisplayText": "WEIR CRES, SCARBOROUGH"
      }
    ]
  },
  {
    "postal": "M1E6C6",
    "result": []
  },
  {
    "postal": "M1E7N8",
    "result": []
  },
  {
    "postal": "M1E2Y3",
    "result": [
      {
        "electoralDistricts": [
          {
            "election": null,
            "id": 95,
            "name": "Scarborough—Guildwood"
          }
        ],
        "pollDivisionIds": [
          10141671
        ],
        "postalCode": "M1E2Y3",
        "streetName": "KITCHENER",
        "streetDirectionId": null,
        "streetTypeId": "RD",
        "placeName": "SCARBOROUGH",
        "streetNameDisplayText": "KITCHENER RD, SCARBOROUGH"
      }
    ]
  },
  {
    "postal": "M1E2R6",
    "result": [
      {
        "electoralDistricts": [
          {
            "election": null,
            "id": 95,
            "name": "Scarborough—Guildwood"
          }
        ],
        "pollDivisionIds": [
          10141668
        ],
        "postalCode": "M1E2R6",
        "streetName": "LAWRENCE",
        "streetDirectionId": "E",
        "streetTypeId": "AVE",
        "placeName": "SCARBOROUGH",
        "streetNameDisplayText": "LAWRENCE AVE E, SCARBOROUGH"
      }
    ]
  },
  {
    "postal": "M1E7N3",
    "result": []
  },
  {
    "postal": "M1E8J2",
    "result": []
  },
  {
    "postal": "M1E6A9",
    "result": []
  },
  {
    "postal": "M1E3V2",
    "result": [
      {
        "electoralDistricts": [
          {
            "election": null,
            "id": 97,
            "name": "Scarborough—Rouge Park"
          }
        ],
        "pollDivisionIds": [
          10141748
        ],
        "postalCode": "M1E3V2",
        "streetName": "MANSE",
        "streetDirectionId": null,
        "streetTypeId": "RD",
        "placeName": "SCARBOROUGH",
        "streetNameDisplayText": "MANSE RD, SCARBOROUGH"
      }
    ]
  },
  {
    "postal": "M1E2N3",
    "result": [
      {
        "electoralDistricts": [
          {
            "election": null,
            "id": 95,
            "name": "Scarborough—Guildwood"
          }
        ],
        "pollDivisionIds": [
          10141671
        ],
        "postalCode": "M1E2N3",
        "streetName": "KINGSTON",
        "streetDirectionId": null,
        "streetTypeId": "RD",
        "placeName": "SCARBOROUGH",
        "streetNameDisplayText": "KINGSTON RD, SCARBOROUGH"
      }
    ]
  },
  {
    "postal": "M1E1S5",
    "result": [
      {
        "electoralDistricts": [
          {
            "election": null,
            "id": 95,
            "name": "Scarborough—Guildwood"
          }
        ],
        "pollDivisionIds": [
          10141670
        ],
        "postalCode": "M1E1S5",
        "streetName": "DEARHAM",
        "streetDirectionId": null,
        "streetTypeId": "WOOD",
        "placeName": "SCARBOROUGH",
        "streetNameDisplayText": "DEARHAM WOOD, SCARBOROUGH"
      }
    ]
  },
  {
    "postal": "M1E4T7",
    "result": [
      {
        "electoralDistricts": [
          {
            "election": null,
            "id": 95,
            "name": "Scarborough—Guildwood"
          }
        ],
        "pollDivisionIds": [
          10141671
        ],
        "postalCode": "M1E4T7",
        "streetName": "LAWRENCE",
        "streetDirectionId": "E",
        "streetTypeId": "AVE",
        "placeName": "SCARBOROUGH",
        "streetNameDisplayText": "LAWRENCE AVE E, SCARBOROUGH"
      }
    ]
  },
  {
    "postal": "M1E6Y7",
    "result": []
  },
  {
    "postal": "M1E0W7",
    "result": []
  },
  {
    "postal": "M1E2W9",
    "result": []
  },
  {
    "postal": "M1E8V0",
    "result": []
  },
  {
    "postal": "M1E0H4",
    "result": []
  },
  {
    "postal": "M1E2T1",
    "result": [
      {
        "electoralDistricts": [
          {
            "election": null,
            "id": 97,
            "name": "Scarborough—Rouge Park"
          }
        ],
        "pollDivisionIds": [
          10141747,
          10141749
        ],
        "postalCode": "M1E2T1",
        "streetName": "LAWRENCE",
        "streetDirectionId": "E",
        "streetTypeId": "AVE",
        "placeName": "SCARBOROUGH",
        "streetNameDisplayText": "LAWRENCE AVE E, SCARBOROUGH"
      }
    ]
  },
  {
    "postal": "M1E1B1",
    "result": [
      {
        "electoralDistricts": [
          {
            "election": null,
            "id": 95,
            "name": "Scarborough—Guildwood"
          }
        ],
        "pollDivisionIds": [
          10141677
        ],
        "postalCode": "M1E1B1",
        "streetName": "BLEDLOW MANOR",
        "streetDirectionId": null,
        "streetTypeId": "DR",
        "placeName": "SCARBOROUGH",
        "streetNameDisplayText": "BLEDLOW MANOR DR, SCARBOROUGH"
      }
    ]
  },
  {
    "postal": "M1E8B6",
    "result": []
  },
  {
    "postal": "M1E6H1",
    "result": []
  },
  {
    "postal": "M1E8T8",
    "result": []
  },
  {
    "postal": "M1E0T4",
    "result": []
  },
  {
    "postal": "M1E2C4",
    "result": [
      {
        "electoralDistricts": [
          {
            "election": null,
            "id": 95,
            "name": "Scarborough—Guildwood"
          }
        ],
        "pollDivisionIds": [
          10141669
        ],
        "postalCode": "M1E2C4",
        "streetName": "PILOT",
        "streetDirectionId": null,
        "streetTypeId": "ST",
        "placeName": "SCARBOROUGH",
        "streetNameDisplayText": "PILOT ST, SCARBOROUGH"
      }
    ]
  },
  {
    "postal": "M1E8N3",
    "result": []
  },
  {
    "postal": "M1E4L8",
    "result": [
      {
        "electoralDistricts": [
          {
            "election": null,
            "id": 95,
            "name": "Scarborough—Guildwood"
          }
        ],
        "pollDivisionIds": [
          10141642
        ],
        "postalCode": "M1E4L8",
        "streetName": "CREEKWOOD",
        "streetDirectionId": null,
        "streetTypeId": "DR",
        "placeName": "SCARBOROUGH",
        "streetNameDisplayText": "CREEKWOOD DR, SCARBOROUGH"
      }
    ]
  },
  {
    "postal": "M1E2B5",
    "result": [
      {
        "electoralDistricts": [
          {
            "election": null,
            "id": 97,
            "name": "Scarborough—Rouge Park"
          }
        ],
        "pollDivisionIds": [
          10141748
        ],
        "postalCode": "M1E2B5",
        "streetName": "MOSS",
        "streetDirectionId": null,
        "streetTypeId": "ST",
        "placeName": "SCARBOROUGH",
        "streetNameDisplayText": "MOSS ST, SCARBOROUGH"
      }
    ]
  },
  {
    "postal": "M1E3H1",
    "result": [
      {
        "electoralDistricts": [
          {
            "election": null,
            "id": 97,
            "name": "Scarborough—Rouge Park"
          }
        ],
        "pollDivisionIds": [
          10141748
        ],
        "postalCode": "M1E3H1",
        "streetName": "DALCOURT",
        "streetDirectionId": null,
        "streetTypeId": "DR",
        "placeName": "SCARBOROUGH",
        "streetNameDisplayText": "DALCOURT DR, SCARBOROUGH"
      },
      {
        "electoralDistricts": [
          {
            "election": null,
            "id": 97,
            "name": "Scarborough—Rouge Park"
          }
        ],
        "pollDivisionIds": [
          10141748
        ],
        "postalCode": "M1E3H1",
        "streetName": "DALCOURT",
        "streetDirectionId": null,
        "streetTypeId": "DR",
        "placeName": "SCARBORUGH",
        "streetNameDisplayText": "DALCOURT DR, SCARBORUGH"
      }
    ]
  },
  {
    "postal": "M1E4Y1",
    "result": [
      {
        "electoralDistricts": [
          {
            "election": null,
            "id": 97,
            "name": "Scarborough—Rouge Park"
          }
        ],
        "pollDivisionIds": [
          10141762
        ],
        "postalCode": "M1E4Y1",
        "streetName": "OLD KINGSTON",
        "streetDirectionId": null,
        "streetTypeId": "RD",
        "placeName": "SCARBOROUGH",
        "streetNameDisplayText": "OLD KINGSTON RD, SCARBOROUGH"
      }
    ]
  },
  {
    "postal": "M1E7E2",
    "result": []
  },
  {
    "postal": "M1E2P5",
    "result": [
      {
        "electoralDistricts": [
          {
            "election": null,
            "id": 97,
            "name": "Scarborough—Rouge Park"
          }
        ],
        "pollDivisionIds": [
          10141747
        ],
        "postalCode": "M1E2P5",
        "streetName": "KINGSTON",
        "streetDirectionId": null,
        "streetTypeId": "RD",
        "placeName": "SCARBOROUGH",
        "streetNameDisplayText": "KINGSTON RD, SCARBOROUGH"
      }
    ]
  },
  {
    "postal": "M1E8R7",
    "result": []
  },
  {
    "postal": "M1E9P1",
    "result": []
  },
  {
    "postal": "M1E3B8",
    "result": [
      {
        "electoralDistricts": [
          {
            "election": null,
            "id": 95,
            "name": "Scarborough—Guildwood"
          }
        ],
        "pollDivisionIds": [
          10141659
        ],
        "postalCode": "M1E3B8",
        "streetName": "FALAISE",
        "streetDirectionId": null,
        "streetTypeId": "RD",
        "placeName": "SCARBOROUGH",
        "streetNameDisplayText": "FALAISE RD, SCARBOROUGH"
      }
    ]
  },
  {
    "postal": "M1E3P7",
    "result": [
      {
        "electoralDistricts": [
          {
            "election": null,
            "id": 97,
            "name": "Scarborough—Rouge Park"
          }
        ],
        "pollDivisionIds": [
          10141748
        ],
        "postalCode": "M1E3P7",
        "streetName": "DARLINGSIDE",
        "streetDirectionId": null,
        "streetTypeId": "DR",
        "placeName": "SCARBOROUGH",
        "streetNameDisplayText": "DARLINGSIDE DR, SCARBOROUGH"
      }
    ]
  },
  {
    "postal": "M1E9B2",
    "result": []
  },
  {
    "postal": "M1E6Z3",
    "result": []
  },
  {
    "postal": "M1E4N5",
    "result": [
      {
        "electoralDistricts": [
          {
            "election": null,
            "id": 95,
            "name": "Scarborough—Guildwood"
          }
        ],
        "pollDivisionIds": [
          10141643
        ],
        "postalCode": "M1E4N5",
        "streetName": "SANDRIFT",
        "streetDirectionId": null,
        "streetTypeId": "SQ",
        "placeName": "SCARBOROUGH",
        "streetNameDisplayText": "SANDRIFT SQ, SCARBOROUGH"
      }
    ]
  },
  {
    "postal": "M1E8T3",
    "result": []
  },
  {
    "postal": "M1E1V2",
    "result": [
      {
        "electoralDistricts": [
          {
            "election": null,
            "id": 97,
            "name": "Scarborough—Rouge Park"
          }
        ],
        "pollDivisionIds": [
          10141748
        ],
        "postalCode": "M1E1V2",
        "streetName": "FORDOVER",
        "streetDirectionId": null,
        "streetTypeId": "DR",
        "placeName": "SCARBOROUGH",
        "streetNameDisplayText": "FORDOVER DR, SCARBOROUGH"
      }
    ]
  },
  {
    "postal": "M1E1Y0",
    "result": []
  },
  {
    "postal": "M1E3G6",
    "result": [
      {
        "electoralDistricts": [
          {
            "election": null,
            "id": 97,
            "name": "Scarborough—Rouge Park"
          }
        ],
        "pollDivisionIds": [
          10141748
        ],
        "postalCode": "M1E3G6",
        "streetName": "PIXLEY",
        "streetDirectionId": null,
        "streetTypeId": "CRES",
        "placeName": "SCARBOROUGH",
        "streetNameDisplayText": "PIXLEY CRES, SCARBOROUGH"
      }
    ]
  },
  {
    "postal": "M1E3H7",
    "result": [
      {
        "electoralDistricts": [
          {
            "election": null,
            "id": 97,
            "name": "Scarborough—Rouge Park"
          }
        ],
        "pollDivisionIds": [
          10141748
        ],
        "postalCode": "M1E3H7",
        "streetName": "BUDWORTH",
        "streetDirectionId": null,
        "streetTypeId": "DR",
        "placeName": "SCARBOROUGH",
        "streetNameDisplayText": "BUDWORTH DR, SCARBOROUGH"
      }
    ]
  },
  {
    "postal": "M1E7X8",
    "result": []
  },
  {
    "postal": "M1E0C7",
    "result": []
  },
  {
    "postal": "M1E0W9",
    "result": []
  },
  {
    "postal": "M1E8E6",
    "result": []
  },
  {
    "postal": "M1E9Z8",
    "result": []
  },
  {
    "postal": "M1E3P4",
    "result": [
      {
        "electoralDistricts": [
          {
            "election": null,
            "id": 97,
            "name": "Scarborough—Rouge Park"
          }
        ],
        "pollDivisionIds": [
          10141748
        ],
        "postalCode": "M1E3P4",
        "streetName": "DARLINGSIDE",
        "streetDirectionId": null,
        "streetTypeId": "DR",
        "placeName": "SCARBOROUGH",
        "streetNameDisplayText": "DARLINGSIDE DR, SCARBOROUGH"
      }
    ]
  },
  {
    "postal": "M1E6L8",
    "result": []
  },
  {
    "postal": "M1E2R4",
    "result": [
      {
        "electoralDistricts": [
          {
            "election": null,
            "id": 95,
            "name": "Scarborough—Guildwood"
          }
        ],
        "pollDivisionIds": [
          10141668
        ],
        "postalCode": "M1E2R4",
        "streetName": "LAWRENCE",
        "streetDirectionId": "E",
        "streetTypeId": "AVE",
        "placeName": "SCARBOROUGH",
        "streetNameDisplayText": "LAWRENCE AVE E, SCARBOROUGH"
      }
    ]
  },
  {
    "postal": "M1E2W1",
    "result": [
      {
        "electoralDistricts": [
          {
            "election": null,
            "id": 95,
            "name": "Scarborough—Guildwood"
          }
        ],
        "pollDivisionIds": [
          10141669
        ],
        "postalCode": "M1E2W1",
        "streetName": "OVERTURE",
        "streetDirectionId": null,
        "streetTypeId": "RD",
        "placeName": "SCARBOROUGH",
        "streetNameDisplayText": "OVERTURE RD, SCARBOROUGH"
      }
    ]
  },
  {
    "postal": "M1E9H8",
    "result": []
  },
  {
    "postal": "M1E8X9",
    "result": []
  },
  {
    "postal": "M1E7H4",
    "result": []
  },
  {
    "postal": "M1E3J1",
    "result": [
      {
        "electoralDistricts": [
          {
            "election": null,
            "id": 97,
            "name": "Scarborough—Rouge Park"
          }
        ],
        "pollDivisionIds": [
          10141747
        ],
        "postalCode": "M1E3J1",
        "streetName": "TEFFT",
        "streetDirectionId": null,
        "streetTypeId": "RD",
        "placeName": "SCARBOROUGH",
        "streetNameDisplayText": "TEFFT RD, SCARBOROUGH"
      }
    ]
  },
  {
    "postal": "M1E1P4",
    "result": [
      {
        "electoralDistricts": [
          {
            "election": null,
            "id": 95,
            "name": "Scarborough—Guildwood"
          }
        ],
        "pollDivisionIds": [
          10141680
        ],
        "postalCode": "M1E1P4",
        "streetName": "GUILDWOOD",
        "streetDirectionId": null,
        "streetTypeId": "PKY",
        "placeName": "SCARBOROUGH",
        "streetNameDisplayText": "GUILDWOOD PKY, SCARBOROUGH"
      }
    ]
  },
  {
    "postal": "M1E2A3",
    "result": [
      {
        "electoralDistricts": [
          {
            "election": null,
            "id": 95,
            "name": "Scarborough—Guildwood"
          }
        ],
        "pollDivisionIds": [
          10141670
        ],
        "postalCode": "M1E2A3",
        "streetName": "TIVOLI",
        "streetDirectionId": null,
        "streetTypeId": "CRT",
        "placeName": "SCARBOROUGH",
        "streetNameDisplayText": "TIVOLI CRT, SCARBOROUGH"
      }
    ]
  },
  {
    "postal": "M1E0Z1",
    "result": []
  },
  {
    "postal": "M1E1C1",
    "result": [
      {
        "electoralDistricts": [
          {
            "election": null,
            "id": 95,
            "name": "Scarborough—Guildwood"
          }
        ],
        "pollDivisionIds": [
          10141674
        ],
        "postalCode": "M1E1C1",
        "streetName": "SIR RAYMOND",
        "streetDirectionId": null,
        "streetTypeId": "DR",
        "placeName": "SCARBOROUGH",
        "streetNameDisplayText": "SIR RAYMOND DR, SCARBOROUGH"
      }
    ]
  },
  {
    "postal": "M1E0H3",
    "result": []
  },
  {
    "postal": "M1E7B0",
    "result": []
  },
  {
    "postal": "M1E5K2",
    "result": [
      {
        "electoralDistricts": [
          {
            "election": null,
            "id": 95,
            "name": "Scarborough—Guildwood"
          }
        ],
        "pollDivisionIds": [
          10141669
        ],
        "postalCode": "M1E5K2",
        "streetName": "LAWRENCE",
        "streetDirectionId": "E",
        "streetTypeId": "AVE",
        "placeName": "SCARBOROUGH",
        "streetNameDisplayText": "LAWRENCE AVE E, SCARBOROUGH"
      }
    ]
  },
  {
    "postal": "M1E1E9",
    "result": [
      {
        "electoralDistricts": [
          {
            "election": null,
            "id": 95,
            "name": "Scarborough—Guildwood"
          }
        ],
        "pollDivisionIds": [
          10141680
        ],
        "postalCode": "M1E1E9",
        "streetName": "TOYNBEE",
        "streetDirectionId": null,
        "streetTypeId": "TRAIL",
        "placeName": "SCARBOROUGH",
        "streetNameDisplayText": "TOYNBEE TRAIL, SCARBOROUGH"
      }
    ]
  },
  {
    "postal": "M1E9W7",
    "result": []
  },
  {
    "postal": "M1E5W6",
    "result": []
  },
  {
    "postal": "M1E6S6",
    "result": []
  },
  {
    "postal": "M1E2P8",
    "result": [
      {
        "electoralDistricts": [
          {
            "election": null,
            "id": 97,
            "name": "Scarborough—Rouge Park"
          }
        ],
        "pollDivisionIds": [
          10141747,
          10141749
        ],
        "postalCode": "M1E2P8",
        "streetName": "KINGSTON",
        "streetDirectionId": null,
        "streetTypeId": "RD",
        "placeName": "SCARBOROUGH",
        "streetNameDisplayText": "KINGSTON RD, SCARBOROUGH"
      }
    ]
  },
  {
    "postal": "M1E4P8",
    "result": [
      {
        "electoralDistricts": [
          {
            "election": null,
            "id": 95,
            "name": "Scarborough—Guildwood"
          }
        ],
        "pollDivisionIds": [
          10141645
        ],
        "postalCode": "M1E4P8",
        "streetName": "MORNELLE",
        "streetDirectionId": null,
        "streetTypeId": "CRT",
        "placeName": "SCARBOROUGH",
        "streetNameDisplayText": "MORNELLE CRT, SCARBOROUGH"
      }
    ]
  },
  {
    "postal": "M1E0V9",
    "result": []
  },
  {
    "postal": "M1E5Y2",
    "result": []
  },
  {
    "postal": "M1E7Z7",
    "result": []
  },
  {
    "postal": "M1E6Y8",
    "result": []
  },
  {
    "postal": "M1E2G7",
    "result": [
      {
        "electoralDistricts": [
          {
            "election": null,
            "id": 95,
            "name": "Scarborough—Guildwood"
          }
        ],
        "pollDivisionIds": [
          10141671
        ],
        "postalCode": "M1E2G7",
        "streetName": "SYRACUSE",
        "streetDirectionId": null,
        "streetTypeId": "CRES",
        "placeName": "SCARBOROUGH",
        "streetNameDisplayText": "SYRACUSE CRES, SCARBOROUGH"
      }
    ]
  },
  {
    "postal": "M1E8C1",
    "result": []
  },
  {
    "postal": "M1E5C5",
    "result": [
      {
        "electoralDistricts": [
          {
            "election": null,
            "id": 97,
            "name": "Scarborough—Rouge Park"
          }
        ],
        "pollDivisionIds": [
          10141747
        ],
        "postalCode": "M1E5C5",
        "streetName": "STORNOWAY",
        "streetDirectionId": null,
        "streetTypeId": "CRT",
        "placeName": "SCARBOROUGH",
        "streetNameDisplayText": "STORNOWAY CRT, SCARBOROUGH"
      }
    ]
  },
  {
    "postal": "M1E2X8",
    "result": [
      {
        "electoralDistricts": [
          {
            "election": null,
            "id": 95,
            "name": "Scarborough—Guildwood"
          }
        ],
        "pollDivisionIds": [
          10141671
        ],
        "postalCode": "M1E2X8",
        "streetName": "KITCHENER",
        "streetDirectionId": null,
        "streetTypeId": "RD",
        "placeName": "SCARBOROUGH",
        "streetNameDisplayText": "KITCHENER RD, SCARBOROUGH"
      }
    ]
  },
  {
    "postal": "M1E1W5",
    "result": [
      {
        "electoralDistricts": [
          {
            "election": null,
            "id": 95,
            "name": "Scarborough—Guildwood"
          }
        ],
        "pollDivisionIds": [
          10141680
        ],
        "postalCode": "M1E1W5",
        "streetName": "GALLOWAY",
        "streetDirectionId": null,
        "streetTypeId": "RD",
        "placeName": "SCARBOROUGH",
        "streetNameDisplayText": "GALLOWAY RD, SCARBOROUGH"
      }
    ]
  },
  {
    "postal": "M1E7G0",
    "result": []
  },
  {
    "postal": "M1E8J8",
    "result": []
  },
  {
    "postal": "M1E3Y0",
    "result": []
  },
  {
    "postal": "M1E9T7",
    "result": []
  },
  {
    "postal": "M1E5P4",
    "result": []
  },
  {
    "postal": "M1E4B0",
    "result": []
  },
  {
    "postal": "M1E9N8",
    "result": []
  },
  {
    "postal": "M1E4A7",
    "result": [
      {
        "electoralDistricts": [
          {
            "election": null,
            "id": 97,
            "name": "Scarborough—Rouge Park"
          }
        ],
        "pollDivisionIds": [
          10141749
        ],
        "postalCode": "M1E4A7",
        "streetName": "MEGAN",
        "streetDirectionId": null,
        "streetTypeId": "AVE",
        "placeName": "SCARBOROUGH",
        "streetNameDisplayText": "MEGAN AVE, SCARBOROUGH"
      }
    ]
  },
  {
    "postal": "M1E4H9",
    "result": [
      {
        "electoralDistricts": [
          {
            "election": null,
            "id": 95,
            "name": "Scarborough—Guildwood"
          }
        ],
        "pollDivisionIds": [
          10141642
        ],
        "postalCode": "M1E4H9",
        "streetName": "GILLBANK",
        "streetDirectionId": null,
        "streetTypeId": "CRES",
        "placeName": "SCARBOROUGH",
        "streetNameDisplayText": "GILLBANK CRES, SCARBOROUGH"
      }
    ]
  },
  {
    "postal": "M1E6X1",
    "result": []
  },
  {
    "postal": "M1E9Y7",
    "result": []
  },
  {
    "postal": "M1E2Y5",
    "result": [
      {
        "electoralDistricts": [
          {
            "election": null,
            "id": 95,
            "name": "Scarborough—Guildwood"
          }
        ],
        "pollDivisionIds": [
          10141671
        ],
        "postalCode": "M1E2Y5",
        "streetName": "ROWALLAN",
        "streetDirectionId": null,
        "streetTypeId": "DR",
        "placeName": "SCARBOROUGH",
        "streetNameDisplayText": "ROWALLAN DR, SCARBOROUGH"
      }
    ]
  },
  {
    "postal": "M1E8L7",
    "result": []
  },
  {
    "postal": "M1E2A8",
    "result": [
      {
        "electoralDistricts": [
          {
            "election": null,
            "id": 95,
            "name": "Scarborough—Guildwood"
          }
        ],
        "pollDivisionIds": [
          10141670,
          10141680
        ],
        "postalCode": "M1E2A8",
        "streetName": "MORNA",
        "streetDirectionId": null,
        "streetTypeId": "AVE",
        "placeName": "SCARBOROUGH",
        "streetNameDisplayText": "MORNA AVE, SCARBOROUGH"
      }
    ]
  },
  {
    "postal": "M1E2K9",
    "result": [
      {
        "electoralDistricts": [
          {
            "election": null,
            "id": 95,
            "name": "Scarborough—Guildwood"
          }
        ],
        "pollDivisionIds": [
          10141671
        ],
        "postalCode": "M1E2K9",
        "streetName": "DANZIG",
        "streetDirectionId": null,
        "streetTypeId": "ST",
        "placeName": "SCARBOROUGH",
        "streetNameDisplayText": "DANZIG ST, SCARBOROUGH"
      }
    ]
  },
  {
    "postal": "M1E3E5",
    "result": [
      {
        "electoralDistricts": [
          {
            "election": null,
            "id": 97,
            "name": "Scarborough—Rouge Park"
          }
        ],
        "pollDivisionIds": [
          10141748
        ],
        "postalCode": "M1E3E5",
        "streetName": "MORNINGSIDE",
        "streetDirectionId": null,
        "streetTypeId": "AVE",
        "placeName": "SCARBOROUGH",
        "streetNameDisplayText": "MORNINGSIDE AVE, SCARBOROUGH"
      }
    ]
  },
  {
    "postal": "M1E8N6",
    "result": []
  },
  {
    "postal": "M1E8J4",
    "result": []
  },
  {
    "postal": "M1E4R7",
    "result": []
  },
  {
    "postal": "M1E9K1",
    "result": []
  },
  {
    "postal": "M1E8E1",
    "result": []
  },
  {
    "postal": "M1E0R1",
    "result": []
  },
  {
    "postal": "M1E4J3",
    "result": [
      {
        "electoralDistricts": [
          {
            "election": null,
            "id": 95,
            "name": "Scarborough—Guildwood"
          }
        ],
        "pollDivisionIds": [
          10141642
        ],
        "postalCode": "M1E4J3",
        "streetName": "GROVENEST",
        "streetDirectionId": null,
        "streetTypeId": "DR",
        "placeName": "SCARBOROUGH",
        "streetNameDisplayText": "GROVENEST DR, SCARBOROUGH"
      }
    ]
  },
  {
    "postal": "M1E7E7",
    "result": []
  },
  {
    "postal": "M1E0J0",
    "result": []
  },
  {
    "postal": "M1E7R8",
    "result": []
  },
  {
    "postal": "M1E9X0",
    "result": []
  },
  {
    "postal": "M1E7P6",
    "result": []
  },
  {
    "postal": "M1E0R7",
    "result": []
  },
  {
    "postal": "M1E5W1",
    "result": []
  },
  {
    "postal": "M1E0K4",
    "result": []
  },
  {
    "postal": "M1E7N9",
    "result": []
  },
  {
    "postal": "M1E1N0",
    "result": []
  },
  {
    "postal": "M1E6P3",
    "result": []
  },
  {
    "postal": "M1E5A1",
    "result": [
      {
        "electoralDistricts": [
          {
            "election": null,
            "id": 95,
            "name": "Scarborough—Guildwood"
          }
        ],
        "pollDivisionIds": [
          10141670
        ],
        "postalCode": "M1E5A1",
        "streetName": "EMCARR",
        "streetDirectionId": null,
        "streetTypeId": "DR",
        "placeName": "SCARBOROUGH",
        "streetNameDisplayText": "EMCARR DR, SCARBOROUGH"
      }
    ]
  },
  {
    "postal": "M1E9M9",
    "result": []
  },
  {
    "postal": "M1E7T6",
    "result": []
  },
  {
    "postal": "M1E3X0",
    "result": []
  },
  {
    "postal": "M1E2T0",
    "result": []
  },
  {
    "postal": "M1E5X9",
    "result": []
  },
  {
    "postal": "M1E2R3",
    "result": [
      {
        "electoralDistricts": [
          {
            "election": null,
            "id": 95,
            "name": "Scarborough—Guildwood"
          }
        ],
        "pollDivisionIds": [
          10141668
        ],
        "postalCode": "M1E2R3",
        "streetName": "LAWRENCE",
        "streetDirectionId": "E",
        "streetTypeId": "AVE",
        "placeName": "SCARBOROUGH",
        "streetNameDisplayText": "LAWRENCE AVE E, SCARBOROUGH"
      }
    ]
  },
  {
    "postal": "M1E5N2",
    "result": []
  },
  {
    "postal": "M1E4Y7",
    "result": [
      {
        "electoralDistricts": [
          {
            "election": null,
            "id": 97,
            "name": "Scarborough—Rouge Park"
          }
        ],
        "pollDivisionIds": [
          10141747
        ],
        "postalCode": "M1E4Y7",
        "streetName": "KINGSTON",
        "streetDirectionId": null,
        "streetTypeId": "RD",
        "placeName": "SCARBOROUGH",
        "streetNameDisplayText": "KINGSTON RD, SCARBOROUGH"
      }
    ]
  },
  {
    "postal": "M1E7M0",
    "result": []
  },
  {
    "postal": "M1E8P3",
    "result": []
  },
  {
    "postal": "M1E3N3",
    "result": [
      {
        "electoralDistricts": [
          {
            "election": null,
            "id": 97,
            "name": "Scarborough—Rouge Park"
          }
        ],
        "pollDivisionIds": [
          10141749
        ],
        "postalCode": "M1E3N3",
        "streetName": "CATHLO",
        "streetDirectionId": null,
        "streetTypeId": "ST",
        "placeName": "SCARBOROUGH",
        "streetNameDisplayText": "CATHLO ST, SCARBOROUGH"
      }
    ]
  },
  {
    "postal": "M1E7S3",
    "result": []
  },
  {
    "postal": "M1E3V9",
    "result": [
      {
        "electoralDistricts": [
          {
            "election": null,
            "id": 97,
            "name": "Scarborough—Rouge Park"
          }
        ],
        "pollDivisionIds": [
          10141749
        ],
        "postalCode": "M1E3V9",
        "streetName": "VALIA",
        "streetDirectionId": null,
        "streetTypeId": "RD",
        "placeName": "SCARBOROUGH",
        "streetNameDisplayText": "VALIA RD, SCARBOROUGH"
      }
    ]
  },
  {
    "postal": "M1E9N7",
    "result": []
  },
  {
    "postal": "M1E0G4",
    "result": []
  },
  {
    "postal": "M1E2E2",
    "result": [
      {
        "electoralDistricts": [
          {
            "election": null,
            "id": 95,
            "name": "Scarborough—Guildwood"
          }
        ],
        "pollDivisionIds": [
          10141670
        ],
        "postalCode": "M1E2E2",
        "streetName": "CULTRA",
        "streetDirectionId": null,
        "streetTypeId": "SQ",
        "placeName": "SCARBOROUGH",
        "streetNameDisplayText": "CULTRA SQ, SCARBOROUGH"
      }
    ]
  },
  {
    "postal": "M1E7W8",
    "result": []
  },
  {
    "postal": "M1E7M5",
    "result": []
  },
  {
    "postal": "M1E5W8",
    "result": []
  },
  {
    "postal": "M1E5E5",
    "result": [
      {
        "electoralDistricts": [
          {
            "election": null,
            "id": 95,
            "name": "Scarborough—Guildwood"
          }
        ],
        "pollDivisionIds": [
          10141643
        ],
        "postalCode": "M1E5E5",
        "streetName": "DAVID",
        "streetDirectionId": null,
        "streetTypeId": "DR",
        "placeName": "SCARBOROUGH",
        "streetNameDisplayText": "DAVID DR, SCARBOROUGH"
      }
    ]
  },
  {
    "postal": "M1E1P9",
    "result": [
      {
        "electoralDistricts": [
          {
            "election": null,
            "id": 95,
            "name": "Scarborough—Guildwood"
          }
        ],
        "pollDivisionIds": [
          10141680
        ],
        "postalCode": "M1E1P9",
        "streetName": "GUILDWOOD",
        "streetDirectionId": null,
        "streetTypeId": "PKY",
        "placeName": "SCARBOROUGH",
        "streetNameDisplayText": "GUILDWOOD PKY, SCARBOROUGH"
      }
    ]
  },
  {
    "postal": "M1E8V8",
    "result": []
  },
  {
    "postal": "M1E9G8",
    "result": []
  },
  {
    "postal": "M1E8H9",
    "result": []
  },
  {
    "postal": "M1E1Z1",
    "result": [
      {
        "electoralDistricts": [
          {
            "election": null,
            "id": 95,
            "name": "Scarborough—Guildwood"
          }
        ],
        "pollDivisionIds": [
          10141680,
          10141670
        ],
        "postalCode": "M1E1Z1",
        "streetName": "POPLAR",
        "streetDirectionId": null,
        "streetTypeId": "RD",
        "placeName": "SCARBOROUGH",
        "streetNameDisplayText": "POPLAR RD, SCARBOROUGH"
      }
    ]
  },
  {
    "postal": "M1E8M3",
    "result": []
  },
  {
    "postal": "M1E5H6",
    "result": []
  },
  {
    "postal": "M1E7W7",
    "result": []
  },
  {
    "postal": "M1E4L0",
    "result": []
  },
  {
    "postal": "M1E2N1",
    "result": [
      {
        "electoralDistricts": [
          {
            "election": null,
            "id": 95,
            "name": "Scarborough—Guildwood"
          }
        ],
        "pollDivisionIds": [
          10141670
        ],
        "postalCode": "M1E2N1",
        "streetName": "KINGSTON",
        "streetDirectionId": null,
        "streetTypeId": "RD",
        "placeName": "SCARBOROUGH",
        "streetNameDisplayText": "KINGSTON RD, SCARBOROUGH"
      }
    ]
  },
  {
    "postal": "M1E2H4",
    "result": [
      {
        "electoralDistricts": [
          {
            "election": null,
            "id": 95,
            "name": "Scarborough—Guildwood"
          }
        ],
        "pollDivisionIds": [
          10141671
        ],
        "postalCode": "M1E2H4",
        "streetName": "CORONATION",
        "streetDirectionId": null,
        "streetTypeId": "DR",
        "placeName": "SCARBOROUGH",
        "streetNameDisplayText": "CORONATION DR, SCARBOROUGH"
      }
    ]
  },
  {
    "postal": "M1E5C8",
    "result": []
  },
  {
    "postal": "M1E8B0",
    "result": []
  },
  {
    "postal": "M1E1T4",
    "result": [
      {
        "electoralDistricts": [
          {
            "election": null,
            "id": 95,
            "name": "Scarborough—Guildwood"
          }
        ],
        "pollDivisionIds": [
          10141670
        ],
        "postalCode": "M1E1T4",
        "streetName": "LALTON",
        "streetDirectionId": null,
        "streetTypeId": "PL",
        "placeName": "SCARBOROUGH",
        "streetNameDisplayText": "LALTON PL, SCARBOROUGH"
      }
    ]
  },
  {
    "postal": "M1E7N7",
    "result": []
  },
  {
    "postal": "M1E4L3",
    "result": [
      {
        "electoralDistricts": [
          {
            "election": null,
            "id": 95,
            "name": "Scarborough—Guildwood"
          }
        ],
        "pollDivisionIds": [
          10141643
        ],
        "postalCode": "M1E4L3",
        "streetName": "EDENMILLS",
        "streetDirectionId": null,
        "streetTypeId": "DR",
        "placeName": "SCARBOROUGH",
        "streetNameDisplayText": "EDENMILLS DR, SCARBOROUGH"
      }
    ]
  },
  {
    "postal": "M1E2N2",
    "result": [
      {
        "electoralDistricts": [
          {
            "election": null,
            "id": 95,
            "name": "Scarborough—Guildwood"
          }
        ],
        "pollDivisionIds": [
          10141671
        ],
        "postalCode": "M1E2N2",
        "streetName": "KINGSTON",
        "streetDirectionId": null,
        "streetTypeId": "RD",
        "placeName": "SCARBOROUGH",
        "streetNameDisplayText": "KINGSTON RD, SCARBOROUGH"
      }
    ]
  },
  {
    "postal": "M1E4N8",
    "result": [
      {
        "electoralDistricts": [
          {
            "election": null,
            "id": 95,
            "name": "Scarborough—Guildwood"
          }
        ],
        "pollDivisionIds": [
          10141643
        ],
        "postalCode": "M1E4N8",
        "streetName": "SKYRIDGE",
        "streetDirectionId": null,
        "streetTypeId": "RD",
        "placeName": "SCARBOROUGH",
        "streetNameDisplayText": "SKYRIDGE RD, SCARBOROUGH"
      }
    ]
  },
  {
    "postal": "M1E3M5",
    "result": [
      {
        "electoralDistricts": [
          {
            "election": null,
            "id": 97,
            "name": "Scarborough—Rouge Park"
          }
        ],
        "pollDivisionIds": [
          10141749
        ],
        "postalCode": "M1E3M5",
        "streetName": "DUNSTALL",
        "streetDirectionId": null,
        "streetTypeId": "CRES",
        "placeName": "SCARBOROUGH",
        "streetNameDisplayText": "DUNSTALL CRES, SCARBOROUGH"
      }
    ]
  },
  {
    "postal": "M1E6H7",
    "result": []
  },
  {
    "postal": "M1E8Y8",
    "result": []
  },
  {
    "postal": "M1E5R9",
    "result": []
  },
  {
    "postal": "M1E8G3",
    "result": []
  },
  {
    "postal": "M1E4N7",
    "result": [
      {
        "electoralDistricts": [
          {
            "election": null,
            "id": 95,
            "name": "Scarborough—Guildwood"
          }
        ],
        "pollDivisionIds": [
          10141643
        ],
        "postalCode": "M1E4N7",
        "streetName": "SKYRIDGE",
        "streetDirectionId": null,
        "streetTypeId": "RD",
        "placeName": "SCARBOROUGH",
        "streetNameDisplayText": "SKYRIDGE RD, SCARBOROUGH"
      }
    ]
  },
  {
    "postal": "M1E0B9",
    "result": [
      {
        "electoralDistricts": [
          {
            "election": null,
            "id": 95,
            "name": "Scarborough—Guildwood"
          }
        ],
        "pollDivisionIds": [
          10141659
        ],
        "postalCode": "M1E0B9",
        "streetName": "FALAISE",
        "streetDirectionId": null,
        "streetTypeId": "RD",
        "placeName": "SCARBOROUGH",
        "streetNameDisplayText": "FALAISE RD, SCARBOROUGH"
      }
    ]
  },
  {
    "postal": "M1E9K7",
    "result": []
  },
  {
    "postal": "M1E9K9",
    "result": []
  },
  {
    "postal": "M1E3Z2",
    "result": [
      {
        "electoralDistricts": [
          {
            "election": null,
            "id": 97,
            "name": "Scarborough—Rouge Park"
          }
        ],
        "pollDivisionIds": [
          10141749
        ],
        "postalCode": "M1E3Z2",
        "streetName": "BRIGHTSIDE",
        "streetDirectionId": null,
        "streetTypeId": "DR",
        "placeName": "SCARBOROUGH",
        "streetNameDisplayText": "BRIGHTSIDE DR, SCARBOROUGH"
      }
    ]
  },
  {
    "postal": "M1E6W7",
    "result": []
  },
  {
    "postal": "M1E0P1",
    "result": []
  },
  {
    "postal": "M1E3A0",
    "result": []
  },
  {
    "postal": "M1E8L9",
    "result": []
  },
  {
    "postal": "M1E6X0",
    "result": []
  },
  {
    "postal": "M1E3E9",
    "result": [
      {
        "electoralDistricts": [
          {
            "election": null,
            "id": 95,
            "name": "Scarborough—Guildwood"
          }
        ],
        "pollDivisionIds": [
          10141659
        ],
        "postalCode": "M1E3E9",
        "streetName": "MORNINGSIDE",
        "streetDirectionId": null,
        "streetTypeId": "AVE",
        "placeName": "SCARBOROUGH",
        "streetNameDisplayText": "MORNINGSIDE AVE, SCARBOROUGH"
      }
    ]
  },
  {
    "postal": "M1E0S5",
    "result": []
  },
  {
    "postal": "M1E1A2",
    "result": [
      {
        "electoralDistricts": [
          {
            "election": null,
            "id": 95,
            "name": "Scarborough—Guildwood"
          }
        ],
        "pollDivisionIds": [
          10141676
        ],
        "postalCode": "M1E1A2",
        "streetName": "SOUTH MARINE",
        "streetDirectionId": null,
        "streetTypeId": "DR",
        "placeName": "SCARBOROUGH",
        "streetNameDisplayText": "SOUTH MARINE DR, SCARBOROUGH"
      }
    ]
  },
  {
    "postal": "M1E5V8",
    "result": []
  },
  {
    "postal": "M1E8C5",
    "result": []
  },
  {
    "postal": "M1E6N0",
    "result": []
  },
  {
    "postal": "M1E9E6",
    "result": []
  },
  {
    "postal": "M1E5J7",
    "result": [
      {
        "electoralDistricts": [
          {
            "election": null,
            "id": 97,
            "name": "Scarborough—Rouge Park"
          }
        ],
        "pollDivisionIds": [
          10141747
        ],
        "postalCode": "M1E5J7",
        "streetName": "PLUMROSE",
        "streetDirectionId": null,
        "streetTypeId": "BLVD",
        "placeName": "SCARBOROUGH",
        "streetNameDisplayText": "PLUMROSE BLVD, SCARBOROUGH"
      }
    ]
  },
  {
    "postal": "M1E2R2",
    "result": [
      {
        "electoralDistricts": [
          {
            "election": null,
            "id": 95,
            "name": "Scarborough—Guildwood"
          }
        ],
        "pollDivisionIds": [
          10141668
        ],
        "postalCode": "M1E2R2",
        "streetName": "LAWRENCE",
        "streetDirectionId": "E",
        "streetTypeId": "AVE",
        "placeName": "SCARBOROUGH",
        "streetNameDisplayText": "LAWRENCE AVE E, SCARBOROUGH"
      }
    ]
  },
  {
    "postal": "M1E0P5",
    "result": []
  },
  {
    "postal": "M1E5A7",
    "result": [
      {
        "electoralDistricts": [
          {
            "election": null,
            "id": 95,
            "name": "Scarborough—Guildwood"
          }
        ],
        "pollDivisionIds": [
          10141670
        ],
        "postalCode": "M1E5A7",
        "streetName": "PAYZAC",
        "streetDirectionId": null,
        "streetTypeId": "AVE",
        "placeName": "SCARBOROUGH",
        "streetNameDisplayText": "PAYZAC AVE, SCARBOROUGH"
      }
    ]
  },
  {
    "postal": "M1E1G1",
    "result": [
      {
        "electoralDistricts": [
          {
            "election": null,
            "id": 95,
            "name": "Scarborough—Guildwood"
          }
        ],
        "pollDivisionIds": [
          10141680
        ],
        "postalCode": "M1E1G1",
        "streetName": "TOYNBEE",
        "streetDirectionId": null,
        "streetTypeId": "TRAIL",
        "placeName": "SCARBOROUGH",
        "streetNameDisplayText": "TOYNBEE TRAIL, SCARBOROUGH"
      }
    ]
  },
  {
    "postal": "M1E9R6",
    "result": []
  },
  {
    "postal": "M1E4Z9",
    "result": [
      {
        "electoralDistricts": [
          {
            "election": null,
            "id": 95,
            "name": "Scarborough—Guildwood"
          }
        ],
        "pollDivisionIds": [
          10141670
        ],
        "postalCode": "M1E4Z9",
        "streetName": "EMCARR",
        "streetDirectionId": null,
        "streetTypeId": "DR",
        "placeName": "SCARBOROUGH",
        "streetNameDisplayText": "EMCARR DR, SCARBOROUGH"
      }
    ]
  },
  {
    "postal": "M1E1V5",
    "result": [
      {
        "electoralDistricts": [
          {
            "election": null,
            "id": 97,
            "name": "Scarborough—Rouge Park"
          }
        ],
        "pollDivisionIds": [
          10141748
        ],
        "postalCode": "M1E1V5",
        "streetName": "FINTONA",
        "streetDirectionId": null,
        "streetTypeId": "AVE",
        "placeName": "SCARBOROUGH",
        "streetNameDisplayText": "FINTONA AVE, SCARBOROUGH"
      }
    ]
  },
  {
    "postal": "M1E9Y5",
    "result": []
  },
  {
    "postal": "M1E1P2",
    "result": [
      {
        "electoralDistricts": [
          {
            "election": null,
            "id": 95,
            "name": "Scarborough—Guildwood"
          }
        ],
        "pollDivisionIds": [
          10141677
        ],
        "postalCode": "M1E1P2",
        "streetName": "GUILDWOOD",
        "streetDirectionId": "E",
        "streetTypeId": "PKY",
        "placeName": "SCARBOROUGH",
        "streetNameDisplayText": "GUILDWOOD PKY E, SCARBOROUGH"
      },
      {
        "electoralDistricts": [
          {
            "election": null,
            "id": 95,
            "name": "Scarborough—Guildwood"
          }
        ],
        "pollDivisionIds": [
          10141677
        ],
        "postalCode": "M1E1P2",
        "streetName": "GUILDWOOD",
        "streetDirectionId": null,
        "streetTypeId": "PKY",
        "placeName": "SCARBOROUGH",
        "streetNameDisplayText": "GUILDWOOD PKY, SCARBOROUGH"
      }
    ]
  },
  {
    "postal": "M1E5X0",
    "result": []
  },
  {
    "postal": "M1E7B8",
    "result": []
  },
  {
    "postal": "M1E0C6",
    "result": []
  },
  {
    "postal": "M1E6G1",
    "result": []
  },
  {
    "postal": "M1E3K3",
    "result": [
      {
        "electoralDistricts": [
          {
            "election": null,
            "id": 97,
            "name": "Scarborough—Rouge Park"
          }
        ],
        "pollDivisionIds": [
          10141749
        ],
        "postalCode": "M1E3K3",
        "streetName": "WOODGARDEN",
        "streetDirectionId": null,
        "streetTypeId": "CRES",
        "placeName": "SCARBOROUGH",
        "streetNameDisplayText": "WOODGARDEN CRES, SCARBOROUGH"
      }
    ]
  },
  {
    "postal": "M1E9R0",
    "result": []
  },
  {
    "postal": "M1E4R8",
    "result": []
  },
  {
    "postal": "M1E5P9",
    "result": []
  },
  {
    "postal": "M1E8N4",
    "result": []
  },
  {
    "postal": "M1E8H4",
    "result": []
  },
  {
    "postal": "M1E4V1",
    "result": [
      {
        "electoralDistricts": [
          {
            "election": null,
            "id": 97,
            "name": "Scarborough—Rouge Park"
          }
        ],
        "pollDivisionIds": [
          10141748
        ],
        "postalCode": "M1E4V1",
        "streetName": "CORONATION",
        "streetDirectionId": null,
        "streetTypeId": "DR",
        "placeName": "SCARBOROUGH",
        "streetNameDisplayText": "CORONATION DR, SCARBOROUGH"
      }
    ]
  },
  {
    "postal": "M1E1K5",
    "result": [
      {
        "electoralDistricts": [
          {
            "election": null,
            "id": 95,
            "name": "Scarborough—Guildwood"
          }
        ],
        "pollDivisionIds": [
          10141680
        ],
        "postalCode": "M1E1K5",
        "streetName": "LEVERHUME",
        "streetDirectionId": null,
        "streetTypeId": "CRES",
        "placeName": "SCARBOROUGH",
        "streetNameDisplayText": "LEVERHUME CRES, SCARBOROUGH"
      }
    ]
  },
  {
    "postal": "M1E1Z5",
    "result": [
      {
        "electoralDistricts": [
          {
            "election": null,
            "id": 94,
            "name": "Scarborough Centre"
          }
        ],
        "pollDivisionIds": [
          10141592
        ],
        "postalCode": "M1E1Z5",
        "streetName": "POLLARD",
        "streetDirectionId": null,
        "streetTypeId": "RD",
        "placeName": "SCARBOROUGH",
        "streetNameDisplayText": "POLLARD RD, SCARBOROUGH"
      },
      {
        "electoralDistricts": [
          {
            "election": null,
            "id": 95,
            "name": "Scarborough—Guildwood"
          }
        ],
        "pollDivisionIds": [
          10141670
        ],
        "postalCode": "M1E1Z5",
        "streetName": "POPLAR",
        "streetDirectionId": null,
        "streetTypeId": "RD",
        "placeName": "SCARBOROUGH",
        "streetNameDisplayText": "POPLAR RD, SCARBOROUGH"
      }
    ]
  },
  {
    "postal": "M1E9L9",
    "result": []
  },
  {
    "postal": "M1E5L2",
    "result": [
      {
        "electoralDistricts": [
          {
            "election": null,
            "id": 95,
            "name": "Scarborough—Guildwood"
          }
        ],
        "pollDivisionIds": [
          10141643
        ],
        "postalCode": "M1E5L2",
        "streetName": "CINDY NICHOLAS",
        "streetDirectionId": null,
        "streetTypeId": "DR",
        "placeName": "SCARBOROUGH",
        "streetNameDisplayText": "CINDY NICHOLAS DR, SCARBOROUGH"
      }
    ]
  },
  {
    "postal": "M1E0M2",
    "result": []
  },
  {
    "postal": "M1E1K8",
    "result": [
      {
        "electoralDistricts": [
          {
            "election": null,
            "id": 95,
            "name": "Scarborough—Guildwood"
          }
        ],
        "pollDivisionIds": [
          10141677
        ],
        "postalCode": "M1E1K8",
        "streetName": "LIVINGSTON",
        "streetDirectionId": null,
        "streetTypeId": "RD",
        "placeName": "SCARBOROUGH",
        "streetNameDisplayText": "LIVINGSTON RD, SCARBOROUGH"
      }
    ]
  },
  {
    "postal": "M1E3M7",
    "result": [
      {
        "electoralDistricts": [
          {
            "election": null,
            "id": 97,
            "name": "Scarborough—Rouge Park"
          }
        ],
        "pollDivisionIds": [
          10141749
        ],
        "postalCode": "M1E3M7",
        "streetName": "BETHLEY",
        "streetDirectionId": null,
        "streetTypeId": "DR",
        "placeName": "SCARBOROUGH",
        "streetNameDisplayText": "BETHLEY DR, SCARBOROUGH"
      }
    ]
  },
  {
    "postal": "M1E1B2",
    "result": [
      {
        "electoralDistricts": [
          {
            "election": null,
            "id": 95,
            "name": "Scarborough—Guildwood"
          }
        ],
        "pollDivisionIds": [
          10141677
        ],
        "postalCode": "M1E1B2",
        "streetName": "BLEDLOW MANOR",
        "streetDirectionId": null,
        "streetTypeId": "DR",
        "placeName": "SCARBOROUGH",
        "streetNameDisplayText": "BLEDLOW MANOR DR, SCARBOROUGH"
      }
    ]
  },
  {
    "postal": "M1E0H9",
    "result": []
  },
  {
    "postal": "M1E8M4",
    "result": []
  },
  {
    "postal": "M1E2M5",
    "result": [
      {
        "electoralDistricts": [
          {
            "election": null,
            "id": 95,
            "name": "Scarborough—Guildwood"
          }
        ],
        "pollDivisionIds": [
          10141670
        ],
        "postalCode": "M1E2M5",
        "streetName": "KINGSTON",
        "streetDirectionId": null,
        "streetTypeId": "RD",
        "placeName": "SCARBOROUGH",
        "streetNameDisplayText": "KINGSTON RD, SCARBOROUGH"
      }
    ]
  },
  {
    "postal": "M1E0T9",
    "result": []
  },
  {
    "postal": "M1E3P1",
    "result": [
      {
        "electoralDistricts": [
          {
            "election": null,
            "id": 97,
            "name": "Scarborough—Rouge Park"
          }
        ],
        "pollDivisionIds": [
          10141748
        ],
        "postalCode": "M1E3P1",
        "streetName": "DARLINGSIDE",
        "streetDirectionId": null,
        "streetTypeId": "DR",
        "placeName": "SCARBOROUGH",
        "streetNameDisplayText": "DARLINGSIDE DR, SCARBOROUGH"
      }
    ]
  },
  {
    "postal": "M1E1R6",
    "result": [
      {
        "electoralDistricts": [
          {
            "election": null,
            "id": 95,
            "name": "Scarborough—Guildwood"
          }
        ],
        "pollDivisionIds": [
          10141680
        ],
        "postalCode": "M1E1R6",
        "streetName": "GUILDWOOD",
        "streetDirectionId": null,
        "streetTypeId": "PKY",
        "placeName": "SCARBOROUGH",
        "streetNameDisplayText": "GUILDWOOD PKY, SCARBOROUGH"
      }
    ]
  },
  {
    "postal": "M1E9V5",
    "result": []
  },
  {
    "postal": "M1E9T0",
    "result": []
  },
  {
    "postal": "M1E0A9",
    "result": [
      {
        "electoralDistricts": [
          {
            "election": null,
            "id": 97,
            "name": "Scarborough—Rouge Park"
          }
        ],
        "pollDivisionIds": [
          10141748
        ],
        "postalCode": "M1E0A9",
        "streetName": "HAINFORD",
        "streetDirectionId": null,
        "streetTypeId": "ST",
        "placeName": "SCARBOROUGH",
        "streetNameDisplayText": "HAINFORD ST, SCARBOROUGH"
      }
    ]
  },
  {
    "postal": "M1E1M3",
    "result": [
      {
        "electoralDistricts": [
          {
            "election": null,
            "id": 95,
            "name": "Scarborough—Guildwood"
          }
        ],
        "pollDivisionIds": [
          10141680
        ],
        "postalCode": "M1E1M3",
        "streetName": "LIVINGSTON",
        "streetDirectionId": null,
        "streetTypeId": "RD",
        "placeName": "SCARBOROUGH",
        "streetNameDisplayText": "LIVINGSTON RD, SCARBOROUGH"
      }
    ]
  },
  {
    "postal": "M1E1W8",
    "result": [
      {
        "electoralDistricts": [
          {
            "election": null,
            "id": 95,
            "name": "Scarborough—Guildwood"
          }
        ],
        "pollDivisionIds": [
          10141670
        ],
        "postalCode": "M1E1W8",
        "streetName": "GALLOWAY",
        "streetDirectionId": null,
        "streetTypeId": "RD",
        "placeName": "SCARBOROUGH",
        "streetNameDisplayText": "GALLOWAY RD, SCARBOROUGH"
      }
    ]
  },
  {
    "postal": "M1E9J1",
    "result": []
  },
  {
    "postal": "M1E8N5",
    "result": []
  },
  {
    "postal": "M1E5X1",
    "result": []
  },
  {
    "postal": "M1E6S2",
    "result": []
  },
  {
    "postal": "M1E2A2",
    "result": [
      {
        "electoralDistricts": [
          {
            "election": null,
            "id": 95,
            "name": "Scarborough—Guildwood"
          }
        ],
        "pollDivisionIds": [
          10141670,
          10141680
        ],
        "postalCode": "M1E2A2",
        "streetName": "SCARCLIFF",
        "streetDirectionId": null,
        "streetTypeId": "GDNS",
        "placeName": "SCARBOROUGH",
        "streetNameDisplayText": "SCARCLIFF GDNS, SCARBOROUGH"
      }
    ]
  },
  {
    "postal": "M1E6A6",
    "result": []
  },
  {
    "postal": "M1E0S3",
    "result": []
  },
  {
    "postal": "M1E3E7",
    "result": [
      {
        "electoralDistricts": [
          {
            "election": null,
            "id": 95,
            "name": "Scarborough—Guildwood"
          }
        ],
        "pollDivisionIds": [
          10141659
        ],
        "postalCode": "M1E3E7",
        "streetName": "MORNINGSIDE",
        "streetDirectionId": null,
        "streetTypeId": "AVE",
        "placeName": "SCARBOROUGH",
        "streetNameDisplayText": "MORNINGSIDE AVE, SCARBOROUGH"
      }
    ]
  },
  {
    "postal": "M1E5R7",
    "result": []
  },
  {
    "postal": "M1E3R6",
    "result": [
      {
        "electoralDistricts": [
          {
            "election": null,
            "id": 97,
            "name": "Scarborough—Rouge Park"
          }
        ],
        "pollDivisionIds": [
          10141748
        ],
        "postalCode": "M1E3R6",
        "streetName": "DEEKSHILL",
        "streetDirectionId": null,
        "streetTypeId": "DR",
        "placeName": "SCARBOROUGH",
        "streetNameDisplayText": "DEEKSHILL DR, SCARBOROUGH"
      }
    ]
  },
  {
    "postal": "M1E6K4",
    "result": []
  },
  {
    "postal": "M1E2W5",
    "result": [
      {
        "electoralDistricts": [
          {
            "election": null,
            "id": 95,
            "name": "Scarborough—Guildwood"
          }
        ],
        "pollDivisionIds": [
          10141668
        ],
        "postalCode": "M1E2W5",
        "streetName": "OVERTURE",
        "streetDirectionId": null,
        "streetTypeId": "RD",
        "placeName": "SCARBOROUGH",
        "streetNameDisplayText": "OVERTURE RD, SCARBOROUGH"
      }
    ]
  },
  {
    "postal": "M1E8W4",
    "result": []
  },
  {
    "postal": "M1E9C2",
    "result": []
  },
  {
    "postal": "M1E2C0",
    "result": []
  },
  {
    "postal": "M1E0E1",
    "result": []
  },
  {
    "postal": "M1E1K9",
    "result": [
      {
        "electoralDistricts": [
          {
            "election": null,
            "id": 95,
            "name": "Scarborough—Guildwood"
          }
        ],
        "pollDivisionIds": [
          10141677
        ],
        "postalCode": "M1E1K9",
        "streetName": "LIVINGSTON",
        "streetDirectionId": null,
        "streetTypeId": "RD",
        "placeName": "SCARBOROUGH",
        "streetNameDisplayText": "LIVINGSTON RD, SCARBOROUGH"
      }
    ]
  },
  {
    "postal": "M1E1G7",
    "result": [
      {
        "electoralDistricts": [
          {
            "election": null,
            "id": 95,
            "name": "Scarborough—Guildwood"
          }
        ],
        "pollDivisionIds": [
          10141680
        ],
        "postalCode": "M1E1G7",
        "streetName": "TOYNBEE",
        "streetDirectionId": null,
        "streetTypeId": "TRAIL",
        "placeName": "SCARBOROUGH",
        "streetNameDisplayText": "TOYNBEE TRAIL, SCARBOROUGH"
      }
    ]
  },
  {
    "postal": "M1E4E9",
    "result": [
      {
        "electoralDistricts": [
          {
            "election": null,
            "id": 95,
            "name": "Scarborough—Guildwood"
          }
        ],
        "pollDivisionIds": [
          10141642
        ],
        "postalCode": "M1E4E9",
        "streetName": "OAKMEADOW",
        "streetDirectionId": null,
        "streetTypeId": "BLVD",
        "placeName": "SCARBOROUGH",
        "streetNameDisplayText": "OAKMEADOW BLVD, SCARBOROUGH"
      }
    ]
  },
  {
    "postal": "M1E9P0",
    "result": []
  },
  {
    "postal": "M1E5H3",
    "result": [
      {
        "electoralDistricts": [
          {
            "election": null,
            "id": 95,
            "name": "Scarborough—Guildwood"
          }
        ],
        "pollDivisionIds": [
          10141669
        ],
        "postalCode": "M1E5H3",
        "streetName": "GALLOWAY",
        "streetDirectionId": null,
        "streetTypeId": "RD",
        "placeName": "SCARBOROUGH",
        "streetNameDisplayText": "GALLOWAY RD, SCARBOROUGH"
      }
    ]
  },
  {
    "postal": "M1E9X6",
    "result": []
  },
  {
    "postal": "M1E5N7",
    "result": []
  },
  {
    "postal": "M1E5A6",
    "result": [
      {
        "electoralDistricts": [
          {
            "election": null,
            "id": 97,
            "name": "Scarborough—Rouge Park"
          }
        ],
        "pollDivisionIds": [
          10141748
        ],
        "postalCode": "M1E5A6",
        "streetName": "MANSEWOOD",
        "streetDirectionId": null,
        "streetTypeId": "GDNS",
        "placeName": "SCARBOROUGH",
        "streetNameDisplayText": "MANSEWOOD GDNS, SCARBOROUGH"
      }
    ]
  },
  {
    "postal": "M1E4M0",
    "result": []
  },
  {
    "postal": "M1E3V6",
    "result": [
      {
        "electoralDistricts": [
          {
            "election": null,
            "id": 97,
            "name": "Scarborough—Rouge Park"
          }
        ],
        "pollDivisionIds": [
          10141747
        ],
        "postalCode": "M1E3V6",
        "streetName": "MANSE",
        "streetDirectionId": null,
        "streetTypeId": "RD",
        "placeName": "SCARBOROUGH",
        "streetNameDisplayText": "MANSE RD, SCARBOROUGH"
      }
    ]
  },
  {
    "postal": "M1E1L7",
    "result": [
      {
        "electoralDistricts": [
          {
            "election": null,
            "id": 95,
            "name": "Scarborough—Guildwood"
          }
        ],
        "pollDivisionIds": [
          10141680
        ],
        "postalCode": "M1E1L7",
        "streetName": "LIVINGSTON",
        "streetDirectionId": null,
        "streetTypeId": "RD",
        "placeName": "SCARBOROUGH",
        "streetNameDisplayText": "LIVINGSTON RD, SCARBOROUGH"
      }
    ]
  },
  {
    "postal": "M1E2P9",
    "result": [
      {
        "electoralDistricts": [
          {
            "election": null,
            "id": 97,
            "name": "Scarborough—Rouge Park"
          }
        ],
        "pollDivisionIds": [
          10141747
        ],
        "postalCode": "M1E2P9",
        "streetName": "KINGSTON",
        "streetDirectionId": null,
        "streetTypeId": "RD",
        "placeName": "SCARBOROUGH",
        "streetNameDisplayText": "KINGSTON RD, SCARBOROUGH"
      }
    ]
  },
  {
    "postal": "M1E5T4",
    "result": []
  },
  {
    "postal": "M1E5Z1",
    "result": []
  },
  {
    "postal": "M1E2X0",
    "result": []
  },
  {
    "postal": "M1E6Z2",
    "result": []
  },
  {
    "postal": "M1E0E0",
    "result": []
  },
  {
    "postal": "M1E3Z5",
    "result": [
      {
        "electoralDistricts": [
          {
            "election": null,
            "id": 97,
            "name": "Scarborough—Rouge Park"
          }
        ],
        "pollDivisionIds": [
          10141749
        ],
        "postalCode": "M1E3Z5",
        "streetName": "BEECHGROVE",
        "streetDirectionId": null,
        "streetTypeId": "DR",
        "placeName": "SCARBOROUGH",
        "streetNameDisplayText": "BEECHGROVE DR, SCARBOROUGH"
      }
    ]
  },
  {
    "postal": "M1E8H3",
    "result": []
  },
  {
    "postal": "M1E7S6",
    "result": []
  },
  {
    "postal": "M1E4C1",
    "result": [
      {
        "electoralDistricts": [
          {
            "election": null,
            "id": 95,
            "name": "Scarborough—Guildwood"
          }
        ],
        "pollDivisionIds": [
          10141689
        ],
        "postalCode": "M1E4C1",
        "streetName": "ELLESMERE",
        "streetDirectionId": null,
        "streetTypeId": "RD",
        "placeName": "SCARBOROUGH",
        "streetNameDisplayText": "ELLESMERE RD, SCARBOROUGH"
      }
    ]
  },
  {
    "postal": "M1E3K2",
    "result": [
      {
        "electoralDistricts": [
          {
            "election": null,
            "id": 97,
            "name": "Scarborough—Rouge Park"
          }
        ],
        "pollDivisionIds": [
          10141749
        ],
        "postalCode": "M1E3K2",
        "streetName": "WOODGARDEN",
        "streetDirectionId": null,
        "streetTypeId": "CRES",
        "placeName": "SCARBOROUGH",
        "streetNameDisplayText": "WOODGARDEN CRES, SCARBOROUGH"
      }
    ]
  },
  {
    "postal": "M1E1Y5",
    "result": [
      {
        "electoralDistricts": [
          {
            "election": null,
            "id": 95,
            "name": "Scarborough—Guildwood"
          }
        ],
        "pollDivisionIds": [
          10141670
        ],
        "postalCode": "M1E1Y5",
        "streetName": "LAUSANNE",
        "streetDirectionId": null,
        "streetTypeId": "CRES",
        "placeName": "SCARBOROUGH",
        "streetNameDisplayText": "LAUSANNE CRES, SCARBOROUGH"
      }
    ]
  },
  {
    "postal": "M1E6P6",
    "result": []
  },
  {
    "postal": "M1E3N9",
    "result": [
      {
        "electoralDistricts": [
          {
            "election": null,
            "id": 97,
            "name": "Scarborough—Rouge Park"
          }
        ],
        "pollDivisionIds": [
          10141748
        ],
        "postalCode": "M1E3N9",
        "streetName": "DARLINGSIDE",
        "streetDirectionId": null,
        "streetTypeId": "DR",
        "placeName": "SCARBOROUGH",
        "streetNameDisplayText": "DARLINGSIDE DR, SCARBOROUGH"
      }
    ]
  },
  {
    "postal": "M1E3W2",
    "result": [
      {
        "electoralDistricts": [
          {
            "election": null,
            "id": 97,
            "name": "Scarborough—Rouge Park"
          }
        ],
        "pollDivisionIds": [
          10141749
        ],
        "postalCode": "M1E3W2",
        "streetName": "VALIA",
        "streetDirectionId": null,
        "streetTypeId": "RD",
        "placeName": "SCARBOROUGH",
        "streetNameDisplayText": "VALIA RD, SCARBOROUGH"
      }
    ]
  },
  {
    "postal": "M1E6H8",
    "result": []
  },
  {
    "postal": "M1E9T3",
    "result": []
  },
  {
    "postal": "M1E5L9",
    "result": []
  },
  {
    "postal": "M1E7X7",
    "result": []
  },
  {
    "postal": "M1E3J5",
    "result": [
      {
        "electoralDistricts": [
          {
            "election": null,
            "id": 97,
            "name": "Scarborough—Rouge Park"
          }
        ],
        "pollDivisionIds": [
          10141747,
          10141768
        ],
        "postalCode": "M1E3J5",
        "streetName": "OLD KINGSTON",
        "streetDirectionId": null,
        "streetTypeId": "RD",
        "placeName": "SCARBOROUGH",
        "streetNameDisplayText": "OLD KINGSTON RD, SCARBOROUGH"
      }
    ]
  },
  {
    "postal": "M1E4J5",
    "result": [
      {
        "electoralDistricts": [
          {
            "election": null,
            "id": 95,
            "name": "Scarborough—Guildwood"
          }
        ],
        "pollDivisionIds": [
          10141642
        ],
        "postalCode": "M1E4J5",
        "streetName": "STONEFIELD",
        "streetDirectionId": null,
        "streetTypeId": "CRES",
        "placeName": "SCARBOROUGH",
        "streetNameDisplayText": "STONEFIELD CRES, SCARBOROUGH"
      }
    ]
  },
  {
    "postal": "M1E6J2",
    "result": []
  },
  {
    "postal": "M1E5V6",
    "result": []
  },
  {
    "postal": "M1E3N2",
    "result": [
      {
        "electoralDistricts": [
          {
            "election": null,
            "id": 97,
            "name": "Scarborough—Rouge Park"
          }
        ],
        "pollDivisionIds": [
          10141749
        ],
        "postalCode": "M1E3N2",
        "streetName": "CATHLO",
        "streetDirectionId": null,
        "streetTypeId": "ST",
        "placeName": "SCARBOROUGH",
        "streetNameDisplayText": "CATHLO ST, SCARBOROUGH"
      }
    ]
  },
  {
    "postal": "M1E3B1",
    "result": [
      {
        "electoralDistricts": [
          {
            "election": null,
            "id": 95,
            "name": "Scarborough—Guildwood"
          }
        ],
        "pollDivisionIds": [
          10141659
        ],
        "postalCode": "M1E3B1",
        "streetName": "WEIR",
        "streetDirectionId": null,
        "streetTypeId": "CRES",
        "placeName": "SCARBOROUGH",
        "streetNameDisplayText": "WEIR CRES, SCARBOROUGH"
      }
    ]
  },
  {
    "postal": "M1E8B5",
    "result": []
  },
  {
    "postal": "M1E0K1",
    "result": []
  },
  {
    "postal": "M1E7M7",
    "result": []
  },
  {
    "postal": "M1E2M2",
    "result": [
      {
        "electoralDistricts": [
          {
            "election": null,
            "id": 95,
            "name": "Scarborough—Guildwood"
          }
        ],
        "pollDivisionIds": [
          10141659
        ],
        "postalCode": "M1E2M2",
        "streetName": "WARNSWORTH",
        "streetDirectionId": null,
        "streetTypeId": "ST",
        "placeName": "SCARBOROUGH",
        "streetNameDisplayText": "WARNSWORTH ST, SCARBOROUGH"
      }
    ]
  },
  {
    "postal": "M1E9N3",
    "result": []
  },
  {
    "postal": "M1E4Y8",
    "result": [
      {
        "electoralDistricts": [
          {
            "election": null,
            "id": 95,
            "name": "Scarborough—Guildwood"
          }
        ],
        "pollDivisionIds": [
          10141674
        ],
        "postalCode": "M1E4Y8",
        "streetName": "GUILDWOOD",
        "streetDirectionId": null,
        "streetTypeId": "PKY",
        "placeName": "SCARBOROUGH",
        "streetNameDisplayText": "GUILDWOOD PKY, SCARBOROUGH"
      }
    ]
  },
  {
    "postal": "M1E3V7",
    "result": [
      {
        "electoralDistricts": [
          {
            "election": null,
            "id": 97,
            "name": "Scarborough—Rouge Park"
          }
        ],
        "pollDivisionIds": [
          10141747
        ],
        "postalCode": "M1E3V7",
        "streetName": "MANSE",
        "streetDirectionId": null,
        "streetTypeId": "RD",
        "placeName": "SCARBOROUGH",
        "streetNameDisplayText": "MANSE RD, SCARBOROUGH"
      }
    ]
  },
  {
    "postal": "M1E8Z1",
    "result": []
  },
  {
    "postal": "M1E7B3",
    "result": []
  },
  {
    "postal": "M1E3A8",
    "result": [
      {
        "electoralDistricts": [
          {
            "election": null,
            "id": 95,
            "name": "Scarborough—Guildwood"
          }
        ],
        "pollDivisionIds": [
          10141659
        ],
        "postalCode": "M1E3A8",
        "streetName": "WEIR",
        "streetDirectionId": null,
        "streetTypeId": "CRES",
        "placeName": "SCARBOROUGH",
        "streetNameDisplayText": "WEIR CRES, SCARBOROUGH"
      }
    ]
  },
  {
    "postal": "M1E7V5",
    "result": []
  },
  {
    "postal": "M1E2T2",
    "result": []
  },
  {
    "postal": "M1E6L3",
    "result": []
  },
  {
    "postal": "M1E0L2",
    "result": []
  },
  {
    "postal": "M1E5Y8",
    "result": []
  },
  {
    "postal": "M1E0B8",
    "result": [
      {
        "electoralDistricts": [
          {
            "election": null,
            "id": 97,
            "name": "Scarborough—Rouge Park"
          }
        ],
        "pollDivisionIds": [
          10141748
        ],
        "postalCode": "M1E0B8",
        "streetName": "HERON PARK",
        "streetDirectionId": null,
        "streetTypeId": "PL",
        "placeName": "SCARBOROUGH",
        "streetNameDisplayText": "HERON PARK PL, SCARBOROUGH"
      }
    ]
  },
  {
    "postal": "M1E6R5",
    "result": []
  },
  {
    "postal": "M1E8W6",
    "result": []
  },
  {
    "postal": "M1E8G6",
    "result": []
  },
  {
    "postal": "M1E6X3",
    "result": []
  },
  {
    "postal": "M1E7R7",
    "result": []
  },
  {
    "postal": "M1E4B6",
    "result": [
      {
        "electoralDistricts": [
          {
            "election": null,
            "id": 97,
            "name": "Scarborough—Rouge Park"
          }
        ],
        "pollDivisionIds": [
          10141749
        ],
        "postalCode": "M1E4B6",
        "streetName": "ATKINSON",
        "streetDirectionId": null,
        "streetTypeId": "AVE",
        "placeName": "SCARBOROUGH",
        "streetNameDisplayText": "ATKINSON AVE, SCARBOROUGH"
      }
    ]
  },
  {
    "postal": "M1E3P9",
    "result": [
      {
        "electoralDistricts": [
          {
            "election": null,
            "id": 97,
            "name": "Scarborough—Rouge Park"
          }
        ],
        "pollDivisionIds": [
          10141748
        ],
        "postalCode": "M1E3P9",
        "streetName": "DONNACONA",
        "streetDirectionId": null,
        "streetTypeId": "CRES",
        "placeName": "SCARBOROUGH",
        "streetNameDisplayText": "DONNACONA CRES, SCARBOROUGH"
      }
    ]
  },
  {
    "postal": "M1E2T3",
    "result": [
      {
        "electoralDistricts": [
          {
            "election": null,
            "id": 97,
            "name": "Scarborough—Rouge Park"
          }
        ],
        "pollDivisionIds": [
          10141749
        ],
        "postalCode": "M1E2T3",
        "streetName": "LAWRENCE",
        "streetDirectionId": "E",
        "streetTypeId": "AVE",
        "placeName": "SCARBOROUGH",
        "streetNameDisplayText": "LAWRENCE AVE E, SCARBOROUGH"
      }
    ]
  },
  {
    "postal": "M1E1M4",
    "result": [
      {
        "electoralDistricts": [
          {
            "election": null,
            "id": 95,
            "name": "Scarborough—Guildwood"
          }
        ],
        "pollDivisionIds": [
          10141669
        ],
        "postalCode": "M1E1M4",
        "streetName": "LIVINGSTON",
        "streetDirectionId": "N",
        "streetTypeId": "RD",
        "placeName": "SCARBOROUGH",
        "streetNameDisplayText": "LIVINGSTON RD N, SCARBOROUGH"
      }
    ]
  },
  {
    "postal": "M1E0H1",
    "result": []
  },
  {
    "postal": "M1E9W3",
    "result": []
  },
  {
    "postal": "M1E6P1",
    "result": []
  },
  {
    "postal": "M1E7G2",
    "result": []
  },
  {
    "postal": "M1E4J9",
    "result": [
      {
        "electoralDistricts": [
          {
            "election": null,
            "id": 95,
            "name": "Scarborough—Guildwood"
          }
        ],
        "pollDivisionIds": [
          10141643
        ],
        "postalCode": "M1E4J9",
        "streetName": "STONECRAFT",
        "streetDirectionId": null,
        "streetTypeId": "PL",
        "placeName": "SCARBOROUGH",
        "streetNameDisplayText": "STONECRAFT PL, SCARBOROUGH"
      }
    ]
  },
  {
    "postal": "M1E9E4",
    "result": []
  },
  {
    "postal": "M1E8H0",
    "result": []
  },
  {
    "postal": "M1E4M7",
    "result": [
      {
        "electoralDistricts": [
          {
            "election": null,
            "id": 95,
            "name": "Scarborough—Guildwood"
          }
        ],
        "pollDivisionIds": [
          10141642
        ],
        "postalCode": "M1E4M7",
        "streetName": "HIGHCASTLE",
        "streetDirectionId": null,
        "streetTypeId": "RD",
        "placeName": "SCARBOROUGH",
        "streetNameDisplayText": "HIGHCASTLE RD, SCARBOROUGH"
      }
    ]
  },
  {
    "postal": "M1E2G9",
    "result": [
      {
        "electoralDistricts": [
          {
            "election": null,
            "id": 95,
            "name": "Scarborough—Guildwood"
          }
        ],
        "pollDivisionIds": [
          10141671
        ],
        "postalCode": "M1E2G9",
        "streetName": "FRENCH",
        "streetDirectionId": null,
        "streetTypeId": "AVE",
        "placeName": "SCARBOROUGH",
        "streetNameDisplayText": "FRENCH AVE, SCARBOROUGH"
      }
    ]
  },
  {
    "postal": "M1E8T2",
    "result": []
  },
  {
    "postal": "M1E7G7",
    "result": []
  },
  {
    "postal": "M1E4Z3",
    "result": [
      {
        "electoralDistricts": [
          {
            "election": null,
            "id": 95,
            "name": "Scarborough—Guildwood"
          }
        ],
        "pollDivisionIds": [
          10141642
        ],
        "postalCode": "M1E4Z3",
        "streetName": "MILITARY",
        "streetDirectionId": null,
        "streetTypeId": "TRAIL",
        "placeName": "SCARBOROUGH",
        "streetNameDisplayText": "MILITARY TRAIL, SCARBOROUGH"
      }
    ]
  },
  {
    "postal": "M1E5B3",
    "result": [
      {
        "electoralDistricts": [
          {
            "election": null,
            "id": 95,
            "name": "Scarborough—Guildwood"
          }
        ],
        "pollDivisionIds": [
          10141670
        ],
        "postalCode": "M1E5B3",
        "streetName": "KINGSTON",
        "streetDirectionId": null,
        "streetTypeId": "RD",
        "placeName": "SCARBOROUGH",
        "streetNameDisplayText": "KINGSTON RD, SCARBOROUGH"
      }
    ]
  },
  {
    "postal": "M1E1S7",
    "result": [
      {
        "electoralDistricts": [
          {
            "election": null,
            "id": 95,
            "name": "Scarborough—Guildwood"
          }
        ],
        "pollDivisionIds": [
          10141670
        ],
        "postalCode": "M1E1S7",
        "streetName": "CUMBER",
        "streetDirectionId": null,
        "streetTypeId": "AVE",
        "placeName": "SCARBOROUGH",
        "streetNameDisplayText": "CUMBER AVE, SCARBOROUGH"
      }
    ]
  },
  {
    "postal": "M1E2N7",
    "result": [
      {
        "electoralDistricts": [
          {
            "election": null,
            "id": 95,
            "name": "Scarborough—Guildwood"
          }
        ],
        "pollDivisionIds": [
          10141659
        ],
        "postalCode": "M1E2N7",
        "streetName": "KINGSTON",
        "streetDirectionId": null,
        "streetTypeId": "RD",
        "placeName": "SCARBOROUGH",
        "streetNameDisplayText": "KINGSTON RD, SCARBOROUGH"
      }
    ]
  },
  {
    "postal": "M1E0H8",
    "result": []
  },
  {
    "postal": "M1E7Z4",
    "result": []
  },
  {
    "postal": "M1E7B1",
    "result": []
  },
  {
    "postal": "M1E7P8",
    "result": []
  },
  {
    "postal": "M1E7N0",
    "result": []
  },
  {
    "postal": "M1E3Y5",
    "result": [
      {
        "electoralDistricts": [
          {
            "election": null,
            "id": 97,
            "name": "Scarborough—Rouge Park"
          }
        ],
        "pollDivisionIds": [
          10141749
        ],
        "postalCode": "M1E3Y5",
        "streetName": "BENNETT",
        "streetDirectionId": null,
        "streetTypeId": "RD",
        "placeName": "SCARBOROUGH",
        "streetNameDisplayText": "BENNETT RD, SCARBOROUGH"
      }
    ]
  },
  {
    "postal": "M1E6K1",
    "result": []
  },
  {
    "postal": "M1E9X5",
    "result": []
  },
  {
    "postal": "M1E7S5",
    "result": []
  },
  {
    "postal": "M1E0A4",
    "result": [
      {
        "electoralDistricts": [
          {
            "election": null,
            "id": 95,
            "name": "Scarborough—Guildwood"
          }
        ],
        "pollDivisionIds": [
          10141671
        ],
        "postalCode": "M1E0A4",
        "streetName": "FLORIST",
        "streetDirectionId": null,
        "streetTypeId": "LANE",
        "placeName": "SCARBOROUGH",
        "streetNameDisplayText": "FLORIST LANE, SCARBOROUGH"
      }
    ]
  },
  {
    "postal": "M1E4T5",
    "result": [
      {
        "electoralDistricts": [
          {
            "election": null,
            "id": 95,
            "name": "Scarborough—Guildwood"
          }
        ],
        "pollDivisionIds": [
          10141659
        ],
        "postalCode": "M1E4T5",
        "streetName": "WEIR",
        "streetDirectionId": null,
        "streetTypeId": "CRES",
        "placeName": "SCARBOROUGH",
        "streetNameDisplayText": "WEIR CRES, SCARBOROUGH"
      }
    ]
  },
  {
    "postal": "M1E5K1",
    "result": [
      {
        "electoralDistricts": [
          {
            "election": null,
            "id": 97,
            "name": "Scarborough—Rouge Park"
          }
        ],
        "pollDivisionIds": [
          10141749
        ],
        "postalCode": "M1E5K1",
        "streetName": "ASTERFIELD",
        "streetDirectionId": null,
        "streetTypeId": "DR",
        "placeName": "SCARBOROUGH",
        "streetNameDisplayText": "ASTERFIELD DR, SCARBOROUGH"
      }
    ]
  },
  {
    "postal": "M1E0Z9",
    "result": []
  },
  {
    "postal": "M1E7T2",
    "result": []
  },
  {
    "postal": "M1E1L5",
    "result": [
      {
        "electoralDistricts": [
          {
            "election": null,
            "id": 95,
            "name": "Scarborough—Guildwood"
          }
        ],
        "pollDivisionIds": [
          10141677
        ],
        "postalCode": "M1E1L5",
        "streetName": "LIVINGSTON",
        "streetDirectionId": null,
        "streetTypeId": "RD",
        "placeName": "SCARBOROUGH",
        "streetNameDisplayText": "LIVINGSTON RD, SCARBOROUGH"
      }
    ]
  },
  {
    "postal": "M1E3N5",
    "result": [
      {
        "electoralDistricts": [
          {
            "election": null,
            "id": 97,
            "name": "Scarborough—Rouge Park"
          }
        ],
        "pollDivisionIds": [
          10141749
        ],
        "postalCode": "M1E3N5",
        "streetName": "SATOK",
        "streetDirectionId": null,
        "streetTypeId": "TERR",
        "placeName": "SCARBOROUGH",
        "streetNameDisplayText": "SATOK TERR, SCARBOROUGH"
      }
    ]
  },
  {
    "postal": "M1E6H4",
    "result": []
  },
  {
    "postal": "M1E5A5",
    "result": [
      {
        "electoralDistricts": [
          {
            "election": null,
            "id": 95,
            "name": "Scarborough—Guildwood"
          }
        ],
        "pollDivisionIds": [
          10141669
        ],
        "postalCode": "M1E5A5",
        "streetName": "GALLOWAY",
        "streetDirectionId": null,
        "streetTypeId": "RD",
        "placeName": "SCARBOROUGH",
        "streetNameDisplayText": "GALLOWAY RD, SCARBOROUGH"
      }
    ]
  },
  {
    "postal": "M1E3R9",
    "result": [
      {
        "electoralDistricts": [
          {
            "election": null,
            "id": 97,
            "name": "Scarborough—Rouge Park"
          }
        ],
        "pollDivisionIds": [
          10141748
        ],
        "postalCode": "M1E3R9",
        "streetName": "HOMESTEAD",
        "streetDirectionId": null,
        "streetTypeId": "RD",
        "placeName": "SCARBOROUGH",
        "streetNameDisplayText": "HOMESTEAD RD, SCARBOROUGH"
      }
    ]
  },
  {
    "postal": "M1E7L8",
    "result": []
  },
  {
    "postal": "M1E6T6",
    "result": []
  },
  {
    "postal": "M1E7Y7",
    "result": []
  },
  {
    "postal": "M1E3M8",
    "result": [
      {
        "electoralDistricts": [
          {
            "election": null,
            "id": 97,
            "name": "Scarborough—Rouge Park"
          }
        ],
        "pollDivisionIds": [
          10141749
        ],
        "postalCode": "M1E3M8",
        "streetName": "JANELLAN",
        "streetDirectionId": null,
        "streetTypeId": "TERR",
        "placeName": "SCARBOROUGH",
        "streetNameDisplayText": "JANELLAN TERR, SCARBOROUGH"
      }
    ]
  },
  {
    "postal": "M1E2E0",
    "result": []
  },
  {
    "postal": "M1E4B5",
    "result": [
      {
        "electoralDistricts": [
          {
            "election": null,
            "id": 97,
            "name": "Scarborough—Rouge Park"
          }
        ],
        "pollDivisionIds": [
          10141749
        ],
        "postalCode": "M1E4B5",
        "streetName": "MCMILLAN",
        "streetDirectionId": null,
        "streetTypeId": "AVE",
        "placeName": "SCARBOROUGH",
        "streetNameDisplayText": "MCMILLAN AVE, SCARBOROUGH"
      }
    ]
  },
  {
    "postal": "M1E1J3",
    "result": [
      {
        "electoralDistricts": [
          {
            "election": null,
            "id": 95,
            "name": "Scarborough—Guildwood"
          }
        ],
        "pollDivisionIds": [
          10141677
        ],
        "postalCode": "M1E1J3",
        "streetName": "PRINCE PHILIP",
        "streetDirectionId": null,
        "streetTypeId": "BLVD",
        "placeName": "SCARBOROUGH",
        "streetNameDisplayText": "PRINCE PHILIP BLVD, SCARBOROUGH"
      }
    ]
  },
  {
    "postal": "M1E5S6",
    "result": []
  },
  {
    "postal": "M1E8P7",
    "result": []
  },
  {
    "postal": "M1E7S7",
    "result": []
  },
  {
    "postal": "M1E4C2",
    "result": [
      {
        "electoralDistricts": [
          {
            "election": null,
            "id": 95,
            "name": "Scarborough—Guildwood"
          }
        ],
        "pollDivisionIds": [
          10141659
        ],
        "postalCode": "M1E4C2",
        "streetName": "ELLESMERE",
        "streetDirectionId": null,
        "streetTypeId": "RD",
        "placeName": "SCARBOROUGH",
        "streetNameDisplayText": "ELLESMERE RD, SCARBOROUGH"
      }
    ]
  },
  {
    "postal": "M1E5Y0",
    "result": []
  },
  {
    "postal": "M1E2V7",
    "result": [
      {
        "electoralDistricts": [
          {
            "election": null,
            "id": 95,
            "name": "Scarborough—Guildwood"
          }
        ],
        "pollDivisionIds": [
          10141668
        ],
        "postalCode": "M1E2V7",
        "streetName": "CELESTE",
        "streetDirectionId": null,
        "streetTypeId": "DR",
        "placeName": "SCARBOROUGH",
        "streetNameDisplayText": "CELESTE DR, SCARBOROUGH"
      }
    ]
  },
  {
    "postal": "M1E8P5",
    "result": []
  },
  {
    "postal": "M1E5P5",
    "result": []
  },
  {
    "postal": "M1E5Z0",
    "result": []
  },
  {
    "postal": "M1E9B0",
    "result": []
  },
  {
    "postal": "M1E1L0",
    "result": []
  },
  {
    "postal": "M1E0B5",
    "result": []
  },
  {
    "postal": "M1E3L2",
    "result": [
      {
        "electoralDistricts": [
          {
            "election": null,
            "id": 97,
            "name": "Scarborough—Rouge Park"
          }
        ],
        "pollDivisionIds": [
          10141749
        ],
        "postalCode": "M1E3L2",
        "streetName": "STONEY CREEK",
        "streetDirectionId": null,
        "streetTypeId": "DR",
        "placeName": "SCARBOROUGH",
        "streetNameDisplayText": "STONEY CREEK DR, SCARBOROUGH"
      }
    ]
  },
  {
    "postal": "M1E3B7",
    "result": [
      {
        "electoralDistricts": [
          {
            "election": null,
            "id": 95,
            "name": "Scarborough—Guildwood"
          }
        ],
        "pollDivisionIds": [
          10141659
        ],
        "postalCode": "M1E3B7",
        "streetName": "FALAISE",
        "streetDirectionId": null,
        "streetTypeId": "RD",
        "placeName": "SCARBOROUGH",
        "streetNameDisplayText": "FALAISE RD, SCARBOROUGH"
      }
    ]
  },
  {
    "postal": "M1E8L1",
    "result": []
  },
  {
    "postal": "M1E5M4",
    "result": []
  },
  {
    "postal": "M1E4G9",
    "result": [
      {
        "electoralDistricts": [
          {
            "election": null,
            "id": 95,
            "name": "Scarborough—Guildwood"
          }
        ],
        "pollDivisionIds": [
          10141642
        ],
        "postalCode": "M1E4G9",
        "streetName": "OAKMEADOW",
        "streetDirectionId": null,
        "streetTypeId": "BLVD",
        "placeName": "SCARBOROUGH",
        "streetNameDisplayText": "OAKMEADOW BLVD, SCARBOROUGH"
      }
    ]
  },
  {
    "postal": "M1E0P0",
    "result": []
  },
  {
    "postal": "M1E8G2",
    "result": []
  },
  {
    "postal": "M1E1V9",
    "result": [
      {
        "electoralDistricts": [
          {
            "election": null,
            "id": 97,
            "name": "Scarborough—Rouge Park"
          }
        ],
        "pollDivisionIds": [
          10141748
        ],
        "postalCode": "M1E1V9",
        "streetName": "GREYABBEY",
        "streetDirectionId": null,
        "streetTypeId": "TRAIL",
        "placeName": "SCARBOROUGH",
        "streetNameDisplayText": "GREYABBEY TRAIL, SCARBOROUGH"
      }
    ]
  },
  {
    "postal": "M1E8N8",
    "result": []
  },
  {
    "postal": "M1E6S8",
    "result": []
  },
  {
    "postal": "M1E8H2",
    "result": []
  },
  {
    "postal": "M1E5R8",
    "result": []
  },
  {
    "postal": "M1E5L4",
    "result": []
  },
  {
    "postal": "M1E9E1",
    "result": []
  },
  {
    "postal": "M1E1C4",
    "result": [
      {
        "electoralDistricts": [
          {
            "election": null,
            "id": 95,
            "name": "Scarborough—Guildwood"
          }
        ],
        "pollDivisionIds": [
          10141677
        ],
        "postalCode": "M1E1C4",
        "streetName": "BOURNVILLE",
        "streetDirectionId": null,
        "streetTypeId": "DR",
        "placeName": "SCARBOROUGH",
        "streetNameDisplayText": "BOURNVILLE DR, SCARBOROUGH"
      }
    ]
  },
  {
    "postal": "M1E8W5",
    "result": []
  },
  {
    "postal": "M1E1Y4",
    "result": [
      {
        "electoralDistricts": [
          {
            "election": null,
            "id": 95,
            "name": "Scarborough—Guildwood"
          }
        ],
        "pollDivisionIds": [
          10141670
        ],
        "postalCode": "M1E1Y4",
        "streetName": "LAUSANNE",
        "streetDirectionId": null,
        "streetTypeId": "CRES",
        "placeName": "SCARBOROUGH",
        "streetNameDisplayText": "LAUSANNE CRES, SCARBOROUGH"
      }
    ]
  },
  {
    "postal": "M1E1C0",
    "result": []
  },
  {
    "postal": "M1E2J2",
    "result": [
      {
        "electoralDistricts": [
          {
            "election": null,
            "id": 97,
            "name": "Scarborough—Rouge Park"
          }
        ],
        "pollDivisionIds": [
          10141748
        ],
        "postalCode": "M1E2J2",
        "streetName": "CORONATION",
        "streetDirectionId": null,
        "streetTypeId": "DR",
        "placeName": "SCARBOROUGH",
        "streetNameDisplayText": "CORONATION DR, SCARBOROUGH"
      }
    ]
  },
  {
    "postal": "M1E2J0",
    "result": []
  },
  {
    "postal": "M1E7A3",
    "result": []
  },
  {
    "postal": "M1E8M1",
    "result": []
  },
  {
    "postal": "M1E7T9",
    "result": []
  },
  {
    "postal": "M1E6C0",
    "result": []
  },
  {
    "postal": "M1E7X1",
    "result": []
  },
  {
    "postal": "M1E0G1",
    "result": []
  },
  {
    "postal": "M1E4X2",
    "result": [
      {
        "electoralDistricts": [
          {
            "election": null,
            "id": 95,
            "name": "Scarborough—Guildwood"
          }
        ],
        "pollDivisionIds": [
          10141688
        ],
        "postalCode": "M1E4X2",
        "streetName": "MORNELLE",
        "streetDirectionId": null,
        "streetTypeId": "CRT",
        "placeName": "SCARBOROUGH",
        "streetNameDisplayText": "MORNELLE CRT, SCARBOROUGH"
      }
    ]
  },
  {
    "postal": "M1E0N6",
    "result": []
  },
  {
    "postal": "M1E8E3",
    "result": []
  },
  {
    "postal": "M1E5S8",
    "result": []
  },
  {
    "postal": "M1E0R0",
    "result": []
  },
  {
    "postal": "M1E6J6",
    "result": []
  },
  {
    "postal": "M1E4B4",
    "result": [
      {
        "electoralDistricts": [
          {
            "election": null,
            "id": 97,
            "name": "Scarborough—Rouge Park"
          }
        ],
        "pollDivisionIds": [
          10141749
        ],
        "postalCode": "M1E4B4",
        "streetName": "MCMILLAN",
        "streetDirectionId": null,
        "streetTypeId": "AVE",
        "placeName": "SCARBOROUGH",
        "streetNameDisplayText": "MCMILLAN AVE, SCARBOROUGH"
      }
    ]
  },
  {
    "postal": "M1E7E3",
    "result": []
  },
  {
    "postal": "M1E3N6",
    "result": [
      {
        "electoralDistricts": [
          {
            "election": null,
            "id": 97,
            "name": "Scarborough—Rouge Park"
          }
        ],
        "pollDivisionIds": [
          10141749
        ],
        "postalCode": "M1E3N6",
        "streetName": "SATOK",
        "streetDirectionId": null,
        "streetTypeId": "TERR",
        "placeName": "SCARBOROUGH",
        "streetNameDisplayText": "SATOK TERR, SCARBOROUGH"
      }
    ]
  },
  {
    "postal": "M1E3X6",
    "result": [
      {
        "electoralDistricts": [
          {
            "election": null,
            "id": 97,
            "name": "Scarborough—Rouge Park"
          }
        ],
        "pollDivisionIds": [
          10141748
        ],
        "postalCode": "M1E3X6",
        "streetName": "WALLSEND",
        "streetDirectionId": null,
        "streetTypeId": "DR",
        "placeName": "SCARBOROUGH",
        "streetNameDisplayText": "WALLSEND DR, SCARBOROUGH"
      }
    ]
  },
  {
    "postal": "M1E8L0",
    "result": []
  },
  {
    "postal": "M1E8N1",
    "result": []
  },
  {
    "postal": "M1E4J0",
    "result": []
  },
  {
    "postal": "M1E0X7",
    "result": []
  },
  {
    "postal": "M1E6S4",
    "result": []
  },
  {
    "postal": "M1E0Z0",
    "result": []
  },
  {
    "postal": "M1E9X8",
    "result": []
  },
  {
    "postal": "M1E3H3",
    "result": [
      {
        "electoralDistricts": [
          {
            "election": null,
            "id": 97,
            "name": "Scarborough—Rouge Park"
          }
        ],
        "pollDivisionIds": [
          10141748
        ],
        "postalCode": "M1E3H3",
        "streetName": "BRIARBLUFF",
        "streetDirectionId": null,
        "streetTypeId": "AVE",
        "placeName": "SCARBOROUGH",
        "streetNameDisplayText": "BRIARBLUFF AVE, SCARBOROUGH"
      }
    ]
  },
  {
    "postal": "M1E7S2",
    "result": []
  },
  {
    "postal": "M1E3T3",
    "result": [
      {
        "electoralDistricts": [
          {
            "election": null,
            "id": 97,
            "name": "Scarborough—Rouge Park"
          }
        ],
        "pollDivisionIds": [
          10141747
        ],
        "postalCode": "M1E3T3",
        "streetName": "FAIRWOOD",
        "streetDirectionId": null,
        "streetTypeId": "CRES",
        "placeName": "SCARBOROUGH",
        "streetNameDisplayText": "FAIRWOOD CRES, SCARBOROUGH"
      }
    ]
  },
  {
    "postal": "M1E9P3",
    "result": []
  },
  {
    "postal": "M1E4H8",
    "result": [
      {
        "electoralDistricts": [
          {
            "election": null,
            "id": 95,
            "name": "Scarborough—Guildwood"
          }
        ],
        "pollDivisionIds": [
          10141642
        ],
        "postalCode": "M1E4H8",
        "streetName": "GILLBANK",
        "streetDirectionId": null,
        "streetTypeId": "CRES",
        "placeName": "SCARBOROUGH",
        "streetNameDisplayText": "GILLBANK CRES, SCARBOROUGH"
      }
    ]
  },
  {
    "postal": "M1E6R1",
    "result": []
  },
  {
    "postal": "M1E1S0",
    "result": []
  },
  {
    "postal": "M1E3W8",
    "result": [
      {
        "electoralDistricts": [
          {
            "election": null,
            "id": 97,
            "name": "Scarborough—Rouge Park"
          }
        ],
        "pollDivisionIds": [
          10141749
        ],
        "postalCode": "M1E3W8",
        "streetName": "MORNING DEW",
        "streetDirectionId": null,
        "streetTypeId": "RD",
        "placeName": "SCARBOROUGH",
        "streetNameDisplayText": "MORNING DEW RD, SCARBOROUGH"
      }
    ]
  },
  {
    "postal": "M1E4S3",
    "result": []
  },
  {
    "postal": "M1E1B6",
    "result": [
      {
        "electoralDistricts": [
          {
            "election": null,
            "id": 95,
            "name": "Scarborough—Guildwood"
          }
        ],
        "pollDivisionIds": [
          10141677
        ],
        "postalCode": "M1E1B6",
        "streetName": "CATALINA",
        "streetDirectionId": null,
        "streetTypeId": "DR",
        "placeName": "SCARBOROUGH",
        "streetNameDisplayText": "CATALINA DR, SCARBOROUGH"
      }
    ]
  },
  {
    "postal": "M1E8R3",
    "result": []
  },
  {
    "postal": "M1E4V9",
    "result": [
      {
        "electoralDistricts": [
          {
            "election": null,
            "id": 97,
            "name": "Scarborough—Rouge Park"
          }
        ],
        "pollDivisionIds": [
          10141748
        ],
        "postalCode": "M1E4V9",
        "streetName": "LING",
        "streetDirectionId": null,
        "streetTypeId": "RD",
        "placeName": "SCARBOROUGH",
        "streetNameDisplayText": "LING RD, SCARBOROUGH"
      },
      {
        "electoralDistricts": [
          {
            "election": null,
            "id": 95,
            "name": "Scarborough—Guildwood"
          }
        ],
        "pollDivisionIds": [
          10141671
        ],
        "postalCode": "M1E4V9",
        "streetName": "LIVINGSTN",
        "streetDirectionId": null,
        "streetTypeId": "RD",
        "placeName": "SCARBOROUGH",
        "streetNameDisplayText": "LIVINGSTN RD, SCARBOROUGH"
      }
    ]
  },
  {
    "postal": "M1E9W4",
    "result": []
  },
  {
    "postal": "M1E3T4",
    "result": [
      {
        "electoralDistricts": [
          {
            "election": null,
            "id": 97,
            "name": "Scarborough—Rouge Park"
          }
        ],
        "pollDivisionIds": [
          10141747
        ],
        "postalCode": "M1E3T4",
        "streetName": "WEST HILL",
        "streetDirectionId": null,
        "streetTypeId": "DR",
        "placeName": "SCARBOROUGH",
        "streetNameDisplayText": "WEST HILL DR, SCARBOROUGH"
      }
    ]
  },
  {
    "postal": "M1E5C7",
    "result": [
      {
        "electoralDistricts": [
          {
            "election": null,
            "id": 97,
            "name": "Scarborough—Rouge Park"
          }
        ],
        "pollDivisionIds": [
          10141748
        ],
        "postalCode": "M1E5C7",
        "streetName": "CORONATION",
        "streetDirectionId": null,
        "streetTypeId": "DR",
        "placeName": "SCARBOROUGH",
        "streetNameDisplayText": "CORONATION DR, SCARBOROUGH"
      }
    ]
  },
  {
    "postal": "M1E3Y1",
    "result": [
      {
        "electoralDistricts": [
          {
            "election": null,
            "id": 97,
            "name": "Scarborough—Rouge Park"
          }
        ],
        "pollDivisionIds": [
          10141749
        ],
        "postalCode": "M1E3Y1",
        "streetName": "BENNETT",
        "streetDirectionId": null,
        "streetTypeId": "RD",
        "placeName": "SCARBOROUGH",
        "streetNameDisplayText": "BENNETT RD, SCARBOROUGH"
      }
    ]
  },
  {
    "postal": "M1E5V0",
    "result": []
  },
  {
    "postal": "M1E8G8",
    "result": []
  },
  {
    "postal": "M1E8B1",
    "result": []
  },
  {
    "postal": "M1E4P5",
    "result": [
      {
        "electoralDistricts": [
          {
            "election": null,
            "id": 95,
            "name": "Scarborough—Guildwood"
          }
        ],
        "pollDivisionIds": [
          10141643
        ],
        "postalCode": "M1E4P5",
        "streetName": "STEEPMAPLE",
        "streetDirectionId": null,
        "streetTypeId": "GROVE",
        "placeName": "SCARBOROUGH",
        "streetNameDisplayText": "STEEPMAPLE GROVE, SCARBOROUGH"
      }
    ]
  },
  {
    "postal": "M1E7B2",
    "result": []
  },
  {
    "postal": "M1E0R2",
    "result": []
  },
  {
    "postal": "M1E4M4",
    "result": [
      {
        "electoralDistricts": [
          {
            "election": null,
            "id": 95,
            "name": "Scarborough—Guildwood"
          }
        ],
        "pollDivisionIds": [
          10141642
        ],
        "postalCode": "M1E4M4",
        "streetName": "PINESLOPE",
        "streetDirectionId": null,
        "streetTypeId": "CRES",
        "placeName": "SCARBOROUGH",
        "streetNameDisplayText": "PINESLOPE CRES, SCARBOROUGH"
      }
    ]
  },
  {
    "postal": "M1E7M4",
    "result": []
  },
  {
    "postal": "M1E9S7",
    "result": []
  },
  {
    "postal": "M1E5Z7",
    "result": []
  },
  {
    "postal": "M1E7J7",
    "result": []
  },
  {
    "postal": "M1E8R8",
    "result": []
  },
  {
    "postal": "M1E9X1",
    "result": []
  },
  {
    "postal": "M1E5M9",
    "result": []
  },
  {
    "postal": "M1E9B4",
    "result": []
  },
  {
    "postal": "M1E0L9",
    "result": []
  },
  {
    "postal": "M1E9G4",
    "result": []
  },
  {
    "postal": "M1E1J4",
    "result": [
      {
        "electoralDistricts": [
          {
            "election": null,
            "id": 95,
            "name": "Scarborough—Guildwood"
          }
        ],
        "pollDivisionIds": [
          10141677
        ],
        "postalCode": "M1E1J4",
        "streetName": "PRINCE PHILIP",
        "streetDirectionId": null,
        "streetTypeId": "BLVD",
        "placeName": "SCARBOROUGH",
        "streetNameDisplayText": "PRINCE PHILIP BLVD, SCARBOROUGH"
      }
    ]
  },
  {
    "postal": "M1E0W6",
    "result": []
  }
]
