[
  {
    "postal": "N1S9J6",
    "result": []
  },
  {
    "postal": "N1S9Z5",
    "result": []
  },
  {
    "postal": "N1S7H8",
    "result": []
  },
  {
    "postal": "N1S0P6",
    "result": []
  },
  {
    "postal": "N1S0S7",
    "result": []
  },
  {
    "postal": "N1S8B9",
    "result": []
  },
  {
    "postal": "N1S2A6",
    "result": [
      {
        "electoralDistricts": [
          {
            "election": null,
            "id": 16,
            "name": "Cambridge"
          }
        ],
        "pollDivisionIds": [
          10137451
        ],
        "postalCode": "N1S2A6",
        "streetName": "STANLEY",
        "streetDirectionId": null,
        "streetTypeId": "ST",
        "placeName": "CAMBRIDGE",
        "streetNameDisplayText": "STANLEY ST, CAMBRIDGE"
      }
    ]
  },
  {
    "postal": "N1S7V2",
    "result": []
  },
  {
    "postal": "N1S9P4",
    "result": []
  },
  {
    "postal": "N1S6G0",
    "result": []
  },
  {
    "postal": "N1S2K0",
    "result": []
  },
  {
    "postal": "N1S7N6",
    "result": []
  },
  {
    "postal": "N1S5R3",
    "result": []
  },
  {
    "postal": "N1S7K0",
    "result": []
  },
  {
    "postal": "N1S3R2",
    "result": [
      {
        "electoralDistricts": [
          {
            "election": null,
            "id": 16,
            "name": "Cambridge"
          }
        ],
        "pollDivisionIds": [
          10137428
        ],
        "postalCode": "N1S3R2",
        "streetName": "DREW",
        "streetDirectionId": null,
        "streetTypeId": "AVE",
        "placeName": "CAMBRIDGE",
        "streetNameDisplayText": "DREW AVE, CAMBRIDGE"
      }
    ]
  },
  {
    "postal": "N1S0J1",
    "result": []
  },
  {
    "postal": "N1S0B0",
    "result": []
  },
  {
    "postal": "N1S5Z2",
    "result": []
  },
  {
    "postal": "N1S7P3",
    "result": []
  },
  {
    "postal": "N1S2K3",
    "result": [
      {
        "electoralDistricts": [
          {
            "election": null,
            "id": 16,
            "name": "Cambridge"
          }
        ],
        "pollDivisionIds": [
          10137410
        ],
        "postalCode": "N1S2K3",
        "streetName": "BLAIR",
        "streetDirectionId": null,
        "streetTypeId": "RD",
        "placeName": "CAMBRIDGE",
        "streetNameDisplayText": "BLAIR RD, CAMBRIDGE"
      }
    ]
  },
  {
    "postal": "N1S7Y6",
    "result": []
  },
  {
    "postal": "N1S1L9",
    "result": [
      {
        "electoralDistricts": [
          {
            "election": null,
            "id": 16,
            "name": "Cambridge"
          }
        ],
        "pollDivisionIds": [
          10137437
        ],
        "postalCode": "N1S1L9",
        "streetName": "HIGHLAND",
        "streetDirectionId": null,
        "streetTypeId": "CRES",
        "placeName": "CAMBRIDGE",
        "streetNameDisplayText": "HIGHLAND CRES, CAMBRIDGE"
      }
    ]
  },
  {
    "postal": "N1S8T0",
    "result": []
  },
  {
    "postal": "N1S3K8",
    "result": [
      {
        "electoralDistricts": [
          {
            "election": null,
            "id": 16,
            "name": "Cambridge"
          }
        ],
        "pollDivisionIds": [
          10137437
        ],
        "postalCode": "N1S3K8",
        "streetName": "PARKWOOD",
        "streetDirectionId": null,
        "streetTypeId": "DR",
        "placeName": "CAMBRIDGE",
        "streetNameDisplayText": "PARKWOOD DR, CAMBRIDGE"
      }
    ]
  },
  {
    "postal": "N1S5W9",
    "result": []
  },
  {
    "postal": "N1S6T9",
    "result": []
  },
  {
    "postal": "N1S4H1",
    "result": [
      {
        "electoralDistricts": [
          {
            "election": null,
            "id": 16,
            "name": "Cambridge"
          }
        ],
        "pollDivisionIds": [
          10137430
        ],
        "postalCode": "N1S4H1",
        "streetName": "TEMPLAR",
        "streetDirectionId": null,
        "streetTypeId": "CRT",
        "placeName": "CAMBRIDGE",
        "streetNameDisplayText": "TEMPLAR CRT, CAMBRIDGE"
      }
    ]
  },
  {
    "postal": "N1S7A2",
    "result": []
  },
  {
    "postal": "N1S5G0",
    "result": []
  },
  {
    "postal": "N1S8V5",
    "result": []
  },
  {
    "postal": "N1S2Y8",
    "result": [
      {
        "electoralDistricts": [
          {
            "election": null,
            "id": 16,
            "name": "Cambridge"
          }
        ],
        "pollDivisionIds": [
          10137451
        ],
        "postalCode": "N1S2Y8",
        "streetName": "GLENMORRIS",
        "streetDirectionId": null,
        "streetTypeId": "ST",
        "placeName": "CAMBRIDGE",
        "streetNameDisplayText": "GLENMORRIS ST, CAMBRIDGE"
      }
    ]
  },
  {
    "postal": "N1S2B6",
    "result": [
      {
        "electoralDistricts": [
          {
            "election": null,
            "id": 16,
            "name": "Cambridge"
          }
        ],
        "pollDivisionIds": [
          10137451
        ],
        "postalCode": "N1S2B6",
        "streetName": "FIRST",
        "streetDirectionId": null,
        "streetTypeId": "AVE",
        "placeName": "CAMBRIDGE",
        "streetNameDisplayText": "FIRST AVE, CAMBRIDGE"
      }
    ]
  },
  {
    "postal": "N1S4W8",
    "result": [
      {
        "electoralDistricts": [
          {
            "election": null,
            "id": 16,
            "name": "Cambridge"
          }
        ],
        "pollDivisionIds": [
          10137428
        ],
        "postalCode": "N1S4W8",
        "streetName": "GRAND RIDGE",
        "streetDirectionId": null,
        "streetTypeId": "DR",
        "placeName": "CAMBRIDGE",
        "streetNameDisplayText": "GRAND RIDGE DR, CAMBRIDGE"
      }
    ]
  },
  {
    "postal": "N1S8H7",
    "result": []
  },
  {
    "postal": "N1S5P1",
    "result": []
  },
  {
    "postal": "N1S2B8",
    "result": [
      {
        "electoralDistricts": [
          {
            "election": null,
            "id": 16,
            "name": "Cambridge"
          }
        ],
        "pollDivisionIds": [
          10137451
        ],
        "postalCode": "N1S2B8",
        "streetName": "SECOND",
        "streetDirectionId": null,
        "streetTypeId": "AVE",
        "placeName": "CAMBRIDGE",
        "streetNameDisplayText": "SECOND AVE, CAMBRIDGE"
      }
    ]
  },
  {
    "postal": "N1S0P2",
    "result": []
  },
  {
    "postal": "N1S9M1",
    "result": []
  },
  {
    "postal": "N1S3G0",
    "result": []
  },
  {
    "postal": "N1S9Z2",
    "result": []
  },
  {
    "postal": "N1S2A0",
    "result": []
  },
  {
    "postal": "N1S6Y0",
    "result": []
  },
  {
    "postal": "N1S2Z8",
    "result": [
      {
        "electoralDistricts": [
          {
            "election": null,
            "id": 16,
            "name": "Cambridge"
          }
        ],
        "pollDivisionIds": [
          10137451
        ],
        "postalCode": "N1S2Z8",
        "streetName": "WEST RIVER",
        "streetDirectionId": null,
        "streetTypeId": "RD",
        "placeName": "CAMBRIDGE",
        "streetNameDisplayText": "WEST RIVER RD, CAMBRIDGE"
      }
    ]
  },
  {
    "postal": "N1S7Y3",
    "result": []
  },
  {
    "postal": "N1S6Z5",
    "result": []
  },
  {
    "postal": "N1S6E0",
    "result": []
  },
  {
    "postal": "N1S9B7",
    "result": []
  },
  {
    "postal": "N1S9S5",
    "result": []
  },
  {
    "postal": "N1S3X3",
    "result": [
      {
        "electoralDistricts": [
          {
            "election": null,
            "id": 16,
            "name": "Cambridge"
          }
        ],
        "pollDivisionIds": [
          10137428
        ],
        "postalCode": "N1S3X3",
        "streetName": "KENT",
        "streetDirectionId": null,
        "streetTypeId": "ST",
        "placeName": "CAMBRIDGE",
        "streetNameDisplayText": "KENT ST, CAMBRIDGE"
      }
    ]
  },
  {
    "postal": "N1S7R5",
    "result": []
  },
  {
    "postal": "N1S2X3",
    "result": [
      {
        "electoralDistricts": [
          {
            "election": null,
            "id": 16,
            "name": "Cambridge"
          }
        ],
        "pollDivisionIds": [
          10137441
        ],
        "postalCode": "N1S2X3",
        "streetName": "ABERDEEN",
        "streetDirectionId": "S",
        "streetTypeId": "RD",
        "placeName": "CAMBRIDGE",
        "streetNameDisplayText": "ABERDEEN RD S, CAMBRIDGE"
      }
    ]
  },
  {
    "postal": "N1S8Z9",
    "result": []
  },
  {
    "postal": "N1S0N4",
    "result": []
  },
  {
    "postal": "N1S1K1",
    "result": [
      {
        "electoralDistricts": [
          {
            "election": null,
            "id": 16,
            "name": "Cambridge"
          }
        ],
        "pollDivisionIds": [
          10137428
        ],
        "postalCode": "N1S1K1",
        "streetName": "SALISBURY",
        "streetDirectionId": null,
        "streetTypeId": "AVE",
        "placeName": "CAMBRIDGE",
        "streetNameDisplayText": "SALISBURY AVE, CAMBRIDGE"
      }
    ]
  },
  {
    "postal": "N1S1S3",
    "result": [
      {
        "electoralDistricts": [
          {
            "election": null,
            "id": 16,
            "name": "Cambridge"
          }
        ],
        "pollDivisionIds": [
          10137437
        ],
        "postalCode": "N1S1S3",
        "streetName": "CHURCHILL",
        "streetDirectionId": null,
        "streetTypeId": "DR",
        "placeName": "CAMBRIDGE",
        "streetNameDisplayText": "CHURCHILL DR, CAMBRIDGE"
      }
    ]
  },
  {
    "postal": "N1S6M4",
    "result": []
  },
  {
    "postal": "N1S9A9",
    "result": []
  },
  {
    "postal": "N1S9Z9",
    "result": []
  },
  {
    "postal": "N1S6T4",
    "result": []
  },
  {
    "postal": "N1S0B2",
    "result": [
      {
        "electoralDistricts": [
          {
            "election": null,
            "id": 16,
            "name": "Cambridge"
          }
        ],
        "pollDivisionIds": [
          10137442
        ],
        "postalCode": "N1S0B2",
        "streetName": "CEDAR",
        "streetDirectionId": null,
        "streetTypeId": "ST",
        "placeName": "CAMBRIDGE",
        "streetNameDisplayText": "CEDAR ST, CAMBRIDGE"
      }
    ]
  },
  {
    "postal": "N1S2L9",
    "result": [
      {
        "electoralDistricts": [
          {
            "election": null,
            "id": 16,
            "name": "Cambridge"
          }
        ],
        "pollDivisionIds": [
          10137442
        ],
        "postalCode": "N1S2L9",
        "streetName": "GRAND",
        "streetDirectionId": "S",
        "streetTypeId": "AVE",
        "placeName": "CAMBRIDGE",
        "streetNameDisplayText": "GRAND AVE S, CAMBRIDGE"
      }
    ]
  },
  {
    "postal": "N1S8K9",
    "result": []
  },
  {
    "postal": "N1S2H9",
    "result": [
      {
        "electoralDistricts": [
          {
            "election": null,
            "id": 16,
            "name": "Cambridge"
          }
        ],
        "pollDivisionIds": [
          10137439
        ],
        "postalCode": "N1S2H9",
        "streetName": "BLAIR",
        "streetDirectionId": null,
        "streetTypeId": "RD",
        "placeName": "CAMBRIDGE",
        "streetNameDisplayText": "BLAIR RD, CAMBRIDGE"
      }
    ]
  },
  {
    "postal": "N1S3Z6",
    "result": [
      {
        "electoralDistricts": [
          {
            "election": null,
            "id": 16,
            "name": "Cambridge"
          }
        ],
        "pollDivisionIds": [
          10137428
        ],
        "postalCode": "N1S3Z6",
        "streetName": "GRAND RIDGE",
        "streetDirectionId": null,
        "streetTypeId": "DR",
        "placeName": "CAMBRIDGE",
        "streetNameDisplayText": "GRAND RIDGE DR, CAMBRIDGE"
      }
    ]
  },
  {
    "postal": "N1S3B0",
    "result": []
  },
  {
    "postal": "N1S2H8",
    "result": [
      {
        "electoralDistricts": [
          {
            "election": null,
            "id": 16,
            "name": "Cambridge"
          }
        ],
        "pollDivisionIds": [
          10137440
        ],
        "postalCode": "N1S2H8",
        "streetName": "BLAIR",
        "streetDirectionId": null,
        "streetTypeId": "RD",
        "placeName": "CAMBRIDGE",
        "streetNameDisplayText": "BLAIR RD, CAMBRIDGE"
      }
    ]
  },
  {
    "postal": "N1S3X2",
    "result": [
      {
        "electoralDistricts": [
          {
            "election": null,
            "id": 16,
            "name": "Cambridge"
          }
        ],
        "pollDivisionIds": [
          10137428
        ],
        "postalCode": "N1S3X2",
        "streetName": "DAKIN",
        "streetDirectionId": null,
        "streetTypeId": "CRES",
        "placeName": "CAMBRIDGE",
        "streetNameDisplayText": "DAKIN CRES, CAMBRIDGE"
      }
    ]
  },
  {
    "postal": "N1S2E9",
    "result": [
      {
        "electoralDistricts": [
          {
            "election": null,
            "id": 16,
            "name": "Cambridge"
          }
        ],
        "pollDivisionIds": [
          10137451
        ],
        "postalCode": "N1S2E9",
        "streetName": "FIFTH",
        "streetDirectionId": null,
        "streetTypeId": "AVE",
        "placeName": "CAMBRIDGE",
        "streetNameDisplayText": "FIFTH AVE, CAMBRIDGE"
      }
    ]
  },
  {
    "postal": "N1S9P6",
    "result": []
  },
  {
    "postal": "N1S9E2",
    "result": []
  },
  {
    "postal": "N1S9H2",
    "result": []
  },
  {
    "postal": "N1S1S8",
    "result": [
      {
        "electoralDistricts": [
          {
            "election": null,
            "id": 16,
            "name": "Cambridge"
          }
        ],
        "pollDivisionIds": [
          10137438
        ],
        "postalCode": "N1S1S8",
        "streetName": "DONLEA",
        "streetDirectionId": null,
        "streetTypeId": "DR",
        "placeName": "CAMBRIDGE",
        "streetNameDisplayText": "DONLEA DR, CAMBRIDGE"
      }
    ]
  },
  {
    "postal": "N1S3M6",
    "result": [
      {
        "electoralDistricts": [
          {
            "election": null,
            "id": 16,
            "name": "Cambridge"
          }
        ],
        "pollDivisionIds": [
          10137428
        ],
        "postalCode": "N1S3M6",
        "streetName": "DALE",
        "streetDirectionId": null,
        "streetTypeId": "AVE",
        "placeName": "CAMBRIDGE",
        "streetNameDisplayText": "DALE AVE, CAMBRIDGE"
      }
    ]
  },
  {
    "postal": "N1S6Z8",
    "result": []
  },
  {
    "postal": "N1S4J2",
    "result": [
      {
        "electoralDistricts": [
          {
            "election": null,
            "id": 16,
            "name": "Cambridge"
          }
        ],
        "pollDivisionIds": [
          10137428
        ],
        "postalCode": "N1S4J2",
        "streetName": "INVERNESS",
        "streetDirectionId": null,
        "streetTypeId": "DR",
        "placeName": "CAMBRIDGE",
        "streetNameDisplayText": "INVERNESS DR, CAMBRIDGE"
      }
    ]
  },
  {
    "postal": "N1S9Y1",
    "result": []
  },
  {
    "postal": "N1S8V6",
    "result": []
  },
  {
    "postal": "N1S6B2",
    "result": []
  },
  {
    "postal": "N1S1P8",
    "result": [
      {
        "electoralDistricts": [
          {
            "election": null,
            "id": 16,
            "name": "Cambridge"
          }
        ],
        "pollDivisionIds": [
          10137442
        ],
        "postalCode": "N1S1P8",
        "streetName": "FRASER",
        "streetDirectionId": null,
        "streetTypeId": "ST",
        "placeName": "CAMBRIDGE",
        "streetNameDisplayText": "FRASER ST, CAMBRIDGE"
      }
    ]
  },
  {
    "postal": "N1S0V8",
    "result": []
  },
  {
    "postal": "N1S4Y0",
    "result": []
  },
  {
    "postal": "N1S2T4",
    "result": [
      {
        "electoralDistricts": [
          {
            "election": null,
            "id": 16,
            "name": "Cambridge"
          }
        ],
        "pollDivisionIds": [
          10137441
        ],
        "postalCode": "N1S2T4",
        "streetName": "LANSDOWNE",
        "streetDirectionId": "S",
        "streetTypeId": "RD",
        "placeName": "CAMBRIDGE",
        "streetNameDisplayText": "LANSDOWNE RD S, CAMBRIDGE"
      }
    ]
  },
  {
    "postal": "N1S2S3",
    "result": [
      {
        "electoralDistricts": [
          {
            "election": null,
            "id": 16,
            "name": "Cambridge"
          }
        ],
        "pollDivisionIds": [
          10137439
        ],
        "postalCode": "N1S2S3",
        "streetName": "PARK",
        "streetDirectionId": null,
        "streetTypeId": "AVE",
        "placeName": "CAMBRIDGE",
        "streetNameDisplayText": "PARK AVE, CAMBRIDGE"
      }
    ]
  },
  {
    "postal": "N1S0K0",
    "result": []
  },
  {
    "postal": "N1S5N1",
    "result": []
  },
  {
    "postal": "N1S7T0",
    "result": []
  },
  {
    "postal": "N1S9N2",
    "result": []
  },
  {
    "postal": "N1S5L1",
    "result": []
  },
  {
    "postal": "N1S7G5",
    "result": []
  },
  {
    "postal": "N1S6K2",
    "result": []
  },
  {
    "postal": "N1S6P9",
    "result": []
  },
  {
    "postal": "N1S0E6",
    "result": []
  },
  {
    "postal": "N1S8R9",
    "result": []
  },
  {
    "postal": "N1S3G9",
    "result": [
      {
        "electoralDistricts": [
          {
            "election": null,
            "id": 16,
            "name": "Cambridge"
          }
        ],
        "pollDivisionIds": [
          10137451
        ],
        "postalCode": "N1S3G9",
        "streetName": "OSBORNE",
        "streetDirectionId": null,
        "streetTypeId": "ST",
        "placeName": "CAMBRIDGE",
        "streetNameDisplayText": "OSBORNE ST, CAMBRIDGE"
      }
    ]
  },
  {
    "postal": "N1S0V7",
    "result": []
  },
  {
    "postal": "N1S2Z1",
    "result": [
      {
        "electoralDistricts": [
          {
            "election": null,
            "id": 16,
            "name": "Cambridge"
          }
        ],
        "pollDivisionIds": [
          10137451
        ],
        "postalCode": "N1S2Z1",
        "streetName": "GLENMORRIS",
        "streetDirectionId": null,
        "streetTypeId": "ST",
        "placeName": "CAMBRIDGE",
        "streetNameDisplayText": "GLENMORRIS ST, CAMBRIDGE"
      }
    ]
  },
  {
    "postal": "N1S7N1",
    "result": []
  },
  {
    "postal": "N1S3C6",
    "result": [
      {
        "electoralDistricts": [
          {
            "election": null,
            "id": 16,
            "name": "Cambridge"
          }
        ],
        "pollDivisionIds": [
          10137451
        ],
        "postalCode": "N1S3C6",
        "streetName": "TAIT",
        "streetDirectionId": null,
        "streetTypeId": "ST",
        "placeName": "CAMBRIDGE",
        "streetNameDisplayText": "TAIT ST, CAMBRIDGE"
      }
    ]
  },
  {
    "postal": "N1S4M1",
    "result": [
      {
        "electoralDistricts": [
          {
            "election": null,
            "id": 16,
            "name": "Cambridge"
          }
        ],
        "pollDivisionIds": [
          10137428
        ],
        "postalCode": "N1S4M1",
        "streetName": "GRAND RIDGE",
        "streetDirectionId": null,
        "streetTypeId": "DR",
        "placeName": "CAMBRIDGE",
        "streetNameDisplayText": "GRAND RIDGE DR, CAMBRIDGE"
      }
    ]
  },
  {
    "postal": "N1S9K2",
    "result": []
  },
  {
    "postal": "N1S9S6",
    "result": []
  },
  {
    "postal": "N1S4X1",
    "result": [
      {
        "electoralDistricts": [
          {
            "election": null,
            "id": 16,
            "name": "Cambridge"
          }
        ],
        "pollDivisionIds": [
          10137428
        ],
        "postalCode": "N1S4X1",
        "streetName": "GRAND RIDGE",
        "streetDirectionId": null,
        "streetTypeId": "DR",
        "placeName": "CAMBRIDGE",
        "streetNameDisplayText": "GRAND RIDGE DR, CAMBRIDGE"
      }
    ]
  },
  {
    "postal": "N1S8W2",
    "result": []
  },
  {
    "postal": "N1S7N2",
    "result": []
  },
  {
    "postal": "N1S8S3",
    "result": []
  },
  {
    "postal": "N1S4V0",
    "result": []
  },
  {
    "postal": "N1S6W4",
    "result": []
  },
  {
    "postal": "N1S5M1",
    "result": []
  },
  {
    "postal": "N1S0S4",
    "result": []
  },
  {
    "postal": "N1S5X6",
    "result": []
  },
  {
    "postal": "N1S8L5",
    "result": []
  },
  {
    "postal": "N1S5M8",
    "result": []
  },
  {
    "postal": "N1S2G3",
    "result": [
      {
        "electoralDistricts": [
          {
            "election": null,
            "id": 16,
            "name": "Cambridge"
          }
        ],
        "pollDivisionIds": [
          10137451
        ],
        "postalCode": "N1S2G3",
        "streetName": "GORDON",
        "streetDirectionId": null,
        "streetTypeId": "ST",
        "placeName": "CAMBRIDGE",
        "streetNameDisplayText": "GORDON ST, CAMBRIDGE"
      }
    ]
  },
  {
    "postal": "N1S8E4",
    "result": []
  },
  {
    "postal": "N1S7S9",
    "result": []
  },
  {
    "postal": "N1S1K3",
    "result": [
      {
        "electoralDistricts": [
          {
            "election": null,
            "id": 16,
            "name": "Cambridge"
          }
        ],
        "pollDivisionIds": [
          10137428
        ],
        "postalCode": "N1S1K3",
        "streetName": "SALISBURY",
        "streetDirectionId": null,
        "streetTypeId": "AVE",
        "placeName": "CAMBRIDGE",
        "streetNameDisplayText": "SALISBURY AVE, CAMBRIDGE"
      }
    ]
  },
  {
    "postal": "N1S4E1",
    "result": [
      {
        "electoralDistricts": [
          {
            "election": null,
            "id": 16,
            "name": "Cambridge"
          }
        ],
        "pollDivisionIds": [
          10137428
        ],
        "postalCode": "N1S4E1",
        "streetName": "INVERNESS",
        "streetDirectionId": null,
        "streetTypeId": "PL",
        "placeName": "CAMBRIDGE",
        "streetNameDisplayText": "INVERNESS PL, CAMBRIDGE"
      }
    ]
  },
  {
    "postal": "N1S4R2",
    "result": [
      {
        "electoralDistricts": [
          {
            "election": null,
            "id": 16,
            "name": "Cambridge"
          }
        ],
        "pollDivisionIds": [
          10137428
        ],
        "postalCode": "N1S4R2",
        "streetName": "BYTON",
        "streetDirectionId": null,
        "streetTypeId": "LANE",
        "placeName": "CAMBRIDGE",
        "streetNameDisplayText": "BYTON LANE, CAMBRIDGE"
      }
    ]
  },
  {
    "postal": "N1S6T0",
    "result": []
  },
  {
    "postal": "N1S3K5",
    "result": [
      {
        "electoralDistricts": [
          {
            "election": null,
            "id": 16,
            "name": "Cambridge"
          }
        ],
        "pollDivisionIds": [
          10137428
        ],
        "postalCode": "N1S3K5",
        "streetName": "PARKWOOD",
        "streetDirectionId": null,
        "streetTypeId": "DR",
        "placeName": "CAMBRIDGE",
        "streetNameDisplayText": "PARKWOOD DR, CAMBRIDGE"
      }
    ]
  },
  {
    "postal": "N1S3S3",
    "result": [
      {
        "electoralDistricts": [
          {
            "election": null,
            "id": 16,
            "name": "Cambridge"
          }
        ],
        "pollDivisionIds": [
          10137428
        ],
        "postalCode": "N1S3S3",
        "streetName": "SOUTHWOOD",
        "streetDirectionId": null,
        "streetTypeId": "DR",
        "placeName": "CAMBRIDGE",
        "streetNameDisplayText": "SOUTHWOOD DR, CAMBRIDGE"
      }
    ]
  },
  {
    "postal": "N1S3L4",
    "result": [
      {
        "electoralDistricts": [
          {
            "election": null,
            "id": 16,
            "name": "Cambridge"
          }
        ],
        "pollDivisionIds": [
          10137437
        ],
        "postalCode": "N1S3L4",
        "streetName": "HILLCREST",
        "streetDirectionId": null,
        "streetTypeId": "DR",
        "placeName": "CAMBRIDGE",
        "streetNameDisplayText": "HILLCREST DR, CAMBRIDGE"
      }
    ]
  },
  {
    "postal": "N1S9Y2",
    "result": []
  },
  {
    "postal": "N1S1E0",
    "result": []
  },
  {
    "postal": "N1S9A4",
    "result": []
  },
  {
    "postal": "N1S1L3",
    "result": [
      {
        "electoralDistricts": [
          {
            "election": null,
            "id": 16,
            "name": "Cambridge"
          }
        ],
        "pollDivisionIds": [
          10137437
        ],
        "postalCode": "N1S1L3",
        "streetName": "GLADSTONE",
        "streetDirectionId": null,
        "streetTypeId": "AVE",
        "placeName": "CAMBRIDGE",
        "streetNameDisplayText": "GLADSTONE AVE, CAMBRIDGE"
      }
    ]
  },
  {
    "postal": "N1S6N1",
    "result": []
  },
  {
    "postal": "N1S6G7",
    "result": []
  },
  {
    "postal": "N1S7W1",
    "result": []
  },
  {
    "postal": "N1S4M6",
    "result": [
      {
        "electoralDistricts": [
          {
            "election": null,
            "id": 16,
            "name": "Cambridge"
          }
        ],
        "pollDivisionIds": [
          10137428
        ],
        "postalCode": "N1S4M6",
        "streetName": "WOODSIDE",
        "streetDirectionId": null,
        "streetTypeId": "AVE",
        "placeName": "CAMBRIDGE",
        "streetNameDisplayText": "WOODSIDE AVE, CAMBRIDGE"
      }
    ]
  },
  {
    "postal": "N1S1K0",
    "result": []
  },
  {
    "postal": "N1S3E2",
    "result": [
      {
        "electoralDistricts": [
          {
            "election": null,
            "id": 16,
            "name": "Cambridge"
          }
        ],
        "pollDivisionIds": [
          10137451
        ],
        "postalCode": "N1S3E2",
        "streetName": "TAIT",
        "streetDirectionId": null,
        "streetTypeId": "ST",
        "placeName": "CAMBRIDGE",
        "streetNameDisplayText": "TAIT ST, CAMBRIDGE"
      }
    ]
  },
  {
    "postal": "N1S5H4",
    "result": []
  },
  {
    "postal": "N1S1K7",
    "result": [
      {
        "electoralDistricts": [
          {
            "election": null,
            "id": 16,
            "name": "Cambridge"
          }
        ],
        "pollDivisionIds": [
          10137428
        ],
        "postalCode": "N1S1K7",
        "streetName": "SALISBURY",
        "streetDirectionId": null,
        "streetTypeId": "AVE",
        "placeName": "CAMBRIDGE",
        "streetNameDisplayText": "SALISBURY AVE, CAMBRIDGE"
      }
    ]
  },
  {
    "postal": "N1S0H0",
    "result": []
  },
  {
    "postal": "N1S0J3",
    "result": []
  },
  {
    "postal": "N1S1X6",
    "result": [
      {
        "electoralDistricts": [
          {
            "election": null,
            "id": 16,
            "name": "Cambridge"
          }
        ],
        "pollDivisionIds": [
          10137451
        ],
        "postalCode": "N1S1X6",
        "streetName": "VICTORIA",
        "streetDirectionId": null,
        "streetTypeId": "AVE",
        "placeName": "CAMBRIDGE",
        "streetNameDisplayText": "VICTORIA AVE, CAMBRIDGE"
      }
    ]
  },
  {
    "postal": "N1S2Z6",
    "result": [
      {
        "electoralDistricts": [
          {
            "election": null,
            "id": 16,
            "name": "Cambridge"
          }
        ],
        "pollDivisionIds": [
          10137451
        ],
        "postalCode": "N1S2Z6",
        "streetName": "GLENMORRIS",
        "streetDirectionId": null,
        "streetTypeId": "ST",
        "placeName": "CAMBRIDGE",
        "streetNameDisplayText": "GLENMORRIS ST, CAMBRIDGE"
      }
    ]
  },
  {
    "postal": "N1S4R9",
    "result": [
      {
        "electoralDistricts": [
          {
            "election": null,
            "id": 16,
            "name": "Cambridge"
          }
        ],
        "pollDivisionIds": [
          10137428
        ],
        "postalCode": "N1S4R9",
        "streetName": "HARWOOD",
        "streetDirectionId": null,
        "streetTypeId": "RD",
        "placeName": "CAMBRIDGE",
        "streetNameDisplayText": "HARWOOD RD, CAMBRIDGE"
      }
    ]
  },
  {
    "postal": "N1S0W8",
    "result": []
  },
  {
    "postal": "N1S1L4",
    "result": [
      {
        "electoralDistricts": [
          {
            "election": null,
            "id": 16,
            "name": "Cambridge"
          }
        ],
        "pollDivisionIds": [
          10137437
        ],
        "postalCode": "N1S1L4",
        "streetName": "GLADSTONE",
        "streetDirectionId": null,
        "streetTypeId": "AVE",
        "placeName": "CAMBRIDGE",
        "streetNameDisplayText": "GLADSTONE AVE, CAMBRIDGE"
      }
    ]
  },
  {
    "postal": "N1S0C8",
    "result": []
  },
  {
    "postal": "N1S9X7",
    "result": []
  },
  {
    "postal": "N1S4T1",
    "result": [
      {
        "electoralDistricts": [
          {
            "election": null,
            "id": 16,
            "name": "Cambridge"
          }
        ],
        "pollDivisionIds": [
          10137428
        ],
        "postalCode": "N1S4T1",
        "streetName": "STIRLING MACGREGOR",
        "streetDirectionId": null,
        "streetTypeId": "DR",
        "placeName": "CAMBRIDGE",
        "streetNameDisplayText": "STIRLING MACGREGOR DR, CAMBRIDGE"
      }
    ]
  },
  {
    "postal": "N1S0M0",
    "result": []
  },
  {
    "postal": "N1S6A2",
    "result": []
  },
  {
    "postal": "N1S9S8",
    "result": []
  },
  {
    "postal": "N1S9T4",
    "result": []
  },
  {
    "postal": "N1S9Y4",
    "result": []
  },
  {
    "postal": "N1S6G5",
    "result": []
  },
  {
    "postal": "N1S6H9",
    "result": []
  },
  {
    "postal": "N1S2P3",
    "result": [
      {
        "electoralDistricts": [
          {
            "election": null,
            "id": 16,
            "name": "Cambridge"
          }
        ],
        "pollDivisionIds": [
          10137451
        ],
        "postalCode": "N1S2P3",
        "streetName": "RICHARDSON",
        "streetDirectionId": null,
        "streetTypeId": "ST",
        "placeName": "CAMBRIDGE",
        "streetNameDisplayText": "RICHARDSON ST, CAMBRIDGE"
      }
    ]
  },
  {
    "postal": "N1S1T6",
    "result": []
  },
  {
    "postal": "N1S4P6",
    "result": [
      {
        "electoralDistricts": [
          {
            "election": null,
            "id": 16,
            "name": "Cambridge"
          }
        ],
        "pollDivisionIds": [
          10137451
        ],
        "postalCode": "N1S4P6",
        "streetName": "VINCENT",
        "streetDirectionId": null,
        "streetTypeId": "DR",
        "placeName": "CAMBRIDGE",
        "streetNameDisplayText": "VINCENT DR, CAMBRIDGE"
      }
    ]
  },
  {
    "postal": "N1S3K1",
    "result": [
      {
        "electoralDistricts": [
          {
            "election": null,
            "id": 16,
            "name": "Cambridge"
          }
        ],
        "pollDivisionIds": [
          10137410
        ],
        "postalCode": "N1S3K1",
        "streetName": "ROSSLINN",
        "streetDirectionId": null,
        "streetTypeId": "RD",
        "placeName": "CAMBRIDGE",
        "streetNameDisplayText": "ROSSLINN RD, CAMBRIDGE"
      }
    ]
  },
  {
    "postal": "N1S6X4",
    "result": []
  },
  {
    "postal": "N1S4M8",
    "result": [
      {
        "electoralDistricts": [
          {
            "election": null,
            "id": 16,
            "name": "Cambridge"
          }
        ],
        "pollDivisionIds": [
          10137430
        ],
        "postalCode": "N1S4M8",
        "streetName": "BRUCE PARK",
        "streetDirectionId": null,
        "streetTypeId": "CRT",
        "placeName": "CAMBRIDGE",
        "streetNameDisplayText": "BRUCE PARK CRT, CAMBRIDGE"
      }
    ]
  },
  {
    "postal": "N1S2Y1",
    "result": [
      {
        "electoralDistricts": [
          {
            "election": null,
            "id": 16,
            "name": "Cambridge"
          }
        ],
        "pollDivisionIds": [
          10137451
        ],
        "postalCode": "N1S2Y1",
        "streetName": "GLENMORRIS",
        "streetDirectionId": null,
        "streetTypeId": "ST",
        "placeName": "CAMBRIDGE",
        "streetNameDisplayText": "GLENMORRIS ST, CAMBRIDGE"
      }
    ]
  },
  {
    "postal": "N1S6M1",
    "result": []
  },
  {
    "postal": "N1S5L8",
    "result": []
  },
  {
    "postal": "N1S3P6",
    "result": [
      {
        "electoralDistricts": [
          {
            "election": null,
            "id": 16,
            "name": "Cambridge"
          }
        ],
        "pollDivisionIds": [
          10137428
        ],
        "postalCode": "N1S3P6",
        "streetName": "SOUTHGATE",
        "streetDirectionId": null,
        "streetTypeId": "RD",
        "placeName": "CAMBRIDGE",
        "streetNameDisplayText": "SOUTHGATE RD, CAMBRIDGE"
      }
    ]
  },
  {
    "postal": "N1S9A5",
    "result": []
  },
  {
    "postal": "N1S7K1",
    "result": []
  },
  {
    "postal": "N1S3J4",
    "result": [
      {
        "electoralDistricts": [
          {
            "election": null,
            "id": 16,
            "name": "Cambridge"
          }
        ],
        "pollDivisionIds": [
          10137410
        ],
        "postalCode": "N1S3J4",
        "streetName": "DIANNE",
        "streetDirectionId": null,
        "streetTypeId": "AVE",
        "placeName": "CAMBRIDGE",
        "streetNameDisplayText": "DIANNE AVE, CAMBRIDGE"
      }
    ]
  },
  {
    "postal": "N1S5E7",
    "result": []
  },
  {
    "postal": "N1S3A7",
    "result": [
      {
        "electoralDistricts": [
          {
            "election": null,
            "id": 16,
            "name": "Cambridge"
          }
        ],
        "pollDivisionIds": [
          10137441
        ],
        "postalCode": "N1S3A7",
        "streetName": "BARRIE",
        "streetDirectionId": null,
        "streetTypeId": "ST",
        "placeName": "CAMBRIDGE",
        "streetNameDisplayText": "BARRIE ST, CAMBRIDGE"
      }
    ]
  },
  {
    "postal": "N1S1B9",
    "result": [
      {
        "electoralDistricts": [
          {
            "election": null,
            "id": 16,
            "name": "Cambridge"
          }
        ],
        "pollDivisionIds": [
          10137410
        ],
        "postalCode": "N1S1B9",
        "streetName": "GRANT",
        "streetDirectionId": null,
        "streetTypeId": "ST",
        "placeName": "CAMBRIDGE",
        "streetNameDisplayText": "GRANT ST, CAMBRIDGE"
      }
    ]
  },
  {
    "postal": "N1S9E8",
    "result": []
  },
  {
    "postal": "N1S1C9",
    "result": [
      {
        "electoralDistricts": [
          {
            "election": null,
            "id": 16,
            "name": "Cambridge"
          }
        ],
        "pollDivisionIds": [
          10137439
        ],
        "postalCode": "N1S1C9",
        "streetName": "PARK HILL",
        "streetDirectionId": "W",
        "streetTypeId": "RD",
        "placeName": "CAMBRIDGE",
        "streetNameDisplayText": "PARK HILL RD W, CAMBRIDGE"
      }
    ]
  },
  {
    "postal": "N1S3B5",
    "result": [
      {
        "electoralDistricts": [
          {
            "election": null,
            "id": 16,
            "name": "Cambridge"
          }
        ],
        "pollDivisionIds": [
          10137437
        ],
        "postalCode": "N1S3B5",
        "streetName": "FOREST",
        "streetDirectionId": null,
        "streetTypeId": "RD",
        "placeName": "CAMBRIDGE",
        "streetNameDisplayText": "FOREST RD, CAMBRIDGE"
      }
    ]
  },
  {
    "postal": "N1S8R0",
    "result": []
  },
  {
    "postal": "N1S3P2",
    "result": [
      {
        "electoralDistricts": [
          {
            "election": null,
            "id": 16,
            "name": "Cambridge"
          }
        ],
        "pollDivisionIds": [
          10137451
        ],
        "postalCode": "N1S3P2",
        "streetName": "BARBERRY",
        "streetDirectionId": null,
        "streetTypeId": "PL",
        "placeName": "CAMBRIDGE",
        "streetNameDisplayText": "BARBERRY PL, CAMBRIDGE"
      }
    ]
  },
  {
    "postal": "N1S5V4",
    "result": []
  },
  {
    "postal": "N1S4H0",
    "result": []
  },
  {
    "postal": "N1S4S7",
    "result": [
      {
        "electoralDistricts": [
          {
            "election": null,
            "id": 16,
            "name": "Cambridge"
          }
        ],
        "pollDivisionIds": [
          10137428
        ],
        "postalCode": "N1S4S7",
        "streetName": "HARWOOD",
        "streetDirectionId": null,
        "streetTypeId": "RD",
        "placeName": "CAMBRIDGE",
        "streetNameDisplayText": "HARWOOD RD, CAMBRIDGE"
      }
    ]
  },
  {
    "postal": "N1S6C2",
    "result": []
  },
  {
    "postal": "N1S8W3",
    "result": []
  },
  {
    "postal": "N1S4M5",
    "result": [
      {
        "electoralDistricts": [
          {
            "election": null,
            "id": 16,
            "name": "Cambridge"
          }
        ],
        "pollDivisionIds": [
          10137429
        ],
        "postalCode": "N1S4M5",
        "streetName": "SUNSET",
        "streetDirectionId": null,
        "streetTypeId": "BLVD",
        "placeName": "CAMBRIDGE",
        "streetNameDisplayText": "SUNSET BLVD, CAMBRIDGE"
      }
    ]
  },
  {
    "postal": "N1S5T1",
    "result": []
  },
  {
    "postal": "N1S3B3",
    "result": [
      {
        "electoralDistricts": [
          {
            "election": null,
            "id": 16,
            "name": "Cambridge"
          }
        ],
        "pollDivisionIds": [
          10137441
        ],
        "postalCode": "N1S3B3",
        "streetName": "FOREST",
        "streetDirectionId": null,
        "streetTypeId": "RD",
        "placeName": "CAMBRIDGE",
        "streetNameDisplayText": "FOREST RD, CAMBRIDGE"
      }
    ]
  },
  {
    "postal": "N1S6C6",
    "result": []
  },
  {
    "postal": "N1S7N8",
    "result": []
  },
  {
    "postal": "N1S2Y3",
    "result": [
      {
        "electoralDistricts": [
          {
            "election": null,
            "id": 16,
            "name": "Cambridge"
          }
        ],
        "pollDivisionIds": [
          10137451
        ],
        "postalCode": "N1S2Y3",
        "streetName": "GLENMORRIS",
        "streetDirectionId": null,
        "streetTypeId": "ST",
        "placeName": "CAMBRIDGE",
        "streetNameDisplayText": "GLENMORRIS ST, CAMBRIDGE"
      }
    ]
  },
  {
    "postal": "N1S2R6",
    "result": [
      {
        "electoralDistricts": [
          {
            "election": null,
            "id": 16,
            "name": "Cambridge"
          }
        ],
        "pollDivisionIds": [
          10137442
        ],
        "postalCode": "N1S2R6",
        "streetName": "CANT",
        "streetDirectionId": null,
        "streetTypeId": "AVE",
        "placeName": "CAMBRIDGE",
        "streetNameDisplayText": "CANT AVE, CAMBRIDGE"
      }
    ]
  },
  {
    "postal": "N1S7N3",
    "result": []
  },
  {
    "postal": "N1S8J2",
    "result": []
  },
  {
    "postal": "N1S6A9",
    "result": []
  },
  {
    "postal": "N1S3V2",
    "result": [
      {
        "electoralDistricts": [
          {
            "election": null,
            "id": 16,
            "name": "Cambridge"
          }
        ],
        "pollDivisionIds": [
          10137438
        ],
        "postalCode": "N1S3V2",
        "streetName": "CHURCHILL",
        "streetDirectionId": null,
        "streetTypeId": "DR",
        "placeName": "CAMBRIDGE",
        "streetNameDisplayText": "CHURCHILL DR, CAMBRIDGE"
      }
    ]
  },
  {
    "postal": "N1S2N3",
    "result": [
      {
        "electoralDistricts": [
          {
            "election": null,
            "id": 16,
            "name": "Cambridge"
          }
        ],
        "pollDivisionIds": [
          10137440
        ],
        "postalCode": "N1S2N3",
        "streetName": "GEORGE",
        "streetDirectionId": "S",
        "streetTypeId": "ST",
        "placeName": "CAMBRIDGE",
        "streetNameDisplayText": "GEORGE ST S, CAMBRIDGE"
      }
    ]
  },
  {
    "postal": "N1S1S5",
    "result": [
      {
        "electoralDistricts": [
          {
            "election": null,
            "id": 16,
            "name": "Cambridge"
          }
        ],
        "pollDivisionIds": [
          10137438
        ],
        "postalCode": "N1S1S5",
        "streetName": "BYRON",
        "streetDirectionId": null,
        "streetTypeId": "AVE",
        "placeName": "CAMBRIDGE",
        "streetNameDisplayText": "BYRON AVE, CAMBRIDGE"
      }
    ]
  },
  {
    "postal": "N1S4T7",
    "result": [
      {
        "electoralDistricts": [
          {
            "election": null,
            "id": 16,
            "name": "Cambridge"
          }
        ],
        "pollDivisionIds": [
          10137451
        ],
        "postalCode": "N1S4T7",
        "streetName": "OSBORNE",
        "streetDirectionId": null,
        "streetTypeId": "ST",
        "placeName": "CAMBRIDGE",
        "streetNameDisplayText": "OSBORNE ST, CAMBRIDGE"
      }
    ]
  },
  {
    "postal": "N1S6Y7",
    "result": []
  },
  {
    "postal": "N1S0W7",
    "result": []
  },
  {
    "postal": "N1S2W9",
    "result": [
      {
        "electoralDistricts": [
          {
            "election": null,
            "id": 16,
            "name": "Cambridge"
          }
        ],
        "pollDivisionIds": [
          10137439
        ],
        "postalCode": "N1S2W9",
        "streetName": "CHARLES",
        "streetDirectionId": null,
        "streetTypeId": "ST",
        "placeName": "CAMBRIDGE",
        "streetNameDisplayText": "CHARLES ST, CAMBRIDGE"
      }
    ]
  },
  {
    "postal": "N1S8V0",
    "result": []
  },
  {
    "postal": "N1S0H4",
    "result": []
  },
  {
    "postal": "N1S2T1",
    "result": [
      {
        "electoralDistricts": [
          {
            "election": null,
            "id": 16,
            "name": "Cambridge"
          }
        ],
        "pollDivisionIds": [
          10137440
        ],
        "postalCode": "N1S2T1",
        "streetName": "LANSDOWNE",
        "streetDirectionId": "N",
        "streetTypeId": "RD",
        "placeName": "CAMBRIDGE",
        "streetNameDisplayText": "LANSDOWNE RD N, CAMBRIDGE"
      }
    ]
  },
  {
    "postal": "N1S1B1",
    "result": [
      {
        "electoralDistricts": [
          {
            "election": null,
            "id": 16,
            "name": "Cambridge"
          }
        ],
        "pollDivisionIds": [
          10137430
        ],
        "postalCode": "N1S1B1",
        "streetName": "CLEARVIEW",
        "streetDirectionId": null,
        "streetTypeId": "DR",
        "placeName": "CAMBRIDGE",
        "streetNameDisplayText": "CLEARVIEW DR, CAMBRIDGE"
      }
    ]
  },
  {
    "postal": "N1S8B6",
    "result": []
  },
  {
    "postal": "N1S6H1",
    "result": []
  },
  {
    "postal": "N1S8T8",
    "result": []
  },
  {
    "postal": "N1S0T4",
    "result": []
  },
  {
    "postal": "N1S2C4",
    "result": [
      {
        "electoralDistricts": [
          {
            "election": null,
            "id": 16,
            "name": "Cambridge"
          }
        ],
        "pollDivisionIds": [
          10137453
        ],
        "postalCode": "N1S2C4",
        "streetName": "24",
        "streetDirectionId": null,
        "streetTypeId": "HWY",
        "placeName": "CAMBRIDGE",
        "streetNameDisplayText": "24 HWY, CAMBRIDGE"
      },
      {
        "electoralDistricts": [
          {
            "election": null,
            "id": 16,
            "name": "Cambridge"
          }
        ],
        "pollDivisionIds": [
          10137453
        ],
        "postalCode": "N1S2C4",
        "streetName": "BRANTFORD",
        "streetDirectionId": null,
        "streetTypeId": "HWY",
        "placeName": "CAMBRIDGE",
        "streetNameDisplayText": "BRANTFORD HWY, CAMBRIDGE"
      },
      {
        "electoralDistricts": [
          {
            "election": null,
            "id": 16,
            "name": "Cambridge"
          }
        ],
        "pollDivisionIds": [
          10137451
        ],
        "postalCode": "N1S2C4",
        "streetName": "THIRD",
        "streetDirectionId": null,
        "streetTypeId": "AVE",
        "placeName": "CAMBRIDGE",
        "streetNameDisplayText": "THIRD AVE, CAMBRIDGE"
      }
    ]
  },
  {
    "postal": "N1S8N3",
    "result": []
  },
  {
    "postal": "N1S4L8",
    "result": [
      {
        "electoralDistricts": [
          {
            "election": null,
            "id": 16,
            "name": "Cambridge"
          }
        ],
        "pollDivisionIds": [
          10137429
        ],
        "postalCode": "N1S4L8",
        "streetName": "SUNSET",
        "streetDirectionId": null,
        "streetTypeId": "BLVD",
        "placeName": "CAMBRIDGE",
        "streetNameDisplayText": "SUNSET BLVD, CAMBRIDGE"
      }
    ]
  },
  {
    "postal": "N1S2B5",
    "result": [
      {
        "electoralDistricts": [
          {
            "election": null,
            "id": 16,
            "name": "Cambridge"
          }
        ],
        "pollDivisionIds": [
          10137451
        ],
        "postalCode": "N1S2B5",
        "streetName": "FIRST",
        "streetDirectionId": null,
        "streetTypeId": "AVE",
        "placeName": "CAMBRIDGE",
        "streetNameDisplayText": "FIRST AVE, CAMBRIDGE"
      }
    ]
  },
  {
    "postal": "N1S3H1",
    "result": [
      {
        "electoralDistricts": [
          {
            "election": null,
            "id": 16,
            "name": "Cambridge"
          }
        ],
        "pollDivisionIds": [
          10137451
        ],
        "postalCode": "N1S3H1",
        "streetName": "OSBORNE",
        "streetDirectionId": null,
        "streetTypeId": "ST",
        "placeName": "CAMBRIDGE",
        "streetNameDisplayText": "OSBORNE ST, CAMBRIDGE"
      }
    ]
  },
  {
    "postal": "N1S4Y1",
    "result": [
      {
        "electoralDistricts": [
          {
            "election": null,
            "id": 16,
            "name": "Cambridge"
          }
        ],
        "pollDivisionIds": [
          10137410
        ],
        "postalCode": "N1S4Y1",
        "streetName": "FARMSTEAD",
        "streetDirectionId": null,
        "streetTypeId": "PL",
        "placeName": "CAMBRIDGE",
        "streetNameDisplayText": "FARMSTEAD PL, CAMBRIDGE"
      }
    ]
  },
  {
    "postal": "N1S7E2",
    "result": []
  },
  {
    "postal": "N1S2P5",
    "result": [
      {
        "electoralDistricts": [
          {
            "election": null,
            "id": 16,
            "name": "Cambridge"
          }
        ],
        "pollDivisionIds": [
          10137442
        ],
        "postalCode": "N1S2P5",
        "streetName": "RAMORE",
        "streetDirectionId": null,
        "streetTypeId": "ST",
        "placeName": "CAMBRIDGE",
        "streetNameDisplayText": "RAMORE ST, CAMBRIDGE"
      }
    ]
  },
  {
    "postal": "N1S8R7",
    "result": []
  },
  {
    "postal": "N1S9P1",
    "result": []
  },
  {
    "postal": "N1S3B8",
    "result": [
      {
        "electoralDistricts": [
          {
            "election": null,
            "id": 16,
            "name": "Cambridge"
          }
        ],
        "pollDivisionIds": [
          10137451
        ],
        "postalCode": "N1S3B8",
        "streetName": "FOREST",
        "streetDirectionId": null,
        "streetTypeId": "RD",
        "placeName": "CAMBRIDGE",
        "streetNameDisplayText": "FOREST RD, CAMBRIDGE"
      }
    ]
  },
  {
    "postal": "N1S3P7",
    "result": [
      {
        "electoralDistricts": [
          {
            "election": null,
            "id": 16,
            "name": "Cambridge"
          }
        ],
        "pollDivisionIds": [
          10137428
        ],
        "postalCode": "N1S3P7",
        "streetName": "SOUTHGATE",
        "streetDirectionId": null,
        "streetTypeId": "RD",
        "placeName": "CAMBRIDGE",
        "streetNameDisplayText": "SOUTHGATE RD, CAMBRIDGE"
      }
    ]
  },
  {
    "postal": "N1S9B2",
    "result": []
  },
  {
    "postal": "N1S6Z3",
    "result": []
  },
  {
    "postal": "N1S4N5",
    "result": [
      {
        "electoralDistricts": [
          {
            "election": null,
            "id": 16,
            "name": "Cambridge"
          }
        ],
        "pollDivisionIds": [
          10137428,
          10137451
        ],
        "postalCode": "N1S4N5",
        "streetName": "STIRLING MACGREGOR",
        "streetDirectionId": null,
        "streetTypeId": "DR",
        "placeName": "CAMBRIDGE",
        "streetNameDisplayText": "STIRLING MACGREGOR DR, CAMBRIDGE"
      }
    ]
  },
  {
    "postal": "N1S8T3",
    "result": []
  },
  {
    "postal": "N1S1V2",
    "result": [
      {
        "electoralDistricts": [
          {
            "election": null,
            "id": 16,
            "name": "Cambridge"
          }
        ],
        "pollDivisionIds": [
          10137451
        ],
        "postalCode": "N1S1V2",
        "streetName": "CEDAR",
        "streetDirectionId": null,
        "streetTypeId": "ST",
        "placeName": "CAMBRIDGE",
        "streetNameDisplayText": "CEDAR ST, CAMBRIDGE"
      }
    ]
  },
  {
    "postal": "N1S1Y0",
    "result": []
  },
  {
    "postal": "N1S3G6",
    "result": [
      {
        "electoralDistricts": [
          {
            "election": null,
            "id": 16,
            "name": "Cambridge"
          }
        ],
        "pollDivisionIds": [
          10137437
        ],
        "postalCode": "N1S3G6",
        "streetName": "BERKLEY",
        "streetDirectionId": null,
        "streetTypeId": "RD",
        "placeName": "CAMBRIDGE",
        "streetNameDisplayText": "BERKLEY RD, CAMBRIDGE"
      }
    ]
  },
  {
    "postal": "N1S3H7",
    "result": [
      {
        "electoralDistricts": [
          {
            "election": null,
            "id": 16,
            "name": "Cambridge"
          }
        ],
        "pollDivisionIds": [
          10137410
        ],
        "postalCode": "N1S3H7",
        "streetName": "KENMORE",
        "streetDirectionId": null,
        "streetTypeId": "AVE",
        "placeName": "CAMBRIDGE",
        "streetNameDisplayText": "KENMORE AVE, CAMBRIDGE"
      }
    ]
  },
  {
    "postal": "N1S7X8",
    "result": []
  },
  {
    "postal": "N1S0C7",
    "result": []
  },
  {
    "postal": "N1S0W9",
    "result": []
  },
  {
    "postal": "N1S8E6",
    "result": []
  },
  {
    "postal": "N1S9Z8",
    "result": []
  },
  {
    "postal": "N1S3P4",
    "result": [
      {
        "electoralDistricts": [
          {
            "election": null,
            "id": 16,
            "name": "Cambridge"
          }
        ],
        "pollDivisionIds": [
          10137428
        ],
        "postalCode": "N1S3P4",
        "streetName": "INVERNESS",
        "streetDirectionId": null,
        "streetTypeId": "DR",
        "placeName": "CAMBRIDGE",
        "streetNameDisplayText": "INVERNESS DR, CAMBRIDGE"
      }
    ]
  },
  {
    "postal": "N1S6L8",
    "result": []
  },
  {
    "postal": "N1S2R4",
    "result": [
      {
        "electoralDistricts": [
          {
            "election": null,
            "id": 16,
            "name": "Cambridge"
          }
        ],
        "pollDivisionIds": [
          10137451
        ],
        "postalCode": "N1S2R4",
        "streetName": "MIDDLETON",
        "streetDirectionId": null,
        "streetTypeId": "ST",
        "placeName": "CAMBRIDGE",
        "streetNameDisplayText": "MIDDLETON ST, CAMBRIDGE"
      }
    ]
  },
  {
    "postal": "N1S2W1",
    "result": [
      {
        "electoralDistricts": [
          {
            "election": null,
            "id": 16,
            "name": "Cambridge"
          }
        ],
        "pollDivisionIds": [
          10137440
        ],
        "postalCode": "N1S2W1",
        "streetName": "BRANT",
        "streetDirectionId": "N",
        "streetTypeId": "RD",
        "placeName": "CAMBRIDGE",
        "streetNameDisplayText": "BRANT RD N, CAMBRIDGE"
      }
    ]
  },
  {
    "postal": "N1S9H8",
    "result": []
  },
  {
    "postal": "N1S8X9",
    "result": []
  },
  {
    "postal": "N1S7H4",
    "result": []
  },
  {
    "postal": "N1S3J1",
    "result": [
      {
        "electoralDistricts": [
          {
            "election": null,
            "id": 16,
            "name": "Cambridge"
          }
        ],
        "pollDivisionIds": [
          10137410
        ],
        "postalCode": "N1S3J1",
        "streetName": "GLENDALE",
        "streetDirectionId": null,
        "streetTypeId": "PL",
        "placeName": "CAMBRIDGE",
        "streetNameDisplayText": "GLENDALE PL, CAMBRIDGE"
      }
    ]
  },
  {
    "postal": "N1S1P4",
    "result": [
      {
        "electoralDistricts": [
          {
            "election": null,
            "id": 16,
            "name": "Cambridge"
          }
        ],
        "pollDivisionIds": [
          10137428
        ],
        "postalCode": "N1S1P4",
        "streetName": "ST ANDREWS",
        "streetDirectionId": null,
        "streetTypeId": "ST",
        "placeName": "CAMBRIDGE",
        "streetNameDisplayText": "ST ANDREWS ST, CAMBRIDGE"
      }
    ]
  },
  {
    "postal": "N1S2A3",
    "result": [
      {
        "electoralDistricts": [
          {
            "election": null,
            "id": 16,
            "name": "Cambridge"
          }
        ],
        "pollDivisionIds": [
          10137451
        ],
        "postalCode": "N1S2A3",
        "streetName": "FRANCIS",
        "streetDirectionId": null,
        "streetTypeId": "ST",
        "placeName": "CAMBRIDGE",
        "streetNameDisplayText": "FRANCIS ST, CAMBRIDGE"
      }
    ]
  },
  {
    "postal": "N1S0Z1",
    "result": []
  },
  {
    "postal": "N1S1C1",
    "result": [
      {
        "electoralDistricts": [
          {
            "election": null,
            "id": 16,
            "name": "Cambridge"
          }
        ],
        "pollDivisionIds": [
          10137410
        ],
        "postalCode": "N1S1C1",
        "streetName": "GRANT",
        "streetDirectionId": null,
        "streetTypeId": "ST",
        "placeName": "CAMBRIDGE",
        "streetNameDisplayText": "GRANT ST, CAMBRIDGE"
      }
    ]
  },
  {
    "postal": "N1S0H3",
    "result": []
  },
  {
    "postal": "N1S7B0",
    "result": []
  },
  {
    "postal": "N1S5K2",
    "result": []
  },
  {
    "postal": "N1S1E9",
    "result": [
      {
        "electoralDistricts": [
          {
            "election": null,
            "id": 16,
            "name": "Cambridge"
          }
        ],
        "pollDivisionIds": [
          10137440,
          10137439
        ],
        "postalCode": "N1S1E9",
        "streetName": "BLENHEIM",
        "streetDirectionId": null,
        "streetTypeId": "RD",
        "placeName": "CAMBRIDGE",
        "streetNameDisplayText": "BLENHEIM RD, CAMBRIDGE"
      }
    ]
  },
  {
    "postal": "N1S9W7",
    "result": []
  },
  {
    "postal": "N1S5W6",
    "result": []
  },
  {
    "postal": "N1S6S6",
    "result": []
  },
  {
    "postal": "N1S2P8",
    "result": [
      {
        "electoralDistricts": [
          {
            "election": null,
            "id": 16,
            "name": "Cambridge"
          }
        ],
        "pollDivisionIds": [
          10137451
        ],
        "postalCode": "N1S2P8",
        "streetName": "RAMORE",
        "streetDirectionId": null,
        "streetTypeId": "ST",
        "placeName": "CAMBRIDGE",
        "streetNameDisplayText": "RAMORE ST, CAMBRIDGE"
      }
    ]
  },
  {
    "postal": "N1S4P8",
    "result": [
      {
        "electoralDistricts": [
          {
            "election": null,
            "id": 16,
            "name": "Cambridge"
          }
        ],
        "pollDivisionIds": [
          10137428
        ],
        "postalCode": "N1S4P8",
        "streetName": "WEDGEWOOD",
        "streetDirectionId": null,
        "streetTypeId": "DR",
        "placeName": "CAMBRIDGE",
        "streetNameDisplayText": "WEDGEWOOD DR, CAMBRIDGE"
      }
    ]
  },
  {
    "postal": "N1S0V9",
    "result": []
  },
  {
    "postal": "N1S5Y2",
    "result": []
  },
  {
    "postal": "N1S7Z7",
    "result": []
  },
  {
    "postal": "N1S6Y8",
    "result": []
  },
  {
    "postal": "N1S2G7",
    "result": [
      {
        "electoralDistricts": [
          {
            "election": null,
            "id": 16,
            "name": "Cambridge"
          }
        ],
        "pollDivisionIds": [
          10137451
        ],
        "postalCode": "N1S2G7",
        "streetName": "CULHAM",
        "streetDirectionId": null,
        "streetTypeId": "DR",
        "placeName": "CAMBRIDGE",
        "streetNameDisplayText": "CULHAM DR, CAMBRIDGE"
      }
    ]
  },
  {
    "postal": "N1S8C1",
    "result": []
  },
  {
    "postal": "N1S5C5",
    "result": []
  },
  {
    "postal": "N1S2X8",
    "result": [
      {
        "electoralDistricts": [
          {
            "election": null,
            "id": 16,
            "name": "Cambridge"
          }
        ],
        "pollDivisionIds": [
          10137442
        ],
        "postalCode": "N1S2X8",
        "streetName": "ABERDEEN",
        "streetDirectionId": "S",
        "streetTypeId": "RD",
        "placeName": "CAMBRIDGE",
        "streetNameDisplayText": "ABERDEEN RD S, CAMBRIDGE"
      }
    ]
  },
  {
    "postal": "N1S1W5",
    "result": [
      {
        "electoralDistricts": [
          {
            "election": null,
            "id": 16,
            "name": "Cambridge"
          }
        ],
        "pollDivisionIds": [
          10137451,
          10137438
        ],
        "postalCode": "N1S1W5",
        "streetName": "CEDAR",
        "streetDirectionId": null,
        "streetTypeId": "ST",
        "placeName": "CAMBRIDGE",
        "streetNameDisplayText": "CEDAR ST, CAMBRIDGE"
      }
    ]
  },
  {
    "postal": "N1S7G0",
    "result": []
  },
  {
    "postal": "N1S8J8",
    "result": []
  },
  {
    "postal": "N1S3Y0",
    "result": []
  },
  {
    "postal": "N1S9T7",
    "result": []
  },
  {
    "postal": "N1S5P4",
    "result": []
  },
  {
    "postal": "N1S4B0",
    "result": []
  },
  {
    "postal": "N1S9N8",
    "result": []
  },
  {
    "postal": "N1S4A7",
    "result": [
      {
        "electoralDistricts": [
          {
            "election": null,
            "id": 16,
            "name": "Cambridge"
          }
        ],
        "pollDivisionIds": [
          10137428
        ],
        "postalCode": "N1S4A7",
        "streetName": "JOHANNA",
        "streetDirectionId": null,
        "streetTypeId": "DR",
        "placeName": "CAMBRIDGE",
        "streetNameDisplayText": "JOHANNA DR, CAMBRIDGE"
      }
    ]
  },
  {
    "postal": "N1S4H9",
    "result": [
      {
        "electoralDistricts": [
          {
            "election": null,
            "id": 16,
            "name": "Cambridge"
          }
        ],
        "pollDivisionIds": [
          10137430
        ],
        "postalCode": "N1S4H9",
        "streetName": "WESTMOUNT",
        "streetDirectionId": null,
        "streetTypeId": "MEWS",
        "placeName": "CAMBRIDGE",
        "streetNameDisplayText": "WESTMOUNT MEWS, CAMBRIDGE"
      }
    ]
  },
  {
    "postal": "N1S6X1",
    "result": []
  },
  {
    "postal": "N1S9Y7",
    "result": []
  },
  {
    "postal": "N1S2Y5",
    "result": [
      {
        "electoralDistricts": [
          {
            "election": null,
            "id": 16,
            "name": "Cambridge"
          }
        ],
        "pollDivisionIds": [
          10137451
        ],
        "postalCode": "N1S2Y5",
        "streetName": "GLENMORRIS",
        "streetDirectionId": null,
        "streetTypeId": "ST",
        "placeName": "CAMBRIDGE",
        "streetNameDisplayText": "GLENMORRIS ST, CAMBRIDGE"
      }
    ]
  },
  {
    "postal": "N1S8L7",
    "result": []
  },
  {
    "postal": "N1S2A8",
    "result": [
      {
        "electoralDistricts": [
          {
            "election": null,
            "id": 16,
            "name": "Cambridge"
          }
        ],
        "pollDivisionIds": [
          10137428
        ],
        "postalCode": "N1S2A8",
        "streetName": "WEDGEWOOD",
        "streetDirectionId": null,
        "streetTypeId": "DR",
        "placeName": "CAMBRIDGE",
        "streetNameDisplayText": "WEDGEWOOD DR, CAMBRIDGE"
      }
    ]
  },
  {
    "postal": "N1S2K9",
    "result": [
      {
        "electoralDistricts": [
          {
            "election": null,
            "id": 16,
            "name": "Cambridge"
          }
        ],
        "pollDivisionIds": [
          10137440
        ],
        "postalCode": "N1S2K9",
        "streetName": "GRAND",
        "streetDirectionId": "N",
        "streetTypeId": "AVE",
        "placeName": "CAMBRIDGE",
        "streetNameDisplayText": "GRAND AVE N, CAMBRIDGE"
      }
    ]
  },
  {
    "postal": "N1S3E5",
    "result": [
      {
        "electoralDistricts": [
          {
            "election": null,
            "id": 16,
            "name": "Cambridge"
          }
        ],
        "pollDivisionIds": [
          10137451
        ],
        "postalCode": "N1S3E5",
        "streetName": "TAIT",
        "streetDirectionId": null,
        "streetTypeId": "ST",
        "placeName": "CAMBRIDGE",
        "streetNameDisplayText": "TAIT ST, CAMBRIDGE"
      }
    ]
  },
  {
    "postal": "N1S8N6",
    "result": []
  },
  {
    "postal": "N1S8J4",
    "result": []
  },
  {
    "postal": "N1S4R7",
    "result": [
      {
        "electoralDistricts": [
          {
            "election": null,
            "id": 16,
            "name": "Cambridge"
          }
        ],
        "pollDivisionIds": [
          10137410
        ],
        "postalCode": "N1S4R7",
        "streetName": "PRINCESS",
        "streetDirectionId": null,
        "streetTypeId": "ST",
        "placeName": "CAMBRIDGE",
        "streetNameDisplayText": "PRINCESS ST, CAMBRIDGE"
      }
    ]
  },
  {
    "postal": "N1S9K1",
    "result": []
  },
  {
    "postal": "N1S8E1",
    "result": []
  },
  {
    "postal": "N1S0R1",
    "result": []
  },
  {
    "postal": "N1S4J3",
    "result": [
      {
        "electoralDistricts": [
          {
            "election": null,
            "id": 16,
            "name": "Cambridge"
          }
        ],
        "pollDivisionIds": [
          10137428
        ],
        "postalCode": "N1S4J3",
        "streetName": "WHITE OAK",
        "streetDirectionId": null,
        "streetTypeId": "DR",
        "placeName": "CAMBRIDGE",
        "streetNameDisplayText": "WHITE OAK DR, CAMBRIDGE"
      }
    ]
  },
  {
    "postal": "N1S7E7",
    "result": []
  },
  {
    "postal": "N1S0J0",
    "result": []
  },
  {
    "postal": "N1S7R8",
    "result": []
  },
  {
    "postal": "N1S9X0",
    "result": []
  },
  {
    "postal": "N1S7P6",
    "result": []
  },
  {
    "postal": "N1S0R7",
    "result": []
  },
  {
    "postal": "N1S5W1",
    "result": []
  },
  {
    "postal": "N1S0K4",
    "result": []
  },
  {
    "postal": "N1S7N9",
    "result": []
  },
  {
    "postal": "N1S1N0",
    "result": []
  },
  {
    "postal": "N1S6P3",
    "result": []
  },
  {
    "postal": "N1S5A1",
    "result": [
      {
        "electoralDistricts": [
          {
            "election": null,
            "id": 16,
            "name": "Cambridge"
          }
        ],
        "pollDivisionIds": [
          10137428
        ],
        "postalCode": "N1S5A1",
        "streetName": "BEAULY",
        "streetDirectionId": null,
        "streetTypeId": "PL",
        "placeName": "CAMBRIDGE",
        "streetNameDisplayText": "BEAULY PL, CAMBRIDGE"
      },
      {
        "electoralDistricts": [
          {
            "election": null,
            "id": 16,
            "name": "Cambridge"
          }
        ],
        "pollDivisionIds": [
          10137428
        ],
        "postalCode": "N1S5A1",
        "streetName": "STIRLING MACGREGOR",
        "streetDirectionId": null,
        "streetTypeId": "DR",
        "placeName": "CAMBRIDGE",
        "streetNameDisplayText": "STIRLING MACGREGOR DR, CAMBRIDGE"
      }
    ]
  },
  {
    "postal": "N1S9M9",
    "result": []
  },
  {
    "postal": "N1S7T6",
    "result": []
  },
  {
    "postal": "N1S3X0",
    "result": []
  },
  {
    "postal": "N1S2T0",
    "result": []
  },
  {
    "postal": "N1S5X9",
    "result": []
  },
  {
    "postal": "N1S2R3",
    "result": [
      {
        "electoralDistricts": [
          {
            "election": null,
            "id": 16,
            "name": "Cambridge"
          }
        ],
        "pollDivisionIds": [
          10137451
        ],
        "postalCode": "N1S2R3",
        "streetName": "MIDDLETON",
        "streetDirectionId": null,
        "streetTypeId": "ST",
        "placeName": "CAMBRIDGE",
        "streetNameDisplayText": "MIDDLETON ST, CAMBRIDGE"
      }
    ]
  },
  {
    "postal": "N1S5N2",
    "result": []
  },
  {
    "postal": "N1S4Y7",
    "result": [
      {
        "electoralDistricts": [
          {
            "election": null,
            "id": 16,
            "name": "Cambridge"
          }
        ],
        "pollDivisionIds": [
          10137451
        ],
        "postalCode": "N1S4Y7",
        "streetName": "GRAND RIDGE",
        "streetDirectionId": null,
        "streetTypeId": "DR",
        "placeName": "CAMBRIDGE",
        "streetNameDisplayText": "GRAND RIDGE DR, CAMBRIDGE"
      }
    ]
  },
  {
    "postal": "N1S7M0",
    "result": []
  },
  {
    "postal": "N1S8P3",
    "result": []
  },
  {
    "postal": "N1S3N3",
    "result": [
      {
        "electoralDistricts": [
          {
            "election": null,
            "id": 16,
            "name": "Cambridge"
          }
        ],
        "pollDivisionIds": [
          10137451
        ],
        "postalCode": "N1S3N3",
        "streetName": "BORDEN",
        "streetDirectionId": null,
        "streetTypeId": "ST",
        "placeName": "CAMBRIDGE",
        "streetNameDisplayText": "BORDEN ST, CAMBRIDGE"
      }
    ]
  },
  {
    "postal": "N1S7S3",
    "result": []
  },
  {
    "postal": "N1S3V9",
    "result": [
      {
        "electoralDistricts": [
          {
            "election": null,
            "id": 16,
            "name": "Cambridge"
          }
        ],
        "pollDivisionIds": [
          10137451
        ],
        "postalCode": "N1S3V9",
        "streetName": "INVERNESS",
        "streetDirectionId": null,
        "streetTypeId": "DR",
        "placeName": "CAMBRIDGE",
        "streetNameDisplayText": "INVERNESS DR, CAMBRIDGE"
      }
    ]
  },
  {
    "postal": "N1S9N7",
    "result": []
  },
  {
    "postal": "N1S0G4",
    "result": []
  },
  {
    "postal": "N1S2E2",
    "result": [
      {
        "electoralDistricts": [
          {
            "election": null,
            "id": 16,
            "name": "Cambridge"
          }
        ],
        "pollDivisionIds": [
          10137451
        ],
        "postalCode": "N1S2E2",
        "streetName": "FOURTH",
        "streetDirectionId": null,
        "streetTypeId": "AVE",
        "placeName": "CAMBRIDGE",
        "streetNameDisplayText": "FOURTH AVE, CAMBRIDGE"
      }
    ]
  },
  {
    "postal": "N1S7W8",
    "result": []
  },
  {
    "postal": "N1S7M5",
    "result": []
  },
  {
    "postal": "N1S5W8",
    "result": []
  },
  {
    "postal": "N1S5E5",
    "result": []
  },
  {
    "postal": "N1S1P9",
    "result": [
      {
        "electoralDistricts": [
          {
            "election": null,
            "id": 16,
            "name": "Cambridge"
          }
        ],
        "pollDivisionIds": [
          10137442
        ],
        "postalCode": "N1S1P9",
        "streetName": "CHURCHILL",
        "streetDirectionId": null,
        "streetTypeId": "DR",
        "placeName": "CAMBRIDGE",
        "streetNameDisplayText": "CHURCHILL DR, CAMBRIDGE"
      }
    ]
  },
  {
    "postal": "N1S8V8",
    "result": []
  },
  {
    "postal": "N1S9G8",
    "result": []
  },
  {
    "postal": "N1S8H9",
    "result": []
  },
  {
    "postal": "N1S1Z1",
    "result": [
      {
        "electoralDistricts": [
          {
            "election": null,
            "id": 16,
            "name": "Cambridge"
          }
        ],
        "pollDivisionIds": [
          10137451
        ],
        "postalCode": "N1S1Z1",
        "streetName": "SELKIRK",
        "streetDirectionId": null,
        "streetTypeId": "ST",
        "placeName": "CAMBRIDGE",
        "streetNameDisplayText": "SELKIRK ST, CAMBRIDGE"
      }
    ]
  },
  {
    "postal": "N1S8M3",
    "result": []
  },
  {
    "postal": "N1S5H6",
    "result": []
  },
  {
    "postal": "N1S7W7",
    "result": []
  },
  {
    "postal": "N1S4L0",
    "result": []
  },
  {
    "postal": "N1S2N1",
    "result": [
      {
        "electoralDistricts": [
          {
            "election": null,
            "id": 16,
            "name": "Cambridge"
          }
        ],
        "pollDivisionIds": [
          10137440
        ],
        "postalCode": "N1S2N1",
        "streetName": "GEORGE",
        "streetDirectionId": "N",
        "streetTypeId": "ST",
        "placeName": "CAMBRIDGE",
        "streetNameDisplayText": "GEORGE ST N, CAMBRIDGE"
      }
    ]
  },
  {
    "postal": "N1S2H4",
    "result": [
      {
        "electoralDistricts": [
          {
            "election": null,
            "id": 16,
            "name": "Cambridge"
          }
        ],
        "pollDivisionIds": [
          10137440
        ],
        "postalCode": "N1S2H4",
        "streetName": "MELVILLE",
        "streetDirectionId": "S",
        "streetTypeId": "ST",
        "placeName": "CAMBRIDGE",
        "streetNameDisplayText": "MELVILLE ST S, CAMBRIDGE"
      }
    ]
  },
  {
    "postal": "N1S5C8",
    "result": []
  },
  {
    "postal": "N1S8B0",
    "result": []
  },
  {
    "postal": "N1S1T4",
    "result": [
      {
        "electoralDistricts": [
          {
            "election": null,
            "id": 16,
            "name": "Cambridge"
          }
        ],
        "pollDivisionIds": [
          10137442
        ],
        "postalCode": "N1S1T4",
        "streetName": "GILHOLM",
        "streetDirectionId": null,
        "streetTypeId": "AVE",
        "placeName": "CAMBRIDGE",
        "streetNameDisplayText": "GILHOLM AVE, CAMBRIDGE"
      }
    ]
  },
  {
    "postal": "N1S7N7",
    "result": []
  },
  {
    "postal": "N1S4L3",
    "result": [
      {
        "electoralDistricts": [
          {
            "election": null,
            "id": 16,
            "name": "Cambridge"
          }
        ],
        "pollDivisionIds": [
          10137451
        ],
        "postalCode": "N1S4L3",
        "streetName": "CULHAM",
        "streetDirectionId": null,
        "streetTypeId": "DR",
        "placeName": "CAMBRIDGE",
        "streetNameDisplayText": "CULHAM DR, CAMBRIDGE"
      }
    ]
  },
  {
    "postal": "N1S2N2",
    "result": [
      {
        "electoralDistricts": [
          {
            "election": null,
            "id": 16,
            "name": "Cambridge"
          }
        ],
        "pollDivisionIds": [
          10137439
        ],
        "postalCode": "N1S2N2",
        "streetName": "GEORGE",
        "streetDirectionId": "N",
        "streetTypeId": "ST",
        "placeName": "CAMBRIDGE",
        "streetNameDisplayText": "GEORGE ST N, CAMBRIDGE"
      }
    ]
  },
  {
    "postal": "N1S4N8",
    "result": [
      {
        "electoralDistricts": [
          {
            "election": null,
            "id": 16,
            "name": "Cambridge"
          }
        ],
        "pollDivisionIds": [
          10137428
        ],
        "postalCode": "N1S4N8",
        "streetName": "GRAND RIDGE",
        "streetDirectionId": null,
        "streetTypeId": "DR",
        "placeName": "CAMBRIDGE",
        "streetNameDisplayText": "GRAND RIDGE DR, CAMBRIDGE"
      }
    ]
  },
  {
    "postal": "N1S3M5",
    "result": [
      {
        "electoralDistricts": [
          {
            "election": null,
            "id": 16,
            "name": "Cambridge"
          }
        ],
        "pollDivisionIds": [
          10137438
        ],
        "postalCode": "N1S3M5",
        "streetName": "BRIAR HILL",
        "streetDirectionId": null,
        "streetTypeId": "AVE",
        "placeName": "CAMBRIDGE",
        "streetNameDisplayText": "BRIAR HILL AVE, CAMBRIDGE"
      }
    ]
  },
  {
    "postal": "N1S6H7",
    "result": []
  },
  {
    "postal": "N1S8Y8",
    "result": []
  },
  {
    "postal": "N1S5R9",
    "result": []
  },
  {
    "postal": "N1S8G3",
    "result": []
  },
  {
    "postal": "N1S4N7",
    "result": [
      {
        "electoralDistricts": [
          {
            "election": null,
            "id": 16,
            "name": "Cambridge"
          }
        ],
        "pollDivisionIds": [
          10137410
        ],
        "postalCode": "N1S4N7",
        "streetName": "LESLIE",
        "streetDirectionId": null,
        "streetTypeId": "AVE",
        "placeName": "CAMBRIDGE",
        "streetNameDisplayText": "LESLIE AVE, CAMBRIDGE"
      }
    ]
  },
  {
    "postal": "N1S0B9",
    "result": []
  },
  {
    "postal": "N1S9K7",
    "result": []
  },
  {
    "postal": "N1S9K9",
    "result": []
  },
  {
    "postal": "N1S3Z2",
    "result": [
      {
        "electoralDistricts": [
          {
            "election": null,
            "id": 16,
            "name": "Cambridge"
          }
        ],
        "pollDivisionIds": [
          10137428
        ],
        "postalCode": "N1S3Z2",
        "streetName": "WESTWOOD",
        "streetDirectionId": null,
        "streetTypeId": "CRES",
        "placeName": "CAMBRIDGE",
        "streetNameDisplayText": "WESTWOOD CRES, CAMBRIDGE"
      }
    ]
  },
  {
    "postal": "N1S6W7",
    "result": []
  },
  {
    "postal": "N1S0P1",
    "result": []
  },
  {
    "postal": "N1S3A0",
    "result": []
  },
  {
    "postal": "N1S8L9",
    "result": []
  },
  {
    "postal": "N1S6X0",
    "result": []
  },
  {
    "postal": "N1S3E9",
    "result": [
      {
        "electoralDistricts": [
          {
            "election": null,
            "id": 16,
            "name": "Cambridge"
          }
        ],
        "pollDivisionIds": [
          10137451
        ],
        "postalCode": "N1S3E9",
        "streetName": "TAIT",
        "streetDirectionId": null,
        "streetTypeId": "ST",
        "placeName": "CAMBRIDGE",
        "streetNameDisplayText": "TAIT ST, CAMBRIDGE"
      }
    ]
  },
  {
    "postal": "N1S0S5",
    "result": []
  },
  {
    "postal": "N1S1A2",
    "result": [
      {
        "electoralDistricts": [
          {
            "election": null,
            "id": 16,
            "name": "Cambridge"
          }
        ],
        "pollDivisionIds": [
          10137410
        ],
        "postalCode": "N1S1A2",
        "streetName": "NEWMAN",
        "streetDirectionId": null,
        "streetTypeId": "DR",
        "placeName": "CAMBRIDGE",
        "streetNameDisplayText": "NEWMAN DR, CAMBRIDGE"
      }
    ]
  },
  {
    "postal": "N1S5V8",
    "result": []
  },
  {
    "postal": "N1S8C5",
    "result": []
  },
  {
    "postal": "N1S6N0",
    "result": []
  },
  {
    "postal": "N1S9E6",
    "result": []
  },
  {
    "postal": "N1S5J7",
    "result": []
  },
  {
    "postal": "N1S2R2",
    "result": [
      {
        "electoralDistricts": [
          {
            "election": null,
            "id": 16,
            "name": "Cambridge"
          }
        ],
        "pollDivisionIds": [
          10137452
        ],
        "postalCode": "N1S2R2",
        "streetName": "MIDDLETON",
        "streetDirectionId": null,
        "streetTypeId": "ST",
        "placeName": "CAMBRIDGE",
        "streetNameDisplayText": "MIDDLETON ST, CAMBRIDGE"
      }
    ]
  },
  {
    "postal": "N1S0P5",
    "result": []
  },
  {
    "postal": "N1S5A7",
    "result": [
      {
        "electoralDistricts": [
          {
            "election": null,
            "id": 16,
            "name": "Cambridge"
          }
        ],
        "pollDivisionIds": [
          10137410
        ],
        "postalCode": "N1S5A7",
        "streetName": "HALE",
        "streetDirectionId": null,
        "streetTypeId": "CRT",
        "placeName": "CAMBRIDGE",
        "streetNameDisplayText": "HALE CRT, CAMBRIDGE"
      },
      {
        "electoralDistricts": [
          {
            "election": null,
            "id": 37,
            "name": "Hamilton EastStoney Creek"
          }
        ],
        "pollDivisionIds": [
          10138642
        ],
        "postalCode": "N1S5A7",
        "streetName": "HALECT CAMBRIDGE",
        "streetDirectionId": null,
        "streetTypeId": null,
        "placeName": "HAMILTON",
        "streetNameDisplayText": "HALECT CAMBRIDGE, HAMILTON"
      },
      {
        "electoralDistricts": [
          {
            "election": null,
            "id": 16,
            "name": "Cambridge"
          }
        ],
        "pollDivisionIds": [
          10137410
        ],
        "postalCode": "N1S5A7",
        "streetName": "WESTCLIFF",
        "streetDirectionId": null,
        "streetTypeId": "WAY",
        "placeName": "CAMBRIDGE",
        "streetNameDisplayText": "WESTCLIFF WAY, CAMBRIDGE"
      }
    ]
  },
  {
    "postal": "N1S1G1",
    "result": [
      {
        "electoralDistricts": [
          {
            "election": null,
            "id": 16,
            "name": "Cambridge"
          }
        ],
        "pollDivisionIds": [
          10137428
        ],
        "postalCode": "N1S1G1",
        "streetName": "BLENHEIM",
        "streetDirectionId": null,
        "streetTypeId": "RD",
        "placeName": "CAMBRIDGE",
        "streetNameDisplayText": "BLENHEIM RD, CAMBRIDGE"
      }
    ]
  },
  {
    "postal": "N1S9R6",
    "result": []
  },
  {
    "postal": "N1S4Z9",
    "result": [
      {
        "electoralDistricts": [
          {
            "election": null,
            "id": 16,
            "name": "Cambridge"
          }
        ],
        "pollDivisionIds": [
          10137428
        ],
        "postalCode": "N1S4Z9",
        "streetName": "STIRLING MACGREGOR",
        "streetDirectionId": null,
        "streetTypeId": "DR",
        "placeName": "CAMBRIDGE",
        "streetNameDisplayText": "STIRLING MACGREGOR DR, CAMBRIDGE"
      },
      {
        "electoralDistricts": [
          {
            "election": null,
            "id": 16,
            "name": "Cambridge"
          }
        ],
        "pollDivisionIds": [
          10137428
        ],
        "postalCode": "N1S4Z9",
        "streetName": "SUNCREST",
        "streetDirectionId": null,
        "streetTypeId": "CRT",
        "placeName": "CAMBRIDGE",
        "streetNameDisplayText": "SUNCREST CRT, CAMBRIDGE"
      }
    ]
  },
  {
    "postal": "N1S1V5",
    "result": [
      {
        "electoralDistricts": [
          {
            "election": null,
            "id": 16,
            "name": "Cambridge"
          }
        ],
        "pollDivisionIds": [
          10137451
        ],
        "postalCode": "N1S1V5",
        "streetName": "CEDAR",
        "streetDirectionId": null,
        "streetTypeId": "ST",
        "placeName": "CAMBRIDGE",
        "streetNameDisplayText": "CEDAR ST, CAMBRIDGE"
      }
    ]
  },
  {
    "postal": "N1S9Y5",
    "result": []
  },
  {
    "postal": "N1S1P2",
    "result": [
      {
        "electoralDistricts": [
          {
            "election": null,
            "id": 16,
            "name": "Cambridge"
          }
        ],
        "pollDivisionIds": [
          10137451
        ],
        "postalCode": "N1S1P2",
        "streetName": "ST ANDREWS",
        "streetDirectionId": null,
        "streetTypeId": "ST",
        "placeName": "CAMBRIDGE",
        "streetNameDisplayText": "ST ANDREWS ST, CAMBRIDGE"
      }
    ]
  },
  {
    "postal": "N1S5X0",
    "result": []
  },
  {
    "postal": "N1S7B8",
    "result": []
  },
  {
    "postal": "N1S0C6",
    "result": []
  },
  {
    "postal": "N1S6G1",
    "result": []
  },
  {
    "postal": "N1S3K3",
    "result": [
      {
        "electoralDistricts": [
          {
            "election": null,
            "id": 16,
            "name": "Cambridge"
          }
        ],
        "pollDivisionIds": [
          10137410
        ],
        "postalCode": "N1S3K3",
        "streetName": "ROSSLINN",
        "streetDirectionId": null,
        "streetTypeId": "RD",
        "placeName": "CAMBRIDGE",
        "streetNameDisplayText": "ROSSLINN RD, CAMBRIDGE"
      }
    ]
  },
  {
    "postal": "N1S9R0",
    "result": []
  },
  {
    "postal": "N1S4R8",
    "result": [
      {
        "electoralDistricts": [
          {
            "election": null,
            "id": 16,
            "name": "Cambridge"
          }
        ],
        "pollDivisionIds": [
          10137428
        ],
        "postalCode": "N1S4R8",
        "streetName": "WOODSIDE",
        "streetDirectionId": null,
        "streetTypeId": "AVE",
        "placeName": "CAMBRIDGE",
        "streetNameDisplayText": "WOODSIDE AVE, CAMBRIDGE"
      }
    ]
  },
  {
    "postal": "N1S5P9",
    "result": []
  },
  {
    "postal": "N1S8N4",
    "result": []
  },
  {
    "postal": "N1S8H4",
    "result": []
  },
  {
    "postal": "N1S4V1",
    "result": []
  },
  {
    "postal": "N1S1K5",
    "result": [
      {
        "electoralDistricts": [
          {
            "election": null,
            "id": 16,
            "name": "Cambridge"
          }
        ],
        "pollDivisionIds": [
          10137428
        ],
        "postalCode": "N1S1K5",
        "streetName": "SALISBURY",
        "streetDirectionId": null,
        "streetTypeId": "AVE",
        "placeName": "CAMBRIDGE",
        "streetNameDisplayText": "SALISBURY AVE, CAMBRIDGE"
      }
    ]
  },
  {
    "postal": "N1S1Z5",
    "result": [
      {
        "electoralDistricts": [
          {
            "election": null,
            "id": 16,
            "name": "Cambridge"
          }
        ],
        "pollDivisionIds": [
          10137451
        ],
        "postalCode": "N1S1Z5",
        "streetName": "SELKIRK",
        "streetDirectionId": null,
        "streetTypeId": "ST",
        "placeName": "CAMBRIDGE",
        "streetNameDisplayText": "SELKIRK ST, CAMBRIDGE"
      }
    ]
  },
  {
    "postal": "N1S9L9",
    "result": []
  },
  {
    "postal": "N1S5L2",
    "result": []
  },
  {
    "postal": "N1S0M2",
    "result": []
  },
  {
    "postal": "N1S1K8",
    "result": []
  },
  {
    "postal": "N1S3M7",
    "result": [
      {
        "electoralDistricts": [
          {
            "election": null,
            "id": 16,
            "name": "Cambridge"
          }
        ],
        "pollDivisionIds": [
          10137438
        ],
        "postalCode": "N1S3M7",
        "streetName": "DALE",
        "streetDirectionId": null,
        "streetTypeId": "AVE",
        "placeName": "CAMBRIDGE",
        "streetNameDisplayText": "DALE AVE, CAMBRIDGE"
      }
    ]
  },
  {
    "postal": "N1S1B2",
    "result": [
      {
        "electoralDistricts": [
          {
            "election": null,
            "id": 16,
            "name": "Cambridge"
          }
        ],
        "pollDivisionIds": [
          10137430
        ],
        "postalCode": "N1S1B2",
        "streetName": "CLEARVIEW",
        "streetDirectionId": null,
        "streetTypeId": "DR",
        "placeName": "CAMBRIDGE",
        "streetNameDisplayText": "CLEARVIEW DR, CAMBRIDGE"
      }
    ]
  },
  {
    "postal": "N1S0H9",
    "result": []
  },
  {
    "postal": "N1S8M4",
    "result": []
  },
  {
    "postal": "N1S2M5",
    "result": [
      {
        "electoralDistricts": [
          {
            "election": null,
            "id": 16,
            "name": "Cambridge"
          }
        ],
        "pollDivisionIds": [
          10137452
        ],
        "postalCode": "N1S2M5",
        "streetName": "GRAND",
        "streetDirectionId": "S",
        "streetTypeId": "AVE",
        "placeName": "CAMBRIDGE",
        "streetNameDisplayText": "GRAND AVE S, CAMBRIDGE"
      }
    ]
  },
  {
    "postal": "N1S0T9",
    "result": []
  },
  {
    "postal": "N1S3P1",
    "result": [
      {
        "electoralDistricts": [
          {
            "election": null,
            "id": 16,
            "name": "Cambridge"
          }
        ],
        "pollDivisionIds": [
          10137451
        ],
        "postalCode": "N1S3P1",
        "streetName": "BLACKFRIARS",
        "streetDirectionId": null,
        "streetTypeId": "PL",
        "placeName": "CAMBRIDGE",
        "streetNameDisplayText": "BLACKFRIARS PL, CAMBRIDGE"
      }
    ]
  },
  {
    "postal": "N1S1R6",
    "result": [
      {
        "electoralDistricts": [
          {
            "election": null,
            "id": 16,
            "name": "Cambridge"
          }
        ],
        "pollDivisionIds": [
          10137437
        ],
        "postalCode": "N1S1R6",
        "streetName": "CHURCHILL",
        "streetDirectionId": null,
        "streetTypeId": "DR",
        "placeName": "CAMBRIDGE",
        "streetNameDisplayText": "CHURCHILL DR, CAMBRIDGE"
      }
    ]
  },
  {
    "postal": "N1S9V5",
    "result": []
  },
  {
    "postal": "N1S9T0",
    "result": []
  },
  {
    "postal": "N1S0A9",
    "result": [
      {
        "electoralDistricts": [
          {
            "election": null,
            "id": 16,
            "name": "Cambridge"
          }
        ],
        "pollDivisionIds": [
          10137428
        ],
        "postalCode": "N1S0A9",
        "streetName": "FREURE",
        "streetDirectionId": null,
        "streetTypeId": "DR",
        "placeName": "CAMBRIDGE",
        "streetNameDisplayText": "FREURE DR, CAMBRIDGE"
      },
      {
        "electoralDistricts": [
          {
            "election": null,
            "id": 16,
            "name": "Cambridge"
          }
        ],
        "pollDivisionIds": [
          10137428
        ],
        "postalCode": "N1S0A9",
        "streetName": "HARDCASTLE",
        "streetDirectionId": null,
        "streetTypeId": "DR",
        "placeName": "CAMBRIDGE",
        "streetNameDisplayText": "HARDCASTLE DR, CAMBRIDGE"
      },
      {
        "electoralDistricts": [
          {
            "election": null,
            "id": 16,
            "name": "Cambridge"
          }
        ],
        "pollDivisionIds": [
          10137428
        ],
        "postalCode": "N1S0A9",
        "streetName": "HARDCASTLE",
        "streetDirectionId": null,
        "streetTypeId": "PL",
        "placeName": "CAMBRIDGE",
        "streetNameDisplayText": "HARDCASTLE PL, CAMBRIDGE"
      }
    ]
  },
  {
    "postal": "N1S1M3",
    "result": [
      {
        "electoralDistricts": [
          {
            "election": null,
            "id": 16,
            "name": "Cambridge"
          }
        ],
        "pollDivisionIds": [
          10137440
        ],
        "postalCode": "N1S1M3",
        "streetName": "ST ANDREWS",
        "streetDirectionId": null,
        "streetTypeId": "ST",
        "placeName": "CAMBRIDGE",
        "streetNameDisplayText": "ST ANDREWS ST, CAMBRIDGE"
      },
      {
        "electoralDistricts": [
          {
            "election": null,
            "id": 16,
            "name": "Cambridge"
          }
        ],
        "pollDivisionIds": [
          10137440
        ],
        "postalCode": "N1S1M3",
        "streetName": "ST. ANDREWS",
        "streetDirectionId": null,
        "streetTypeId": "ST",
        "placeName": "CAMBRIDGE",
        "streetNameDisplayText": "ST. ANDREWS ST, CAMBRIDGE"
      }
    ]
  },
  {
    "postal": "N1S1W8",
    "result": [
      {
        "electoralDistricts": [
          {
            "election": null,
            "id": 16,
            "name": "Cambridge"
          }
        ],
        "pollDivisionIds": [
          10137428
        ],
        "postalCode": "N1S1W8",
        "streetName": "CEDAR",
        "streetDirectionId": null,
        "streetTypeId": "ST",
        "placeName": "CAMBRIDGE",
        "streetNameDisplayText": "CEDAR ST, CAMBRIDGE"
      }
    ]
  },
  {
    "postal": "N1S9J1",
    "result": []
  },
  {
    "postal": "N1S8N5",
    "result": []
  },
  {
    "postal": "N1S5X1",
    "result": []
  },
  {
    "postal": "N1S6S2",
    "result": []
  },
  {
    "postal": "N1S2A2",
    "result": [
      {
        "electoralDistricts": [
          {
            "election": null,
            "id": 16,
            "name": "Cambridge"
          }
        ],
        "pollDivisionIds": [
          10137451
        ],
        "postalCode": "N1S2A2",
        "streetName": "FRANCIS",
        "streetDirectionId": null,
        "streetTypeId": "ST",
        "placeName": "CAMBRIDGE",
        "streetNameDisplayText": "FRANCIS ST, CAMBRIDGE"
      }
    ]
  },
  {
    "postal": "N1S6A6",
    "result": []
  },
  {
    "postal": "N1S0S3",
    "result": []
  },
  {
    "postal": "N1S3E7",
    "result": [
      {
        "electoralDistricts": [
          {
            "election": null,
            "id": 16,
            "name": "Cambridge"
          }
        ],
        "pollDivisionIds": [
          10137451
        ],
        "postalCode": "N1S3E7",
        "streetName": "TAIT",
        "streetDirectionId": null,
        "streetTypeId": "ST",
        "placeName": "CAMBRIDGE",
        "streetNameDisplayText": "TAIT ST, CAMBRIDGE"
      }
    ]
  },
  {
    "postal": "N1S5R7",
    "result": []
  },
  {
    "postal": "N1S3R6",
    "result": [
      {
        "electoralDistricts": [
          {
            "election": null,
            "id": 16,
            "name": "Cambridge"
          }
        ],
        "pollDivisionIds": [
          10137428
        ],
        "postalCode": "N1S3R6",
        "streetName": "WEST",
        "streetDirectionId": null,
        "streetTypeId": "COVE",
        "placeName": "CAMBRIDGE",
        "streetNameDisplayText": "WEST COVE, CAMBRIDGE"
      }
    ]
  },
  {
    "postal": "N1S6K4",
    "result": []
  },
  {
    "postal": "N1S2W5",
    "result": [
      {
        "electoralDistricts": [
          {
            "election": null,
            "id": 16,
            "name": "Cambridge"
          }
        ],
        "pollDivisionIds": [
          10137441
        ],
        "postalCode": "N1S2W5",
        "streetName": "BRANT",
        "streetDirectionId": "S",
        "streetTypeId": "RD",
        "placeName": "CAMBRIDGE",
        "streetNameDisplayText": "BRANT RD S, CAMBRIDGE"
      }
    ]
  },
  {
    "postal": "N1S8W4",
    "result": []
  },
  {
    "postal": "N1S9C2",
    "result": []
  },
  {
    "postal": "N1S2C0",
    "result": []
  },
  {
    "postal": "N1S0E1",
    "result": []
  },
  {
    "postal": "N1S1K9",
    "result": []
  },
  {
    "postal": "N1S1G7",
    "result": [
      {
        "electoralDistricts": [
          {
            "election": null,
            "id": 16,
            "name": "Cambridge"
          }
        ],
        "pollDivisionIds": [
          10137440
        ],
        "postalCode": "N1S1G7",
        "streetName": "WENTWORTH",
        "streetDirectionId": null,
        "streetTypeId": "AVE",
        "placeName": "CAMBRIDGE",
        "streetNameDisplayText": "WENTWORTH AVE, CAMBRIDGE"
      }
    ]
  },
  {
    "postal": "N1S4E9",
    "result": [
      {
        "electoralDistricts": [
          {
            "election": null,
            "id": 16,
            "name": "Cambridge"
          }
        ],
        "pollDivisionIds": [
          10137430
        ],
        "postalCode": "N1S4E9",
        "streetName": "BISMARK",
        "streetDirectionId": null,
        "streetTypeId": "DR",
        "placeName": "CAMBRIDGE",
        "streetNameDisplayText": "BISMARK DR, CAMBRIDGE"
      }
    ]
  },
  {
    "postal": "N1S9P0",
    "result": []
  },
  {
    "postal": "N1S5H3",
    "result": []
  },
  {
    "postal": "N1S9X6",
    "result": []
  },
  {
    "postal": "N1S5N7",
    "result": []
  },
  {
    "postal": "N1S5A6",
    "result": [
      {
        "electoralDistricts": [
          {
            "election": null,
            "id": 16,
            "name": "Cambridge"
          }
        ],
        "pollDivisionIds": [
          10137428
        ],
        "postalCode": "N1S5A6",
        "streetName": "DELAVAN",
        "streetDirectionId": null,
        "streetTypeId": "DR",
        "placeName": "CAMBRIDGE",
        "streetNameDisplayText": "DELAVAN DR, CAMBRIDGE"
      }
    ]
  },
  {
    "postal": "N1S4M0",
    "result": []
  },
  {
    "postal": "N1S3V6",
    "result": [
      {
        "electoralDistricts": [
          {
            "election": null,
            "id": 16,
            "name": "Cambridge"
          }
        ],
        "pollDivisionIds": [
          10137452
        ],
        "postalCode": "N1S3V6",
        "streetName": "GRAND",
        "streetDirectionId": "S",
        "streetTypeId": "AVE",
        "placeName": "CAMBRIDGE",
        "streetNameDisplayText": "GRAND AVE S, CAMBRIDGE"
      }
    ]
  },
  {
    "postal": "N1S1L7",
    "result": [
      {
        "electoralDistricts": [
          {
            "election": null,
            "id": 16,
            "name": "Cambridge"
          }
        ],
        "pollDivisionIds": [
          10137428
        ],
        "postalCode": "N1S1L7",
        "streetName": "HIGHLAND",
        "streetDirectionId": null,
        "streetTypeId": "CRES",
        "placeName": "CAMBRIDGE",
        "streetNameDisplayText": "HIGHLAND CRES, CAMBRIDGE"
      }
    ]
  },
  {
    "postal": "N1S2P9",
    "result": [
      {
        "electoralDistricts": [
          {
            "election": null,
            "id": 16,
            "name": "Cambridge"
          }
        ],
        "pollDivisionIds": [
          10137451
        ],
        "postalCode": "N1S2P9",
        "streetName": "RAMORE",
        "streetDirectionId": null,
        "streetTypeId": "ST",
        "placeName": "CAMBRIDGE",
        "streetNameDisplayText": "RAMORE ST, CAMBRIDGE"
      }
    ]
  },
  {
    "postal": "N1S5T4",
    "result": []
  },
  {
    "postal": "N1S5Z1",
    "result": []
  },
  {
    "postal": "N1S2X0",
    "result": []
  },
  {
    "postal": "N1S6Z2",
    "result": []
  },
  {
    "postal": "N1S0E0",
    "result": []
  },
  {
    "postal": "N1S3Z5",
    "result": [
      {
        "electoralDistricts": [
          {
            "election": null,
            "id": 16,
            "name": "Cambridge"
          }
        ],
        "pollDivisionIds": [
          10137428
        ],
        "postalCode": "N1S3Z5",
        "streetName": "GRAND RIDGE",
        "streetDirectionId": null,
        "streetTypeId": "DR",
        "placeName": "CAMBRIDGE",
        "streetNameDisplayText": "GRAND RIDGE DR, CAMBRIDGE"
      }
    ]
  },
  {
    "postal": "N1S8H3",
    "result": []
  },
  {
    "postal": "N1S7S6",
    "result": []
  },
  {
    "postal": "N1S4C1",
    "result": [
      {
        "electoralDistricts": [
          {
            "election": null,
            "id": 16,
            "name": "Cambridge"
          }
        ],
        "pollDivisionIds": [
          10137428
        ],
        "postalCode": "N1S4C1",
        "streetName": "DUCHESS",
        "streetDirectionId": null,
        "streetTypeId": "DR",
        "placeName": "CAMBRIDGE",
        "streetNameDisplayText": "DUCHESS DR, CAMBRIDGE"
      }
    ]
  },
  {
    "postal": "N1S3K2",
    "result": [
      {
        "electoralDistricts": [
          {
            "election": null,
            "id": 16,
            "name": "Cambridge"
          }
        ],
        "pollDivisionIds": [
          10137410
        ],
        "postalCode": "N1S3K2",
        "streetName": "ROSSLINN",
        "streetDirectionId": null,
        "streetTypeId": "RD",
        "placeName": "CAMBRIDGE",
        "streetNameDisplayText": "ROSSLINN RD, CAMBRIDGE"
      }
    ]
  },
  {
    "postal": "N1S1Y5",
    "result": [
      {
        "electoralDistricts": [
          {
            "election": null,
            "id": 16,
            "name": "Cambridge"
          }
        ],
        "pollDivisionIds": [
          10137451
        ],
        "postalCode": "N1S1Y5",
        "streetName": "CROMBIE",
        "streetDirectionId": null,
        "streetTypeId": "ST",
        "placeName": "CAMBRIDGE",
        "streetNameDisplayText": "CROMBIE ST, CAMBRIDGE"
      }
    ]
  },
  {
    "postal": "N1S6P6",
    "result": []
  },
  {
    "postal": "N1S3N9",
    "result": [
      {
        "electoralDistricts": [
          {
            "election": null,
            "id": 16,
            "name": "Cambridge"
          }
        ],
        "pollDivisionIds": [
          10137451
        ],
        "postalCode": "N1S3N9",
        "streetName": "CRESTWOOD",
        "streetDirectionId": null,
        "streetTypeId": "DR",
        "placeName": "CAMBRIDGE",
        "streetNameDisplayText": "CRESTWOOD DR, CAMBRIDGE"
      }
    ]
  },
  {
    "postal": "N1S3W2",
    "result": []
  },
  {
    "postal": "N1S6H8",
    "result": []
  },
  {
    "postal": "N1S9T3",
    "result": []
  },
  {
    "postal": "N1S5L9",
    "result": []
  },
  {
    "postal": "N1S7X7",
    "result": []
  },
  {
    "postal": "N1S3J5",
    "result": [
      {
        "electoralDistricts": [
          {
            "election": null,
            "id": 16,
            "name": "Cambridge"
          }
        ],
        "pollDivisionIds": [
          10137410
        ],
        "postalCode": "N1S3J5",
        "streetName": "DIANNE",
        "streetDirectionId": null,
        "streetTypeId": "AVE",
        "placeName": "CAMBRIDGE",
        "streetNameDisplayText": "DIANNE AVE, CAMBRIDGE"
      }
    ]
  },
  {
    "postal": "N1S4J5",
    "result": [
      {
        "electoralDistricts": [
          {
            "election": null,
            "id": 16,
            "name": "Cambridge"
          }
        ],
        "pollDivisionIds": [
          10137428
        ],
        "postalCode": "N1S4J5",
        "streetName": "WHITE OAK",
        "streetDirectionId": null,
        "streetTypeId": "DR",
        "placeName": "CAMBRIDGE",
        "streetNameDisplayText": "WHITE OAK DR, CAMBRIDGE"
      }
    ]
  },
  {
    "postal": "N1S6J2",
    "result": []
  },
  {
    "postal": "N1S5V6",
    "result": []
  },
  {
    "postal": "N1S3N2",
    "result": [
      {
        "electoralDistricts": [
          {
            "election": null,
            "id": 16,
            "name": "Cambridge"
          }
        ],
        "pollDivisionIds": [
          10137451
        ],
        "postalCode": "N1S3N2",
        "streetName": "BORDEN",
        "streetDirectionId": null,
        "streetTypeId": "ST",
        "placeName": "CAMBRIDGE",
        "streetNameDisplayText": "BORDEN ST, CAMBRIDGE"
      }
    ]
  },
  {
    "postal": "N1S3B1",
    "result": [
      {
        "electoralDistricts": [
          {
            "election": null,
            "id": 16,
            "name": "Cambridge"
          }
        ],
        "pollDivisionIds": [
          10137442
        ],
        "postalCode": "N1S3B1",
        "streetName": "BARRIE",
        "streetDirectionId": null,
        "streetTypeId": "ST",
        "placeName": "CAMBRIDGE",
        "streetNameDisplayText": "BARRIE ST, CAMBRIDGE"
      }
    ]
  },
  {
    "postal": "N1S8B5",
    "result": []
  },
  {
    "postal": "N1S0K1",
    "result": []
  },
  {
    "postal": "N1S7M7",
    "result": []
  },
  {
    "postal": "N1S2M2",
    "result": [
      {
        "electoralDistricts": [
          {
            "election": null,
            "id": 16,
            "name": "Cambridge"
          }
        ],
        "pollDivisionIds": [
          10137451
        ],
        "postalCode": "N1S2M2",
        "streetName": "GRAND",
        "streetDirectionId": "S",
        "streetTypeId": "AVE",
        "placeName": "CAMBRIDGE",
        "streetNameDisplayText": "GRAND AVE S, CAMBRIDGE"
      }
    ]
  },
  {
    "postal": "N1S9N3",
    "result": []
  },
  {
    "postal": "N1S4Y8",
    "result": [
      {
        "electoralDistricts": [
          {
            "election": null,
            "id": 16,
            "name": "Cambridge"
          }
        ],
        "pollDivisionIds": [
          10137428
        ],
        "postalCode": "N1S4Y8",
        "streetName": "OAK HILL",
        "streetDirectionId": null,
        "streetTypeId": "DR",
        "placeName": "CAMBRIDGE",
        "streetNameDisplayText": "OAK HILL DR, CAMBRIDGE"
      }
    ]
  },
  {
    "postal": "N1S3V7",
    "result": [
      {
        "electoralDistricts": [
          {
            "election": null,
            "id": 16,
            "name": "Cambridge"
          }
        ],
        "pollDivisionIds": [
          10137428
        ],
        "postalCode": "N1S3V7",
        "streetName": "WESTWOOD",
        "streetDirectionId": null,
        "streetTypeId": "CRES",
        "placeName": "CAMBRIDGE",
        "streetNameDisplayText": "WESTWOOD CRES, CAMBRIDGE"
      }
    ]
  },
  {
    "postal": "N1S8Z1",
    "result": []
  },
  {
    "postal": "N1S7B3",
    "result": []
  },
  {
    "postal": "N1S3A8",
    "result": [
      {
        "electoralDistricts": [
          {
            "election": null,
            "id": 16,
            "name": "Cambridge"
          }
        ],
        "pollDivisionIds": [
          10137441
        ],
        "postalCode": "N1S3A8",
        "streetName": "BARRIE",
        "streetDirectionId": null,
        "streetTypeId": "ST",
        "placeName": "CAMBRIDGE",
        "streetNameDisplayText": "BARRIE ST, CAMBRIDGE"
      }
    ]
  },
  {
    "postal": "N1S7V5",
    "result": []
  },
  {
    "postal": "N1S2T2",
    "result": [
      {
        "electoralDistricts": [
          {
            "election": null,
            "id": 16,
            "name": "Cambridge"
          }
        ],
        "pollDivisionIds": [
          10137442
        ],
        "postalCode": "N1S2T2",
        "streetName": "LANSDOWNE",
        "streetDirectionId": "S",
        "streetTypeId": "RD",
        "placeName": "CAMBRIDGE",
        "streetNameDisplayText": "LANSDOWNE RD S, CAMBRIDGE"
      }
    ]
  },
  {
    "postal": "N1S6L3",
    "result": []
  },
  {
    "postal": "N1S0L2",
    "result": []
  },
  {
    "postal": "N1S5Y8",
    "result": []
  },
  {
    "postal": "N1S0B8",
    "result": []
  },
  {
    "postal": "N1S6R5",
    "result": []
  },
  {
    "postal": "N1S8W6",
    "result": []
  },
  {
    "postal": "N1S8G6",
    "result": []
  },
  {
    "postal": "N1S6X3",
    "result": []
  },
  {
    "postal": "N1S7R7",
    "result": []
  },
  {
    "postal": "N1S4B6",
    "result": [
      {
        "electoralDistricts": [
          {
            "election": null,
            "id": 16,
            "name": "Cambridge"
          }
        ],
        "pollDivisionIds": [
          10137428
        ],
        "postalCode": "N1S4B6",
        "streetName": "ANGELA",
        "streetDirectionId": null,
        "streetTypeId": "CRES",
        "placeName": "CAMBRIDGE",
        "streetNameDisplayText": "ANGELA CRES, CAMBRIDGE"
      }
    ]
  },
  {
    "postal": "N1S3P9",
    "result": [
      {
        "electoralDistricts": [
          {
            "election": null,
            "id": 16,
            "name": "Cambridge"
          }
        ],
        "pollDivisionIds": [
          10137428
        ],
        "postalCode": "N1S3P9",
        "streetName": "DAY",
        "streetDirectionId": null,
        "streetTypeId": "ST",
        "placeName": "CAMBRIDGE",
        "streetNameDisplayText": "DAY ST, CAMBRIDGE"
      }
    ]
  },
  {
    "postal": "N1S2T3",
    "result": [
      {
        "electoralDistricts": [
          {
            "election": null,
            "id": 16,
            "name": "Cambridge"
          }
        ],
        "pollDivisionIds": [
          10137441
        ],
        "postalCode": "N1S2T3",
        "streetName": "LANSDOWNE",
        "streetDirectionId": "S",
        "streetTypeId": "RD",
        "placeName": "CAMBRIDGE",
        "streetNameDisplayText": "LANSDOWNE RD S, CAMBRIDGE"
      }
    ]
  },
  {
    "postal": "N1S1M4",
    "result": [
      {
        "electoralDistricts": [
          {
            "election": null,
            "id": 16,
            "name": "Cambridge"
          }
        ],
        "pollDivisionIds": [
          10137440,
          10137442
        ],
        "postalCode": "N1S1M4",
        "streetName": "ST ANDREWS",
        "streetDirectionId": null,
        "streetTypeId": "ST",
        "placeName": "CAMBRIDGE",
        "streetNameDisplayText": "ST ANDREWS ST, CAMBRIDGE"
      },
      {
        "electoralDistricts": [
          {
            "election": null,
            "id": 16,
            "name": "Cambridge"
          }
        ],
        "pollDivisionIds": [
          10137442
        ],
        "postalCode": "N1S1M4",
        "streetName": "ST.ANDREWS",
        "streetDirectionId": null,
        "streetTypeId": "ST",
        "placeName": "CAMBRIDGE",
        "streetNameDisplayText": "ST.ANDREWS ST, CAMBRIDGE"
      }
    ]
  },
  {
    "postal": "N1S0H1",
    "result": []
  },
  {
    "postal": "N1S9W3",
    "result": []
  },
  {
    "postal": "N1S6P1",
    "result": []
  },
  {
    "postal": "N1S7G2",
    "result": []
  },
  {
    "postal": "N1S4J9",
    "result": [
      {
        "electoralDistricts": [
          {
            "election": null,
            "id": 16,
            "name": "Cambridge"
          }
        ],
        "pollDivisionIds": [
          10137428
        ],
        "postalCode": "N1S4J9",
        "streetName": "UNDERWOOD",
        "streetDirectionId": null,
        "streetTypeId": "CRT",
        "placeName": "CAMBRIDGE",
        "streetNameDisplayText": "UNDERWOOD CRT, CAMBRIDGE"
      }
    ]
  },
  {
    "postal": "N1S9E4",
    "result": []
  },
  {
    "postal": "N1S8H0",
    "result": []
  },
  {
    "postal": "N1S4M7",
    "result": [
      {
        "electoralDistricts": [
          {
            "election": null,
            "id": 16,
            "name": "Cambridge"
          }
        ],
        "pollDivisionIds": [
          10137428
        ],
        "postalCode": "N1S4M7",
        "streetName": "WOODSIDE",
        "streetDirectionId": null,
        "streetTypeId": "AVE",
        "placeName": "CAMBRIDGE",
        "streetNameDisplayText": "WOODSIDE AVE, CAMBRIDGE"
      }
    ]
  },
  {
    "postal": "N1S2G9",
    "result": [
      {
        "electoralDistricts": [
          {
            "election": null,
            "id": 16,
            "name": "Cambridge"
          }
        ],
        "pollDivisionIds": [
          10137451
        ],
        "postalCode": "N1S2G9",
        "streetName": "CULHAM",
        "streetDirectionId": null,
        "streetTypeId": "DR",
        "placeName": "CAMBRIDGE",
        "streetNameDisplayText": "CULHAM DR, CAMBRIDGE"
      }
    ]
  },
  {
    "postal": "N1S8T2",
    "result": []
  },
  {
    "postal": "N1S7G7",
    "result": []
  },
  {
    "postal": "N1S4Z3",
    "result": [
      {
        "electoralDistricts": [
          {
            "election": null,
            "id": 16,
            "name": "Cambridge"
          }
        ],
        "pollDivisionIds": [
          10137451,
          10137428
        ],
        "postalCode": "N1S4Z3",
        "streetName": "FAIRLAKE",
        "streetDirectionId": null,
        "streetTypeId": "DR",
        "placeName": "CAMBRIDGE",
        "streetNameDisplayText": "FAIRLAKE DR, CAMBRIDGE"
      },
      {
        "electoralDistricts": [
          {
            "election": null,
            "id": 16,
            "name": "Cambridge"
          }
        ],
        "pollDivisionIds": [
          10137451
        ],
        "postalCode": "N1S4Z3",
        "streetName": "WILBAR",
        "streetDirectionId": null,
        "streetTypeId": "CRT",
        "placeName": "CAMBRIDGE",
        "streetNameDisplayText": "WILBAR CRT, CAMBRIDGE"
      }
    ]
  },
  {
    "postal": "N1S5B3",
    "result": [
      {
        "electoralDistricts": [
          {
            "election": null,
            "id": 16,
            "name": "Cambridge"
          }
        ],
        "pollDivisionIds": [
          10137453
        ],
        "postalCode": "N1S5B3",
        "streetName": "BERRY PATCH",
        "streetDirectionId": null,
        "streetTypeId": "LANE",
        "placeName": "CAMBRIDGE",
        "streetNameDisplayText": "BERRY PATCH LANE, CAMBRIDGE"
      },
      {
        "electoralDistricts": [
          {
            "election": null,
            "id": 16,
            "name": "Cambridge"
          }
        ],
        "pollDivisionIds": [
          10137451,
          10137453
        ],
        "postalCode": "N1S5B3",
        "streetName": "GRAND RIDGE",
        "streetDirectionId": null,
        "streetTypeId": "DR",
        "placeName": "CAMBRIDGE",
        "streetNameDisplayText": "GRAND RIDGE DR, CAMBRIDGE"
      }
    ]
  },
  {
    "postal": "N1S1S7",
    "result": [
      {
        "electoralDistricts": [
          {
            "election": null,
            "id": 16,
            "name": "Cambridge"
          }
        ],
        "pollDivisionIds": [
          10137438
        ],
        "postalCode": "N1S1S7",
        "streetName": "DONLEA",
        "streetDirectionId": null,
        "streetTypeId": "DR",
        "placeName": "CAMBRIDGE",
        "streetNameDisplayText": "DONLEA DR, CAMBRIDGE"
      }
    ]
  },
  {
    "postal": "N1S2N7",
    "result": [
      {
        "electoralDistricts": [
          {
            "election": null,
            "id": 16,
            "name": "Cambridge"
          }
        ],
        "pollDivisionIds": [
          10137439
        ],
        "postalCode": "N1S2N7",
        "streetName": "METCALFE",
        "streetDirectionId": null,
        "streetTypeId": "ST",
        "placeName": "CAMBRIDGE",
        "streetNameDisplayText": "METCALFE ST, CAMBRIDGE"
      }
    ]
  },
  {
    "postal": "N1S0H8",
    "result": []
  },
  {
    "postal": "N1S7Z4",
    "result": []
  },
  {
    "postal": "N1S7B1",
    "result": []
  },
  {
    "postal": "N1S7P8",
    "result": []
  },
  {
    "postal": "N1S7N0",
    "result": []
  },
  {
    "postal": "N1S3Y5",
    "result": [
      {
        "electoralDistricts": [
          {
            "election": null,
            "id": 16,
            "name": "Cambridge"
          }
        ],
        "pollDivisionIds": [
          10137428
        ],
        "postalCode": "N1S3Y5",
        "streetName": "HARWOOD",
        "streetDirectionId": null,
        "streetTypeId": "RD",
        "placeName": "CAMBRIDGE",
        "streetNameDisplayText": "HARWOOD RD, CAMBRIDGE"
      }
    ]
  },
  {
    "postal": "N1S6K1",
    "result": []
  },
  {
    "postal": "N1S9X5",
    "result": []
  },
  {
    "postal": "N1S7S5",
    "result": []
  },
  {
    "postal": "N1S0A4",
    "result": [
      {
        "electoralDistricts": [
          {
            "election": null,
            "id": 16,
            "name": "Cambridge"
          }
        ],
        "pollDivisionIds": [
          10137428
        ],
        "postalCode": "N1S0A4",
        "streetName": "COX",
        "streetDirectionId": null,
        "streetTypeId": "ST",
        "placeName": "CAMBRIDGE",
        "streetNameDisplayText": "COX ST, CAMBRIDGE"
      },
      {
        "electoralDistricts": [
          {
            "election": null,
            "id": 16,
            "name": "Cambridge"
          }
        ],
        "pollDivisionIds": [
          10137428
        ],
        "postalCode": "N1S0A4",
        "streetName": "FREURE",
        "streetDirectionId": null,
        "streetTypeId": "DR",
        "placeName": "CAMBRIDGE",
        "streetNameDisplayText": "FREURE DR, CAMBRIDGE"
      },
      {
        "electoralDistricts": [
          {
            "election": null,
            "id": 16,
            "name": "Cambridge"
          }
        ],
        "pollDivisionIds": [
          10137428
        ],
        "postalCode": "N1S0A4",
        "streetName": "HARDCASTLE",
        "streetDirectionId": null,
        "streetTypeId": "DR",
        "placeName": "CAMBRIDGE",
        "streetNameDisplayText": "HARDCASTLE DR, CAMBRIDGE"
      }
    ]
  },
  {
    "postal": "N1S4T5",
    "result": [
      {
        "electoralDistricts": [
          {
            "election": null,
            "id": 16,
            "name": "Cambridge"
          }
        ],
        "pollDivisionIds": [
          10137428
        ],
        "postalCode": "N1S4T5",
        "streetName": "STIRLING MACGREGOR",
        "streetDirectionId": null,
        "streetTypeId": "DR",
        "placeName": "CAMBRIDGE",
        "streetNameDisplayText": "STIRLING MACGREGOR DR, CAMBRIDGE"
      }
    ]
  },
  {
    "postal": "N1S5K1",
    "result": []
  },
  {
    "postal": "N1S0Z9",
    "result": []
  },
  {
    "postal": "N1S7T2",
    "result": []
  },
  {
    "postal": "N1S1L5",
    "result": [
      {
        "electoralDistricts": [
          {
            "election": null,
            "id": 16,
            "name": "Cambridge"
          }
        ],
        "pollDivisionIds": [
          10137437
        ],
        "postalCode": "N1S1L5",
        "streetName": "HIGHLAND",
        "streetDirectionId": null,
        "streetTypeId": "CRES",
        "placeName": "CAMBRIDGE",
        "streetNameDisplayText": "HIGHLAND CRES, CAMBRIDGE"
      }
    ]
  },
  {
    "postal": "N1S3N5",
    "result": [
      {
        "electoralDistricts": [
          {
            "election": null,
            "id": 16,
            "name": "Cambridge"
          }
        ],
        "pollDivisionIds": [
          10137451
        ],
        "postalCode": "N1S3N5",
        "streetName": "VINCENT",
        "streetDirectionId": null,
        "streetTypeId": "DR",
        "placeName": "CAMBRIDGE",
        "streetNameDisplayText": "VINCENT DR, CAMBRIDGE"
      }
    ]
  },
  {
    "postal": "N1S6H4",
    "result": []
  },
  {
    "postal": "N1S5A5",
    "result": []
  },
  {
    "postal": "N1S3R9",
    "result": [
      {
        "electoralDistricts": [
          {
            "election": null,
            "id": 16,
            "name": "Cambridge"
          }
        ],
        "pollDivisionIds": [
          10137428
        ],
        "postalCode": "N1S3R9",
        "streetName": "BEECHWOOD",
        "streetDirectionId": null,
        "streetTypeId": "RD",
        "placeName": "CAMBRIDGE",
        "streetNameDisplayText": "BEECHWOOD RD, CAMBRIDGE"
      }
    ]
  },
  {
    "postal": "N1S7L8",
    "result": []
  },
  {
    "postal": "N1S6T6",
    "result": []
  },
  {
    "postal": "N1S7Y7",
    "result": []
  },
  {
    "postal": "N1S3M8",
    "result": [
      {
        "electoralDistricts": [
          {
            "election": null,
            "id": 16,
            "name": "Cambridge"
          }
        ],
        "pollDivisionIds": [
          10137438
        ],
        "postalCode": "N1S3M8",
        "streetName": "DALE",
        "streetDirectionId": null,
        "streetTypeId": "AVE",
        "placeName": "CAMBRIDGE",
        "streetNameDisplayText": "DALE AVE, CAMBRIDGE"
      }
    ]
  },
  {
    "postal": "N1S2E0",
    "result": []
  },
  {
    "postal": "N1S4B5",
    "result": [
      {
        "electoralDistricts": [
          {
            "election": null,
            "id": 16,
            "name": "Cambridge"
          }
        ],
        "pollDivisionIds": [
          10137428
        ],
        "postalCode": "N1S4B5",
        "streetName": "ANGELA",
        "streetDirectionId": null,
        "streetTypeId": "CRES",
        "placeName": "CAMBRIDGE",
        "streetNameDisplayText": "ANGELA CRES, CAMBRIDGE"
      }
    ]
  },
  {
    "postal": "N1S1J3",
    "result": [
      {
        "electoralDistricts": [
          {
            "election": null,
            "id": 16,
            "name": "Cambridge"
          }
        ],
        "pollDivisionIds": [
          10137441
        ],
        "postalCode": "N1S1J3",
        "streetName": "SALISBURY",
        "streetDirectionId": null,
        "streetTypeId": "AVE",
        "placeName": "CAMBRIDGE",
        "streetNameDisplayText": "SALISBURY AVE, CAMBRIDGE"
      }
    ]
  },
  {
    "postal": "N1S5S6",
    "result": []
  },
  {
    "postal": "N1S8P7",
    "result": []
  },
  {
    "postal": "N1S7S7",
    "result": []
  },
  {
    "postal": "N1S4C2",
    "result": [
      {
        "electoralDistricts": [
          {
            "election": null,
            "id": 16,
            "name": "Cambridge"
          }
        ],
        "pollDivisionIds": [
          10137428
        ],
        "postalCode": "N1S4C2",
        "streetName": "JOHANNA",
        "streetDirectionId": null,
        "streetTypeId": "DR",
        "placeName": "CAMBRIDGE",
        "streetNameDisplayText": "JOHANNA DR, CAMBRIDGE"
      }
    ]
  },
  {
    "postal": "N1S5Y0",
    "result": []
  },
  {
    "postal": "N1S2V7",
    "result": [
      {
        "electoralDistricts": [
          {
            "election": null,
            "id": 16,
            "name": "Cambridge"
          }
        ],
        "pollDivisionIds": [
          10137439
        ],
        "postalCode": "N1S2V7",
        "streetName": "BRANT",
        "streetDirectionId": null,
        "streetTypeId": "PL",
        "placeName": "CAMBRIDGE",
        "streetNameDisplayText": "BRANT PL, CAMBRIDGE"
      }
    ]
  },
  {
    "postal": "N1S8P5",
    "result": []
  },
  {
    "postal": "N1S5P5",
    "result": []
  },
  {
    "postal": "N1S5Z0",
    "result": []
  },
  {
    "postal": "N1S9B0",
    "result": []
  },
  {
    "postal": "N1S1L0",
    "result": []
  },
  {
    "postal": "N1S0B5",
    "result": [
      {
        "electoralDistricts": [
          {
            "election": null,
            "id": 16,
            "name": "Cambridge"
          }
        ],
        "pollDivisionIds": [
          10137424,
          10137428
        ],
        "postalCode": "N1S0B5",
        "streetName": "BEAUCHAMP",
        "streetDirectionId": null,
        "streetTypeId": "DR",
        "placeName": "CAMBRIDGE",
        "streetNameDisplayText": "BEAUCHAMP DR, CAMBRIDGE"
      },
      {
        "electoralDistricts": [
          {
            "election": null,
            "id": 16,
            "name": "Cambridge"
          }
        ],
        "pollDivisionIds": [
          10137428
        ],
        "postalCode": "N1S0B5",
        "streetName": "FREURE",
        "streetDirectionId": null,
        "streetTypeId": "DR",
        "placeName": "CAMBRIDGE",
        "streetNameDisplayText": "FREURE DR, CAMBRIDGE"
      }
    ]
  },
  {
    "postal": "N1S3L2",
    "result": [
      {
        "electoralDistricts": [
          {
            "election": null,
            "id": 16,
            "name": "Cambridge"
          }
        ],
        "pollDivisionIds": [
          10137428
        ],
        "postalCode": "N1S3L2",
        "streetName": "CORWIN",
        "streetDirectionId": null,
        "streetTypeId": "BLVD",
        "placeName": "CAMBRIDGE",
        "streetNameDisplayText": "CORWIN BLVD, CAMBRIDGE"
      }
    ]
  },
  {
    "postal": "N1S3B7",
    "result": [
      {
        "electoralDistricts": [
          {
            "election": null,
            "id": 16,
            "name": "Cambridge"
          }
        ],
        "pollDivisionIds": [
          10137438,
          10137437
        ],
        "postalCode": "N1S3B7",
        "streetName": "FOREST",
        "streetDirectionId": null,
        "streetTypeId": "RD",
        "placeName": "CAMBRIDGE",
        "streetNameDisplayText": "FOREST RD, CAMBRIDGE"
      }
    ]
  },
  {
    "postal": "N1S8L1",
    "result": []
  },
  {
    "postal": "N1S5M4",
    "result": []
  },
  {
    "postal": "N1S4G9",
    "result": [
      {
        "electoralDistricts": [
          {
            "election": null,
            "id": 16,
            "name": "Cambridge"
          }
        ],
        "pollDivisionIds": [
          10137429
        ],
        "postalCode": "N1S4G9",
        "streetName": "SUNSET",
        "streetDirectionId": null,
        "streetTypeId": "BLVD",
        "placeName": "CAMBRIDGE",
        "streetNameDisplayText": "SUNSET BLVD, CAMBRIDGE"
      }
    ]
  },
  {
    "postal": "N1S0P0",
    "result": []
  },
  {
    "postal": "N1S8G2",
    "result": []
  },
  {
    "postal": "N1S1V9",
    "result": [
      {
        "electoralDistricts": [
          {
            "election": null,
            "id": 16,
            "name": "Cambridge"
          }
        ],
        "pollDivisionIds": [
          10137442
        ],
        "postalCode": "N1S1V9",
        "streetName": "CEDAR",
        "streetDirectionId": null,
        "streetTypeId": "ST",
        "placeName": "CAMBRIDGE",
        "streetNameDisplayText": "CEDAR ST, CAMBRIDGE"
      }
    ]
  },
  {
    "postal": "N1S8N8",
    "result": []
  },
  {
    "postal": "N1S6S8",
    "result": []
  },
  {
    "postal": "N1S8H2",
    "result": []
  },
  {
    "postal": "N1S5R8",
    "result": []
  },
  {
    "postal": "N1S5L4",
    "result": []
  },
  {
    "postal": "N1S9E1",
    "result": []
  },
  {
    "postal": "N1S1C4",
    "result": [
      {
        "electoralDistricts": [
          {
            "election": null,
            "id": 16,
            "name": "Cambridge"
          }
        ],
        "pollDivisionIds": [
          10137439
        ],
        "postalCode": "N1S1C4",
        "streetName": "JAMES",
        "streetDirectionId": null,
        "streetTypeId": "ST",
        "placeName": "CAMBRIDGE",
        "streetNameDisplayText": "JAMES ST, CAMBRIDGE"
      }
    ]
  },
  {
    "postal": "N1S8W5",
    "result": []
  },
  {
    "postal": "N1S1Y4",
    "result": [
      {
        "electoralDistricts": [
          {
            "election": null,
            "id": 16,
            "name": "Cambridge"
          }
        ],
        "pollDivisionIds": [
          10137451,
          10137452
        ],
        "postalCode": "N1S1Y4",
        "streetName": "CROMBIE",
        "streetDirectionId": null,
        "streetTypeId": "ST",
        "placeName": "CAMBRIDGE",
        "streetNameDisplayText": "CROMBIE ST, CAMBRIDGE"
      }
    ]
  },
  {
    "postal": "N1S1C0",
    "result": []
  },
  {
    "postal": "N1S2J2",
    "result": [
      {
        "electoralDistricts": [
          {
            "election": null,
            "id": 16,
            "name": "Cambridge"
          }
        ],
        "pollDivisionIds": [
          10137439
        ],
        "postalCode": "N1S2J2",
        "streetName": "BLAIR",
        "streetDirectionId": null,
        "streetTypeId": "RD",
        "placeName": "CAMBRIDGE",
        "streetNameDisplayText": "BLAIR RD, CAMBRIDGE"
      }
    ]
  },
  {
    "postal": "N1S2J0",
    "result": []
  },
  {
    "postal": "N1S7A3",
    "result": []
  },
  {
    "postal": "N1S8M1",
    "result": []
  },
  {
    "postal": "N1S7T9",
    "result": []
  },
  {
    "postal": "N1S6C0",
    "result": []
  },
  {
    "postal": "N1S7X1",
    "result": []
  },
  {
    "postal": "N1S0G1",
    "result": []
  },
  {
    "postal": "N1S4X2",
    "result": [
      {
        "electoralDistricts": [
          {
            "election": null,
            "id": 16,
            "name": "Cambridge"
          }
        ],
        "pollDivisionIds": [
          10137428
        ],
        "postalCode": "N1S4X2",
        "streetName": "STIRLING MACGREGOR",
        "streetDirectionId": null,
        "streetTypeId": "DR",
        "placeName": "CAMBRIDGE",
        "streetNameDisplayText": "STIRLING MACGREGOR DR, CAMBRIDGE"
      }
    ]
  },
  {
    "postal": "N1S0N6",
    "result": []
  },
  {
    "postal": "N1S8E3",
    "result": []
  },
  {
    "postal": "N1S5S8",
    "result": []
  },
  {
    "postal": "N1S0R0",
    "result": []
  },
  {
    "postal": "N1S6J6",
    "result": []
  },
  {
    "postal": "N1S4B4",
    "result": [
      {
        "electoralDistricts": [
          {
            "election": null,
            "id": 16,
            "name": "Cambridge"
          }
        ],
        "pollDivisionIds": [
          10137451
        ],
        "postalCode": "N1S4B4",
        "streetName": "RIDGEWOOD",
        "streetDirectionId": null,
        "streetTypeId": "PL",
        "placeName": "CAMBRIDGE",
        "streetNameDisplayText": "RIDGEWOOD PL, CAMBRIDGE"
      }
    ]
  },
  {
    "postal": "N1S7E3",
    "result": []
  },
  {
    "postal": "N1S3N6",
    "result": [
      {
        "electoralDistricts": [
          {
            "election": null,
            "id": 16,
            "name": "Cambridge"
          }
        ],
        "pollDivisionIds": [
          10137451
        ],
        "postalCode": "N1S3N6",
        "streetName": "RIVERVIEW",
        "streetDirectionId": null,
        "streetTypeId": "DR",
        "placeName": "CAMBRIDGE",
        "streetNameDisplayText": "RIVERVIEW DR, CAMBRIDGE"
      }
    ]
  },
  {
    "postal": "N1S3X6",
    "result": [
      {
        "electoralDistricts": [
          {
            "election": null,
            "id": 16,
            "name": "Cambridge"
          }
        ],
        "pollDivisionIds": [
          10137451
        ],
        "postalCode": "N1S3X6",
        "streetName": "WOODSIDE",
        "streetDirectionId": null,
        "streetTypeId": "AVE",
        "placeName": "CAMBRIDGE",
        "streetNameDisplayText": "WOODSIDE AVE, CAMBRIDGE"
      }
    ]
  },
  {
    "postal": "N1S8L0",
    "result": []
  },
  {
    "postal": "N1S8N1",
    "result": []
  },
  {
    "postal": "N1S4J0",
    "result": []
  },
  {
    "postal": "N1S0X7",
    "result": []
  },
  {
    "postal": "N1S6S4",
    "result": []
  },
  {
    "postal": "N1S0Z0",
    "result": []
  },
  {
    "postal": "N1S9X8",
    "result": []
  },
  {
    "postal": "N1S3H3",
    "result": [
      {
        "electoralDistricts": [
          {
            "election": null,
            "id": 16,
            "name": "Cambridge"
          }
        ],
        "pollDivisionIds": [
          10137437
        ],
        "postalCode": "N1S3H3",
        "streetName": "DUNDONALD",
        "streetDirectionId": null,
        "streetTypeId": "RD",
        "placeName": "CAMBRIDGE",
        "streetNameDisplayText": "DUNDONALD RD, CAMBRIDGE"
      }
    ]
  },
  {
    "postal": "N1S7S2",
    "result": []
  },
  {
    "postal": "N1S3T3",
    "result": [
      {
        "electoralDistricts": [
          {
            "election": null,
            "id": 16,
            "name": "Cambridge"
          }
        ],
        "pollDivisionIds": [
          10137428
        ],
        "postalCode": "N1S3T3",
        "streetName": "MURRAY",
        "streetDirectionId": null,
        "streetTypeId": "RD",
        "placeName": "CAMBRIDGE",
        "streetNameDisplayText": "MURRAY RD, CAMBRIDGE"
      }
    ]
  },
  {
    "postal": "N1S9P3",
    "result": []
  },
  {
    "postal": "N1S4H8",
    "result": [
      {
        "electoralDistricts": [
          {
            "election": null,
            "id": 16,
            "name": "Cambridge"
          }
        ],
        "pollDivisionIds": [
          10137439
        ],
        "postalCode": "N1S4H8",
        "streetName": "BLENHEIM",
        "streetDirectionId": null,
        "streetTypeId": "RD",
        "placeName": "CAMBRIDGE",
        "streetNameDisplayText": "BLENHEIM RD, CAMBRIDGE"
      }
    ]
  },
  {
    "postal": "N1S6R1",
    "result": []
  },
  {
    "postal": "N1S1S0",
    "result": []
  },
  {
    "postal": "N1S3W8",
    "result": [
      {
        "electoralDistricts": [
          {
            "election": null,
            "id": 16,
            "name": "Cambridge"
          }
        ],
        "pollDivisionIds": [
          10137451
        ],
        "postalCode": "N1S3W8",
        "streetName": "CULHAM",
        "streetDirectionId": null,
        "streetTypeId": "DR",
        "placeName": "CAMBRIDGE",
        "streetNameDisplayText": "CULHAM DR, CAMBRIDGE"
      }
    ]
  },
  {
    "postal": "N1S4S3",
    "result": [
      {
        "electoralDistricts": [
          {
            "election": null,
            "id": 16,
            "name": "Cambridge"
          }
        ],
        "pollDivisionIds": [
          10137428
        ],
        "postalCode": "N1S4S3",
        "streetName": "DELAVAN",
        "streetDirectionId": null,
        "streetTypeId": "DR",
        "placeName": "CAMBRIDGE",
        "streetNameDisplayText": "DELAVAN DR, CAMBRIDGE"
      }
    ]
  },
  {
    "postal": "N1S1B6",
    "result": [
      {
        "electoralDistricts": [
          {
            "election": null,
            "id": 16,
            "name": "Cambridge"
          }
        ],
        "pollDivisionIds": [
          10137410
        ],
        "postalCode": "N1S1B6",
        "streetName": "SHERWOOD",
        "streetDirectionId": null,
        "streetTypeId": "DR",
        "placeName": "CAMBRIDGE",
        "streetNameDisplayText": "SHERWOOD DR, CAMBRIDGE"
      }
    ]
  },
  {
    "postal": "N1S8R3",
    "result": []
  },
  {
    "postal": "N1S4V9",
    "result": [
      {
        "electoralDistricts": [
          {
            "election": null,
            "id": 16,
            "name": "Cambridge"
          }
        ],
        "pollDivisionIds": [
          10137428
        ],
        "postalCode": "N1S4V9",
        "streetName": "CALLANDER",
        "streetDirectionId": null,
        "streetTypeId": "CRT",
        "placeName": "CAMBRIDGE",
        "streetNameDisplayText": "CALLANDER CRT, CAMBRIDGE"
      }
    ]
  },
  {
    "postal": "N1S9W4",
    "result": []
  },
  {
    "postal": "N1S3T4",
    "result": [
      {
        "electoralDistricts": [
          {
            "election": null,
            "id": 16,
            "name": "Cambridge"
          }
        ],
        "pollDivisionIds": [
          10137428
        ],
        "postalCode": "N1S3T4",
        "streetName": "MURRAY",
        "streetDirectionId": null,
        "streetTypeId": "RD",
        "placeName": "CAMBRIDGE",
        "streetNameDisplayText": "MURRAY RD, CAMBRIDGE"
      }
    ]
  },
  {
    "postal": "N1S5C7",
    "result": []
  },
  {
    "postal": "N1S3Y1",
    "result": [
      {
        "electoralDistricts": [
          {
            "election": null,
            "id": 16,
            "name": "Cambridge"
          }
        ],
        "pollDivisionIds": [
          10137451
        ],
        "postalCode": "N1S3Y1",
        "streetName": "WOODSIDE",
        "streetDirectionId": null,
        "streetTypeId": "AVE",
        "placeName": "CAMBRIDGE",
        "streetNameDisplayText": "WOODSIDE AVE, CAMBRIDGE"
      }
    ]
  },
  {
    "postal": "N1S5V0",
    "result": []
  },
  {
    "postal": "N1S8G8",
    "result": []
  },
  {
    "postal": "N1S8B1",
    "result": []
  },
  {
    "postal": "N1S4P5",
    "result": [
      {
        "electoralDistricts": [
          {
            "election": null,
            "id": 16,
            "name": "Cambridge"
          }
        ],
        "pollDivisionIds": [
          10137428
        ],
        "postalCode": "N1S4P5",
        "streetName": "SALISBURY",
        "streetDirectionId": null,
        "streetTypeId": "AVE",
        "placeName": "CAMBRIDGE",
        "streetNameDisplayText": "SALISBURY AVE, CAMBRIDGE"
      }
    ]
  },
  {
    "postal": "N1S7B2",
    "result": []
  },
  {
    "postal": "N1S0R2",
    "result": []
  },
  {
    "postal": "N1S4M4",
    "result": [
      {
        "electoralDistricts": [
          {
            "election": null,
            "id": 16,
            "name": "Cambridge"
          }
        ],
        "pollDivisionIds": [
          10137430
        ],
        "postalCode": "N1S4M4",
        "streetName": "SUNSET",
        "streetDirectionId": null,
        "streetTypeId": "BLVD",
        "placeName": "CAMBRIDGE",
        "streetNameDisplayText": "SUNSET BLVD, CAMBRIDGE"
      }
    ]
  },
  {
    "postal": "N1S7M4",
    "result": []
  },
  {
    "postal": "N1S9S7",
    "result": []
  },
  {
    "postal": "N1S5Z7",
    "result": []
  },
  {
    "postal": "N1S7J7",
    "result": []
  },
  {
    "postal": "N1S8R8",
    "result": []
  },
  {
    "postal": "N1S9X1",
    "result": []
  },
  {
    "postal": "N1S5M9",
    "result": []
  },
  {
    "postal": "N1S9B4",
    "result": []
  },
  {
    "postal": "N1S0L9",
    "result": []
  },
  {
    "postal": "N1S9G4",
    "result": []
  },
  {
    "postal": "N1S1J4",
    "result": [
      {
        "electoralDistricts": [
          {
            "election": null,
            "id": 16,
            "name": "Cambridge"
          }
        ],
        "pollDivisionIds": [
          10137441
        ],
        "postalCode": "N1S1J4",
        "streetName": "SALISBURY",
        "streetDirectionId": null,
        "streetTypeId": "AVE",
        "placeName": "CAMBRIDGE",
        "streetNameDisplayText": "SALISBURY AVE, CAMBRIDGE"
      }
    ]
  },
  {
    "postal": "N1S0W6",
    "result": []
  }
]
