[
  {
    "postal": "N3A9J6",
    "result": []
  },
  {
    "postal": "N3A9Z5",
    "result": []
  },
  {
    "postal": "N3A7H8",
    "result": []
  },
  {
    "postal": "N3A0P6",
    "result": []
  },
  {
    "postal": "N3A0S7",
    "result": []
  },
  {
    "postal": "N3A8B9",
    "result": []
  },
  {
    "postal": "N3A2A6",
    "result": [
      {
        "electoralDistricts": [
          {
            "election": null,
            "id": 48,
            "name": "Kitchener—Conestoga"
          }
        ],
        "pollDivisionIds": [
          10139271
        ],
        "postalCode": "N3A2A6",
        "streetName": "HINCKS",
        "streetDirectionId": null,
        "streetTypeId": "ST",
        "placeName": "NEW HAMBURG",
        "streetNameDisplayText": "HINCKS ST, NEW HAMBURG"
      }
    ]
  },
  {
    "postal": "N3A7V2",
    "result": []
  },
  {
    "postal": "N3A9P4",
    "result": []
  },
  {
    "postal": "N3A6G0",
    "result": []
  },
  {
    "postal": "N3A2K0",
    "result": []
  },
  {
    "postal": "N3A7N6",
    "result": []
  },
  {
    "postal": "N3A5R3",
    "result": []
  },
  {
    "postal": "N3A7K0",
    "result": []
  },
  {
    "postal": "N3A3R2",
    "result": [
      {
        "electoralDistricts": [
          {
            "election": null,
            "id": 48,
            "name": "Kitchener—Conestoga"
          }
        ],
        "pollDivisionIds": [
          10139255
        ],
        "postalCode": "N3A3R2",
        "streetName": "WOODS EDGE",
        "streetDirectionId": null,
        "streetTypeId": "CRT",
        "placeName": "BADEN",
        "streetNameDisplayText": "WOODS EDGE CRT, BADEN"
      }
    ]
  },
  {
    "postal": "N3A0J1",
    "result": []
  },
  {
    "postal": "N3A0B0",
    "result": []
  },
  {
    "postal": "N3A5Z2",
    "result": []
  },
  {
    "postal": "N3A7P3",
    "result": []
  },
  {
    "postal": "N3A2K3",
    "result": [
      {
        "electoralDistricts": [
          {
            "election": null,
            "id": 48,
            "name": "Kitchener—Conestoga"
          }
        ],
        "pollDivisionIds": [
          10139273
        ],
        "postalCode": "N3A2K3",
        "streetName": "BOULLEE",
        "streetDirectionId": null,
        "streetTypeId": "ST",
        "placeName": "NEW HAMBURG",
        "streetNameDisplayText": "BOULLEE ST, NEW HAMBURG"
      }
    ]
  },
  {
    "postal": "N3A7Y6",
    "result": []
  },
  {
    "postal": "N3A1L9",
    "result": [
      {
        "electoralDistricts": [
          {
            "election": null,
            "id": 48,
            "name": "Kitchener—Conestoga"
          }
        ],
        "pollDivisionIds": [
          10139273
        ],
        "postalCode": "N3A1L9",
        "streetName": "BLEAMS",
        "streetDirectionId": null,
        "streetTypeId": "CRT",
        "placeName": "NEW HAMBURG",
        "streetNameDisplayText": "BLEAMS CRT, NEW HAMBURG"
      }
    ]
  },
  {
    "postal": "N3A8T0",
    "result": []
  },
  {
    "postal": "N3A3K8",
    "result": [
      {
        "electoralDistricts": [
          {
            "election": null,
            "id": 48,
            "name": "Kitchener—Conestoga"
          }
        ],
        "pollDivisionIds": [
          10139256
        ],
        "postalCode": "N3A3K8",
        "streetName": "SNYDER'S",
        "streetDirectionId": "W",
        "streetTypeId": "RD",
        "placeName": "BADEN",
        "streetNameDisplayText": "SNYDER'S RD W, BADEN"
      }
    ]
  },
  {
    "postal": "N3A5W9",
    "result": []
  },
  {
    "postal": "N3A6T9",
    "result": []
  },
  {
    "postal": "N3A4H1",
    "result": [
      {
        "electoralDistricts": [
          {
            "election": null,
            "id": 48,
            "name": "Kitchener—Conestoga"
          }
        ],
        "pollDivisionIds": [
          10139259
        ],
        "postalCode": "N3A4H1",
        "streetName": "OXFORD WATERLOO",
        "streetDirectionId": null,
        "streetTypeId": "RD",
        "placeName": "NEW HAMBURG",
        "streetNameDisplayText": "OXFORD WATERLOO RD, NEW HAMBURG"
      },
      {
        "electoralDistricts": [
          {
            "election": null,
            "id": 48,
            "name": "Kitchener—Conestoga"
          }
        ],
        "pollDivisionIds": [
          10139259
        ],
        "postalCode": "N3A4H1",
        "streetName": "OXFORD-WATERLOO",
        "streetDirectionId": null,
        "streetTypeId": "RD",
        "placeName": "NEW HAMBURG",
        "streetNameDisplayText": "OXFORD-WATERLOO RD, NEW HAMBURG"
      }
    ]
  },
  {
    "postal": "N3A7A2",
    "result": []
  },
  {
    "postal": "N3A5G0",
    "result": []
  },
  {
    "postal": "N3A8V5",
    "result": []
  },
  {
    "postal": "N3A2Y8",
    "result": [
      {
        "electoralDistricts": [
          {
            "election": null,
            "id": 48,
            "name": "Kitchener—Conestoga"
          }
        ],
        "pollDivisionIds": [
          10139259,
          10139273
        ],
        "postalCode": "N3A2Y8",
        "streetName": "WALKER",
        "streetDirectionId": null,
        "streetTypeId": "RD",
        "placeName": "NEW HAMBURG",
        "streetNameDisplayText": "WALKER RD, NEW HAMBURG"
      }
    ]
  },
  {
    "postal": "N3A2B6",
    "result": [
      {
        "electoralDistricts": [
          {
            "election": null,
            "id": 48,
            "name": "Kitchener—Conestoga"
          }
        ],
        "pollDivisionIds": [
          10139272
        ],
        "postalCode": "N3A2B6",
        "streetName": "CONESTOGA",
        "streetDirectionId": null,
        "streetTypeId": "RD",
        "placeName": "NEW HAMBURG",
        "streetNameDisplayText": "CONESTOGA RD, NEW HAMBURG"
      }
    ]
  },
  {
    "postal": "N3A4W8",
    "result": []
  },
  {
    "postal": "N3A8H7",
    "result": []
  },
  {
    "postal": "N3A5P1",
    "result": []
  },
  {
    "postal": "N3A2B8",
    "result": [
      {
        "electoralDistricts": [
          {
            "election": null,
            "id": 48,
            "name": "Kitchener—Conestoga"
          }
        ],
        "pollDivisionIds": [
          10139271
        ],
        "postalCode": "N3A2B8",
        "streetName": "ASTOR",
        "streetDirectionId": null,
        "streetTypeId": "CRES",
        "placeName": "NEW HAMBURG",
        "streetNameDisplayText": "ASTOR CRES, NEW HAMBURG"
      }
    ]
  },
  {
    "postal": "N3A0P2",
    "result": []
  },
  {
    "postal": "N3A9M1",
    "result": []
  },
  {
    "postal": "N3A3G0",
    "result": []
  },
  {
    "postal": "N3A9Z2",
    "result": []
  },
  {
    "postal": "N3A2A0",
    "result": []
  },
  {
    "postal": "N3A6Y0",
    "result": []
  },
  {
    "postal": "N3A2Z8",
    "result": [
      {
        "electoralDistricts": [
          {
            "election": null,
            "id": 48,
            "name": "Kitchener—Conestoga"
          }
        ],
        "pollDivisionIds": [
          10139258
        ],
        "postalCode": "N3A2Z8",
        "streetName": "PINEHILL",
        "streetDirectionId": null,
        "streetTypeId": "RD",
        "placeName": "NEW HAMBURG",
        "streetNameDisplayText": "PINEHILL RD, NEW HAMBURG"
      }
    ]
  },
  {
    "postal": "N3A7Y3",
    "result": []
  },
  {
    "postal": "N3A6Z5",
    "result": []
  },
  {
    "postal": "N3A6E0",
    "result": []
  },
  {
    "postal": "N3A9B7",
    "result": []
  },
  {
    "postal": "N3A9S5",
    "result": []
  },
  {
    "postal": "N3A3X3",
    "result": [
      {
        "electoralDistricts": [
          {
            "election": null,
            "id": 85,
            "name": "Perth—Wellington"
          }
        ],
        "pollDivisionIds": [
          10135502
        ],
        "postalCode": "N3A3X3",
        "streetName": "106",
        "streetDirectionId": null,
        "streetTypeId": "RD",
        "placeName": "NEW HAMBURG",
        "streetNameDisplayText": "106 RD, NEW HAMBURG"
      }
    ]
  },
  {
    "postal": "N3A7R5",
    "result": []
  },
  {
    "postal": "N3A2X3",
    "result": [
      {
        "electoralDistricts": [
          {
            "election": null,
            "id": 48,
            "name": "Kitchener—Conestoga"
          }
        ],
        "pollDivisionIds": [
          10139259
        ],
        "postalCode": "N3A2X3",
        "streetName": "BEAN",
        "streetDirectionId": null,
        "streetTypeId": "RD",
        "placeName": "NEW HAMBURG",
        "streetNameDisplayText": "BEAN RD, NEW HAMBURG"
      }
    ]
  },
  {
    "postal": "N3A8Z9",
    "result": []
  },
  {
    "postal": "N3A0N4",
    "result": []
  },
  {
    "postal": "N3A1K1",
    "result": [
      {
        "electoralDistricts": [
          {
            "election": null,
            "id": 48,
            "name": "Kitchener—Conestoga"
          }
        ],
        "pollDivisionIds": [
          10139273
        ],
        "postalCode": "N3A1K1",
        "streetName": "HURON",
        "streetDirectionId": null,
        "streetTypeId": "ST",
        "placeName": "NEW HAMBURG",
        "streetNameDisplayText": "HURON ST, NEW HAMBURG"
      }
    ]
  },
  {
    "postal": "N3A1S3",
    "result": [
      {
        "electoralDistricts": [
          {
            "election": null,
            "id": 48,
            "name": "Kitchener—Conestoga"
          }
        ],
        "pollDivisionIds": [
          10139273
        ],
        "postalCode": "N3A1S3",
        "streetName": "WATERLOO",
        "streetDirectionId": null,
        "streetTypeId": "ST",
        "placeName": "NEW HAMBURG",
        "streetNameDisplayText": "WATERLOO ST, NEW HAMBURG"
      }
    ]
  },
  {
    "postal": "N3A6M4",
    "result": []
  },
  {
    "postal": "N3A9A9",
    "result": []
  },
  {
    "postal": "N3A9Z9",
    "result": []
  },
  {
    "postal": "N3A6T4",
    "result": []
  },
  {
    "postal": "N3A0B2",
    "result": [
      {
        "electoralDistricts": [
          {
            "election": null,
            "id": 48,
            "name": "Kitchener—Conestoga"
          }
        ],
        "pollDivisionIds": [
          10139271
        ],
        "postalCode": "N3A0B2",
        "streetName": "HOSTETLER",
        "streetDirectionId": null,
        "streetTypeId": "RD",
        "placeName": "NEW HAMBURG",
        "streetNameDisplayText": "HOSTETLER RD, NEW HAMBURG"
      }
    ]
  },
  {
    "postal": "N3A2L9",
    "result": [
      {
        "electoralDistricts": [
          {
            "election": null,
            "id": 48,
            "name": "Kitchener—Conestoga"
          }
        ],
        "pollDivisionIds": [
          10139256
        ],
        "postalCode": "N3A2L9",
        "streetName": "SNYDERS",
        "streetDirectionId": "W",
        "streetTypeId": "RD",
        "placeName": "BADEN",
        "streetNameDisplayText": "SNYDERS RD W, BADEN"
      },
      {
        "electoralDistricts": [
          {
            "election": null,
            "id": 48,
            "name": "Kitchener—Conestoga"
          }
        ],
        "pollDivisionIds": [
          10139256
        ],
        "postalCode": "N3A2L9",
        "streetName": "SNYDER'S",
        "streetDirectionId": "W",
        "streetTypeId": "RD",
        "placeName": "BADEN",
        "streetNameDisplayText": "SNYDER'S RD W, BADEN"
      }
    ]
  },
  {
    "postal": "N3A8K9",
    "result": []
  },
  {
    "postal": "N3A2H9",
    "result": [
      {
        "electoralDistricts": [
          {
            "election": null,
            "id": 48,
            "name": "Kitchener—Conestoga"
          }
        ],
        "pollDivisionIds": [
          10139273
        ],
        "postalCode": "N3A2H9",
        "streetName": "GOOD",
        "streetDirectionId": null,
        "streetTypeId": "ST",
        "placeName": "NEW HAMBURG",
        "streetNameDisplayText": "GOOD ST, NEW HAMBURG"
      },
      {
        "electoralDistricts": [
          {
            "election": null,
            "id": 48,
            "name": "Kitchener—Conestoga"
          }
        ],
        "pollDivisionIds": [
          10139273
        ],
        "postalCode": "N3A2H9",
        "streetName": "MAURICE",
        "streetDirectionId": null,
        "streetTypeId": "ST",
        "placeName": "NEW HAMBURG",
        "streetNameDisplayText": "MAURICE ST, NEW HAMBURG"
      }
    ]
  },
  {
    "postal": "N3A3Z6",
    "result": []
  },
  {
    "postal": "N3A3B0",
    "result": []
  },
  {
    "postal": "N3A2H8",
    "result": [
      {
        "electoralDistricts": [
          {
            "election": null,
            "id": 48,
            "name": "Kitchener—Conestoga"
          }
        ],
        "pollDivisionIds": [
          10139273
        ],
        "postalCode": "N3A2H8",
        "streetName": "GOOD",
        "streetDirectionId": null,
        "streetTypeId": "ST",
        "placeName": "NEW HAMBURG",
        "streetNameDisplayText": "GOOD ST, NEW HAMBURG"
      },
      {
        "electoralDistricts": [
          {
            "election": null,
            "id": 48,
            "name": "Kitchener—Conestoga"
          }
        ],
        "pollDivisionIds": [
          10139273
        ],
        "postalCode": "N3A2H8",
        "streetName": "MAURICE",
        "streetDirectionId": null,
        "streetTypeId": "ST",
        "placeName": "NEW HAMBURG",
        "streetNameDisplayText": "MAURICE ST, NEW HAMBURG"
      }
    ]
  },
  {
    "postal": "N3A3X2",
    "result": [
      {
        "electoralDistricts": [
          {
            "election": null,
            "id": 85,
            "name": "Perth—Wellington"
          }
        ],
        "pollDivisionIds": [
          10135502
        ],
        "postalCode": "N3A3X2",
        "streetName": "106",
        "streetDirectionId": null,
        "streetTypeId": "RD",
        "placeName": "NEW HAMBURG",
        "streetNameDisplayText": "106 RD, NEW HAMBURG"
      }
    ]
  },
  {
    "postal": "N3A2E9",
    "result": [
      {
        "electoralDistricts": [
          {
            "election": null,
            "id": 48,
            "name": "Kitchener—Conestoga"
          }
        ],
        "pollDivisionIds": [
          10139259
        ],
        "postalCode": "N3A2E9",
        "streetName": "FIELDSTONE",
        "streetDirectionId": null,
        "streetTypeId": "WALK",
        "placeName": "NEW HAMBURG",
        "streetNameDisplayText": "FIELDSTONE WALK, NEW HAMBURG"
      },
      {
        "electoralDistricts": [
          {
            "election": null,
            "id": 48,
            "name": "Kitchener—Conestoga"
          }
        ],
        "pollDivisionIds": [
          10139259
        ],
        "postalCode": "N3A2E9",
        "streetName": "MORNINGSIDE",
        "streetDirectionId": null,
        "streetTypeId": "CIR",
        "placeName": "NEW HAMBURG",
        "streetNameDisplayText": "MORNINGSIDE CIR, NEW HAMBURG"
      },
      {
        "electoralDistricts": [
          {
            "election": null,
            "id": 48,
            "name": "Kitchener—Conestoga"
          }
        ],
        "pollDivisionIds": [
          10139259
        ],
        "postalCode": "N3A2E9",
        "streetName": "ROLLING BROOK",
        "streetDirectionId": null,
        "streetTypeId": "LANE",
        "placeName": "NEW HAMBURG",
        "streetNameDisplayText": "ROLLING BROOK LANE, NEW HAMBURG"
      },
      {
        "electoralDistricts": [
          {
            "election": null,
            "id": 48,
            "name": "Kitchener—Conestoga"
          }
        ],
        "pollDivisionIds": [
          10139259
        ],
        "postalCode": "N3A2E9",
        "streetName": "WEST MORNINGSIDE",
        "streetDirectionId": null,
        "streetTypeId": "CIR",
        "placeName": "NEW HAMBURG",
        "streetNameDisplayText": "WEST MORNINGSIDE CIR, NEW HAMBURG"
      }
    ]
  },
  {
    "postal": "N3A9P6",
    "result": []
  },
  {
    "postal": "N3A9E2",
    "result": []
  },
  {
    "postal": "N3A9H2",
    "result": []
  },
  {
    "postal": "N3A1S8",
    "result": [
      {
        "electoralDistricts": [
          {
            "election": null,
            "id": 48,
            "name": "Kitchener—Conestoga"
          }
        ],
        "pollDivisionIds": [
          10139272
        ],
        "postalCode": "N3A1S8",
        "streetName": "WATERLOO",
        "streetDirectionId": null,
        "streetTypeId": "ST",
        "placeName": "NEW HAMBURG",
        "streetNameDisplayText": "WATERLOO ST, NEW HAMBURG"
      }
    ]
  },
  {
    "postal": "N3A3M6",
    "result": [
      {
        "electoralDistricts": [
          {
            "election": null,
            "id": 48,
            "name": "Kitchener—Conestoga"
          }
        ],
        "pollDivisionIds": [
          10139256
        ],
        "postalCode": "N3A3M6",
        "streetName": "ERB'S",
        "streetDirectionId": null,
        "streetTypeId": "RD",
        "placeName": "BADEN",
        "streetNameDisplayText": "ERB'S RD, BADEN"
      }
    ]
  },
  {
    "postal": "N3A6Z8",
    "result": []
  },
  {
    "postal": "N3A4J2",
    "result": [
      {
        "electoralDistricts": [
          {
            "election": null,
            "id": 48,
            "name": "Kitchener—Conestoga"
          }
        ],
        "pollDivisionIds": [
          10139273
        ],
        "postalCode": "N3A4J2",
        "streetName": "PERTH",
        "streetDirectionId": null,
        "streetTypeId": "ST",
        "placeName": "NEW HAMBURG",
        "streetNameDisplayText": "PERTH ST, NEW HAMBURG"
      },
      {
        "electoralDistricts": [
          {
            "election": null,
            "id": 48,
            "name": "Kitchener—Conestoga"
          }
        ],
        "pollDivisionIds": [
          10139273,
          10139257
        ],
        "postalCode": "N3A4J2",
        "streetName": "SHADE",
        "streetDirectionId": null,
        "streetTypeId": "ST",
        "placeName": "NEW HAMBURG",
        "streetNameDisplayText": "SHADE ST, NEW HAMBURG"
      }
    ]
  },
  {
    "postal": "N3A9Y1",
    "result": []
  },
  {
    "postal": "N3A8V6",
    "result": []
  },
  {
    "postal": "N3A6B2",
    "result": []
  },
  {
    "postal": "N3A1P8",
    "result": [
      {
        "electoralDistricts": [
          {
            "election": null,
            "id": 48,
            "name": "Kitchener—Conestoga"
          }
        ],
        "pollDivisionIds": [
          10139273
        ],
        "postalCode": "N3A1P8",
        "streetName": "MILL",
        "streetDirectionId": null,
        "streetTypeId": "ST",
        "placeName": "NEW HAMBURG",
        "streetNameDisplayText": "MILL ST, NEW HAMBURG"
      }
    ]
  },
  {
    "postal": "N3A0V8",
    "result": []
  },
  {
    "postal": "N3A4Y0",
    "result": []
  },
  {
    "postal": "N3A2T4",
    "result": [
      {
        "electoralDistricts": [
          {
            "election": null,
            "id": 48,
            "name": "Kitchener—Conestoga"
          }
        ],
        "pollDivisionIds": [
          10139257
        ],
        "postalCode": "N3A2T4",
        "streetName": "HASTINGS",
        "streetDirectionId": null,
        "streetTypeId": "CRT",
        "placeName": "BADEN",
        "streetNameDisplayText": "HASTINGS CRT, BADEN"
      }
    ]
  },
  {
    "postal": "N3A2S3",
    "result": [
      {
        "electoralDistricts": [
          {
            "election": null,
            "id": 48,
            "name": "Kitchener—Conestoga"
          }
        ],
        "pollDivisionIds": [
          10139257
        ],
        "postalCode": "N3A2S3",
        "streetName": "TANNERY",
        "streetDirectionId": null,
        "streetTypeId": "ST",
        "placeName": "BADEN",
        "streetNameDisplayText": "TANNERY ST, BADEN"
      }
    ]
  },
  {
    "postal": "N3A0K0",
    "result": []
  },
  {
    "postal": "N3A5N1",
    "result": []
  },
  {
    "postal": "N3A7T0",
    "result": []
  },
  {
    "postal": "N3A9N2",
    "result": []
  },
  {
    "postal": "N3A5L1",
    "result": []
  },
  {
    "postal": "N3A7G5",
    "result": []
  },
  {
    "postal": "N3A6K2",
    "result": []
  },
  {
    "postal": "N3A6P9",
    "result": []
  },
  {
    "postal": "N3A0E6",
    "result": []
  },
  {
    "postal": "N3A8R9",
    "result": []
  },
  {
    "postal": "N3A3G9",
    "result": [
      {
        "electoralDistricts": [
          {
            "election": null,
            "id": 48,
            "name": "Kitchener—Conestoga"
          }
        ],
        "pollDivisionIds": [
          10139256
        ],
        "postalCode": "N3A3G9",
        "streetName": "NAFZIGER",
        "streetDirectionId": null,
        "streetTypeId": "RD",
        "placeName": "NEW HAMBURG",
        "streetNameDisplayText": "NAFZIGER RD, NEW HAMBURG"
      }
    ]
  },
  {
    "postal": "N3A0V7",
    "result": []
  },
  {
    "postal": "N3A2Z1",
    "result": [
      {
        "electoralDistricts": [
          {
            "election": null,
            "id": 48,
            "name": "Kitchener—Conestoga"
          }
        ],
        "pollDivisionIds": [
          10139259
        ],
        "postalCode": "N3A2Z1",
        "streetName": "TYE",
        "streetDirectionId": null,
        "streetTypeId": "RD",
        "placeName": "NEW HAMBURG",
        "streetNameDisplayText": "TYE RD, NEW HAMBURG"
      }
    ]
  },
  {
    "postal": "N3A7N1",
    "result": []
  },
  {
    "postal": "N3A3C6",
    "result": [
      {
        "electoralDistricts": [
          {
            "election": null,
            "id": 48,
            "name": "Kitchener—Conestoga"
          }
        ],
        "pollDivisionIds": [
          10139259
        ],
        "postalCode": "N3A3C6",
        "streetName": "HURON",
        "streetDirectionId": null,
        "streetTypeId": "RD",
        "placeName": "NEW HAMBURG",
        "streetNameDisplayText": "HURON RD, NEW HAMBURG"
      }
    ]
  },
  {
    "postal": "N3A4M1",
    "result": [
      {
        "electoralDistricts": [
          {
            "election": null,
            "id": 48,
            "name": "Kitchener—Conestoga"
          }
        ],
        "pollDivisionIds": [
          10139271
        ],
        "postalCode": "N3A4M1",
        "streetName": "WATERLOO",
        "streetDirectionId": null,
        "streetTypeId": "ST",
        "placeName": "NEW HAMBURG",
        "streetNameDisplayText": "WATERLOO ST, NEW HAMBURG"
      }
    ]
  },
  {
    "postal": "N3A9K2",
    "result": []
  },
  {
    "postal": "N3A9S6",
    "result": []
  },
  {
    "postal": "N3A4X1",
    "result": []
  },
  {
    "postal": "N3A8W2",
    "result": []
  },
  {
    "postal": "N3A7N2",
    "result": []
  },
  {
    "postal": "N3A8S3",
    "result": []
  },
  {
    "postal": "N3A4V0",
    "result": []
  },
  {
    "postal": "N3A6W4",
    "result": []
  },
  {
    "postal": "N3A5M1",
    "result": []
  },
  {
    "postal": "N3A0S4",
    "result": []
  },
  {
    "postal": "N3A5X6",
    "result": []
  },
  {
    "postal": "N3A8L5",
    "result": []
  },
  {
    "postal": "N3A5M8",
    "result": []
  },
  {
    "postal": "N3A2G3",
    "result": [
      {
        "electoralDistricts": [
          {
            "election": null,
            "id": 48,
            "name": "Kitchener—Conestoga"
          }
        ],
        "pollDivisionIds": [
          10139259
        ],
        "postalCode": "N3A2G3",
        "streetName": "RIDGEBANK",
        "streetDirectionId": null,
        "streetTypeId": "PL",
        "placeName": "NEW HAMBURG",
        "streetNameDisplayText": "RIDGEBANK PL, NEW HAMBURG"
      },
      {
        "electoralDistricts": [
          {
            "election": null,
            "id": 48,
            "name": "Kitchener—Conestoga"
          }
        ],
        "pollDivisionIds": [
          10139259
        ],
        "postalCode": "N3A2G3",
        "streetName": "SUMMIT",
        "streetDirectionId": null,
        "streetTypeId": "CRES",
        "placeName": "NEW HAMBURG",
        "streetNameDisplayText": "SUMMIT CRES, NEW HAMBURG"
      }
    ]
  },
  {
    "postal": "N3A8E4",
    "result": []
  },
  {
    "postal": "N3A7S9",
    "result": []
  },
  {
    "postal": "N3A1K3",
    "result": [
      {
        "electoralDistricts": [
          {
            "election": null,
            "id": 48,
            "name": "Kitchener—Conestoga"
          }
        ],
        "pollDivisionIds": [
          10139273
        ],
        "postalCode": "N3A1K3",
        "streetName": "HURON",
        "streetDirectionId": null,
        "streetTypeId": "ST",
        "placeName": "NEW HAMBURG",
        "streetNameDisplayText": "HURON ST, NEW HAMBURG"
      }
    ]
  },
  {
    "postal": "N3A4E1",
    "result": []
  },
  {
    "postal": "N3A4R2",
    "result": [
      {
        "electoralDistricts": [
          {
            "election": null,
            "id": 48,
            "name": "Kitchener—Conestoga"
          }
        ],
        "pollDivisionIds": [
          10139273
        ],
        "postalCode": "N3A4R2",
        "streetName": "STONECROFT",
        "streetDirectionId": null,
        "streetTypeId": "WAY",
        "placeName": "NEW HAMBURG",
        "streetNameDisplayText": "STONECROFT WAY, NEW HAMBURG"
      }
    ]
  },
  {
    "postal": "N3A6T0",
    "result": []
  },
  {
    "postal": "N3A3K5",
    "result": [
      {
        "electoralDistricts": [
          {
            "election": null,
            "id": 48,
            "name": "Kitchener—Conestoga"
          }
        ],
        "pollDivisionIds": [
          10139257
        ],
        "postalCode": "N3A3K5",
        "streetName": "BREWERY",
        "streetDirectionId": null,
        "streetTypeId": "ST",
        "placeName": "BADEN",
        "streetNameDisplayText": "BREWERY ST, BADEN"
      }
    ]
  },
  {
    "postal": "N3A3S3",
    "result": [
      {
        "electoralDistricts": [
          {
            "election": null,
            "id": 48,
            "name": "Kitchener—Conestoga"
          }
        ],
        "pollDivisionIds": [
          10139254
        ],
        "postalCode": "N3A3S3",
        "streetName": "CARMEL-KOCH",
        "streetDirectionId": null,
        "streetTypeId": "RD",
        "placeName": "BADEN",
        "streetNameDisplayText": "CARMEL-KOCH RD, BADEN"
      }
    ]
  },
  {
    "postal": "N3A3L4",
    "result": []
  },
  {
    "postal": "N3A9Y2",
    "result": []
  },
  {
    "postal": "N3A1E0",
    "result": []
  },
  {
    "postal": "N3A9A4",
    "result": []
  },
  {
    "postal": "N3A1L3",
    "result": [
      {
        "electoralDistricts": [
          {
            "election": null,
            "id": 48,
            "name": "Kitchener—Conestoga"
          }
        ],
        "pollDivisionIds": [
          10139273
        ],
        "postalCode": "N3A1L3",
        "streetName": "STONE",
        "streetDirectionId": null,
        "streetTypeId": "ST",
        "placeName": "NEW HAMBURG",
        "streetNameDisplayText": "STONE ST, NEW HAMBURG"
      }
    ]
  },
  {
    "postal": "N3A6N1",
    "result": []
  },
  {
    "postal": "N3A6G7",
    "result": []
  },
  {
    "postal": "N3A7W1",
    "result": []
  },
  {
    "postal": "N3A4M6",
    "result": [
      {
        "electoralDistricts": [
          {
            "election": null,
            "id": 48,
            "name": "Kitchener—Conestoga"
          }
        ],
        "pollDivisionIds": [
          10139257
        ],
        "postalCode": "N3A4M6",
        "streetName": "LIVINGSTON",
        "streetDirectionId": null,
        "streetTypeId": "BLVD",
        "placeName": "BADEN",
        "streetNameDisplayText": "LIVINGSTON BLVD, BADEN"
      }
    ]
  },
  {
    "postal": "N3A1K0",
    "result": []
  },
  {
    "postal": "N3A3E2",
    "result": [
      {
        "electoralDistricts": [
          {
            "election": null,
            "id": 48,
            "name": "Kitchener—Conestoga"
          }
        ],
        "pollDivisionIds": [
          10139259
        ],
        "postalCode": "N3A3E2",
        "streetName": "HURON",
        "streetDirectionId": null,
        "streetTypeId": "RD",
        "placeName": "NEW HAMBURG",
        "streetNameDisplayText": "HURON RD, NEW HAMBURG"
      }
    ]
  },
  {
    "postal": "N3A5H4",
    "result": []
  },
  {
    "postal": "N3A1K7",
    "result": [
      {
        "electoralDistricts": [
          {
            "election": null,
            "id": 48,
            "name": "Kitchener—Conestoga"
          }
        ],
        "pollDivisionIds": [
          10139273
        ],
        "postalCode": "N3A1K7",
        "streetName": "HURON",
        "streetDirectionId": null,
        "streetTypeId": "ST",
        "placeName": "NEW HAMBURG",
        "streetNameDisplayText": "HURON ST, NEW HAMBURG"
      }
    ]
  },
  {
    "postal": "N3A0H0",
    "result": []
  },
  {
    "postal": "N3A0J3",
    "result": []
  },
  {
    "postal": "N3A1X6",
    "result": [
      {
        "electoralDistricts": [
          {
            "election": null,
            "id": 48,
            "name": "Kitchener—Conestoga"
          }
        ],
        "pollDivisionIds": [
          10139271
        ],
        "postalCode": "N3A1X6",
        "streetName": "FORREST",
        "streetDirectionId": "E",
        "streetTypeId": "AVE",
        "placeName": "NEW HAMBURG",
        "streetNameDisplayText": "FORREST AVE E, NEW HAMBURG"
      }
    ]
  },
  {
    "postal": "N3A2Z6",
    "result": [
      {
        "electoralDistricts": [
          {
            "election": null,
            "id": 48,
            "name": "Kitchener—Conestoga"
          }
        ],
        "pollDivisionIds": [
          10139258
        ],
        "postalCode": "N3A2Z6",
        "streetName": "PINEHILL",
        "streetDirectionId": null,
        "streetTypeId": "RD",
        "placeName": "NEW HAMBURG",
        "streetNameDisplayText": "PINEHILL RD, NEW HAMBURG"
      }
    ]
  },
  {
    "postal": "N3A4R9",
    "result": [
      {
        "electoralDistricts": [
          {
            "election": null,
            "id": 48,
            "name": "Kitchener—Conestoga"
          }
        ],
        "pollDivisionIds": [
          10139272
        ],
        "postalCode": "N3A4R9",
        "streetName": "LASCHINGER",
        "streetDirectionId": null,
        "streetTypeId": "BLVD",
        "placeName": "NEW HAMBURG",
        "streetNameDisplayText": "LASCHINGER BLVD, NEW HAMBURG"
      }
    ]
  },
  {
    "postal": "N3A0W8",
    "result": []
  },
  {
    "postal": "N3A1L4",
    "result": [
      {
        "electoralDistricts": [
          {
            "election": null,
            "id": 48,
            "name": "Kitchener—Conestoga"
          }
        ],
        "pollDivisionIds": [
          10139273
        ],
        "postalCode": "N3A1L4",
        "streetName": "STONE",
        "streetDirectionId": null,
        "streetTypeId": "ST",
        "placeName": "NEW HAMBURG",
        "streetNameDisplayText": "STONE ST, NEW HAMBURG"
      }
    ]
  },
  {
    "postal": "N3A0C8",
    "result": [
      {
        "electoralDistricts": [
          {
            "election": null,
            "id": 48,
            "name": "Kitchener—Conestoga"
          }
        ],
        "pollDivisionIds": [
          10139273
        ],
        "postalCode": "N3A0C8",
        "streetName": "PICCADILLY",
        "streetDirectionId": null,
        "streetTypeId": "SQ",
        "placeName": "NEW HAMBURG",
        "streetNameDisplayText": "PICCADILLY SQ, NEW HAMBURG"
      }
    ]
  },
  {
    "postal": "N3A9X7",
    "result": []
  },
  {
    "postal": "N3A4T1",
    "result": []
  },
  {
    "postal": "N3A0M0",
    "result": []
  },
  {
    "postal": "N3A6A2",
    "result": []
  },
  {
    "postal": "N3A9S8",
    "result": []
  },
  {
    "postal": "N3A9T4",
    "result": []
  },
  {
    "postal": "N3A9Y4",
    "result": []
  },
  {
    "postal": "N3A6G5",
    "result": []
  },
  {
    "postal": "N3A6H9",
    "result": []
  },
  {
    "postal": "N3A2P3",
    "result": [
      {
        "electoralDistricts": [
          {
            "election": null,
            "id": 48,
            "name": "Kitchener—Conestoga"
          }
        ],
        "pollDivisionIds": [
          10139256
        ],
        "postalCode": "N3A2P3",
        "streetName": "BECK",
        "streetDirectionId": null,
        "streetTypeId": "ST",
        "placeName": "BADEN",
        "streetNameDisplayText": "BECK ST, BADEN"
      }
    ]
  },
  {
    "postal": "N3A1T6",
    "result": [
      {
        "electoralDistricts": [
          {
            "election": null,
            "id": 48,
            "name": "Kitchener—Conestoga"
          }
        ],
        "pollDivisionIds": [
          10139272,
          10139271
        ],
        "postalCode": "N3A1T6",
        "streetName": "WATERLOO",
        "streetDirectionId": null,
        "streetTypeId": "ST",
        "placeName": "NEW HAMBURG",
        "streetNameDisplayText": "WATERLOO ST, NEW HAMBURG"
      }
    ]
  },
  {
    "postal": "N3A4P6",
    "result": [
      {
        "electoralDistricts": [
          {
            "election": null,
            "id": 48,
            "name": "Kitchener—Conestoga"
          }
        ],
        "pollDivisionIds": [
          10139273
        ],
        "postalCode": "N3A4P6",
        "streetName": "ORCHARD",
        "streetDirectionId": null,
        "streetTypeId": "WAY",
        "placeName": "NEW HAMBURG",
        "streetNameDisplayText": "ORCHARD WAY, NEW HAMBURG"
      }
    ]
  },
  {
    "postal": "N3A3K1",
    "result": [
      {
        "electoralDistricts": [
          {
            "election": null,
            "id": 48,
            "name": "Kitchener—Conestoga"
          }
        ],
        "pollDivisionIds": [
          10139259
        ],
        "postalCode": "N3A3K1",
        "streetName": "WILMOT CENTRE",
        "streetDirectionId": null,
        "streetTypeId": "RD",
        "placeName": "BADEN",
        "streetNameDisplayText": "WILMOT CENTRE RD, BADEN"
      }
    ]
  },
  {
    "postal": "N3A6X4",
    "result": []
  },
  {
    "postal": "N3A4M8",
    "result": [
      {
        "electoralDistricts": [
          {
            "election": null,
            "id": 48,
            "name": "Kitchener—Conestoga"
          }
        ],
        "pollDivisionIds": [
          10139256
        ],
        "postalCode": "N3A4M8",
        "streetName": "CHARLOTTA",
        "streetDirectionId": null,
        "streetTypeId": "ST",
        "placeName": "BADEN",
        "streetNameDisplayText": "CHARLOTTA ST, BADEN"
      }
    ]
  },
  {
    "postal": "N3A2Y1",
    "result": [
      {
        "electoralDistricts": [
          {
            "election": null,
            "id": 48,
            "name": "Kitchener—Conestoga"
          }
        ],
        "pollDivisionIds": [
          10139259
        ],
        "postalCode": "N3A2Y1",
        "streetName": "WALKER",
        "streetDirectionId": null,
        "streetTypeId": "RD",
        "placeName": "NEW HAMBURG",
        "streetNameDisplayText": "WALKER RD, NEW HAMBURG"
      }
    ]
  },
  {
    "postal": "N3A6M1",
    "result": []
  },
  {
    "postal": "N3A5L8",
    "result": []
  },
  {
    "postal": "N3A3P6",
    "result": [
      {
        "electoralDistricts": [
          {
            "election": null,
            "id": 48,
            "name": "Kitchener—Conestoga"
          }
        ],
        "pollDivisionIds": [
          10139255
        ],
        "postalCode": "N3A3P6",
        "streetName": "SPRUCEGROVE",
        "streetDirectionId": null,
        "streetTypeId": "AVE",
        "placeName": "BADEN",
        "streetNameDisplayText": "SPRUCEGROVE AVE, BADEN"
      }
    ]
  },
  {
    "postal": "N3A9A5",
    "result": []
  },
  {
    "postal": "N3A7K1",
    "result": []
  },
  {
    "postal": "N3A3J4",
    "result": [
      {
        "electoralDistricts": [
          {
            "election": null,
            "id": 48,
            "name": "Kitchener—Conestoga"
          }
        ],
        "pollDivisionIds": [
          10139259
        ],
        "postalCode": "N3A3J4",
        "streetName": "BLEAMS",
        "streetDirectionId": null,
        "streetTypeId": "RD",
        "placeName": "NEW HAMBURG",
        "streetNameDisplayText": "BLEAMS RD, NEW HAMBURG"
      }
    ]
  },
  {
    "postal": "N3A5E7",
    "result": []
  },
  {
    "postal": "N3A3A7",
    "result": [
      {
        "electoralDistricts": [
          {
            "election": null,
            "id": 48,
            "name": "Kitchener—Conestoga"
          }
        ],
        "pollDivisionIds": [
          10139257,
          10139255
        ],
        "postalCode": "N3A3A7",
        "streetName": "SANDHILLS",
        "streetDirectionId": null,
        "streetTypeId": "RD",
        "placeName": "BADEN",
        "streetNameDisplayText": "SANDHILLS RD, BADEN"
      }
    ]
  },
  {
    "postal": "N3A1B9",
    "result": [
      {
        "electoralDistricts": [
          {
            "election": null,
            "id": 48,
            "name": "Kitchener—Conestoga"
          }
        ],
        "pollDivisionIds": [
          10139273
        ],
        "postalCode": "N3A1B9",
        "streetName": "JACOB",
        "streetDirectionId": null,
        "streetTypeId": "ST",
        "placeName": "NEW HAMBURG",
        "streetNameDisplayText": "JACOB ST, NEW HAMBURG"
      }
    ]
  },
  {
    "postal": "N3A9E8",
    "result": []
  },
  {
    "postal": "N3A1C9",
    "result": [
      {
        "electoralDistricts": [
          {
            "election": null,
            "id": 48,
            "name": "Kitchener—Conestoga"
          }
        ],
        "pollDivisionIds": [
          10139273
        ],
        "postalCode": "N3A1C9",
        "streetName": "BOULLEE",
        "streetDirectionId": null,
        "streetTypeId": "ST",
        "placeName": "NEW HAMBURG",
        "streetNameDisplayText": "BOULLEE ST, NEW HAMBURG"
      }
    ]
  },
  {
    "postal": "N3A3B5",
    "result": [
      {
        "electoralDistricts": [
          {
            "election": null,
            "id": 48,
            "name": "Kitchener—Conestoga"
          }
        ],
        "pollDivisionIds": [
          10139259
        ],
        "postalCode": "N3A3B5",
        "streetName": "SANDHILLS",
        "streetDirectionId": null,
        "streetTypeId": "RD",
        "placeName": "BADEN",
        "streetNameDisplayText": "SANDHILLS RD, BADEN"
      }
    ]
  },
  {
    "postal": "N3A8R0",
    "result": []
  },
  {
    "postal": "N3A3P2",
    "result": [
      {
        "electoralDistricts": [
          {
            "election": null,
            "id": 48,
            "name": "Kitchener—Conestoga"
          }
        ],
        "pollDivisionIds": [
          10139255
        ],
        "postalCode": "N3A3P2",
        "streetName": "MAUE",
        "streetDirectionId": null,
        "streetTypeId": "CRT",
        "placeName": "BADEN",
        "streetNameDisplayText": "MAUE CRT, BADEN"
      }
    ]
  },
  {
    "postal": "N3A5V4",
    "result": []
  },
  {
    "postal": "N3A4H0",
    "result": []
  },
  {
    "postal": "N3A4S7",
    "result": []
  },
  {
    "postal": "N3A6C2",
    "result": []
  },
  {
    "postal": "N3A8W3",
    "result": []
  },
  {
    "postal": "N3A4M5",
    "result": []
  },
  {
    "postal": "N3A5T1",
    "result": []
  },
  {
    "postal": "N3A3B3",
    "result": [
      {
        "electoralDistricts": [
          {
            "election": null,
            "id": 48,
            "name": "Kitchener—Conestoga"
          }
        ],
        "pollDivisionIds": [
          10139259
        ],
        "postalCode": "N3A3B3",
        "streetName": "SANDHILLS",
        "streetDirectionId": null,
        "streetTypeId": "RD",
        "placeName": "BADEN",
        "streetNameDisplayText": "SANDHILLS RD, BADEN"
      }
    ]
  },
  {
    "postal": "N3A6C6",
    "result": []
  },
  {
    "postal": "N3A7N8",
    "result": []
  },
  {
    "postal": "N3A2Y3",
    "result": [
      {
        "electoralDistricts": [
          {
            "election": null,
            "id": 48,
            "name": "Kitchener—Conestoga"
          }
        ],
        "pollDivisionIds": [
          10139259
        ],
        "postalCode": "N3A2Y3",
        "streetName": "WALKER",
        "streetDirectionId": null,
        "streetTypeId": "RD",
        "placeName": "NEW HAMBURG",
        "streetNameDisplayText": "WALKER RD, NEW HAMBURG"
      }
    ]
  },
  {
    "postal": "N3A2R6",
    "result": [
      {
        "electoralDistricts": [
          {
            "election": null,
            "id": 48,
            "name": "Kitchener—Conestoga"
          }
        ],
        "pollDivisionIds": [
          10139256
        ],
        "postalCode": "N3A2R6",
        "streetName": "CHARLOTTA",
        "streetDirectionId": null,
        "streetTypeId": "ST",
        "placeName": "BADEN",
        "streetNameDisplayText": "CHARLOTTA ST, BADEN"
      }
    ]
  },
  {
    "postal": "N3A7N3",
    "result": []
  },
  {
    "postal": "N3A8J2",
    "result": []
  },
  {
    "postal": "N3A6A9",
    "result": []
  },
  {
    "postal": "N3A3V2",
    "result": [
      {
        "electoralDistricts": [
          {
            "election": null,
            "id": 85,
            "name": "Perth—Wellington"
          }
        ],
        "pollDivisionIds": [
          10135502
        ],
        "postalCode": "N3A3V2",
        "streetName": "102",
        "streetDirectionId": null,
        "streetTypeId": "RD",
        "placeName": "NEW HAMBURG",
        "streetNameDisplayText": "102 RD, NEW HAMBURG"
      }
    ]
  },
  {
    "postal": "N3A2N3",
    "result": [
      {
        "electoralDistricts": [
          {
            "election": null,
            "id": 48,
            "name": "Kitchener—Conestoga"
          }
        ],
        "pollDivisionIds": [
          10139256
        ],
        "postalCode": "N3A2N3",
        "streetName": "QUEEN",
        "streetDirectionId": null,
        "streetTypeId": "ST",
        "placeName": "BADEN",
        "streetNameDisplayText": "QUEEN ST, BADEN"
      }
    ]
  },
  {
    "postal": "N3A1S5",
    "result": [
      {
        "electoralDistricts": [
          {
            "election": null,
            "id": 48,
            "name": "Kitchener—Conestoga"
          }
        ],
        "pollDivisionIds": [
          10139272
        ],
        "postalCode": "N3A1S5",
        "streetName": "WATERLOO",
        "streetDirectionId": null,
        "streetTypeId": "ST",
        "placeName": "NEW HAMBURG",
        "streetNameDisplayText": "WATERLOO ST, NEW HAMBURG"
      }
    ]
  },
  {
    "postal": "N3A4T7",
    "result": []
  },
  {
    "postal": "N3A6Y7",
    "result": []
  },
  {
    "postal": "N3A0W7",
    "result": []
  },
  {
    "postal": "N3A2W9",
    "result": [
      {
        "electoralDistricts": [
          {
            "election": null,
            "id": 48,
            "name": "Kitchener—Conestoga"
          }
        ],
        "pollDivisionIds": [
          10139259
        ],
        "postalCode": "N3A2W9",
        "streetName": "BEAN",
        "streetDirectionId": null,
        "streetTypeId": "RD",
        "placeName": "NEW HAMBURG",
        "streetNameDisplayText": "BEAN RD, NEW HAMBURG"
      }
    ]
  },
  {
    "postal": "N3A8V0",
    "result": []
  },
  {
    "postal": "N3A0H4",
    "result": []
  },
  {
    "postal": "N3A2T1",
    "result": [
      {
        "electoralDistricts": [
          {
            "election": null,
            "id": 48,
            "name": "Kitchener—Conestoga"
          }
        ],
        "pollDivisionIds": [
          10139257
        ],
        "postalCode": "N3A2T1",
        "streetName": "HASTINGS",
        "streetDirectionId": null,
        "streetTypeId": "CRT",
        "placeName": "BADEN",
        "streetNameDisplayText": "HASTINGS CRT, BADEN"
      }
    ]
  },
  {
    "postal": "N3A1B1",
    "result": [
      {
        "electoralDistricts": [
          {
            "election": null,
            "id": 48,
            "name": "Kitchener—Conestoga"
          }
        ],
        "pollDivisionIds": [
          10139273
        ],
        "postalCode": "N3A1B1",
        "streetName": "ASMUS",
        "streetDirectionId": null,
        "streetTypeId": "ST",
        "placeName": "NEW HAMBURG",
        "streetNameDisplayText": "ASMUS ST, NEW HAMBURG"
      }
    ]
  },
  {
    "postal": "N3A8B6",
    "result": []
  },
  {
    "postal": "N3A6H1",
    "result": []
  },
  {
    "postal": "N3A8T8",
    "result": []
  },
  {
    "postal": "N3A0T4",
    "result": []
  },
  {
    "postal": "N3A2C4",
    "result": [
      {
        "electoralDistricts": [
          {
            "election": null,
            "id": 48,
            "name": "Kitchener—Conestoga"
          }
        ],
        "pollDivisionIds": [
          10139272
        ],
        "postalCode": "N3A2C4",
        "streetName": "WILLIAMS",
        "streetDirectionId": null,
        "streetTypeId": "ST",
        "placeName": "NEW HAMBURG",
        "streetNameDisplayText": "WILLIAMS ST, NEW HAMBURG"
      }
    ]
  },
  {
    "postal": "N3A8N3",
    "result": []
  },
  {
    "postal": "N3A4L8",
    "result": [
      {
        "electoralDistricts": [
          {
            "election": null,
            "id": 48,
            "name": "Kitchener—Conestoga"
          }
        ],
        "pollDivisionIds": [
          10139273
        ],
        "postalCode": "N3A4L8",
        "streetName": "SHIREFIELD",
        "streetDirectionId": null,
        "streetTypeId": "LANE",
        "placeName": "NEW HAMBURG",
        "streetNameDisplayText": "SHIREFIELD LANE, NEW HAMBURG"
      }
    ]
  },
  {
    "postal": "N3A2B5",
    "result": [
      {
        "electoralDistricts": [
          {
            "election": null,
            "id": 48,
            "name": "Kitchener—Conestoga"
          }
        ],
        "pollDivisionIds": [
          10139271
        ],
        "postalCode": "N3A2B5",
        "streetName": "CONESTOGA",
        "streetDirectionId": null,
        "streetTypeId": "RD",
        "placeName": "NEW HAMBURG",
        "streetNameDisplayText": "CONESTOGA RD, NEW HAMBURG"
      }
    ]
  },
  {
    "postal": "N3A3H1",
    "result": [
      {
        "electoralDistricts": [
          {
            "election": null,
            "id": 48,
            "name": "Kitchener—Conestoga"
          }
        ],
        "pollDivisionIds": [
          10139256
        ],
        "postalCode": "N3A3H1",
        "streetName": "NAFZIGER",
        "streetDirectionId": null,
        "streetTypeId": "RD",
        "placeName": "NEW HAMBURG",
        "streetNameDisplayText": "NAFZIGER RD, NEW HAMBURG"
      }
    ]
  },
  {
    "postal": "N3A4Y1",
    "result": []
  },
  {
    "postal": "N3A7E2",
    "result": []
  },
  {
    "postal": "N3A2P5",
    "result": [
      {
        "electoralDistricts": [
          {
            "election": null,
            "id": 48,
            "name": "Kitchener—Conestoga"
          }
        ],
        "pollDivisionIds": [
          10139256
        ],
        "postalCode": "N3A2P5",
        "streetName": "FOUNDRY",
        "streetDirectionId": null,
        "streetTypeId": "ST",
        "placeName": "BADEN",
        "streetNameDisplayText": "FOUNDRY ST, BADEN"
      }
    ]
  },
  {
    "postal": "N3A8R7",
    "result": []
  },
  {
    "postal": "N3A9P1",
    "result": []
  },
  {
    "postal": "N3A3B8",
    "result": [
      {
        "electoralDistricts": [
          {
            "election": null,
            "id": 48,
            "name": "Kitchener—Conestoga"
          }
        ],
        "pollDivisionIds": [
          10139255,
          10139259
        ],
        "postalCode": "N3A3B8",
        "streetName": "SANDHILLS",
        "streetDirectionId": null,
        "streetTypeId": "RD",
        "placeName": "BADEN",
        "streetNameDisplayText": "SANDHILLS RD, BADEN"
      }
    ]
  },
  {
    "postal": "N3A3P7",
    "result": [
      {
        "electoralDistricts": [
          {
            "election": null,
            "id": 48,
            "name": "Kitchener—Conestoga"
          }
        ],
        "pollDivisionIds": [
          10139255
        ],
        "postalCode": "N3A3P7",
        "streetName": "SPRUCEGROVE",
        "streetDirectionId": null,
        "streetTypeId": "AVE",
        "placeName": "BADEN",
        "streetNameDisplayText": "SPRUCEGROVE AVE, BADEN"
      }
    ]
  },
  {
    "postal": "N3A9B2",
    "result": []
  },
  {
    "postal": "N3A6Z3",
    "result": []
  },
  {
    "postal": "N3A4N5",
    "result": [
      {
        "electoralDistricts": [
          {
            "election": null,
            "id": 48,
            "name": "Kitchener—Conestoga"
          }
        ],
        "pollDivisionIds": [
          10139271
        ],
        "postalCode": "N3A4N5",
        "streetName": "THEODORE SCHULER",
        "streetDirectionId": null,
        "streetTypeId": "BLVD",
        "placeName": "NEW HAMBURG",
        "streetNameDisplayText": "THEODORE SCHULER BLVD, NEW HAMBURG"
      }
    ]
  },
  {
    "postal": "N3A8T3",
    "result": []
  },
  {
    "postal": "N3A1V2",
    "result": [
      {
        "electoralDistricts": [
          {
            "election": null,
            "id": 48,
            "name": "Kitchener—Conestoga"
          }
        ],
        "pollDivisionIds": [
          10139273
        ],
        "postalCode": "N3A1V2",
        "streetName": "WATERLOO",
        "streetDirectionId": null,
        "streetTypeId": "ST",
        "placeName": "KITCHENER",
        "streetNameDisplayText": "WATERLOO ST, KITCHENER"
      },
      {
        "electoralDistricts": [
          {
            "election": null,
            "id": 48,
            "name": "Kitchener—Conestoga"
          }
        ],
        "pollDivisionIds": [
          10139273
        ],
        "postalCode": "N3A1V2",
        "streetName": "WATERLOO",
        "streetDirectionId": null,
        "streetTypeId": "ST",
        "placeName": "NEW HAMBURG",
        "streetNameDisplayText": "WATERLOO ST, NEW HAMBURG"
      }
    ]
  },
  {
    "postal": "N3A1Y0",
    "result": []
  },
  {
    "postal": "N3A3G6",
    "result": [
      {
        "electoralDistricts": [
          {
            "election": null,
            "id": 48,
            "name": "Kitchener—Conestoga"
          }
        ],
        "pollDivisionIds": [
          10139259
        ],
        "postalCode": "N3A3G6",
        "streetName": "NAFZIGER",
        "streetDirectionId": null,
        "streetTypeId": "RD",
        "placeName": "NEW HAMBURG",
        "streetNameDisplayText": "NAFZIGER RD, NEW HAMBURG"
      }
    ]
  },
  {
    "postal": "N3A3H7",
    "result": [
      {
        "electoralDistricts": [
          {
            "election": null,
            "id": 48,
            "name": "Kitchener—Conestoga"
          }
        ],
        "pollDivisionIds": [
          10139259
        ],
        "postalCode": "N3A3H7",
        "streetName": "WITMER",
        "streetDirectionId": null,
        "streetTypeId": "RD",
        "placeName": "NEW HAMBURG",
        "streetNameDisplayText": "WITMER RD, NEW HAMBURG"
      }
    ]
  },
  {
    "postal": "N3A7X8",
    "result": []
  },
  {
    "postal": "N3A0C7",
    "result": [
      {
        "electoralDistricts": [
          {
            "election": null,
            "id": 48,
            "name": "Kitchener—Conestoga"
          }
        ],
        "pollDivisionIds": [
          10139273
        ],
        "postalCode": "N3A0C7",
        "streetName": "PICCADILLY",
        "streetDirectionId": null,
        "streetTypeId": "SQ",
        "placeName": "NEW HAMBURG",
        "streetNameDisplayText": "PICCADILLY SQ, NEW HAMBURG"
      }
    ]
  },
  {
    "postal": "N3A0W9",
    "result": []
  },
  {
    "postal": "N3A8E6",
    "result": []
  },
  {
    "postal": "N3A9Z8",
    "result": []
  },
  {
    "postal": "N3A3P4",
    "result": [
      {
        "electoralDistricts": [
          {
            "election": null,
            "id": 48,
            "name": "Kitchener—Conestoga"
          }
        ],
        "pollDivisionIds": [
          10139255
        ],
        "postalCode": "N3A3P4",
        "streetName": "LAKEFIELD",
        "streetDirectionId": null,
        "streetTypeId": "CRT",
        "placeName": "BADEN",
        "streetNameDisplayText": "LAKEFIELD CRT, BADEN"
      }
    ]
  },
  {
    "postal": "N3A6L8",
    "result": []
  },
  {
    "postal": "N3A2R4",
    "result": [
      {
        "electoralDistricts": [
          {
            "election": null,
            "id": 48,
            "name": "Kitchener—Conestoga"
          }
        ],
        "pollDivisionIds": [
          10139256
        ],
        "postalCode": "N3A2R4",
        "streetName": "CHARLOTTA",
        "streetDirectionId": null,
        "streetTypeId": "ST",
        "placeName": "BADEN",
        "streetNameDisplayText": "CHARLOTTA ST, BADEN"
      }
    ]
  },
  {
    "postal": "N3A2W1",
    "result": [
      {
        "electoralDistricts": [
          {
            "election": null,
            "id": 48,
            "name": "Kitchener—Conestoga"
          }
        ],
        "pollDivisionIds": [
          10139259
        ],
        "postalCode": "N3A2W1",
        "streetName": "BRIDGE",
        "streetDirectionId": null,
        "streetTypeId": "ST",
        "placeName": "NEW HAMBURG",
        "streetNameDisplayText": "BRIDGE ST, NEW HAMBURG"
      }
    ]
  },
  {
    "postal": "N3A9H8",
    "result": []
  },
  {
    "postal": "N3A8X9",
    "result": []
  },
  {
    "postal": "N3A7H4",
    "result": []
  },
  {
    "postal": "N3A3J1",
    "result": [
      {
        "electoralDistricts": [
          {
            "election": null,
            "id": 48,
            "name": "Kitchener—Conestoga"
          }
        ],
        "pollDivisionIds": [
          10139259
        ],
        "postalCode": "N3A3J1",
        "streetName": "BLEAMS",
        "streetDirectionId": null,
        "streetTypeId": "RD",
        "placeName": "NEW HAMBURG",
        "streetNameDisplayText": "BLEAMS RD, NEW HAMBURG"
      }
    ]
  },
  {
    "postal": "N3A1P4",
    "result": [
      {
        "electoralDistricts": [
          {
            "election": null,
            "id": 48,
            "name": "Kitchener—Conestoga"
          }
        ],
        "pollDivisionIds": [
          10139273
        ],
        "postalCode": "N3A1P4",
        "streetName": "HANNAH",
        "streetDirectionId": null,
        "streetTypeId": "ST",
        "placeName": "NEW HAMBURG",
        "streetNameDisplayText": "HANNAH ST, NEW HAMBURG"
      }
    ]
  },
  {
    "postal": "N3A2A3",
    "result": [
      {
        "electoralDistricts": [
          {
            "election": null,
            "id": 48,
            "name": "Kitchener—Conestoga"
          }
        ],
        "pollDivisionIds": [
          10139272
        ],
        "postalCode": "N3A2A3",
        "streetName": "HINCKS",
        "streetDirectionId": null,
        "streetTypeId": "ST",
        "placeName": "NEW HAMBURG",
        "streetNameDisplayText": "HINCKS ST, NEW HAMBURG"
      }
    ]
  },
  {
    "postal": "N3A0Z1",
    "result": []
  },
  {
    "postal": "N3A1C1",
    "result": [
      {
        "electoralDistricts": [
          {
            "election": null,
            "id": 48,
            "name": "Kitchener—Conestoga"
          }
        ],
        "pollDivisionIds": [
          10139273
        ],
        "postalCode": "N3A1C1",
        "streetName": "JACOB",
        "streetDirectionId": null,
        "streetTypeId": "ST",
        "placeName": "NEW HAMBURG",
        "streetNameDisplayText": "JACOB ST, NEW HAMBURG"
      }
    ]
  },
  {
    "postal": "N3A0H3",
    "result": []
  },
  {
    "postal": "N3A7B0",
    "result": []
  },
  {
    "postal": "N3A5K2",
    "result": []
  },
  {
    "postal": "N3A1E9",
    "result": [
      {
        "electoralDistricts": [
          {
            "election": null,
            "id": 48,
            "name": "Kitchener—Conestoga"
          }
        ],
        "pollDivisionIds": [
          10139273
        ],
        "postalCode": "N3A1E9",
        "streetName": "PEEL",
        "streetDirectionId": null,
        "streetTypeId": "ST",
        "placeName": "NEW HAMBURG",
        "streetNameDisplayText": "PEEL ST, NEW HAMBURG"
      }
    ]
  },
  {
    "postal": "N3A9W7",
    "result": []
  },
  {
    "postal": "N3A5W6",
    "result": []
  },
  {
    "postal": "N3A6S6",
    "result": []
  },
  {
    "postal": "N3A2P8",
    "result": [
      {
        "electoralDistricts": [
          {
            "election": null,
            "id": 48,
            "name": "Kitchener—Conestoga"
          }
        ],
        "pollDivisionIds": [
          10139257
        ],
        "postalCode": "N3A2P8",
        "streetName": "FOUNDRY",
        "streetDirectionId": null,
        "streetTypeId": "ST",
        "placeName": "BADEN",
        "streetNameDisplayText": "FOUNDRY ST, BADEN"
      }
    ]
  },
  {
    "postal": "N3A4P8",
    "result": [
      {
        "electoralDistricts": [
          {
            "election": null,
            "id": 48,
            "name": "Kitchener—Conestoga"
          }
        ],
        "pollDivisionIds": [
          10139273
        ],
        "postalCode": "N3A4P8",
        "streetName": "BONAVENTURE",
        "streetDirectionId": null,
        "streetTypeId": "DR",
        "placeName": "NEW HAMBURG",
        "streetNameDisplayText": "BONAVENTURE DR, NEW HAMBURG"
      }
    ]
  },
  {
    "postal": "N3A0V9",
    "result": []
  },
  {
    "postal": "N3A5Y2",
    "result": []
  },
  {
    "postal": "N3A7Z7",
    "result": []
  },
  {
    "postal": "N3A6Y8",
    "result": []
  },
  {
    "postal": "N3A2G7",
    "result": [
      {
        "electoralDistricts": [
          {
            "election": null,
            "id": 48,
            "name": "Kitchener—Conestoga"
          }
        ],
        "pollDivisionIds": [
          10139272
        ],
        "postalCode": "N3A2G7",
        "streetName": "LASCHINGER",
        "streetDirectionId": null,
        "streetTypeId": "BLVD",
        "placeName": "NEW HAMBURG",
        "streetNameDisplayText": "LASCHINGER BLVD, NEW HAMBURG"
      }
    ]
  },
  {
    "postal": "N3A8C1",
    "result": []
  },
  {
    "postal": "N3A5C5",
    "result": []
  },
  {
    "postal": "N3A2X8",
    "result": [
      {
        "electoralDistricts": [
          {
            "election": null,
            "id": 48,
            "name": "Kitchener—Conestoga"
          }
        ],
        "pollDivisionIds": [
          10139258
        ],
        "postalCode": "N3A2X8",
        "streetName": "BETHEL",
        "streetDirectionId": null,
        "streetTypeId": "RD",
        "placeName": "NEW HAMBURG",
        "streetNameDisplayText": "BETHEL RD, NEW HAMBURG"
      }
    ]
  },
  {
    "postal": "N3A1W5",
    "result": [
      {
        "electoralDistricts": [
          {
            "election": null,
            "id": 48,
            "name": "Kitchener—Conestoga"
          }
        ],
        "pollDivisionIds": [
          10139272
        ],
        "postalCode": "N3A1W5",
        "streetName": "GEORGE",
        "streetDirectionId": null,
        "streetTypeId": "ST",
        "placeName": "NEW HAMBURG",
        "streetNameDisplayText": "GEORGE ST, NEW HAMBURG"
      }
    ]
  },
  {
    "postal": "N3A7G0",
    "result": []
  },
  {
    "postal": "N3A8J8",
    "result": []
  },
  {
    "postal": "N3A3Y0",
    "result": []
  },
  {
    "postal": "N3A9T7",
    "result": []
  },
  {
    "postal": "N3A5P4",
    "result": []
  },
  {
    "postal": "N3A4B0",
    "result": []
  },
  {
    "postal": "N3A9N8",
    "result": []
  },
  {
    "postal": "N3A4A7",
    "result": [
      {
        "electoralDistricts": [
          {
            "election": null,
            "id": 85,
            "name": "Perth—Wellington"
          }
        ],
        "pollDivisionIds": [
          10135502
        ],
        "postalCode": "N3A4A7",
        "streetName": "40",
        "streetDirectionId": null,
        "streetTypeId": "LINE",
        "placeName": "NEW HAMBURG",
        "streetNameDisplayText": "40 LINE, NEW HAMBURG"
      }
    ]
  },
  {
    "postal": "N3A4H9",
    "result": [
      {
        "electoralDistricts": [
          {
            "election": null,
            "id": 48,
            "name": "Kitchener—Conestoga"
          }
        ],
        "pollDivisionIds": [
          10139259
        ],
        "postalCode": "N3A4H9",
        "streetName": "SNYDER'S",
        "streetDirectionId": "E",
        "streetTypeId": "RD",
        "placeName": "BADEN",
        "streetNameDisplayText": "SNYDER'S RD E, BADEN"
      }
    ]
  },
  {
    "postal": "N3A6X1",
    "result": []
  },
  {
    "postal": "N3A9Y7",
    "result": []
  },
  {
    "postal": "N3A2Y5",
    "result": [
      {
        "electoralDistricts": [
          {
            "election": null,
            "id": 48,
            "name": "Kitchener—Conestoga"
          }
        ],
        "pollDivisionIds": [
          10139259
        ],
        "postalCode": "N3A2Y5",
        "streetName": "WALKER",
        "streetDirectionId": null,
        "streetTypeId": "RD",
        "placeName": "NEW HAMBURG",
        "streetNameDisplayText": "WALKER RD, NEW HAMBURG"
      }
    ]
  },
  {
    "postal": "N3A8L7",
    "result": []
  },
  {
    "postal": "N3A2A8",
    "result": [
      {
        "electoralDistricts": [
          {
            "election": null,
            "id": 48,
            "name": "Kitchener—Conestoga"
          }
        ],
        "pollDivisionIds": [
          10139271
        ],
        "postalCode": "N3A2A8",
        "streetName": "HINCKS",
        "streetDirectionId": null,
        "streetTypeId": "ST",
        "placeName": "NEW HAMBURG",
        "streetNameDisplayText": "HINCKS ST, NEW HAMBURG"
      }
    ]
  },
  {
    "postal": "N3A2K9",
    "result": [
      {
        "electoralDistricts": [
          {
            "election": null,
            "id": 48,
            "name": "Kitchener—Conestoga"
          }
        ],
        "pollDivisionIds": [
          10139257
        ],
        "postalCode": "N3A2K9",
        "streetName": "ERBACH",
        "streetDirectionId": null,
        "streetTypeId": "CRES",
        "placeName": "BADEN",
        "streetNameDisplayText": "ERBACH CRES, BADEN"
      },
      {
        "electoralDistricts": [
          {
            "election": null,
            "id": 48,
            "name": "Kitchener—Conestoga"
          }
        ],
        "pollDivisionIds": [
          10139257
        ],
        "postalCode": "N3A2K9",
        "streetName": "SCHNELLER",
        "streetDirectionId": null,
        "streetTypeId": "DR",
        "placeName": "BADEN",
        "streetNameDisplayText": "SCHNELLER DR, BADEN"
      },
      {
        "electoralDistricts": [
          {
            "election": null,
            "id": 48,
            "name": "Kitchener—Conestoga"
          }
        ],
        "pollDivisionIds": [
          10139257
        ],
        "postalCode": "N3A2K9",
        "streetName": "STIEFELMEYER",
        "streetDirectionId": null,
        "streetTypeId": "CRES",
        "placeName": "BADEN",
        "streetNameDisplayText": "STIEFELMEYER CRES, BADEN"
      }
    ]
  },
  {
    "postal": "N3A3E5",
    "result": [
      {
        "electoralDistricts": [
          {
            "election": null,
            "id": 48,
            "name": "Kitchener—Conestoga"
          }
        ],
        "pollDivisionIds": [
          10139259
        ],
        "postalCode": "N3A3E5",
        "streetName": "PUNKEYDOODLES",
        "streetDirectionId": null,
        "streetTypeId": "AVE",
        "placeName": "NEW HAMBURG",
        "streetNameDisplayText": "PUNKEYDOODLES AVE, NEW HAMBURG"
      }
    ]
  },
  {
    "postal": "N3A8N6",
    "result": []
  },
  {
    "postal": "N3A8J4",
    "result": []
  },
  {
    "postal": "N3A4R7",
    "result": [
      {
        "electoralDistricts": [
          {
            "election": null,
            "id": 48,
            "name": "Kitchener—Conestoga"
          }
        ],
        "pollDivisionIds": [
          10139257,
          10139256
        ],
        "postalCode": "N3A4R7",
        "streetName": "JACOB CRESSMAN",
        "streetDirectionId": null,
        "streetTypeId": "DR",
        "placeName": "BADEN",
        "streetNameDisplayText": "JACOB CRESSMAN DR, BADEN"
      },
      {
        "electoralDistricts": [
          {
            "election": null,
            "id": 48,
            "name": "Kitchener—Conestoga"
          }
        ],
        "pollDivisionIds": [
          10139256,
          10139257
        ],
        "postalCode": "N3A4R7",
        "streetName": "STUCKEY",
        "streetDirectionId": null,
        "streetTypeId": "AVE",
        "placeName": "BADEN",
        "streetNameDisplayText": "STUCKEY AVE, BADEN"
      }
    ]
  },
  {
    "postal": "N3A9K1",
    "result": []
  },
  {
    "postal": "N3A8E1",
    "result": []
  },
  {
    "postal": "N3A0R1",
    "result": []
  },
  {
    "postal": "N3A4J3",
    "result": []
  },
  {
    "postal": "N3A7E7",
    "result": []
  },
  {
    "postal": "N3A0J0",
    "result": []
  },
  {
    "postal": "N3A7R8",
    "result": []
  },
  {
    "postal": "N3A9X0",
    "result": []
  },
  {
    "postal": "N3A7P6",
    "result": []
  },
  {
    "postal": "N3A0R7",
    "result": []
  },
  {
    "postal": "N3A5W1",
    "result": []
  },
  {
    "postal": "N3A0K4",
    "result": []
  },
  {
    "postal": "N3A7N9",
    "result": []
  },
  {
    "postal": "N3A1N0",
    "result": []
  },
  {
    "postal": "N3A6P3",
    "result": []
  },
  {
    "postal": "N3A5A1",
    "result": []
  },
  {
    "postal": "N3A9M9",
    "result": []
  },
  {
    "postal": "N3A7T6",
    "result": []
  },
  {
    "postal": "N3A3X0",
    "result": []
  },
  {
    "postal": "N3A2T0",
    "result": []
  },
  {
    "postal": "N3A5X9",
    "result": []
  },
  {
    "postal": "N3A2R3",
    "result": [
      {
        "electoralDistricts": [
          {
            "election": null,
            "id": 48,
            "name": "Kitchener—Conestoga"
          }
        ],
        "pollDivisionIds": [
          10139257
        ],
        "postalCode": "N3A2R3",
        "streetName": "FOUNDRY",
        "streetDirectionId": null,
        "streetTypeId": "ST",
        "placeName": "BADEN",
        "streetNameDisplayText": "FOUNDRY ST, BADEN"
      }
    ]
  },
  {
    "postal": "N3A5N2",
    "result": []
  },
  {
    "postal": "N3A4Y7",
    "result": []
  },
  {
    "postal": "N3A7M0",
    "result": []
  },
  {
    "postal": "N3A8P3",
    "result": []
  },
  {
    "postal": "N3A3N3",
    "result": [
      {
        "electoralDistricts": [
          {
            "election": null,
            "id": 48,
            "name": "Kitchener—Conestoga"
          }
        ],
        "pollDivisionIds": [
          10139255
        ],
        "postalCode": "N3A3N3",
        "streetName": "FOXBORO",
        "streetDirectionId": null,
        "streetTypeId": "DR",
        "placeName": "BADEN",
        "streetNameDisplayText": "FOXBORO DR, BADEN"
      }
    ]
  },
  {
    "postal": "N3A7S3",
    "result": []
  },
  {
    "postal": "N3A3V9",
    "result": []
  },
  {
    "postal": "N3A9N7",
    "result": []
  },
  {
    "postal": "N3A0G4",
    "result": []
  },
  {
    "postal": "N3A2E2",
    "result": [
      {
        "electoralDistricts": [
          {
            "election": null,
            "id": 48,
            "name": "Kitchener—Conestoga"
          }
        ],
        "pollDivisionIds": [
          10139271
        ],
        "postalCode": "N3A2E2",
        "streetName": "HOSTETLER",
        "streetDirectionId": null,
        "streetTypeId": "RD",
        "placeName": "NEW HAMBURG",
        "streetNameDisplayText": "HOSTETLER RD, NEW HAMBURG"
      },
      {
        "electoralDistricts": [
          {
            "election": null,
            "id": 48,
            "name": "Kitchener—Conestoga"
          }
        ],
        "pollDivisionIds": [
          10139271
        ],
        "postalCode": "N3A2E2",
        "streetName": "RITZ",
        "streetDirectionId": null,
        "streetTypeId": "CRES",
        "placeName": "NEW HAMBURG",
        "streetNameDisplayText": "RITZ CRES, NEW HAMBURG"
      }
    ]
  },
  {
    "postal": "N3A7W8",
    "result": []
  },
  {
    "postal": "N3A7M5",
    "result": []
  },
  {
    "postal": "N3A5W8",
    "result": []
  },
  {
    "postal": "N3A5E5",
    "result": []
  },
  {
    "postal": "N3A1P9",
    "result": [
      {
        "electoralDistricts": [
          {
            "election": null,
            "id": 48,
            "name": "Kitchener—Conestoga"
          }
        ],
        "pollDivisionIds": [
          10139273
        ],
        "postalCode": "N3A1P9",
        "streetName": "MILL",
        "streetDirectionId": null,
        "streetTypeId": "ST",
        "placeName": "NEW HAMBURG",
        "streetNameDisplayText": "MILL ST, NEW HAMBURG"
      }
    ]
  },
  {
    "postal": "N3A8V8",
    "result": []
  },
  {
    "postal": "N3A9G8",
    "result": []
  },
  {
    "postal": "N3A8H9",
    "result": []
  },
  {
    "postal": "N3A1Z1",
    "result": [
      {
        "electoralDistricts": [
          {
            "election": null,
            "id": 48,
            "name": "Kitchener—Conestoga"
          }
        ],
        "pollDivisionIds": [
          10139271
        ],
        "postalCode": "N3A1Z1",
        "streetName": "EBY",
        "streetDirectionId": null,
        "streetTypeId": "CRES",
        "placeName": "NEW HAMBURG",
        "streetNameDisplayText": "EBY CRES, NEW HAMBURG"
      }
    ]
  },
  {
    "postal": "N3A8M3",
    "result": []
  },
  {
    "postal": "N3A5H6",
    "result": []
  },
  {
    "postal": "N3A7W7",
    "result": []
  },
  {
    "postal": "N3A4L0",
    "result": []
  },
  {
    "postal": "N3A2N1",
    "result": [
      {
        "electoralDistricts": [
          {
            "election": null,
            "id": 48,
            "name": "Kitchener—Conestoga"
          }
        ],
        "pollDivisionIds": [
          10139256
        ],
        "postalCode": "N3A2N1",
        "streetName": "QUEEN",
        "streetDirectionId": null,
        "streetTypeId": "ST",
        "placeName": "BADEN",
        "streetNameDisplayText": "QUEEN ST, BADEN"
      }
    ]
  },
  {
    "postal": "N3A2H4",
    "result": [
      {
        "electoralDistricts": [
          {
            "election": null,
            "id": 48,
            "name": "Kitchener—Conestoga"
          }
        ],
        "pollDivisionIds": [
          10139273
        ],
        "postalCode": "N3A2H4",
        "streetName": "NITHVIEW",
        "streetDirectionId": null,
        "streetTypeId": "CRT",
        "placeName": "NEW HAMBURG",
        "streetNameDisplayText": "NITHVIEW CRT, NEW HAMBURG"
      },
      {
        "electoralDistricts": [
          {
            "election": null,
            "id": 48,
            "name": "Kitchener—Conestoga"
          }
        ],
        "pollDivisionIds": [
          10139273
        ],
        "postalCode": "N3A2H4",
        "streetName": "NITHVIEW",
        "streetDirectionId": null,
        "streetTypeId": "DR",
        "placeName": "NEW HAMBURG",
        "streetNameDisplayText": "NITHVIEW DR, NEW HAMBURG"
      }
    ]
  },
  {
    "postal": "N3A5C8",
    "result": []
  },
  {
    "postal": "N3A8B0",
    "result": []
  },
  {
    "postal": "N3A1T4",
    "result": [
      {
        "electoralDistricts": [
          {
            "election": null,
            "id": 48,
            "name": "Kitchener—Conestoga"
          }
        ],
        "pollDivisionIds": [
          10139271
        ],
        "postalCode": "N3A1T4",
        "streetName": "WATERLOO",
        "streetDirectionId": null,
        "streetTypeId": "ST",
        "placeName": "NEW HAMBURG",
        "streetNameDisplayText": "WATERLOO ST, NEW HAMBURG"
      }
    ]
  },
  {
    "postal": "N3A7N7",
    "result": []
  },
  {
    "postal": "N3A4L3",
    "result": [
      {
        "electoralDistricts": [
          {
            "election": null,
            "id": 48,
            "name": "Kitchener—Conestoga"
          }
        ],
        "pollDivisionIds": [
          10139257
        ],
        "postalCode": "N3A4L3",
        "streetName": "OESCH",
        "streetDirectionId": null,
        "streetTypeId": "LANE",
        "placeName": "BADEN",
        "streetNameDisplayText": "OESCH LANE, BADEN"
      },
      {
        "electoralDistricts": [
          {
            "election": null,
            "id": 48,
            "name": "Kitchener—Conestoga"
          }
        ],
        "pollDivisionIds": [
          10139257,
          10139256
        ],
        "postalCode": "N3A4L3",
        "streetName": "WAGLER",
        "streetDirectionId": null,
        "streetTypeId": "AVE",
        "placeName": "BADEN",
        "streetNameDisplayText": "WAGLER AVE, BADEN"
      },
      {
        "electoralDistricts": [
          {
            "election": null,
            "id": 48,
            "name": "Kitchener—Conestoga"
          }
        ],
        "pollDivisionIds": [
          10139257
        ],
        "postalCode": "N3A4L3",
        "streetName": "WAGLER",
        "streetDirectionId": null,
        "streetTypeId": "DR",
        "placeName": "BADEN",
        "streetNameDisplayText": "WAGLER DR, BADEN"
      }
    ]
  },
  {
    "postal": "N3A2N2",
    "result": [
      {
        "electoralDistricts": [
          {
            "election": null,
            "id": 48,
            "name": "Kitchener—Conestoga"
          }
        ],
        "pollDivisionIds": [
          10139256
        ],
        "postalCode": "N3A2N2",
        "streetName": "QUEEN",
        "streetDirectionId": null,
        "streetTypeId": "ST",
        "placeName": "BADEN",
        "streetNameDisplayText": "QUEEN ST, BADEN"
      }
    ]
  },
  {
    "postal": "N3A4N8",
    "result": [
      {
        "electoralDistricts": [
          {
            "election": null,
            "id": 48,
            "name": "Kitchener—Conestoga"
          }
        ],
        "pollDivisionIds": [
          10139271
        ],
        "postalCode": "N3A4N8",
        "streetName": "MARTY",
        "streetDirectionId": null,
        "streetTypeId": "LANE",
        "placeName": "NEW HAMBURG",
        "streetNameDisplayText": "MARTY LANE, NEW HAMBURG"
      },
      {
        "electoralDistricts": [
          {
            "election": null,
            "id": 48,
            "name": "Kitchener—Conestoga"
          }
        ],
        "pollDivisionIds": [
          10139271
        ],
        "postalCode": "N3A4N8",
        "streetName": "THEODORE SCHULER",
        "streetDirectionId": null,
        "streetTypeId": "BLVD",
        "placeName": "NEW HAMBURG",
        "streetNameDisplayText": "THEODORE SCHULER BLVD, NEW HAMBURG"
      }
    ]
  },
  {
    "postal": "N3A3M5",
    "result": [
      {
        "electoralDistricts": [
          {
            "election": null,
            "id": 48,
            "name": "Kitchener—Conestoga"
          }
        ],
        "pollDivisionIds": [
          10139256
        ],
        "postalCode": "N3A3M5",
        "streetName": "ERB'S",
        "streetDirectionId": null,
        "streetTypeId": "RD",
        "placeName": "BADEN",
        "streetNameDisplayText": "ERB'S RD, BADEN"
      }
    ]
  },
  {
    "postal": "N3A6H7",
    "result": []
  },
  {
    "postal": "N3A8Y8",
    "result": []
  },
  {
    "postal": "N3A5R9",
    "result": []
  },
  {
    "postal": "N3A8G3",
    "result": []
  },
  {
    "postal": "N3A4N7",
    "result": [
      {
        "electoralDistricts": [
          {
            "election": null,
            "id": 48,
            "name": "Kitchener—Conestoga"
          }
        ],
        "pollDivisionIds": [
          10139271
        ],
        "postalCode": "N3A4N7",
        "streetName": "STIER",
        "streetDirectionId": null,
        "streetTypeId": "RD",
        "placeName": "NEW HAMBURG",
        "streetNameDisplayText": "STIER RD, NEW HAMBURG"
      },
      {
        "electoralDistricts": [
          {
            "election": null,
            "id": 48,
            "name": "Kitchener—Conestoga"
          }
        ],
        "pollDivisionIds": [
          10139271
        ],
        "postalCode": "N3A4N7",
        "streetName": "STRAUCH",
        "streetDirectionId": null,
        "streetTypeId": "AVE",
        "placeName": "NEW HAMBURG",
        "streetNameDisplayText": "STRAUCH AVE, NEW HAMBURG"
      },
      {
        "electoralDistricts": [
          {
            "election": null,
            "id": 48,
            "name": "Kitchener—Conestoga"
          }
        ],
        "pollDivisionIds": [
          10139271
        ],
        "postalCode": "N3A4N7",
        "streetName": "STRAUCH",
        "streetDirectionId": null,
        "streetTypeId": "LANE",
        "placeName": "NEW HAMBURG",
        "streetNameDisplayText": "STRAUCH LANE, NEW HAMBURG"
      },
      {
        "electoralDistricts": [
          {
            "election": null,
            "id": 48,
            "name": "Kitchener—Conestoga"
          }
        ],
        "pollDivisionIds": [
          10139271
        ],
        "postalCode": "N3A4N7",
        "streetName": "THEODORE SCHULER",
        "streetDirectionId": null,
        "streetTypeId": "BLVD",
        "placeName": "NEW HAMBURG",
        "streetNameDisplayText": "THEODORE SCHULER BLVD, NEW HAMBURG"
      }
    ]
  },
  {
    "postal": "N3A0B9",
    "result": [
      {
        "electoralDistricts": [
          {
            "election": null,
            "id": 48,
            "name": "Kitchener—Conestoga"
          }
        ],
        "pollDivisionIds": [
          10139271
        ],
        "postalCode": "N3A0B9",
        "streetName": "STIER",
        "streetDirectionId": null,
        "streetTypeId": "RD",
        "placeName": "NEW HAMBURG",
        "streetNameDisplayText": "STIER RD, NEW HAMBURG"
      },
      {
        "electoralDistricts": [
          {
            "election": null,
            "id": 48,
            "name": "Kitchener—Conestoga"
          }
        ],
        "pollDivisionIds": [
          10139271
        ],
        "postalCode": "N3A0B9",
        "streetName": "THEODORE SCHULER",
        "streetDirectionId": null,
        "streetTypeId": "BLVD",
        "placeName": "NEW HAMBURG",
        "streetNameDisplayText": "THEODORE SCHULER BLVD, NEW HAMBURG"
      }
    ]
  },
  {
    "postal": "N3A9K7",
    "result": []
  },
  {
    "postal": "N3A9K9",
    "result": []
  },
  {
    "postal": "N3A3Z2",
    "result": []
  },
  {
    "postal": "N3A6W7",
    "result": []
  },
  {
    "postal": "N3A0P1",
    "result": []
  },
  {
    "postal": "N3A3A0",
    "result": []
  },
  {
    "postal": "N3A8L9",
    "result": []
  },
  {
    "postal": "N3A6X0",
    "result": []
  },
  {
    "postal": "N3A3E9",
    "result": [
      {
        "electoralDistricts": [
          {
            "election": null,
            "id": 48,
            "name": "Kitchener—Conestoga"
          }
        ],
        "pollDivisionIds": [
          10139273
        ],
        "postalCode": "N3A3E9",
        "streetName": "HURON",
        "streetDirectionId": null,
        "streetTypeId": "ST",
        "placeName": "NEW HAMBURG",
        "streetNameDisplayText": "HURON ST, NEW HAMBURG"
      }
    ]
  },
  {
    "postal": "N3A0S5",
    "result": []
  },
  {
    "postal": "N3A1A2",
    "result": []
  },
  {
    "postal": "N3A5V8",
    "result": []
  },
  {
    "postal": "N3A8C5",
    "result": []
  },
  {
    "postal": "N3A6N0",
    "result": []
  },
  {
    "postal": "N3A9E6",
    "result": []
  },
  {
    "postal": "N3A5J7",
    "result": []
  },
  {
    "postal": "N3A2R2",
    "result": [
      {
        "electoralDistricts": [
          {
            "election": null,
            "id": 48,
            "name": "Kitchener—Conestoga"
          }
        ],
        "pollDivisionIds": [
          10139257
        ],
        "postalCode": "N3A2R2",
        "streetName": "FOUNDRY",
        "streetDirectionId": null,
        "streetTypeId": "ST",
        "placeName": "BADEN",
        "streetNameDisplayText": "FOUNDRY ST, BADEN"
      }
    ]
  },
  {
    "postal": "N3A0P5",
    "result": []
  },
  {
    "postal": "N3A5A7",
    "result": []
  },
  {
    "postal": "N3A1G1",
    "result": [
      {
        "electoralDistricts": [
          {
            "election": null,
            "id": 48,
            "name": "Kitchener—Conestoga"
          }
        ],
        "pollDivisionIds": [
          10139273
        ],
        "postalCode": "N3A1G1",
        "streetName": "PEEL",
        "streetDirectionId": null,
        "streetTypeId": "ST",
        "placeName": "NEW HAMBURG",
        "streetNameDisplayText": "PEEL ST, NEW HAMBURG"
      }
    ]
  },
  {
    "postal": "N3A9R6",
    "result": []
  },
  {
    "postal": "N3A4Z9",
    "result": []
  },
  {
    "postal": "N3A1V5",
    "result": [
      {
        "electoralDistricts": [
          {
            "election": null,
            "id": 48,
            "name": "Kitchener—Conestoga"
          }
        ],
        "pollDivisionIds": [
          10139273
        ],
        "postalCode": "N3A1V5",
        "streetName": "WATERLOO",
        "streetDirectionId": null,
        "streetTypeId": "ST",
        "placeName": "NEW HAMBURG",
        "streetNameDisplayText": "WATERLOO ST, NEW HAMBURG"
      }
    ]
  },
  {
    "postal": "N3A9Y5",
    "result": []
  },
  {
    "postal": "N3A1P2",
    "result": [
      {
        "electoralDistricts": [
          {
            "election": null,
            "id": 48,
            "name": "Kitchener—Conestoga"
          }
        ],
        "pollDivisionIds": [
          10139273
        ],
        "postalCode": "N3A1P2",
        "streetName": "BYRON",
        "streetDirectionId": null,
        "streetTypeId": "ST",
        "placeName": "NEW HAMBURG",
        "streetNameDisplayText": "BYRON ST, NEW HAMBURG"
      }
    ]
  },
  {
    "postal": "N3A5X0",
    "result": []
  },
  {
    "postal": "N3A7B8",
    "result": []
  },
  {
    "postal": "N3A0C6",
    "result": [
      {
        "electoralDistricts": [
          {
            "election": null,
            "id": 48,
            "name": "Kitchener—Conestoga"
          }
        ],
        "pollDivisionIds": [
          10139256
        ],
        "postalCode": "N3A0C6",
        "streetName": "GEIGER",
        "streetDirectionId": null,
        "streetTypeId": "PL",
        "placeName": "BADEN",
        "streetNameDisplayText": "GEIGER PL, BADEN"
      }
    ]
  },
  {
    "postal": "N3A6G1",
    "result": []
  },
  {
    "postal": "N3A3K3",
    "result": [
      {
        "electoralDistricts": [
          {
            "election": null,
            "id": 48,
            "name": "Kitchener—Conestoga"
          }
        ],
        "pollDivisionIds": [
          10139259
        ],
        "postalCode": "N3A3K3",
        "streetName": "WILMOT CENTRE",
        "streetDirectionId": null,
        "streetTypeId": "RD",
        "placeName": "BADEN",
        "streetNameDisplayText": "WILMOT CENTRE RD, BADEN"
      }
    ]
  },
  {
    "postal": "N3A9R0",
    "result": []
  },
  {
    "postal": "N3A4R8",
    "result": [
      {
        "electoralDistricts": [
          {
            "election": null,
            "id": 48,
            "name": "Kitchener—Conestoga"
          }
        ],
        "pollDivisionIds": [
          10139272
        ],
        "postalCode": "N3A4R8",
        "streetName": "KING",
        "streetDirectionId": null,
        "streetTypeId": "ST",
        "placeName": "NEW HAMBURG",
        "streetNameDisplayText": "KING ST, NEW HAMBURG"
      }
    ]
  },
  {
    "postal": "N3A5P9",
    "result": []
  },
  {
    "postal": "N3A8N4",
    "result": []
  },
  {
    "postal": "N3A8H4",
    "result": []
  },
  {
    "postal": "N3A4V1",
    "result": []
  },
  {
    "postal": "N3A1K5",
    "result": [
      {
        "electoralDistricts": [
          {
            "election": null,
            "id": 48,
            "name": "Kitchener—Conestoga"
          }
        ],
        "pollDivisionIds": [
          10139273
        ],
        "postalCode": "N3A1K5",
        "streetName": "HURON",
        "streetDirectionId": null,
        "streetTypeId": "ST",
        "placeName": "NEW HAMBURG",
        "streetNameDisplayText": "HURON ST, NEW HAMBURG"
      }
    ]
  },
  {
    "postal": "N3A1Z5",
    "result": [
      {
        "electoralDistricts": [
          {
            "election": null,
            "id": 48,
            "name": "Kitchener—Conestoga"
          }
        ],
        "pollDivisionIds": [
          10139271
        ],
        "postalCode": "N3A1Z5",
        "streetName": "MERNER",
        "streetDirectionId": null,
        "streetTypeId": "PL",
        "placeName": "NEW HAMBURG",
        "streetNameDisplayText": "MERNER PL, NEW HAMBURG"
      }
    ]
  },
  {
    "postal": "N3A9L9",
    "result": []
  },
  {
    "postal": "N3A5L2",
    "result": []
  },
  {
    "postal": "N3A0M2",
    "result": []
  },
  {
    "postal": "N3A1K8",
    "result": [
      {
        "electoralDistricts": [
          {
            "election": null,
            "id": 48,
            "name": "Kitchener—Conestoga"
          }
        ],
        "pollDivisionIds": [
          10139273
        ],
        "postalCode": "N3A1K8",
        "streetName": "HILLVIEW",
        "streetDirectionId": null,
        "streetTypeId": "CRES",
        "placeName": "NEW HAMBURG",
        "streetNameDisplayText": "HILLVIEW CRES, NEW HAMBURG"
      }
    ]
  },
  {
    "postal": "N3A3M7",
    "result": [
      {
        "electoralDistricts": [
          {
            "election": null,
            "id": 48,
            "name": "Kitchener—Conestoga"
          }
        ],
        "pollDivisionIds": [
          10139255
        ],
        "postalCode": "N3A3M7",
        "streetName": "WILBY",
        "streetDirectionId": null,
        "streetTypeId": "RD",
        "placeName": "BADEN",
        "streetNameDisplayText": "WILBY RD, BADEN"
      }
    ]
  },
  {
    "postal": "N3A1B2",
    "result": [
      {
        "electoralDistricts": [
          {
            "election": null,
            "id": 48,
            "name": "Kitchener—Conestoga"
          }
        ],
        "pollDivisionIds": [
          10139273
        ],
        "postalCode": "N3A1B2",
        "streetName": "ASMUS",
        "streetDirectionId": null,
        "streetTypeId": "ST",
        "placeName": "NEW HAMBURG",
        "streetNameDisplayText": "ASMUS ST, NEW HAMBURG"
      }
    ]
  },
  {
    "postal": "N3A0H9",
    "result": []
  },
  {
    "postal": "N3A8M4",
    "result": []
  },
  {
    "postal": "N3A2M5",
    "result": [
      {
        "electoralDistricts": [
          {
            "election": null,
            "id": 48,
            "name": "Kitchener—Conestoga"
          }
        ],
        "pollDivisionIds": [
          10139256
        ],
        "postalCode": "N3A2M5",
        "streetName": "SNYDER'S",
        "streetDirectionId": "W",
        "streetTypeId": "RD",
        "placeName": "BADEN",
        "streetNameDisplayText": "SNYDER'S RD W, BADEN"
      }
    ]
  },
  {
    "postal": "N3A0T9",
    "result": []
  },
  {
    "postal": "N3A3P1",
    "result": [
      {
        "electoralDistricts": [
          {
            "election": null,
            "id": 48,
            "name": "Kitchener—Conestoga"
          }
        ],
        "pollDivisionIds": [
          10139255
        ],
        "postalCode": "N3A3P1",
        "streetName": "GOLF LINKS",
        "streetDirectionId": null,
        "streetTypeId": "DR",
        "placeName": "BADEN",
        "streetNameDisplayText": "GOLF LINKS DR, BADEN"
      }
    ]
  },
  {
    "postal": "N3A1R6",
    "result": [
      {
        "electoralDistricts": [
          {
            "election": null,
            "id": 48,
            "name": "Kitchener—Conestoga"
          }
        ],
        "pollDivisionIds": [
          10139273
        ],
        "postalCode": "N3A1R6",
        "streetName": "SHADE",
        "streetDirectionId": null,
        "streetTypeId": "ST",
        "placeName": "NEW HAMBURG",
        "streetNameDisplayText": "SHADE ST, NEW HAMBURG"
      }
    ]
  },
  {
    "postal": "N3A9V5",
    "result": []
  },
  {
    "postal": "N3A9T0",
    "result": []
  },
  {
    "postal": "N3A0A9",
    "result": [
      {
        "electoralDistricts": [
          {
            "election": null,
            "id": 48,
            "name": "Kitchener—Conestoga"
          }
        ],
        "pollDivisionIds": [
          10139272
        ],
        "postalCode": "N3A0A9",
        "streetName": "CATHERINE",
        "streetDirectionId": null,
        "streetTypeId": "ST",
        "placeName": "NEW HAMBURG",
        "streetNameDisplayText": "CATHERINE ST, NEW HAMBURG"
      }
    ]
  },
  {
    "postal": "N3A1M3",
    "result": []
  },
  {
    "postal": "N3A1W8",
    "result": [
      {
        "electoralDistricts": [
          {
            "election": null,
            "id": 48,
            "name": "Kitchener—Conestoga"
          }
        ],
        "pollDivisionIds": [
          10139272
        ],
        "postalCode": "N3A1W8",
        "streetName": "WEBSTER",
        "streetDirectionId": null,
        "streetTypeId": "ST",
        "placeName": "NEW HAMBURG",
        "streetNameDisplayText": "WEBSTER ST, NEW HAMBURG"
      }
    ]
  },
  {
    "postal": "N3A9J1",
    "result": []
  },
  {
    "postal": "N3A8N5",
    "result": []
  },
  {
    "postal": "N3A5X1",
    "result": []
  },
  {
    "postal": "N3A6S2",
    "result": []
  },
  {
    "postal": "N3A2A2",
    "result": [
      {
        "electoralDistricts": [
          {
            "election": null,
            "id": 48,
            "name": "Kitchener—Conestoga"
          }
        ],
        "pollDivisionIds": [
          10139272
        ],
        "postalCode": "N3A2A2",
        "streetName": "HINCKS",
        "streetDirectionId": null,
        "streetTypeId": "ST",
        "placeName": "NEW HAMBURG",
        "streetNameDisplayText": "HINCKS ST, NEW HAMBURG"
      }
    ]
  },
  {
    "postal": "N3A6A6",
    "result": []
  },
  {
    "postal": "N3A0S3",
    "result": []
  },
  {
    "postal": "N3A3E7",
    "result": [
      {
        "electoralDistricts": [
          {
            "election": null,
            "id": 48,
            "name": "Kitchener—Conestoga"
          }
        ],
        "pollDivisionIds": [
          10139273
        ],
        "postalCode": "N3A3E7",
        "streetName": "CONCESSION",
        "streetDirectionId": null,
        "streetTypeId": "RD",
        "placeName": "NEW HAMBURG",
        "streetNameDisplayText": "CONCESSION RD, NEW HAMBURG"
      }
    ]
  },
  {
    "postal": "N3A5R7",
    "result": []
  },
  {
    "postal": "N3A3R6",
    "result": [
      {
        "electoralDistricts": [
          {
            "election": null,
            "id": 48,
            "name": "Kitchener—Conestoga"
          }
        ],
        "pollDivisionIds": [
          10139257
        ],
        "postalCode": "N3A3R6",
        "streetName": "SILVER SPRINGS",
        "streetDirectionId": null,
        "streetTypeId": "DR",
        "placeName": "BADEN",
        "streetNameDisplayText": "SILVER SPRINGS DR, BADEN"
      }
    ]
  },
  {
    "postal": "N3A6K4",
    "result": []
  },
  {
    "postal": "N3A2W5",
    "result": [
      {
        "electoralDistricts": [
          {
            "election": null,
            "id": 48,
            "name": "Kitchener—Conestoga"
          }
        ],
        "pollDivisionIds": [
          10139259
        ],
        "postalCode": "N3A2W5",
        "streetName": "BRIDGE",
        "streetDirectionId": null,
        "streetTypeId": "ST",
        "placeName": "NEW HAMBURG",
        "streetNameDisplayText": "BRIDGE ST, NEW HAMBURG"
      }
    ]
  },
  {
    "postal": "N3A8W4",
    "result": []
  },
  {
    "postal": "N3A9C2",
    "result": []
  },
  {
    "postal": "N3A2C0",
    "result": []
  },
  {
    "postal": "N3A0E1",
    "result": [
      {
        "electoralDistricts": [
          {
            "election": null,
            "id": 48,
            "name": "Kitchener—Conestoga"
          }
        ],
        "pollDivisionIds": [
          10139256
        ],
        "postalCode": "N3A0E1",
        "streetName": "BETTSCHEN",
        "streetDirectionId": null,
        "streetTypeId": "LANE",
        "placeName": "BADEN",
        "streetNameDisplayText": "BETTSCHEN LANE, BADEN"
      },
      {
        "electoralDistricts": [
          {
            "election": null,
            "id": 48,
            "name": "Kitchener—Conestoga"
          }
        ],
        "pollDivisionIds": [
          10139256
        ],
        "postalCode": "N3A0E1",
        "streetName": "MICHAEL MYERS",
        "streetDirectionId": null,
        "streetTypeId": "RD",
        "placeName": "BADEN",
        "streetNameDisplayText": "MICHAEL MYERS RD, BADEN"
      }
    ]
  },
  {
    "postal": "N3A1K9",
    "result": [
      {
        "electoralDistricts": [
          {
            "election": null,
            "id": 48,
            "name": "Kitchener—Conestoga"
          }
        ],
        "pollDivisionIds": [
          10139273
        ],
        "postalCode": "N3A1K9",
        "streetName": "CENTENNIAL",
        "streetDirectionId": null,
        "streetTypeId": "CRES",
        "placeName": "NEW HAMBURG",
        "streetNameDisplayText": "CENTENNIAL CRES, NEW HAMBURG"
      }
    ]
  },
  {
    "postal": "N3A1G7",
    "result": [
      {
        "electoralDistricts": [
          {
            "election": null,
            "id": 48,
            "name": "Kitchener—Conestoga"
          }
        ],
        "pollDivisionIds": [
          10139273
        ],
        "postalCode": "N3A1G7",
        "streetName": "BLEAMS",
        "streetDirectionId": "W",
        "streetTypeId": "RD",
        "placeName": "NEW HAMBURG",
        "streetNameDisplayText": "BLEAMS RD W, NEW HAMBURG"
      }
    ]
  },
  {
    "postal": "N3A4E9",
    "result": [
      {
        "electoralDistricts": [
          {
            "election": null,
            "id": 48,
            "name": "Kitchener—Conestoga"
          }
        ],
        "pollDivisionIds": [
          10139259
        ],
        "postalCode": "N3A4E9",
        "streetName": "OXFORD ROAD 5",
        "streetDirectionId": null,
        "streetTypeId": null,
        "placeName": "NEW HAMBURG",
        "streetNameDisplayText": "OXFORD ROAD 5, NEW HAMBURG"
      }
    ]
  },
  {
    "postal": "N3A9P0",
    "result": []
  },
  {
    "postal": "N3A5H3",
    "result": []
  },
  {
    "postal": "N3A9X6",
    "result": []
  },
  {
    "postal": "N3A5N7",
    "result": []
  },
  {
    "postal": "N3A5A6",
    "result": []
  },
  {
    "postal": "N3A4M0",
    "result": []
  },
  {
    "postal": "N3A3V6",
    "result": [
      {
        "electoralDistricts": [
          {
            "election": null,
            "id": 85,
            "name": "Perth—Wellington"
          }
        ],
        "pollDivisionIds": [
          10135502
        ],
        "postalCode": "N3A3V6",
        "streetName": "104",
        "streetDirectionId": null,
        "streetTypeId": "RD",
        "placeName": "NEW HAMBURG",
        "streetNameDisplayText": "104 RD, NEW HAMBURG"
      }
    ]
  },
  {
    "postal": "N3A1L7",
    "result": [
      {
        "electoralDistricts": [
          {
            "election": null,
            "id": 48,
            "name": "Kitchener—Conestoga"
          }
        ],
        "pollDivisionIds": [
          10139273
        ],
        "postalCode": "N3A1L7",
        "streetName": "BLEAMS",
        "streetDirectionId": null,
        "streetTypeId": "CRT",
        "placeName": "NEW HAMBURG",
        "streetNameDisplayText": "BLEAMS CRT, NEW HAMBURG"
      }
    ]
  },
  {
    "postal": "N3A2P9",
    "result": [
      {
        "electoralDistricts": [
          {
            "election": null,
            "id": 48,
            "name": "Kitchener—Conestoga"
          }
        ],
        "pollDivisionIds": [
          10139257
        ],
        "postalCode": "N3A2P9",
        "streetName": "FOUNDRY",
        "streetDirectionId": null,
        "streetTypeId": "ST",
        "placeName": "BADEN",
        "streetNameDisplayText": "FOUNDRY ST, BADEN"
      }
    ]
  },
  {
    "postal": "N3A5T4",
    "result": []
  },
  {
    "postal": "N3A5Z1",
    "result": []
  },
  {
    "postal": "N3A2X0",
    "result": []
  },
  {
    "postal": "N3A6Z2",
    "result": []
  },
  {
    "postal": "N3A0E0",
    "result": []
  },
  {
    "postal": "N3A3Z5",
    "result": [
      {
        "electoralDistricts": [
          {
            "election": null,
            "id": 85,
            "name": "Perth—Wellington"
          }
        ],
        "pollDivisionIds": [
          10135502
        ],
        "postalCode": "N3A3Z5",
        "streetName": "PERTH 43",
        "streetDirectionId": null,
        "streetTypeId": "LINE",
        "placeName": "NEW HAMBURG",
        "streetNameDisplayText": "PERTH 43 LINE, NEW HAMBURG"
      },
      {
        "electoralDistricts": [
          {
            "election": null,
            "id": 85,
            "name": "Perth—Wellington"
          }
        ],
        "pollDivisionIds": [
          10135502
        ],
        "postalCode": "N3A3Z5",
        "streetName": "PERTH LINE 43",
        "streetDirectionId": null,
        "streetTypeId": null,
        "placeName": "NEW HAMBURG",
        "streetNameDisplayText": "PERTH LINE 43, NEW HAMBURG"
      }
    ]
  },
  {
    "postal": "N3A8H3",
    "result": []
  },
  {
    "postal": "N3A7S6",
    "result": []
  },
  {
    "postal": "N3A4C1",
    "result": [
      {
        "electoralDistricts": [
          {
            "election": null,
            "id": 85,
            "name": "Perth—Wellington"
          }
        ],
        "pollDivisionIds": [
          10135502
        ],
        "postalCode": "N3A4C1",
        "streetName": "37",
        "streetDirectionId": null,
        "streetTypeId": "LINE",
        "placeName": "NEW HAMBURG",
        "streetNameDisplayText": "37 LINE, NEW HAMBURG"
      }
    ]
  },
  {
    "postal": "N3A3K2",
    "result": [
      {
        "electoralDistricts": [
          {
            "election": null,
            "id": 48,
            "name": "Kitchener—Conestoga"
          }
        ],
        "pollDivisionIds": [
          10139259
        ],
        "postalCode": "N3A3K2",
        "streetName": "WILMOT CENTRE",
        "streetDirectionId": null,
        "streetTypeId": "RD",
        "placeName": "BADEN",
        "streetNameDisplayText": "WILMOT CENTRE RD, BADEN"
      }
    ]
  },
  {
    "postal": "N3A1Y5",
    "result": [
      {
        "electoralDistricts": [
          {
            "election": null,
            "id": 48,
            "name": "Kitchener—Conestoga"
          }
        ],
        "pollDivisionIds": [
          10139271
        ],
        "postalCode": "N3A1Y5",
        "streetName": "JANTZI",
        "streetDirectionId": null,
        "streetTypeId": "PL",
        "placeName": "NEW HAMBURG",
        "streetNameDisplayText": "JANTZI PL, NEW HAMBURG"
      }
    ]
  },
  {
    "postal": "N3A6P6",
    "result": []
  },
  {
    "postal": "N3A3N9",
    "result": [
      {
        "electoralDistricts": [
          {
            "election": null,
            "id": 48,
            "name": "Kitchener—Conestoga"
          }
        ],
        "pollDivisionIds": [
          10139255
        ],
        "postalCode": "N3A3N9",
        "streetName": "GOLF LINKS",
        "streetDirectionId": null,
        "streetTypeId": "DR",
        "placeName": "BADEN",
        "streetNameDisplayText": "GOLF LINKS DR, BADEN"
      }
    ]
  },
  {
    "postal": "N3A3W2",
    "result": [
      {
        "electoralDistricts": [
          {
            "election": null,
            "id": 85,
            "name": "Perth—Wellington"
          }
        ],
        "pollDivisionIds": [
          10135502
        ],
        "postalCode": "N3A3W2",
        "streetName": "104",
        "streetDirectionId": null,
        "streetTypeId": "RD",
        "placeName": "NEW HAMBURG",
        "streetNameDisplayText": "104 RD, NEW HAMBURG"
      }
    ]
  },
  {
    "postal": "N3A6H8",
    "result": []
  },
  {
    "postal": "N3A9T3",
    "result": []
  },
  {
    "postal": "N3A5L9",
    "result": []
  },
  {
    "postal": "N3A7X7",
    "result": []
  },
  {
    "postal": "N3A3J5",
    "result": [
      {
        "electoralDistricts": [
          {
            "election": null,
            "id": 48,
            "name": "Kitchener—Conestoga"
          }
        ],
        "pollDivisionIds": [
          10139259
        ],
        "postalCode": "N3A3J5",
        "streetName": "GINGERICH",
        "streetDirectionId": null,
        "streetTypeId": "RD",
        "placeName": "BADEN",
        "streetNameDisplayText": "GINGERICH RD, BADEN"
      }
    ]
  },
  {
    "postal": "N3A4J5",
    "result": [
      {
        "electoralDistricts": [
          {
            "election": null,
            "id": 48,
            "name": "Kitchener—Conestoga"
          }
        ],
        "pollDivisionIds": [
          10139273
        ],
        "postalCode": "N3A4J5",
        "streetName": "STONECROFT",
        "streetDirectionId": null,
        "streetTypeId": "WAY",
        "placeName": "NEW HAMBURG",
        "streetNameDisplayText": "STONECROFT WAY, NEW HAMBURG"
      }
    ]
  },
  {
    "postal": "N3A6J2",
    "result": []
  },
  {
    "postal": "N3A5V6",
    "result": []
  },
  {
    "postal": "N3A3N2",
    "result": [
      {
        "electoralDistricts": [
          {
            "election": null,
            "id": 48,
            "name": "Kitchener—Conestoga"
          }
        ],
        "pollDivisionIds": [
          10139255
        ],
        "postalCode": "N3A3N2",
        "streetName": "FOXBORO",
        "streetDirectionId": null,
        "streetTypeId": "DR",
        "placeName": "BADEN",
        "streetNameDisplayText": "FOXBORO DR, BADEN"
      }
    ]
  },
  {
    "postal": "N3A3B1",
    "result": [
      {
        "electoralDistricts": [
          {
            "election": null,
            "id": 48,
            "name": "Kitchener—Conestoga"
          }
        ],
        "pollDivisionIds": [
          10139258
        ],
        "postalCode": "N3A3B1",
        "streetName": "SANDHILLS",
        "streetDirectionId": null,
        "streetTypeId": "RD",
        "placeName": "NEW HAMBURG",
        "streetNameDisplayText": "SANDHILLS RD, NEW HAMBURG"
      }
    ]
  },
  {
    "postal": "N3A8B5",
    "result": []
  },
  {
    "postal": "N3A0K1",
    "result": []
  },
  {
    "postal": "N3A7M7",
    "result": []
  },
  {
    "postal": "N3A2M2",
    "result": [
      {
        "electoralDistricts": [
          {
            "election": null,
            "id": 48,
            "name": "Kitchener—Conestoga"
          }
        ],
        "pollDivisionIds": [
          10139257
        ],
        "postalCode": "N3A2M2",
        "streetName": "SNYDERS",
        "streetDirectionId": "W",
        "streetTypeId": "RD",
        "placeName": "BADEN",
        "streetNameDisplayText": "SNYDERS RD W, BADEN"
      },
      {
        "electoralDistricts": [
          {
            "election": null,
            "id": 48,
            "name": "Kitchener—Conestoga"
          }
        ],
        "pollDivisionIds": [
          10139256
        ],
        "postalCode": "N3A2M2",
        "streetName": "SNYDER'S",
        "streetDirectionId": "W",
        "streetTypeId": "RD",
        "placeName": "BADEN",
        "streetNameDisplayText": "SNYDER'S RD W, BADEN"
      }
    ]
  },
  {
    "postal": "N3A9N3",
    "result": []
  },
  {
    "postal": "N3A4Y8",
    "result": []
  },
  {
    "postal": "N3A3V7",
    "result": []
  },
  {
    "postal": "N3A8Z1",
    "result": []
  },
  {
    "postal": "N3A7B3",
    "result": []
  },
  {
    "postal": "N3A3A8",
    "result": [
      {
        "electoralDistricts": [
          {
            "election": null,
            "id": 48,
            "name": "Kitchener—Conestoga"
          }
        ],
        "pollDivisionIds": [
          10139256
        ],
        "postalCode": "N3A3A8",
        "streetName": "SANDHILLS",
        "streetDirectionId": null,
        "streetTypeId": "RD",
        "placeName": "BADEN",
        "streetNameDisplayText": "SANDHILLS RD, BADEN"
      }
    ]
  },
  {
    "postal": "N3A7V5",
    "result": []
  },
  {
    "postal": "N3A2T2",
    "result": [
      {
        "electoralDistricts": [
          {
            "election": null,
            "id": 48,
            "name": "Kitchener—Conestoga"
          }
        ],
        "pollDivisionIds": [
          10139257
        ],
        "postalCode": "N3A2T2",
        "streetName": "HASTINGS",
        "streetDirectionId": null,
        "streetTypeId": "CRT",
        "placeName": "BADEN",
        "streetNameDisplayText": "HASTINGS CRT, BADEN"
      }
    ]
  },
  {
    "postal": "N3A6L3",
    "result": []
  },
  {
    "postal": "N3A0L2",
    "result": []
  },
  {
    "postal": "N3A5Y8",
    "result": []
  },
  {
    "postal": "N3A0B8",
    "result": [
      {
        "electoralDistricts": [
          {
            "election": null,
            "id": 48,
            "name": "Kitchener—Conestoga"
          }
        ],
        "pollDivisionIds": [
          10139273
        ],
        "postalCode": "N3A0B8",
        "streetName": "AMBERDALE",
        "streetDirectionId": null,
        "streetTypeId": "WAY",
        "placeName": "NEW HAMBURG",
        "streetNameDisplayText": "AMBERDALE WAY, NEW HAMBURG"
      }
    ]
  },
  {
    "postal": "N3A6R5",
    "result": []
  },
  {
    "postal": "N3A8W6",
    "result": []
  },
  {
    "postal": "N3A8G6",
    "result": []
  },
  {
    "postal": "N3A6X3",
    "result": []
  },
  {
    "postal": "N3A7R7",
    "result": []
  },
  {
    "postal": "N3A4B6",
    "result": [
      {
        "electoralDistricts": [
          {
            "election": null,
            "id": 85,
            "name": "Perth—Wellington"
          }
        ],
        "pollDivisionIds": [
          10135502
        ],
        "postalCode": "N3A4B6",
        "streetName": "37",
        "streetDirectionId": null,
        "streetTypeId": "LINE",
        "placeName": "NEW HAMBURG",
        "streetNameDisplayText": "37 LINE, NEW HAMBURG"
      }
    ]
  },
  {
    "postal": "N3A3P9",
    "result": [
      {
        "electoralDistricts": [
          {
            "election": null,
            "id": 48,
            "name": "Kitchener—Conestoga"
          }
        ],
        "pollDivisionIds": [
          10139255
        ],
        "postalCode": "N3A3P9",
        "streetName": "SUN VALLEY",
        "streetDirectionId": null,
        "streetTypeId": "DR",
        "placeName": "BADEN",
        "streetNameDisplayText": "SUN VALLEY DR, BADEN"
      }
    ]
  },
  {
    "postal": "N3A2T3",
    "result": [
      {
        "electoralDistricts": [
          {
            "election": null,
            "id": 48,
            "name": "Kitchener—Conestoga"
          }
        ],
        "pollDivisionIds": [
          10139257
        ],
        "postalCode": "N3A2T3",
        "streetName": "HASTINGS",
        "streetDirectionId": null,
        "streetTypeId": "CRT",
        "placeName": "BADEN",
        "streetNameDisplayText": "HASTINGS CRT, BADEN"
      }
    ]
  },
  {
    "postal": "N3A1M4",
    "result": []
  },
  {
    "postal": "N3A0H1",
    "result": []
  },
  {
    "postal": "N3A9W3",
    "result": []
  },
  {
    "postal": "N3A6P1",
    "result": []
  },
  {
    "postal": "N3A7G2",
    "result": []
  },
  {
    "postal": "N3A4J9",
    "result": [
      {
        "electoralDistricts": [
          {
            "election": null,
            "id": 82,
            "name": "Oxford"
          }
        ],
        "pollDivisionIds": [
          10140924
        ],
        "postalCode": "N3A4J9",
        "streetName": "BLANDFORD",
        "streetDirectionId": null,
        "streetTypeId": "RD",
        "placeName": "NEW HAMBURG",
        "streetNameDisplayText": "BLANDFORD RD, NEW HAMBURG"
      }
    ]
  },
  {
    "postal": "N3A9E4",
    "result": []
  },
  {
    "postal": "N3A8H0",
    "result": []
  },
  {
    "postal": "N3A4M7",
    "result": [
      {
        "electoralDistricts": [
          {
            "election": null,
            "id": 48,
            "name": "Kitchener—Conestoga"
          }
        ],
        "pollDivisionIds": [
          10139256
        ],
        "postalCode": "N3A4M7",
        "streetName": "LIVINGSTON",
        "streetDirectionId": null,
        "streetTypeId": "BLVD",
        "placeName": "BADEN",
        "streetNameDisplayText": "LIVINGSTON BLVD, BADEN"
      },
      {
        "electoralDistricts": [
          {
            "election": null,
            "id": 48,
            "name": "Kitchener—Conestoga"
          }
        ],
        "pollDivisionIds": [
          10139256
        ],
        "postalCode": "N3A4M7",
        "streetName": "WAGLER",
        "streetDirectionId": null,
        "streetTypeId": "AVE",
        "placeName": "BADEN",
        "streetNameDisplayText": "WAGLER AVE, BADEN"
      }
    ]
  },
  {
    "postal": "N3A2G9",
    "result": [
      {
        "electoralDistricts": [
          {
            "election": null,
            "id": 48,
            "name": "Kitchener—Conestoga"
          }
        ],
        "pollDivisionIds": [
          10139272
        ],
        "postalCode": "N3A2G9",
        "streetName": "LASCHINGER",
        "streetDirectionId": null,
        "streetTypeId": "BLVD",
        "placeName": "NEW HAMBURG",
        "streetNameDisplayText": "LASCHINGER BLVD, NEW HAMBURG"
      }
    ]
  },
  {
    "postal": "N3A8T2",
    "result": []
  },
  {
    "postal": "N3A7G7",
    "result": []
  },
  {
    "postal": "N3A4Z3",
    "result": []
  },
  {
    "postal": "N3A5B3",
    "result": []
  },
  {
    "postal": "N3A1S7",
    "result": [
      {
        "electoralDistricts": [
          {
            "election": null,
            "id": 48,
            "name": "Kitchener—Conestoga"
          }
        ],
        "pollDivisionIds": [
          10139272
        ],
        "postalCode": "N3A1S7",
        "streetName": "WATERLOO",
        "streetDirectionId": null,
        "streetTypeId": "ST",
        "placeName": "NEW HAMBURG",
        "streetNameDisplayText": "WATERLOO ST, NEW HAMBURG"
      }
    ]
  },
  {
    "postal": "N3A2N7",
    "result": [
      {
        "electoralDistricts": [
          {
            "election": null,
            "id": 48,
            "name": "Kitchener—Conestoga"
          }
        ],
        "pollDivisionIds": [
          10139256
        ],
        "postalCode": "N3A2N7",
        "streetName": "CHARLES",
        "streetDirectionId": null,
        "streetTypeId": "ST",
        "placeName": "BADEN",
        "streetNameDisplayText": "CHARLES ST, BADEN"
      }
    ]
  },
  {
    "postal": "N3A0H8",
    "result": []
  },
  {
    "postal": "N3A7Z4",
    "result": []
  },
  {
    "postal": "N3A7B1",
    "result": []
  },
  {
    "postal": "N3A7P8",
    "result": []
  },
  {
    "postal": "N3A7N0",
    "result": []
  },
  {
    "postal": "N3A3Y5",
    "result": []
  },
  {
    "postal": "N3A6K1",
    "result": []
  },
  {
    "postal": "N3A9X5",
    "result": []
  },
  {
    "postal": "N3A7S5",
    "result": []
  },
  {
    "postal": "N3A0A4",
    "result": []
  },
  {
    "postal": "N3A4T5",
    "result": []
  },
  {
    "postal": "N3A5K1",
    "result": []
  },
  {
    "postal": "N3A0Z9",
    "result": []
  },
  {
    "postal": "N3A7T2",
    "result": []
  },
  {
    "postal": "N3A1L5",
    "result": [
      {
        "electoralDistricts": [
          {
            "election": null,
            "id": 48,
            "name": "Kitchener—Conestoga"
          }
        ],
        "pollDivisionIds": [
          10139273
        ],
        "postalCode": "N3A1L5",
        "streetName": "GRANDVIEW",
        "streetDirectionId": null,
        "streetTypeId": "AVE",
        "placeName": "NEW HAMBURG",
        "streetNameDisplayText": "GRANDVIEW AVE, NEW HAMBURG"
      }
    ]
  },
  {
    "postal": "N3A3N5",
    "result": [
      {
        "electoralDistricts": [
          {
            "election": null,
            "id": 48,
            "name": "Kitchener—Conestoga"
          }
        ],
        "pollDivisionIds": [
          10139255
        ],
        "postalCode": "N3A3N5",
        "streetName": "FOXBORO",
        "streetDirectionId": null,
        "streetTypeId": "DR",
        "placeName": "BADEN",
        "streetNameDisplayText": "FOXBORO DR, BADEN"
      }
    ]
  },
  {
    "postal": "N3A6H4",
    "result": []
  },
  {
    "postal": "N3A5A5",
    "result": []
  },
  {
    "postal": "N3A3R9",
    "result": [
      {
        "electoralDistricts": [
          {
            "election": null,
            "id": 48,
            "name": "Kitchener—Conestoga"
          }
        ],
        "pollDivisionIds": [
          10139256
        ],
        "postalCode": "N3A3R9",
        "streetName": "CARMEL-KOCH",
        "streetDirectionId": null,
        "streetTypeId": "RD",
        "placeName": "BADEN",
        "streetNameDisplayText": "CARMEL-KOCH RD, BADEN"
      }
    ]
  },
  {
    "postal": "N3A7L8",
    "result": []
  },
  {
    "postal": "N3A6T6",
    "result": []
  },
  {
    "postal": "N3A7Y7",
    "result": []
  },
  {
    "postal": "N3A3M8",
    "result": [
      {
        "electoralDistricts": [
          {
            "election": null,
            "id": 48,
            "name": "Kitchener—Conestoga"
          }
        ],
        "pollDivisionIds": [
          10139256
        ],
        "postalCode": "N3A3M8",
        "streetName": "WILBY",
        "streetDirectionId": null,
        "streetTypeId": "RD",
        "placeName": "BADEN",
        "streetNameDisplayText": "WILBY RD, BADEN"
      }
    ]
  },
  {
    "postal": "N3A2E0",
    "result": []
  },
  {
    "postal": "N3A4B5",
    "result": []
  },
  {
    "postal": "N3A1J3",
    "result": [
      {
        "electoralDistricts": [
          {
            "election": null,
            "id": 48,
            "name": "Kitchener—Conestoga"
          }
        ],
        "pollDivisionIds": [
          10139273
        ],
        "postalCode": "N3A1J3",
        "streetName": "HURON",
        "streetDirectionId": null,
        "streetTypeId": "ST",
        "placeName": "NEW HAMBURG",
        "streetNameDisplayText": "HURON ST, NEW HAMBURG"
      }
    ]
  },
  {
    "postal": "N3A5S6",
    "result": []
  },
  {
    "postal": "N3A8P7",
    "result": []
  },
  {
    "postal": "N3A7S7",
    "result": []
  },
  {
    "postal": "N3A4C2",
    "result": []
  },
  {
    "postal": "N3A5Y0",
    "result": []
  },
  {
    "postal": "N3A2V7",
    "result": [
      {
        "electoralDistricts": [
          {
            "election": null,
            "id": 48,
            "name": "Kitchener—Conestoga"
          }
        ],
        "pollDivisionIds": [
          10139257
        ],
        "postalCode": "N3A2V7",
        "streetName": "SNYDER'S",
        "streetDirectionId": "E",
        "streetTypeId": "RD",
        "placeName": "BADEN",
        "streetNameDisplayText": "SNYDER'S RD E, BADEN"
      },
      {
        "electoralDistricts": [
          {
            "election": null,
            "id": 48,
            "name": "Kitchener—Conestoga"
          }
        ],
        "pollDivisionIds": [
          10139257
        ],
        "postalCode": "N3A2V7",
        "streetName": "VILLAGE GREEN",
        "streetDirectionId": null,
        "streetTypeId": "WAY",
        "placeName": "BADEN",
        "streetNameDisplayText": "VILLAGE GREEN WAY, BADEN"
      }
    ]
  },
  {
    "postal": "N3A8P5",
    "result": []
  },
  {
    "postal": "N3A5P5",
    "result": []
  },
  {
    "postal": "N3A5Z0",
    "result": []
  },
  {
    "postal": "N3A9B0",
    "result": []
  },
  {
    "postal": "N3A1L0",
    "result": []
  },
  {
    "postal": "N3A0B5",
    "result": [
      {
        "electoralDistricts": [
          {
            "election": null,
            "id": 48,
            "name": "Kitchener—Conestoga"
          }
        ],
        "pollDivisionIds": [
          10139273
        ],
        "postalCode": "N3A0B5",
        "streetName": "CAPTAIN MCCALLUM",
        "streetDirectionId": null,
        "streetTypeId": "DR",
        "placeName": "NEW HAMBURG",
        "streetNameDisplayText": "CAPTAIN MCCALLUM DR, NEW HAMBURG"
      },
      {
        "electoralDistricts": [
          {
            "election": null,
            "id": 48,
            "name": "Kitchener—Conestoga"
          }
        ],
        "pollDivisionIds": [
          10139257
        ],
        "postalCode": "N3A0B5",
        "streetName": "CAPTAIN MCCALLUM DR.",
        "streetDirectionId": null,
        "streetTypeId": "DR",
        "placeName": "NEW HAMBURG",
        "streetNameDisplayText": "CAPTAIN MCCALLUM DR. DR, NEW HAMBURG"
      }
    ]
  },
  {
    "postal": "N3A3L2",
    "result": [
      {
        "electoralDistricts": [
          {
            "election": null,
            "id": 48,
            "name": "Kitchener—Conestoga"
          }
        ],
        "pollDivisionIds": [
          10139256,
          10139259
        ],
        "postalCode": "N3A3L2",
        "streetName": "SNYDER'S",
        "streetDirectionId": "E",
        "streetTypeId": "RD",
        "placeName": "BADEN",
        "streetNameDisplayText": "SNYDER'S RD E, BADEN"
      }
    ]
  },
  {
    "postal": "N3A3B7",
    "result": [
      {
        "electoralDistricts": [
          {
            "election": null,
            "id": 48,
            "name": "Kitchener—Conestoga"
          }
        ],
        "pollDivisionIds": [
          10139257
        ],
        "postalCode": "N3A3B7",
        "streetName": "SANDHILLS",
        "streetDirectionId": null,
        "streetTypeId": "RD",
        "placeName": "BADEN",
        "streetNameDisplayText": "SANDHILLS RD, BADEN"
      }
    ]
  },
  {
    "postal": "N3A8L1",
    "result": []
  },
  {
    "postal": "N3A5M4",
    "result": []
  },
  {
    "postal": "N3A4G9",
    "result": []
  },
  {
    "postal": "N3A0P0",
    "result": []
  },
  {
    "postal": "N3A8G2",
    "result": []
  },
  {
    "postal": "N3A1V9",
    "result": [
      {
        "electoralDistricts": [
          {
            "election": null,
            "id": 48,
            "name": "Kitchener—Conestoga"
          }
        ],
        "pollDivisionIds": [
          10139272
        ],
        "postalCode": "N3A1V9",
        "streetName": "VICTORIA",
        "streetDirectionId": null,
        "streetTypeId": "ST",
        "placeName": "NEW HAMBURG",
        "streetNameDisplayText": "VICTORIA ST, NEW HAMBURG"
      }
    ]
  },
  {
    "postal": "N3A8N8",
    "result": []
  },
  {
    "postal": "N3A6S8",
    "result": []
  },
  {
    "postal": "N3A8H2",
    "result": []
  },
  {
    "postal": "N3A5R8",
    "result": []
  },
  {
    "postal": "N3A5L4",
    "result": []
  },
  {
    "postal": "N3A9E1",
    "result": []
  },
  {
    "postal": "N3A1C4",
    "result": [
      {
        "electoralDistricts": [
          {
            "election": null,
            "id": 48,
            "name": "Kitchener—Conestoga"
          }
        ],
        "pollDivisionIds": [
          10139273
        ],
        "postalCode": "N3A1C4",
        "streetName": "JACOB",
        "streetDirectionId": null,
        "streetTypeId": "ST",
        "placeName": "NEW HAMBURG",
        "streetNameDisplayText": "JACOB ST, NEW HAMBURG"
      }
    ]
  },
  {
    "postal": "N3A8W5",
    "result": []
  },
  {
    "postal": "N3A1Y4",
    "result": [
      {
        "electoralDistricts": [
          {
            "election": null,
            "id": 48,
            "name": "Kitchener—Conestoga"
          }
        ],
        "pollDivisionIds": [
          10139271
        ],
        "postalCode": "N3A1Y4",
        "streetName": "BIER",
        "streetDirectionId": null,
        "streetTypeId": "CRES",
        "placeName": "NEW HAMBURG",
        "streetNameDisplayText": "BIER CRES, NEW HAMBURG"
      }
    ]
  },
  {
    "postal": "N3A1C0",
    "result": []
  },
  {
    "postal": "N3A2J2",
    "result": []
  },
  {
    "postal": "N3A2J0",
    "result": []
  },
  {
    "postal": "N3A7A3",
    "result": []
  },
  {
    "postal": "N3A8M1",
    "result": []
  },
  {
    "postal": "N3A7T9",
    "result": []
  },
  {
    "postal": "N3A6C0",
    "result": []
  },
  {
    "postal": "N3A7X1",
    "result": []
  },
  {
    "postal": "N3A0G1",
    "result": [
      {
        "electoralDistricts": [
          {
            "election": null,
            "id": 48,
            "name": "Kitchener—Conestoga"
          }
        ],
        "pollDivisionIds": [
          10139273
        ],
        "postalCode": "N3A0G1",
        "streetName": "MILL",
        "streetDirectionId": null,
        "streetTypeId": "ST",
        "placeName": "NEW HAMBURG",
        "streetNameDisplayText": "MILL ST, NEW HAMBURG"
      }
    ]
  },
  {
    "postal": "N3A4X2",
    "result": []
  },
  {
    "postal": "N3A0N6",
    "result": []
  },
  {
    "postal": "N3A8E3",
    "result": []
  },
  {
    "postal": "N3A5S8",
    "result": []
  },
  {
    "postal": "N3A0R0",
    "result": []
  },
  {
    "postal": "N3A6J6",
    "result": []
  },
  {
    "postal": "N3A4B4",
    "result": [
      {
        "electoralDistricts": [
          {
            "election": null,
            "id": 85,
            "name": "Perth—Wellington"
          }
        ],
        "pollDivisionIds": [
          10135502
        ],
        "postalCode": "N3A4B4",
        "streetName": "37",
        "streetDirectionId": null,
        "streetTypeId": "LINE",
        "placeName": "NEW HAMBURG",
        "streetNameDisplayText": "37 LINE, NEW HAMBURG"
      }
    ]
  },
  {
    "postal": "N3A7E3",
    "result": []
  },
  {
    "postal": "N3A3N6",
    "result": [
      {
        "electoralDistricts": [
          {
            "election": null,
            "id": 48,
            "name": "Kitchener—Conestoga"
          }
        ],
        "pollDivisionIds": [
          10139255
        ],
        "postalCode": "N3A3N6",
        "streetName": "GOLF LINKS",
        "streetDirectionId": null,
        "streetTypeId": "DR",
        "placeName": "BADEN",
        "streetNameDisplayText": "GOLF LINKS DR, BADEN"
      }
    ]
  },
  {
    "postal": "N3A3X6",
    "result": []
  },
  {
    "postal": "N3A8L0",
    "result": []
  },
  {
    "postal": "N3A8N1",
    "result": []
  },
  {
    "postal": "N3A4J0",
    "result": []
  },
  {
    "postal": "N3A0X7",
    "result": []
  },
  {
    "postal": "N3A6S4",
    "result": []
  },
  {
    "postal": "N3A0Z0",
    "result": []
  },
  {
    "postal": "N3A9X8",
    "result": []
  },
  {
    "postal": "N3A3H3",
    "result": [
      {
        "electoralDistricts": [
          {
            "election": null,
            "id": 48,
            "name": "Kitchener—Conestoga"
          }
        ],
        "pollDivisionIds": [
          10139256
        ],
        "postalCode": "N3A3H3",
        "streetName": "NAFZIGER",
        "streetDirectionId": null,
        "streetTypeId": "RD",
        "placeName": "NEW HAMBURG",
        "streetNameDisplayText": "NAFZIGER RD, NEW HAMBURG"
      }
    ]
  },
  {
    "postal": "N3A7S2",
    "result": []
  },
  {
    "postal": "N3A3T3",
    "result": [
      {
        "electoralDistricts": [
          {
            "election": null,
            "id": 85,
            "name": "Perth—Wellington"
          }
        ],
        "pollDivisionIds": [
          10135502
        ],
        "postalCode": "N3A3T3",
        "streetName": "WILMOT-EASTHOPE",
        "streetDirectionId": null,
        "streetTypeId": "RD",
        "placeName": "NEW HAMBURG",
        "streetNameDisplayText": "WILMOT-EASTHOPE RD, NEW HAMBURG"
      }
    ]
  },
  {
    "postal": "N3A9P3",
    "result": []
  },
  {
    "postal": "N3A4H8",
    "result": [
      {
        "electoralDistricts": [
          {
            "election": null,
            "id": 48,
            "name": "Kitchener—Conestoga"
          }
        ],
        "pollDivisionIds": [
          10139273
        ],
        "postalCode": "N3A4H8",
        "streetName": "MARVIN",
        "streetDirectionId": null,
        "streetTypeId": "ST",
        "placeName": "NEW HAMBURG",
        "streetNameDisplayText": "MARVIN ST, NEW HAMBURG"
      }
    ]
  },
  {
    "postal": "N3A6R1",
    "result": []
  },
  {
    "postal": "N3A1S0",
    "result": []
  },
  {
    "postal": "N3A3W8",
    "result": [
      {
        "electoralDistricts": [
          {
            "election": null,
            "id": 85,
            "name": "Perth—Wellington"
          }
        ],
        "pollDivisionIds": [
          10135502
        ],
        "postalCode": "N3A3W8",
        "streetName": "106",
        "streetDirectionId": null,
        "streetTypeId": "RD",
        "placeName": "NEW HAMBURG",
        "streetNameDisplayText": "106 RD, NEW HAMBURG"
      }
    ]
  },
  {
    "postal": "N3A4S3",
    "result": [
      {
        "electoralDistricts": [
          {
            "election": null,
            "id": 48,
            "name": "Kitchener—Conestoga"
          }
        ],
        "pollDivisionIds": [
          10139257
        ],
        "postalCode": "N3A4S3",
        "streetName": "JOSEPH LICHTI",
        "streetDirectionId": null,
        "streetTypeId": "LANE",
        "placeName": "BADEN",
        "streetNameDisplayText": "JOSEPH LICHTI LANE, BADEN"
      },
      {
        "electoralDistricts": [
          {
            "election": null,
            "id": 48,
            "name": "Kitchener—Conestoga"
          }
        ],
        "pollDivisionIds": [
          10139257
        ],
        "postalCode": "N3A4S3",
        "streetName": "KROPF",
        "streetDirectionId": null,
        "streetTypeId": "DR",
        "placeName": "BADEN",
        "streetNameDisplayText": "KROPF DR, BADEN"
      }
    ]
  },
  {
    "postal": "N3A1B6",
    "result": [
      {
        "electoralDistricts": [
          {
            "election": null,
            "id": 48,
            "name": "Kitchener—Conestoga"
          }
        ],
        "pollDivisionIds": [
          10139273
        ],
        "postalCode": "N3A1B6",
        "streetName": "GRACE",
        "streetDirectionId": null,
        "streetTypeId": "ST",
        "placeName": "NEW HAMBURG",
        "streetNameDisplayText": "GRACE ST, NEW HAMBURG"
      }
    ]
  },
  {
    "postal": "N3A8R3",
    "result": []
  },
  {
    "postal": "N3A4V9",
    "result": []
  },
  {
    "postal": "N3A9W4",
    "result": []
  },
  {
    "postal": "N3A3T4",
    "result": [
      {
        "electoralDistricts": [
          {
            "election": null,
            "id": 85,
            "name": "Perth—Wellington"
          }
        ],
        "pollDivisionIds": [
          10135502
        ],
        "postalCode": "N3A3T4",
        "streetName": "101",
        "streetDirectionId": null,
        "streetTypeId": "RD",
        "placeName": "NEW HAMBURG",
        "streetNameDisplayText": "101 RD, NEW HAMBURG"
      },
      {
        "electoralDistricts": [
          {
            "election": null,
            "id": 85,
            "name": "Perth—Wellington"
          }
        ],
        "pollDivisionIds": [
          10135502
        ],
        "postalCode": "N3A3T4",
        "streetName": "WILMOT-EASTHOPE",
        "streetDirectionId": null,
        "streetTypeId": "RD",
        "placeName": "NEW HAMBURG",
        "streetNameDisplayText": "WILMOT-EASTHOPE RD, NEW HAMBURG"
      }
    ]
  },
  {
    "postal": "N3A5C7",
    "result": []
  },
  {
    "postal": "N3A3Y1",
    "result": []
  },
  {
    "postal": "N3A5V0",
    "result": []
  },
  {
    "postal": "N3A8G8",
    "result": []
  },
  {
    "postal": "N3A8B1",
    "result": []
  },
  {
    "postal": "N3A4P5",
    "result": [
      {
        "electoralDistricts": [
          {
            "election": null,
            "id": 48,
            "name": "Kitchener—Conestoga"
          }
        ],
        "pollDivisionIds": [
          10139273
        ],
        "postalCode": "N3A4P5",
        "streetName": "THIMBLEBERRY",
        "streetDirectionId": null,
        "streetTypeId": "CROSS",
        "placeName": "NEW HAMBURG",
        "streetNameDisplayText": "THIMBLEBERRY CROSS, NEW HAMBURG"
      }
    ]
  },
  {
    "postal": "N3A7B2",
    "result": []
  },
  {
    "postal": "N3A0R2",
    "result": []
  },
  {
    "postal": "N3A4M4",
    "result": []
  },
  {
    "postal": "N3A7M4",
    "result": []
  },
  {
    "postal": "N3A9S7",
    "result": []
  },
  {
    "postal": "N3A5Z7",
    "result": []
  },
  {
    "postal": "N3A7J7",
    "result": []
  },
  {
    "postal": "N3A8R8",
    "result": []
  },
  {
    "postal": "N3A9X1",
    "result": []
  },
  {
    "postal": "N3A5M9",
    "result": []
  },
  {
    "postal": "N3A9B4",
    "result": []
  },
  {
    "postal": "N3A0L9",
    "result": []
  },
  {
    "postal": "N3A9G4",
    "result": []
  },
  {
    "postal": "N3A1J4",
    "result": [
      {
        "electoralDistricts": [
          {
            "election": null,
            "id": 48,
            "name": "Kitchener—Conestoga"
          }
        ],
        "pollDivisionIds": [
          10139273
        ],
        "postalCode": "N3A1J4",
        "streetName": "HURON",
        "streetDirectionId": null,
        "streetTypeId": "ST",
        "placeName": "NEW HAMBURG",
        "streetNameDisplayText": "HURON ST, NEW HAMBURG"
      }
    ]
  },
  {
    "postal": "N3A0W6",
    "result": []
  }
]
