[
  {
    "postal": "L4P9J6",
    "result": []
  },
  {
    "postal": "L4P9Z5",
    "result": []
  },
  {
    "postal": "L4P7H8",
    "result": []
  },
  {
    "postal": "L4P0P6",
    "result": []
  },
  {
    "postal": "L4P0S7",
    "result": []
  },
  {
    "postal": "L4P8B9",
    "result": []
  },
  {
    "postal": "L4P2A6",
    "result": [
      {
        "electoralDistricts": [
          {
            "election": null,
            "id": 121,
            "name": "York—Simcoe"
          }
        ],
        "pollDivisionIds": [
          10142923
        ],
        "postalCode": "L4P2A6",
        "streetName": "THE QUEENSWAY",
        "streetDirectionId": "S",
        "streetTypeId": null,
        "placeName": "KESWICK",
        "streetNameDisplayText": "THE QUEENSWAY S, KESWICK"
      },
      {
        "electoralDistricts": [
          {
            "election": null,
            "id": 121,
            "name": "York—Simcoe"
          }
        ],
        "pollDivisionIds": [
          10142923
        ],
        "postalCode": "L4P2A6",
        "streetName": "THE QUEENSWAY SOUTH",
        "streetDirectionId": "S",
        "streetTypeId": null,
        "placeName": "KESWICK",
        "streetNameDisplayText": "THE QUEENSWAY SOUTH S, KESWICK"
      }
    ]
  },
  {
    "postal": "L4P7V2",
    "result": []
  },
  {
    "postal": "L4P9P4",
    "result": []
  },
  {
    "postal": "L4P6G0",
    "result": []
  },
  {
    "postal": "L4P2K0",
    "result": []
  },
  {
    "postal": "L4P7N6",
    "result": []
  },
  {
    "postal": "L4P5R3",
    "result": []
  },
  {
    "postal": "L4P7K0",
    "result": []
  },
  {
    "postal": "L4P3R2",
    "result": [
      {
        "electoralDistricts": [
          {
            "election": null,
            "id": 121,
            "name": "York—Simcoe"
          }
        ],
        "pollDivisionIds": [
          10142924
        ],
        "postalCode": "L4P3R2",
        "streetName": "LADYBURN",
        "streetDirectionId": null,
        "streetTypeId": "DR",
        "placeName": "KESWICK",
        "streetNameDisplayText": "LADYBURN DR, KESWICK"
      },
      {
        "electoralDistricts": [
          {
            "election": null,
            "id": 121,
            "name": "York—Simcoe"
          }
        ],
        "pollDivisionIds": [
          10142924
        ],
        "postalCode": "L4P3R2",
        "streetName": "SHERIE",
        "streetDirectionId": null,
        "streetTypeId": "DR",
        "placeName": "KESWICK",
        "streetNameDisplayText": "SHERIE DR, KESWICK"
      }
    ]
  },
  {
    "postal": "L4P0J1",
    "result": []
  },
  {
    "postal": "L4P0B0",
    "result": []
  },
  {
    "postal": "L4P5Z2",
    "result": []
  },
  {
    "postal": "L4P7P3",
    "result": []
  },
  {
    "postal": "L4P2K3",
    "result": [
      {
        "electoralDistricts": [
          {
            "election": null,
            "id": 121,
            "name": "York—Simcoe"
          }
        ],
        "pollDivisionIds": [
          10142923
        ],
        "postalCode": "L4P2K3",
        "streetName": "SILAS",
        "streetDirectionId": null,
        "streetTypeId": "BLVD",
        "placeName": "KESWICK",
        "streetNameDisplayText": "SILAS BLVD, KESWICK"
      }
    ]
  },
  {
    "postal": "L4P7Y6",
    "result": []
  },
  {
    "postal": "L4P1L9",
    "result": [
      {
        "electoralDistricts": [
          {
            "election": null,
            "id": 121,
            "name": "York—Simcoe"
          }
        ],
        "pollDivisionIds": [
          10142923
        ],
        "postalCode": "L4P1L9",
        "streetName": "COOKS BAY",
        "streetDirectionId": null,
        "streetTypeId": "DR",
        "placeName": "KESWICK",
        "streetNameDisplayText": "COOKS BAY DR, KESWICK"
      }
    ]
  },
  {
    "postal": "L4P8T0",
    "result": []
  },
  {
    "postal": "L4P3K8",
    "result": [
      {
        "electoralDistricts": [
          {
            "election": null,
            "id": 121,
            "name": "York—Simcoe"
          }
        ],
        "pollDivisionIds": [
          10142923
        ],
        "postalCode": "L4P3K8",
        "streetName": "METRO",
        "streetDirectionId": "S",
        "streetTypeId": "RD",
        "placeName": "KESWICK",
        "streetNameDisplayText": "METRO RD S, KESWICK"
      }
    ]
  },
  {
    "postal": "L4P5W9",
    "result": []
  },
  {
    "postal": "L4P6T9",
    "result": []
  },
  {
    "postal": "L4P4H1",
    "result": [
      {
        "electoralDistricts": [
          {
            "election": null,
            "id": 121,
            "name": "York—Simcoe"
          }
        ],
        "pollDivisionIds": [
          10142927
        ],
        "postalCode": "L4P4H1",
        "streetName": "IAN",
        "streetDirectionId": null,
        "streetTypeId": "DR",
        "placeName": "KESWICK",
        "streetNameDisplayText": "IAN DR, KESWICK"
      },
      {
        "electoralDistricts": [
          {
            "election": null,
            "id": 121,
            "name": "York—Simcoe"
          }
        ],
        "pollDivisionIds": [
          10142927
        ],
        "postalCode": "L4P4H1",
        "streetName": "JOE DALES",
        "streetDirectionId": null,
        "streetTypeId": "DR",
        "placeName": "KESWICK",
        "streetNameDisplayText": "JOE DALES DR, KESWICK"
      }
    ]
  },
  {
    "postal": "L4P7A2",
    "result": []
  },
  {
    "postal": "L4P5G0",
    "result": []
  },
  {
    "postal": "L4P8V5",
    "result": []
  },
  {
    "postal": "L4P2Y8",
    "result": [
      {
        "electoralDistricts": [
          {
            "election": null,
            "id": 121,
            "name": "York—Simcoe"
          }
        ],
        "pollDivisionIds": [
          10142926
        ],
        "postalCode": "L4P2Y8",
        "streetName": "TERRACE",
        "streetDirectionId": null,
        "streetTypeId": "DR",
        "placeName": "KESWICK",
        "streetNameDisplayText": "TERRACE DR, KESWICK"
      }
    ]
  },
  {
    "postal": "L4P2B6",
    "result": [
      {
        "electoralDistricts": [
          {
            "election": null,
            "id": 121,
            "name": "York—Simcoe"
          }
        ],
        "pollDivisionIds": [
          10142925
        ],
        "postalCode": "L4P2B6",
        "streetName": "THE QUEENSWAY",
        "streetDirectionId": "S",
        "streetTypeId": null,
        "placeName": "KESWICK",
        "streetNameDisplayText": "THE QUEENSWAY S, KESWICK"
      }
    ]
  },
  {
    "postal": "L4P4W8",
    "result": []
  },
  {
    "postal": "L4P8H7",
    "result": []
  },
  {
    "postal": "L4P5P1",
    "result": []
  },
  {
    "postal": "L4P2B8",
    "result": [
      {
        "electoralDistricts": [
          {
            "election": null,
            "id": 121,
            "name": "York—Simcoe"
          }
        ],
        "pollDivisionIds": [
          10142925,
          10142926
        ],
        "postalCode": "L4P2B8",
        "streetName": "THE QUEENSWAY",
        "streetDirectionId": "S",
        "streetTypeId": null,
        "placeName": "KESWICK",
        "streetNameDisplayText": "THE QUEENSWAY S, KESWICK"
      }
    ]
  },
  {
    "postal": "L4P0P2",
    "result": []
  },
  {
    "postal": "L4P9M1",
    "result": []
  },
  {
    "postal": "L4P3G0",
    "result": []
  },
  {
    "postal": "L4P9Z2",
    "result": []
  },
  {
    "postal": "L4P2A0",
    "result": []
  },
  {
    "postal": "L4P6Y0",
    "result": []
  },
  {
    "postal": "L4P2Z8",
    "result": [
      {
        "electoralDistricts": [
          {
            "election": null,
            "id": 121,
            "name": "York—Simcoe"
          }
        ],
        "pollDivisionIds": [
          10142926
        ],
        "postalCode": "L4P2Z8",
        "streetName": "HOLLYWOOD",
        "streetDirectionId": null,
        "streetTypeId": "DR",
        "placeName": "KESWICK",
        "streetNameDisplayText": "HOLLYWOOD DR, KESWICK"
      }
    ]
  },
  {
    "postal": "L4P7Y3",
    "result": []
  },
  {
    "postal": "L4P6Z5",
    "result": []
  },
  {
    "postal": "L4P6E0",
    "result": []
  },
  {
    "postal": "L4P9B7",
    "result": []
  },
  {
    "postal": "L4P9S5",
    "result": []
  },
  {
    "postal": "L4P3X3",
    "result": [
      {
        "electoralDistricts": [
          {
            "election": null,
            "id": 121,
            "name": "York—Simcoe"
          }
        ],
        "pollDivisionIds": [
          10142924
        ],
        "postalCode": "L4P3X3",
        "streetName": "IVEAGH",
        "streetDirectionId": null,
        "streetTypeId": "DR",
        "placeName": "KESWICK",
        "streetNameDisplayText": "IVEAGH DR, KESWICK"
      }
    ]
  },
  {
    "postal": "L4P7R5",
    "result": []
  },
  {
    "postal": "L4P2X3",
    "result": [
      {
        "electoralDistricts": [
          {
            "election": null,
            "id": 121,
            "name": "York—Simcoe"
          }
        ],
        "pollDivisionIds": [
          10142926
        ],
        "postalCode": "L4P2X3",
        "streetName": "PARKWOOD",
        "streetDirectionId": null,
        "streetTypeId": "AVE",
        "placeName": "KESWICK",
        "streetNameDisplayText": "PARKWOOD AVE, KESWICK"
      }
    ]
  },
  {
    "postal": "L4P8Z9",
    "result": []
  },
  {
    "postal": "L4P0N4",
    "result": []
  },
  {
    "postal": "L4P1K1",
    "result": [
      {
        "electoralDistricts": [
          {
            "election": null,
            "id": 121,
            "name": "York—Simcoe"
          }
        ],
        "pollDivisionIds": [
          10142923
        ],
        "postalCode": "L4P1K1",
        "streetName": "CHURCH",
        "streetDirectionId": null,
        "streetTypeId": "ST",
        "placeName": "KESWICK",
        "streetNameDisplayText": "CHURCH ST, KESWICK"
      }
    ]
  },
  {
    "postal": "L4P1S3",
    "result": [
      {
        "electoralDistricts": [
          {
            "election": null,
            "id": 121,
            "name": "York—Simcoe"
          }
        ],
        "pollDivisionIds": [
          10142926
        ],
        "postalCode": "L4P1S3",
        "streetName": "LAKE",
        "streetDirectionId": "S",
        "streetTypeId": "DR",
        "placeName": "KESWICK",
        "streetNameDisplayText": "LAKE DR S, KESWICK"
      }
    ]
  },
  {
    "postal": "L4P6M4",
    "result": []
  },
  {
    "postal": "L4P9A9",
    "result": []
  },
  {
    "postal": "L4P9Z9",
    "result": []
  },
  {
    "postal": "L4P6T4",
    "result": []
  },
  {
    "postal": "L4P0B2",
    "result": [
      {
        "electoralDistricts": [
          {
            "election": null,
            "id": 121,
            "name": "York—Simcoe"
          }
        ],
        "pollDivisionIds": [
          10142927
        ],
        "postalCode": "L4P0B2",
        "streetName": "FRED MASON",
        "streetDirectionId": null,
        "streetTypeId": "ST",
        "placeName": "KESWICK",
        "streetNameDisplayText": "FRED MASON ST, KESWICK"
      },
      {
        "electoralDistricts": [
          {
            "election": null,
            "id": 121,
            "name": "York—Simcoe"
          }
        ],
        "pollDivisionIds": [
          10142927
        ],
        "postalCode": "L4P0B2",
        "streetName": "THORNLODGE",
        "streetDirectionId": null,
        "streetTypeId": "DR",
        "placeName": "KESWICK",
        "streetNameDisplayText": "THORNLODGE DR, KESWICK"
      }
    ]
  },
  {
    "postal": "L4P2L9",
    "result": [
      {
        "electoralDistricts": [
          {
            "election": null,
            "id": 121,
            "name": "York—Simcoe"
          }
        ],
        "pollDivisionIds": [
          10142923
        ],
        "postalCode": "L4P2L9",
        "streetName": "BEACH",
        "streetDirectionId": null,
        "streetTypeId": "RD",
        "placeName": "KESWICK",
        "streetNameDisplayText": "BEACH RD, KESWICK"
      }
    ]
  },
  {
    "postal": "L4P8K9",
    "result": []
  },
  {
    "postal": "L4P2H9",
    "result": [
      {
        "electoralDistricts": [
          {
            "election": null,
            "id": 121,
            "name": "York—Simcoe"
          }
        ],
        "pollDivisionIds": [
          10142923
        ],
        "postalCode": "L4P2H9",
        "streetName": "SIMCOE",
        "streetDirectionId": null,
        "streetTypeId": "AVE",
        "placeName": "KESWICK",
        "streetNameDisplayText": "SIMCOE AVE, KESWICK"
      }
    ]
  },
  {
    "postal": "L4P3Z6",
    "result": [
      {
        "electoralDistricts": [
          {
            "election": null,
            "id": 121,
            "name": "York—Simcoe"
          }
        ],
        "pollDivisionIds": [
          10142926
        ],
        "postalCode": "L4P3Z6",
        "streetName": "RAINBOW",
        "streetDirectionId": null,
        "streetTypeId": "CRT",
        "placeName": "KESWICK",
        "streetNameDisplayText": "RAINBOW CRT, KESWICK"
      }
    ]
  },
  {
    "postal": "L4P3B0",
    "result": []
  },
  {
    "postal": "L4P2H8",
    "result": [
      {
        "electoralDistricts": [
          {
            "election": null,
            "id": 121,
            "name": "York—Simcoe"
          }
        ],
        "pollDivisionIds": [
          10142923
        ],
        "postalCode": "L4P2H8",
        "streetName": "SIMCOE",
        "streetDirectionId": null,
        "streetTypeId": "AVE",
        "placeName": "KESWICK",
        "streetNameDisplayText": "SIMCOE AVE, KESWICK"
      }
    ]
  },
  {
    "postal": "L4P3X2",
    "result": [
      {
        "electoralDistricts": [
          {
            "election": null,
            "id": 121,
            "name": "York—Simcoe"
          }
        ],
        "pollDivisionIds": [
          10142924
        ],
        "postalCode": "L4P3X2",
        "streetName": "IVEAGH",
        "streetDirectionId": null,
        "streetTypeId": "DR",
        "placeName": "KESWICK",
        "streetNameDisplayText": "IVEAGH DR, KESWICK"
      },
      {
        "electoralDistricts": [
          {
            "election": null,
            "id": 121,
            "name": "York—Simcoe"
          }
        ],
        "pollDivisionIds": [
          10142924
        ],
        "postalCode": "L4P3X2",
        "streetName": "MARGARET",
        "streetDirectionId": null,
        "streetTypeId": "PL",
        "placeName": "KESWICK",
        "streetNameDisplayText": "MARGARET PL, KESWICK"
      }
    ]
  },
  {
    "postal": "L4P2E9",
    "result": [
      {
        "electoralDistricts": [
          {
            "election": null,
            "id": 121,
            "name": "York—Simcoe"
          }
        ],
        "pollDivisionIds": [
          10142926
        ],
        "postalCode": "L4P2E9",
        "streetName": "THE QUEENSWAY",
        "streetDirectionId": "S",
        "streetTypeId": null,
        "placeName": "KESWICK",
        "streetNameDisplayText": "THE QUEENSWAY S, KESWICK"
      }
    ]
  },
  {
    "postal": "L4P9P6",
    "result": []
  },
  {
    "postal": "L4P9E2",
    "result": []
  },
  {
    "postal": "L4P9H2",
    "result": []
  },
  {
    "postal": "L4P1S8",
    "result": [
      {
        "electoralDistricts": [
          {
            "election": null,
            "id": 121,
            "name": "York—Simcoe"
          }
        ],
        "pollDivisionIds": [
          10142926
        ],
        "postalCode": "L4P1S8",
        "streetName": "LAKE",
        "streetDirectionId": "S",
        "streetTypeId": "DR",
        "placeName": "KESWICK",
        "streetNameDisplayText": "LAKE DR S, KESWICK"
      }
    ]
  },
  {
    "postal": "L4P3M6",
    "result": [
      {
        "electoralDistricts": [
          {
            "election": null,
            "id": 121,
            "name": "York—Simcoe"
          }
        ],
        "pollDivisionIds": [
          10142926
        ],
        "postalCode": "L4P3M6",
        "streetName": "ATHERTON",
        "streetDirectionId": null,
        "streetTypeId": "CRES",
        "placeName": "KESWICK",
        "streetNameDisplayText": "ATHERTON CRES, KESWICK"
      }
    ]
  },
  {
    "postal": "L4P6Z8",
    "result": []
  },
  {
    "postal": "L4P4J2",
    "result": []
  },
  {
    "postal": "L4P9Y1",
    "result": []
  },
  {
    "postal": "L4P8V6",
    "result": []
  },
  {
    "postal": "L4P6B2",
    "result": []
  },
  {
    "postal": "L4P1P8",
    "result": [
      {
        "electoralDistricts": [
          {
            "election": null,
            "id": 121,
            "name": "York—Simcoe"
          }
        ],
        "pollDivisionIds": [
          10142926
        ],
        "postalCode": "L4P1P8",
        "streetName": "LAKE",
        "streetDirectionId": "S",
        "streetTypeId": "DR",
        "placeName": "KESWICK",
        "streetNameDisplayText": "LAKE DR S, KESWICK"
      }
    ]
  },
  {
    "postal": "L4P0V8",
    "result": []
  },
  {
    "postal": "L4P4Y0",
    "result": []
  },
  {
    "postal": "L4P2T4",
    "result": [
      {
        "electoralDistricts": [
          {
            "election": null,
            "id": 121,
            "name": "York—Simcoe"
          }
        ],
        "pollDivisionIds": [
          10142926
        ],
        "postalCode": "L4P2T4",
        "streetName": "BAYVIEW",
        "streetDirectionId": null,
        "streetTypeId": "AVE",
        "placeName": "KESWICK",
        "streetNameDisplayText": "BAYVIEW AVE, KESWICK"
      }
    ]
  },
  {
    "postal": "L4P2S3",
    "result": [
      {
        "electoralDistricts": [
          {
            "election": null,
            "id": 121,
            "name": "York—Simcoe"
          }
        ],
        "pollDivisionIds": [
          10142926
        ],
        "postalCode": "L4P2S3",
        "streetName": "WATERBEND",
        "streetDirectionId": null,
        "streetTypeId": "DR",
        "placeName": "KESWICK",
        "streetNameDisplayText": "WATERBEND DR, KESWICK"
      }
    ]
  },
  {
    "postal": "L4P0K0",
    "result": []
  },
  {
    "postal": "L4P5N1",
    "result": []
  },
  {
    "postal": "L4P7T0",
    "result": []
  },
  {
    "postal": "L4P9N2",
    "result": []
  },
  {
    "postal": "L4P5L1",
    "result": []
  },
  {
    "postal": "L4P7G5",
    "result": []
  },
  {
    "postal": "L4P6K2",
    "result": []
  },
  {
    "postal": "L4P6P9",
    "result": []
  },
  {
    "postal": "L4P0E6",
    "result": [
      {
        "electoralDistricts": [
          {
            "election": null,
            "id": 121,
            "name": "York—Simcoe"
          }
        ],
        "pollDivisionIds": [
          10142919
        ],
        "postalCode": "L4P0E6",
        "streetName": "CASERTA",
        "streetDirectionId": null,
        "streetTypeId": "ST",
        "placeName": "KESWICK",
        "streetNameDisplayText": "CASERTA ST, KESWICK"
      }
    ]
  },
  {
    "postal": "L4P8R9",
    "result": []
  },
  {
    "postal": "L4P3G9",
    "result": [
      {
        "electoralDistricts": [
          {
            "election": null,
            "id": 121,
            "name": "York—Simcoe"
          }
        ],
        "pollDivisionIds": [
          10142923
        ],
        "postalCode": "L4P3G9",
        "streetName": "FLEMING",
        "streetDirectionId": null,
        "streetTypeId": "CRT",
        "placeName": "KESWICK",
        "streetNameDisplayText": "FLEMING CRT, KESWICK"
      }
    ]
  },
  {
    "postal": "L4P0V7",
    "result": []
  },
  {
    "postal": "L4P2Z1",
    "result": [
      {
        "electoralDistricts": [
          {
            "election": null,
            "id": 121,
            "name": "York—Simcoe"
          }
        ],
        "pollDivisionIds": [
          10142926
        ],
        "postalCode": "L4P2Z1",
        "streetName": "PASADENA",
        "streetDirectionId": null,
        "streetTypeId": "DR",
        "placeName": "KESWICK",
        "streetNameDisplayText": "PASADENA DR, KESWICK"
      }
    ]
  },
  {
    "postal": "L4P7N1",
    "result": []
  },
  {
    "postal": "L4P3C6",
    "result": [
      {
        "electoralDistricts": [
          {
            "election": null,
            "id": 121,
            "name": "York—Simcoe"
          }
        ],
        "pollDivisionIds": [
          10142927
        ],
        "postalCode": "L4P3C6",
        "streetName": "MCMILLAN",
        "streetDirectionId": null,
        "streetTypeId": "DR",
        "placeName": "KESWICK",
        "streetNameDisplayText": "MCMILLAN DR, KESWICK"
      },
      {
        "electoralDistricts": [
          {
            "election": null,
            "id": 121,
            "name": "York—Simcoe"
          }
        ],
        "pollDivisionIds": [
          10142919
        ],
        "postalCode": "L4P3C6",
        "streetName": "PINE POST",
        "streetDirectionId": null,
        "streetTypeId": "RD",
        "placeName": "ROCHES POINT",
        "streetNameDisplayText": "PINE POST RD, ROCHES POINT"
      }
    ]
  },
  {
    "postal": "L4P4M1",
    "result": []
  },
  {
    "postal": "L4P9K2",
    "result": []
  },
  {
    "postal": "L4P9S6",
    "result": []
  },
  {
    "postal": "L4P4X1",
    "result": []
  },
  {
    "postal": "L4P8W2",
    "result": []
  },
  {
    "postal": "L4P7N2",
    "result": []
  },
  {
    "postal": "L4P8S3",
    "result": []
  },
  {
    "postal": "L4P4V0",
    "result": []
  },
  {
    "postal": "L4P6W4",
    "result": []
  },
  {
    "postal": "L4P5M1",
    "result": []
  },
  {
    "postal": "L4P0S4",
    "result": []
  },
  {
    "postal": "L4P5X6",
    "result": []
  },
  {
    "postal": "L4P8L5",
    "result": []
  },
  {
    "postal": "L4P5M8",
    "result": []
  },
  {
    "postal": "L4P2G3",
    "result": [
      {
        "electoralDistricts": [
          {
            "election": null,
            "id": 121,
            "name": "York—Simcoe"
          }
        ],
        "pollDivisionIds": [
          10142927
        ],
        "postalCode": "L4P2G3",
        "streetName": "THE QUEENSWAY",
        "streetDirectionId": "S",
        "streetTypeId": null,
        "placeName": "KESWICK",
        "streetNameDisplayText": "THE QUEENSWAY S, KESWICK"
      }
    ]
  },
  {
    "postal": "L4P8E4",
    "result": []
  },
  {
    "postal": "L4P7S9",
    "result": []
  },
  {
    "postal": "L4P1K3",
    "result": [
      {
        "electoralDistricts": [
          {
            "election": null,
            "id": 121,
            "name": "York—Simcoe"
          }
        ],
        "pollDivisionIds": [
          10142923
        ],
        "postalCode": "L4P1K3",
        "streetName": "CHURCH",
        "streetDirectionId": null,
        "streetTypeId": "ST",
        "placeName": "KESWICK",
        "streetNameDisplayText": "CHURCH ST, KESWICK"
      }
    ]
  },
  {
    "postal": "L4P4E1",
    "result": [
      {
        "electoralDistricts": [
          {
            "election": null,
            "id": 121,
            "name": "York—Simcoe"
          }
        ],
        "pollDivisionIds": [
          10142926
        ],
        "postalCode": "L4P4E1",
        "streetName": "PARKWAY",
        "streetDirectionId": null,
        "streetTypeId": "AVE",
        "placeName": "KESWICK",
        "streetNameDisplayText": "PARKWAY AVE, KESWICK"
      }
    ]
  },
  {
    "postal": "L4P4R2",
    "result": []
  },
  {
    "postal": "L4P6T0",
    "result": []
  },
  {
    "postal": "L4P3K5",
    "result": [
      {
        "electoralDistricts": [
          {
            "election": null,
            "id": 121,
            "name": "York—Simcoe"
          }
        ],
        "pollDivisionIds": [
          10142926
        ],
        "postalCode": "L4P3K5",
        "streetName": "LOWNDES",
        "streetDirectionId": null,
        "streetTypeId": "AVE",
        "placeName": "KESWICK",
        "streetNameDisplayText": "LOWNDES AVE, KESWICK"
      }
    ]
  },
  {
    "postal": "L4P3S3",
    "result": [
      {
        "electoralDistricts": [
          {
            "election": null,
            "id": 121,
            "name": "York—Simcoe"
          }
        ],
        "pollDivisionIds": [
          10142925
        ],
        "postalCode": "L4P3S3",
        "streetName": "BESSBOROUGH",
        "streetDirectionId": null,
        "streetTypeId": "RD",
        "placeName": "KESWICK",
        "streetNameDisplayText": "BESSBOROUGH RD, KESWICK"
      }
    ]
  },
  {
    "postal": "L4P3L4",
    "result": [
      {
        "electoralDistricts": [
          {
            "election": null,
            "id": 121,
            "name": "York—Simcoe"
          }
        ],
        "pollDivisionIds": [
          10142925
        ],
        "postalCode": "L4P3L4",
        "streetName": "CASTILLE",
        "streetDirectionId": null,
        "streetTypeId": "CRES",
        "placeName": "KESWICK",
        "streetNameDisplayText": "CASTILLE CRES, KESWICK"
      }
    ]
  },
  {
    "postal": "L4P9Y2",
    "result": []
  },
  {
    "postal": "L4P1E0",
    "result": []
  },
  {
    "postal": "L4P9A4",
    "result": []
  },
  {
    "postal": "L4P1L3",
    "result": [
      {
        "electoralDistricts": [
          {
            "election": null,
            "id": 121,
            "name": "York—Simcoe"
          }
        ],
        "pollDivisionIds": [
          10142923
        ],
        "postalCode": "L4P1L3",
        "streetName": "SHORELINE",
        "streetDirectionId": null,
        "streetTypeId": "PL",
        "placeName": "KESWICK",
        "streetNameDisplayText": "SHORELINE PL, KESWICK"
      }
    ]
  },
  {
    "postal": "L4P6N1",
    "result": []
  },
  {
    "postal": "L4P6G7",
    "result": []
  },
  {
    "postal": "L4P7W1",
    "result": []
  },
  {
    "postal": "L4P4M6",
    "result": []
  },
  {
    "postal": "L4P1K0",
    "result": []
  },
  {
    "postal": "L4P3E2",
    "result": []
  },
  {
    "postal": "L4P5H4",
    "result": []
  },
  {
    "postal": "L4P1K7",
    "result": [
      {
        "electoralDistricts": [
          {
            "election": null,
            "id": 121,
            "name": "York—Simcoe"
          }
        ],
        "pollDivisionIds": [
          10142927
        ],
        "postalCode": "L4P1K7",
        "streetName": "ROBERT",
        "streetDirectionId": null,
        "streetTypeId": "ST",
        "placeName": "KESWICK",
        "streetNameDisplayText": "ROBERT ST, KESWICK"
      }
    ]
  },
  {
    "postal": "L4P0H0",
    "result": []
  },
  {
    "postal": "L4P0J3",
    "result": []
  },
  {
    "postal": "L4P1X6",
    "result": [
      {
        "electoralDistricts": [
          {
            "election": null,
            "id": 121,
            "name": "York—Simcoe"
          }
        ],
        "pollDivisionIds": [
          10142926
        ],
        "postalCode": "L4P1X6",
        "streetName": "PINEWAY",
        "streetDirectionId": null,
        "streetTypeId": "AVE",
        "placeName": "KESWICK",
        "streetNameDisplayText": "PINEWAY AVE, KESWICK"
      }
    ]
  },
  {
    "postal": "L4P2Z6",
    "result": [
      {
        "electoralDistricts": [
          {
            "election": null,
            "id": 121,
            "name": "York—Simcoe"
          }
        ],
        "pollDivisionIds": [
          10142926
        ],
        "postalCode": "L4P2Z6",
        "streetName": "MIAMI",
        "streetDirectionId": null,
        "streetTypeId": "DR",
        "placeName": "KESWICK",
        "streetNameDisplayText": "MIAMI DR, KESWICK"
      }
    ]
  },
  {
    "postal": "L4P4R9",
    "result": []
  },
  {
    "postal": "L4P0W8",
    "result": []
  },
  {
    "postal": "L4P1L4",
    "result": [
      {
        "electoralDistricts": [
          {
            "election": null,
            "id": 121,
            "name": "York—Simcoe"
          }
        ],
        "pollDivisionIds": [
          10142923
        ],
        "postalCode": "L4P1L4",
        "streetName": "SHORELINE",
        "streetDirectionId": null,
        "streetTypeId": "PL",
        "placeName": "KESWICK",
        "streetNameDisplayText": "SHORELINE PL, KESWICK"
      }
    ]
  },
  {
    "postal": "L4P0C8",
    "result": [
      {
        "electoralDistricts": [
          {
            "election": null,
            "id": 121,
            "name": "York—Simcoe"
          }
        ],
        "pollDivisionIds": [
          10142927
        ],
        "postalCode": "L4P0C8",
        "streetName": "STRATHGREEN",
        "streetDirectionId": null,
        "streetTypeId": "LANE",
        "placeName": "KESWICK",
        "streetNameDisplayText": "STRATHGREEN LANE, KESWICK"
      },
      {
        "electoralDistricts": [
          {
            "election": null,
            "id": 121,
            "name": "York—Simcoe"
          }
        ],
        "pollDivisionIds": [
          10142927
        ],
        "postalCode": "L4P0C8",
        "streetName": "TERRELL",
        "streetDirectionId": null,
        "streetTypeId": "AVE",
        "placeName": "KESWICK",
        "streetNameDisplayText": "TERRELL AVE, KESWICK"
      }
    ]
  },
  {
    "postal": "L4P9X7",
    "result": []
  },
  {
    "postal": "L4P4T1",
    "result": []
  },
  {
    "postal": "L4P0M0",
    "result": []
  },
  {
    "postal": "L4P6A2",
    "result": []
  },
  {
    "postal": "L4P9S8",
    "result": []
  },
  {
    "postal": "L4P9T4",
    "result": []
  },
  {
    "postal": "L4P9Y4",
    "result": []
  },
  {
    "postal": "L4P6G5",
    "result": []
  },
  {
    "postal": "L4P6H9",
    "result": []
  },
  {
    "postal": "L4P2P3",
    "result": [
      {
        "electoralDistricts": [
          {
            "election": null,
            "id": 121,
            "name": "York—Simcoe"
          }
        ],
        "pollDivisionIds": [
          10142924
        ],
        "postalCode": "L4P2P3",
        "streetName": "RIVEREDGE",
        "streetDirectionId": null,
        "streetTypeId": "DR",
        "placeName": "KESWICK",
        "streetNameDisplayText": "RIVEREDGE DR, KESWICK"
      }
    ]
  },
  {
    "postal": "L4P1T6",
    "result": [
      {
        "electoralDistricts": [
          {
            "election": null,
            "id": 121,
            "name": "York—Simcoe"
          }
        ],
        "pollDivisionIds": [
          10142927
        ],
        "postalCode": "L4P1T6",
        "streetName": "LAKE",
        "streetDirectionId": "S",
        "streetTypeId": "DR",
        "placeName": "KESWICK",
        "streetNameDisplayText": "LAKE DR S, KESWICK"
      }
    ]
  },
  {
    "postal": "L4P4P6",
    "result": []
  },
  {
    "postal": "L4P3K1",
    "result": [
      {
        "electoralDistricts": [
          {
            "election": null,
            "id": 121,
            "name": "York—Simcoe"
          }
        ],
        "pollDivisionIds": [
          10142926
        ],
        "postalCode": "L4P3K1",
        "streetName": "LOWNDES",
        "streetDirectionId": null,
        "streetTypeId": "AVE",
        "placeName": "KESWICK",
        "streetNameDisplayText": "LOWNDES AVE, KESWICK"
      }
    ]
  },
  {
    "postal": "L4P6X4",
    "result": []
  },
  {
    "postal": "L4P4M8",
    "result": []
  },
  {
    "postal": "L4P2Y1",
    "result": []
  },
  {
    "postal": "L4P6M1",
    "result": []
  },
  {
    "postal": "L4P5L8",
    "result": []
  },
  {
    "postal": "L4P3P6",
    "result": [
      {
        "electoralDistricts": [
          {
            "election": null,
            "id": 121,
            "name": "York—Simcoe"
          }
        ],
        "pollDivisionIds": [
          10142924
        ],
        "postalCode": "L4P3P6",
        "streetName": "KYLE",
        "streetDirectionId": null,
        "streetTypeId": "CRES",
        "placeName": "KESWICK",
        "streetNameDisplayText": "KYLE CRES, KESWICK"
      }
    ]
  },
  {
    "postal": "L4P9A5",
    "result": []
  },
  {
    "postal": "L4P7K1",
    "result": []
  },
  {
    "postal": "L4P3J4",
    "result": [
      {
        "electoralDistricts": [
          {
            "election": null,
            "id": 121,
            "name": "York—Simcoe"
          }
        ],
        "pollDivisionIds": [
          10142926
        ],
        "postalCode": "L4P3J4",
        "streetName": "THE QUEENSWAY",
        "streetDirectionId": "S",
        "streetTypeId": null,
        "placeName": "KESWICK",
        "streetNameDisplayText": "THE QUEENSWAY S, KESWICK"
      }
    ]
  },
  {
    "postal": "L4P5E7",
    "result": []
  },
  {
    "postal": "L4P3A7",
    "result": [
      {
        "electoralDistricts": [
          {
            "election": null,
            "id": 121,
            "name": "York—Simcoe"
          }
        ],
        "pollDivisionIds": [
          10142927
        ],
        "postalCode": "L4P3A7",
        "streetName": "WALTER",
        "streetDirectionId": null,
        "streetTypeId": "DR",
        "placeName": "KESWICK",
        "streetNameDisplayText": "WALTER DR, KESWICK"
      }
    ]
  },
  {
    "postal": "L4P1B9",
    "result": [
      {
        "electoralDistricts": [
          {
            "election": null,
            "id": 121,
            "name": "York—Simcoe"
          }
        ],
        "pollDivisionIds": [
          10142923
        ],
        "postalCode": "L4P1B9",
        "streetName": "METRO",
        "streetDirectionId": "N",
        "streetTypeId": "RD",
        "placeName": "KESWICK",
        "streetNameDisplayText": "METRO RD N, KESWICK"
      }
    ]
  },
  {
    "postal": "L4P9E8",
    "result": []
  },
  {
    "postal": "L4P1C9",
    "result": [
      {
        "electoralDistricts": [
          {
            "election": null,
            "id": 121,
            "name": "York—Simcoe"
          }
        ],
        "pollDivisionIds": [
          10142923
        ],
        "postalCode": "L4P1C9",
        "streetName": "MEDINA",
        "streetDirectionId": null,
        "streetTypeId": "SQ",
        "placeName": "KESWICK",
        "streetNameDisplayText": "MEDINA SQ, KESWICK"
      }
    ]
  },
  {
    "postal": "L4P3B5",
    "result": [
      {
        "electoralDistricts": [
          {
            "election": null,
            "id": 121,
            "name": "York—Simcoe"
          }
        ],
        "pollDivisionIds": [
          10142927
        ],
        "postalCode": "L4P3B5",
        "streetName": "WINNIFRED",
        "streetDirectionId": null,
        "streetTypeId": "DR",
        "placeName": "KESWICK",
        "streetNameDisplayText": "WINNIFRED DR, KESWICK"
      }
    ]
  },
  {
    "postal": "L4P8R0",
    "result": []
  },
  {
    "postal": "L4P3P2",
    "result": [
      {
        "electoralDistricts": [
          {
            "election": null,
            "id": 121,
            "name": "York—Simcoe"
          }
        ],
        "pollDivisionIds": [
          10142924
        ],
        "postalCode": "L4P3P2",
        "streetName": "CARRICK",
        "streetDirectionId": null,
        "streetTypeId": "AVE",
        "placeName": "KESWICK",
        "streetNameDisplayText": "CARRICK AVE, KESWICK"
      },
      {
        "electoralDistricts": [
          {
            "election": null,
            "id": 121,
            "name": "York—Simcoe"
          }
        ],
        "pollDivisionIds": [
          10142924
        ],
        "postalCode": "L4P3P2",
        "streetName": "FONTAINE",
        "streetDirectionId": null,
        "streetTypeId": "DR",
        "placeName": "KESWICK",
        "streetNameDisplayText": "FONTAINE DR, KESWICK"
      }
    ]
  },
  {
    "postal": "L4P5V4",
    "result": []
  },
  {
    "postal": "L4P4H0",
    "result": []
  },
  {
    "postal": "L4P4S7",
    "result": []
  },
  {
    "postal": "L4P6C2",
    "result": []
  },
  {
    "postal": "L4P8W3",
    "result": []
  },
  {
    "postal": "L4P4M5",
    "result": []
  },
  {
    "postal": "L4P5T1",
    "result": []
  },
  {
    "postal": "L4P3B3",
    "result": [
      {
        "electoralDistricts": [
          {
            "election": null,
            "id": 121,
            "name": "York—Simcoe"
          }
        ],
        "pollDivisionIds": [
          10142927
        ],
        "postalCode": "L4P3B3",
        "streetName": "IRENE",
        "streetDirectionId": null,
        "streetTypeId": "DR",
        "placeName": "KESWICK",
        "streetNameDisplayText": "IRENE DR, KESWICK"
      }
    ]
  },
  {
    "postal": "L4P6C6",
    "result": []
  },
  {
    "postal": "L4P7N8",
    "result": []
  },
  {
    "postal": "L4P2Y3",
    "result": [
      {
        "electoralDistricts": [
          {
            "election": null,
            "id": 121,
            "name": "York—Simcoe"
          }
        ],
        "pollDivisionIds": [
          10142926
        ],
        "postalCode": "L4P2Y3",
        "streetName": "LAKEVIEW",
        "streetDirectionId": null,
        "streetTypeId": "BLVD",
        "placeName": "KESWICK",
        "streetNameDisplayText": "LAKEVIEW BLVD, KESWICK"
      }
    ]
  },
  {
    "postal": "L4P2R6",
    "result": [
      {
        "electoralDistricts": [
          {
            "election": null,
            "id": 121,
            "name": "York—Simcoe"
          }
        ],
        "pollDivisionIds": [
          10142925
        ],
        "postalCode": "L4P2R6",
        "streetName": "WYNHURST",
        "streetDirectionId": null,
        "streetTypeId": "RD",
        "placeName": "KESWICK",
        "streetNameDisplayText": "WYNHURST RD, KESWICK"
      }
    ]
  },
  {
    "postal": "L4P7N3",
    "result": []
  },
  {
    "postal": "L4P8J2",
    "result": []
  },
  {
    "postal": "L4P6A9",
    "result": []
  },
  {
    "postal": "L4P3V2",
    "result": [
      {
        "electoralDistricts": [
          {
            "election": null,
            "id": 121,
            "name": "York—Simcoe"
          }
        ],
        "pollDivisionIds": [
          10142923
        ],
        "postalCode": "L4P3V2",
        "streetName": "COOKS BAY",
        "streetDirectionId": null,
        "streetTypeId": "DR",
        "placeName": "KESWICK",
        "streetNameDisplayText": "COOKS BAY DR, KESWICK"
      }
    ]
  },
  {
    "postal": "L4P2N3",
    "result": [
      {
        "electoralDistricts": [
          {
            "election": null,
            "id": 121,
            "name": "York—Simcoe"
          }
        ],
        "pollDivisionIds": [
          10142923
        ],
        "postalCode": "L4P2N3",
        "streetName": "SOUTH CHANNEL",
        "streetDirectionId": null,
        "streetTypeId": "DR",
        "placeName": "KESWICK",
        "streetNameDisplayText": "SOUTH CHANNEL DR, KESWICK"
      }
    ]
  },
  {
    "postal": "L4P1S5",
    "result": [
      {
        "electoralDistricts": [
          {
            "election": null,
            "id": 121,
            "name": "York—Simcoe"
          }
        ],
        "pollDivisionIds": [
          10142926
        ],
        "postalCode": "L4P1S5",
        "streetName": "LAKE",
        "streetDirectionId": "S",
        "streetTypeId": "DR",
        "placeName": "KESWICK",
        "streetNameDisplayText": "LAKE DR S, KESWICK"
      }
    ]
  },
  {
    "postal": "L4P4T7",
    "result": []
  },
  {
    "postal": "L4P6Y7",
    "result": []
  },
  {
    "postal": "L4P0W7",
    "result": []
  },
  {
    "postal": "L4P2W9",
    "result": [
      {
        "electoralDistricts": [
          {
            "election": null,
            "id": 121,
            "name": "York—Simcoe"
          }
        ],
        "pollDivisionIds": [
          10142926
        ],
        "postalCode": "L4P2W9",
        "streetName": "GLENWOODS",
        "streetDirectionId": null,
        "streetTypeId": "AVE",
        "placeName": "KESWICK",
        "streetNameDisplayText": "GLENWOODS AVE, KESWICK"
      }
    ]
  },
  {
    "postal": "L4P8V0",
    "result": []
  },
  {
    "postal": "L4P0H4",
    "result": []
  },
  {
    "postal": "L4P2T1",
    "result": [
      {
        "electoralDistricts": [
          {
            "election": null,
            "id": 121,
            "name": "York—Simcoe"
          }
        ],
        "pollDivisionIds": [
          10142926
        ],
        "postalCode": "L4P2T1",
        "streetName": "BAYVIEW",
        "streetDirectionId": null,
        "streetTypeId": "AVE",
        "placeName": "KESWICK",
        "streetNameDisplayText": "BAYVIEW AVE, KESWICK"
      }
    ]
  },
  {
    "postal": "L4P1B1",
    "result": [
      {
        "electoralDistricts": [
          {
            "election": null,
            "id": 121,
            "name": "York—Simcoe"
          }
        ],
        "pollDivisionIds": [
          10142923
        ],
        "postalCode": "L4P1B1",
        "streetName": "ORANGE",
        "streetDirectionId": null,
        "streetTypeId": "CRT",
        "placeName": "KESWICK",
        "streetNameDisplayText": "ORANGE CRT, KESWICK"
      }
    ]
  },
  {
    "postal": "L4P8B6",
    "result": []
  },
  {
    "postal": "L4P6H1",
    "result": []
  },
  {
    "postal": "L4P8T8",
    "result": []
  },
  {
    "postal": "L4P0T4",
    "result": []
  },
  {
    "postal": "L4P2C4",
    "result": [
      {
        "electoralDistricts": [
          {
            "election": null,
            "id": 121,
            "name": "York—Simcoe"
          }
        ],
        "pollDivisionIds": [
          10142926
        ],
        "postalCode": "L4P2C4",
        "streetName": "THE QUEENSWAY",
        "streetDirectionId": "S",
        "streetTypeId": null,
        "placeName": "KESWICK",
        "streetNameDisplayText": "THE QUEENSWAY S, KESWICK"
      }
    ]
  },
  {
    "postal": "L4P8N3",
    "result": []
  },
  {
    "postal": "L4P4L8",
    "result": []
  },
  {
    "postal": "L4P2B5",
    "result": [
      {
        "electoralDistricts": [
          {
            "election": null,
            "id": 121,
            "name": "York—Simcoe"
          }
        ],
        "pollDivisionIds": [
          10142925
        ],
        "postalCode": "L4P2B5",
        "streetName": "THE QUEENSWAY",
        "streetDirectionId": "S",
        "streetTypeId": null,
        "placeName": "KESWICK",
        "streetNameDisplayText": "THE QUEENSWAY S, KESWICK"
      }
    ]
  },
  {
    "postal": "L4P3H1",
    "result": [
      {
        "electoralDistricts": [
          {
            "election": null,
            "id": 121,
            "name": "York—Simcoe"
          }
        ],
        "pollDivisionIds": [
          10142923
        ],
        "postalCode": "L4P3H1",
        "streetName": "DAVY POINT",
        "streetDirectionId": null,
        "streetTypeId": "CIR",
        "placeName": "KESWICK",
        "streetNameDisplayText": "DAVY POINT CIR, KESWICK"
      }
    ]
  },
  {
    "postal": "L4P4Y1",
    "result": []
  },
  {
    "postal": "L4P7E2",
    "result": []
  },
  {
    "postal": "L4P2P5",
    "result": []
  },
  {
    "postal": "L4P8R7",
    "result": []
  },
  {
    "postal": "L4P9P1",
    "result": []
  },
  {
    "postal": "L4P3B8",
    "result": [
      {
        "electoralDistricts": [
          {
            "election": null,
            "id": 121,
            "name": "York—Simcoe"
          }
        ],
        "pollDivisionIds": [
          10142927
        ],
        "postalCode": "L4P3B8",
        "streetName": "CRESTVIEW",
        "streetDirectionId": null,
        "streetTypeId": "BLVD",
        "placeName": "KESWICK",
        "streetNameDisplayText": "CRESTVIEW BLVD, KESWICK"
      }
    ]
  },
  {
    "postal": "L4P3P7",
    "result": [
      {
        "electoralDistricts": [
          {
            "election": null,
            "id": 121,
            "name": "York—Simcoe"
          }
        ],
        "pollDivisionIds": [
          10142924
        ],
        "postalCode": "L4P3P7",
        "streetName": "DOON",
        "streetDirectionId": null,
        "streetTypeId": "CRES",
        "placeName": "KESWICK",
        "streetNameDisplayText": "DOON CRES, KESWICK"
      },
      {
        "electoralDistricts": [
          {
            "election": null,
            "id": 121,
            "name": "York—Simcoe"
          }
        ],
        "pollDivisionIds": [
          10142924
        ],
        "postalCode": "L4P3P7",
        "streetName": "NATANYA",
        "streetDirectionId": null,
        "streetTypeId": "BLVD",
        "placeName": "KESWICK",
        "streetNameDisplayText": "NATANYA BLVD, KESWICK"
      },
      {
        "electoralDistricts": [
          {
            "election": null,
            "id": 121,
            "name": "York—Simcoe"
          }
        ],
        "pollDivisionIds": [
          10142924
        ],
        "postalCode": "L4P3P7",
        "streetName": "WEXFORD",
        "streetDirectionId": null,
        "streetTypeId": "DR",
        "placeName": "KESWICK",
        "streetNameDisplayText": "WEXFORD DR, KESWICK"
      }
    ]
  },
  {
    "postal": "L4P9B2",
    "result": []
  },
  {
    "postal": "L4P6Z3",
    "result": []
  },
  {
    "postal": "L4P4N5",
    "result": []
  },
  {
    "postal": "L4P8T3",
    "result": []
  },
  {
    "postal": "L4P1V2",
    "result": [
      {
        "electoralDistricts": [
          {
            "election": null,
            "id": 121,
            "name": "York—Simcoe"
          }
        ],
        "pollDivisionIds": [
          10142926
        ],
        "postalCode": "L4P1V2",
        "streetName": "LOVE'S",
        "streetDirectionId": null,
        "streetTypeId": "RD",
        "placeName": "KESWICK",
        "streetNameDisplayText": "LOVE'S RD, KESWICK"
      }
    ]
  },
  {
    "postal": "L4P1Y0",
    "result": []
  },
  {
    "postal": "L4P3G6",
    "result": [
      {
        "electoralDistricts": [
          {
            "election": null,
            "id": 121,
            "name": "York—Simcoe"
          }
        ],
        "pollDivisionIds": [
          10142923
        ],
        "postalCode": "L4P3G6",
        "streetName": "THE QUEENSWAY",
        "streetDirectionId": "S",
        "streetTypeId": null,
        "placeName": "KESWICK",
        "streetNameDisplayText": "THE QUEENSWAY S, KESWICK"
      }
    ]
  },
  {
    "postal": "L4P3H7",
    "result": [
      {
        "electoralDistricts": [
          {
            "election": null,
            "id": 121,
            "name": "York—Simcoe"
          }
        ],
        "pollDivisionIds": [
          10142923
        ],
        "postalCode": "L4P3H7",
        "streetName": "ANNAMARIA",
        "streetDirectionId": null,
        "streetTypeId": "DR",
        "placeName": "KESWICK",
        "streetNameDisplayText": "ANNAMARIA DR, KESWICK"
      }
    ]
  },
  {
    "postal": "L4P7X8",
    "result": []
  },
  {
    "postal": "L4P0C7",
    "result": [
      {
        "electoralDistricts": [
          {
            "election": null,
            "id": 121,
            "name": "York—Simcoe"
          }
        ],
        "pollDivisionIds": [
          10142927
        ],
        "postalCode": "L4P0C7",
        "streetName": "BACHE",
        "streetDirectionId": null,
        "streetTypeId": "AVE",
        "placeName": "KESWICK",
        "streetNameDisplayText": "BACHE AVE, KESWICK"
      },
      {
        "electoralDistricts": [
          {
            "election": null,
            "id": 121,
            "name": "York—Simcoe"
          }
        ],
        "pollDivisionIds": [
          10142927
        ],
        "postalCode": "L4P0C7",
        "streetName": "PAUL GRAVE",
        "streetDirectionId": null,
        "streetTypeId": "AVE",
        "placeName": "KESWICK",
        "streetNameDisplayText": "PAUL GRAVE AVE, KESWICK"
      },
      {
        "electoralDistricts": [
          {
            "election": null,
            "id": 121,
            "name": "York—Simcoe"
          }
        ],
        "pollDivisionIds": [
          10142927
        ],
        "postalCode": "L4P0C7",
        "streetName": "PAULGRAVE",
        "streetDirectionId": null,
        "streetTypeId": "AVE",
        "placeName": "KESWICK",
        "streetNameDisplayText": "PAULGRAVE AVE, KESWICK"
      },
      {
        "electoralDistricts": [
          {
            "election": null,
            "id": 121,
            "name": "York—Simcoe"
          }
        ],
        "pollDivisionIds": [
          10142927
        ],
        "postalCode": "L4P0C7",
        "streetName": "VIOLET",
        "streetDirectionId": null,
        "streetTypeId": "AVE",
        "placeName": "KESWICK",
        "streetNameDisplayText": "VIOLET AVE, KESWICK"
      }
    ]
  },
  {
    "postal": "L4P0W9",
    "result": []
  },
  {
    "postal": "L4P8E6",
    "result": []
  },
  {
    "postal": "L4P9Z8",
    "result": []
  },
  {
    "postal": "L4P3P4",
    "result": [
      {
        "electoralDistricts": [
          {
            "election": null,
            "id": 121,
            "name": "York—Simcoe"
          }
        ],
        "pollDivisionIds": [
          10142924
        ],
        "postalCode": "L4P3P4",
        "streetName": "KYLE",
        "streetDirectionId": null,
        "streetTypeId": "CRES",
        "placeName": "KESWICK",
        "streetNameDisplayText": "KYLE CRES, KESWICK"
      },
      {
        "electoralDistricts": [
          {
            "election": null,
            "id": 121,
            "name": "York—Simcoe"
          }
        ],
        "pollDivisionIds": [
          10142924
        ],
        "postalCode": "L4P3P4",
        "streetName": "WEXFORD",
        "streetDirectionId": null,
        "streetTypeId": "DR",
        "placeName": "KESWICK",
        "streetNameDisplayText": "WEXFORD DR, KESWICK"
      }
    ]
  },
  {
    "postal": "L4P6L8",
    "result": []
  },
  {
    "postal": "L4P2R4",
    "result": [
      {
        "electoralDistricts": [
          {
            "election": null,
            "id": 121,
            "name": "York—Simcoe"
          }
        ],
        "pollDivisionIds": [
          10142925
        ],
        "postalCode": "L4P2R4",
        "streetName": "BISCAYNE",
        "streetDirectionId": null,
        "streetTypeId": "BLVD",
        "placeName": "KESWICK",
        "streetNameDisplayText": "BISCAYNE BLVD, KESWICK"
      }
    ]
  },
  {
    "postal": "L4P2W1",
    "result": [
      {
        "electoralDistricts": [
          {
            "election": null,
            "id": 121,
            "name": "York—Simcoe"
          }
        ],
        "pollDivisionIds": [
          10142926
        ],
        "postalCode": "L4P2W1",
        "streetName": "PARKWAY",
        "streetDirectionId": null,
        "streetTypeId": "AVE",
        "placeName": "KESWICK",
        "streetNameDisplayText": "PARKWAY AVE, KESWICK"
      }
    ]
  },
  {
    "postal": "L4P9H8",
    "result": []
  },
  {
    "postal": "L4P8X9",
    "result": []
  },
  {
    "postal": "L4P7H4",
    "result": []
  },
  {
    "postal": "L4P3J1",
    "result": [
      {
        "electoralDistricts": [
          {
            "election": null,
            "id": 121,
            "name": "York—Simcoe"
          }
        ],
        "pollDivisionIds": [
          10142923
        ],
        "postalCode": "L4P3J1",
        "streetName": "ANNAMARIA",
        "streetDirectionId": null,
        "streetTypeId": "DR",
        "placeName": "KESWICK",
        "streetNameDisplayText": "ANNAMARIA DR, KESWICK"
      },
      {
        "electoralDistricts": [
          {
            "election": null,
            "id": 121,
            "name": "York—Simcoe"
          }
        ],
        "pollDivisionIds": [
          10142923
        ],
        "postalCode": "L4P3J1",
        "streetName": "OAKCREST",
        "streetDirectionId": null,
        "streetTypeId": "DR",
        "placeName": "KESWICK",
        "streetNameDisplayText": "OAKCREST DR, KESWICK"
      }
    ]
  },
  {
    "postal": "L4P1P4",
    "result": [
      {
        "electoralDistricts": [
          {
            "election": null,
            "id": 121,
            "name": "York—Simcoe"
          }
        ],
        "pollDivisionIds": [
          10142926
        ],
        "postalCode": "L4P1P4",
        "streetName": "LAKE",
        "streetDirectionId": "S",
        "streetTypeId": "DR",
        "placeName": "KESWICK",
        "streetNameDisplayText": "LAKE DR S, KESWICK"
      }
    ]
  },
  {
    "postal": "L4P2A3",
    "result": [
      {
        "electoralDistricts": [
          {
            "election": null,
            "id": 121,
            "name": "York—Simcoe"
          }
        ],
        "pollDivisionIds": [
          10142924
        ],
        "postalCode": "L4P2A3",
        "streetName": "THE QUEENSWAY",
        "streetDirectionId": "S",
        "streetTypeId": null,
        "placeName": "KESWICK",
        "streetNameDisplayText": "THE QUEENSWAY S, KESWICK"
      }
    ]
  },
  {
    "postal": "L4P0Z1",
    "result": []
  },
  {
    "postal": "L4P1C1",
    "result": [
      {
        "electoralDistricts": [
          {
            "election": null,
            "id": 121,
            "name": "York—Simcoe"
          }
        ],
        "pollDivisionIds": [
          10142923
        ],
        "postalCode": "L4P1C1",
        "streetName": "METRO",
        "streetDirectionId": "N",
        "streetTypeId": "RD",
        "placeName": "KESWICK",
        "streetNameDisplayText": "METRO RD N, KESWICK"
      }
    ]
  },
  {
    "postal": "L4P0H3",
    "result": []
  },
  {
    "postal": "L4P7B0",
    "result": []
  },
  {
    "postal": "L4P5K2",
    "result": []
  },
  {
    "postal": "L4P1E9",
    "result": [
      {
        "electoralDistricts": [
          {
            "election": null,
            "id": 121,
            "name": "York—Simcoe"
          }
        ],
        "pollDivisionIds": [
          10142923
        ],
        "postalCode": "L4P1E9",
        "streetName": "ELMVIEW",
        "streetDirectionId": null,
        "streetTypeId": "GDNS",
        "placeName": "KESWICK",
        "streetNameDisplayText": "ELMVIEW GDNS, KESWICK"
      }
    ]
  },
  {
    "postal": "L4P9W7",
    "result": []
  },
  {
    "postal": "L4P5W6",
    "result": []
  },
  {
    "postal": "L4P6S6",
    "result": []
  },
  {
    "postal": "L4P2P8",
    "result": [
      {
        "electoralDistricts": [
          {
            "election": null,
            "id": 121,
            "name": "York—Simcoe"
          }
        ],
        "pollDivisionIds": [
          10142925
        ],
        "postalCode": "L4P2P8",
        "streetName": "RIVERGLEN",
        "streetDirectionId": null,
        "streetTypeId": "DR",
        "placeName": "KESWICK",
        "streetNameDisplayText": "RIVERGLEN DR, KESWICK"
      }
    ]
  },
  {
    "postal": "L4P4P8",
    "result": []
  },
  {
    "postal": "L4P0V9",
    "result": []
  },
  {
    "postal": "L4P5Y2",
    "result": []
  },
  {
    "postal": "L4P7Z7",
    "result": []
  },
  {
    "postal": "L4P6Y8",
    "result": []
  },
  {
    "postal": "L4P2G7",
    "result": [
      {
        "electoralDistricts": [
          {
            "election": null,
            "id": 121,
            "name": "York—Simcoe"
          }
        ],
        "pollDivisionIds": [
          10142927
        ],
        "postalCode": "L4P2G7",
        "streetName": "THE QUEENSWAY",
        "streetDirectionId": "S",
        "streetTypeId": null,
        "placeName": "KESWICK",
        "streetNameDisplayText": "THE QUEENSWAY S, KESWICK"
      }
    ]
  },
  {
    "postal": "L4P8C1",
    "result": []
  },
  {
    "postal": "L4P5C5",
    "result": []
  },
  {
    "postal": "L4P2X8",
    "result": [
      {
        "electoralDistricts": [
          {
            "election": null,
            "id": 121,
            "name": "York—Simcoe"
          }
        ],
        "pollDivisionIds": [
          10142926
        ],
        "postalCode": "L4P2X8",
        "streetName": "ELMDALE",
        "streetDirectionId": null,
        "streetTypeId": "AVE",
        "placeName": "KESWICK",
        "streetNameDisplayText": "ELMDALE AVE, KESWICK"
      }
    ]
  },
  {
    "postal": "L4P1W5",
    "result": [
      {
        "electoralDistricts": [
          {
            "election": null,
            "id": 121,
            "name": "York—Simcoe"
          }
        ],
        "pollDivisionIds": [
          10142923
        ],
        "postalCode": "L4P1W5",
        "streetName": "WAY'S BAY",
        "streetDirectionId": null,
        "streetTypeId": "DR",
        "placeName": "KESWICK",
        "streetNameDisplayText": "WAY'S BAY DR, KESWICK"
      }
    ]
  },
  {
    "postal": "L4P7G0",
    "result": []
  },
  {
    "postal": "L4P8J8",
    "result": []
  },
  {
    "postal": "L4P3Y0",
    "result": []
  },
  {
    "postal": "L4P9T7",
    "result": []
  },
  {
    "postal": "L4P5P4",
    "result": []
  },
  {
    "postal": "L4P4B0",
    "result": []
  },
  {
    "postal": "L4P9N8",
    "result": []
  },
  {
    "postal": "L4P4A7",
    "result": [
      {
        "electoralDistricts": [
          {
            "election": null,
            "id": 121,
            "name": "York—Simcoe"
          }
        ],
        "pollDivisionIds": [
          10142927
        ],
        "postalCode": "L4P4A7",
        "streetName": "BRECKEN",
        "streetDirectionId": null,
        "streetTypeId": "DR",
        "placeName": "KESWICK",
        "streetNameDisplayText": "BRECKEN DR, KESWICK"
      },
      {
        "electoralDistricts": [
          {
            "election": null,
            "id": 121,
            "name": "York—Simcoe"
          }
        ],
        "pollDivisionIds": [
          10142927
        ],
        "postalCode": "L4P4A7",
        "streetName": "LAURENDALE",
        "streetDirectionId": null,
        "streetTypeId": "AVE",
        "placeName": "KESWICK",
        "streetNameDisplayText": "LAURENDALE AVE, KESWICK"
      }
    ]
  },
  {
    "postal": "L4P4H9",
    "result": []
  },
  {
    "postal": "L4P6X1",
    "result": []
  },
  {
    "postal": "L4P9Y7",
    "result": []
  },
  {
    "postal": "L4P2Y5",
    "result": [
      {
        "electoralDistricts": [
          {
            "election": null,
            "id": 121,
            "name": "York—Simcoe"
          }
        ],
        "pollDivisionIds": [
          10142926
        ],
        "postalCode": "L4P2Y5",
        "streetName": "LAKEVIEW",
        "streetDirectionId": null,
        "streetTypeId": "BLVD",
        "placeName": "KESWICK",
        "streetNameDisplayText": "LAKEVIEW BLVD, KESWICK"
      }
    ]
  },
  {
    "postal": "L4P8L7",
    "result": []
  },
  {
    "postal": "L4P2A8",
    "result": [
      {
        "electoralDistricts": [
          {
            "election": null,
            "id": 121,
            "name": "York—Simcoe"
          }
        ],
        "pollDivisionIds": [
          10142924
        ],
        "postalCode": "L4P2A8",
        "streetName": "THE QUEENSWAY",
        "streetDirectionId": "S",
        "streetTypeId": null,
        "placeName": "KESWICK",
        "streetNameDisplayText": "THE QUEENSWAY S, KESWICK"
      }
    ]
  },
  {
    "postal": "L4P2K9",
    "result": [
      {
        "electoralDistricts": [
          {
            "election": null,
            "id": 121,
            "name": "York—Simcoe"
          }
        ],
        "pollDivisionIds": [
          10142923
        ],
        "postalCode": "L4P2K9",
        "streetName": "SPRING",
        "streetDirectionId": null,
        "streetTypeId": "RD",
        "placeName": "KESWICK",
        "streetNameDisplayText": "SPRING RD, KESWICK"
      }
    ]
  },
  {
    "postal": "L4P3E5",
    "result": []
  },
  {
    "postal": "L4P8N6",
    "result": []
  },
  {
    "postal": "L4P8J4",
    "result": []
  },
  {
    "postal": "L4P4R7",
    "result": []
  },
  {
    "postal": "L4P9K1",
    "result": []
  },
  {
    "postal": "L4P8E1",
    "result": []
  },
  {
    "postal": "L4P0R1",
    "result": []
  },
  {
    "postal": "L4P4J3",
    "result": []
  },
  {
    "postal": "L4P7E7",
    "result": []
  },
  {
    "postal": "L4P0J0",
    "result": []
  },
  {
    "postal": "L4P7R8",
    "result": []
  },
  {
    "postal": "L4P9X0",
    "result": []
  },
  {
    "postal": "L4P7P6",
    "result": []
  },
  {
    "postal": "L4P0R7",
    "result": []
  },
  {
    "postal": "L4P5W1",
    "result": []
  },
  {
    "postal": "L4P0K4",
    "result": []
  },
  {
    "postal": "L4P7N9",
    "result": []
  },
  {
    "postal": "L4P1N0",
    "result": []
  },
  {
    "postal": "L4P6P3",
    "result": []
  },
  {
    "postal": "L4P5A1",
    "result": []
  },
  {
    "postal": "L4P9M9",
    "result": []
  },
  {
    "postal": "L4P7T6",
    "result": []
  },
  {
    "postal": "L4P3X0",
    "result": []
  },
  {
    "postal": "L4P2T0",
    "result": []
  },
  {
    "postal": "L4P5X9",
    "result": []
  },
  {
    "postal": "L4P2R3",
    "result": [
      {
        "electoralDistricts": [
          {
            "election": null,
            "id": 121,
            "name": "York—Simcoe"
          }
        ],
        "pollDivisionIds": [
          10142925
        ],
        "postalCode": "L4P2R3",
        "streetName": "RIVERGLEN",
        "streetDirectionId": null,
        "streetTypeId": "DR",
        "placeName": "KESWICK",
        "streetNameDisplayText": "RIVERGLEN DR, KESWICK"
      }
    ]
  },
  {
    "postal": "L4P5N2",
    "result": []
  },
  {
    "postal": "L4P4Y7",
    "result": []
  },
  {
    "postal": "L4P7M0",
    "result": []
  },
  {
    "postal": "L4P8P3",
    "result": []
  },
  {
    "postal": "L4P3N3",
    "result": [
      {
        "electoralDistricts": [
          {
            "election": null,
            "id": 121,
            "name": "York—Simcoe"
          }
        ],
        "pollDivisionIds": [
          10142924
        ],
        "postalCode": "L4P3N3",
        "streetName": "VERONA",
        "streetDirectionId": null,
        "streetTypeId": "CRES",
        "placeName": "KESWICK",
        "streetNameDisplayText": "VERONA CRES, KESWICK"
      }
    ]
  },
  {
    "postal": "L4P7S3",
    "result": []
  },
  {
    "postal": "L4P3V9",
    "result": [
      {
        "electoralDistricts": [
          {
            "election": null,
            "id": 121,
            "name": "York—Simcoe"
          }
        ],
        "pollDivisionIds": [
          10142926
        ],
        "postalCode": "L4P3V9",
        "streetName": "PINEWAY",
        "streetDirectionId": null,
        "streetTypeId": "AVE",
        "placeName": "KESWICK",
        "streetNameDisplayText": "PINEWAY AVE, KESWICK"
      }
    ]
  },
  {
    "postal": "L4P9N7",
    "result": []
  },
  {
    "postal": "L4P0G4",
    "result": []
  },
  {
    "postal": "L4P2E2",
    "result": [
      {
        "electoralDistricts": [
          {
            "election": null,
            "id": 121,
            "name": "York—Simcoe"
          }
        ],
        "pollDivisionIds": [
          10142927
        ],
        "postalCode": "L4P2E2",
        "streetName": "THE QUEENSWAY",
        "streetDirectionId": "S",
        "streetTypeId": null,
        "placeName": "KESWICK",
        "streetNameDisplayText": "THE QUEENSWAY S, KESWICK"
      }
    ]
  },
  {
    "postal": "L4P7W8",
    "result": []
  },
  {
    "postal": "L4P7M5",
    "result": []
  },
  {
    "postal": "L4P5W8",
    "result": []
  },
  {
    "postal": "L4P5E5",
    "result": []
  },
  {
    "postal": "L4P1P9",
    "result": [
      {
        "electoralDistricts": [
          {
            "election": null,
            "id": 121,
            "name": "York—Simcoe"
          }
        ],
        "pollDivisionIds": [
          10142926
        ],
        "postalCode": "L4P1P9",
        "streetName": "LAKE",
        "streetDirectionId": "S",
        "streetTypeId": "DR",
        "placeName": "KESWICK",
        "streetNameDisplayText": "LAKE DR S, KESWICK"
      }
    ]
  },
  {
    "postal": "L4P8V8",
    "result": []
  },
  {
    "postal": "L4P9G8",
    "result": []
  },
  {
    "postal": "L4P8H9",
    "result": []
  },
  {
    "postal": "L4P1Z1",
    "result": [
      {
        "electoralDistricts": [
          {
            "election": null,
            "id": 121,
            "name": "York—Simcoe"
          }
        ],
        "pollDivisionIds": [
          10142923
        ],
        "postalCode": "L4P1Z1",
        "streetName": "THE QUEENSWAY",
        "streetDirectionId": "S",
        "streetTypeId": null,
        "placeName": "KESWICK",
        "streetNameDisplayText": "THE QUEENSWAY S, KESWICK"
      }
    ]
  },
  {
    "postal": "L4P8M3",
    "result": []
  },
  {
    "postal": "L4P5H6",
    "result": []
  },
  {
    "postal": "L4P7W7",
    "result": []
  },
  {
    "postal": "L4P4L0",
    "result": []
  },
  {
    "postal": "L4P2N1",
    "result": [
      {
        "electoralDistricts": [
          {
            "election": null,
            "id": 121,
            "name": "York—Simcoe"
          }
        ],
        "pollDivisionIds": [
          10142923
        ],
        "postalCode": "L4P2N1",
        "streetName": "WOODLAND",
        "streetDirectionId": null,
        "streetTypeId": "AVE",
        "placeName": "KESWICK",
        "streetNameDisplayText": "WOODLAND AVE, KESWICK"
      }
    ]
  },
  {
    "postal": "L4P2H4",
    "result": [
      {
        "electoralDistricts": [
          {
            "election": null,
            "id": 121,
            "name": "York—Simcoe"
          }
        ],
        "pollDivisionIds": [
          10142923
        ],
        "postalCode": "L4P2H4",
        "streetName": "MARRITT",
        "streetDirectionId": null,
        "streetTypeId": "DR",
        "placeName": "KESWICK",
        "streetNameDisplayText": "MARRITT DR, KESWICK"
      }
    ]
  },
  {
    "postal": "L4P5C8",
    "result": []
  },
  {
    "postal": "L4P8B0",
    "result": []
  },
  {
    "postal": "L4P1T4",
    "result": [
      {
        "electoralDistricts": [
          {
            "election": null,
            "id": 121,
            "name": "York—Simcoe"
          }
        ],
        "pollDivisionIds": [
          10142927
        ],
        "postalCode": "L4P1T4",
        "streetName": "LAKE",
        "streetDirectionId": "S",
        "streetTypeId": "DR",
        "placeName": "KESWICK",
        "streetNameDisplayText": "LAKE DR S, KESWICK"
      }
    ]
  },
  {
    "postal": "L4P7N7",
    "result": []
  },
  {
    "postal": "L4P4L3",
    "result": []
  },
  {
    "postal": "L4P2N2",
    "result": [
      {
        "electoralDistricts": [
          {
            "election": null,
            "id": 121,
            "name": "York—Simcoe"
          }
        ],
        "pollDivisionIds": [
          10142923
        ],
        "postalCode": "L4P2N2",
        "streetName": "NORTH CHANNEL",
        "streetDirectionId": null,
        "streetTypeId": "DR",
        "placeName": "KESWICK",
        "streetNameDisplayText": "NORTH CHANNEL DR, KESWICK"
      }
    ]
  },
  {
    "postal": "L4P4N8",
    "result": []
  },
  {
    "postal": "L4P3M5",
    "result": [
      {
        "electoralDistricts": [
          {
            "election": null,
            "id": 121,
            "name": "York—Simcoe"
          }
        ],
        "pollDivisionIds": [
          10142926
        ],
        "postalCode": "L4P3M5",
        "streetName": "ATHERTON",
        "streetDirectionId": null,
        "streetTypeId": "CRES",
        "placeName": "KESWICK",
        "streetNameDisplayText": "ATHERTON CRES, KESWICK"
      }
    ]
  },
  {
    "postal": "L4P6H7",
    "result": []
  },
  {
    "postal": "L4P8Y8",
    "result": []
  },
  {
    "postal": "L4P5R9",
    "result": []
  },
  {
    "postal": "L4P8G3",
    "result": []
  },
  {
    "postal": "L4P4N7",
    "result": []
  },
  {
    "postal": "L4P0B9",
    "result": [
      {
        "electoralDistricts": [
          {
            "election": null,
            "id": 121,
            "name": "York—Simcoe"
          }
        ],
        "pollDivisionIds": [
          10142925
        ],
        "postalCode": "L4P0B9",
        "streetName": "FAIRWOOD",
        "streetDirectionId": null,
        "streetTypeId": "DR",
        "placeName": "KESWICK",
        "streetNameDisplayText": "FAIRWOOD DR, KESWICK"
      },
      {
        "electoralDistricts": [
          {
            "election": null,
            "id": 121,
            "name": "York—Simcoe"
          }
        ],
        "pollDivisionIds": [
          10142925
        ],
        "postalCode": "L4P0B9",
        "streetName": "ROBERT PLUNKETT",
        "streetDirectionId": null,
        "streetTypeId": "DR",
        "placeName": "KESWICK",
        "streetNameDisplayText": "ROBERT PLUNKETT DR, KESWICK"
      },
      {
        "electoralDistricts": [
          {
            "election": null,
            "id": 121,
            "name": "York—Simcoe"
          }
        ],
        "pollDivisionIds": [
          10142925
        ],
        "postalCode": "L4P0B9",
        "streetName": "ROSELM",
        "streetDirectionId": null,
        "streetTypeId": "AVE",
        "placeName": "KESWICK",
        "streetNameDisplayText": "ROSELM AVE, KESWICK"
      }
    ]
  },
  {
    "postal": "L4P9K7",
    "result": []
  },
  {
    "postal": "L4P9K9",
    "result": []
  },
  {
    "postal": "L4P3Z2",
    "result": [
      {
        "electoralDistricts": [
          {
            "election": null,
            "id": 121,
            "name": "York—Simcoe"
          }
        ],
        "pollDivisionIds": [
          10142924
        ],
        "postalCode": "L4P3Z2",
        "streetName": "FENIMORE",
        "streetDirectionId": null,
        "streetTypeId": "PL",
        "placeName": "KESWICK",
        "streetNameDisplayText": "FENIMORE PL, KESWICK"
      }
    ]
  },
  {
    "postal": "L4P6W7",
    "result": []
  },
  {
    "postal": "L4P0P1",
    "result": []
  },
  {
    "postal": "L4P3A0",
    "result": []
  },
  {
    "postal": "L4P8L9",
    "result": []
  },
  {
    "postal": "L4P6X0",
    "result": []
  },
  {
    "postal": "L4P3E9",
    "result": [
      {
        "electoralDistricts": [
          {
            "election": null,
            "id": 121,
            "name": "York—Simcoe"
          }
        ],
        "pollDivisionIds": [
          10142919
        ],
        "postalCode": "L4P3E9",
        "streetName": "BARTON",
        "streetDirectionId": null,
        "streetTypeId": "AVE",
        "placeName": "KESWICK",
        "streetNameDisplayText": "BARTON AVE, KESWICK"
      },
      {
        "electoralDistricts": [
          {
            "election": null,
            "id": 121,
            "name": "York—Simcoe"
          }
        ],
        "pollDivisionIds": [
          10142919
        ],
        "postalCode": "L4P3E9",
        "streetName": "BASELINE",
        "streetDirectionId": null,
        "streetTypeId": "RD",
        "placeName": "KESWICK",
        "streetNameDisplayText": "BASELINE RD, KESWICK"
      },
      {
        "electoralDistricts": [
          {
            "election": null,
            "id": 121,
            "name": "York—Simcoe"
          }
        ],
        "pollDivisionIds": [
          10142919
        ],
        "postalCode": "L4P3E9",
        "streetName": "BOYERS",
        "streetDirectionId": null,
        "streetTypeId": "RD",
        "placeName": "KESWICK",
        "streetNameDisplayText": "BOYERS RD, KESWICK"
      },
      {
        "electoralDistricts": [
          {
            "election": null,
            "id": 121,
            "name": "York—Simcoe"
          }
        ],
        "pollDivisionIds": [
          10142919
        ],
        "postalCode": "L4P3E9",
        "streetName": "BOYER'S",
        "streetDirectionId": null,
        "streetTypeId": "SIDERD",
        "placeName": "KESWICK",
        "streetNameDisplayText": "BOYER'S SIDERD, KESWICK"
      },
      {
        "electoralDistricts": [
          {
            "election": null,
            "id": 121,
            "name": "York—Simcoe"
          }
        ],
        "pollDivisionIds": [
          10142919
        ],
        "postalCode": "L4P3E9",
        "streetName": "CHARLES",
        "streetDirectionId": null,
        "streetTypeId": "CRES",
        "placeName": "KESWICK",
        "streetNameDisplayText": "CHARLES CRES, KESWICK"
      },
      {
        "electoralDistricts": [
          {
            "election": null,
            "id": 121,
            "name": "York—Simcoe"
          }
        ],
        "pollDivisionIds": [
          10142923,
          10142924
        ],
        "postalCode": "L4P3E9",
        "streetName": "CHURCH",
        "streetDirectionId": null,
        "streetTypeId": "ST",
        "placeName": "KESWICK",
        "streetNameDisplayText": "CHURCH ST, KESWICK"
      },
      {
        "electoralDistricts": [
          {
            "election": null,
            "id": 121,
            "name": "York—Simcoe"
          }
        ],
        "pollDivisionIds": [
          10142919
        ],
        "postalCode": "L4P3E9",
        "streetName": "CIVIC CENTRE",
        "streetDirectionId": null,
        "streetTypeId": "RD",
        "placeName": "KESWICK",
        "streetNameDisplayText": "CIVIC CENTRE RD, KESWICK"
      },
      {
        "electoralDistricts": [
          {
            "election": null,
            "id": 121,
            "name": "York—Simcoe"
          }
        ],
        "pollDivisionIds": [
          10142919
        ],
        "postalCode": "L4P3E9",
        "streetName": "COTTAGE",
        "streetDirectionId": null,
        "streetTypeId": "GROVE",
        "placeName": "KESWICK",
        "streetNameDisplayText": "COTTAGE GROVE, KESWICK"
      },
      {
        "electoralDistricts": [
          {
            "election": null,
            "id": 121,
            "name": "York—Simcoe"
          }
        ],
        "pollDivisionIds": [
          10142919
        ],
        "postalCode": "L4P3E9",
        "streetName": "CRESCENT BEACH",
        "streetDirectionId": null,
        "streetTypeId": "RD",
        "placeName": "KESWICK",
        "streetNameDisplayText": "CRESCENT BEACH RD, KESWICK"
      },
      {
        "electoralDistricts": [
          {
            "election": null,
            "id": 121,
            "name": "York—Simcoe"
          }
        ],
        "pollDivisionIds": [
          10142919
        ],
        "postalCode": "L4P3E9",
        "streetName": "DEER PARK",
        "streetDirectionId": null,
        "streetTypeId": "RD",
        "placeName": "KESWICK",
        "streetNameDisplayText": "DEER PARK RD, KESWICK"
      },
      {
        "electoralDistricts": [
          {
            "election": null,
            "id": 121,
            "name": "York—Simcoe"
          }
        ],
        "pollDivisionIds": [
          10142919
        ],
        "postalCode": "L4P3E9",
        "streetName": "EASTBOURNE",
        "streetDirectionId": null,
        "streetTypeId": "DR",
        "placeName": "KESWICK",
        "streetNameDisplayText": "EASTBOURNE DR, KESWICK"
      },
      {
        "electoralDistricts": [
          {
            "election": null,
            "id": 121,
            "name": "York—Simcoe"
          }
        ],
        "pollDivisionIds": [
          10142919
        ],
        "postalCode": "L4P3E9",
        "streetName": "ELMWOOD",
        "streetDirectionId": null,
        "streetTypeId": "RD",
        "placeName": "KESWICK",
        "streetNameDisplayText": "ELMWOOD RD, KESWICK"
      },
      {
        "electoralDistricts": [
          {
            "election": null,
            "id": 121,
            "name": "York—Simcoe"
          }
        ],
        "pollDivisionIds": [
          10142919
        ],
        "postalCode": "L4P3E9",
        "streetName": "ELMWOOD",
        "streetDirectionId": null,
        "streetTypeId": "ST",
        "placeName": "KESWICK",
        "streetNameDisplayText": "ELMWOOD ST, KESWICK"
      },
      {
        "electoralDistricts": [
          {
            "election": null,
            "id": 121,
            "name": "York—Simcoe"
          }
        ],
        "pollDivisionIds": [
          10142926
        ],
        "postalCode": "L4P3E9",
        "streetName": "GLENWOODS",
        "streetDirectionId": null,
        "streetTypeId": "AVE",
        "placeName": "KESWICK",
        "streetNameDisplayText": "GLENWOODS AVE, KESWICK"
      },
      {
        "electoralDistricts": [
          {
            "election": null,
            "id": 121,
            "name": "York—Simcoe"
          }
        ],
        "pollDivisionIds": [
          10142919
        ],
        "postalCode": "L4P3E9",
        "streetName": "ISLEVIEW",
        "streetDirectionId": null,
        "streetTypeId": "RD",
        "placeName": "KESWICK",
        "streetNameDisplayText": "ISLEVIEW RD, KESWICK"
      },
      {
        "electoralDistricts": [
          {
            "election": null,
            "id": 121,
            "name": "York—Simcoe"
          }
        ],
        "pollDivisionIds": [
          10142919
        ],
        "postalCode": "L4P3E9",
        "streetName": "ISOBEL",
        "streetDirectionId": null,
        "streetTypeId": "AVE",
        "placeName": "KESWICK",
        "streetNameDisplayText": "ISOBEL AVE, KESWICK"
      },
      {
        "electoralDistricts": [
          {
            "election": null,
            "id": 121,
            "name": "York—Simcoe"
          }
        ],
        "pollDivisionIds": [
          10142919
        ],
        "postalCode": "L4P3E9",
        "streetName": "JUBILEE",
        "streetDirectionId": null,
        "streetTypeId": "RD",
        "placeName": "KESWICK",
        "streetNameDisplayText": "JUBILEE RD, KESWICK"
      },
      {
        "electoralDistricts": [
          {
            "election": null,
            "id": 121,
            "name": "York—Simcoe"
          }
        ],
        "pollDivisionIds": [
          10142920,
          10142919
        ],
        "postalCode": "L4P3E9",
        "streetName": "LAKE",
        "streetDirectionId": "E",
        "streetTypeId": "DR",
        "placeName": "KESWICK",
        "streetNameDisplayText": "LAKE DR E, KESWICK"
      },
      {
        "electoralDistricts": [
          {
            "election": null,
            "id": 121,
            "name": "York—Simcoe"
          }
        ],
        "pollDivisionIds": [
          10142919
        ],
        "postalCode": "L4P3E9",
        "streetName": "LAKE",
        "streetDirectionId": "N",
        "streetTypeId": "DR",
        "placeName": "KESWICK",
        "streetNameDisplayText": "LAKE DR N, KESWICK"
      },
      {
        "electoralDistricts": [
          {
            "election": null,
            "id": 121,
            "name": "York—Simcoe"
          }
        ],
        "pollDivisionIds": [
          10142919
        ],
        "postalCode": "L4P3E9",
        "streetName": "LAKE",
        "streetDirectionId": "N",
        "streetTypeId": "DR",
        "placeName": "ROCHES POINT",
        "streetNameDisplayText": "LAKE DR N, ROCHES POINT"
      },
      {
        "electoralDistricts": [
          {
            "election": null,
            "id": 121,
            "name": "York—Simcoe"
          }
        ],
        "pollDivisionIds": [
          10142926
        ],
        "postalCode": "L4P3E9",
        "streetName": "LAKE",
        "streetDirectionId": "S",
        "streetTypeId": "DR",
        "placeName": "KESWICK",
        "streetNameDisplayText": "LAKE DR S, KESWICK"
      },
      {
        "electoralDistricts": [
          {
            "election": null,
            "id": 121,
            "name": "York—Simcoe"
          }
        ],
        "pollDivisionIds": [
          10142919
        ],
        "postalCode": "L4P3E9",
        "streetName": "LENNOX",
        "streetDirectionId": null,
        "streetTypeId": "AVE",
        "placeName": "KESWICK",
        "streetNameDisplayText": "LENNOX AVE, KESWICK"
      },
      {
        "electoralDistricts": [
          {
            "election": null,
            "id": 121,
            "name": "York—Simcoe"
          }
        ],
        "pollDivisionIds": [
          10142935,
          10142919
        ],
        "postalCode": "L4P3E9",
        "streetName": "METRO",
        "streetDirectionId": "N",
        "streetTypeId": "RD",
        "placeName": "KESWICK",
        "streetNameDisplayText": "METRO RD N, KESWICK"
      },
      {
        "electoralDistricts": [
          {
            "election": null,
            "id": 121,
            "name": "York—Simcoe"
          }
        ],
        "pollDivisionIds": [
          10142923
        ],
        "postalCode": "L4P3E9",
        "streetName": "METRO",
        "streetDirectionId": "S",
        "streetTypeId": "RD",
        "placeName": "KESWICK",
        "streetNameDisplayText": "METRO RD S, KESWICK"
      },
      {
        "electoralDistricts": [
          {
            "election": null,
            "id": 121,
            "name": "York—Simcoe"
          }
        ],
        "pollDivisionIds": [
          10142919
        ],
        "postalCode": "L4P3E9",
        "streetName": "NEON",
        "streetDirectionId": null,
        "streetTypeId": "LANE",
        "placeName": "KESWICK",
        "streetNameDisplayText": "NEON LANE, KESWICK"
      },
      {
        "electoralDistricts": [
          {
            "election": null,
            "id": 121,
            "name": "York—Simcoe"
          }
        ],
        "pollDivisionIds": [
          10142919
        ],
        "postalCode": "L4P3E9",
        "streetName": "NORVAL",
        "streetDirectionId": null,
        "streetTypeId": "RD",
        "placeName": "KESWICK",
        "streetNameDisplayText": "NORVAL RD, KESWICK"
      },
      {
        "electoralDistricts": [
          {
            "election": null,
            "id": 121,
            "name": "York—Simcoe"
          }
        ],
        "pollDivisionIds": [
          10142919,
          10142948
        ],
        "postalCode": "L4P3E9",
        "streetName": "OLD HOMESTEAD",
        "streetDirectionId": null,
        "streetTypeId": "RD",
        "placeName": "KESWICK",
        "streetNameDisplayText": "OLD HOMESTEAD RD, KESWICK"
      },
      {
        "electoralDistricts": [
          {
            "election": null,
            "id": 121,
            "name": "York—Simcoe"
          }
        ],
        "pollDivisionIds": [
          10142919
        ],
        "postalCode": "L4P3E9",
        "streetName": "OLD HOMESTEAD RD.",
        "streetDirectionId": null,
        "streetTypeId": "RD",
        "placeName": "KESWICK",
        "streetNameDisplayText": "OLD HOMESTEAD RD. RD, KESWICK"
      },
      {
        "electoralDistricts": [
          {
            "election": null,
            "id": 121,
            "name": "York—Simcoe"
          }
        ],
        "pollDivisionIds": [
          10142919,
          10142926
        ],
        "postalCode": "L4P3E9",
        "streetName": "POLLOCK",
        "streetDirectionId": "E",
        "streetTypeId": "RD",
        "placeName": "KESWICK",
        "streetNameDisplayText": "POLLOCK RD E, KESWICK"
      },
      {
        "electoralDistricts": [
          {
            "election": null,
            "id": 121,
            "name": "York—Simcoe"
          }
        ],
        "pollDivisionIds": [
          10142919
        ],
        "postalCode": "L4P3E9",
        "streetName": "POLLOCK RD RR2",
        "streetDirectionId": "E",
        "streetTypeId": "RD",
        "placeName": "KESWICK",
        "streetNameDisplayText": "POLLOCK RD RR2 RD E, KESWICK"
      },
      {
        "electoralDistricts": [
          {
            "election": null,
            "id": 121,
            "name": "York—Simcoe"
          }
        ],
        "pollDivisionIds": [
          10142919
        ],
        "postalCode": "L4P3E9",
        "streetName": "POPLAR",
        "streetDirectionId": null,
        "streetTypeId": "AVE",
        "placeName": "KESWICK",
        "streetNameDisplayText": "POPLAR AVE, KESWICK"
      },
      {
        "electoralDistricts": [
          {
            "election": null,
            "id": 121,
            "name": "York—Simcoe"
          }
        ],
        "pollDivisionIds": [
          10142919
        ],
        "postalCode": "L4P3E9",
        "streetName": "POPLAR",
        "streetDirectionId": null,
        "streetTypeId": "ST",
        "placeName": "KESWICK",
        "streetNameDisplayText": "POPLAR ST, KESWICK"
      },
      {
        "electoralDistricts": [
          {
            "election": null,
            "id": 121,
            "name": "York—Simcoe"
          }
        ],
        "pollDivisionIds": [
          10142919
        ],
        "postalCode": "L4P3E9",
        "streetName": "PUGSLEY",
        "streetDirectionId": null,
        "streetTypeId": "AVE",
        "placeName": "KESWICK",
        "streetNameDisplayText": "PUGSLEY AVE, KESWICK"
      },
      {
        "electoralDistricts": [
          {
            "election": null,
            "id": 121,
            "name": "York—Simcoe"
          }
        ],
        "pollDivisionIds": [
          10142916,
          10142926,
          10142927
        ],
        "postalCode": "L4P3E9",
        "streetName": "RAVENSHOE",
        "streetDirectionId": null,
        "streetTypeId": "RD",
        "placeName": "KESWICK",
        "streetNameDisplayText": "RAVENSHOE RD, KESWICK"
      },
      {
        "electoralDistricts": [
          {
            "election": null,
            "id": 121,
            "name": "York—Simcoe"
          }
        ],
        "pollDivisionIds": [
          10142919
        ],
        "postalCode": "L4P3E9",
        "streetName": "RED ROBIN",
        "streetDirectionId": null,
        "streetTypeId": "RD",
        "placeName": "KESWICK",
        "streetNameDisplayText": "RED ROBIN RD, KESWICK"
      },
      {
        "electoralDistricts": [
          {
            "election": null,
            "id": 121,
            "name": "York—Simcoe"
          }
        ],
        "pollDivisionIds": [
          10142919
        ],
        "postalCode": "L4P3E9",
        "streetName": "SANDY POINT",
        "streetDirectionId": null,
        "streetTypeId": "LANE",
        "placeName": "KESWICK",
        "streetNameDisplayText": "SANDY POINT LANE, KESWICK"
      },
      {
        "electoralDistricts": [
          {
            "election": null,
            "id": 121,
            "name": "York—Simcoe"
          }
        ],
        "pollDivisionIds": [
          10142919
        ],
        "postalCode": "L4P3E9",
        "streetName": "SHEPPARD",
        "streetDirectionId": "E",
        "streetTypeId": "AVE",
        "placeName": "KESWICK",
        "streetNameDisplayText": "SHEPPARD AVE E, KESWICK"
      },
      {
        "electoralDistricts": [
          {
            "election": null,
            "id": 121,
            "name": "York—Simcoe"
          }
        ],
        "pollDivisionIds": [
          10142919
        ],
        "postalCode": "L4P3E9",
        "streetName": "SHEPPARD",
        "streetDirectionId": null,
        "streetTypeId": "AVE",
        "placeName": "KESWICK",
        "streetNameDisplayText": "SHEPPARD AVE, KESWICK"
      },
      {
        "electoralDistricts": [
          {
            "election": null,
            "id": 121,
            "name": "York—Simcoe"
          }
        ],
        "pollDivisionIds": [
          10142919
        ],
        "postalCode": "L4P3E9",
        "streetName": "SINA",
        "streetDirectionId": null,
        "streetTypeId": "ST",
        "placeName": "KESWICK",
        "streetNameDisplayText": "SINA ST, KESWICK"
      },
      {
        "electoralDistricts": [
          {
            "election": null,
            "id": 121,
            "name": "York—Simcoe"
          }
        ],
        "pollDivisionIds": [
          10142919
        ],
        "postalCode": "L4P3E9",
        "streetName": "SNAKE ISLAND",
        "streetDirectionId": null,
        "streetTypeId": "RD",
        "placeName": "KESWICK",
        "streetNameDisplayText": "SNAKE ISLAND RD, KESWICK"
      },
      {
        "electoralDistricts": [
          {
            "election": null,
            "id": 121,
            "name": "York—Simcoe"
          }
        ],
        "pollDivisionIds": [
          10142919
        ],
        "postalCode": "L4P3E9",
        "streetName": "TRIVETTS",
        "streetDirectionId": null,
        "streetTypeId": "RD",
        "placeName": "KESWICK",
        "streetNameDisplayText": "TRIVETTS RD, KESWICK"
      },
      {
        "electoralDistricts": [
          {
            "election": null,
            "id": 121,
            "name": "York—Simcoe"
          }
        ],
        "pollDivisionIds": [
          10142919
        ],
        "postalCode": "L4P3E9",
        "streetName": "VARNEY",
        "streetDirectionId": null,
        "streetTypeId": "RD",
        "placeName": "KESWICK",
        "streetNameDisplayText": "VARNEY RD, KESWICK"
      },
      {
        "electoralDistricts": [
          {
            "election": null,
            "id": 121,
            "name": "York—Simcoe"
          }
        ],
        "pollDivisionIds": [
          10142916,
          10142919,
          10142926
        ],
        "postalCode": "L4P3E9",
        "streetName": "WARDEN",
        "streetDirectionId": null,
        "streetTypeId": "AVE",
        "placeName": "KESWICK",
        "streetNameDisplayText": "WARDEN AVE, KESWICK"
      },
      {
        "electoralDistricts": [
          {
            "election": null,
            "id": 121,
            "name": "York—Simcoe"
          }
        ],
        "pollDivisionIds": [
          10142919
        ],
        "postalCode": "L4P3E9",
        "streetName": "WILLOUGHBY",
        "streetDirectionId": null,
        "streetTypeId": "BLVD",
        "placeName": "KESWICK",
        "streetNameDisplayText": "WILLOUGHBY BLVD, KESWICK"
      },
      {
        "electoralDistricts": [
          {
            "election": null,
            "id": 121,
            "name": "York—Simcoe"
          }
        ],
        "pollDivisionIds": [
          10142926,
          10142923,
          10142916,
          10142925,
          10142919,
          10142927,
          10142924
        ],
        "postalCode": "L4P3E9",
        "streetName": "WOODBINE",
        "streetDirectionId": null,
        "streetTypeId": "AVE",
        "placeName": "KESWICK",
        "streetNameDisplayText": "WOODBINE AVE, KESWICK"
      }
    ]
  },
  {
    "postal": "L4P0S5",
    "result": []
  },
  {
    "postal": "L4P1A2",
    "result": [
      {
        "electoralDistricts": [
          {
            "election": null,
            "id": 121,
            "name": "York—Simcoe"
          }
        ],
        "pollDivisionIds": [
          10142923
        ],
        "postalCode": "L4P1A2",
        "streetName": "LAKE",
        "streetDirectionId": "N",
        "streetTypeId": "DR",
        "placeName": "KESWICK",
        "streetNameDisplayText": "LAKE DR N, KESWICK"
      }
    ]
  },
  {
    "postal": "L4P5V8",
    "result": []
  },
  {
    "postal": "L4P8C5",
    "result": []
  },
  {
    "postal": "L4P6N0",
    "result": []
  },
  {
    "postal": "L4P9E6",
    "result": []
  },
  {
    "postal": "L4P5J7",
    "result": []
  },
  {
    "postal": "L4P2R2",
    "result": [
      {
        "electoralDistricts": [
          {
            "election": null,
            "id": 121,
            "name": "York—Simcoe"
          }
        ],
        "pollDivisionIds": [
          10142925
        ],
        "postalCode": "L4P2R2",
        "streetName": "RIVERGLEN",
        "streetDirectionId": null,
        "streetTypeId": "DR",
        "placeName": "KESWICK",
        "streetNameDisplayText": "RIVERGLEN DR, KESWICK"
      }
    ]
  },
  {
    "postal": "L4P0P5",
    "result": []
  },
  {
    "postal": "L4P5A7",
    "result": []
  },
  {
    "postal": "L4P1G1",
    "result": [
      {
        "electoralDistricts": [
          {
            "election": null,
            "id": 121,
            "name": "York—Simcoe"
          }
        ],
        "pollDivisionIds": [
          10142923
        ],
        "postalCode": "L4P1G1",
        "streetName": "ELMVIEW",
        "streetDirectionId": null,
        "streetTypeId": "GDNS",
        "placeName": "KESWICK",
        "streetNameDisplayText": "ELMVIEW GDNS, KESWICK"
      }
    ]
  },
  {
    "postal": "L4P9R6",
    "result": []
  },
  {
    "postal": "L4P4Z9",
    "result": []
  },
  {
    "postal": "L4P1V5",
    "result": [
      {
        "electoralDistricts": [
          {
            "election": null,
            "id": 121,
            "name": "York—Simcoe"
          }
        ],
        "pollDivisionIds": [
          10142923
        ],
        "postalCode": "L4P1V5",
        "streetName": "ASHDALE",
        "streetDirectionId": null,
        "streetTypeId": "RD",
        "placeName": "KESWICK",
        "streetNameDisplayText": "ASHDALE RD, KESWICK"
      }
    ]
  },
  {
    "postal": "L4P9Y5",
    "result": []
  },
  {
    "postal": "L4P1P2",
    "result": [
      {
        "electoralDistricts": [
          {
            "election": null,
            "id": 121,
            "name": "York—Simcoe"
          }
        ],
        "pollDivisionIds": [
          10142926
        ],
        "postalCode": "L4P1P2",
        "streetName": "LAKE",
        "streetDirectionId": "S",
        "streetTypeId": "DR",
        "placeName": "KESWICK",
        "streetNameDisplayText": "LAKE DR S, KESWICK"
      }
    ]
  },
  {
    "postal": "L4P5X0",
    "result": []
  },
  {
    "postal": "L4P7B8",
    "result": []
  },
  {
    "postal": "L4P0C6",
    "result": [
      {
        "electoralDistricts": [
          {
            "election": null,
            "id": 121,
            "name": "York—Simcoe"
          }
        ],
        "pollDivisionIds": [
          10142927
        ],
        "postalCode": "L4P0C6",
        "streetName": "LAURENDALE",
        "streetDirectionId": null,
        "streetTypeId": "AVE",
        "placeName": "KESWICK",
        "streetNameDisplayText": "LAURENDALE AVE, KESWICK"
      },
      {
        "electoralDistricts": [
          {
            "election": null,
            "id": 121,
            "name": "York—Simcoe"
          }
        ],
        "pollDivisionIds": [
          10142927
        ],
        "postalCode": "L4P0C6",
        "streetName": "VIOLET",
        "streetDirectionId": null,
        "streetTypeId": "AVE",
        "placeName": "KESWICK",
        "streetNameDisplayText": "VIOLET AVE, KESWICK"
      }
    ]
  },
  {
    "postal": "L4P6G1",
    "result": []
  },
  {
    "postal": "L4P3K3",
    "result": [
      {
        "electoralDistricts": [
          {
            "election": null,
            "id": 121,
            "name": "York—Simcoe"
          }
        ],
        "pollDivisionIds": [
          10142926
        ],
        "postalCode": "L4P3K3",
        "streetName": "LOWNDES",
        "streetDirectionId": null,
        "streetTypeId": "AVE",
        "placeName": "KESWICK",
        "streetNameDisplayText": "LOWNDES AVE, KESWICK"
      }
    ]
  },
  {
    "postal": "L4P9R0",
    "result": []
  },
  {
    "postal": "L4P4R8",
    "result": []
  },
  {
    "postal": "L4P5P9",
    "result": []
  },
  {
    "postal": "L4P8N4",
    "result": []
  },
  {
    "postal": "L4P8H4",
    "result": []
  },
  {
    "postal": "L4P4V1",
    "result": []
  },
  {
    "postal": "L4P1K5",
    "result": [
      {
        "electoralDistricts": [
          {
            "election": null,
            "id": 121,
            "name": "York—Simcoe"
          }
        ],
        "pollDivisionIds": [
          10142927
        ],
        "postalCode": "L4P1K5",
        "streetName": "CANAL",
        "streetDirectionId": null,
        "streetTypeId": "ST",
        "placeName": "KESWICK",
        "streetNameDisplayText": "CANAL ST, KESWICK"
      }
    ]
  },
  {
    "postal": "L4P1Z5",
    "result": []
  },
  {
    "postal": "L4P9L9",
    "result": []
  },
  {
    "postal": "L4P5L2",
    "result": []
  },
  {
    "postal": "L4P0M2",
    "result": []
  },
  {
    "postal": "L4P1K8",
    "result": [
      {
        "electoralDistricts": [
          {
            "election": null,
            "id": 121,
            "name": "York—Simcoe"
          }
        ],
        "pollDivisionIds": [
          10142927
        ],
        "postalCode": "L4P1K8",
        "streetName": "ROBERT",
        "streetDirectionId": null,
        "streetTypeId": "ST",
        "placeName": "KESWICK",
        "streetNameDisplayText": "ROBERT ST, KESWICK"
      }
    ]
  },
  {
    "postal": "L4P3M7",
    "result": []
  },
  {
    "postal": "L4P1B2",
    "result": [
      {
        "electoralDistricts": [
          {
            "election": null,
            "id": 121,
            "name": "York—Simcoe"
          }
        ],
        "pollDivisionIds": [
          10142923
        ],
        "postalCode": "L4P1B2",
        "streetName": "ORANGE",
        "streetDirectionId": null,
        "streetTypeId": "CRT",
        "placeName": "KESWICK",
        "streetNameDisplayText": "ORANGE CRT, KESWICK"
      }
    ]
  },
  {
    "postal": "L4P0H9",
    "result": []
  },
  {
    "postal": "L4P8M4",
    "result": []
  },
  {
    "postal": "L4P2M5",
    "result": [
      {
        "electoralDistricts": [
          {
            "election": null,
            "id": 121,
            "name": "York—Simcoe"
          }
        ],
        "pollDivisionIds": [
          10142924
        ],
        "postalCode": "L4P2M5",
        "streetName": "MORTON",
        "streetDirectionId": null,
        "streetTypeId": "AVE",
        "placeName": "KESWICK",
        "streetNameDisplayText": "MORTON AVE, KESWICK"
      }
    ]
  },
  {
    "postal": "L4P0T9",
    "result": []
  },
  {
    "postal": "L4P3P1",
    "result": [
      {
        "electoralDistricts": [
          {
            "election": null,
            "id": 121,
            "name": "York—Simcoe"
          }
        ],
        "pollDivisionIds": [
          10142924,
          10142923
        ],
        "postalCode": "L4P3P1",
        "streetName": "CARRICK",
        "streetDirectionId": null,
        "streetTypeId": "AVE",
        "placeName": "KESWICK",
        "streetNameDisplayText": "CARRICK AVE, KESWICK"
      },
      {
        "electoralDistricts": [
          {
            "election": null,
            "id": 121,
            "name": "York—Simcoe"
          }
        ],
        "pollDivisionIds": [
          10142923
        ],
        "postalCode": "L4P3P1",
        "streetName": "CHARTWELL",
        "streetDirectionId": null,
        "streetTypeId": "CRES",
        "placeName": "KESWICK",
        "streetNameDisplayText": "CHARTWELL CRES, KESWICK"
      },
      {
        "electoralDistricts": [
          {
            "election": null,
            "id": 121,
            "name": "York—Simcoe"
          }
        ],
        "pollDivisionIds": [
          10142923,
          10142924
        ],
        "postalCode": "L4P3P1",
        "streetName": "TUCH",
        "streetDirectionId": null,
        "streetTypeId": "DR",
        "placeName": "KESWICK",
        "streetNameDisplayText": "TUCH DR, KESWICK"
      }
    ]
  },
  {
    "postal": "L4P1R6",
    "result": [
      {
        "electoralDistricts": [
          {
            "election": null,
            "id": 121,
            "name": "York—Simcoe"
          }
        ],
        "pollDivisionIds": [
          10142926
        ],
        "postalCode": "L4P1R6",
        "streetName": "LAKE",
        "streetDirectionId": "S",
        "streetTypeId": "DR",
        "placeName": "KESWICK",
        "streetNameDisplayText": "LAKE DR S, KESWICK"
      }
    ]
  },
  {
    "postal": "L4P9V5",
    "result": []
  },
  {
    "postal": "L4P9T0",
    "result": []
  },
  {
    "postal": "L4P0A9",
    "result": [
      {
        "electoralDistricts": [
          {
            "election": null,
            "id": 121,
            "name": "York—Simcoe"
          }
        ],
        "pollDivisionIds": [
          10142924
        ],
        "postalCode": "L4P0A9",
        "streetName": "ARLINGTON",
        "streetDirectionId": null,
        "streetTypeId": "DR",
        "placeName": "KESWICK",
        "streetNameDisplayText": "ARLINGTON DR, KESWICK"
      }
    ]
  },
  {
    "postal": "L4P1M3",
    "result": [
      {
        "electoralDistricts": [
          {
            "election": null,
            "id": 121,
            "name": "York—Simcoe"
          }
        ],
        "pollDivisionIds": [
          10142923
        ],
        "postalCode": "L4P1M3",
        "streetName": "COOKS BAY",
        "streetDirectionId": null,
        "streetTypeId": "DR",
        "placeName": "KESWICK",
        "streetNameDisplayText": "COOKS BAY DR, KESWICK"
      }
    ]
  },
  {
    "postal": "L4P1W8",
    "result": []
  },
  {
    "postal": "L4P9J1",
    "result": []
  },
  {
    "postal": "L4P8N5",
    "result": []
  },
  {
    "postal": "L4P5X1",
    "result": []
  },
  {
    "postal": "L4P6S2",
    "result": []
  },
  {
    "postal": "L4P2A2",
    "result": [
      {
        "electoralDistricts": [
          {
            "election": null,
            "id": 121,
            "name": "York—Simcoe"
          }
        ],
        "pollDivisionIds": [
          10142923
        ],
        "postalCode": "L4P2A2",
        "streetName": "THE QUEENSWAY",
        "streetDirectionId": "S",
        "streetTypeId": null,
        "placeName": "KESWICK",
        "streetNameDisplayText": "THE QUEENSWAY S, KESWICK"
      }
    ]
  },
  {
    "postal": "L4P6A6",
    "result": []
  },
  {
    "postal": "L4P0S3",
    "result": []
  },
  {
    "postal": "L4P3E7",
    "result": []
  },
  {
    "postal": "L4P5R7",
    "result": []
  },
  {
    "postal": "L4P3R6",
    "result": [
      {
        "electoralDistricts": [
          {
            "election": null,
            "id": 121,
            "name": "York—Simcoe"
          }
        ],
        "pollDivisionIds": [
          10142924
        ],
        "postalCode": "L4P3R6",
        "streetName": "CARRICK",
        "streetDirectionId": null,
        "streetTypeId": "AVE",
        "placeName": "KESWICK",
        "streetNameDisplayText": "CARRICK AVE, KESWICK"
      },
      {
        "electoralDistricts": [
          {
            "election": null,
            "id": 121,
            "name": "York—Simcoe"
          }
        ],
        "pollDivisionIds": [
          10142924
        ],
        "postalCode": "L4P3R6",
        "streetName": "NATANYA",
        "streetDirectionId": null,
        "streetTypeId": "BLVD",
        "placeName": "KESWICK",
        "streetNameDisplayText": "NATANYA BLVD, KESWICK"
      }
    ]
  },
  {
    "postal": "L4P6K4",
    "result": []
  },
  {
    "postal": "L4P2W5",
    "result": [
      {
        "electoralDistricts": [
          {
            "election": null,
            "id": 121,
            "name": "York—Simcoe"
          }
        ],
        "pollDivisionIds": [
          10142926
        ],
        "postalCode": "L4P2W5",
        "streetName": "CEDARHOLME",
        "streetDirectionId": null,
        "streetTypeId": "AVE",
        "placeName": "KESWICK",
        "streetNameDisplayText": "CEDARHOLME AVE, KESWICK"
      }
    ]
  },
  {
    "postal": "L4P8W4",
    "result": []
  },
  {
    "postal": "L4P9C2",
    "result": []
  },
  {
    "postal": "L4P2C0",
    "result": []
  },
  {
    "postal": "L4P0E1",
    "result": [
      {
        "electoralDistricts": [
          {
            "election": null,
            "id": 121,
            "name": "York—Simcoe"
          }
        ],
        "pollDivisionIds": [
          10142923
        ],
        "postalCode": "L4P0E1",
        "streetName": "MACKENZIE",
        "streetDirectionId": null,
        "streetTypeId": "CRT",
        "placeName": "KESWICK",
        "streetNameDisplayText": "MACKENZIE CRT, KESWICK"
      }
    ]
  },
  {
    "postal": "L4P1K9",
    "result": [
      {
        "electoralDistricts": [
          {
            "election": null,
            "id": 121,
            "name": "York—Simcoe"
          }
        ],
        "pollDivisionIds": [
          10142927
        ],
        "postalCode": "L4P1K9",
        "streetName": "SHIRLEA",
        "streetDirectionId": null,
        "streetTypeId": "BLVD",
        "placeName": "KESWICK",
        "streetNameDisplayText": "SHIRLEA BLVD, KESWICK"
      }
    ]
  },
  {
    "postal": "L4P1G7",
    "result": [
      {
        "electoralDistricts": [
          {
            "election": null,
            "id": 121,
            "name": "York—Simcoe"
          }
        ],
        "pollDivisionIds": [
          10142923
        ],
        "postalCode": "L4P1G7",
        "streetName": "RAYNERS",
        "streetDirectionId": null,
        "streetTypeId": "RD",
        "placeName": "KESWICK",
        "streetNameDisplayText": "RAYNERS RD, KESWICK"
      }
    ]
  },
  {
    "postal": "L4P4E9",
    "result": [
      {
        "electoralDistricts": [
          {
            "election": null,
            "id": 121,
            "name": "York—Simcoe"
          }
        ],
        "pollDivisionIds": [
          10142923
        ],
        "postalCode": "L4P4E9",
        "streetName": "OLD HOMESTEAD",
        "streetDirectionId": null,
        "streetTypeId": "RD",
        "placeName": "KESWICK",
        "streetNameDisplayText": "OLD HOMESTEAD RD, KESWICK"
      },
      {
        "electoralDistricts": [
          {
            "election": null,
            "id": 121,
            "name": "York—Simcoe"
          }
        ],
        "pollDivisionIds": [
          10142923
        ],
        "postalCode": "L4P4E9",
        "streetName": "OLD HOMESTEAD ROAD",
        "streetDirectionId": null,
        "streetTypeId": "RD",
        "placeName": "KESWICK",
        "streetNameDisplayText": "OLD HOMESTEAD ROAD RD, KESWICK"
      }
    ]
  },
  {
    "postal": "L4P9P0",
    "result": []
  },
  {
    "postal": "L4P5H3",
    "result": []
  },
  {
    "postal": "L4P9X6",
    "result": []
  },
  {
    "postal": "L4P5N7",
    "result": []
  },
  {
    "postal": "L4P5A6",
    "result": []
  },
  {
    "postal": "L4P4M0",
    "result": []
  },
  {
    "postal": "L4P3V6",
    "result": [
      {
        "electoralDistricts": [
          {
            "election": null,
            "id": 121,
            "name": "York—Simcoe"
          }
        ],
        "pollDivisionIds": [
          10142923
        ],
        "postalCode": "L4P3V6",
        "streetName": "PARKVIEW",
        "streetDirectionId": null,
        "streetTypeId": "RD",
        "placeName": "KESWICK",
        "streetNameDisplayText": "PARKVIEW RD, KESWICK"
      }
    ]
  },
  {
    "postal": "L4P1L7",
    "result": [
      {
        "electoralDistricts": [
          {
            "election": null,
            "id": 121,
            "name": "York—Simcoe"
          }
        ],
        "pollDivisionIds": [
          10142923
        ],
        "postalCode": "L4P1L7",
        "streetName": "METROPOLITAN",
        "streetDirectionId": null,
        "streetTypeId": "CRES",
        "placeName": "KESWICK",
        "streetNameDisplayText": "METROPOLITAN CRES, KESWICK"
      }
    ]
  },
  {
    "postal": "L4P2P9",
    "result": [
      {
        "electoralDistricts": [
          {
            "election": null,
            "id": 121,
            "name": "York—Simcoe"
          }
        ],
        "pollDivisionIds": [
          10142925
        ],
        "postalCode": "L4P2P9",
        "streetName": "RIVERGLEN",
        "streetDirectionId": null,
        "streetTypeId": "DR",
        "placeName": "KESWICK",
        "streetNameDisplayText": "RIVERGLEN DR, KESWICK"
      }
    ]
  },
  {
    "postal": "L4P5T4",
    "result": []
  },
  {
    "postal": "L4P5Z1",
    "result": []
  },
  {
    "postal": "L4P2X0",
    "result": []
  },
  {
    "postal": "L4P6Z2",
    "result": []
  },
  {
    "postal": "L4P0E0",
    "result": []
  },
  {
    "postal": "L4P3Z5",
    "result": [
      {
        "electoralDistricts": [
          {
            "election": null,
            "id": 121,
            "name": "York—Simcoe"
          }
        ],
        "pollDivisionIds": [
          10142926
        ],
        "postalCode": "L4P3Z5",
        "streetName": "LOWNDES",
        "streetDirectionId": null,
        "streetTypeId": "AVE",
        "placeName": "KESWICK",
        "streetNameDisplayText": "LOWNDES AVE, KESWICK"
      }
    ]
  },
  {
    "postal": "L4P8H3",
    "result": []
  },
  {
    "postal": "L4P7S6",
    "result": []
  },
  {
    "postal": "L4P4C1",
    "result": [
      {
        "electoralDistricts": [
          {
            "election": null,
            "id": 121,
            "name": "York—Simcoe"
          }
        ],
        "pollDivisionIds": [
          10142919
        ],
        "postalCode": "L4P4C1",
        "streetName": "KERFOOT",
        "streetDirectionId": null,
        "streetTypeId": "CRES",
        "placeName": "KESWICK",
        "streetNameDisplayText": "KERFOOT CRES, KESWICK"
      },
      {
        "electoralDistricts": [
          {
            "election": null,
            "id": 121,
            "name": "York—Simcoe"
          }
        ],
        "pollDivisionIds": [
          10142919
        ],
        "postalCode": "L4P4C1",
        "streetName": "KERFOOT",
        "streetDirectionId": null,
        "streetTypeId": "ST",
        "placeName": "KESWICK",
        "streetNameDisplayText": "KERFOOT ST, KESWICK"
      }
    ]
  },
  {
    "postal": "L4P3K2",
    "result": [
      {
        "electoralDistricts": [
          {
            "election": null,
            "id": 121,
            "name": "York—Simcoe"
          }
        ],
        "pollDivisionIds": [
          10142926
        ],
        "postalCode": "L4P3K2",
        "streetName": "LOWNDES",
        "streetDirectionId": null,
        "streetTypeId": "AVE",
        "placeName": "KESWICK",
        "streetNameDisplayText": "LOWNDES AVE, KESWICK"
      }
    ]
  },
  {
    "postal": "L4P1Y5",
    "result": [
      {
        "electoralDistricts": [
          {
            "election": null,
            "id": 121,
            "name": "York—Simcoe"
          }
        ],
        "pollDivisionIds": [
          10142927
        ],
        "postalCode": "L4P1Y5",
        "streetName": "BEVERLEY",
        "streetDirectionId": null,
        "streetTypeId": "DR",
        "placeName": "KESWICK",
        "streetNameDisplayText": "BEVERLEY DR, KESWICK"
      }
    ]
  },
  {
    "postal": "L4P6P6",
    "result": []
  },
  {
    "postal": "L4P3N9",
    "result": [
      {
        "electoralDistricts": [
          {
            "election": null,
            "id": 121,
            "name": "York—Simcoe"
          }
        ],
        "pollDivisionIds": [
          10142924,
          10142923
        ],
        "postalCode": "L4P3N9",
        "streetName": "CHARTWELL",
        "streetDirectionId": null,
        "streetTypeId": "CRES",
        "placeName": "KESWICK",
        "streetNameDisplayText": "CHARTWELL CRES, KESWICK"
      },
      {
        "electoralDistricts": [
          {
            "election": null,
            "id": 121,
            "name": "York—Simcoe"
          }
        ],
        "pollDivisionIds": [
          10142924
        ],
        "postalCode": "L4P3N9",
        "streetName": "FONTAINE",
        "streetDirectionId": null,
        "streetTypeId": "DR",
        "placeName": "KESWICK",
        "streetNameDisplayText": "FONTAINE DR, KESWICK"
      },
      {
        "electoralDistricts": [
          {
            "election": null,
            "id": 121,
            "name": "York—Simcoe"
          }
        ],
        "pollDivisionIds": [
          10142924
        ],
        "postalCode": "L4P3N9",
        "streetName": "TUCH",
        "streetDirectionId": null,
        "streetTypeId": "DR",
        "placeName": "KESWICK",
        "streetNameDisplayText": "TUCH DR, KESWICK"
      }
    ]
  },
  {
    "postal": "L4P3W2",
    "result": [
      {
        "electoralDistricts": [
          {
            "election": null,
            "id": 121,
            "name": "York—Simcoe"
          }
        ],
        "pollDivisionIds": [
          10142926
        ],
        "postalCode": "L4P3W2",
        "streetName": "CAMWOOD",
        "streetDirectionId": null,
        "streetTypeId": "DR",
        "placeName": "KESWICK",
        "streetNameDisplayText": "CAMWOOD DR, KESWICK"
      }
    ]
  },
  {
    "postal": "L4P6H8",
    "result": []
  },
  {
    "postal": "L4P9T3",
    "result": []
  },
  {
    "postal": "L4P5L9",
    "result": []
  },
  {
    "postal": "L4P7X7",
    "result": []
  },
  {
    "postal": "L4P3J5",
    "result": [
      {
        "electoralDistricts": [
          {
            "election": null,
            "id": 121,
            "name": "York—Simcoe"
          }
        ],
        "pollDivisionIds": [
          10142923
        ],
        "postalCode": "L4P3J5",
        "streetName": "METRO",
        "streetDirectionId": "S",
        "streetTypeId": "RD",
        "placeName": "KESWICK",
        "streetNameDisplayText": "METRO RD S, KESWICK"
      }
    ]
  },
  {
    "postal": "L4P4J5",
    "result": []
  },
  {
    "postal": "L4P6J2",
    "result": []
  },
  {
    "postal": "L4P5V6",
    "result": []
  },
  {
    "postal": "L4P3N2",
    "result": [
      {
        "electoralDistricts": [
          {
            "election": null,
            "id": 121,
            "name": "York—Simcoe"
          }
        ],
        "pollDivisionIds": [
          10142924,
          10142923
        ],
        "postalCode": "L4P3N2",
        "streetName": "NATANYA",
        "streetDirectionId": null,
        "streetTypeId": "BLVD",
        "placeName": "KESWICK",
        "streetNameDisplayText": "NATANYA BLVD, KESWICK"
      },
      {
        "electoralDistricts": [
          {
            "election": null,
            "id": 121,
            "name": "York—Simcoe"
          }
        ],
        "pollDivisionIds": [
          10142924
        ],
        "postalCode": "L4P3N2",
        "streetName": "VERONA",
        "streetDirectionId": null,
        "streetTypeId": "CRES",
        "placeName": "KESWICK",
        "streetNameDisplayText": "VERONA CRES, KESWICK"
      }
    ]
  },
  {
    "postal": "L4P3B1",
    "result": [
      {
        "electoralDistricts": [
          {
            "election": null,
            "id": 121,
            "name": "York—Simcoe"
          }
        ],
        "pollDivisionIds": [
          10142927
        ],
        "postalCode": "L4P3B1",
        "streetName": "IRENE",
        "streetDirectionId": null,
        "streetTypeId": "DR",
        "placeName": "KESWICK",
        "streetNameDisplayText": "IRENE DR, KESWICK"
      }
    ]
  },
  {
    "postal": "L4P8B5",
    "result": []
  },
  {
    "postal": "L4P0K1",
    "result": []
  },
  {
    "postal": "L4P7M7",
    "result": []
  },
  {
    "postal": "L4P2M2",
    "result": [
      {
        "electoralDistricts": [
          {
            "election": null,
            "id": 121,
            "name": "York—Simcoe"
          }
        ],
        "pollDivisionIds": [
          10142923
        ],
        "postalCode": "L4P2M2",
        "streetName": "COOKS BAY",
        "streetDirectionId": null,
        "streetTypeId": "DR",
        "placeName": "KESWICK",
        "streetNameDisplayText": "COOKS BAY DR, KESWICK"
      },
      {
        "electoralDistricts": [
          {
            "election": null,
            "id": 121,
            "name": "York—Simcoe"
          }
        ],
        "pollDivisionIds": [
          10142923
        ],
        "postalCode": "L4P2M2",
        "streetName": "COOK'S BAY",
        "streetDirectionId": null,
        "streetTypeId": "DR",
        "placeName": "KESWICK",
        "streetNameDisplayText": "COOK'S BAY DR, KESWICK"
      }
    ]
  },
  {
    "postal": "L4P9N3",
    "result": []
  },
  {
    "postal": "L4P4Y8",
    "result": []
  },
  {
    "postal": "L4P3V7",
    "result": [
      {
        "electoralDistricts": [
          {
            "election": null,
            "id": 121,
            "name": "York—Simcoe"
          }
        ],
        "pollDivisionIds": [
          10142923
        ],
        "postalCode": "L4P3V7",
        "streetName": "GWENDOLYN",
        "streetDirectionId": null,
        "streetTypeId": "BLVD",
        "placeName": "KESWICK",
        "streetNameDisplayText": "GWENDOLYN BLVD, KESWICK"
      }
    ]
  },
  {
    "postal": "L4P8Z1",
    "result": []
  },
  {
    "postal": "L4P7B3",
    "result": []
  },
  {
    "postal": "L4P3A8",
    "result": [
      {
        "electoralDistricts": [
          {
            "election": null,
            "id": 121,
            "name": "York—Simcoe"
          }
        ],
        "pollDivisionIds": [
          10142927
        ],
        "postalCode": "L4P3A8",
        "streetName": "WALTER",
        "streetDirectionId": null,
        "streetTypeId": "DR",
        "placeName": "KESWICK",
        "streetNameDisplayText": "WALTER DR, KESWICK"
      }
    ]
  },
  {
    "postal": "L4P7V5",
    "result": []
  },
  {
    "postal": "L4P2T2",
    "result": [
      {
        "electoralDistricts": [
          {
            "election": null,
            "id": 121,
            "name": "York—Simcoe"
          }
        ],
        "pollDivisionIds": [
          10142926
        ],
        "postalCode": "L4P2T2",
        "streetName": "BAYVIEW",
        "streetDirectionId": null,
        "streetTypeId": "AVE",
        "placeName": "KESWICK",
        "streetNameDisplayText": "BAYVIEW AVE, KESWICK"
      }
    ]
  },
  {
    "postal": "L4P6L3",
    "result": []
  },
  {
    "postal": "L4P0L2",
    "result": []
  },
  {
    "postal": "L4P5Y8",
    "result": []
  },
  {
    "postal": "L4P0B8",
    "result": [
      {
        "electoralDistricts": [
          {
            "election": null,
            "id": 121,
            "name": "York—Simcoe"
          }
        ],
        "pollDivisionIds": [
          10142927
        ],
        "postalCode": "L4P0B8",
        "streetName": "BARDAWILL",
        "streetDirectionId": null,
        "streetTypeId": "AVE",
        "placeName": "KESWICK",
        "streetNameDisplayText": "BARDAWILL AVE, KESWICK"
      },
      {
        "electoralDistricts": [
          {
            "election": null,
            "id": 121,
            "name": "York—Simcoe"
          }
        ],
        "pollDivisionIds": [
          10142927
        ],
        "postalCode": "L4P0B8",
        "streetName": "CARNESS",
        "streetDirectionId": null,
        "streetTypeId": "CRES",
        "placeName": "KESWICK",
        "streetNameDisplayText": "CARNESS CRES, KESWICK"
      },
      {
        "electoralDistricts": [
          {
            "election": null,
            "id": 121,
            "name": "York—Simcoe"
          }
        ],
        "pollDivisionIds": [
          10142927
        ],
        "postalCode": "L4P0B8",
        "streetName": "GREY WING",
        "streetDirectionId": null,
        "streetTypeId": "AV",
        "placeName": "KESWICK",
        "streetNameDisplayText": "GREY WING AV, KESWICK"
      },
      {
        "electoralDistricts": [
          {
            "election": null,
            "id": 121,
            "name": "York—Simcoe"
          }
        ],
        "pollDivisionIds": [
          10142927
        ],
        "postalCode": "L4P0B8",
        "streetName": "GREY WING",
        "streetDirectionId": null,
        "streetTypeId": "AVE",
        "placeName": "KESWICK",
        "streetNameDisplayText": "GREY WING AVE, KESWICK"
      }
    ]
  },
  {
    "postal": "L4P6R5",
    "result": []
  },
  {
    "postal": "L4P8W6",
    "result": []
  },
  {
    "postal": "L4P8G6",
    "result": []
  },
  {
    "postal": "L4P6X3",
    "result": []
  },
  {
    "postal": "L4P7R7",
    "result": []
  },
  {
    "postal": "L4P4B6",
    "result": [
      {
        "electoralDistricts": [
          {
            "election": null,
            "id": 121,
            "name": "York—Simcoe"
          }
        ],
        "pollDivisionIds": [
          10142919
        ],
        "postalCode": "L4P4B6",
        "streetName": "IVYGREEN",
        "streetDirectionId": null,
        "streetTypeId": "RD",
        "placeName": "KESWICK",
        "streetNameDisplayText": "IVYGREEN RD, KESWICK"
      },
      {
        "electoralDistricts": [
          {
            "election": null,
            "id": 121,
            "name": "York—Simcoe"
          }
        ],
        "pollDivisionIds": [
          10142919
        ],
        "postalCode": "L4P4B6",
        "streetName": "KERFOOT",
        "streetDirectionId": null,
        "streetTypeId": "CRES",
        "placeName": "KESWICK",
        "streetNameDisplayText": "KERFOOT CRES, KESWICK"
      }
    ]
  },
  {
    "postal": "L4P3P9",
    "result": [
      {
        "electoralDistricts": [
          {
            "election": null,
            "id": 121,
            "name": "York—Simcoe"
          }
        ],
        "pollDivisionIds": [
          10142924
        ],
        "postalCode": "L4P3P9",
        "streetName": "DOON",
        "streetDirectionId": null,
        "streetTypeId": "CRES",
        "placeName": "KESWICK",
        "streetNameDisplayText": "DOON CRES, KESWICK"
      },
      {
        "electoralDistricts": [
          {
            "election": null,
            "id": 121,
            "name": "York—Simcoe"
          }
        ],
        "pollDivisionIds": [
          10142924
        ],
        "postalCode": "L4P3P9",
        "streetName": "LADYBURN",
        "streetDirectionId": null,
        "streetTypeId": "DR",
        "placeName": "KESWICK",
        "streetNameDisplayText": "LADYBURN DR, KESWICK"
      },
      {
        "electoralDistricts": [
          {
            "election": null,
            "id": 121,
            "name": "York—Simcoe"
          }
        ],
        "pollDivisionIds": [
          10142924
        ],
        "postalCode": "L4P3P9",
        "streetName": "NATANYA",
        "streetDirectionId": null,
        "streetTypeId": "BLVD",
        "placeName": "KESWICK",
        "streetNameDisplayText": "NATANYA BLVD, KESWICK"
      }
    ]
  },
  {
    "postal": "L4P2T3",
    "result": [
      {
        "electoralDistricts": [
          {
            "election": null,
            "id": 121,
            "name": "York—Simcoe"
          }
        ],
        "pollDivisionIds": [
          10142926
        ],
        "postalCode": "L4P2T3",
        "streetName": "BAYVIEW",
        "streetDirectionId": null,
        "streetTypeId": "AVE",
        "placeName": "KESWICK",
        "streetNameDisplayText": "BAYVIEW AVE, KESWICK"
      }
    ]
  },
  {
    "postal": "L4P1M4",
    "result": [
      {
        "electoralDistricts": [
          {
            "election": null,
            "id": 121,
            "name": "York—Simcoe"
          }
        ],
        "pollDivisionIds": [
          10142923
        ],
        "postalCode": "L4P1M4",
        "streetName": "COOKS BAY",
        "streetDirectionId": null,
        "streetTypeId": "DR",
        "placeName": "KESWICK",
        "streetNameDisplayText": "COOKS BAY DR, KESWICK"
      }
    ]
  },
  {
    "postal": "L4P0H1",
    "result": [
      {
        "electoralDistricts": [
          {
            "election": null,
            "id": 121,
            "name": "York—Simcoe"
          }
        ],
        "pollDivisionIds": [
          10142927
        ],
        "postalCode": "L4P0H1",
        "streetName": "MERCURY",
        "streetDirectionId": null,
        "streetTypeId": "AVE",
        "placeName": "KESWICK",
        "streetNameDisplayText": "MERCURY AVE, KESWICK"
      },
      {
        "electoralDistricts": [
          {
            "election": null,
            "id": 121,
            "name": "York—Simcoe"
          }
        ],
        "pollDivisionIds": [
          10142927
        ],
        "postalCode": "L4P0H1",
        "streetName": "MERCURY",
        "streetDirectionId": null,
        "streetTypeId": "DR",
        "placeName": "KESWICK",
        "streetNameDisplayText": "MERCURY DR, KESWICK"
      },
      {
        "electoralDistricts": [
          {
            "election": null,
            "id": 121,
            "name": "York—Simcoe"
          }
        ],
        "pollDivisionIds": [
          10142927
        ],
        "postalCode": "L4P0H1",
        "streetName": "ROBERT WILSON",
        "streetDirectionId": null,
        "streetTypeId": "CRES",
        "placeName": "KESWICK",
        "streetNameDisplayText": "ROBERT WILSON CRES, KESWICK"
      }
    ]
  },
  {
    "postal": "L4P9W3",
    "result": []
  },
  {
    "postal": "L4P6P1",
    "result": []
  },
  {
    "postal": "L4P7G2",
    "result": []
  },
  {
    "postal": "L4P4J9",
    "result": []
  },
  {
    "postal": "L4P9E4",
    "result": []
  },
  {
    "postal": "L4P8H0",
    "result": []
  },
  {
    "postal": "L4P4M7",
    "result": []
  },
  {
    "postal": "L4P2G9",
    "result": [
      {
        "electoralDistricts": [
          {
            "election": null,
            "id": 121,
            "name": "York—Simcoe"
          }
        ],
        "pollDivisionIds": [
          10142923
        ],
        "postalCode": "L4P2G9",
        "streetName": "CIRCLE RIDGE",
        "streetDirectionId": null,
        "streetTypeId": "DR",
        "placeName": "KESWICK",
        "streetNameDisplayText": "CIRCLE RIDGE DR, KESWICK"
      }
    ]
  },
  {
    "postal": "L4P8T2",
    "result": []
  },
  {
    "postal": "L4P7G7",
    "result": []
  },
  {
    "postal": "L4P4Z3",
    "result": []
  },
  {
    "postal": "L4P5B3",
    "result": []
  },
  {
    "postal": "L4P1S7",
    "result": [
      {
        "electoralDistricts": [
          {
            "election": null,
            "id": 121,
            "name": "York—Simcoe"
          }
        ],
        "pollDivisionIds": [
          10142926
        ],
        "postalCode": "L4P1S7",
        "streetName": "LAKE",
        "streetDirectionId": "S",
        "streetTypeId": "DR",
        "placeName": "KESWICK",
        "streetNameDisplayText": "LAKE DR S, KESWICK"
      }
    ]
  },
  {
    "postal": "L4P2N7",
    "result": [
      {
        "electoralDistricts": [
          {
            "election": null,
            "id": 121,
            "name": "York—Simcoe"
          }
        ],
        "pollDivisionIds": [
          10142923
        ],
        "postalCode": "L4P2N7",
        "streetName": "CAMERON",
        "streetDirectionId": null,
        "streetTypeId": "CRES",
        "placeName": "KESWICK",
        "streetNameDisplayText": "CAMERON CRES, KESWICK"
      }
    ]
  },
  {
    "postal": "L4P0H8",
    "result": []
  },
  {
    "postal": "L4P7Z4",
    "result": []
  },
  {
    "postal": "L4P7B1",
    "result": []
  },
  {
    "postal": "L4P7P8",
    "result": []
  },
  {
    "postal": "L4P7N0",
    "result": []
  },
  {
    "postal": "L4P3Y5",
    "result": [
      {
        "electoralDistricts": [
          {
            "election": null,
            "id": 121,
            "name": "York—Simcoe"
          }
        ],
        "pollDivisionIds": [
          10142925
        ],
        "postalCode": "L4P3Y5",
        "streetName": "AMBERVIEW",
        "streetDirectionId": null,
        "streetTypeId": "DR",
        "placeName": "KESWICK",
        "streetNameDisplayText": "AMBERVIEW DR, KESWICK"
      },
      {
        "electoralDistricts": [
          {
            "election": null,
            "id": 121,
            "name": "York—Simcoe"
          }
        ],
        "pollDivisionIds": [
          10142925
        ],
        "postalCode": "L4P3Y5",
        "streetName": "FAIRWOOD",
        "streetDirectionId": null,
        "streetTypeId": "DR",
        "placeName": "KESWICK",
        "streetNameDisplayText": "FAIRWOOD DR, KESWICK"
      }
    ]
  },
  {
    "postal": "L4P6K1",
    "result": []
  },
  {
    "postal": "L4P9X5",
    "result": []
  },
  {
    "postal": "L4P7S5",
    "result": []
  },
  {
    "postal": "L4P0A4",
    "result": [
      {
        "electoralDistricts": [
          {
            "election": null,
            "id": 121,
            "name": "York—Simcoe"
          }
        ],
        "pollDivisionIds": [
          10142924
        ],
        "postalCode": "L4P0A4",
        "streetName": "BRENNER",
        "streetDirectionId": null,
        "streetTypeId": "CRT",
        "placeName": "KESWICK",
        "streetNameDisplayText": "BRENNER CRT, KESWICK"
      },
      {
        "electoralDistricts": [
          {
            "election": null,
            "id": 121,
            "name": "York—Simcoe"
          }
        ],
        "pollDivisionIds": [
          10142924
        ],
        "postalCode": "L4P0A4",
        "streetName": "GLENDOWER",
        "streetDirectionId": null,
        "streetTypeId": "CRES",
        "placeName": "KESWICK",
        "streetNameDisplayText": "GLENDOWER CRES, KESWICK"
      },
      {
        "electoralDistricts": [
          {
            "election": null,
            "id": 121,
            "name": "York—Simcoe"
          }
        ],
        "pollDivisionIds": [
          10142924
        ],
        "postalCode": "L4P0A4",
        "streetName": "RICHMOND PARK",
        "streetDirectionId": null,
        "streetTypeId": "DR",
        "placeName": "KESWICK",
        "streetNameDisplayText": "RICHMOND PARK DR, KESWICK"
      },
      {
        "electoralDistricts": [
          {
            "election": null,
            "id": 121,
            "name": "York—Simcoe"
          }
        ],
        "pollDivisionIds": [
          10142924
        ],
        "postalCode": "L4P0A4",
        "streetName": "YORKTOWN",
        "streetDirectionId": null,
        "streetTypeId": "PL",
        "placeName": "KESWICK",
        "streetNameDisplayText": "YORKTOWN PL, KESWICK"
      }
    ]
  },
  {
    "postal": "L4P4T5",
    "result": []
  },
  {
    "postal": "L4P5K1",
    "result": []
  },
  {
    "postal": "L4P0Z9",
    "result": []
  },
  {
    "postal": "L4P7T2",
    "result": []
  },
  {
    "postal": "L4P1L5",
    "result": [
      {
        "electoralDistricts": [
          {
            "election": null,
            "id": 121,
            "name": "York—Simcoe"
          }
        ],
        "pollDivisionIds": [
          10142923
        ],
        "postalCode": "L4P1L5",
        "streetName": "METROPOLITAN",
        "streetDirectionId": null,
        "streetTypeId": "CRES",
        "placeName": "KESWICK",
        "streetNameDisplayText": "METROPOLITAN CRES, KESWICK"
      }
    ]
  },
  {
    "postal": "L4P3N5",
    "result": [
      {
        "electoralDistricts": [
          {
            "election": null,
            "id": 121,
            "name": "York—Simcoe"
          }
        ],
        "pollDivisionIds": [
          10142924
        ],
        "postalCode": "L4P3N5",
        "streetName": "AILSA",
        "streetDirectionId": null,
        "streetTypeId": "DR",
        "placeName": "KESWICK",
        "streetNameDisplayText": "AILSA DR, KESWICK"
      }
    ]
  },
  {
    "postal": "L4P6H4",
    "result": []
  },
  {
    "postal": "L4P5A5",
    "result": []
  },
  {
    "postal": "L4P3R9",
    "result": [
      {
        "electoralDistricts": [
          {
            "election": null,
            "id": 121,
            "name": "York—Simcoe"
          }
        ],
        "pollDivisionIds": [
          10142923
        ],
        "postalCode": "L4P3R9",
        "streetName": "SUNBIRD",
        "streetDirectionId": null,
        "streetTypeId": "BLVD",
        "placeName": "KESWICK",
        "streetNameDisplayText": "SUNBIRD BLVD, KESWICK"
      }
    ]
  },
  {
    "postal": "L4P7L8",
    "result": []
  },
  {
    "postal": "L4P6T6",
    "result": []
  },
  {
    "postal": "L4P7Y7",
    "result": []
  },
  {
    "postal": "L4P3M8",
    "result": [
      {
        "electoralDistricts": [
          {
            "election": null,
            "id": 121,
            "name": "York—Simcoe"
          }
        ],
        "pollDivisionIds": [
          10142925
        ],
        "postalCode": "L4P3M8",
        "streetName": "BISCAYNE",
        "streetDirectionId": null,
        "streetTypeId": "BLVD",
        "placeName": "KESWICK",
        "streetNameDisplayText": "BISCAYNE BLVD, KESWICK"
      }
    ]
  },
  {
    "postal": "L4P2E0",
    "result": []
  },
  {
    "postal": "L4P4B5",
    "result": [
      {
        "electoralDistricts": [
          {
            "election": null,
            "id": 121,
            "name": "York—Simcoe"
          }
        ],
        "pollDivisionIds": [
          10142919
        ],
        "postalCode": "L4P4B5",
        "streetName": "HIGHCASTLE",
        "streetDirectionId": null,
        "streetTypeId": "AVE",
        "placeName": "KESWICK",
        "streetNameDisplayText": "HIGHCASTLE AVE, KESWICK"
      },
      {
        "electoralDistricts": [
          {
            "election": null,
            "id": 121,
            "name": "York—Simcoe"
          }
        ],
        "pollDivisionIds": [
          10142919
        ],
        "postalCode": "L4P4B5",
        "streetName": "IVYGREEN",
        "streetDirectionId": null,
        "streetTypeId": "RD",
        "placeName": "KESWICK",
        "streetNameDisplayText": "IVYGREEN RD, KESWICK"
      },
      {
        "electoralDistricts": [
          {
            "election": null,
            "id": 121,
            "name": "York—Simcoe"
          }
        ],
        "pollDivisionIds": [
          10142919
        ],
        "postalCode": "L4P4B5",
        "streetName": "KERFOOT",
        "streetDirectionId": null,
        "streetTypeId": "CRES",
        "placeName": "KESWICK",
        "streetNameDisplayText": "KERFOOT CRES, KESWICK"
      }
    ]
  },
  {
    "postal": "L4P1J3",
    "result": [
      {
        "electoralDistricts": [
          {
            "election": null,
            "id": 121,
            "name": "York—Simcoe"
          }
        ],
        "pollDivisionIds": [
          10142923
        ],
        "postalCode": "L4P1J3",
        "streetName": "SHORECREST",
        "streetDirectionId": null,
        "streetTypeId": "RD",
        "placeName": "KESWICK",
        "streetNameDisplayText": "SHORECREST RD, KESWICK"
      }
    ]
  },
  {
    "postal": "L4P5S6",
    "result": []
  },
  {
    "postal": "L4P8P7",
    "result": []
  },
  {
    "postal": "L4P7S7",
    "result": []
  },
  {
    "postal": "L4P4C2",
    "result": []
  },
  {
    "postal": "L4P5Y0",
    "result": []
  },
  {
    "postal": "L4P2V7",
    "result": [
      {
        "electoralDistricts": [
          {
            "election": null,
            "id": 121,
            "name": "York—Simcoe"
          }
        ],
        "pollDivisionIds": [
          10142926
        ],
        "postalCode": "L4P2V7",
        "streetName": "PINE BEACH",
        "streetDirectionId": null,
        "streetTypeId": "DR",
        "placeName": "KESWICK",
        "streetNameDisplayText": "PINE BEACH DR, KESWICK"
      },
      {
        "electoralDistricts": [
          {
            "election": null,
            "id": 121,
            "name": "York—Simcoe"
          }
        ],
        "pollDivisionIds": [
          10142926
        ],
        "postalCode": "L4P2V7",
        "streetName": "PINE BEACH",
        "streetDirectionId": null,
        "streetTypeId": "RD",
        "placeName": "KESWICK",
        "streetNameDisplayText": "PINE BEACH RD, KESWICK"
      }
    ]
  },
  {
    "postal": "L4P8P5",
    "result": []
  },
  {
    "postal": "L4P5P5",
    "result": []
  },
  {
    "postal": "L4P5Z0",
    "result": []
  },
  {
    "postal": "L4P9B0",
    "result": []
  },
  {
    "postal": "L4P1L0",
    "result": []
  },
  {
    "postal": "L4P0B5",
    "result": [
      {
        "electoralDistricts": [
          {
            "election": null,
            "id": 121,
            "name": "York—Simcoe"
          }
        ],
        "pollDivisionIds": [
          10142927
        ],
        "postalCode": "L4P0B5",
        "streetName": "CARNESS",
        "streetDirectionId": null,
        "streetTypeId": "CRES",
        "placeName": "KESWICK",
        "streetNameDisplayText": "CARNESS CRES, KESWICK"
      }
    ]
  },
  {
    "postal": "L4P3L2",
    "result": [
      {
        "electoralDistricts": [
          {
            "election": null,
            "id": 121,
            "name": "York—Simcoe"
          }
        ],
        "pollDivisionIds": [
          10142925
        ],
        "postalCode": "L4P3L2",
        "streetName": "CASTILLE",
        "streetDirectionId": null,
        "streetTypeId": "CRES",
        "placeName": "KESWICK",
        "streetNameDisplayText": "CASTILLE CRES, KESWICK"
      }
    ]
  },
  {
    "postal": "L4P3B7",
    "result": [
      {
        "electoralDistricts": [
          {
            "election": null,
            "id": 121,
            "name": "York—Simcoe"
          }
        ],
        "pollDivisionIds": [
          10142927
        ],
        "postalCode": "L4P3B7",
        "streetName": "WINNIFRED",
        "streetDirectionId": null,
        "streetTypeId": "DR",
        "placeName": "KESWICK",
        "streetNameDisplayText": "WINNIFRED DR, KESWICK"
      }
    ]
  },
  {
    "postal": "L4P8L1",
    "result": []
  },
  {
    "postal": "L4P5M4",
    "result": []
  },
  {
    "postal": "L4P4G9",
    "result": [
      {
        "electoralDistricts": [
          {
            "election": null,
            "id": 121,
            "name": "York—Simcoe"
          }
        ],
        "pollDivisionIds": [
          10142927
        ],
        "postalCode": "L4P4G9",
        "streetName": "IAN",
        "streetDirectionId": null,
        "streetTypeId": "DR",
        "placeName": "KESWICK",
        "streetNameDisplayText": "IAN DR, KESWICK"
      }
    ]
  },
  {
    "postal": "L4P0P0",
    "result": []
  },
  {
    "postal": "L4P8G2",
    "result": []
  },
  {
    "postal": "L4P1V9",
    "result": []
  },
  {
    "postal": "L4P8N8",
    "result": []
  },
  {
    "postal": "L4P6S8",
    "result": []
  },
  {
    "postal": "L4P8H2",
    "result": []
  },
  {
    "postal": "L4P5R8",
    "result": []
  },
  {
    "postal": "L4P5L4",
    "result": []
  },
  {
    "postal": "L4P9E1",
    "result": []
  },
  {
    "postal": "L4P1C4",
    "result": [
      {
        "electoralDistricts": [
          {
            "election": null,
            "id": 121,
            "name": "York—Simcoe"
          }
        ],
        "pollDivisionIds": [
          10142923
        ],
        "postalCode": "L4P1C4",
        "streetName": "METRO",
        "streetDirectionId": "N",
        "streetTypeId": "RD",
        "placeName": "KESWICK",
        "streetNameDisplayText": "METRO RD N, KESWICK"
      }
    ]
  },
  {
    "postal": "L4P8W5",
    "result": []
  },
  {
    "postal": "L4P1Y4",
    "result": [
      {
        "electoralDistricts": [
          {
            "election": null,
            "id": 121,
            "name": "York—Simcoe"
          }
        ],
        "pollDivisionIds": [
          10142927
        ],
        "postalCode": "L4P1Y4",
        "streetName": "BEVERLEY",
        "streetDirectionId": null,
        "streetTypeId": "DR",
        "placeName": "KESWICK",
        "streetNameDisplayText": "BEVERLEY DR, KESWICK"
      }
    ]
  },
  {
    "postal": "L4P1C0",
    "result": []
  },
  {
    "postal": "L4P2J2",
    "result": [
      {
        "electoralDistricts": [
          {
            "election": null,
            "id": 121,
            "name": "York—Simcoe"
          }
        ],
        "pollDivisionIds": [
          10142923
        ],
        "postalCode": "L4P2J2",
        "streetName": "FREDERICK",
        "streetDirectionId": null,
        "streetTypeId": "ST",
        "placeName": "KESWICK",
        "streetNameDisplayText": "FREDERICK ST, KESWICK"
      }
    ]
  },
  {
    "postal": "L4P2J0",
    "result": []
  },
  {
    "postal": "L4P7A3",
    "result": []
  },
  {
    "postal": "L4P8M1",
    "result": []
  },
  {
    "postal": "L4P7T9",
    "result": []
  },
  {
    "postal": "L4P6C0",
    "result": []
  },
  {
    "postal": "L4P7X1",
    "result": []
  },
  {
    "postal": "L4P0G1",
    "result": [
      {
        "electoralDistricts": [
          {
            "election": null,
            "id": 121,
            "name": "York—Simcoe"
          }
        ],
        "pollDivisionIds": [
          10142927
        ],
        "postalCode": "L4P0G1",
        "streetName": "FRED MASON",
        "streetDirectionId": null,
        "streetTypeId": "ST",
        "placeName": "KESWICK",
        "streetNameDisplayText": "FRED MASON ST, KESWICK"
      }
    ]
  },
  {
    "postal": "L4P4X2",
    "result": []
  },
  {
    "postal": "L4P0N6",
    "result": []
  },
  {
    "postal": "L4P8E3",
    "result": []
  },
  {
    "postal": "L4P5S8",
    "result": []
  },
  {
    "postal": "L4P0R0",
    "result": []
  },
  {
    "postal": "L4P6J6",
    "result": []
  },
  {
    "postal": "L4P4B4",
    "result": [
      {
        "electoralDistricts": [
          {
            "election": null,
            "id": 121,
            "name": "York—Simcoe"
          }
        ],
        "pollDivisionIds": [
          10142919
        ],
        "postalCode": "L4P4B4",
        "streetName": "HIGHCASTLE",
        "streetDirectionId": null,
        "streetTypeId": "AVE",
        "placeName": "KESWICK",
        "streetNameDisplayText": "HIGHCASTLE AVE, KESWICK"
      }
    ]
  },
  {
    "postal": "L4P7E3",
    "result": []
  },
  {
    "postal": "L4P3N6",
    "result": [
      {
        "electoralDistricts": [
          {
            "election": null,
            "id": 121,
            "name": "York—Simcoe"
          }
        ],
        "pollDivisionIds": [
          10142924
        ],
        "postalCode": "L4P3N6",
        "streetName": "AILSA",
        "streetDirectionId": null,
        "streetTypeId": "DR",
        "placeName": "KESWICK",
        "streetNameDisplayText": "AILSA DR, KESWICK"
      },
      {
        "electoralDistricts": [
          {
            "election": null,
            "id": 121,
            "name": "York—Simcoe"
          }
        ],
        "pollDivisionIds": [
          10142923
        ],
        "postalCode": "L4P3N6",
        "streetName": "CARRICK",
        "streetDirectionId": null,
        "streetTypeId": "AVE",
        "placeName": "KESWICK",
        "streetNameDisplayText": "CARRICK AVE, KESWICK"
      },
      {
        "electoralDistricts": [
          {
            "election": null,
            "id": 121,
            "name": "York—Simcoe"
          }
        ],
        "pollDivisionIds": [
          10142923
        ],
        "postalCode": "L4P3N6",
        "streetName": "HADERA",
        "streetDirectionId": null,
        "streetTypeId": "PL",
        "placeName": "KESWICK",
        "streetNameDisplayText": "HADERA PL, KESWICK"
      }
    ]
  },
  {
    "postal": "L4P3X6",
    "result": [
      {
        "electoralDistricts": [
          {
            "election": null,
            "id": 121,
            "name": "York—Simcoe"
          }
        ],
        "pollDivisionIds": [
          10142925
        ],
        "postalCode": "L4P3X6",
        "streetName": "AMBERVIEW",
        "streetDirectionId": null,
        "streetTypeId": "DR",
        "placeName": "KESWICK",
        "streetNameDisplayText": "AMBERVIEW DR, KESWICK"
      },
      {
        "electoralDistricts": [
          {
            "election": null,
            "id": 121,
            "name": "York—Simcoe"
          }
        ],
        "pollDivisionIds": [
          10142925
        ],
        "postalCode": "L4P3X6",
        "streetName": "FAIRWOOD",
        "streetDirectionId": null,
        "streetTypeId": "DR",
        "placeName": "KESWICK",
        "streetNameDisplayText": "FAIRWOOD DR, KESWICK"
      }
    ]
  },
  {
    "postal": "L4P8L0",
    "result": []
  },
  {
    "postal": "L4P8N1",
    "result": []
  },
  {
    "postal": "L4P4J0",
    "result": []
  },
  {
    "postal": "L4P0X7",
    "result": []
  },
  {
    "postal": "L4P6S4",
    "result": []
  },
  {
    "postal": "L4P0Z0",
    "result": []
  },
  {
    "postal": "L4P9X8",
    "result": []
  },
  {
    "postal": "L4P3H3",
    "result": [
      {
        "electoralDistricts": [
          {
            "election": null,
            "id": 121,
            "name": "York—Simcoe"
          }
        ],
        "pollDivisionIds": [
          10142923
        ],
        "postalCode": "L4P3H3",
        "streetName": "DAVY POINT",
        "streetDirectionId": null,
        "streetTypeId": "CIR",
        "placeName": "KESWICK",
        "streetNameDisplayText": "DAVY POINT CIR, KESWICK"
      }
    ]
  },
  {
    "postal": "L4P7S2",
    "result": []
  },
  {
    "postal": "L4P3T3",
    "result": [
      {
        "electoralDistricts": [
          {
            "election": null,
            "id": 121,
            "name": "York—Simcoe"
          }
        ],
        "pollDivisionIds": [
          10142925
        ],
        "postalCode": "L4P3T3",
        "streetName": "HODGINS",
        "streetDirectionId": null,
        "streetTypeId": "AVE",
        "placeName": "KESWICK",
        "streetNameDisplayText": "HODGINS AVE, KESWICK"
      },
      {
        "electoralDistricts": [
          {
            "election": null,
            "id": 121,
            "name": "York—Simcoe"
          }
        ],
        "pollDivisionIds": [
          10142925
        ],
        "postalCode": "L4P3T3",
        "streetName": "NEWLANDS",
        "streetDirectionId": null,
        "streetTypeId": "AVE",
        "placeName": "KESWICK",
        "streetNameDisplayText": "NEWLANDS AVE, KESWICK"
      }
    ]
  },
  {
    "postal": "L4P9P3",
    "result": []
  },
  {
    "postal": "L4P4H8",
    "result": []
  },
  {
    "postal": "L4P6R1",
    "result": []
  },
  {
    "postal": "L4P1S0",
    "result": []
  },
  {
    "postal": "L4P3W8",
    "result": [
      {
        "electoralDistricts": [
          {
            "election": null,
            "id": 121,
            "name": "York—Simcoe"
          }
        ],
        "pollDivisionIds": [
          10142923
        ],
        "postalCode": "L4P3W8",
        "streetName": "GWENDOLYN",
        "streetDirectionId": null,
        "streetTypeId": "BLVD",
        "placeName": "KESWICK",
        "streetNameDisplayText": "GWENDOLYN BLVD, KESWICK"
      }
    ]
  },
  {
    "postal": "L4P4S3",
    "result": []
  },
  {
    "postal": "L4P1B6",
    "result": [
      {
        "electoralDistricts": [
          {
            "election": null,
            "id": 121,
            "name": "York—Simcoe"
          }
        ],
        "pollDivisionIds": [
          10142923
        ],
        "postalCode": "L4P1B6",
        "streetName": "METRO",
        "streetDirectionId": "N",
        "streetTypeId": "RD",
        "placeName": "KESWICK",
        "streetNameDisplayText": "METRO RD N, KESWICK"
      }
    ]
  },
  {
    "postal": "L4P8R3",
    "result": []
  },
  {
    "postal": "L4P4V9",
    "result": []
  },
  {
    "postal": "L4P9W4",
    "result": []
  },
  {
    "postal": "L4P3T4",
    "result": [
      {
        "electoralDistricts": [
          {
            "election": null,
            "id": 121,
            "name": "York—Simcoe"
          }
        ],
        "pollDivisionIds": [
          10142925
        ],
        "postalCode": "L4P3T4",
        "streetName": "BISCAYNE",
        "streetDirectionId": null,
        "streetTypeId": "BLVD",
        "placeName": "KESWICK",
        "streetNameDisplayText": "BISCAYNE BLVD, KESWICK"
      }
    ]
  },
  {
    "postal": "L4P5C7",
    "result": []
  },
  {
    "postal": "L4P3Y1",
    "result": [
      {
        "electoralDistricts": [
          {
            "election": null,
            "id": 121,
            "name": "York—Simcoe"
          }
        ],
        "pollDivisionIds": [
          10142925
        ],
        "postalCode": "L4P3Y1",
        "streetName": "FAIRWOOD",
        "streetDirectionId": null,
        "streetTypeId": "DR",
        "placeName": "KESWICK",
        "streetNameDisplayText": "FAIRWOOD DR, KESWICK"
      }
    ]
  },
  {
    "postal": "L4P5V0",
    "result": []
  },
  {
    "postal": "L4P8G8",
    "result": []
  },
  {
    "postal": "L4P8B1",
    "result": []
  },
  {
    "postal": "L4P4P5",
    "result": []
  },
  {
    "postal": "L4P7B2",
    "result": []
  },
  {
    "postal": "L4P0R2",
    "result": []
  },
  {
    "postal": "L4P4M4",
    "result": []
  },
  {
    "postal": "L4P7M4",
    "result": []
  },
  {
    "postal": "L4P9S7",
    "result": []
  },
  {
    "postal": "L4P5Z7",
    "result": []
  },
  {
    "postal": "L4P7J7",
    "result": []
  },
  {
    "postal": "L4P8R8",
    "result": []
  },
  {
    "postal": "L4P9X1",
    "result": []
  },
  {
    "postal": "L4P5M9",
    "result": []
  },
  {
    "postal": "L4P9B4",
    "result": []
  },
  {
    "postal": "L4P0L9",
    "result": []
  },
  {
    "postal": "L4P9G4",
    "result": []
  },
  {
    "postal": "L4P1J4",
    "result": [
      {
        "electoralDistricts": [
          {
            "election": null,
            "id": 121,
            "name": "York—Simcoe"
          }
        ],
        "pollDivisionIds": [
          10142923
        ],
        "postalCode": "L4P1J4",
        "streetName": "CHURCH",
        "streetDirectionId": null,
        "streetTypeId": "ST",
        "placeName": "KESWICK",
        "streetNameDisplayText": "CHURCH ST, KESWICK"
      }
    ]
  },
  {
    "postal": "L4P0W6",
    "result": []
  }
]
