[
  {
    "postal": "K1Y9J6",
    "result": []
  },
  {
    "postal": "K1Y9Z5",
    "result": []
  },
  {
    "postal": "K1Y7H8",
    "result": []
  },
  {
    "postal": "K1Y0P6",
    "result": [
      {
        "electoralDistricts": [
          {
            "election": null,
            "id": 78,
            "name": "Ottawa Centre"
          }
        ],
        "pollDivisionIds": [
          10140543
        ],
        "postalCode": "K1Y0P6",
        "streetName": "CLARENDON",
        "streetDirectionId": null,
        "streetTypeId": "AVE",
        "placeName": "OTTAWA",
        "streetNameDisplayText": "CLARENDON AVE, OTTAWA"
      }
    ]
  },
  {
    "postal": "K1Y0S7",
    "result": [
      {
        "electoralDistricts": [
          {
            "election": null,
            "id": 78,
            "name": "Ottawa Centre"
          }
        ],
        "pollDivisionIds": [
          10140542
        ],
        "postalCode": "K1Y0S7",
        "streetName": "CAROLINE",
        "streetDirectionId": null,
        "streetTypeId": "AVE",
        "placeName": "OTTAWA",
        "streetNameDisplayText": "CAROLINE AVE, OTTAWA"
      }
    ]
  },
  {
    "postal": "K1Y8B9",
    "result": []
  },
  {
    "postal": "K1Y2A6",
    "result": [
      {
        "electoralDistricts": [
          {
            "election": null,
            "id": 78,
            "name": "Ottawa Centre"
          }
        ],
        "pollDivisionIds": [
          10140548
        ],
        "postalCode": "K1Y2A6",
        "streetName": "GARLAND",
        "streetDirectionId": null,
        "streetTypeId": "ST",
        "placeName": "OTTAWA",
        "streetNameDisplayText": "GARLAND ST, OTTAWA"
      }
    ]
  },
  {
    "postal": "K1Y7V2",
    "result": []
  },
  {
    "postal": "K1Y9P4",
    "result": []
  },
  {
    "postal": "K1Y6G0",
    "result": []
  },
  {
    "postal": "K1Y2K0",
    "result": []
  },
  {
    "postal": "K1Y7N6",
    "result": []
  },
  {
    "postal": "K1Y5R3",
    "result": []
  },
  {
    "postal": "K1Y7K0",
    "result": []
  },
  {
    "postal": "K1Y3R2",
    "result": [
      {
        "electoralDistricts": [
          {
            "election": null,
            "id": 78,
            "name": "Ottawa Centre"
          }
        ],
        "pollDivisionIds": [
          10140551
        ],
        "postalCode": "K1Y3R2",
        "streetName": "NOLAN",
        "streetDirectionId": null,
        "streetTypeId": "AVE",
        "placeName": "OTTAWA",
        "streetNameDisplayText": "NOLAN AVE, OTTAWA"
      }
    ]
  },
  {
    "postal": "K1Y0J1",
    "result": [
      {
        "electoralDistricts": [
          {
            "election": null,
            "id": 78,
            "name": "Ottawa Centre"
          }
        ],
        "pollDivisionIds": [
          10140543
        ],
        "postalCode": "K1Y0J1",
        "streetName": "PICCADILLY",
        "streetDirectionId": null,
        "streetTypeId": "AVE",
        "placeName": "OTTAWA",
        "streetNameDisplayText": "PICCADILLY AVE, OTTAWA"
      }
    ]
  },
  {
    "postal": "K1Y0B0",
    "result": []
  },
  {
    "postal": "K1Y5Z2",
    "result": []
  },
  {
    "postal": "K1Y7P3",
    "result": []
  },
  {
    "postal": "K1Y2K3",
    "result": [
      {
        "electoralDistricts": [
          {
            "election": null,
            "id": 78,
            "name": "Ottawa Centre"
          }
        ],
        "pollDivisionIds": [
          10140536
        ],
        "postalCode": "K1Y2K3",
        "streetName": "CLEARVIEW",
        "streetDirectionId": null,
        "streetTypeId": "AVE",
        "placeName": "OTTAWA",
        "streetNameDisplayText": "CLEARVIEW AVE, OTTAWA"
      }
    ]
  },
  {
    "postal": "K1Y7Y6",
    "result": []
  },
  {
    "postal": "K1Y1L9",
    "result": [
      {
        "electoralDistricts": [
          {
            "election": null,
            "id": 78,
            "name": "Ottawa Centre"
          }
        ],
        "pollDivisionIds": [
          10140544
        ],
        "postalCode": "K1Y1L9",
        "streetName": "HINCHEY",
        "streetDirectionId": null,
        "streetTypeId": "AVE",
        "placeName": "OTTAWA",
        "streetNameDisplayText": "HINCHEY AVE, OTTAWA"
      }
    ]
  },
  {
    "postal": "K1Y8T0",
    "result": []
  },
  {
    "postal": "K1Y3K8",
    "result": [
      {
        "electoralDistricts": [
          {
            "election": null,
            "id": 78,
            "name": "Ottawa Centre"
          }
        ],
        "pollDivisionIds": [
          10140543
        ],
        "postalCode": "K1Y3K8",
        "streetName": "KENORA",
        "streetDirectionId": null,
        "streetTypeId": "ST",
        "placeName": "OTTAWA",
        "streetNameDisplayText": "KENORA ST, OTTAWA"
      }
    ]
  },
  {
    "postal": "K1Y5W9",
    "result": []
  },
  {
    "postal": "K1Y6T9",
    "result": []
  },
  {
    "postal": "K1Y4H1",
    "result": []
  },
  {
    "postal": "K1Y7A2",
    "result": []
  },
  {
    "postal": "K1Y5G0",
    "result": []
  },
  {
    "postal": "K1Y8V5",
    "result": []
  },
  {
    "postal": "K1Y2Y8",
    "result": [
      {
        "electoralDistricts": [
          {
            "election": null,
            "id": 78,
            "name": "Ottawa Centre"
          }
        ],
        "pollDivisionIds": [
          10140544
        ],
        "postalCode": "K1Y2Y8",
        "streetName": "WELLINGTON",
        "streetDirectionId": "W",
        "streetTypeId": "ST",
        "placeName": "OTTAWA",
        "streetNameDisplayText": "WELLINGTON ST W, OTTAWA"
      }
    ]
  },
  {
    "postal": "K1Y2B6",
    "result": [
      {
        "electoralDistricts": [
          {
            "election": null,
            "id": 78,
            "name": "Ottawa Centre"
          }
        ],
        "pollDivisionIds": [
          10140548
        ],
        "postalCode": "K1Y2B6",
        "streetName": "SPADINA",
        "streetDirectionId": null,
        "streetTypeId": "AVE",
        "placeName": "OTTAWA",
        "streetNameDisplayText": "SPADINA AVE, OTTAWA"
      }
    ]
  },
  {
    "postal": "K1Y4W8",
    "result": [
      {
        "electoralDistricts": [
          {
            "election": null,
            "id": 78,
            "name": "Ottawa Centre"
          }
        ],
        "pollDivisionIds": [
          10140542
        ],
        "postalCode": "K1Y4W8",
        "streetName": "SPENCER",
        "streetDirectionId": null,
        "streetTypeId": "ST",
        "placeName": "OTTAWA",
        "streetNameDisplayText": "SPENCER ST, OTTAWA"
      }
    ]
  },
  {
    "postal": "K1Y8H7",
    "result": []
  },
  {
    "postal": "K1Y5P1",
    "result": []
  },
  {
    "postal": "K1Y2B8",
    "result": [
      {
        "electoralDistricts": [
          {
            "election": null,
            "id": 78,
            "name": "Ottawa Centre"
          }
        ],
        "pollDivisionIds": [
          10140548
        ],
        "postalCode": "K1Y2B8",
        "streetName": "SPADINA",
        "streetDirectionId": null,
        "streetTypeId": "AVE",
        "placeName": "OTTAWA",
        "streetNameDisplayText": "SPADINA AVE, OTTAWA"
      }
    ]
  },
  {
    "postal": "K1Y0P2",
    "result": [
      {
        "electoralDistricts": [
          {
            "election": null,
            "id": 78,
            "name": "Ottawa Centre"
          }
        ],
        "pollDivisionIds": [
          10140540
        ],
        "postalCode": "K1Y0P2",
        "streetName": "CLARENDON",
        "streetDirectionId": null,
        "streetTypeId": "AVE",
        "placeName": "OTTAWA",
        "streetNameDisplayText": "CLARENDON AVE, OTTAWA"
      }
    ]
  },
  {
    "postal": "K1Y9M1",
    "result": []
  },
  {
    "postal": "K1Y3G0",
    "result": []
  },
  {
    "postal": "K1Y9Z2",
    "result": []
  },
  {
    "postal": "K1Y2A0",
    "result": []
  },
  {
    "postal": "K1Y6Y0",
    "result": []
  },
  {
    "postal": "K1Y2Z8",
    "result": [
      {
        "electoralDistricts": [
          {
            "election": null,
            "id": 78,
            "name": "Ottawa Centre"
          }
        ],
        "pollDivisionIds": [
          10140542
        ],
        "postalCode": "K1Y2Z8",
        "streetName": "WELLINGTON",
        "streetDirectionId": "W",
        "streetTypeId": "ST",
        "placeName": "OTTAWA",
        "streetNameDisplayText": "WELLINGTON ST W, OTTAWA"
      }
    ]
  },
  {
    "postal": "K1Y7Y3",
    "result": []
  },
  {
    "postal": "K1Y6Z5",
    "result": []
  },
  {
    "postal": "K1Y6E0",
    "result": []
  },
  {
    "postal": "K1Y9B7",
    "result": []
  },
  {
    "postal": "K1Y9S5",
    "result": []
  },
  {
    "postal": "K1Y3X3",
    "result": [
      {
        "electoralDistricts": [
          {
            "election": null,
            "id": 78,
            "name": "Ottawa Centre"
          }
        ],
        "pollDivisionIds": [
          10140546
        ],
        "postalCode": "K1Y3X3",
        "streetName": "SHERWOOD",
        "streetDirectionId": null,
        "streetTypeId": "DR",
        "placeName": "OTTAWA",
        "streetNameDisplayText": "SHERWOOD DR, OTTAWA"
      }
    ]
  },
  {
    "postal": "K1Y7R5",
    "result": []
  },
  {
    "postal": "K1Y2X3",
    "result": [
      {
        "electoralDistricts": [
          {
            "election": null,
            "id": 78,
            "name": "Ottawa Centre"
          }
        ],
        "pollDivisionIds": [
          10140540
        ],
        "postalCode": "K1Y2X3",
        "streetName": "WELLINGTON",
        "streetDirectionId": "W",
        "streetTypeId": "ST",
        "placeName": "OTTAWA",
        "streetNameDisplayText": "WELLINGTON ST W, OTTAWA"
      }
    ]
  },
  {
    "postal": "K1Y8Z9",
    "result": []
  },
  {
    "postal": "K1Y0N4",
    "result": [
      {
        "electoralDistricts": [
          {
            "election": null,
            "id": 78,
            "name": "Ottawa Centre"
          }
        ],
        "pollDivisionIds": [
          10140540
        ],
        "postalCode": "K1Y0N4",
        "streetName": "ROSS",
        "streetDirectionId": null,
        "streetTypeId": "AVE",
        "placeName": "OTTAWA",
        "streetNameDisplayText": "ROSS AVE, OTTAWA"
      }
    ]
  },
  {
    "postal": "K1Y1K1",
    "result": [
      {
        "electoralDistricts": [
          {
            "election": null,
            "id": 78,
            "name": "Ottawa Centre"
          }
        ],
        "pollDivisionIds": [
          10140546
        ],
        "postalCode": "K1Y1K1",
        "streetName": "WARWICK",
        "streetDirectionId": null,
        "streetTypeId": "PL",
        "placeName": "OTTAWA",
        "streetNameDisplayText": "WARWICK PL, OTTAWA"
      }
    ]
  },
  {
    "postal": "K1Y1S3",
    "result": [
      {
        "electoralDistricts": [
          {
            "election": null,
            "id": 78,
            "name": "Ottawa Centre"
          }
        ],
        "pollDivisionIds": [
          10140546
        ],
        "postalCode": "K1Y1S3",
        "streetName": "REID",
        "streetDirectionId": null,
        "streetTypeId": "AVE",
        "placeName": "OTTAWA",
        "streetNameDisplayText": "REID AVE, OTTAWA"
      }
    ]
  },
  {
    "postal": "K1Y6M4",
    "result": []
  },
  {
    "postal": "K1Y9A9",
    "result": []
  },
  {
    "postal": "K1Y9Z9",
    "result": []
  },
  {
    "postal": "K1Y6T4",
    "result": []
  },
  {
    "postal": "K1Y0B2",
    "result": [
      {
        "electoralDistricts": [
          {
            "election": null,
            "id": 78,
            "name": "Ottawa Centre"
          }
        ],
        "pollDivisionIds": [
          10140543
        ],
        "postalCode": "K1Y0B2",
        "streetName": "ISLAND PARK",
        "streetDirectionId": null,
        "streetTypeId": "DR",
        "placeName": "OTTAWA",
        "streetNameDisplayText": "ISLAND PARK DR, OTTAWA"
      }
    ]
  },
  {
    "postal": "K1Y2L9",
    "result": [
      {
        "electoralDistricts": [
          {
            "election": null,
            "id": 78,
            "name": "Ottawa Centre"
          }
        ],
        "pollDivisionIds": [
          10140541
        ],
        "postalCode": "K1Y2L9",
        "streetName": "BURNSIDE",
        "streetDirectionId": null,
        "streetTypeId": "AVE",
        "placeName": "OTTAWA",
        "streetNameDisplayText": "BURNSIDE AVE, OTTAWA"
      }
    ]
  },
  {
    "postal": "K1Y8K9",
    "result": []
  },
  {
    "postal": "K1Y2H9",
    "result": [
      {
        "electoralDistricts": [
          {
            "election": null,
            "id": 78,
            "name": "Ottawa Centre"
          }
        ],
        "pollDivisionIds": [
          10140548
        ],
        "postalCode": "K1Y2H9",
        "streetName": "BREEZEHILL",
        "streetDirectionId": "N",
        "streetTypeId": "AVE",
        "placeName": "OTTAWA",
        "streetNameDisplayText": "BREEZEHILL AVE N, OTTAWA"
      }
    ]
  },
  {
    "postal": "K1Y3Z6",
    "result": [
      {
        "electoralDistricts": [
          {
            "election": null,
            "id": 78,
            "name": "Ottawa Centre"
          }
        ],
        "pollDivisionIds": [
          10140546
        ],
        "postalCode": "K1Y3Z6",
        "streetName": "KENILWORTH",
        "streetDirectionId": null,
        "streetTypeId": "ST",
        "placeName": "OTTAWA",
        "streetNameDisplayText": "KENILWORTH ST, OTTAWA"
      }
    ]
  },
  {
    "postal": "K1Y3B0",
    "result": []
  },
  {
    "postal": "K1Y2H8",
    "result": [
      {
        "electoralDistricts": [
          {
            "election": null,
            "id": 78,
            "name": "Ottawa Centre"
          }
        ],
        "pollDivisionIds": [
          10140548
        ],
        "postalCode": "K1Y2H8",
        "streetName": "BREEZEHILL",
        "streetDirectionId": "N",
        "streetTypeId": "AVE",
        "placeName": "OTTAWA",
        "streetNameDisplayText": "BREEZEHILL AVE N, OTTAWA"
      },
      {
        "electoralDistricts": [
          {
            "election": null,
            "id": 78,
            "name": "Ottawa Centre"
          }
        ],
        "pollDivisionIds": [
          10140544
        ],
        "postalCode": "K1Y2H8",
        "streetName": "BREEZHILL",
        "streetDirectionId": "N",
        "streetTypeId": "AVE",
        "placeName": "OTTAWA",
        "streetNameDisplayText": "BREEZHILL AVE N, OTTAWA"
      }
    ]
  },
  {
    "postal": "K1Y3X2",
    "result": [
      {
        "electoralDistricts": [
          {
            "election": null,
            "id": 78,
            "name": "Ottawa Centre"
          }
        ],
        "pollDivisionIds": [
          10140546
        ],
        "postalCode": "K1Y3X2",
        "streetName": "SHERWOOD",
        "streetDirectionId": null,
        "streetTypeId": "DR",
        "placeName": "OTTAWA",
        "streetNameDisplayText": "SHERWOOD DR, OTTAWA"
      }
    ]
  },
  {
    "postal": "K1Y2E9",
    "result": [
      {
        "electoralDistricts": [
          {
            "election": null,
            "id": 78,
            "name": "Ottawa Centre"
          }
        ],
        "pollDivisionIds": [
          10140548,
          10140586
        ],
        "postalCode": "K1Y2E9",
        "streetName": "BAYSWATER",
        "streetDirectionId": null,
        "streetTypeId": "AVE",
        "placeName": "OTTAWA",
        "streetNameDisplayText": "BAYSWATER AVE, OTTAWA"
      }
    ]
  },
  {
    "postal": "K1Y9P6",
    "result": []
  },
  {
    "postal": "K1Y9E2",
    "result": []
  },
  {
    "postal": "K1Y9H2",
    "result": []
  },
  {
    "postal": "K1Y1S8",
    "result": [
      {
        "electoralDistricts": [
          {
            "election": null,
            "id": 78,
            "name": "Ottawa Centre"
          }
        ],
        "pollDivisionIds": [
          10140546
        ],
        "postalCode": "K1Y1S8",
        "streetName": "REID",
        "streetDirectionId": null,
        "streetTypeId": "AVE",
        "placeName": "OTTAWA",
        "streetNameDisplayText": "REID AVE, OTTAWA"
      }
    ]
  },
  {
    "postal": "K1Y3M6",
    "result": [
      {
        "electoralDistricts": [
          {
            "election": null,
            "id": 78,
            "name": "Ottawa Centre"
          }
        ],
        "pollDivisionIds": [
          10140543
        ],
        "postalCode": "K1Y3M6",
        "streetName": "FARADAY",
        "streetDirectionId": null,
        "streetTypeId": "ST",
        "placeName": "OTTAWA",
        "streetNameDisplayText": "FARADAY ST, OTTAWA"
      }
    ]
  },
  {
    "postal": "K1Y6Z8",
    "result": []
  },
  {
    "postal": "K1Y4J2",
    "result": []
  },
  {
    "postal": "K1Y9Y1",
    "result": []
  },
  {
    "postal": "K1Y8V6",
    "result": []
  },
  {
    "postal": "K1Y6B2",
    "result": []
  },
  {
    "postal": "K1Y1P8",
    "result": [
      {
        "electoralDistricts": [
          {
            "election": null,
            "id": 78,
            "name": "Ottawa Centre"
          }
        ],
        "pollDivisionIds": [
          10140544
        ],
        "postalCode": "K1Y1P8",
        "streetName": "STIRLING",
        "streetDirectionId": null,
        "streetTypeId": "AVE",
        "placeName": "OTTAWA",
        "streetNameDisplayText": "STIRLING AVE, OTTAWA"
      }
    ]
  },
  {
    "postal": "K1Y0V8",
    "result": [
      {
        "electoralDistricts": [
          {
            "election": null,
            "id": 78,
            "name": "Ottawa Centre"
          }
        ],
        "pollDivisionIds": [
          10140543
        ],
        "postalCode": "K1Y0V8",
        "streetName": "HARMER",
        "streetDirectionId": "S",
        "streetTypeId": "AVE",
        "placeName": "OTTAWA",
        "streetNameDisplayText": "HARMER AVE S, OTTAWA"
      }
    ]
  },
  {
    "postal": "K1Y4Y0",
    "result": []
  },
  {
    "postal": "K1Y2T4",
    "result": [
      {
        "electoralDistricts": [
          {
            "election": null,
            "id": 78,
            "name": "Ottawa Centre"
          }
        ],
        "pollDivisionIds": [
          10140544
        ],
        "postalCode": "K1Y2T4",
        "streetName": "LADOUCEUR",
        "streetDirectionId": null,
        "streetTypeId": "ST",
        "placeName": "OTTAWA",
        "streetNameDisplayText": "LADOUCEUR ST, OTTAWA"
      }
    ]
  },
  {
    "postal": "K1Y2S3",
    "result": [
      {
        "electoralDistricts": [
          {
            "election": null,
            "id": 78,
            "name": "Ottawa Centre"
          }
        ],
        "pollDivisionIds": [
          10140542
        ],
        "postalCode": "K1Y2S3",
        "streetName": "BULLMAN",
        "streetDirectionId": null,
        "streetTypeId": "ST",
        "placeName": "OTTAWA",
        "streetNameDisplayText": "BULLMAN ST, OTTAWA"
      }
    ]
  },
  {
    "postal": "K1Y0K0",
    "result": []
  },
  {
    "postal": "K1Y5N1",
    "result": []
  },
  {
    "postal": "K1Y7T0",
    "result": []
  },
  {
    "postal": "K1Y9N2",
    "result": []
  },
  {
    "postal": "K1Y5L1",
    "result": []
  },
  {
    "postal": "K1Y7G5",
    "result": []
  },
  {
    "postal": "K1Y6K2",
    "result": []
  },
  {
    "postal": "K1Y6P9",
    "result": []
  },
  {
    "postal": "K1Y0E6",
    "result": [
      {
        "electoralDistricts": [
          {
            "election": null,
            "id": 78,
            "name": "Ottawa Centre"
          }
        ],
        "pollDivisionIds": [
          10140536
        ],
        "postalCode": "K1Y0E6",
        "streetName": "KEYWORTH",
        "streetDirectionId": null,
        "streetTypeId": "AVE",
        "placeName": "OTTAWA",
        "streetNameDisplayText": "KEYWORTH AVE, OTTAWA"
      }
    ]
  },
  {
    "postal": "K1Y8R9",
    "result": []
  },
  {
    "postal": "K1Y3G9",
    "result": [
      {
        "electoralDistricts": [
          {
            "election": null,
            "id": 78,
            "name": "Ottawa Centre"
          }
        ],
        "pollDivisionIds": [
          10140544
        ],
        "postalCode": "K1Y3G9",
        "streetName": "GLADSTONE",
        "streetDirectionId": null,
        "streetTypeId": "AVE",
        "placeName": "OTTAWA",
        "streetNameDisplayText": "GLADSTONE AVE, OTTAWA"
      }
    ]
  },
  {
    "postal": "K1Y0V7",
    "result": [
      {
        "electoralDistricts": [
          {
            "election": null,
            "id": 78,
            "name": "Ottawa Centre"
          }
        ],
        "pollDivisionIds": [
          10140543
        ],
        "postalCode": "K1Y0V7",
        "streetName": "HARMER",
        "streetDirectionId": "S",
        "streetTypeId": "AVE",
        "placeName": "OTTAWA",
        "streetNameDisplayText": "HARMER AVE S, OTTAWA"
      }
    ]
  },
  {
    "postal": "K1Y2Z1",
    "result": [
      {
        "electoralDistricts": [
          {
            "election": null,
            "id": 78,
            "name": "Ottawa Centre"
          }
        ],
        "pollDivisionIds": [
          10140544
        ],
        "postalCode": "K1Y2Z1",
        "streetName": "WELLINGTON",
        "streetDirectionId": "W",
        "streetTypeId": "ST",
        "placeName": "OTTAWA",
        "streetNameDisplayText": "WELLINGTON ST W, OTTAWA"
      },
      {
        "electoralDistricts": [
          {
            "election": null,
            "id": 78,
            "name": "Ottawa Centre"
          }
        ],
        "pollDivisionIds": [
          10140544
        ],
        "postalCode": "K1Y2Z1",
        "streetName": "WELLINGTON ST.",
        "streetDirectionId": "W",
        "streetTypeId": "ST",
        "placeName": "OTTAWA",
        "streetNameDisplayText": "WELLINGTON ST. ST W, OTTAWA"
      }
    ]
  },
  {
    "postal": "K1Y7N1",
    "result": []
  },
  {
    "postal": "K1Y3C6",
    "result": [
      {
        "electoralDistricts": [
          {
            "election": null,
            "id": 78,
            "name": "Ottawa Centre"
          }
        ],
        "pollDivisionIds": [
          10140544,
          10140548
        ],
        "postalCode": "K1Y3C6",
        "streetName": "SOMERSET",
        "streetDirectionId": "W",
        "streetTypeId": "ST",
        "placeName": "OTTAWA",
        "streetNameDisplayText": "SOMERSET ST W, OTTAWA"
      }
    ]
  },
  {
    "postal": "K1Y4M1",
    "result": [
      {
        "electoralDistricts": [
          {
            "election": null,
            "id": 78,
            "name": "Ottawa Centre"
          }
        ],
        "pollDivisionIds": [
          10140584
        ],
        "postalCode": "K1Y4M1",
        "streetName": "BURNSIDE",
        "streetDirectionId": null,
        "streetTypeId": "AVE",
        "placeName": "OTTAWA",
        "streetNameDisplayText": "BURNSIDE AVE, OTTAWA"
      }
    ]
  },
  {
    "postal": "K1Y9K2",
    "result": []
  },
  {
    "postal": "K1Y9S6",
    "result": []
  },
  {
    "postal": "K1Y4X1",
    "result": [
      {
        "electoralDistricts": [
          {
            "election": null,
            "id": 78,
            "name": "Ottawa Centre"
          }
        ],
        "pollDivisionIds": [
          10140542
        ],
        "postalCode": "K1Y4X1",
        "streetName": "PANORAMA",
        "streetDirectionId": null,
        "streetTypeId": "PVT",
        "placeName": "OTTAWA",
        "streetNameDisplayText": "PANORAMA PVT, OTTAWA"
      }
    ]
  },
  {
    "postal": "K1Y8W2",
    "result": []
  },
  {
    "postal": "K1Y7N2",
    "result": []
  },
  {
    "postal": "K1Y8S3",
    "result": []
  },
  {
    "postal": "K1Y4V0",
    "result": []
  },
  {
    "postal": "K1Y6W4",
    "result": []
  },
  {
    "postal": "K1Y5M1",
    "result": []
  },
  {
    "postal": "K1Y0S4",
    "result": [
      {
        "electoralDistricts": [
          {
            "election": null,
            "id": 78,
            "name": "Ottawa Centre"
          }
        ],
        "pollDivisionIds": [
          10140542
        ],
        "postalCode": "K1Y0S4",
        "streetName": "SMIRLE",
        "streetDirectionId": null,
        "streetTypeId": "AVE",
        "placeName": "OTTAWA",
        "streetNameDisplayText": "SMIRLE AVE, OTTAWA"
      }
    ]
  },
  {
    "postal": "K1Y5X6",
    "result": []
  },
  {
    "postal": "K1Y8L5",
    "result": []
  },
  {
    "postal": "K1Y5M8",
    "result": []
  },
  {
    "postal": "K1Y2G3",
    "result": [
      {
        "electoralDistricts": [
          {
            "election": null,
            "id": 78,
            "name": "Ottawa Centre"
          }
        ],
        "pollDivisionIds": [
          10140548
        ],
        "postalCode": "K1Y2G3",
        "streetName": "BAYSWATER",
        "streetDirectionId": null,
        "streetTypeId": "AVE",
        "placeName": "OTTAWA",
        "streetNameDisplayText": "BAYSWATER AVE, OTTAWA"
      }
    ]
  },
  {
    "postal": "K1Y8E4",
    "result": []
  },
  {
    "postal": "K1Y7S9",
    "result": []
  },
  {
    "postal": "K1Y1K3",
    "result": [
      {
        "electoralDistricts": [
          {
            "election": null,
            "id": 78,
            "name": "Ottawa Centre"
          }
        ],
        "pollDivisionIds": [
          10140544
        ],
        "postalCode": "K1Y1K3",
        "streetName": "PINEHURST",
        "streetDirectionId": null,
        "streetTypeId": "AVE",
        "placeName": "OTTAWA",
        "streetNameDisplayText": "PINEHURST AVE, OTTAWA"
      }
    ]
  },
  {
    "postal": "K1Y4E1",
    "result": [
      {
        "electoralDistricts": [
          {
            "election": null,
            "id": 78,
            "name": "Ottawa Centre"
          }
        ],
        "pollDivisionIds": [
          10140546
        ],
        "postalCode": "K1Y4E1",
        "streetName": "LAURENTIAN",
        "streetDirectionId": null,
        "streetTypeId": "PL",
        "placeName": "OTTAWA",
        "streetNameDisplayText": "LAURENTIAN PL, OTTAWA"
      }
    ]
  },
  {
    "postal": "K1Y4R2",
    "result": [
      {
        "electoralDistricts": [
          {
            "election": null,
            "id": 78,
            "name": "Ottawa Centre"
          }
        ],
        "pollDivisionIds": [
          10140551
        ],
        "postalCode": "K1Y4R2",
        "streetName": "SUMMERSHADE",
        "streetDirectionId": null,
        "streetTypeId": "PVT",
        "placeName": "OTTAWA",
        "streetNameDisplayText": "SUMMERSHADE PVT, OTTAWA"
      }
    ]
  },
  {
    "postal": "K1Y6T0",
    "result": []
  },
  {
    "postal": "K1Y3K5",
    "result": [
      {
        "electoralDistricts": [
          {
            "election": null,
            "id": 78,
            "name": "Ottawa Centre"
          }
        ],
        "pollDivisionIds": [
          10140544
        ],
        "postalCode": "K1Y3K5",
        "streetName": "EDGAR",
        "streetDirectionId": null,
        "streetTypeId": "ST",
        "placeName": "OTTAWA",
        "streetNameDisplayText": "EDGAR ST, OTTAWA"
      }
    ]
  },
  {
    "postal": "K1Y3S3",
    "result": [
      {
        "electoralDistricts": [
          {
            "election": null,
            "id": 78,
            "name": "Ottawa Centre"
          }
        ],
        "pollDivisionIds": [
          10140551
        ],
        "postalCode": "K1Y3S3",
        "streetName": "OAKVALE",
        "streetDirectionId": null,
        "streetTypeId": "AVE",
        "placeName": "OTTAWA",
        "streetNameDisplayText": "OAKVALE AVE, OTTAWA"
      }
    ]
  },
  {
    "postal": "K1Y3L4",
    "result": [
      {
        "electoralDistricts": [
          {
            "election": null,
            "id": 78,
            "name": "Ottawa Centre"
          }
        ],
        "pollDivisionIds": [
          10140543
        ],
        "postalCode": "K1Y3L4",
        "streetName": "JAVA",
        "streetDirectionId": null,
        "streetTypeId": "ST",
        "placeName": "OTTAWA",
        "streetNameDisplayText": "JAVA ST, OTTAWA"
      }
    ]
  },
  {
    "postal": "K1Y9Y2",
    "result": []
  },
  {
    "postal": "K1Y1E0",
    "result": []
  },
  {
    "postal": "K1Y9A4",
    "result": []
  },
  {
    "postal": "K1Y1L3",
    "result": [
      {
        "electoralDistricts": [
          {
            "election": null,
            "id": 78,
            "name": "Ottawa Centre"
          }
        ],
        "pollDivisionIds": [
          10140551
        ],
        "postalCode": "K1Y1L3",
        "streetName": "APPLEGATE",
        "streetDirectionId": null,
        "streetTypeId": "PVT",
        "placeName": "OTTAWA",
        "streetNameDisplayText": "APPLEGATE PVT, OTTAWA"
      }
    ]
  },
  {
    "postal": "K1Y6N1",
    "result": []
  },
  {
    "postal": "K1Y6G7",
    "result": []
  },
  {
    "postal": "K1Y7W1",
    "result": []
  },
  {
    "postal": "K1Y4M6",
    "result": []
  },
  {
    "postal": "K1Y1K0",
    "result": []
  },
  {
    "postal": "K1Y3E2",
    "result": [
      {
        "electoralDistricts": [
          {
            "election": null,
            "id": 78,
            "name": "Ottawa Centre"
          }
        ],
        "pollDivisionIds": [
          10140548
        ],
        "postalCode": "K1Y3E2",
        "streetName": "LAUREL",
        "streetDirectionId": null,
        "streetTypeId": "ST",
        "placeName": "OTTAWA",
        "streetNameDisplayText": "LAUREL ST, OTTAWA"
      }
    ]
  },
  {
    "postal": "K1Y5H4",
    "result": []
  },
  {
    "postal": "K1Y1K7",
    "result": [
      {
        "electoralDistricts": [
          {
            "election": null,
            "id": 78,
            "name": "Ottawa Centre"
          }
        ],
        "pollDivisionIds": [
          10140541
        ],
        "postalCode": "K1Y1K7",
        "streetName": "FORWARD",
        "streetDirectionId": null,
        "streetTypeId": "AVE",
        "placeName": "OTTAWA",
        "streetNameDisplayText": "FORWARD AVE, OTTAWA"
      }
    ]
  },
  {
    "postal": "K1Y0H0",
    "result": []
  },
  {
    "postal": "K1Y0J3",
    "result": [
      {
        "electoralDistricts": [
          {
            "election": null,
            "id": 78,
            "name": "Ottawa Centre"
          }
        ],
        "pollDivisionIds": [
          10140536
        ],
        "postalCode": "K1Y0J3",
        "streetName": "CARLETON",
        "streetDirectionId": null,
        "streetTypeId": "AVE",
        "placeName": "OTTAWA",
        "streetNameDisplayText": "CARLETON AVE, OTTAWA"
      },
      {
        "electoralDistricts": [
          {
            "election": null,
            "id": 43,
            "name": "Kanataâ€”Carleton"
          }
        ],
        "pollDivisionIds": [
          10138935
        ],
        "postalCode": "K1Y0J3",
        "streetName": "CARLETON",
        "streetDirectionId": null,
        "streetTypeId": "ST",
        "placeName": "OTTAWA",
        "streetNameDisplayText": "CARLETON ST, OTTAWA"
      }
    ]
  },
  {
    "postal": "K1Y1X6",
    "result": [
      {
        "electoralDistricts": [
          {
            "election": null,
            "id": 78,
            "name": "Ottawa Centre"
          }
        ],
        "pollDivisionIds": [
          10140544
        ],
        "postalCode": "K1Y1X6",
        "streetName": "FAIRMONT",
        "streetDirectionId": null,
        "streetTypeId": "AVE",
        "placeName": "OTTAWA",
        "streetNameDisplayText": "FAIRMONT AVE, OTTAWA"
      }
    ]
  },
  {
    "postal": "K1Y2Z6",
    "result": [
      {
        "electoralDistricts": [
          {
            "election": null,
            "id": 78,
            "name": "Ottawa Centre"
          }
        ],
        "pollDivisionIds": [
          10140542
        ],
        "postalCode": "K1Y2Z6",
        "streetName": "WELLINGTON",
        "streetDirectionId": "W",
        "streetTypeId": "ST",
        "placeName": "OTTAWA",
        "streetNameDisplayText": "WELLINGTON ST W, OTTAWA"
      }
    ]
  },
  {
    "postal": "K1Y4R9",
    "result": []
  },
  {
    "postal": "K1Y0W8",
    "result": [
      {
        "electoralDistricts": [
          {
            "election": null,
            "id": 78,
            "name": "Ottawa Centre"
          }
        ],
        "pollDivisionIds": [
          10140543
        ],
        "postalCode": "K1Y0W8",
        "streetName": "HURON",
        "streetDirectionId": "S",
        "streetTypeId": "AVE",
        "placeName": "OTTAWA",
        "streetNameDisplayText": "HURON AVE S, OTTAWA"
      }
    ]
  },
  {
    "postal": "K1Y1L4",
    "result": [
      {
        "electoralDistricts": [
          {
            "election": null,
            "id": 78,
            "name": "Ottawa Centre"
          }
        ],
        "pollDivisionIds": [
          10140541
        ],
        "postalCode": "K1Y1L4",
        "streetName": "HINCHEY",
        "streetDirectionId": null,
        "streetTypeId": "AVE",
        "placeName": "OTTAWA",
        "streetNameDisplayText": "HINCHEY AVE, OTTAWA"
      }
    ]
  },
  {
    "postal": "K1Y0C8",
    "result": [
      {
        "electoralDistricts": [
          {
            "election": null,
            "id": 78,
            "name": "Ottawa Centre"
          }
        ],
        "pollDivisionIds": [
          10140535
        ],
        "postalCode": "K1Y0C8",
        "streetName": "DANIEL",
        "streetDirectionId": null,
        "streetTypeId": "AVE",
        "placeName": "OTTAWA",
        "streetNameDisplayText": "DANIEL AVE, OTTAWA"
      }
    ]
  },
  {
    "postal": "K1Y9X7",
    "result": []
  },
  {
    "postal": "K1Y4T1",
    "result": [
      {
        "electoralDistricts": [
          {
            "election": null,
            "id": 78,
            "name": "Ottawa Centre"
          }
        ],
        "pollDivisionIds": [
          10140548
        ],
        "postalCode": "K1Y4T1",
        "streetName": "ARMSTRONG",
        "streetDirectionId": null,
        "streetTypeId": "ST",
        "placeName": "OTTAWA",
        "streetNameDisplayText": "ARMSTRONG ST, OTTAWA"
      },
      {
        "electoralDistricts": [
          {
            "election": null,
            "id": 78,
            "name": "Ottawa Centre"
          }
        ],
        "pollDivisionIds": [
          10140548
        ],
        "postalCode": "K1Y4T1",
        "streetName": "BAYVIEW",
        "streetDirectionId": null,
        "streetTypeId": "RD",
        "placeName": "OTTAWA",
        "streetNameDisplayText": "BAYVIEW RD, OTTAWA"
      },
      {
        "electoralDistricts": [
          {
            "election": null,
            "id": 78,
            "name": "Ottawa Centre"
          }
        ],
        "pollDivisionIds": [
          10140548
        ],
        "postalCode": "K1Y4T1",
        "streetName": "OMEARA",
        "streetDirectionId": null,
        "streetTypeId": "ST",
        "placeName": "OTTAWA",
        "streetNameDisplayText": "OMEARA ST, OTTAWA"
      }
    ]
  },
  {
    "postal": "K1Y0M0",
    "result": []
  },
  {
    "postal": "K1Y6A2",
    "result": []
  },
  {
    "postal": "K1Y9S8",
    "result": []
  },
  {
    "postal": "K1Y9T4",
    "result": []
  },
  {
    "postal": "K1Y9Y4",
    "result": []
  },
  {
    "postal": "K1Y6G5",
    "result": []
  },
  {
    "postal": "K1Y6H9",
    "result": []
  },
  {
    "postal": "K1Y2P3",
    "result": [
      {
        "electoralDistricts": [
          {
            "election": null,
            "id": 78,
            "name": "Ottawa Centre"
          }
        ],
        "pollDivisionIds": [
          10140540
        ],
        "postalCode": "K1Y2P3",
        "streetName": "GOULD",
        "streetDirectionId": null,
        "streetTypeId": "ST",
        "placeName": "OTTAWA",
        "streetNameDisplayText": "GOULD ST, OTTAWA"
      }
    ]
  },
  {
    "postal": "K1Y1T6",
    "result": [
      {
        "electoralDistricts": [
          {
            "election": null,
            "id": 78,
            "name": "Ottawa Centre"
          }
        ],
        "pollDivisionIds": [
          10140544
        ],
        "postalCode": "K1Y1T6",
        "streetName": "PINHEY",
        "streetDirectionId": null,
        "streetTypeId": "ST",
        "placeName": "OTTAWA",
        "streetNameDisplayText": "PINHEY ST, OTTAWA"
      }
    ]
  },
  {
    "postal": "K1Y4P6",
    "result": [
      {
        "electoralDistricts": [
          {
            "election": null,
            "id": 78,
            "name": "Ottawa Centre"
          }
        ],
        "pollDivisionIds": [
          10140635,
          10140546
        ],
        "postalCode": "K1Y4P6",
        "streetName": "CARLING",
        "streetDirectionId": null,
        "streetTypeId": "AVE",
        "placeName": "OTTAWA",
        "streetNameDisplayText": "CARLING AVE, OTTAWA"
      }
    ]
  },
  {
    "postal": "K1Y3K1",
    "result": [
      {
        "electoralDistricts": [
          {
            "election": null,
            "id": 78,
            "name": "Ottawa Centre"
          }
        ],
        "pollDivisionIds": [
          10140543
        ],
        "postalCode": "K1Y3K1",
        "streetName": "SIMS",
        "streetDirectionId": null,
        "streetTypeId": "AVE",
        "placeName": "OTTAWA",
        "streetNameDisplayText": "SIMS AVE, OTTAWA"
      }
    ]
  },
  {
    "postal": "K1Y6X4",
    "result": []
  },
  {
    "postal": "K1Y4M8",
    "result": []
  },
  {
    "postal": "K1Y2Y1",
    "result": [
      {
        "electoralDistricts": [
          {
            "election": null,
            "id": 78,
            "name": "Ottawa Centre"
          }
        ],
        "pollDivisionIds": [
          10140544
        ],
        "postalCode": "K1Y2Y1",
        "streetName": "WELLINGTON",
        "streetDirectionId": "W",
        "streetTypeId": "ST",
        "placeName": "OTTAWA",
        "streetNameDisplayText": "WELLINGTON ST W, OTTAWA"
      }
    ]
  },
  {
    "postal": "K1Y6M1",
    "result": []
  },
  {
    "postal": "K1Y5L8",
    "result": []
  },
  {
    "postal": "K1Y3P6",
    "result": [
      {
        "electoralDistricts": [
          {
            "election": null,
            "id": 78,
            "name": "Ottawa Centre"
          }
        ],
        "pollDivisionIds": [
          10140551
        ],
        "postalCode": "K1Y3P6",
        "streetName": "YOUNG",
        "streetDirectionId": null,
        "streetTypeId": "ST",
        "placeName": "OTTAWA",
        "streetNameDisplayText": "YOUNG ST, OTTAWA"
      }
    ]
  },
  {
    "postal": "K1Y9A5",
    "result": []
  },
  {
    "postal": "K1Y7K1",
    "result": []
  },
  {
    "postal": "K1Y3J4",
    "result": [
      {
        "electoralDistricts": [
          {
            "election": null,
            "id": 78,
            "name": "Ottawa Centre"
          }
        ],
        "pollDivisionIds": [
          10140543
        ],
        "postalCode": "K1Y3J4",
        "streetName": "FOSTER",
        "streetDirectionId": null,
        "streetTypeId": "ST",
        "placeName": "OTTAWA",
        "streetNameDisplayText": "FOSTER ST, OTTAWA"
      }
    ]
  },
  {
    "postal": "K1Y5E7",
    "result": []
  },
  {
    "postal": "K1Y3A7",
    "result": [
      {
        "electoralDistricts": [
          {
            "election": null,
            "id": 78,
            "name": "Ottawa Centre"
          }
        ],
        "pollDivisionIds": [
          10140543
        ],
        "postalCode": "K1Y3A7",
        "streetName": "WELLINGTON",
        "streetDirectionId": "W",
        "streetTypeId": "ST",
        "placeName": "OTTAWA",
        "streetNameDisplayText": "WELLINGTON ST W, OTTAWA"
      }
    ]
  },
  {
    "postal": "K1Y1B9",
    "result": [
      {
        "electoralDistricts": [
          {
            "election": null,
            "id": 78,
            "name": "Ottawa Centre"
          }
        ],
        "pollDivisionIds": [
          10140543
        ],
        "postalCode": "K1Y1B9",
        "streetName": "HAMILTON",
        "streetDirectionId": "N",
        "streetTypeId": "AVE",
        "placeName": "OTTAWA",
        "streetNameDisplayText": "HAMILTON AVE N, OTTAWA"
      }
    ]
  },
  {
    "postal": "K1Y9E8",
    "result": []
  },
  {
    "postal": "K1Y1C9",
    "result": [
      {
        "electoralDistricts": [
          {
            "election": null,
            "id": 78,
            "name": "Ottawa Centre"
          }
        ],
        "pollDivisionIds": [
          10140546
        ],
        "postalCode": "K1Y1C9",
        "streetName": "HAMILTON",
        "streetDirectionId": "S",
        "streetTypeId": "AVE",
        "placeName": "OTTAWA",
        "streetNameDisplayText": "HAMILTON AVE S, OTTAWA"
      }
    ]
  },
  {
    "postal": "K1Y3B5",
    "result": []
  },
  {
    "postal": "K1Y8R0",
    "result": []
  },
  {
    "postal": "K1Y3P2",
    "result": [
      {
        "electoralDistricts": [
          {
            "election": null,
            "id": 78,
            "name": "Ottawa Centre"
          }
        ],
        "pollDivisionIds": [
          10140543
        ],
        "postalCode": "K1Y3P2",
        "streetName": "ISLAND PARK",
        "streetDirectionId": null,
        "streetTypeId": "CRES",
        "placeName": "OTTAWA",
        "streetNameDisplayText": "ISLAND PARK CRES, OTTAWA"
      }
    ]
  },
  {
    "postal": "K1Y5V4",
    "result": []
  },
  {
    "postal": "K1Y4H0",
    "result": []
  },
  {
    "postal": "K1Y4S7",
    "result": [
      {
        "electoralDistricts": [
          {
            "election": null,
            "id": 78,
            "name": "Ottawa Centre"
          }
        ],
        "pollDivisionIds": [
          10140542
        ],
        "postalCode": "K1Y4S7",
        "streetName": "SCOTT",
        "streetDirectionId": null,
        "streetTypeId": "ST",
        "placeName": "OTTAWA",
        "streetNameDisplayText": "SCOTT ST, OTTAWA"
      }
    ]
  },
  {
    "postal": "K1Y6C2",
    "result": []
  },
  {
    "postal": "K1Y8W3",
    "result": []
  },
  {
    "postal": "K1Y4M5",
    "result": []
  },
  {
    "postal": "K1Y5T1",
    "result": []
  },
  {
    "postal": "K1Y3B3",
    "result": [
      {
        "electoralDistricts": [
          {
            "election": null,
            "id": 78,
            "name": "Ottawa Centre"
          }
        ],
        "pollDivisionIds": [
          10140543
        ],
        "postalCode": "K1Y3B3",
        "streetName": "HARMER",
        "streetDirectionId": "S",
        "streetTypeId": "AVE",
        "placeName": "OTTAWA",
        "streetNameDisplayText": "HARMER AVE S, OTTAWA"
      }
    ]
  },
  {
    "postal": "K1Y6C6",
    "result": []
  },
  {
    "postal": "K1Y7N8",
    "result": []
  },
  {
    "postal": "K1Y2Y3",
    "result": [
      {
        "electoralDistricts": [
          {
            "election": null,
            "id": 78,
            "name": "Ottawa Centre"
          }
        ],
        "pollDivisionIds": [
          10140544
        ],
        "postalCode": "K1Y2Y3",
        "streetName": "WELLINGTON",
        "streetDirectionId": "W",
        "streetTypeId": "ST",
        "placeName": "OTTAWA",
        "streetNameDisplayText": "WELLINGTON ST W, OTTAWA"
      }
    ]
  },
  {
    "postal": "K1Y2R6",
    "result": [
      {
        "electoralDistricts": [
          {
            "election": null,
            "id": 78,
            "name": "Ottawa Centre"
          }
        ],
        "pollDivisionIds": [
          10140544
        ],
        "postalCode": "K1Y2R6",
        "streetName": "OXFORD",
        "streetDirectionId": null,
        "streetTypeId": "ST",
        "placeName": "OTTAWA",
        "streetNameDisplayText": "OXFORD ST, OTTAWA"
      }
    ]
  },
  {
    "postal": "K1Y7N3",
    "result": []
  },
  {
    "postal": "K1Y8J2",
    "result": []
  },
  {
    "postal": "K1Y6A9",
    "result": []
  },
  {
    "postal": "K1Y3V2",
    "result": [
      {
        "electoralDistricts": [
          {
            "election": null,
            "id": 78,
            "name": "Ottawa Centre"
          }
        ],
        "pollDivisionIds": [
          10140551
        ],
        "postalCode": "K1Y3V2",
        "streetName": "SHERWOOD",
        "streetDirectionId": null,
        "streetTypeId": "DR",
        "placeName": "OTTAWA",
        "streetNameDisplayText": "SHERWOOD DR, OTTAWA"
      }
    ]
  },
  {
    "postal": "K1Y2N3",
    "result": [
      {
        "electoralDistricts": [
          {
            "election": null,
            "id": 78,
            "name": "Ottawa Centre"
          }
        ],
        "pollDivisionIds": [
          10140544
        ],
        "postalCode": "K1Y2N3",
        "streetName": "SCOTT",
        "streetDirectionId": null,
        "streetTypeId": "ST",
        "placeName": "OTTAWA",
        "streetNameDisplayText": "SCOTT ST, OTTAWA"
      }
    ]
  },
  {
    "postal": "K1Y1S5",
    "result": [
      {
        "electoralDistricts": [
          {
            "election": null,
            "id": 78,
            "name": "Ottawa Centre"
          }
        ],
        "pollDivisionIds": [
          10140546
        ],
        "postalCode": "K1Y1S5",
        "streetName": "REID",
        "streetDirectionId": null,
        "streetTypeId": "AVE",
        "placeName": "OTTAWA",
        "streetNameDisplayText": "REID AVE, OTTAWA"
      }
    ]
  },
  {
    "postal": "K1Y4T7",
    "result": []
  },
  {
    "postal": "K1Y6Y7",
    "result": []
  },
  {
    "postal": "K1Y0W7",
    "result": [
      {
        "electoralDistricts": [
          {
            "election": null,
            "id": 78,
            "name": "Ottawa Centre"
          }
        ],
        "pollDivisionIds": [
          10140543
        ],
        "postalCode": "K1Y0W7",
        "streetName": "HURON",
        "streetDirectionId": "S",
        "streetTypeId": "AVE",
        "placeName": "OTTAWA",
        "streetNameDisplayText": "HURON AVE S, OTTAWA"
      }
    ]
  },
  {
    "postal": "K1Y2W9",
    "result": [
      {
        "electoralDistricts": [
          {
            "election": null,
            "id": 78,
            "name": "Ottawa Centre"
          }
        ],
        "pollDivisionIds": [
          10140544
        ],
        "postalCode": "K1Y2W9",
        "streetName": "GRANT",
        "streetDirectionId": null,
        "streetTypeId": "ST",
        "placeName": "OTTAWA",
        "streetNameDisplayText": "GRANT ST, OTTAWA"
      }
    ]
  },
  {
    "postal": "K1Y8V0",
    "result": []
  },
  {
    "postal": "K1Y0H4",
    "result": [
      {
        "electoralDistricts": [
          {
            "election": null,
            "id": 78,
            "name": "Ottawa Centre"
          }
        ],
        "pollDivisionIds": [
          10140540
        ],
        "postalCode": "K1Y0H4",
        "streetName": "PICCADILLY",
        "streetDirectionId": "N",
        "streetTypeId": "AVE",
        "placeName": "OTTAWA",
        "streetNameDisplayText": "PICCADILLY AVE N, OTTAWA"
      }
    ]
  },
  {
    "postal": "K1Y2T1",
    "result": [
      {
        "electoralDistricts": [
          {
            "election": null,
            "id": 78,
            "name": "Ottawa Centre"
          }
        ],
        "pollDivisionIds": [
          10140544
        ],
        "postalCode": "K1Y2T1",
        "streetName": "LADOUCEUR",
        "streetDirectionId": null,
        "streetTypeId": "ST",
        "placeName": "OTTAWA",
        "streetNameDisplayText": "LADOUCEUR ST, OTTAWA"
      }
    ]
  },
  {
    "postal": "K1Y1B1",
    "result": [
      {
        "electoralDistricts": [
          {
            "election": null,
            "id": 78,
            "name": "Ottawa Centre"
          }
        ],
        "pollDivisionIds": [
          10140546
        ],
        "postalCode": "K1Y1B1",
        "streetName": "HINTON",
        "streetDirectionId": "S",
        "streetTypeId": "AVE",
        "placeName": "OTTAWA",
        "streetNameDisplayText": "HINTON AVE S, OTTAWA"
      }
    ]
  },
  {
    "postal": "K1Y8B6",
    "result": []
  },
  {
    "postal": "K1Y6H1",
    "result": []
  },
  {
    "postal": "K1Y8T8",
    "result": []
  },
  {
    "postal": "K1Y0T4",
    "result": [
      {
        "electoralDistricts": [
          {
            "election": null,
            "id": 78,
            "name": "Ottawa Centre"
          }
        ],
        "pollDivisionIds": [
          10140543
        ],
        "postalCode": "K1Y0T4",
        "streetName": "HARMER",
        "streetDirectionId": "N",
        "streetTypeId": "AVE",
        "placeName": "OTTAWA",
        "streetNameDisplayText": "HARMER AVE N, OTTAWA"
      }
    ]
  },
  {
    "postal": "K1Y2C4",
    "result": [
      {
        "electoralDistricts": [
          {
            "election": null,
            "id": 78,
            "name": "Ottawa Centre"
          }
        ],
        "pollDivisionIds": [
          10140541
        ],
        "postalCode": "K1Y2C4",
        "streetName": "ONIGAM",
        "streetDirectionId": null,
        "streetTypeId": "ST",
        "placeName": "OTTAWA",
        "streetNameDisplayText": "ONIGAM ST, OTTAWA"
      }
    ]
  },
  {
    "postal": "K1Y8N3",
    "result": []
  },
  {
    "postal": "K1Y4L8",
    "result": [
      {
        "electoralDistricts": [
          {
            "election": null,
            "id": 78,
            "name": "Ottawa Centre"
          }
        ],
        "pollDivisionIds": [
          10140548
        ],
        "postalCode": "K1Y4L8",
        "streetName": "LORETTA",
        "streetDirectionId": "N",
        "streetTypeId": "AVE",
        "placeName": "OTTAWA",
        "streetNameDisplayText": "LORETTA AVE N, OTTAWA"
      }
    ]
  },
  {
    "postal": "K1Y2B5",
    "result": [
      {
        "electoralDistricts": [
          {
            "election": null,
            "id": 78,
            "name": "Ottawa Centre"
          }
        ],
        "pollDivisionIds": [
          10140551
        ],
        "postalCode": "K1Y2B5",
        "streetName": "LYNWOOD",
        "streetDirectionId": null,
        "streetTypeId": "AVE",
        "placeName": "OTTAWA",
        "streetNameDisplayText": "LYNWOOD AVE, OTTAWA"
      }
    ]
  },
  {
    "postal": "K1Y3H1",
    "result": [
      {
        "electoralDistricts": [
          {
            "election": null,
            "id": 78,
            "name": "Ottawa Centre"
          }
        ],
        "pollDivisionIds": [
          10140544
        ],
        "postalCode": "K1Y3H1",
        "streetName": "GLADSTONE",
        "streetDirectionId": null,
        "streetTypeId": "AVE",
        "placeName": "OTTAWA",
        "streetNameDisplayText": "GLADSTONE AVE, OTTAWA"
      }
    ]
  },
  {
    "postal": "K1Y4Y1",
    "result": []
  },
  {
    "postal": "K1Y7E2",
    "result": []
  },
  {
    "postal": "K1Y2P5",
    "result": [
      {
        "electoralDistricts": [
          {
            "election": null,
            "id": 78,
            "name": "Ottawa Centre"
          }
        ],
        "pollDivisionIds": [
          10140542
        ],
        "postalCode": "K1Y2P5",
        "streetName": "SPENCER",
        "streetDirectionId": null,
        "streetTypeId": "ST",
        "placeName": "OTTAWA",
        "streetNameDisplayText": "SPENCER ST, OTTAWA"
      }
    ]
  },
  {
    "postal": "K1Y8R7",
    "result": []
  },
  {
    "postal": "K1Y9P1",
    "result": []
  },
  {
    "postal": "K1Y3B8",
    "result": [
      {
        "electoralDistricts": [
          {
            "election": null,
            "id": 78,
            "name": "Ottawa Centre"
          }
        ],
        "pollDivisionIds": [
          10140540
        ],
        "postalCode": "K1Y3B8",
        "streetName": "WELLINGTON",
        "streetDirectionId": "W",
        "streetTypeId": "ST",
        "placeName": "OTTAWA",
        "streetNameDisplayText": "WELLINGTON ST W, OTTAWA"
      }
    ]
  },
  {
    "postal": "K1Y3P7",
    "result": [
      {
        "electoralDistricts": [
          {
            "election": null,
            "id": 78,
            "name": "Ottawa Centre"
          }
        ],
        "pollDivisionIds": [
          10140551
        ],
        "postalCode": "K1Y3P7",
        "streetName": "YOUNG",
        "streetDirectionId": null,
        "streetTypeId": "ST",
        "placeName": "OTTAWA",
        "streetNameDisplayText": "YOUNG ST, OTTAWA"
      }
    ]
  },
  {
    "postal": "K1Y9B2",
    "result": []
  },
  {
    "postal": "K1Y6Z3",
    "result": []
  },
  {
    "postal": "K1Y4N5",
    "result": []
  },
  {
    "postal": "K1Y8T3",
    "result": []
  },
  {
    "postal": "K1Y1V2",
    "result": [
      {
        "electoralDistricts": [
          {
            "election": null,
            "id": 78,
            "name": "Ottawa Centre"
          }
        ],
        "pollDivisionIds": [
          10140544
        ],
        "postalCode": "K1Y1V2",
        "streetName": "MELROSE",
        "streetDirectionId": null,
        "streetTypeId": "AVE",
        "placeName": "OTTAWA",
        "streetNameDisplayText": "MELROSE AVE, OTTAWA"
      }
    ]
  },
  {
    "postal": "K1Y1Y0",
    "result": []
  },
  {
    "postal": "K1Y3G6",
    "result": [
      {
        "electoralDistricts": [
          {
            "election": null,
            "id": 78,
            "name": "Ottawa Centre"
          }
        ],
        "pollDivisionIds": [
          10140544
        ],
        "postalCode": "K1Y3G6",
        "streetName": "GLADSTONE",
        "streetDirectionId": null,
        "streetTypeId": "AVE",
        "placeName": "OTTAWA",
        "streetNameDisplayText": "GLADSTONE AVE, OTTAWA"
      }
    ]
  },
  {
    "postal": "K1Y3H7",
    "result": [
      {
        "electoralDistricts": [
          {
            "election": null,
            "id": 78,
            "name": "Ottawa Centre"
          }
        ],
        "pollDivisionIds": [
          10140544
        ],
        "postalCode": "K1Y3H7",
        "streetName": "GLADSTONE",
        "streetDirectionId": null,
        "streetTypeId": "AVE",
        "placeName": "OTTAWA",
        "streetNameDisplayText": "GLADSTONE AVE, OTTAWA"
      }
    ]
  },
  {
    "postal": "K1Y7X8",
    "result": []
  },
  {
    "postal": "K1Y0C7",
    "result": [
      {
        "electoralDistricts": [
          {
            "election": null,
            "id": 78,
            "name": "Ottawa Centre"
          }
        ],
        "pollDivisionIds": [
          10140535
        ],
        "postalCode": "K1Y0C7",
        "streetName": "DANIEL",
        "streetDirectionId": null,
        "streetTypeId": "AVE",
        "placeName": "OTTAWA",
        "streetNameDisplayText": "DANIEL AVE, OTTAWA"
      }
    ]
  },
  {
    "postal": "K1Y0W9",
    "result": [
      {
        "electoralDistricts": [
          {
            "election": null,
            "id": 78,
            "name": "Ottawa Centre"
          }
        ],
        "pollDivisionIds": [
          10140546
        ],
        "postalCode": "K1Y0W9",
        "streetName": "HURON",
        "streetDirectionId": "S",
        "streetTypeId": "AVE",
        "placeName": "OTTAWA",
        "streetNameDisplayText": "HURON AVE S, OTTAWA"
      }
    ]
  },
  {
    "postal": "K1Y8E6",
    "result": []
  },
  {
    "postal": "K1Y9Z8",
    "result": []
  },
  {
    "postal": "K1Y3P4",
    "result": [
      {
        "electoralDistricts": [
          {
            "election": null,
            "id": 78,
            "name": "Ottawa Centre"
          }
        ],
        "pollDivisionIds": [
          10140543
        ],
        "postalCode": "K1Y3P4",
        "streetName": "ISLAND PARK",
        "streetDirectionId": null,
        "streetTypeId": "CRES",
        "placeName": "OTTAWA",
        "streetNameDisplayText": "ISLAND PARK CRES, OTTAWA"
      }
    ]
  },
  {
    "postal": "K1Y6L8",
    "result": []
  },
  {
    "postal": "K1Y2R4",
    "result": [
      {
        "electoralDistricts": [
          {
            "election": null,
            "id": 78,
            "name": "Ottawa Centre"
          }
        ],
        "pollDivisionIds": [
          10140540
        ],
        "postalCode": "K1Y2R4",
        "streetName": "SPENCER",
        "streetDirectionId": null,
        "streetTypeId": "ST",
        "placeName": "OTTAWA",
        "streetNameDisplayText": "SPENCER ST, OTTAWA"
      }
    ]
  },
  {
    "postal": "K1Y2W1",
    "result": [
      {
        "electoralDistricts": [
          {
            "election": null,
            "id": 78,
            "name": "Ottawa Centre"
          }
        ],
        "pollDivisionIds": [
          10140544
        ],
        "postalCode": "K1Y2W1",
        "streetName": "ARMSTRONG",
        "streetDirectionId": null,
        "streetTypeId": "ST",
        "placeName": "OTTAWA",
        "streetNameDisplayText": "ARMSTRONG ST, OTTAWA"
      }
    ]
  },
  {
    "postal": "K1Y9H8",
    "result": []
  },
  {
    "postal": "K1Y8X9",
    "result": []
  },
  {
    "postal": "K1Y7H4",
    "result": []
  },
  {
    "postal": "K1Y3J1",
    "result": [
      {
        "electoralDistricts": [
          {
            "election": null,
            "id": 78,
            "name": "Ottawa Centre"
          }
        ],
        "pollDivisionIds": [
          10140543
        ],
        "postalCode": "K1Y3J1",
        "streetName": "BYRON",
        "streetDirectionId": null,
        "streetTypeId": "AVE",
        "placeName": "OTTAWA",
        "streetNameDisplayText": "BYRON AVE, OTTAWA"
      }
    ]
  },
  {
    "postal": "K1Y1P4",
    "result": [
      {
        "electoralDistricts": [
          {
            "election": null,
            "id": 78,
            "name": "Ottawa Centre"
          }
        ],
        "pollDivisionIds": [
          10140544
        ],
        "postalCode": "K1Y1P4",
        "streetName": "ROSEMOUNT",
        "streetDirectionId": null,
        "streetTypeId": "AVE",
        "placeName": "OTTAWA",
        "streetNameDisplayText": "ROSEMOUNT AVE, OTTAWA"
      }
    ]
  },
  {
    "postal": "K1Y2A3",
    "result": [
      {
        "electoralDistricts": [
          {
            "election": null,
            "id": 78,
            "name": "Ottawa Centre"
          }
        ],
        "pollDivisionIds": [
          10140551
        ],
        "postalCode": "K1Y2A3",
        "streetName": "OLD IRVING",
        "streetDirectionId": null,
        "streetTypeId": "PL",
        "placeName": "OTTAWA",
        "streetNameDisplayText": "OLD IRVING PL, OTTAWA"
      }
    ]
  },
  {
    "postal": "K1Y0Z1",
    "result": [
      {
        "electoralDistricts": [
          {
            "election": null,
            "id": 78,
            "name": "Ottawa Centre"
          }
        ],
        "pollDivisionIds": [
          10140546
        ],
        "postalCode": "K1Y0Z1",
        "streetName": "HOLLAND",
        "streetDirectionId": null,
        "streetTypeId": "AVE",
        "placeName": "OTTAWA",
        "streetNameDisplayText": "HOLLAND AVE, OTTAWA"
      }
    ]
  },
  {
    "postal": "K1Y1C1",
    "result": [
      {
        "electoralDistricts": [
          {
            "election": null,
            "id": 78,
            "name": "Ottawa Centre"
          }
        ],
        "pollDivisionIds": [
          10140543
        ],
        "postalCode": "K1Y1C1",
        "streetName": "HAMILTON",
        "streetDirectionId": "N",
        "streetTypeId": "AVE",
        "placeName": "OTTAWA",
        "streetNameDisplayText": "HAMILTON AVE N, OTTAWA"
      }
    ]
  },
  {
    "postal": "K1Y0H3",
    "result": [
      {
        "electoralDistricts": [
          {
            "election": null,
            "id": 78,
            "name": "Ottawa Centre"
          }
        ],
        "pollDivisionIds": [
          10140540
        ],
        "postalCode": "K1Y0H3",
        "streetName": "PICCADILLY",
        "streetDirectionId": "N",
        "streetTypeId": "AVE",
        "placeName": "OTTAWA",
        "streetNameDisplayText": "PICCADILLY AVE N, OTTAWA"
      }
    ]
  },
  {
    "postal": "K1Y7B0",
    "result": []
  },
  {
    "postal": "K1Y5K2",
    "result": []
  },
  {
    "postal": "K1Y1E9",
    "result": [
      {
        "electoralDistricts": [
          {
            "election": null,
            "id": 78,
            "name": "Ottawa Centre"
          }
        ],
        "pollDivisionIds": [
          10140542
        ],
        "postalCode": "K1Y1E9",
        "streetName": "PARKDALE",
        "streetDirectionId": null,
        "streetTypeId": "AVE",
        "placeName": "OTTAWA",
        "streetNameDisplayText": "PARKDALE AVE, OTTAWA"
      }
    ]
  },
  {
    "postal": "K1Y9W7",
    "result": []
  },
  {
    "postal": "K1Y5W6",
    "result": []
  },
  {
    "postal": "K1Y6S6",
    "result": []
  },
  {
    "postal": "K1Y2P8",
    "result": [
      {
        "electoralDistricts": [
          {
            "election": null,
            "id": 78,
            "name": "Ottawa Centre"
          }
        ],
        "pollDivisionIds": [
          10140542
        ],
        "postalCode": "K1Y2P8",
        "streetName": "SPENCER",
        "streetDirectionId": null,
        "streetTypeId": "ST",
        "placeName": "OTTAWA",
        "streetNameDisplayText": "SPENCER ST, OTTAWA"
      }
    ]
  },
  {
    "postal": "K1Y4P8",
    "result": [
      {
        "electoralDistricts": [
          {
            "election": null,
            "id": 78,
            "name": "Ottawa Centre"
          }
        ],
        "pollDivisionIds": [
          10140551
        ],
        "postalCode": "K1Y4P8",
        "streetName": "BOTANICA",
        "streetDirectionId": null,
        "streetTypeId": "PVT",
        "placeName": "OTTAWA",
        "streetNameDisplayText": "BOTANICA PVT, OTTAWA"
      }
    ]
  },
  {
    "postal": "K1Y0V9",
    "result": [
      {
        "electoralDistricts": [
          {
            "election": null,
            "id": 78,
            "name": "Ottawa Centre"
          }
        ],
        "pollDivisionIds": [
          10140542
        ],
        "postalCode": "K1Y0V9",
        "streetName": "HURON",
        "streetDirectionId": "N",
        "streetTypeId": "AVE",
        "placeName": "OTTAWA",
        "streetNameDisplayText": "HURON AVE N, OTTAWA"
      }
    ]
  },
  {
    "postal": "K1Y5Y2",
    "result": []
  },
  {
    "postal": "K1Y7Z7",
    "result": []
  },
  {
    "postal": "K1Y6Y8",
    "result": []
  },
  {
    "postal": "K1Y2G7",
    "result": [
      {
        "electoralDistricts": [
          {
            "election": null,
            "id": 78,
            "name": "Ottawa Centre"
          }
        ],
        "pollDivisionIds": [
          10140551
        ],
        "postalCode": "K1Y2G7",
        "streetName": "BAYSWATER",
        "streetDirectionId": null,
        "streetTypeId": "AVE",
        "placeName": "OTTAWA",
        "streetNameDisplayText": "BAYSWATER AVE, OTTAWA"
      }
    ]
  },
  {
    "postal": "K1Y8C1",
    "result": []
  },
  {
    "postal": "K1Y5C5",
    "result": []
  },
  {
    "postal": "K1Y2X8",
    "result": []
  },
  {
    "postal": "K1Y1W5",
    "result": [
      {
        "electoralDistricts": [
          {
            "election": null,
            "id": 78,
            "name": "Ottawa Centre"
          }
        ],
        "pollDivisionIds": [
          10140544
        ],
        "postalCode": "K1Y1W5",
        "streetName": "ST FRANCIS",
        "streetDirectionId": null,
        "streetTypeId": "ST",
        "placeName": "OTTAWA",
        "streetNameDisplayText": "ST FRANCIS ST, OTTAWA"
      },
      {
        "electoralDistricts": [
          {
            "election": null,
            "id": 78,
            "name": "Ottawa Centre"
          }
        ],
        "pollDivisionIds": [
          10140544
        ],
        "postalCode": "K1Y1W5",
        "streetName": "ST. FRANCIS",
        "streetDirectionId": null,
        "streetTypeId": "ST",
        "placeName": "OTTAWA",
        "streetNameDisplayText": "ST. FRANCIS ST, OTTAWA"
      }
    ]
  },
  {
    "postal": "K1Y7G0",
    "result": []
  },
  {
    "postal": "K1Y8J8",
    "result": []
  },
  {
    "postal": "K1Y3Y0",
    "result": []
  },
  {
    "postal": "K1Y9T7",
    "result": []
  },
  {
    "postal": "K1Y5P4",
    "result": []
  },
  {
    "postal": "K1Y4B0",
    "result": []
  },
  {
    "postal": "K1Y9N8",
    "result": []
  },
  {
    "postal": "K1Y4A7",
    "result": [
      {
        "electoralDistricts": [
          {
            "election": null,
            "id": 78,
            "name": "Ottawa Centre"
          }
        ],
        "pollDivisionIds": [
          10140546
        ],
        "postalCode": "K1Y4A7",
        "streetName": "RUSKIN",
        "streetDirectionId": null,
        "streetTypeId": "ST",
        "placeName": "OTTAWA",
        "streetNameDisplayText": "RUSKIN ST, OTTAWA"
      }
    ]
  },
  {
    "postal": "K1Y4H9",
    "result": []
  },
  {
    "postal": "K1Y6X1",
    "result": []
  },
  {
    "postal": "K1Y9Y7",
    "result": []
  },
  {
    "postal": "K1Y2Y5",
    "result": [
      {
        "electoralDistricts": [
          {
            "election": null,
            "id": 78,
            "name": "Ottawa Centre"
          }
        ],
        "pollDivisionIds": [
          10140544
        ],
        "postalCode": "K1Y2Y5",
        "streetName": "WELLINGTON",
        "streetDirectionId": "W",
        "streetTypeId": "ST",
        "placeName": "OTTAWA",
        "streetNameDisplayText": "WELLINGTON ST W, OTTAWA"
      }
    ]
  },
  {
    "postal": "K1Y8L7",
    "result": []
  },
  {
    "postal": "K1Y2A8",
    "result": [
      {
        "electoralDistricts": [
          {
            "election": null,
            "id": 78,
            "name": "Ottawa Centre"
          }
        ],
        "pollDivisionIds": [
          10140540
        ],
        "postalCode": "K1Y2A8",
        "streetName": "PERTHSHIRE",
        "streetDirectionId": null,
        "streetTypeId": "PVT",
        "placeName": "OTTAWA",
        "streetNameDisplayText": "PERTHSHIRE PVT, OTTAWA"
      }
    ]
  },
  {
    "postal": "K1Y2K9",
    "result": [
      {
        "electoralDistricts": [
          {
            "election": null,
            "id": 78,
            "name": "Ottawa Centre"
          }
        ],
        "pollDivisionIds": [
          10140535
        ],
        "postalCode": "K1Y2K9",
        "streetName": "CLEARVIEW",
        "streetDirectionId": null,
        "streetTypeId": "AVE",
        "placeName": "OTTAWA",
        "streetNameDisplayText": "CLEARVIEW AVE, OTTAWA"
      }
    ]
  },
  {
    "postal": "K1Y3E5",
    "result": [
      {
        "electoralDistricts": [
          {
            "election": null,
            "id": 78,
            "name": "Ottawa Centre"
          }
        ],
        "pollDivisionIds": [
          10140548
        ],
        "postalCode": "K1Y3E5",
        "streetName": "GLADSTONE",
        "streetDirectionId": null,
        "streetTypeId": "AVE",
        "placeName": "OTTAWA",
        "streetNameDisplayText": "GLADSTONE AVE, OTTAWA"
      }
    ]
  },
  {
    "postal": "K1Y8N6",
    "result": []
  },
  {
    "postal": "K1Y8J4",
    "result": []
  },
  {
    "postal": "K1Y4R7",
    "result": [
      {
        "electoralDistricts": [
          {
            "election": null,
            "id": 78,
            "name": "Ottawa Centre"
          }
        ],
        "pollDivisionIds": [
          10140541
        ],
        "postalCode": "K1Y4R7",
        "streetName": "STONEHURST",
        "streetDirectionId": null,
        "streetTypeId": "AVE",
        "placeName": "OTTAWA",
        "streetNameDisplayText": "STONEHURST AVE, OTTAWA"
      }
    ]
  },
  {
    "postal": "K1Y9K1",
    "result": []
  },
  {
    "postal": "K1Y8E1",
    "result": []
  },
  {
    "postal": "K1Y0R1",
    "result": [
      {
        "electoralDistricts": [
          {
            "election": null,
            "id": 78,
            "name": "Ottawa Centre"
          }
        ],
        "pollDivisionIds": [
          10140543
        ],
        "postalCode": "K1Y0R1",
        "streetName": "CLARENDON",
        "streetDirectionId": null,
        "streetTypeId": "AVE",
        "placeName": "OTTAWA",
        "streetNameDisplayText": "CLARENDON AVE, OTTAWA"
      }
    ]
  },
  {
    "postal": "K1Y4J3",
    "result": []
  },
  {
    "postal": "K1Y7E7",
    "result": []
  },
  {
    "postal": "K1Y0J0",
    "result": []
  },
  {
    "postal": "K1Y7R8",
    "result": []
  },
  {
    "postal": "K1Y9X0",
    "result": []
  },
  {
    "postal": "K1Y7P6",
    "result": []
  },
  {
    "postal": "K1Y0R7",
    "result": [
      {
        "electoralDistricts": [
          {
            "election": null,
            "id": 78,
            "name": "Ottawa Centre"
          }
        ],
        "pollDivisionIds": [
          10140543
        ],
        "postalCode": "K1Y0R7",
        "streetName": "CLARENDON",
        "streetDirectionId": null,
        "streetTypeId": "AVE",
        "placeName": "OTTAWA",
        "streetNameDisplayText": "CLARENDON AVE, OTTAWA"
      }
    ]
  },
  {
    "postal": "K1Y5W1",
    "result": []
  },
  {
    "postal": "K1Y0K4",
    "result": [
      {
        "electoralDistricts": [
          {
            "election": null,
            "id": 78,
            "name": "Ottawa Centre"
          }
        ],
        "pollDivisionIds": [
          10140540
        ],
        "postalCode": "K1Y0K4",
        "streetName": "MAYFAIR",
        "streetDirectionId": null,
        "streetTypeId": "AVE",
        "placeName": "OTTAWA",
        "streetNameDisplayText": "MAYFAIR AVE, OTTAWA"
      }
    ]
  },
  {
    "postal": "K1Y7N9",
    "result": []
  },
  {
    "postal": "K1Y1N0",
    "result": []
  },
  {
    "postal": "K1Y6P3",
    "result": []
  },
  {
    "postal": "K1Y5A1",
    "result": []
  },
  {
    "postal": "K1Y9M9",
    "result": []
  },
  {
    "postal": "K1Y7T6",
    "result": []
  },
  {
    "postal": "K1Y3X0",
    "result": []
  },
  {
    "postal": "K1Y2T0",
    "result": []
  },
  {
    "postal": "K1Y5X9",
    "result": []
  },
  {
    "postal": "K1Y2R3",
    "result": [
      {
        "electoralDistricts": [
          {
            "election": null,
            "id": 78,
            "name": "Ottawa Centre"
          }
        ],
        "pollDivisionIds": [
          10140540
        ],
        "postalCode": "K1Y2R3",
        "streetName": "SPENCER",
        "streetDirectionId": null,
        "streetTypeId": "ST",
        "placeName": "OTTAWA",
        "streetNameDisplayText": "SPENCER ST, OTTAWA"
      }
    ]
  },
  {
    "postal": "K1Y5N2",
    "result": []
  },
  {
    "postal": "K1Y4Y7",
    "result": []
  },
  {
    "postal": "K1Y7M0",
    "result": []
  },
  {
    "postal": "K1Y8P3",
    "result": []
  },
  {
    "postal": "K1Y3N3",
    "result": [
      {
        "electoralDistricts": [
          {
            "election": null,
            "id": 78,
            "name": "Ottawa Centre"
          }
        ],
        "pollDivisionIds": [
          10140543
        ],
        "postalCode": "K1Y3N3",
        "streetName": "HELENA",
        "streetDirectionId": null,
        "streetTypeId": "ST",
        "placeName": "OTTAWA",
        "streetNameDisplayText": "HELENA ST, OTTAWA"
      }
    ]
  },
  {
    "postal": "K1Y7S3",
    "result": []
  },
  {
    "postal": "K1Y3V9",
    "result": [
      {
        "electoralDistricts": [
          {
            "election": null,
            "id": 78,
            "name": "Ottawa Centre"
          }
        ],
        "pollDivisionIds": [
          10140546
        ],
        "postalCode": "K1Y3V9",
        "streetName": "SHERWOOD",
        "streetDirectionId": null,
        "streetTypeId": "DR",
        "placeName": "OTTAWA",
        "streetNameDisplayText": "SHERWOOD DR, OTTAWA"
      }
    ]
  },
  {
    "postal": "K1Y9N7",
    "result": []
  },
  {
    "postal": "K1Y0G4",
    "result": [
      {
        "electoralDistricts": [
          {
            "election": null,
            "id": 78,
            "name": "Ottawa Centre"
          }
        ],
        "pollDivisionIds": [
          10140540
        ],
        "postalCode": "K1Y0G4",
        "streetName": "ROCKHURST",
        "streetDirectionId": null,
        "streetTypeId": "RD",
        "placeName": "OTTAWA",
        "streetNameDisplayText": "ROCKHURST RD, OTTAWA"
      }
    ]
  },
  {
    "postal": "K1Y2E2",
    "result": []
  },
  {
    "postal": "K1Y7W8",
    "result": []
  },
  {
    "postal": "K1Y7M5",
    "result": []
  },
  {
    "postal": "K1Y5W8",
    "result": []
  },
  {
    "postal": "K1Y5E5",
    "result": []
  },
  {
    "postal": "K1Y1P9",
    "result": [
      {
        "electoralDistricts": [
          {
            "election": null,
            "id": 78,
            "name": "Ottawa Centre"
          }
        ],
        "pollDivisionIds": [
          10140543,
          10140544
        ],
        "postalCode": "K1Y1P9",
        "streetName": "STIRLING",
        "streetDirectionId": null,
        "streetTypeId": "AVE",
        "placeName": "OTTAWA",
        "streetNameDisplayText": "STIRLING AVE, OTTAWA"
      }
    ]
  },
  {
    "postal": "K1Y8V8",
    "result": []
  },
  {
    "postal": "K1Y9G8",
    "result": []
  },
  {
    "postal": "K1Y8H9",
    "result": []
  },
  {
    "postal": "K1Y1Z1",
    "result": [
      {
        "electoralDistricts": [
          {
            "election": null,
            "id": 78,
            "name": "Ottawa Centre"
          }
        ],
        "pollDivisionIds": [
          10140544
        ],
        "postalCode": "K1Y1Z1",
        "streetName": "MANCHESTER",
        "streetDirectionId": null,
        "streetTypeId": "AVE",
        "placeName": "OTTAWA",
        "streetNameDisplayText": "MANCHESTER AVE, OTTAWA"
      }
    ]
  },
  {
    "postal": "K1Y8M3",
    "result": []
  },
  {
    "postal": "K1Y5H6",
    "result": []
  },
  {
    "postal": "K1Y7W7",
    "result": []
  },
  {
    "postal": "K1Y4L0",
    "result": []
  },
  {
    "postal": "K1Y2N1",
    "result": [
      {
        "electoralDistricts": [
          {
            "election": null,
            "id": 78,
            "name": "Ottawa Centre"
          }
        ],
        "pollDivisionIds": [
          10140548
        ],
        "postalCode": "K1Y2N1",
        "streetName": "SCOTT",
        "streetDirectionId": null,
        "streetTypeId": "ST",
        "placeName": "OTTAWA",
        "streetNameDisplayText": "SCOTT ST, OTTAWA"
      }
    ]
  },
  {
    "postal": "K1Y2H4",
    "result": [
      {
        "electoralDistricts": [
          {
            "election": null,
            "id": 78,
            "name": "Ottawa Centre"
          }
        ],
        "pollDivisionIds": [
          10140548
        ],
        "postalCode": "K1Y2H4",
        "streetName": "BREEZEHILL",
        "streetDirectionId": "N",
        "streetTypeId": "AVE",
        "placeName": "OTTAWA",
        "streetNameDisplayText": "BREEZEHILL AVE N, OTTAWA"
      }
    ]
  },
  {
    "postal": "K1Y5C8",
    "result": []
  },
  {
    "postal": "K1Y8B0",
    "result": []
  },
  {
    "postal": "K1Y1T4",
    "result": [
      {
        "electoralDistricts": [
          {
            "election": null,
            "id": 78,
            "name": "Ottawa Centre"
          }
        ],
        "pollDivisionIds": [
          10140544
        ],
        "postalCode": "K1Y1T4",
        "streetName": "PINHEY",
        "streetDirectionId": null,
        "streetTypeId": "ST",
        "placeName": "OTTAWA",
        "streetNameDisplayText": "PINHEY ST, OTTAWA"
      }
    ]
  },
  {
    "postal": "K1Y7N7",
    "result": []
  },
  {
    "postal": "K1Y4L3",
    "result": [
      {
        "electoralDistricts": [
          {
            "election": null,
            "id": 78,
            "name": "Ottawa Centre"
          }
        ],
        "pollDivisionIds": [
          10140548
        ],
        "postalCode": "K1Y4L3",
        "streetName": "SOMERSET",
        "streetDirectionId": "W",
        "streetTypeId": "ST",
        "placeName": "OTTAWA",
        "streetNameDisplayText": "SOMERSET ST W, OTTAWA"
      }
    ]
  },
  {
    "postal": "K1Y2N2",
    "result": [
      {
        "electoralDistricts": [
          {
            "election": null,
            "id": 78,
            "name": "Ottawa Centre"
          }
        ],
        "pollDivisionIds": [
          10140544
        ],
        "postalCode": "K1Y2N2",
        "streetName": "SCOTT",
        "streetDirectionId": null,
        "streetTypeId": "ST",
        "placeName": "OTTAWA",
        "streetNameDisplayText": "SCOTT ST, OTTAWA"
      }
    ]
  },
  {
    "postal": "K1Y4N8",
    "result": [
      {
        "electoralDistricts": [
          {
            "election": null,
            "id": 78,
            "name": "Ottawa Centre"
          }
        ],
        "pollDivisionIds": [
          10140543
        ],
        "postalCode": "K1Y4N8",
        "streetName": "TYNDALL",
        "streetDirectionId": null,
        "streetTypeId": "AVE",
        "placeName": "OTTAWA",
        "streetNameDisplayText": "TYNDALL AVE, OTTAWA"
      }
    ]
  },
  {
    "postal": "K1Y3M5",
    "result": [
      {
        "electoralDistricts": [
          {
            "election": null,
            "id": 78,
            "name": "Ottawa Centre"
          }
        ],
        "pollDivisionIds": [
          10140543
        ],
        "postalCode": "K1Y3M5",
        "streetName": "FARADAY",
        "streetDirectionId": null,
        "streetTypeId": "ST",
        "placeName": "OTTAWA",
        "streetNameDisplayText": "FARADAY ST, OTTAWA"
      }
    ]
  },
  {
    "postal": "K1Y6H7",
    "result": []
  },
  {
    "postal": "K1Y8Y8",
    "result": []
  },
  {
    "postal": "K1Y5R9",
    "result": []
  },
  {
    "postal": "K1Y8G3",
    "result": []
  },
  {
    "postal": "K1Y4N7",
    "result": [
      {
        "electoralDistricts": [
          {
            "election": null,
            "id": 78,
            "name": "Ottawa Centre"
          }
        ],
        "pollDivisionIds": [
          10140542
        ],
        "postalCode": "K1Y4N7",
        "streetName": "SCOTT",
        "streetDirectionId": null,
        "streetTypeId": "ST",
        "placeName": "OTTAWA",
        "streetNameDisplayText": "SCOTT ST, OTTAWA"
      }
    ]
  },
  {
    "postal": "K1Y0B9",
    "result": [
      {
        "electoralDistricts": [
          {
            "election": null,
            "id": 78,
            "name": "Ottawa Centre"
          }
        ],
        "pollDivisionIds": [
          10140543
        ],
        "postalCode": "K1Y0B9",
        "streetName": "ISLAND PARK",
        "streetDirectionId": null,
        "streetTypeId": "DR",
        "placeName": "OTTAWA",
        "streetNameDisplayText": "ISLAND PARK DR, OTTAWA"
      }
    ]
  },
  {
    "postal": "K1Y9K7",
    "result": []
  },
  {
    "postal": "K1Y9K9",
    "result": []
  },
  {
    "postal": "K1Y3Z2",
    "result": [
      {
        "electoralDistricts": [
          {
            "election": null,
            "id": 78,
            "name": "Ottawa Centre"
          }
        ],
        "pollDivisionIds": [
          10140546
        ],
        "postalCode": "K1Y3Z2",
        "streetName": "KENILWORTH",
        "streetDirectionId": null,
        "streetTypeId": "ST",
        "placeName": "OTTAWA",
        "streetNameDisplayText": "KENILWORTH ST, OTTAWA"
      }
    ]
  },
  {
    "postal": "K1Y6W7",
    "result": []
  },
  {
    "postal": "K1Y0P1",
    "result": [
      {
        "electoralDistricts": [
          {
            "election": null,
            "id": 78,
            "name": "Ottawa Centre"
          }
        ],
        "pollDivisionIds": [
          10140542
        ],
        "postalCode": "K1Y0P1",
        "streetName": "GRANGE",
        "streetDirectionId": null,
        "streetTypeId": "AVE",
        "placeName": "OTTAWA",
        "streetNameDisplayText": "GRANGE AVE, OTTAWA"
      }
    ]
  },
  {
    "postal": "K1Y3A0",
    "result": []
  },
  {
    "postal": "K1Y8L9",
    "result": []
  },
  {
    "postal": "K1Y6X0",
    "result": []
  },
  {
    "postal": "K1Y3E9",
    "result": [
      {
        "electoralDistricts": [
          {
            "election": null,
            "id": 78,
            "name": "Ottawa Centre"
          }
        ],
        "pollDivisionIds": [
          10140548
        ],
        "postalCode": "K1Y3E9",
        "streetName": "GLADSTONE",
        "streetDirectionId": null,
        "streetTypeId": "AVE",
        "placeName": "OTTAWA",
        "streetNameDisplayText": "GLADSTONE AVE, OTTAWA"
      }
    ]
  },
  {
    "postal": "K1Y0S5",
    "result": [
      {
        "electoralDistricts": [
          {
            "election": null,
            "id": 78,
            "name": "Ottawa Centre"
          }
        ],
        "pollDivisionIds": [
          10140543
        ],
        "postalCode": "K1Y0S5",
        "streetName": "JULIAN",
        "streetDirectionId": null,
        "streetTypeId": "AVE",
        "placeName": "OTTAWA",
        "streetNameDisplayText": "JULIAN AVE, OTTAWA"
      }
    ]
  },
  {
    "postal": "K1Y1A2",
    "result": [
      {
        "electoralDistricts": [
          {
            "election": null,
            "id": 78,
            "name": "Ottawa Centre"
          }
        ],
        "pollDivisionIds": [
          10140543
        ],
        "postalCode": "K1Y1A2",
        "streetName": "HINTON",
        "streetDirectionId": "N",
        "streetTypeId": "AVE",
        "placeName": "OTTAWA",
        "streetNameDisplayText": "HINTON AVE N, OTTAWA"
      }
    ]
  },
  {
    "postal": "K1Y5V8",
    "result": []
  },
  {
    "postal": "K1Y8C5",
    "result": []
  },
  {
    "postal": "K1Y6N0",
    "result": []
  },
  {
    "postal": "K1Y9E6",
    "result": []
  },
  {
    "postal": "K1Y5J7",
    "result": []
  },
  {
    "postal": "K1Y2R2",
    "result": [
      {
        "electoralDistricts": [
          {
            "election": null,
            "id": 78,
            "name": "Ottawa Centre"
          }
        ],
        "pollDivisionIds": [
          10140540
        ],
        "postalCode": "K1Y2R2",
        "streetName": "SPENCER",
        "streetDirectionId": null,
        "streetTypeId": "ST",
        "placeName": "OTTAWA",
        "streetNameDisplayText": "SPENCER ST, OTTAWA"
      }
    ]
  },
  {
    "postal": "K1Y0P5",
    "result": [
      {
        "electoralDistricts": [
          {
            "election": null,
            "id": 78,
            "name": "Ottawa Centre"
          }
        ],
        "pollDivisionIds": [
          10140543
        ],
        "postalCode": "K1Y0P5",
        "streetName": "CLARENDON",
        "streetDirectionId": null,
        "streetTypeId": "AVE",
        "placeName": "OTTAWA",
        "streetNameDisplayText": "CLARENDON AVE, OTTAWA"
      }
    ]
  },
  {
    "postal": "K1Y5A7",
    "result": []
  },
  {
    "postal": "K1Y1G1",
    "result": [
      {
        "electoralDistricts": [
          {
            "election": null,
            "id": 78,
            "name": "Ottawa Centre"
          }
        ],
        "pollDivisionIds": [
          10140544
        ],
        "postalCode": "K1Y1G1",
        "streetName": "PARKDALE",
        "streetDirectionId": null,
        "streetTypeId": "AVE",
        "placeName": "OTTAWA",
        "streetNameDisplayText": "PARKDALE AVE, OTTAWA"
      }
    ]
  },
  {
    "postal": "K1Y9R6",
    "result": []
  },
  {
    "postal": "K1Y4Z9",
    "result": []
  },
  {
    "postal": "K1Y1V5",
    "result": [
      {
        "electoralDistricts": [
          {
            "election": null,
            "id": 78,
            "name": "Ottawa Centre"
          }
        ],
        "pollDivisionIds": [
          10140544
        ],
        "postalCode": "K1Y1V5",
        "streetName": "MERTON",
        "streetDirectionId": null,
        "streetTypeId": "ST",
        "placeName": "OTTAWA",
        "streetNameDisplayText": "MERTON ST, OTTAWA"
      }
    ]
  },
  {
    "postal": "K1Y9Y5",
    "result": []
  },
  {
    "postal": "K1Y1P2",
    "result": [
      {
        "electoralDistricts": [
          {
            "election": null,
            "id": 78,
            "name": "Ottawa Centre"
          }
        ],
        "pollDivisionIds": [
          10140542
        ],
        "postalCode": "K1Y1P2",
        "streetName": "PARKDALE",
        "streetDirectionId": null,
        "streetTypeId": "AVE",
        "placeName": "OTTAWA",
        "streetNameDisplayText": "PARKDALE AVE, OTTAWA"
      }
    ]
  },
  {
    "postal": "K1Y5X0",
    "result": []
  },
  {
    "postal": "K1Y7B8",
    "result": []
  },
  {
    "postal": "K1Y0C6",
    "result": [
      {
        "electoralDistricts": [
          {
            "election": null,
            "id": 78,
            "name": "Ottawa Centre"
          }
        ],
        "pollDivisionIds": [
          10140535
        ],
        "postalCode": "K1Y0C6",
        "streetName": "PATRICIA",
        "streetDirectionId": "N",
        "streetTypeId": "AVE",
        "placeName": "OTTAWA",
        "streetNameDisplayText": "PATRICIA AVE N, OTTAWA"
      }
    ]
  },
  {
    "postal": "K1Y6G1",
    "result": []
  },
  {
    "postal": "K1Y3K3",
    "result": [
      {
        "electoralDistricts": [
          {
            "election": null,
            "id": 78,
            "name": "Ottawa Centre"
          }
        ],
        "pollDivisionIds": [
          10140543
        ],
        "postalCode": "K1Y3K3",
        "streetName": "WESTMOUNT",
        "streetDirectionId": null,
        "streetTypeId": "AVE",
        "placeName": "OTTAWA",
        "streetNameDisplayText": "WESTMOUNT AVE, OTTAWA"
      }
    ]
  },
  {
    "postal": "K1Y9R0",
    "result": []
  },
  {
    "postal": "K1Y4R8",
    "result": [
      {
        "electoralDistricts": [
          {
            "election": null,
            "id": 78,
            "name": "Ottawa Centre"
          }
        ],
        "pollDivisionIds": [
          10140544
        ],
        "postalCode": "K1Y4R8",
        "streetName": "ROSEMOUNT",
        "streetDirectionId": null,
        "streetTypeId": "AVE",
        "placeName": "OTTAWA",
        "streetNameDisplayText": "ROSEMOUNT AVE, OTTAWA"
      }
    ]
  },
  {
    "postal": "K1Y5P9",
    "result": []
  },
  {
    "postal": "K1Y8N4",
    "result": []
  },
  {
    "postal": "K1Y8H4",
    "result": []
  },
  {
    "postal": "K1Y4V1",
    "result": []
  },
  {
    "postal": "K1Y1K5",
    "result": [
      {
        "electoralDistricts": [
          {
            "election": null,
            "id": 78,
            "name": "Ottawa Centre"
          }
        ],
        "pollDivisionIds": [
          10140544
        ],
        "postalCode": "K1Y1K5",
        "streetName": "PINEHURST",
        "streetDirectionId": null,
        "streetTypeId": "AVE",
        "placeName": "OTTAWA",
        "streetNameDisplayText": "PINEHURST AVE, OTTAWA"
      }
    ]
  },
  {
    "postal": "K1Y1Z5",
    "result": [
      {
        "electoralDistricts": [
          {
            "election": null,
            "id": 78,
            "name": "Ottawa Centre"
          }
        ],
        "pollDivisionIds": [
          10140544
        ],
        "postalCode": "K1Y1Z5",
        "streetName": "IRVING",
        "streetDirectionId": null,
        "streetTypeId": "AVE",
        "placeName": "OTTAWA",
        "streetNameDisplayText": "IRVING AVE, OTTAWA"
      }
    ]
  },
  {
    "postal": "K1Y9L9",
    "result": []
  },
  {
    "postal": "K1Y5L2",
    "result": []
  },
  {
    "postal": "K1Y0M2",
    "result": [
      {
        "electoralDistricts": [
          {
            "election": null,
            "id": 78,
            "name": "Ottawa Centre"
          }
        ],
        "pollDivisionIds": [
          10140536
        ],
        "postalCode": "K1Y0M2",
        "streetName": "NORTHWESTERN",
        "streetDirectionId": null,
        "streetTypeId": "AVE",
        "placeName": "OTTAWA",
        "streetNameDisplayText": "NORTHWESTERN AVE, OTTAWA"
      }
    ]
  },
  {
    "postal": "K1Y1K8",
    "result": [
      {
        "electoralDistricts": [
          {
            "election": null,
            "id": 78,
            "name": "Ottawa Centre"
          }
        ],
        "pollDivisionIds": [
          10140541
        ],
        "postalCode": "K1Y1K8",
        "streetName": "FORWARD",
        "streetDirectionId": null,
        "streetTypeId": "AVE",
        "placeName": "OTTAWA",
        "streetNameDisplayText": "FORWARD AVE, OTTAWA"
      }
    ]
  },
  {
    "postal": "K1Y3M7",
    "result": [
      {
        "electoralDistricts": [
          {
            "election": null,
            "id": 78,
            "name": "Ottawa Centre"
          }
        ],
        "pollDivisionIds": [
          10140543
        ],
        "postalCode": "K1Y3M7",
        "streetName": "HELENA",
        "streetDirectionId": null,
        "streetTypeId": "ST",
        "placeName": "OTTAWA",
        "streetNameDisplayText": "HELENA ST, OTTAWA"
      }
    ]
  },
  {
    "postal": "K1Y1B2",
    "result": [
      {
        "electoralDistricts": [
          {
            "election": null,
            "id": 78,
            "name": "Ottawa Centre"
          }
        ],
        "pollDivisionIds": [
          10140546
        ],
        "postalCode": "K1Y1B2",
        "streetName": "HINTON",
        "streetDirectionId": "S",
        "streetTypeId": "AVE",
        "placeName": "OTTAWA",
        "streetNameDisplayText": "HINTON AVE S, OTTAWA"
      }
    ]
  },
  {
    "postal": "K1Y0H9",
    "result": [
      {
        "electoralDistricts": [
          {
            "election": null,
            "id": 78,
            "name": "Ottawa Centre"
          }
        ],
        "pollDivisionIds": [
          10140543
        ],
        "postalCode": "K1Y0H9",
        "streetName": "PICCADILLY",
        "streetDirectionId": null,
        "streetTypeId": "AVE",
        "placeName": "OTTAWA",
        "streetNameDisplayText": "PICCADILLY AVE, OTTAWA"
      }
    ]
  },
  {
    "postal": "K1Y8M4",
    "result": []
  },
  {
    "postal": "K1Y2M5",
    "result": [
      {
        "electoralDistricts": [
          {
            "election": null,
            "id": 78,
            "name": "Ottawa Centre"
          }
        ],
        "pollDivisionIds": [
          10140541
        ],
        "postalCode": "K1Y2M5",
        "streetName": "LYNDALE",
        "streetDirectionId": null,
        "streetTypeId": "AVE",
        "placeName": "OTTAWA",
        "streetNameDisplayText": "LYNDALE AVE, OTTAWA"
      }
    ]
  },
  {
    "postal": "K1Y0T9",
    "result": [
      {
        "electoralDistricts": [
          {
            "election": null,
            "id": 78,
            "name": "Ottawa Centre"
          }
        ],
        "pollDivisionIds": [
          10140543
        ],
        "postalCode": "K1Y0T9",
        "streetName": "HARMER",
        "streetDirectionId": "N",
        "streetTypeId": "AVE",
        "placeName": "OTTAWA",
        "streetNameDisplayText": "HARMER AVE N, OTTAWA"
      }
    ]
  },
  {
    "postal": "K1Y3P1",
    "result": [
      {
        "electoralDistricts": [
          {
            "election": null,
            "id": 78,
            "name": "Ottawa Centre"
          }
        ],
        "pollDivisionIds": [
          10140543
        ],
        "postalCode": "K1Y3P1",
        "streetName": "EDINA",
        "streetDirectionId": null,
        "streetTypeId": "ST",
        "placeName": "OTTAWA",
        "streetNameDisplayText": "EDINA ST, OTTAWA"
      }
    ]
  },
  {
    "postal": "K1Y1R6",
    "result": [
      {
        "electoralDistricts": [
          {
            "election": null,
            "id": 78,
            "name": "Ottawa Centre"
          }
        ],
        "pollDivisionIds": [
          10140544,
          10140551
        ],
        "postalCode": "K1Y1R6",
        "streetName": "BREEZEHILL",
        "streetDirectionId": "S",
        "streetTypeId": "AVE",
        "placeName": "OTTAWA",
        "streetNameDisplayText": "BREEZEHILL AVE S, OTTAWA"
      }
    ]
  },
  {
    "postal": "K1Y9V5",
    "result": []
  },
  {
    "postal": "K1Y9T0",
    "result": []
  },
  {
    "postal": "K1Y0A9",
    "result": [
      {
        "electoralDistricts": [
          {
            "election": null,
            "id": 78,
            "name": "Ottawa Centre"
          }
        ],
        "pollDivisionIds": [
          10140539
        ],
        "postalCode": "K1Y0A9",
        "streetName": "ISLAND PARK",
        "streetDirectionId": null,
        "streetTypeId": "DR",
        "placeName": "OTTAWA",
        "streetNameDisplayText": "ISLAND PARK DR, OTTAWA"
      }
    ]
  },
  {
    "postal": "K1Y1M3",
    "result": [
      {
        "electoralDistricts": [
          {
            "election": null,
            "id": 78,
            "name": "Ottawa Centre"
          }
        ],
        "pollDivisionIds": [
          10140544
        ],
        "postalCode": "K1Y1M3",
        "streetName": "HINCHEY",
        "streetDirectionId": null,
        "streetTypeId": "AVE",
        "placeName": "OTTAWA",
        "streetNameDisplayText": "HINCHEY AVE, OTTAWA"
      }
    ]
  },
  {
    "postal": "K1Y1W8",
    "result": [
      {
        "electoralDistricts": [
          {
            "election": null,
            "id": 78,
            "name": "Ottawa Centre"
          }
        ],
        "pollDivisionIds": [
          10140544
        ],
        "postalCode": "K1Y1W8",
        "streetName": "ST FRANCIS",
        "streetDirectionId": null,
        "streetTypeId": "ST",
        "placeName": "OTTAWA",
        "streetNameDisplayText": "ST FRANCIS ST, OTTAWA"
      },
      {
        "electoralDistricts": [
          {
            "election": null,
            "id": 78,
            "name": "Ottawa Centre"
          }
        ],
        "pollDivisionIds": [
          10140544
        ],
        "postalCode": "K1Y1W8",
        "streetName": "ST. FRANCIS",
        "streetDirectionId": null,
        "streetTypeId": "ST",
        "placeName": "OTTAWA",
        "streetNameDisplayText": "ST. FRANCIS ST, OTTAWA"
      }
    ]
  },
  {
    "postal": "K1Y9J1",
    "result": []
  },
  {
    "postal": "K1Y8N5",
    "result": []
  },
  {
    "postal": "K1Y5X1",
    "result": []
  },
  {
    "postal": "K1Y6S2",
    "result": []
  },
  {
    "postal": "K1Y2A2",
    "result": [
      {
        "electoralDistricts": [
          {
            "election": null,
            "id": 78,
            "name": "Ottawa Centre"
          }
        ],
        "pollDivisionIds": [
          10140551
        ],
        "postalCode": "K1Y2A2",
        "streetName": "OLD IRVING",
        "streetDirectionId": null,
        "streetTypeId": "PL",
        "placeName": "OTTAWA",
        "streetNameDisplayText": "OLD IRVING PL, OTTAWA"
      }
    ]
  },
  {
    "postal": "K1Y6A6",
    "result": []
  },
  {
    "postal": "K1Y0S3",
    "result": [
      {
        "electoralDistricts": [
          {
            "election": null,
            "id": 78,
            "name": "Ottawa Centre"
          }
        ],
        "pollDivisionIds": [
          10140542
        ],
        "postalCode": "K1Y0S3",
        "streetName": "SMIRLE",
        "streetDirectionId": null,
        "streetTypeId": "AVE",
        "placeName": "OTTAWA",
        "streetNameDisplayText": "SMIRLE AVE, OTTAWA"
      }
    ]
  },
  {
    "postal": "K1Y3E7",
    "result": [
      {
        "electoralDistricts": [
          {
            "election": null,
            "id": 78,
            "name": "Ottawa Centre"
          }
        ],
        "pollDivisionIds": [
          10140548
        ],
        "postalCode": "K1Y3E7",
        "streetName": "GLADSTONE",
        "streetDirectionId": null,
        "streetTypeId": "AVE",
        "placeName": "OTTAWA",
        "streetNameDisplayText": "GLADSTONE AVE, OTTAWA"
      }
    ]
  },
  {
    "postal": "K1Y5R7",
    "result": []
  },
  {
    "postal": "K1Y3R6",
    "result": [
      {
        "electoralDistricts": [
          {
            "election": null,
            "id": 78,
            "name": "Ottawa Centre"
          }
        ],
        "pollDivisionIds": [
          10140546
        ],
        "postalCode": "K1Y3R6",
        "streetName": "KINNEAR",
        "streetDirectionId": null,
        "streetTypeId": "ST",
        "placeName": "OTTAWA",
        "streetNameDisplayText": "KINNEAR ST, OTTAWA"
      }
    ]
  },
  {
    "postal": "K1Y6K4",
    "result": []
  },
  {
    "postal": "K1Y2W5",
    "result": [
      {
        "electoralDistricts": [
          {
            "election": null,
            "id": 78,
            "name": "Ottawa Centre"
          }
        ],
        "pollDivisionIds": [
          10140542
        ],
        "postalCode": "K1Y2W5",
        "streetName": "ARMSTRONG",
        "streetDirectionId": null,
        "streetTypeId": "ST",
        "placeName": "OTTAWA",
        "streetNameDisplayText": "ARMSTRONG ST, OTTAWA"
      }
    ]
  },
  {
    "postal": "K1Y8W4",
    "result": []
  },
  {
    "postal": "K1Y9C2",
    "result": []
  },
  {
    "postal": "K1Y2C0",
    "result": []
  },
  {
    "postal": "K1Y0E1",
    "result": [
      {
        "electoralDistricts": [
          {
            "election": null,
            "id": 78,
            "name": "Ottawa Centre"
          }
        ],
        "pollDivisionIds": [
          10140535
        ],
        "postalCode": "K1Y0E1",
        "streetName": "DANIEL",
        "streetDirectionId": null,
        "streetTypeId": "AVE",
        "placeName": "OTTAWA",
        "streetNameDisplayText": "DANIEL AVE, OTTAWA"
      }
    ]
  },
  {
    "postal": "K1Y1K9",
    "result": [
      {
        "electoralDistricts": [
          {
            "election": null,
            "id": 78,
            "name": "Ottawa Centre"
          }
        ],
        "pollDivisionIds": [
          10140541
        ],
        "postalCode": "K1Y1K9",
        "streetName": "BARNSLEY",
        "streetDirectionId": null,
        "streetTypeId": "PVT",
        "placeName": "OTTAWA",
        "streetNameDisplayText": "BARNSLEY PVT, OTTAWA"
      },
      {
        "electoralDistricts": [
          {
            "election": null,
            "id": 78,
            "name": "Ottawa Centre"
          }
        ],
        "pollDivisionIds": [
          10140541
        ],
        "postalCode": "K1Y1K9",
        "streetName": "FORWARD",
        "streetDirectionId": null,
        "streetTypeId": "AVE",
        "placeName": "OTTAWA",
        "streetNameDisplayText": "FORWARD AVE, OTTAWA"
      },
      {
        "electoralDistricts": [
          {
            "election": null,
            "id": 78,
            "name": "Ottawa Centre"
          }
        ],
        "pollDivisionIds": [
          10140541
        ],
        "postalCode": "K1Y1K9",
        "streetName": "WIGSTON",
        "streetDirectionId": null,
        "streetTypeId": "PVT",
        "placeName": "OTTAWA",
        "streetNameDisplayText": "WIGSTON PVT, OTTAWA"
      }
    ]
  },
  {
    "postal": "K1Y1G7",
    "result": [
      {
        "electoralDistricts": [
          {
            "election": null,
            "id": 78,
            "name": "Ottawa Centre"
          }
        ],
        "pollDivisionIds": [
          10140544,
          10140542
        ],
        "postalCode": "K1Y1G7",
        "streetName": "PARKDALE",
        "streetDirectionId": null,
        "streetTypeId": "AVE",
        "placeName": "OTTAWA",
        "streetNameDisplayText": "PARKDALE AVE, OTTAWA"
      }
    ]
  },
  {
    "postal": "K1Y4E9",
    "result": [
      {
        "electoralDistricts": [
          {
            "election": null,
            "id": 78,
            "name": "Ottawa Centre"
          }
        ],
        "pollDivisionIds": [
          10140546
        ],
        "postalCode": "K1Y4E9",
        "streetName": "CARLING",
        "streetDirectionId": null,
        "streetTypeId": "AVE",
        "placeName": "OTTAWA",
        "streetNameDisplayText": "CARLING AVE, OTTAWA"
      }
    ]
  },
  {
    "postal": "K1Y9P0",
    "result": []
  },
  {
    "postal": "K1Y5H3",
    "result": []
  },
  {
    "postal": "K1Y9X6",
    "result": []
  },
  {
    "postal": "K1Y5N7",
    "result": []
  },
  {
    "postal": "K1Y5A6",
    "result": []
  },
  {
    "postal": "K1Y4M0",
    "result": []
  },
  {
    "postal": "K1Y3V6",
    "result": [
      {
        "electoralDistricts": [
          {
            "election": null,
            "id": 78,
            "name": "Ottawa Centre"
          }
        ],
        "pollDivisionIds": [
          10140551
        ],
        "postalCode": "K1Y3V6",
        "streetName": "SHERWOOD",
        "streetDirectionId": null,
        "streetTypeId": "DR",
        "placeName": "OTTAWA",
        "streetNameDisplayText": "SHERWOOD DR, OTTAWA"
      }
    ]
  },
  {
    "postal": "K1Y1L7",
    "result": [
      {
        "electoralDistricts": [
          {
            "election": null,
            "id": 78,
            "name": "Ottawa Centre"
          }
        ],
        "pollDivisionIds": [
          10140541
        ],
        "postalCode": "K1Y1L7",
        "streetName": "HINCHEY",
        "streetDirectionId": null,
        "streetTypeId": "AVE",
        "placeName": "OTTAWA",
        "streetNameDisplayText": "HINCHEY AVE, OTTAWA"
      }
    ]
  },
  {
    "postal": "K1Y2P9",
    "result": [
      {
        "electoralDistricts": [
          {
            "election": null,
            "id": 78,
            "name": "Ottawa Centre"
          }
        ],
        "pollDivisionIds": [
          10140542
        ],
        "postalCode": "K1Y2P9",
        "streetName": "SPENCER",
        "streetDirectionId": null,
        "streetTypeId": "ST",
        "placeName": "OTTAWA",
        "streetNameDisplayText": "SPENCER ST, OTTAWA"
      }
    ]
  },
  {
    "postal": "K1Y5T4",
    "result": []
  },
  {
    "postal": "K1Y5Z1",
    "result": []
  },
  {
    "postal": "K1Y2X0",
    "result": []
  },
  {
    "postal": "K1Y6Z2",
    "result": []
  },
  {
    "postal": "K1Y0E0",
    "result": []
  },
  {
    "postal": "K1Y3Z5",
    "result": [
      {
        "electoralDistricts": [
          {
            "election": null,
            "id": 78,
            "name": "Ottawa Centre"
          }
        ],
        "pollDivisionIds": [
          10140546
        ],
        "postalCode": "K1Y3Z5",
        "streetName": "KENILWORTH",
        "streetDirectionId": null,
        "streetTypeId": "ST",
        "placeName": "OTTAWA",
        "streetNameDisplayText": "KENILWORTH ST, OTTAWA"
      }
    ]
  },
  {
    "postal": "K1Y8H3",
    "result": []
  },
  {
    "postal": "K1Y7S6",
    "result": []
  },
  {
    "postal": "K1Y4C1",
    "result": [
      {
        "electoralDistricts": [
          {
            "election": null,
            "id": 78,
            "name": "Ottawa Centre"
          }
        ],
        "pollDivisionIds": [
          10140543
        ],
        "postalCode": "K1Y4C1",
        "streetName": "RUSKIN",
        "streetDirectionId": null,
        "streetTypeId": "ST",
        "placeName": "OTTAWA",
        "streetNameDisplayText": "RUSKIN ST, OTTAWA"
      }
    ]
  },
  {
    "postal": "K1Y3K2",
    "result": [
      {
        "electoralDistricts": [
          {
            "election": null,
            "id": 78,
            "name": "Ottawa Centre"
          }
        ],
        "pollDivisionIds": [
          10140543
        ],
        "postalCode": "K1Y3K2",
        "streetName": "WESTMOUNT",
        "streetDirectionId": null,
        "streetTypeId": "AVE",
        "placeName": "OTTAWA",
        "streetNameDisplayText": "WESTMOUNT AVE, OTTAWA"
      }
    ]
  },
  {
    "postal": "K1Y1Y5",
    "result": [
      {
        "electoralDistricts": [
          {
            "election": null,
            "id": 78,
            "name": "Ottawa Centre"
          }
        ],
        "pollDivisionIds": [
          10140551
        ],
        "postalCode": "K1Y1Y5",
        "streetName": "FAIRMONT",
        "streetDirectionId": null,
        "streetTypeId": "AVE",
        "placeName": "OTTAWA",
        "streetNameDisplayText": "FAIRMONT AVE, OTTAWA"
      }
    ]
  },
  {
    "postal": "K1Y6P6",
    "result": []
  },
  {
    "postal": "K1Y3N9",
    "result": [
      {
        "electoralDistricts": [
          {
            "election": null,
            "id": 78,
            "name": "Ottawa Centre"
          }
        ],
        "pollDivisionIds": [
          10140543
        ],
        "postalCode": "K1Y3N9",
        "streetName": "EDINA",
        "streetDirectionId": null,
        "streetTypeId": "ST",
        "placeName": "OTTAWA",
        "streetNameDisplayText": "EDINA ST, OTTAWA"
      }
    ]
  },
  {
    "postal": "K1Y3W2",
    "result": [
      {
        "electoralDistricts": [
          {
            "election": null,
            "id": 78,
            "name": "Ottawa Centre"
          }
        ],
        "pollDivisionIds": [
          10140546
        ],
        "postalCode": "K1Y3W2",
        "streetName": "SHERWOOD",
        "streetDirectionId": null,
        "streetTypeId": "DR",
        "placeName": "OTTAWA",
        "streetNameDisplayText": "SHERWOOD DR, OTTAWA"
      }
    ]
  },
  {
    "postal": "K1Y6H8",
    "result": []
  },
  {
    "postal": "K1Y9T3",
    "result": []
  },
  {
    "postal": "K1Y5L9",
    "result": []
  },
  {
    "postal": "K1Y7X7",
    "result": []
  },
  {
    "postal": "K1Y3J5",
    "result": []
  },
  {
    "postal": "K1Y4J5",
    "result": []
  },
  {
    "postal": "K1Y6J2",
    "result": []
  },
  {
    "postal": "K1Y5V6",
    "result": []
  },
  {
    "postal": "K1Y3N2",
    "result": [
      {
        "electoralDistricts": [
          {
            "election": null,
            "id": 78,
            "name": "Ottawa Centre"
          }
        ],
        "pollDivisionIds": [
          10140543
        ],
        "postalCode": "K1Y3N2",
        "streetName": "HELENA",
        "streetDirectionId": null,
        "streetTypeId": "ST",
        "placeName": "OTTAWA",
        "streetNameDisplayText": "HELENA ST, OTTAWA"
      }
    ]
  },
  {
    "postal": "K1Y3B1",
    "result": [
      {
        "electoralDistricts": [
          {
            "election": null,
            "id": 78,
            "name": "Ottawa Centre"
          }
        ],
        "pollDivisionIds": [
          10140542
        ],
        "postalCode": "K1Y3B1",
        "streetName": "WELLINGTON",
        "streetDirectionId": "W",
        "streetTypeId": "ST",
        "placeName": "OTTAWA",
        "streetNameDisplayText": "WELLINGTON ST W, OTTAWA"
      }
    ]
  },
  {
    "postal": "K1Y8B5",
    "result": []
  },
  {
    "postal": "K1Y0K1",
    "result": [
      {
        "electoralDistricts": [
          {
            "election": null,
            "id": 78,
            "name": "Ottawa Centre"
          }
        ],
        "pollDivisionIds": [
          10140540
        ],
        "postalCode": "K1Y0K1",
        "streetName": "CARLETON",
        "streetDirectionId": null,
        "streetTypeId": "AVE",
        "placeName": "OTTAWA",
        "streetNameDisplayText": "CARLETON AVE, OTTAWA"
      }
    ]
  },
  {
    "postal": "K1Y7M7",
    "result": []
  },
  {
    "postal": "K1Y2M2",
    "result": [
      {
        "electoralDistricts": [
          {
            "election": null,
            "id": 78,
            "name": "Ottawa Centre"
          }
        ],
        "pollDivisionIds": [
          10140541
        ],
        "postalCode": "K1Y2M2",
        "streetName": "BURNSIDE",
        "streetDirectionId": null,
        "streetTypeId": "AVE",
        "placeName": "OTTAWA",
        "streetNameDisplayText": "BURNSIDE AVE, OTTAWA"
      }
    ]
  },
  {
    "postal": "K1Y9N3",
    "result": []
  },
  {
    "postal": "K1Y4Y8",
    "result": []
  },
  {
    "postal": "K1Y3V7",
    "result": [
      {
        "electoralDistricts": [
          {
            "election": null,
            "id": 78,
            "name": "Ottawa Centre"
          }
        ],
        "pollDivisionIds": [
          10140551
        ],
        "postalCode": "K1Y3V7",
        "streetName": "SHERWOOD",
        "streetDirectionId": null,
        "streetTypeId": "DR",
        "placeName": "OTTAWA",
        "streetNameDisplayText": "SHERWOOD DR, OTTAWA"
      }
    ]
  },
  {
    "postal": "K1Y8Z1",
    "result": []
  },
  {
    "postal": "K1Y7B3",
    "result": []
  },
  {
    "postal": "K1Y3A8",
    "result": [
      {
        "electoralDistricts": [
          {
            "election": null,
            "id": 78,
            "name": "Ottawa Centre"
          }
        ],
        "pollDivisionIds": [
          10140542
        ],
        "postalCode": "K1Y3A8",
        "streetName": "WELLINGTON",
        "streetDirectionId": "W",
        "streetTypeId": "ST",
        "placeName": "OTTAWA",
        "streetNameDisplayText": "WELLINGTON ST W, OTTAWA"
      }
    ]
  },
  {
    "postal": "K1Y7V5",
    "result": []
  },
  {
    "postal": "K1Y2T2",
    "result": [
      {
        "electoralDistricts": [
          {
            "election": null,
            "id": 78,
            "name": "Ottawa Centre"
          }
        ],
        "pollDivisionIds": [
          10140544
        ],
        "postalCode": "K1Y2T2",
        "streetName": "LADOUCEUR",
        "streetDirectionId": null,
        "streetTypeId": "ST",
        "placeName": "OTTAWA",
        "streetNameDisplayText": "LADOUCEUR ST, OTTAWA"
      }
    ]
  },
  {
    "postal": "K1Y6L3",
    "result": []
  },
  {
    "postal": "K1Y0L2",
    "result": [
      {
        "electoralDistricts": [
          {
            "election": null,
            "id": 78,
            "name": "Ottawa Centre"
          }
        ],
        "pollDivisionIds": [
          10140543
        ],
        "postalCode": "K1Y0L2",
        "streetName": "MAYFAIR",
        "streetDirectionId": "S",
        "streetTypeId": "AVE",
        "placeName": "OTTAWA",
        "streetNameDisplayText": "MAYFAIR AVE S, OTTAWA"
      }
    ]
  },
  {
    "postal": "K1Y5Y8",
    "result": []
  },
  {
    "postal": "K1Y0B8",
    "result": [
      {
        "electoralDistricts": [
          {
            "election": null,
            "id": 78,
            "name": "Ottawa Centre"
          }
        ],
        "pollDivisionIds": [
          10140543
        ],
        "postalCode": "K1Y0B8",
        "streetName": "ISLAND PARK",
        "streetDirectionId": null,
        "streetTypeId": "DR",
        "placeName": "OTTAWA",
        "streetNameDisplayText": "ISLAND PARK DR, OTTAWA"
      }
    ]
  },
  {
    "postal": "K1Y6R5",
    "result": []
  },
  {
    "postal": "K1Y8W6",
    "result": []
  },
  {
    "postal": "K1Y8G6",
    "result": []
  },
  {
    "postal": "K1Y6X3",
    "result": []
  },
  {
    "postal": "K1Y7R7",
    "result": []
  },
  {
    "postal": "K1Y4B6",
    "result": [
      {
        "electoralDistricts": [
          {
            "election": null,
            "id": 78,
            "name": "Ottawa Centre"
          }
        ],
        "pollDivisionIds": [
          10140543
        ],
        "postalCode": "K1Y4B6",
        "streetName": "RUSKIN",
        "streetDirectionId": null,
        "streetTypeId": "ST",
        "placeName": "OTTAWA",
        "streetNameDisplayText": "RUSKIN ST, OTTAWA"
      }
    ]
  },
  {
    "postal": "K1Y3P9",
    "result": [
      {
        "electoralDistricts": [
          {
            "election": null,
            "id": 78,
            "name": "Ottawa Centre"
          }
        ],
        "pollDivisionIds": [
          10140551
        ],
        "postalCode": "K1Y3P9",
        "streetName": "YOUNG",
        "streetDirectionId": null,
        "streetTypeId": "ST",
        "placeName": "OTTAWA",
        "streetNameDisplayText": "YOUNG ST, OTTAWA"
      }
    ]
  },
  {
    "postal": "K1Y2T3",
    "result": [
      {
        "electoralDistricts": [
          {
            "election": null,
            "id": 78,
            "name": "Ottawa Centre"
          }
        ],
        "pollDivisionIds": [
          10140544
        ],
        "postalCode": "K1Y2T3",
        "streetName": "LADOUCEUR",
        "streetDirectionId": null,
        "streetTypeId": "ST",
        "placeName": "OTTAWA",
        "streetNameDisplayText": "LADOUCEUR ST, OTTAWA"
      }
    ]
  },
  {
    "postal": "K1Y1M4",
    "result": [
      {
        "electoralDistricts": [
          {
            "election": null,
            "id": 78,
            "name": "Ottawa Centre"
          }
        ],
        "pollDivisionIds": [
          10140544
        ],
        "postalCode": "K1Y1M4",
        "streetName": "MCCORMICK",
        "streetDirectionId": null,
        "streetTypeId": "ST",
        "placeName": "OTTAWA",
        "streetNameDisplayText": "MCCORMICK ST, OTTAWA"
      }
    ]
  },
  {
    "postal": "K1Y0H1",
    "result": [
      {
        "electoralDistricts": [
          {
            "election": null,
            "id": 78,
            "name": "Ottawa Centre"
          }
        ],
        "pollDivisionIds": [
          10140536,
          10140535
        ],
        "postalCode": "K1Y0H1",
        "streetName": "COWLEY",
        "streetDirectionId": null,
        "streetTypeId": "AVE",
        "placeName": "OTTAWA",
        "streetNameDisplayText": "COWLEY AVE, OTTAWA"
      }
    ]
  },
  {
    "postal": "K1Y9W3",
    "result": []
  },
  {
    "postal": "K1Y6P1",
    "result": []
  },
  {
    "postal": "K1Y7G2",
    "result": []
  },
  {
    "postal": "K1Y4J9",
    "result": []
  },
  {
    "postal": "K1Y9E4",
    "result": []
  },
  {
    "postal": "K1Y8H0",
    "result": []
  },
  {
    "postal": "K1Y4M7",
    "result": []
  },
  {
    "postal": "K1Y2G9",
    "result": [
      {
        "electoralDistricts": [
          {
            "election": null,
            "id": 78,
            "name": "Ottawa Centre"
          }
        ],
        "pollDivisionIds": [
          10140551
        ],
        "postalCode": "K1Y2G9",
        "streetName": "BAYSWATER",
        "streetDirectionId": null,
        "streetTypeId": "AVE",
        "placeName": "OTTAWA",
        "streetNameDisplayText": "BAYSWATER AVE, OTTAWA"
      }
    ]
  },
  {
    "postal": "K1Y8T2",
    "result": []
  },
  {
    "postal": "K1Y7G7",
    "result": []
  },
  {
    "postal": "K1Y4Z3",
    "result": []
  },
  {
    "postal": "K1Y5B3",
    "result": []
  },
  {
    "postal": "K1Y1S7",
    "result": [
      {
        "electoralDistricts": [
          {
            "election": null,
            "id": 78,
            "name": "Ottawa Centre"
          }
        ],
        "pollDivisionIds": [
          10140546
        ],
        "postalCode": "K1Y1S7",
        "streetName": "REID",
        "streetDirectionId": null,
        "streetTypeId": "AVE",
        "placeName": "OTTAWA",
        "streetNameDisplayText": "REID AVE, OTTAWA"
      }
    ]
  },
  {
    "postal": "K1Y2N7",
    "result": [
      {
        "electoralDistricts": [
          {
            "election": null,
            "id": 78,
            "name": "Ottawa Centre"
          }
        ],
        "pollDivisionIds": [
          10140540
        ],
        "postalCode": "K1Y2N7",
        "streetName": "SCOTT",
        "streetDirectionId": null,
        "streetTypeId": "ST",
        "placeName": "OTTAWA",
        "streetNameDisplayText": "SCOTT ST, OTTAWA"
      }
    ]
  },
  {
    "postal": "K1Y0H8",
    "result": [
      {
        "electoralDistricts": [
          {
            "election": null,
            "id": 78,
            "name": "Ottawa Centre"
          }
        ],
        "pollDivisionIds": [
          10140543
        ],
        "postalCode": "K1Y0H8",
        "streetName": "PICCADILLY",
        "streetDirectionId": null,
        "streetTypeId": "AVE",
        "placeName": "OTTAWA",
        "streetNameDisplayText": "PICCADILLY AVE, OTTAWA"
      }
    ]
  },
  {
    "postal": "K1Y7Z4",
    "result": []
  },
  {
    "postal": "K1Y7B1",
    "result": []
  },
  {
    "postal": "K1Y7P8",
    "result": []
  },
  {
    "postal": "K1Y7N0",
    "result": []
  },
  {
    "postal": "K1Y3Y5",
    "result": [
      {
        "electoralDistricts": [
          {
            "election": null,
            "id": 78,
            "name": "Ottawa Centre"
          }
        ],
        "pollDivisionIds": [
          10140546
        ],
        "postalCode": "K1Y3Y5",
        "streetName": "KENILWORTH",
        "streetDirectionId": null,
        "streetTypeId": "ST",
        "placeName": "OTTAWA",
        "streetNameDisplayText": "KENILWORTH ST, OTTAWA"
      }
    ]
  },
  {
    "postal": "K1Y6K1",
    "result": []
  },
  {
    "postal": "K1Y9X5",
    "result": []
  },
  {
    "postal": "K1Y7S5",
    "result": []
  },
  {
    "postal": "K1Y0A4",
    "result": [
      {
        "electoralDistricts": [
          {
            "election": null,
            "id": 78,
            "name": "Ottawa Centre"
          }
        ],
        "pollDivisionIds": [
          10140531
        ],
        "postalCode": "K1Y0A4",
        "streetName": "ISLAND PARK",
        "streetDirectionId": null,
        "streetTypeId": "DR",
        "placeName": "OTTAWA",
        "streetNameDisplayText": "ISLAND PARK DR, OTTAWA"
      }
    ]
  },
  {
    "postal": "K1Y4T5",
    "result": []
  },
  {
    "postal": "K1Y5K1",
    "result": []
  },
  {
    "postal": "K1Y0Z9",
    "result": [
      {
        "electoralDistricts": [
          {
            "election": null,
            "id": 78,
            "name": "Ottawa Centre"
          }
        ],
        "pollDivisionIds": [
          10140543
        ],
        "postalCode": "K1Y0Z9",
        "streetName": "HINTON",
        "streetDirectionId": "N",
        "streetTypeId": "AVE",
        "placeName": "OTTAWA",
        "streetNameDisplayText": "HINTON AVE N, OTTAWA"
      }
    ]
  },
  {
    "postal": "K1Y7T2",
    "result": []
  },
  {
    "postal": "K1Y1L5",
    "result": [
      {
        "electoralDistricts": [
          {
            "election": null,
            "id": 78,
            "name": "Ottawa Centre"
          }
        ],
        "pollDivisionIds": [
          10140541
        ],
        "postalCode": "K1Y1L5",
        "streetName": "HINCHEY",
        "streetDirectionId": null,
        "streetTypeId": "AVE",
        "placeName": "OTTAWA",
        "streetNameDisplayText": "HINCHEY AVE, OTTAWA"
      }
    ]
  },
  {
    "postal": "K1Y3N5",
    "result": [
      {
        "electoralDistricts": [
          {
            "election": null,
            "id": 78,
            "name": "Ottawa Centre"
          }
        ],
        "pollDivisionIds": [
          10140543
        ],
        "postalCode": "K1Y3N5",
        "streetName": "GENEVA",
        "streetDirectionId": null,
        "streetTypeId": "ST",
        "placeName": "OTTAWA",
        "streetNameDisplayText": "GENEVA ST, OTTAWA"
      }
    ]
  },
  {
    "postal": "K1Y6H4",
    "result": []
  },
  {
    "postal": "K1Y5A5",
    "result": []
  },
  {
    "postal": "K1Y3R9",
    "result": [
      {
        "electoralDistricts": [
          {
            "election": null,
            "id": 78,
            "name": "Ottawa Centre"
          }
        ],
        "pollDivisionIds": [
          10140546
        ],
        "postalCode": "K1Y3R9",
        "streetName": "FULLER",
        "streetDirectionId": null,
        "streetTypeId": "ST",
        "placeName": "OTTAWA",
        "streetNameDisplayText": "FULLER ST, OTTAWA"
      }
    ]
  },
  {
    "postal": "K1Y7L8",
    "result": []
  },
  {
    "postal": "K1Y6T6",
    "result": []
  },
  {
    "postal": "K1Y7Y7",
    "result": []
  },
  {
    "postal": "K1Y3M8",
    "result": [
      {
        "electoralDistricts": [
          {
            "election": null,
            "id": 78,
            "name": "Ottawa Centre"
          }
        ],
        "pollDivisionIds": [
          10140543
        ],
        "postalCode": "K1Y3M8",
        "streetName": "HELENA",
        "streetDirectionId": null,
        "streetTypeId": "ST",
        "placeName": "OTTAWA",
        "streetNameDisplayText": "HELENA ST, OTTAWA"
      }
    ]
  },
  {
    "postal": "K1Y2E0",
    "result": []
  },
  {
    "postal": "K1Y4B5",
    "result": [
      {
        "electoralDistricts": [
          {
            "election": null,
            "id": 78,
            "name": "Ottawa Centre"
          }
        ],
        "pollDivisionIds": [
          10140546
        ],
        "postalCode": "K1Y4B5",
        "streetName": "RUSKIN",
        "streetDirectionId": null,
        "streetTypeId": "ST",
        "placeName": "OTTAWA",
        "streetNameDisplayText": "RUSKIN ST, OTTAWA"
      }
    ]
  },
  {
    "postal": "K1Y1J3",
    "result": [
      {
        "electoralDistricts": [
          {
            "election": null,
            "id": 78,
            "name": "Ottawa Centre"
          }
        ],
        "pollDivisionIds": [
          10140546
        ],
        "postalCode": "K1Y1J3",
        "streetName": "PARKDALE",
        "streetDirectionId": null,
        "streetTypeId": "AVE",
        "placeName": "OTTAWA",
        "streetNameDisplayText": "PARKDALE AVE, OTTAWA"
      }
    ]
  },
  {
    "postal": "K1Y5S6",
    "result": []
  },
  {
    "postal": "K1Y8P7",
    "result": []
  },
  {
    "postal": "K1Y7S7",
    "result": []
  },
  {
    "postal": "K1Y4C2",
    "result": [
      {
        "electoralDistricts": [
          {
            "election": null,
            "id": 78,
            "name": "Ottawa Centre"
          }
        ],
        "pollDivisionIds": [
          10140546
        ],
        "postalCode": "K1Y4C2",
        "streetName": "INGLEWOOD",
        "streetDirectionId": null,
        "streetTypeId": "PL",
        "placeName": "OTTAWA",
        "streetNameDisplayText": "INGLEWOOD PL, OTTAWA"
      }
    ]
  },
  {
    "postal": "K1Y5Y0",
    "result": []
  },
  {
    "postal": "K1Y2V7",
    "result": [
      {
        "electoralDistricts": [
          {
            "election": null,
            "id": 78,
            "name": "Ottawa Centre"
          }
        ],
        "pollDivisionIds": [
          10140544
        ],
        "postalCode": "K1Y2V7",
        "streetName": "ARMSTRONG",
        "streetDirectionId": null,
        "streetTypeId": "ST",
        "placeName": "OTTAWA",
        "streetNameDisplayText": "ARMSTRONG ST, OTTAWA"
      }
    ]
  },
  {
    "postal": "K1Y8P5",
    "result": []
  },
  {
    "postal": "K1Y5P5",
    "result": []
  },
  {
    "postal": "K1Y5Z0",
    "result": []
  },
  {
    "postal": "K1Y9B0",
    "result": []
  },
  {
    "postal": "K1Y1L0",
    "result": []
  },
  {
    "postal": "K1Y0B5",
    "result": [
      {
        "electoralDistricts": [
          {
            "election": null,
            "id": 78,
            "name": "Ottawa Centre"
          }
        ],
        "pollDivisionIds": [
          10140539
        ],
        "postalCode": "K1Y0B5",
        "streetName": "ISLAND PARK",
        "streetDirectionId": null,
        "streetTypeId": "DR",
        "placeName": "OTTAWA",
        "streetNameDisplayText": "ISLAND PARK DR, OTTAWA"
      }
    ]
  },
  {
    "postal": "K1Y3L2",
    "result": [
      {
        "electoralDistricts": [
          {
            "election": null,
            "id": 78,
            "name": "Ottawa Centre"
          }
        ],
        "pollDivisionIds": [
          10140543
        ],
        "postalCode": "K1Y3L2",
        "streetName": "JAVA",
        "streetDirectionId": null,
        "streetTypeId": "ST",
        "placeName": "OTTAWA",
        "streetNameDisplayText": "JAVA ST, OTTAWA"
      }
    ]
  },
  {
    "postal": "K1Y3B7",
    "result": [
      {
        "electoralDistricts": [
          {
            "election": null,
            "id": 78,
            "name": "Ottawa Centre"
          }
        ],
        "pollDivisionIds": [
          10140544,
          10140540
        ],
        "postalCode": "K1Y3B7",
        "streetName": "WELLINGTON",
        "streetDirectionId": "W",
        "streetTypeId": "ST",
        "placeName": "OTTAWA",
        "streetNameDisplayText": "WELLINGTON ST W, OTTAWA"
      }
    ]
  },
  {
    "postal": "K1Y8L1",
    "result": []
  },
  {
    "postal": "K1Y5M4",
    "result": []
  },
  {
    "postal": "K1Y4G9",
    "result": [
      {
        "electoralDistricts": [
          {
            "election": null,
            "id": 78,
            "name": "Ottawa Centre"
          }
        ],
        "pollDivisionIds": [
          10140544
        ],
        "postalCode": "K1Y4G9",
        "streetName": "ROSEMOUNT",
        "streetDirectionId": null,
        "streetTypeId": "AVE",
        "placeName": "OTTAWA",
        "streetNameDisplayText": "ROSEMOUNT AVE, OTTAWA"
      }
    ]
  },
  {
    "postal": "K1Y0P0",
    "result": []
  },
  {
    "postal": "K1Y8G2",
    "result": []
  },
  {
    "postal": "K1Y1V9",
    "result": []
  },
  {
    "postal": "K1Y8N8",
    "result": []
  },
  {
    "postal": "K1Y6S8",
    "result": []
  },
  {
    "postal": "K1Y8H2",
    "result": []
  },
  {
    "postal": "K1Y5R8",
    "result": []
  },
  {
    "postal": "K1Y5L4",
    "result": []
  },
  {
    "postal": "K1Y9E1",
    "result": []
  },
  {
    "postal": "K1Y1C4",
    "result": [
      {
        "electoralDistricts": [
          {
            "election": null,
            "id": 78,
            "name": "Ottawa Centre"
          }
        ],
        "pollDivisionIds": [
          10140546
        ],
        "postalCode": "K1Y1C4",
        "streetName": "HAMILTON",
        "streetDirectionId": "S",
        "streetTypeId": "AVE",
        "placeName": "OTTAWA",
        "streetNameDisplayText": "HAMILTON AVE S, OTTAWA"
      }
    ]
  },
  {
    "postal": "K1Y8W5",
    "result": []
  },
  {
    "postal": "K1Y1Y4",
    "result": [
      {
        "electoralDistricts": [
          {
            "election": null,
            "id": 78,
            "name": "Ottawa Centre"
          }
        ],
        "pollDivisionIds": [
          10140551
        ],
        "postalCode": "K1Y1Y4",
        "streetName": "FAIRMONT",
        "streetDirectionId": null,
        "streetTypeId": "AVE",
        "placeName": "OTTAWA",
        "streetNameDisplayText": "FAIRMONT AVE, OTTAWA"
      }
    ]
  },
  {
    "postal": "K1Y1C0",
    "result": []
  },
  {
    "postal": "K1Y2J2",
    "result": [
      {
        "electoralDistricts": [
          {
            "election": null,
            "id": 78,
            "name": "Ottawa Centre"
          }
        ],
        "pollDivisionIds": [
          10140551
        ],
        "postalCode": "K1Y2J2",
        "streetName": "BREEZEHILL",
        "streetDirectionId": "S",
        "streetTypeId": "AVE",
        "placeName": "OTTAWA",
        "streetNameDisplayText": "BREEZEHILL AVE S, OTTAWA"
      }
    ]
  },
  {
    "postal": "K1Y2J0",
    "result": []
  },
  {
    "postal": "K1Y7A3",
    "result": []
  },
  {
    "postal": "K1Y8M1",
    "result": []
  },
  {
    "postal": "K1Y7T9",
    "result": []
  },
  {
    "postal": "K1Y6C0",
    "result": []
  },
  {
    "postal": "K1Y7X1",
    "result": []
  },
  {
    "postal": "K1Y0G1",
    "result": [
      {
        "electoralDistricts": [
          {
            "election": null,
            "id": 78,
            "name": "Ottawa Centre"
          }
        ],
        "pollDivisionIds": [
          10140535
        ],
        "postalCode": "K1Y0G1",
        "streetName": "KEYWORTH",
        "streetDirectionId": null,
        "streetTypeId": "AVE",
        "placeName": "OTTAWA",
        "streetNameDisplayText": "KEYWORTH AVE, OTTAWA"
      }
    ]
  },
  {
    "postal": "K1Y4X2",
    "result": []
  },
  {
    "postal": "K1Y0N6",
    "result": [
      {
        "electoralDistricts": [
          {
            "election": null,
            "id": 78,
            "name": "Ottawa Centre"
          }
        ],
        "pollDivisionIds": [
          10140540
        ],
        "postalCode": "K1Y0N6",
        "streetName": "ROSS",
        "streetDirectionId": null,
        "streetTypeId": "AVE",
        "placeName": "OTTAWA",
        "streetNameDisplayText": "ROSS AVE, OTTAWA"
      }
    ]
  },
  {
    "postal": "K1Y8E3",
    "result": []
  },
  {
    "postal": "K1Y5S8",
    "result": []
  },
  {
    "postal": "K1Y0R0",
    "result": []
  },
  {
    "postal": "K1Y6J6",
    "result": []
  },
  {
    "postal": "K1Y4B4",
    "result": [
      {
        "electoralDistricts": [
          {
            "election": null,
            "id": 78,
            "name": "Ottawa Centre"
          }
        ],
        "pollDivisionIds": [
          10140546
        ],
        "postalCode": "K1Y4B4",
        "streetName": "RUSKIN",
        "streetDirectionId": null,
        "streetTypeId": "ST",
        "placeName": "OTTAWA",
        "streetNameDisplayText": "RUSKIN ST, OTTAWA"
      }
    ]
  },
  {
    "postal": "K1Y7E3",
    "result": []
  },
  {
    "postal": "K1Y3N6",
    "result": [
      {
        "electoralDistricts": [
          {
            "election": null,
            "id": 78,
            "name": "Ottawa Centre"
          }
        ],
        "pollDivisionIds": [
          10140543
        ],
        "postalCode": "K1Y3N6",
        "streetName": "GENEVA",
        "streetDirectionId": null,
        "streetTypeId": "ST",
        "placeName": "OTTAWA",
        "streetNameDisplayText": "GENEVA ST, OTTAWA"
      }
    ]
  },
  {
    "postal": "K1Y3X6",
    "result": [
      {
        "electoralDistricts": [
          {
            "election": null,
            "id": 78,
            "name": "Ottawa Centre"
          }
        ],
        "pollDivisionIds": [
          10140546
        ],
        "postalCode": "K1Y3X6",
        "streetName": "ORRIN",
        "streetDirectionId": null,
        "streetTypeId": "AVE",
        "placeName": "OTTAWA",
        "streetNameDisplayText": "ORRIN AVE, OTTAWA"
      }
    ]
  },
  {
    "postal": "K1Y8L0",
    "result": []
  },
  {
    "postal": "K1Y8N1",
    "result": []
  },
  {
    "postal": "K1Y4J0",
    "result": []
  },
  {
    "postal": "K1Y0X7",
    "result": [
      {
        "electoralDistricts": [
          {
            "election": null,
            "id": 78,
            "name": "Ottawa Centre"
          }
        ],
        "pollDivisionIds": [
          10140540
        ],
        "postalCode": "K1Y0X7",
        "streetName": "WELLINGTON",
        "streetDirectionId": "W",
        "streetTypeId": "ST",
        "placeName": "OTTAWA",
        "streetNameDisplayText": "WELLINGTON ST W, OTTAWA"
      }
    ]
  },
  {
    "postal": "K1Y6S4",
    "result": []
  },
  {
    "postal": "K1Y0Z0",
    "result": []
  },
  {
    "postal": "K1Y9X8",
    "result": []
  },
  {
    "postal": "K1Y3H3",
    "result": [
      {
        "electoralDistricts": [
          {
            "election": null,
            "id": 78,
            "name": "Ottawa Centre"
          }
        ],
        "pollDivisionIds": [
          10140548,
          10140544
        ],
        "postalCode": "K1Y3H3",
        "streetName": "GLADSTONE",
        "streetDirectionId": null,
        "streetTypeId": "AVE",
        "placeName": "OTTAWA",
        "streetNameDisplayText": "GLADSTONE AVE, OTTAWA"
      }
    ]
  },
  {
    "postal": "K1Y7S2",
    "result": []
  },
  {
    "postal": "K1Y3T3",
    "result": [
      {
        "electoralDistricts": [
          {
            "election": null,
            "id": 78,
            "name": "Ottawa Centre"
          }
        ],
        "pollDivisionIds": [
          10140551
        ],
        "postalCode": "K1Y3T3",
        "streetName": "BEECH",
        "streetDirectionId": null,
        "streetTypeId": "ST",
        "placeName": "OTTAWA",
        "streetNameDisplayText": "BEECH ST, OTTAWA"
      }
    ]
  },
  {
    "postal": "K1Y9P3",
    "result": []
  },
  {
    "postal": "K1Y4H8",
    "result": []
  },
  {
    "postal": "K1Y6R1",
    "result": []
  },
  {
    "postal": "K1Y1S0",
    "result": []
  },
  {
    "postal": "K1Y3W8",
    "result": [
      {
        "electoralDistricts": [
          {
            "election": null,
            "id": 78,
            "name": "Ottawa Centre"
          }
        ],
        "pollDivisionIds": [
          10140546
        ],
        "postalCode": "K1Y3W8",
        "streetName": "SHERWOOD",
        "streetDirectionId": null,
        "streetTypeId": "DR",
        "placeName": "OTTAWA",
        "streetNameDisplayText": "SHERWOOD DR, OTTAWA"
      }
    ]
  },
  {
    "postal": "K1Y4S3",
    "result": [
      {
        "electoralDistricts": [
          {
            "election": null,
            "id": 78,
            "name": "Ottawa Centre"
          }
        ],
        "pollDivisionIds": [
          10140542
        ],
        "postalCode": "K1Y4S3",
        "streetName": "HOLLAND",
        "streetDirectionId": null,
        "streetTypeId": "AVE",
        "placeName": "OTTAWA",
        "streetNameDisplayText": "HOLLAND AVE, OTTAWA"
      }
    ]
  },
  {
    "postal": "K1Y1B6",
    "result": [
      {
        "electoralDistricts": [
          {
            "election": null,
            "id": 78,
            "name": "Ottawa Centre"
          }
        ],
        "pollDivisionIds": [
          10140542
        ],
        "postalCode": "K1Y1B6",
        "streetName": "HAMILTON",
        "streetDirectionId": "N",
        "streetTypeId": "AVE",
        "placeName": "OTTAWA",
        "streetNameDisplayText": "HAMILTON AVE N, OTTAWA"
      }
    ]
  },
  {
    "postal": "K1Y8R3",
    "result": []
  },
  {
    "postal": "K1Y4V9",
    "result": []
  },
  {
    "postal": "K1Y9W4",
    "result": []
  },
  {
    "postal": "K1Y3T4",
    "result": [
      {
        "electoralDistricts": [
          {
            "election": null,
            "id": 78,
            "name": "Ottawa Centre"
          }
        ],
        "pollDivisionIds": [
          10140551
        ],
        "postalCode": "K1Y3T4",
        "streetName": "BEECH",
        "streetDirectionId": null,
        "streetTypeId": "ST",
        "placeName": "OTTAWA",
        "streetNameDisplayText": "BEECH ST, OTTAWA"
      }
    ]
  },
  {
    "postal": "K1Y5C7",
    "result": []
  },
  {
    "postal": "K1Y3Y1",
    "result": [
      {
        "electoralDistricts": [
          {
            "election": null,
            "id": 78,
            "name": "Ottawa Centre"
          }
        ],
        "pollDivisionIds": [
          10140546
        ],
        "postalCode": "K1Y3Y1",
        "streetName": "KENILWORTH",
        "streetDirectionId": null,
        "streetTypeId": "ST",
        "placeName": "OTTAWA",
        "streetNameDisplayText": "KENILWORTH ST, OTTAWA"
      }
    ]
  },
  {
    "postal": "K1Y5V0",
    "result": []
  },
  {
    "postal": "K1Y8G8",
    "result": []
  },
  {
    "postal": "K1Y8B1",
    "result": []
  },
  {
    "postal": "K1Y4P5",
    "result": []
  },
  {
    "postal": "K1Y7B2",
    "result": []
  },
  {
    "postal": "K1Y0R2",
    "result": [
      {
        "electoralDistricts": [
          {
            "election": null,
            "id": 78,
            "name": "Ottawa Centre"
          }
        ],
        "pollDivisionIds": [
          10140543
        ],
        "postalCode": "K1Y0R2",
        "streetName": "CLARENDON",
        "streetDirectionId": null,
        "streetTypeId": "AVE",
        "placeName": "OTTAWA",
        "streetNameDisplayText": "CLARENDON AVE, OTTAWA"
      }
    ]
  },
  {
    "postal": "K1Y4M4",
    "result": [
      {
        "electoralDistricts": [
          {
            "election": null,
            "id": 78,
            "name": "Ottawa Centre"
          }
        ],
        "pollDivisionIds": [
          10140548
        ],
        "postalCode": "K1Y4M4",
        "streetName": "LAUREL",
        "streetDirectionId": null,
        "streetTypeId": "ST",
        "placeName": "OTTAWA",
        "streetNameDisplayText": "LAUREL ST, OTTAWA"
      }
    ]
  },
  {
    "postal": "K1Y7M4",
    "result": []
  },
  {
    "postal": "K1Y9S7",
    "result": []
  },
  {
    "postal": "K1Y5Z7",
    "result": []
  },
  {
    "postal": "K1Y7J7",
    "result": []
  },
  {
    "postal": "K1Y8R8",
    "result": []
  },
  {
    "postal": "K1Y9X1",
    "result": []
  },
  {
    "postal": "K1Y5M9",
    "result": []
  },
  {
    "postal": "K1Y9B4",
    "result": []
  },
  {
    "postal": "K1Y0L9",
    "result": [
      {
        "electoralDistricts": [
          {
            "election": null,
            "id": 78,
            "name": "Ottawa Centre"
          }
        ],
        "pollDivisionIds": [
          10140540
        ],
        "postalCode": "K1Y0L9",
        "streetName": "WESTERN",
        "streetDirectionId": null,
        "streetTypeId": "AVE",
        "placeName": "OTTAWA",
        "streetNameDisplayText": "WESTERN AVE, OTTAWA"
      }
    ]
  },
  {
    "postal": "K1Y9G4",
    "result": []
  },
  {
    "postal": "K1Y1J4",
    "result": [
      {
        "electoralDistricts": [
          {
            "election": null,
            "id": 78,
            "name": "Ottawa Centre"
          }
        ],
        "pollDivisionIds": [
          10140546
        ],
        "postalCode": "K1Y1J4",
        "streetName": "PARKDALE",
        "streetDirectionId": null,
        "streetTypeId": "AVE",
        "placeName": "OTTAWA",
        "streetNameDisplayText": "PARKDALE AVE, OTTAWA"
      }
    ]
  },
  {
    "postal": "K1Y0W6",
    "result": [
      {
        "electoralDistricts": [
          {
            "election": null,
            "id": 78,
            "name": "Ottawa Centre"
          }
        ],
        "pollDivisionIds": [
          10140546
        ],
        "postalCode": "K1Y0W6",
        "streetName": "HURON",
        "streetDirectionId": "S",
        "streetTypeId": "AVE",
        "placeName": "OTTAWA",
        "streetNameDisplayText": "HURON AVE S, OTTAWA"
      }
    ]
  }
]
