[
  {
    "postal": "L1M9J6",
    "result": []
  },
  {
    "postal": "L1M9Z5",
    "result": []
  },
  {
    "postal": "L1M7H8",
    "result": []
  },
  {
    "postal": "L1M0P6",
    "result": []
  },
  {
    "postal": "L1M0S7",
    "result": []
  },
  {
    "postal": "L1M8B9",
    "result": []
  },
  {
    "postal": "L1M2A6",
    "result": [
      {
        "electoralDistricts": [
          {
            "election": null,
            "id": 116,
            "name": "Whitby"
          }
        ],
        "pollDivisionIds": [
          10136127
        ],
        "postalCode": "L1M2A6",
        "streetName": "THICKSON",
        "streetDirectionId": "N",
        "streetTypeId": "RD",
        "placeName": "WHITBY",
        "streetNameDisplayText": "THICKSON RD N, WHITBY"
      }
    ]
  },
  {
    "postal": "L1M7V2",
    "result": []
  },
  {
    "postal": "L1M9P4",
    "result": []
  },
  {
    "postal": "L1M6G0",
    "result": []
  },
  {
    "postal": "L1M2K0",
    "result": []
  },
  {
    "postal": "L1M7N6",
    "result": []
  },
  {
    "postal": "L1M5R3",
    "result": []
  },
  {
    "postal": "L1M7K0",
    "result": []
  },
  {
    "postal": "L1M3R2",
    "result": []
  },
  {
    "postal": "L1M0J1",
    "result": [
      {
        "electoralDistricts": [
          {
            "election": null,
            "id": 116,
            "name": "Whitby"
          }
        ],
        "pollDivisionIds": [
          10136126
        ],
        "postalCode": "L1M0J1",
        "streetName": "GARRY RAVARY",
        "streetDirectionId": null,
        "streetTypeId": "PL",
        "placeName": "WHITBY",
        "streetNameDisplayText": "GARRY RAVARY PL, WHITBY"
      },
      {
        "electoralDistricts": [
          {
            "election": null,
            "id": 116,
            "name": "Whitby"
          }
        ],
        "pollDivisionIds": [
          10136126
        ],
        "postalCode": "L1M0J1",
        "streetName": "GERRY RAVARY",
        "streetDirectionId": null,
        "streetTypeId": "PL",
        "placeName": "WHITBY",
        "streetNameDisplayText": "GERRY RAVARY PL, WHITBY"
      }
    ]
  },
  {
    "postal": "L1M0B0",
    "result": []
  },
  {
    "postal": "L1M5Z2",
    "result": []
  },
  {
    "postal": "L1M7P3",
    "result": []
  },
  {
    "postal": "L1M2K3",
    "result": [
      {
        "electoralDistricts": [
          {
            "election": null,
            "id": 116,
            "name": "Whitby"
          }
        ],
        "pollDivisionIds": [
          10136128
        ],
        "postalCode": "L1M2K3",
        "streetName": "HELSTON",
        "streetDirectionId": null,
        "streetTypeId": "CRES",
        "placeName": "WHITBY",
        "streetNameDisplayText": "HELSTON CRES, WHITBY"
      },
      {
        "electoralDistricts": [
          {
            "election": null,
            "id": 116,
            "name": "Whitby"
          }
        ],
        "pollDivisionIds": [
          10136128
        ],
        "postalCode": "L1M2K3",
        "streetName": "HESHAM",
        "streetDirectionId": null,
        "streetTypeId": "DR",
        "placeName": "WHITBY",
        "streetNameDisplayText": "HESHAM DR, WHITBY"
      }
    ]
  },
  {
    "postal": "L1M7Y6",
    "result": []
  },
  {
    "postal": "L1M1L9",
    "result": [
      {
        "electoralDistricts": [
          {
            "election": null,
            "id": 116,
            "name": "Whitby"
          }
        ],
        "pollDivisionIds": [
          10136127
        ],
        "postalCode": "L1M1L9",
        "streetName": "CEDARBROOK",
        "streetDirectionId": null,
        "streetTypeId": "TRAIL",
        "placeName": "WHITBY",
        "streetNameDisplayText": "CEDARBROOK TRAIL, WHITBY"
      }
    ]
  },
  {
    "postal": "L1M8T0",
    "result": []
  },
  {
    "postal": "L1M3K8",
    "result": []
  },
  {
    "postal": "L1M5W9",
    "result": []
  },
  {
    "postal": "L1M6T9",
    "result": []
  },
  {
    "postal": "L1M4H1",
    "result": []
  },
  {
    "postal": "L1M7A2",
    "result": []
  },
  {
    "postal": "L1M5G0",
    "result": []
  },
  {
    "postal": "L1M8V5",
    "result": []
  },
  {
    "postal": "L1M2Y8",
    "result": []
  },
  {
    "postal": "L1M2B6",
    "result": [
      {
        "electoralDistricts": [
          {
            "election": null,
            "id": 116,
            "name": "Whitby"
          }
        ],
        "pollDivisionIds": [
          10136127
        ],
        "postalCode": "L1M2B6",
        "streetName": "GARRARD",
        "streetDirectionId": null,
        "streetTypeId": "RD",
        "placeName": "WHITBY",
        "streetNameDisplayText": "GARRARD RD, WHITBY"
      }
    ]
  },
  {
    "postal": "L1M4W8",
    "result": []
  },
  {
    "postal": "L1M8H7",
    "result": []
  },
  {
    "postal": "L1M5P1",
    "result": []
  },
  {
    "postal": "L1M2B8",
    "result": [
      {
        "electoralDistricts": [
          {
            "election": null,
            "id": 116,
            "name": "Whitby"
          }
        ],
        "pollDivisionIds": [
          10136126
        ],
        "postalCode": "L1M2B8",
        "streetName": "SINDEN",
        "streetDirectionId": null,
        "streetTypeId": "DR",
        "placeName": "WHITBY",
        "streetNameDisplayText": "SINDEN DR, WHITBY"
      }
    ]
  },
  {
    "postal": "L1M0P2",
    "result": []
  },
  {
    "postal": "L1M9M1",
    "result": []
  },
  {
    "postal": "L1M3G0",
    "result": []
  },
  {
    "postal": "L1M9Z2",
    "result": []
  },
  {
    "postal": "L1M2A0",
    "result": []
  },
  {
    "postal": "L1M6Y0",
    "result": []
  },
  {
    "postal": "L1M2Z8",
    "result": []
  },
  {
    "postal": "L1M7Y3",
    "result": []
  },
  {
    "postal": "L1M6Z5",
    "result": []
  },
  {
    "postal": "L1M6E0",
    "result": []
  },
  {
    "postal": "L1M9B7",
    "result": []
  },
  {
    "postal": "L1M9S5",
    "result": []
  },
  {
    "postal": "L1M3X3",
    "result": []
  },
  {
    "postal": "L1M7R5",
    "result": []
  },
  {
    "postal": "L1M2X3",
    "result": []
  },
  {
    "postal": "L1M8Z9",
    "result": []
  },
  {
    "postal": "L1M0N4",
    "result": []
  },
  {
    "postal": "L1M1K1",
    "result": [
      {
        "electoralDistricts": [
          {
            "election": null,
            "id": 116,
            "name": "Whitby"
          }
        ],
        "pollDivisionIds": [
          10136128
        ],
        "postalCode": "L1M1K1",
        "streetName": "CARNWITH",
        "streetDirectionId": "E",
        "streetTypeId": "DR",
        "placeName": "WHITBY",
        "streetNameDisplayText": "CARNWITH DR E, WHITBY"
      }
    ]
  },
  {
    "postal": "L1M1S3",
    "result": [
      {
        "electoralDistricts": [
          {
            "election": null,
            "id": 116,
            "name": "Whitby"
          }
        ],
        "pollDivisionIds": [
          10136129
        ],
        "postalCode": "L1M1S3",
        "streetName": "HALLS",
        "streetDirectionId": "N",
        "streetTypeId": "RD",
        "placeName": "WHITBY",
        "streetNameDisplayText": "HALLS RD N, WHITBY"
      }
    ]
  },
  {
    "postal": "L1M6M4",
    "result": []
  },
  {
    "postal": "L1M9A9",
    "result": []
  },
  {
    "postal": "L1M9Z9",
    "result": []
  },
  {
    "postal": "L1M6T4",
    "result": []
  },
  {
    "postal": "L1M0B2",
    "result": [
      {
        "electoralDistricts": [
          {
            "election": null,
            "id": 116,
            "name": "Whitby"
          }
        ],
        "pollDivisionIds": [
          10136128
        ],
        "postalCode": "L1M0B2",
        "streetName": "BRANTHAVEN",
        "streetDirectionId": null,
        "streetTypeId": "CRT",
        "placeName": "WHITBY",
        "streetNameDisplayText": "BRANTHAVEN CRT, WHITBY"
      },
      {
        "electoralDistricts": [
          {
            "election": null,
            "id": 116,
            "name": "Whitby"
          }
        ],
        "pollDivisionIds": [
          10136128
        ],
        "postalCode": "L1M0B2",
        "streetName": "ROCKLAND",
        "streetDirectionId": null,
        "streetTypeId": "CRES",
        "placeName": "WHITBY",
        "streetNameDisplayText": "ROCKLAND CRES, WHITBY"
      }
    ]
  },
  {
    "postal": "L1M2L9",
    "result": [
      {
        "electoralDistricts": [
          {
            "election": null,
            "id": 116,
            "name": "Whitby"
          }
        ],
        "pollDivisionIds": [
          10136128
        ],
        "postalCode": "L1M2L9",
        "streetName": "CACHET",
        "streetDirectionId": null,
        "streetTypeId": "BLVD",
        "placeName": "WHITBY",
        "streetNameDisplayText": "CACHET BLVD, WHITBY"
      },
      {
        "electoralDistricts": [
          {
            "election": null,
            "id": 116,
            "name": "Whitby"
          }
        ],
        "pollDivisionIds": [
          10136128
        ],
        "postalCode": "L1M2L9",
        "streetName": "CARNWITH",
        "streetDirectionId": "E",
        "streetTypeId": "DR",
        "placeName": "WHITBY",
        "streetNameDisplayText": "CARNWITH DR E, WHITBY"
      },
      {
        "electoralDistricts": [
          {
            "election": null,
            "id": 116,
            "name": "Whitby"
          }
        ],
        "pollDivisionIds": [
          10136128
        ],
        "postalCode": "L1M2L9",
        "streetName": "CRANBORNE",
        "streetDirectionId": null,
        "streetTypeId": "CRES",
        "placeName": "WHITBY",
        "streetNameDisplayText": "CRANBORNE CRES, WHITBY"
      },
      {
        "electoralDistricts": [
          {
            "election": null,
            "id": 116,
            "name": "Whitby"
          }
        ],
        "pollDivisionIds": [
          10136128
        ],
        "postalCode": "L1M2L9",
        "streetName": "DUNSTABLE",
        "streetDirectionId": null,
        "streetTypeId": "DR",
        "placeName": "WHITBY",
        "streetNameDisplayText": "DUNSTABLE DR, WHITBY"
      }
    ]
  },
  {
    "postal": "L1M8K9",
    "result": []
  },
  {
    "postal": "L1M2H9",
    "result": [
      {
        "electoralDistricts": [
          {
            "election": null,
            "id": 116,
            "name": "Whitby"
          }
        ],
        "pollDivisionIds": [
          10136126
        ],
        "postalCode": "L1M2H9",
        "streetName": "CORIANNE",
        "streetDirectionId": null,
        "streetTypeId": "AVE",
        "placeName": "WHITBY",
        "streetNameDisplayText": "CORIANNE AVE, WHITBY"
      },
      {
        "electoralDistricts": [
          {
            "election": null,
            "id": 116,
            "name": "Whitby"
          }
        ],
        "pollDivisionIds": [
          10136126
        ],
        "postalCode": "L1M2H9",
        "streetName": "HATCH",
        "streetDirectionId": null,
        "streetTypeId": "ST",
        "placeName": "WHITBY",
        "streetNameDisplayText": "HATCH ST, WHITBY"
      },
      {
        "electoralDistricts": [
          {
            "election": null,
            "id": 116,
            "name": "Whitby"
          }
        ],
        "pollDivisionIds": [
          10136126
        ],
        "postalCode": "L1M2H9",
        "streetName": "MELINA",
        "streetDirectionId": null,
        "streetTypeId": "LANE",
        "placeName": "WHITBY",
        "streetNameDisplayText": "MELINA LANE, WHITBY"
      },
      {
        "electoralDistricts": [
          {
            "election": null,
            "id": 116,
            "name": "Whitby"
          }
        ],
        "pollDivisionIds": [
          10136126
        ],
        "postalCode": "L1M2H9",
        "streetName": "MIKAYLA",
        "streetDirectionId": null,
        "streetTypeId": "CRES",
        "placeName": "WHITBY",
        "streetNameDisplayText": "MIKAYLA CRES, WHITBY"
      }
    ]
  },
  {
    "postal": "L1M3Z6",
    "result": []
  },
  {
    "postal": "L1M3B0",
    "result": []
  },
  {
    "postal": "L1M2H8",
    "result": [
      {
        "electoralDistricts": [
          {
            "election": null,
            "id": 116,
            "name": "Whitby"
          }
        ],
        "pollDivisionIds": [
          10136126
        ],
        "postalCode": "L1M2H8",
        "streetName": "HATCH",
        "streetDirectionId": null,
        "streetTypeId": "ST",
        "placeName": "WHITBY",
        "streetNameDisplayText": "HATCH ST, WHITBY"
      },
      {
        "electoralDistricts": [
          {
            "election": null,
            "id": 116,
            "name": "Whitby"
          }
        ],
        "pollDivisionIds": [
          10136126
        ],
        "postalCode": "L1M2H8",
        "streetName": "MELINA",
        "streetDirectionId": null,
        "streetTypeId": "LANE",
        "placeName": "WHITBY",
        "streetNameDisplayText": "MELINA LANE, WHITBY"
      },
      {
        "electoralDistricts": [
          {
            "election": null,
            "id": 116,
            "name": "Whitby"
          }
        ],
        "pollDivisionIds": [
          10136126
        ],
        "postalCode": "L1M2H8",
        "streetName": "MIKAYLA",
        "streetDirectionId": null,
        "streetTypeId": "CRES",
        "placeName": "WHITBY",
        "streetNameDisplayText": "MIKAYLA CRES, WHITBY"
      }
    ]
  },
  {
    "postal": "L1M3X2",
    "result": []
  },
  {
    "postal": "L1M2E9",
    "result": [
      {
        "electoralDistricts": [
          {
            "election": null,
            "id": 116,
            "name": "Whitby"
          }
        ],
        "pollDivisionIds": [
          10136130
        ],
        "postalCode": "L1M2E9",
        "streetName": "ANDERSON",
        "streetDirectionId": null,
        "streetTypeId": "ST",
        "placeName": "WHITBY",
        "streetNameDisplayText": "ANDERSON ST, WHITBY"
      }
    ]
  },
  {
    "postal": "L1M9P6",
    "result": []
  },
  {
    "postal": "L1M9E2",
    "result": []
  },
  {
    "postal": "L1M9H2",
    "result": []
  },
  {
    "postal": "L1M1S8",
    "result": [
      {
        "electoralDistricts": [
          {
            "election": null,
            "id": 116,
            "name": "Whitby"
          }
        ],
        "pollDivisionIds": [
          10111216
        ],
        "postalCode": "L1M1S8",
        "streetName": "ASHBURN",
        "streetDirectionId": null,
        "streetTypeId": "RD",
        "placeName": "WHITBY",
        "streetNameDisplayText": "ASHBURN RD, WHITBY"
      }
    ]
  },
  {
    "postal": "L1M3M6",
    "result": []
  },
  {
    "postal": "L1M6Z8",
    "result": []
  },
  {
    "postal": "L1M4J2",
    "result": []
  },
  {
    "postal": "L1M9Y1",
    "result": []
  },
  {
    "postal": "L1M8V6",
    "result": []
  },
  {
    "postal": "L1M6B2",
    "result": []
  },
  {
    "postal": "L1M1P8",
    "result": [
      {
        "electoralDistricts": [
          {
            "election": null,
            "id": 116,
            "name": "Whitby"
          }
        ],
        "pollDivisionIds": [
          10136126
        ],
        "postalCode": "L1M1P8",
        "streetName": "COLUMBUS",
        "streetDirectionId": "W",
        "streetTypeId": "RD",
        "placeName": "WHITBY",
        "streetNameDisplayText": "COLUMBUS RD W, WHITBY"
      }
    ]
  },
  {
    "postal": "L1M0V8",
    "result": []
  },
  {
    "postal": "L1M4Y0",
    "result": []
  },
  {
    "postal": "L1M2T4",
    "result": []
  },
  {
    "postal": "L1M2S3",
    "result": []
  },
  {
    "postal": "L1M0K0",
    "result": []
  },
  {
    "postal": "L1M5N1",
    "result": []
  },
  {
    "postal": "L1M7T0",
    "result": []
  },
  {
    "postal": "L1M9N2",
    "result": []
  },
  {
    "postal": "L1M5L1",
    "result": []
  },
  {
    "postal": "L1M7G5",
    "result": []
  },
  {
    "postal": "L1M6K2",
    "result": []
  },
  {
    "postal": "L1M6P9",
    "result": []
  },
  {
    "postal": "L1M0E6",
    "result": [
      {
        "electoralDistricts": [
          {
            "election": null,
            "id": 116,
            "name": "Whitby"
          }
        ],
        "pollDivisionIds": [
          10136127
        ],
        "postalCode": "L1M0E6",
        "streetName": "CARNWITH",
        "streetDirectionId": "E",
        "streetTypeId": "DR",
        "placeName": "WHITBY",
        "streetNameDisplayText": "CARNWITH DR E, WHITBY"
      },
      {
        "electoralDistricts": [
          {
            "election": null,
            "id": 116,
            "name": "Whitby"
          }
        ],
        "pollDivisionIds": [
          10136127
        ],
        "postalCode": "L1M0E6",
        "streetName": "CROXALL",
        "streetDirectionId": null,
        "streetTypeId": "BLVD",
        "placeName": "WHITBY",
        "streetNameDisplayText": "CROXALL BLVD, WHITBY"
      },
      {
        "electoralDistricts": [
          {
            "election": null,
            "id": 116,
            "name": "Whitby"
          }
        ],
        "pollDivisionIds": [
          10136127
        ],
        "postalCode": "L1M0E6",
        "streetName": "VALLANCE",
        "streetDirectionId": null,
        "streetTypeId": "WAY",
        "placeName": "WHITBY",
        "streetNameDisplayText": "VALLANCE WAY, WHITBY"
      }
    ]
  },
  {
    "postal": "L1M8R9",
    "result": []
  },
  {
    "postal": "L1M3G9",
    "result": []
  },
  {
    "postal": "L1M0V7",
    "result": []
  },
  {
    "postal": "L1M2Z1",
    "result": []
  },
  {
    "postal": "L1M7N1",
    "result": []
  },
  {
    "postal": "L1M3C6",
    "result": []
  },
  {
    "postal": "L1M4M1",
    "result": []
  },
  {
    "postal": "L1M9K2",
    "result": []
  },
  {
    "postal": "L1M9S6",
    "result": []
  },
  {
    "postal": "L1M4X1",
    "result": []
  },
  {
    "postal": "L1M8W2",
    "result": []
  },
  {
    "postal": "L1M7N2",
    "result": []
  },
  {
    "postal": "L1M8S3",
    "result": []
  },
  {
    "postal": "L1M4V0",
    "result": []
  },
  {
    "postal": "L1M6W4",
    "result": []
  },
  {
    "postal": "L1M5M1",
    "result": []
  },
  {
    "postal": "L1M0S4",
    "result": []
  },
  {
    "postal": "L1M5X6",
    "result": []
  },
  {
    "postal": "L1M8L5",
    "result": []
  },
  {
    "postal": "L1M5M8",
    "result": []
  },
  {
    "postal": "L1M2G3",
    "result": [
      {
        "electoralDistricts": [
          {
            "election": null,
            "id": 116,
            "name": "Whitby"
          }
        ],
        "pollDivisionIds": [
          10136126
        ],
        "postalCode": "L1M2G3",
        "streetName": "CARNWITH",
        "streetDirectionId": "W",
        "streetTypeId": "DR",
        "placeName": "WHITBY",
        "streetNameDisplayText": "CARNWITH DR W, WHITBY"
      },
      {
        "electoralDistricts": [
          {
            "election": null,
            "id": 116,
            "name": "Whitby"
          }
        ],
        "pollDivisionIds": [
          10136126
        ],
        "postalCode": "L1M2G3",
        "streetName": "HATCH",
        "streetDirectionId": null,
        "streetTypeId": "ST",
        "placeName": "WHITBY",
        "streetNameDisplayText": "HATCH ST, WHITBY"
      },
      {
        "electoralDistricts": [
          {
            "election": null,
            "id": 116,
            "name": "Whitby"
          }
        ],
        "pollDivisionIds": [
          10136126
        ],
        "postalCode": "L1M2G3",
        "streetName": "MIKAYLA",
        "streetDirectionId": null,
        "streetTypeId": "CRES",
        "placeName": "WHITBY",
        "streetNameDisplayText": "MIKAYLA CRES, WHITBY"
      }
    ]
  },
  {
    "postal": "L1M8E4",
    "result": []
  },
  {
    "postal": "L1M7S9",
    "result": []
  },
  {
    "postal": "L1M1K3",
    "result": [
      {
        "electoralDistricts": [
          {
            "election": null,
            "id": 116,
            "name": "Whitby"
          }
        ],
        "pollDivisionIds": [
          10111216
        ],
        "postalCode": "L1M1K3",
        "streetName": "AMANDA",
        "streetDirectionId": null,
        "streetTypeId": "AVE",
        "placeName": "WHITBY",
        "streetNameDisplayText": "AMANDA AVE, WHITBY"
      },
      {
        "electoralDistricts": [
          {
            "election": null,
            "id": 116,
            "name": "Whitby"
          }
        ],
        "pollDivisionIds": [
          10111216
        ],
        "postalCode": "L1M1K3",
        "streetName": "BROOKVALLEY",
        "streetDirectionId": null,
        "streetTypeId": "AVE",
        "placeName": "WHITBY",
        "streetNameDisplayText": "BROOKVALLEY AVE, WHITBY"
      }
    ]
  },
  {
    "postal": "L1M4E1",
    "result": []
  },
  {
    "postal": "L1M4R2",
    "result": []
  },
  {
    "postal": "L1M6T0",
    "result": []
  },
  {
    "postal": "L1M3K5",
    "result": []
  },
  {
    "postal": "L1M3S3",
    "result": []
  },
  {
    "postal": "L1M3L4",
    "result": []
  },
  {
    "postal": "L1M9Y2",
    "result": []
  },
  {
    "postal": "L1M1E0",
    "result": []
  },
  {
    "postal": "L1M9A4",
    "result": []
  },
  {
    "postal": "L1M1L3",
    "result": [
      {
        "electoralDistricts": [
          {
            "election": null,
            "id": 116,
            "name": "Whitby"
          }
        ],
        "pollDivisionIds": [
          10136126
        ],
        "postalCode": "L1M1L3",
        "streetName": "COLUMBUS",
        "streetDirectionId": "W",
        "streetTypeId": "RD",
        "placeName": "WHITBY",
        "streetNameDisplayText": "COLUMBUS RD W, WHITBY"
      }
    ]
  },
  {
    "postal": "L1M6N1",
    "result": []
  },
  {
    "postal": "L1M6G7",
    "result": []
  },
  {
    "postal": "L1M7W1",
    "result": []
  },
  {
    "postal": "L1M4M6",
    "result": []
  },
  {
    "postal": "L1M1K0",
    "result": []
  },
  {
    "postal": "L1M3E2",
    "result": []
  },
  {
    "postal": "L1M5H4",
    "result": []
  },
  {
    "postal": "L1M1K7",
    "result": [
      {
        "electoralDistricts": [
          {
            "election": null,
            "id": 116,
            "name": "Whitby"
          }
        ],
        "pollDivisionIds": [
          10111216
        ],
        "postalCode": "L1M1K7",
        "streetName": "CLAUDIA",
        "streetDirectionId": null,
        "streetTypeId": "DR",
        "placeName": "WHITBY",
        "streetNameDisplayText": "CLAUDIA DR, WHITBY"
      },
      {
        "electoralDistricts": [
          {
            "election": null,
            "id": 116,
            "name": "Whitby"
          }
        ],
        "pollDivisionIds": [
          10111216
        ],
        "postalCode": "L1M1K7",
        "streetName": "CODY",
        "streetDirectionId": null,
        "streetTypeId": "AVE",
        "placeName": "WHITBY",
        "streetNameDisplayText": "CODY AVE, WHITBY"
      },
      {
        "electoralDistricts": [
          {
            "election": null,
            "id": 116,
            "name": "Whitby"
          }
        ],
        "pollDivisionIds": [
          10111216
        ],
        "postalCode": "L1M1K7",
        "streetName": "SABRINA",
        "streetDirectionId": null,
        "streetTypeId": "ST",
        "placeName": "WHITBY",
        "streetNameDisplayText": "SABRINA ST, WHITBY"
      }
    ]
  },
  {
    "postal": "L1M0H0",
    "result": []
  },
  {
    "postal": "L1M0J3",
    "result": []
  },
  {
    "postal": "L1M1X6",
    "result": [
      {
        "electoralDistricts": [
          {
            "election": null,
            "id": 116,
            "name": "Whitby"
          }
        ],
        "pollDivisionIds": [
          10136128
        ],
        "postalCode": "L1M1X6",
        "streetName": "WINCHESTER",
        "streetDirectionId": "E",
        "streetTypeId": "RD",
        "placeName": "WHITBY",
        "streetNameDisplayText": "WINCHESTER RD E, WHITBY"
      }
    ]
  },
  {
    "postal": "L1M2Z6",
    "result": []
  },
  {
    "postal": "L1M4R9",
    "result": []
  },
  {
    "postal": "L1M0W8",
    "result": []
  },
  {
    "postal": "L1M1L4",
    "result": [
      {
        "electoralDistricts": [
          {
            "election": null,
            "id": 116,
            "name": "Whitby"
          }
        ],
        "pollDivisionIds": [
          10136126
        ],
        "postalCode": "L1M1L4",
        "streetName": "ASHBURN",
        "streetDirectionId": null,
        "streetTypeId": "RD",
        "placeName": "WHITBY",
        "streetNameDisplayText": "ASHBURN RD, WHITBY"
      }
    ]
  },
  {
    "postal": "L1M0C8",
    "result": [
      {
        "electoralDistricts": [
          {
            "election": null,
            "id": 116,
            "name": "Whitby"
          }
        ],
        "pollDivisionIds": [
          10136127
        ],
        "postalCode": "L1M0C8",
        "streetName": "CACHET",
        "streetDirectionId": null,
        "streetTypeId": "BLVD",
        "placeName": "WHITBY",
        "streetNameDisplayText": "CACHET BLVD, WHITBY"
      },
      {
        "electoralDistricts": [
          {
            "election": null,
            "id": 116,
            "name": "Whitby"
          }
        ],
        "pollDivisionIds": [
          10136127
        ],
        "postalCode": "L1M0C8",
        "streetName": "SHREWSBURY",
        "streetDirectionId": null,
        "streetTypeId": "DR",
        "placeName": "WHITBY",
        "streetNameDisplayText": "SHREWSBURY DR, WHITBY"
      }
    ]
  },
  {
    "postal": "L1M9X7",
    "result": []
  },
  {
    "postal": "L1M4T1",
    "result": []
  },
  {
    "postal": "L1M0M0",
    "result": []
  },
  {
    "postal": "L1M6A2",
    "result": []
  },
  {
    "postal": "L1M9S8",
    "result": []
  },
  {
    "postal": "L1M9T4",
    "result": []
  },
  {
    "postal": "L1M9Y4",
    "result": []
  },
  {
    "postal": "L1M6G5",
    "result": []
  },
  {
    "postal": "L1M6H9",
    "result": []
  },
  {
    "postal": "L1M2P3",
    "result": [
      {
        "electoralDistricts": [
          {
            "election": null,
            "id": 116,
            "name": "Whitby"
          }
        ],
        "pollDivisionIds": [
          10111216
        ],
        "postalCode": "L1M2P3",
        "streetName": "DENBURY",
        "streetDirectionId": null,
        "streetTypeId": "CRT",
        "placeName": "WHITBY",
        "streetNameDisplayText": "DENBURY CRT, WHITBY"
      },
      {
        "electoralDistricts": [
          {
            "election": null,
            "id": 116,
            "name": "Whitby"
          }
        ],
        "pollDivisionIds": [
          10136126,
          10111216
        ],
        "postalCode": "L1M2P3",
        "streetName": "HOLSTED",
        "streetDirectionId": null,
        "streetTypeId": "RD",
        "placeName": "WHITBY",
        "streetNameDisplayText": "HOLSTED RD, WHITBY"
      },
      {
        "electoralDistricts": [
          {
            "election": null,
            "id": 116,
            "name": "Whitby"
          }
        ],
        "pollDivisionIds": [
          10111216
        ],
        "postalCode": "L1M2P3",
        "streetName": "VANGUARD",
        "streetDirectionId": null,
        "streetTypeId": "DR",
        "placeName": "WHITBY",
        "streetNameDisplayText": "VANGUARD DR, WHITBY"
      }
    ]
  },
  {
    "postal": "L1M1T6",
    "result": [
      {
        "electoralDistricts": [
          {
            "election": null,
            "id": 116,
            "name": "Whitby"
          }
        ],
        "pollDivisionIds": [
          10111216
        ],
        "postalCode": "L1M1T6",
        "streetName": "BALDWIN",
        "streetDirectionId": "S",
        "streetTypeId": "ST",
        "placeName": "WHITBY",
        "streetNameDisplayText": "BALDWIN ST S, WHITBY"
      }
    ]
  },
  {
    "postal": "L1M4P6",
    "result": []
  },
  {
    "postal": "L1M3K1",
    "result": []
  },
  {
    "postal": "L1M6X4",
    "result": []
  },
  {
    "postal": "L1M4M8",
    "result": []
  },
  {
    "postal": "L1M2Y1",
    "result": []
  },
  {
    "postal": "L1M6M1",
    "result": []
  },
  {
    "postal": "L1M5L8",
    "result": []
  },
  {
    "postal": "L1M3P6",
    "result": []
  },
  {
    "postal": "L1M9A5",
    "result": []
  },
  {
    "postal": "L1M7K1",
    "result": []
  },
  {
    "postal": "L1M3J4",
    "result": []
  },
  {
    "postal": "L1M5E7",
    "result": []
  },
  {
    "postal": "L1M3A7",
    "result": []
  },
  {
    "postal": "L1M1B9",
    "result": [
      {
        "electoralDistricts": [
          {
            "election": null,
            "id": 116,
            "name": "Whitby"
          }
        ],
        "pollDivisionIds": [
          10111216
        ],
        "postalCode": "L1M1B9",
        "streetName": "ASHBURN",
        "streetDirectionId": null,
        "streetTypeId": "RD",
        "placeName": "WHITBY",
        "streetNameDisplayText": "ASHBURN RD, WHITBY"
      }
    ]
  },
  {
    "postal": "L1M9E8",
    "result": []
  },
  {
    "postal": "L1M1C9",
    "result": [
      {
        "electoralDistricts": [
          {
            "election": null,
            "id": 116,
            "name": "Whitby"
          }
        ],
        "pollDivisionIds": [
          10136130
        ],
        "postalCode": "L1M1C9",
        "streetName": "KNOX",
        "streetDirectionId": null,
        "streetTypeId": "CRES",
        "placeName": "WHITBY",
        "streetNameDisplayText": "KNOX CRES, WHITBY"
      },
      {
        "electoralDistricts": [
          {
            "election": null,
            "id": 116,
            "name": "Whitby"
          }
        ],
        "pollDivisionIds": [
          10136130
        ],
        "postalCode": "L1M1C9",
        "streetName": "SAWYER",
        "streetDirectionId": null,
        "streetTypeId": "AVE",
        "placeName": "WHITBY",
        "streetNameDisplayText": "SAWYER AVE, WHITBY"
      },
      {
        "electoralDistricts": [
          {
            "election": null,
            "id": 116,
            "name": "Whitby"
          }
        ],
        "pollDivisionIds": [
          10136130
        ],
        "postalCode": "L1M1C9",
        "streetName": "WELLS",
        "streetDirectionId": null,
        "streetTypeId": "CRES",
        "placeName": "WHITBY",
        "streetNameDisplayText": "WELLS CRES, WHITBY"
      }
    ]
  },
  {
    "postal": "L1M3B5",
    "result": []
  },
  {
    "postal": "L1M8R0",
    "result": []
  },
  {
    "postal": "L1M3P2",
    "result": []
  },
  {
    "postal": "L1M5V4",
    "result": []
  },
  {
    "postal": "L1M4H0",
    "result": []
  },
  {
    "postal": "L1M4S7",
    "result": []
  },
  {
    "postal": "L1M6C2",
    "result": []
  },
  {
    "postal": "L1M8W3",
    "result": []
  },
  {
    "postal": "L1M4M5",
    "result": []
  },
  {
    "postal": "L1M5T1",
    "result": []
  },
  {
    "postal": "L1M3B3",
    "result": []
  },
  {
    "postal": "L1M6C6",
    "result": []
  },
  {
    "postal": "L1M7N8",
    "result": []
  },
  {
    "postal": "L1M2Y3",
    "result": []
  },
  {
    "postal": "L1M2R6",
    "result": []
  },
  {
    "postal": "L1M7N3",
    "result": []
  },
  {
    "postal": "L1M8J2",
    "result": []
  },
  {
    "postal": "L1M6A9",
    "result": []
  },
  {
    "postal": "L1M3V2",
    "result": []
  },
  {
    "postal": "L1M2N3",
    "result": [
      {
        "electoralDistricts": [
          {
            "election": null,
            "id": 116,
            "name": "Whitby"
          }
        ],
        "pollDivisionIds": [
          10136126
        ],
        "postalCode": "L1M2N3",
        "streetName": "EASTGATE",
        "streetDirectionId": null,
        "streetTypeId": "CIR",
        "placeName": "WHITBY",
        "streetNameDisplayText": "EASTGATE CIR, WHITBY"
      },
      {
        "electoralDistricts": [
          {
            "election": null,
            "id": 116,
            "name": "Whitby"
          }
        ],
        "pollDivisionIds": [
          10136126
        ],
        "postalCode": "L1M2N3",
        "streetName": "MONTGOMERY",
        "streetDirectionId": null,
        "streetTypeId": "AVE",
        "placeName": "WHITBY",
        "streetNameDisplayText": "MONTGOMERY AVE, WHITBY"
      }
    ]
  },
  {
    "postal": "L1M1S5",
    "result": [
      {
        "electoralDistricts": [
          {
            "election": null,
            "id": 116,
            "name": "Whitby"
          }
        ],
        "pollDivisionIds": [
          10136129
        ],
        "postalCode": "L1M1S5",
        "streetName": "HALLS",
        "streetDirectionId": "N",
        "streetTypeId": "RD",
        "placeName": "WHITBY",
        "streetNameDisplayText": "HALLS RD N, WHITBY"
      }
    ]
  },
  {
    "postal": "L1M4T7",
    "result": []
  },
  {
    "postal": "L1M6Y7",
    "result": []
  },
  {
    "postal": "L1M0W7",
    "result": []
  },
  {
    "postal": "L1M2W9",
    "result": []
  },
  {
    "postal": "L1M8V0",
    "result": []
  },
  {
    "postal": "L1M0H4",
    "result": [
      {
        "electoralDistricts": [
          {
            "election": null,
            "id": 116,
            "name": "Whitby"
          }
        ],
        "pollDivisionIds": [
          10136127
        ],
        "postalCode": "L1M0H4",
        "streetName": "NIGHTINGALE",
        "streetDirectionId": null,
        "streetTypeId": "CRES",
        "placeName": "WHITBY",
        "streetNameDisplayText": "NIGHTINGALE CRES, WHITBY"
      },
      {
        "electoralDistricts": [
          {
            "election": null,
            "id": 116,
            "name": "Whitby"
          }
        ],
        "pollDivisionIds": [
          10136127
        ],
        "postalCode": "L1M0H4",
        "streetName": "WYCOMBE",
        "streetDirectionId": null,
        "streetTypeId": "ST",
        "placeName": "WHITBY",
        "streetNameDisplayText": "WYCOMBE ST, WHITBY"
      }
    ]
  },
  {
    "postal": "L1M2T1",
    "result": []
  },
  {
    "postal": "L1M1B1",
    "result": [
      {
        "electoralDistricts": [
          {
            "election": null,
            "id": 116,
            "name": "Whitby"
          }
        ],
        "pollDivisionIds": [
          10111216
        ],
        "postalCode": "L1M1B1",
        "streetName": "MONTGOMERY",
        "streetDirectionId": null,
        "streetTypeId": "AVE",
        "placeName": "WHITBY",
        "streetNameDisplayText": "MONTGOMERY AVE, WHITBY"
      },
      {
        "electoralDistricts": [
          {
            "election": null,
            "id": 116,
            "name": "Whitby"
          }
        ],
        "pollDivisionIds": [
          10111216
        ],
        "postalCode": "L1M1B1",
        "streetName": "PEARL",
        "streetDirectionId": null,
        "streetTypeId": "ST",
        "placeName": "WHITBY",
        "streetNameDisplayText": "PEARL ST, WHITBY"
      },
      {
        "electoralDistricts": [
          {
            "election": null,
            "id": 116,
            "name": "Whitby"
          }
        ],
        "pollDivisionIds": [
          10111216
        ],
        "postalCode": "L1M1B1",
        "streetName": "PRICE",
        "streetDirectionId": null,
        "streetTypeId": "ST",
        "placeName": "WHITBY",
        "streetNameDisplayText": "PRICE ST, WHITBY"
      },
      {
        "electoralDistricts": [
          {
            "election": null,
            "id": 116,
            "name": "Whitby"
          }
        ],
        "pollDivisionIds": [
          10111216
        ],
        "postalCode": "L1M1B1",
        "streetName": "PRINCESS",
        "streetDirectionId": null,
        "streetTypeId": "ST",
        "placeName": "WHITBY",
        "streetNameDisplayText": "PRINCESS ST, WHITBY"
      }
    ]
  },
  {
    "postal": "L1M8B6",
    "result": []
  },
  {
    "postal": "L1M6H1",
    "result": []
  },
  {
    "postal": "L1M8T8",
    "result": []
  },
  {
    "postal": "L1M0T4",
    "result": []
  },
  {
    "postal": "L1M2C4",
    "result": [
      {
        "electoralDistricts": [
          {
            "election": null,
            "id": 116,
            "name": "Whitby"
          }
        ],
        "pollDivisionIds": [
          10136128
        ],
        "postalCode": "L1M2C4",
        "streetName": "KINROSS",
        "streetDirectionId": null,
        "streetTypeId": "AVE",
        "placeName": "WHITBY",
        "streetNameDisplayText": "KINROSS AVE, WHITBY"
      },
      {
        "electoralDistricts": [
          {
            "election": null,
            "id": 116,
            "name": "Whitby"
          }
        ],
        "pollDivisionIds": [
          10136128
        ],
        "postalCode": "L1M2C4",
        "streetName": "WESSEX",
        "streetDirectionId": null,
        "streetTypeId": "DR",
        "placeName": "WHITBY",
        "streetNameDisplayText": "WESSEX DR, WHITBY"
      },
      {
        "electoralDistricts": [
          {
            "election": null,
            "id": 116,
            "name": "Whitby"
          }
        ],
        "pollDivisionIds": [
          10136128
        ],
        "postalCode": "L1M2C4",
        "streetName": "WILSHIRE",
        "streetDirectionId": null,
        "streetTypeId": "DR",
        "placeName": "WHITBY",
        "streetNameDisplayText": "WILSHIRE DR, WHITBY"
      }
    ]
  },
  {
    "postal": "L1M8N3",
    "result": []
  },
  {
    "postal": "L1M4L8",
    "result": []
  },
  {
    "postal": "L1M2B5",
    "result": [
      {
        "electoralDistricts": [
          {
            "election": null,
            "id": 116,
            "name": "Whitby"
          }
        ],
        "pollDivisionIds": [
          10111216
        ],
        "postalCode": "L1M2B5",
        "streetName": "WINCHESTER",
        "streetDirectionId": "W",
        "streetTypeId": "RD",
        "placeName": "WHITBY",
        "streetNameDisplayText": "WINCHESTER RD W, WHITBY"
      }
    ]
  },
  {
    "postal": "L1M3H1",
    "result": []
  },
  {
    "postal": "L1M4Y1",
    "result": []
  },
  {
    "postal": "L1M7E2",
    "result": []
  },
  {
    "postal": "L1M2P5",
    "result": []
  },
  {
    "postal": "L1M8R7",
    "result": []
  },
  {
    "postal": "L1M9P1",
    "result": []
  },
  {
    "postal": "L1M3B8",
    "result": []
  },
  {
    "postal": "L1M3P7",
    "result": []
  },
  {
    "postal": "L1M9B2",
    "result": []
  },
  {
    "postal": "L1M6Z3",
    "result": []
  },
  {
    "postal": "L1M4N5",
    "result": []
  },
  {
    "postal": "L1M8T3",
    "result": []
  },
  {
    "postal": "L1M1V2",
    "result": [
      {
        "electoralDistricts": [
          {
            "election": null,
            "id": 116,
            "name": "Whitby"
          }
        ],
        "pollDivisionIds": [
          10136126
        ],
        "postalCode": "L1M1V2",
        "streetName": "WINCHESTER",
        "streetDirectionId": "W",
        "streetTypeId": "RD",
        "placeName": "WHITBY",
        "streetNameDisplayText": "WINCHESTER RD W, WHITBY"
      }
    ]
  },
  {
    "postal": "L1M1Y0",
    "result": []
  },
  {
    "postal": "L1M3G6",
    "result": []
  },
  {
    "postal": "L1M3H7",
    "result": []
  },
  {
    "postal": "L1M7X8",
    "result": []
  },
  {
    "postal": "L1M0C7",
    "result": [
      {
        "electoralDistricts": [
          {
            "election": null,
            "id": 116,
            "name": "Whitby"
          }
        ],
        "pollDivisionIds": [
          10136127
        ],
        "postalCode": "L1M0C7",
        "streetName": "CACHET",
        "streetDirectionId": null,
        "streetTypeId": "BLVD",
        "placeName": "WHITBY",
        "streetNameDisplayText": "CACHET BLVD, WHITBY"
      },
      {
        "electoralDistricts": [
          {
            "election": null,
            "id": 116,
            "name": "Whitby"
          }
        ],
        "pollDivisionIds": [
          10136127
        ],
        "postalCode": "L1M0C7",
        "streetName": "CHISWICK",
        "streetDirectionId": null,
        "streetTypeId": "AVE",
        "placeName": "WHITBY",
        "streetNameDisplayText": "CHISWICK AVE, WHITBY"
      },
      {
        "electoralDistricts": [
          {
            "election": null,
            "id": 116,
            "name": "Whitby"
          }
        ],
        "pollDivisionIds": [
          10136127
        ],
        "postalCode": "L1M0C7",
        "streetName": "SHREWSBURY",
        "streetDirectionId": null,
        "streetTypeId": "DR",
        "placeName": "WHITBY",
        "streetNameDisplayText": "SHREWSBURY DR, WHITBY"
      }
    ]
  },
  {
    "postal": "L1M0W9",
    "result": []
  },
  {
    "postal": "L1M8E6",
    "result": []
  },
  {
    "postal": "L1M9Z8",
    "result": []
  },
  {
    "postal": "L1M3P4",
    "result": []
  },
  {
    "postal": "L1M6L8",
    "result": []
  },
  {
    "postal": "L1M2R4",
    "result": []
  },
  {
    "postal": "L1M2W1",
    "result": []
  },
  {
    "postal": "L1M9H8",
    "result": []
  },
  {
    "postal": "L1M8X9",
    "result": []
  },
  {
    "postal": "L1M7H4",
    "result": []
  },
  {
    "postal": "L1M3J1",
    "result": []
  },
  {
    "postal": "L1M1P4",
    "result": [
      {
        "electoralDistricts": [
          {
            "election": null,
            "id": 116,
            "name": "Whitby"
          }
        ],
        "pollDivisionIds": [
          10136126
        ],
        "postalCode": "L1M1P4",
        "streetName": "COLUMBUS",
        "streetDirectionId": "W",
        "streetTypeId": "RD",
        "placeName": "WHITBY",
        "streetNameDisplayText": "COLUMBUS RD W, WHITBY"
      }
    ]
  },
  {
    "postal": "L1M2A3",
    "result": [
      {
        "electoralDistricts": [
          {
            "election": null,
            "id": 116,
            "name": "Whitby"
          }
        ],
        "pollDivisionIds": [
          10136127
        ],
        "postalCode": "L1M2A3",
        "streetName": "HAMERS",
        "streetDirectionId": null,
        "streetTypeId": "RD",
        "placeName": "WHITBY",
        "streetNameDisplayText": "HAMERS RD, WHITBY"
      }
    ]
  },
  {
    "postal": "L1M0Z1",
    "result": []
  },
  {
    "postal": "L1M1C1",
    "result": [
      {
        "electoralDistricts": [
          {
            "election": null,
            "id": 116,
            "name": "Whitby"
          }
        ],
        "pollDivisionIds": [
          10111216
        ],
        "postalCode": "L1M1C1",
        "streetName": "BALDWIN",
        "streetDirectionId": "N",
        "streetTypeId": "ST",
        "placeName": "WHITBY",
        "streetNameDisplayText": "BALDWIN ST N, WHITBY"
      },
      {
        "electoralDistricts": [
          {
            "election": null,
            "id": 116,
            "name": "Whitby"
          }
        ],
        "pollDivisionIds": [
          10111216
        ],
        "postalCode": "L1M1C1",
        "streetName": "BALDWIN",
        "streetDirectionId": null,
        "streetTypeId": "ST",
        "placeName": "WHITBY",
        "streetNameDisplayText": "BALDWIN ST, WHITBY"
      },
      {
        "electoralDistricts": [
          {
            "election": null,
            "id": 116,
            "name": "Whitby"
          }
        ],
        "pollDivisionIds": [
          10111216
        ],
        "postalCode": "L1M1C1",
        "streetName": "CENTRE",
        "streetDirectionId": "W",
        "streetTypeId": "ST",
        "placeName": "WHITBY",
        "streetNameDisplayText": "CENTRE ST W, WHITBY"
      },
      {
        "electoralDistricts": [
          {
            "election": null,
            "id": 116,
            "name": "Whitby"
          }
        ],
        "pollDivisionIds": [
          10111216
        ],
        "postalCode": "L1M1C1",
        "streetName": "COLSTON",
        "streetDirectionId": null,
        "streetTypeId": "AVE",
        "placeName": "WHITBY",
        "streetNameDisplayText": "COLSTON AVE, WHITBY"
      }
    ]
  },
  {
    "postal": "L1M0H3",
    "result": [
      {
        "electoralDistricts": [
          {
            "election": null,
            "id": 116,
            "name": "Whitby"
          }
        ],
        "pollDivisionIds": [
          10136127
        ],
        "postalCode": "L1M0H3",
        "streetName": "BENINGTON",
        "streetDirectionId": null,
        "streetTypeId": "CRT",
        "placeName": "WHITBY",
        "streetNameDisplayText": "BENINGTON CRT, WHITBY"
      },
      {
        "electoralDistricts": [
          {
            "election": null,
            "id": 116,
            "name": "Whitby"
          }
        ],
        "pollDivisionIds": [
          10136127
        ],
        "postalCode": "L1M0H3",
        "streetName": "NIGHTINGALE",
        "streetDirectionId": null,
        "streetTypeId": "CRES",
        "placeName": "WHITBY",
        "streetNameDisplayText": "NIGHTINGALE CRES, WHITBY"
      }
    ]
  },
  {
    "postal": "L1M7B0",
    "result": []
  },
  {
    "postal": "L1M5K2",
    "result": []
  },
  {
    "postal": "L1M1E9",
    "result": [
      {
        "electoralDistricts": [
          {
            "election": null,
            "id": 116,
            "name": "Whitby"
          }
        ],
        "pollDivisionIds": [
          10136130
        ],
        "postalCode": "L1M1E9",
        "streetName": "NORTHLAND",
        "streetDirectionId": null,
        "streetTypeId": "AVE",
        "placeName": "WHITBY",
        "streetNameDisplayText": "NORTHLAND AVE, WHITBY"
      },
      {
        "electoralDistricts": [
          {
            "election": null,
            "id": 116,
            "name": "Whitby"
          }
        ],
        "pollDivisionIds": [
          10136130
        ],
        "postalCode": "L1M1E9",
        "streetName": "ST THOMAS",
        "streetDirectionId": null,
        "streetTypeId": "ST",
        "placeName": "WHITBY",
        "streetNameDisplayText": "ST THOMAS ST, WHITBY"
      },
      {
        "electoralDistricts": [
          {
            "election": null,
            "id": 116,
            "name": "Whitby"
          }
        ],
        "pollDivisionIds": [
          10136130
        ],
        "postalCode": "L1M1E9",
        "streetName": "TREMOUNT",
        "streetDirectionId": null,
        "streetTypeId": "ST",
        "placeName": "WHITBY",
        "streetNameDisplayText": "TREMOUNT ST, WHITBY"
      }
    ]
  },
  {
    "postal": "L1M9W7",
    "result": []
  },
  {
    "postal": "L1M5W6",
    "result": []
  },
  {
    "postal": "L1M6S6",
    "result": []
  },
  {
    "postal": "L1M2P8",
    "result": []
  },
  {
    "postal": "L1M4P8",
    "result": []
  },
  {
    "postal": "L1M0V9",
    "result": []
  },
  {
    "postal": "L1M5Y2",
    "result": []
  },
  {
    "postal": "L1M7Z7",
    "result": []
  },
  {
    "postal": "L1M6Y8",
    "result": []
  },
  {
    "postal": "L1M2G7",
    "result": [
      {
        "electoralDistricts": [
          {
            "election": null,
            "id": 116,
            "name": "Whitby"
          }
        ],
        "pollDivisionIds": [
          10136126
        ],
        "postalCode": "L1M2G7",
        "streetName": "AULT",
        "streetDirectionId": null,
        "streetTypeId": "CRES",
        "placeName": "WHITBY",
        "streetNameDisplayText": "AULT CRES, WHITBY"
      },
      {
        "electoralDistricts": [
          {
            "election": null,
            "id": 116,
            "name": "Whitby"
          }
        ],
        "pollDivisionIds": [
          10136126
        ],
        "postalCode": "L1M2G7",
        "streetName": "DARIUS HARNS",
        "streetDirectionId": null,
        "streetTypeId": "DR",
        "placeName": "WHITBY",
        "streetNameDisplayText": "DARIUS HARNS DR, WHITBY"
      }
    ]
  },
  {
    "postal": "L1M8C1",
    "result": []
  },
  {
    "postal": "L1M5C5",
    "result": []
  },
  {
    "postal": "L1M2X8",
    "result": []
  },
  {
    "postal": "L1M1W5",
    "result": [
      {
        "electoralDistricts": [
          {
            "election": null,
            "id": 116,
            "name": "Whitby"
          }
        ],
        "pollDivisionIds": [
          10136130
        ],
        "postalCode": "L1M1W5",
        "streetName": "GARRARD",
        "streetDirectionId": null,
        "streetTypeId": "RD",
        "placeName": "WHITBY",
        "streetNameDisplayText": "GARRARD RD, WHITBY"
      }
    ]
  },
  {
    "postal": "L1M7G0",
    "result": []
  },
  {
    "postal": "L1M8J8",
    "result": []
  },
  {
    "postal": "L1M3Y0",
    "result": []
  },
  {
    "postal": "L1M9T7",
    "result": []
  },
  {
    "postal": "L1M5P4",
    "result": []
  },
  {
    "postal": "L1M4B0",
    "result": []
  },
  {
    "postal": "L1M9N8",
    "result": []
  },
  {
    "postal": "L1M4A7",
    "result": []
  },
  {
    "postal": "L1M4H9",
    "result": []
  },
  {
    "postal": "L1M6X1",
    "result": []
  },
  {
    "postal": "L1M9Y7",
    "result": []
  },
  {
    "postal": "L1M2Y5",
    "result": []
  },
  {
    "postal": "L1M8L7",
    "result": []
  },
  {
    "postal": "L1M2A8",
    "result": [
      {
        "electoralDistricts": [
          {
            "election": null,
            "id": 116,
            "name": "Whitby"
          }
        ],
        "pollDivisionIds": [
          10136127
        ],
        "postalCode": "L1M2A8",
        "streetName": "THICKSON",
        "streetDirectionId": "N",
        "streetTypeId": "RD",
        "placeName": "WHITBY",
        "streetNameDisplayText": "THICKSON RD N, WHITBY"
      }
    ]
  },
  {
    "postal": "L1M2K9",
    "result": [
      {
        "electoralDistricts": [
          {
            "election": null,
            "id": 116,
            "name": "Whitby"
          }
        ],
        "pollDivisionIds": [
          10136128,
          10136127
        ],
        "postalCode": "L1M2K9",
        "streetName": "HANSON",
        "streetDirectionId": null,
        "streetTypeId": "CRES",
        "placeName": "WHITBY",
        "streetNameDisplayText": "HANSON CRES, WHITBY"
      }
    ]
  },
  {
    "postal": "L1M3E5",
    "result": []
  },
  {
    "postal": "L1M8N6",
    "result": []
  },
  {
    "postal": "L1M8J4",
    "result": []
  },
  {
    "postal": "L1M4R7",
    "result": []
  },
  {
    "postal": "L1M9K1",
    "result": []
  },
  {
    "postal": "L1M8E1",
    "result": []
  },
  {
    "postal": "L1M0R1",
    "result": []
  },
  {
    "postal": "L1M4J3",
    "result": []
  },
  {
    "postal": "L1M7E7",
    "result": []
  },
  {
    "postal": "L1M0J0",
    "result": []
  },
  {
    "postal": "L1M7R8",
    "result": []
  },
  {
    "postal": "L1M9X0",
    "result": []
  },
  {
    "postal": "L1M7P6",
    "result": []
  },
  {
    "postal": "L1M0R7",
    "result": []
  },
  {
    "postal": "L1M5W1",
    "result": []
  },
  {
    "postal": "L1M0K4",
    "result": [
      {
        "electoralDistricts": [
          {
            "election": null,
            "id": 116,
            "name": "Whitby"
          }
        ],
        "pollDivisionIds": [
          10111216
        ],
        "postalCode": "L1M0K4",
        "streetName": "CAMBER",
        "streetDirectionId": null,
        "streetTypeId": "CRT",
        "placeName": "WHITBY",
        "streetNameDisplayText": "CAMBER CRT, WHITBY"
      }
    ]
  },
  {
    "postal": "L1M7N9",
    "result": []
  },
  {
    "postal": "L1M1N0",
    "result": []
  },
  {
    "postal": "L1M6P3",
    "result": []
  },
  {
    "postal": "L1M5A1",
    "result": []
  },
  {
    "postal": "L1M9M9",
    "result": []
  },
  {
    "postal": "L1M7T6",
    "result": []
  },
  {
    "postal": "L1M3X0",
    "result": []
  },
  {
    "postal": "L1M2T0",
    "result": []
  },
  {
    "postal": "L1M5X9",
    "result": []
  },
  {
    "postal": "L1M2R3",
    "result": []
  },
  {
    "postal": "L1M5N2",
    "result": []
  },
  {
    "postal": "L1M4Y7",
    "result": []
  },
  {
    "postal": "L1M7M0",
    "result": []
  },
  {
    "postal": "L1M8P3",
    "result": []
  },
  {
    "postal": "L1M3N3",
    "result": []
  },
  {
    "postal": "L1M7S3",
    "result": []
  },
  {
    "postal": "L1M3V9",
    "result": []
  },
  {
    "postal": "L1M9N7",
    "result": []
  },
  {
    "postal": "L1M0G4",
    "result": [
      {
        "electoralDistricts": [
          {
            "election": null,
            "id": 116,
            "name": "Whitby"
          }
        ],
        "pollDivisionIds": [
          10111216
        ],
        "postalCode": "L1M0G4",
        "streetName": "MONTANA",
        "streetDirectionId": null,
        "streetTypeId": "CRES",
        "placeName": "WHITBY",
        "streetNameDisplayText": "MONTANA CRES, WHITBY"
      }
    ]
  },
  {
    "postal": "L1M2E2",
    "result": [
      {
        "electoralDistricts": [
          {
            "election": null,
            "id": 116,
            "name": "Whitby"
          }
        ],
        "pollDivisionIds": [
          10136128
        ],
        "postalCode": "L1M2E2",
        "streetName": "CACHET",
        "streetDirectionId": null,
        "streetTypeId": "BLVD",
        "placeName": "WHITBY",
        "streetNameDisplayText": "CACHET BLVD, WHITBY"
      }
    ]
  },
  {
    "postal": "L1M7W8",
    "result": []
  },
  {
    "postal": "L1M7M5",
    "result": []
  },
  {
    "postal": "L1M5W8",
    "result": []
  },
  {
    "postal": "L1M5E5",
    "result": []
  },
  {
    "postal": "L1M1P9",
    "result": [
      {
        "electoralDistricts": [
          {
            "election": null,
            "id": 116,
            "name": "Whitby"
          }
        ],
        "pollDivisionIds": [
          10136126
        ],
        "postalCode": "L1M1P9",
        "streetName": "LAKE RIDGE",
        "streetDirectionId": "N",
        "streetTypeId": "RD",
        "placeName": "WHITBY",
        "streetNameDisplayText": "LAKE RIDGE RD N, WHITBY"
      }
    ]
  },
  {
    "postal": "L1M8V8",
    "result": []
  },
  {
    "postal": "L1M9G8",
    "result": []
  },
  {
    "postal": "L1M8H9",
    "result": []
  },
  {
    "postal": "L1M1Z1",
    "result": [
      {
        "electoralDistricts": [
          {
            "election": null,
            "id": 116,
            "name": "Whitby"
          }
        ],
        "pollDivisionIds": [
          10136127
        ],
        "postalCode": "L1M1Z1",
        "streetName": "BRAWLEY",
        "streetDirectionId": "E",
        "streetTypeId": "RD",
        "placeName": "WHITBY",
        "streetNameDisplayText": "BRAWLEY RD E, WHITBY"
      }
    ]
  },
  {
    "postal": "L1M8M3",
    "result": []
  },
  {
    "postal": "L1M5H6",
    "result": []
  },
  {
    "postal": "L1M7W7",
    "result": []
  },
  {
    "postal": "L1M4L0",
    "result": []
  },
  {
    "postal": "L1M2N1",
    "result": [
      {
        "electoralDistricts": [
          {
            "election": null,
            "id": 116,
            "name": "Whitby"
          }
        ],
        "pollDivisionIds": [
          10111216
        ],
        "postalCode": "L1M2N1",
        "streetName": "BRADDOCK",
        "streetDirectionId": null,
        "streetTypeId": "CRT",
        "placeName": "WHITBY",
        "streetNameDisplayText": "BRADDOCK CRT, WHITBY"
      },
      {
        "electoralDistricts": [
          {
            "election": null,
            "id": 116,
            "name": "Whitby"
          }
        ],
        "pollDivisionIds": [
          10111216
        ],
        "postalCode": "L1M2N1",
        "streetName": "CARNWITH",
        "streetDirectionId": "W",
        "streetTypeId": "DR",
        "placeName": "WHITBY",
        "streetNameDisplayText": "CARNWITH DR W, WHITBY"
      },
      {
        "electoralDistricts": [
          {
            "election": null,
            "id": 116,
            "name": "Whitby"
          }
        ],
        "pollDivisionIds": [
          10111216
        ],
        "postalCode": "L1M2N1",
        "streetName": "LEITHRIDGE",
        "streetDirectionId": null,
        "streetTypeId": "CRES",
        "placeName": "WHITBY",
        "streetNameDisplayText": "LEITHRIDGE CRES, WHITBY"
      },
      {
        "electoralDistricts": [
          {
            "election": null,
            "id": 116,
            "name": "Whitby"
          }
        ],
        "pollDivisionIds": [
          10111216
        ],
        "postalCode": "L1M2N1",
        "streetName": "WHITMORE",
        "streetDirectionId": null,
        "streetTypeId": "CRT",
        "placeName": "WHITBY",
        "streetNameDisplayText": "WHITMORE CRT, WHITBY"
      }
    ]
  },
  {
    "postal": "L1M2H4",
    "result": [
      {
        "electoralDistricts": [
          {
            "election": null,
            "id": 116,
            "name": "Whitby"
          }
        ],
        "pollDivisionIds": [
          10136128
        ],
        "postalCode": "L1M2H4",
        "streetName": "BEAUMARIS",
        "streetDirectionId": null,
        "streetTypeId": "CRES",
        "placeName": "WHITBY",
        "streetNameDisplayText": "BEAUMARIS CRES, WHITBY"
      }
    ]
  },
  {
    "postal": "L1M5C8",
    "result": []
  },
  {
    "postal": "L1M8B0",
    "result": []
  },
  {
    "postal": "L1M1T4",
    "result": [
      {
        "electoralDistricts": [
          {
            "election": null,
            "id": 116,
            "name": "Whitby"
          }
        ],
        "pollDivisionIds": [
          10111216
        ],
        "postalCode": "L1M1T4",
        "streetName": "BALDWIN",
        "streetDirectionId": "S",
        "streetTypeId": "ST",
        "placeName": "WHITBY",
        "streetNameDisplayText": "BALDWIN ST S, WHITBY"
      }
    ]
  },
  {
    "postal": "L1M7N7",
    "result": []
  },
  {
    "postal": "L1M4L3",
    "result": []
  },
  {
    "postal": "L1M2N2",
    "result": [
      {
        "electoralDistricts": [
          {
            "election": null,
            "id": 116,
            "name": "Whitby"
          }
        ],
        "pollDivisionIds": [
          10111216
        ],
        "postalCode": "L1M2N2",
        "streetName": "LEITHRIDGE",
        "streetDirectionId": null,
        "streetTypeId": "CRES",
        "placeName": "WHITBY",
        "streetNameDisplayText": "LEITHRIDGE CRES, WHITBY"
      },
      {
        "electoralDistricts": [
          {
            "election": null,
            "id": 116,
            "name": "Whitby"
          }
        ],
        "pollDivisionIds": [
          10111216
        ],
        "postalCode": "L1M2N2",
        "streetName": "WHITMORE",
        "streetDirectionId": null,
        "streetTypeId": "CRT",
        "placeName": "WHITBY",
        "streetNameDisplayText": "WHITMORE CRT, WHITBY"
      }
    ]
  },
  {
    "postal": "L1M4N8",
    "result": []
  },
  {
    "postal": "L1M3M5",
    "result": []
  },
  {
    "postal": "L1M6H7",
    "result": []
  },
  {
    "postal": "L1M8Y8",
    "result": []
  },
  {
    "postal": "L1M5R9",
    "result": []
  },
  {
    "postal": "L1M8G3",
    "result": []
  },
  {
    "postal": "L1M4N7",
    "result": []
  },
  {
    "postal": "L1M0B9",
    "result": [
      {
        "electoralDistricts": [
          {
            "election": null,
            "id": 116,
            "name": "Whitby"
          }
        ],
        "pollDivisionIds": [
          10136126
        ],
        "postalCode": "L1M0B9",
        "streetName": "STRANDMORE",
        "streetDirectionId": null,
        "streetTypeId": "CIR",
        "placeName": "WHITBY",
        "streetNameDisplayText": "STRANDMORE CIR, WHITBY"
      }
    ]
  },
  {
    "postal": "L1M9K7",
    "result": []
  },
  {
    "postal": "L1M9K9",
    "result": []
  },
  {
    "postal": "L1M3Z2",
    "result": []
  },
  {
    "postal": "L1M6W7",
    "result": []
  },
  {
    "postal": "L1M0P1",
    "result": []
  },
  {
    "postal": "L1M3A0",
    "result": []
  },
  {
    "postal": "L1M8L9",
    "result": []
  },
  {
    "postal": "L1M6X0",
    "result": []
  },
  {
    "postal": "L1M3E9",
    "result": []
  },
  {
    "postal": "L1M0S5",
    "result": []
  },
  {
    "postal": "L1M1A2",
    "result": [
      {
        "electoralDistricts": [
          {
            "election": null,
            "id": 116,
            "name": "Whitby"
          }
        ],
        "pollDivisionIds": [
          10111216
        ],
        "postalCode": "L1M1A2",
        "streetName": "BAGOT",
        "streetDirectionId": null,
        "streetTypeId": "ST",
        "placeName": "WHITBY",
        "streetNameDisplayText": "BAGOT ST, WHITBY"
      },
      {
        "electoralDistricts": [
          {
            "election": null,
            "id": 116,
            "name": "Whitby"
          }
        ],
        "pollDivisionIds": [
          10111216
        ],
        "postalCode": "L1M1A2",
        "streetName": "BALDWIN",
        "streetDirectionId": "N",
        "streetTypeId": "ST",
        "placeName": "WHITBY",
        "streetNameDisplayText": "BALDWIN ST N, WHITBY"
      },
      {
        "electoralDistricts": [
          {
            "election": null,
            "id": 116,
            "name": "Whitby"
          }
        ],
        "pollDivisionIds": [
          10111216
        ],
        "postalCode": "L1M1A2",
        "streetName": "BALDWIN",
        "streetDirectionId": null,
        "streetTypeId": "ST",
        "placeName": "WHITBY",
        "streetNameDisplayText": "BALDWIN ST, WHITBY"
      }
    ]
  },
  {
    "postal": "L1M5V8",
    "result": []
  },
  {
    "postal": "L1M8C5",
    "result": []
  },
  {
    "postal": "L1M6N0",
    "result": []
  },
  {
    "postal": "L1M9E6",
    "result": []
  },
  {
    "postal": "L1M5J7",
    "result": []
  },
  {
    "postal": "L1M2R2",
    "result": []
  },
  {
    "postal": "L1M0P5",
    "result": []
  },
  {
    "postal": "L1M5A7",
    "result": []
  },
  {
    "postal": "L1M1G1",
    "result": [
      {
        "electoralDistricts": [
          {
            "election": null,
            "id": 116,
            "name": "Whitby"
          }
        ],
        "pollDivisionIds": [
          10136130
        ],
        "postalCode": "L1M1G1",
        "streetName": "ST THOMAS",
        "streetDirectionId": null,
        "streetTypeId": "ST",
        "placeName": "WHITBY",
        "streetNameDisplayText": "ST THOMAS ST, WHITBY"
      },
      {
        "electoralDistricts": [
          {
            "election": null,
            "id": 116,
            "name": "Whitby"
          }
        ],
        "pollDivisionIds": [
          10136130
        ],
        "postalCode": "L1M1G1",
        "streetName": "TREMOUNT",
        "streetDirectionId": null,
        "streetTypeId": "ST",
        "placeName": "WHITBY",
        "streetNameDisplayText": "TREMOUNT ST, WHITBY"
      }
    ]
  },
  {
    "postal": "L1M9R6",
    "result": []
  },
  {
    "postal": "L1M4Z9",
    "result": []
  },
  {
    "postal": "L1M1V5",
    "result": [
      {
        "electoralDistricts": [
          {
            "election": null,
            "id": 116,
            "name": "Whitby"
          }
        ],
        "pollDivisionIds": [
          10136129
        ],
        "postalCode": "L1M1V5",
        "streetName": "WINCHESTER",
        "streetDirectionId": "W",
        "streetTypeId": "RD",
        "placeName": "WHITBY",
        "streetNameDisplayText": "WINCHESTER RD W, WHITBY"
      }
    ]
  },
  {
    "postal": "L1M9Y5",
    "result": []
  },
  {
    "postal": "L1M1P2",
    "result": [
      {
        "electoralDistricts": [
          {
            "election": null,
            "id": 116,
            "name": "Whitby"
          }
        ],
        "pollDivisionIds": [
          10136126
        ],
        "postalCode": "L1M1P2",
        "streetName": "COLUMBUS",
        "streetDirectionId": "W",
        "streetTypeId": "RD",
        "placeName": "WHITBY",
        "streetNameDisplayText": "COLUMBUS RD W, WHITBY"
      }
    ]
  },
  {
    "postal": "L1M5X0",
    "result": []
  },
  {
    "postal": "L1M7B8",
    "result": []
  },
  {
    "postal": "L1M0C6",
    "result": [
      {
        "electoralDistricts": [
          {
            "election": null,
            "id": 99,
            "name": "SimcoeGrey"
          }
        ],
        "pollDivisionIds": [
          10141840
        ],
        "postalCode": "L1M0C6",
        "streetName": "NORTH",
        "streetDirectionId": null,
        "streetTypeId": "RD",
        "placeName": "WHITBY",
        "streetNameDisplayText": "NORTH RD, WHITBY"
      },
      {
        "electoralDistricts": [
          {
            "election": null,
            "id": 116,
            "name": "Whitby"
          }
        ],
        "pollDivisionIds": [
          10111216
        ],
        "postalCode": "L1M0C6",
        "streetName": "NORTH",
        "streetDirectionId": null,
        "streetTypeId": "ST",
        "placeName": "WHITBY",
        "streetNameDisplayText": "NORTH ST, WHITBY"
      },
      {
        "electoralDistricts": [
          {
            "election": null,
            "id": 116,
            "name": "Whitby"
          }
        ],
        "pollDivisionIds": [
          10111216
        ],
        "postalCode": "L1M0C6",
        "streetName": "WOODINGTON",
        "streetDirectionId": null,
        "streetTypeId": "CRT",
        "placeName": "WHITBY",
        "streetNameDisplayText": "WOODINGTON CRT, WHITBY"
      }
    ]
  },
  {
    "postal": "L1M6G1",
    "result": []
  },
  {
    "postal": "L1M3K3",
    "result": []
  },
  {
    "postal": "L1M9R0",
    "result": []
  },
  {
    "postal": "L1M4R8",
    "result": []
  },
  {
    "postal": "L1M5P9",
    "result": []
  },
  {
    "postal": "L1M8N4",
    "result": []
  },
  {
    "postal": "L1M8H4",
    "result": []
  },
  {
    "postal": "L1M4V1",
    "result": []
  },
  {
    "postal": "L1M1K5",
    "result": [
      {
        "electoralDistricts": [
          {
            "election": null,
            "id": 116,
            "name": "Whitby"
          }
        ],
        "pollDivisionIds": [
          10111216
        ],
        "postalCode": "L1M1K5",
        "streetName": "AMANDA",
        "streetDirectionId": null,
        "streetTypeId": "AVE",
        "placeName": "WHITBY",
        "streetNameDisplayText": "AMANDA AVE, WHITBY"
      },
      {
        "electoralDistricts": [
          {
            "election": null,
            "id": 116,
            "name": "Whitby"
          }
        ],
        "pollDivisionIds": [
          10111216
        ],
        "postalCode": "L1M1K5",
        "streetName": "KIMBERLY",
        "streetDirectionId": null,
        "streetTypeId": "DR",
        "placeName": "WHITBY",
        "streetNameDisplayText": "KIMBERLY DR, WHITBY"
      }
    ]
  },
  {
    "postal": "L1M1Z5",
    "result": [
      {
        "electoralDistricts": [
          {
            "election": null,
            "id": 116,
            "name": "Whitby"
          }
        ],
        "pollDivisionIds": [
          10136127
        ],
        "postalCode": "L1M1Z5",
        "streetName": "COLUMBUS",
        "streetDirectionId": "E",
        "streetTypeId": "RD",
        "placeName": "WHITBY",
        "streetNameDisplayText": "COLUMBUS RD E, WHITBY"
      }
    ]
  },
  {
    "postal": "L1M9L9",
    "result": []
  },
  {
    "postal": "L1M5L2",
    "result": []
  },
  {
    "postal": "L1M0M2",
    "result": [
      {
        "electoralDistricts": [
          {
            "election": null,
            "id": 116,
            "name": "Whitby"
          }
        ],
        "pollDivisionIds": [
          10111216
        ],
        "postalCode": "L1M0M2",
        "streetName": "BALDWIN",
        "streetDirectionId": null,
        "streetTypeId": "ST",
        "placeName": "WHITBY",
        "streetNameDisplayText": "BALDWIN ST, WHITBY"
      }
    ]
  },
  {
    "postal": "L1M1K8",
    "result": [
      {
        "electoralDistricts": [
          {
            "election": null,
            "id": 116,
            "name": "Whitby"
          }
        ],
        "pollDivisionIds": [
          10111216
        ],
        "postalCode": "L1M1K8",
        "streetName": "CODY",
        "streetDirectionId": null,
        "streetTypeId": "AVE",
        "placeName": "WHITBY",
        "streetNameDisplayText": "CODY AVE, WHITBY"
      },
      {
        "electoralDistricts": [
          {
            "election": null,
            "id": 116,
            "name": "Whitby"
          }
        ],
        "pollDivisionIds": [
          10111216
        ],
        "postalCode": "L1M1K8",
        "streetName": "KIMBERLY",
        "streetDirectionId": null,
        "streetTypeId": "DR",
        "placeName": "WHITBY",
        "streetNameDisplayText": "KIMBERLY DR, WHITBY"
      },
      {
        "electoralDistricts": [
          {
            "election": null,
            "id": 116,
            "name": "Whitby"
          }
        ],
        "pollDivisionIds": [
          10111216,
          10136126
        ],
        "postalCode": "L1M1K8",
        "streetName": "VIPOND",
        "streetDirectionId": null,
        "streetTypeId": "RD",
        "placeName": "WHITBY",
        "streetNameDisplayText": "VIPOND RD, WHITBY"
      }
    ]
  },
  {
    "postal": "L1M3M7",
    "result": []
  },
  {
    "postal": "L1M1B2",
    "result": [
      {
        "electoralDistricts": [
          {
            "election": null,
            "id": 116,
            "name": "Whitby"
          }
        ],
        "pollDivisionIds": [
          10111216
        ],
        "postalCode": "L1M1B2",
        "streetName": "PRINCESS",
        "streetDirectionId": null,
        "streetTypeId": "ST",
        "placeName": "WHITBY",
        "streetNameDisplayText": "PRINCESS ST, WHITBY"
      },
      {
        "electoralDistricts": [
          {
            "election": null,
            "id": 116,
            "name": "Whitby"
          }
        ],
        "pollDivisionIds": [
          10111216
        ],
        "postalCode": "L1M1B2",
        "streetName": "ROEBUCK",
        "streetDirectionId": null,
        "streetTypeId": "ST",
        "placeName": "WHITBY",
        "streetNameDisplayText": "ROEBUCK ST, WHITBY"
      },
      {
        "electoralDistricts": [
          {
            "election": null,
            "id": 116,
            "name": "Whitby"
          }
        ],
        "pollDivisionIds": [
          10111216
        ],
        "postalCode": "L1M1B2",
        "streetName": "SIMCOE",
        "streetDirectionId": null,
        "streetTypeId": "ST",
        "placeName": "WHITBY",
        "streetNameDisplayText": "SIMCOE ST, WHITBY"
      },
      {
        "electoralDistricts": [
          {
            "election": null,
            "id": 116,
            "name": "Whitby"
          }
        ],
        "pollDivisionIds": [
          10111216
        ],
        "postalCode": "L1M1B2",
        "streetName": "TORIAN",
        "streetDirectionId": null,
        "streetTypeId": "AVE",
        "placeName": "WHITBY",
        "streetNameDisplayText": "TORIAN AVE, WHITBY"
      }
    ]
  },
  {
    "postal": "L1M0H9",
    "result": [
      {
        "electoralDistricts": [
          {
            "election": null,
            "id": 116,
            "name": "Whitby"
          }
        ],
        "pollDivisionIds": [
          10136126
        ],
        "postalCode": "L1M0H9",
        "streetName": "NORTHCASTLE",
        "streetDirectionId": null,
        "streetTypeId": "CRES",
        "placeName": "WHITBY",
        "streetNameDisplayText": "NORTHCASTLE CRES, WHITBY"
      }
    ]
  },
  {
    "postal": "L1M8M4",
    "result": []
  },
  {
    "postal": "L1M2M5",
    "result": [
      {
        "electoralDistricts": [
          {
            "election": null,
            "id": 116,
            "name": "Whitby"
          }
        ],
        "pollDivisionIds": [
          10136128
        ],
        "postalCode": "L1M2M5",
        "streetName": "CACHET",
        "streetDirectionId": null,
        "streetTypeId": "BLVD",
        "placeName": "WHITBY",
        "streetNameDisplayText": "CACHET BLVD, WHITBY"
      },
      {
        "electoralDistricts": [
          {
            "election": null,
            "id": 116,
            "name": "Whitby"
          }
        ],
        "pollDivisionIds": [
          10136128
        ],
        "postalCode": "L1M2M5",
        "streetName": "HAWSTEAD",
        "streetDirectionId": null,
        "streetTypeId": "CRES",
        "placeName": "WHITBY",
        "streetNameDisplayText": "HAWSTEAD CRES, WHITBY"
      }
    ]
  },
  {
    "postal": "L1M0T9",
    "result": []
  },
  {
    "postal": "L1M3P1",
    "result": []
  },
  {
    "postal": "L1M1R6",
    "result": [
      {
        "electoralDistricts": [
          {
            "election": null,
            "id": 116,
            "name": "Whitby"
          }
        ],
        "pollDivisionIds": [
          10136126
        ],
        "postalCode": "L1M1R6",
        "streetName": "CORONATION",
        "streetDirectionId": null,
        "streetTypeId": "RD",
        "placeName": "WHITBY",
        "streetNameDisplayText": "CORONATION RD, WHITBY"
      }
    ]
  },
  {
    "postal": "L1M9V5",
    "result": []
  },
  {
    "postal": "L1M9T0",
    "result": []
  },
  {
    "postal": "L1M0A9",
    "result": [
      {
        "electoralDistricts": [
          {
            "election": null,
            "id": 116,
            "name": "Whitby"
          }
        ],
        "pollDivisionIds": [
          10136128
        ],
        "postalCode": "L1M0A9",
        "streetName": "ROCKLAND",
        "streetDirectionId": null,
        "streetTypeId": "CRES",
        "placeName": "WHITBY",
        "streetNameDisplayText": "ROCKLAND CRES, WHITBY"
      }
    ]
  },
  {
    "postal": "L1M1M3",
    "result": [
      {
        "electoralDistricts": [
          {
            "election": null,
            "id": 116,
            "name": "Whitby"
          }
        ],
        "pollDivisionIds": [
          10136127
        ],
        "postalCode": "L1M1M3",
        "streetName": "BRAWLEY",
        "streetDirectionId": "W",
        "streetTypeId": "RD",
        "placeName": "WHITBY",
        "streetNameDisplayText": "BRAWLEY RD W, WHITBY"
      }
    ]
  },
  {
    "postal": "L1M1W8",
    "result": [
      {
        "electoralDistricts": [
          {
            "election": null,
            "id": 116,
            "name": "Whitby"
          }
        ],
        "pollDivisionIds": [
          10136130
        ],
        "postalCode": "L1M1W8",
        "streetName": "THICKSON",
        "streetDirectionId": "N",
        "streetTypeId": "RD",
        "placeName": "WHITBY",
        "streetNameDisplayText": "THICKSON RD N, WHITBY"
      }
    ]
  },
  {
    "postal": "L1M9J1",
    "result": []
  },
  {
    "postal": "L1M8N5",
    "result": []
  },
  {
    "postal": "L1M5X1",
    "result": []
  },
  {
    "postal": "L1M6S2",
    "result": []
  },
  {
    "postal": "L1M2A2",
    "result": [
      {
        "electoralDistricts": [
          {
            "election": null,
            "id": 116,
            "name": "Whitby"
          }
        ],
        "pollDivisionIds": [
          10136127
        ],
        "postalCode": "L1M2A2",
        "streetName": "GARRARD",
        "streetDirectionId": null,
        "streetTypeId": "RD",
        "placeName": "WHITBY",
        "streetNameDisplayText": "GARRARD RD, WHITBY"
      }
    ]
  },
  {
    "postal": "L1M6A6",
    "result": []
  },
  {
    "postal": "L1M0S3",
    "result": []
  },
  {
    "postal": "L1M3E7",
    "result": []
  },
  {
    "postal": "L1M5R7",
    "result": []
  },
  {
    "postal": "L1M3R6",
    "result": []
  },
  {
    "postal": "L1M6K4",
    "result": []
  },
  {
    "postal": "L1M2W5",
    "result": []
  },
  {
    "postal": "L1M8W4",
    "result": []
  },
  {
    "postal": "L1M9C2",
    "result": []
  },
  {
    "postal": "L1M2C0",
    "result": []
  },
  {
    "postal": "L1M0E1",
    "result": [
      {
        "electoralDistricts": [
          {
            "election": null,
            "id": 116,
            "name": "Whitby"
          }
        ],
        "pollDivisionIds": [
          10136127
        ],
        "postalCode": "L1M0E1",
        "streetName": "CHISWICK",
        "streetDirectionId": null,
        "streetTypeId": "AVE",
        "placeName": "WHITBY",
        "streetNameDisplayText": "CHISWICK AVE, WHITBY"
      },
      {
        "electoralDistricts": [
          {
            "election": null,
            "id": 116,
            "name": "Whitby"
          }
        ],
        "pollDivisionIds": [
          10136127
        ],
        "postalCode": "L1M0E1",
        "streetName": "SHREWSBURY",
        "streetDirectionId": null,
        "streetTypeId": "DR",
        "placeName": "WHITBY",
        "streetNameDisplayText": "SHREWSBURY DR, WHITBY"
      }
    ]
  },
  {
    "postal": "L1M1K9",
    "result": [
      {
        "electoralDistricts": [
          {
            "election": null,
            "id": 116,
            "name": "Whitby"
          }
        ],
        "pollDivisionIds": [
          10136126,
          10111216
        ],
        "postalCode": "L1M1K9",
        "streetName": "DARIUS HARNS",
        "streetDirectionId": null,
        "streetTypeId": "DR",
        "placeName": "WHITBY",
        "streetNameDisplayText": "DARIUS HARNS DR, WHITBY"
      },
      {
        "electoralDistricts": [
          {
            "election": null,
            "id": 116,
            "name": "Whitby"
          }
        ],
        "pollDivisionIds": [
          10111216
        ],
        "postalCode": "L1M1K9",
        "streetName": "VIPOND",
        "streetDirectionId": null,
        "streetTypeId": "RD",
        "placeName": "WHITBY",
        "streetNameDisplayText": "VIPOND RD, WHITBY"
      }
    ]
  },
  {
    "postal": "L1M1G7",
    "result": [
      {
        "electoralDistricts": [
          {
            "election": null,
            "id": 116,
            "name": "Whitby"
          }
        ],
        "pollDivisionIds": [
          10136129
        ],
        "postalCode": "L1M1G7",
        "streetName": "CORONATION",
        "streetDirectionId": null,
        "streetTypeId": "RD",
        "placeName": "WHITBY",
        "streetNameDisplayText": "CORONATION RD, WHITBY"
      },
      {
        "electoralDistricts": [
          {
            "election": null,
            "id": 116,
            "name": "Whitby"
          }
        ],
        "pollDivisionIds": [
          10136129
        ],
        "postalCode": "L1M1G7",
        "streetName": "PARK",
        "streetDirectionId": null,
        "streetTypeId": "RD",
        "placeName": "WHITBY",
        "streetNameDisplayText": "PARK RD, WHITBY"
      },
      {
        "electoralDistricts": [
          {
            "election": null,
            "id": 116,
            "name": "Whitby"
          }
        ],
        "pollDivisionIds": [
          10136129
        ],
        "postalCode": "L1M1G7",
        "streetName": "PHILIPS",
        "streetDirectionId": null,
        "streetTypeId": "RD",
        "placeName": "WHITBY",
        "streetNameDisplayText": "PHILIPS RD, WHITBY"
      }
    ]
  },
  {
    "postal": "L1M4E9",
    "result": []
  },
  {
    "postal": "L1M9P0",
    "result": []
  },
  {
    "postal": "L1M5H3",
    "result": []
  },
  {
    "postal": "L1M9X6",
    "result": []
  },
  {
    "postal": "L1M5N7",
    "result": []
  },
  {
    "postal": "L1M5A6",
    "result": []
  },
  {
    "postal": "L1M4M0",
    "result": []
  },
  {
    "postal": "L1M3V6",
    "result": []
  },
  {
    "postal": "L1M1L7",
    "result": [
      {
        "electoralDistricts": [
          {
            "election": null,
            "id": 116,
            "name": "Whitby"
          }
        ],
        "pollDivisionIds": [
          10136127
        ],
        "postalCode": "L1M1L7",
        "streetName": "ASHBURN",
        "streetDirectionId": null,
        "streetTypeId": "RD",
        "placeName": "WHITBY",
        "streetNameDisplayText": "ASHBURN RD, WHITBY"
      }
    ]
  },
  {
    "postal": "L1M2P9",
    "result": []
  },
  {
    "postal": "L1M5T4",
    "result": []
  },
  {
    "postal": "L1M5Z1",
    "result": []
  },
  {
    "postal": "L1M2X0",
    "result": []
  },
  {
    "postal": "L1M6Z2",
    "result": []
  },
  {
    "postal": "L1M0E0",
    "result": []
  },
  {
    "postal": "L1M3Z5",
    "result": []
  },
  {
    "postal": "L1M8H3",
    "result": []
  },
  {
    "postal": "L1M7S6",
    "result": []
  },
  {
    "postal": "L1M4C1",
    "result": []
  },
  {
    "postal": "L1M3K2",
    "result": []
  },
  {
    "postal": "L1M1Y5",
    "result": [
      {
        "electoralDistricts": [
          {
            "election": null,
            "id": 116,
            "name": "Whitby"
          }
        ],
        "pollDivisionIds": [
          10136127
        ],
        "postalCode": "L1M1Y5",
        "streetName": "BALDWIN",
        "streetDirectionId": "N",
        "streetTypeId": "ST",
        "placeName": "WHITBY",
        "streetNameDisplayText": "BALDWIN ST N, WHITBY"
      }
    ]
  },
  {
    "postal": "L1M6P6",
    "result": []
  },
  {
    "postal": "L1M3N9",
    "result": []
  },
  {
    "postal": "L1M3W2",
    "result": []
  },
  {
    "postal": "L1M6H8",
    "result": []
  },
  {
    "postal": "L1M9T3",
    "result": []
  },
  {
    "postal": "L1M5L9",
    "result": []
  },
  {
    "postal": "L1M7X7",
    "result": []
  },
  {
    "postal": "L1M3J5",
    "result": []
  },
  {
    "postal": "L1M4J5",
    "result": []
  },
  {
    "postal": "L1M6J2",
    "result": []
  },
  {
    "postal": "L1M5V6",
    "result": []
  },
  {
    "postal": "L1M3N2",
    "result": []
  },
  {
    "postal": "L1M3B1",
    "result": []
  },
  {
    "postal": "L1M8B5",
    "result": []
  },
  {
    "postal": "L1M0K1",
    "result": [
      {
        "electoralDistricts": [
          {
            "election": null,
            "id": 116,
            "name": "Whitby"
          }
        ],
        "pollDivisionIds": [
          10136127
        ],
        "postalCode": "L1M0K1",
        "streetName": "BURNING SPRINGS",
        "streetDirectionId": null,
        "streetTypeId": "PL",
        "placeName": "WHITBY",
        "streetNameDisplayText": "BURNING SPRINGS PL, WHITBY"
      }
    ]
  },
  {
    "postal": "L1M7M7",
    "result": []
  },
  {
    "postal": "L1M2M2",
    "result": [
      {
        "electoralDistricts": [
          {
            "election": null,
            "id": 116,
            "name": "Whitby"
          }
        ],
        "pollDivisionIds": [
          10136128
        ],
        "postalCode": "L1M2M2",
        "streetName": "CRANBORNE",
        "streetDirectionId": null,
        "streetTypeId": "CRES",
        "placeName": "WHITBY",
        "streetNameDisplayText": "CRANBORNE CRES, WHITBY"
      }
    ]
  },
  {
    "postal": "L1M9N3",
    "result": []
  },
  {
    "postal": "L1M4Y8",
    "result": []
  },
  {
    "postal": "L1M3V7",
    "result": []
  },
  {
    "postal": "L1M8Z1",
    "result": []
  },
  {
    "postal": "L1M7B3",
    "result": []
  },
  {
    "postal": "L1M3A8",
    "result": []
  },
  {
    "postal": "L1M7V5",
    "result": []
  },
  {
    "postal": "L1M2T2",
    "result": []
  },
  {
    "postal": "L1M6L3",
    "result": []
  },
  {
    "postal": "L1M0L2",
    "result": [
      {
        "electoralDistricts": [
          {
            "election": null,
            "id": 116,
            "name": "Whitby"
          }
        ],
        "pollDivisionIds": [
          10111216
        ],
        "postalCode": "L1M0L2",
        "streetName": "CARNWITH",
        "streetDirectionId": "W",
        "streetTypeId": "DR",
        "placeName": "WHITBY",
        "streetNameDisplayText": "CARNWITH DR W, WHITBY"
      }
    ]
  },
  {
    "postal": "L1M5Y8",
    "result": []
  },
  {
    "postal": "L1M0B8",
    "result": [
      {
        "electoralDistricts": [
          {
            "election": null,
            "id": 116,
            "name": "Whitby"
          }
        ],
        "pollDivisionIds": [
          10111216
        ],
        "postalCode": "L1M0B8",
        "streetName": "MONTANA",
        "streetDirectionId": null,
        "streetTypeId": "CRES",
        "placeName": "WHITBY",
        "streetNameDisplayText": "MONTANA CRES, WHITBY"
      },
      {
        "electoralDistricts": [
          {
            "election": null,
            "id": 116,
            "name": "Whitby"
          }
        ],
        "pollDivisionIds": [
          10136126,
          10111216
        ],
        "postalCode": "L1M0B8",
        "streetName": "MONTGOMERY",
        "streetDirectionId": null,
        "streetTypeId": "AVE",
        "placeName": "WHITBY",
        "streetNameDisplayText": "MONTGOMERY AVE, WHITBY"
      }
    ]
  },
  {
    "postal": "L1M6R5",
    "result": []
  },
  {
    "postal": "L1M8W6",
    "result": []
  },
  {
    "postal": "L1M8G6",
    "result": []
  },
  {
    "postal": "L1M6X3",
    "result": []
  },
  {
    "postal": "L1M7R7",
    "result": []
  },
  {
    "postal": "L1M4B6",
    "result": []
  },
  {
    "postal": "L1M3P9",
    "result": []
  },
  {
    "postal": "L1M2T3",
    "result": []
  },
  {
    "postal": "L1M1M4",
    "result": [
      {
        "electoralDistricts": [
          {
            "election": null,
            "id": 116,
            "name": "Whitby"
          }
        ],
        "pollDivisionIds": [
          10136126
        ],
        "postalCode": "L1M1M4",
        "streetName": "BRAWLEY",
        "streetDirectionId": "W",
        "streetTypeId": "RD",
        "placeName": "WHITBY",
        "streetNameDisplayText": "BRAWLEY RD W, WHITBY"
      }
    ]
  },
  {
    "postal": "L1M0H1",
    "result": [
      {
        "electoralDistricts": [
          {
            "election": null,
            "id": 116,
            "name": "Whitby"
          }
        ],
        "pollDivisionIds": [
          10136127
        ],
        "postalCode": "L1M0H1",
        "streetName": "BURNING SPRINGS",
        "streetDirectionId": null,
        "streetTypeId": "PL",
        "placeName": "WHITBY",
        "streetNameDisplayText": "BURNING SPRINGS PL, WHITBY"
      },
      {
        "electoralDistricts": [
          {
            "election": null,
            "id": 116,
            "name": "Whitby"
          }
        ],
        "pollDivisionIds": [
          10136127
        ],
        "postalCode": "L1M0H1",
        "streetName": "WYCOMBE",
        "streetDirectionId": null,
        "streetTypeId": "ST",
        "placeName": "WHITBY",
        "streetNameDisplayText": "WYCOMBE ST, WHITBY"
      }
    ]
  },
  {
    "postal": "L1M9W3",
    "result": []
  },
  {
    "postal": "L1M6P1",
    "result": []
  },
  {
    "postal": "L1M7G2",
    "result": []
  },
  {
    "postal": "L1M4J9",
    "result": []
  },
  {
    "postal": "L1M9E4",
    "result": []
  },
  {
    "postal": "L1M8H0",
    "result": []
  },
  {
    "postal": "L1M4M7",
    "result": []
  },
  {
    "postal": "L1M2G9",
    "result": [
      {
        "electoralDistricts": [
          {
            "election": null,
            "id": 116,
            "name": "Whitby"
          }
        ],
        "pollDivisionIds": [
          10136130
        ],
        "postalCode": "L1M2G9",
        "streetName": "FITZPATRICK",
        "streetDirectionId": null,
        "streetTypeId": "CRT",
        "placeName": "WHITBY",
        "streetNameDisplayText": "FITZPATRICK CRT, WHITBY"
      }
    ]
  },
  {
    "postal": "L1M8T2",
    "result": []
  },
  {
    "postal": "L1M7G7",
    "result": []
  },
  {
    "postal": "L1M4Z3",
    "result": []
  },
  {
    "postal": "L1M5B3",
    "result": []
  },
  {
    "postal": "L1M1S7",
    "result": [
      {
        "electoralDistricts": [
          {
            "election": null,
            "id": 116,
            "name": "Whitby"
          }
        ],
        "pollDivisionIds": [
          10111216
        ],
        "postalCode": "L1M1S7",
        "streetName": "ASHBURN",
        "streetDirectionId": null,
        "streetTypeId": "RD",
        "placeName": "WHITBY",
        "streetNameDisplayText": "ASHBURN RD, WHITBY"
      }
    ]
  },
  {
    "postal": "L1M2N7",
    "result": [
      {
        "electoralDistricts": [
          {
            "election": null,
            "id": 116,
            "name": "Whitby"
          }
        ],
        "pollDivisionIds": [
          10111216
        ],
        "postalCode": "L1M2N7",
        "streetName": "MONTGOMERY",
        "streetDirectionId": null,
        "streetTypeId": "AVE",
        "placeName": "WHITBY",
        "streetNameDisplayText": "MONTGOMERY AVE, WHITBY"
      },
      {
        "electoralDistricts": [
          {
            "election": null,
            "id": 116,
            "name": "Whitby"
          }
        ],
        "pollDivisionIds": [
          10111216
        ],
        "postalCode": "L1M2N7",
        "streetName": "VANGUARD",
        "streetDirectionId": null,
        "streetTypeId": "DR",
        "placeName": "WHITBY",
        "streetNameDisplayText": "VANGUARD DR, WHITBY"
      }
    ]
  },
  {
    "postal": "L1M0H8",
    "result": [
      {
        "electoralDistricts": [
          {
            "election": null,
            "id": 116,
            "name": "Whitby"
          }
        ],
        "pollDivisionIds": [
          10136126
        ],
        "postalCode": "L1M0H8",
        "streetName": "BLOOMSBURY",
        "streetDirectionId": null,
        "streetTypeId": "ST",
        "placeName": "WHITBY",
        "streetNameDisplayText": "BLOOMSBURY ST, WHITBY"
      },
      {
        "electoralDistricts": [
          {
            "election": null,
            "id": 116,
            "name": "Whitby"
          }
        ],
        "pollDivisionIds": [
          10136126
        ],
        "postalCode": "L1M0H8",
        "streetName": "NORTHCASTLE",
        "streetDirectionId": null,
        "streetTypeId": "CRES",
        "placeName": "WHITBY",
        "streetNameDisplayText": "NORTHCASTLE CRES, WHITBY"
      }
    ]
  },
  {
    "postal": "L1M7Z4",
    "result": []
  },
  {
    "postal": "L1M7B1",
    "result": []
  },
  {
    "postal": "L1M7P8",
    "result": []
  },
  {
    "postal": "L1M7N0",
    "result": []
  },
  {
    "postal": "L1M3Y5",
    "result": []
  },
  {
    "postal": "L1M6K1",
    "result": []
  },
  {
    "postal": "L1M9X5",
    "result": []
  },
  {
    "postal": "L1M7S5",
    "result": []
  },
  {
    "postal": "L1M0A4",
    "result": [
      {
        "electoralDistricts": [
          {
            "election": null,
            "id": 116,
            "name": "Whitby"
          }
        ],
        "pollDivisionIds": [
          10136126
        ],
        "postalCode": "L1M0A4",
        "streetName": "BAYERN",
        "streetDirectionId": null,
        "streetTypeId": "DR",
        "placeName": "WHITBY",
        "streetNameDisplayText": "BAYERN DR, WHITBY"
      },
      {
        "electoralDistricts": [
          {
            "election": null,
            "id": 116,
            "name": "Whitby"
          }
        ],
        "pollDivisionIds": [
          10136126
        ],
        "postalCode": "L1M0A4",
        "streetName": "CARNWITH",
        "streetDirectionId": "W",
        "streetTypeId": "DR",
        "placeName": "WHITBY",
        "streetNameDisplayText": "CARNWITH DR W, WHITBY"
      },
      {
        "electoralDistricts": [
          {
            "election": null,
            "id": 116,
            "name": "Whitby"
          }
        ],
        "pollDivisionIds": [
          10136126
        ],
        "postalCode": "L1M0A4",
        "streetName": "JORDAN",
        "streetDirectionId": null,
        "streetTypeId": "CRT",
        "placeName": "WHITBY",
        "streetNameDisplayText": "JORDAN CRT, WHITBY"
      }
    ]
  },
  {
    "postal": "L1M4T5",
    "result": []
  },
  {
    "postal": "L1M5K1",
    "result": []
  },
  {
    "postal": "L1M0Z9",
    "result": []
  },
  {
    "postal": "L1M7T2",
    "result": []
  },
  {
    "postal": "L1M1L5",
    "result": [
      {
        "electoralDistricts": [
          {
            "election": null,
            "id": 116,
            "name": "Whitby"
          }
        ],
        "pollDivisionIds": [
          10136126
        ],
        "postalCode": "L1M1L5",
        "streetName": "ASHBURN",
        "streetDirectionId": null,
        "streetTypeId": "RD",
        "placeName": "WHITBY",
        "streetNameDisplayText": "ASHBURN RD, WHITBY"
      }
    ]
  },
  {
    "postal": "L1M3N5",
    "result": []
  },
  {
    "postal": "L1M6H4",
    "result": []
  },
  {
    "postal": "L1M5A5",
    "result": []
  },
  {
    "postal": "L1M3R9",
    "result": []
  },
  {
    "postal": "L1M7L8",
    "result": []
  },
  {
    "postal": "L1M6T6",
    "result": []
  },
  {
    "postal": "L1M7Y7",
    "result": []
  },
  {
    "postal": "L1M3M8",
    "result": []
  },
  {
    "postal": "L1M2E0",
    "result": []
  },
  {
    "postal": "L1M4B5",
    "result": []
  },
  {
    "postal": "L1M1J3",
    "result": [
      {
        "electoralDistricts": [
          {
            "election": null,
            "id": 116,
            "name": "Whitby"
          }
        ],
        "pollDivisionIds": [
          10136128
        ],
        "postalCode": "L1M1J3",
        "streetName": "DOWNEY",
        "streetDirectionId": null,
        "streetTypeId": "DR",
        "placeName": "WHITBY",
        "streetNameDisplayText": "DOWNEY DR, WHITBY"
      },
      {
        "electoralDistricts": [
          {
            "election": null,
            "id": 116,
            "name": "Whitby"
          }
        ],
        "pollDivisionIds": [
          10136129
        ],
        "postalCode": "L1M1J3",
        "streetName": "DOWNEY DRIVE",
        "streetDirectionId": null,
        "streetTypeId": "DR",
        "placeName": "WHITBY",
        "streetNameDisplayText": "DOWNEY DRIVE DR, WHITBY"
      },
      {
        "electoralDistricts": [
          {
            "election": null,
            "id": 116,
            "name": "Whitby"
          }
        ],
        "pollDivisionIds": [
          10136128
        ],
        "postalCode": "L1M1J3",
        "streetName": "NATHAN",
        "streetDirectionId": null,
        "streetTypeId": "AVE",
        "placeName": "WHITBY",
        "streetNameDisplayText": "NATHAN AVE, WHITBY"
      }
    ]
  },
  {
    "postal": "L1M5S6",
    "result": []
  },
  {
    "postal": "L1M8P7",
    "result": []
  },
  {
    "postal": "L1M7S7",
    "result": []
  },
  {
    "postal": "L1M4C2",
    "result": []
  },
  {
    "postal": "L1M5Y0",
    "result": []
  },
  {
    "postal": "L1M2V7",
    "result": []
  },
  {
    "postal": "L1M8P5",
    "result": []
  },
  {
    "postal": "L1M5P5",
    "result": []
  },
  {
    "postal": "L1M5Z0",
    "result": []
  },
  {
    "postal": "L1M9B0",
    "result": []
  },
  {
    "postal": "L1M1L0",
    "result": []
  },
  {
    "postal": "L1M0B5",
    "result": []
  },
  {
    "postal": "L1M3L2",
    "result": []
  },
  {
    "postal": "L1M3B7",
    "result": []
  },
  {
    "postal": "L1M8L1",
    "result": []
  },
  {
    "postal": "L1M5M4",
    "result": []
  },
  {
    "postal": "L1M4G9",
    "result": []
  },
  {
    "postal": "L1M0P0",
    "result": []
  },
  {
    "postal": "L1M8G2",
    "result": []
  },
  {
    "postal": "L1M1V9",
    "result": [
      {
        "electoralDistricts": [
          {
            "election": null,
            "id": 116,
            "name": "Whitby"
          }
        ],
        "pollDivisionIds": [
          10136129
        ],
        "postalCode": "L1M1V9",
        "streetName": "WINCHESTER",
        "streetDirectionId": "W",
        "streetTypeId": "RD",
        "placeName": "WHITBY",
        "streetNameDisplayText": "WINCHESTER RD W, WHITBY"
      }
    ]
  },
  {
    "postal": "L1M8N8",
    "result": []
  },
  {
    "postal": "L1M6S8",
    "result": []
  },
  {
    "postal": "L1M8H2",
    "result": []
  },
  {
    "postal": "L1M5R8",
    "result": []
  },
  {
    "postal": "L1M5L4",
    "result": []
  },
  {
    "postal": "L1M9E1",
    "result": []
  },
  {
    "postal": "L1M1C4",
    "result": [
      {
        "electoralDistricts": [
          {
            "election": null,
            "id": 116,
            "name": "Whitby"
          }
        ],
        "pollDivisionIds": [
          10111216,
          10136128
        ],
        "postalCode": "L1M1C4",
        "streetName": "QUEEN",
        "streetDirectionId": null,
        "streetTypeId": "ST",
        "placeName": "WHITBY",
        "streetNameDisplayText": "QUEEN ST, WHITBY"
      }
    ]
  },
  {
    "postal": "L1M8W5",
    "result": []
  },
  {
    "postal": "L1M1Y4",
    "result": [
      {
        "electoralDistricts": [
          {
            "election": null,
            "id": 116,
            "name": "Whitby"
          }
        ],
        "pollDivisionIds": [
          10136127
        ],
        "postalCode": "L1M1Y4",
        "streetName": "BALDWIN",
        "streetDirectionId": "N",
        "streetTypeId": "ST",
        "placeName": "WHITBY",
        "streetNameDisplayText": "BALDWIN ST N, WHITBY"
      }
    ]
  },
  {
    "postal": "L1M1C0",
    "result": []
  },
  {
    "postal": "L1M2J2",
    "result": [
      {
        "electoralDistricts": [
          {
            "election": null,
            "id": 116,
            "name": "Whitby"
          }
        ],
        "pollDivisionIds": [
          10136126
        ],
        "postalCode": "L1M2J2",
        "streetName": "CORIANNE",
        "streetDirectionId": null,
        "streetTypeId": "AVE",
        "placeName": "WHITBY",
        "streetNameDisplayText": "CORIANNE AVE, WHITBY"
      },
      {
        "electoralDistricts": [
          {
            "election": null,
            "id": 116,
            "name": "Whitby"
          }
        ],
        "pollDivisionIds": [
          10136126
        ],
        "postalCode": "L1M2J2",
        "streetName": "JOSHUA",
        "streetDirectionId": null,
        "streetTypeId": "BLVD",
        "placeName": "WHITBY",
        "streetNameDisplayText": "JOSHUA BLVD, WHITBY"
      }
    ]
  },
  {
    "postal": "L1M2J0",
    "result": []
  },
  {
    "postal": "L1M7A3",
    "result": []
  },
  {
    "postal": "L1M8M1",
    "result": []
  },
  {
    "postal": "L1M7T9",
    "result": []
  },
  {
    "postal": "L1M6C0",
    "result": []
  },
  {
    "postal": "L1M7X1",
    "result": []
  },
  {
    "postal": "L1M0G1",
    "result": [
      {
        "electoralDistricts": [
          {
            "election": null,
            "id": 116,
            "name": "Whitby"
          }
        ],
        "pollDivisionIds": [
          10111216
        ],
        "postalCode": "L1M0G1",
        "streetName": "DELIGHT",
        "streetDirectionId": null,
        "streetTypeId": "WAY",
        "placeName": "WHITBY",
        "streetNameDisplayText": "DELIGHT WAY, WHITBY"
      },
      {
        "electoralDistricts": [
          {
            "election": null,
            "id": 116,
            "name": "Whitby"
          }
        ],
        "pollDivisionIds": [
          10111216
        ],
        "postalCode": "L1M0G1",
        "streetName": "TEMPO",
        "streetDirectionId": null,
        "streetTypeId": "WAY",
        "placeName": "WHITBY",
        "streetNameDisplayText": "TEMPO WAY, WHITBY"
      }
    ]
  },
  {
    "postal": "L1M4X2",
    "result": []
  },
  {
    "postal": "L1M0N6",
    "result": []
  },
  {
    "postal": "L1M8E3",
    "result": []
  },
  {
    "postal": "L1M5S8",
    "result": []
  },
  {
    "postal": "L1M0R0",
    "result": []
  },
  {
    "postal": "L1M6J6",
    "result": []
  },
  {
    "postal": "L1M4B4",
    "result": []
  },
  {
    "postal": "L1M7E3",
    "result": []
  },
  {
    "postal": "L1M3N6",
    "result": []
  },
  {
    "postal": "L1M3X6",
    "result": []
  },
  {
    "postal": "L1M8L0",
    "result": []
  },
  {
    "postal": "L1M8N1",
    "result": []
  },
  {
    "postal": "L1M4J0",
    "result": []
  },
  {
    "postal": "L1M0X7",
    "result": []
  },
  {
    "postal": "L1M6S4",
    "result": []
  },
  {
    "postal": "L1M0Z0",
    "result": []
  },
  {
    "postal": "L1M9X8",
    "result": []
  },
  {
    "postal": "L1M3H3",
    "result": []
  },
  {
    "postal": "L1M7S2",
    "result": []
  },
  {
    "postal": "L1M3T3",
    "result": []
  },
  {
    "postal": "L1M9P3",
    "result": []
  },
  {
    "postal": "L1M4H8",
    "result": []
  },
  {
    "postal": "L1M6R1",
    "result": []
  },
  {
    "postal": "L1M1S0",
    "result": []
  },
  {
    "postal": "L1M3W8",
    "result": []
  },
  {
    "postal": "L1M4S3",
    "result": []
  },
  {
    "postal": "L1M1B6",
    "result": []
  },
  {
    "postal": "L1M8R3",
    "result": []
  },
  {
    "postal": "L1M4V9",
    "result": []
  },
  {
    "postal": "L1M9W4",
    "result": []
  },
  {
    "postal": "L1M3T4",
    "result": []
  },
  {
    "postal": "L1M5C7",
    "result": []
  },
  {
    "postal": "L1M3Y1",
    "result": []
  },
  {
    "postal": "L1M5V0",
    "result": []
  },
  {
    "postal": "L1M8G8",
    "result": []
  },
  {
    "postal": "L1M8B1",
    "result": []
  },
  {
    "postal": "L1M4P5",
    "result": []
  },
  {
    "postal": "L1M7B2",
    "result": []
  },
  {
    "postal": "L1M0R2",
    "result": []
  },
  {
    "postal": "L1M4M4",
    "result": []
  },
  {
    "postal": "L1M7M4",
    "result": []
  },
  {
    "postal": "L1M9S7",
    "result": []
  },
  {
    "postal": "L1M5Z7",
    "result": []
  },
  {
    "postal": "L1M7J7",
    "result": []
  },
  {
    "postal": "L1M8R8",
    "result": []
  },
  {
    "postal": "L1M9X1",
    "result": []
  },
  {
    "postal": "L1M5M9",
    "result": []
  },
  {
    "postal": "L1M9B4",
    "result": []
  },
  {
    "postal": "L1M0L9",
    "result": []
  },
  {
    "postal": "L1M9G4",
    "result": []
  },
  {
    "postal": "L1M1J4",
    "result": [
      {
        "electoralDistricts": [
          {
            "election": null,
            "id": 116,
            "name": "Whitby"
          }
        ],
        "pollDivisionIds": [
          10136128
        ],
        "postalCode": "L1M1J4",
        "streetName": "ASTER",
        "streetDirectionId": null,
        "streetTypeId": "CRES",
        "placeName": "WHITBY",
        "streetNameDisplayText": "ASTER CRES, WHITBY"
      },
      {
        "electoralDistricts": [
          {
            "election": null,
            "id": 116,
            "name": "Whitby"
          }
        ],
        "pollDivisionIds": [
          10136128
        ],
        "postalCode": "L1M1J4",
        "streetName": "DOWNEY",
        "streetDirectionId": null,
        "streetTypeId": "DR",
        "placeName": "WHITBY",
        "streetNameDisplayText": "DOWNEY DR, WHITBY"
      }
    ]
  },
  {
    "postal": "L1M0W6",
    "result": []
  },
  {
    "postal": "L1M4C5",
    "result": []
  },
  {
    "postal": "L1M7E4",
    "result": []
  },
  {
    "postal": "L1M1R9",
    "result": [
      {
        "electoralDistricts": [
          {
            "election": null,
            "id": 116,
            "name": "Whitby"
          }
        ],
        "pollDivisionIds": [
          10136126
        ],
        "postalCode": "L1M1R9",
        "streetName": "HALLS",
        "streetDirectionId": "N",
        "streetTypeId": "RD",
        "placeName": "WHITBY",
        "streetNameDisplayText": "HALLS RD N, WHITBY"
      }
    ]
  },
  {
    "postal": "L1M2P0",
    "result": []
  },
  {
    "postal": "L1M5S4",
    "result": []
  },
  {
    "postal": "L1M5K8",
    "result": []
  },
  {
    "postal": "L1M8K4",
    "result": []
  },
  {
    "postal": "L1M7C1",
    "result": []
  },
  {
    "postal": "L1M7K9",
    "result": []
  },
  {
    "postal": "L1M5J1",
    "result": []
  },
  {
    "postal": "L1M4P9",
    "result": []
  },
  {
    "postal": "L1M0N2",
    "result": []
  },
  {
    "postal": "L1M2G6",
    "result": [
      {
        "electoralDistricts": [
          {
            "election": null,
            "id": 116,
            "name": "Whitby"
          }
        ],
        "pollDivisionIds": [
          10136126
        ],
        "postalCode": "L1M2G6",
        "streetName": "AULT",
        "streetDirectionId": null,
        "streetTypeId": "CRES",
        "placeName": "WHITBY",
        "streetNameDisplayText": "AULT CRES, WHITBY"
      },
      {
        "electoralDistricts": [
          {
            "election": null,
            "id": 116,
            "name": "Whitby"
          }
        ],
        "pollDivisionIds": [
          10136126
        ],
        "postalCode": "L1M2G6",
        "streetName": "DARIUS HARNS",
        "streetDirectionId": null,
        "streetTypeId": "DR",
        "placeName": "WHITBY",
        "streetNameDisplayText": "DARIUS HARNS DR, WHITBY"
      }
    ]
  },
  {
    "postal": "L1M6P4",
    "result": []
  },
  {
    "postal": "L1M3J0",
    "result": []
  },
  {
    "postal": "L1M8X4",
    "result": []
  },
  {
    "postal": "L1M1Y3",
    "result": [
      {
        "electoralDistricts": [
          {
            "election": null,
            "id": 116,
            "name": "Whitby"
          }
        ],
        "pollDivisionIds": [
          10136127
        ],
        "postalCode": "L1M1Y3",
        "streetName": "BALDWIN",
        "streetDirectionId": "N",
        "streetTypeId": "ST",
        "placeName": "WHITBY",
        "streetNameDisplayText": "BALDWIN ST N, WHITBY"
      }
    ]
  },
  {
    "postal": "L1M1A8",
    "result": [
      {
        "electoralDistricts": [
          {
            "election": null,
            "id": 116,
            "name": "Whitby"
          }
        ],
        "pollDivisionIds": [
          10111216,
          10136128
        ],
        "postalCode": "L1M1A8",
        "streetName": "HEBER DOWN",
        "streetDirectionId": null,
        "streetTypeId": "CRES",
        "placeName": "WHITBY",
        "streetNameDisplayText": "HEBER DOWN CRES, WHITBY"
      },
      {
        "electoralDistricts": [
          {
            "election": null,
            "id": 116,
            "name": "Whitby"
          }
        ],
        "pollDivisionIds": [
          10111216
        ],
        "postalCode": "L1M1A8",
        "streetName": "HEBERDOWN",
        "streetDirectionId": null,
        "streetTypeId": "CRES",
        "placeName": "WHITBY",
        "streetNameDisplayText": "HEBERDOWN CRES, WHITBY"
      },
      {
        "electoralDistricts": [
          {
            "election": null,
            "id": 116,
            "name": "Whitby"
          }
        ],
        "pollDivisionIds": [
          10111216
        ],
        "postalCode": "L1M1A8",
        "streetName": "JAMES",
        "streetDirectionId": null,
        "streetTypeId": "ST",
        "placeName": "WHITBY",
        "streetNameDisplayText": "JAMES ST, WHITBY"
      },
      {
        "electoralDistricts": [
          {
            "election": null,
            "id": 116,
            "name": "Whitby"
          }
        ],
        "pollDivisionIds": [
          10111216
        ],
        "postalCode": "L1M1A8",
        "streetName": "KINSMEN",
        "streetDirectionId": null,
        "streetTypeId": "CRT",
        "placeName": "WHITBY",
        "streetNameDisplayText": "KINSMEN CRT, WHITBY"
      }
    ]
  },
  {
    "postal": "L1M6Y5",
    "result": []
  },
  {
    "postal": "L1M0J6",
    "result": []
  },
  {
    "postal": "L1M2C9",
    "result": [
      {
        "electoralDistricts": [
          {
            "election": null,
            "id": 116,
            "name": "Whitby"
          }
        ],
        "pollDivisionIds": [
          10136128
        ],
        "postalCode": "L1M2C9",
        "streetName": "BLACKFRIAR",
        "streetDirectionId": null,
        "streetTypeId": "AVE",
        "placeName": "WHITBY",
        "streetNameDisplayText": "BLACKFRIAR AVE, WHITBY"
      },
      {
        "electoralDistricts": [
          {
            "election": null,
            "id": 116,
            "name": "Whitby"
          }
        ],
        "pollDivisionIds": [
          10136128
        ],
        "postalCode": "L1M2C9",
        "streetName": "CACHET",
        "streetDirectionId": null,
        "streetTypeId": "BLVD",
        "placeName": "WHITBY",
        "streetNameDisplayText": "CACHET BLVD, WHITBY"
      },
      {
        "electoralDistricts": [
          {
            "election": null,
            "id": 116,
            "name": "Whitby"
          }
        ],
        "pollDivisionIds": [
          10136128
        ],
        "postalCode": "L1M2C9",
        "streetName": "PENHURST",
        "streetDirectionId": null,
        "streetTypeId": "DR",
        "placeName": "WHITBY",
        "streetNameDisplayText": "PENHURST DR, WHITBY"
      },
      {
        "electoralDistricts": [
          {
            "election": null,
            "id": 116,
            "name": "Whitby"
          }
        ],
        "pollDivisionIds": [
          10136128
        ],
        "postalCode": "L1M2C9",
        "streetName": "WILSHIRE",
        "streetDirectionId": null,
        "streetTypeId": "DR",
        "placeName": "WHITBY",
        "streetNameDisplayText": "WILSHIRE DR, WHITBY"
      }
    ]
  },
  {
    "postal": "L1M8J6",
    "result": []
  },
  {
    "postal": "L1M8T4",
    "result": []
  },
  {
    "postal": "L1M1P7",
    "result": [
      {
        "electoralDistricts": [
          {
            "election": null,
            "id": 116,
            "name": "Whitby"
          }
        ],
        "pollDivisionIds": [
          10136126
        ],
        "postalCode": "L1M1P7",
        "streetName": "COLUMBUS",
        "streetDirectionId": "W",
        "streetTypeId": "RD",
        "placeName": "WHITBY",
        "streetNameDisplayText": "COLUMBUS RD W, WHITBY"
      }
    ]
  },
  {
    "postal": "L1M9V9",
    "result": []
  },
  {
    "postal": "L1M0M1",
    "result": []
  },
  {
    "postal": "L1M6K5",
    "result": []
  },
  {
    "postal": "L1M2T5",
    "result": []
  },
  {
    "postal": "L1M7E9",
    "result": []
  },
  {
    "postal": "L1M5K5",
    "result": []
  },
  {
    "postal": "L1M3R5",
    "result": []
  },
  {
    "postal": "L1M5B1",
    "result": []
  },
  {
    "postal": "L1M2P1",
    "result": [
      {
        "electoralDistricts": [
          {
            "election": null,
            "id": 116,
            "name": "Whitby"
          }
        ],
        "pollDivisionIds": [
          10111216
        ],
        "postalCode": "L1M2P1",
        "streetName": "TEARDROP",
        "streetDirectionId": null,
        "streetTypeId": "CRES",
        "placeName": "WHITBY",
        "streetNameDisplayText": "TEARDROP CRES, WHITBY"
      },
      {
        "electoralDistricts": [
          {
            "election": null,
            "id": 116,
            "name": "Whitby"
          }
        ],
        "pollDivisionIds": [
          10111216
        ],
        "postalCode": "L1M2P1",
        "streetName": "VANGUARD",
        "streetDirectionId": null,
        "streetTypeId": "DR",
        "placeName": "WHITBY",
        "streetNameDisplayText": "VANGUARD DR, WHITBY"
      }
    ]
  },
  {
    "postal": "L1M7L0",
    "result": []
  },
  {
    "postal": "L1M3L6",
    "result": []
  },
  {
    "postal": "L1M2A4",
    "result": [
      {
        "electoralDistricts": [
          {
            "election": null,
            "id": 116,
            "name": "Whitby"
          }
        ],
        "pollDivisionIds": [
          10136127
        ],
        "postalCode": "L1M2A4",
        "streetName": "HAMERS",
        "streetDirectionId": null,
        "streetTypeId": "RD",
        "placeName": "WHITBY",
        "streetNameDisplayText": "HAMERS RD, WHITBY"
      }
    ]
  },
  {
    "postal": "L1M8S0",
    "result": []
  },
  {
    "postal": "L1M3L5",
    "result": []
  },
  {
    "postal": "L1M2R5",
    "result": []
  },
  {
    "postal": "L1M9T6",
    "result": []
  },
  {
    "postal": "L1M8Z2",
    "result": []
  },
  {
    "postal": "L1M0E9",
    "result": [
      {
        "electoralDistricts": [
          {
            "election": null,
            "id": 116,
            "name": "Whitby"
          }
        ],
        "pollDivisionIds": [
          10111216
        ],
        "postalCode": "L1M0E9",
        "streetName": "DELIGHT",
        "streetDirectionId": null,
        "streetTypeId": "WAY",
        "placeName": "WHITBY",
        "streetNameDisplayText": "DELIGHT WAY, WHITBY"
      },
      {
        "electoralDistricts": [
          {
            "election": null,
            "id": 116,
            "name": "Whitby"
          }
        ],
        "pollDivisionIds": [
          10111216
        ],
        "postalCode": "L1M0E9",
        "streetName": "RAMONA",
        "streetDirectionId": null,
        "streetTypeId": "WAY",
        "placeName": "WHITBY",
        "streetNameDisplayText": "RAMONA WAY, WHITBY"
      },
      {
        "electoralDistricts": [
          {
            "election": null,
            "id": 116,
            "name": "Whitby"
          }
        ],
        "pollDivisionIds": [
          10111216
        ],
        "postalCode": "L1M0E9",
        "streetName": "ROMONA",
        "streetDirectionId": null,
        "streetTypeId": "WAY",
        "placeName": "WHITBY",
        "streetNameDisplayText": "ROMONA WAY, WHITBY"
      },
      {
        "electoralDistricts": [
          {
            "election": null,
            "id": 116,
            "name": "Whitby"
          }
        ],
        "pollDivisionIds": [
          10111216
        ],
        "postalCode": "L1M0E9",
        "streetName": "TEMPO",
        "streetDirectionId": null,
        "streetTypeId": "WAY",
        "placeName": "WHITBY",
        "streetNameDisplayText": "TEMPO WAY, WHITBY"
      }
    ]
  },
  {
    "postal": "L1M8C0",
    "result": []
  },
  {
    "postal": "L1M3K7",
    "result": []
  },
  {
    "postal": "L1M2H3",
    "result": [
      {
        "electoralDistricts": [
          {
            "election": null,
            "id": 116,
            "name": "Whitby"
          }
        ],
        "pollDivisionIds": [
          10136128
        ],
        "postalCode": "L1M2H3",
        "streetName": "BEAUMARIS",
        "streetDirectionId": null,
        "streetTypeId": "CRES",
        "placeName": "WHITBY",
        "streetNameDisplayText": "BEAUMARIS CRES, WHITBY"
      }
    ]
  },
  {
    "postal": "L1M2Y6",
    "result": []
  },
  {
    "postal": "L1M7M2",
    "result": []
  },
  {
    "postal": "L1M6E2",
    "result": []
  },
  {
    "postal": "L1M3R0",
    "result": []
  },
  {
    "postal": "L1M4J7",
    "result": []
  },
  {
    "postal": "L1M6N8",
    "result": []
  },
  {
    "postal": "L1M0J7",
    "result": [
      {
        "electoralDistricts": [
          {
            "election": null,
            "id": 116,
            "name": "Whitby"
          }
        ],
        "pollDivisionIds": [
          10111216
        ],
        "postalCode": "L1M0J7",
        "streetName": "HARVEY JOHNSTON",
        "streetDirectionId": null,
        "streetTypeId": "WAY",
        "placeName": "WHITBY",
        "streetNameDisplayText": "HARVEY JOHNSTON WAY, WHITBY"
      },
      {
        "electoralDistricts": [
          {
            "election": null,
            "id": 116,
            "name": "Whitby"
          }
        ],
        "pollDivisionIds": [
          10111216
        ],
        "postalCode": "L1M0J7",
        "streetName": "HEBER DOWN",
        "streetDirectionId": null,
        "streetTypeId": "CRES",
        "placeName": "WHITBY",
        "streetNameDisplayText": "HEBER DOWN CRES, WHITBY"
      }
    ]
  },
  {
    "postal": "L1M7P2",
    "result": []
  },
  {
    "postal": "L1M3T8",
    "result": []
  },
  {
    "postal": "L1M3S7",
    "result": []
  },
  {
    "postal": "L1M2S7",
    "result": []
  },
  {
    "postal": "L1M1S4",
    "result": [
      {
        "electoralDistricts": [
          {
            "election": null,
            "id": 116,
            "name": "Whitby"
          }
        ],
        "pollDivisionIds": [
          10136129
        ],
        "postalCode": "L1M1S4",
        "streetName": "HALLS",
        "streetDirectionId": "N",
        "streetTypeId": "RD",
        "placeName": "WHITBY",
        "streetNameDisplayText": "HALLS RD N, WHITBY"
      }
    ]
  },
  {
    "postal": "L1M1L8",
    "result": [
      {
        "electoralDistricts": [
          {
            "election": null,
            "id": 116,
            "name": "Whitby"
          }
        ],
        "pollDivisionIds": [
          10136127
        ],
        "postalCode": "L1M1L8",
        "streetName": "CEDARBROOK",
        "streetDirectionId": null,
        "streetTypeId": "TRAIL",
        "placeName": "WHITBY",
        "streetNameDisplayText": "CEDARBROOK TRAIL, WHITBY"
      }
    ]
  },
  {
    "postal": "L1M8E9",
    "result": []
  },
  {
    "postal": "L1M0T0",
    "result": []
  },
  {
    "postal": "L1M3G4",
    "result": []
  },
  {
    "postal": "L1M0V6",
    "result": []
  },
  {
    "postal": "L1M4W1",
    "result": []
  },
  {
    "postal": "L1M9G9",
    "result": []
  },
  {
    "postal": "L1M5W4",
    "result": []
  },
  {
    "postal": "L1M7M8",
    "result": []
  },
  {
    "postal": "L1M2C2",
    "result": [
      {
        "electoralDistricts": [
          {
            "election": null,
            "id": 116,
            "name": "Whitby"
          }
        ],
        "pollDivisionIds": [
          10136128
        ],
        "postalCode": "L1M2C2",
        "streetName": "WESSEX",
        "streetDirectionId": null,
        "streetTypeId": "DR",
        "placeName": "WHITBY",
        "streetNameDisplayText": "WESSEX DR, WHITBY"
      }
    ]
  },
  {
    "postal": "L1M4Y2",
    "result": []
  },
  {
    "postal": "L1M9X9",
    "result": []
  },
  {
    "postal": "L1M3T0",
    "result": []
  },
  {
    "postal": "L1M4T8",
    "result": []
  },
  {
    "postal": "L1M9C4",
    "result": []
  },
  {
    "postal": "L1M8P2",
    "result": []
  },
  {
    "postal": "L1M0Y8",
    "result": []
  },
  {
    "postal": "L1M1G8",
    "result": [
      {
        "electoralDistricts": [
          {
            "election": null,
            "id": 116,
            "name": "Whitby"
          }
        ],
        "pollDivisionIds": [
          10136129
        ],
        "postalCode": "L1M1G8",
        "streetName": "SHEPHERD",
        "streetDirectionId": null,
        "streetTypeId": "RD",
        "placeName": "WHITBY",
        "streetNameDisplayText": "SHEPHERD RD, WHITBY"
      },
      {
        "electoralDistricts": [
          {
            "election": null,
            "id": 116,
            "name": "Whitby"
          }
        ],
        "pollDivisionIds": [
          10136129
        ],
        "postalCode": "L1M1G8",
        "streetName": "STEVENS",
        "streetDirectionId": null,
        "streetTypeId": "RD",
        "placeName": "WHITBY",
        "streetNameDisplayText": "STEVENS RD, WHITBY"
      },
      {
        "electoralDistricts": [
          {
            "election": null,
            "id": 116,
            "name": "Whitby"
          }
        ],
        "pollDivisionIds": [
          10136129
        ],
        "postalCode": "L1M1G8",
        "streetName": "WARD",
        "streetDirectionId": null,
        "streetTypeId": "ST",
        "placeName": "WHITBY",
        "streetNameDisplayText": "WARD ST, WHITBY"
      }
    ]
  },
  {
    "postal": "L1M2T6",
    "result": []
  },
  {
    "postal": "L1M1N7",
    "result": [
      {
        "electoralDistricts": [
          {
            "election": null,
            "id": 116,
            "name": "Whitby"
          }
        ],
        "pollDivisionIds": [
          10136126
        ],
        "postalCode": "L1M1N7",
        "streetName": "COUNTRY",
        "streetDirectionId": null,
        "streetTypeId": "LANE",
        "placeName": "WHITBY",
        "streetNameDisplayText": "COUNTRY LANE, WHITBY"
      }
    ]
  },
  {
    "postal": "L1M0L6",
    "result": []
  },
  {
    "postal": "L1M9V4",
    "result": []
  },
  {
    "postal": "L1M2V1",
    "result": []
  },
  {
    "postal": "L1M3L8",
    "result": []
  },
  {
    "postal": "L1M2R8",
    "result": []
  },
  {
    "postal": "L1M5C1",
    "result": []
  },
  {
    "postal": "L1M4W3",
    "result": []
  },
  {
    "postal": "L1M5X5",
    "result": []
  },
  {
    "postal": "L1M9W5",
    "result": []
  },
  {
    "postal": "L1M3C4",
    "result": []
  },
  {
    "postal": "L1M1N6",
    "result": [
      {
        "electoralDistricts": [
          {
            "election": null,
            "id": 116,
            "name": "Whitby"
          }
        ],
        "pollDivisionIds": [
          10136126
        ],
        "postalCode": "L1M1N6",
        "streetName": "COUNTRY",
        "streetDirectionId": null,
        "streetTypeId": "LANE",
        "placeName": "WHITBY",
        "streetNameDisplayText": "COUNTRY LANE, WHITBY"
      }
    ]
  },
  {
    "postal": "L1M9S9",
    "result": []
  },
  {
    "postal": "L1M9M2",
    "result": []
  },
  {
    "postal": "L1M8Y4",
    "result": []
  },
  {
    "postal": "L1M7S4",
    "result": []
  },
  {
    "postal": "L1M0K6",
    "result": []
  },
  {
    "postal": "L1M1W3",
    "result": [
      {
        "electoralDistricts": [
          {
            "election": null,
            "id": 116,
            "name": "Whitby"
          }
        ],
        "pollDivisionIds": [
          10111216
        ],
        "postalCode": "L1M1W3",
        "streetName": "ANDERSON",
        "streetDirectionId": null,
        "streetTypeId": "ST",
        "placeName": "WHITBY",
        "streetNameDisplayText": "ANDERSON ST, WHITBY"
      }
    ]
  },
  {
    "postal": "L1M7R2",
    "result": []
  },
  {
    "postal": "L1M2Y9",
    "result": []
  },
  {
    "postal": "L1M7G4",
    "result": []
  },
  {
    "postal": "L1M7E5",
    "result": []
  },
  {
    "postal": "L1M9G2",
    "result": []
  },
  {
    "postal": "L1M7Y8",
    "result": []
  },
  {
    "postal": "L1M9V2",
    "result": []
  },
  {
    "postal": "L1M3T7",
    "result": []
  },
  {
    "postal": "L1M1H0",
    "result": []
  },
  {
    "postal": "L1M1M7",
    "result": [
      {
        "electoralDistricts": [
          {
            "election": null,
            "id": 116,
            "name": "Whitby"
          }
        ],
        "pollDivisionIds": [
          10136126
        ],
        "postalCode": "L1M1M7",
        "streetName": "BRAWLEY",
        "streetDirectionId": "W",
        "streetTypeId": "RD",
        "placeName": "WHITBY",
        "streetNameDisplayText": "BRAWLEY RD W, WHITBY"
      }
    ]
  },
  {
    "postal": "L1M8V4",
    "result": []
  },
  {
    "postal": "L1M4M2",
    "result": []
  },
  {
    "postal": "L1M0X2",
    "result": []
  },
  {
    "postal": "L1M5Z4",
    "result": []
  },
  {
    "postal": "L1M6V4",
    "result": []
  },
  {
    "postal": "L1M8J3",
    "result": []
  },
  {
    "postal": "L1M8E5",
    "result": []
  },
  {
    "postal": "L1M2V5",
    "result": []
  },
  {
    "postal": "L1M7S1",
    "result": []
  },
  {
    "postal": "L1M6V3",
    "result": []
  },
  {
    "postal": "L1M2L8",
    "result": [
      {
        "electoralDistricts": [
          {
            "election": null,
            "id": 116,
            "name": "Whitby"
          }
        ],
        "pollDivisionIds": [
          10136128
        ],
        "postalCode": "L1M2L8",
        "streetName": "DUNSTABLE",
        "streetDirectionId": null,
        "streetTypeId": "DR",
        "placeName": "WHITBY",
        "streetNameDisplayText": "DUNSTABLE DR, WHITBY"
      }
    ]
  },
  {
    "postal": "L1M9V0",
    "result": []
  },
  {
    "postal": "L1M3M4",
    "result": []
  },
  {
    "postal": "L1M5B2",
    "result": []
  },
  {
    "postal": "L1M3X5",
    "result": []
  },
  {
    "postal": "L1M9R7",
    "result": []
  },
  {
    "postal": "L1M2X2",
    "result": []
  },
  {
    "postal": "L1M8Z6",
    "result": []
  },
  {
    "postal": "L1M4R4",
    "result": []
  },
  {
    "postal": "L1M2R1",
    "result": []
  },
  {
    "postal": "L1M3R8",
    "result": []
  },
  {
    "postal": "L1M9A1",
    "result": []
  },
  {
    "postal": "L1M8L3",
    "result": []
  },
  {
    "postal": "L1M9K4",
    "result": []
  },
  {
    "postal": "L1M9S3",
    "result": []
  },
  {
    "postal": "L1M8N7",
    "result": []
  },
  {
    "postal": "L1M1C6",
    "result": [
      {
        "electoralDistricts": [
          {
            "election": null,
            "id": 116,
            "name": "Whitby"
          }
        ],
        "pollDivisionIds": [
          10136128,
          10111216
        ],
        "postalCode": "L1M1C6",
        "streetName": "CASSELS",
        "streetDirectionId": "E",
        "streetTypeId": "RD",
        "placeName": "WHITBY",
        "streetNameDisplayText": "CASSELS RD E, WHITBY"
      },
      {
        "electoralDistricts": [
          {
            "election": null,
            "id": 116,
            "name": "Whitby"
          }
        ],
        "pollDivisionIds": [
          10111216,
          10136130
        ],
        "postalCode": "L1M1C6",
        "streetName": "DUKE",
        "streetDirectionId": null,
        "streetTypeId": "ST",
        "placeName": "WHITBY",
        "streetNameDisplayText": "DUKE ST, WHITBY"
      },
      {
        "electoralDistricts": [
          {
            "election": null,
            "id": 116,
            "name": "Whitby"
          }
        ],
        "pollDivisionIds": [
          10136130,
          10111216
        ],
        "postalCode": "L1M1C6",
        "streetName": "WINCHESTER",
        "streetDirectionId": "E",
        "streetTypeId": "RD",
        "placeName": "WHITBY",
        "streetNameDisplayText": "WINCHESTER RD E, WHITBY"
      }
    ]
  },
  {
    "postal": "L1M3Z8",
    "result": []
  },
  {
    "postal": "L1M8G5",
    "result": []
  },
  {
    "postal": "L1M5R6",
    "result": []
  },
  {
    "postal": "L1M2W3",
    "result": []
  },
  {
    "postal": "L1M0A0",
    "result": []
  },
  {
    "postal": "L1M6P8",
    "result": []
  },
  {
    "postal": "L1M8N9",
    "result": []
  },
  {
    "postal": "L1M0S9",
    "result": []
  },
  {
    "postal": "L1M8G0",
    "result": []
  },
  {
    "postal": "L1M8C7",
    "result": []
  },
  {
    "postal": "L1M5X8",
    "result": []
  },
  {
    "postal": "L1M7E8",
    "result": []
  },
  {
    "postal": "L1M6X2",
    "result": []
  },
  {
    "postal": "L1M4C6",
    "result": []
  },
  {
    "postal": "L1M7H2",
    "result": []
  },
  {
    "postal": "L1M4R0",
    "result": []
  },
  {
    "postal": "L1M6J3",
    "result": []
  },
  {
    "postal": "L1M4B8",
    "result": []
  },
  {
    "postal": "L1M6H6",
    "result": []
  },
  {
    "postal": "L1M0S1",
    "result": []
  },
  {
    "postal": "L1M4E3",
    "result": []
  },
  {
    "postal": "L1M7K2",
    "result": []
  },
  {
    "postal": "L1M7T8",
    "result": []
  },
  {
    "postal": "L1M0J9",
    "result": [
      {
        "electoralDistricts": [
          {
            "election": null,
            "id": 116,
            "name": "Whitby"
          }
        ],
        "pollDivisionIds": [
          10136127
        ],
        "postalCode": "L1M0J9",
        "streetName": "VALLANCE",
        "streetDirectionId": null,
        "streetTypeId": "WAY",
        "placeName": "WHITBY",
        "streetNameDisplayText": "VALLANCE WAY, WHITBY"
      }
    ]
  },
  {
    "postal": "L1M5J9",
    "result": []
  },
  {
    "postal": "L1M5S7",
    "result": []
  },
  {
    "postal": "L1M0G9",
    "result": [
      {
        "electoralDistricts": [
          {
            "election": null,
            "id": 116,
            "name": "Whitby"
          }
        ],
        "pollDivisionIds": [
          10136127
        ],
        "postalCode": "L1M0G9",
        "streetName": "JARROW",
        "streetDirectionId": null,
        "streetTypeId": "CRES",
        "placeName": "WHITBY",
        "streetNameDisplayText": "JARROW CRES, WHITBY"
      },
      {
        "electoralDistricts": [
          {
            "election": null,
            "id": 116,
            "name": "Whitby"
          }
        ],
        "pollDivisionIds": [
          10136127
        ],
        "postalCode": "L1M0G9",
        "streetName": "WYCOMBE",
        "streetDirectionId": null,
        "streetTypeId": "ST",
        "placeName": "WHITBY",
        "streetNameDisplayText": "WYCOMBE ST, WHITBY"
      }
    ]
  },
  {
    "postal": "L1M3J9",
    "result": []
  },
  {
    "postal": "L1M2Y0",
    "result": []
  },
  {
    "postal": "L1M8X5",
    "result": []
  },
  {
    "postal": "L1M2M7",
    "result": [
      {
        "electoralDistricts": [
          {
            "election": null,
            "id": 116,
            "name": "Whitby"
          }
        ],
        "pollDivisionIds": [
          10136128
        ],
        "postalCode": "L1M2M7",
        "streetName": "KENILWORTH",
        "streetDirectionId": null,
        "streetTypeId": "CRES",
        "placeName": "WHITBY",
        "streetNameDisplayText": "KENILWORTH CRES, WHITBY"
      },
      {
        "electoralDistricts": [
          {
            "election": null,
            "id": 116,
            "name": "Whitby"
          }
        ],
        "pollDivisionIds": [
          10136128
        ],
        "postalCode": "L1M2M7",
        "streetName": "WILSHIRE",
        "streetDirectionId": null,
        "streetTypeId": "DR",
        "placeName": "WHITBY",
        "streetNameDisplayText": "WILSHIRE DR, WHITBY"
      }
    ]
  },
  {
    "postal": "L1M9Z3",
    "result": []
  },
  {
    "postal": "L1M7W2",
    "result": []
  },
  {
    "postal": "L1M3W0",
    "result": []
  },
  {
    "postal": "L1M3M1",
    "result": []
  },
  {
    "postal": "L1M6A5",
    "result": []
  },
  {
    "postal": "L1M2M9",
    "result": [
      {
        "electoralDistricts": [
          {
            "election": null,
            "id": 116,
            "name": "Whitby"
          }
        ],
        "pollDivisionIds": [
          10136128
        ],
        "postalCode": "L1M2M9",
        "streetName": "NORTHGROVE",
        "streetDirectionId": null,
        "streetTypeId": "CRES",
        "placeName": "WHITBY",
        "streetNameDisplayText": "NORTHGROVE CRES, WHITBY"
      }
    ]
  },
  {
    "postal": "L1M5C3",
    "result": []
  },
  {
    "postal": "L1M0Y6",
    "result": []
  },
  {
    "postal": "L1M9H7",
    "result": []
  },
  {
    "postal": "L1M3L0",
    "result": []
  },
  {
    "postal": "L1M5N9",
    "result": []
  },
  {
    "postal": "L1M5E3",
    "result": []
  },
  {
    "postal": "L1M7M9",
    "result": []
  },
  {
    "postal": "L1M8N2",
    "result": []
  },
  {
    "postal": "L1M9H3",
    "result": []
  },
  {
    "postal": "L1M2K8",
    "result": [
      {
        "electoralDistricts": [
          {
            "election": null,
            "id": 116,
            "name": "Whitby"
          }
        ],
        "pollDivisionIds": [
          10136128
        ],
        "postalCode": "L1M2K8",
        "streetName": "CARNWITH",
        "streetDirectionId": "E",
        "streetTypeId": "DR",
        "placeName": "WHITBY",
        "streetNameDisplayText": "CARNWITH DR E, WHITBY"
      },
      {
        "electoralDistricts": [
          {
            "election": null,
            "id": 116,
            "name": "Whitby"
          }
        ],
        "pollDivisionIds": [
          10136128
        ],
        "postalCode": "L1M2K8",
        "streetName": "CROXALL",
        "streetDirectionId": null,
        "streetTypeId": "BLVD",
        "placeName": "WHITBY",
        "streetNameDisplayText": "CROXALL BLVD, WHITBY"
      }
    ]
  },
  {
    "postal": "L1M9L0",
    "result": []
  },
  {
    "postal": "L1M6L9",
    "result": []
  },
  {
    "postal": "L1M6A8",
    "result": []
  },
  {
    "postal": "L1M2K6",
    "result": [
      {
        "electoralDistricts": [
          {
            "election": null,
            "id": 116,
            "name": "Whitby"
          }
        ],
        "pollDivisionIds": [
          10136129,
          10136128
        ],
        "postalCode": "L1M2K6",
        "streetName": "CORSHAM",
        "streetDirectionId": null,
        "streetTypeId": "DR",
        "placeName": "WHITBY",
        "streetNameDisplayText": "CORSHAM DR, WHITBY"
      },
      {
        "electoralDistricts": [
          {
            "election": null,
            "id": 116,
            "name": "Whitby"
          }
        ],
        "pollDivisionIds": [
          10136128
        ],
        "postalCode": "L1M2K6",
        "streetName": "COVINGTON",
        "streetDirectionId": null,
        "streetTypeId": "DR",
        "placeName": "WHITBY",
        "streetNameDisplayText": "COVINGTON DR, WHITBY"
      }
    ]
  },
  {
    "postal": "L1M2M0",
    "result": []
  },
  {
    "postal": "L1M5X7",
    "result": []
  },
  {
    "postal": "L1M0M7",
    "result": []
  },
  {
    "postal": "L1M7A6",
    "result": []
  },
  {
    "postal": "L1M3C5",
    "result": []
  },
  {
    "postal": "L1M2P2",
    "result": [
      {
        "electoralDistricts": [
          {
            "election": null,
            "id": 116,
            "name": "Whitby"
          }
        ],
        "pollDivisionIds": [
          10111216
        ],
        "postalCode": "L1M2P2",
        "streetName": "VIPOND",
        "streetDirectionId": null,
        "streetTypeId": "RD",
        "placeName": "WHITBY",
        "streetNameDisplayText": "VIPOND RD, WHITBY"
      }
    ]
  },
  {
    "postal": "L1M9N4",
    "result": []
  },
  {
    "postal": "L1M3M9",
    "result": []
  },
  {
    "postal": "L1M8K6",
    "result": []
  },
  {
    "postal": "L1M1L2",
    "result": [
      {
        "electoralDistricts": [
          {
            "election": null,
            "id": 116,
            "name": "Whitby"
          }
        ],
        "pollDivisionIds": [
          10136127
        ],
        "postalCode": "L1M1L2",
        "streetName": "COLUMBUS",
        "streetDirectionId": "E",
        "streetTypeId": "RD",
        "placeName": "WHITBY",
        "streetNameDisplayText": "COLUMBUS RD E, WHITBY"
      },
      {
        "electoralDistricts": [
          {
            "election": null,
            "id": 116,
            "name": "Whitby"
          }
        ],
        "pollDivisionIds": [
          10136127
        ],
        "postalCode": "L1M1L2",
        "streetName": "COLUMBUS",
        "streetDirectionId": "W",
        "streetTypeId": "RD",
        "placeName": "WHITBY",
        "streetNameDisplayText": "COLUMBUS RD W, WHITBY"
      }
    ]
  },
  {
    "postal": "L1M2Z9",
    "result": []
  },
  {
    "postal": "L1M2S2",
    "result": []
  },
  {
    "postal": "L1M2W2",
    "result": []
  },
  {
    "postal": "L1M2C3",
    "result": [
      {
        "electoralDistricts": [
          {
            "election": null,
            "id": 116,
            "name": "Whitby"
          }
        ],
        "pollDivisionIds": [
          10136128
        ],
        "postalCode": "L1M2C3",
        "streetName": "WESSEX",
        "streetDirectionId": null,
        "streetTypeId": "DR",
        "placeName": "WHITBY",
        "streetNameDisplayText": "WESSEX DR, WHITBY"
      }
    ]
  },
  {
    "postal": "L1M6L7",
    "result": []
  },
  {
    "postal": "L1M3K0",
    "result": []
  },
  {
    "postal": "L1M3C1",
    "result": []
  },
  {
    "postal": "L1M6M9",
    "result": []
  },
  {
    "postal": "L1M4N9",
    "result": []
  },
  {
    "postal": "L1M3Y7",
    "result": []
  },
  {
    "postal": "L1M2A9",
    "result": [
      {
        "electoralDistricts": [
          {
            "election": null,
            "id": 116,
            "name": "Whitby"
          }
        ],
        "pollDivisionIds": [
          10136127
        ],
        "postalCode": "L1M2A9",
        "streetName": "THICKSON",
        "streetDirectionId": "N",
        "streetTypeId": "RD",
        "placeName": "WHITBY",
        "streetNameDisplayText": "THICKSON RD N, WHITBY"
      }
    ]
  },
  {
    "postal": "L1M6H5",
    "result": []
  },
  {
    "postal": "L1M8B4",
    "result": []
  },
  {
    "postal": "L1M4Z2",
    "result": []
  },
  {
    "postal": "L1M9J0",
    "result": []
  },
  {
    "postal": "L1M7V7",
    "result": []
  },
  {
    "postal": "L1M5T5",
    "result": []
  },
  {
    "postal": "L1M4W5",
    "result": []
  },
  {
    "postal": "L1M1T8",
    "result": [
      {
        "electoralDistricts": [
          {
            "election": null,
            "id": 116,
            "name": "Whitby"
          }
        ],
        "pollDivisionIds": [
          10111216
        ],
        "postalCode": "L1M1T8",
        "streetName": "ROBMAR",
        "streetDirectionId": null,
        "streetTypeId": "ST",
        "placeName": "WHITBY",
        "streetNameDisplayText": "ROBMAR ST, WHITBY"
      }
    ]
  },
  {
    "postal": "L1M9G6",
    "result": []
  },
  {
    "postal": "L1M1H3",
    "result": [
      {
        "electoralDistricts": [
          {
            "election": null,
            "id": 116,
            "name": "Whitby"
          }
        ],
        "pollDivisionIds": [
          10136128
        ],
        "postalCode": "L1M1H3",
        "streetName": "MATTHEWSON",
        "streetDirectionId": null,
        "streetTypeId": "PL",
        "placeName": "WHITBY",
        "streetNameDisplayText": "MATTHEWSON PL, WHITBY"
      }
    ]
  },
  {
    "postal": "L1M5R5",
    "result": []
  },
  {
    "postal": "L1M8A4",
    "result": []
  },
  {
    "postal": "L1M3T6",
    "result": []
  },
  {
    "postal": "L1M9W8",
    "result": []
  },
  {
    "postal": "L1M0N3",
    "result": []
  },
  {
    "postal": "L1M7V0",
    "result": []
  },
  {
    "postal": "L1M8T5",
    "result": []
  },
  {
    "postal": "L1M5N3",
    "result": []
  },
  {
    "postal": "L1M5G9",
    "result": []
  },
  {
    "postal": "L1M3X8",
    "result": []
  },
  {
    "postal": "L1M9R3",
    "result": []
  },
  {
    "postal": "L1M2S1",
    "result": []
  },
  {
    "postal": "L1M9J7",
    "result": []
  },
  {
    "postal": "L1M2J3",
    "result": [
      {
        "electoralDistricts": [
          {
            "election": null,
            "id": 116,
            "name": "Whitby"
          }
        ],
        "pollDivisionIds": [
          10136126
        ],
        "postalCode": "L1M2J3",
        "streetName": "BIANCA",
        "streetDirectionId": null,
        "streetTypeId": "DR",
        "placeName": "WHITBY",
        "streetNameDisplayText": "BIANCA DR, WHITBY"
      },
      {
        "electoralDistricts": [
          {
            "election": null,
            "id": 116,
            "name": "Whitby"
          }
        ],
        "pollDivisionIds": [
          10136126
        ],
        "postalCode": "L1M2J3",
        "streetName": "JOSHUA",
        "streetDirectionId": null,
        "streetTypeId": "BLVD",
        "placeName": "WHITBY",
        "streetNameDisplayText": "JOSHUA BLVD, WHITBY"
      }
    ]
  },
  {
    "postal": "L1M3B6",
    "result": []
  },
  {
    "postal": "L1M8J0",
    "result": []
  },
  {
    "postal": "L1M7R4",
    "result": []
  },
  {
    "postal": "L1M8K8",
    "result": []
  },
  {
    "postal": "L1M4P3",
    "result": []
  },
  {
    "postal": "L1M0A2",
    "result": [
      {
        "electoralDistricts": [
          {
            "election": null,
            "id": 116,
            "name": "Whitby"
          }
        ],
        "pollDivisionIds": [
          10136126
        ],
        "postalCode": "L1M0A2",
        "streetName": "BAYERN",
        "streetDirectionId": null,
        "streetTypeId": "DR",
        "placeName": "WHITBY",
        "streetNameDisplayText": "BAYERN DR, WHITBY"
      },
      {
        "electoralDistricts": [
          {
            "election": null,
            "id": 116,
            "name": "Whitby"
          }
        ],
        "pollDivisionIds": [
          10136126
        ],
        "postalCode": "L1M0A2",
        "streetName": "FARMINGDALE",
        "streetDirectionId": null,
        "streetTypeId": "ST",
        "placeName": "WHITBY",
        "streetNameDisplayText": "FARMINGDALE ST, WHITBY"
      },
      {
        "electoralDistricts": [
          {
            "election": null,
            "id": 116,
            "name": "Whitby"
          }
        ],
        "pollDivisionIds": [
          10136126
        ],
        "postalCode": "L1M0A2",
        "streetName": "MIDHURST",
        "streetDirectionId": null,
        "streetTypeId": "DR",
        "placeName": "WHITBY",
        "streetNameDisplayText": "MIDHURST DR, WHITBY"
      }
    ]
  },
  {
    "postal": "L1M2G2",
    "result": [
      {
        "electoralDistricts": [
          {
            "election": null,
            "id": 116,
            "name": "Whitby"
          }
        ],
        "pollDivisionIds": [
          10136126
        ],
        "postalCode": "L1M2G2",
        "streetName": "DARIUS HARNS",
        "streetDirectionId": null,
        "streetTypeId": "DR",
        "placeName": "WHITBY",
        "streetNameDisplayText": "DARIUS HARNS DR, WHITBY"
      },
      {
        "electoralDistricts": [
          {
            "election": null,
            "id": 116,
            "name": "Whitby"
          }
        ],
        "pollDivisionIds": [
          10136126
        ],
        "postalCode": "L1M2G2",
        "streetName": "TUNNEY",
        "streetDirectionId": null,
        "streetTypeId": "PL",
        "placeName": "WHITBY",
        "streetNameDisplayText": "TUNNEY PL, WHITBY"
      }
    ]
  },
  {
    "postal": "L1M5Y9",
    "result": []
  },
  {
    "postal": "L1M7X0",
    "result": []
  },
  {
    "postal": "L1M7W3",
    "result": []
  },
  {
    "postal": "L1M7X5",
    "result": []
  },
  {
    "postal": "L1M5K6",
    "result": []
  },
  {
    "postal": "L1M5B6",
    "result": []
  },
  {
    "postal": "L1M7Z0",
    "result": []
  },
  {
    "postal": "L1M9H6",
    "result": []
  },
  {
    "postal": "L1M1B4",
    "result": [
      {
        "electoralDistricts": [
          {
            "election": null,
            "id": 116,
            "name": "Whitby"
          }
        ],
        "pollDivisionIds": [
          10136128,
          10111216,
          10136130
        ],
        "postalCode": "L1M1B4",
        "streetName": "WINCHESTER",
        "streetDirectionId": "E",
        "streetTypeId": "RD",
        "placeName": "WHITBY",
        "streetNameDisplayText": "WINCHESTER RD E, WHITBY"
      }
    ]
  },
  {
    "postal": "L1M1A0",
    "result": []
  },
  {
    "postal": "L1M9A0",
    "result": []
  },
  {
    "postal": "L1M1M6",
    "result": [
      {
        "electoralDistricts": [
          {
            "election": null,
            "id": 116,
            "name": "Whitby"
          }
        ],
        "pollDivisionIds": [
          10136126
        ],
        "postalCode": "L1M1M6",
        "streetName": "BRAWLEY",
        "streetDirectionId": "W",
        "streetTypeId": "RD",
        "placeName": "WHITBY",
        "streetNameDisplayText": "BRAWLEY RD W, WHITBY"
      }
    ]
  },
  {
    "postal": "L1M5H0",
    "result": []
  },
  {
    "postal": "L1M1K6",
    "result": [
      {
        "electoralDistricts": [
          {
            "election": null,
            "id": 116,
            "name": "Whitby"
          }
        ],
        "pollDivisionIds": [
          10111216
        ],
        "postalCode": "L1M1K6",
        "streetName": "BROOKVALLEY",
        "streetDirectionId": null,
        "streetTypeId": "AVE",
        "placeName": "WHITBY",
        "streetNameDisplayText": "BROOKVALLEY AVE, WHITBY"
      },
      {
        "electoralDistricts": [
          {
            "election": null,
            "id": 116,
            "name": "Whitby"
          }
        ],
        "pollDivisionIds": [
          10111216
        ],
        "postalCode": "L1M1K6",
        "streetName": "MELODY",
        "streetDirectionId": null,
        "streetTypeId": "DR",
        "placeName": "WHITBY",
        "streetNameDisplayText": "MELODY DR, WHITBY"
      }
    ]
  },
  {
    "postal": "L1M5E1",
    "result": []
  },
  {
    "postal": "L1M3T9",
    "result": []
  },
  {
    "postal": "L1M2M6",
    "result": [
      {
        "electoralDistricts": [
          {
            "election": null,
            "id": 116,
            "name": "Whitby"
          }
        ],
        "pollDivisionIds": [
          10136128
        ],
        "postalCode": "L1M2M6",
        "streetName": "KENILWORTH",
        "streetDirectionId": null,
        "streetTypeId": "CRES",
        "placeName": "WHITBY",
        "streetNameDisplayText": "KENILWORTH CRES, WHITBY"
      }
    ]
  },
  {
    "postal": "L1M0G5",
    "result": [
      {
        "electoralDistricts": [
          {
            "election": null,
            "id": 116,
            "name": "Whitby"
          }
        ],
        "pollDivisionIds": [
          10136126
        ],
        "postalCode": "L1M0G5",
        "streetName": "BELLHOUSE",
        "streetDirectionId": null,
        "streetTypeId": "PL",
        "placeName": "WHITBY",
        "streetNameDisplayText": "BELLHOUSE PL, WHITBY"
      }
    ]
  },
  {
    "postal": "L1M0Y2",
    "result": []
  },
  {
    "postal": "L1M2Y7",
    "result": []
  },
  {
    "postal": "L1M2J7",
    "result": [
      {
        "electoralDistricts": [
          {
            "election": null,
            "id": 116,
            "name": "Whitby"
          }
        ],
        "pollDivisionIds": [
          10111216
        ],
        "postalCode": "L1M2J7",
        "streetName": "BALDWIN",
        "streetDirectionId": "S",
        "streetTypeId": "ST",
        "placeName": "WHITBY",
        "streetNameDisplayText": "BALDWIN ST S, WHITBY"
      },
      {
        "electoralDistricts": [
          {
            "election": null,
            "id": 116,
            "name": "Whitby"
          }
        ],
        "pollDivisionIds": [
          10111216
        ],
        "postalCode": "L1M2J7",
        "streetName": "WINCHESTER",
        "streetDirectionId": "E",
        "streetTypeId": "RD",
        "placeName": "WHITBY",
        "streetNameDisplayText": "WINCHESTER RD E, WHITBY"
      }
    ]
  },
  {
    "postal": "L1M4K7",
    "result": []
  },
  {
    "postal": "L1M7P9",
    "result": []
  },
  {
    "postal": "L1M8X0",
    "result": []
  },
  {
    "postal": "L1M3X1",
    "result": []
  },
  {
    "postal": "L1M1R5",
    "result": [
      {
        "electoralDistricts": [
          {
            "election": null,
            "id": 116,
            "name": "Whitby"
          }
        ],
        "pollDivisionIds": [
          10136126
        ],
        "postalCode": "L1M1R5",
        "streetName": "CORONATION",
        "streetDirectionId": null,
        "streetTypeId": "RD",
        "placeName": "WHITBY",
        "streetNameDisplayText": "CORONATION RD, WHITBY"
      }
    ]
  },
  {
    "postal": "L1M6X6",
    "result": []
  },
  {
    "postal": "L1M0Y1",
    "result": []
  },
  {
    "postal": "L1M8G1",
    "result": []
  },
  {
    "postal": "L1M3J3",
    "result": []
  },
  {
    "postal": "L1M8C2",
    "result": []
  },
  {
    "postal": "L1M4X9",
    "result": []
  },
  {
    "postal": "L1M6G9",
    "result": []
  },
  {
    "postal": "L1M4M3",
    "result": []
  },
  {
    "postal": "L1M9P7",
    "result": []
  },
  {
    "postal": "L1M4E5",
    "result": []
  },
  {
    "postal": "L1M5K9",
    "result": []
  },
  {
    "postal": "L1M2V2",
    "result": []
  },
  {
    "postal": "L1M2N9",
    "result": [
      {
        "electoralDistricts": [
          {
            "election": null,
            "id": 116,
            "name": "Whitby"
          }
        ],
        "pollDivisionIds": [
          10111216
        ],
        "postalCode": "L1M2N9",
        "streetName": "TEARDROP",
        "streetDirectionId": null,
        "streetTypeId": "CRES",
        "placeName": "WHITBY",
        "streetNameDisplayText": "TEARDROP CRES, WHITBY"
      },
      {
        "electoralDistricts": [
          {
            "election": null,
            "id": 116,
            "name": "Whitby"
          }
        ],
        "pollDivisionIds": [
          10111216
        ],
        "postalCode": "L1M2N9",
        "streetName": "VANGUARD",
        "streetDirectionId": null,
        "streetTypeId": "DR",
        "placeName": "WHITBY",
        "streetNameDisplayText": "VANGUARD DR, WHITBY"
      }
    ]
  },
  {
    "postal": "L1M6L4",
    "result": []
  },
  {
    "postal": "L1M8E0",
    "result": []
  },
  {
    "postal": "L1M0N0",
    "result": []
  },
  {
    "postal": "L1M6R0",
    "result": []
  },
  {
    "postal": "L1M9C1",
    "result": []
  },
  {
    "postal": "L1M4H4",
    "result": []
  },
  {
    "postal": "L1M5W3",
    "result": []
  },
  {
    "postal": "L1M9N9",
    "result": []
  },
  {
    "postal": "L1M1V7",
    "result": [
      {
        "electoralDistricts": [
          {
            "election": null,
            "id": 116,
            "name": "Whitby"
          }
        ],
        "pollDivisionIds": [
          10136129
        ],
        "postalCode": "L1M1V7",
        "streetName": "WINCHESTER",
        "streetDirectionId": "W",
        "streetTypeId": "RD",
        "placeName": "WHITBY",
        "streetNameDisplayText": "WINCHESTER RD W, WHITBY"
      }
    ]
  },
  {
    "postal": "L1M8J1",
    "result": []
  },
  {
    "postal": "L1M5V9",
    "result": []
  },
  {
    "postal": "L1M2S8",
    "result": []
  },
  {
    "postal": "L1M6P0",
    "result": []
  },
  {
    "postal": "L1M4J8",
    "result": []
  },
  {
    "postal": "L1M0N1",
    "result": []
  },
  {
    "postal": "L1M1Y7",
    "result": [
      {
        "electoralDistricts": [
          {
            "election": null,
            "id": 116,
            "name": "Whitby"
          }
        ],
        "pollDivisionIds": [
          10136127
        ],
        "postalCode": "L1M1Y7",
        "streetName": "BALDWIN",
        "streetDirectionId": "N",
        "streetTypeId": "ST",
        "placeName": "WHITBY",
        "streetNameDisplayText": "BALDWIN ST N, WHITBY"
      }
    ]
  },
  {
    "postal": "L1M7W5",
    "result": []
  },
  {
    "postal": "L1M3Z1",
    "result": []
  },
  {
    "postal": "L1M7M6",
    "result": []
  },
  {
    "postal": "L1M1W7",
    "result": [
      {
        "electoralDistricts": [
          {
            "election": null,
            "id": 116,
            "name": "Whitby"
          }
        ],
        "pollDivisionIds": [
          10136130
        ],
        "postalCode": "L1M1W7",
        "streetName": "GARRARD",
        "streetDirectionId": null,
        "streetTypeId": "RD",
        "placeName": "WHITBY",
        "streetNameDisplayText": "GARRARD RD, WHITBY"
      }
    ]
  },
  {
    "postal": "L1M1X1",
    "result": [
      {
        "electoralDistricts": [
          {
            "election": null,
            "id": 116,
            "name": "Whitby"
          }
        ],
        "pollDivisionIds": [
          10136130
        ],
        "postalCode": "L1M1X1",
        "streetName": "THICKSON",
        "streetDirectionId": "N",
        "streetTypeId": "RD",
        "placeName": "WHITBY",
        "streetNameDisplayText": "THICKSON RD N, WHITBY"
      }
    ]
  },
  {
    "postal": "L1M0C1",
    "result": [
      {
        "electoralDistricts": [
          {
            "election": null,
            "id": 116,
            "name": "Whitby"
          }
        ],
        "pollDivisionIds": [
          10136126
        ],
        "postalCode": "L1M0C1",
        "streetName": "STRANDMORE",
        "streetDirectionId": null,
        "streetTypeId": "CIR",
        "placeName": "WHITBY",
        "streetNameDisplayText": "STRANDMORE CIR, WHITBY"
      }
    ]
  },
  {
    "postal": "L1M4N3",
    "result": []
  },
  {
    "postal": "L1M4S8",
    "result": []
  },
  {
    "postal": "L1M1H6",
    "result": [
      {
        "electoralDistricts": [
          {
            "election": null,
            "id": 116,
            "name": "Whitby"
          }
        ],
        "pollDivisionIds": [
          10136130
        ],
        "postalCode": "L1M1H6",
        "streetName": "IBERVILLE",
        "streetDirectionId": null,
        "streetTypeId": "RD",
        "placeName": "WHITBY",
        "streetNameDisplayText": "IBERVILLE RD, WHITBY"
      },
      {
        "electoralDistricts": [
          {
            "election": null,
            "id": 116,
            "name": "Whitby"
          }
        ],
        "pollDivisionIds": [
          10136130
        ],
        "postalCode": "L1M1H6",
        "streetName": "UNDERWOOD",
        "streetDirectionId": null,
        "streetTypeId": "DR",
        "placeName": "WHITBY",
        "streetNameDisplayText": "UNDERWOOD DR, WHITBY"
      }
    ]
  },
  {
    "postal": "L1M2Z4",
    "result": []
  },
  {
    "postal": "L1M7K3",
    "result": []
  },
  {
    "postal": "L1M8A2",
    "result": []
  },
  {
    "postal": "L1M6J1",
    "result": []
  },
  {
    "postal": "L1M5Z6",
    "result": []
  },
  {
    "postal": "L1M3Z0",
    "result": []
  },
  {
    "postal": "L1M8M0",
    "result": []
  },
  {
    "postal": "L1M1Z6",
    "result": [
      {
        "electoralDistricts": [
          {
            "election": null,
            "id": 116,
            "name": "Whitby"
          }
        ],
        "pollDivisionIds": [
          10136127,
          10136128
        ],
        "postalCode": "L1M1Z6",
        "streetName": "COLUMBUS",
        "streetDirectionId": "E",
        "streetTypeId": "RD",
        "placeName": "WHITBY",
        "streetNameDisplayText": "COLUMBUS RD E, WHITBY"
      }
    ]
  },
  {
    "postal": "L1M8K7",
    "result": []
  },
  {
    "postal": "L1M1N3",
    "result": [
      {
        "electoralDistricts": [
          {
            "election": null,
            "id": 116,
            "name": "Whitby"
          }
        ],
        "pollDivisionIds": [
          10136126
        ],
        "postalCode": "L1M1N3",
        "streetName": "COUNTRY",
        "streetDirectionId": null,
        "streetTypeId": "LANE",
        "placeName": "WHITBY",
        "streetNameDisplayText": "COUNTRY LANE, WHITBY"
      }
    ]
  },
  {
    "postal": "L1M9S2",
    "result": []
  },
  {
    "postal": "L1M2K1",
    "result": [
      {
        "electoralDistricts": [
          {
            "election": null,
            "id": 116,
            "name": "Whitby"
          }
        ],
        "pollDivisionIds": [
          10136128
        ],
        "postalCode": "L1M2K1",
        "streetName": "IPSWICH",
        "streetDirectionId": null,
        "streetTypeId": "PL",
        "placeName": "WHITBY",
        "streetNameDisplayText": "IPSWICH PL, WHITBY"
      }
    ]
  },
  {
    "postal": "L1M1E8",
    "result": [
      {
        "electoralDistricts": [
          {
            "election": null,
            "id": 116,
            "name": "Whitby"
          }
        ],
        "pollDivisionIds": [
          10136128
        ],
        "postalCode": "L1M1E8",
        "streetName": "MCBETH",
        "streetDirectionId": null,
        "streetTypeId": "PL",
        "placeName": "WHITBY",
        "streetNameDisplayText": "MCBETH PL, WHITBY"
      },
      {
        "electoralDistricts": [
          {
            "election": null,
            "id": 116,
            "name": "Whitby"
          }
        ],
        "pollDivisionIds": [
          10136128
        ],
        "postalCode": "L1M1E8",
        "streetName": "WATFORD",
        "streetDirectionId": null,
        "streetTypeId": "ST",
        "placeName": "WHITBY",
        "streetNameDisplayText": "WATFORD ST, WHITBY"
      }
    ]
  },
  {
    "postal": "L1M9B8",
    "result": []
  },
  {
    "postal": "L1M7X4",
    "result": []
  },
  {
    "postal": "L1M1Z4",
    "result": [
      {
        "electoralDistricts": [
          {
            "election": null,
            "id": 116,
            "name": "Whitby"
          }
        ],
        "pollDivisionIds": [
          10136127
        ],
        "postalCode": "L1M1Z4",
        "streetName": "COLUMBUS",
        "streetDirectionId": "E",
        "streetTypeId": "RD",
        "placeName": "WHITBY",
        "streetNameDisplayText": "COLUMBUS RD E, WHITBY"
      }
    ]
  },
  {
    "postal": "L1M2C7",
    "result": [
      {
        "electoralDistricts": [
          {
            "election": null,
            "id": 116,
            "name": "Whitby"
          }
        ],
        "pollDivisionIds": [
          10136128
        ],
        "postalCode": "L1M2C7",
        "streetName": "BEXLEY",
        "streetDirectionId": null,
        "streetTypeId": "CRES",
        "placeName": "WHITBY",
        "streetNameDisplayText": "BEXLEY CRES, WHITBY"
      }
    ]
  },
  {
    "postal": "L1M2E7",
    "result": [
      {
        "electoralDistricts": [
          {
            "election": null,
            "id": 116,
            "name": "Whitby"
          }
        ],
        "pollDivisionIds": [
          10136127
        ],
        "postalCode": "L1M2E7",
        "streetName": "APSLEY",
        "streetDirectionId": null,
        "streetTypeId": "CRES",
        "placeName": "WHITBY",
        "streetNameDisplayText": "APSLEY CRES, WHITBY"
      },
      {
        "electoralDistricts": [
          {
            "election": null,
            "id": 116,
            "name": "Whitby"
          }
        ],
        "pollDivisionIds": [
          10136127
        ],
        "postalCode": "L1M2E7",
        "streetName": "CORRIDALE",
        "streetDirectionId": null,
        "streetTypeId": "AVE",
        "placeName": "WHITBY",
        "streetNameDisplayText": "CORRIDALE AVE, WHITBY"
      }
    ]
  },
  {
    "postal": "L1M3R1",
    "result": []
  },
  {
    "postal": "L1M4K4",
    "result": []
  },
  {
    "postal": "L1M9G3",
    "result": []
  },
  {
    "postal": "L1M6C9",
    "result": []
  },
  {
    "postal": "L1M9H5",
    "result": []
  },
  {
    "postal": "L1M1P5",
    "result": [
      {
        "electoralDistricts": [
          {
            "election": null,
            "id": 116,
            "name": "Whitby"
          }
        ],
        "pollDivisionIds": [
          10136126
        ],
        "postalCode": "L1M1P5",
        "streetName": "COLUMBUS",
        "streetDirectionId": "W",
        "streetTypeId": "RD",
        "placeName": "WHITBY",
        "streetNameDisplayText": "COLUMBUS RD W, WHITBY"
      }
    ]
  },
  {
    "postal": "L1M2J5",
    "result": [
      {
        "electoralDistricts": [
          {
            "election": null,
            "id": 116,
            "name": "Whitby"
          }
        ],
        "pollDivisionIds": [
          10136127,
          10136128
        ],
        "postalCode": "L1M2J5",
        "streetName": "CARNWITH",
        "streetDirectionId": "E",
        "streetTypeId": "DR",
        "placeName": "WHITBY",
        "streetNameDisplayText": "CARNWITH DR E, WHITBY"
      }
    ]
  },
  {
    "postal": "L1M4W6",
    "result": []
  },
  {
    "postal": "L1M8M8",
    "result": []
  },
  {
    "postal": "L1M6C5",
    "result": []
  },
  {
    "postal": "L1M9H0",
    "result": []
  },
  {
    "postal": "L1M1X8",
    "result": [
      {
        "electoralDistricts": [
          {
            "election": null,
            "id": 116,
            "name": "Whitby"
          }
        ],
        "pollDivisionIds": [
          10111216
        ],
        "postalCode": "L1M1X8",
        "streetName": "BALDWIN",
        "streetDirectionId": "N",
        "streetTypeId": "ST",
        "placeName": "WHITBY",
        "streetNameDisplayText": "BALDWIN ST N, WHITBY"
      }
    ]
  },
  {
    "postal": "L1M3H4",
    "result": []
  },
  {
    "postal": "L1M4E7",
    "result": []
  },
  {
    "postal": "L1M8A0",
    "result": []
  },
  {
    "postal": "L1M1Z7",
    "result": [
      {
        "electoralDistricts": [
          {
            "election": null,
            "id": 116,
            "name": "Whitby"
          }
        ],
        "pollDivisionIds": [
          10136127
        ],
        "postalCode": "L1M1Z7",
        "streetName": "DUFFS",
        "streetDirectionId": null,
        "streetTypeId": "RD",
        "placeName": "WHITBY",
        "streetNameDisplayText": "DUFFS RD, WHITBY"
      }
    ]
  },
  {
    "postal": "L1M7Z3",
    "result": []
  },
  {
    "postal": "L1M0L7",
    "result": [
      {
        "electoralDistricts": [
          {
            "election": null,
            "id": 116,
            "name": "Whitby"
          }
        ],
        "pollDivisionIds": [
          10136128
        ],
        "postalCode": "L1M0L7",
        "streetName": "LONETTO",
        "streetDirectionId": null,
        "streetTypeId": "ST",
        "placeName": "WHITBY",
        "streetNameDisplayText": "LONETTO ST, WHITBY"
      },
      {
        "electoralDistricts": [
          {
            "election": null,
            "id": 116,
            "name": "Whitby"
          }
        ],
        "pollDivisionIds": [
          10136128,
          10136130
        ],
        "postalCode": "L1M0L7",
        "streetName": "ST AUGUSTINE",
        "streetDirectionId": null,
        "streetTypeId": "DR",
        "placeName": "WHITBY",
        "streetNameDisplayText": "ST AUGUSTINE DR, WHITBY"
      }
    ]
  },
  {
    "postal": "L1M2C6",
    "result": [
      {
        "electoralDistricts": [
          {
            "election": null,
            "id": 116,
            "name": "Whitby"
          }
        ],
        "pollDivisionIds": [
          10136128
        ],
        "postalCode": "L1M2C6",
        "streetName": "BEXLEY",
        "streetDirectionId": null,
        "streetTypeId": "CRES",
        "placeName": "WHITBY",
        "streetNameDisplayText": "BEXLEY CRES, WHITBY"
      }
    ]
  },
  {
    "postal": "L1M6M3",
    "result": []
  },
  {
    "postal": "L1M2J1",
    "result": [
      {
        "electoralDistricts": [
          {
            "election": null,
            "id": 116,
            "name": "Whitby"
          }
        ],
        "pollDivisionIds": [
          10136126
        ],
        "postalCode": "L1M2J1",
        "streetName": "FABRIZIO",
        "streetDirectionId": null,
        "streetTypeId": "CRT",
        "placeName": "WHITBY",
        "streetNameDisplayText": "FABRIZIO CRT, WHITBY"
      },
      {
        "electoralDistricts": [
          {
            "election": null,
            "id": 116,
            "name": "Whitby"
          }
        ],
        "pollDivisionIds": [
          10136126
        ],
        "postalCode": "L1M2J1",
        "streetName": "JOSHUA",
        "streetDirectionId": null,
        "streetTypeId": "BLVD",
        "placeName": "WHITBY",
        "streetNameDisplayText": "JOSHUA BLVD, WHITBY"
      },
      {
        "electoralDistricts": [
          {
            "election": null,
            "id": 116,
            "name": "Whitby"
          }
        ],
        "pollDivisionIds": [
          10136126
        ],
        "postalCode": "L1M2J1",
        "streetName": "MIKAYLA",
        "streetDirectionId": null,
        "streetTypeId": "CRES",
        "placeName": "WHITBY",
        "streetNameDisplayText": "MIKAYLA CRES, WHITBY"
      }
    ]
  },
  {
    "postal": "L1M3E3",
    "result": []
  },
  {
    "postal": "L1M6Z9",
    "result": []
  },
  {
    "postal": "L1M3M3",
    "result": []
  },
  {
    "postal": "L1M9B1",
    "result": []
  },
  {
    "postal": "L1M9J5",
    "result": []
  },
  {
    "postal": "L1M4V8",
    "result": []
  },
  {
    "postal": "L1M6W2",
    "result": []
  },
  {
    "postal": "L1M0V5",
    "result": []
  },
  {
    "postal": "L1M0Z8",
    "result": []
  },
  {
    "postal": "L1M5G2",
    "result": []
  },
  {
    "postal": "L1M4N4",
    "result": []
  },
  {
    "postal": "L1M8G7",
    "result": []
  },
  {
    "postal": "L1M8W1",
    "result": []
  },
  {
    "postal": "L1M1S6",
    "result": [
      {
        "electoralDistricts": [
          {
            "election": null,
            "id": 116,
            "name": "Whitby"
          }
        ],
        "pollDivisionIds": [
          10136126
        ],
        "postalCode": "L1M1S6",
        "streetName": "ASHBURN",
        "streetDirectionId": null,
        "streetTypeId": "RD",
        "placeName": "WHITBY",
        "streetNameDisplayText": "ASHBURN RD, WHITBY"
      }
    ]
  },
  {
    "postal": "L1M4E0",
    "result": []
  },
  {
    "postal": "L1M4L9",
    "result": []
  },
  {
    "postal": "L1M5Z9",
    "result": []
  },
  {
    "postal": "L1M5V3",
    "result": []
  },
  {
    "postal": "L1M4V2",
    "result": []
  },
  {
    "postal": "L1M7C0",
    "result": []
  },
  {
    "postal": "L1M6L0",
    "result": []
  },
  {
    "postal": "L1M1S9",
    "result": [
      {
        "electoralDistricts": [
          {
            "election": null,
            "id": 116,
            "name": "Whitby"
          }
        ],
        "pollDivisionIds": [
          10111216
        ],
        "postalCode": "L1M1S9",
        "streetName": "ASHBURN",
        "streetDirectionId": null,
        "streetTypeId": "RD",
        "placeName": "WHITBY",
        "streetNameDisplayText": "ASHBURN RD, WHITBY"
      }
    ]
  },
  {
    "postal": "L1M7R6",
    "result": []
  },
  {
    "postal": "L1M7J0",
    "result": []
  },
  {
    "postal": "L1M5M0",
    "result": []
  },
  {
    "postal": "L1M2E5",
    "result": [
      {
        "electoralDistricts": [
          {
            "election": null,
            "id": 116,
            "name": "Whitby"
          }
        ],
        "pollDivisionIds": [
          10136127
        ],
        "postalCode": "L1M2E5",
        "streetName": "CROXALL",
        "streetDirectionId": null,
        "streetTypeId": "BLVD",
        "placeName": "WHITBY",
        "streetNameDisplayText": "CROXALL BLVD, WHITBY"
      },
      {
        "electoralDistricts": [
          {
            "election": null,
            "id": 116,
            "name": "Whitby"
          }
        ],
        "pollDivisionIds": [
          10136127
        ],
        "postalCode": "L1M2E5",
        "streetName": "DOPP",
        "streetDirectionId": null,
        "streetTypeId": "CRES",
        "placeName": "WHITBY",
        "streetNameDisplayText": "DOPP CRES, WHITBY"
      }
    ]
  },
  {
    "postal": "L1M7C7",
    "result": []
  },
  {
    "postal": "L1M5C0",
    "result": []
  },
  {
    "postal": "L1M8V9",
    "result": []
  },
  {
    "postal": "L1M7E0",
    "result": []
  },
  {
    "postal": "L1M6R4",
    "result": []
  },
  {
    "postal": "L1M3Z7",
    "result": []
  },
  {
    "postal": "L1M1J9",
    "result": [
      {
        "electoralDistricts": [
          {
            "election": null,
            "id": 116,
            "name": "Whitby"
          }
        ],
        "pollDivisionIds": [
          10136128
        ],
        "postalCode": "L1M1J9",
        "streetName": "AGAR",
        "streetDirectionId": null,
        "streetTypeId": "ST",
        "placeName": "WHITBY",
        "streetNameDisplayText": "AGAR ST, WHITBY"
      },
      {
        "electoralDistricts": [
          {
            "election": null,
            "id": 116,
            "name": "Whitby"
          }
        ],
        "pollDivisionIds": [
          10136128
        ],
        "postalCode": "L1M1J9",
        "streetName": "STURGESS",
        "streetDirectionId": null,
        "streetTypeId": "CRES",
        "placeName": "WHITBY",
        "streetNameDisplayText": "STURGESS CRES, WHITBY"
      }
    ]
  },
  {
    "postal": "L1M7K6",
    "result": []
  },
  {
    "postal": "L1M7Y5",
    "result": []
  },
  {
    "postal": "L1M1B7",
    "result": [
      {
        "electoralDistricts": [
          {
            "election": null,
            "id": 116,
            "name": "Whitby"
          }
        ],
        "pollDivisionIds": [
          10111216
        ],
        "postalCode": "L1M1B7",
        "streetName": "WAY",
        "streetDirectionId": null,
        "streetTypeId": "ST",
        "placeName": "WHITBY",
        "streetNameDisplayText": "WAY ST, WHITBY"
      }
    ]
  },
  {
    "postal": "L1M4S9",
    "result": []
  },
  {
    "postal": "L1M9R9",
    "result": []
  },
  {
    "postal": "L1M5K7",
    "result": []
  },
  {
    "postal": "L1M6P2",
    "result": []
  },
  {
    "postal": "L1M2C5",
    "result": [
      {
        "electoralDistricts": [
          {
            "election": null,
            "id": 116,
            "name": "Whitby"
          }
        ],
        "pollDivisionIds": [
          10136128
        ],
        "postalCode": "L1M2C5",
        "streetName": "BEXLEY",
        "streetDirectionId": null,
        "streetTypeId": "CRES",
        "placeName": "WHITBY",
        "streetNameDisplayText": "BEXLEY CRES, WHITBY"
      },
      {
        "electoralDistricts": [
          {
            "election": null,
            "id": 116,
            "name": "Whitby"
          }
        ],
        "pollDivisionIds": [
          10136128
        ],
        "postalCode": "L1M2C5",
        "streetName": "KINROSS",
        "streetDirectionId": null,
        "streetTypeId": "AVE",
        "placeName": "WHITBY",
        "streetNameDisplayText": "KINROSS AVE, WHITBY"
      }
    ]
  },
  {
    "postal": "L1M2N0",
    "result": []
  },
  {
    "postal": "L1M1G0",
    "result": []
  },
  {
    "postal": "L1M4K5",
    "result": []
  },
  {
    "postal": "L1M9B5",
    "result": []
  },
  {
    "postal": "L1M6T5",
    "result": []
  },
  {
    "postal": "L1M1N8",
    "result": [
      {
        "electoralDistricts": [
          {
            "election": null,
            "id": 116,
            "name": "Whitby"
          }
        ],
        "pollDivisionIds": [
          10136126
        ],
        "postalCode": "L1M1N8",
        "streetName": "COUNTRY",
        "streetDirectionId": null,
        "streetTypeId": "LANE",
        "placeName": "WHITBY",
        "streetNameDisplayText": "COUNTRY LANE, WHITBY"
      }
    ]
  },
  {
    "postal": "L1M0C0",
    "result": []
  },
  {
    "postal": "L1M0R9",
    "result": []
  },
  {
    "postal": "L1M7L1",
    "result": []
  },
  {
    "postal": "L1M3Y8",
    "result": []
  },
  {
    "postal": "L1M7X9",
    "result": []
  },
  {
    "postal": "L1M1A7",
    "result": [
      {
        "electoralDistricts": [
          {
            "election": null,
            "id": 116,
            "name": "Whitby"
          }
        ],
        "pollDivisionIds": [
          10111216
        ],
        "postalCode": "L1M1A7",
        "streetName": "GARSIDE",
        "streetDirectionId": null,
        "streetTypeId": "AVE",
        "placeName": "WHITBY",
        "streetNameDisplayText": "GARSIDE AVE, WHITBY"
      },
      {
        "electoralDistricts": [
          {
            "election": null,
            "id": 116,
            "name": "Whitby"
          }
        ],
        "pollDivisionIds": [
          10111216
        ],
        "postalCode": "L1M1A7",
        "streetName": "GEORGE",
        "streetDirectionId": null,
        "streetTypeId": "ST",
        "placeName": "WHITBY",
        "streetNameDisplayText": "GEORGE ST, WHITBY"
      },
      {
        "electoralDistricts": [
          {
            "election": null,
            "id": 116,
            "name": "Whitby"
          }
        ],
        "pollDivisionIds": [
          10111216
        ],
        "postalCode": "L1M1A7",
        "streetName": "HEBER DOWN",
        "streetDirectionId": null,
        "streetTypeId": "CRES",
        "placeName": "WHITBY",
        "streetNameDisplayText": "HEBER DOWN CRES, WHITBY"
      },
      {
        "electoralDistricts": [
          {
            "election": null,
            "id": 116,
            "name": "Whitby"
          }
        ],
        "pollDivisionIds": [
          10111216
        ],
        "postalCode": "L1M1A7",
        "streetName": "HEBERDOWN",
        "streetDirectionId": null,
        "streetTypeId": "CRES",
        "placeName": "WHITBY",
        "streetNameDisplayText": "HEBERDOWN CRES, WHITBY"
      }
    ]
  },
  {
    "postal": "L1M2T9",
    "result": []
  },
  {
    "postal": "L1M2E6",
    "result": [
      {
        "electoralDistricts": [
          {
            "election": null,
            "id": 116,
            "name": "Whitby"
          }
        ],
        "pollDivisionIds": [
          10136127
        ],
        "postalCode": "L1M2E6",
        "streetName": "APSLEY",
        "streetDirectionId": null,
        "streetTypeId": "CRES",
        "placeName": "WHITBY",
        "streetNameDisplayText": "APSLEY CRES, WHITBY"
      },
      {
        "electoralDistricts": [
          {
            "election": null,
            "id": 116,
            "name": "Whitby"
          }
        ],
        "pollDivisionIds": [
          10136127
        ],
        "postalCode": "L1M2E6",
        "streetName": "CORRIDALE",
        "streetDirectionId": null,
        "streetTypeId": "AVE",
        "placeName": "WHITBY",
        "streetNameDisplayText": "CORRIDALE AVE, WHITBY"
      },
      {
        "electoralDistricts": [
          {
            "election": null,
            "id": 116,
            "name": "Whitby"
          }
        ],
        "pollDivisionIds": [
          10136127
        ],
        "postalCode": "L1M2E6",
        "streetName": "SELKIRK",
        "streetDirectionId": null,
        "streetTypeId": "DR",
        "placeName": "WHITBY",
        "streetNameDisplayText": "SELKIRK DR, WHITBY"
      }
    ]
  },
  {
    "postal": "L1M8Y1",
    "result": []
  },
  {
    "postal": "L1M0J5",
    "result": []
  },
  {
    "postal": "L1M4J1",
    "result": []
  },
  {
    "postal": "L1M1A5",
    "result": [
      {
        "electoralDistricts": [
          {
            "election": null,
            "id": 116,
            "name": "Whitby"
          }
        ],
        "pollDivisionIds": [
          10111216
        ],
        "postalCode": "L1M1A5",
        "streetName": "CASSELS",
        "streetDirectionId": "E",
        "streetTypeId": "RD",
        "placeName": "WHITBY",
        "streetNameDisplayText": "CASSELS RD E, WHITBY"
      },
      {
        "electoralDistricts": [
          {
            "election": null,
            "id": 116,
            "name": "Whitby"
          }
        ],
        "pollDivisionIds": [
          10111216
        ],
        "postalCode": "L1M1A5",
        "streetName": "CASSELS",
        "streetDirectionId": "W",
        "streetTypeId": "RD",
        "placeName": "WHITBY",
        "streetNameDisplayText": "CASSELS RD W, WHITBY"
      },
      {
        "electoralDistricts": [
          {
            "election": null,
            "id": 116,
            "name": "Whitby"
          }
        ],
        "pollDivisionIds": [
          10111216
        ],
        "postalCode": "L1M1A5",
        "streetName": "CHARLES",
        "streetDirectionId": null,
        "streetTypeId": "ST",
        "placeName": "WHITBY",
        "streetNameDisplayText": "CHARLES ST, WHITBY"
      },
      {
        "electoralDistricts": [
          {
            "election": null,
            "id": 116,
            "name": "Whitby"
          }
        ],
        "pollDivisionIds": [
          10111216
        ],
        "postalCode": "L1M1A5",
        "streetName": "CHURCH",
        "streetDirectionId": null,
        "streetTypeId": "ST",
        "placeName": "WHITBY",
        "streetNameDisplayText": "CHURCH ST, WHITBY"
      },
      {
        "electoralDistricts": [
          {
            "election": null,
            "id": 116,
            "name": "Whitby"
          }
        ],
        "pollDivisionIds": [
          10111216
        ],
        "postalCode": "L1M1A5",
        "streetName": "DURHAM",
        "streetDirectionId": null,
        "streetTypeId": "ST",
        "placeName": "WHITBY",
        "streetNameDisplayText": "DURHAM ST, WHITBY"
      },
      {
        "electoralDistricts": [
          {
            "election": null,
            "id": 99,
            "name": "SimcoeGrey"
          },
          {
            "election": null,
            "id": 116,
            "name": "Whitby"
          }
        ],
        "pollDivisionIds": [
          10141852,
          10111216
        ],
        "postalCode": "L1M1A5",
        "streetName": "FERGUSON",
        "streetDirectionId": null,
        "streetTypeId": "AVE",
        "placeName": "WHITBY",
        "streetNameDisplayText": "FERGUSON AVE, WHITBY"
      }
    ]
  },
  {
    "postal": "L1M6Z6",
    "result": []
  },
  {
    "postal": "L1M5K4",
    "result": []
  },
  {
    "postal": "L1M7R9",
    "result": []
  },
  {
    "postal": "L1M6G4",
    "result": []
  }
]
