[
  {
    "postal": "L0C1A0",
    "result": [
      {
        "electoralDistricts": [
          {
            "election": null,
            "id": 87,
            "name": "Pickering—Uxbridge"
          }
        ],
        "pollDivisionIds": [
          10143372
        ],
        "postalCode": "L0C1A0",
        "streetName": "47",
        "streetDirectionId": null,
        "streetTypeId": "HWY",
        "placeName": "GOODWOOD",
        "streetNameDisplayText": "47 HWY, GOODWOOD"
      },
      {
        "electoralDistricts": [
          {
            "election": null,
            "id": 87,
            "name": "Pickering—Uxbridge"
          }
        ],
        "pollDivisionIds": [
          10143370
        ],
        "postalCode": "L0C1A0",
        "streetName": "CHURCH",
        "streetDirectionId": null,
        "streetTypeId": "ST",
        "placeName": "GOODWOOD",
        "streetNameDisplayText": "CHURCH ST, GOODWOOD"
      },
      {
        "electoralDistricts": [
          {
            "election": null,
            "id": 87,
            "name": "Pickering—Uxbridge"
          }
        ],
        "pollDivisionIds": [
          10143372
        ],
        "postalCode": "L0C1A0",
        "streetName": "CONC 3",
        "streetDirectionId": null,
        "streetTypeId": "CONC",
        "placeName": "GOODWOOD",
        "streetNameDisplayText": "CONC 3 CONC, GOODWOOD"
      },
      {
        "electoralDistricts": [
          {
            "election": null,
            "id": 87,
            "name": "Pickering—Uxbridge"
          }
        ],
        "pollDivisionIds": [
          10143372
        ],
        "postalCode": "L0C1A0",
        "streetName": "CONCESSION 2",
        "streetDirectionId": null,
        "streetTypeId": null,
        "placeName": "GOODWOOD",
        "streetNameDisplayText": "CONCESSION 2, GOODWOOD"
      },
      {
        "electoralDistricts": [
          {
            "election": null,
            "id": 87,
            "name": "Pickering—Uxbridge"
          }
        ],
        "pollDivisionIds": [
          10143372
        ],
        "postalCode": "L0C1A0",
        "streetName": "CONCESSION 3",
        "streetDirectionId": null,
        "streetTypeId": "RD",
        "placeName": "GOODWOOD",
        "streetNameDisplayText": "CONCESSION 3 RD, GOODWOOD"
      },
      {
        "electoralDistricts": [
          {
            "election": null,
            "id": 87,
            "name": "Pickering—Uxbridge"
          }
        ],
        "pollDivisionIds": [
          10143372
        ],
        "postalCode": "L0C1A0",
        "streetName": "CONCESSION 3",
        "streetDirectionId": null,
        "streetTypeId": null,
        "placeName": "GOODWOOD",
        "streetNameDisplayText": "CONCESSION 3, GOODWOOD"
      },
      {
        "electoralDistricts": [
          {
            "election": null,
            "id": 87,
            "name": "Pickering—Uxbridge"
          }
        ],
        "pollDivisionIds": [
          10143368,
          10143372
        ],
        "postalCode": "L0C1A0",
        "streetName": "CONCESSION 4",
        "streetDirectionId": null,
        "streetTypeId": "RD",
        "placeName": "GOODWOOD",
        "streetNameDisplayText": "CONCESSION 4 RD, GOODWOOD"
      },
      {
        "electoralDistricts": [
          {
            "election": null,
            "id": 87,
            "name": "Pickering—Uxbridge"
          }
        ],
        "pollDivisionIds": [
          10143372
        ],
        "postalCode": "L0C1A0",
        "streetName": "CONCESSION 4",
        "streetDirectionId": null,
        "streetTypeId": null,
        "placeName": "GOODWOOD",
        "streetNameDisplayText": "CONCESSION 4, GOODWOOD"
      },
      {
        "electoralDistricts": [
          {
            "election": null,
            "id": 87,
            "name": "Pickering—Uxbridge"
          }
        ],
        "pollDivisionIds": [
          10143372
        ],
        "postalCode": "L0C1A0",
        "streetName": "DEER RIDGE",
        "streetDirectionId": null,
        "streetTypeId": "RD",
        "placeName": "GOODWOOD",
        "streetNameDisplayText": "DEER RIDGE RD, GOODWOOD"
      },
      {
        "electoralDistricts": [
          {
            "election": null,
            "id": 87,
            "name": "Pickering—Uxbridge"
          }
        ],
        "pollDivisionIds": [
          10143372
        ],
        "postalCode": "L0C1A0",
        "streetName": "DURHAM RD 21",
        "streetDirectionId": null,
        "streetTypeId": "RD",
        "placeName": "GOODWOOD",
        "streetNameDisplayText": "DURHAM RD 21 RD, GOODWOOD"
      },
      {
        "electoralDistricts": [
          {
            "election": null,
            "id": 87,
            "name": "Pickering—Uxbridge"
          }
        ],
        "pollDivisionIds": [
          10143372
        ],
        "postalCode": "L0C1A0",
        "streetName": "FRONT",
        "streetDirectionId": null,
        "streetTypeId": "ST",
        "placeName": "GOODWOOD",
        "streetNameDisplayText": "FRONT ST, GOODWOOD"
      },
      {
        "electoralDistricts": [
          {
            "election": null,
            "id": 87,
            "name": "Pickering—Uxbridge"
          }
        ],
        "pollDivisionIds": [
          10143372
        ],
        "postalCode": "L0C1A0",
        "streetName": "GOODWOOD RD PO BX 234",
        "streetDirectionId": null,
        "streetTypeId": "RD",
        "placeName": "GOODWOOD",
        "streetNameDisplayText": "GOODWOOD RD PO BX 234 RD, GOODWOOD"
      },
      {
        "electoralDistricts": [
          {
            "election": null,
            "id": 87,
            "name": "Pickering—Uxbridge"
          }
        ],
        "pollDivisionIds": [
          10143372
        ],
        "postalCode": "L0C1A0",
        "streetName": "GOODWOOD",
        "streetDirectionId": null,
        "streetTypeId": "RD",
        "placeName": "GOODWOOD",
        "streetNameDisplayText": "GOODWOOD RD, GOODWOOD"
      },
      {
        "electoralDistricts": [
          {
            "election": null,
            "id": 87,
            "name": "Pickering—Uxbridge"
          }
        ],
        "pollDivisionIds": [
          10143372
        ],
        "postalCode": "L0C1A0",
        "streetName": "GOODWOOD",
        "streetDirectionId": null,
        "streetTypeId": "ST",
        "placeName": "GOODWOOD",
        "streetNameDisplayText": "GOODWOOD ST, GOODWOOD"
      },
      {
        "electoralDistricts": [
          {
            "election": null,
            "id": 87,
            "name": "Pickering—Uxbridge"
          }
        ],
        "pollDivisionIds": [
          10143372
        ],
        "postalCode": "L0C1A0",
        "streetName": "GOOSE",
        "streetDirectionId": null,
        "streetTypeId": "ALLEY",
        "placeName": "GOODWOOD",
        "streetNameDisplayText": "GOOSE ALLEY, GOODWOOD"
      },
      {
        "electoralDistricts": [
          {
            "election": null,
            "id": 87,
            "name": "Pickering—Uxbridge"
          }
        ],
        "pollDivisionIds": [
          10143372
        ],
        "postalCode": "L0C1A0",
        "streetName": "LAPIER",
        "streetDirectionId": null,
        "streetTypeId": "ST",
        "placeName": "GOODWOOD",
        "streetNameDisplayText": "LAPIER ST, GOODWOOD"
      },
      {
        "electoralDistricts": [
          {
            "election": null,
            "id": 87,
            "name": "Pickering—Uxbridge"
          }
        ],
        "pollDivisionIds": [
          10143372,
          10143368
        ],
        "postalCode": "L0C1A0",
        "streetName": "O'BEIRN",
        "streetDirectionId": null,
        "streetTypeId": "RD",
        "placeName": "GOODWOOD",
        "streetNameDisplayText": "O'BEIRN RD, GOODWOOD"
      },
      {
        "electoralDistricts": [
          {
            "election": null,
            "id": 87,
            "name": "Pickering—Uxbridge"
          }
        ],
        "pollDivisionIds": [
          10143372
        ],
        "postalCode": "L0C1A0",
        "streetName": "OLD 47",
        "streetDirectionId": null,
        "streetTypeId": "HWY",
        "placeName": "GOODWOOD",
        "streetNameDisplayText": "OLD 47 HWY, GOODWOOD"
      },
      {
        "electoralDistricts": [
          {
            "election": null,
            "id": 87,
            "name": "Pickering—Uxbridge"
          }
        ],
        "pollDivisionIds": [
          10143372
        ],
        "postalCode": "L0C1A0",
        "streetName": "OLD MILL",
        "streetDirectionId": null,
        "streetTypeId": "LANE",
        "placeName": "GOODWOOD",
        "streetNameDisplayText": "OLD MILL LANE, GOODWOOD"
      },
      {
        "electoralDistricts": [
          {
            "election": null,
            "id": 87,
            "name": "Pickering—Uxbridge"
          }
        ],
        "pollDivisionIds": [
          10143372
        ],
        "postalCode": "L0C1A0",
        "streetName": "REBECCA",
        "streetDirectionId": null,
        "streetTypeId": "LANE",
        "placeName": "GOODWOOD",
        "streetNameDisplayText": "REBECCA LANE, GOODWOOD"
      },
      {
        "electoralDistricts": [
          {
            "election": null,
            "id": 87,
            "name": "Pickering—Uxbridge"
          }
        ],
        "pollDivisionIds": [
          10143372
        ],
        "postalCode": "L0C1A0",
        "streetName": "REGIONAL 1",
        "streetDirectionId": null,
        "streetTypeId": "RD",
        "placeName": "GOODWOOD",
        "streetNameDisplayText": "REGIONAL 1 RD, GOODWOOD"
      },
      {
        "electoralDistricts": [
          {
            "election": null,
            "id": 87,
            "name": "Pickering—Uxbridge"
          }
        ],
        "pollDivisionIds": [
          10143372
        ],
        "postalCode": "L0C1A0",
        "streetName": "REGIONAL 1",
        "streetDirectionId": null,
        "streetTypeId": "RD",
        "placeName": "UXBRIDGE",
        "streetNameDisplayText": "REGIONAL 1 RD, UXBRIDGE"
      },
      {
        "electoralDistricts": [
          {
            "election": null,
            "id": 87,
            "name": "Pickering—Uxbridge"
          }
        ],
        "pollDivisionIds": [
          10143372
        ],
        "postalCode": "L0C1A0",
        "streetName": "REGIONAL 21",
        "streetDirectionId": null,
        "streetTypeId": "RD",
        "placeName": "GOODWOOD",
        "streetNameDisplayText": "REGIONAL 21 RD, GOODWOOD"
      },
      {
        "electoralDistricts": [
          {
            "election": null,
            "id": 87,
            "name": "Pickering—Uxbridge"
          }
        ],
        "pollDivisionIds": [
          10143372
        ],
        "postalCode": "L0C1A0",
        "streetName": "REGIONAL ROAD 21",
        "streetDirectionId": null,
        "streetTypeId": "RD",
        "placeName": "GOODWOOD",
        "streetNameDisplayText": "REGIONAL ROAD 21 RD, GOODWOOD"
      },
      {
        "electoralDistricts": [
          {
            "election": null,
            "id": 87,
            "name": "Pickering—Uxbridge"
          }
        ],
        "pollDivisionIds": [
          10143372
        ],
        "postalCode": "L0C1A0",
        "streetName": "RIDGE",
        "streetDirectionId": null,
        "streetTypeId": "RD",
        "placeName": "GOODWOOD",
        "streetNameDisplayText": "RIDGE RD, GOODWOOD"
      },
      {
        "electoralDistricts": [
          {
            "election": null,
            "id": 35,
            "name": "Haliburton—Kawartha Lakes—Brock"
          }
        ],
        "pollDivisionIds": [
          10138545
        ],
        "postalCode": "L0C1A0",
        "streetName": "RIVER",
        "streetDirectionId": null,
        "streetTypeId": "ST",
        "placeName": "SUNDERLAND",
        "streetNameDisplayText": "RIVER ST, SUNDERLAND"
      },
      {
        "electoralDistricts": [
          {
            "election": null,
            "id": 87,
            "name": "Pickering—Uxbridge"
          }
        ],
        "pollDivisionIds": [
          10143372
        ],
        "postalCode": "L0C1A0",
        "streetName": "SECORD",
        "streetDirectionId": null,
        "streetTypeId": "RD",
        "placeName": "GOODWOOD",
        "streetNameDisplayText": "SECORD RD, GOODWOOD"
      },
      {
        "electoralDistricts": [
          {
            "election": null,
            "id": 87,
            "name": "Pickering—Uxbridge"
          }
        ],
        "pollDivisionIds": [
          10143372
        ],
        "postalCode": "L0C1A0",
        "streetName": "STONESTHROW",
        "streetDirectionId": null,
        "streetTypeId": "CRES",
        "placeName": "GOODWOOD",
        "streetNameDisplayText": "STONESTHROW CRES, GOODWOOD"
      },
      {
        "electoralDistricts": [
          {
            "election": null,
            "id": 35,
            "name": "Haliburton—Kawartha Lakes—Brock"
          }
        ],
        "pollDivisionIds": [
          10138542
        ],
        "postalCode": "L0C1A0",
        "streetName": "THORAH CONCESSION RD 3",
        "streetDirectionId": null,
        "streetTypeId": "CONC",
        "placeName": "GOODWOOD",
        "streetNameDisplayText": "THORAH CONCESSION RD 3 CONC, GOODWOOD"
      },
      {
        "electoralDistricts": [
          {
            "election": null,
            "id": 87,
            "name": "Pickering—Uxbridge"
          }
        ],
        "pollDivisionIds": [
          10143372
        ],
        "postalCode": "L0C1A0",
        "streetName": "TINDALL",
        "streetDirectionId": null,
        "streetTypeId": "LANE",
        "placeName": "GOODWOOD",
        "streetNameDisplayText": "TINDALL LANE, GOODWOOD"
      },
      {
        "electoralDistricts": [
          {
            "election": null,
            "id": 87,
            "name": "Pickering—Uxbridge"
          }
        ],
        "pollDivisionIds": [
          10143372
        ],
        "postalCode": "L0C1A0",
        "streetName": "WAGG",
        "streetDirectionId": null,
        "streetTypeId": "RD",
        "placeName": "GOODWOOD",
        "streetNameDisplayText": "WAGG RD, GOODWOOD"
      },
      {
        "electoralDistricts": [
          {
            "election": null,
            "id": 87,
            "name": "Pickering—Uxbridge"
          }
        ],
        "pollDivisionIds": [
          10143372
        ],
        "postalCode": "L0C1A0",
        "streetName": "WEBB",
        "streetDirectionId": null,
        "streetTypeId": "RD",
        "placeName": "GOODWOOD",
        "streetNameDisplayText": "WEBB RD, GOODWOOD"
      },
      {
        "electoralDistricts": [
          {
            "election": null,
            "id": 87,
            "name": "Pickering—Uxbridge"
          }
        ],
        "pollDivisionIds": [
          10143372
        ],
        "postalCode": "L0C1A0",
        "streetName": "WEES",
        "streetDirectionId": null,
        "streetTypeId": "RD",
        "placeName": "GOODWOOD",
        "streetNameDisplayText": "WEES RD, GOODWOOD"
      }
    ]
  },
  {
    "postal": "L0C1B0",
    "result": [
      {
        "electoralDistricts": [
          {
            "election": null,
            "id": 24,
            "name": "Durham"
          }
        ],
        "pollDivisionIds": [
          10137827,
          10137826
        ],
        "postalCode": "L0C1B0",
        "streetName": "12",
        "streetDirectionId": null,
        "streetTypeId": "HWY",
        "placeName": "GREENBANK",
        "streetNameDisplayText": "12 HWY, GREENBANK"
      },
      {
        "electoralDistricts": [
          {
            "election": null,
            "id": 24,
            "name": "Durham"
          }
        ],
        "pollDivisionIds": [
          10137826
        ],
        "postalCode": "L0C1B0",
        "streetName": "7+12",
        "streetDirectionId": null,
        "streetTypeId": "HWY",
        "placeName": "GREENBANK",
        "streetNameDisplayText": "7+12 HWY, GREENBANK"
      },
      {
        "electoralDistricts": [
          {
            "election": null,
            "id": 24,
            "name": "Durham"
          }
        ],
        "pollDivisionIds": [
          10137826
        ],
        "postalCode": "L0C1B0",
        "streetName": "BLUE MOUNTAIN",
        "streetDirectionId": null,
        "streetTypeId": "RD",
        "placeName": "GREENBANK",
        "streetNameDisplayText": "BLUE MOUNTAIN RD, GREENBANK"
      },
      {
        "electoralDistricts": [
          {
            "election": null,
            "id": 24,
            "name": "Durham"
          }
        ],
        "pollDivisionIds": [
          10137826
        ],
        "postalCode": "L0C1B0",
        "streetName": "COUVES",
        "streetDirectionId": null,
        "streetTypeId": "LANE",
        "placeName": "GREENBANK",
        "streetNameDisplayText": "COUVES LANE, GREENBANK"
      },
      {
        "electoralDistricts": [
          {
            "election": null,
            "id": 24,
            "name": "Durham"
          }
        ],
        "pollDivisionIds": [
          10137826
        ],
        "postalCode": "L0C1B0",
        "streetName": "CRAGG",
        "streetDirectionId": null,
        "streetTypeId": "RD",
        "placeName": "GREENBANK",
        "streetNameDisplayText": "CRAGG RD, GREENBANK"
      },
      {
        "electoralDistricts": [
          {
            "election": null,
            "id": 24,
            "name": "Durham"
          }
        ],
        "pollDivisionIds": [
          10137826
        ],
        "postalCode": "L0C1B0",
        "streetName": "EASTSIDE",
        "streetDirectionId": null,
        "streetTypeId": "ST",
        "placeName": "GREENBANK",
        "streetNameDisplayText": "EASTSIDE ST, GREENBANK"
      },
      {
        "electoralDistricts": [
          {
            "election": null,
            "id": 24,
            "name": "Durham"
          }
        ],
        "pollDivisionIds": [
          10137826
        ],
        "postalCode": "L0C1B0",
        "streetName": "GREENBANK",
        "streetDirectionId": null,
        "streetTypeId": "AVE",
        "placeName": "GREENBANK",
        "streetNameDisplayText": "GREENBANK AVE, GREENBANK"
      },
      {
        "electoralDistricts": [
          {
            "election": null,
            "id": 24,
            "name": "Durham"
          }
        ],
        "pollDivisionIds": [
          10137828
        ],
        "postalCode": "L0C1B0",
        "streetName": "HIGHWAY 12",
        "streetDirectionId": null,
        "streetTypeId": null,
        "placeName": "PORT PERRY",
        "streetNameDisplayText": "HIGHWAY 12, PORT PERRY"
      },
      {
        "electoralDistricts": [
          {
            "election": null,
            "id": 24,
            "name": "Durham"
          }
        ],
        "pollDivisionIds": [
          10137826
        ],
        "postalCode": "L0C1B0",
        "streetName": "HOWSAM",
        "streetDirectionId": null,
        "streetTypeId": "ST",
        "placeName": "GREENBANK",
        "streetNameDisplayText": "HOWSAM ST, GREENBANK"
      },
      {
        "electoralDistricts": [
          {
            "election": null,
            "id": 24,
            "name": "Durham"
          }
        ],
        "pollDivisionIds": [
          10137828,
          10137830
        ],
        "postalCode": "L0C1B0",
        "streetName": "HWY 12",
        "streetDirectionId": null,
        "streetTypeId": null,
        "placeName": "GREENBANK",
        "streetNameDisplayText": "HWY 12, GREENBANK"
      },
      {
        "electoralDistricts": [
          {
            "election": null,
            "id": 24,
            "name": "Durham"
          }
        ],
        "pollDivisionIds": [
          10137826
        ],
        "postalCode": "L0C1B0",
        "streetName": "IANSON",
        "streetDirectionId": null,
        "streetTypeId": "DR",
        "placeName": "GREENBANK",
        "streetNameDisplayText": "IANSON DR, GREENBANK"
      },
      {
        "electoralDistricts": [
          {
            "election": null,
            "id": 24,
            "name": "Durham"
          }
        ],
        "pollDivisionIds": [
          10137826
        ],
        "postalCode": "L0C1B0",
        "streetName": "JACK",
        "streetDirectionId": null,
        "streetTypeId": "ST",
        "placeName": "GREENBANK",
        "streetNameDisplayText": "JACK ST, GREENBANK"
      },
      {
        "electoralDistricts": [
          {
            "election": null,
            "id": 24,
            "name": "Durham"
          }
        ],
        "pollDivisionIds": [
          10137826
        ],
        "postalCode": "L0C1B0",
        "streetName": "MURRAY",
        "streetDirectionId": null,
        "streetTypeId": "ST",
        "placeName": "GREENBANK",
        "streetNameDisplayText": "MURRAY ST, GREENBANK"
      },
      {
        "electoralDistricts": [
          {
            "election": null,
            "id": 24,
            "name": "Durham"
          }
        ],
        "pollDivisionIds": [
          10137826
        ],
        "postalCode": "L0C1B0",
        "streetName": "PEARL",
        "streetDirectionId": null,
        "streetTypeId": "DR",
        "placeName": "GREENBANK",
        "streetNameDisplayText": "PEARL DR, GREENBANK"
      },
      {
        "electoralDistricts": [
          {
            "election": null,
            "id": 24,
            "name": "Durham"
          }
        ],
        "pollDivisionIds": [
          10137826
        ],
        "postalCode": "L0C1B0",
        "streetName": "SCUGOG 12",
        "streetDirectionId": null,
        "streetTypeId": "LINE",
        "placeName": "GREENBANK",
        "streetNameDisplayText": "SCUGOG 12 LINE, GREENBANK"
      }
    ]
  },
  {
    "postal": "L0C1C0",
    "result": [
      {
        "electoralDistricts": [
          {
            "election": null,
            "id": 87,
            "name": "Pickering—Uxbridge"
          }
        ],
        "pollDivisionIds": [
          10143366
        ],
        "postalCode": "L0C1C0",
        "streetName": "AVONLEA",
        "streetDirectionId": null,
        "streetTypeId": "RD",
        "placeName": "LEASKDALE",
        "streetNameDisplayText": "AVONLEA RD, LEASKDALE"
      },
      {
        "electoralDistricts": [
          {
            "election": null,
            "id": 87,
            "name": "Pickering—Uxbridge"
          }
        ],
        "pollDivisionIds": [
          10143366
        ],
        "postalCode": "L0C1C0",
        "streetName": "COOKS",
        "streetDirectionId": null,
        "streetTypeId": "DR",
        "placeName": "LEASKDALE",
        "streetNameDisplayText": "COOKS DR, LEASKDALE"
      },
      {
        "electoralDistricts": [
          {
            "election": null,
            "id": 87,
            "name": "Pickering—Uxbridge"
          }
        ],
        "pollDivisionIds": [
          10143366
        ],
        "postalCode": "L0C1C0",
        "streetName": "HARRISON",
        "streetDirectionId": null,
        "streetTypeId": "DR",
        "placeName": "LEASKDALE",
        "streetNameDisplayText": "HARRISON DR, LEASKDALE"
      },
      {
        "electoralDistricts": [
          {
            "election": null,
            "id": 121,
            "name": "York—Simcoe"
          }
        ],
        "pollDivisionIds": [
          10142929
        ],
        "postalCode": "L0C1C0",
        "streetName": "LEMBITU",
        "streetDirectionId": null,
        "streetTypeId": "AVE",
        "placeName": "UDORA",
        "streetNameDisplayText": "LEMBITU AVE, UDORA"
      },
      {
        "electoralDistricts": [
          {
            "election": null,
            "id": 87,
            "name": "Pickering—Uxbridge"
          }
        ],
        "pollDivisionIds": [
          10143366
        ],
        "postalCode": "L0C1C0",
        "streetName": "OXTOBY",
        "streetDirectionId": null,
        "streetTypeId": "LANE",
        "placeName": "LEASKDALE",
        "streetNameDisplayText": "OXTOBY LANE, LEASKDALE"
      },
      {
        "electoralDistricts": [
          {
            "election": null,
            "id": 87,
            "name": "Pickering—Uxbridge"
          }
        ],
        "pollDivisionIds": [
          10143366
        ],
        "postalCode": "L0C1C0",
        "streetName": "REGIONAL 1",
        "streetDirectionId": null,
        "streetTypeId": "RD",
        "placeName": "LEASKDALE",
        "streetNameDisplayText": "REGIONAL 1 RD, LEASKDALE"
      },
      {
        "electoralDistricts": [
          {
            "election": null,
            "id": 87,
            "name": "Pickering—Uxbridge"
          }
        ],
        "pollDivisionIds": [
          10143366
        ],
        "postalCode": "L0C1C0",
        "streetName": "REGIONAL 1",
        "streetDirectionId": null,
        "streetTypeId": "RD",
        "placeName": "UXBRIDGE",
        "streetNameDisplayText": "REGIONAL 1 RD, UXBRIDGE"
      },
      {
        "electoralDistricts": [
          {
            "election": null,
            "id": 87,
            "name": "Pickering—Uxbridge"
          }
        ],
        "pollDivisionIds": [
          10143366
        ],
        "postalCode": "L0C1C0",
        "streetName": "REGIONAL 13",
        "streetDirectionId": null,
        "streetTypeId": "RD",
        "placeName": "LEASKDALE",
        "streetNameDisplayText": "REGIONAL 13 RD, LEASKDALE"
      },
      {
        "electoralDistricts": [
          {
            "election": null,
            "id": 35,
            "name": "Haliburton—Kawartha Lakes—Brock"
          }
        ],
        "pollDivisionIds": [
          10138545
        ],
        "postalCode": "L0C1C0",
        "streetName": "REGIONAL 13",
        "streetDirectionId": null,
        "streetTypeId": "RD",
        "placeName": "SUNDERLAND",
        "streetNameDisplayText": "REGIONAL 13 RD, SUNDERLAND"
      },
      {
        "electoralDistricts": [
          {
            "election": null,
            "id": 87,
            "name": "Pickering—Uxbridge"
          }
        ],
        "pollDivisionIds": [
          10143366
        ],
        "postalCode": "L0C1C0",
        "streetName": "SCOTT",
        "streetDirectionId": null,
        "streetTypeId": "CRT",
        "placeName": "LEASKDALE",
        "streetNameDisplayText": "SCOTT CRT, LEASKDALE"
      }
    ]
  },
  {
    "postal": "L0C1E0",
    "result": [
      {
        "electoralDistricts": [
          {
            "election": null,
            "id": 87,
            "name": "Pickering—Uxbridge"
          }
        ],
        "pollDivisionIds": [
          10143366
        ],
        "postalCode": "L0C1E0",
        "streetName": "ASHWORTH",
        "streetDirectionId": null,
        "streetTypeId": "RD",
        "placeName": "SANDFORD",
        "streetNameDisplayText": "ASHWORTH RD, SANDFORD"
      },
      {
        "electoralDistricts": [
          {
            "election": null,
            "id": 87,
            "name": "Pickering—Uxbridge"
          }
        ],
        "pollDivisionIds": [
          10143368
        ],
        "postalCode": "L0C1E0",
        "streetName": "CONCESSION 3",
        "streetDirectionId": null,
        "streetTypeId": "RD",
        "placeName": "SANDFORD",
        "streetNameDisplayText": "CONCESSION 3 RD, SANDFORD"
      },
      {
        "electoralDistricts": [
          {
            "election": null,
            "id": 87,
            "name": "Pickering—Uxbridge"
          }
        ],
        "pollDivisionIds": [
          10143368
        ],
        "postalCode": "L0C1E0",
        "streetName": "CONCESSION 4",
        "streetDirectionId": null,
        "streetTypeId": "RD",
        "placeName": "SANDFORD",
        "streetNameDisplayText": "CONCESSION 4 RD, SANDFORD"
      },
      {
        "electoralDistricts": [
          {
            "election": null,
            "id": 87,
            "name": "Pickering—Uxbridge"
          }
        ],
        "pollDivisionIds": [
          10143366
        ],
        "postalCode": "L0C1E0",
        "streetName": "CONCESSION 5",
        "streetDirectionId": null,
        "streetTypeId": "RD",
        "placeName": "SANDFORD",
        "streetNameDisplayText": "CONCESSION 5 RD, SANDFORD"
      },
      {
        "electoralDistricts": [
          {
            "election": null,
            "id": 87,
            "name": "Pickering—Uxbridge"
          }
        ],
        "pollDivisionIds": [
          10143368
        ],
        "postalCode": "L0C1E0",
        "streetName": "JAMES",
        "streetDirectionId": null,
        "streetTypeId": "PL",
        "placeName": "SANDFORD",
        "streetNameDisplayText": "JAMES PL, SANDFORD"
      },
      {
        "electoralDistricts": [
          {
            "election": null,
            "id": 87,
            "name": "Pickering—Uxbridge"
          }
        ],
        "pollDivisionIds": [
          10143368
        ],
        "postalCode": "L0C1E0",
        "streetName": "LUNDY",
        "streetDirectionId": null,
        "streetTypeId": "DR",
        "placeName": "SANDFORD",
        "streetNameDisplayText": "LUNDY DR, SANDFORD"
      },
      {
        "electoralDistricts": [
          {
            "election": null,
            "id": 87,
            "name": "Pickering—Uxbridge"
          }
        ],
        "pollDivisionIds": [
          10143368
        ],
        "postalCode": "L0C1E0",
        "streetName": "MOORE",
        "streetDirectionId": null,
        "streetTypeId": "ST",
        "placeName": "SANDFORD",
        "streetNameDisplayText": "MOORE ST, SANDFORD"
      },
      {
        "electoralDistricts": [
          {
            "election": null,
            "id": 87,
            "name": "Pickering—Uxbridge"
          }
        ],
        "pollDivisionIds": [
          10143368
        ],
        "postalCode": "L0C1E0",
        "streetName": "SANDFORD",
        "streetDirectionId": null,
        "streetTypeId": "RD",
        "placeName": "SANDFORD",
        "streetNameDisplayText": "SANDFORD RD, SANDFORD"
      },
      {
        "electoralDistricts": [
          {
            "election": null,
            "id": 87,
            "name": "Pickering—Uxbridge"
          }
        ],
        "pollDivisionIds": [
          10143368
        ],
        "postalCode": "L0C1E0",
        "streetName": "SMITH",
        "streetDirectionId": null,
        "streetTypeId": "DR",
        "placeName": "SANDFORD",
        "streetNameDisplayText": "SMITH DR, SANDFORD"
      },
      {
        "electoralDistricts": [
          {
            "election": null,
            "id": 87,
            "name": "Pickering—Uxbridge"
          }
        ],
        "pollDivisionIds": [
          10143368
        ],
        "postalCode": "L0C1E0",
        "streetName": "TAYLOR",
        "streetDirectionId": null,
        "streetTypeId": "DR",
        "placeName": "SANDFORD",
        "streetNameDisplayText": "TAYLOR DR, SANDFORD"
      }
    ]
  },
  {
    "postal": "L0C1G0",
    "result": [
      {
        "electoralDistricts": [
          {
            "election": null,
            "id": 24,
            "name": "Durham"
          }
        ],
        "pollDivisionIds": [
          10137826
        ],
        "postalCode": "L0C1G0",
        "streetName": "1715 SCUGOG LINE 12",
        "streetDirectionId": null,
        "streetTypeId": null,
        "placeName": "SEAGRAVE",
        "streetNameDisplayText": "1715 SCUGOG LINE 12, SEAGRAVE"
      },
      {
        "electoralDistricts": [
          {
            "election": null,
            "id": 35,
            "name": "Haliburton—Kawartha Lakes—Brock"
          },
          {
            "election": null,
            "id": 24,
            "name": "Durham"
          }
        ],
        "pollDivisionIds": [
          10138550,
          10137826
        ],
        "postalCode": "L0C1G0",
        "streetName": "BANK",
        "streetDirectionId": null,
        "streetTypeId": "RD",
        "placeName": "SEAGRAVE",
        "streetNameDisplayText": "BANK RD, SEAGRAVE"
      },
      {
        "electoralDistricts": [
          {
            "election": null,
            "id": 24,
            "name": "Durham"
          }
        ],
        "pollDivisionIds": [
          10137826
        ],
        "postalCode": "L0C1G0",
        "streetName": "BRUCE",
        "streetDirectionId": null,
        "streetTypeId": "RD",
        "placeName": "SEAGRAVE",
        "streetNameDisplayText": "BRUCE RD, SEAGRAVE"
      },
      {
        "electoralDistricts": [
          {
            "election": null,
            "id": 24,
            "name": "Durham"
          },
          {
            "election": null,
            "id": 35,
            "name": "Haliburton—Kawartha Lakes—Brock"
          }
        ],
        "pollDivisionIds": [
          10137826,
          10138550
        ],
        "postalCode": "L0C1G0",
        "streetName": "BRUNON",
        "streetDirectionId": null,
        "streetTypeId": "AVE",
        "placeName": "SEAGRAVE",
        "streetNameDisplayText": "BRUNON AVE, SEAGRAVE"
      },
      {
        "electoralDistricts": [
          {
            "election": null,
            "id": 35,
            "name": "Haliburton—Kawartha Lakes—Brock"
          }
        ],
        "pollDivisionIds": [
          10138550
        ],
        "postalCode": "L0C1G0",
        "streetName": "CEDAR RIDGE",
        "streetDirectionId": null,
        "streetTypeId": "DR",
        "placeName": "SEAGRAVE",
        "streetNameDisplayText": "CEDAR RIDGE DR, SEAGRAVE"
      },
      {
        "electoralDistricts": [
          {
            "election": null,
            "id": 24,
            "name": "Durham"
          }
        ],
        "pollDivisionIds": [
          10137826
        ],
        "postalCode": "L0C1G0",
        "streetName": "CLEMENTS",
        "streetDirectionId": null,
        "streetTypeId": "RD",
        "placeName": "SEAGRAVE",
        "streetNameDisplayText": "CLEMENTS RD, SEAGRAVE"
      },
      {
        "electoralDistricts": [
          {
            "election": null,
            "id": 24,
            "name": "Durham"
          }
        ],
        "pollDivisionIds": [
          10137826
        ],
        "postalCode": "L0C1G0",
        "streetName": "CLEMENTS RD.",
        "streetDirectionId": null,
        "streetTypeId": "RD",
        "placeName": "SEAGRAVE",
        "streetNameDisplayText": "CLEMENTS RD. RD, SEAGRAVE"
      },
      {
        "electoralDistricts": [
          {
            "election": null,
            "id": 24,
            "name": "Durham"
          }
        ],
        "pollDivisionIds": [
          10137826
        ],
        "postalCode": "L0C1G0",
        "streetName": "COOKSON",
        "streetDirectionId": null,
        "streetTypeId": "LANE",
        "placeName": "SEAGRAVE",
        "streetNameDisplayText": "COOKSON LANE, SEAGRAVE"
      },
      {
        "electoralDistricts": [
          {
            "election": null,
            "id": 24,
            "name": "Durham"
          }
        ],
        "pollDivisionIds": [
          10137826
        ],
        "postalCode": "L0C1G0",
        "streetName": "CORYELL",
        "streetDirectionId": null,
        "streetTypeId": "ST",
        "placeName": "SEAGRAVE",
        "streetNameDisplayText": "CORYELL ST, SEAGRAVE"
      },
      {
        "electoralDistricts": [
          {
            "election": null,
            "id": 24,
            "name": "Durham"
          }
        ],
        "pollDivisionIds": [
          10137826
        ],
        "postalCode": "L0C1G0",
        "streetName": "CRAGG",
        "streetDirectionId": null,
        "streetTypeId": "RD",
        "placeName": "SEAGRAVE",
        "streetNameDisplayText": "CRAGG RD, SEAGRAVE"
      },
      {
        "electoralDistricts": [
          {
            "election": null,
            "id": 35,
            "name": "Haliburton—Kawartha Lakes—Brock"
          }
        ],
        "pollDivisionIds": [
          10138550
        ],
        "postalCode": "L0C1G0",
        "streetName": "CRESCENT MOON",
        "streetDirectionId": null,
        "streetTypeId": "LANE",
        "placeName": "SEAGRAVE",
        "streetNameDisplayText": "CRESCENT MOON LANE, SEAGRAVE"
      },
      {
        "electoralDistricts": [
          {
            "election": null,
            "id": 35,
            "name": "Haliburton—Kawartha Lakes—Brock"
          }
        ],
        "pollDivisionIds": [
          10138550
        ],
        "postalCode": "L0C1G0",
        "streetName": "DRUAN",
        "streetDirectionId": null,
        "streetTypeId": "DR",
        "placeName": "SEAGRAVE",
        "streetNameDisplayText": "DRUAN DR, SEAGRAVE"
      },
      {
        "electoralDistricts": [
          {
            "election": null,
            "id": 24,
            "name": "Durham"
          }
        ],
        "pollDivisionIds": [
          10137826
        ],
        "postalCode": "L0C1G0",
        "streetName": "DURWARD",
        "streetDirectionId": null,
        "streetTypeId": "RD",
        "placeName": "SEAGRAVE",
        "streetNameDisplayText": "DURWARD RD, SEAGRAVE"
      },
      {
        "electoralDistricts": [
          {
            "election": null,
            "id": 24,
            "name": "Durham"
          }
        ],
        "pollDivisionIds": [
          10137826,
          10137827
        ],
        "postalCode": "L0C1G0",
        "streetName": "HARPER",
        "streetDirectionId": null,
        "streetTypeId": "RD",
        "placeName": "SEAGRAVE",
        "streetNameDisplayText": "HARPER RD, SEAGRAVE"
      },
      {
        "electoralDistricts": [
          {
            "election": null,
            "id": 24,
            "name": "Durham"
          }
        ],
        "pollDivisionIds": [
          10137826
        ],
        "postalCode": "L0C1G0",
        "streetName": "HENRIETTA",
        "streetDirectionId": null,
        "streetTypeId": "ST",
        "placeName": "SEAGRAVE",
        "streetNameDisplayText": "HENRIETTA ST, SEAGRAVE"
      },
      {
        "electoralDistricts": [
          {
            "election": null,
            "id": 24,
            "name": "Durham"
          }
        ],
        "pollDivisionIds": [
          10137826
        ],
        "postalCode": "L0C1G0",
        "streetName": "ISABELLA",
        "streetDirectionId": null,
        "streetTypeId": "CRT",
        "placeName": "SEAGRAVE",
        "streetNameDisplayText": "ISABELLA CRT, SEAGRAVE"
      },
      {
        "electoralDistricts": [
          {
            "election": null,
            "id": 24,
            "name": "Durham"
          }
        ],
        "pollDivisionIds": [
          10137826
        ],
        "postalCode": "L0C1G0",
        "streetName": "ISABELLA",
        "streetDirectionId": null,
        "streetTypeId": "ST",
        "placeName": "SEAGRAVE",
        "streetNameDisplayText": "ISABELLA ST, SEAGRAVE"
      },
      {
        "electoralDistricts": [
          {
            "election": null,
            "id": 24,
            "name": "Durham"
          }
        ],
        "pollDivisionIds": [
          10137826
        ],
        "postalCode": "L0C1G0",
        "streetName": "KEENE",
        "streetDirectionId": null,
        "streetTypeId": "ST",
        "placeName": "SEAGRAVE",
        "streetNameDisplayText": "KEENE ST, SEAGRAVE"
      },
      {
        "electoralDistricts": [
          {
            "election": null,
            "id": 24,
            "name": "Durham"
          }
        ],
        "pollDivisionIds": [
          10137826
        ],
        "postalCode": "L0C1G0",
        "streetName": "LIMOSANO",
        "streetDirectionId": null,
        "streetTypeId": "ST",
        "placeName": "SEAGRAVE",
        "streetNameDisplayText": "LIMOSANO ST, SEAGRAVE"
      },
      {
        "electoralDistricts": [
          {
            "election": null,
            "id": 24,
            "name": "Durham"
          }
        ],
        "pollDivisionIds": [
          10137826
        ],
        "postalCode": "L0C1G0",
        "streetName": "MEADOW GREEN",
        "streetDirectionId": null,
        "streetTypeId": "CRT",
        "placeName": "SEAGRAVE",
        "streetNameDisplayText": "MEADOW GREEN CRT, SEAGRAVE"
      },
      {
        "electoralDistricts": [
          {
            "election": null,
            "id": 24,
            "name": "Durham"
          }
        ],
        "pollDivisionIds": [
          10137826
        ],
        "postalCode": "L0C1G0",
        "streetName": "MEADOWGREEN",
        "streetDirectionId": null,
        "streetTypeId": "CRT",
        "placeName": "SEAGRAVE",
        "streetNameDisplayText": "MEADOWGREEN CRT, SEAGRAVE"
      },
      {
        "electoralDistricts": [
          {
            "election": null,
            "id": 35,
            "name": "Haliburton—Kawartha Lakes—Brock"
          }
        ],
        "pollDivisionIds": [
          10138550
        ],
        "postalCode": "L0C1G0",
        "streetName": "NONQUON",
        "streetDirectionId": null,
        "streetTypeId": "DR",
        "placeName": "SEAGRAVE",
        "streetNameDisplayText": "NONQUON DR, SEAGRAVE"
      },
      {
        "electoralDistricts": [
          {
            "election": null,
            "id": 24,
            "name": "Durham"
          }
        ],
        "pollDivisionIds": [
          10137826
        ],
        "postalCode": "L0C1G0",
        "streetName": "OLD SIMCOE",
        "streetDirectionId": null,
        "streetTypeId": "RD",
        "placeName": "SEAGRAVE",
        "streetNameDisplayText": "OLD SIMCOE RD, SEAGRAVE"
      },
      {
        "electoralDistricts": [
          {
            "election": null,
            "id": 24,
            "name": "Durham"
          }
        ],
        "pollDivisionIds": [
          10137826
        ],
        "postalCode": "L0C1G0",
        "streetName": "PARDO",
        "streetDirectionId": null,
        "streetTypeId": "CRT",
        "placeName": "SEAGRAVE",
        "streetNameDisplayText": "PARDO CRT, SEAGRAVE"
      },
      {
        "electoralDistricts": [
          {
            "election": null,
            "id": 24,
            "name": "Durham"
          }
        ],
        "pollDivisionIds": [
          10137826
        ],
        "postalCode": "L0C1G0",
        "streetName": "PUCKRIN",
        "streetDirectionId": null,
        "streetTypeId": "DR",
        "placeName": "SEAGRAVE",
        "streetNameDisplayText": "PUCKRIN DR, SEAGRAVE"
      },
      {
        "electoralDistricts": [
          {
            "election": null,
            "id": 24,
            "name": "Durham"
          }
        ],
        "pollDivisionIds": [
          10137826
        ],
        "postalCode": "L0C1G0",
        "streetName": "REGIONAL 6",
        "streetDirectionId": null,
        "streetTypeId": "RD",
        "placeName": "SEAGRAVE",
        "streetNameDisplayText": "REGIONAL 6 RD, SEAGRAVE"
      },
      {
        "electoralDistricts": [
          {
            "election": null,
            "id": 35,
            "name": "Haliburton—Kawartha Lakes—Brock"
          }
        ],
        "pollDivisionIds": [
          10138550
        ],
        "postalCode": "L0C1G0",
        "streetName": "RHODES",
        "streetDirectionId": null,
        "streetTypeId": "AVE",
        "placeName": "SEAGRAVE",
        "streetNameDisplayText": "RHODES AVE, SEAGRAVE"
      },
      {
        "electoralDistricts": [
          {
            "election": null,
            "id": 24,
            "name": "Durham"
          },
          {
            "election": null,
            "id": 35,
            "name": "Haliburton—Kawartha Lakes—Brock"
          }
        ],
        "pollDivisionIds": [
          10137826,
          10138550
        ],
        "postalCode": "L0C1G0",
        "streetName": "RIVER",
        "streetDirectionId": null,
        "streetTypeId": "ST",
        "placeName": "SEAGRAVE",
        "streetNameDisplayText": "RIVER ST, SEAGRAVE"
      },
      {
        "electoralDistricts": [
          {
            "election": null,
            "id": 35,
            "name": "Haliburton—Kawartha Lakes—Brock"
          }
        ],
        "pollDivisionIds": [
          10138550
        ],
        "postalCode": "L0C1G0",
        "streetName": "RIVERVIEW",
        "streetDirectionId": null,
        "streetTypeId": "RD",
        "placeName": "SEAGRAVE",
        "streetNameDisplayText": "RIVERVIEW RD, SEAGRAVE"
      },
      {
        "electoralDistricts": [
          {
            "election": null,
            "id": 35,
            "name": "Haliburton—Kawartha Lakes—Brock"
          }
        ],
        "pollDivisionIds": [
          10138550
        ],
        "postalCode": "L0C1G0",
        "streetName": "ROBINGLADE",
        "streetDirectionId": null,
        "streetTypeId": "AVE",
        "placeName": "SEAGRAVE",
        "streetNameDisplayText": "ROBINGLADE AVE, SEAGRAVE"
      },
      {
        "electoralDistricts": [
          {
            "election": null,
            "id": 24,
            "name": "Durham"
          }
        ],
        "pollDivisionIds": [
          10137826
        ],
        "postalCode": "L0C1G0",
        "streetName": "SAINTFIELD",
        "streetDirectionId": null,
        "streetTypeId": "RD",
        "placeName": "SEAGRAVE",
        "streetNameDisplayText": "SAINTFIELD RD, SEAGRAVE"
      },
      {
        "electoralDistricts": [
          {
            "election": null,
            "id": 24,
            "name": "Durham"
          }
        ],
        "pollDivisionIds": [
          10137826
        ],
        "postalCode": "L0C1G0",
        "streetName": "SCUGOG 10",
        "streetDirectionId": null,
        "streetTypeId": "LINE",
        "placeName": "GREENBANK",
        "streetNameDisplayText": "SCUGOG 10 LINE, GREENBANK"
      },
      {
        "electoralDistricts": [
          {
            "election": null,
            "id": 24,
            "name": "Durham"
          }
        ],
        "pollDivisionIds": [
          10137827,
          10137826
        ],
        "postalCode": "L0C1G0",
        "streetName": "SCUGOG 10",
        "streetDirectionId": null,
        "streetTypeId": "LINE",
        "placeName": "SEAGRAVE",
        "streetNameDisplayText": "SCUGOG 10 LINE, SEAGRAVE"
      },
      {
        "electoralDistricts": [
          {
            "election": null,
            "id": 24,
            "name": "Durham"
          }
        ],
        "pollDivisionIds": [
          10137826
        ],
        "postalCode": "L0C1G0",
        "streetName": "SCUGOG 12",
        "streetDirectionId": null,
        "streetTypeId": "LINE",
        "placeName": "GREENBANK",
        "streetNameDisplayText": "SCUGOG 12 LINE, GREENBANK"
      },
      {
        "electoralDistricts": [
          {
            "election": null,
            "id": 24,
            "name": "Durham"
          }
        ],
        "pollDivisionIds": [
          10137826
        ],
        "postalCode": "L0C1G0",
        "streetName": "SCUGOG 12",
        "streetDirectionId": null,
        "streetTypeId": "LINE",
        "placeName": "SEAGRAVE",
        "streetNameDisplayText": "SCUGOG 12 LINE, SEAGRAVE"
      },
      {
        "electoralDistricts": [
          {
            "election": null,
            "id": 24,
            "name": "Durham"
          }
        ],
        "pollDivisionIds": [
          10137826
        ],
        "postalCode": "L0C1G0",
        "streetName": "SCUGOG LINE 10",
        "streetDirectionId": null,
        "streetTypeId": null,
        "placeName": "SEAGRAVE",
        "streetNameDisplayText": "SCUGOG LINE 10, SEAGRAVE"
      },
      {
        "electoralDistricts": [
          {
            "election": null,
            "id": 24,
            "name": "Durham"
          }
        ],
        "pollDivisionIds": [
          10137826
        ],
        "postalCode": "L0C1G0",
        "streetName": "SCUGOG LINE 12",
        "streetDirectionId": null,
        "streetTypeId": null,
        "placeName": "SEAGRAVE",
        "streetNameDisplayText": "SCUGOG LINE 12, SEAGRAVE"
      },
      {
        "electoralDistricts": [
          {
            "election": null,
            "id": 24,
            "name": "Durham"
          }
        ],
        "pollDivisionIds": [
          10137826,
          10137827
        ],
        "postalCode": "L0C1G0",
        "streetName": "SIMCOE",
        "streetDirectionId": null,
        "streetTypeId": "ST",
        "placeName": "SEAGRAVE",
        "streetNameDisplayText": "SIMCOE ST, SEAGRAVE"
      },
      {
        "electoralDistricts": [
          {
            "election": null,
            "id": 24,
            "name": "Durham"
          }
        ],
        "pollDivisionIds": [
          10137826
        ],
        "postalCode": "L0C1G0",
        "streetName": "SIMCOE ST/REG RD2",
        "streetDirectionId": null,
        "streetTypeId": "ST",
        "placeName": "SEAGRAVE",
        "streetNameDisplayText": "SIMCOE ST/REG RD2 ST, SEAGRAVE"
      },
      {
        "electoralDistricts": [
          {
            "election": null,
            "id": 35,
            "name": "Haliburton—Kawartha Lakes—Brock"
          }
        ],
        "pollDivisionIds": [
          10138550
        ],
        "postalCode": "L0C1G0",
        "streetName": "SOUTH CREST",
        "streetDirectionId": null,
        "streetTypeId": "DR",
        "placeName": "SEAGRAVE",
        "streetNameDisplayText": "SOUTH CREST DR, SEAGRAVE"
      },
      {
        "electoralDistricts": [
          {
            "election": null,
            "id": 35,
            "name": "Haliburton—Kawartha Lakes—Brock"
          }
        ],
        "pollDivisionIds": [
          10138550
        ],
        "postalCode": "L0C1G0",
        "streetName": "SOUTHCREST",
        "streetDirectionId": null,
        "streetTypeId": "DR",
        "placeName": "SEAGRAVE",
        "streetNameDisplayText": "SOUTHCREST DR, SEAGRAVE"
      },
      {
        "electoralDistricts": [
          {
            "election": null,
            "id": 35,
            "name": "Haliburton—Kawartha Lakes—Brock"
          }
        ],
        "pollDivisionIds": [
          10138550
        ],
        "postalCode": "L0C1G0",
        "streetName": "STUB",
        "streetDirectionId": null,
        "streetTypeId": "RD",
        "placeName": "SEAGRAVE",
        "streetNameDisplayText": "STUB RD, SEAGRAVE"
      },
      {
        "electoralDistricts": [
          {
            "election": null,
            "id": 35,
            "name": "Haliburton—Kawartha Lakes—Brock"
          }
        ],
        "pollDivisionIds": [
          10138550
        ],
        "postalCode": "L0C1G0",
        "streetName": "SUN VALLEY",
        "streetDirectionId": null,
        "streetTypeId": "RD",
        "placeName": "SEAGRAVE",
        "streetNameDisplayText": "SUN VALLEY RD, SEAGRAVE"
      },
      {
        "electoralDistricts": [
          {
            "election": null,
            "id": 35,
            "name": "Haliburton—Kawartha Lakes—Brock"
          }
        ],
        "pollDivisionIds": [
          10138550
        ],
        "postalCode": "L0C1G0",
        "streetName": "SUNVALLEY RD",
        "streetDirectionId": null,
        "streetTypeId": "RD",
        "placeName": "SEAGRAVE",
        "streetNameDisplayText": "SUNVALLEY RD RD, SEAGRAVE"
      },
      {
        "electoralDistricts": [
          {
            "election": null,
            "id": 24,
            "name": "Durham"
          }
        ],
        "pollDivisionIds": [
          10137826
        ],
        "postalCode": "L0C1G0",
        "streetName": "TILL",
        "streetDirectionId": null,
        "streetTypeId": "SIDERD",
        "placeName": "SEAGRAVE",
        "streetNameDisplayText": "TILL SIDERD, SEAGRAVE"
      }
    ]
  },
  {
    "postal": "L0C1H0",
    "result": [
      {
        "electoralDistricts": [
          {
            "election": null,
            "id": 35,
            "name": "Haliburton—Kawartha Lakes—Brock"
          }
        ],
        "pollDivisionIds": [
          10138542
        ],
        "postalCode": "L0C1H0",
        "streetName": "12",
        "streetDirectionId": null,
        "streetTypeId": "HWY",
        "placeName": "BEAVERTON",
        "streetNameDisplayText": "12 HWY, BEAVERTON"
      },
      {
        "electoralDistricts": [
          {
            "election": null,
            "id": 35,
            "name": "Haliburton—Kawartha Lakes—Brock"
          },
          {
            "election": null,
            "id": 24,
            "name": "Durham"
          }
        ],
        "pollDivisionIds": [
          10138542,
          10138545,
          10138546,
          10137826,
          10138544
        ],
        "postalCode": "L0C1H0",
        "streetName": "12",
        "streetDirectionId": null,
        "streetTypeId": "HWY",
        "placeName": "SUNDERLAND",
        "streetNameDisplayText": "12 HWY, SUNDERLAND"
      },
      {
        "electoralDistricts": [
          {
            "election": null,
            "id": 35,
            "name": "Haliburton—Kawartha Lakes—Brock"
          }
        ],
        "pollDivisionIds": [
          10138542
        ],
        "postalCode": "L0C1H0",
        "streetName": "14TH",
        "streetDirectionId": null,
        "streetTypeId": "LINE",
        "placeName": "BEAVERTON",
        "streetNameDisplayText": "14TH LINE, BEAVERTON"
      },
      {
        "electoralDistricts": [
          {
            "election": null,
            "id": 35,
            "name": "Haliburton—Kawartha Lakes—Brock"
          }
        ],
        "pollDivisionIds": [
          10138545,
          10138544
        ],
        "postalCode": "L0C1H0",
        "streetName": "17",
        "streetDirectionId": null,
        "streetTypeId": "SIDERD",
        "placeName": "SUNDERLAND",
        "streetNameDisplayText": "17 SIDERD, SUNDERLAND"
      },
      {
        "electoralDistricts": [
          {
            "election": null,
            "id": 35,
            "name": "Haliburton—Kawartha Lakes—Brock"
          }
        ],
        "pollDivisionIds": [
          10138544,
          10138545
        ],
        "postalCode": "L0C1H0",
        "streetName": "17A",
        "streetDirectionId": null,
        "streetTypeId": "SIDERD",
        "placeName": "SUNDERLAND",
        "streetNameDisplayText": "17A SIDERD, SUNDERLAND"
      },
      {
        "electoralDistricts": [
          {
            "election": null,
            "id": 35,
            "name": "Haliburton—Kawartha Lakes—Brock"
          }
        ],
        "pollDivisionIds": [
          10138546,
          10138545
        ],
        "postalCode": "L0C1H0",
        "streetName": "18",
        "streetDirectionId": null,
        "streetTypeId": "SIDERD",
        "placeName": "SUNDERLAND",
        "streetNameDisplayText": "18 SIDERD, SUNDERLAND"
      },
      {
        "electoralDistricts": [
          {
            "election": null,
            "id": 35,
            "name": "Haliburton—Kawartha Lakes—Brock"
          }
        ],
        "pollDivisionIds": [
          10138546
        ],
        "postalCode": "L0C1H0",
        "streetName": "18A",
        "streetDirectionId": null,
        "streetTypeId": "SIDERD",
        "placeName": "SUNDERLAND",
        "streetNameDisplayText": "18A SIDERD, SUNDERLAND"
      },
      {
        "electoralDistricts": [
          {
            "election": null,
            "id": 35,
            "name": "Haliburton—Kawartha Lakes—Brock"
          }
        ],
        "pollDivisionIds": [
          10138545
        ],
        "postalCode": "L0C1H0",
        "streetName": "1980 CONC 4",
        "streetDirectionId": null,
        "streetTypeId": "CONC",
        "placeName": "SUNDERLAND",
        "streetNameDisplayText": "1980 CONC 4 CONC, SUNDERLAND"
      },
      {
        "electoralDistricts": [
          {
            "election": null,
            "id": 35,
            "name": "Haliburton—Kawartha Lakes—Brock"
          }
        ],
        "pollDivisionIds": [
          10138545
        ],
        "postalCode": "L0C1H0",
        "streetName": "5TH",
        "streetDirectionId": null,
        "streetTypeId": "CONC",
        "placeName": "SUNDERLAND",
        "streetNameDisplayText": "5TH CONC, SUNDERLAND"
      },
      {
        "electoralDistricts": [
          {
            "election": null,
            "id": 35,
            "name": "Haliburton—Kawartha Lakes—Brock"
          }
        ],
        "pollDivisionIds": [
          10138545
        ],
        "postalCode": "L0C1H0",
        "streetName": "6",
        "streetDirectionId": null,
        "streetTypeId": "CONC",
        "placeName": "SUNDERLAND",
        "streetNameDisplayText": "6 CONC, SUNDERLAND"
      },
      {
        "electoralDistricts": [
          {
            "election": null,
            "id": 35,
            "name": "Haliburton—Kawartha Lakes—Brock"
          }
        ],
        "pollDivisionIds": [
          10138546
        ],
        "postalCode": "L0C1H0",
        "streetName": "7",
        "streetDirectionId": null,
        "streetTypeId": "HWY",
        "placeName": "SUNDERLAND",
        "streetNameDisplayText": "7 HWY, SUNDERLAND"
      },
      {
        "electoralDistricts": [
          {
            "election": null,
            "id": 35,
            "name": "Haliburton—Kawartha Lakes—Brock"
          }
        ],
        "pollDivisionIds": [
          10138544
        ],
        "postalCode": "L0C1H0",
        "streetName": "7+12",
        "streetDirectionId": null,
        "streetTypeId": "HWY",
        "placeName": "CANNINGTON",
        "streetNameDisplayText": "7+12 HWY, CANNINGTON"
      },
      {
        "electoralDistricts": [
          {
            "election": null,
            "id": 35,
            "name": "Haliburton—Kawartha Lakes—Brock"
          },
          {
            "election": null,
            "id": 24,
            "name": "Durham"
          }
        ],
        "pollDivisionIds": [
          10138544,
          10138545,
          10137826,
          10138546
        ],
        "postalCode": "L0C1H0",
        "streetName": "7+12",
        "streetDirectionId": null,
        "streetTypeId": "HWY",
        "placeName": "SUNDERLAND",
        "streetNameDisplayText": "7+12 HWY, SUNDERLAND"
      },
      {
        "electoralDistricts": [
          {
            "election": null,
            "id": 35,
            "name": "Haliburton—Kawartha Lakes—Brock"
          },
          {
            "election": null,
            "id": 87,
            "name": "Pickering—Uxbridge"
          }
        ],
        "pollDivisionIds": [
          10138545,
          10143366
        ],
        "postalCode": "L0C1H0",
        "streetName": "ACTON",
        "streetDirectionId": null,
        "streetTypeId": "RD",
        "placeName": "SUNDERLAND",
        "streetNameDisplayText": "ACTON RD, SUNDERLAND"
      },
      {
        "electoralDistricts": [
          {
            "election": null,
            "id": 35,
            "name": "Haliburton—Kawartha Lakes—Brock"
          }
        ],
        "pollDivisionIds": [
          10138545
        ],
        "postalCode": "L0C1H0",
        "streetName": "ALBERT",
        "streetDirectionId": "N",
        "streetTypeId": "ST",
        "placeName": "SUNDERLAND",
        "streetNameDisplayText": "ALBERT ST N, SUNDERLAND"
      },
      {
        "electoralDistricts": [
          {
            "election": null,
            "id": 35,
            "name": "Haliburton—Kawartha Lakes—Brock"
          }
        ],
        "pollDivisionIds": [
          10138545
        ],
        "postalCode": "L0C1H0",
        "streetName": "ALBERT",
        "streetDirectionId": "S",
        "streetTypeId": "ST",
        "placeName": "SUNDERLAND",
        "streetNameDisplayText": "ALBERT ST S, SUNDERLAND"
      },
      {
        "electoralDistricts": [
          {
            "election": null,
            "id": 35,
            "name": "Haliburton—Kawartha Lakes—Brock"
          }
        ],
        "pollDivisionIds": [
          10138543
        ],
        "postalCode": "L0C1H0",
        "streetName": "ALBERT",
        "streetDirectionId": "W",
        "streetTypeId": "ST",
        "placeName": "CANNINGTON",
        "streetNameDisplayText": "ALBERT ST W, CANNINGTON"
      },
      {
        "electoralDistricts": [
          {
            "election": null,
            "id": 35,
            "name": "Haliburton—Kawartha Lakes—Brock"
          }
        ],
        "pollDivisionIds": [
          10138545
        ],
        "postalCode": "L0C1H0",
        "streetName": "ALBERT",
        "streetDirectionId": null,
        "streetTypeId": "ST",
        "placeName": "SUNDERLAND",
        "streetNameDisplayText": "ALBERT ST, SUNDERLAND"
      },
      {
        "electoralDistricts": [
          {
            "election": null,
            "id": 35,
            "name": "Haliburton—Kawartha Lakes—Brock"
          }
        ],
        "pollDivisionIds": [
          10138545
        ],
        "postalCode": "L0C1H0",
        "streetName": "ANTIOCH",
        "streetDirectionId": null,
        "streetTypeId": "CRT",
        "placeName": "SUNDERLAND",
        "streetNameDisplayText": "ANTIOCH CRT, SUNDERLAND"
      },
      {
        "electoralDistricts": [
          {
            "election": null,
            "id": 35,
            "name": "Haliburton—Kawartha Lakes—Brock"
          }
        ],
        "pollDivisionIds": [
          10138545
        ],
        "postalCode": "L0C1H0",
        "streetName": "ART WELSH",
        "streetDirectionId": null,
        "streetTypeId": "LANE",
        "placeName": "SUNDERLAND",
        "streetNameDisplayText": "ART WELSH LANE, SUNDERLAND"
      },
      {
        "electoralDistricts": [
          {
            "election": null,
            "id": 35,
            "name": "Haliburton—Kawartha Lakes—Brock"
          }
        ],
        "pollDivisionIds": [
          10138545
        ],
        "postalCode": "L0C1H0",
        "streetName": "BLACKWATER",
        "streetDirectionId": null,
        "streetTypeId": "RD",
        "placeName": "SUNDERLAND",
        "streetNameDisplayText": "BLACKWATER RD, SUNDERLAND"
      },
      {
        "electoralDistricts": [
          {
            "election": null,
            "id": 24,
            "name": "Durham"
          }
        ],
        "pollDivisionIds": [
          10137826
        ],
        "postalCode": "L0C1H0",
        "streetName": "BLUE MOUNTAIN",
        "streetDirectionId": null,
        "streetTypeId": "RD",
        "placeName": "SUNDERLAND",
        "streetNameDisplayText": "BLUE MOUNTAIN RD, SUNDERLAND"
      },
      {
        "electoralDistricts": [
          {
            "election": null,
            "id": 87,
            "name": "Pickering—Uxbridge"
          }
        ],
        "pollDivisionIds": [
          10143366
        ],
        "postalCode": "L0C1H0",
        "streetName": "BOND",
        "streetDirectionId": null,
        "streetTypeId": "LANE",
        "placeName": "SUNDERLAND",
        "streetNameDisplayText": "BOND LANE, SUNDERLAND"
      },
      {
        "electoralDistricts": [
          {
            "election": null,
            "id": 35,
            "name": "Haliburton—Kawartha Lakes—Brock"
          }
        ],
        "pollDivisionIds": [
          10138545
        ],
        "postalCode": "L0C1H0",
        "streetName": "BRETHOUR",
        "streetDirectionId": null,
        "streetTypeId": "ST",
        "placeName": "SUNDERLAND",
        "streetNameDisplayText": "BRETHOUR ST, SUNDERLAND"
      },
      {
        "electoralDistricts": [
          {
            "election": null,
            "id": 35,
            "name": "Haliburton—Kawartha Lakes—Brock"
          }
        ],
        "pollDivisionIds": [
          10138545
        ],
        "postalCode": "L0C1H0",
        "streetName": "BROCK CONCESSION 1",
        "streetDirectionId": null,
        "streetTypeId": "RD",
        "placeName": "SUNDERLAND",
        "streetNameDisplayText": "BROCK CONCESSION 1 RD, SUNDERLAND"
      },
      {
        "electoralDistricts": [
          {
            "election": null,
            "id": 24,
            "name": "Durham"
          }
        ],
        "pollDivisionIds": [
          10137826
        ],
        "postalCode": "L0C1H0",
        "streetName": "BROCK CONCESSION 1",
        "streetDirectionId": null,
        "streetTypeId": null,
        "placeName": "SUNDERLAND",
        "streetNameDisplayText": "BROCK CONCESSION 1, SUNDERLAND"
      },
      {
        "electoralDistricts": [
          {
            "election": null,
            "id": 35,
            "name": "Haliburton—Kawartha Lakes—Brock"
          }
        ],
        "pollDivisionIds": [
          10138545
        ],
        "postalCode": "L0C1H0",
        "streetName": "BROCK CONCESSION 2",
        "streetDirectionId": null,
        "streetTypeId": "RD",
        "placeName": "SUNDERLAND",
        "streetNameDisplayText": "BROCK CONCESSION 2 RD, SUNDERLAND"
      },
      {
        "electoralDistricts": [
          {
            "election": null,
            "id": 35,
            "name": "Haliburton—Kawartha Lakes—Brock"
          }
        ],
        "pollDivisionIds": [
          10138545
        ],
        "postalCode": "L0C1H0",
        "streetName": "BROCK CONCESSION 3",
        "streetDirectionId": null,
        "streetTypeId": "RD",
        "placeName": "SUNDERLAND",
        "streetNameDisplayText": "BROCK CONCESSION 3 RD, SUNDERLAND"
      },
      {
        "electoralDistricts": [
          {
            "election": null,
            "id": 35,
            "name": "Haliburton—Kawartha Lakes—Brock"
          }
        ],
        "pollDivisionIds": [
          10138545
        ],
        "postalCode": "L0C1H0",
        "streetName": "BROCK CONCESSION 4",
        "streetDirectionId": null,
        "streetTypeId": "RD",
        "placeName": "SUNDERLAND",
        "streetNameDisplayText": "BROCK CONCESSION 4 RD, SUNDERLAND"
      },
      {
        "electoralDistricts": [
          {
            "election": null,
            "id": 35,
            "name": "Haliburton—Kawartha Lakes—Brock"
          }
        ],
        "pollDivisionIds": [
          10138545
        ],
        "postalCode": "L0C1H0",
        "streetName": "BROCK CONCESSION 5",
        "streetDirectionId": null,
        "streetTypeId": "RD",
        "placeName": "SUNDERLAND",
        "streetNameDisplayText": "BROCK CONCESSION 5 RD, SUNDERLAND"
      },
      {
        "electoralDistricts": [
          {
            "election": null,
            "id": 35,
            "name": "Haliburton—Kawartha Lakes—Brock"
          }
        ],
        "pollDivisionIds": [
          10138546,
          10138545
        ],
        "postalCode": "L0C1H0",
        "streetName": "BROCK CONCESSION 6",
        "streetDirectionId": null,
        "streetTypeId": "RD",
        "placeName": "SUNDERLAND",
        "streetNameDisplayText": "BROCK CONCESSION 6 RD, SUNDERLAND"
      },
      {
        "electoralDistricts": [
          {
            "election": null,
            "id": 35,
            "name": "Haliburton—Kawartha Lakes—Brock"
          }
        ],
        "pollDivisionIds": [
          10138514
        ],
        "postalCode": "L0C1H0",
        "streetName": "BROCK CONCESSION 6",
        "streetDirectionId": null,
        "streetTypeId": null,
        "placeName": "SUNDERLAND",
        "streetNameDisplayText": "BROCK CONCESSION 6, SUNDERLAND"
      },
      {
        "electoralDistricts": [
          {
            "election": null,
            "id": 35,
            "name": "Haliburton—Kawartha Lakes—Brock"
          }
        ],
        "pollDivisionIds": [
          10138544,
          10138546,
          10138541
        ],
        "postalCode": "L0C1H0",
        "streetName": "BROCK CONCESSION 7",
        "streetDirectionId": null,
        "streetTypeId": "RD",
        "placeName": "SUNDERLAND",
        "streetNameDisplayText": "BROCK CONCESSION 7 RD, SUNDERLAND"
      },
      {
        "electoralDistricts": [
          {
            "election": null,
            "id": 35,
            "name": "Haliburton—Kawartha Lakes—Brock"
          }
        ],
        "pollDivisionIds": [
          10138544
        ],
        "postalCode": "L0C1H0",
        "streetName": "BROCK CONCESSION 9",
        "streetDirectionId": null,
        "streetTypeId": "RD",
        "placeName": "PEFFERLAW",
        "streetNameDisplayText": "BROCK CONCESSION 9 RD, PEFFERLAW"
      },
      {
        "electoralDistricts": [
          {
            "election": null,
            "id": 35,
            "name": "Haliburton—Kawartha Lakes—Brock"
          }
        ],
        "pollDivisionIds": [
          10138529,
          10138544
        ],
        "postalCode": "L0C1H0",
        "streetName": "BROCK CONCESSION 9",
        "streetDirectionId": null,
        "streetTypeId": "RD",
        "placeName": "SUNDERLAND",
        "streetNameDisplayText": "BROCK CONCESSION 9 RD, SUNDERLAND"
      },
      {
        "electoralDistricts": [
          {
            "election": null,
            "id": 35,
            "name": "Haliburton—Kawartha Lakes—Brock"
          },
          {
            "election": null,
            "id": 24,
            "name": "Durham"
          }
        ],
        "pollDivisionIds": [
          10138545,
          10137826
        ],
        "postalCode": "L0C1H0",
        "streetName": "BROCK CONCESSION RD 1",
        "streetDirectionId": null,
        "streetTypeId": "CONC",
        "placeName": "SUNDERLAND",
        "streetNameDisplayText": "BROCK CONCESSION RD 1 CONC, SUNDERLAND"
      },
      {
        "electoralDistricts": [
          {
            "election": null,
            "id": 35,
            "name": "Haliburton—Kawartha Lakes—Brock"
          }
        ],
        "pollDivisionIds": [
          10138544
        ],
        "postalCode": "L0C1H0",
        "streetName": "BROCK CONCESSION RD 10",
        "streetDirectionId": null,
        "streetTypeId": "CONC",
        "placeName": "CANNINGTON",
        "streetNameDisplayText": "BROCK CONCESSION RD 10 CONC, CANNINGTON"
      },
      {
        "electoralDistricts": [
          {
            "election": null,
            "id": 35,
            "name": "Haliburton—Kawartha Lakes—Brock"
          }
        ],
        "pollDivisionIds": [
          10138544,
          10138546
        ],
        "postalCode": "L0C1H0",
        "streetName": "BROCK CONCESSION RD 10",
        "streetDirectionId": null,
        "streetTypeId": "CONC",
        "placeName": "SUNDERLAND",
        "streetNameDisplayText": "BROCK CONCESSION RD 10 CONC, SUNDERLAND"
      },
      {
        "electoralDistricts": [
          {
            "election": null,
            "id": 35,
            "name": "Haliburton—Kawartha Lakes—Brock"
          }
        ],
        "pollDivisionIds": [
          10138543
        ],
        "postalCode": "L0C1H0",
        "streetName": "BROCK CONCESSION RD 11",
        "streetDirectionId": null,
        "streetTypeId": "CONC",
        "placeName": "CANNINGTON",
        "streetNameDisplayText": "BROCK CONCESSION RD 11 CONC, CANNINGTON"
      },
      {
        "electoralDistricts": [
          {
            "election": null,
            "id": 35,
            "name": "Haliburton—Kawartha Lakes—Brock"
          }
        ],
        "pollDivisionIds": [
          10138545
        ],
        "postalCode": "L0C1H0",
        "streetName": "BROCK CONCESSION RD 2",
        "streetDirectionId": null,
        "streetTypeId": "CONC",
        "placeName": "LITTLE BRITAIN",
        "streetNameDisplayText": "BROCK CONCESSION RD 2 CONC, LITTLE BRITAIN"
      },
      {
        "electoralDistricts": [
          {
            "election": null,
            "id": 35,
            "name": "Haliburton—Kawartha Lakes—Brock"
          }
        ],
        "pollDivisionIds": [
          10138545
        ],
        "postalCode": "L0C1H0",
        "streetName": "BROCK CONCESSION RD 2",
        "streetDirectionId": null,
        "streetTypeId": "CONC",
        "placeName": "SUNDERLAND",
        "streetNameDisplayText": "BROCK CONCESSION RD 2 CONC, SUNDERLAND"
      },
      {
        "electoralDistricts": [
          {
            "election": null,
            "id": 35,
            "name": "Haliburton—Kawartha Lakes—Brock"
          }
        ],
        "pollDivisionIds": [
          10138545
        ],
        "postalCode": "L0C1H0",
        "streetName": "BROCK CONCESSION RD 4",
        "streetDirectionId": null,
        "streetTypeId": "CONC",
        "placeName": "SUNDERLAND",
        "streetNameDisplayText": "BROCK CONCESSION RD 4 CONC, SUNDERLAND"
      },
      {
        "electoralDistricts": [
          {
            "election": null,
            "id": 35,
            "name": "Haliburton—Kawartha Lakes—Brock"
          }
        ],
        "pollDivisionIds": [
          10138545
        ],
        "postalCode": "L0C1H0",
        "streetName": "BROCK CONCESSION RD 5",
        "streetDirectionId": null,
        "streetTypeId": "CONC",
        "placeName": "SUNDERLAND",
        "streetNameDisplayText": "BROCK CONCESSION RD 5 CONC, SUNDERLAND"
      },
      {
        "electoralDistricts": [
          {
            "election": null,
            "id": 35,
            "name": "Haliburton—Kawartha Lakes—Brock"
          }
        ],
        "pollDivisionIds": [
          10138545,
          10138514
        ],
        "postalCode": "L0C1H0",
        "streetName": "BROCK CONCESSION RD 6",
        "streetDirectionId": null,
        "streetTypeId": "CONC",
        "placeName": "SUNDERLAND",
        "streetNameDisplayText": "BROCK CONCESSION RD 6 CONC, SUNDERLAND"
      },
      {
        "electoralDistricts": [
          {
            "election": null,
            "id": 35,
            "name": "Haliburton—Kawartha Lakes—Brock"
          }
        ],
        "pollDivisionIds": [
          10138546,
          10138544,
          10138545
        ],
        "postalCode": "L0C1H0",
        "streetName": "BROCK CONCESSION RD 7",
        "streetDirectionId": null,
        "streetTypeId": "CONC",
        "placeName": "SUNDERLAND",
        "streetNameDisplayText": "BROCK CONCESSION RD 7 CONC, SUNDERLAND"
      },
      {
        "electoralDistricts": [
          {
            "election": null,
            "id": 35,
            "name": "Haliburton—Kawartha Lakes—Brock"
          }
        ],
        "pollDivisionIds": [
          10138544,
          10138546
        ],
        "postalCode": "L0C1H0",
        "streetName": "BROCK CONCESSION RD 8",
        "streetDirectionId": null,
        "streetTypeId": "CONC",
        "placeName": "SUNDERLAND",
        "streetNameDisplayText": "BROCK CONCESSION RD 8 CONC, SUNDERLAND"
      },
      {
        "electoralDistricts": [
          {
            "election": null,
            "id": 35,
            "name": "Haliburton—Kawartha Lakes—Brock"
          }
        ],
        "pollDivisionIds": [
          10138546
        ],
        "postalCode": "L0C1H0",
        "streetName": "BROCK CONCESSION RD 9",
        "streetDirectionId": null,
        "streetTypeId": "CONC",
        "placeName": "MANILLA",
        "streetNameDisplayText": "BROCK CONCESSION RD 9 CONC, MANILLA"
      },
      {
        "electoralDistricts": [
          {
            "election": null,
            "id": 35,
            "name": "Haliburton—Kawartha Lakes—Brock"
          }
        ],
        "pollDivisionIds": [
          10138546
        ],
        "postalCode": "L0C1H0",
        "streetName": "BROCK CONCESSION RD 9",
        "streetDirectionId": null,
        "streetTypeId": "CONC",
        "placeName": "OAKWOOD",
        "streetNameDisplayText": "BROCK CONCESSION RD 9 CONC, OAKWOOD"
      },
      {
        "electoralDistricts": [
          {
            "election": null,
            "id": 35,
            "name": "Haliburton—Kawartha Lakes—Brock"
          }
        ],
        "pollDivisionIds": [
          10138546,
          10138544
        ],
        "postalCode": "L0C1H0",
        "streetName": "BROCK CONCESSION RD 9",
        "streetDirectionId": null,
        "streetTypeId": "CONC",
        "placeName": "SUNDERLAND",
        "streetNameDisplayText": "BROCK CONCESSION RD 9 CONC, SUNDERLAND"
      },
      {
        "electoralDistricts": [
          {
            "election": null,
            "id": 35,
            "name": "Haliburton—Kawartha Lakes—Brock"
          }
        ],
        "pollDivisionIds": [
          10138545
        ],
        "postalCode": "L0C1H0",
        "streetName": "BROCK LINE 2",
        "streetDirectionId": null,
        "streetTypeId": "LINE",
        "placeName": "SUNDERLAND",
        "streetNameDisplayText": "BROCK LINE 2 LINE, SUNDERLAND"
      },
      {
        "electoralDistricts": [
          {
            "election": null,
            "id": 35,
            "name": "Haliburton—Kawartha Lakes—Brock"
          }
        ],
        "pollDivisionIds": [
          10138545,
          10138544
        ],
        "postalCode": "L0C1H0",
        "streetName": "BROCK",
        "streetDirectionId": null,
        "streetTypeId": "RD",
        "placeName": "SUNDERLAND",
        "streetNameDisplayText": "BROCK RD, SUNDERLAND"
      },
      {
        "electoralDistricts": [
          {
            "election": null,
            "id": 35,
            "name": "Haliburton—Kawartha Lakes—Brock"
          }
        ],
        "pollDivisionIds": [
          10138545
        ],
        "postalCode": "L0C1H0",
        "streetName": "CEDAR",
        "streetDirectionId": "S",
        "streetTypeId": "ST",
        "placeName": "SUNDERLAND",
        "streetNameDisplayText": "CEDAR ST S, SUNDERLAND"
      },
      {
        "electoralDistricts": [
          {
            "election": null,
            "id": 35,
            "name": "Haliburton—Kawartha Lakes—Brock"
          }
        ],
        "pollDivisionIds": [
          10138541
        ],
        "postalCode": "L0C1H0",
        "streetName": "CENTRE",
        "streetDirectionId": null,
        "streetTypeId": "ST",
        "placeName": "BEAVERTON",
        "streetNameDisplayText": "CENTRE ST, BEAVERTON"
      },
      {
        "electoralDistricts": [
          {
            "election": null,
            "id": 35,
            "name": "Haliburton—Kawartha Lakes—Brock"
          }
        ],
        "pollDivisionIds": [
          10138541,
          10138545
        ],
        "postalCode": "L0C1H0",
        "streetName": "CENTRE",
        "streetDirectionId": null,
        "streetTypeId": "ST",
        "placeName": "SUNDERLAND",
        "streetNameDisplayText": "CENTRE ST, SUNDERLAND"
      },
      {
        "electoralDistricts": [
          {
            "election": null,
            "id": 35,
            "name": "Haliburton—Kawartha Lakes—Brock"
          }
        ],
        "pollDivisionIds": [
          10138545
        ],
        "postalCode": "L0C1H0",
        "streetName": "CHURCH",
        "streetDirectionId": "N",
        "streetTypeId": "ST",
        "placeName": "SUNDERLAND",
        "streetNameDisplayText": "CHURCH ST N, SUNDERLAND"
      },
      {
        "electoralDistricts": [
          {
            "election": null,
            "id": 35,
            "name": "Haliburton—Kawartha Lakes—Brock"
          }
        ],
        "pollDivisionIds": [
          10138545
        ],
        "postalCode": "L0C1H0",
        "streetName": "CHURCH",
        "streetDirectionId": "S",
        "streetTypeId": "ST",
        "placeName": "SUNDERLAND",
        "streetNameDisplayText": "CHURCH ST S, SUNDERLAND"
      },
      {
        "electoralDistricts": [
          {
            "election": null,
            "id": 35,
            "name": "Haliburton—Kawartha Lakes—Brock"
          }
        ],
        "pollDivisionIds": [
          10138545
        ],
        "postalCode": "L0C1H0",
        "streetName": "CON 5",
        "streetDirectionId": null,
        "streetTypeId": null,
        "placeName": "SUNDERLAND",
        "streetNameDisplayText": "CON 5, SUNDERLAND"
      },
      {
        "electoralDistricts": [
          {
            "election": null,
            "id": 35,
            "name": "Haliburton—Kawartha Lakes—Brock"
          }
        ],
        "pollDivisionIds": [
          10138545
        ],
        "postalCode": "L0C1H0",
        "streetName": "CONC 1",
        "streetDirectionId": null,
        "streetTypeId": "CONC",
        "placeName": "SUNDERLAND",
        "streetNameDisplayText": "CONC 1 CONC, SUNDERLAND"
      },
      {
        "electoralDistricts": [
          {
            "election": null,
            "id": 35,
            "name": "Haliburton—Kawartha Lakes—Brock"
          }
        ],
        "pollDivisionIds": [
          10138545
        ],
        "postalCode": "L0C1H0",
        "streetName": "CONC 2",
        "streetDirectionId": null,
        "streetTypeId": "CONC",
        "placeName": "SUNDERLAND",
        "streetNameDisplayText": "CONC 2 CONC, SUNDERLAND"
      },
      {
        "electoralDistricts": [
          {
            "election": null,
            "id": 35,
            "name": "Haliburton—Kawartha Lakes—Brock"
          }
        ],
        "pollDivisionIds": [
          10138545
        ],
        "postalCode": "L0C1H0",
        "streetName": "CONC 3",
        "streetDirectionId": null,
        "streetTypeId": "CONC",
        "placeName": "SUNDERLAND",
        "streetNameDisplayText": "CONC 3 CONC, SUNDERLAND"
      },
      {
        "electoralDistricts": [
          {
            "election": null,
            "id": 35,
            "name": "Haliburton—Kawartha Lakes—Brock"
          }
        ],
        "pollDivisionIds": [
          10138545
        ],
        "postalCode": "L0C1H0",
        "streetName": "CONCESSION  4",
        "streetDirectionId": null,
        "streetTypeId": null,
        "placeName": "SUNDERLAND",
        "streetNameDisplayText": "CONCESSION  4, SUNDERLAND"
      },
      {
        "electoralDistricts": [
          {
            "election": null,
            "id": 35,
            "name": "Haliburton—Kawartha Lakes—Brock"
          }
        ],
        "pollDivisionIds": [
          10138545
        ],
        "postalCode": "L0C1H0",
        "streetName": "CONCESSION 1",
        "streetDirectionId": null,
        "streetTypeId": null,
        "placeName": "SUNDERLAND",
        "streetNameDisplayText": "CONCESSION 1, SUNDERLAND"
      },
      {
        "electoralDistricts": [
          {
            "election": null,
            "id": 35,
            "name": "Haliburton—Kawartha Lakes—Brock"
          }
        ],
        "pollDivisionIds": [
          10138545
        ],
        "postalCode": "L0C1H0",
        "streetName": "CONCESSION 2",
        "streetDirectionId": null,
        "streetTypeId": null,
        "placeName": "SUNDERLAND",
        "streetNameDisplayText": "CONCESSION 2, SUNDERLAND"
      },
      {
        "electoralDistricts": [
          {
            "election": null,
            "id": 35,
            "name": "Haliburton—Kawartha Lakes—Brock"
          }
        ],
        "pollDivisionIds": [
          10138545
        ],
        "postalCode": "L0C1H0",
        "streetName": "CONCESSION 3 DURHAM RD 13",
        "streetDirectionId": null,
        "streetTypeId": null,
        "placeName": "SUNDERLAND",
        "streetNameDisplayText": "CONCESSION 3 DURHAM RD 13, SUNDERLAND"
      },
      {
        "electoralDistricts": [
          {
            "election": null,
            "id": 35,
            "name": "Haliburton—Kawartha Lakes—Brock"
          }
        ],
        "pollDivisionIds": [
          10138545
        ],
        "postalCode": "L0C1H0",
        "streetName": "CONCESSION 3",
        "streetDirectionId": null,
        "streetTypeId": null,
        "placeName": "SUNDERLAND",
        "streetNameDisplayText": "CONCESSION 3, SUNDERLAND"
      },
      {
        "electoralDistricts": [
          {
            "election": null,
            "id": 87,
            "name": "Pickering—Uxbridge"
          },
          {
            "election": null,
            "id": 35,
            "name": "Haliburton—Kawartha Lakes—Brock"
          }
        ],
        "pollDivisionIds": [
          10143440,
          10138545
        ],
        "postalCode": "L0C1H0",
        "streetName": "CONCESSION 4",
        "streetDirectionId": null,
        "streetTypeId": null,
        "placeName": "SUNDERLAND",
        "streetNameDisplayText": "CONCESSION 4, SUNDERLAND"
      },
      {
        "electoralDistricts": [
          {
            "election": null,
            "id": 35,
            "name": "Haliburton—Kawartha Lakes—Brock"
          }
        ],
        "pollDivisionIds": [
          10138545
        ],
        "postalCode": "L0C1H0",
        "streetName": "CONCESSION 5",
        "streetDirectionId": null,
        "streetTypeId": null,
        "placeName": "SUNDERLAND",
        "streetNameDisplayText": "CONCESSION 5, SUNDERLAND"
      },
      {
        "electoralDistricts": [
          {
            "election": null,
            "id": 35,
            "name": "Haliburton—Kawartha Lakes—Brock"
          }
        ],
        "pollDivisionIds": [
          10138546
        ],
        "postalCode": "L0C1H0",
        "streetName": "CONCESSION 6",
        "streetDirectionId": null,
        "streetTypeId": "RD",
        "placeName": "SUNDERLAND",
        "streetNameDisplayText": "CONCESSION 6 RD, SUNDERLAND"
      },
      {
        "electoralDistricts": [
          {
            "election": null,
            "id": 35,
            "name": "Haliburton—Kawartha Lakes—Brock"
          }
        ],
        "pollDivisionIds": [
          10138546,
          10138545
        ],
        "postalCode": "L0C1H0",
        "streetName": "CONCESSION 6",
        "streetDirectionId": null,
        "streetTypeId": null,
        "placeName": "SUNDERLAND",
        "streetNameDisplayText": "CONCESSION 6, SUNDERLAND"
      },
      {
        "electoralDistricts": [
          {
            "election": null,
            "id": 35,
            "name": "Haliburton—Kawartha Lakes—Brock"
          }
        ],
        "pollDivisionIds": [
          10138545
        ],
        "postalCode": "L0C1H0",
        "streetName": "CONCESSION 7",
        "streetDirectionId": null,
        "streetTypeId": null,
        "placeName": "SUNDERLAND",
        "streetNameDisplayText": "CONCESSION 7, SUNDERLAND"
      },
      {
        "electoralDistricts": [
          {
            "election": null,
            "id": 35,
            "name": "Haliburton—Kawartha Lakes—Brock"
          }
        ],
        "pollDivisionIds": [
          10138545
        ],
        "postalCode": "L0C1H0",
        "streetName": "CONCESSION 8",
        "streetDirectionId": null,
        "streetTypeId": "RD",
        "placeName": "SUNDERLAND",
        "streetNameDisplayText": "CONCESSION 8 RD, SUNDERLAND"
      },
      {
        "electoralDistricts": [
          {
            "election": null,
            "id": 35,
            "name": "Haliburton—Kawartha Lakes—Brock"
          }
        ],
        "pollDivisionIds": [
          10138546
        ],
        "postalCode": "L0C1H0",
        "streetName": "CONCESSION 9",
        "streetDirectionId": null,
        "streetTypeId": "RD",
        "placeName": "SUNDERLAND",
        "streetNameDisplayText": "CONCESSION 9 RD, SUNDERLAND"
      },
      {
        "electoralDistricts": [
          {
            "election": null,
            "id": 35,
            "name": "Haliburton—Kawartha Lakes—Brock"
          }
        ],
        "pollDivisionIds": [
          10138545
        ],
        "postalCode": "L0C1H0",
        "streetName": "CONCESSION 9",
        "streetDirectionId": null,
        "streetTypeId": null,
        "placeName": "SUNDERLAND",
        "streetNameDisplayText": "CONCESSION 9, SUNDERLAND"
      },
      {
        "electoralDistricts": [
          {
            "election": null,
            "id": 35,
            "name": "Haliburton—Kawartha Lakes—Brock"
          }
        ],
        "pollDivisionIds": [
          10138506
        ],
        "postalCode": "L0C1H0",
        "streetName": "CONCESSION RD 8",
        "streetDirectionId": null,
        "streetTypeId": "CONC",
        "placeName": "SUNDERLAND",
        "streetNameDisplayText": "CONCESSION RD 8 CONC, SUNDERLAND"
      },
      {
        "electoralDistricts": [
          {
            "election": null,
            "id": 87,
            "name": "Pickering—Uxbridge"
          }
        ],
        "pollDivisionIds": [
          10143366
        ],
        "postalCode": "L0C1H0",
        "streetName": "DEERFOOT",
        "streetDirectionId": null,
        "streetTypeId": "DR",
        "placeName": "SUNDERLAND",
        "streetNameDisplayText": "DEERFOOT DR, SUNDERLAND"
      },
      {
        "electoralDistricts": [
          {
            "election": null,
            "id": 35,
            "name": "Haliburton—Kawartha Lakes—Brock"
          }
        ],
        "pollDivisionIds": [
          10138545
        ],
        "postalCode": "L0C1H0",
        "streetName": "DOBLE",
        "streetDirectionId": null,
        "streetTypeId": "ST",
        "placeName": "SUNDERLAND",
        "streetNameDisplayText": "DOBLE ST, SUNDERLAND"
      },
      {
        "electoralDistricts": [
          {
            "election": null,
            "id": 35,
            "name": "Haliburton—Kawartha Lakes—Brock"
          }
        ],
        "pollDivisionIds": [
          10138545
        ],
        "postalCode": "L0C1H0",
        "streetName": "DON HADDEN",
        "streetDirectionId": null,
        "streetTypeId": "CRES",
        "placeName": "SUNDERLAND",
        "streetNameDisplayText": "DON HADDEN CRES, SUNDERLAND"
      },
      {
        "electoralDistricts": [
          {
            "election": null,
            "id": 35,
            "name": "Haliburton—Kawartha Lakes—Brock"
          }
        ],
        "pollDivisionIds": [
          10138545
        ],
        "postalCode": "L0C1H0",
        "streetName": "DURHAM RD 10",
        "streetDirectionId": null,
        "streetTypeId": null,
        "placeName": "SUNDERLAND",
        "streetNameDisplayText": "DURHAM RD 10, SUNDERLAND"
      },
      {
        "electoralDistricts": [
          {
            "election": null,
            "id": 35,
            "name": "Haliburton—Kawartha Lakes—Brock"
          }
        ],
        "pollDivisionIds": [
          10138545
        ],
        "postalCode": "L0C1H0",
        "streetName": "DURHAM RD 13",
        "streetDirectionId": null,
        "streetTypeId": null,
        "placeName": "SUNDERLAND",
        "streetNameDisplayText": "DURHAM RD 13, SUNDERLAND"
      },
      {
        "electoralDistricts": [
          {
            "election": null,
            "id": 35,
            "name": "Haliburton—Kawartha Lakes—Brock"
          }
        ],
        "pollDivisionIds": [
          10138544,
          10138545
        ],
        "postalCode": "L0C1H0",
        "streetName": "DURHAM RD 23",
        "streetDirectionId": null,
        "streetTypeId": null,
        "placeName": "SUNDERLAND",
        "streetNameDisplayText": "DURHAM RD 23, SUNDERLAND"
      },
      {
        "electoralDistricts": [
          {
            "election": null,
            "id": 24,
            "name": "Durham"
          }
        ],
        "pollDivisionIds": [
          10137826
        ],
        "postalCode": "L0C1H0",
        "streetName": "DURHAM RD. 6",
        "streetDirectionId": null,
        "streetTypeId": null,
        "placeName": "SUNDERLAND",
        "streetNameDisplayText": "DURHAM RD. 6, SUNDERLAND"
      },
      {
        "electoralDistricts": [
          {
            "election": null,
            "id": 35,
            "name": "Haliburton—Kawartha Lakes—Brock"
          }
        ],
        "pollDivisionIds": [
          10138545
        ],
        "postalCode": "L0C1H0",
        "streetName": "DURHAM ROAD 10",
        "streetDirectionId": null,
        "streetTypeId": "RD",
        "placeName": "SUNDERLAND",
        "streetNameDisplayText": "DURHAM ROAD 10 RD, SUNDERLAND"
      },
      {
        "electoralDistricts": [
          {
            "election": null,
            "id": 24,
            "name": "Durham"
          }
        ],
        "pollDivisionIds": [
          10137830
        ],
        "postalCode": "L0C1H0",
        "streetName": "DURHAM ROAD 6",
        "streetDirectionId": null,
        "streetTypeId": "RD",
        "placeName": "SUNDERLAND",
        "streetNameDisplayText": "DURHAM ROAD 6 RD, SUNDERLAND"
      },
      {
        "electoralDistricts": [
          {
            "election": null,
            "id": 35,
            "name": "Haliburton—Kawartha Lakes—Brock"
          }
        ],
        "pollDivisionIds": [
          10138545
        ],
        "postalCode": "L0C1H0",
        "streetName": "FAIRGROUNDS",
        "streetDirectionId": null,
        "streetTypeId": "LANE",
        "placeName": "SUNDERLAND",
        "streetNameDisplayText": "FAIRGROUNDS LANE, SUNDERLAND"
      },
      {
        "electoralDistricts": [
          {
            "election": null,
            "id": 35,
            "name": "Haliburton—Kawartha Lakes—Brock"
          }
        ],
        "pollDivisionIds": [
          10138545
        ],
        "postalCode": "L0C1H0",
        "streetName": "FIRST OF BROCK",
        "streetDirectionId": null,
        "streetTypeId": null,
        "placeName": "SUNDERLAND",
        "streetNameDisplayText": "FIRST OF BROCK, SUNDERLAND"
      },
      {
        "electoralDistricts": [
          {
            "election": null,
            "id": 87,
            "name": "Pickering—Uxbridge"
          }
        ],
        "pollDivisionIds": [
          10143366
        ],
        "postalCode": "L0C1H0",
        "streetName": "HARRISON",
        "streetDirectionId": null,
        "streetTypeId": "DR",
        "placeName": "LEASKDALE",
        "streetNameDisplayText": "HARRISON DR, LEASKDALE"
      },
      {
        "electoralDistricts": [
          {
            "election": null,
            "id": 35,
            "name": "Haliburton—Kawartha Lakes—Brock"
          }
        ],
        "pollDivisionIds": [
          10138550
        ],
        "postalCode": "L0C1H0",
        "streetName": "HIGH PARK",
        "streetDirectionId": null,
        "streetTypeId": "RD",
        "placeName": "SUNDERLAND",
        "streetNameDisplayText": "HIGH PARK RD, SUNDERLAND"
      },
      {
        "electoralDistricts": [
          {
            "election": null,
            "id": 24,
            "name": "Durham"
          },
          {
            "election": null,
            "id": 35,
            "name": "Haliburton—Kawartha Lakes—Brock"
          }
        ],
        "pollDivisionIds": [
          10137830,
          10137826,
          10138545
        ],
        "postalCode": "L0C1H0",
        "streetName": "HIGHWAY 12",
        "streetDirectionId": null,
        "streetTypeId": null,
        "placeName": "SUNDERLAND",
        "streetNameDisplayText": "HIGHWAY 12, SUNDERLAND"
      },
      {
        "electoralDistricts": [
          {
            "election": null,
            "id": 35,
            "name": "Haliburton—Kawartha Lakes—Brock"
          },
          {
            "election": null,
            "id": 24,
            "name": "Durham"
          }
        ],
        "pollDivisionIds": [
          10138545,
          10137826
        ],
        "postalCode": "L0C1H0",
        "streetName": "HWY 12",
        "streetDirectionId": null,
        "streetTypeId": "HWY",
        "placeName": "SUNDERLAND",
        "streetNameDisplayText": "HWY 12 HWY, SUNDERLAND"
      },
      {
        "electoralDistricts": [
          {
            "election": null,
            "id": 35,
            "name": "Haliburton—Kawartha Lakes—Brock"
          }
        ],
        "pollDivisionIds": [
          10138545
        ],
        "postalCode": "L0C1H0",
        "streetName": "IDA",
        "streetDirectionId": null,
        "streetTypeId": "ST",
        "placeName": "SUNDERLAND",
        "streetNameDisplayText": "IDA ST, SUNDERLAND"
      },
      {
        "electoralDistricts": [
          {
            "election": null,
            "id": 24,
            "name": "Durham"
          }
        ],
        "pollDivisionIds": [
          10137826
        ],
        "postalCode": "L0C1H0",
        "streetName": "JACOBSEN",
        "streetDirectionId": null,
        "streetTypeId": "BLVD",
        "placeName": "SUNDERLAND",
        "streetNameDisplayText": "JACOBSEN BLVD, SUNDERLAND"
      },
      {
        "electoralDistricts": [
          {
            "election": null,
            "id": 35,
            "name": "Haliburton—Kawartha Lakes—Brock"
          }
        ],
        "pollDivisionIds": [
          10138545
        ],
        "postalCode": "L0C1H0",
        "streetName": "JAMES",
        "streetDirectionId": null,
        "streetTypeId": "ST",
        "placeName": "SUNDERLAND",
        "streetNameDisplayText": "JAMES ST, SUNDERLAND"
      },
      {
        "electoralDistricts": [
          {
            "election": null,
            "id": 35,
            "name": "Haliburton—Kawartha Lakes—Brock"
          }
        ],
        "pollDivisionIds": [
          10138545
        ],
        "postalCode": "L0C1H0",
        "streetName": "JANE",
        "streetDirectionId": null,
        "streetTypeId": "ST",
        "placeName": "SUNDERLAND",
        "streetNameDisplayText": "JANE ST, SUNDERLAND"
      },
      {
        "electoralDistricts": [
          {
            "election": null,
            "id": 35,
            "name": "Haliburton—Kawartha Lakes—Brock"
          }
        ],
        "pollDivisionIds": [
          10138545
        ],
        "postalCode": "L0C1H0",
        "streetName": "JONES",
        "streetDirectionId": null,
        "streetTypeId": "ST",
        "placeName": "SUNDERLAND",
        "streetNameDisplayText": "JONES ST, SUNDERLAND"
      },
      {
        "electoralDistricts": [
          {
            "election": null,
            "id": 35,
            "name": "Haliburton—Kawartha Lakes—Brock"
          }
        ],
        "pollDivisionIds": [
          10138545,
          10138544
        ],
        "postalCode": "L0C1H0",
        "streetName": "KING",
        "streetDirectionId": null,
        "streetTypeId": "ST",
        "placeName": "SUNDERLAND",
        "streetNameDisplayText": "KING ST, SUNDERLAND"
      },
      {
        "electoralDistricts": [
          {
            "election": null,
            "id": 35,
            "name": "Haliburton—Kawartha Lakes—Brock"
          }
        ],
        "pollDivisionIds": [
          10138545
        ],
        "postalCode": "L0C1H0",
        "streetName": "KYDD",
        "streetDirectionId": null,
        "streetTypeId": "LANE",
        "placeName": "SUNDERLAND",
        "streetNameDisplayText": "KYDD LANE, SUNDERLAND"
      },
      {
        "electoralDistricts": [
          {
            "election": null,
            "id": 35,
            "name": "Haliburton—Kawartha Lakes—Brock"
          }
        ],
        "pollDivisionIds": [
          10138545
        ],
        "postalCode": "L0C1H0",
        "streetName": "KYDD",
        "streetDirectionId": null,
        "streetTypeId": "RD",
        "placeName": "SUNDERLAND",
        "streetNameDisplayText": "KYDD RD, SUNDERLAND"
      },
      {
        "electoralDistricts": [
          {
            "election": null,
            "id": 35,
            "name": "Haliburton—Kawartha Lakes—Brock"
          }
        ],
        "pollDivisionIds": [
          10138545
        ],
        "postalCode": "L0C1H0",
        "streetName": "L15 CONCESSION 5",
        "streetDirectionId": null,
        "streetTypeId": "RD",
        "placeName": "SUNDERLAND",
        "streetNameDisplayText": "L15 CONCESSION 5 RD, SUNDERLAND"
      },
      {
        "electoralDistricts": [
          {
            "election": null,
            "id": 35,
            "name": "Haliburton—Kawartha Lakes—Brock"
          }
        ],
        "pollDivisionIds": [
          10138544,
          10138545
        ],
        "postalCode": "L0C1H0",
        "streetName": "LAKE RIDGE",
        "streetDirectionId": null,
        "streetTypeId": "RD",
        "placeName": "SUNDERLAND",
        "streetNameDisplayText": "LAKE RIDGE RD, SUNDERLAND"
      },
      {
        "electoralDistricts": [
          {
            "election": null,
            "id": 35,
            "name": "Haliburton—Kawartha Lakes—Brock"
          },
          {
            "election": null,
            "id": 24,
            "name": "Durham"
          },
          {
            "election": null,
            "id": 121,
            "name": "York—Simcoe"
          }
        ],
        "pollDivisionIds": [
          10138545,
          10138544,
          10137826,
          10142929
        ],
        "postalCode": "L0C1H0",
        "streetName": "LAKERIDGE",
        "streetDirectionId": null,
        "streetTypeId": "RD",
        "placeName": "SUNDERLAND",
        "streetNameDisplayText": "LAKERIDGE RD, SUNDERLAND"
      },
      {
        "electoralDistricts": [
          {
            "election": null,
            "id": 35,
            "name": "Haliburton—Kawartha Lakes—Brock"
          }
        ],
        "pollDivisionIds": [
          10138545
        ],
        "postalCode": "L0C1H0",
        "streetName": "LORNE",
        "streetDirectionId": null,
        "streetTypeId": "ST",
        "placeName": "SUNDERLAND",
        "streetNameDisplayText": "LORNE ST, SUNDERLAND"
      },
      {
        "electoralDistricts": [
          {
            "election": null,
            "id": 35,
            "name": "Haliburton—Kawartha Lakes—Brock"
          }
        ],
        "pollDivisionIds": [
          10138545
        ],
        "postalCode": "L0C1H0",
        "streetName": "MAPLE",
        "streetDirectionId": "N",
        "streetTypeId": "ST",
        "placeName": "SUNDERLAND",
        "streetNameDisplayText": "MAPLE ST N, SUNDERLAND"
      },
      {
        "electoralDistricts": [
          {
            "election": null,
            "id": 35,
            "name": "Haliburton—Kawartha Lakes—Brock"
          }
        ],
        "pollDivisionIds": [
          10138545
        ],
        "postalCode": "L0C1H0",
        "streetName": "MAPLE",
        "streetDirectionId": "S",
        "streetTypeId": "ST",
        "placeName": "SUNDERLAND",
        "streetNameDisplayText": "MAPLE ST S, SUNDERLAND"
      },
      {
        "electoralDistricts": [
          {
            "election": null,
            "id": 35,
            "name": "Haliburton—Kawartha Lakes—Brock"
          }
        ],
        "pollDivisionIds": [
          10138546
        ],
        "postalCode": "L0C1H0",
        "streetName": "MCPHADDEN",
        "streetDirectionId": null,
        "streetTypeId": "ST",
        "placeName": "MANILLA",
        "streetNameDisplayText": "MCPHADDEN ST, MANILLA"
      },
      {
        "electoralDistricts": [
          {
            "election": null,
            "id": 87,
            "name": "Pickering—Uxbridge"
          }
        ],
        "pollDivisionIds": [
          10143366
        ],
        "postalCode": "L0C1H0",
        "streetName": "MOONEY",
        "streetDirectionId": null,
        "streetTypeId": "RD",
        "placeName": "SUNDERLAND",
        "streetNameDisplayText": "MOONEY RD, SUNDERLAND"
      },
      {
        "electoralDistricts": [
          {
            "election": null,
            "id": 24,
            "name": "Durham"
          }
        ],
        "pollDivisionIds": [
          10137826
        ],
        "postalCode": "L0C1H0",
        "streetName": "OLD SIMCOE",
        "streetDirectionId": null,
        "streetTypeId": "RD",
        "placeName": "SUNDERLAND",
        "streetNameDisplayText": "OLD SIMCOE RD, SUNDERLAND"
      },
      {
        "electoralDistricts": [
          {
            "election": null,
            "id": 35,
            "name": "Haliburton—Kawartha Lakes—Brock"
          }
        ],
        "pollDivisionIds": [
          10138545
        ],
        "postalCode": "L0C1H0",
        "streetName": "PARK",
        "streetDirectionId": "W",
        "streetTypeId": "ST",
        "placeName": "SUNDERLAND",
        "streetNameDisplayText": "PARK ST W, SUNDERLAND"
      },
      {
        "electoralDistricts": [
          {
            "election": null,
            "id": 87,
            "name": "Pickering—Uxbridge"
          }
        ],
        "pollDivisionIds": [
          10143366
        ],
        "postalCode": "L0C1H0",
        "streetName": "PILKEY",
        "streetDirectionId": null,
        "streetTypeId": "RD",
        "placeName": "SUNDERLAND",
        "streetNameDisplayText": "PILKEY RD, SUNDERLAND"
      },
      {
        "electoralDistricts": [
          {
            "election": null,
            "id": 35,
            "name": "Haliburton—Kawartha Lakes—Brock"
          }
        ],
        "pollDivisionIds": [
          10138545
        ],
        "postalCode": "L0C1H0",
        "streetName": "PINE",
        "streetDirectionId": null,
        "streetTypeId": "ST",
        "placeName": "SUNDERLAND",
        "streetNameDisplayText": "PINE ST, SUNDERLAND"
      },
      {
        "electoralDistricts": [
          {
            "election": null,
            "id": 35,
            "name": "Haliburton—Kawartha Lakes—Brock"
          }
        ],
        "pollDivisionIds": [
          10138545
        ],
        "postalCode": "L0C1H0",
        "streetName": "PINES",
        "streetDirectionId": null,
        "streetTypeId": "LANE",
        "placeName": "SUNDERLAND",
        "streetNameDisplayText": "PINES LANE, SUNDERLAND"
      },
      {
        "electoralDistricts": [
          {
            "election": null,
            "id": 35,
            "name": "Haliburton—Kawartha Lakes—Brock"
          }
        ],
        "pollDivisionIds": [
          10138544
        ],
        "postalCode": "L0C1H0",
        "streetName": "QUEEN",
        "streetDirectionId": "N",
        "streetTypeId": "ST",
        "placeName": "SUNDERLAND",
        "streetNameDisplayText": "QUEEN ST N, SUNDERLAND"
      },
      {
        "electoralDistricts": [
          {
            "election": null,
            "id": 121,
            "name": "York—Simcoe"
          }
        ],
        "pollDivisionIds": [
          10142929
        ],
        "postalCode": "L0C1H0",
        "streetName": "RAVENSHOE",
        "streetDirectionId": null,
        "streetTypeId": "RD",
        "placeName": "SUNDERLAND",
        "streetNameDisplayText": "RAVENSHOE RD, SUNDERLAND"
      },
      {
        "electoralDistricts": [
          {
            "election": null,
            "id": 35,
            "name": "Haliburton—Kawartha Lakes—Brock"
          }
        ],
        "pollDivisionIds": [
          10138545
        ],
        "postalCode": "L0C1H0",
        "streetName": "REGIONAL 10",
        "streetDirectionId": null,
        "streetTypeId": "RD",
        "placeName": "SUNDERLAND",
        "streetNameDisplayText": "REGIONAL 10 RD, SUNDERLAND"
      },
      {
        "electoralDistricts": [
          {
            "election": null,
            "id": 35,
            "name": "Haliburton—Kawartha Lakes—Brock"
          }
        ],
        "pollDivisionIds": [
          10138545
        ],
        "postalCode": "L0C1H0",
        "streetName": "REGIONAL 13",
        "streetDirectionId": "S",
        "streetTypeId": "RD",
        "placeName": "SUNDERLAND",
        "streetNameDisplayText": "REGIONAL 13 RD S, SUNDERLAND"
      },
      {
        "electoralDistricts": [
          {
            "election": null,
            "id": 35,
            "name": "Haliburton—Kawartha Lakes—Brock"
          },
          {
            "election": null,
            "id": 87,
            "name": "Pickering—Uxbridge"
          }
        ],
        "pollDivisionIds": [
          10138545,
          10143366
        ],
        "postalCode": "L0C1H0",
        "streetName": "REGIONAL 13",
        "streetDirectionId": null,
        "streetTypeId": "RD",
        "placeName": "SUNDERLAND",
        "streetNameDisplayText": "REGIONAL 13 RD, SUNDERLAND"
      },
      {
        "electoralDistricts": [
          {
            "election": null,
            "id": 24,
            "name": "Durham"
          }
        ],
        "pollDivisionIds": [
          10137826
        ],
        "postalCode": "L0C1H0",
        "streetName": "REGIONAL 6",
        "streetDirectionId": null,
        "streetTypeId": "RD",
        "placeName": "SUNDERLAND",
        "streetNameDisplayText": "REGIONAL 6 RD, SUNDERLAND"
      },
      {
        "electoralDistricts": [
          {
            "election": null,
            "id": 35,
            "name": "Haliburton—Kawartha Lakes—Brock"
          }
        ],
        "pollDivisionIds": [
          10138545
        ],
        "postalCode": "L0C1H0",
        "streetName": "REGIONAL RD 10",
        "streetDirectionId": null,
        "streetTypeId": "RD",
        "placeName": "BEAVERTON",
        "streetNameDisplayText": "REGIONAL RD 10 RD, BEAVERTON"
      },
      {
        "electoralDistricts": [
          {
            "election": null,
            "id": 35,
            "name": "Haliburton—Kawartha Lakes—Brock"
          }
        ],
        "pollDivisionIds": [
          10138545
        ],
        "postalCode": "L0C1H0",
        "streetName": "REGIONAL RD 10",
        "streetDirectionId": null,
        "streetTypeId": "RD",
        "placeName": "BROCK",
        "streetNameDisplayText": "REGIONAL RD 10 RD, BROCK"
      },
      {
        "electoralDistricts": [
          {
            "election": null,
            "id": 35,
            "name": "Haliburton—Kawartha Lakes—Brock"
          }
        ],
        "pollDivisionIds": [
          10138544,
          10138545
        ],
        "postalCode": "L0C1H0",
        "streetName": "REGIONAL RD 10",
        "streetDirectionId": null,
        "streetTypeId": "RD",
        "placeName": "SUNDERLAND",
        "streetNameDisplayText": "REGIONAL RD 10 RD, SUNDERLAND"
      },
      {
        "electoralDistricts": [
          {
            "election": null,
            "id": 35,
            "name": "Haliburton—Kawartha Lakes—Brock"
          }
        ],
        "pollDivisionIds": [
          10138545
        ],
        "postalCode": "L0C1H0",
        "streetName": "REGIONAL RD 13",
        "streetDirectionId": null,
        "streetTypeId": "RD",
        "placeName": "SUNDERLAND",
        "streetNameDisplayText": "REGIONAL RD 13 RD, SUNDERLAND"
      },
      {
        "electoralDistricts": [
          {
            "election": null,
            "id": 35,
            "name": "Haliburton—Kawartha Lakes—Brock"
          }
        ],
        "pollDivisionIds": [
          10138542
        ],
        "postalCode": "L0C1H0",
        "streetName": "REGIONAL RD 15",
        "streetDirectionId": null,
        "streetTypeId": "RD",
        "placeName": "BEAVERTON",
        "streetNameDisplayText": "REGIONAL RD 15 RD, BEAVERTON"
      },
      {
        "electoralDistricts": [
          {
            "election": null,
            "id": 35,
            "name": "Haliburton—Kawartha Lakes—Brock"
          }
        ],
        "pollDivisionIds": [
          10138545
        ],
        "postalCode": "L0C1H0",
        "streetName": "REGIONAL ROAD 13",
        "streetDirectionId": null,
        "streetTypeId": null,
        "placeName": "SUNDERLAND",
        "streetNameDisplayText": "REGIONAL ROAD 13, SUNDERLAND"
      },
      {
        "electoralDistricts": [
          {
            "election": null,
            "id": 35,
            "name": "Haliburton—Kawartha Lakes—Brock"
          }
        ],
        "pollDivisionIds": [
          10138545
        ],
        "postalCode": "L0C1H0",
        "streetName": "RENNIE",
        "streetDirectionId": null,
        "streetTypeId": "ST",
        "placeName": "SUNDERLAND",
        "streetNameDisplayText": "RENNIE ST, SUNDERLAND"
      },
      {
        "electoralDistricts": [
          {
            "election": null,
            "id": 35,
            "name": "Haliburton—Kawartha Lakes—Brock"
          }
        ],
        "pollDivisionIds": [
          10138546
        ],
        "postalCode": "L0C1H0",
        "streetName": "RIDGE",
        "streetDirectionId": null,
        "streetTypeId": "RD",
        "placeName": "SUNDERLAND",
        "streetNameDisplayText": "RIDGE RD, SUNDERLAND"
      },
      {
        "electoralDistricts": [
          {
            "election": null,
            "id": 35,
            "name": "Haliburton—Kawartha Lakes—Brock"
          }
        ],
        "pollDivisionIds": [
          10138545
        ],
        "postalCode": "L0C1H0",
        "streetName": "RIVER",
        "streetDirectionId": null,
        "streetTypeId": "ST",
        "placeName": "SUNDERLAND",
        "streetNameDisplayText": "RIVER ST, SUNDERLAND"
      },
      {
        "electoralDistricts": [
          {
            "election": null,
            "id": 35,
            "name": "Haliburton—Kawartha Lakes—Brock"
          }
        ],
        "pollDivisionIds": [
          10138545
        ],
        "postalCode": "L0C1H0",
        "streetName": "RYNARD",
        "streetDirectionId": null,
        "streetTypeId": "ST",
        "placeName": "SUNDERLAND",
        "streetNameDisplayText": "RYNARD ST, SUNDERLAND"
      },
      {
        "electoralDistricts": [
          {
            "election": null,
            "id": 24,
            "name": "Durham"
          }
        ],
        "pollDivisionIds": [
          10137830
        ],
        "postalCode": "L0C1H0",
        "streetName": "SAINTFIELD",
        "streetDirectionId": null,
        "streetTypeId": "RD",
        "placeName": "SUNDERLAND",
        "streetNameDisplayText": "SAINTFIELD RD, SUNDERLAND"
      },
      {
        "electoralDistricts": [
          {
            "election": null,
            "id": 24,
            "name": "Durham"
          }
        ],
        "pollDivisionIds": [
          10137826
        ],
        "postalCode": "L0C1H0",
        "streetName": "SCUGOG 14",
        "streetDirectionId": null,
        "streetTypeId": "LINE",
        "placeName": "SUNDERLAND",
        "streetNameDisplayText": "SCUGOG 14 LINE, SUNDERLAND"
      },
      {
        "electoralDistricts": [
          {
            "election": null,
            "id": 35,
            "name": "Haliburton—Kawartha Lakes—Brock"
          }
        ],
        "pollDivisionIds": [
          10138545
        ],
        "postalCode": "L0C1H0",
        "streetName": "SCUGOG BROCK LINE",
        "streetDirectionId": null,
        "streetTypeId": "DR",
        "placeName": "SUNDERLAND",
        "streetNameDisplayText": "SCUGOG BROCK LINE DR, SUNDERLAND"
      },
      {
        "electoralDistricts": [
          {
            "election": null,
            "id": 24,
            "name": "Durham"
          }
        ],
        "pollDivisionIds": [
          10137826
        ],
        "postalCode": "L0C1H0",
        "streetName": "SCUGOG LINE 14",
        "streetDirectionId": null,
        "streetTypeId": null,
        "placeName": "SUNDERLAND",
        "streetNameDisplayText": "SCUGOG LINE 14, SUNDERLAND"
      },
      {
        "electoralDistricts": [
          {
            "election": null,
            "id": 35,
            "name": "Haliburton—Kawartha Lakes—Brock"
          }
        ],
        "pollDivisionIds": [
          10138545
        ],
        "postalCode": "L0C1H0",
        "streetName": "SDRD 17",
        "streetDirectionId": null,
        "streetTypeId": null,
        "placeName": "SUNDERLAND",
        "streetNameDisplayText": "SDRD 17, SUNDERLAND"
      },
      {
        "electoralDistricts": [
          {
            "election": null,
            "id": 35,
            "name": "Haliburton—Kawartha Lakes—Brock"
          }
        ],
        "pollDivisionIds": [
          10138545
        ],
        "postalCode": "L0C1H0",
        "streetName": "SHIER",
        "streetDirectionId": null,
        "streetTypeId": "RD",
        "placeName": "SUNDERLAND",
        "streetNameDisplayText": "SHIER RD, SUNDERLAND"
      },
      {
        "electoralDistricts": [
          {
            "election": null,
            "id": 35,
            "name": "Haliburton—Kawartha Lakes—Brock"
          }
        ],
        "pollDivisionIds": [
          10138545
        ],
        "postalCode": "L0C1H0",
        "streetName": "SIDE LINE 18",
        "streetDirectionId": null,
        "streetTypeId": "LINE",
        "placeName": "SUNDERLAND",
        "streetNameDisplayText": "SIDE LINE 18 LINE, SUNDERLAND"
      },
      {
        "electoralDistricts": [
          {
            "election": null,
            "id": 35,
            "name": "Haliburton—Kawartha Lakes—Brock"
          }
        ],
        "pollDivisionIds": [
          10138545
        ],
        "postalCode": "L0C1H0",
        "streetName": "SIDE RD 17",
        "streetDirectionId": null,
        "streetTypeId": "RD",
        "placeName": "SUNDERLAND",
        "streetNameDisplayText": "SIDE RD 17 RD, SUNDERLAND"
      },
      {
        "electoralDistricts": [
          {
            "election": null,
            "id": 35,
            "name": "Haliburton—Kawartha Lakes—Brock"
          }
        ],
        "pollDivisionIds": [
          10138545
        ],
        "postalCode": "L0C1H0",
        "streetName": "SIDE RD 18",
        "streetDirectionId": null,
        "streetTypeId": null,
        "placeName": "SUNDERLAND",
        "streetNameDisplayText": "SIDE RD 18, SUNDERLAND"
      },
      {
        "electoralDistricts": [
          {
            "election": null,
            "id": 35,
            "name": "Haliburton—Kawartha Lakes—Brock"
          }
        ],
        "pollDivisionIds": [
          10138545
        ],
        "postalCode": "L0C1H0",
        "streetName": "SIDEROAD 17",
        "streetDirectionId": null,
        "streetTypeId": null,
        "placeName": "SUNDERLAND",
        "streetNameDisplayText": "SIDEROAD 17, SUNDERLAND"
      },
      {
        "electoralDistricts": [
          {
            "election": null,
            "id": 35,
            "name": "Haliburton—Kawartha Lakes—Brock"
          }
        ],
        "pollDivisionIds": [
          10138546
        ],
        "postalCode": "L0C1H0",
        "streetName": "SIDEROAD 18",
        "streetDirectionId": null,
        "streetTypeId": null,
        "placeName": "SUNDERLAND",
        "streetNameDisplayText": "SIDEROAD 18, SUNDERLAND"
      },
      {
        "electoralDistricts": [
          {
            "election": null,
            "id": 35,
            "name": "Haliburton—Kawartha Lakes—Brock"
          }
        ],
        "pollDivisionIds": [
          10138546
        ],
        "postalCode": "L0C1H0",
        "streetName": "SIDEROAD 18A",
        "streetDirectionId": null,
        "streetTypeId": null,
        "placeName": "SUNDERLAND",
        "streetNameDisplayText": "SIDEROAD 18A, SUNDERLAND"
      },
      {
        "electoralDistricts": [
          {
            "election": null,
            "id": 35,
            "name": "Haliburton—Kawartha Lakes—Brock"
          }
        ],
        "pollDivisionIds": [
          10138545
        ],
        "postalCode": "L0C1H0",
        "streetName": "SIMCOE",
        "streetDirectionId": null,
        "streetTypeId": "ST",
        "placeName": "LITTLE BRITAIN",
        "streetNameDisplayText": "SIMCOE ST, LITTLE BRITAIN"
      },
      {
        "electoralDistricts": [
          {
            "election": null,
            "id": 35,
            "name": "Haliburton—Kawartha Lakes—Brock"
          }
        ],
        "pollDivisionIds": [
          10138546,
          10138550
        ],
        "postalCode": "L0C1H0",
        "streetName": "SIMCOE",
        "streetDirectionId": null,
        "streetTypeId": "ST",
        "placeName": "MANILLA",
        "streetNameDisplayText": "SIMCOE ST, MANILLA"
      },
      {
        "electoralDistricts": [
          {
            "election": null,
            "id": 35,
            "name": "Haliburton—Kawartha Lakes—Brock"
          },
          {
            "election": null,
            "id": 24,
            "name": "Durham"
          }
        ],
        "pollDivisionIds": [
          10138545,
          10137826,
          10138550,
          10138540,
          10138546,
          10138547,
          10138542
        ],
        "postalCode": "L0C1H0",
        "streetName": "SIMCOE",
        "streetDirectionId": null,
        "streetTypeId": "ST",
        "placeName": "SUNDERLAND",
        "streetNameDisplayText": "SIMCOE ST, SUNDERLAND"
      },
      {
        "electoralDistricts": [
          {
            "election": null,
            "id": 35,
            "name": "Haliburton—Kawartha Lakes—Brock"
          }
        ],
        "pollDivisionIds": [
          10138540
        ],
        "postalCode": "L0C1H0",
        "streetName": "SIMCOE",
        "streetDirectionId": null,
        "streetTypeId": "ST",
        "placeName": "WOODVILLE",
        "streetNameDisplayText": "SIMCOE ST, WOODVILLE"
      },
      {
        "electoralDistricts": [
          {
            "election": null,
            "id": 24,
            "name": "Durham"
          }
        ],
        "pollDivisionIds": [
          10137826
        ],
        "postalCode": "L0C1H0",
        "streetName": "SIMCOE ST/REG RD2",
        "streetDirectionId": null,
        "streetTypeId": "ST",
        "placeName": "SUNDERLAND",
        "streetNameDisplayText": "SIMCOE ST/REG RD2 ST, SUNDERLAND"
      },
      {
        "electoralDistricts": [
          {
            "election": null,
            "id": 35,
            "name": "Haliburton—Kawartha Lakes—Brock"
          }
        ],
        "pollDivisionIds": [
          10138545
        ],
        "postalCode": "L0C1H0",
        "streetName": "SOUTHERN",
        "streetDirectionId": null,
        "streetTypeId": "CRT",
        "placeName": "SUNDERLAND",
        "streetNameDisplayText": "SOUTHERN CRT, SUNDERLAND"
      },
      {
        "electoralDistricts": [
          {
            "election": null,
            "id": 35,
            "name": "Haliburton—Kawartha Lakes—Brock"
          }
        ],
        "pollDivisionIds": [
          10138545
        ],
        "postalCode": "L0C1H0",
        "streetName": "SUNDERLAND MEADOWS",
        "streetDirectionId": null,
        "streetTypeId": "DR",
        "placeName": "SUNDERLAND",
        "streetNameDisplayText": "SUNDERLAND MEADOWS DR, SUNDERLAND"
      },
      {
        "electoralDistricts": [
          {
            "election": null,
            "id": 35,
            "name": "Haliburton—Kawartha Lakes—Brock"
          }
        ],
        "pollDivisionIds": [
          10138545
        ],
        "postalCode": "L0C1H0",
        "streetName": "THE PINES",
        "streetDirectionId": null,
        "streetTypeId": "LANE",
        "placeName": "SUNDERLAND",
        "streetNameDisplayText": "THE PINES LANE, SUNDERLAND"
      },
      {
        "electoralDistricts": [
          {
            "election": null,
            "id": 35,
            "name": "Haliburton—Kawartha Lakes—Brock"
          }
        ],
        "pollDivisionIds": [
          10138545
        ],
        "postalCode": "L0C1H0",
        "streetName": "THOMPSON",
        "streetDirectionId": null,
        "streetTypeId": "RD",
        "placeName": "SUNDERLAND",
        "streetNameDisplayText": "THOMPSON RD, SUNDERLAND"
      },
      {
        "electoralDistricts": [
          {
            "election": null,
            "id": 35,
            "name": "Haliburton—Kawartha Lakes—Brock"
          }
        ],
        "pollDivisionIds": [
          10138542
        ],
        "postalCode": "L0C1H0",
        "streetName": "THORAH CONCESSION 1",
        "streetDirectionId": null,
        "streetTypeId": "RD",
        "placeName": "BEAVERTON",
        "streetNameDisplayText": "THORAH CONCESSION 1 RD, BEAVERTON"
      },
      {
        "electoralDistricts": [
          {
            "election": null,
            "id": 35,
            "name": "Haliburton—Kawartha Lakes—Brock"
          }
        ],
        "pollDivisionIds": [
          10138545
        ],
        "postalCode": "L0C1H0",
        "streetName": "THORAH CONCESSION 1",
        "streetDirectionId": null,
        "streetTypeId": "RD",
        "placeName": "SUNDERLAND",
        "streetNameDisplayText": "THORAH CONCESSION 1 RD, SUNDERLAND"
      },
      {
        "electoralDistricts": [
          {
            "election": null,
            "id": 35,
            "name": "Haliburton—Kawartha Lakes—Brock"
          }
        ],
        "pollDivisionIds": [
          10138542
        ],
        "postalCode": "L0C1H0",
        "streetName": "THORAH CONCESSION 2",
        "streetDirectionId": null,
        "streetTypeId": "RD",
        "placeName": "SUNDERLAND",
        "streetNameDisplayText": "THORAH CONCESSION 2 RD, SUNDERLAND"
      },
      {
        "electoralDistricts": [
          {
            "election": null,
            "id": 35,
            "name": "Haliburton—Kawartha Lakes—Brock"
          }
        ],
        "pollDivisionIds": [
          10138542
        ],
        "postalCode": "L0C1H0",
        "streetName": "THORAH CONCESSION RD 1",
        "streetDirectionId": null,
        "streetTypeId": "CONC",
        "placeName": "BEAVERTON",
        "streetNameDisplayText": "THORAH CONCESSION RD 1 CONC, BEAVERTON"
      },
      {
        "electoralDistricts": [
          {
            "election": null,
            "id": 35,
            "name": "Haliburton—Kawartha Lakes—Brock"
          }
        ],
        "pollDivisionIds": [
          10138542
        ],
        "postalCode": "L0C1H0",
        "streetName": "THORAH PARK",
        "streetDirectionId": null,
        "streetTypeId": "BLVD",
        "placeName": "BEAVERTON",
        "streetNameDisplayText": "THORAH PARK BLVD, BEAVERTON"
      },
      {
        "electoralDistricts": [
          {
            "election": null,
            "id": 87,
            "name": "Pickering—Uxbridge"
          }
        ],
        "pollDivisionIds": [
          10143366
        ],
        "postalCode": "L0C1H0",
        "streetName": "UXBRIDGE BROCK",
        "streetDirectionId": null,
        "streetTypeId": "TLINE",
        "placeName": "SUNDERLAND",
        "streetNameDisplayText": "UXBRIDGE BROCK TLINE, SUNDERLAND"
      },
      {
        "electoralDistricts": [
          {
            "election": null,
            "id": 35,
            "name": "Haliburton—Kawartha Lakes—Brock"
          }
        ],
        "pollDivisionIds": [
          10138545
        ],
        "postalCode": "L0C1H0",
        "streetName": "UXBRIDGE HEIGHTS",
        "streetDirectionId": null,
        "streetTypeId": "RD",
        "placeName": "SUNDERLAND",
        "streetNameDisplayText": "UXBRIDGE HEIGHTS RD, SUNDERLAND"
      },
      {
        "electoralDistricts": [
          {
            "election": null,
            "id": 87,
            "name": "Pickering—Uxbridge"
          }
        ],
        "pollDivisionIds": [
          10143366
        ],
        "postalCode": "L0C1H0",
        "streetName": "UXBRIDGE-BROCK",
        "streetDirectionId": null,
        "streetTypeId": "TLINE",
        "placeName": "SUNDERLAND",
        "streetNameDisplayText": "UXBRIDGE-BROCK TLINE, SUNDERLAND"
      },
      {
        "electoralDistricts": [
          {
            "election": null,
            "id": 87,
            "name": "Pickering—Uxbridge"
          }
        ],
        "pollDivisionIds": [
          10143366
        ],
        "postalCode": "L0C1H0",
        "streetName": "UXBRIDGE-BROCK",
        "streetDirectionId": null,
        "streetTypeId": "TLINE",
        "placeName": "UXBRIDGE",
        "streetNameDisplayText": "UXBRIDGE-BROCK TLINE, UXBRIDGE"
      },
      {
        "electoralDistricts": [
          {
            "election": null,
            "id": 35,
            "name": "Haliburton—Kawartha Lakes—Brock"
          },
          {
            "election": null,
            "id": 24,
            "name": "Durham"
          }
        ],
        "pollDivisionIds": [
          10138545,
          10137826
        ],
        "postalCode": "L0C1H0",
        "streetName": "VICTORIA CORNERS",
        "streetDirectionId": null,
        "streetTypeId": "RD",
        "placeName": "SUNDERLAND",
        "streetNameDisplayText": "VICTORIA CORNERS RD, SUNDERLAND"
      },
      {
        "electoralDistricts": [
          {
            "election": null,
            "id": 35,
            "name": "Haliburton—Kawartha Lakes—Brock"
          }
        ],
        "pollDivisionIds": [
          10138545
        ],
        "postalCode": "L0C1H0",
        "streetName": "WADDELL",
        "streetDirectionId": null,
        "streetTypeId": "ST",
        "placeName": "SUNDERLAND",
        "streetNameDisplayText": "WADDELL ST, SUNDERLAND"
      },
      {
        "electoralDistricts": [
          {
            "election": null,
            "id": 87,
            "name": "Pickering—Uxbridge"
          }
        ],
        "pollDivisionIds": [
          10143366
        ],
        "postalCode": "L0C1H0",
        "streetName": "WAGNERS",
        "streetDirectionId": null,
        "streetTypeId": "RD",
        "placeName": "SUNDERLAND",
        "streetNameDisplayText": "WAGNERS RD, SUNDERLAND"
      },
      {
        "electoralDistricts": [
          {
            "election": null,
            "id": 35,
            "name": "Haliburton—Kawartha Lakes—Brock"
          }
        ],
        "pollDivisionIds": [
          10138545
        ],
        "postalCode": "L0C1H0",
        "streetName": "WATER",
        "streetDirectionId": null,
        "streetTypeId": "ST",
        "placeName": "SUNDERLAND",
        "streetNameDisplayText": "WATER ST, SUNDERLAND"
      },
      {
        "electoralDistricts": [
          {
            "election": null,
            "id": 35,
            "name": "Haliburton—Kawartha Lakes—Brock"
          }
        ],
        "pollDivisionIds": [
          10138544
        ],
        "postalCode": "L0C1H0",
        "streetName": "WETHERAL",
        "streetDirectionId": null,
        "streetTypeId": "SIDERD",
        "placeName": "SUNDERLAND",
        "streetNameDisplayText": "WETHERAL SIDERD, SUNDERLAND"
      },
      {
        "electoralDistricts": [
          {
            "election": null,
            "id": 35,
            "name": "Haliburton—Kawartha Lakes—Brock"
          }
        ],
        "pollDivisionIds": [
          10138545
        ],
        "postalCode": "L0C1H0",
        "streetName": "WHIPPLE TREE",
        "streetDirectionId": null,
        "streetTypeId": "LANE",
        "placeName": "SUNDERLAND",
        "streetNameDisplayText": "WHIPPLE TREE LANE, SUNDERLAND"
      },
      {
        "electoralDistricts": [
          {
            "election": null,
            "id": 87,
            "name": "Pickering—Uxbridge"
          }
        ],
        "pollDivisionIds": [
          10143366
        ],
        "postalCode": "L0C1H0",
        "streetName": "WHITNEY",
        "streetDirectionId": null,
        "streetTypeId": "RD",
        "placeName": "SUNDERLAND",
        "streetNameDisplayText": "WHITNEY RD, SUNDERLAND"
      }
    ]
  },
  {
    "postal": "L0C1K0",
    "result": []
  },
  {
    "postal": "L0C1L0",
    "result": [
      {
        "electoralDistricts": [
          {
            "election": null,
            "id": 35,
            "name": "Haliburton—Kawartha Lakes—Brock"
          }
        ],
        "pollDivisionIds": [
          10138544
        ],
        "postalCode": "L0C1L0",
        "streetName": "BROCK CONCESSION RD 9",
        "streetDirectionId": null,
        "streetTypeId": "CONC",
        "placeName": "SUNDERLAND",
        "streetNameDisplayText": "BROCK CONCESSION RD 9 CONC, SUNDERLAND"
      },
      {
        "electoralDistricts": [
          {
            "election": null,
            "id": 121,
            "name": "York—Simcoe"
          }
        ],
        "pollDivisionIds": [
          10142929
        ],
        "postalCode": "L0C1L0",
        "streetName": "CEDARTAM",
        "streetDirectionId": null,
        "streetTypeId": "ST",
        "placeName": "UDORA",
        "streetNameDisplayText": "CEDARTAM ST, UDORA"
      },
      {
        "electoralDistricts": [
          {
            "election": null,
            "id": 121,
            "name": "York—Simcoe"
          }
        ],
        "pollDivisionIds": [
          10142929
        ],
        "postalCode": "L0C1L0",
        "streetName": "CONCESSION 2",
        "streetDirectionId": null,
        "streetTypeId": "RD",
        "placeName": "PEFFERLAW",
        "streetNameDisplayText": "CONCESSION 2 RD, PEFFERLAW"
      },
      {
        "electoralDistricts": [
          {
            "election": null,
            "id": 87,
            "name": "Pickering—Uxbridge"
          }
        ],
        "pollDivisionIds": [
          10143366
        ],
        "postalCode": "L0C1L0",
        "streetName": "DURHAM RD 1",
        "streetDirectionId": null,
        "streetTypeId": "RD",
        "placeName": "UXBRIDGE",
        "streetNameDisplayText": "DURHAM RD 1 RD, UXBRIDGE"
      },
      {
        "electoralDistricts": [
          {
            "election": null,
            "id": 121,
            "name": "York—Simcoe"
          }
        ],
        "pollDivisionIds": [
          10142921
        ],
        "postalCode": "L0C1L0",
        "streetName": "GEORGINA",
        "streetDirectionId": null,
        "streetTypeId": "ST",
        "placeName": "SUTTON WEST",
        "streetNameDisplayText": "GEORGINA ST, SUTTON WEST"
      },
      {
        "electoralDistricts": [
          {
            "election": null,
            "id": 121,
            "name": "York—Simcoe"
          }
        ],
        "pollDivisionIds": [
          10142929
        ],
        "postalCode": "L0C1L0",
        "streetName": "KALEVI",
        "streetDirectionId": null,
        "streetTypeId": "RD",
        "placeName": "UDORA",
        "streetNameDisplayText": "KALEVI RD, UDORA"
      },
      {
        "electoralDistricts": [
          {
            "election": null,
            "id": 121,
            "name": "York—Simcoe"
          }
        ],
        "pollDivisionIds": [
          10142929
        ],
        "postalCode": "L0C1L0",
        "streetName": "KEILA",
        "streetDirectionId": null,
        "streetTypeId": "PROM",
        "placeName": "UDORA",
        "streetNameDisplayText": "KEILA PROM, UDORA"
      },
      {
        "electoralDistricts": [
          {
            "election": null,
            "id": 121,
            "name": "York—Simcoe"
          }
        ],
        "pollDivisionIds": [
          10142929
        ],
        "postalCode": "L0C1L0",
        "streetName": "KOSE",
        "streetDirectionId": null,
        "streetTypeId": "AVE",
        "placeName": "UDORA",
        "streetNameDisplayText": "KOSE AVE, UDORA"
      },
      {
        "electoralDistricts": [
          {
            "election": null,
            "id": 121,
            "name": "York—Simcoe"
          }
        ],
        "pollDivisionIds": [
          10142929
        ],
        "postalCode": "L0C1L0",
        "streetName": "LAKE RIDGE",
        "streetDirectionId": null,
        "streetTypeId": "RD",
        "placeName": "SUNDERLAND",
        "streetNameDisplayText": "LAKE RIDGE RD, SUNDERLAND"
      },
      {
        "electoralDistricts": [
          {
            "election": null,
            "id": 121,
            "name": "York—Simcoe"
          }
        ],
        "pollDivisionIds": [
          10142929
        ],
        "postalCode": "L0C1L0",
        "streetName": "LEELI",
        "streetDirectionId": null,
        "streetTypeId": "RD",
        "placeName": "UDORA",
        "streetNameDisplayText": "LEELI RD, UDORA"
      },
      {
        "electoralDistricts": [
          {
            "election": null,
            "id": 121,
            "name": "York—Simcoe"
          }
        ],
        "pollDivisionIds": [
          10142929
        ],
        "postalCode": "L0C1L0",
        "streetName": "LEMBITU",
        "streetDirectionId": null,
        "streetTypeId": "AVE",
        "placeName": "JACKSONS POINT",
        "streetNameDisplayText": "LEMBITU AVE, JACKSONS POINT"
      },
      {
        "electoralDistricts": [
          {
            "election": null,
            "id": 121,
            "name": "York—Simcoe"
          }
        ],
        "pollDivisionIds": [
          10142929
        ],
        "postalCode": "L0C1L0",
        "streetName": "LEMBITU",
        "streetDirectionId": null,
        "streetTypeId": "AVE",
        "placeName": "UDORA",
        "streetNameDisplayText": "LEMBITU AVE, UDORA"
      },
      {
        "electoralDistricts": [
          {
            "election": null,
            "id": 121,
            "name": "York—Simcoe"
          }
        ],
        "pollDivisionIds": [
          10142929
        ],
        "postalCode": "L0C1L0",
        "streetName": "LINDA",
        "streetDirectionId": null,
        "streetTypeId": "RD",
        "placeName": "UDORA",
        "streetNameDisplayText": "LINDA RD, UDORA"
      },
      {
        "electoralDistricts": [
          {
            "election": null,
            "id": 121,
            "name": "York—Simcoe"
          }
        ],
        "pollDivisionIds": [
          10142929
        ],
        "postalCode": "L0C1L0",
        "streetName": "MANNIKU",
        "streetDirectionId": null,
        "streetTypeId": "RD",
        "placeName": "UDORA",
        "streetNameDisplayText": "MANNIKU RD, UDORA"
      },
      {
        "electoralDistricts": [
          {
            "election": null,
            "id": 121,
            "name": "York—Simcoe"
          }
        ],
        "pollDivisionIds": [
          10142929
        ],
        "postalCode": "L0C1L0",
        "streetName": "MANNIKU",
        "streetDirectionId": null,
        "streetTypeId": "RD",
        "placeName": "UXBRIDGE",
        "streetNameDisplayText": "MANNIKU RD, UXBRIDGE"
      },
      {
        "electoralDistricts": [
          {
            "election": null,
            "id": 121,
            "name": "York—Simcoe"
          }
        ],
        "pollDivisionIds": [
          10142929
        ],
        "postalCode": "L0C1L0",
        "streetName": "MILL POND",
        "streetDirectionId": null,
        "streetTypeId": "LANE",
        "placeName": "UDORA",
        "streetNameDisplayText": "MILL POND LANE, UDORA"
      },
      {
        "electoralDistricts": [
          {
            "election": null,
            "id": 121,
            "name": "York—Simcoe"
          }
        ],
        "pollDivisionIds": [
          10142929
        ],
        "postalCode": "L0C1L0",
        "streetName": "MILL POND",
        "streetDirectionId": null,
        "streetTypeId": "LANE",
        "placeName": "UXBRIDGE",
        "streetNameDisplayText": "MILL POND LANE, UXBRIDGE"
      },
      {
        "electoralDistricts": [
          {
            "election": null,
            "id": 121,
            "name": "York—Simcoe"
          }
        ],
        "pollDivisionIds": [
          10142929
        ],
        "postalCode": "L0C1L0",
        "streetName": "MINONEN",
        "streetDirectionId": null,
        "streetTypeId": "RD",
        "placeName": "UDORA",
        "streetNameDisplayText": "MINONEN RD, UDORA"
      },
      {
        "electoralDistricts": [
          {
            "election": null,
            "id": 121,
            "name": "York—Simcoe"
          }
        ],
        "pollDivisionIds": [
          10142929
        ],
        "postalCode": "L0C1L0",
        "streetName": "NARVA",
        "streetDirectionId": null,
        "streetTypeId": "AVE",
        "placeName": "UDORA",
        "streetNameDisplayText": "NARVA AVE, UDORA"
      },
      {
        "electoralDistricts": [
          {
            "election": null,
            "id": 121,
            "name": "York—Simcoe"
          }
        ],
        "pollDivisionIds": [
          10142929
        ],
        "postalCode": "L0C1L0",
        "streetName": "NURME",
        "streetDirectionId": null,
        "streetTypeId": "AVE",
        "placeName": "UDORA",
        "streetNameDisplayText": "NURME AVE, UDORA"
      },
      {
        "electoralDistricts": [
          {
            "election": null,
            "id": 121,
            "name": "York—Simcoe"
          }
        ],
        "pollDivisionIds": [
          10142929
        ],
        "postalCode": "L0C1L0",
        "streetName": "NURME",
        "streetDirectionId": null,
        "streetTypeId": "RD",
        "placeName": "UDORA",
        "streetNameDisplayText": "NURME RD, UDORA"
      },
      {
        "electoralDistricts": [
          {
            "election": null,
            "id": 121,
            "name": "York—Simcoe"
          }
        ],
        "pollDivisionIds": [
          10142929
        ],
        "postalCode": "L0C1L0",
        "streetName": "OLD SHILOH",
        "streetDirectionId": null,
        "streetTypeId": "RD",
        "placeName": "UDORA",
        "streetNameDisplayText": "OLD SHILOH RD, UDORA"
      },
      {
        "electoralDistricts": [
          {
            "election": null,
            "id": 121,
            "name": "York—Simcoe"
          }
        ],
        "pollDivisionIds": [
          10142929
        ],
        "postalCode": "L0C1L0",
        "streetName": "PIRITA",
        "streetDirectionId": null,
        "streetTypeId": "RD",
        "placeName": "UDORA",
        "streetNameDisplayText": "PIRITA RD, UDORA"
      },
      {
        "electoralDistricts": [
          {
            "election": null,
            "id": 121,
            "name": "York—Simcoe"
          }
        ],
        "pollDivisionIds": [
          10142929
        ],
        "postalCode": "L0C1L0",
        "streetName": "POLVA",
        "streetDirectionId": null,
        "streetTypeId": "PROM",
        "placeName": "KESWICK",
        "streetNameDisplayText": "POLVA PROM, KESWICK"
      },
      {
        "electoralDistricts": [
          {
            "election": null,
            "id": 121,
            "name": "York—Simcoe"
          }
        ],
        "pollDivisionIds": [
          10142929
        ],
        "postalCode": "L0C1L0",
        "streetName": "POLVA",
        "streetDirectionId": null,
        "streetTypeId": "PROM",
        "placeName": "UDORA",
        "streetNameDisplayText": "POLVA PROM, UDORA"
      },
      {
        "electoralDistricts": [
          {
            "election": null,
            "id": 121,
            "name": "York—Simcoe"
          },
          {
            "election": null,
            "id": 87,
            "name": "Pickering—Uxbridge"
          }
        ],
        "pollDivisionIds": [
          10142929,
          10143366
        ],
        "postalCode": "L0C1L0",
        "streetName": "RAVENSHOE",
        "streetDirectionId": null,
        "streetTypeId": "RD",
        "placeName": "UDORA",
        "streetNameDisplayText": "RAVENSHOE RD, UDORA"
      },
      {
        "electoralDistricts": [
          {
            "election": null,
            "id": 87,
            "name": "Pickering—Uxbridge"
          }
        ],
        "pollDivisionIds": [
          10143366
        ],
        "postalCode": "L0C1L0",
        "streetName": "REGIONAL 1",
        "streetDirectionId": null,
        "streetTypeId": "RD",
        "placeName": "LEASKDALE",
        "streetNameDisplayText": "REGIONAL 1 RD, LEASKDALE"
      },
      {
        "electoralDistricts": [
          {
            "election": null,
            "id": 87,
            "name": "Pickering—Uxbridge"
          }
        ],
        "pollDivisionIds": [
          10143366
        ],
        "postalCode": "L0C1L0",
        "streetName": "REGIONAL 1",
        "streetDirectionId": null,
        "streetTypeId": "RD",
        "placeName": "UDORA",
        "streetNameDisplayText": "REGIONAL 1 RD, UDORA"
      },
      {
        "electoralDistricts": [
          {
            "election": null,
            "id": 121,
            "name": "York—Simcoe"
          }
        ],
        "pollDivisionIds": [
          10142929
        ],
        "postalCode": "L0C1L0",
        "streetName": "SINDI",
        "streetDirectionId": null,
        "streetTypeId": "PROM",
        "placeName": "GEORGINA",
        "streetNameDisplayText": "SINDI PROM, GEORGINA"
      },
      {
        "electoralDistricts": [
          {
            "election": null,
            "id": 121,
            "name": "York—Simcoe"
          }
        ],
        "pollDivisionIds": [
          10142929
        ],
        "postalCode": "L0C1L0",
        "streetName": "SULEVI",
        "streetDirectionId": null,
        "streetTypeId": "AVE",
        "placeName": "UDORA",
        "streetNameDisplayText": "SULEVI AVE, UDORA"
      },
      {
        "electoralDistricts": [
          {
            "election": null,
            "id": 121,
            "name": "York—Simcoe"
          }
        ],
        "pollDivisionIds": [
          10142929
        ],
        "postalCode": "L0C1L0",
        "streetName": "SULEVI",
        "streetDirectionId": null,
        "streetTypeId": "AVE",
        "placeName": "UXBRIDGE",
        "streetNameDisplayText": "SULEVI AVE, UXBRIDGE"
      },
      {
        "electoralDistricts": [
          {
            "election": null,
            "id": 121,
            "name": "York—Simcoe"
          }
        ],
        "pollDivisionIds": [
          10142929
        ],
        "postalCode": "L0C1L0",
        "streetName": "UMERA",
        "streetDirectionId": null,
        "streetTypeId": "AVE",
        "placeName": "UDORA",
        "streetNameDisplayText": "UMERA AVE, UDORA"
      },
      {
        "electoralDistricts": [
          {
            "election": null,
            "id": 121,
            "name": "York—Simcoe"
          }
        ],
        "pollDivisionIds": [
          10142929
        ],
        "postalCode": "L0C1L0",
        "streetName": "VAMBOLA",
        "streetDirectionId": null,
        "streetTypeId": "AVE",
        "placeName": "UDORA",
        "streetNameDisplayText": "VAMBOLA AVE, UDORA"
      },
      {
        "electoralDistricts": [
          {
            "election": null,
            "id": 121,
            "name": "York—Simcoe"
          }
        ],
        "pollDivisionIds": [
          10142929
        ],
        "postalCode": "L0C1L0",
        "streetName": "VICTORIA",
        "streetDirectionId": null,
        "streetTypeId": "RD",
        "placeName": "UDORA",
        "streetNameDisplayText": "VICTORIA RD, UDORA"
      },
      {
        "electoralDistricts": [
          {
            "election": null,
            "id": 121,
            "name": "York—Simcoe"
          }
        ],
        "pollDivisionIds": [
          10142929
        ],
        "postalCode": "L0C1L0",
        "streetName": "VICTORIA",
        "streetDirectionId": null,
        "streetTypeId": "ST",
        "placeName": "UDORA",
        "streetNameDisplayText": "VICTORIA ST, UDORA"
      },
      {
        "electoralDistricts": [
          {
            "election": null,
            "id": 121,
            "name": "York—Simcoe"
          }
        ],
        "pollDivisionIds": [
          10142929
        ],
        "postalCode": "L0C1L0",
        "streetName": "VIRU",
        "streetDirectionId": null,
        "streetTypeId": "AVE",
        "placeName": "UDORA",
        "streetNameDisplayText": "VIRU AVE, UDORA"
      },
      {
        "electoralDistricts": [
          {
            "election": null,
            "id": 121,
            "name": "York—Simcoe"
          }
        ],
        "pollDivisionIds": [
          10142928
        ],
        "postalCode": "L0C1L0",
        "streetName": "WEIR'S SIDERD",
        "streetDirectionId": null,
        "streetTypeId": "SIDERD",
        "placeName": "UDORA",
        "streetNameDisplayText": "WEIR'S SIDERD SIDERD, UDORA"
      },
      {
        "electoralDistricts": [
          {
            "election": null,
            "id": 121,
            "name": "York—Simcoe"
          }
        ],
        "pollDivisionIds": [
          10142928,
          10142929
        ],
        "postalCode": "L0C1L0",
        "streetName": "WEIR'S",
        "streetDirectionId": null,
        "streetTypeId": "SIDERD",
        "placeName": "PEFFERLAW",
        "streetNameDisplayText": "WEIR'S SIDERD, PEFFERLAW"
      },
      {
        "electoralDistricts": [
          {
            "election": null,
            "id": 121,
            "name": "York—Simcoe"
          }
        ],
        "pollDivisionIds": [
          10142929,
          10142928
        ],
        "postalCode": "L0C1L0",
        "streetName": "WEIR'S",
        "streetDirectionId": null,
        "streetTypeId": "SIDERD",
        "placeName": "UDORA",
        "streetNameDisplayText": "WEIR'S SIDERD, UDORA"
      },
      {
        "electoralDistricts": [
          {
            "election": null,
            "id": 121,
            "name": "York—Simcoe"
          }
        ],
        "pollDivisionIds": [
          10142929
        ],
        "postalCode": "L0C1L0",
        "streetName": "WEIR'S",
        "streetDirectionId": null,
        "streetTypeId": "SIDERD",
        "placeName": "UXBRIDGE",
        "streetNameDisplayText": "WEIR'S SIDERD, UXBRIDGE"
      },
      {
        "electoralDistricts": [
          {
            "election": null,
            "id": 121,
            "name": "York—Simcoe"
          }
        ],
        "pollDivisionIds": [
          10142929
        ],
        "postalCode": "L0C1L0",
        "streetName": "WEIR'S SIDEROAD",
        "streetDirectionId": null,
        "streetTypeId": null,
        "placeName": "UDORA",
        "streetNameDisplayText": "WEIR'S SIDEROAD, UDORA"
      },
      {
        "electoralDistricts": [
          {
            "election": null,
            "id": 121,
            "name": "York—Simcoe"
          }
        ],
        "pollDivisionIds": [
          10142929
        ],
        "postalCode": "L0C1L0",
        "streetName": "YORK",
        "streetDirectionId": null,
        "streetTypeId": "ST",
        "placeName": "KESWICK",
        "streetNameDisplayText": "YORK ST, KESWICK"
      },
      {
        "electoralDistricts": [
          {
            "election": null,
            "id": 121,
            "name": "York—Simcoe"
          }
        ],
        "pollDivisionIds": [
          10142929
        ],
        "postalCode": "L0C1L0",
        "streetName": "YORK",
        "streetDirectionId": null,
        "streetTypeId": "ST",
        "placeName": "UDORA",
        "streetNameDisplayText": "YORK ST, UDORA"
      }
    ]
  }
]
