[
  {
    "postal": "N7V9J6",
    "result": []
  },
  {
    "postal": "N7V9Z5",
    "result": []
  },
  {
    "postal": "N7V7H8",
    "result": []
  },
  {
    "postal": "N7V0P6",
    "result": []
  },
  {
    "postal": "N7V0S7",
    "result": []
  },
  {
    "postal": "N7V8B9",
    "result": []
  },
  {
    "postal": "N7V2A6",
    "result": [
      {
        "electoralDistricts": [
          {
            "election": null,
            "id": 91,
            "name": "Sarnia—Lambton"
          }
        ],
        "pollDivisionIds": [
          10141398
        ],
        "postalCode": "N7V2A6",
        "streetName": "ROSEDALE",
        "streetDirectionId": null,
        "streetTypeId": "AVE",
        "placeName": "SARNIA",
        "streetNameDisplayText": "ROSEDALE AVE, SARNIA"
      }
    ]
  },
  {
    "postal": "N7V7V2",
    "result": []
  },
  {
    "postal": "N7V9P4",
    "result": []
  },
  {
    "postal": "N7V6G0",
    "result": []
  },
  {
    "postal": "N7V2K0",
    "result": []
  },
  {
    "postal": "N7V7N6",
    "result": []
  },
  {
    "postal": "N7V5R3",
    "result": []
  },
  {
    "postal": "N7V7K0",
    "result": []
  },
  {
    "postal": "N7V3R2",
    "result": [
      {
        "electoralDistricts": [
          {
            "election": null,
            "id": 91,
            "name": "Sarnia—Lambton"
          }
        ],
        "pollDivisionIds": [
          10141394
        ],
        "postalCode": "N7V3R2",
        "streetName": "RIDGEWOOD",
        "streetDirectionId": null,
        "streetTypeId": "DR",
        "placeName": "SARNIA",
        "streetNameDisplayText": "RIDGEWOOD DR, SARNIA"
      }
    ]
  },
  {
    "postal": "N7V0J1",
    "result": []
  },
  {
    "postal": "N7V0B0",
    "result": []
  },
  {
    "postal": "N7V5Z2",
    "result": []
  },
  {
    "postal": "N7V7P3",
    "result": []
  },
  {
    "postal": "N7V2K3",
    "result": [
      {
        "electoralDistricts": [
          {
            "election": null,
            "id": 91,
            "name": "Sarnia—Lambton"
          }
        ],
        "pollDivisionIds": [
          10141394
        ],
        "postalCode": "N7V2K3",
        "streetName": "STONECREST",
        "streetDirectionId": null,
        "streetTypeId": "AVE",
        "placeName": "SARNIA",
        "streetNameDisplayText": "STONECREST AVE, SARNIA"
      }
    ]
  },
  {
    "postal": "N7V7Y6",
    "result": []
  },
  {
    "postal": "N7V1L9",
    "result": [
      {
        "electoralDistricts": [
          {
            "election": null,
            "id": 91,
            "name": "Sarnia—Lambton"
          }
        ],
        "pollDivisionIds": [
          10141387
        ],
        "postalCode": "N7V1L9",
        "streetName": "LIVINGSTON",
        "streetDirectionId": null,
        "streetTypeId": "ST",
        "placeName": "POINT EDWARD",
        "streetNameDisplayText": "LIVINGSTON ST, POINT EDWARD"
      }
    ]
  },
  {
    "postal": "N7V8T0",
    "result": []
  },
  {
    "postal": "N7V3K8",
    "result": [
      {
        "electoralDistricts": [
          {
            "election": null,
            "id": 91,
            "name": "Sarnia—Lambton"
          }
        ],
        "pollDivisionIds": [
          10141398
        ],
        "postalCode": "N7V3K8",
        "streetName": "COLBORNE",
        "streetDirectionId": null,
        "streetTypeId": "RD",
        "placeName": "SARNIA",
        "streetNameDisplayText": "COLBORNE RD, SARNIA"
      }
    ]
  },
  {
    "postal": "N7V5W9",
    "result": []
  },
  {
    "postal": "N7V6T9",
    "result": []
  },
  {
    "postal": "N7V4H1",
    "result": [
      {
        "electoralDistricts": [
          {
            "election": null,
            "id": 91,
            "name": "Sarnia—Lambton"
          }
        ],
        "pollDivisionIds": [
          83705
        ],
        "postalCode": "N7V4H1",
        "streetName": "ERROL",
        "streetDirectionId": "W",
        "streetTypeId": "RD",
        "placeName": "SARNIA",
        "streetNameDisplayText": "ERROL RD W, SARNIA"
      }
    ]
  },
  {
    "postal": "N7V7A2",
    "result": []
  },
  {
    "postal": "N7V5G0",
    "result": []
  },
  {
    "postal": "N7V8V5",
    "result": []
  },
  {
    "postal": "N7V2Y8",
    "result": [
      {
        "electoralDistricts": [
          {
            "election": null,
            "id": 91,
            "name": "Sarnia—Lambton"
          }
        ],
        "pollDivisionIds": [
          10141388
        ],
        "postalCode": "N7V2Y8",
        "streetName": "BEACH",
        "streetDirectionId": null,
        "streetTypeId": "LANE",
        "placeName": "SARNIA",
        "streetNameDisplayText": "BEACH LANE, SARNIA"
      }
    ]
  },
  {
    "postal": "N7V2B6",
    "result": [
      {
        "electoralDistricts": [
          {
            "election": null,
            "id": 91,
            "name": "Sarnia—Lambton"
          }
        ],
        "pollDivisionIds": [
          10141398
        ],
        "postalCode": "N7V2B6",
        "streetName": "GRATIOT",
        "streetDirectionId": null,
        "streetTypeId": "AVE",
        "placeName": "SARNIA",
        "streetNameDisplayText": "GRATIOT AVE, SARNIA"
      }
    ]
  },
  {
    "postal": "N7V4W8",
    "result": []
  },
  {
    "postal": "N7V8H7",
    "result": []
  },
  {
    "postal": "N7V5P1",
    "result": []
  },
  {
    "postal": "N7V2B8",
    "result": [
      {
        "electoralDistricts": [
          {
            "election": null,
            "id": 91,
            "name": "Sarnia—Lambton"
          }
        ],
        "pollDivisionIds": [
          10141428
        ],
        "postalCode": "N7V2B8",
        "streetName": "ERROL",
        "streetDirectionId": "W",
        "streetTypeId": "RD",
        "placeName": "SARNIA",
        "streetNameDisplayText": "ERROL RD W, SARNIA"
      }
    ]
  },
  {
    "postal": "N7V0P2",
    "result": []
  },
  {
    "postal": "N7V9M1",
    "result": []
  },
  {
    "postal": "N7V3G0",
    "result": []
  },
  {
    "postal": "N7V9Z2",
    "result": []
  },
  {
    "postal": "N7V2A0",
    "result": []
  },
  {
    "postal": "N7V6Y0",
    "result": []
  },
  {
    "postal": "N7V2Z8",
    "result": [
      {
        "electoralDistricts": [
          {
            "election": null,
            "id": 91,
            "name": "Sarnia—Lambton"
          }
        ],
        "pollDivisionIds": [
          10141388
        ],
        "postalCode": "N7V2Z8",
        "streetName": "TUDOR",
        "streetDirectionId": "E",
        "streetTypeId": "CLOSE",
        "placeName": "SARNIA",
        "streetNameDisplayText": "TUDOR CLOSE E, SARNIA"
      }
    ]
  },
  {
    "postal": "N7V7Y3",
    "result": []
  },
  {
    "postal": "N7V6Z5",
    "result": []
  },
  {
    "postal": "N7V6E0",
    "result": []
  },
  {
    "postal": "N7V9B7",
    "result": []
  },
  {
    "postal": "N7V9S5",
    "result": []
  },
  {
    "postal": "N7V3X3",
    "result": [
      {
        "electoralDistricts": [
          {
            "election": null,
            "id": 91,
            "name": "Sarnia—Lambton"
          }
        ],
        "pollDivisionIds": [
          10141398
        ],
        "postalCode": "N7V3X3",
        "streetName": "GRANDVIEW",
        "streetDirectionId": null,
        "streetTypeId": "AVE",
        "placeName": "SARNIA",
        "streetNameDisplayText": "GRANDVIEW AVE, SARNIA"
      }
    ]
  },
  {
    "postal": "N7V7R5",
    "result": []
  },
  {
    "postal": "N7V2X3",
    "result": [
      {
        "electoralDistricts": [
          {
            "election": null,
            "id": 91,
            "name": "Sarnia—Lambton"
          }
        ],
        "pollDivisionIds": [
          10141388
        ],
        "postalCode": "N7V2X3",
        "streetName": "ORCHARD",
        "streetDirectionId": null,
        "streetTypeId": "AVE",
        "placeName": "SARNIA",
        "streetNameDisplayText": "ORCHARD AVE, SARNIA"
      }
    ]
  },
  {
    "postal": "N7V8Z9",
    "result": []
  },
  {
    "postal": "N7V0N4",
    "result": []
  },
  {
    "postal": "N7V1K1",
    "result": [
      {
        "electoralDistricts": [
          {
            "election": null,
            "id": 91,
            "name": "Sarnia—Lambton"
          }
        ],
        "pollDivisionIds": [
          10141387
        ],
        "postalCode": "N7V1K1",
        "streetName": "ERNEST",
        "streetDirectionId": null,
        "streetTypeId": "ST",
        "placeName": "POINT EDWARD",
        "streetNameDisplayText": "ERNEST ST, POINT EDWARD"
      }
    ]
  },
  {
    "postal": "N7V1S3",
    "result": []
  },
  {
    "postal": "N7V6M4",
    "result": []
  },
  {
    "postal": "N7V9A9",
    "result": []
  },
  {
    "postal": "N7V9Z9",
    "result": []
  },
  {
    "postal": "N7V6T4",
    "result": []
  },
  {
    "postal": "N7V0B2",
    "result": []
  },
  {
    "postal": "N7V2L9",
    "result": [
      {
        "electoralDistricts": [
          {
            "election": null,
            "id": 91,
            "name": "Sarnia—Lambton"
          }
        ],
        "pollDivisionIds": [
          10141394
        ],
        "postalCode": "N7V2L9",
        "streetName": "NORWAY",
        "streetDirectionId": null,
        "streetTypeId": "AVE",
        "placeName": "SARNIA",
        "streetNameDisplayText": "NORWAY AVE, SARNIA"
      }
    ]
  },
  {
    "postal": "N7V8K9",
    "result": []
  },
  {
    "postal": "N7V2H9",
    "result": [
      {
        "electoralDistricts": [
          {
            "election": null,
            "id": 91,
            "name": "Sarnia—Lambton"
          }
        ],
        "pollDivisionIds": [
          10141394
        ],
        "postalCode": "N7V2H9",
        "streetName": "HOLLYWOOD",
        "streetDirectionId": null,
        "streetTypeId": "PL",
        "placeName": "SARNIA",
        "streetNameDisplayText": "HOLLYWOOD PL, SARNIA"
      }
    ]
  },
  {
    "postal": "N7V3Z6",
    "result": [
      {
        "electoralDistricts": [
          {
            "election": null,
            "id": 91,
            "name": "Sarnia—Lambton"
          }
        ],
        "pollDivisionIds": [
          10141388
        ],
        "postalCode": "N7V3Z6",
        "streetName": "ATHENA",
        "streetDirectionId": null,
        "streetTypeId": "AVE",
        "placeName": "SARNIA",
        "streetNameDisplayText": "ATHENA AVE, SARNIA"
      }
    ]
  },
  {
    "postal": "N7V3B0",
    "result": []
  },
  {
    "postal": "N7V2H8",
    "result": [
      {
        "electoralDistricts": [
          {
            "election": null,
            "id": 91,
            "name": "Sarnia—Lambton"
          }
        ],
        "pollDivisionIds": [
          10141394
        ],
        "postalCode": "N7V2H8",
        "streetName": "HOLLYWOOD",
        "streetDirectionId": null,
        "streetTypeId": "PL",
        "placeName": "SARNIA",
        "streetNameDisplayText": "HOLLYWOOD PL, SARNIA"
      }
    ]
  },
  {
    "postal": "N7V3X2",
    "result": [
      {
        "electoralDistricts": [
          {
            "election": null,
            "id": 91,
            "name": "Sarnia—Lambton"
          }
        ],
        "pollDivisionIds": [
          10141398
        ],
        "postalCode": "N7V3X2",
        "streetName": "GRANDVIEW",
        "streetDirectionId": null,
        "streetTypeId": "AVE",
        "placeName": "SARNIA",
        "streetNameDisplayText": "GRANDVIEW AVE, SARNIA"
      }
    ]
  },
  {
    "postal": "N7V2E9",
    "result": [
      {
        "electoralDistricts": [
          {
            "election": null,
            "id": 91,
            "name": "Sarnia—Lambton"
          }
        ],
        "pollDivisionIds": [
          10141395
        ],
        "postalCode": "N7V2E9",
        "streetName": "CHAMPLAIN",
        "streetDirectionId": null,
        "streetTypeId": "RD",
        "placeName": "SARNIA",
        "streetNameDisplayText": "CHAMPLAIN RD, SARNIA"
      }
    ]
  },
  {
    "postal": "N7V9P6",
    "result": []
  },
  {
    "postal": "N7V9E2",
    "result": []
  },
  {
    "postal": "N7V9H2",
    "result": []
  },
  {
    "postal": "N7V1S8",
    "result": [
      {
        "electoralDistricts": [
          {
            "election": null,
            "id": 91,
            "name": "Sarnia—Lambton"
          }
        ],
        "pollDivisionIds": [
          10141387
        ],
        "postalCode": "N7V1S8",
        "streetName": "ALFRED",
        "streetDirectionId": null,
        "streetTypeId": "ST",
        "placeName": "POINT EDWARD",
        "streetNameDisplayText": "ALFRED ST, POINT EDWARD"
      }
    ]
  },
  {
    "postal": "N7V3M6",
    "result": [
      {
        "electoralDistricts": [
          {
            "election": null,
            "id": 91,
            "name": "Sarnia—Lambton"
          }
        ],
        "pollDivisionIds": [
          10141387
        ],
        "postalCode": "N7V3M6",
        "streetName": "COLBORNE",
        "streetDirectionId": null,
        "streetTypeId": "DR",
        "placeName": "SARNIA",
        "streetNameDisplayText": "COLBORNE DR, SARNIA"
      },
      {
        "electoralDistricts": [
          {
            "election": null,
            "id": 91,
            "name": "Sarnia—Lambton"
          }
        ],
        "pollDivisionIds": [
          10141389,
          10141388
        ],
        "postalCode": "N7V3M6",
        "streetName": "COLBORNE",
        "streetDirectionId": null,
        "streetTypeId": "RD",
        "placeName": "SARNIA",
        "streetNameDisplayText": "COLBORNE RD, SARNIA"
      }
    ]
  },
  {
    "postal": "N7V6Z8",
    "result": []
  },
  {
    "postal": "N7V4J2",
    "result": [
      {
        "electoralDistricts": [
          {
            "election": null,
            "id": 91,
            "name": "Sarnia—Lambton"
          }
        ],
        "pollDivisionIds": [
          10141389
        ],
        "postalCode": "N7V4J2",
        "streetName": "RIDING CLUB",
        "streetDirectionId": null,
        "streetTypeId": "LANE",
        "placeName": "SARNIA",
        "streetNameDisplayText": "RIDING CLUB LANE, SARNIA"
      }
    ]
  },
  {
    "postal": "N7V9Y1",
    "result": []
  },
  {
    "postal": "N7V8V6",
    "result": []
  },
  {
    "postal": "N7V6B2",
    "result": []
  },
  {
    "postal": "N7V1P8",
    "result": [
      {
        "electoralDistricts": [
          {
            "election": null,
            "id": 91,
            "name": "Sarnia—Lambton"
          }
        ],
        "pollDivisionIds": [
          10141387
        ],
        "postalCode": "N7V1P8",
        "streetName": "ALBERT",
        "streetDirectionId": null,
        "streetTypeId": "ST",
        "placeName": "POINT EDWARD",
        "streetNameDisplayText": "ALBERT ST, POINT EDWARD"
      }
    ]
  },
  {
    "postal": "N7V0V8",
    "result": []
  },
  {
    "postal": "N7V4Y0",
    "result": []
  },
  {
    "postal": "N7V2T4",
    "result": [
      {
        "electoralDistricts": [
          {
            "election": null,
            "id": 91,
            "name": "Sarnia—Lambton"
          }
        ],
        "pollDivisionIds": [
          10141388
        ],
        "postalCode": "N7V2T4",
        "streetName": "LAKESHORE",
        "streetDirectionId": null,
        "streetTypeId": "RD",
        "placeName": "SARNIA",
        "streetNameDisplayText": "LAKESHORE RD, SARNIA"
      }
    ]
  },
  {
    "postal": "N7V2S3",
    "result": [
      {
        "electoralDistricts": [
          {
            "election": null,
            "id": 91,
            "name": "Sarnia—Lambton"
          }
        ],
        "pollDivisionIds": [
          10141388
        ],
        "postalCode": "N7V2S3",
        "streetName": "CHARLESWORTH",
        "streetDirectionId": null,
        "streetTypeId": "DR",
        "placeName": "SARNIA",
        "streetNameDisplayText": "CHARLESWORTH DR, SARNIA"
      }
    ]
  },
  {
    "postal": "N7V0K0",
    "result": []
  },
  {
    "postal": "N7V5N1",
    "result": []
  },
  {
    "postal": "N7V7T0",
    "result": []
  },
  {
    "postal": "N7V9N2",
    "result": []
  },
  {
    "postal": "N7V5L1",
    "result": []
  },
  {
    "postal": "N7V7G5",
    "result": []
  },
  {
    "postal": "N7V6K2",
    "result": []
  },
  {
    "postal": "N7V6P9",
    "result": []
  },
  {
    "postal": "N7V0E6",
    "result": []
  },
  {
    "postal": "N7V8R9",
    "result": []
  },
  {
    "postal": "N7V3G9",
    "result": [
      {
        "electoralDistricts": [
          {
            "election": null,
            "id": 91,
            "name": "Sarnia—Lambton"
          }
        ],
        "pollDivisionIds": [
          10141388
        ],
        "postalCode": "N7V3G9",
        "streetName": "EGMOND",
        "streetDirectionId": null,
        "streetTypeId": "DR",
        "placeName": "SARNIA",
        "streetNameDisplayText": "EGMOND DR, SARNIA"
      }
    ]
  },
  {
    "postal": "N7V0V7",
    "result": []
  },
  {
    "postal": "N7V2Z1",
    "result": [
      {
        "electoralDistricts": [
          {
            "election": null,
            "id": 91,
            "name": "Sarnia—Lambton"
          }
        ],
        "pollDivisionIds": [
          10141388
        ],
        "postalCode": "N7V2Z1",
        "streetName": "BEACH",
        "streetDirectionId": null,
        "streetTypeId": "LANE",
        "placeName": "SARNIA",
        "streetNameDisplayText": "BEACH LANE, SARNIA"
      }
    ]
  },
  {
    "postal": "N7V7N1",
    "result": []
  },
  {
    "postal": "N7V3C6",
    "result": [
      {
        "electoralDistricts": [
          {
            "election": null,
            "id": 91,
            "name": "Sarnia—Lambton"
          }
        ],
        "pollDivisionIds": [
          10141394
        ],
        "postalCode": "N7V3C6",
        "streetName": "CHRISTINA",
        "streetDirectionId": "N",
        "streetTypeId": "ST",
        "placeName": "SARNIA",
        "streetNameDisplayText": "CHRISTINA ST N, SARNIA"
      }
    ]
  },
  {
    "postal": "N7V4M1",
    "result": []
  },
  {
    "postal": "N7V9K2",
    "result": []
  },
  {
    "postal": "N7V9S6",
    "result": []
  },
  {
    "postal": "N7V4X1",
    "result": []
  },
  {
    "postal": "N7V8W2",
    "result": []
  },
  {
    "postal": "N7V7N2",
    "result": []
  },
  {
    "postal": "N7V8S3",
    "result": []
  },
  {
    "postal": "N7V4V0",
    "result": []
  },
  {
    "postal": "N7V6W4",
    "result": []
  },
  {
    "postal": "N7V5M1",
    "result": []
  },
  {
    "postal": "N7V0S4",
    "result": []
  },
  {
    "postal": "N7V5X6",
    "result": []
  },
  {
    "postal": "N7V8L5",
    "result": []
  },
  {
    "postal": "N7V5M8",
    "result": []
  },
  {
    "postal": "N7V2G3",
    "result": [
      {
        "electoralDistricts": [
          {
            "election": null,
            "id": 91,
            "name": "Sarnia—Lambton"
          }
        ],
        "pollDivisionIds": [
          10141394
        ],
        "postalCode": "N7V2G3",
        "streetName": "PRENTICE",
        "streetDirectionId": null,
        "streetTypeId": "AVE",
        "placeName": "SARNIA",
        "streetNameDisplayText": "PRENTICE AVE, SARNIA"
      }
    ]
  },
  {
    "postal": "N7V8E4",
    "result": []
  },
  {
    "postal": "N7V7S9",
    "result": []
  },
  {
    "postal": "N7V1K3",
    "result": [
      {
        "electoralDistricts": [
          {
            "election": null,
            "id": 91,
            "name": "Sarnia—Lambton"
          }
        ],
        "pollDivisionIds": [
          10141387
        ],
        "postalCode": "N7V1K3",
        "streetName": "ERNEST",
        "streetDirectionId": null,
        "streetTypeId": "ST",
        "placeName": "POINT EDWARD",
        "streetNameDisplayText": "ERNEST ST, POINT EDWARD"
      }
    ]
  },
  {
    "postal": "N7V4E1",
    "result": [
      {
        "electoralDistricts": [
          {
            "election": null,
            "id": 91,
            "name": "Sarnia—Lambton"
          }
        ],
        "pollDivisionIds": [
          10141389
        ],
        "postalCode": "N7V4E1",
        "streetName": "INDIAN",
        "streetDirectionId": "N",
        "streetTypeId": "RD",
        "placeName": "SARNIA",
        "streetNameDisplayText": "INDIAN RD N, SARNIA"
      }
    ]
  },
  {
    "postal": "N7V4R2",
    "result": []
  },
  {
    "postal": "N7V6T0",
    "result": []
  },
  {
    "postal": "N7V3K5",
    "result": [
      {
        "electoralDistricts": [
          {
            "election": null,
            "id": 91,
            "name": "Sarnia—Lambton"
          }
        ],
        "pollDivisionIds": [
          10141398
        ],
        "postalCode": "N7V3K5",
        "streetName": "COLBORNE",
        "streetDirectionId": null,
        "streetTypeId": "RD",
        "placeName": "SARNIA",
        "streetNameDisplayText": "COLBORNE RD, SARNIA"
      }
    ]
  },
  {
    "postal": "N7V3S3",
    "result": [
      {
        "electoralDistricts": [
          {
            "election": null,
            "id": 91,
            "name": "Sarnia—Lambton"
          }
        ],
        "pollDivisionIds": [
          10141398
        ],
        "postalCode": "N7V3S3",
        "streetName": "KENWOOD",
        "streetDirectionId": null,
        "streetTypeId": "AVE",
        "placeName": "SARNIA",
        "streetNameDisplayText": "KENWOOD AVE, SARNIA"
      }
    ]
  },
  {
    "postal": "N7V3L4",
    "result": [
      {
        "electoralDistricts": [
          {
            "election": null,
            "id": 91,
            "name": "Sarnia—Lambton"
          }
        ],
        "pollDivisionIds": [
          10141394
        ],
        "postalCode": "N7V3L4",
        "streetName": "COLBORNE",
        "streetDirectionId": null,
        "streetTypeId": "RD",
        "placeName": "SARNIA",
        "streetNameDisplayText": "COLBORNE RD, SARNIA"
      }
    ]
  },
  {
    "postal": "N7V9Y2",
    "result": []
  },
  {
    "postal": "N7V1E0",
    "result": []
  },
  {
    "postal": "N7V9A4",
    "result": []
  },
  {
    "postal": "N7V1L3",
    "result": [
      {
        "electoralDistricts": [
          {
            "election": null,
            "id": 91,
            "name": "Sarnia—Lambton"
          }
        ],
        "pollDivisionIds": [
          10141394
        ],
        "postalCode": "N7V1L3",
        "streetName": "MICHIGAN",
        "streetDirectionId": null,
        "streetTypeId": "AVE",
        "placeName": "SARNIA",
        "streetNameDisplayText": "MICHIGAN AVE, SARNIA"
      }
    ]
  },
  {
    "postal": "N7V6N1",
    "result": []
  },
  {
    "postal": "N7V6G7",
    "result": []
  },
  {
    "postal": "N7V7W1",
    "result": []
  },
  {
    "postal": "N7V4M6",
    "result": []
  },
  {
    "postal": "N7V1K0",
    "result": []
  },
  {
    "postal": "N7V3E2",
    "result": [
      {
        "electoralDistricts": [
          {
            "election": null,
            "id": 91,
            "name": "Sarnia—Lambton"
          }
        ],
        "pollDivisionIds": [
          10141387
        ],
        "postalCode": "N7V3E2",
        "streetName": "CHRISTINA",
        "streetDirectionId": "N",
        "streetTypeId": "ST",
        "placeName": "SARNIA",
        "streetNameDisplayText": "CHRISTINA ST N, SARNIA"
      }
    ]
  },
  {
    "postal": "N7V5H4",
    "result": []
  },
  {
    "postal": "N7V1K7",
    "result": [
      {
        "electoralDistricts": [
          {
            "election": null,
            "id": 91,
            "name": "Sarnia—Lambton"
          }
        ],
        "pollDivisionIds": [
          10141387
        ],
        "postalCode": "N7V1K7",
        "streetName": "ERNEST",
        "streetDirectionId": null,
        "streetTypeId": "ST",
        "placeName": "POINT EDWARD",
        "streetNameDisplayText": "ERNEST ST, POINT EDWARD"
      }
    ]
  },
  {
    "postal": "N7V0H0",
    "result": []
  },
  {
    "postal": "N7V0J3",
    "result": []
  },
  {
    "postal": "N7V1X6",
    "result": [
      {
        "electoralDistricts": [
          {
            "election": null,
            "id": 91,
            "name": "Sarnia—Lambton"
          }
        ],
        "pollDivisionIds": [
          10141387
        ],
        "postalCode": "N7V1X6",
        "streetName": "CHRISTINA",
        "streetDirectionId": "N",
        "streetTypeId": "ST",
        "placeName": "POINT EDWARD",
        "streetNameDisplayText": "CHRISTINA ST N, POINT EDWARD"
      }
    ]
  },
  {
    "postal": "N7V2Z6",
    "result": [
      {
        "electoralDistricts": [
          {
            "election": null,
            "id": 91,
            "name": "Sarnia—Lambton"
          }
        ],
        "pollDivisionIds": [
          10141388
        ],
        "postalCode": "N7V2Z6",
        "streetName": "TUDOR",
        "streetDirectionId": "W",
        "streetTypeId": "CLOSE",
        "placeName": "SARNIA",
        "streetNameDisplayText": "TUDOR CLOSE W, SARNIA"
      }
    ]
  },
  {
    "postal": "N7V4R9",
    "result": []
  },
  {
    "postal": "N7V0W8",
    "result": []
  },
  {
    "postal": "N7V1L4",
    "result": [
      {
        "electoralDistricts": [
          {
            "election": null,
            "id": 91,
            "name": "Sarnia—Lambton"
          }
        ],
        "pollDivisionIds": [
          10141395
        ],
        "postalCode": "N7V1L4",
        "streetName": "MICHIGAN",
        "streetDirectionId": null,
        "streetTypeId": "AVE",
        "placeName": "SARNIA",
        "streetNameDisplayText": "MICHIGAN AVE, SARNIA"
      }
    ]
  },
  {
    "postal": "N7V0C8",
    "result": []
  },
  {
    "postal": "N7V9X7",
    "result": []
  },
  {
    "postal": "N7V4T1",
    "result": []
  },
  {
    "postal": "N7V0M0",
    "result": []
  },
  {
    "postal": "N7V6A2",
    "result": []
  },
  {
    "postal": "N7V9S8",
    "result": []
  },
  {
    "postal": "N7V9T4",
    "result": []
  },
  {
    "postal": "N7V9Y4",
    "result": []
  },
  {
    "postal": "N7V6G5",
    "result": []
  },
  {
    "postal": "N7V6H9",
    "result": []
  },
  {
    "postal": "N7V2P3",
    "result": [
      {
        "electoralDistricts": [
          {
            "election": null,
            "id": 91,
            "name": "Sarnia—Lambton"
          }
        ],
        "pollDivisionIds": [
          10141387
        ],
        "postalCode": "N7V2P3",
        "streetName": "ROOSEVELT",
        "streetDirectionId": null,
        "streetTypeId": "DR",
        "placeName": "SARNIA",
        "streetNameDisplayText": "ROOSEVELT DR, SARNIA"
      }
    ]
  },
  {
    "postal": "N7V1T6",
    "result": [
      {
        "electoralDistricts": [
          {
            "election": null,
            "id": 91,
            "name": "Sarnia—Lambton"
          }
        ],
        "pollDivisionIds": [
          10141387
        ],
        "postalCode": "N7V1T6",
        "streetName": "ARTHUR",
        "streetDirectionId": null,
        "streetTypeId": "ST",
        "placeName": "POINT EDWARD",
        "streetNameDisplayText": "ARTHUR ST, POINT EDWARD"
      }
    ]
  },
  {
    "postal": "N7V4P6",
    "result": []
  },
  {
    "postal": "N7V3K1",
    "result": [
      {
        "electoralDistricts": [
          {
            "election": null,
            "id": 91,
            "name": "Sarnia—Lambton"
          }
        ],
        "pollDivisionIds": [
          10141398
        ],
        "postalCode": "N7V3K1",
        "streetName": "COLBORNE",
        "streetDirectionId": null,
        "streetTypeId": "RD",
        "placeName": "SARNIA",
        "streetNameDisplayText": "COLBORNE RD, SARNIA"
      }
    ]
  },
  {
    "postal": "N7V6X4",
    "result": []
  },
  {
    "postal": "N7V4M8",
    "result": []
  },
  {
    "postal": "N7V2Y1",
    "result": [
      {
        "electoralDistricts": [
          {
            "election": null,
            "id": 91,
            "name": "Sarnia—Lambton"
          }
        ],
        "pollDivisionIds": [
          10141388
        ],
        "postalCode": "N7V2Y1",
        "streetName": "GROVE",
        "streetDirectionId": null,
        "streetTypeId": "AVE",
        "placeName": "SARNIA",
        "streetNameDisplayText": "GROVE AVE, SARNIA"
      }
    ]
  },
  {
    "postal": "N7V6M1",
    "result": []
  },
  {
    "postal": "N7V5L8",
    "result": []
  },
  {
    "postal": "N7V3P6",
    "result": [
      {
        "electoralDistricts": [
          {
            "election": null,
            "id": 91,
            "name": "Sarnia—Lambton"
          }
        ],
        "pollDivisionIds": [
          10141388
        ],
        "postalCode": "N7V3P6",
        "streetName": "TYRIE",
        "streetDirectionId": "E",
        "streetTypeId": "DR",
        "placeName": "SARNIA",
        "streetNameDisplayText": "TYRIE DR E, SARNIA"
      },
      {
        "electoralDistricts": [
          {
            "election": null,
            "id": 91,
            "name": "Sarnia—Lambton"
          }
        ],
        "pollDivisionIds": [
          10141388
        ],
        "postalCode": "N7V3P6",
        "streetName": "TYRIE",
        "streetDirectionId": "W",
        "streetTypeId": "DR",
        "placeName": "SARNIA",
        "streetNameDisplayText": "TYRIE DR W, SARNIA"
      }
    ]
  },
  {
    "postal": "N7V9A5",
    "result": []
  },
  {
    "postal": "N7V7K1",
    "result": []
  },
  {
    "postal": "N7V3J4",
    "result": [
      {
        "electoralDistricts": [
          {
            "election": null,
            "id": 91,
            "name": "Sarnia—Lambton"
          }
        ],
        "pollDivisionIds": [
          10141388
        ],
        "postalCode": "N7V3J4",
        "streetName": "LECARON",
        "streetDirectionId": null,
        "streetTypeId": "AVE",
        "placeName": "SARNIA",
        "streetNameDisplayText": "LECARON AVE, SARNIA"
      }
    ]
  },
  {
    "postal": "N7V5E7",
    "result": []
  },
  {
    "postal": "N7V3A7",
    "result": [
      {
        "electoralDistricts": [
          {
            "election": null,
            "id": 91,
            "name": "Sarnia—Lambton"
          }
        ],
        "pollDivisionIds": [
          10141389
        ],
        "postalCode": "N7V3A7",
        "streetName": "ARBOR",
        "streetDirectionId": null,
        "streetTypeId": "CRT",
        "placeName": "SARNIA",
        "streetNameDisplayText": "ARBOR CRT, SARNIA"
      }
    ]
  },
  {
    "postal": "N7V1B9",
    "result": [
      {
        "electoralDistricts": [
          {
            "election": null,
            "id": 91,
            "name": "Sarnia—Lambton"
          }
        ],
        "pollDivisionIds": [
          10141387
        ],
        "postalCode": "N7V1B9",
        "streetName": "CHARLES",
        "streetDirectionId": null,
        "streetTypeId": "ST",
        "placeName": "POINT EDWARD",
        "streetNameDisplayText": "CHARLES ST, POINT EDWARD"
      }
    ]
  },
  {
    "postal": "N7V9E8",
    "result": []
  },
  {
    "postal": "N7V1C9",
    "result": [
      {
        "electoralDistricts": [
          {
            "election": null,
            "id": 91,
            "name": "Sarnia—Lambton"
          }
        ],
        "pollDivisionIds": [
          10141387
        ],
        "postalCode": "N7V1C9",
        "streetName": "ALEXANDRA",
        "streetDirectionId": null,
        "streetTypeId": "AVE",
        "placeName": "POINT EDWARD",
        "streetNameDisplayText": "ALEXANDRA AVE, POINT EDWARD"
      }
    ]
  },
  {
    "postal": "N7V3B5",
    "result": [
      {
        "electoralDistricts": [
          {
            "election": null,
            "id": 91,
            "name": "Sarnia—Lambton"
          }
        ],
        "pollDivisionIds": [
          10141389
        ],
        "postalCode": "N7V3B5",
        "streetName": "BRAEMAR",
        "streetDirectionId": null,
        "streetTypeId": "LANE",
        "placeName": "SARNIA",
        "streetNameDisplayText": "BRAEMAR LANE, SARNIA"
      }
    ]
  },
  {
    "postal": "N7V8R0",
    "result": []
  },
  {
    "postal": "N7V3P2",
    "result": [
      {
        "electoralDistricts": [
          {
            "election": null,
            "id": 91,
            "name": "Sarnia—Lambton"
          }
        ],
        "pollDivisionIds": [
          10141388
        ],
        "postalCode": "N7V3P2",
        "streetName": "MC MILLEN",
        "streetDirectionId": "E",
        "streetTypeId": "PKY",
        "placeName": "SARNIA",
        "streetNameDisplayText": "MC MILLEN PKY E, SARNIA"
      },
      {
        "electoralDistricts": [
          {
            "election": null,
            "id": 91,
            "name": "Sarnia—Lambton"
          }
        ],
        "pollDivisionIds": [
          10141388
        ],
        "postalCode": "N7V3P2",
        "streetName": "MCMILLEN",
        "streetDirectionId": "E",
        "streetTypeId": "PKY",
        "placeName": "SARNIA",
        "streetNameDisplayText": "MCMILLEN PKY E, SARNIA"
      }
    ]
  },
  {
    "postal": "N7V5V4",
    "result": []
  },
  {
    "postal": "N7V4H0",
    "result": []
  },
  {
    "postal": "N7V4S7",
    "result": []
  },
  {
    "postal": "N7V6C2",
    "result": []
  },
  {
    "postal": "N7V8W3",
    "result": []
  },
  {
    "postal": "N7V4M5",
    "result": []
  },
  {
    "postal": "N7V5T1",
    "result": []
  },
  {
    "postal": "N7V3B3",
    "result": [
      {
        "electoralDistricts": [
          {
            "election": null,
            "id": 91,
            "name": "Sarnia—Lambton"
          }
        ],
        "pollDivisionIds": [
          10141389
        ],
        "postalCode": "N7V3B3",
        "streetName": "BRUCE",
        "streetDirectionId": null,
        "streetTypeId": "ST",
        "placeName": "SARNIA",
        "streetNameDisplayText": "BRUCE ST, SARNIA"
      }
    ]
  },
  {
    "postal": "N7V6C6",
    "result": []
  },
  {
    "postal": "N7V7N8",
    "result": []
  },
  {
    "postal": "N7V2Y3",
    "result": [
      {
        "electoralDistricts": [
          {
            "election": null,
            "id": 91,
            "name": "Sarnia—Lambton"
          }
        ],
        "pollDivisionIds": [
          10141388
        ],
        "postalCode": "N7V2Y3",
        "streetName": "BURR",
        "streetDirectionId": null,
        "streetTypeId": "ST",
        "placeName": "SARNIA",
        "streetNameDisplayText": "BURR ST, SARNIA"
      }
    ]
  },
  {
    "postal": "N7V2R6",
    "result": []
  },
  {
    "postal": "N7V7N3",
    "result": []
  },
  {
    "postal": "N7V8J2",
    "result": []
  },
  {
    "postal": "N7V6A9",
    "result": []
  },
  {
    "postal": "N7V3V2",
    "result": [
      {
        "electoralDistricts": [
          {
            "election": null,
            "id": 91,
            "name": "Sarnia—Lambton"
          }
        ],
        "pollDivisionIds": [
          10141398
        ],
        "postalCode": "N7V3V2",
        "streetName": "KING",
        "streetDirectionId": null,
        "streetTypeId": "ST",
        "placeName": "SARNIA",
        "streetNameDisplayText": "KING ST, SARNIA"
      }
    ]
  },
  {
    "postal": "N7V2N3",
    "result": [
      {
        "electoralDistricts": [
          {
            "election": null,
            "id": 91,
            "name": "Sarnia—Lambton"
          }
        ],
        "pollDivisionIds": [
          10141388
        ],
        "postalCode": "N7V2N3",
        "streetName": "CATHCART",
        "streetDirectionId": null,
        "streetTypeId": "BLVD",
        "placeName": "SARNIA",
        "streetNameDisplayText": "CATHCART BLVD, SARNIA"
      }
    ]
  },
  {
    "postal": "N7V1S5",
    "result": [
      {
        "electoralDistricts": [
          {
            "election": null,
            "id": 91,
            "name": "Sarnia—Lambton"
          }
        ],
        "pollDivisionIds": [
          10141387
        ],
        "postalCode": "N7V1S5",
        "streetName": "ALFRED",
        "streetDirectionId": null,
        "streetTypeId": "ST",
        "placeName": "POINT EDWARD",
        "streetNameDisplayText": "ALFRED ST, POINT EDWARD"
      }
    ]
  },
  {
    "postal": "N7V4T7",
    "result": []
  },
  {
    "postal": "N7V6Y7",
    "result": []
  },
  {
    "postal": "N7V0W7",
    "result": []
  },
  {
    "postal": "N7V2W9",
    "result": [
      {
        "electoralDistricts": [
          {
            "election": null,
            "id": 91,
            "name": "Sarnia—Lambton"
          }
        ],
        "pollDivisionIds": [
          10141388
        ],
        "postalCode": "N7V2W9",
        "streetName": "RETLAW",
        "streetDirectionId": null,
        "streetTypeId": "DR",
        "placeName": "SARNIA",
        "streetNameDisplayText": "RETLAW DR, SARNIA"
      }
    ]
  },
  {
    "postal": "N7V8V0",
    "result": []
  },
  {
    "postal": "N7V0H4",
    "result": []
  },
  {
    "postal": "N7V2T1",
    "result": [
      {
        "electoralDistricts": [
          {
            "election": null,
            "id": 91,
            "name": "Sarnia—Lambton"
          }
        ],
        "pollDivisionIds": [
          10141388
        ],
        "postalCode": "N7V2T1",
        "streetName": "LAKESHORE",
        "streetDirectionId": null,
        "streetTypeId": "RD",
        "placeName": "SARNIA",
        "streetNameDisplayText": "LAKESHORE RD, SARNIA"
      }
    ]
  },
  {
    "postal": "N7V1B1",
    "result": [
      {
        "electoralDistricts": [
          {
            "election": null,
            "id": 91,
            "name": "Sarnia—Lambton"
          }
        ],
        "pollDivisionIds": [
          10141387
        ],
        "postalCode": "N7V1B1",
        "streetName": "HOUSER",
        "streetDirectionId": null,
        "streetTypeId": "ST",
        "placeName": "POINT EDWARD",
        "streetNameDisplayText": "HOUSER ST, POINT EDWARD"
      }
    ]
  },
  {
    "postal": "N7V8B6",
    "result": []
  },
  {
    "postal": "N7V6H1",
    "result": []
  },
  {
    "postal": "N7V8T8",
    "result": []
  },
  {
    "postal": "N7V0T4",
    "result": []
  },
  {
    "postal": "N7V2C4",
    "result": [
      {
        "electoralDistricts": [
          {
            "election": null,
            "id": 91,
            "name": "Sarnia—Lambton"
          }
        ],
        "pollDivisionIds": [
          10141398
        ],
        "postalCode": "N7V2C4",
        "streetName": "HALL",
        "streetDirectionId": null,
        "streetTypeId": "ST",
        "placeName": "SARNIA",
        "streetNameDisplayText": "HALL ST, SARNIA"
      }
    ]
  },
  {
    "postal": "N7V8N3",
    "result": []
  },
  {
    "postal": "N7V4L8",
    "result": []
  },
  {
    "postal": "N7V2B5",
    "result": [
      {
        "electoralDistricts": [
          {
            "election": null,
            "id": 91,
            "name": "Sarnia—Lambton"
          }
        ],
        "pollDivisionIds": [
          10141398
        ],
        "postalCode": "N7V2B5",
        "streetName": "GRATIOT",
        "streetDirectionId": null,
        "streetTypeId": "AVE",
        "placeName": "SARNIA",
        "streetNameDisplayText": "GRATIOT AVE, SARNIA"
      }
    ]
  },
  {
    "postal": "N7V3H1",
    "result": [
      {
        "electoralDistricts": [
          {
            "election": null,
            "id": 91,
            "name": "Sarnia—Lambton"
          }
        ],
        "pollDivisionIds": [
          10141387
        ],
        "postalCode": "N7V3H1",
        "streetName": "EGMOND",
        "streetDirectionId": null,
        "streetTypeId": "DR",
        "placeName": "SARNIA",
        "streetNameDisplayText": "EGMOND DR, SARNIA"
      }
    ]
  },
  {
    "postal": "N7V4Y1",
    "result": []
  },
  {
    "postal": "N7V7E2",
    "result": []
  },
  {
    "postal": "N7V2P5",
    "result": [
      {
        "electoralDistricts": [
          {
            "election": null,
            "id": 91,
            "name": "Sarnia—Lambton"
          }
        ],
        "pollDivisionIds": [
          10141387
        ],
        "postalCode": "N7V2P5",
        "streetName": "DEVONSHIRE",
        "streetDirectionId": null,
        "streetTypeId": "RD",
        "placeName": "SARNIA",
        "streetNameDisplayText": "DEVONSHIRE RD, SARNIA"
      }
    ]
  },
  {
    "postal": "N7V8R7",
    "result": []
  },
  {
    "postal": "N7V9P1",
    "result": []
  },
  {
    "postal": "N7V3B8",
    "result": [
      {
        "electoralDistricts": [
          {
            "election": null,
            "id": 91,
            "name": "Sarnia—Lambton"
          }
        ],
        "pollDivisionIds": [
          10141387
        ],
        "postalCode": "N7V3B8",
        "streetName": "ANDOVER",
        "streetDirectionId": null,
        "streetTypeId": "LANE",
        "placeName": "SARNIA",
        "streetNameDisplayText": "ANDOVER LANE, SARNIA"
      }
    ]
  },
  {
    "postal": "N7V3P7",
    "result": [
      {
        "electoralDistricts": [
          {
            "election": null,
            "id": 91,
            "name": "Sarnia—Lambton"
          }
        ],
        "pollDivisionIds": [
          10141388
        ],
        "postalCode": "N7V3P7",
        "streetName": "TYRIE",
        "streetDirectionId": "E",
        "streetTypeId": "DR",
        "placeName": "SARNIA",
        "streetNameDisplayText": "TYRIE DR E, SARNIA"
      }
    ]
  },
  {
    "postal": "N7V9B2",
    "result": []
  },
  {
    "postal": "N7V6Z3",
    "result": []
  },
  {
    "postal": "N7V4N5",
    "result": []
  },
  {
    "postal": "N7V8T3",
    "result": []
  },
  {
    "postal": "N7V1V2",
    "result": [
      {
        "electoralDistricts": [
          {
            "election": null,
            "id": 91,
            "name": "Sarnia—Lambton"
          }
        ],
        "pollDivisionIds": [
          10141387
        ],
        "postalCode": "N7V1V2",
        "streetName": "ARTHUR",
        "streetDirectionId": null,
        "streetTypeId": "ST",
        "placeName": "POINT EDWARD",
        "streetNameDisplayText": "ARTHUR ST, POINT EDWARD"
      }
    ]
  },
  {
    "postal": "N7V1Y0",
    "result": []
  },
  {
    "postal": "N7V3G6",
    "result": [
      {
        "electoralDistricts": [
          {
            "election": null,
            "id": 91,
            "name": "Sarnia—Lambton"
          }
        ],
        "pollDivisionIds": [
          10141398
        ],
        "postalCode": "N7V3G6",
        "streetName": "ENNISCLAIRE",
        "streetDirectionId": null,
        "streetTypeId": "DR",
        "placeName": "SARNIA",
        "streetNameDisplayText": "ENNISCLAIRE DR, SARNIA"
      }
    ]
  },
  {
    "postal": "N7V3H7",
    "result": [
      {
        "electoralDistricts": [
          {
            "election": null,
            "id": 91,
            "name": "Sarnia—Lambton"
          }
        ],
        "pollDivisionIds": [
          10141394
        ],
        "postalCode": "N7V3H7",
        "streetName": "NEWELL",
        "streetDirectionId": null,
        "streetTypeId": "ST",
        "placeName": "SARNIA",
        "streetNameDisplayText": "NEWELL ST, SARNIA"
      }
    ]
  },
  {
    "postal": "N7V7X8",
    "result": []
  },
  {
    "postal": "N7V0C7",
    "result": []
  },
  {
    "postal": "N7V0W9",
    "result": []
  },
  {
    "postal": "N7V8E6",
    "result": []
  },
  {
    "postal": "N7V9Z8",
    "result": []
  },
  {
    "postal": "N7V3P4",
    "result": [
      {
        "electoralDistricts": [
          {
            "election": null,
            "id": 91,
            "name": "Sarnia—Lambton"
          }
        ],
        "pollDivisionIds": [
          10141398
        ],
        "postalCode": "N7V3P4",
        "streetName": "GREENDALE",
        "streetDirectionId": null,
        "streetTypeId": "ST",
        "placeName": "SARNIA",
        "streetNameDisplayText": "GREENDALE ST, SARNIA"
      }
    ]
  },
  {
    "postal": "N7V6L8",
    "result": []
  },
  {
    "postal": "N7V2R4",
    "result": [
      {
        "electoralDistricts": [
          {
            "election": null,
            "id": 91,
            "name": "Sarnia—Lambton"
          }
        ],
        "pollDivisionIds": [
          10141387
        ],
        "postalCode": "N7V2R4",
        "streetName": "CHARLESWORTH",
        "streetDirectionId": null,
        "streetTypeId": "DR",
        "placeName": "SARNIA",
        "streetNameDisplayText": "CHARLESWORTH DR, SARNIA"
      }
    ]
  },
  {
    "postal": "N7V2W1",
    "result": [
      {
        "electoralDistricts": [
          {
            "election": null,
            "id": 91,
            "name": "Sarnia—Lambton"
          }
        ],
        "pollDivisionIds": [
          10141387
        ],
        "postalCode": "N7V2W1",
        "streetName": "BEACON",
        "streetDirectionId": null,
        "streetTypeId": "CRT",
        "placeName": "SARNIA",
        "streetNameDisplayText": "BEACON CRT, SARNIA"
      }
    ]
  },
  {
    "postal": "N7V9H8",
    "result": []
  },
  {
    "postal": "N7V8X9",
    "result": []
  },
  {
    "postal": "N7V7H4",
    "result": []
  },
  {
    "postal": "N7V3J1",
    "result": [
      {
        "electoralDistricts": [
          {
            "election": null,
            "id": 91,
            "name": "Sarnia—Lambton"
          }
        ],
        "pollDivisionIds": [
          10141388
        ],
        "postalCode": "N7V3J1",
        "streetName": "LECARON",
        "streetDirectionId": null,
        "streetTypeId": "AVE",
        "placeName": "SARNIA",
        "streetNameDisplayText": "LECARON AVE, SARNIA"
      }
    ]
  },
  {
    "postal": "N7V1P4",
    "result": [
      {
        "electoralDistricts": [
          {
            "election": null,
            "id": 91,
            "name": "Sarnia—Lambton"
          }
        ],
        "pollDivisionIds": [
          10141387
        ],
        "postalCode": "N7V1P4",
        "streetName": "MAUD",
        "streetDirectionId": null,
        "streetTypeId": "ST",
        "placeName": "POINT EDWARD",
        "streetNameDisplayText": "MAUD ST, POINT EDWARD"
      }
    ]
  },
  {
    "postal": "N7V2A3",
    "result": [
      {
        "electoralDistricts": [
          {
            "election": null,
            "id": 91,
            "name": "Sarnia—Lambton"
          }
        ],
        "pollDivisionIds": [
          10141398
        ],
        "postalCode": "N7V2A3",
        "streetName": "ROSEDALE",
        "streetDirectionId": null,
        "streetTypeId": "AVE",
        "placeName": "SARNIA",
        "streetNameDisplayText": "ROSEDALE AVE, SARNIA"
      }
    ]
  },
  {
    "postal": "N7V0Z1",
    "result": []
  },
  {
    "postal": "N7V1C1",
    "result": [
      {
        "electoralDistricts": [
          {
            "election": null,
            "id": 91,
            "name": "Sarnia—Lambton"
          }
        ],
        "pollDivisionIds": [
          10141387
        ],
        "postalCode": "N7V1C1",
        "streetName": "CHARLES",
        "streetDirectionId": null,
        "streetTypeId": "ST",
        "placeName": "POINT EDWARD",
        "streetNameDisplayText": "CHARLES ST, POINT EDWARD"
      }
    ]
  },
  {
    "postal": "N7V0H3",
    "result": []
  },
  {
    "postal": "N7V7B0",
    "result": []
  },
  {
    "postal": "N7V5K2",
    "result": []
  },
  {
    "postal": "N7V1E9",
    "result": [
      {
        "electoralDistricts": [
          {
            "election": null,
            "id": 91,
            "name": "Sarnia—Lambton"
          }
        ],
        "pollDivisionIds": [
          10141387
        ],
        "postalCode": "N7V1E9",
        "streetName": "MICHIGAN",
        "streetDirectionId": null,
        "streetTypeId": "AVE",
        "placeName": "POINT EDWARD",
        "streetNameDisplayText": "MICHIGAN AVE, POINT EDWARD"
      }
    ]
  },
  {
    "postal": "N7V9W7",
    "result": []
  },
  {
    "postal": "N7V5W6",
    "result": []
  },
  {
    "postal": "N7V6S6",
    "result": []
  },
  {
    "postal": "N7V2P8",
    "result": [
      {
        "electoralDistricts": [
          {
            "election": null,
            "id": 91,
            "name": "Sarnia—Lambton"
          }
        ],
        "pollDivisionIds": [
          10141387
        ],
        "postalCode": "N7V2P8",
        "streetName": "VALLEYFIELD",
        "streetDirectionId": null,
        "streetTypeId": "DR",
        "placeName": "SARNIA",
        "streetNameDisplayText": "VALLEYFIELD DR, SARNIA"
      }
    ]
  },
  {
    "postal": "N7V4P8",
    "result": []
  },
  {
    "postal": "N7V0V9",
    "result": []
  },
  {
    "postal": "N7V5Y2",
    "result": []
  },
  {
    "postal": "N7V7Z7",
    "result": []
  },
  {
    "postal": "N7V6Y8",
    "result": []
  },
  {
    "postal": "N7V2G7",
    "result": [
      {
        "electoralDistricts": [
          {
            "election": null,
            "id": 91,
            "name": "Sarnia—Lambton"
          }
        ],
        "pollDivisionIds": [
          10141394
        ],
        "postalCode": "N7V2G7",
        "streetName": "ERROL",
        "streetDirectionId": "E",
        "streetTypeId": "RD",
        "placeName": "SARNIA",
        "streetNameDisplayText": "ERROL RD E, SARNIA"
      }
    ]
  },
  {
    "postal": "N7V8C1",
    "result": []
  },
  {
    "postal": "N7V5C5",
    "result": []
  },
  {
    "postal": "N7V2X8",
    "result": [
      {
        "electoralDistricts": [
          {
            "election": null,
            "id": 91,
            "name": "Sarnia—Lambton"
          }
        ],
        "pollDivisionIds": [
          10141389
        ],
        "postalCode": "N7V2X8",
        "streetName": "MCCAW",
        "streetDirectionId": null,
        "streetTypeId": "ST",
        "placeName": "SARNIA",
        "streetNameDisplayText": "MCCAW ST, SARNIA"
      }
    ]
  },
  {
    "postal": "N7V1W5",
    "result": [
      {
        "electoralDistricts": [
          {
            "election": null,
            "id": 91,
            "name": "Sarnia—Lambton"
          }
        ],
        "pollDivisionIds": [
          10141387
        ],
        "postalCode": "N7V1W5",
        "streetName": "LOUISA",
        "streetDirectionId": null,
        "streetTypeId": "ST",
        "placeName": "POINT EDWARD",
        "streetNameDisplayText": "LOUISA ST, POINT EDWARD"
      }
    ]
  },
  {
    "postal": "N7V7G0",
    "result": []
  },
  {
    "postal": "N7V8J8",
    "result": []
  },
  {
    "postal": "N7V3Y0",
    "result": []
  },
  {
    "postal": "N7V9T7",
    "result": []
  },
  {
    "postal": "N7V5P4",
    "result": []
  },
  {
    "postal": "N7V4B0",
    "result": []
  },
  {
    "postal": "N7V9N8",
    "result": []
  },
  {
    "postal": "N7V4A7",
    "result": [
      {
        "electoralDistricts": [
          {
            "election": null,
            "id": 91,
            "name": "Sarnia—Lambton"
          }
        ],
        "pollDivisionIds": [
          10141398
        ],
        "postalCode": "N7V4A7",
        "streetName": "HAGLE",
        "streetDirectionId": null,
        "streetTypeId": "ST",
        "placeName": "SARNIA",
        "streetNameDisplayText": "HAGLE ST, SARNIA"
      }
    ]
  },
  {
    "postal": "N7V4H9",
    "result": [
      {
        "electoralDistricts": [
          {
            "election": null,
            "id": 91,
            "name": "Sarnia—Lambton"
          }
        ],
        "pollDivisionIds": [
          10141394
        ],
        "postalCode": "N7V4H9",
        "streetName": "O'DELL",
        "streetDirectionId": null,
        "streetTypeId": "ST",
        "placeName": "SARNIA",
        "streetNameDisplayText": "O'DELL ST, SARNIA"
      }
    ]
  },
  {
    "postal": "N7V6X1",
    "result": []
  },
  {
    "postal": "N7V9Y7",
    "result": []
  },
  {
    "postal": "N7V2Y5",
    "result": [
      {
        "electoralDistricts": [
          {
            "election": null,
            "id": 91,
            "name": "Sarnia—Lambton"
          }
        ],
        "pollDivisionIds": [
          10141389
        ],
        "postalCode": "N7V2Y5",
        "streetName": "BURR",
        "streetDirectionId": null,
        "streetTypeId": "ST",
        "placeName": "SARNIA",
        "streetNameDisplayText": "BURR ST, SARNIA"
      }
    ]
  },
  {
    "postal": "N7V8L7",
    "result": []
  },
  {
    "postal": "N7V2A8",
    "result": [
      {
        "electoralDistricts": [
          {
            "election": null,
            "id": 91,
            "name": "Sarnia—Lambton"
          }
        ],
        "pollDivisionIds": [
          10141398
        ],
        "postalCode": "N7V2A8",
        "streetName": "ROSEDALE",
        "streetDirectionId": null,
        "streetTypeId": "AVE",
        "placeName": "SARNIA",
        "streetNameDisplayText": "ROSEDALE AVE, SARNIA"
      }
    ]
  },
  {
    "postal": "N7V2K9",
    "result": [
      {
        "electoralDistricts": [
          {
            "election": null,
            "id": 91,
            "name": "Sarnia—Lambton"
          }
        ],
        "pollDivisionIds": [
          10141394
        ],
        "postalCode": "N7V2K9",
        "streetName": "O'DELL",
        "streetDirectionId": null,
        "streetTypeId": "AVE",
        "placeName": "SARNIA",
        "streetNameDisplayText": "O'DELL AVE, SARNIA"
      }
    ]
  },
  {
    "postal": "N7V3E5",
    "result": [
      {
        "electoralDistricts": [
          {
            "election": null,
            "id": 91,
            "name": "Sarnia—Lambton"
          }
        ],
        "pollDivisionIds": [
          10141387
        ],
        "postalCode": "N7V3E5",
        "streetName": "CHRISTINA",
        "streetDirectionId": "N",
        "streetTypeId": "ST",
        "placeName": "SARNIA",
        "streetNameDisplayText": "CHRISTINA ST N, SARNIA"
      }
    ]
  },
  {
    "postal": "N7V8N6",
    "result": []
  },
  {
    "postal": "N7V8J4",
    "result": []
  },
  {
    "postal": "N7V4R7",
    "result": []
  },
  {
    "postal": "N7V9K1",
    "result": []
  },
  {
    "postal": "N7V8E1",
    "result": []
  },
  {
    "postal": "N7V0R1",
    "result": []
  },
  {
    "postal": "N7V4J3",
    "result": [
      {
        "electoralDistricts": [
          {
            "election": null,
            "id": 91,
            "name": "Sarnia—Lambton"
          }
        ],
        "pollDivisionIds": [
          10141387
        ],
        "postalCode": "N7V4J3",
        "streetName": "VILLAGE GREEN",
        "streetDirectionId": null,
        "streetTypeId": "CRT",
        "placeName": "POINT EDWARD",
        "streetNameDisplayText": "VILLAGE GREEN CRT, POINT EDWARD"
      }
    ]
  },
  {
    "postal": "N7V7E7",
    "result": []
  },
  {
    "postal": "N7V0J0",
    "result": []
  },
  {
    "postal": "N7V7R8",
    "result": []
  },
  {
    "postal": "N7V9X0",
    "result": []
  },
  {
    "postal": "N7V7P6",
    "result": []
  },
  {
    "postal": "N7V0R7",
    "result": []
  },
  {
    "postal": "N7V5W1",
    "result": []
  },
  {
    "postal": "N7V0K4",
    "result": []
  },
  {
    "postal": "N7V7N9",
    "result": []
  },
  {
    "postal": "N7V1N0",
    "result": []
  },
  {
    "postal": "N7V6P3",
    "result": []
  },
  {
    "postal": "N7V5A1",
    "result": []
  },
  {
    "postal": "N7V9M9",
    "result": []
  },
  {
    "postal": "N7V7T6",
    "result": []
  },
  {
    "postal": "N7V3X0",
    "result": []
  },
  {
    "postal": "N7V2T0",
    "result": []
  },
  {
    "postal": "N7V5X9",
    "result": []
  },
  {
    "postal": "N7V2R3",
    "result": [
      {
        "electoralDistricts": [
          {
            "election": null,
            "id": 91,
            "name": "Sarnia—Lambton"
          }
        ],
        "pollDivisionIds": [
          10141387
        ],
        "postalCode": "N7V2R3",
        "streetName": "CHARLESWORTH",
        "streetDirectionId": null,
        "streetTypeId": "DR",
        "placeName": "SARNIA",
        "streetNameDisplayText": "CHARLESWORTH DR, SARNIA"
      }
    ]
  },
  {
    "postal": "N7V5N2",
    "result": []
  },
  {
    "postal": "N7V4Y7",
    "result": []
  },
  {
    "postal": "N7V7M0",
    "result": []
  },
  {
    "postal": "N7V8P3",
    "result": []
  },
  {
    "postal": "N7V3N3",
    "result": [
      {
        "electoralDistricts": [
          {
            "election": null,
            "id": 91,
            "name": "Sarnia—Lambton"
          }
        ],
        "pollDivisionIds": [
          10141394
        ],
        "postalCode": "N7V3N3",
        "streetName": "REX",
        "streetDirectionId": null,
        "streetTypeId": "ST",
        "placeName": "SARNIA",
        "streetNameDisplayText": "REX ST, SARNIA"
      }
    ]
  },
  {
    "postal": "N7V7S3",
    "result": []
  },
  {
    "postal": "N7V3V9",
    "result": [
      {
        "electoralDistricts": [
          {
            "election": null,
            "id": 91,
            "name": "Sarnia—Lambton"
          }
        ],
        "pollDivisionIds": [
          10141394
        ],
        "postalCode": "N7V3V9",
        "streetName": "SWEDEN",
        "streetDirectionId": null,
        "streetTypeId": "ST",
        "placeName": "SARNIA",
        "streetNameDisplayText": "SWEDEN ST, SARNIA"
      }
    ]
  },
  {
    "postal": "N7V9N7",
    "result": []
  },
  {
    "postal": "N7V0G4",
    "result": []
  },
  {
    "postal": "N7V2E2",
    "result": [
      {
        "electoralDistricts": [
          {
            "election": null,
            "id": 91,
            "name": "Sarnia—Lambton"
          }
        ],
        "pollDivisionIds": [
          10141398
        ],
        "postalCode": "N7V2E2",
        "streetName": "PINEVIEW",
        "streetDirectionId": null,
        "streetTypeId": "AVE",
        "placeName": "SARNIA",
        "streetNameDisplayText": "PINEVIEW AVE, SARNIA"
      }
    ]
  },
  {
    "postal": "N7V7W8",
    "result": []
  },
  {
    "postal": "N7V7M5",
    "result": []
  },
  {
    "postal": "N7V5W8",
    "result": []
  },
  {
    "postal": "N7V5E5",
    "result": []
  },
  {
    "postal": "N7V1P9",
    "result": [
      {
        "electoralDistricts": [
          {
            "election": null,
            "id": 91,
            "name": "Sarnia—Lambton"
          }
        ],
        "pollDivisionIds": [
          10141387
        ],
        "postalCode": "N7V1P9",
        "streetName": "ALBERT",
        "streetDirectionId": null,
        "streetTypeId": "ST",
        "placeName": "POINT EDWARD",
        "streetNameDisplayText": "ALBERT ST, POINT EDWARD"
      }
    ]
  },
  {
    "postal": "N7V8V8",
    "result": []
  },
  {
    "postal": "N7V9G8",
    "result": []
  },
  {
    "postal": "N7V8H9",
    "result": []
  },
  {
    "postal": "N7V1Z1",
    "result": [
      {
        "electoralDistricts": [
          {
            "election": null,
            "id": 91,
            "name": "Sarnia—Lambton"
          }
        ],
        "pollDivisionIds": [
          10141398
        ],
        "postalCode": "N7V1Z1",
        "streetName": "ROSEDALE",
        "streetDirectionId": null,
        "streetTypeId": "AVE",
        "placeName": "SARNIA",
        "streetNameDisplayText": "ROSEDALE AVE, SARNIA"
      }
    ]
  },
  {
    "postal": "N7V8M3",
    "result": []
  },
  {
    "postal": "N7V5H6",
    "result": []
  },
  {
    "postal": "N7V7W7",
    "result": []
  },
  {
    "postal": "N7V4L0",
    "result": []
  },
  {
    "postal": "N7V2N1",
    "result": [
      {
        "electoralDistricts": [
          {
            "election": null,
            "id": 91,
            "name": "Sarnia—Lambton"
          }
        ],
        "pollDivisionIds": [
          10141394
        ],
        "postalCode": "N7V2N1",
        "streetName": "CATHCART",
        "streetDirectionId": null,
        "streetTypeId": "BLVD",
        "placeName": "SARNIA",
        "streetNameDisplayText": "CATHCART BLVD, SARNIA"
      }
    ]
  },
  {
    "postal": "N7V2H4",
    "result": [
      {
        "electoralDistricts": [
          {
            "election": null,
            "id": 91,
            "name": "Sarnia—Lambton"
          }
        ],
        "pollDivisionIds": [
          10141394
        ],
        "postalCode": "N7V2H4",
        "streetName": "SHERWOOD",
        "streetDirectionId": null,
        "streetTypeId": "TRAIL",
        "placeName": "SARNIA",
        "streetNameDisplayText": "SHERWOOD TRAIL, SARNIA"
      }
    ]
  },
  {
    "postal": "N7V5C8",
    "result": []
  },
  {
    "postal": "N7V8B0",
    "result": []
  },
  {
    "postal": "N7V1T4",
    "result": [
      {
        "electoralDistricts": [
          {
            "election": null,
            "id": 91,
            "name": "Sarnia—Lambton"
          }
        ],
        "pollDivisionIds": [
          10141387
        ],
        "postalCode": "N7V1T4",
        "streetName": "ARTHUR",
        "streetDirectionId": null,
        "streetTypeId": "ST",
        "placeName": "POINT EDWARD",
        "streetNameDisplayText": "ARTHUR ST, POINT EDWARD"
      }
    ]
  },
  {
    "postal": "N7V7N7",
    "result": []
  },
  {
    "postal": "N7V4L3",
    "result": []
  },
  {
    "postal": "N7V2N2",
    "result": [
      {
        "electoralDistricts": [
          {
            "election": null,
            "id": 91,
            "name": "Sarnia—Lambton"
          }
        ],
        "pollDivisionIds": [
          10141387
        ],
        "postalCode": "N7V2N2",
        "streetName": "CATHCART",
        "streetDirectionId": null,
        "streetTypeId": "BLVD",
        "placeName": "SARNIA",
        "streetNameDisplayText": "CATHCART BLVD, SARNIA"
      }
    ]
  },
  {
    "postal": "N7V4N8",
    "result": []
  },
  {
    "postal": "N7V3M5",
    "result": [
      {
        "electoralDistricts": [
          {
            "election": null,
            "id": 91,
            "name": "Sarnia—Lambton"
          }
        ],
        "pollDivisionIds": [
          10141388
        ],
        "postalCode": "N7V3M5",
        "streetName": "COLBORNE",
        "streetDirectionId": null,
        "streetTypeId": "RD",
        "placeName": "SARNIA",
        "streetNameDisplayText": "COLBORNE RD, SARNIA"
      }
    ]
  },
  {
    "postal": "N7V6H7",
    "result": []
  },
  {
    "postal": "N7V8Y8",
    "result": []
  },
  {
    "postal": "N7V5R9",
    "result": []
  },
  {
    "postal": "N7V8G3",
    "result": []
  },
  {
    "postal": "N7V4N7",
    "result": []
  },
  {
    "postal": "N7V0B9",
    "result": []
  },
  {
    "postal": "N7V9K7",
    "result": []
  },
  {
    "postal": "N7V9K9",
    "result": []
  },
  {
    "postal": "N7V3Z2",
    "result": [
      {
        "electoralDistricts": [
          {
            "election": null,
            "id": 91,
            "name": "Sarnia—Lambton"
          }
        ],
        "pollDivisionIds": [
          10141389
        ],
        "postalCode": "N7V3Z2",
        "streetName": "EVAN",
        "streetDirectionId": null,
        "streetTypeId": "ST",
        "placeName": "SARNIA",
        "streetNameDisplayText": "EVAN ST, SARNIA"
      }
    ]
  },
  {
    "postal": "N7V6W7",
    "result": []
  },
  {
    "postal": "N7V0P1",
    "result": []
  },
  {
    "postal": "N7V3A0",
    "result": []
  },
  {
    "postal": "N7V8L9",
    "result": []
  },
  {
    "postal": "N7V6X0",
    "result": []
  },
  {
    "postal": "N7V3E9",
    "result": [
      {
        "electoralDistricts": [
          {
            "election": null,
            "id": 91,
            "name": "Sarnia—Lambton"
          }
        ],
        "pollDivisionIds": [
          10141398
        ],
        "postalCode": "N7V3E9",
        "streetName": "ELLWOOD",
        "streetDirectionId": null,
        "streetTypeId": "AVE",
        "placeName": "SARNIA",
        "streetNameDisplayText": "ELLWOOD AVE, SARNIA"
      }
    ]
  },
  {
    "postal": "N7V0S5",
    "result": []
  },
  {
    "postal": "N7V1A2",
    "result": [
      {
        "electoralDistricts": [
          {
            "election": null,
            "id": 91,
            "name": "Sarnia—Lambton"
          }
        ],
        "pollDivisionIds": [
          10141387
        ],
        "postalCode": "N7V1A2",
        "streetName": "CHURCH",
        "streetDirectionId": null,
        "streetTypeId": "ST",
        "placeName": "POINT EDWARD",
        "streetNameDisplayText": "CHURCH ST, POINT EDWARD"
      }
    ]
  },
  {
    "postal": "N7V5V8",
    "result": []
  },
  {
    "postal": "N7V8C5",
    "result": []
  },
  {
    "postal": "N7V6N0",
    "result": []
  },
  {
    "postal": "N7V9E6",
    "result": []
  },
  {
    "postal": "N7V5J7",
    "result": []
  },
  {
    "postal": "N7V2R2",
    "result": [
      {
        "electoralDistricts": [
          {
            "election": null,
            "id": 91,
            "name": "Sarnia—Lambton"
          }
        ],
        "pollDivisionIds": [
          10141387
        ],
        "postalCode": "N7V2R2",
        "streetName": "CHARLESWORTH",
        "streetDirectionId": null,
        "streetTypeId": "LANE",
        "placeName": "SARNIA",
        "streetNameDisplayText": "CHARLESWORTH LANE, SARNIA"
      }
    ]
  },
  {
    "postal": "N7V0P5",
    "result": []
  },
  {
    "postal": "N7V5A7",
    "result": []
  },
  {
    "postal": "N7V1G1",
    "result": [
      {
        "electoralDistricts": [
          {
            "election": null,
            "id": 91,
            "name": "Sarnia—Lambton"
          }
        ],
        "pollDivisionIds": [
          10141387
        ],
        "postalCode": "N7V1G1",
        "streetName": "MICHIGAN",
        "streetDirectionId": null,
        "streetTypeId": "AVE",
        "placeName": "POINT EDWARD",
        "streetNameDisplayText": "MICHIGAN AVE, POINT EDWARD"
      }
    ]
  },
  {
    "postal": "N7V9R6",
    "result": []
  },
  {
    "postal": "N7V4Z9",
    "result": []
  },
  {
    "postal": "N7V1V5",
    "result": [
      {
        "electoralDistricts": [
          {
            "election": null,
            "id": 91,
            "name": "Sarnia—Lambton"
          }
        ],
        "pollDivisionIds": [
          10141387
        ],
        "postalCode": "N7V1V5",
        "streetName": "ARTHUR",
        "streetDirectionId": null,
        "streetTypeId": "ST",
        "placeName": "POINT EDWARD",
        "streetNameDisplayText": "ARTHUR ST, POINT EDWARD"
      }
    ]
  },
  {
    "postal": "N7V9Y5",
    "result": []
  },
  {
    "postal": "N7V1P2",
    "result": [
      {
        "electoralDistricts": [
          {
            "election": null,
            "id": 91,
            "name": "Sarnia—Lambton"
          }
        ],
        "pollDivisionIds": [
          10141387
        ],
        "postalCode": "N7V1P2",
        "streetName": "ST. CLAIR",
        "streetDirectionId": null,
        "streetTypeId": "ST",
        "placeName": "POINT EDWARD",
        "streetNameDisplayText": "ST. CLAIR ST, POINT EDWARD"
      }
    ]
  },
  {
    "postal": "N7V5X0",
    "result": []
  },
  {
    "postal": "N7V7B8",
    "result": []
  },
  {
    "postal": "N7V0C6",
    "result": []
  },
  {
    "postal": "N7V6G1",
    "result": []
  },
  {
    "postal": "N7V3K3",
    "result": [
      {
        "electoralDistricts": [
          {
            "election": null,
            "id": 91,
            "name": "Sarnia—Lambton"
          }
        ],
        "pollDivisionIds": [
          10141398
        ],
        "postalCode": "N7V3K3",
        "streetName": "COLBORNE",
        "streetDirectionId": null,
        "streetTypeId": "RD",
        "placeName": "SARNIA",
        "streetNameDisplayText": "COLBORNE RD, SARNIA"
      }
    ]
  },
  {
    "postal": "N7V9R0",
    "result": []
  },
  {
    "postal": "N7V4R8",
    "result": []
  },
  {
    "postal": "N7V5P9",
    "result": []
  },
  {
    "postal": "N7V8N4",
    "result": []
  },
  {
    "postal": "N7V8H4",
    "result": []
  },
  {
    "postal": "N7V4V1",
    "result": []
  },
  {
    "postal": "N7V1K5",
    "result": [
      {
        "electoralDistricts": [
          {
            "election": null,
            "id": 91,
            "name": "Sarnia—Lambton"
          }
        ],
        "pollDivisionIds": [
          10141387
        ],
        "postalCode": "N7V1K5",
        "streetName": "ERNEST",
        "streetDirectionId": null,
        "streetTypeId": "ST",
        "placeName": "POINT EDWARD",
        "streetNameDisplayText": "ERNEST ST, POINT EDWARD"
      }
    ]
  },
  {
    "postal": "N7V1Z5",
    "result": [
      {
        "electoralDistricts": [
          {
            "election": null,
            "id": 91,
            "name": "Sarnia—Lambton"
          }
        ],
        "pollDivisionIds": [
          10141398
        ],
        "postalCode": "N7V1Z5",
        "streetName": "ROSEDALE",
        "streetDirectionId": null,
        "streetTypeId": "AVE",
        "placeName": "SARNIA",
        "streetNameDisplayText": "ROSEDALE AVE, SARNIA"
      }
    ]
  },
  {
    "postal": "N7V9L9",
    "result": []
  },
  {
    "postal": "N7V5L2",
    "result": []
  },
  {
    "postal": "N7V0M2",
    "result": []
  },
  {
    "postal": "N7V1K8",
    "result": [
      {
        "electoralDistricts": [
          {
            "election": null,
            "id": 91,
            "name": "Sarnia—Lambton"
          }
        ],
        "pollDivisionIds": [
          10141387
        ],
        "postalCode": "N7V1K8",
        "streetName": "ERNEST",
        "streetDirectionId": null,
        "streetTypeId": "ST",
        "placeName": "POINT EDWARD",
        "streetNameDisplayText": "ERNEST ST, POINT EDWARD"
      }
    ]
  },
  {
    "postal": "N7V3M7",
    "result": [
      {
        "electoralDistricts": [
          {
            "election": null,
            "id": 91,
            "name": "Sarnia—Lambton"
          }
        ],
        "pollDivisionIds": [
          10141388
        ],
        "postalCode": "N7V3M7",
        "streetName": "COLBORNE",
        "streetDirectionId": null,
        "streetTypeId": "RD",
        "placeName": "SARNIA",
        "streetNameDisplayText": "COLBORNE RD, SARNIA"
      }
    ]
  },
  {
    "postal": "N7V1B2",
    "result": [
      {
        "electoralDistricts": [
          {
            "election": null,
            "id": 91,
            "name": "Sarnia—Lambton"
          }
        ],
        "pollDivisionIds": [
          10141387
        ],
        "postalCode": "N7V1B2",
        "streetName": "BENGARVIE",
        "streetDirectionId": null,
        "streetTypeId": "ST",
        "placeName": "POINT EDWARD",
        "streetNameDisplayText": "BENGARVIE ST, POINT EDWARD"
      }
    ]
  },
  {
    "postal": "N7V0H9",
    "result": []
  },
  {
    "postal": "N7V8M4",
    "result": []
  },
  {
    "postal": "N7V2M5",
    "result": [
      {
        "electoralDistricts": [
          {
            "election": null,
            "id": 91,
            "name": "Sarnia—Lambton"
          }
        ],
        "pollDivisionIds": [
          10141388
        ],
        "postalCode": "N7V2M5",
        "streetName": "KEMSLEY",
        "streetDirectionId": null,
        "streetTypeId": "DR",
        "placeName": "SARNIA",
        "streetNameDisplayText": "KEMSLEY DR, SARNIA"
      }
    ]
  },
  {
    "postal": "N7V0T9",
    "result": []
  },
  {
    "postal": "N7V3P1",
    "result": [
      {
        "electoralDistricts": [
          {
            "election": null,
            "id": 91,
            "name": "Sarnia—Lambton"
          }
        ],
        "pollDivisionIds": [
          10141398
        ],
        "postalCode": "N7V3P1",
        "streetName": "TORO",
        "streetDirectionId": null,
        "streetTypeId": "ST",
        "placeName": "SARNIA",
        "streetNameDisplayText": "TORO ST, SARNIA"
      }
    ]
  },
  {
    "postal": "N7V1R6",
    "result": [
      {
        "electoralDistricts": [
          {
            "election": null,
            "id": 91,
            "name": "Sarnia—Lambton"
          }
        ],
        "pollDivisionIds": [
          10141397
        ],
        "postalCode": "N7V1R6",
        "streetName": "ALBERT",
        "streetDirectionId": null,
        "streetTypeId": "ST",
        "placeName": "POINT EDWARD",
        "streetNameDisplayText": "ALBERT ST, POINT EDWARD"
      }
    ]
  },
  {
    "postal": "N7V9V5",
    "result": []
  },
  {
    "postal": "N7V9T0",
    "result": []
  },
  {
    "postal": "N7V0A9",
    "result": []
  },
  {
    "postal": "N7V1M3",
    "result": []
  },
  {
    "postal": "N7V1W8",
    "result": [
      {
        "electoralDistricts": [
          {
            "election": null,
            "id": 91,
            "name": "Sarnia—Lambton"
          }
        ],
        "pollDivisionIds": [
          10141387
        ],
        "postalCode": "N7V1W8",
        "streetName": "LOUISA",
        "streetDirectionId": null,
        "streetTypeId": "ST",
        "placeName": "POINT EDWARD",
        "streetNameDisplayText": "LOUISA ST, POINT EDWARD"
      }
    ]
  },
  {
    "postal": "N7V9J1",
    "result": []
  },
  {
    "postal": "N7V8N5",
    "result": []
  },
  {
    "postal": "N7V5X1",
    "result": []
  },
  {
    "postal": "N7V6S2",
    "result": []
  },
  {
    "postal": "N7V2A2",
    "result": [
      {
        "electoralDistricts": [
          {
            "election": null,
            "id": 91,
            "name": "Sarnia—Lambton"
          }
        ],
        "pollDivisionIds": [
          10141398
        ],
        "postalCode": "N7V2A2",
        "streetName": "ROSEDALE",
        "streetDirectionId": null,
        "streetTypeId": "AVE",
        "placeName": "SARNIA",
        "streetNameDisplayText": "ROSEDALE AVE, SARNIA"
      }
    ]
  },
  {
    "postal": "N7V6A6",
    "result": []
  },
  {
    "postal": "N7V0S3",
    "result": []
  },
  {
    "postal": "N7V3E7",
    "result": [
      {
        "electoralDistricts": [
          {
            "election": null,
            "id": 91,
            "name": "Sarnia—Lambton"
          }
        ],
        "pollDivisionIds": [
          10141398
        ],
        "postalCode": "N7V3E7",
        "streetName": "WEDGEWOOD",
        "streetDirectionId": null,
        "streetTypeId": "AVE",
        "placeName": "SARNIA",
        "streetNameDisplayText": "WEDGEWOOD AVE, SARNIA"
      }
    ]
  },
  {
    "postal": "N7V5R7",
    "result": []
  },
  {
    "postal": "N7V3R6",
    "result": [
      {
        "electoralDistricts": [
          {
            "election": null,
            "id": 91,
            "name": "Sarnia—Lambton"
          }
        ],
        "pollDivisionIds": [
          10141388
        ],
        "postalCode": "N7V3R6",
        "streetName": "MALLAH",
        "streetDirectionId": null,
        "streetTypeId": "DR",
        "placeName": "SARNIA",
        "streetNameDisplayText": "MALLAH DR, SARNIA"
      }
    ]
  },
  {
    "postal": "N7V6K4",
    "result": []
  },
  {
    "postal": "N7V2W5",
    "result": [
      {
        "electoralDistricts": [
          {
            "election": null,
            "id": 91,
            "name": "Sarnia—Lambton"
          }
        ],
        "pollDivisionIds": [
          10141388
        ],
        "postalCode": "N7V2W5",
        "streetName": "RETLAW",
        "streetDirectionId": null,
        "streetTypeId": "DR",
        "placeName": "SARNIA",
        "streetNameDisplayText": "RETLAW DR, SARNIA"
      }
    ]
  },
  {
    "postal": "N7V8W4",
    "result": []
  },
  {
    "postal": "N7V9C2",
    "result": []
  },
  {
    "postal": "N7V2C0",
    "result": []
  },
  {
    "postal": "N7V0E1",
    "result": []
  },
  {
    "postal": "N7V1K9",
    "result": [
      {
        "electoralDistricts": [
          {
            "election": null,
            "id": 91,
            "name": "Sarnia—Lambton"
          }
        ],
        "pollDivisionIds": [
          10141394
        ],
        "postalCode": "N7V1K9",
        "streetName": "MICHIGAN",
        "streetDirectionId": null,
        "streetTypeId": "AVE",
        "placeName": "SARNIA",
        "streetNameDisplayText": "MICHIGAN AVE, SARNIA"
      }
    ]
  },
  {
    "postal": "N7V1G7",
    "result": [
      {
        "electoralDistricts": [
          {
            "election": null,
            "id": 91,
            "name": "Sarnia—Lambton"
          }
        ],
        "pollDivisionIds": [
          10141387
        ],
        "postalCode": "N7V1G7",
        "streetName": "MICHIGAN",
        "streetDirectionId": null,
        "streetTypeId": "AVE",
        "placeName": "POINT EDWARD",
        "streetNameDisplayText": "MICHIGAN AVE, POINT EDWARD"
      }
    ]
  },
  {
    "postal": "N7V4E9",
    "result": [
      {
        "electoralDistricts": [
          {
            "election": null,
            "id": 91,
            "name": "Sarnia—Lambton"
          }
        ],
        "pollDivisionIds": [
          10141389
        ],
        "postalCode": "N7V4E9",
        "streetName": "MULBERRY",
        "streetDirectionId": null,
        "streetTypeId": "ST",
        "placeName": "SARNIA",
        "streetNameDisplayText": "MULBERRY ST, SARNIA"
      }
    ]
  },
  {
    "postal": "N7V9P0",
    "result": []
  },
  {
    "postal": "N7V5H3",
    "result": []
  },
  {
    "postal": "N7V9X6",
    "result": []
  },
  {
    "postal": "N7V5N7",
    "result": []
  },
  {
    "postal": "N7V5A6",
    "result": []
  },
  {
    "postal": "N7V4M0",
    "result": []
  },
  {
    "postal": "N7V3V6",
    "result": [
      {
        "electoralDistricts": [
          {
            "election": null,
            "id": 91,
            "name": "Sarnia—Lambton"
          }
        ],
        "pollDivisionIds": [
          10141394
        ],
        "postalCode": "N7V3V6",
        "streetName": "SWEDEN",
        "streetDirectionId": null,
        "streetTypeId": "ST",
        "placeName": "SARNIA",
        "streetNameDisplayText": "SWEDEN ST, SARNIA"
      }
    ]
  },
  {
    "postal": "N7V1L7",
    "result": [
      {
        "electoralDistricts": [
          {
            "election": null,
            "id": 91,
            "name": "Sarnia—Lambton"
          }
        ],
        "pollDivisionIds": [
          10141398
        ],
        "postalCode": "N7V1L7",
        "streetName": "MICHIGAN",
        "streetDirectionId": null,
        "streetTypeId": "AVE",
        "placeName": "SARNIA",
        "streetNameDisplayText": "MICHIGAN AVE, SARNIA"
      }
    ]
  },
  {
    "postal": "N7V2P9",
    "result": [
      {
        "electoralDistricts": [
          {
            "election": null,
            "id": 91,
            "name": "Sarnia—Lambton"
          }
        ],
        "pollDivisionIds": [
          10141388
        ],
        "postalCode": "N7V2P9",
        "streetName": "AMESBURY",
        "streetDirectionId": null,
        "streetTypeId": "CRT",
        "placeName": "SARNIA",
        "streetNameDisplayText": "AMESBURY CRT, SARNIA"
      }
    ]
  },
  {
    "postal": "N7V5T4",
    "result": []
  },
  {
    "postal": "N7V5Z1",
    "result": []
  },
  {
    "postal": "N7V2X0",
    "result": []
  },
  {
    "postal": "N7V6Z2",
    "result": []
  },
  {
    "postal": "N7V0E0",
    "result": []
  },
  {
    "postal": "N7V3Z5",
    "result": [
      {
        "electoralDistricts": [
          {
            "election": null,
            "id": 91,
            "name": "Sarnia—Lambton"
          }
        ],
        "pollDivisionIds": [
          10141388
        ],
        "postalCode": "N7V3Z5",
        "streetName": "ATHENA",
        "streetDirectionId": null,
        "streetTypeId": "AVE",
        "placeName": "SARNIA",
        "streetNameDisplayText": "ATHENA AVE, SARNIA"
      }
    ]
  },
  {
    "postal": "N7V8H3",
    "result": []
  },
  {
    "postal": "N7V7S6",
    "result": []
  },
  {
    "postal": "N7V4C1",
    "result": [
      {
        "electoralDistricts": [
          {
            "election": null,
            "id": 91,
            "name": "Sarnia—Lambton"
          }
        ],
        "pollDivisionIds": [
          10141388
        ],
        "postalCode": "N7V4C1",
        "streetName": "WINTON",
        "streetDirectionId": null,
        "streetTypeId": "RD",
        "placeName": "SARNIA",
        "streetNameDisplayText": "WINTON RD, SARNIA"
      }
    ]
  },
  {
    "postal": "N7V3K2",
    "result": [
      {
        "electoralDistricts": [
          {
            "election": null,
            "id": 91,
            "name": "Sarnia—Lambton"
          }
        ],
        "pollDivisionIds": [
          10141398
        ],
        "postalCode": "N7V3K2",
        "streetName": "COLBORNE",
        "streetDirectionId": null,
        "streetTypeId": "RD",
        "placeName": "SARNIA",
        "streetNameDisplayText": "COLBORNE RD, SARNIA"
      }
    ]
  },
  {
    "postal": "N7V1Y5",
    "result": [
      {
        "electoralDistricts": [
          {
            "election": null,
            "id": 91,
            "name": "Sarnia—Lambton"
          }
        ],
        "pollDivisionIds": [
          10141398
        ],
        "postalCode": "N7V1Y5",
        "streetName": "BERKSHIRE",
        "streetDirectionId": null,
        "streetTypeId": "RD",
        "placeName": "SARNIA",
        "streetNameDisplayText": "BERKSHIRE RD, SARNIA"
      }
    ]
  },
  {
    "postal": "N7V6P6",
    "result": []
  },
  {
    "postal": "N7V3N9",
    "result": [
      {
        "electoralDistricts": [
          {
            "election": null,
            "id": 91,
            "name": "Sarnia—Lambton"
          }
        ],
        "pollDivisionIds": [
          10141398
        ],
        "postalCode": "N7V3N9",
        "streetName": "TORO",
        "streetDirectionId": null,
        "streetTypeId": "ST",
        "placeName": "SARNIA",
        "streetNameDisplayText": "TORO ST, SARNIA"
      }
    ]
  },
  {
    "postal": "N7V3W2",
    "result": [
      {
        "electoralDistricts": [
          {
            "election": null,
            "id": 91,
            "name": "Sarnia—Lambton"
          }
        ],
        "pollDivisionIds": [
          10141395
        ],
        "postalCode": "N7V3W2",
        "streetName": "THOMAS",
        "streetDirectionId": null,
        "streetTypeId": "DR",
        "placeName": "SARNIA",
        "streetNameDisplayText": "THOMAS DR, SARNIA"
      }
    ]
  },
  {
    "postal": "N7V6H8",
    "result": []
  },
  {
    "postal": "N7V9T3",
    "result": []
  },
  {
    "postal": "N7V5L9",
    "result": []
  },
  {
    "postal": "N7V7X7",
    "result": []
  },
  {
    "postal": "N7V3J5",
    "result": [
      {
        "electoralDistricts": [
          {
            "election": null,
            "id": 91,
            "name": "Sarnia—Lambton"
          }
        ],
        "pollDivisionIds": [
          10141388
        ],
        "postalCode": "N7V3J5",
        "streetName": "CROCKER",
        "streetDirectionId": null,
        "streetTypeId": "LANE",
        "placeName": "SARNIA",
        "streetNameDisplayText": "CROCKER LANE, SARNIA"
      }
    ]
  },
  {
    "postal": "N7V4J5",
    "result": []
  },
  {
    "postal": "N7V6J2",
    "result": []
  },
  {
    "postal": "N7V5V6",
    "result": []
  },
  {
    "postal": "N7V3N2",
    "result": [
      {
        "electoralDistricts": [
          {
            "election": null,
            "id": 91,
            "name": "Sarnia—Lambton"
          }
        ],
        "pollDivisionIds": [
          10141388
        ],
        "postalCode": "N7V3N2",
        "streetName": "BAXTER",
        "streetDirectionId": null,
        "streetTypeId": "AVE",
        "placeName": "SARNIA",
        "streetNameDisplayText": "BAXTER AVE, SARNIA"
      }
    ]
  },
  {
    "postal": "N7V3B1",
    "result": [
      {
        "electoralDistricts": [
          {
            "election": null,
            "id": 91,
            "name": "Sarnia—Lambton"
          }
        ],
        "pollDivisionIds": [
          10141389
        ],
        "postalCode": "N7V3B1",
        "streetName": "BRUCE",
        "streetDirectionId": null,
        "streetTypeId": "ST",
        "placeName": "SARNIA",
        "streetNameDisplayText": "BRUCE ST, SARNIA"
      }
    ]
  },
  {
    "postal": "N7V8B5",
    "result": []
  },
  {
    "postal": "N7V0K1",
    "result": []
  },
  {
    "postal": "N7V7M7",
    "result": []
  },
  {
    "postal": "N7V2M2",
    "result": [
      {
        "electoralDistricts": [
          {
            "election": null,
            "id": 91,
            "name": "Sarnia—Lambton"
          }
        ],
        "pollDivisionIds": [
          10141394
        ],
        "postalCode": "N7V2M2",
        "streetName": "KEMSLEY",
        "streetDirectionId": null,
        "streetTypeId": "DR",
        "placeName": "SARNIA",
        "streetNameDisplayText": "KEMSLEY DR, SARNIA"
      }
    ]
  },
  {
    "postal": "N7V9N3",
    "result": []
  },
  {
    "postal": "N7V4Y8",
    "result": []
  },
  {
    "postal": "N7V3V7",
    "result": [
      {
        "electoralDistricts": [
          {
            "election": null,
            "id": 91,
            "name": "Sarnia—Lambton"
          }
        ],
        "pollDivisionIds": [
          10141394
        ],
        "postalCode": "N7V3V7",
        "streetName": "SWEDEN",
        "streetDirectionId": null,
        "streetTypeId": "ST",
        "placeName": "SARNIA",
        "streetNameDisplayText": "SWEDEN ST, SARNIA"
      }
    ]
  },
  {
    "postal": "N7V8Z1",
    "result": []
  },
  {
    "postal": "N7V7B3",
    "result": []
  },
  {
    "postal": "N7V3A8",
    "result": [
      {
        "electoralDistricts": [
          {
            "election": null,
            "id": 91,
            "name": "Sarnia—Lambton"
          }
        ],
        "pollDivisionIds": [
          10141389
        ],
        "postalCode": "N7V3A8",
        "streetName": "EDGEWATER",
        "streetDirectionId": null,
        "streetTypeId": "CRT",
        "placeName": "SARNIA",
        "streetNameDisplayText": "EDGEWATER CRT, SARNIA"
      }
    ]
  },
  {
    "postal": "N7V7V5",
    "result": []
  },
  {
    "postal": "N7V2T2",
    "result": [
      {
        "electoralDistricts": [
          {
            "election": null,
            "id": 91,
            "name": "Sarnia—Lambton"
          }
        ],
        "pollDivisionIds": [
          10141388
        ],
        "postalCode": "N7V2T2",
        "streetName": "LAKESHORE",
        "streetDirectionId": null,
        "streetTypeId": "RD",
        "placeName": "SARNIA",
        "streetNameDisplayText": "LAKESHORE RD, SARNIA"
      }
    ]
  },
  {
    "postal": "N7V6L3",
    "result": []
  },
  {
    "postal": "N7V0L2",
    "result": []
  },
  {
    "postal": "N7V5Y8",
    "result": []
  },
  {
    "postal": "N7V0B8",
    "result": []
  },
  {
    "postal": "N7V6R5",
    "result": []
  },
  {
    "postal": "N7V8W6",
    "result": []
  },
  {
    "postal": "N7V8G6",
    "result": []
  },
  {
    "postal": "N7V6X3",
    "result": []
  },
  {
    "postal": "N7V7R7",
    "result": []
  },
  {
    "postal": "N7V4B6",
    "result": [
      {
        "electoralDistricts": [
          {
            "election": null,
            "id": 91,
            "name": "Sarnia—Lambton"
          }
        ],
        "pollDivisionIds": [
          10141388
        ],
        "postalCode": "N7V4B6",
        "streetName": "SPARTAN",
        "streetDirectionId": null,
        "streetTypeId": "AVE",
        "placeName": "SARNIA",
        "streetNameDisplayText": "SPARTAN AVE, SARNIA"
      }
    ]
  },
  {
    "postal": "N7V3P9",
    "result": [
      {
        "electoralDistricts": [
          {
            "election": null,
            "id": 91,
            "name": "Sarnia—Lambton"
          }
        ],
        "pollDivisionIds": [
          10141388
        ],
        "postalCode": "N7V3P9",
        "streetName": "FOREST",
        "streetDirectionId": null,
        "streetTypeId": "ST",
        "placeName": "SARNIA",
        "streetNameDisplayText": "FOREST ST, SARNIA"
      }
    ]
  },
  {
    "postal": "N7V2T3",
    "result": [
      {
        "electoralDistricts": [
          {
            "election": null,
            "id": 91,
            "name": "Sarnia—Lambton"
          }
        ],
        "pollDivisionIds": [
          10141388
        ],
        "postalCode": "N7V2T3",
        "streetName": "LAKESHORE",
        "streetDirectionId": null,
        "streetTypeId": "RD",
        "placeName": "SARNIA",
        "streetNameDisplayText": "LAKESHORE RD, SARNIA"
      }
    ]
  },
  {
    "postal": "N7V1M4",
    "result": []
  },
  {
    "postal": "N7V0H1",
    "result": []
  },
  {
    "postal": "N7V9W3",
    "result": []
  },
  {
    "postal": "N7V6P1",
    "result": []
  },
  {
    "postal": "N7V7G2",
    "result": []
  },
  {
    "postal": "N7V4J9",
    "result": []
  },
  {
    "postal": "N7V9E4",
    "result": []
  },
  {
    "postal": "N7V8H0",
    "result": []
  },
  {
    "postal": "N7V4M7",
    "result": []
  },
  {
    "postal": "N7V2G9",
    "result": [
      {
        "electoralDistricts": [
          {
            "election": null,
            "id": 91,
            "name": "Sarnia—Lambton"
          }
        ],
        "pollDivisionIds": [
          10141394
        ],
        "postalCode": "N7V2G9",
        "streetName": "ERROL",
        "streetDirectionId": "E",
        "streetTypeId": "RD",
        "placeName": "SARNIA",
        "streetNameDisplayText": "ERROL RD E, SARNIA"
      }
    ]
  },
  {
    "postal": "N7V8T2",
    "result": []
  },
  {
    "postal": "N7V7G7",
    "result": []
  },
  {
    "postal": "N7V4Z3",
    "result": []
  },
  {
    "postal": "N7V5B3",
    "result": []
  },
  {
    "postal": "N7V1S7",
    "result": [
      {
        "electoralDistricts": [
          {
            "election": null,
            "id": 91,
            "name": "Sarnia—Lambton"
          }
        ],
        "pollDivisionIds": [
          10141387
        ],
        "postalCode": "N7V1S7",
        "streetName": "ALFRED",
        "streetDirectionId": null,
        "streetTypeId": "ST",
        "placeName": "POINT EDWARD",
        "streetNameDisplayText": "ALFRED ST, POINT EDWARD"
      }
    ]
  },
  {
    "postal": "N7V2N7",
    "result": [
      {
        "electoralDistricts": [
          {
            "election": null,
            "id": 91,
            "name": "Sarnia—Lambton"
          }
        ],
        "pollDivisionIds": [
          10141388
        ],
        "postalCode": "N7V2N7",
        "streetName": "CATHCART",
        "streetDirectionId": null,
        "streetTypeId": "BLVD",
        "placeName": "SARNIA",
        "streetNameDisplayText": "CATHCART BLVD, SARNIA"
      }
    ]
  },
  {
    "postal": "N7V0H8",
    "result": []
  },
  {
    "postal": "N7V7Z4",
    "result": []
  },
  {
    "postal": "N7V7B1",
    "result": []
  },
  {
    "postal": "N7V7P8",
    "result": []
  },
  {
    "postal": "N7V7N0",
    "result": []
  },
  {
    "postal": "N7V3Y5",
    "result": [
      {
        "electoralDistricts": [
          {
            "election": null,
            "id": 91,
            "name": "Sarnia—Lambton"
          }
        ],
        "pollDivisionIds": [
          10141388
        ],
        "postalCode": "N7V3Y5",
        "streetName": "ROWE",
        "streetDirectionId": null,
        "streetTypeId": "AVE",
        "placeName": "SARNIA",
        "streetNameDisplayText": "ROWE AVE, SARNIA"
      }
    ]
  },
  {
    "postal": "N7V6K1",
    "result": []
  },
  {
    "postal": "N7V9X5",
    "result": []
  },
  {
    "postal": "N7V7S5",
    "result": []
  },
  {
    "postal": "N7V0A4",
    "result": []
  },
  {
    "postal": "N7V4T5",
    "result": []
  },
  {
    "postal": "N7V5K1",
    "result": []
  },
  {
    "postal": "N7V0Z9",
    "result": []
  },
  {
    "postal": "N7V7T2",
    "result": []
  },
  {
    "postal": "N7V1L5",
    "result": [
      {
        "electoralDistricts": [
          {
            "election": null,
            "id": 91,
            "name": "Sarnia—Lambton"
          }
        ],
        "pollDivisionIds": [
          10141398
        ],
        "postalCode": "N7V1L5",
        "streetName": "MICHIGAN",
        "streetDirectionId": null,
        "streetTypeId": "AVE",
        "placeName": "SARNIA",
        "streetNameDisplayText": "MICHIGAN AVE, SARNIA"
      }
    ]
  },
  {
    "postal": "N7V3N5",
    "result": [
      {
        "electoralDistricts": [
          {
            "election": null,
            "id": 91,
            "name": "Sarnia—Lambton"
          }
        ],
        "pollDivisionIds": [
          10141394
        ],
        "postalCode": "N7V3N5",
        "streetName": "GLEN ALLEN",
        "streetDirectionId": null,
        "streetTypeId": "DR",
        "placeName": "SARNIA",
        "streetNameDisplayText": "GLEN ALLEN DR, SARNIA"
      }
    ]
  },
  {
    "postal": "N7V6H4",
    "result": []
  },
  {
    "postal": "N7V5A5",
    "result": []
  },
  {
    "postal": "N7V3R9",
    "result": [
      {
        "electoralDistricts": [
          {
            "election": null,
            "id": 91,
            "name": "Sarnia—Lambton"
          }
        ],
        "pollDivisionIds": [
          10141394
        ],
        "postalCode": "N7V3R9",
        "streetName": "CORAL",
        "streetDirectionId": null,
        "streetTypeId": "WAY",
        "placeName": "SARNIA",
        "streetNameDisplayText": "CORAL WAY, SARNIA"
      }
    ]
  },
  {
    "postal": "N7V7L8",
    "result": []
  },
  {
    "postal": "N7V6T6",
    "result": []
  },
  {
    "postal": "N7V7Y7",
    "result": []
  },
  {
    "postal": "N7V3M8",
    "result": [
      {
        "electoralDistricts": [
          {
            "election": null,
            "id": 91,
            "name": "Sarnia—Lambton"
          }
        ],
        "pollDivisionIds": [
          10141398
        ],
        "postalCode": "N7V3M8",
        "streetName": "COURT",
        "streetDirectionId": null,
        "streetTypeId": "ST",
        "placeName": "SARNIA",
        "streetNameDisplayText": "COURT ST, SARNIA"
      }
    ]
  },
  {
    "postal": "N7V2E0",
    "result": []
  },
  {
    "postal": "N7V4B5",
    "result": [
      {
        "electoralDistricts": [
          {
            "election": null,
            "id": 91,
            "name": "Sarnia—Lambton"
          }
        ],
        "pollDivisionIds": [
          10141388
        ],
        "postalCode": "N7V4B5",
        "streetName": "SPARTAN",
        "streetDirectionId": null,
        "streetTypeId": "AVE",
        "placeName": "SARNIA",
        "streetNameDisplayText": "SPARTAN AVE, SARNIA"
      }
    ]
  },
  {
    "postal": "N7V1J3",
    "result": [
      {
        "electoralDistricts": [
          {
            "election": null,
            "id": 91,
            "name": "Sarnia—Lambton"
          }
        ],
        "pollDivisionIds": [
          10141387
        ],
        "postalCode": "N7V1J3",
        "streetName": "VICTORIA",
        "streetDirectionId": null,
        "streetTypeId": "AVE",
        "placeName": "POINT EDWARD",
        "streetNameDisplayText": "VICTORIA AVE, POINT EDWARD"
      }
    ]
  },
  {
    "postal": "N7V5S6",
    "result": []
  },
  {
    "postal": "N7V8P7",
    "result": []
  },
  {
    "postal": "N7V7S7",
    "result": []
  },
  {
    "postal": "N7V4C2",
    "result": [
      {
        "electoralDistricts": [
          {
            "election": null,
            "id": 91,
            "name": "Sarnia—Lambton"
          }
        ],
        "pollDivisionIds": [
          10141398
        ],
        "postalCode": "N7V4C2",
        "streetName": "INDIAN",
        "streetDirectionId": "N",
        "streetTypeId": "RD",
        "placeName": "SARNIA",
        "streetNameDisplayText": "INDIAN RD N, SARNIA"
      }
    ]
  },
  {
    "postal": "N7V5Y0",
    "result": []
  },
  {
    "postal": "N7V2V7",
    "result": [
      {
        "electoralDistricts": [
          {
            "election": null,
            "id": 91,
            "name": "Sarnia—Lambton"
          }
        ],
        "pollDivisionIds": [
          10141389
        ],
        "postalCode": "N7V2V7",
        "streetName": "LAKESHORE",
        "streetDirectionId": null,
        "streetTypeId": "RD",
        "placeName": "SARNIA",
        "streetNameDisplayText": "LAKESHORE RD, SARNIA"
      }
    ]
  },
  {
    "postal": "N7V8P5",
    "result": []
  },
  {
    "postal": "N7V5P5",
    "result": []
  },
  {
    "postal": "N7V5Z0",
    "result": []
  },
  {
    "postal": "N7V9B0",
    "result": []
  },
  {
    "postal": "N7V1L0",
    "result": []
  },
  {
    "postal": "N7V0B5",
    "result": []
  },
  {
    "postal": "N7V3L2",
    "result": [
      {
        "electoralDistricts": [
          {
            "election": null,
            "id": 91,
            "name": "Sarnia—Lambton"
          }
        ],
        "pollDivisionIds": [
          10141420,
          10141394
        ],
        "postalCode": "N7V3L2",
        "streetName": "COLBORNE",
        "streetDirectionId": null,
        "streetTypeId": "RD",
        "placeName": "SARNIA",
        "streetNameDisplayText": "COLBORNE RD, SARNIA"
      }
    ]
  },
  {
    "postal": "N7V3B7",
    "result": [
      {
        "electoralDistricts": [
          {
            "election": null,
            "id": 91,
            "name": "Sarnia—Lambton"
          }
        ],
        "pollDivisionIds": [
          10141389
        ],
        "postalCode": "N7V3B7",
        "streetName": "BRAEMAR",
        "streetDirectionId": null,
        "streetTypeId": "LANE",
        "placeName": "SARNIA",
        "streetNameDisplayText": "BRAEMAR LANE, SARNIA"
      }
    ]
  },
  {
    "postal": "N7V8L1",
    "result": []
  },
  {
    "postal": "N7V5M4",
    "result": []
  },
  {
    "postal": "N7V4G9",
    "result": [
      {
        "electoralDistricts": [
          {
            "election": null,
            "id": 91,
            "name": "Sarnia—Lambton"
          }
        ],
        "pollDivisionIds": [
          10141398
        ],
        "postalCode": "N7V4G9",
        "streetName": "BREAKEY",
        "streetDirectionId": null,
        "streetTypeId": "RD",
        "placeName": "SARNIA",
        "streetNameDisplayText": "BREAKEY RD, SARNIA"
      }
    ]
  },
  {
    "postal": "N7V0P0",
    "result": []
  },
  {
    "postal": "N7V8G2",
    "result": []
  },
  {
    "postal": "N7V1V9",
    "result": [
      {
        "electoralDistricts": [
          {
            "election": null,
            "id": 91,
            "name": "Sarnia—Lambton"
          }
        ],
        "pollDivisionIds": [
          10141387
        ],
        "postalCode": "N7V1V9",
        "streetName": "LOUISA",
        "streetDirectionId": null,
        "streetTypeId": "ST",
        "placeName": "POINT EDWARD",
        "streetNameDisplayText": "LOUISA ST, POINT EDWARD"
      }
    ]
  },
  {
    "postal": "N7V8N8",
    "result": []
  },
  {
    "postal": "N7V6S8",
    "result": []
  },
  {
    "postal": "N7V8H2",
    "result": []
  },
  {
    "postal": "N7V5R8",
    "result": []
  },
  {
    "postal": "N7V5L4",
    "result": []
  },
  {
    "postal": "N7V9E1",
    "result": []
  },
  {
    "postal": "N7V1C4",
    "result": [
      {
        "electoralDistricts": [
          {
            "election": null,
            "id": 91,
            "name": "Sarnia—Lambton"
          }
        ],
        "pollDivisionIds": [
          10141387
        ],
        "postalCode": "N7V1C4",
        "streetName": "ALEXANDRA",
        "streetDirectionId": null,
        "streetTypeId": "AVE",
        "placeName": "POINT EDWARD",
        "streetNameDisplayText": "ALEXANDRA AVE, POINT EDWARD"
      }
    ]
  },
  {
    "postal": "N7V8W5",
    "result": []
  },
  {
    "postal": "N7V1Y4",
    "result": [
      {
        "electoralDistricts": [
          {
            "election": null,
            "id": 91,
            "name": "Sarnia—Lambton"
          }
        ],
        "pollDivisionIds": [
          10141398
        ],
        "postalCode": "N7V1Y4",
        "streetName": "BERKSHIRE",
        "streetDirectionId": null,
        "streetTypeId": "RD",
        "placeName": "SARNIA",
        "streetNameDisplayText": "BERKSHIRE RD, SARNIA"
      }
    ]
  },
  {
    "postal": "N7V1C0",
    "result": []
  },
  {
    "postal": "N7V2J2",
    "result": [
      {
        "electoralDistricts": [
          {
            "election": null,
            "id": 91,
            "name": "Sarnia—Lambton"
          }
        ],
        "pollDivisionIds": [
          10141394
        ],
        "postalCode": "N7V2J2",
        "streetName": "HOLLYWOOD",
        "streetDirectionId": null,
        "streetTypeId": "PL",
        "placeName": "SARNIA",
        "streetNameDisplayText": "HOLLYWOOD PL, SARNIA"
      }
    ]
  },
  {
    "postal": "N7V2J0",
    "result": []
  },
  {
    "postal": "N7V7A3",
    "result": []
  },
  {
    "postal": "N7V8M1",
    "result": []
  },
  {
    "postal": "N7V7T9",
    "result": []
  },
  {
    "postal": "N7V6C0",
    "result": []
  },
  {
    "postal": "N7V7X1",
    "result": []
  },
  {
    "postal": "N7V0G1",
    "result": []
  },
  {
    "postal": "N7V4X2",
    "result": []
  },
  {
    "postal": "N7V0N6",
    "result": []
  },
  {
    "postal": "N7V8E3",
    "result": []
  },
  {
    "postal": "N7V5S8",
    "result": []
  },
  {
    "postal": "N7V0R0",
    "result": []
  },
  {
    "postal": "N7V6J6",
    "result": []
  },
  {
    "postal": "N7V4B4",
    "result": [
      {
        "electoralDistricts": [
          {
            "election": null,
            "id": 91,
            "name": "Sarnia—Lambton"
          }
        ],
        "pollDivisionIds": [
          10141394
        ],
        "postalCode": "N7V4B4",
        "streetName": "SPARTAN",
        "streetDirectionId": null,
        "streetTypeId": "AVE",
        "placeName": "SARNIA",
        "streetNameDisplayText": "SPARTAN AVE, SARNIA"
      }
    ]
  },
  {
    "postal": "N7V7E3",
    "result": []
  },
  {
    "postal": "N7V3N6",
    "result": [
      {
        "electoralDistricts": [
          {
            "election": null,
            "id": 91,
            "name": "Sarnia—Lambton"
          }
        ],
        "pollDivisionIds": [
          10141394
        ],
        "postalCode": "N7V3N6",
        "streetName": "GLEN DOUGLAS",
        "streetDirectionId": null,
        "streetTypeId": "DR",
        "placeName": "SARNIA",
        "streetNameDisplayText": "GLEN DOUGLAS DR, SARNIA"
      }
    ]
  },
  {
    "postal": "N7V3X6",
    "result": [
      {
        "electoralDistricts": [
          {
            "election": null,
            "id": 91,
            "name": "Sarnia—Lambton"
          }
        ],
        "pollDivisionIds": [
          10141398
        ],
        "postalCode": "N7V3X6",
        "streetName": "MCDOUGALL",
        "streetDirectionId": null,
        "streetTypeId": "CRT",
        "placeName": "SARNIA",
        "streetNameDisplayText": "MCDOUGALL CRT, SARNIA"
      }
    ]
  },
  {
    "postal": "N7V8L0",
    "result": []
  },
  {
    "postal": "N7V8N1",
    "result": []
  },
  {
    "postal": "N7V4J0",
    "result": []
  },
  {
    "postal": "N7V0X7",
    "result": []
  },
  {
    "postal": "N7V6S4",
    "result": []
  },
  {
    "postal": "N7V0Z0",
    "result": []
  },
  {
    "postal": "N7V9X8",
    "result": []
  },
  {
    "postal": "N7V3H3",
    "result": [
      {
        "electoralDistricts": [
          {
            "election": null,
            "id": 91,
            "name": "Sarnia—Lambton"
          }
        ],
        "pollDivisionIds": [
          10141388
        ],
        "postalCode": "N7V3H3",
        "streetName": "EGMOND",
        "streetDirectionId": null,
        "streetTypeId": "DR",
        "placeName": "SARNIA",
        "streetNameDisplayText": "EGMOND DR, SARNIA"
      }
    ]
  },
  {
    "postal": "N7V7S2",
    "result": []
  },
  {
    "postal": "N7V3T3",
    "result": [
      {
        "electoralDistricts": [
          {
            "election": null,
            "id": 91,
            "name": "Sarnia—Lambton"
          }
        ],
        "pollDivisionIds": [
          10141394
        ],
        "postalCode": "N7V3T3",
        "streetName": "KIM",
        "streetDirectionId": null,
        "streetTypeId": "ST",
        "placeName": "SARNIA",
        "streetNameDisplayText": "KIM ST, SARNIA"
      }
    ]
  },
  {
    "postal": "N7V9P3",
    "result": []
  },
  {
    "postal": "N7V4H8",
    "result": []
  },
  {
    "postal": "N7V6R1",
    "result": []
  },
  {
    "postal": "N7V1S0",
    "result": []
  },
  {
    "postal": "N7V3W8",
    "result": [
      {
        "electoralDistricts": [
          {
            "election": null,
            "id": 91,
            "name": "Sarnia—Lambton"
          }
        ],
        "pollDivisionIds": [
          10141398
        ],
        "postalCode": "N7V3W8",
        "streetName": "WOODLAND",
        "streetDirectionId": null,
        "streetTypeId": "AVE",
        "placeName": "SARNIA",
        "streetNameDisplayText": "WOODLAND AVE, SARNIA"
      }
    ]
  },
  {
    "postal": "N7V4S3",
    "result": []
  },
  {
    "postal": "N7V1B6",
    "result": [
      {
        "electoralDistricts": [
          {
            "election": null,
            "id": 91,
            "name": "Sarnia—Lambton"
          }
        ],
        "pollDivisionIds": [
          10141387
        ],
        "postalCode": "N7V1B6",
        "streetName": "CHARLES",
        "streetDirectionId": null,
        "streetTypeId": "ST",
        "placeName": "POINT EDWARD",
        "streetNameDisplayText": "CHARLES ST, POINT EDWARD"
      }
    ]
  },
  {
    "postal": "N7V8R3",
    "result": []
  },
  {
    "postal": "N7V4V9",
    "result": []
  },
  {
    "postal": "N7V9W4",
    "result": []
  },
  {
    "postal": "N7V3T4",
    "result": [
      {
        "electoralDistricts": [
          {
            "election": null,
            "id": 91,
            "name": "Sarnia—Lambton"
          }
        ],
        "pollDivisionIds": [
          10141394
        ],
        "postalCode": "N7V3T4",
        "streetName": "KIM",
        "streetDirectionId": null,
        "streetTypeId": "ST",
        "placeName": "SARNIA",
        "streetNameDisplayText": "KIM ST, SARNIA"
      }
    ]
  },
  {
    "postal": "N7V5C7",
    "result": []
  },
  {
    "postal": "N7V3Y1",
    "result": [
      {
        "electoralDistricts": [
          {
            "election": null,
            "id": 91,
            "name": "Sarnia—Lambton"
          }
        ],
        "pollDivisionIds": [
          10141395
        ],
        "postalCode": "N7V3Y1",
        "streetName": "CARTIER",
        "streetDirectionId": null,
        "streetTypeId": "CRT",
        "placeName": "SARNIA",
        "streetNameDisplayText": "CARTIER CRT, SARNIA"
      }
    ]
  },
  {
    "postal": "N7V5V0",
    "result": []
  },
  {
    "postal": "N7V8G8",
    "result": []
  },
  {
    "postal": "N7V8B1",
    "result": []
  },
  {
    "postal": "N7V4P5",
    "result": []
  },
  {
    "postal": "N7V7B2",
    "result": []
  },
  {
    "postal": "N7V0R2",
    "result": []
  },
  {
    "postal": "N7V4M4",
    "result": []
  },
  {
    "postal": "N7V7M4",
    "result": []
  },
  {
    "postal": "N7V9S7",
    "result": []
  },
  {
    "postal": "N7V5Z7",
    "result": []
  },
  {
    "postal": "N7V7J7",
    "result": []
  },
  {
    "postal": "N7V8R8",
    "result": []
  },
  {
    "postal": "N7V9X1",
    "result": []
  },
  {
    "postal": "N7V5M9",
    "result": []
  },
  {
    "postal": "N7V9B4",
    "result": []
  },
  {
    "postal": "N7V0L9",
    "result": []
  },
  {
    "postal": "N7V9G4",
    "result": []
  },
  {
    "postal": "N7V1J4",
    "result": [
      {
        "electoralDistricts": [
          {
            "election": null,
            "id": 91,
            "name": "Sarnia—Lambton"
          }
        ],
        "pollDivisionIds": [
          10141387
        ],
        "postalCode": "N7V1J4",
        "streetName": "VICTORIA",
        "streetDirectionId": null,
        "streetTypeId": "AVE",
        "placeName": "POINT EDWARD",
        "streetNameDisplayText": "VICTORIA AVE, POINT EDWARD"
      }
    ]
  },
  {
    "postal": "N7V0W6",
    "result": []
  },
  {
    "postal": "N7V4C5",
    "result": [
      {
        "electoralDistricts": [
          {
            "election": null,
            "id": 91,
            "setId": 0,
            "name": "Sarnia—Lambton"
          }
        ],
        "pollDivisionIds": [
          10141399
        ],
        "postalCode": "N7V4C5",
        "streetName": "INDIAN",
        "streetDirectionId": "N",
        "streetTypeId": "RD",
        "placeName": "SARNIA",
        "streetNameDisplayText": "INDIAN RD N, SARNIA"
      }
    ]
  },
  {
    "postal": "N7V7E4",
    "result": []
  },
  {
    "postal": "N7V1R9",
    "result": [
      {
        "electoralDistricts": [
          {
            "election": null,
            "id": 91,
            "setId": 0,
            "name": "Sarnia—Lambton"
          }
        ],
        "pollDivisionIds": [
          10141387
        ],
        "postalCode": "N7V1R9",
        "streetName": "HELENA",
        "streetDirectionId": null,
        "streetTypeId": "ST",
        "placeName": "POINT EDWARD",
        "streetNameDisplayText": "HELENA ST, POINT EDWARD"
      }
    ]
  },
  {
    "postal": "N7V2P0",
    "result": []
  },
  {
    "postal": "N7V5S4",
    "result": []
  },
  {
    "postal": "N7V5K8",
    "result": []
  },
  {
    "postal": "N7V8K4",
    "result": []
  },
  {
    "postal": "N7V7C1",
    "result": []
  },
  {
    "postal": "N7V7K9",
    "result": []
  },
  {
    "postal": "N7V5J1",
    "result": []
  },
  {
    "postal": "N7V4P9",
    "result": []
  },
  {
    "postal": "N7V0N2",
    "result": []
  },
  {
    "postal": "N7V2G6",
    "result": [
      {
        "electoralDistricts": [
          {
            "election": null,
            "id": 91,
            "setId": 0,
            "name": "Sarnia—Lambton"
          }
        ],
        "pollDivisionIds": [
          10141394
        ],
        "postalCode": "N7V2G6",
        "streetName": "ERROL",
        "streetDirectionId": "E",
        "streetTypeId": "RD",
        "placeName": "SARNIA",
        "streetNameDisplayText": "ERROL RD E, SARNIA"
      }
    ]
  },
  {
    "postal": "N7V6P4",
    "result": []
  },
  {
    "postal": "N7V3J0",
    "result": []
  },
  {
    "postal": "N7V8X4",
    "result": []
  },
  {
    "postal": "N7V1Y3",
    "result": [
      {
        "electoralDistricts": [
          {
            "election": null,
            "id": 91,
            "setId": 0,
            "name": "Sarnia—Lambton"
          }
        ],
        "pollDivisionIds": [
          10141398
        ],
        "postalCode": "N7V1Y3",
        "streetName": "GUTHRIE",
        "streetDirectionId": "W",
        "streetTypeId": "DR",
        "placeName": "SARNIA",
        "streetNameDisplayText": "GUTHRIE DR W, SARNIA"
      }
    ]
  },
  {
    "postal": "N7V1A8",
    "result": [
      {
        "electoralDistricts": [
          {
            "election": null,
            "id": 91,
            "setId": 0,
            "name": "Sarnia—Lambton"
          }
        ],
        "pollDivisionIds": [
          10141387
        ],
        "postalCode": "N7V1A8",
        "streetName": "LITE",
        "streetDirectionId": null,
        "streetTypeId": "ST",
        "placeName": "POINT EDWARD",
        "streetNameDisplayText": "LITE ST, POINT EDWARD"
      }
    ]
  },
  {
    "postal": "N7V6Y5",
    "result": []
  },
  {
    "postal": "N7V0J6",
    "result": []
  },
  {
    "postal": "N7V2C9",
    "result": [
      {
        "electoralDistricts": [
          {
            "election": null,
            "id": 91,
            "setId": 0,
            "name": "Sarnia—Lambton"
          }
        ],
        "pollDivisionIds": [
          10141398
        ],
        "postalCode": "N7V2C9",
        "streetName": "PINEVIEW",
        "streetDirectionId": null,
        "streetTypeId": "AVE",
        "placeName": "SARNIA",
        "streetNameDisplayText": "PINEVIEW AVE, SARNIA"
      }
    ]
  },
  {
    "postal": "N7V8J6",
    "result": []
  },
  {
    "postal": "N7V8T4",
    "result": []
  },
  {
    "postal": "N7V1P7",
    "result": [
      {
        "electoralDistricts": [
          {
            "election": null,
            "id": 91,
            "setId": 0,
            "name": "Sarnia—Lambton"
          }
        ],
        "pollDivisionIds": [
          10141387
        ],
        "postalCode": "N7V1P7",
        "streetName": "ALBERT",
        "streetDirectionId": null,
        "streetTypeId": "ST",
        "placeName": "POINT EDWARD",
        "streetNameDisplayText": "ALBERT ST, POINT EDWARD"
      }
    ]
  },
  {
    "postal": "N7V9V9",
    "result": []
  },
  {
    "postal": "N7V0M1",
    "result": []
  },
  {
    "postal": "N7V6K5",
    "result": []
  },
  {
    "postal": "N7V2T5",
    "result": [
      {
        "electoralDistricts": [
          {
            "election": null,
            "id": 91,
            "setId": 0,
            "name": "Sarnia—Lambton"
          }
        ],
        "pollDivisionIds": [
          10141388
        ],
        "postalCode": "N7V2T5",
        "streetName": "LAKESHORE",
        "streetDirectionId": null,
        "streetTypeId": "RD",
        "placeName": "SARNIA",
        "streetNameDisplayText": "LAKESHORE RD, SARNIA"
      }
    ]
  },
  {
    "postal": "N7V7E9",
    "result": []
  },
  {
    "postal": "N7V5K5",
    "result": []
  },
  {
    "postal": "N7V3R5",
    "result": [
      {
        "electoralDistricts": [
          {
            "election": null,
            "id": 91,
            "setId": 0,
            "name": "Sarnia—Lambton"
          }
        ],
        "pollDivisionIds": [
          10141388
        ],
        "postalCode": "N7V3R5",
        "streetName": "MALLAH",
        "streetDirectionId": null,
        "streetTypeId": "DR",
        "placeName": "SARNIA",
        "streetNameDisplayText": "MALLAH DR, SARNIA"
      }
    ]
  },
  {
    "postal": "N7V5B1",
    "result": []
  },
  {
    "postal": "N7V2P1",
    "result": [
      {
        "electoralDistricts": [
          {
            "election": null,
            "id": 91,
            "setId": 0,
            "name": "Sarnia—Lambton"
          }
        ],
        "pollDivisionIds": [
          10141388
        ],
        "postalCode": "N7V2P1",
        "streetName": "CATHCART",
        "streetDirectionId": null,
        "streetTypeId": "BLVD",
        "placeName": "SARNIA",
        "streetNameDisplayText": "CATHCART BLVD, SARNIA"
      }
    ]
  },
  {
    "postal": "N7V7L0",
    "result": []
  },
  {
    "postal": "N7V3L6",
    "result": [
      {
        "electoralDistricts": [
          {
            "election": null,
            "id": 91,
            "setId": 0,
            "name": "Sarnia—Lambton"
          }
        ],
        "pollDivisionIds": [
          10141394
        ],
        "postalCode": "N7V3L6",
        "streetName": "COLBORNE",
        "streetDirectionId": null,
        "streetTypeId": "RD",
        "placeName": "SARNIA",
        "streetNameDisplayText": "COLBORNE RD, SARNIA"
      }
    ]
  },
  {
    "postal": "N7V2A4",
    "result": [
      {
        "electoralDistricts": [
          {
            "election": null,
            "id": 91,
            "setId": 0,
            "name": "Sarnia—Lambton"
          }
        ],
        "pollDivisionIds": [
          10141398
        ],
        "postalCode": "N7V2A4",
        "streetName": "ROSEDALE",
        "streetDirectionId": null,
        "streetTypeId": "AVE",
        "placeName": "SARNIA",
        "streetNameDisplayText": "ROSEDALE AVE, SARNIA"
      }
    ]
  },
  {
    "postal": "N7V8S0",
    "result": []
  },
  {
    "postal": "N7V3L5",
    "result": [
      {
        "electoralDistricts": [
          {
            "election": null,
            "id": 91,
            "setId": 0,
            "name": "Sarnia—Lambton"
          }
        ],
        "pollDivisionIds": [
          10141394
        ],
        "postalCode": "N7V3L5",
        "streetName": "COLBORNE",
        "streetDirectionId": null,
        "streetTypeId": "RD",
        "placeName": "SARNIA",
        "streetNameDisplayText": "COLBORNE RD, SARNIA"
      }
    ]
  },
  {
    "postal": "N7V2R5",
    "result": [
      {
        "electoralDistricts": [
          {
            "election": null,
            "id": 91,
            "setId": 0,
            "name": "Sarnia—Lambton"
          }
        ],
        "pollDivisionIds": [
          10141387
        ],
        "postalCode": "N7V2R5",
        "streetName": "CHARLESWORTH",
        "streetDirectionId": null,
        "streetTypeId": "DR",
        "placeName": "SARNIA",
        "streetNameDisplayText": "CHARLESWORTH DR, SARNIA"
      }
    ]
  },
  {
    "postal": "N7V9T6",
    "result": []
  },
  {
    "postal": "N7V8Z2",
    "result": []
  },
  {
    "postal": "N7V0E9",
    "result": []
  },
  {
    "postal": "N7V8C0",
    "result": []
  },
  {
    "postal": "N7V3K7",
    "result": [
      {
        "electoralDistricts": [
          {
            "election": null,
            "id": 91,
            "setId": 0,
            "name": "Sarnia—Lambton"
          }
        ],
        "pollDivisionIds": [
          10141398
        ],
        "postalCode": "N7V3K7",
        "streetName": "COLBORNE",
        "streetDirectionId": null,
        "streetTypeId": "RD",
        "placeName": "SARNIA",
        "streetNameDisplayText": "COLBORNE RD, SARNIA"
      },
      {
        "electoralDistricts": [
          {
            "election": null,
            "id": 91,
            "setId": 0,
            "name": "Sarnia—Lambton"
          }
        ],
        "pollDivisionIds": [
          10141390
        ],
        "postalCode": "N7V3K7",
        "streetName": "COLBORNE",
        "streetDirectionId": null,
        "streetTypeId": "ST",
        "placeName": "SARNIA",
        "streetNameDisplayText": "COLBORNE ST, SARNIA"
      }
    ]
  },
  {
    "postal": "N7V2H3",
    "result": [
      {
        "electoralDistricts": [
          {
            "election": null,
            "id": 91,
            "setId": 0,
            "name": "Sarnia—Lambton"
          }
        ],
        "pollDivisionIds": [
          10141394
        ],
        "postalCode": "N7V2H3",
        "streetName": "SHERWOOD",
        "streetDirectionId": null,
        "streetTypeId": "TRAIL",
        "placeName": "SARNIA",
        "streetNameDisplayText": "SHERWOOD TRAIL, SARNIA"
      }
    ]
  },
  {
    "postal": "N7V2Y6",
    "result": [
      {
        "electoralDistricts": [
          {
            "election": null,
            "id": 91,
            "setId": 0,
            "name": "Sarnia—Lambton"
          }
        ],
        "pollDivisionIds": [
          10141389
        ],
        "postalCode": "N7V2Y6",
        "streetName": "BURR",
        "streetDirectionId": null,
        "streetTypeId": "ST",
        "placeName": "SARNIA",
        "streetNameDisplayText": "BURR ST, SARNIA"
      }
    ]
  },
  {
    "postal": "N7V7M2",
    "result": []
  },
  {
    "postal": "N7V6E2",
    "result": []
  },
  {
    "postal": "N7V3R0",
    "result": []
  },
  {
    "postal": "N7V4J7",
    "result": [
      {
        "electoralDistricts": [
          {
            "election": null,
            "id": 91,
            "setId": 0,
            "name": "Sarnia—Lambton"
          }
        ],
        "pollDivisionIds": [
          10141426
        ],
        "postalCode": "N7V4J7",
        "streetName": "SANDY",
        "streetDirectionId": null,
        "streetTypeId": "LANE",
        "placeName": "SARNIA",
        "streetNameDisplayText": "SANDY LANE, SARNIA"
      }
    ]
  },
  {
    "postal": "N7V6N8",
    "result": []
  },
  {
    "postal": "N7V0J7",
    "result": []
  },
  {
    "postal": "N7V7P2",
    "result": []
  },
  {
    "postal": "N7V3T8",
    "result": [
      {
        "electoralDistricts": [
          {
            "election": null,
            "id": 91,
            "setId": 0,
            "name": "Sarnia—Lambton"
          }
        ],
        "pollDivisionIds": [
          10141395
        ],
        "postalCode": "N7V3T8",
        "streetName": "MATHEWS",
        "streetDirectionId": null,
        "streetTypeId": "AVE",
        "placeName": "SARNIA",
        "streetNameDisplayText": "MATHEWS AVE, SARNIA"
      }
    ]
  },
  {
    "postal": "N7V3S7",
    "result": [
      {
        "electoralDistricts": [
          {
            "election": null,
            "id": 91,
            "setId": 0,
            "name": "Sarnia—Lambton"
          }
        ],
        "pollDivisionIds": [
          10141388
        ],
        "postalCode": "N7V3S7",
        "streetName": "LANCASTER",
        "streetDirectionId": null,
        "streetTypeId": "AVE",
        "placeName": "SARNIA",
        "streetNameDisplayText": "LANCASTER AVE, SARNIA"
      }
    ]
  },
  {
    "postal": "N7V2S7",
    "result": [
      {
        "electoralDistricts": [
          {
            "election": null,
            "id": 91,
            "setId": 0,
            "name": "Sarnia—Lambton"
          }
        ],
        "pollDivisionIds": [
          10141388
        ],
        "postalCode": "N7V2S7",
        "streetName": "LAKESHORE",
        "streetDirectionId": null,
        "streetTypeId": "RD",
        "placeName": "SARNIA",
        "streetNameDisplayText": "LAKESHORE RD, SARNIA"
      }
    ]
  },
  {
    "postal": "N7V1S4",
    "result": [
      {
        "electoralDistricts": [
          {
            "election": null,
            "id": 91,
            "setId": 0,
            "name": "Sarnia—Lambton"
          }
        ],
        "pollDivisionIds": [
          10141387
        ],
        "postalCode": "N7V1S4",
        "streetName": "ALFRED",
        "streetDirectionId": null,
        "streetTypeId": "ST",
        "placeName": "POINT EDWARD",
        "streetNameDisplayText": "ALFRED ST, POINT EDWARD"
      }
    ]
  },
  {
    "postal": "N7V1L8",
    "result": [
      {
        "electoralDistricts": [
          {
            "election": null,
            "id": 91,
            "setId": 0,
            "name": "Sarnia—Lambton"
          }
        ],
        "pollDivisionIds": [
          10141387
        ],
        "postalCode": "N7V1L8",
        "streetName": "LIVINGSTON",
        "streetDirectionId": null,
        "streetTypeId": "ST",
        "placeName": "POINT EDWARD",
        "streetNameDisplayText": "LIVINGSTON ST, POINT EDWARD"
      }
    ]
  },
  {
    "postal": "N7V8E9",
    "result": []
  },
  {
    "postal": "N7V0T0",
    "result": []
  },
  {
    "postal": "N7V3G4",
    "result": [
      {
        "electoralDistricts": [
          {
            "election": null,
            "id": 91,
            "setId": 0,
            "name": "Sarnia—Lambton"
          }
        ],
        "pollDivisionIds": [
          10141398
        ],
        "postalCode": "N7V3G4",
        "streetName": "ELLWOOD",
        "streetDirectionId": null,
        "streetTypeId": "AVE",
        "placeName": "SARNIA",
        "streetNameDisplayText": "ELLWOOD AVE, SARNIA"
      }
    ]
  },
  {
    "postal": "N7V0V6",
    "result": []
  },
  {
    "postal": "N7V4W1",
    "result": []
  },
  {
    "postal": "N7V9G9",
    "result": []
  },
  {
    "postal": "N7V5W4",
    "result": []
  },
  {
    "postal": "N7V7M8",
    "result": []
  },
  {
    "postal": "N7V2C2",
    "result": [
      {
        "electoralDistricts": [
          {
            "election": null,
            "id": 91,
            "setId": 0,
            "name": "Sarnia—Lambton"
          }
        ],
        "pollDivisionIds": [
          10141398
        ],
        "postalCode": "N7V2C2",
        "streetName": "HALL",
        "streetDirectionId": null,
        "streetTypeId": "ST",
        "placeName": "SARNIA",
        "streetNameDisplayText": "HALL ST, SARNIA"
      }
    ]
  },
  {
    "postal": "N7V4Y2",
    "result": []
  },
  {
    "postal": "N7V9X9",
    "result": []
  },
  {
    "postal": "N7V3T0",
    "result": []
  },
  {
    "postal": "N7V4T8",
    "result": []
  },
  {
    "postal": "N7V9C4",
    "result": []
  },
  {
    "postal": "N7V8P2",
    "result": []
  },
  {
    "postal": "N7V0Y8",
    "result": []
  },
  {
    "postal": "N7V1G8",
    "result": [
      {
        "electoralDistricts": [
          {
            "election": null,
            "id": 91,
            "setId": 0,
            "name": "Sarnia—Lambton"
          }
        ],
        "pollDivisionIds": [
          10141387
        ],
        "postalCode": "N7V1G8",
        "streetName": "MICHIGAN",
        "streetDirectionId": null,
        "streetTypeId": "AVE",
        "placeName": "POINT EDWARD",
        "streetNameDisplayText": "MICHIGAN AVE, POINT EDWARD"
      }
    ]
  },
  {
    "postal": "N7V2T6",
    "result": [
      {
        "electoralDistricts": [
          {
            "election": null,
            "id": 91,
            "setId": 0,
            "name": "Sarnia—Lambton"
          }
        ],
        "pollDivisionIds": [
          10141388
        ],
        "postalCode": "N7V2T6",
        "streetName": "LAKESHORE",
        "streetDirectionId": null,
        "streetTypeId": "RD",
        "placeName": "SARNIA",
        "streetNameDisplayText": "LAKESHORE RD, SARNIA"
      }
    ]
  },
  {
    "postal": "N7V1N7",
    "result": [
      {
        "electoralDistricts": [
          {
            "election": null,
            "id": 91,
            "setId": 0,
            "name": "Sarnia—Lambton"
          }
        ],
        "pollDivisionIds": [
          10141387
        ],
        "postalCode": "N7V1N7",
        "streetName": "ST. CLAIR",
        "streetDirectionId": null,
        "streetTypeId": "ST",
        "placeName": "POINT EDWARD",
        "streetNameDisplayText": "ST. CLAIR ST, POINT EDWARD"
      }
    ]
  },
  {
    "postal": "N7V0L6",
    "result": []
  },
  {
    "postal": "N7V9V4",
    "result": []
  },
  {
    "postal": "N7V2V1",
    "result": [
      {
        "electoralDistricts": [
          {
            "election": null,
            "id": 91,
            "setId": 0,
            "name": "Sarnia—Lambton"
          }
        ],
        "pollDivisionIds": [
          10141389
        ],
        "postalCode": "N7V2V1",
        "streetName": "LAKESHORE",
        "streetDirectionId": null,
        "streetTypeId": "RD",
        "placeName": "SARNIA",
        "streetNameDisplayText": "LAKESHORE RD, SARNIA"
      }
    ]
  },
  {
    "postal": "N7V3L8",
    "result": [
      {
        "electoralDistricts": [
          {
            "election": null,
            "id": 91,
            "setId": 0,
            "name": "Sarnia—Lambton"
          }
        ],
        "pollDivisionIds": [
          10141388
        ],
        "postalCode": "N7V3L8",
        "streetName": "COLBORNE",
        "streetDirectionId": null,
        "streetTypeId": "RD",
        "placeName": "SARNIA",
        "streetNameDisplayText": "COLBORNE RD, SARNIA"
      }
    ]
  },
  {
    "postal": "N7V2R8",
    "result": [
      {
        "electoralDistricts": [
          {
            "election": null,
            "id": 91,
            "setId": 0,
            "name": "Sarnia—Lambton"
          }
        ],
        "pollDivisionIds": [
          10141388
        ],
        "postalCode": "N7V2R8",
        "streetName": "CHARLESWORTH",
        "streetDirectionId": null,
        "streetTypeId": "DR",
        "placeName": "SARNIA",
        "streetNameDisplayText": "CHARLESWORTH DR, SARNIA"
      }
    ]
  },
  {
    "postal": "N7V5C1",
    "result": []
  },
  {
    "postal": "N7V4W3",
    "result": []
  },
  {
    "postal": "N7V5X5",
    "result": []
  },
  {
    "postal": "N7V9W5",
    "result": []
  },
  {
    "postal": "N7V3C4",
    "result": [
      {
        "electoralDistricts": [
          {
            "election": null,
            "id": 91,
            "setId": 0,
            "name": "Sarnia—Lambton"
          }
        ],
        "pollDivisionIds": [
          10141394
        ],
        "postalCode": "N7V3C4",
        "streetName": "CHRISTINA",
        "streetDirectionId": "N",
        "streetTypeId": "ST",
        "placeName": "SARNIA",
        "streetNameDisplayText": "CHRISTINA ST N, SARNIA"
      }
    ]
  },
  {
    "postal": "N7V1N6",
    "result": [
      {
        "electoralDistricts": [
          {
            "election": null,
            "id": 91,
            "setId": 0,
            "name": "Sarnia—Lambton"
          }
        ],
        "pollDivisionIds": [
          10141387
        ],
        "postalCode": "N7V1N6",
        "streetName": "ST CLAIR",
        "streetDirectionId": null,
        "streetTypeId": "ST",
        "placeName": "POINT EDWARD",
        "streetNameDisplayText": "ST CLAIR ST, POINT EDWARD"
      },
      {
        "electoralDistricts": [
          {
            "election": null,
            "id": 91,
            "setId": 0,
            "name": "Sarnia—Lambton"
          }
        ],
        "pollDivisionIds": [
          10141387
        ],
        "postalCode": "N7V1N6",
        "streetName": "ST. CLAIR",
        "streetDirectionId": null,
        "streetTypeId": "ST",
        "placeName": "POINT EDWARD",
        "streetNameDisplayText": "ST. CLAIR ST, POINT EDWARD"
      }
    ]
  },
  {
    "postal": "N7V9S9",
    "result": []
  },
  {
    "postal": "N7V9M2",
    "result": []
  },
  {
    "postal": "N7V8Y4",
    "result": []
  },
  {
    "postal": "N7V7S4",
    "result": []
  },
  {
    "postal": "N7V0K6",
    "result": []
  },
  {
    "postal": "N7V1W3",
    "result": [
      {
        "electoralDistricts": [
          {
            "election": null,
            "id": 91,
            "setId": 0,
            "name": "Sarnia—Lambton"
          }
        ],
        "pollDivisionIds": [
          10141387
        ],
        "postalCode": "N7V1W3",
        "streetName": "LOUISA",
        "streetDirectionId": null,
        "streetTypeId": "ST",
        "placeName": "POINT EDWARD",
        "streetNameDisplayText": "LOUISA ST, POINT EDWARD"
      }
    ]
  },
  {
    "postal": "N7V7R2",
    "result": []
  },
  {
    "postal": "N7V2Y9",
    "result": [
      {
        "electoralDistricts": [
          {
            "election": null,
            "id": 91,
            "setId": 0,
            "name": "Sarnia—Lambton"
          }
        ],
        "pollDivisionIds": [
          10141388
        ],
        "postalCode": "N7V2Y9",
        "streetName": "BEACH",
        "streetDirectionId": null,
        "streetTypeId": "LANE",
        "placeName": "SARNIA",
        "streetNameDisplayText": "BEACH LANE, SARNIA"
      }
    ]
  },
  {
    "postal": "N7V7G4",
    "result": []
  },
  {
    "postal": "N7V7E5",
    "result": []
  },
  {
    "postal": "N7V9G2",
    "result": []
  },
  {
    "postal": "N7V7Y8",
    "result": []
  },
  {
    "postal": "N7V9V2",
    "result": []
  },
  {
    "postal": "N7V3T7",
    "result": [
      {
        "electoralDistricts": [
          {
            "election": null,
            "id": 91,
            "setId": 0,
            "name": "Sarnia—Lambton"
          }
        ],
        "pollDivisionIds": [
          10141395
        ],
        "postalCode": "N7V3T7",
        "streetName": "MATHEWS",
        "streetDirectionId": null,
        "streetTypeId": "AVE",
        "placeName": "SARNIA",
        "streetNameDisplayText": "MATHEWS AVE, SARNIA"
      }
    ]
  },
  {
    "postal": "N7V1H0",
    "result": []
  },
  {
    "postal": "N7V1M7",
    "result": [
      {
        "electoralDistricts": [
          {
            "election": null,
            "id": 91,
            "setId": 0,
            "name": "Sarnia—Lambton"
          }
        ],
        "pollDivisionIds": [
          10141387
        ],
        "postalCode": "N7V1M7",
        "streetName": "MONK",
        "streetDirectionId": null,
        "streetTypeId": "ST",
        "placeName": "POINT EDWARD",
        "streetNameDisplayText": "MONK ST, POINT EDWARD"
      }
    ]
  },
  {
    "postal": "N7V8V4",
    "result": []
  },
  {
    "postal": "N7V4M2",
    "result": []
  },
  {
    "postal": "N7V0X2",
    "result": []
  },
  {
    "postal": "N7V5Z4",
    "result": []
  },
  {
    "postal": "N7V6V4",
    "result": []
  },
  {
    "postal": "N7V8J3",
    "result": []
  },
  {
    "postal": "N7V8E5",
    "result": []
  },
  {
    "postal": "N7V2V5",
    "result": [
      {
        "electoralDistricts": [
          {
            "election": null,
            "id": 91,
            "setId": 0,
            "name": "Sarnia—Lambton"
          }
        ],
        "pollDivisionIds": [
          10141389
        ],
        "postalCode": "N7V2V5",
        "streetName": "LAKESHORE",
        "streetDirectionId": null,
        "streetTypeId": "RD",
        "placeName": "SARNIA",
        "streetNameDisplayText": "LAKESHORE RD, SARNIA"
      }
    ]
  },
  {
    "postal": "N7V7S1",
    "result": []
  },
  {
    "postal": "N7V6V3",
    "result": []
  },
  {
    "postal": "N7V2L8",
    "result": [
      {
        "electoralDistricts": [
          {
            "election": null,
            "id": 91,
            "setId": 0,
            "name": "Sarnia—Lambton"
          }
        ],
        "pollDivisionIds": [
          10141388
        ],
        "postalCode": "N7V2L8",
        "streetName": "NORWAY",
        "streetDirectionId": null,
        "streetTypeId": "AVE",
        "placeName": "SARNIA",
        "streetNameDisplayText": "NORWAY AVE, SARNIA"
      }
    ]
  },
  {
    "postal": "N7V9V0",
    "result": []
  },
  {
    "postal": "N7V3M4",
    "result": [
      {
        "electoralDistricts": [
          {
            "election": null,
            "id": 91,
            "setId": 0,
            "name": "Sarnia—Lambton"
          }
        ],
        "pollDivisionIds": [
          10141388
        ],
        "postalCode": "N7V3M4",
        "streetName": "COLBORNE",
        "streetDirectionId": null,
        "streetTypeId": "RD",
        "placeName": "SARNIA",
        "streetNameDisplayText": "COLBORNE RD, SARNIA"
      }
    ]
  },
  {
    "postal": "N7V5B2",
    "result": []
  },
  {
    "postal": "N7V3X5",
    "result": [
      {
        "electoralDistricts": [
          {
            "election": null,
            "id": 91,
            "setId": 0,
            "name": "Sarnia—Lambton"
          }
        ],
        "pollDivisionIds": [
          10141398
        ],
        "postalCode": "N7V3X5",
        "streetName": "GRANDVIEW",
        "streetDirectionId": null,
        "streetTypeId": "AVE",
        "placeName": "SARNIA",
        "streetNameDisplayText": "GRANDVIEW AVE, SARNIA"
      }
    ]
  },
  {
    "postal": "N7V9R7",
    "result": []
  },
  {
    "postal": "N7V2X2",
    "result": [
      {
        "electoralDistricts": [
          {
            "election": null,
            "id": 91,
            "setId": 0,
            "name": "Sarnia—Lambton"
          }
        ],
        "pollDivisionIds": [
          10141388
        ],
        "postalCode": "N7V2X2",
        "streetName": "ORCHARD",
        "streetDirectionId": null,
        "streetTypeId": "AVE",
        "placeName": "SARNIA",
        "streetNameDisplayText": "ORCHARD AVE, SARNIA"
      }
    ]
  },
  {
    "postal": "N7V8Z6",
    "result": []
  },
  {
    "postal": "N7V4R4",
    "result": []
  },
  {
    "postal": "N7V2R1",
    "result": [
      {
        "electoralDistricts": [
          {
            "election": null,
            "id": 91,
            "setId": 0,
            "name": "Sarnia—Lambton"
          }
        ],
        "pollDivisionIds": [
          10141388
        ],
        "postalCode": "N7V2R1",
        "streetName": "AMESBURY",
        "streetDirectionId": null,
        "streetTypeId": "CRT",
        "placeName": "SARNIA",
        "streetNameDisplayText": "AMESBURY CRT, SARNIA"
      }
    ]
  },
  {
    "postal": "N7V3R8",
    "result": [
      {
        "electoralDistricts": [
          {
            "election": null,
            "id": 91,
            "setId": 0,
            "name": "Sarnia—Lambton"
          }
        ],
        "pollDivisionIds": [
          10141394
        ],
        "postalCode": "N7V3R8",
        "streetName": "CORAL",
        "streetDirectionId": null,
        "streetTypeId": "WAY",
        "placeName": "SARNIA",
        "streetNameDisplayText": "CORAL WAY, SARNIA"
      }
    ]
  },
  {
    "postal": "N7V9A1",
    "result": []
  },
  {
    "postal": "N7V8L3",
    "result": []
  },
  {
    "postal": "N7V9K4",
    "result": []
  },
  {
    "postal": "N7V9S3",
    "result": []
  },
  {
    "postal": "N7V8N7",
    "result": []
  },
  {
    "postal": "N7V1C6",
    "result": [
      {
        "electoralDistricts": [
          {
            "election": null,
            "id": 91,
            "setId": 0,
            "name": "Sarnia—Lambton"
          }
        ],
        "pollDivisionIds": [
          10141397
        ],
        "postalCode": "N7V1C6",
        "streetName": "ALEXANDRA",
        "streetDirectionId": null,
        "streetTypeId": "AVE",
        "placeName": "POINT EDWARD",
        "streetNameDisplayText": "ALEXANDRA AVE, POINT EDWARD"
      }
    ]
  },
  {
    "postal": "N7V3Z8",
    "result": [
      {
        "electoralDistricts": [
          {
            "election": null,
            "id": 91,
            "setId": 0,
            "name": "Sarnia—Lambton"
          }
        ],
        "pollDivisionIds": [
          10141398
        ],
        "postalCode": "N7V3Z8",
        "streetName": "BRIARFIELD",
        "streetDirectionId": null,
        "streetTypeId": "AVE",
        "placeName": "SARNIA",
        "streetNameDisplayText": "BRIARFIELD AVE, SARNIA"
      }
    ]
  },
  {
    "postal": "N7V8G5",
    "result": []
  },
  {
    "postal": "N7V5R6",
    "result": []
  },
  {
    "postal": "N7V2W3",
    "result": [
      {
        "electoralDistricts": [
          {
            "election": null,
            "id": 91,
            "setId": 0,
            "name": "Sarnia—Lambton"
          }
        ],
        "pollDivisionIds": [
          10141388
        ],
        "postalCode": "N7V2W3",
        "streetName": "WOODROWE",
        "streetDirectionId": null,
        "streetTypeId": "AVE",
        "placeName": "SARNIA",
        "streetNameDisplayText": "WOODROWE AVE, SARNIA"
      }
    ]
  },
  {
    "postal": "N7V0A0",
    "result": []
  },
  {
    "postal": "N7V6P8",
    "result": []
  },
  {
    "postal": "N7V8N9",
    "result": []
  },
  {
    "postal": "N7V0S9",
    "result": []
  },
  {
    "postal": "N7V8G0",
    "result": []
  },
  {
    "postal": "N7V8C7",
    "result": []
  },
  {
    "postal": "N7V5X8",
    "result": []
  },
  {
    "postal": "N7V7E8",
    "result": []
  },
  {
    "postal": "N7V6X2",
    "result": []
  },
  {
    "postal": "N7V4C6",
    "result": [
      {
        "electoralDistricts": [
          {
            "election": null,
            "id": 91,
            "setId": 0,
            "name": "Sarnia—Lambton"
          }
        ],
        "pollDivisionIds": [
          10141395
        ],
        "postalCode": "N7V4C6",
        "streetName": "INDIAN",
        "streetDirectionId": "N",
        "streetTypeId": "RD",
        "placeName": "SARNIA",
        "streetNameDisplayText": "INDIAN RD N, SARNIA"
      }
    ]
  },
  {
    "postal": "N7V7H2",
    "result": []
  },
  {
    "postal": "N7V4R0",
    "result": []
  },
  {
    "postal": "N7V6J3",
    "result": []
  },
  {
    "postal": "N7V4B8",
    "result": [
      {
        "electoralDistricts": [
          {
            "election": null,
            "id": 91,
            "setId": 0,
            "name": "Sarnia—Lambton"
          }
        ],
        "pollDivisionIds": [
          10141389
        ],
        "postalCode": "N7V4B8",
        "streetName": "JOEL",
        "streetDirectionId": null,
        "streetTypeId": "PK",
        "placeName": "SARNIA",
        "streetNameDisplayText": "JOEL PK, SARNIA"
      }
    ]
  },
  {
    "postal": "N7V6H6",
    "result": []
  },
  {
    "postal": "N7V0S1",
    "result": []
  },
  {
    "postal": "N7V4E3",
    "result": [
      {
        "electoralDistricts": [
          {
            "election": null,
            "id": 91,
            "setId": 0,
            "name": "Sarnia—Lambton"
          }
        ],
        "pollDivisionIds": [
          10141388
        ],
        "postalCode": "N7V4E3",
        "streetName": "WESTWOOD",
        "streetDirectionId": null,
        "streetTypeId": "AVE",
        "placeName": "SARNIA",
        "streetNameDisplayText": "WESTWOOD AVE, SARNIA"
      }
    ]
  },
  {
    "postal": "N7V7K2",
    "result": []
  },
  {
    "postal": "N7V7T8",
    "result": []
  },
  {
    "postal": "N7V0J9",
    "result": []
  },
  {
    "postal": "N7V5J9",
    "result": []
  },
  {
    "postal": "N7V5S7",
    "result": []
  },
  {
    "postal": "N7V0G9",
    "result": []
  },
  {
    "postal": "N7V3J9",
    "result": [
      {
        "electoralDistricts": [
          {
            "election": null,
            "id": 91,
            "setId": 0,
            "name": "Sarnia—Lambton"
          }
        ],
        "pollDivisionIds": [
          10141394
        ],
        "postalCode": "N7V3J9",
        "streetName": "MARCIN",
        "streetDirectionId": null,
        "streetTypeId": "RD",
        "placeName": "SARNIA",
        "streetNameDisplayText": "MARCIN RD, SARNIA"
      }
    ]
  },
  {
    "postal": "N7V2Y0",
    "result": []
  },
  {
    "postal": "N7V8X5",
    "result": []
  },
  {
    "postal": "N7V2M7",
    "result": [
      {
        "electoralDistricts": [
          {
            "election": null,
            "id": 91,
            "setId": 0,
            "name": "Sarnia—Lambton"
          }
        ],
        "pollDivisionIds": [
          10141388
        ],
        "postalCode": "N7V2M7",
        "streetName": "KEMSLEY",
        "streetDirectionId": null,
        "streetTypeId": "DR",
        "placeName": "SARNIA",
        "streetNameDisplayText": "KEMSLEY DR, SARNIA"
      }
    ]
  },
  {
    "postal": "N7V9Z3",
    "result": []
  },
  {
    "postal": "N7V7W2",
    "result": []
  },
  {
    "postal": "N7V3W0",
    "result": []
  },
  {
    "postal": "N7V3M1",
    "result": [
      {
        "electoralDistricts": [
          {
            "election": null,
            "id": 91,
            "setId": 0,
            "name": "Sarnia—Lambton"
          }
        ],
        "pollDivisionIds": [
          10141388
        ],
        "postalCode": "N7V3M1",
        "streetName": "COLBORNE",
        "streetDirectionId": null,
        "streetTypeId": "RD",
        "placeName": "SARNIA",
        "streetNameDisplayText": "COLBORNE RD, SARNIA"
      }
    ]
  },
  {
    "postal": "N7V6A5",
    "result": []
  },
  {
    "postal": "N7V2M9",
    "result": [
      {
        "electoralDistricts": [
          {
            "election": null,
            "id": 91,
            "setId": 0,
            "name": "Sarnia—Lambton"
          }
        ],
        "pollDivisionIds": [
          10141388
        ],
        "postalCode": "N7V2M9",
        "streetName": "KEMSLEY",
        "streetDirectionId": null,
        "streetTypeId": "DR",
        "placeName": "SARNIA",
        "streetNameDisplayText": "KEMSLEY DR, SARNIA"
      }
    ]
  },
  {
    "postal": "N7V5C3",
    "result": []
  },
  {
    "postal": "N7V0Y6",
    "result": []
  },
  {
    "postal": "N7V9H7",
    "result": []
  },
  {
    "postal": "N7V3L0",
    "result": []
  },
  {
    "postal": "N7V5N9",
    "result": []
  },
  {
    "postal": "N7V5E3",
    "result": []
  },
  {
    "postal": "N7V7M9",
    "result": []
  },
  {
    "postal": "N7V8N2",
    "result": []
  },
  {
    "postal": "N7V9H3",
    "result": []
  },
  {
    "postal": "N7V2K8",
    "result": [
      {
        "electoralDistricts": [
          {
            "election": null,
            "id": 91,
            "setId": 0,
            "name": "Sarnia—Lambton"
          }
        ],
        "pollDivisionIds": [
          10141394
        ],
        "postalCode": "N7V2K8",
        "streetName": "O'DELL",
        "streetDirectionId": null,
        "streetTypeId": "AVE",
        "placeName": "SARNIA",
        "streetNameDisplayText": "O'DELL AVE, SARNIA"
      }
    ]
  },
  {
    "postal": "N7V9L0",
    "result": []
  },
  {
    "postal": "N7V6L9",
    "result": []
  },
  {
    "postal": "N7V6A8",
    "result": []
  },
  {
    "postal": "N7V2K6",
    "result": [
      {
        "electoralDistricts": [
          {
            "election": null,
            "id": 91,
            "setId": 0,
            "name": "Sarnia—Lambton"
          }
        ],
        "pollDivisionIds": [
          10141394
        ],
        "postalCode": "N7V2K6",
        "streetName": "O'DELL",
        "streetDirectionId": null,
        "streetTypeId": "AVE",
        "placeName": "SARNIA",
        "streetNameDisplayText": "O'DELL AVE, SARNIA"
      }
    ]
  },
  {
    "postal": "N7V2M0",
    "result": []
  },
  {
    "postal": "N7V5X7",
    "result": []
  },
  {
    "postal": "N7V0M7",
    "result": []
  },
  {
    "postal": "N7V7A6",
    "result": []
  },
  {
    "postal": "N7V3C5",
    "result": [
      {
        "electoralDistricts": [
          {
            "election": null,
            "id": 91,
            "setId": 0,
            "name": "Sarnia—Lambton"
          }
        ],
        "pollDivisionIds": [
          10141394
        ],
        "postalCode": "N7V3C5",
        "streetName": "CHRISTINA",
        "streetDirectionId": "N",
        "streetTypeId": "ST",
        "placeName": "SARNIA",
        "streetNameDisplayText": "CHRISTINA ST N, SARNIA"
      }
    ]
  },
  {
    "postal": "N7V2P2",
    "result": [
      {
        "electoralDistricts": [
          {
            "election": null,
            "id": 91,
            "setId": 0,
            "name": "Sarnia—Lambton"
          }
        ],
        "pollDivisionIds": [
          10141387
        ],
        "postalCode": "N7V2P2",
        "streetName": "ROOSEVELT",
        "streetDirectionId": null,
        "streetTypeId": "DR",
        "placeName": "SARNIA",
        "streetNameDisplayText": "ROOSEVELT DR, SARNIA"
      }
    ]
  },
  {
    "postal": "N7V9N4",
    "result": []
  },
  {
    "postal": "N7V3M9",
    "result": [
      {
        "electoralDistricts": [
          {
            "election": null,
            "id": 91,
            "setId": 0,
            "name": "Sarnia—Lambton"
          }
        ],
        "pollDivisionIds": [
          10141394
        ],
        "postalCode": "N7V3M9",
        "streetName": "STONE",
        "streetDirectionId": null,
        "streetTypeId": "CRT",
        "placeName": "SARNIA",
        "streetNameDisplayText": "STONE CRT, SARNIA"
      }
    ]
  },
  {
    "postal": "N7V8K6",
    "result": []
  },
  {
    "postal": "N7V1L2",
    "result": [
      {
        "electoralDistricts": [
          {
            "election": null,
            "id": 91,
            "setId": 0,
            "name": "Sarnia—Lambton"
          }
        ],
        "pollDivisionIds": [
          10141394
        ],
        "postalCode": "N7V1L2",
        "streetName": "MICHIGAN",
        "streetDirectionId": null,
        "streetTypeId": "AVE",
        "placeName": "SARNIA",
        "streetNameDisplayText": "MICHIGAN AVE, SARNIA"
      }
    ]
  },
  {
    "postal": "N7V2Z9",
    "result": [
      {
        "electoralDistricts": [
          {
            "election": null,
            "id": 91,
            "setId": 0,
            "name": "Sarnia—Lambton"
          }
        ],
        "pollDivisionIds": [
          10141388
        ],
        "postalCode": "N7V2Z9",
        "streetName": "DORCHESTER",
        "streetDirectionId": null,
        "streetTypeId": "DR",
        "placeName": "SARNIA",
        "streetNameDisplayText": "DORCHESTER DR, SARNIA"
      }
    ]
  },
  {
    "postal": "N7V2S2",
    "result": [
      {
        "electoralDistricts": [
          {
            "election": null,
            "id": 91,
            "setId": 0,
            "name": "Sarnia—Lambton"
          }
        ],
        "pollDivisionIds": [
          10141388
        ],
        "postalCode": "N7V2S2",
        "streetName": "CHARLESWORTH",
        "streetDirectionId": null,
        "streetTypeId": "DR",
        "placeName": "SARNIA",
        "streetNameDisplayText": "CHARLESWORTH DR, SARNIA"
      }
    ]
  },
  {
    "postal": "N7V2W2",
    "result": [
      {
        "electoralDistricts": [
          {
            "election": null,
            "id": 91,
            "setId": 0,
            "name": "Sarnia—Lambton"
          }
        ],
        "pollDivisionIds": [
          10141388
        ],
        "postalCode": "N7V2W2",
        "streetName": "WOODROWE",
        "streetDirectionId": null,
        "streetTypeId": "AVE",
        "placeName": "SARNIA",
        "streetNameDisplayText": "WOODROWE AVE, SARNIA"
      }
    ]
  },
  {
    "postal": "N7V2C3",
    "result": [
      {
        "electoralDistricts": [
          {
            "election": null,
            "id": 91,
            "setId": 0,
            "name": "Sarnia—Lambton"
          }
        ],
        "pollDivisionIds": [
          10141398
        ],
        "postalCode": "N7V2C3",
        "streetName": "HALL",
        "streetDirectionId": null,
        "streetTypeId": "ST",
        "placeName": "SARNIA",
        "streetNameDisplayText": "HALL ST, SARNIA"
      }
    ]
  },
  {
    "postal": "N7V6L7",
    "result": []
  },
  {
    "postal": "N7V3K0",
    "result": []
  },
  {
    "postal": "N7V3C1",
    "result": [
      {
        "electoralDistricts": [
          {
            "election": null,
            "id": 91,
            "setId": 0,
            "name": "Sarnia—Lambton"
          }
        ],
        "pollDivisionIds": [
          10141387
        ],
        "postalCode": "N7V3C1",
        "streetName": "LAKE CHIPICAN",
        "streetDirectionId": null,
        "streetTypeId": "DR",
        "placeName": "SARNIA",
        "streetNameDisplayText": "LAKE CHIPICAN DR, SARNIA"
      }
    ]
  },
  {
    "postal": "N7V6M9",
    "result": []
  },
  {
    "postal": "N7V4N9",
    "result": []
  },
  {
    "postal": "N7V3Y7",
    "result": [
      {
        "electoralDistricts": [
          {
            "election": null,
            "id": 91,
            "setId": 0,
            "name": "Sarnia—Lambton"
          }
        ],
        "pollDivisionIds": [
          10141388
        ],
        "postalCode": "N7V3Y7",
        "streetName": "CENTENNIAL",
        "streetDirectionId": null,
        "streetTypeId": "AVE",
        "placeName": "SARNIA",
        "streetNameDisplayText": "CENTENNIAL AVE, SARNIA"
      }
    ]
  },
  {
    "postal": "N7V2A9",
    "result": [
      {
        "electoralDistricts": [
          {
            "election": null,
            "id": 91,
            "setId": 0,
            "name": "Sarnia—Lambton"
          }
        ],
        "pollDivisionIds": [
          10141398
        ],
        "postalCode": "N7V2A9",
        "streetName": "OAKDALE",
        "streetDirectionId": null,
        "streetTypeId": "AVE",
        "placeName": "SARNIA",
        "streetNameDisplayText": "OAKDALE AVE, SARNIA"
      }
    ]
  },
  {
    "postal": "N7V6H5",
    "result": []
  },
  {
    "postal": "N7V8B4",
    "result": []
  },
  {
    "postal": "N7V4Z2",
    "result": []
  },
  {
    "postal": "N7V9J0",
    "result": []
  },
  {
    "postal": "N7V7V7",
    "result": []
  },
  {
    "postal": "N7V5T5",
    "result": []
  },
  {
    "postal": "N7V4W5",
    "result": []
  },
  {
    "postal": "N7V1T8",
    "result": [
      {
        "electoralDistricts": [
          {
            "election": null,
            "id": 91,
            "setId": 0,
            "name": "Sarnia—Lambton"
          }
        ],
        "pollDivisionIds": [
          10141387
        ],
        "postalCode": "N7V1T8",
        "streetName": "ARTHUR",
        "streetDirectionId": null,
        "streetTypeId": "ST",
        "placeName": "POINT EDWARD",
        "streetNameDisplayText": "ARTHUR ST, POINT EDWARD"
      }
    ]
  },
  {
    "postal": "N7V9G6",
    "result": []
  },
  {
    "postal": "N7V1H3",
    "result": [
      {
        "electoralDistricts": [
          {
            "election": null,
            "id": 91,
            "setId": 0,
            "name": "Sarnia—Lambton"
          }
        ],
        "pollDivisionIds": [
          10141387
        ],
        "postalCode": "N7V1H3",
        "streetName": "VICTORIA",
        "streetDirectionId": null,
        "streetTypeId": "AVE",
        "placeName": "POINT EDWARD",
        "streetNameDisplayText": "VICTORIA AVE, POINT EDWARD"
      }
    ]
  },
  {
    "postal": "N7V5R5",
    "result": []
  },
  {
    "postal": "N7V8A4",
    "result": []
  },
  {
    "postal": "N7V3T6",
    "result": [
      {
        "electoralDistricts": [
          {
            "election": null,
            "id": 91,
            "setId": 0,
            "name": "Sarnia—Lambton"
          }
        ],
        "pollDivisionIds": [
          10141394
        ],
        "postalCode": "N7V3T6",
        "streetName": "KIM",
        "streetDirectionId": null,
        "streetTypeId": "ST",
        "placeName": "SARNIA",
        "streetNameDisplayText": "KIM ST, SARNIA"
      }
    ]
  },
  {
    "postal": "N7V9W8",
    "result": []
  },
  {
    "postal": "N7V0N3",
    "result": []
  },
  {
    "postal": "N7V7V0",
    "result": []
  },
  {
    "postal": "N7V8T5",
    "result": []
  },
  {
    "postal": "N7V5N3",
    "result": []
  },
  {
    "postal": "N7V5G9",
    "result": []
  },
  {
    "postal": "N7V3X8",
    "result": [
      {
        "electoralDistricts": [
          {
            "election": null,
            "id": 91,
            "setId": 0,
            "name": "Sarnia—Lambton"
          }
        ],
        "pollDivisionIds": [
          10141395
        ],
        "postalCode": "N7V3X8",
        "streetName": "MARQUETTE",
        "streetDirectionId": null,
        "streetTypeId": "CRT",
        "placeName": "SARNIA",
        "streetNameDisplayText": "MARQUETTE CRT, SARNIA"
      }
    ]
  },
  {
    "postal": "N7V9R3",
    "result": []
  },
  {
    "postal": "N7V2S1",
    "result": [
      {
        "electoralDistricts": [
          {
            "election": null,
            "id": 91,
            "setId": 0,
            "name": "Sarnia—Lambton"
          }
        ],
        "pollDivisionIds": [
          10141388
        ],
        "postalCode": "N7V2S1",
        "streetName": "CHARLESWORTH",
        "streetDirectionId": null,
        "streetTypeId": "DR",
        "placeName": "SARNIA",
        "streetNameDisplayText": "CHARLESWORTH DR, SARNIA"
      }
    ]
  },
  {
    "postal": "N7V9J7",
    "result": []
  },
  {
    "postal": "N7V2J3",
    "result": [
      {
        "electoralDistricts": [
          {
            "election": null,
            "id": 91,
            "setId": 0,
            "name": "Sarnia—Lambton"
          }
        ],
        "pollDivisionIds": [
          10141394
        ],
        "postalCode": "N7V2J3",
        "streetName": "HOLLYWOOD",
        "streetDirectionId": null,
        "streetTypeId": "PL",
        "placeName": "SARNIA",
        "streetNameDisplayText": "HOLLYWOOD PL, SARNIA"
      }
    ]
  },
  {
    "postal": "N7V3B6",
    "result": [
      {
        "electoralDistricts": [
          {
            "election": null,
            "id": 91,
            "setId": 0,
            "name": "Sarnia—Lambton"
          }
        ],
        "pollDivisionIds": [
          10141389
        ],
        "postalCode": "N7V3B6",
        "streetName": "BRAEMAR",
        "streetDirectionId": null,
        "streetTypeId": "LANE",
        "placeName": "SARNIA",
        "streetNameDisplayText": "BRAEMAR LANE, SARNIA"
      }
    ]
  },
  {
    "postal": "N7V8J0",
    "result": []
  },
  {
    "postal": "N7V7R4",
    "result": []
  },
  {
    "postal": "N7V8K8",
    "result": []
  },
  {
    "postal": "N7V4P3",
    "result": []
  },
  {
    "postal": "N7V0A2",
    "result": [
      {
        "electoralDistricts": [
          {
            "election": null,
            "id": 91,
            "setId": 0,
            "name": "Sarnia—Lambton"
          }
        ],
        "pollDivisionIds": [
          10141387
        ],
        "postalCode": "N7V0A2",
        "streetName": "MARA",
        "streetDirectionId": null,
        "streetTypeId": "ST",
        "placeName": "POINT EDWARD",
        "streetNameDisplayText": "MARA ST, POINT EDWARD"
      }
    ]
  },
  {
    "postal": "N7V2G2",
    "result": [
      {
        "electoralDistricts": [
          {
            "election": null,
            "id": 91,
            "setId": 0,
            "name": "Sarnia—Lambton"
          }
        ],
        "pollDivisionIds": [
          10141395
        ],
        "postalCode": "N7V2G2",
        "streetName": "CHAMPLAIN",
        "streetDirectionId": null,
        "streetTypeId": "RD",
        "placeName": "SARNIA",
        "streetNameDisplayText": "CHAMPLAIN RD, SARNIA"
      }
    ]
  },
  {
    "postal": "N7V5Y9",
    "result": []
  },
  {
    "postal": "N7V7X0",
    "result": []
  },
  {
    "postal": "N7V7W3",
    "result": []
  },
  {
    "postal": "N7V7X5",
    "result": []
  },
  {
    "postal": "N7V5K6",
    "result": []
  },
  {
    "postal": "N7V5B6",
    "result": []
  },
  {
    "postal": "N7V7Z0",
    "result": []
  },
  {
    "postal": "N7V9H6",
    "result": []
  },
  {
    "postal": "N7V1B4",
    "result": [
      {
        "electoralDistricts": [
          {
            "election": null,
            "id": 91,
            "setId": 0,
            "name": "Sarnia—Lambton"
          }
        ],
        "pollDivisionIds": [
          10141397
        ],
        "postalCode": "N7V1B4",
        "streetName": "CHARLES",
        "streetDirectionId": null,
        "streetTypeId": "ST",
        "placeName": "POINT EDWARD",
        "streetNameDisplayText": "CHARLES ST, POINT EDWARD"
      }
    ]
  },
  {
    "postal": "N7V1A0",
    "result": []
  },
  {
    "postal": "N7V9A0",
    "result": []
  },
  {
    "postal": "N7V1M6",
    "result": [
      {
        "electoralDistricts": [
          {
            "election": null,
            "id": 91,
            "setId": 0,
            "name": "Sarnia—Lambton"
          }
        ],
        "pollDivisionIds": [
          10141387
        ],
        "postalCode": "N7V1M6",
        "streetName": "MONK",
        "streetDirectionId": null,
        "streetTypeId": "ST",
        "placeName": "POINT EDWARD",
        "streetNameDisplayText": "MONK ST, POINT EDWARD"
      }
    ]
  },
  {
    "postal": "N7V5H0",
    "result": []
  },
  {
    "postal": "N7V1K6",
    "result": [
      {
        "electoralDistricts": [
          {
            "election": null,
            "id": 91,
            "setId": 0,
            "name": "Sarnia—Lambton"
          }
        ],
        "pollDivisionIds": [
          10141387
        ],
        "postalCode": "N7V1K6",
        "streetName": "ERNEST",
        "streetDirectionId": null,
        "streetTypeId": "ST",
        "placeName": "POINT EDWARD",
        "streetNameDisplayText": "ERNEST ST, POINT EDWARD"
      }
    ]
  },
  {
    "postal": "N7V5E1",
    "result": []
  },
  {
    "postal": "N7V3T9",
    "result": [
      {
        "electoralDistricts": [
          {
            "election": null,
            "id": 91,
            "setId": 0,
            "name": "Sarnia—Lambton"
          }
        ],
        "pollDivisionIds": [
          10141398
        ],
        "postalCode": "N7V3T9",
        "streetName": "PARKWOOD",
        "streetDirectionId": null,
        "streetTypeId": "AVE",
        "placeName": "SARNIA",
        "streetNameDisplayText": "PARKWOOD AVE, SARNIA"
      }
    ]
  },
  {
    "postal": "N7V2M6",
    "result": [
      {
        "electoralDistricts": [
          {
            "election": null,
            "id": 91,
            "setId": 0,
            "name": "Sarnia—Lambton"
          }
        ],
        "pollDivisionIds": [
          10141388
        ],
        "postalCode": "N7V2M6",
        "streetName": "KEMSLEY",
        "streetDirectionId": null,
        "streetTypeId": "DR",
        "placeName": "SARNIA",
        "streetNameDisplayText": "KEMSLEY DR, SARNIA"
      }
    ]
  },
  {
    "postal": "N7V0G5",
    "result": []
  },
  {
    "postal": "N7V0Y2",
    "result": []
  },
  {
    "postal": "N7V2Y7",
    "result": [
      {
        "electoralDistricts": [
          {
            "election": null,
            "id": 91,
            "setId": 0,
            "name": "Sarnia—Lambton"
          }
        ],
        "pollDivisionIds": [
          10141389
        ],
        "postalCode": "N7V2Y7",
        "streetName": "BURR",
        "streetDirectionId": null,
        "streetTypeId": "ST",
        "placeName": "SARNIA",
        "streetNameDisplayText": "BURR ST, SARNIA"
      }
    ]
  },
  {
    "postal": "N7V2J7",
    "result": [
      {
        "electoralDistricts": [
          {
            "election": null,
            "id": 91,
            "setId": 0,
            "name": "Sarnia—Lambton"
          }
        ],
        "pollDivisionIds": [
          10141394
        ],
        "postalCode": "N7V2J7",
        "streetName": "FLAMINGO",
        "streetDirectionId": null,
        "streetTypeId": "DR",
        "placeName": "SARNIA",
        "streetNameDisplayText": "FLAMINGO DR, SARNIA"
      }
    ]
  },
  {
    "postal": "N7V4K7",
    "result": []
  },
  {
    "postal": "N7V7P9",
    "result": []
  },
  {
    "postal": "N7V8X0",
    "result": []
  },
  {
    "postal": "N7V3X1",
    "result": [
      {
        "electoralDistricts": [
          {
            "election": null,
            "id": 91,
            "setId": 0,
            "name": "Sarnia—Lambton"
          }
        ],
        "pollDivisionIds": [
          10141398
        ],
        "postalCode": "N7V3X1",
        "streetName": "WOODLAND",
        "streetDirectionId": null,
        "streetTypeId": "AVE",
        "placeName": "SARNIA",
        "streetNameDisplayText": "WOODLAND AVE, SARNIA"
      }
    ]
  },
  {
    "postal": "N7V1R5",
    "result": [
      {
        "electoralDistricts": [
          {
            "election": null,
            "id": 91,
            "setId": 0,
            "name": "Sarnia—Lambton"
          }
        ],
        "pollDivisionIds": [
          10141397
        ],
        "postalCode": "N7V1R5",
        "streetName": "ALBERT",
        "streetDirectionId": null,
        "streetTypeId": "ST",
        "placeName": "POINT EDWARD",
        "streetNameDisplayText": "ALBERT ST, POINT EDWARD"
      }
    ]
  },
  {
    "postal": "N7V6X6",
    "result": []
  },
  {
    "postal": "N7V0Y1",
    "result": []
  },
  {
    "postal": "N7V8G1",
    "result": []
  },
  {
    "postal": "N7V3J3",
    "result": [
      {
        "electoralDistricts": [
          {
            "election": null,
            "id": 91,
            "setId": 0,
            "name": "Sarnia—Lambton"
          }
        ],
        "pollDivisionIds": [
          10141388
        ],
        "postalCode": "N7V3J3",
        "streetName": "LECARON",
        "streetDirectionId": null,
        "streetTypeId": "AVE",
        "placeName": "SARNIA",
        "streetNameDisplayText": "LECARON AVE, SARNIA"
      }
    ]
  },
  {
    "postal": "N7V8C2",
    "result": []
  },
  {
    "postal": "N7V4X9",
    "result": []
  },
  {
    "postal": "N7V6G9",
    "result": []
  },
  {
    "postal": "N7V4M3",
    "result": []
  },
  {
    "postal": "N7V9P7",
    "result": []
  },
  {
    "postal": "N7V4E5",
    "result": [
      {
        "electoralDistricts": [
          {
            "election": null,
            "id": 91,
            "setId": 0,
            "name": "Sarnia—Lambton"
          }
        ],
        "pollDivisionIds": [
          10141389
        ],
        "postalCode": "N7V4E5",
        "streetName": "MILLS",
        "streetDirectionId": null,
        "streetTypeId": "ST",
        "placeName": "SARNIA",
        "streetNameDisplayText": "MILLS ST, SARNIA"
      }
    ]
  },
  {
    "postal": "N7V5K9",
    "result": []
  },
  {
    "postal": "N7V2V2",
    "result": [
      {
        "electoralDistricts": [
          {
            "election": null,
            "id": 91,
            "setId": 0,
            "name": "Sarnia—Lambton"
          }
        ],
        "pollDivisionIds": [
          10141388
        ],
        "postalCode": "N7V2V2",
        "streetName": "LAKESHORE",
        "streetDirectionId": null,
        "streetTypeId": "RD",
        "placeName": "SARNIA",
        "streetNameDisplayText": "LAKESHORE RD, SARNIA"
      }
    ]
  },
  {
    "postal": "N7V2N9",
    "result": [
      {
        "electoralDistricts": [
          {
            "election": null,
            "id": 91,
            "setId": 0,
            "name": "Sarnia—Lambton"
          }
        ],
        "pollDivisionIds": [
          10141389
        ],
        "postalCode": "N7V2N9",
        "streetName": "CATHCART",
        "streetDirectionId": null,
        "streetTypeId": "BLVD",
        "placeName": "SARNIA",
        "streetNameDisplayText": "CATHCART BLVD, SARNIA"
      }
    ]
  },
  {
    "postal": "N7V6L4",
    "result": []
  },
  {
    "postal": "N7V8E0",
    "result": []
  },
  {
    "postal": "N7V0N0",
    "result": []
  },
  {
    "postal": "N7V6R0",
    "result": []
  },
  {
    "postal": "N7V9C1",
    "result": []
  },
  {
    "postal": "N7V4H4",
    "result": [
      {
        "electoralDistricts": [
          {
            "election": null,
            "id": 91,
            "setId": 0,
            "name": "Sarnia—Lambton"
          }
        ],
        "pollDivisionIds": [
          10141394
        ],
        "postalCode": "N7V4H4",
        "streetName": "ANDREW",
        "streetDirectionId": null,
        "streetTypeId": "CRT",
        "placeName": "SARNIA",
        "streetNameDisplayText": "ANDREW CRT, SARNIA"
      }
    ]
  },
  {
    "postal": "N7V5W3",
    "result": []
  },
  {
    "postal": "N7V9N9",
    "result": []
  },
  {
    "postal": "N7V1V7",
    "result": [
      {
        "electoralDistricts": [
          {
            "election": null,
            "id": 91,
            "setId": 0,
            "name": "Sarnia—Lambton"
          }
        ],
        "pollDivisionIds": [
          10141387
        ],
        "postalCode": "N7V1V7",
        "streetName": "LOUISA",
        "streetDirectionId": null,
        "streetTypeId": "ST",
        "placeName": "POINT EDWARD",
        "streetNameDisplayText": "LOUISA ST, POINT EDWARD"
      }
    ]
  },
  {
    "postal": "N7V8J1",
    "result": []
  },
  {
    "postal": "N7V5V9",
    "result": []
  },
  {
    "postal": "N7V2S8",
    "result": [
      {
        "electoralDistricts": [
          {
            "election": null,
            "id": 91,
            "setId": 0,
            "name": "Sarnia—Lambton"
          }
        ],
        "pollDivisionIds": [
          10141388
        ],
        "postalCode": "N7V2S8",
        "streetName": "LAKESHORE",
        "streetDirectionId": null,
        "streetTypeId": "RD",
        "placeName": "SARNIA",
        "streetNameDisplayText": "LAKESHORE RD, SARNIA"
      }
    ]
  },
  {
    "postal": "N7V6P0",
    "result": []
  },
  {
    "postal": "N7V4J8",
    "result": [
      {
        "electoralDistricts": [
          {
            "election": null,
            "id": 91,
            "setId": 0,
            "name": "Sarnia—Lambton"
          }
        ],
        "pollDivisionIds": [
          10141389
        ],
        "postalCode": "N7V4J8",
        "streetName": "LAKESHORE",
        "streetDirectionId": null,
        "streetTypeId": "RD",
        "placeName": "SARNIA",
        "streetNameDisplayText": "LAKESHORE RD, SARNIA"
      }
    ]
  },
  {
    "postal": "N7V0N1",
    "result": []
  },
  {
    "postal": "N7V1Y7",
    "result": [
      {
        "electoralDistricts": [
          {
            "election": null,
            "id": 91,
            "setId": 0,
            "name": "Sarnia—Lambton"
          }
        ],
        "pollDivisionIds": [
          10141398
        ],
        "postalCode": "N7V1Y7",
        "streetName": "BERKSHIRE",
        "streetDirectionId": null,
        "streetTypeId": "RD",
        "placeName": "SARNIA",
        "streetNameDisplayText": "BERKSHIRE RD, SARNIA"
      }
    ]
  },
  {
    "postal": "N7V7W5",
    "result": []
  },
  {
    "postal": "N7V3Z1",
    "result": [
      {
        "electoralDistricts": [
          {
            "election": null,
            "id": 91,
            "setId": 0,
            "name": "Sarnia—Lambton"
          }
        ],
        "pollDivisionIds": [
          10141388
        ],
        "postalCode": "N7V3Z1",
        "streetName": "EVAN",
        "streetDirectionId": null,
        "streetTypeId": "ST",
        "placeName": "SARNIA",
        "streetNameDisplayText": "EVAN ST, SARNIA"
      }
    ]
  },
  {
    "postal": "N7V7M6",
    "result": []
  },
  {
    "postal": "N7V1W7",
    "result": [
      {
        "electoralDistricts": [
          {
            "election": null,
            "id": 91,
            "setId": 0,
            "name": "Sarnia—Lambton"
          }
        ],
        "pollDivisionIds": [
          10141387
        ],
        "postalCode": "N7V1W7",
        "streetName": "LOUISA",
        "streetDirectionId": null,
        "streetTypeId": "ST",
        "placeName": "POINT EDWARD",
        "streetNameDisplayText": "LOUISA ST, POINT EDWARD"
      }
    ]
  },
  {
    "postal": "N7V1X1",
    "result": [
      {
        "electoralDistricts": [
          {
            "election": null,
            "id": 91,
            "setId": 0,
            "name": "Sarnia—Lambton"
          }
        ],
        "pollDivisionIds": [
          10141387
        ],
        "postalCode": "N7V1X1",
        "streetName": "LOUISA",
        "streetDirectionId": null,
        "streetTypeId": "ST",
        "placeName": "POINT EDWARD",
        "streetNameDisplayText": "LOUISA ST, POINT EDWARD"
      }
    ]
  },
  {
    "postal": "N7V0C1",
    "result": []
  },
  {
    "postal": "N7V4N3",
    "result": []
  },
  {
    "postal": "N7V4S8",
    "result": []
  },
  {
    "postal": "N7V1H6",
    "result": [
      {
        "electoralDistricts": [
          {
            "election": null,
            "id": 91,
            "setId": 0,
            "name": "Sarnia—Lambton"
          }
        ],
        "pollDivisionIds": [
          10141387
        ],
        "postalCode": "N7V1H6",
        "streetName": "VICTORIA",
        "streetDirectionId": null,
        "streetTypeId": "AVE",
        "placeName": "POINT EDWARD",
        "streetNameDisplayText": "VICTORIA AVE, POINT EDWARD"
      }
    ]
  },
  {
    "postal": "N7V2Z4",
    "result": []
  },
  {
    "postal": "N7V7K3",
    "result": []
  },
  {
    "postal": "N7V8A2",
    "result": []
  },
  {
    "postal": "N7V6J1",
    "result": []
  },
  {
    "postal": "N7V5Z6",
    "result": []
  },
  {
    "postal": "N7V3Z0",
    "result": []
  },
  {
    "postal": "N7V8M0",
    "result": []
  },
  {
    "postal": "N7V1Z6",
    "result": [
      {
        "electoralDistricts": [
          {
            "election": null,
            "id": 91,
            "setId": 0,
            "name": "Sarnia—Lambton"
          }
        ],
        "pollDivisionIds": [
          10141398
        ],
        "postalCode": "N7V1Z6",
        "streetName": "ROSEDALE",
        "streetDirectionId": null,
        "streetTypeId": "AVE",
        "placeName": "SARNIA",
        "streetNameDisplayText": "ROSEDALE AVE, SARNIA"
      }
    ]
  },
  {
    "postal": "N7V8K7",
    "result": []
  },
  {
    "postal": "N7V1N3",
    "result": [
      {
        "electoralDistricts": [
          {
            "election": null,
            "id": 91,
            "setId": 0,
            "name": "Sarnia—Lambton"
          }
        ],
        "pollDivisionIds": [
          10141387
        ],
        "postalCode": "N7V1N3",
        "streetName": "ALICE",
        "streetDirectionId": null,
        "streetTypeId": "ST",
        "placeName": "POINT EDWARD",
        "streetNameDisplayText": "ALICE ST, POINT EDWARD"
      }
    ]
  },
  {
    "postal": "N7V9S2",
    "result": []
  },
  {
    "postal": "N7V2K1",
    "result": [
      {
        "electoralDistricts": [
          {
            "election": null,
            "id": 91,
            "setId": 0,
            "name": "Sarnia—Lambton"
          }
        ],
        "pollDivisionIds": [
          10141394
        ],
        "postalCode": "N7V2K1",
        "streetName": "HIGHBURY",
        "streetDirectionId": null,
        "streetTypeId": "PK",
        "placeName": "SARNIA",
        "streetNameDisplayText": "HIGHBURY PK, SARNIA"
      }
    ]
  },
  {
    "postal": "N7V1E8",
    "result": [
      {
        "electoralDistricts": [
          {
            "election": null,
            "id": 91,
            "setId": 0,
            "name": "Sarnia—Lambton"
          }
        ],
        "pollDivisionIds": [
          10141387
        ],
        "postalCode": "N7V1E8",
        "streetName": "MICHIGAN",
        "streetDirectionId": null,
        "streetTypeId": "AVE",
        "placeName": "POINT EDWARD",
        "streetNameDisplayText": "MICHIGAN AVE, POINT EDWARD"
      }
    ]
  },
  {
    "postal": "N7V9B8",
    "result": []
  },
  {
    "postal": "N7V7X4",
    "result": []
  },
  {
    "postal": "N7V1Z4",
    "result": [
      {
        "electoralDistricts": [
          {
            "election": null,
            "id": 91,
            "setId": 0,
            "name": "Sarnia—Lambton"
          }
        ],
        "pollDivisionIds": [
          10141398
        ],
        "postalCode": "N7V1Z4",
        "streetName": "ROSEDALE",
        "streetDirectionId": null,
        "streetTypeId": "AVE",
        "placeName": "SARNIA",
        "streetNameDisplayText": "ROSEDALE AVE, SARNIA"
      }
    ]
  },
  {
    "postal": "N7V2C7",
    "result": [
      {
        "electoralDistricts": [
          {
            "election": null,
            "id": 91,
            "setId": 0,
            "name": "Sarnia—Lambton"
          }
        ],
        "pollDivisionIds": [
          10141398
        ],
        "postalCode": "N7V2C7",
        "streetName": "HALL",
        "streetDirectionId": null,
        "streetTypeId": "ST",
        "placeName": "SARNIA",
        "streetNameDisplayText": "HALL ST, SARNIA"
      }
    ]
  },
  {
    "postal": "N7V2E7",
    "result": [
      {
        "electoralDistricts": [
          {
            "election": null,
            "id": 91,
            "setId": 0,
            "name": "Sarnia—Lambton"
          }
        ],
        "pollDivisionIds": [
          10141398
        ],
        "postalCode": "N7V2E7",
        "streetName": "WOODWARD",
        "streetDirectionId": null,
        "streetTypeId": "CRES",
        "placeName": "SARNIA",
        "streetNameDisplayText": "WOODWARD CRES, SARNIA"
      }
    ]
  },
  {
    "postal": "N7V3R1",
    "result": [
      {
        "electoralDistricts": [
          {
            "election": null,
            "id": 91,
            "setId": 0,
            "name": "Sarnia—Lambton"
          }
        ],
        "pollDivisionIds": [
          10141394
        ],
        "postalCode": "N7V3R1",
        "streetName": "RIDGEWOOD",
        "streetDirectionId": null,
        "streetTypeId": "DR",
        "placeName": "SARNIA",
        "streetNameDisplayText": "RIDGEWOOD DR, SARNIA"
      }
    ]
  },
  {
    "postal": "N7V4K4",
    "result": [
      {
        "electoralDistricts": [
          {
            "election": null,
            "id": 91,
            "setId": 0,
            "name": "Sarnia—Lambton"
          }
        ],
        "pollDivisionIds": [
          10141387
        ],
        "postalCode": "N7V4K4",
        "streetName": "FRONT",
        "streetDirectionId": null,
        "streetTypeId": "ST",
        "placeName": "POINT EDWARD",
        "streetNameDisplayText": "FRONT ST, POINT EDWARD"
      }
    ]
  },
  {
    "postal": "N7V9G3",
    "result": []
  },
  {
    "postal": "N7V6C9",
    "result": []
  },
  {
    "postal": "N7V9H5",
    "result": []
  },
  {
    "postal": "N7V1P5",
    "result": [
      {
        "electoralDistricts": [
          {
            "election": null,
            "id": 91,
            "setId": 0,
            "name": "Sarnia—Lambton"
          }
        ],
        "pollDivisionIds": [
          10141387
        ],
        "postalCode": "N7V1P5",
        "streetName": "MAUD",
        "streetDirectionId": null,
        "streetTypeId": "ST",
        "placeName": "POINT EDWARD",
        "streetNameDisplayText": "MAUD ST, POINT EDWARD"
      }
    ]
  },
  {
    "postal": "N7V2J5",
    "result": [
      {
        "electoralDistricts": [
          {
            "election": null,
            "id": 91,
            "setId": 0,
            "name": "Sarnia—Lambton"
          }
        ],
        "pollDivisionIds": [
          10141394
        ],
        "postalCode": "N7V2J5",
        "streetName": "FLAMINGO",
        "streetDirectionId": null,
        "streetTypeId": "DR",
        "placeName": "SARNIA",
        "streetNameDisplayText": "FLAMINGO DR, SARNIA"
      }
    ]
  },
  {
    "postal": "N7V4W6",
    "result": []
  },
  {
    "postal": "N7V8M8",
    "result": []
  },
  {
    "postal": "N7V6C5",
    "result": []
  },
  {
    "postal": "N7V9H0",
    "result": []
  },
  {
    "postal": "N7V1X8",
    "result": [
      {
        "electoralDistricts": [
          {
            "election": null,
            "id": 91,
            "setId": 0,
            "name": "Sarnia—Lambton"
          }
        ],
        "pollDivisionIds": [
          10141398
        ],
        "postalCode": "N7V1X8",
        "streetName": "GUTHRIE",
        "streetDirectionId": "W",
        "streetTypeId": "DR",
        "placeName": "SARNIA",
        "streetNameDisplayText": "GUTHRIE DR W, SARNIA"
      }
    ]
  },
  {
    "postal": "N7V3H4",
    "result": [
      {
        "electoralDistricts": [
          {
            "election": null,
            "id": 91,
            "setId": 0,
            "name": "Sarnia—Lambton"
          }
        ],
        "pollDivisionIds": [
          10141388
        ],
        "postalCode": "N7V3H4",
        "streetName": "EGMOND",
        "streetDirectionId": null,
        "streetTypeId": "DR",
        "placeName": "SARNIA",
        "streetNameDisplayText": "EGMOND DR, SARNIA"
      }
    ]
  },
  {
    "postal": "N7V4E7",
    "result": [
      {
        "electoralDistricts": [
          {
            "election": null,
            "id": 91,
            "setId": 0,
            "name": "Sarnia—Lambton"
          }
        ],
        "pollDivisionIds": [
          10141389
        ],
        "postalCode": "N7V4E7",
        "streetName": "HANSARD",
        "streetDirectionId": null,
        "streetTypeId": "ST",
        "placeName": "SARNIA",
        "streetNameDisplayText": "HANSARD ST, SARNIA"
      }
    ]
  },
  {
    "postal": "N7V8A0",
    "result": []
  },
  {
    "postal": "N7V1Z7",
    "result": [
      {
        "electoralDistricts": [
          {
            "election": null,
            "id": 91,
            "setId": 0,
            "name": "Sarnia—Lambton"
          }
        ],
        "pollDivisionIds": [
          10141398
        ],
        "postalCode": "N7V1Z7",
        "streetName": "ROSEDALE",
        "streetDirectionId": null,
        "streetTypeId": "AVE",
        "placeName": "SARNIA",
        "streetNameDisplayText": "ROSEDALE AVE, SARNIA"
      }
    ]
  },
  {
    "postal": "N7V7Z3",
    "result": []
  },
  {
    "postal": "N7V0L7",
    "result": []
  },
  {
    "postal": "N7V2C6",
    "result": [
      {
        "electoralDistricts": [
          {
            "election": null,
            "id": 91,
            "setId": 0,
            "name": "Sarnia—Lambton"
          }
        ],
        "pollDivisionIds": [
          10141398
        ],
        "postalCode": "N7V2C6",
        "streetName": "HALL",
        "streetDirectionId": null,
        "streetTypeId": "ST",
        "placeName": "SARNIA",
        "streetNameDisplayText": "HALL ST, SARNIA"
      }
    ]
  },
  {
    "postal": "N7V6M3",
    "result": []
  },
  {
    "postal": "N7V2J1",
    "result": [
      {
        "electoralDistricts": [
          {
            "election": null,
            "id": 91,
            "setId": 0,
            "name": "Sarnia—Lambton"
          }
        ],
        "pollDivisionIds": [
          10141394
        ],
        "postalCode": "N7V2J1",
        "streetName": "HOLLYWOOD",
        "streetDirectionId": null,
        "streetTypeId": "PL",
        "placeName": "SARNIA",
        "streetNameDisplayText": "HOLLYWOOD PL, SARNIA"
      }
    ]
  },
  {
    "postal": "N7V3E3",
    "result": [
      {
        "electoralDistricts": [
          {
            "election": null,
            "id": 91,
            "setId": 0,
            "name": "Sarnia—Lambton"
          }
        ],
        "pollDivisionIds": [
          10141387
        ],
        "postalCode": "N7V3E3",
        "streetName": "CHRISTINA",
        "streetDirectionId": "N",
        "streetTypeId": "ST",
        "placeName": "SARNIA",
        "streetNameDisplayText": "CHRISTINA ST N, SARNIA"
      }
    ]
  },
  {
    "postal": "N7V6Z9",
    "result": []
  },
  {
    "postal": "N7V3M3",
    "result": [
      {
        "electoralDistricts": [
          {
            "election": null,
            "id": 91,
            "setId": 0,
            "name": "Sarnia—Lambton"
          }
        ],
        "pollDivisionIds": [
          10141388
        ],
        "postalCode": "N7V3M3",
        "streetName": "COLBORNE",
        "streetDirectionId": null,
        "streetTypeId": "RD",
        "placeName": "SARNIA",
        "streetNameDisplayText": "COLBORNE RD, SARNIA"
      }
    ]
  },
  {
    "postal": "N7V9B1",
    "result": []
  },
  {
    "postal": "N7V9J5",
    "result": []
  },
  {
    "postal": "N7V4V8",
    "result": []
  },
  {
    "postal": "N7V6W2",
    "result": []
  },
  {
    "postal": "N7V0V5",
    "result": []
  },
  {
    "postal": "N7V0Z8",
    "result": []
  },
  {
    "postal": "N7V5G2",
    "result": []
  },
  {
    "postal": "N7V4N4",
    "result": []
  },
  {
    "postal": "N7V8G7",
    "result": []
  },
  {
    "postal": "N7V8W1",
    "result": []
  },
  {
    "postal": "N7V1S6",
    "result": [
      {
        "electoralDistricts": [
          {
            "election": null,
            "id": 91,
            "setId": 0,
            "name": "Sarnia—Lambton"
          }
        ],
        "pollDivisionIds": [
          10141387
        ],
        "postalCode": "N7V1S6",
        "streetName": "ALFRED",
        "streetDirectionId": null,
        "streetTypeId": "ST",
        "placeName": "POINT EDWARD",
        "streetNameDisplayText": "ALFRED ST, POINT EDWARD"
      }
    ]
  },
  {
    "postal": "N7V4E0",
    "result": []
  },
  {
    "postal": "N7V4L9",
    "result": []
  },
  {
    "postal": "N7V5Z9",
    "result": []
  },
  {
    "postal": "N7V5V3",
    "result": []
  },
  {
    "postal": "N7V4V2",
    "result": []
  },
  {
    "postal": "N7V7C0",
    "result": []
  },
  {
    "postal": "N7V6L0",
    "result": []
  },
  {
    "postal": "N7V1S9",
    "result": [
      {
        "electoralDistricts": [
          {
            "election": null,
            "id": 91,
            "setId": 0,
            "name": "Sarnia—Lambton"
          }
        ],
        "pollDivisionIds": [
          10141387
        ],
        "postalCode": "N7V1S9",
        "streetName": "ALFRED",
        "streetDirectionId": null,
        "streetTypeId": "ST",
        "placeName": "POINT EDWARD",
        "streetNameDisplayText": "ALFRED ST, POINT EDWARD"
      }
    ]
  },
  {
    "postal": "N7V7R6",
    "result": []
  },
  {
    "postal": "N7V7J0",
    "result": []
  },
  {
    "postal": "N7V5M0",
    "result": []
  },
  {
    "postal": "N7V2E5",
    "result": [
      {
        "electoralDistricts": [
          {
            "election": null,
            "id": 91,
            "setId": 0,
            "name": "Sarnia—Lambton"
          }
        ],
        "pollDivisionIds": [
          10141398
        ],
        "postalCode": "N7V2E5",
        "streetName": "WOODWARD",
        "streetDirectionId": null,
        "streetTypeId": "CRES",
        "placeName": "SARNIA",
        "streetNameDisplayText": "WOODWARD CRES, SARNIA"
      }
    ]
  },
  {
    "postal": "N7V7C7",
    "result": []
  },
  {
    "postal": "N7V5C0",
    "result": []
  },
  {
    "postal": "N7V8V9",
    "result": []
  },
  {
    "postal": "N7V7E0",
    "result": []
  },
  {
    "postal": "N7V6R4",
    "result": []
  },
  {
    "postal": "N7V3Z7",
    "result": [
      {
        "electoralDistricts": [
          {
            "election": null,
            "id": 91,
            "setId": 0,
            "name": "Sarnia—Lambton"
          }
        ],
        "pollDivisionIds": [
          10141398
        ],
        "postalCode": "N7V3Z7",
        "streetName": "BRIARFIELD",
        "streetDirectionId": null,
        "streetTypeId": "AVE",
        "placeName": "SARNIA",
        "streetNameDisplayText": "BRIARFIELD AVE, SARNIA"
      }
    ]
  },
  {
    "postal": "N7V1J9",
    "result": [
      {
        "electoralDistricts": [
          {
            "election": null,
            "id": 91,
            "setId": 0,
            "name": "Sarnia—Lambton"
          }
        ],
        "pollDivisionIds": [
          10141387
        ],
        "postalCode": "N7V1J9",
        "streetName": "VICTORIA",
        "streetDirectionId": null,
        "streetTypeId": "AVE",
        "placeName": "POINT EDWARD",
        "streetNameDisplayText": "VICTORIA AVE, POINT EDWARD"
      }
    ]
  },
  {
    "postal": "N7V7K6",
    "result": []
  },
  {
    "postal": "N7V7Y5",
    "result": []
  },
  {
    "postal": "N7V1B7",
    "result": [
      {
        "electoralDistricts": [
          {
            "election": null,
            "id": 91,
            "setId": 0,
            "name": "Sarnia—Lambton"
          }
        ],
        "pollDivisionIds": [
          10141387
        ],
        "postalCode": "N7V1B7",
        "streetName": "CHARLES",
        "streetDirectionId": null,
        "streetTypeId": "ST",
        "placeName": "POINT EDWARD",
        "streetNameDisplayText": "CHARLES ST, POINT EDWARD"
      }
    ]
  },
  {
    "postal": "N7V4S9",
    "result": []
  },
  {
    "postal": "N7V9R9",
    "result": []
  },
  {
    "postal": "N7V5K7",
    "result": []
  },
  {
    "postal": "N7V6P2",
    "result": []
  },
  {
    "postal": "N7V2C5",
    "result": [
      {
        "electoralDistricts": [
          {
            "election": null,
            "id": 91,
            "setId": 0,
            "name": "Sarnia—Lambton"
          }
        ],
        "pollDivisionIds": [
          10141398
        ],
        "postalCode": "N7V2C5",
        "streetName": "HALL",
        "streetDirectionId": null,
        "streetTypeId": "ST",
        "placeName": "SARNIA",
        "streetNameDisplayText": "HALL ST, SARNIA"
      }
    ]
  },
  {
    "postal": "N7V2N0",
    "result": []
  },
  {
    "postal": "N7V1G0",
    "result": []
  },
  {
    "postal": "N7V4K5",
    "result": [
      {
        "electoralDistricts": [
          {
            "election": null,
            "id": 91,
            "setId": 0,
            "name": "Sarnia—Lambton"
          }
        ],
        "pollDivisionIds": [
          10141427
        ],
        "postalCode": "N7V4K5",
        "streetName": "SANDY",
        "streetDirectionId": null,
        "streetTypeId": "LANE",
        "placeName": "SARNIA",
        "streetNameDisplayText": "SANDY LANE, SARNIA"
      }
    ]
  },
  {
    "postal": "N7V9B5",
    "result": []
  },
  {
    "postal": "N7V6T5",
    "result": []
  },
  {
    "postal": "N7V1N8",
    "result": [
      {
        "electoralDistricts": [
          {
            "election": null,
            "id": 91,
            "setId": 0,
            "name": "Sarnia—Lambton"
          }
        ],
        "pollDivisionIds": [
          10141397
        ],
        "postalCode": "N7V1N8",
        "streetName": "ST CLAIR",
        "streetDirectionId": null,
        "streetTypeId": "ST",
        "placeName": "POINT EDWARD",
        "streetNameDisplayText": "ST CLAIR ST, POINT EDWARD"
      },
      {
        "electoralDistricts": [
          {
            "election": null,
            "id": 91,
            "setId": 0,
            "name": "Sarnia—Lambton"
          }
        ],
        "pollDivisionIds": [
          10141397
        ],
        "postalCode": "N7V1N8",
        "streetName": "ST. CLAIR",
        "streetDirectionId": null,
        "streetTypeId": "ST",
        "placeName": "POINT EDWARD",
        "streetNameDisplayText": "ST. CLAIR ST, POINT EDWARD"
      }
    ]
  },
  {
    "postal": "N7V0C0",
    "result": []
  },
  {
    "postal": "N7V0R9",
    "result": []
  },
  {
    "postal": "N7V7L1",
    "result": []
  },
  {
    "postal": "N7V3Y8",
    "result": [
      {
        "electoralDistricts": [
          {
            "election": null,
            "id": 91,
            "setId": 0,
            "name": "Sarnia—Lambton"
          }
        ],
        "pollDivisionIds": [
          10141389
        ],
        "postalCode": "N7V3Y8",
        "streetName": "HOWSTON",
        "streetDirectionId": null,
        "streetTypeId": "AVE",
        "placeName": "SARNIA",
        "streetNameDisplayText": "HOWSTON AVE, SARNIA"
      }
    ]
  },
  {
    "postal": "N7V7X9",
    "result": []
  },
  {
    "postal": "N7V1A7",
    "result": [
      {
        "electoralDistricts": [
          {
            "election": null,
            "id": 91,
            "setId": 0,
            "name": "Sarnia—Lambton"
          }
        ],
        "pollDivisionIds": [
          10141387
        ],
        "postalCode": "N7V1A7",
        "streetName": "LITE",
        "streetDirectionId": null,
        "streetTypeId": "ST",
        "placeName": "POINT EDWARD",
        "streetNameDisplayText": "LITE ST, POINT EDWARD"
      }
    ]
  },
  {
    "postal": "N7V2T9",
    "result": [
      {
        "electoralDistricts": [
          {
            "election": null,
            "id": 91,
            "setId": 0,
            "name": "Sarnia—Lambton"
          }
        ],
        "pollDivisionIds": [
          10141389
        ],
        "postalCode": "N7V2T9",
        "streetName": "LAKESHORE",
        "streetDirectionId": null,
        "streetTypeId": "RD",
        "placeName": "SARNIA",
        "streetNameDisplayText": "LAKESHORE RD, SARNIA"
      }
    ]
  },
  {
    "postal": "N7V2E6",
    "result": [
      {
        "electoralDistricts": [
          {
            "election": null,
            "id": 91,
            "setId": 0,
            "name": "Sarnia—Lambton"
          }
        ],
        "pollDivisionIds": [
          10141398
        ],
        "postalCode": "N7V2E6",
        "streetName": "WOODWARD",
        "streetDirectionId": null,
        "streetTypeId": "CRES",
        "placeName": "SARNIA",
        "streetNameDisplayText": "WOODWARD CRES, SARNIA"
      }
    ]
  },
  {
    "postal": "N7V8Y1",
    "result": []
  },
  {
    "postal": "N7V0J5",
    "result": []
  },
  {
    "postal": "N7V4J1",
    "result": [
      {
        "electoralDistricts": [
          {
            "election": null,
            "id": 91,
            "setId": 0,
            "name": "Sarnia—Lambton"
          }
        ],
        "pollDivisionIds": [
          10141389
        ],
        "postalCode": "N7V4J1",
        "streetName": "RIDING CLUB",
        "streetDirectionId": null,
        "streetTypeId": "LANE",
        "placeName": "SARNIA",
        "streetNameDisplayText": "RIDING CLUB LANE, SARNIA"
      }
    ]
  },
  {
    "postal": "N7V1A5",
    "result": [
      {
        "electoralDistricts": [
          {
            "election": null,
            "id": 91,
            "setId": 0,
            "name": "Sarnia—Lambton"
          }
        ],
        "pollDivisionIds": [
          10141387
        ],
        "postalCode": "N7V1A5",
        "streetName": "LITE",
        "streetDirectionId": null,
        "streetTypeId": "ST",
        "placeName": "POINT EDWARD",
        "streetNameDisplayText": "LITE ST, POINT EDWARD"
      }
    ]
  },
  {
    "postal": "N7V6Z6",
    "result": []
  },
  {
    "postal": "N7V5K4",
    "result": []
  },
  {
    "postal": "N7V7R9",
    "result": []
  },
  {
    "postal": "N7V6G4",
    "result": []
  }
]
