[
  {
    "postal": "K2C9J6",
    "result": []
  },
  {
    "postal": "K2C9Z5",
    "result": []
  },
  {
    "postal": "K2C7H8",
    "result": []
  },
  {
    "postal": "K2C0P6",
    "result": [
      {
        "electoralDistricts": [
          {
            "election": null,
            "id": 78,
            "name": "Ottawa Centre"
          }
        ],
        "pollDivisionIds": [
          10140564
        ],
        "postalCode": "K2C0P6",
        "streetName": "MELFA",
        "streetDirectionId": null,
        "streetTypeId": "CRES",
        "placeName": "OTTAWA",
        "streetNameDisplayText": "MELFA CRES, OTTAWA"
      }
    ]
  },
  {
    "postal": "K2C0S7",
    "result": [
      {
        "electoralDistricts": [
          {
            "election": null,
            "id": 81,
            "name": "Ottawa West—Nepean"
          }
        ],
        "pollDivisionIds": [
          10140840
        ],
        "postalCode": "K2C0S7",
        "streetName": "AINSLEY",
        "streetDirectionId": null,
        "streetTypeId": "DR",
        "placeName": "OTTAWA",
        "streetNameDisplayText": "AINSLEY DR, OTTAWA"
      }
    ]
  },
  {
    "postal": "K2C8B9",
    "result": []
  },
  {
    "postal": "K2C2A6",
    "result": [
      {
        "electoralDistricts": [
          {
            "election": null,
            "id": 81,
            "name": "Ottawa West—Nepean"
          }
        ],
        "pollDivisionIds": [
          10140841
        ],
        "postalCode": "K2C2A6",
        "streetName": "GREYROCK",
        "streetDirectionId": null,
        "streetTypeId": "CRES",
        "placeName": "OTTAWA",
        "streetNameDisplayText": "GREYROCK CRES, OTTAWA"
      }
    ]
  },
  {
    "postal": "K2C7V2",
    "result": []
  },
  {
    "postal": "K2C9P4",
    "result": []
  },
  {
    "postal": "K2C6G0",
    "result": []
  },
  {
    "postal": "K2C2K0",
    "result": []
  },
  {
    "postal": "K2C7N6",
    "result": []
  },
  {
    "postal": "K2C5R3",
    "result": []
  },
  {
    "postal": "K2C7K0",
    "result": []
  },
  {
    "postal": "K2C3R2",
    "result": [
      {
        "electoralDistricts": [
          {
            "election": null,
            "id": 78,
            "name": "Ottawa Centre"
          }
        ],
        "pollDivisionIds": [
          10140564
        ],
        "postalCode": "K2C3R2",
        "streetName": "MEADOWLANDS",
        "streetDirectionId": null,
        "streetTypeId": "DR",
        "placeName": "OTTAWA",
        "streetNameDisplayText": "MEADOWLANDS DR, OTTAWA"
      }
    ]
  },
  {
    "postal": "K2C0J1",
    "result": [
      {
        "electoralDistricts": [
          {
            "election": null,
            "id": 78,
            "name": "Ottawa Centre"
          }
        ],
        "pollDivisionIds": [
          10140557
        ],
        "postalCode": "K2C0J1",
        "streetName": "EIFFEL",
        "streetDirectionId": null,
        "streetTypeId": "AVE",
        "placeName": "OTTAWA",
        "streetNameDisplayText": "EIFFEL AVE, OTTAWA"
      }
    ]
  },
  {
    "postal": "K2C0B0",
    "result": []
  },
  {
    "postal": "K2C5Z2",
    "result": []
  },
  {
    "postal": "K2C7P3",
    "result": []
  },
  {
    "postal": "K2C2K3",
    "result": [
      {
        "electoralDistricts": [
          {
            "election": null,
            "id": 81,
            "name": "Ottawa West—Nepean"
          }
        ],
        "pollDivisionIds": [
          10140840
        ],
        "postalCode": "K2C2K3",
        "streetName": "HEATHER",
        "streetDirectionId": null,
        "streetTypeId": "WAY",
        "placeName": "OTTAWA",
        "streetNameDisplayText": "HEATHER WAY, OTTAWA"
      }
    ]
  },
  {
    "postal": "K2C7Y6",
    "result": []
  },
  {
    "postal": "K2C1L9",
    "result": [
      {
        "electoralDistricts": [
          {
            "election": null,
            "id": 81,
            "name": "Ottawa West—Nepean"
          }
        ],
        "pollDivisionIds": [
          10140833
        ],
        "postalCode": "K2C1L9",
        "streetName": "SUDBURY",
        "streetDirectionId": null,
        "streetTypeId": "AVE",
        "placeName": "OTTAWA",
        "streetNameDisplayText": "SUDBURY AVE, OTTAWA"
      }
    ]
  },
  {
    "postal": "K2C8T0",
    "result": []
  },
  {
    "postal": "K2C3K8",
    "result": []
  },
  {
    "postal": "K2C5W9",
    "result": []
  },
  {
    "postal": "K2C6T9",
    "result": []
  },
  {
    "postal": "K2C4H1",
    "result": [
      {
        "electoralDistricts": [
          {
            "election": null,
            "id": 78,
            "name": "Ottawa Centre"
          }
        ],
        "pollDivisionIds": [
          10140564
        ],
        "postalCode": "K2C4H1",
        "streetName": "KOCHAR",
        "streetDirectionId": null,
        "streetTypeId": "DR",
        "placeName": "OTTAWA",
        "streetNameDisplayText": "KOCHAR DR, OTTAWA"
      }
    ]
  },
  {
    "postal": "K2C7A2",
    "result": []
  },
  {
    "postal": "K2C5G0",
    "result": []
  },
  {
    "postal": "K2C8V5",
    "result": []
  },
  {
    "postal": "K2C2Y8",
    "result": [
      {
        "electoralDistricts": [
          {
            "election": null,
            "id": 81,
            "name": "Ottawa West—Nepean"
          }
        ],
        "pollDivisionIds": [
          10140833
        ],
        "postalCode": "K2C2Y8",
        "streetName": "BLOOMSBURY",
        "streetDirectionId": null,
        "streetTypeId": "CRES",
        "placeName": "OTTAWA",
        "streetNameDisplayText": "BLOOMSBURY CRES, OTTAWA"
      }
    ]
  },
  {
    "postal": "K2C2B6",
    "result": [
      {
        "electoralDistricts": [
          {
            "election": null,
            "id": 81,
            "name": "Ottawa West—Nepean"
          }
        ],
        "pollDivisionIds": [
          10140837
        ],
        "postalCode": "K2C2B6",
        "streetName": "MAITLAND",
        "streetDirectionId": null,
        "streetTypeId": "AVE",
        "placeName": "OTTAWA",
        "streetNameDisplayText": "MAITLAND AVE, OTTAWA"
      }
    ]
  },
  {
    "postal": "K2C4W8",
    "result": []
  },
  {
    "postal": "K2C8H7",
    "result": []
  },
  {
    "postal": "K2C5P1",
    "result": []
  },
  {
    "postal": "K2C2B8",
    "result": [
      {
        "electoralDistricts": [
          {
            "election": null,
            "id": 81,
            "name": "Ottawa West—Nepean"
          }
        ],
        "pollDivisionIds": [
          10140841
        ],
        "postalCode": "K2C2B8",
        "streetName": "MAITLAND",
        "streetDirectionId": null,
        "streetTypeId": "AVE",
        "placeName": "OTTAWA",
        "streetNameDisplayText": "MAITLAND AVE, OTTAWA"
      }
    ]
  },
  {
    "postal": "K2C0P2",
    "result": [
      {
        "electoralDistricts": [
          {
            "election": null,
            "id": 78,
            "name": "Ottawa Centre"
          }
        ],
        "pollDivisionIds": [
          10140564
        ],
        "postalCode": "K2C0P2",
        "streetName": "MELFA",
        "streetDirectionId": null,
        "streetTypeId": "CRES",
        "placeName": "OTTAWA",
        "streetNameDisplayText": "MELFA CRES, OTTAWA"
      }
    ]
  },
  {
    "postal": "K2C9M1",
    "result": []
  },
  {
    "postal": "K2C3G0",
    "result": []
  },
  {
    "postal": "K2C9Z2",
    "result": []
  },
  {
    "postal": "K2C2A0",
    "result": []
  },
  {
    "postal": "K2C6Y0",
    "result": []
  },
  {
    "postal": "K2C2Z8",
    "result": [
      {
        "electoralDistricts": [
          {
            "election": null,
            "id": 81,
            "name": "Ottawa West—Nepean"
          }
        ],
        "pollDivisionIds": [
          10140833
        ],
        "postalCode": "K2C2Z8",
        "streetName": "COBDEN",
        "streetDirectionId": null,
        "streetTypeId": "RD",
        "placeName": "OTTAWA",
        "streetNameDisplayText": "COBDEN RD, OTTAWA"
      }
    ]
  },
  {
    "postal": "K2C7Y3",
    "result": []
  },
  {
    "postal": "K2C6Z5",
    "result": []
  },
  {
    "postal": "K2C6E0",
    "result": []
  },
  {
    "postal": "K2C9B7",
    "result": []
  },
  {
    "postal": "K2C9S5",
    "result": []
  },
  {
    "postal": "K2C3X3",
    "result": []
  },
  {
    "postal": "K2C7R5",
    "result": []
  },
  {
    "postal": "K2C2X3",
    "result": [
      {
        "electoralDistricts": [
          {
            "election": null,
            "id": 81,
            "name": "Ottawa West—Nepean"
          }
        ],
        "pollDivisionIds": [
          10140833
        ],
        "postalCode": "K2C2X3",
        "streetName": "KINGSLEY",
        "streetDirectionId": null,
        "streetTypeId": "RD",
        "placeName": "OTTAWA",
        "streetNameDisplayText": "KINGSLEY RD, OTTAWA"
      }
    ]
  },
  {
    "postal": "K2C8Z9",
    "result": []
  },
  {
    "postal": "K2C0N4",
    "result": [
      {
        "electoralDistricts": [
          {
            "election": null,
            "id": 78,
            "name": "Ottawa Centre"
          }
        ],
        "pollDivisionIds": [
          10140564
        ],
        "postalCode": "K2C0N4",
        "streetName": "NORMANDY",
        "streetDirectionId": null,
        "streetTypeId": "CRES",
        "placeName": "OTTAWA",
        "streetNameDisplayText": "NORMANDY CRES, OTTAWA"
      }
    ]
  },
  {
    "postal": "K2C1K1",
    "result": [
      {
        "electoralDistricts": [
          {
            "election": null,
            "id": 81,
            "name": "Ottawa West—Nepean"
          }
        ],
        "pollDivisionIds": [
          10140833
        ],
        "postalCode": "K2C1K1",
        "streetName": "TOBIN",
        "streetDirectionId": null,
        "streetTypeId": "AVE",
        "placeName": "OTTAWA",
        "streetNameDisplayText": "TOBIN AVE, OTTAWA"
      }
    ]
  },
  {
    "postal": "K2C1S3",
    "result": [
      {
        "electoralDistricts": [
          {
            "election": null,
            "id": 78,
            "name": "Ottawa Centre"
          }
        ],
        "pollDivisionIds": [
          10140557
        ],
        "postalCode": "K2C1S3",
        "streetName": "BELLAMY",
        "streetDirectionId": null,
        "streetTypeId": "ST",
        "placeName": "OTTAWA",
        "streetNameDisplayText": "BELLAMY ST, OTTAWA"
      }
    ]
  },
  {
    "postal": "K2C6M4",
    "result": []
  },
  {
    "postal": "K2C9A9",
    "result": []
  },
  {
    "postal": "K2C9Z9",
    "result": []
  },
  {
    "postal": "K2C6T4",
    "result": []
  },
  {
    "postal": "K2C0B2",
    "result": [
      {
        "electoralDistricts": [
          {
            "election": null,
            "id": 81,
            "name": "Ottawa West—Nepean"
          }
        ],
        "pollDivisionIds": [
          10140842,
          10140847
        ],
        "postalCode": "K2C0B2",
        "streetName": "BASELINE",
        "streetDirectionId": null,
        "streetTypeId": "RD",
        "placeName": "OTTAWA",
        "streetNameDisplayText": "BASELINE RD, OTTAWA"
      }
    ]
  },
  {
    "postal": "K2C2L9",
    "result": [
      {
        "electoralDistricts": [
          {
            "election": null,
            "id": 81,
            "name": "Ottawa West—Nepean"
          }
        ],
        "pollDivisionIds": [
          10140840
        ],
        "postalCode": "K2C2L9",
        "streetName": "ALBANY",
        "streetDirectionId": null,
        "streetTypeId": "DR",
        "placeName": "OTTAWA",
        "streetNameDisplayText": "ALBANY DR, OTTAWA"
      }
    ]
  },
  {
    "postal": "K2C8K9",
    "result": []
  },
  {
    "postal": "K2C2H9",
    "result": [
      {
        "electoralDistricts": [
          {
            "election": null,
            "id": 81,
            "name": "Ottawa West—Nepean"
          }
        ],
        "pollDivisionIds": [
          10140840
        ],
        "postalCode": "K2C2H9",
        "streetName": "AGINCOURT",
        "streetDirectionId": null,
        "streetTypeId": "RD",
        "placeName": "OTTAWA",
        "streetNameDisplayText": "AGINCOURT RD, OTTAWA"
      }
    ]
  },
  {
    "postal": "K2C3Z6",
    "result": [
      {
        "electoralDistricts": [
          {
            "election": null,
            "id": 81,
            "name": "Ottawa West—Nepean"
          }
        ],
        "pollDivisionIds": [
          10140839
        ],
        "postalCode": "K2C3Z6",
        "streetName": "BASELINE",
        "streetDirectionId": null,
        "streetTypeId": "RD",
        "placeName": "OTTAWA",
        "streetNameDisplayText": "BASELINE RD, OTTAWA"
      }
    ]
  },
  {
    "postal": "K2C3B0",
    "result": []
  },
  {
    "postal": "K2C2H8",
    "result": [
      {
        "electoralDistricts": [
          {
            "election": null,
            "id": 81,
            "name": "Ottawa West—Nepean"
          }
        ],
        "pollDivisionIds": [
          10140841,
          10140840
        ],
        "postalCode": "K2C2H8",
        "streetName": "AGINCOURT",
        "streetDirectionId": null,
        "streetTypeId": "RD",
        "placeName": "OTTAWA",
        "streetNameDisplayText": "AGINCOURT RD, OTTAWA"
      }
    ]
  },
  {
    "postal": "K2C3X2",
    "result": []
  },
  {
    "postal": "K2C2E9",
    "result": [
      {
        "electoralDistricts": [
          {
            "election": null,
            "id": 81,
            "name": "Ottawa West—Nepean"
          }
        ],
        "pollDivisionIds": [
          10140840
        ],
        "postalCode": "K2C2E9",
        "streetName": "AMESBROOKE",
        "streetDirectionId": null,
        "streetTypeId": "DR",
        "placeName": "OTTAWA",
        "streetNameDisplayText": "AMESBROOKE DR, OTTAWA"
      }
    ]
  },
  {
    "postal": "K2C9P6",
    "result": []
  },
  {
    "postal": "K2C9E2",
    "result": []
  },
  {
    "postal": "K2C9H2",
    "result": []
  },
  {
    "postal": "K2C1S8",
    "result": [
      {
        "electoralDistricts": [
          {
            "election": null,
            "id": 78,
            "name": "Ottawa Centre"
          }
        ],
        "pollDivisionIds": [
          10140557
        ],
        "postalCode": "K2C1S8",
        "streetName": "CLAYMOR",
        "streetDirectionId": null,
        "streetTypeId": "AVE",
        "placeName": "OTTAWA",
        "streetNameDisplayText": "CLAYMOR AVE, OTTAWA"
      }
    ]
  },
  {
    "postal": "K2C3M6",
    "result": [
      {
        "electoralDistricts": [
          {
            "election": null,
            "id": 78,
            "name": "Ottawa Centre"
          }
        ],
        "pollDivisionIds": [
          10140557
        ],
        "postalCode": "K2C3M6",
        "streetName": "KINTYRE",
        "streetDirectionId": null,
        "streetTypeId": "PVT",
        "placeName": "OTTAWA",
        "streetNameDisplayText": "KINTYRE PVT, OTTAWA"
      }
    ]
  },
  {
    "postal": "K2C6Z8",
    "result": []
  },
  {
    "postal": "K2C4J2",
    "result": [
      {
        "electoralDistricts": [
          {
            "election": null,
            "id": 78,
            "name": "Ottawa Centre"
          }
        ],
        "pollDivisionIds": [
          10140564
        ],
        "postalCode": "K2C4J2",
        "streetName": "MADHU",
        "streetDirectionId": null,
        "streetTypeId": "CRES",
        "placeName": "OTTAWA",
        "streetNameDisplayText": "MADHU CRES, OTTAWA"
      }
    ]
  },
  {
    "postal": "K2C9Y1",
    "result": []
  },
  {
    "postal": "K2C8V6",
    "result": []
  },
  {
    "postal": "K2C6B2",
    "result": []
  },
  {
    "postal": "K2C1P8",
    "result": [
      {
        "electoralDistricts": [
          {
            "election": null,
            "id": 78,
            "name": "Ottawa Centre"
          }
        ],
        "pollDivisionIds": [
          10140554
        ],
        "postalCode": "K2C1P8",
        "streetName": "LAMPMAN",
        "streetDirectionId": null,
        "streetTypeId": "CRES",
        "placeName": "OTTAWA",
        "streetNameDisplayText": "LAMPMAN CRES, OTTAWA"
      }
    ]
  },
  {
    "postal": "K2C0V8",
    "result": [
      {
        "electoralDistricts": [
          {
            "election": null,
            "id": 81,
            "name": "Ottawa West—Nepean"
          }
        ],
        "pollDivisionIds": [
          10140840
        ],
        "postalCode": "K2C0V8",
        "streetName": "NAVAHO",
        "streetDirectionId": null,
        "streetTypeId": "DR",
        "placeName": "OTTAWA",
        "streetNameDisplayText": "NAVAHO DR, OTTAWA"
      }
    ]
  },
  {
    "postal": "K2C4Y0",
    "result": []
  },
  {
    "postal": "K2C2T4",
    "result": [
      {
        "electoralDistricts": [
          {
            "election": null,
            "id": 81,
            "name": "Ottawa West—Nepean"
          }
        ],
        "pollDivisionIds": [
          10140837
        ],
        "postalCode": "K2C2T4",
        "streetName": "WOODROFFE",
        "streetDirectionId": null,
        "streetTypeId": "AVE",
        "placeName": "OTTAWA",
        "streetNameDisplayText": "WOODROFFE AVE, OTTAWA"
      }
    ]
  },
  {
    "postal": "K2C2S3",
    "result": [
      {
        "electoralDistricts": [
          {
            "election": null,
            "id": 81,
            "name": "Ottawa West—Nepean"
          }
        ],
        "pollDivisionIds": [
          10140837
        ],
        "postalCode": "K2C2S3",
        "streetName": "MAJOR",
        "streetDirectionId": null,
        "streetTypeId": "ST",
        "placeName": "OTTAWA",
        "streetNameDisplayText": "MAJOR ST, OTTAWA"
      }
    ]
  },
  {
    "postal": "K2C0K0",
    "result": []
  },
  {
    "postal": "K2C5N1",
    "result": []
  },
  {
    "postal": "K2C7T0",
    "result": []
  },
  {
    "postal": "K2C9N2",
    "result": []
  },
  {
    "postal": "K2C5L1",
    "result": []
  },
  {
    "postal": "K2C7G5",
    "result": []
  },
  {
    "postal": "K2C6K2",
    "result": []
  },
  {
    "postal": "K2C6P9",
    "result": []
  },
  {
    "postal": "K2C0E6",
    "result": [
      {
        "electoralDistricts": [
          {
            "election": null,
            "id": 78,
            "name": "Ottawa Centre"
          }
        ],
        "pollDivisionIds": [
          10140554
        ],
        "postalCode": "K2C0E6",
        "streetName": "WILSHIRE",
        "streetDirectionId": null,
        "streetTypeId": "AVE",
        "placeName": "OTTAWA",
        "streetNameDisplayText": "WILSHIRE AVE, OTTAWA"
      }
    ]
  },
  {
    "postal": "K2C8R9",
    "result": []
  },
  {
    "postal": "K2C3G9",
    "result": []
  },
  {
    "postal": "K2C0V7",
    "result": [
      {
        "electoralDistricts": [
          {
            "election": null,
            "id": 81,
            "name": "Ottawa West—Nepean"
          }
        ],
        "pollDivisionIds": [
          10140840
        ],
        "postalCode": "K2C0V7",
        "streetName": "NAVAHO",
        "streetDirectionId": null,
        "streetTypeId": "DR",
        "placeName": "OTTAWA",
        "streetNameDisplayText": "NAVAHO DR, OTTAWA"
      }
    ]
  },
  {
    "postal": "K2C2Z1",
    "result": [
      {
        "electoralDistricts": [
          {
            "election": null,
            "id": 81,
            "name": "Ottawa West—Nepean"
          }
        ],
        "pollDivisionIds": [
          10140833
        ],
        "postalCode": "K2C2Z1",
        "streetName": "COBDEN",
        "streetDirectionId": null,
        "streetTypeId": "RD",
        "placeName": "OTTAWA",
        "streetNameDisplayText": "COBDEN RD, OTTAWA"
      }
    ]
  },
  {
    "postal": "K2C7N1",
    "result": []
  },
  {
    "postal": "K2C3C6",
    "result": [
      {
        "electoralDistricts": [
          {
            "election": null,
            "id": 81,
            "name": "Ottawa West—Nepean"
          }
        ],
        "pollDivisionIds": [
          10140825
        ],
        "postalCode": "K2C3C6",
        "streetName": "SOUTHWOOD",
        "streetDirectionId": null,
        "streetTypeId": "DR",
        "placeName": "OTTAWA",
        "streetNameDisplayText": "SOUTHWOOD DR, OTTAWA"
      }
    ]
  },
  {
    "postal": "K2C4M1",
    "result": []
  },
  {
    "postal": "K2C9K2",
    "result": []
  },
  {
    "postal": "K2C9S6",
    "result": []
  },
  {
    "postal": "K2C4X1",
    "result": []
  },
  {
    "postal": "K2C8W2",
    "result": []
  },
  {
    "postal": "K2C7N2",
    "result": []
  },
  {
    "postal": "K2C8S3",
    "result": []
  },
  {
    "postal": "K2C4V0",
    "result": []
  },
  {
    "postal": "K2C6W4",
    "result": []
  },
  {
    "postal": "K2C5M1",
    "result": []
  },
  {
    "postal": "K2C0S4",
    "result": [
      {
        "electoralDistricts": [
          {
            "election": null,
            "id": 81,
            "name": "Ottawa West—Nepean"
          }
        ],
        "pollDivisionIds": [
          10140840
        ],
        "postalCode": "K2C0S4",
        "streetName": "AINSLEY",
        "streetDirectionId": null,
        "streetTypeId": "DR",
        "placeName": "OTTAWA",
        "streetNameDisplayText": "AINSLEY DR, OTTAWA"
      }
    ]
  },
  {
    "postal": "K2C5X6",
    "result": []
  },
  {
    "postal": "K2C8L5",
    "result": []
  },
  {
    "postal": "K2C5M8",
    "result": []
  },
  {
    "postal": "K2C2G3",
    "result": [
      {
        "electoralDistricts": [
          {
            "election": null,
            "id": 81,
            "name": "Ottawa West—Nepean"
          }
        ],
        "pollDivisionIds": [
          10140840
        ],
        "postalCode": "K2C2G3",
        "streetName": "ERINDALE",
        "streetDirectionId": null,
        "streetTypeId": "DR",
        "placeName": "OTTAWA",
        "streetNameDisplayText": "ERINDALE DR, OTTAWA"
      }
    ]
  },
  {
    "postal": "K2C8E4",
    "result": []
  },
  {
    "postal": "K2C7S9",
    "result": []
  },
  {
    "postal": "K2C1K3",
    "result": [
      {
        "electoralDistricts": [
          {
            "election": null,
            "id": 81,
            "name": "Ottawa West—Nepean"
          }
        ],
        "pollDivisionIds": [
          10140833
        ],
        "postalCode": "K2C1K3",
        "streetName": "SHELDON",
        "streetDirectionId": null,
        "streetTypeId": "AVE",
        "placeName": "OTTAWA",
        "streetNameDisplayText": "SHELDON AVE, OTTAWA"
      }
    ]
  },
  {
    "postal": "K2C4E1",
    "result": [
      {
        "electoralDistricts": [
          {
            "election": null,
            "id": 81,
            "name": "Ottawa West—Nepean"
          }
        ],
        "pollDivisionIds": [
          10140846
        ],
        "postalCode": "K2C4E1",
        "streetName": "GRAMMERCY",
        "streetDirectionId": null,
        "streetTypeId": "PK",
        "placeName": "OTTAWA",
        "streetNameDisplayText": "GRAMMERCY PK, OTTAWA"
      }
    ]
  },
  {
    "postal": "K2C4R2",
    "result": []
  },
  {
    "postal": "K2C6T0",
    "result": []
  },
  {
    "postal": "K2C3K5",
    "result": []
  },
  {
    "postal": "K2C3S3",
    "result": []
  },
  {
    "postal": "K2C3L4",
    "result": [
      {
        "electoralDistricts": [
          {
            "election": null,
            "id": 81,
            "name": "Ottawa West—Nepean"
          }
        ],
        "pollDivisionIds": [
          10140866
        ],
        "postalCode": "K2C3L4",
        "streetName": "BASELINE",
        "streetDirectionId": null,
        "streetTypeId": "RD",
        "placeName": "OTTAWA",
        "streetNameDisplayText": "BASELINE RD, OTTAWA"
      }
    ]
  },
  {
    "postal": "K2C9Y2",
    "result": []
  },
  {
    "postal": "K2C1E0",
    "result": []
  },
  {
    "postal": "K2C9A4",
    "result": []
  },
  {
    "postal": "K2C1L3",
    "result": [
      {
        "electoralDistricts": [
          {
            "election": null,
            "id": 81,
            "name": "Ottawa West—Nepean"
          }
        ],
        "pollDivisionIds": [
          10140833
        ],
        "postalCode": "K2C1L3",
        "streetName": "MONROE",
        "streetDirectionId": null,
        "streetTypeId": "AVE",
        "placeName": "OTTAWA",
        "streetNameDisplayText": "MONROE AVE, OTTAWA"
      }
    ]
  },
  {
    "postal": "K2C6N1",
    "result": []
  },
  {
    "postal": "K2C6G7",
    "result": []
  },
  {
    "postal": "K2C7W1",
    "result": []
  },
  {
    "postal": "K2C4M6",
    "result": []
  },
  {
    "postal": "K2C1K0",
    "result": []
  },
  {
    "postal": "K2C3E2",
    "result": [
      {
        "electoralDistricts": [
          {
            "election": null,
            "id": 81,
            "name": "Ottawa West—Nepean"
          }
        ],
        "pollDivisionIds": [
          10140825
        ],
        "postalCode": "K2C3E2",
        "streetName": "STANTON",
        "streetDirectionId": null,
        "streetTypeId": "RD",
        "placeName": "OTTAWA",
        "streetNameDisplayText": "STANTON RD, OTTAWA"
      }
    ]
  },
  {
    "postal": "K2C5H4",
    "result": []
  },
  {
    "postal": "K2C1K7",
    "result": [
      {
        "electoralDistricts": [
          {
            "election": null,
            "id": 81,
            "name": "Ottawa West—Nepean"
          }
        ],
        "pollDivisionIds": [
          10140833
        ],
        "postalCode": "K2C1K7",
        "streetName": "RYAN",
        "streetDirectionId": null,
        "streetTypeId": "DR",
        "placeName": "OTTAWA",
        "streetNameDisplayText": "RYAN DR, OTTAWA"
      }
    ]
  },
  {
    "postal": "K2C0H0",
    "result": []
  },
  {
    "postal": "K2C0J3",
    "result": [
      {
        "electoralDistricts": [
          {
            "election": null,
            "id": 78,
            "name": "Ottawa Centre"
          }
        ],
        "pollDivisionIds": [
          10140557
        ],
        "postalCode": "K2C0J3",
        "streetName": "EIFFEL",
        "streetDirectionId": null,
        "streetTypeId": "AVE",
        "placeName": "OTTAWA",
        "streetNameDisplayText": "EIFFEL AVE, OTTAWA"
      }
    ]
  },
  {
    "postal": "K2C1X6",
    "result": [
      {
        "electoralDistricts": [
          {
            "election": null,
            "id": 81,
            "name": "Ottawa West—Nepean"
          }
        ],
        "pollDivisionIds": [
          10140851
        ],
        "postalCode": "K2C1X6",
        "streetName": "FISHER",
        "streetDirectionId": null,
        "streetTypeId": "AVE",
        "placeName": "OTTAWA",
        "streetNameDisplayText": "FISHER AVE, OTTAWA"
      }
    ]
  },
  {
    "postal": "K2C2Z6",
    "result": [
      {
        "electoralDistricts": [
          {
            "election": null,
            "id": 81,
            "name": "Ottawa West—Nepean"
          }
        ],
        "pollDivisionIds": [
          10140833
        ],
        "postalCode": "K2C2Z6",
        "streetName": "COBDEN",
        "streetDirectionId": null,
        "streetTypeId": "RD",
        "placeName": "OTTAWA",
        "streetNameDisplayText": "COBDEN RD, OTTAWA"
      }
    ]
  },
  {
    "postal": "K2C4R9",
    "result": []
  },
  {
    "postal": "K2C0W8",
    "result": [
      {
        "electoralDistricts": [
          {
            "election": null,
            "id": 81,
            "name": "Ottawa West—Nepean"
          }
        ],
        "pollDivisionIds": [
          10140837
        ],
        "postalCode": "K2C0W8",
        "streetName": "GARFIELD",
        "streetDirectionId": null,
        "streetTypeId": "AVE",
        "placeName": "OTTAWA",
        "streetNameDisplayText": "GARFIELD AVE, OTTAWA"
      }
    ]
  },
  {
    "postal": "K2C1L4",
    "result": [
      {
        "electoralDistricts": [
          {
            "election": null,
            "id": 81,
            "name": "Ottawa West—Nepean"
          }
        ],
        "pollDivisionIds": [
          10140833
        ],
        "postalCode": "K2C1L4",
        "streetName": "MALONE",
        "streetDirectionId": null,
        "streetTypeId": "CRES",
        "placeName": "OTTAWA",
        "streetNameDisplayText": "MALONE CRES, OTTAWA"
      }
    ]
  },
  {
    "postal": "K2C0C8",
    "result": [
      {
        "electoralDistricts": [
          {
            "election": null,
            "id": 81,
            "name": "Ottawa West—Nepean"
          }
        ],
        "pollDivisionIds": [
          10140833
        ],
        "postalCode": "K2C0C8",
        "streetName": "BASELINE",
        "streetDirectionId": null,
        "streetTypeId": "RD",
        "placeName": "OTTAWA",
        "streetNameDisplayText": "BASELINE RD, OTTAWA"
      }
    ]
  },
  {
    "postal": "K2C9X7",
    "result": []
  },
  {
    "postal": "K2C4T1",
    "result": []
  },
  {
    "postal": "K2C0M0",
    "result": []
  },
  {
    "postal": "K2C6A2",
    "result": []
  },
  {
    "postal": "K2C9S8",
    "result": []
  },
  {
    "postal": "K2C9T4",
    "result": []
  },
  {
    "postal": "K2C9Y4",
    "result": []
  },
  {
    "postal": "K2C6G5",
    "result": []
  },
  {
    "postal": "K2C6H9",
    "result": []
  },
  {
    "postal": "K2C2P3",
    "result": [
      {
        "electoralDistricts": [
          {
            "election": null,
            "id": 81,
            "name": "Ottawa West—Nepean"
          }
        ],
        "pollDivisionIds": [
          10140837
        ],
        "postalCode": "K2C2P3",
        "streetName": "CLINE",
        "streetDirectionId": null,
        "streetTypeId": "CRES",
        "placeName": "OTTAWA",
        "streetNameDisplayText": "CLINE CRES, OTTAWA"
      }
    ]
  },
  {
    "postal": "K2C1T6",
    "result": [
      {
        "electoralDistricts": [
          {
            "election": null,
            "id": 78,
            "name": "Ottawa Centre"
          }
        ],
        "pollDivisionIds": [
          10140564
        ],
        "postalCode": "K2C1T6",
        "streetName": "SKEENA",
        "streetDirectionId": null,
        "streetTypeId": "AVE",
        "placeName": "OTTAWA",
        "streetNameDisplayText": "SKEENA AVE, OTTAWA"
      }
    ]
  },
  {
    "postal": "K2C4P6",
    "result": []
  },
  {
    "postal": "K2C3K1",
    "result": [
      {
        "electoralDistricts": [
          {
            "election": null,
            "id": 78,
            "name": "Ottawa Centre"
          }
        ],
        "pollDivisionIds": [
          10140554
        ],
        "postalCode": "K2C3K1",
        "streetName": "PRINCE OF WALES",
        "streetDirectionId": null,
        "streetTypeId": "DR",
        "placeName": "OTTAWA",
        "streetNameDisplayText": "PRINCE OF WALES DR, OTTAWA"
      }
    ]
  },
  {
    "postal": "K2C6X4",
    "result": []
  },
  {
    "postal": "K2C4M8",
    "result": []
  },
  {
    "postal": "K2C2Y1",
    "result": [
      {
        "electoralDistricts": [
          {
            "election": null,
            "id": 81,
            "name": "Ottawa West—Nepean"
          }
        ],
        "pollDivisionIds": [
          10140833
        ],
        "postalCode": "K2C2Y1",
        "streetName": "RUSTIC",
        "streetDirectionId": null,
        "streetTypeId": "DR",
        "placeName": "OTTAWA",
        "streetNameDisplayText": "RUSTIC DR, OTTAWA"
      }
    ]
  },
  {
    "postal": "K2C6M1",
    "result": []
  },
  {
    "postal": "K2C5L8",
    "result": []
  },
  {
    "postal": "K2C3P6",
    "result": []
  },
  {
    "postal": "K2C9A5",
    "result": []
  },
  {
    "postal": "K2C7K1",
    "result": []
  },
  {
    "postal": "K2C3J4",
    "result": [
      {
        "electoralDistricts": [
          {
            "election": null,
            "id": 81,
            "name": "Ottawa West—Nepean"
          }
        ],
        "pollDivisionIds": [
          10140834
        ],
        "postalCode": "K2C3J4",
        "streetName": "BASELINE",
        "streetDirectionId": null,
        "streetTypeId": "RD",
        "placeName": "OTTAWA",
        "streetNameDisplayText": "BASELINE RD, OTTAWA"
      }
    ]
  },
  {
    "postal": "K2C5E7",
    "result": []
  },
  {
    "postal": "K2C3A7",
    "result": [
      {
        "electoralDistricts": [
          {
            "election": null,
            "id": 81,
            "name": "Ottawa West—Nepean"
          }
        ],
        "pollDivisionIds": [
          10140833
        ],
        "postalCode": "K2C3A7",
        "streetName": "PLACID",
        "streetDirectionId": null,
        "streetTypeId": "ST",
        "placeName": "OTTAWA",
        "streetNameDisplayText": "PLACID ST, OTTAWA"
      }
    ]
  },
  {
    "postal": "K2C1B9",
    "result": [
      {
        "electoralDistricts": [
          {
            "election": null,
            "id": 81,
            "name": "Ottawa West—Nepean"
          }
        ],
        "pollDivisionIds": [
          10140837
        ],
        "postalCode": "K2C1B9",
        "streetName": "IRIS",
        "streetDirectionId": null,
        "streetTypeId": "ST",
        "placeName": "OTTAWA",
        "streetNameDisplayText": "IRIS ST, OTTAWA"
      }
    ]
  },
  {
    "postal": "K2C9E8",
    "result": []
  },
  {
    "postal": "K2C1C9",
    "result": [
      {
        "electoralDistricts": [
          {
            "election": null,
            "id": 81,
            "name": "Ottawa West—Nepean"
          }
        ],
        "pollDivisionIds": [
          10140833
        ],
        "postalCode": "K2C1C9",
        "streetName": "IRIS",
        "streetDirectionId": null,
        "streetTypeId": "ST",
        "placeName": "OTTAWA",
        "streetNameDisplayText": "IRIS ST, OTTAWA"
      }
    ]
  },
  {
    "postal": "K2C3B5",
    "result": [
      {
        "electoralDistricts": [
          {
            "election": null,
            "id": 81,
            "name": "Ottawa West—Nepean"
          }
        ],
        "pollDivisionIds": [
          10140833
        ],
        "postalCode": "K2C3B5",
        "streetName": "SODERLIND",
        "streetDirectionId": null,
        "streetTypeId": "ST",
        "placeName": "OTTAWA",
        "streetNameDisplayText": "SODERLIND ST, OTTAWA"
      }
    ]
  },
  {
    "postal": "K2C8R0",
    "result": []
  },
  {
    "postal": "K2C3P2",
    "result": [
      {
        "electoralDistricts": [
          {
            "election": null,
            "id": 81,
            "name": "Ottawa West—Nepean"
          }
        ],
        "pollDivisionIds": [
          10140833
        ],
        "postalCode": "K2C3P2",
        "streetName": "BAXTER",
        "streetDirectionId": null,
        "streetTypeId": "RD",
        "placeName": "OTTAWA",
        "streetNameDisplayText": "BAXTER RD, OTTAWA"
      }
    ]
  },
  {
    "postal": "K2C5V4",
    "result": []
  },
  {
    "postal": "K2C4H0",
    "result": []
  },
  {
    "postal": "K2C4S7",
    "result": []
  },
  {
    "postal": "K2C6C2",
    "result": []
  },
  {
    "postal": "K2C8W3",
    "result": []
  },
  {
    "postal": "K2C4M5",
    "result": []
  },
  {
    "postal": "K2C5T1",
    "result": []
  },
  {
    "postal": "K2C3B3",
    "result": [
      {
        "electoralDistricts": [
          {
            "election": null,
            "id": 81,
            "name": "Ottawa West—Nepean"
          }
        ],
        "pollDivisionIds": [
          10140833
        ],
        "postalCode": "K2C3B3",
        "streetName": "SODERLIND",
        "streetDirectionId": null,
        "streetTypeId": "ST",
        "placeName": "OTTAWA",
        "streetNameDisplayText": "SODERLIND ST, OTTAWA"
      }
    ]
  },
  {
    "postal": "K2C6C6",
    "result": []
  },
  {
    "postal": "K2C7N8",
    "result": []
  },
  {
    "postal": "K2C2Y3",
    "result": [
      {
        "electoralDistricts": [
          {
            "election": null,
            "id": 81,
            "name": "Ottawa West—Nepean"
          }
        ],
        "pollDivisionIds": [
          10140833
        ],
        "postalCode": "K2C2Y3",
        "streetName": "RUSTIC",
        "streetDirectionId": null,
        "streetTypeId": "DR",
        "placeName": "OTTAWA",
        "streetNameDisplayText": "RUSTIC DR, OTTAWA"
      }
    ]
  },
  {
    "postal": "K2C2R6",
    "result": [
      {
        "electoralDistricts": [
          {
            "election": null,
            "id": 81,
            "name": "Ottawa West—Nepean"
          }
        ],
        "pollDivisionIds": [
          10140837
        ],
        "postalCode": "K2C2R6",
        "streetName": "LAZARD",
        "streetDirectionId": null,
        "streetTypeId": "ST",
        "placeName": "OTTAWA",
        "streetNameDisplayText": "LAZARD ST, OTTAWA"
      }
    ]
  },
  {
    "postal": "K2C7N3",
    "result": []
  },
  {
    "postal": "K2C8J2",
    "result": []
  },
  {
    "postal": "K2C6A9",
    "result": []
  },
  {
    "postal": "K2C3V2",
    "result": [
      {
        "electoralDistricts": [
          {
            "election": null,
            "id": 81,
            "name": "Ottawa West—Nepean"
          }
        ],
        "pollDivisionIds": [
          10140833
        ],
        "postalCode": "K2C3V2",
        "streetName": "BARBARA ANN",
        "streetDirectionId": null,
        "streetTypeId": "PVT",
        "placeName": "OTTAWA",
        "streetNameDisplayText": "BARBARA ANN PVT, OTTAWA"
      }
    ]
  },
  {
    "postal": "K2C2N3",
    "result": [
      {
        "electoralDistricts": [
          {
            "election": null,
            "id": 81,
            "name": "Ottawa West—Nepean"
          }
        ],
        "pollDivisionIds": [
          10140840
        ],
        "postalCode": "K2C2N3",
        "streetName": "LAXTON",
        "streetDirectionId": null,
        "streetTypeId": "CRES",
        "placeName": "OTTAWA",
        "streetNameDisplayText": "LAXTON CRES, OTTAWA"
      }
    ]
  },
  {
    "postal": "K2C1S5",
    "result": [
      {
        "electoralDistricts": [
          {
            "election": null,
            "id": 78,
            "name": "Ottawa Centre"
          }
        ],
        "pollDivisionIds": [
          10140557
        ],
        "postalCode": "K2C1S5",
        "streetName": "CLAYMOR",
        "streetDirectionId": null,
        "streetTypeId": "AVE",
        "placeName": "OTTAWA",
        "streetNameDisplayText": "CLAYMOR AVE, OTTAWA"
      }
    ]
  },
  {
    "postal": "K2C4T7",
    "result": []
  },
  {
    "postal": "K2C6Y7",
    "result": []
  },
  {
    "postal": "K2C0W7",
    "result": [
      {
        "electoralDistricts": [
          {
            "election": null,
            "id": 81,
            "name": "Ottawa West—Nepean"
          }
        ],
        "pollDivisionIds": [
          10140837
        ],
        "postalCode": "K2C0W7",
        "streetName": "GARFIELD",
        "streetDirectionId": null,
        "streetTypeId": "AVE",
        "placeName": "OTTAWA",
        "streetNameDisplayText": "GARFIELD AVE, OTTAWA"
      }
    ]
  },
  {
    "postal": "K2C2W9",
    "result": [
      {
        "electoralDistricts": [
          {
            "election": null,
            "id": 81,
            "name": "Ottawa West—Nepean"
          }
        ],
        "pollDivisionIds": [
          10140833
        ],
        "postalCode": "K2C2W9",
        "streetName": "GATEWAY",
        "streetDirectionId": null,
        "streetTypeId": "RD",
        "placeName": "OTTAWA",
        "streetNameDisplayText": "GATEWAY RD, OTTAWA"
      }
    ]
  },
  {
    "postal": "K2C8V0",
    "result": []
  },
  {
    "postal": "K2C0H4",
    "result": [
      {
        "electoralDistricts": [
          {
            "election": null,
            "id": 78,
            "name": "Ottawa Centre"
          }
        ],
        "pollDivisionIds": [
          10140557
        ],
        "postalCode": "K2C0H4",
        "streetName": "ARNOT",
        "streetDirectionId": null,
        "streetTypeId": "RD",
        "placeName": "OTTAWA",
        "streetNameDisplayText": "ARNOT RD, OTTAWA"
      }
    ]
  },
  {
    "postal": "K2C2T1",
    "result": [
      {
        "electoralDistricts": [
          {
            "election": null,
            "id": 81,
            "name": "Ottawa West—Nepean"
          }
        ],
        "pollDivisionIds": [
          10140842,
          10140837
        ],
        "postalCode": "K2C2T1",
        "streetName": "WOODROFFE",
        "streetDirectionId": null,
        "streetTypeId": "AVE",
        "placeName": "OTTAWA",
        "streetNameDisplayText": "WOODROFFE AVE, OTTAWA"
      }
    ]
  },
  {
    "postal": "K2C1B1",
    "result": [
      {
        "electoralDistricts": [
          {
            "election": null,
            "id": 81,
            "name": "Ottawa West—Nepean"
          }
        ],
        "pollDivisionIds": [
          10140837
        ],
        "postalCode": "K2C1B1",
        "streetName": "IRIS",
        "streetDirectionId": null,
        "streetTypeId": "ST",
        "placeName": "OTTAWA",
        "streetNameDisplayText": "IRIS ST, OTTAWA"
      }
    ]
  },
  {
    "postal": "K2C8B6",
    "result": []
  },
  {
    "postal": "K2C6H1",
    "result": []
  },
  {
    "postal": "K2C8T8",
    "result": []
  },
  {
    "postal": "K2C0T4",
    "result": [
      {
        "electoralDistricts": [
          {
            "election": null,
            "id": 81,
            "name": "Ottawa West—Nepean"
          }
        ],
        "pollDivisionIds": [
          10140840
        ],
        "postalCode": "K2C0T4",
        "streetName": "NAVAHO",
        "streetDirectionId": null,
        "streetTypeId": "DR",
        "placeName": "OTTAWA",
        "streetNameDisplayText": "NAVAHO DR, OTTAWA"
      }
    ]
  },
  {
    "postal": "K2C2C4",
    "result": [
      {
        "electoralDistricts": [
          {
            "election": null,
            "id": 81,
            "name": "Ottawa West—Nepean"
          }
        ],
        "pollDivisionIds": [
          10140841
        ],
        "postalCode": "K2C2C4",
        "streetName": "MAITLAND",
        "streetDirectionId": null,
        "streetTypeId": "AVE",
        "placeName": "OTTAWA",
        "streetNameDisplayText": "MAITLAND AVE, OTTAWA"
      }
    ]
  },
  {
    "postal": "K2C8N3",
    "result": []
  },
  {
    "postal": "K2C4L8",
    "result": []
  },
  {
    "postal": "K2C2B5",
    "result": [
      {
        "electoralDistricts": [
          {
            "election": null,
            "id": 81,
            "name": "Ottawa West—Nepean"
          }
        ],
        "pollDivisionIds": [
          10140841
        ],
        "postalCode": "K2C2B5",
        "streetName": "COURTWOOD",
        "streetDirectionId": null,
        "streetTypeId": "CRES",
        "placeName": "OTTAWA",
        "streetNameDisplayText": "COURTWOOD CRES, OTTAWA"
      }
    ]
  },
  {
    "postal": "K2C3H1",
    "result": [
      {
        "electoralDistricts": [
          {
            "election": null,
            "id": 66,
            "name": "Nepean"
          }
        ],
        "pollDivisionIds": [
          10126663
        ],
        "postalCode": "K2C3H1",
        "streetName": "ASHDALE",
        "streetDirectionId": null,
        "streetTypeId": "AVE",
        "placeName": "NEPEAN",
        "streetNameDisplayText": "ASHDALE AVE, NEPEAN"
      },
      {
        "electoralDistricts": [
          {
            "election": null,
            "id": 66,
            "name": "Nepean"
          }
        ],
        "pollDivisionIds": [
          10126663
        ],
        "postalCode": "K2C3H1",
        "streetName": "BOYCREST",
        "streetDirectionId": null,
        "streetTypeId": "ST",
        "placeName": "OTTAWA",
        "streetNameDisplayText": "BOYCREST ST, OTTAWA"
      },
      {
        "electoralDistricts": [
          {
            "election": null,
            "id": 66,
            "name": "Nepean"
          }
        ],
        "pollDivisionIds": [
          10126663
        ],
        "postalCode": "K2C3H1",
        "streetName": "FALLOWFIELD",
        "streetDirectionId": null,
        "streetTypeId": "RD",
        "placeName": "NEPEAN",
        "streetNameDisplayText": "FALLOWFIELD RD, NEPEAN"
      },
      {
        "electoralDistricts": [
          {
            "election": null,
            "id": 66,
            "name": "Nepean"
          }
        ],
        "pollDivisionIds": [
          10126673
        ],
        "postalCode": "K2C3H1",
        "streetName": "HAZELWOOD",
        "streetDirectionId": null,
        "streetTypeId": "WAY",
        "placeName": "NEPEAN",
        "streetNameDisplayText": "HAZELWOOD WAY, NEPEAN"
      },
      {
        "electoralDistricts": [
          {
            "election": null,
            "id": 66,
            "name": "Nepean"
          }
        ],
        "pollDivisionIds": [
          10126663
        ],
        "postalCode": "K2C3H1",
        "streetName": "HOLBORN",
        "streetDirectionId": null,
        "streetTypeId": "AVE",
        "placeName": "NEPEAN",
        "streetNameDisplayText": "HOLBORN AVE, NEPEAN"
      },
      {
        "electoralDistricts": [
          {
            "election": null,
            "id": 66,
            "name": "Nepean"
          }
        ],
        "pollDivisionIds": [
          10126673
        ],
        "postalCode": "K2C3H1",
        "streetName": "JOCKVALE",
        "streetDirectionId": null,
        "streetTypeId": "RD",
        "placeName": "NEPEAN",
        "streetNameDisplayText": "JOCKVALE RD, NEPEAN"
      },
      {
        "electoralDistricts": [
          {
            "election": null,
            "id": 66,
            "name": "Nepean"
          }
        ],
        "pollDivisionIds": [
          10126671,
          10126684
        ],
        "postalCode": "K2C3H1",
        "streetName": "LODGE",
        "streetDirectionId": null,
        "streetTypeId": "RD",
        "placeName": "OTTAWA",
        "streetNameDisplayText": "LODGE RD, OTTAWA"
      },
      {
        "electoralDistricts": [
          {
            "election": null,
            "id": 66,
            "name": "Nepean"
          }
        ],
        "pollDivisionIds": [
          10126673
        ],
        "postalCode": "K2C3H1",
        "streetName": "MAPLEHILL",
        "streetDirectionId": null,
        "streetTypeId": "WAY",
        "placeName": "NEPEAN",
        "streetNameDisplayText": "MAPLEHILL WAY, NEPEAN"
      },
      {
        "electoralDistricts": [
          {
            "election": null,
            "id": 66,
            "name": "Nepean"
          }
        ],
        "pollDivisionIds": [
          10126663
        ],
        "postalCode": "K2C3H1",
        "streetName": "MERIVALE",
        "streetDirectionId": null,
        "streetTypeId": "RD",
        "placeName": "NEPEAN",
        "streetNameDisplayText": "MERIVALE RD, NEPEAN"
      },
      {
        "electoralDistricts": [
          {
            "election": null,
            "id": 66,
            "name": "Nepean"
          }
        ],
        "pollDivisionIds": [
          10126673,
          10126663
        ],
        "postalCode": "K2C3H1",
        "streetName": "PRINCE OF WALES",
        "streetDirectionId": null,
        "streetTypeId": "DR",
        "placeName": "NEPEAN",
        "streetNameDisplayText": "PRINCE OF WALES DR, NEPEAN"
      },
      {
        "electoralDistricts": [
          {
            "election": null,
            "id": 66,
            "name": "Nepean"
          }
        ],
        "pollDivisionIds": [
          10126663
        ],
        "postalCode": "K2C3H1",
        "streetName": "QUEEN ANNE",
        "streetDirectionId": null,
        "streetTypeId": "CRES",
        "placeName": "NEPEAN",
        "streetNameDisplayText": "QUEEN ANNE CRES, NEPEAN"
      },
      {
        "electoralDistricts": [
          {
            "election": null,
            "id": 66,
            "name": "Nepean"
          }
        ],
        "pollDivisionIds": [
          10126663
        ],
        "postalCode": "K2C3H1",
        "streetName": "QUEEN ANNE",
        "streetDirectionId": null,
        "streetTypeId": "CRES",
        "placeName": "OTTAWA",
        "streetNameDisplayText": "QUEEN ANNE CRES, OTTAWA"
      },
      {
        "electoralDistricts": [
          {
            "election": null,
            "id": 66,
            "name": "Nepean"
          }
        ],
        "pollDivisionIds": [
          10126663
        ],
        "postalCode": "K2C3H1",
        "streetName": "RIDEAU GLEN",
        "streetDirectionId": null,
        "streetTypeId": "DR",
        "placeName": "OTTAWA",
        "streetNameDisplayText": "RIDEAU GLEN DR, OTTAWA"
      },
      {
        "electoralDistricts": [
          {
            "election": null,
            "id": 66,
            "name": "Nepean"
          }
        ],
        "pollDivisionIds": [
          10126673
        ],
        "postalCode": "K2C3H1",
        "streetName": "RIDEAU VALLEY",
        "streetDirectionId": "N",
        "streetTypeId": "DR",
        "placeName": "NEPEAN",
        "streetNameDisplayText": "RIDEAU VALLEY DR N, NEPEAN"
      },
      {
        "electoralDistricts": [
          {
            "election": null,
            "id": 66,
            "name": "Nepean"
          }
        ],
        "pollDivisionIds": [
          10126673
        ],
        "postalCode": "K2C3H1",
        "streetName": "RIDEAU VALLEY",
        "streetDirectionId": null,
        "streetTypeId": "DR",
        "placeName": "MANOTICK",
        "streetNameDisplayText": "RIDEAU VALLEY DR, MANOTICK"
      },
      {
        "electoralDistricts": [
          {
            "election": null,
            "id": 66,
            "name": "Nepean"
          }
        ],
        "pollDivisionIds": [
          10126673
        ],
        "postalCode": "K2C3H1",
        "streetName": "RIDEAU VALLEY",
        "streetDirectionId": null,
        "streetTypeId": "DR",
        "placeName": "NEPEAN",
        "streetNameDisplayText": "RIDEAU VALLEY DR, NEPEAN"
      },
      {
        "electoralDistricts": [
          {
            "election": null,
            "id": 66,
            "name": "Nepean"
          }
        ],
        "pollDivisionIds": [
          10126674
        ],
        "postalCode": "K2C3H1",
        "streetName": "WINDING",
        "streetDirectionId": null,
        "streetTypeId": "WAY",
        "placeName": "NEPEAN",
        "streetNameDisplayText": "WINDING WAY, NEPEAN"
      },
      {
        "electoralDistricts": [
          {
            "election": null,
            "id": 66,
            "name": "Nepean"
          }
        ],
        "pollDivisionIds": [
          10126663
        ],
        "postalCode": "K2C3H1",
        "streetName": "WOODROFFE",
        "streetDirectionId": null,
        "streetTypeId": "AVE",
        "placeName": "NEPEAN",
        "streetNameDisplayText": "WOODROFFE AVE, NEPEAN"
      }
    ]
  },
  {
    "postal": "K2C4Y1",
    "result": []
  },
  {
    "postal": "K2C7E2",
    "result": []
  },
  {
    "postal": "K2C2P5",
    "result": [
      {
        "electoralDistricts": [
          {
            "election": null,
            "id": 81,
            "name": "Ottawa West—Nepean"
          }
        ],
        "pollDivisionIds": [
          10140837
        ],
        "postalCode": "K2C2P5",
        "streetName": "FIELD",
        "streetDirectionId": null,
        "streetTypeId": "ST",
        "placeName": "OTTAWA",
        "streetNameDisplayText": "FIELD ST, OTTAWA"
      }
    ]
  },
  {
    "postal": "K2C8R7",
    "result": []
  },
  {
    "postal": "K2C9P1",
    "result": []
  },
  {
    "postal": "K2C3B8",
    "result": [
      {
        "electoralDistricts": [
          {
            "election": null,
            "id": 81,
            "name": "Ottawa West—Nepean"
          }
        ],
        "pollDivisionIds": [
          10140833
        ],
        "postalCode": "K2C3B8",
        "streetName": "TOMPKINS",
        "streetDirectionId": null,
        "streetTypeId": "ST",
        "placeName": "OTTAWA",
        "streetNameDisplayText": "TOMPKINS ST, OTTAWA"
      }
    ]
  },
  {
    "postal": "K2C3P7",
    "result": [
      {
        "electoralDistricts": [
          {
            "election": null,
            "id": 78,
            "name": "Ottawa Centre"
          }
        ],
        "pollDivisionIds": [
          10140564
        ],
        "postalCode": "K2C3P7",
        "streetName": "ORTONA",
        "streetDirectionId": null,
        "streetTypeId": "AVE",
        "placeName": "OTTAWA",
        "streetNameDisplayText": "ORTONA AVE, OTTAWA"
      }
    ]
  },
  {
    "postal": "K2C9B2",
    "result": []
  },
  {
    "postal": "K2C6Z3",
    "result": []
  },
  {
    "postal": "K2C4N5",
    "result": []
  },
  {
    "postal": "K2C8T3",
    "result": []
  },
  {
    "postal": "K2C1V2",
    "result": [
      {
        "electoralDistricts": [
          {
            "election": null,
            "id": 78,
            "name": "Ottawa Centre"
          }
        ],
        "pollDivisionIds": [
          10140564
        ],
        "postalCode": "K2C1V2",
        "streetName": "APELDOORN",
        "streetDirectionId": null,
        "streetTypeId": "AVE",
        "placeName": "OTTAWA",
        "streetNameDisplayText": "APELDOORN AVE, OTTAWA"
      }
    ]
  },
  {
    "postal": "K2C1Y0",
    "result": []
  },
  {
    "postal": "K2C3G6",
    "result": []
  },
  {
    "postal": "K2C3H7",
    "result": [
      {
        "electoralDistricts": [
          {
            "election": null,
            "id": 81,
            "name": "Ottawa West—Nepean"
          }
        ],
        "pollDivisionIds": [
          10140846
        ],
        "postalCode": "K2C3H7",
        "streetName": "MERIVALE",
        "streetDirectionId": null,
        "streetTypeId": "RD",
        "placeName": "OTTAWA",
        "streetNameDisplayText": "MERIVALE RD, OTTAWA"
      }
    ]
  },
  {
    "postal": "K2C7X8",
    "result": []
  },
  {
    "postal": "K2C0C7",
    "result": [
      {
        "electoralDistricts": [
          {
            "election": null,
            "id": 81,
            "name": "Ottawa West—Nepean"
          }
        ],
        "pollDivisionIds": [
          10140837
        ],
        "postalCode": "K2C0C7",
        "streetName": "BASELINE",
        "streetDirectionId": null,
        "streetTypeId": "RD",
        "placeName": "OTTAWA",
        "streetNameDisplayText": "BASELINE RD, OTTAWA"
      }
    ]
  },
  {
    "postal": "K2C0W9",
    "result": [
      {
        "electoralDistricts": [
          {
            "election": null,
            "id": 81,
            "name": "Ottawa West—Nepean"
          }
        ],
        "pollDivisionIds": [
          10140837
        ],
        "postalCode": "K2C0W9",
        "streetName": "BELAIR",
        "streetDirectionId": null,
        "streetTypeId": "DR",
        "placeName": "OTTAWA",
        "streetNameDisplayText": "BELAIR DR, OTTAWA"
      },
      {
        "electoralDistricts": [
          {
            "election": null,
            "id": 81,
            "name": "Ottawa West—Nepean"
          }
        ],
        "pollDivisionIds": [
          10140837
        ],
        "postalCode": "K2C0W9",
        "streetName": "BEL-AIR",
        "streetDirectionId": null,
        "streetTypeId": "DR",
        "placeName": "OTTAWA",
        "streetNameDisplayText": "BEL-AIR DR, OTTAWA"
      }
    ]
  },
  {
    "postal": "K2C8E6",
    "result": []
  },
  {
    "postal": "K2C9Z8",
    "result": []
  },
  {
    "postal": "K2C3P4",
    "result": [
      {
        "electoralDistricts": [
          {
            "election": null,
            "id": 78,
            "name": "Ottawa Centre"
          }
        ],
        "pollDivisionIds": [
          10140564
        ],
        "postalCode": "K2C3P4",
        "streetName": "APPLEBY",
        "streetDirectionId": null,
        "streetTypeId": "PVT",
        "placeName": "OTTAWA",
        "streetNameDisplayText": "APPLEBY PVT, OTTAWA"
      },
      {
        "electoralDistricts": [
          {
            "election": null,
            "id": 78,
            "name": "Ottawa Centre"
          }
        ],
        "pollDivisionIds": [
          10140564
        ],
        "postalCode": "K2C3P4",
        "streetName": "GEORGIAN",
        "streetDirectionId": null,
        "streetTypeId": "PVT",
        "placeName": "OTTAWA",
        "streetNameDisplayText": "GEORGIAN PVT, OTTAWA"
      },
      {
        "electoralDistricts": [
          {
            "election": null,
            "id": 78,
            "name": "Ottawa Centre"
          }
        ],
        "pollDivisionIds": [
          10140564
        ],
        "postalCode": "K2C3P4",
        "streetName": "MOORSIDE",
        "streetDirectionId": null,
        "streetTypeId": "PVT",
        "placeName": "OTTAWA",
        "streetNameDisplayText": "MOORSIDE PVT, OTTAWA"
      }
    ]
  },
  {
    "postal": "K2C6L8",
    "result": []
  },
  {
    "postal": "K2C2R4",
    "result": [
      {
        "electoralDistricts": [
          {
            "election": null,
            "id": 81,
            "name": "Ottawa West—Nepean"
          }
        ],
        "pollDivisionIds": [
          10140837
        ],
        "postalCode": "K2C2R4",
        "streetName": "FIELD",
        "streetDirectionId": null,
        "streetTypeId": "ST",
        "placeName": "OTTAWA",
        "streetNameDisplayText": "FIELD ST, OTTAWA"
      }
    ]
  },
  {
    "postal": "K2C2W1",
    "result": [
      {
        "electoralDistricts": [
          {
            "election": null,
            "id": 81,
            "name": "Ottawa West—Nepean"
          }
        ],
        "pollDivisionIds": [
          10140833
        ],
        "postalCode": "K2C2W1",
        "streetName": "PARKWAY",
        "streetDirectionId": null,
        "streetTypeId": "DR",
        "placeName": "OTTAWA",
        "streetNameDisplayText": "PARKWAY DR, OTTAWA"
      }
    ]
  },
  {
    "postal": "K2C9H8",
    "result": []
  },
  {
    "postal": "K2C8X9",
    "result": []
  },
  {
    "postal": "K2C7H4",
    "result": []
  },
  {
    "postal": "K2C3J1",
    "result": []
  },
  {
    "postal": "K2C1P4",
    "result": [
      {
        "electoralDistricts": [
          {
            "election": null,
            "id": 78,
            "name": "Ottawa Centre"
          }
        ],
        "pollDivisionIds": [
          10140564
        ],
        "postalCode": "K2C1P4",
        "streetName": "PRINCE OF WALES",
        "streetDirectionId": null,
        "streetTypeId": "DR",
        "placeName": "OTTAWA",
        "streetNameDisplayText": "PRINCE OF WALES DR, OTTAWA"
      }
    ]
  },
  {
    "postal": "K2C2A3",
    "result": [
      {
        "electoralDistricts": [
          {
            "election": null,
            "id": 81,
            "name": "Ottawa West—Nepean"
          }
        ],
        "pollDivisionIds": [
          10140841
        ],
        "postalCode": "K2C2A3",
        "streetName": "GREYROCK",
        "streetDirectionId": null,
        "streetTypeId": "CRES",
        "placeName": "OTTAWA",
        "streetNameDisplayText": "GREYROCK CRES, OTTAWA"
      }
    ]
  },
  {
    "postal": "K2C0Z1",
    "result": [
      {
        "electoralDistricts": [
          {
            "election": null,
            "id": 81,
            "name": "Ottawa West—Nepean"
          }
        ],
        "pollDivisionIds": [
          10140837
        ],
        "postalCode": "K2C0Z1",
        "streetName": "MIRAMICHI",
        "streetDirectionId": null,
        "streetTypeId": "ST",
        "placeName": "OTTAWA",
        "streetNameDisplayText": "MIRAMICHI ST, OTTAWA"
      }
    ]
  },
  {
    "postal": "K2C1C1",
    "result": [
      {
        "electoralDistricts": [
          {
            "election": null,
            "id": 81,
            "name": "Ottawa West—Nepean"
          }
        ],
        "pollDivisionIds": [
          10140837
        ],
        "postalCode": "K2C1C1",
        "streetName": "IRIS",
        "streetDirectionId": null,
        "streetTypeId": "ST",
        "placeName": "OTTAWA",
        "streetNameDisplayText": "IRIS ST, OTTAWA"
      }
    ]
  },
  {
    "postal": "K2C0H3",
    "result": [
      {
        "electoralDistricts": [
          {
            "election": null,
            "id": 78,
            "name": "Ottawa Centre"
          }
        ],
        "pollDivisionIds": [
          10140557
        ],
        "postalCode": "K2C0H3",
        "streetName": "DYNES",
        "streetDirectionId": null,
        "streetTypeId": "RD",
        "placeName": "OTTAWA",
        "streetNameDisplayText": "DYNES RD, OTTAWA"
      }
    ]
  },
  {
    "postal": "K2C7B0",
    "result": []
  },
  {
    "postal": "K2C5K2",
    "result": []
  },
  {
    "postal": "K2C1E9",
    "result": [
      {
        "electoralDistricts": [
          {
            "election": null,
            "id": 81,
            "name": "Ottawa West—Nepean"
          }
        ],
        "pollDivisionIds": [
          10140833
        ],
        "postalCode": "K2C1E9",
        "streetName": "LAMBETH",
        "streetDirectionId": null,
        "streetTypeId": "WALK",
        "placeName": "OTTAWA",
        "streetNameDisplayText": "LAMBETH WALK, OTTAWA"
      }
    ]
  },
  {
    "postal": "K2C9W7",
    "result": []
  },
  {
    "postal": "K2C5W6",
    "result": []
  },
  {
    "postal": "K2C6S6",
    "result": []
  },
  {
    "postal": "K2C2P8",
    "result": [
      {
        "electoralDistricts": [
          {
            "election": null,
            "id": 81,
            "name": "Ottawa West—Nepean"
          }
        ],
        "pollDivisionIds": [
          10140837
        ],
        "postalCode": "K2C2P8",
        "streetName": "FIELD",
        "streetDirectionId": null,
        "streetTypeId": "ST",
        "placeName": "OTTAWA",
        "streetNameDisplayText": "FIELD ST, OTTAWA"
      }
    ]
  },
  {
    "postal": "K2C4P8",
    "result": []
  },
  {
    "postal": "K2C0V9",
    "result": [
      {
        "electoralDistricts": [
          {
            "election": null,
            "id": 81,
            "name": "Ottawa West—Nepean"
          }
        ],
        "pollDivisionIds": [
          10140840
        ],
        "postalCode": "K2C0V9",
        "streetName": "NAVAHO",
        "streetDirectionId": null,
        "streetTypeId": "DR",
        "placeName": "OTTAWA",
        "streetNameDisplayText": "NAVAHO DR, OTTAWA"
      }
    ]
  },
  {
    "postal": "K2C5Y2",
    "result": []
  },
  {
    "postal": "K2C7Z7",
    "result": []
  },
  {
    "postal": "K2C6Y8",
    "result": []
  },
  {
    "postal": "K2C2G7",
    "result": [
      {
        "electoralDistricts": [
          {
            "election": null,
            "id": 81,
            "name": "Ottawa West—Nepean"
          }
        ],
        "pollDivisionIds": [
          10140841
        ],
        "postalCode": "K2C2G7",
        "streetName": "WOODSIDE",
        "streetDirectionId": null,
        "streetTypeId": "DR",
        "placeName": "OTTAWA",
        "streetNameDisplayText": "WOODSIDE DR, OTTAWA"
      }
    ]
  },
  {
    "postal": "K2C8C1",
    "result": []
  },
  {
    "postal": "K2C5C5",
    "result": []
  },
  {
    "postal": "K2C2X8",
    "result": [
      {
        "electoralDistricts": [
          {
            "election": null,
            "id": 81,
            "name": "Ottawa West—Nepean"
          }
        ],
        "pollDivisionIds": [
          10140833
        ],
        "postalCode": "K2C2X8",
        "streetName": "RIDEOUT",
        "streetDirectionId": null,
        "streetTypeId": "CRES",
        "placeName": "OTTAWA",
        "streetNameDisplayText": "RIDEOUT CRES, OTTAWA"
      }
    ]
  },
  {
    "postal": "K2C1W5",
    "result": [
      {
        "electoralDistricts": [
          {
            "election": null,
            "id": 78,
            "name": "Ottawa Centre"
          }
        ],
        "pollDivisionIds": [
          10140564
        ],
        "postalCode": "K2C1W5",
        "streetName": "ORTONA",
        "streetDirectionId": null,
        "streetTypeId": "AVE",
        "placeName": "OTTAWA",
        "streetNameDisplayText": "ORTONA AVE, OTTAWA"
      }
    ]
  },
  {
    "postal": "K2C7G0",
    "result": []
  },
  {
    "postal": "K2C8J8",
    "result": []
  },
  {
    "postal": "K2C3Y0",
    "result": []
  },
  {
    "postal": "K2C9T7",
    "result": []
  },
  {
    "postal": "K2C5P4",
    "result": []
  },
  {
    "postal": "K2C4B0",
    "result": []
  },
  {
    "postal": "K2C9N8",
    "result": []
  },
  {
    "postal": "K2C4A7",
    "result": [
      {
        "electoralDistricts": [
          {
            "election": null,
            "id": 81,
            "name": "Ottawa West—Nepean"
          }
        ],
        "pollDivisionIds": [
          10140846,
          10140844
        ],
        "postalCode": "K2C4A7",
        "streetName": "TRUMP",
        "streetDirectionId": null,
        "streetTypeId": "AVE",
        "placeName": "OTTAWA",
        "streetNameDisplayText": "TRUMP AVE, OTTAWA"
      },
      {
        "electoralDistricts": [
          {
            "election": null,
            "id": 81,
            "name": "Ottawa West—Nepean"
          }
        ],
        "pollDivisionIds": [
          10140844
        ],
        "postalCode": "K2C4A7",
        "streetName": "WHITESTONE",
        "streetDirectionId": null,
        "streetTypeId": "DR",
        "placeName": "OTTAWA",
        "streetNameDisplayText": "WHITESTONE DR, OTTAWA"
      }
    ]
  },
  {
    "postal": "K2C4H9",
    "result": [
      {
        "electoralDistricts": [
          {
            "election": null,
            "id": 78,
            "name": "Ottawa Centre"
          }
        ],
        "pollDivisionIds": [
          10140564
        ],
        "postalCode": "K2C4H9",
        "streetName": "AMITA",
        "streetDirectionId": null,
        "streetTypeId": "CRES",
        "placeName": "OTTAWA",
        "streetNameDisplayText": "AMITA CRES, OTTAWA"
      }
    ]
  },
  {
    "postal": "K2C6X1",
    "result": []
  },
  {
    "postal": "K2C9Y7",
    "result": []
  },
  {
    "postal": "K2C2Y5",
    "result": [
      {
        "electoralDistricts": [
          {
            "election": null,
            "id": 81,
            "name": "Ottawa West—Nepean"
          }
        ],
        "pollDivisionIds": [
          10140833
        ],
        "postalCode": "K2C2Y5",
        "streetName": "HIGHGATE",
        "streetDirectionId": null,
        "streetTypeId": "RD",
        "placeName": "OTTAWA",
        "streetNameDisplayText": "HIGHGATE RD, OTTAWA"
      }
    ]
  },
  {
    "postal": "K2C8L7",
    "result": []
  },
  {
    "postal": "K2C2A8",
    "result": [
      {
        "electoralDistricts": [
          {
            "election": null,
            "id": 81,
            "name": "Ottawa West—Nepean"
          }
        ],
        "pollDivisionIds": [
          10140841
        ],
        "postalCode": "K2C2A8",
        "streetName": "CASTLE HILL",
        "streetDirectionId": null,
        "streetTypeId": "CRES",
        "placeName": "OTTAWA",
        "streetNameDisplayText": "CASTLE HILL CRES, OTTAWA"
      }
    ]
  },
  {
    "postal": "K2C2K9",
    "result": [
      {
        "electoralDistricts": [
          {
            "election": null,
            "id": 81,
            "name": "Ottawa West—Nepean"
          }
        ],
        "pollDivisionIds": [
          10140840
        ],
        "postalCode": "K2C2K9",
        "streetName": "FERGUSON",
        "streetDirectionId": null,
        "streetTypeId": "ST",
        "placeName": "OTTAWA",
        "streetNameDisplayText": "FERGUSON ST, OTTAWA"
      }
    ]
  },
  {
    "postal": "K2C3E5",
    "result": [
      {
        "electoralDistricts": [
          {
            "election": null,
            "id": 81,
            "name": "Ottawa West—Nepean"
          }
        ],
        "pollDivisionIds": [
          10140825
        ],
        "postalCode": "K2C3E5",
        "streetName": "MCWATTERS",
        "streetDirectionId": null,
        "streetTypeId": "RD",
        "placeName": "OTTAWA",
        "streetNameDisplayText": "MCWATTERS RD, OTTAWA"
      }
    ]
  },
  {
    "postal": "K2C8N6",
    "result": []
  },
  {
    "postal": "K2C8J4",
    "result": []
  },
  {
    "postal": "K2C4R7",
    "result": []
  },
  {
    "postal": "K2C9K1",
    "result": []
  },
  {
    "postal": "K2C8E1",
    "result": []
  },
  {
    "postal": "K2C0R1",
    "result": []
  },
  {
    "postal": "K2C4J3",
    "result": [
      {
        "electoralDistricts": [
          {
            "election": null,
            "id": 78,
            "name": "Ottawa Centre"
          }
        ],
        "pollDivisionIds": [
          10140564
        ],
        "postalCode": "K2C4J3",
        "streetName": "MADHU",
        "streetDirectionId": null,
        "streetTypeId": "CRES",
        "placeName": "OTTAWA",
        "streetNameDisplayText": "MADHU CRES, OTTAWA"
      }
    ]
  },
  {
    "postal": "K2C7E7",
    "result": []
  },
  {
    "postal": "K2C0J0",
    "result": []
  },
  {
    "postal": "K2C7R8",
    "result": []
  },
  {
    "postal": "K2C9X0",
    "result": []
  },
  {
    "postal": "K2C7P6",
    "result": []
  },
  {
    "postal": "K2C0R7",
    "result": [
      {
        "electoralDistricts": [
          {
            "election": null,
            "id": 81,
            "name": "Ottawa West—Nepean"
          }
        ],
        "pollDivisionIds": [
          10140840
        ],
        "postalCode": "K2C0R7",
        "streetName": "FORLAN",
        "streetDirectionId": null,
        "streetTypeId": "DR",
        "placeName": "OTTAWA",
        "streetNameDisplayText": "FORLAN DR, OTTAWA"
      }
    ]
  },
  {
    "postal": "K2C5W1",
    "result": []
  },
  {
    "postal": "K2C0K4",
    "result": [
      {
        "electoralDistricts": [
          {
            "election": null,
            "id": 78,
            "name": "Ottawa Centre"
          }
        ],
        "pollDivisionIds": [
          10140557
        ],
        "postalCode": "K2C0K4",
        "streetName": "MEADOWLANDS",
        "streetDirectionId": "E",
        "streetTypeId": "DR",
        "placeName": "OTTAWA",
        "streetNameDisplayText": "MEADOWLANDS DR E, OTTAWA"
      },
      {
        "electoralDistricts": [
          {
            "election": null,
            "id": 78,
            "name": "Ottawa Centre"
          }
        ],
        "pollDivisionIds": [
          10140557
        ],
        "postalCode": "K2C0K4",
        "streetName": "MEADOWLANDS",
        "streetDirectionId": null,
        "streetTypeId": "DR",
        "placeName": "OTTAWA",
        "streetNameDisplayText": "MEADOWLANDS DR, OTTAWA"
      }
    ]
  },
  {
    "postal": "K2C7N9",
    "result": []
  },
  {
    "postal": "K2C1N0",
    "result": []
  },
  {
    "postal": "K2C6P3",
    "result": []
  },
  {
    "postal": "K2C5A1",
    "result": []
  },
  {
    "postal": "K2C9M9",
    "result": []
  },
  {
    "postal": "K2C7T6",
    "result": []
  },
  {
    "postal": "K2C3X0",
    "result": []
  },
  {
    "postal": "K2C2T0",
    "result": []
  },
  {
    "postal": "K2C5X9",
    "result": []
  },
  {
    "postal": "K2C2R3",
    "result": [
      {
        "electoralDistricts": [
          {
            "election": null,
            "id": 81,
            "name": "Ottawa West—Nepean"
          }
        ],
        "pollDivisionIds": [
          10140837
        ],
        "postalCode": "K2C2R3",
        "streetName": "FIELD",
        "streetDirectionId": null,
        "streetTypeId": "ST",
        "placeName": "OTTAWA",
        "streetNameDisplayText": "FIELD ST, OTTAWA"
      }
    ]
  },
  {
    "postal": "K2C5N2",
    "result": []
  },
  {
    "postal": "K2C4Y7",
    "result": []
  },
  {
    "postal": "K2C7M0",
    "result": []
  },
  {
    "postal": "K2C8P3",
    "result": []
  },
  {
    "postal": "K2C3N3",
    "result": []
  },
  {
    "postal": "K2C7S3",
    "result": []
  },
  {
    "postal": "K2C3V9",
    "result": []
  },
  {
    "postal": "K2C9N7",
    "result": []
  },
  {
    "postal": "K2C0G4",
    "result": [
      {
        "electoralDistricts": [
          {
            "election": null,
            "id": 78,
            "name": "Ottawa Centre"
          }
        ],
        "pollDivisionIds": [
          10140554
        ],
        "postalCode": "K2C0G4",
        "streetName": "HUDSON",
        "streetDirectionId": null,
        "streetTypeId": "AVE",
        "placeName": "OTTAWA",
        "streetNameDisplayText": "HUDSON AVE, OTTAWA"
      }
    ]
  },
  {
    "postal": "K2C2E2",
    "result": [
      {
        "electoralDistricts": [
          {
            "election": null,
            "id": 81,
            "name": "Ottawa West—Nepean"
          }
        ],
        "pollDivisionIds": [
          10140840
        ],
        "postalCode": "K2C2E2",
        "streetName": "HENRY FARM",
        "streetDirectionId": null,
        "streetTypeId": "DR",
        "placeName": "OTTAWA",
        "streetNameDisplayText": "HENRY FARM DR, OTTAWA"
      }
    ]
  },
  {
    "postal": "K2C7W8",
    "result": []
  },
  {
    "postal": "K2C7M5",
    "result": []
  },
  {
    "postal": "K2C5W8",
    "result": []
  },
  {
    "postal": "K2C5E5",
    "result": []
  },
  {
    "postal": "K2C1P9",
    "result": [
      {
        "electoralDistricts": [
          {
            "election": null,
            "id": 78,
            "name": "Ottawa Centre"
          }
        ],
        "pollDivisionIds": [
          10140554
        ],
        "postalCode": "K2C1P9",
        "streetName": "LAMPMAN",
        "streetDirectionId": null,
        "streetTypeId": "CRES",
        "placeName": "OTTAWA",
        "streetNameDisplayText": "LAMPMAN CRES, OTTAWA"
      }
    ]
  },
  {
    "postal": "K2C8V8",
    "result": []
  },
  {
    "postal": "K2C9G8",
    "result": []
  },
  {
    "postal": "K2C8H9",
    "result": []
  },
  {
    "postal": "K2C1Z1",
    "result": [
      {
        "electoralDistricts": [
          {
            "election": null,
            "id": 81,
            "name": "Ottawa West—Nepean"
          }
        ],
        "pollDivisionIds": [
          10140841
        ],
        "postalCode": "K2C1Z1",
        "streetName": "CAMEO",
        "streetDirectionId": null,
        "streetTypeId": "DR",
        "placeName": "OTTAWA",
        "streetNameDisplayText": "CAMEO DR, OTTAWA"
      }
    ]
  },
  {
    "postal": "K2C8M3",
    "result": []
  },
  {
    "postal": "K2C5H6",
    "result": []
  },
  {
    "postal": "K2C7W7",
    "result": []
  },
  {
    "postal": "K2C4L0",
    "result": []
  },
  {
    "postal": "K2C2N1",
    "result": [
      {
        "electoralDistricts": [
          {
            "election": null,
            "id": 81,
            "name": "Ottawa West—Nepean"
          }
        ],
        "pollDivisionIds": [
          10140840
        ],
        "postalCode": "K2C2N1",
        "streetName": "JOYCE",
        "streetDirectionId": null,
        "streetTypeId": "CRES",
        "placeName": "OTTAWA",
        "streetNameDisplayText": "JOYCE CRES, OTTAWA"
      }
    ]
  },
  {
    "postal": "K2C2H4",
    "result": [
      {
        "electoralDistricts": [
          {
            "election": null,
            "id": 81,
            "name": "Ottawa West—Nepean"
          }
        ],
        "pollDivisionIds": [
          10140841
        ],
        "postalCode": "K2C2H4",
        "streetName": "TARA",
        "streetDirectionId": null,
        "streetTypeId": "DR",
        "placeName": "OTTAWA",
        "streetNameDisplayText": "TARA DR, OTTAWA"
      }
    ]
  },
  {
    "postal": "K2C5C8",
    "result": []
  },
  {
    "postal": "K2C8B0",
    "result": []
  },
  {
    "postal": "K2C1T4",
    "result": [
      {
        "electoralDistricts": [
          {
            "election": null,
            "id": 78,
            "name": "Ottawa Centre"
          }
        ],
        "pollDivisionIds": [
          10140564
        ],
        "postalCode": "K2C1T4",
        "streetName": "CLAYMOR",
        "streetDirectionId": null,
        "streetTypeId": "AVE",
        "placeName": "OTTAWA",
        "streetNameDisplayText": "CLAYMOR AVE, OTTAWA"
      }
    ]
  },
  {
    "postal": "K2C7N7",
    "result": []
  },
  {
    "postal": "K2C4L3",
    "result": []
  },
  {
    "postal": "K2C2N2",
    "result": [
      {
        "electoralDistricts": [
          {
            "election": null,
            "id": 81,
            "name": "Ottawa West—Nepean"
          }
        ],
        "pollDivisionIds": [
          10140840
        ],
        "postalCode": "K2C2N2",
        "streetName": "LAXTON",
        "streetDirectionId": null,
        "streetTypeId": "CRES",
        "placeName": "OTTAWA",
        "streetNameDisplayText": "LAXTON CRES, OTTAWA"
      }
    ]
  },
  {
    "postal": "K2C4N8",
    "result": []
  },
  {
    "postal": "K2C3M5",
    "result": [
      {
        "electoralDistricts": [
          {
            "election": null,
            "id": 81,
            "name": "Ottawa West—Nepean"
          }
        ],
        "pollDivisionIds": [
          10140857
        ],
        "postalCode": "K2C3M5",
        "streetName": "MCWATTERS",
        "streetDirectionId": null,
        "streetTypeId": "RD",
        "placeName": "OTTAWA",
        "streetNameDisplayText": "MCWATTERS RD, OTTAWA"
      }
    ]
  },
  {
    "postal": "K2C6H7",
    "result": []
  },
  {
    "postal": "K2C8Y8",
    "result": []
  },
  {
    "postal": "K2C5R9",
    "result": []
  },
  {
    "postal": "K2C8G3",
    "result": []
  },
  {
    "postal": "K2C4N7",
    "result": []
  },
  {
    "postal": "K2C0B9",
    "result": [
      {
        "electoralDistricts": [
          {
            "election": null,
            "id": 81,
            "name": "Ottawa West—Nepean"
          }
        ],
        "pollDivisionIds": [
          10140839,
          10140842
        ],
        "postalCode": "K2C0B9",
        "streetName": "BASELINE",
        "streetDirectionId": null,
        "streetTypeId": "RD",
        "placeName": "NEPEAN",
        "streetNameDisplayText": "BASELINE RD, NEPEAN"
      },
      {
        "electoralDistricts": [
          {
            "election": null,
            "id": 81,
            "name": "Ottawa West—Nepean"
          }
        ],
        "pollDivisionIds": [
          10140842
        ],
        "postalCode": "K2C0B9",
        "streetName": "BASELINE",
        "streetDirectionId": null,
        "streetTypeId": "RD",
        "placeName": "OTTAWA",
        "streetNameDisplayText": "BASELINE RD, OTTAWA"
      }
    ]
  },
  {
    "postal": "K2C9K7",
    "result": []
  },
  {
    "postal": "K2C9K9",
    "result": []
  },
  {
    "postal": "K2C3Z2",
    "result": []
  },
  {
    "postal": "K2C6W7",
    "result": []
  },
  {
    "postal": "K2C0P1",
    "result": [
      {
        "electoralDistricts": [
          {
            "election": null,
            "id": 78,
            "name": "Ottawa Centre"
          }
        ],
        "pollDivisionIds": [
          10140564
        ],
        "postalCode": "K2C0P1",
        "streetName": "MINAKI",
        "streetDirectionId": null,
        "streetTypeId": "AVE",
        "placeName": "OTTAWA",
        "streetNameDisplayText": "MINAKI AVE, OTTAWA"
      }
    ]
  },
  {
    "postal": "K2C3A0",
    "result": []
  },
  {
    "postal": "K2C8L9",
    "result": []
  },
  {
    "postal": "K2C6X0",
    "result": []
  },
  {
    "postal": "K2C3E9",
    "result": []
  },
  {
    "postal": "K2C0S5",
    "result": [
      {
        "electoralDistricts": [
          {
            "election": null,
            "id": 81,
            "name": "Ottawa West—Nepean"
          }
        ],
        "pollDivisionIds": [
          10140840
        ],
        "postalCode": "K2C0S5",
        "streetName": "AINSLEY",
        "streetDirectionId": null,
        "streetTypeId": "DR",
        "placeName": "OTTAWA",
        "streetNameDisplayText": "AINSLEY DR, OTTAWA"
      }
    ]
  },
  {
    "postal": "K2C1A2",
    "result": [
      {
        "electoralDistricts": [
          {
            "election": null,
            "id": 81,
            "name": "Ottawa West—Nepean"
          }
        ],
        "pollDivisionIds": [
          10140840
        ],
        "postalCode": "K2C1A2",
        "streetName": "MALLARD",
        "streetDirectionId": null,
        "streetTypeId": "AVE",
        "placeName": "OTTAWA",
        "streetNameDisplayText": "MALLARD AVE, OTTAWA"
      }
    ]
  },
  {
    "postal": "K2C5V8",
    "result": []
  },
  {
    "postal": "K2C8C5",
    "result": []
  },
  {
    "postal": "K2C6N0",
    "result": []
  },
  {
    "postal": "K2C9E6",
    "result": []
  },
  {
    "postal": "K2C5J7",
    "result": []
  },
  {
    "postal": "K2C2R2",
    "result": [
      {
        "electoralDistricts": [
          {
            "election": null,
            "id": 81,
            "name": "Ottawa West—Nepean"
          }
        ],
        "pollDivisionIds": [
          10140837
        ],
        "postalCode": "K2C2R2",
        "streetName": "FIELD",
        "streetDirectionId": null,
        "streetTypeId": "ST",
        "placeName": "OTTAWA",
        "streetNameDisplayText": "FIELD ST, OTTAWA"
      }
    ]
  },
  {
    "postal": "K2C0P5",
    "result": [
      {
        "electoralDistricts": [
          {
            "election": null,
            "id": 78,
            "name": "Ottawa Centre"
          }
        ],
        "pollDivisionIds": [
          10140564
        ],
        "postalCode": "K2C0P5",
        "streetName": "MELFA",
        "streetDirectionId": null,
        "streetTypeId": "CRES",
        "placeName": "OTTAWA",
        "streetNameDisplayText": "MELFA CRES, OTTAWA"
      }
    ]
  },
  {
    "postal": "K2C5A7",
    "result": []
  },
  {
    "postal": "K2C1G1",
    "result": [
      {
        "electoralDistricts": [
          {
            "election": null,
            "id": 81,
            "name": "Ottawa West—Nepean"
          }
        ],
        "pollDivisionIds": [
          10140833
        ],
        "postalCode": "K2C1G1",
        "streetName": "LAMBETH",
        "streetDirectionId": null,
        "streetTypeId": "WALK",
        "placeName": "OTTAWA",
        "streetNameDisplayText": "LAMBETH WALK, OTTAWA"
      }
    ]
  },
  {
    "postal": "K2C9R6",
    "result": []
  },
  {
    "postal": "K2C4Z9",
    "result": []
  },
  {
    "postal": "K2C1V5",
    "result": [
      {
        "electoralDistricts": [
          {
            "election": null,
            "id": 78,
            "name": "Ottawa Centre"
          }
        ],
        "pollDivisionIds": [
          10140564
        ],
        "postalCode": "K2C1V5",
        "streetName": "APELDOORN",
        "streetDirectionId": null,
        "streetTypeId": "AVE",
        "placeName": "OTTAWA",
        "streetNameDisplayText": "APELDOORN AVE, OTTAWA"
      }
    ]
  },
  {
    "postal": "K2C9Y5",
    "result": []
  },
  {
    "postal": "K2C1P2",
    "result": [
      {
        "electoralDistricts": [
          {
            "election": null,
            "id": 78,
            "name": "Ottawa Centre"
          }
        ],
        "pollDivisionIds": [
          10140564
        ],
        "postalCode": "K2C1P2",
        "streetName": "PRINCE OF WALES",
        "streetDirectionId": null,
        "streetTypeId": "DR",
        "placeName": "OTTAWA",
        "streetNameDisplayText": "PRINCE OF WALES DR, OTTAWA"
      }
    ]
  },
  {
    "postal": "K2C5X0",
    "result": []
  },
  {
    "postal": "K2C7B8",
    "result": []
  },
  {
    "postal": "K2C0C6",
    "result": [
      {
        "electoralDistricts": [
          {
            "election": null,
            "id": 81,
            "name": "Ottawa West—Nepean"
          }
        ],
        "pollDivisionIds": [
          10140839
        ],
        "postalCode": "K2C0C6",
        "streetName": "BASELINE",
        "streetDirectionId": null,
        "streetTypeId": "RD",
        "placeName": "OTTAWA",
        "streetNameDisplayText": "BASELINE RD, OTTAWA"
      }
    ]
  },
  {
    "postal": "K2C6G1",
    "result": []
  },
  {
    "postal": "K2C3K3",
    "result": [
      {
        "electoralDistricts": [
          {
            "election": null,
            "id": 43,
            "name": "Kanata—Carleton"
          },
          {
            "election": null,
            "id": 81,
            "name": "Ottawa West—Nepean"
          }
        ],
        "pollDivisionIds": [
          10138961,
          10140837
        ],
        "postalCode": "K2C3K3",
        "streetName": "NAVAHO",
        "streetDirectionId": null,
        "streetTypeId": "DR",
        "placeName": "OTTAWA",
        "streetNameDisplayText": "NAVAHO DR, OTTAWA"
      }
    ]
  },
  {
    "postal": "K2C9R0",
    "result": []
  },
  {
    "postal": "K2C4R8",
    "result": []
  },
  {
    "postal": "K2C5P9",
    "result": []
  },
  {
    "postal": "K2C8N4",
    "result": []
  },
  {
    "postal": "K2C8H4",
    "result": []
  },
  {
    "postal": "K2C4V1",
    "result": []
  },
  {
    "postal": "K2C1K5",
    "result": [
      {
        "electoralDistricts": [
          {
            "election": null,
            "id": 81,
            "name": "Ottawa West—Nepean"
          }
        ],
        "pollDivisionIds": [
          10140833
        ],
        "postalCode": "K2C1K5",
        "streetName": "RYAN",
        "streetDirectionId": null,
        "streetTypeId": "DR",
        "placeName": "OTTAWA",
        "streetNameDisplayText": "RYAN DR, OTTAWA"
      }
    ]
  },
  {
    "postal": "K2C1Z5",
    "result": [
      {
        "electoralDistricts": [
          {
            "election": null,
            "id": 81,
            "name": "Ottawa West—Nepean"
          }
        ],
        "pollDivisionIds": [
          10140841
        ],
        "postalCode": "K2C1Z5",
        "streetName": "BONNIE",
        "streetDirectionId": null,
        "streetTypeId": "CRES",
        "placeName": "OTTAWA",
        "streetNameDisplayText": "BONNIE CRES, OTTAWA"
      }
    ]
  },
  {
    "postal": "K2C9L9",
    "result": []
  },
  {
    "postal": "K2C5L2",
    "result": []
  },
  {
    "postal": "K2C0M2",
    "result": [
      {
        "electoralDistricts": [
          {
            "election": null,
            "id": 78,
            "name": "Ottawa Centre"
          }
        ],
        "pollDivisionIds": [
          10140564
        ],
        "postalCode": "K2C0M2",
        "streetName": "FALAISE",
        "streetDirectionId": null,
        "streetTypeId": "RD",
        "placeName": "OTTAWA",
        "streetNameDisplayText": "FALAISE RD, OTTAWA"
      }
    ]
  },
  {
    "postal": "K2C1K8",
    "result": [
      {
        "electoralDistricts": [
          {
            "election": null,
            "id": 81,
            "name": "Ottawa West—Nepean"
          }
        ],
        "pollDivisionIds": [
          10140833
        ],
        "postalCode": "K2C1K8",
        "streetName": "RYAN",
        "streetDirectionId": null,
        "streetTypeId": "DR",
        "placeName": "OTTAWA",
        "streetNameDisplayText": "RYAN DR, OTTAWA"
      }
    ]
  },
  {
    "postal": "K2C3M7",
    "result": [
      {
        "electoralDistricts": [
          {
            "election": null,
            "id": 78,
            "name": "Ottawa Centre"
          }
        ],
        "pollDivisionIds": [
          10140557
        ],
        "postalCode": "K2C3M7",
        "streetName": "EAST ORKNEY",
        "streetDirectionId": null,
        "streetTypeId": "PVT",
        "placeName": "OTTAWA",
        "streetNameDisplayText": "EAST ORKNEY PVT, OTTAWA"
      },
      {
        "electoralDistricts": [
          {
            "election": null,
            "id": 78,
            "name": "Ottawa Centre"
          }
        ],
        "pollDivisionIds": [
          10140557
        ],
        "postalCode": "K2C3M7",
        "streetName": "KINTYRE",
        "streetDirectionId": null,
        "streetTypeId": "PVT",
        "placeName": "OTTAWA",
        "streetNameDisplayText": "KINTYRE PVT, OTTAWA"
      },
      {
        "electoralDistricts": [
          {
            "election": null,
            "id": 78,
            "name": "Ottawa Centre"
          }
        ],
        "pollDivisionIds": [
          10140557
        ],
        "postalCode": "K2C3M7",
        "streetName": "ORKNEY",
        "streetDirectionId": null,
        "streetTypeId": "PVT",
        "placeName": "OTTAWA",
        "streetNameDisplayText": "ORKNEY PVT, OTTAWA"
      },
      {
        "electoralDistricts": [
          {
            "election": null,
            "id": 78,
            "name": "Ottawa Centre"
          }
        ],
        "pollDivisionIds": [
          10140557
        ],
        "postalCode": "K2C3M7",
        "streetName": "TRELAWNY",
        "streetDirectionId": null,
        "streetTypeId": "PVT",
        "placeName": "OTTAWA",
        "streetNameDisplayText": "TRELAWNY PVT, OTTAWA"
      }
    ]
  },
  {
    "postal": "K2C1B2",
    "result": [
      {
        "electoralDistricts": [
          {
            "election": null,
            "id": 81,
            "name": "Ottawa West—Nepean"
          }
        ],
        "pollDivisionIds": [
          10140837
        ],
        "postalCode": "K2C1B2",
        "streetName": "IRIS",
        "streetDirectionId": null,
        "streetTypeId": "ST",
        "placeName": "OTTAWA",
        "streetNameDisplayText": "IRIS ST, OTTAWA"
      }
    ]
  },
  {
    "postal": "K2C0H9",
    "result": [
      {
        "electoralDistricts": [
          {
            "election": null,
            "id": 78,
            "name": "Ottawa Centre"
          }
        ],
        "pollDivisionIds": [
          10140554
        ],
        "postalCode": "K2C0H9",
        "streetName": "MARYLAND",
        "streetDirectionId": null,
        "streetTypeId": "AVE",
        "placeName": "OTTAWA",
        "streetNameDisplayText": "MARYLAND AVE, OTTAWA"
      }
    ]
  },
  {
    "postal": "K2C8M4",
    "result": []
  },
  {
    "postal": "K2C2M5",
    "result": [
      {
        "electoralDistricts": [
          {
            "election": null,
            "id": 81,
            "name": "Ottawa West—Nepean"
          }
        ],
        "pollDivisionIds": [
          10140837
        ],
        "postalCode": "K2C2M5",
        "streetName": "SHERMAN",
        "streetDirectionId": null,
        "streetTypeId": "DR",
        "placeName": "OTTAWA",
        "streetNameDisplayText": "SHERMAN DR, OTTAWA"
      }
    ]
  },
  {
    "postal": "K2C0T9",
    "result": [
      {
        "electoralDistricts": [
          {
            "election": null,
            "id": 81,
            "name": "Ottawa West—Nepean"
          }
        ],
        "pollDivisionIds": [
          10140837
        ],
        "postalCode": "K2C0T9",
        "streetName": "NAVAHO",
        "streetDirectionId": null,
        "streetTypeId": "DR",
        "placeName": "OTTAWA",
        "streetNameDisplayText": "NAVAHO DR, OTTAWA"
      }
    ]
  },
  {
    "postal": "K2C3P1",
    "result": [
      {
        "electoralDistricts": [
          {
            "election": null,
            "id": 81,
            "name": "Ottawa West—Nepean"
          }
        ],
        "pollDivisionIds": [
          10140833
        ],
        "postalCode": "K2C3P1",
        "streetName": "BAXTER",
        "streetDirectionId": null,
        "streetTypeId": "RD",
        "placeName": "OTTAWA",
        "streetNameDisplayText": "BAXTER RD, OTTAWA"
      }
    ]
  },
  {
    "postal": "K2C1R6",
    "result": [
      {
        "electoralDistricts": [
          {
            "election": null,
            "id": 78,
            "name": "Ottawa Centre"
          }
        ],
        "pollDivisionIds": [
          10140554
        ],
        "postalCode": "K2C1R6",
        "streetName": "MORLEY",
        "streetDirectionId": null,
        "streetTypeId": "BLVD",
        "placeName": "OTTAWA",
        "streetNameDisplayText": "MORLEY BLVD, OTTAWA"
      }
    ]
  },
  {
    "postal": "K2C9V5",
    "result": []
  },
  {
    "postal": "K2C9T0",
    "result": []
  },
  {
    "postal": "K2C0A9",
    "result": [
      {
        "electoralDistricts": [
          {
            "election": null,
            "id": 81,
            "name": "Ottawa West—Nepean"
          }
        ],
        "pollDivisionIds": [
          10140847
        ],
        "postalCode": "K2C0A9",
        "streetName": "BASELINE",
        "streetDirectionId": null,
        "streetTypeId": "RD",
        "placeName": "OTTAWA",
        "streetNameDisplayText": "BASELINE RD, OTTAWA"
      }
    ]
  },
  {
    "postal": "K2C1M3",
    "result": [
      {
        "electoralDistricts": [
          {
            "election": null,
            "id": 81,
            "name": "Ottawa West—Nepean"
          }
        ],
        "pollDivisionIds": [
          10140825
        ],
        "postalCode": "K2C1M3",
        "streetName": "RECTOR",
        "streetDirectionId": null,
        "streetTypeId": "AVE",
        "placeName": "OTTAWA",
        "streetNameDisplayText": "RECTOR AVE, OTTAWA"
      }
    ]
  },
  {
    "postal": "K2C1W8",
    "result": [
      {
        "electoralDistricts": [
          {
            "election": null,
            "id": 78,
            "name": "Ottawa Centre"
          }
        ],
        "pollDivisionIds": [
          10140564
        ],
        "postalCode": "K2C1W8",
        "streetName": "ORTONA",
        "streetDirectionId": null,
        "streetTypeId": "AVE",
        "placeName": "OTTAWA",
        "streetNameDisplayText": "ORTONA AVE, OTTAWA"
      }
    ]
  },
  {
    "postal": "K2C9J1",
    "result": []
  },
  {
    "postal": "K2C8N5",
    "result": []
  },
  {
    "postal": "K2C5X1",
    "result": []
  },
  {
    "postal": "K2C6S2",
    "result": []
  },
  {
    "postal": "K2C2A2",
    "result": [
      {
        "electoralDistricts": [
          {
            "election": null,
            "id": 81,
            "name": "Ottawa West—Nepean"
          }
        ],
        "pollDivisionIds": [
          10140841
        ],
        "postalCode": "K2C2A2",
        "streetName": "BONNIE",
        "streetDirectionId": null,
        "streetTypeId": "CRES",
        "placeName": "OTTAWA",
        "streetNameDisplayText": "BONNIE CRES, OTTAWA"
      }
    ]
  },
  {
    "postal": "K2C6A6",
    "result": []
  },
  {
    "postal": "K2C0S3",
    "result": [
      {
        "electoralDistricts": [
          {
            "election": null,
            "id": 81,
            "name": "Ottawa West—Nepean"
          }
        ],
        "pollDivisionIds": [
          10140840
        ],
        "postalCode": "K2C0S3",
        "streetName": "AINSLEY",
        "streetDirectionId": null,
        "streetTypeId": "DR",
        "placeName": "OTTAWA",
        "streetNameDisplayText": "AINSLEY DR, OTTAWA"
      }
    ]
  },
  {
    "postal": "K2C3E7",
    "result": [
      {
        "electoralDistricts": [
          {
            "election": null,
            "id": 81,
            "name": "Ottawa West—Nepean"
          }
        ],
        "pollDivisionIds": [
          10140825
        ],
        "postalCode": "K2C3E7",
        "streetName": "MCWATTERS",
        "streetDirectionId": null,
        "streetTypeId": "RD",
        "placeName": "OTTAWA",
        "streetNameDisplayText": "MCWATTERS RD, OTTAWA"
      }
    ]
  },
  {
    "postal": "K2C5R7",
    "result": []
  },
  {
    "postal": "K2C3R6",
    "result": [
      {
        "electoralDistricts": [
          {
            "election": null,
            "id": 78,
            "name": "Ottawa Centre"
          }
        ],
        "pollDivisionIds": [
          10140554,
          10140564
        ],
        "postalCode": "K2C3R6",
        "streetName": "PRINCE OF WALES",
        "streetDirectionId": null,
        "streetTypeId": "DR",
        "placeName": "OTTAWA",
        "streetNameDisplayText": "PRINCE OF WALES DR, OTTAWA"
      }
    ]
  },
  {
    "postal": "K2C6K4",
    "result": []
  },
  {
    "postal": "K2C2W5",
    "result": [
      {
        "electoralDistricts": [
          {
            "election": null,
            "id": 81,
            "name": "Ottawa West—Nepean"
          }
        ],
        "pollDivisionIds": [
          10140833
        ],
        "postalCode": "K2C2W5",
        "streetName": "PARKWAY",
        "streetDirectionId": null,
        "streetTypeId": "DR",
        "placeName": "OTTAWA",
        "streetNameDisplayText": "PARKWAY DR, OTTAWA"
      }
    ]
  },
  {
    "postal": "K2C8W4",
    "result": []
  },
  {
    "postal": "K2C9C2",
    "result": []
  },
  {
    "postal": "K2C2C0",
    "result": []
  },
  {
    "postal": "K2C0E1",
    "result": [
      {
        "electoralDistricts": [
          {
            "election": null,
            "id": 81,
            "name": "Ottawa West—Nepean"
          }
        ],
        "pollDivisionIds": [
          10140833
        ],
        "postalCode": "K2C0E1",
        "streetName": "BASELINE",
        "streetDirectionId": null,
        "streetTypeId": "RD",
        "placeName": "OTTAWA",
        "streetNameDisplayText": "BASELINE RD, OTTAWA"
      }
    ]
  },
  {
    "postal": "K2C1K9",
    "result": [
      {
        "electoralDistricts": [
          {
            "election": null,
            "id": 81,
            "name": "Ottawa West—Nepean"
          }
        ],
        "pollDivisionIds": [
          10140833
        ],
        "postalCode": "K2C1K9",
        "streetName": "RYAN",
        "streetDirectionId": null,
        "streetTypeId": "DR",
        "placeName": "OTTAWA",
        "streetNameDisplayText": "RYAN DR, OTTAWA"
      }
    ]
  },
  {
    "postal": "K2C1G7",
    "result": [
      {
        "electoralDistricts": [
          {
            "election": null,
            "id": 81,
            "name": "Ottawa West—Nepean"
          }
        ],
        "pollDivisionIds": [
          10140833
        ],
        "postalCode": "K2C1G7",
        "streetName": "WESTBURY",
        "streetDirectionId": null,
        "streetTypeId": "RD",
        "placeName": "OTTAWA",
        "streetNameDisplayText": "WESTBURY RD, OTTAWA"
      }
    ]
  },
  {
    "postal": "K2C4E9",
    "result": []
  },
  {
    "postal": "K2C9P0",
    "result": []
  },
  {
    "postal": "K2C5H3",
    "result": []
  },
  {
    "postal": "K2C9X6",
    "result": []
  },
  {
    "postal": "K2C5N7",
    "result": []
  },
  {
    "postal": "K2C5A6",
    "result": []
  },
  {
    "postal": "K2C4M0",
    "result": []
  },
  {
    "postal": "K2C3V6",
    "result": []
  },
  {
    "postal": "K2C1L7",
    "result": [
      {
        "electoralDistricts": [
          {
            "election": null,
            "id": 81,
            "name": "Ottawa West—Nepean"
          }
        ],
        "pollDivisionIds": [
          10140833
        ],
        "postalCode": "K2C1L7",
        "streetName": "SUDBURY",
        "streetDirectionId": null,
        "streetTypeId": "AVE",
        "placeName": "OTTAWA",
        "streetNameDisplayText": "SUDBURY AVE, OTTAWA"
      }
    ]
  },
  {
    "postal": "K2C2P9",
    "result": [
      {
        "electoralDistricts": [
          {
            "election": null,
            "id": 81,
            "name": "Ottawa West—Nepean"
          }
        ],
        "pollDivisionIds": [
          10140837
        ],
        "postalCode": "K2C2P9",
        "streetName": "FIELD",
        "streetDirectionId": null,
        "streetTypeId": "ST",
        "placeName": "OTTAWA",
        "streetNameDisplayText": "FIELD ST, OTTAWA"
      }
    ]
  },
  {
    "postal": "K2C5T4",
    "result": []
  },
  {
    "postal": "K2C5Z1",
    "result": []
  },
  {
    "postal": "K2C2X0",
    "result": []
  },
  {
    "postal": "K2C6Z2",
    "result": []
  },
  {
    "postal": "K2C0E0",
    "result": []
  },
  {
    "postal": "K2C3Z5",
    "result": []
  },
  {
    "postal": "K2C8H3",
    "result": []
  },
  {
    "postal": "K2C7S6",
    "result": []
  },
  {
    "postal": "K2C4C1",
    "result": [
      {
        "electoralDistricts": [
          {
            "election": null,
            "id": 81,
            "name": "Ottawa West—Nepean"
          }
        ],
        "pollDivisionIds": [
          10140846
        ],
        "postalCode": "K2C4C1",
        "streetName": "CENTRAL PARK",
        "streetDirectionId": null,
        "streetTypeId": "DR",
        "placeName": "OTTAWA",
        "streetNameDisplayText": "CENTRAL PARK DR, OTTAWA"
      },
      {
        "electoralDistricts": [
          {
            "election": null,
            "id": 81,
            "name": "Ottawa West—Nepean"
          }
        ],
        "pollDivisionIds": [
          10140846
        ],
        "postalCode": "K2C4C1",
        "streetName": "STATEN",
        "streetDirectionId": null,
        "streetTypeId": "WAY",
        "placeName": "OTTAWA",
        "streetNameDisplayText": "STATEN WAY, OTTAWA"
      },
      {
        "electoralDistricts": [
          {
            "election": null,
            "id": 81,
            "name": "Ottawa West—Nepean"
          }
        ],
        "pollDivisionIds": [
          10140846
        ],
        "postalCode": "K2C4C1",
        "streetName": "WHITESTONE",
        "streetDirectionId": null,
        "streetTypeId": "DR",
        "placeName": "OTTAWA",
        "streetNameDisplayText": "WHITESTONE DR, OTTAWA"
      }
    ]
  },
  {
    "postal": "K2C3K2",
    "result": [
      {
        "electoralDistricts": [
          {
            "election": null,
            "id": 78,
            "name": "Ottawa Centre"
          }
        ],
        "pollDivisionIds": [
          10140554
        ],
        "postalCode": "K2C3K2",
        "streetName": "PRINCE OF WALES",
        "streetDirectionId": null,
        "streetTypeId": "DR",
        "placeName": "OTTAWA",
        "streetNameDisplayText": "PRINCE OF WALES DR, OTTAWA"
      }
    ]
  },
  {
    "postal": "K2C1Y5",
    "result": [
      {
        "electoralDistricts": [
          {
            "election": null,
            "id": 81,
            "name": "Ottawa West—Nepean"
          }
        ],
        "pollDivisionIds": [
          10140846
        ],
        "postalCode": "K2C1Y5",
        "streetName": "CLYDE",
        "streetDirectionId": null,
        "streetTypeId": "AVE",
        "placeName": "OTTAWA",
        "streetNameDisplayText": "CLYDE AVE, OTTAWA"
      }
    ]
  },
  {
    "postal": "K2C6P6",
    "result": []
  },
  {
    "postal": "K2C3N9",
    "result": [
      {
        "electoralDistricts": [
          {
            "election": null,
            "id": 78,
            "name": "Ottawa Centre"
          }
        ],
        "pollDivisionIds": [
          10140564
        ],
        "postalCode": "K2C3N9",
        "streetName": "APELDOORN",
        "streetDirectionId": null,
        "streetTypeId": "AVE",
        "placeName": "OTTAWA",
        "streetNameDisplayText": "APELDOORN AVE, OTTAWA"
      }
    ]
  },
  {
    "postal": "K2C3W2",
    "result": []
  },
  {
    "postal": "K2C6H8",
    "result": []
  },
  {
    "postal": "K2C9T3",
    "result": []
  },
  {
    "postal": "K2C5L9",
    "result": []
  },
  {
    "postal": "K2C7X7",
    "result": []
  },
  {
    "postal": "K2C3J5",
    "result": [
      {
        "electoralDistricts": [
          {
            "election": null,
            "id": 78,
            "name": "Ottawa Centre"
          },
          {
            "election": null,
            "id": 81,
            "name": "Ottawa West—Nepean"
          }
        ],
        "pollDivisionIds": [
          10140557,
          10140851,
          10140564
        ],
        "postalCode": "K2C3J5",
        "streetName": "FISHER",
        "streetDirectionId": null,
        "streetTypeId": "AVE",
        "placeName": "OTTAWA",
        "streetNameDisplayText": "FISHER AVE, OTTAWA"
      }
    ]
  },
  {
    "postal": "K2C4J5",
    "result": [
      {
        "electoralDistricts": [
          {
            "election": null,
            "id": 78,
            "name": "Ottawa Centre"
          }
        ],
        "pollDivisionIds": [
          10140564
        ],
        "postalCode": "K2C4J5",
        "streetName": "KOCHAR",
        "streetDirectionId": null,
        "streetTypeId": "DR",
        "placeName": "OTTAWA",
        "streetNameDisplayText": "KOCHAR DR, OTTAWA"
      }
    ]
  },
  {
    "postal": "K2C6J2",
    "result": []
  },
  {
    "postal": "K2C5V6",
    "result": []
  },
  {
    "postal": "K2C3N2",
    "result": [
      {
        "electoralDistricts": [
          {
            "election": null,
            "id": 78,
            "name": "Ottawa Centre"
          }
        ],
        "pollDivisionIds": [
          10140554
        ],
        "postalCode": "K2C3N2",
        "streetName": "MEADOWLANDS",
        "streetDirectionId": null,
        "streetTypeId": "DR",
        "placeName": "OTTAWA",
        "streetNameDisplayText": "MEADOWLANDS DR, OTTAWA"
      }
    ]
  },
  {
    "postal": "K2C3B1",
    "result": [
      {
        "electoralDistricts": [
          {
            "election": null,
            "id": 81,
            "name": "Ottawa West—Nepean"
          }
        ],
        "pollDivisionIds": [
          10140833
        ],
        "postalCode": "K2C3B1",
        "streetName": "SODERLIND",
        "streetDirectionId": null,
        "streetTypeId": "ST",
        "placeName": "OTTAWA",
        "streetNameDisplayText": "SODERLIND ST, OTTAWA"
      }
    ]
  },
  {
    "postal": "K2C8B5",
    "result": []
  },
  {
    "postal": "K2C0K1",
    "result": [
      {
        "electoralDistricts": [
          {
            "election": null,
            "id": 78,
            "name": "Ottawa Centre"
          }
        ],
        "pollDivisionIds": [
          10140564
        ],
        "postalCode": "K2C0K1",
        "streetName": "NESBITT",
        "streetDirectionId": null,
        "streetTypeId": "PL",
        "placeName": "OTTAWA",
        "streetNameDisplayText": "NESBITT PL, OTTAWA"
      }
    ]
  },
  {
    "postal": "K2C7M7",
    "result": []
  },
  {
    "postal": "K2C2M2",
    "result": [
      {
        "electoralDistricts": [
          {
            "election": null,
            "id": 81,
            "name": "Ottawa West—Nepean"
          }
        ],
        "pollDivisionIds": [
          10140840
        ],
        "postalCode": "K2C2M2",
        "streetName": "HANBURY",
        "streetDirectionId": null,
        "streetTypeId": "ST",
        "placeName": "OTTAWA",
        "streetNameDisplayText": "HANBURY ST, OTTAWA"
      }
    ]
  },
  {
    "postal": "K2C9N3",
    "result": []
  },
  {
    "postal": "K2C4Y8",
    "result": []
  },
  {
    "postal": "K2C3V7",
    "result": [
      {
        "electoralDistricts": [
          {
            "election": null,
            "id": 78,
            "name": "Ottawa Centre"
          }
        ],
        "pollDivisionIds": [
          10140564
        ],
        "postalCode": "K2C3V7",
        "streetName": "GREENBRIAR",
        "streetDirectionId": null,
        "streetTypeId": "AVE",
        "placeName": "OTTAWA",
        "streetNameDisplayText": "GREENBRIAR AVE, OTTAWA"
      }
    ]
  },
  {
    "postal": "K2C8Z1",
    "result": []
  },
  {
    "postal": "K2C7B3",
    "result": []
  },
  {
    "postal": "K2C3A8",
    "result": [
      {
        "electoralDistricts": [
          {
            "election": null,
            "id": 81,
            "name": "Ottawa West—Nepean"
          }
        ],
        "pollDivisionIds": [
          10140833
        ],
        "postalCode": "K2C3A8",
        "streetName": "PLACID",
        "streetDirectionId": null,
        "streetTypeId": "ST",
        "placeName": "OTTAWA",
        "streetNameDisplayText": "PLACID ST, OTTAWA"
      }
    ]
  },
  {
    "postal": "K2C7V5",
    "result": []
  },
  {
    "postal": "K2C2T2",
    "result": [
      {
        "electoralDistricts": [
          {
            "election": null,
            "id": 81,
            "name": "Ottawa West—Nepean"
          }
        ],
        "pollDivisionIds": [
          10140837
        ],
        "postalCode": "K2C2T2",
        "streetName": "WOODROFFE",
        "streetDirectionId": null,
        "streetTypeId": "AVE",
        "placeName": "NEPEAN",
        "streetNameDisplayText": "WOODROFFE AVE, NEPEAN"
      },
      {
        "electoralDistricts": [
          {
            "election": null,
            "id": 81,
            "name": "Ottawa West—Nepean"
          }
        ],
        "pollDivisionIds": [
          10140837
        ],
        "postalCode": "K2C2T2",
        "streetName": "WOODROFFE",
        "streetDirectionId": null,
        "streetTypeId": "AVE",
        "placeName": "OTTAWA",
        "streetNameDisplayText": "WOODROFFE AVE, OTTAWA"
      }
    ]
  },
  {
    "postal": "K2C6L3",
    "result": []
  },
  {
    "postal": "K2C0L2",
    "result": [
      {
        "electoralDistricts": [
          {
            "election": null,
            "id": 78,
            "name": "Ottawa Centre"
          }
        ],
        "pollDivisionIds": [
          10140564
        ],
        "postalCode": "K2C0L2",
        "streetName": "NORMANDY",
        "streetDirectionId": null,
        "streetTypeId": "CRES",
        "placeName": "OTTAWA",
        "streetNameDisplayText": "NORMANDY CRES, OTTAWA"
      }
    ]
  },
  {
    "postal": "K2C5Y8",
    "result": []
  },
  {
    "postal": "K2C0B8",
    "result": [
      {
        "electoralDistricts": [
          {
            "election": null,
            "id": 78,
            "name": "Ottawa Centre"
          },
          {
            "election": null,
            "id": 81,
            "name": "Ottawa West—Nepean"
          }
        ],
        "pollDivisionIds": [
          10140554,
          10140842,
          10140840
        ],
        "postalCode": "K2C0B8",
        "streetName": "BASELINE",
        "streetDirectionId": null,
        "streetTypeId": "RD",
        "placeName": "OTTAWA",
        "streetNameDisplayText": "BASELINE RD, OTTAWA"
      }
    ]
  },
  {
    "postal": "K2C6R5",
    "result": []
  },
  {
    "postal": "K2C8W6",
    "result": []
  },
  {
    "postal": "K2C8G6",
    "result": []
  },
  {
    "postal": "K2C6X3",
    "result": []
  },
  {
    "postal": "K2C7R7",
    "result": []
  },
  {
    "postal": "K2C4B6",
    "result": [
      {
        "electoralDistricts": [
          {
            "election": null,
            "id": 81,
            "name": "Ottawa West—Nepean"
          }
        ],
        "pollDivisionIds": [
          10140846
        ],
        "postalCode": "K2C4B6",
        "streetName": "YORKVILLE",
        "streetDirectionId": null,
        "streetTypeId": "ST",
        "placeName": "OTTAWA",
        "streetNameDisplayText": "YORKVILLE ST, OTTAWA"
      }
    ]
  },
  {
    "postal": "K2C3P9",
    "result": []
  },
  {
    "postal": "K2C2T3",
    "result": [
      {
        "electoralDistricts": [
          {
            "election": null,
            "id": 81,
            "name": "Ottawa West—Nepean"
          }
        ],
        "pollDivisionIds": [
          10140837
        ],
        "postalCode": "K2C2T3",
        "streetName": "WOODROFFE",
        "streetDirectionId": null,
        "streetTypeId": "AVE",
        "placeName": "OTTAWA",
        "streetNameDisplayText": "WOODROFFE AVE, OTTAWA"
      }
    ]
  },
  {
    "postal": "K2C1M4",
    "result": [
      {
        "electoralDistricts": [
          {
            "election": null,
            "id": 81,
            "name": "Ottawa West—Nepean"
          }
        ],
        "pollDivisionIds": [
          10140825
        ],
        "postalCode": "K2C1M4",
        "streetName": "RECTOR",
        "streetDirectionId": null,
        "streetTypeId": "AVE",
        "placeName": "OTTAWA",
        "streetNameDisplayText": "RECTOR AVE, OTTAWA"
      }
    ]
  },
  {
    "postal": "K2C0H1",
    "result": [
      {
        "electoralDistricts": [
          {
            "election": null,
            "id": 78,
            "name": "Ottawa Centre"
          }
        ],
        "pollDivisionIds": [
          10140557
        ],
        "postalCode": "K2C0H1",
        "streetName": "DYNES",
        "streetDirectionId": null,
        "streetTypeId": "RD",
        "placeName": "OTTAWA",
        "streetNameDisplayText": "DYNES RD, OTTAWA"
      }
    ]
  },
  {
    "postal": "K2C9W3",
    "result": []
  },
  {
    "postal": "K2C6P1",
    "result": []
  },
  {
    "postal": "K2C7G2",
    "result": []
  },
  {
    "postal": "K2C4J9",
    "result": []
  },
  {
    "postal": "K2C9E4",
    "result": []
  },
  {
    "postal": "K2C8H0",
    "result": []
  },
  {
    "postal": "K2C4M7",
    "result": []
  },
  {
    "postal": "K2C2G9",
    "result": [
      {
        "electoralDistricts": [
          {
            "election": null,
            "id": 81,
            "name": "Ottawa West—Nepean"
          }
        ],
        "pollDivisionIds": [
          10140840
        ],
        "postalCode": "K2C2G9",
        "streetName": "WOODSIDE",
        "streetDirectionId": null,
        "streetTypeId": "DR",
        "placeName": "OTTAWA",
        "streetNameDisplayText": "WOODSIDE DR, OTTAWA"
      }
    ]
  },
  {
    "postal": "K2C8T2",
    "result": []
  },
  {
    "postal": "K2C7G7",
    "result": []
  },
  {
    "postal": "K2C4Z3",
    "result": []
  },
  {
    "postal": "K2C5B3",
    "result": []
  },
  {
    "postal": "K2C1S7",
    "result": [
      {
        "electoralDistricts": [
          {
            "election": null,
            "id": 78,
            "name": "Ottawa Centre"
          }
        ],
        "pollDivisionIds": [
          10140557
        ],
        "postalCode": "K2C1S7",
        "streetName": "CLAYMOR",
        "streetDirectionId": null,
        "streetTypeId": "AVE",
        "placeName": "OTTAWA",
        "streetNameDisplayText": "CLAYMOR AVE, OTTAWA"
      }
    ]
  },
  {
    "postal": "K2C2N7",
    "result": [
      {
        "electoralDistricts": [
          {
            "election": null,
            "id": 81,
            "name": "Ottawa West—Nepean"
          }
        ],
        "pollDivisionIds": [
          10140837
        ],
        "postalCode": "K2C2N7",
        "streetName": "WHITMORE",
        "streetDirectionId": null,
        "streetTypeId": "AVE",
        "placeName": "OTTAWA",
        "streetNameDisplayText": "WHITMORE AVE, OTTAWA"
      }
    ]
  },
  {
    "postal": "K2C0H8",
    "result": [
      {
        "electoralDistricts": [
          {
            "election": null,
            "id": 78,
            "name": "Ottawa Centre"
          }
        ],
        "pollDivisionIds": [
          10140554
        ],
        "postalCode": "K2C0H8",
        "streetName": "MARYLAND",
        "streetDirectionId": null,
        "streetTypeId": "AVE",
        "placeName": "OTTAWA",
        "streetNameDisplayText": "MARYLAND AVE, OTTAWA"
      }
    ]
  },
  {
    "postal": "K2C7Z4",
    "result": []
  },
  {
    "postal": "K2C7B1",
    "result": []
  },
  {
    "postal": "K2C7P8",
    "result": []
  },
  {
    "postal": "K2C7N0",
    "result": []
  },
  {
    "postal": "K2C3Y5",
    "result": [
      {
        "electoralDistricts": [
          {
            "election": null,
            "id": 78,
            "name": "Ottawa Centre"
          }
        ],
        "pollDivisionIds": [
          10140554
        ],
        "postalCode": "K2C3Y5",
        "streetName": "FAIRCHILD",
        "streetDirectionId": null,
        "streetTypeId": "PVT",
        "placeName": "OTTAWA",
        "streetNameDisplayText": "FAIRCHILD PVT, OTTAWA"
      }
    ]
  },
  {
    "postal": "K2C6K1",
    "result": []
  },
  {
    "postal": "K2C9X5",
    "result": []
  },
  {
    "postal": "K2C7S5",
    "result": []
  },
  {
    "postal": "K2C0A4",
    "result": [
      {
        "electoralDistricts": [
          {
            "election": null,
            "id": 81,
            "name": "Ottawa West—Nepean"
          }
        ],
        "pollDivisionIds": [
          10140850
        ],
        "postalCode": "K2C0A4",
        "streetName": "BASELINE",
        "streetDirectionId": null,
        "streetTypeId": "RD",
        "placeName": "OTTAWA",
        "streetNameDisplayText": "BASELINE RD, OTTAWA"
      }
    ]
  },
  {
    "postal": "K2C4T5",
    "result": []
  },
  {
    "postal": "K2C5K1",
    "result": []
  },
  {
    "postal": "K2C0Z9",
    "result": [
      {
        "electoralDistricts": [
          {
            "election": null,
            "id": 81,
            "name": "Ottawa West—Nepean"
          }
        ],
        "pollDivisionIds": [
          10140840
        ],
        "postalCode": "K2C0Z9",
        "streetName": "GAGE",
        "streetDirectionId": null,
        "streetTypeId": "CRES",
        "placeName": "OTTAWA",
        "streetNameDisplayText": "GAGE CRES, OTTAWA"
      }
    ]
  },
  {
    "postal": "K2C7T2",
    "result": []
  },
  {
    "postal": "K2C1L5",
    "result": [
      {
        "electoralDistricts": [
          {
            "election": null,
            "id": 81,
            "name": "Ottawa West—Nepean"
          }
        ],
        "pollDivisionIds": [
          10140833
        ],
        "postalCode": "K2C1L5",
        "streetName": "MALONE",
        "streetDirectionId": null,
        "streetTypeId": "CRES",
        "placeName": "OTTAWA",
        "streetNameDisplayText": "MALONE CRES, OTTAWA"
      }
    ]
  },
  {
    "postal": "K2C3N5",
    "result": [
      {
        "electoralDistricts": [
          {
            "election": null,
            "id": 78,
            "name": "Ottawa Centre"
          }
        ],
        "pollDivisionIds": [
          10140564,
          10140611
        ],
        "postalCode": "K2C3N5",
        "streetName": "PRINCE OF WALES",
        "streetDirectionId": null,
        "streetTypeId": "DR",
        "placeName": "OTTAWA",
        "streetNameDisplayText": "PRINCE OF WALES DR, OTTAWA"
      }
    ]
  },
  {
    "postal": "K2C6H4",
    "result": []
  },
  {
    "postal": "K2C5A5",
    "result": []
  },
  {
    "postal": "K2C3R9",
    "result": [
      {
        "electoralDistricts": [
          {
            "election": null,
            "id": 78,
            "name": "Ottawa Centre"
          }
        ],
        "pollDivisionIds": [
          10140554
        ],
        "postalCode": "K2C3R9",
        "streetName": "RIDEAUVIEW",
        "streetDirectionId": null,
        "streetTypeId": "TERR",
        "placeName": "OTTAWA",
        "streetNameDisplayText": "RIDEAUVIEW TERR, OTTAWA"
      }
    ]
  },
  {
    "postal": "K2C7L8",
    "result": []
  },
  {
    "postal": "K2C6T6",
    "result": []
  },
  {
    "postal": "K2C7Y7",
    "result": []
  },
  {
    "postal": "K2C3M8",
    "result": [
      {
        "electoralDistricts": [
          {
            "election": null,
            "id": 78,
            "name": "Ottawa Centre"
          }
        ],
        "pollDivisionIds": [
          10140557
        ],
        "postalCode": "K2C3M8",
        "streetName": "FISHER",
        "streetDirectionId": null,
        "streetTypeId": "AVE",
        "placeName": "OTTAWA",
        "streetNameDisplayText": "FISHER AVE, OTTAWA"
      }
    ]
  },
  {
    "postal": "K2C2E0",
    "result": []
  },
  {
    "postal": "K2C4B5",
    "result": [
      {
        "electoralDistricts": [
          {
            "election": null,
            "id": 81,
            "name": "Ottawa West—Nepean"
          }
        ],
        "pollDivisionIds": [
          10140846
        ],
        "postalCode": "K2C4B5",
        "streetName": "MANHATTAN",
        "streetDirectionId": null,
        "streetTypeId": "CRES",
        "placeName": "OTTAWA",
        "streetNameDisplayText": "MANHATTAN CRES, OTTAWA"
      },
      {
        "electoralDistricts": [
          {
            "election": null,
            "id": 81,
            "name": "Ottawa West—Nepean"
          }
        ],
        "pollDivisionIds": [
          10140846
        ],
        "postalCode": "K2C4B5",
        "streetName": "YORKVILLE",
        "streetDirectionId": null,
        "streetTypeId": "ST",
        "placeName": "OTTAWA",
        "streetNameDisplayText": "YORKVILLE ST, OTTAWA"
      }
    ]
  },
  {
    "postal": "K2C1J3",
    "result": [
      {
        "electoralDistricts": [
          {
            "election": null,
            "id": 81,
            "name": "Ottawa West—Nepean"
          }
        ],
        "pollDivisionIds": [
          10140833
        ],
        "postalCode": "K2C1J3",
        "streetName": "TORQUAY",
        "streetDirectionId": null,
        "streetTypeId": "AVE",
        "placeName": "OTTAWA",
        "streetNameDisplayText": "TORQUAY AVE, OTTAWA"
      }
    ]
  },
  {
    "postal": "K2C5S6",
    "result": []
  },
  {
    "postal": "K2C8P7",
    "result": []
  },
  {
    "postal": "K2C7S7",
    "result": []
  },
  {
    "postal": "K2C4C2",
    "result": [
      {
        "electoralDistricts": [
          {
            "election": null,
            "id": 81,
            "name": "Ottawa West—Nepean"
          }
        ],
        "pollDivisionIds": [
          10140846,
          10140844
        ],
        "postalCode": "K2C4C2",
        "streetName": "CEDAR PARK",
        "streetDirectionId": null,
        "streetTypeId": "ST",
        "placeName": "OTTAWA",
        "streetNameDisplayText": "CEDAR PARK ST, OTTAWA"
      },
      {
        "electoralDistricts": [
          {
            "election": null,
            "id": 81,
            "name": "Ottawa West—Nepean"
          }
        ],
        "pollDivisionIds": [
          10140846
        ],
        "postalCode": "K2C4C2",
        "streetName": "CENTRAL PARK",
        "streetDirectionId": null,
        "streetTypeId": "DR",
        "placeName": "OTTAWA",
        "streetNameDisplayText": "CENTRAL PARK DR, OTTAWA"
      }
    ]
  },
  {
    "postal": "K2C5Y0",
    "result": []
  },
  {
    "postal": "K2C2V7",
    "result": [
      {
        "electoralDistricts": [
          {
            "election": null,
            "id": 81,
            "name": "Ottawa West—Nepean"
          }
        ],
        "pollDivisionIds": [
          10140837
        ],
        "postalCode": "K2C2V7",
        "streetName": "ADIRONDACK",
        "streetDirectionId": null,
        "streetTypeId": "DR",
        "placeName": "OTTAWA",
        "streetNameDisplayText": "ADIRONDACK DR, OTTAWA"
      }
    ]
  },
  {
    "postal": "K2C8P5",
    "result": []
  },
  {
    "postal": "K2C5P5",
    "result": []
  },
  {
    "postal": "K2C5Z0",
    "result": []
  },
  {
    "postal": "K2C9B0",
    "result": []
  },
  {
    "postal": "K2C1L0",
    "result": []
  },
  {
    "postal": "K2C0B5",
    "result": [
      {
        "electoralDistricts": [
          {
            "election": null,
            "id": 81,
            "name": "Ottawa West—Nepean"
          }
        ],
        "pollDivisionIds": [
          10140842
        ],
        "postalCode": "K2C0B5",
        "streetName": "BASELINE",
        "streetDirectionId": null,
        "streetTypeId": "RD",
        "placeName": "OTTAWA",
        "streetNameDisplayText": "BASELINE RD, OTTAWA"
      }
    ]
  },
  {
    "postal": "K2C3L2",
    "result": [
      {
        "electoralDistricts": [
          {
            "election": null,
            "id": 78,
            "name": "Ottawa Centre"
          }
        ],
        "pollDivisionIds": [
          10140554
        ],
        "postalCode": "K2C3L2",
        "streetName": "MARYLAND",
        "streetDirectionId": null,
        "streetTypeId": "AVE",
        "placeName": "OTTAWA",
        "streetNameDisplayText": "MARYLAND AVE, OTTAWA"
      }
    ]
  },
  {
    "postal": "K2C3B7",
    "result": [
      {
        "electoralDistricts": [
          {
            "election": null,
            "id": 81,
            "name": "Ottawa West—Nepean"
          }
        ],
        "pollDivisionIds": [
          10140833
        ],
        "postalCode": "K2C3B7",
        "streetName": "TOMPKINS",
        "streetDirectionId": null,
        "streetTypeId": "ST",
        "placeName": "OTTAWA",
        "streetNameDisplayText": "TOMPKINS ST, OTTAWA"
      }
    ]
  },
  {
    "postal": "K2C8L1",
    "result": []
  },
  {
    "postal": "K2C5M4",
    "result": []
  },
  {
    "postal": "K2C4G9",
    "result": [
      {
        "electoralDistricts": [
          {
            "election": null,
            "id": 78,
            "name": "Ottawa Centre"
          }
        ],
        "pollDivisionIds": [
          10140564
        ],
        "postalCode": "K2C4G9",
        "streetName": "KOCHAR",
        "streetDirectionId": null,
        "streetTypeId": "DR",
        "placeName": "OTTAWA",
        "streetNameDisplayText": "KOCHAR DR, OTTAWA"
      }
    ]
  },
  {
    "postal": "K2C0P0",
    "result": []
  },
  {
    "postal": "K2C8G2",
    "result": []
  },
  {
    "postal": "K2C1V9",
    "result": [
      {
        "electoralDistricts": [
          {
            "election": null,
            "id": 78,
            "name": "Ottawa Centre"
          }
        ],
        "pollDivisionIds": [
          10140564
        ],
        "postalCode": "K2C1V9",
        "streetName": "VALMARIE",
        "streetDirectionId": null,
        "streetTypeId": "AVE",
        "placeName": "OTTAWA",
        "streetNameDisplayText": "VALMARIE AVE, OTTAWA"
      }
    ]
  },
  {
    "postal": "K2C8N8",
    "result": []
  },
  {
    "postal": "K2C6S8",
    "result": []
  },
  {
    "postal": "K2C8H2",
    "result": []
  },
  {
    "postal": "K2C5R8",
    "result": []
  },
  {
    "postal": "K2C5L4",
    "result": []
  },
  {
    "postal": "K2C9E1",
    "result": []
  },
  {
    "postal": "K2C1C4",
    "result": [
      {
        "electoralDistricts": [
          {
            "election": null,
            "id": 81,
            "name": "Ottawa West—Nepean"
          }
        ],
        "pollDivisionIds": [
          10140837,
          10140833
        ],
        "postalCode": "K2C1C4",
        "streetName": "IRIS",
        "streetDirectionId": null,
        "streetTypeId": "ST",
        "placeName": "OTTAWA",
        "streetNameDisplayText": "IRIS ST, OTTAWA"
      }
    ]
  },
  {
    "postal": "K2C8W5",
    "result": []
  },
  {
    "postal": "K2C1Y4",
    "result": [
      {
        "electoralDistricts": [
          {
            "election": null,
            "id": 81,
            "name": "Ottawa West—Nepean"
          }
        ],
        "pollDivisionIds": [
          10140841
        ],
        "postalCode": "K2C1Y4",
        "streetName": "CLYDE",
        "streetDirectionId": null,
        "streetTypeId": "AVE",
        "placeName": "OTTAWA",
        "streetNameDisplayText": "CLYDE AVE, OTTAWA"
      }
    ]
  },
  {
    "postal": "K2C1C0",
    "result": []
  },
  {
    "postal": "K2C2J2",
    "result": [
      {
        "electoralDistricts": [
          {
            "election": null,
            "id": 81,
            "name": "Ottawa West—Nepean"
          }
        ],
        "pollDivisionIds": [
          10140840
        ],
        "postalCode": "K2C2J2",
        "streetName": "AGINCOURT",
        "streetDirectionId": null,
        "streetTypeId": "RD",
        "placeName": "OTTAWA",
        "streetNameDisplayText": "AGINCOURT RD, OTTAWA"
      }
    ]
  },
  {
    "postal": "K2C2J0",
    "result": []
  },
  {
    "postal": "K2C7A3",
    "result": []
  },
  {
    "postal": "K2C8M1",
    "result": []
  },
  {
    "postal": "K2C7T9",
    "result": []
  },
  {
    "postal": "K2C6C0",
    "result": []
  },
  {
    "postal": "K2C7X1",
    "result": []
  },
  {
    "postal": "K2C0G1",
    "result": [
      {
        "electoralDistricts": [
          {
            "election": null,
            "id": 78,
            "name": "Ottawa Centre"
          }
        ],
        "pollDivisionIds": [
          10140554
        ],
        "postalCode": "K2C0G1",
        "streetName": "SANFORD",
        "streetDirectionId": null,
        "streetTypeId": "AVE",
        "placeName": "OTTAWA",
        "streetNameDisplayText": "SANFORD AVE, OTTAWA"
      }
    ]
  },
  {
    "postal": "K2C4X2",
    "result": []
  },
  {
    "postal": "K2C0N6",
    "result": [
      {
        "electoralDistricts": [
          {
            "election": null,
            "id": 78,
            "name": "Ottawa Centre"
          }
        ],
        "pollDivisionIds": [
          10140564
        ],
        "postalCode": "K2C0N6",
        "streetName": "NORMANDY",
        "streetDirectionId": null,
        "streetTypeId": "CRES",
        "placeName": "OTTAWA",
        "streetNameDisplayText": "NORMANDY CRES, OTTAWA"
      }
    ]
  },
  {
    "postal": "K2C8E3",
    "result": []
  },
  {
    "postal": "K2C5S8",
    "result": []
  },
  {
    "postal": "K2C0R0",
    "result": []
  },
  {
    "postal": "K2C6J6",
    "result": []
  },
  {
    "postal": "K2C4B4",
    "result": [
      {
        "electoralDistricts": [
          {
            "election": null,
            "id": 81,
            "name": "Ottawa West—Nepean"
          }
        ],
        "pollDivisionIds": [
          10140846
        ],
        "postalCode": "K2C4B4",
        "streetName": "MANHATTAN",
        "streetDirectionId": null,
        "streetTypeId": "CRES",
        "placeName": "OTTAWA",
        "streetNameDisplayText": "MANHATTAN CRES, OTTAWA"
      }
    ]
  },
  {
    "postal": "K2C7E3",
    "result": []
  },
  {
    "postal": "K2C3N6",
    "result": []
  },
  {
    "postal": "K2C3X6",
    "result": []
  },
  {
    "postal": "K2C8L0",
    "result": []
  },
  {
    "postal": "K2C8N1",
    "result": []
  },
  {
    "postal": "K2C4J0",
    "result": []
  },
  {
    "postal": "K2C0X7",
    "result": [
      {
        "electoralDistricts": [
          {
            "election": null,
            "id": 81,
            "name": "Ottawa West—Nepean"
          }
        ],
        "pollDivisionIds": [
          10140837
        ],
        "postalCode": "K2C0X7",
        "streetName": "DUBLIN",
        "streetDirectionId": null,
        "streetTypeId": "AVE",
        "placeName": "OTTAWA",
        "streetNameDisplayText": "DUBLIN AVE, OTTAWA"
      }
    ]
  },
  {
    "postal": "K2C6S4",
    "result": []
  },
  {
    "postal": "K2C0Z0",
    "result": []
  },
  {
    "postal": "K2C9X8",
    "result": []
  },
  {
    "postal": "K2C3H3",
    "result": []
  },
  {
    "postal": "K2C7S2",
    "result": []
  },
  {
    "postal": "K2C3T3",
    "result": [
      {
        "electoralDistricts": [
          {
            "election": null,
            "id": 78,
            "name": "Ottawa Centre"
          }
        ],
        "pollDivisionIds": [
          10140557
        ],
        "postalCode": "K2C3T3",
        "streetName": "AMBRIDGE",
        "streetDirectionId": null,
        "streetTypeId": "WAY",
        "placeName": "OTTAWA",
        "streetNameDisplayText": "AMBRIDGE WAY, OTTAWA"
      }
    ]
  },
  {
    "postal": "K2C9P3",
    "result": []
  },
  {
    "postal": "K2C4H8",
    "result": [
      {
        "electoralDistricts": [
          {
            "election": null,
            "id": 78,
            "name": "Ottawa Centre"
          }
        ],
        "pollDivisionIds": [
          10140564
        ],
        "postalCode": "K2C4H8",
        "streetName": "RAHUL",
        "streetDirectionId": null,
        "streetTypeId": "CRES",
        "placeName": "OTTAWA",
        "streetNameDisplayText": "RAHUL CRES, OTTAWA"
      }
    ]
  },
  {
    "postal": "K2C6R1",
    "result": []
  },
  {
    "postal": "K2C1S0",
    "result": []
  },
  {
    "postal": "K2C3W8",
    "result": []
  },
  {
    "postal": "K2C4S3",
    "result": []
  },
  {
    "postal": "K2C1B6",
    "result": [
      {
        "electoralDistricts": [
          {
            "election": null,
            "id": 81,
            "name": "Ottawa West—Nepean"
          }
        ],
        "pollDivisionIds": [
          10140837
        ],
        "postalCode": "K2C1B6",
        "streetName": "IRIS",
        "streetDirectionId": null,
        "streetTypeId": "ST",
        "placeName": "OTTAWA",
        "streetNameDisplayText": "IRIS ST, OTTAWA"
      }
    ]
  },
  {
    "postal": "K2C8R3",
    "result": []
  },
  {
    "postal": "K2C4V9",
    "result": []
  },
  {
    "postal": "K2C9W4",
    "result": []
  },
  {
    "postal": "K2C3T4",
    "result": [
      {
        "electoralDistricts": [
          {
            "election": null,
            "id": 78,
            "name": "Ottawa Centre"
          }
        ],
        "pollDivisionIds": [
          10140557
        ],
        "postalCode": "K2C3T4",
        "streetName": "AMBRIDGE",
        "streetDirectionId": null,
        "streetTypeId": "WAY",
        "placeName": "OTTAWA",
        "streetNameDisplayText": "AMBRIDGE WAY, OTTAWA"
      }
    ]
  },
  {
    "postal": "K2C5C7",
    "result": []
  },
  {
    "postal": "K2C3Y1",
    "result": []
  },
  {
    "postal": "K2C5V0",
    "result": []
  },
  {
    "postal": "K2C8G8",
    "result": []
  },
  {
    "postal": "K2C8B1",
    "result": []
  },
  {
    "postal": "K2C4P5",
    "result": []
  },
  {
    "postal": "K2C7B2",
    "result": []
  },
  {
    "postal": "K2C0R2",
    "result": [
      {
        "electoralDistricts": [
          {
            "election": null,
            "id": 81,
            "name": "Ottawa West—Nepean"
          }
        ],
        "pollDivisionIds": [
          10140846
        ],
        "postalCode": "K2C0R2",
        "streetName": "CENTRAL PARK",
        "streetDirectionId": null,
        "streetTypeId": "DR",
        "placeName": "OTTAWA",
        "streetNameDisplayText": "CENTRAL PARK DR, OTTAWA"
      }
    ]
  },
  {
    "postal": "K2C4M4",
    "result": []
  },
  {
    "postal": "K2C7M4",
    "result": []
  },
  {
    "postal": "K2C9S7",
    "result": []
  },
  {
    "postal": "K2C5Z7",
    "result": []
  },
  {
    "postal": "K2C7J7",
    "result": []
  },
  {
    "postal": "K2C8R8",
    "result": []
  },
  {
    "postal": "K2C9X1",
    "result": []
  },
  {
    "postal": "K2C5M9",
    "result": []
  },
  {
    "postal": "K2C9B4",
    "result": []
  },
  {
    "postal": "K2C0L9",
    "result": [
      {
        "electoralDistricts": [
          {
            "election": null,
            "id": 78,
            "name": "Ottawa Centre"
          }
        ],
        "pollDivisionIds": [
          10140564
        ],
        "postalCode": "K2C0L9",
        "streetName": "NORMANDY",
        "streetDirectionId": null,
        "streetTypeId": "CRES",
        "placeName": "OTTAWA",
        "streetNameDisplayText": "NORMANDY CRES, OTTAWA"
      }
    ]
  },
  {
    "postal": "K2C9G4",
    "result": []
  },
  {
    "postal": "K2C1J4",
    "result": [
      {
        "electoralDistricts": [
          {
            "election": null,
            "id": 81,
            "name": "Ottawa West—Nepean"
          }
        ],
        "pollDivisionIds": [
          10140833
        ],
        "postalCode": "K2C1J4",
        "streetName": "TORQUAY",
        "streetDirectionId": null,
        "streetTypeId": "AVE",
        "placeName": "OTTAWA",
        "streetNameDisplayText": "TORQUAY AVE, OTTAWA"
      }
    ]
  },
  {
    "postal": "K2C0W6",
    "result": [
      {
        "electoralDistricts": [
          {
            "election": null,
            "id": 81,
            "name": "Ottawa West—Nepean"
          }
        ],
        "pollDivisionIds": [
          10140837
        ],
        "postalCode": "K2C0W6",
        "streetName": "GARFIELD",
        "streetDirectionId": null,
        "streetTypeId": "AVE",
        "placeName": "OTTAWA",
        "streetNameDisplayText": "GARFIELD AVE, OTTAWA"
      }
    ]
  }
]
