[
  {
    "postal": "L7M9J6",
    "result": []
  },
  {
    "postal": "L7M9Z5",
    "result": []
  },
  {
    "postal": "L7M7H8",
    "result": []
  },
  {
    "postal": "L7M0P6",
    "result": [
      {
        "electoralDistricts": [
          {
            "election": null,
            "id": 59,
            "name": "Milton"
          }
        ],
        "pollDivisionIds": [
          10126398
        ],
        "postalCode": "L7M0P6",
        "streetName": "APPLEBY",
        "streetDirectionId": null,
        "streetTypeId": "LINE",
        "placeName": "BURLINGTON",
        "streetNameDisplayText": "APPLEBY LINE, BURLINGTON"
      }
    ]
  },
  {
    "postal": "L7M0S7",
    "result": [
      {
        "electoralDistricts": [
          {
            "election": null,
            "id": 59,
            "name": "Milton"
          }
        ],
        "pollDivisionIds": [
          10126398
        ],
        "postalCode": "L7M0S7",
        "streetName": "2",
        "streetDirectionId": null,
        "streetTypeId": "SIDERD",
        "placeName": "BURLINGTON",
        "streetNameDisplayText": "2 SIDERD, BURLINGTON"
      }
    ]
  },
  {
    "postal": "L7M8B9",
    "result": []
  },
  {
    "postal": "L7M2A6",
    "result": []
  },
  {
    "postal": "L7M7V2",
    "result": []
  },
  {
    "postal": "L7M9P4",
    "result": []
  },
  {
    "postal": "L7M6G0",
    "result": []
  },
  {
    "postal": "L7M2K0",
    "result": []
  },
  {
    "postal": "L7M7N6",
    "result": []
  },
  {
    "postal": "L7M5R3",
    "result": []
  },
  {
    "postal": "L7M7K0",
    "result": []
  },
  {
    "postal": "L7M3R2",
    "result": [
      {
        "electoralDistricts": [
          {
            "election": null,
            "id": 75,
            "name": "Oakville North—Burlington"
          }
        ],
        "pollDivisionIds": [
          10140423
        ],
        "postalCode": "L7M3R2",
        "streetName": "CLEAVER",
        "streetDirectionId": null,
        "streetTypeId": "AVE",
        "placeName": "BURLINGTON",
        "streetNameDisplayText": "CLEAVER AVE, BURLINGTON"
      },
      {
        "electoralDistricts": [
          {
            "election": null,
            "id": 75,
            "name": "Oakville North—Burlington"
          }
        ],
        "pollDivisionIds": [
          10140423
        ],
        "postalCode": "L7M3R2",
        "streetName": "DONALD",
        "streetDirectionId": null,
        "streetTypeId": "RD",
        "placeName": "BURLINGTON",
        "streetNameDisplayText": "DONALD RD, BURLINGTON"
      },
      {
        "electoralDistricts": [
          {
            "election": null,
            "id": 75,
            "name": "Oakville North—Burlington"
          }
        ],
        "pollDivisionIds": [
          10140423
        ],
        "postalCode": "L7M3R2",
        "streetName": "JORDAN",
        "streetDirectionId": null,
        "streetTypeId": "AVE",
        "placeName": "BURLINGTON",
        "streetNameDisplayText": "JORDAN AVE, BURLINGTON"
      }
    ]
  },
  {
    "postal": "L7M0J1",
    "result": [
      {
        "electoralDistricts": [
          {
            "election": null,
            "id": 75,
            "name": "Oakville North—Burlington"
          }
        ],
        "pollDivisionIds": [
          10140416
        ],
        "postalCode": "L7M0J1",
        "streetName": "ASHLAR",
        "streetDirectionId": null,
        "streetTypeId": "CRES",
        "placeName": "BURLINGTON",
        "streetNameDisplayText": "ASHLAR CRES, BURLINGTON"
      },
      {
        "electoralDistricts": [
          {
            "election": null,
            "id": 75,
            "name": "Oakville North—Burlington"
          }
        ],
        "pollDivisionIds": [
          10140416
        ],
        "postalCode": "L7M0J1",
        "streetName": "JENN",
        "streetDirectionId": null,
        "streetTypeId": "AVE",
        "placeName": "BURLINGTON",
        "streetNameDisplayText": "JENN AVE, BURLINGTON"
      },
      {
        "electoralDistricts": [
          {
            "election": null,
            "id": 75,
            "name": "Oakville North—Burlington"
          }
        ],
        "pollDivisionIds": [
          10140416
        ],
        "postalCode": "L7M0J1",
        "streetName": "THOMAS ALTON",
        "streetDirectionId": null,
        "streetTypeId": "BLVD",
        "placeName": "BURLINGTON",
        "streetNameDisplayText": "THOMAS ALTON BLVD, BURLINGTON"
      }
    ]
  },
  {
    "postal": "L7M0B0",
    "result": []
  },
  {
    "postal": "L7M5Z2",
    "result": []
  },
  {
    "postal": "L7M7P3",
    "result": []
  },
  {
    "postal": "L7M2K3",
    "result": []
  },
  {
    "postal": "L7M7Y6",
    "result": []
  },
  {
    "postal": "L7M1L9",
    "result": [
      {
        "electoralDistricts": [
          {
            "election": null,
            "id": 15,
            "name": "Burlington"
          }
        ],
        "pollDivisionIds": [
          10137335
        ],
        "postalCode": "L7M1L9",
        "streetName": "PALMER",
        "streetDirectionId": null,
        "streetTypeId": "DR",
        "placeName": "BURLINGTON",
        "streetNameDisplayText": "PALMER DR, BURLINGTON"
      }
    ]
  },
  {
    "postal": "L7M8T0",
    "result": []
  },
  {
    "postal": "L7M3K8",
    "result": [
      {
        "electoralDistricts": [
          {
            "election": null,
            "id": 75,
            "name": "Oakville North—Burlington"
          }
        ],
        "pollDivisionIds": [
          10140424
        ],
        "postalCode": "L7M3K8",
        "streetName": "HEADON FOREST",
        "streetDirectionId": null,
        "streetTypeId": "DR",
        "placeName": "BURLINGTON",
        "streetNameDisplayText": "HEADON FOREST DR, BURLINGTON"
      },
      {
        "electoralDistricts": [
          {
            "election": null,
            "id": 75,
            "name": "Oakville North—Burlington"
          }
        ],
        "pollDivisionIds": [
          10140424
        ],
        "postalCode": "L7M3K8",
        "streetName": "WOODCROFT",
        "streetDirectionId": null,
        "streetTypeId": "CRES",
        "placeName": "BURLINGTON",
        "streetNameDisplayText": "WOODCROFT CRES, BURLINGTON"
      }
    ]
  },
  {
    "postal": "L7M5W9",
    "result": []
  },
  {
    "postal": "L7M6T9",
    "result": []
  },
  {
    "postal": "L7M4H1",
    "result": [
      {
        "electoralDistricts": [
          {
            "election": null,
            "id": 75,
            "name": "Oakville North—Burlington"
          }
        ],
        "pollDivisionIds": [
          10140420
        ],
        "postalCode": "L7M4H1",
        "streetName": "HEADON FOREST",
        "streetDirectionId": null,
        "streetTypeId": "DR",
        "placeName": "BURLINGTON",
        "streetNameDisplayText": "HEADON FOREST DR, BURLINGTON"
      }
    ]
  },
  {
    "postal": "L7M7A2",
    "result": []
  },
  {
    "postal": "L7M5G0",
    "result": []
  },
  {
    "postal": "L7M8V5",
    "result": []
  },
  {
    "postal": "L7M2Y8",
    "result": [
      {
        "electoralDistricts": [
          {
            "election": null,
            "id": 75,
            "name": "Oakville North—Burlington"
          }
        ],
        "pollDivisionIds": [
          10140424
        ],
        "postalCode": "L7M2Y8",
        "streetName": "FALLINGBROOK",
        "streetDirectionId": null,
        "streetTypeId": "CRT",
        "placeName": "BURLINGTON",
        "streetNameDisplayText": "FALLINGBROOK CRT, BURLINGTON"
      }
    ]
  },
  {
    "postal": "L7M2B6",
    "result": []
  },
  {
    "postal": "L7M4W8",
    "result": [
      {
        "electoralDistricts": [
          {
            "election": null,
            "id": 75,
            "name": "Oakville North—Burlington"
          }
        ],
        "pollDivisionIds": [
          10140431
        ],
        "postalCode": "L7M4W8",
        "streetName": "UPPER MIDDLE",
        "streetDirectionId": null,
        "streetTypeId": "RD",
        "placeName": "BURLINGTON",
        "streetNameDisplayText": "UPPER MIDDLE RD, BURLINGTON"
      }
    ]
  },
  {
    "postal": "L7M8H7",
    "result": []
  },
  {
    "postal": "L7M5P1",
    "result": []
  },
  {
    "postal": "L7M2B8",
    "result": []
  },
  {
    "postal": "L7M0P2",
    "result": [
      {
        "electoralDistricts": [
          {
            "election": null,
            "id": 59,
            "name": "Milton"
          }
        ],
        "pollDivisionIds": [
          10126398
        ],
        "postalCode": "L7M0P2",
        "streetName": "BELL SCHOOL",
        "streetDirectionId": null,
        "streetTypeId": "LINE",
        "placeName": "BURLINGTON",
        "streetNameDisplayText": "BELL SCHOOL LINE, BURLINGTON"
      }
    ]
  },
  {
    "postal": "L7M9M1",
    "result": []
  },
  {
    "postal": "L7M3G0",
    "result": []
  },
  {
    "postal": "L7M9Z2",
    "result": []
  },
  {
    "postal": "L7M2A0",
    "result": []
  },
  {
    "postal": "L7M6Y0",
    "result": []
  },
  {
    "postal": "L7M2Z8",
    "result": [
      {
        "electoralDistricts": [
          {
            "election": null,
            "id": 75,
            "name": "Oakville North—Burlington"
          }
        ],
        "pollDivisionIds": [
          10140424
        ],
        "postalCode": "L7M2Z8",
        "streetName": "TRAILWOOD",
        "streetDirectionId": null,
        "streetTypeId": "DR",
        "placeName": "BURLINGTON",
        "streetNameDisplayText": "TRAILWOOD DR, BURLINGTON"
      }
    ]
  },
  {
    "postal": "L7M7Y3",
    "result": []
  },
  {
    "postal": "L7M6Z5",
    "result": []
  },
  {
    "postal": "L7M6E0",
    "result": []
  },
  {
    "postal": "L7M9B7",
    "result": []
  },
  {
    "postal": "L7M9S5",
    "result": []
  },
  {
    "postal": "L7M3X3",
    "result": [
      {
        "electoralDistricts": [
          {
            "election": null,
            "id": 75,
            "name": "Oakville North—Burlington"
          }
        ],
        "pollDivisionIds": [
          10140420
        ],
        "postalCode": "L7M3X3",
        "streetName": "HEADON FOREST",
        "streetDirectionId": null,
        "streetTypeId": "DR",
        "placeName": "BURLINGTON",
        "streetNameDisplayText": "HEADON FOREST DR, BURLINGTON"
      }
    ]
  },
  {
    "postal": "L7M7R5",
    "result": []
  },
  {
    "postal": "L7M2X3",
    "result": [
      {
        "electoralDistricts": [
          {
            "election": null,
            "id": 75,
            "name": "Oakville North—Burlington"
          }
        ],
        "pollDivisionIds": [
          10140424
        ],
        "postalCode": "L7M2X3",
        "streetName": "WINDING",
        "streetDirectionId": null,
        "streetTypeId": "WAY",
        "placeName": "BURLINGTON",
        "streetNameDisplayText": "WINDING WAY, BURLINGTON"
      }
    ]
  },
  {
    "postal": "L7M8Z9",
    "result": []
  },
  {
    "postal": "L7M0N4",
    "result": [
      {
        "electoralDistricts": [
          {
            "election": null,
            "id": 75,
            "name": "Oakville North—Burlington"
          }
        ],
        "pollDivisionIds": [
          10140416
        ],
        "postalCode": "L7M0N4",
        "streetName": "COTTER",
        "streetDirectionId": null,
        "streetTypeId": "RD",
        "placeName": "BURLINGTON",
        "streetNameDisplayText": "COTTER RD, BURLINGTON"
      },
      {
        "electoralDistricts": [
          {
            "election": null,
            "id": 75,
            "name": "Oakville North—Burlington"
          }
        ],
        "pollDivisionIds": [
          10140416
        ],
        "postalCode": "L7M0N4",
        "streetName": "SORRENTO",
        "streetDirectionId": null,
        "streetTypeId": "CRES",
        "placeName": "BURLINGTON",
        "streetNameDisplayText": "SORRENTO CRES, BURLINGTON"
      },
      {
        "electoralDistricts": [
          {
            "election": null,
            "id": 75,
            "name": "Oakville North—Burlington"
          }
        ],
        "pollDivisionIds": [
          10140416
        ],
        "postalCode": "L7M0N4",
        "streetName": "TIM DOBBIE",
        "streetDirectionId": null,
        "streetTypeId": "DR",
        "placeName": "BURLINGTON",
        "streetNameDisplayText": "TIM DOBBIE DR, BURLINGTON"
      },
      {
        "electoralDistricts": [
          {
            "election": null,
            "id": 75,
            "name": "Oakville North—Burlington"
          }
        ],
        "pollDivisionIds": [
          10140416
        ],
        "postalCode": "L7M0N4",
        "streetName": "VIVALDI",
        "streetDirectionId": null,
        "streetTypeId": "RD",
        "placeName": "BURLINGTON",
        "streetNameDisplayText": "VIVALDI RD, BURLINGTON"
      }
    ]
  },
  {
    "postal": "L7M1K1",
    "result": [
      {
        "electoralDistricts": [
          {
            "election": null,
            "id": 15,
            "name": "Burlington"
          }
        ],
        "pollDivisionIds": [
          10137335
        ],
        "postalCode": "L7M1K1",
        "streetName": "LANSDOWN",
        "streetDirectionId": null,
        "streetTypeId": "DR",
        "placeName": "BURLINGTON",
        "streetNameDisplayText": "LANSDOWN DR, BURLINGTON"
      }
    ]
  },
  {
    "postal": "L7M1S3",
    "result": [
      {
        "electoralDistricts": [
          {
            "election": null,
            "id": 15,
            "name": "Burlington"
          }
        ],
        "pollDivisionIds": [
          10137335
        ],
        "postalCode": "L7M1S3",
        "streetName": "HEADON",
        "streetDirectionId": null,
        "streetTypeId": "RD",
        "placeName": "BURLINGTON",
        "streetNameDisplayText": "HEADON RD, BURLINGTON"
      }
    ]
  },
  {
    "postal": "L7M6M4",
    "result": []
  },
  {
    "postal": "L7M9A9",
    "result": []
  },
  {
    "postal": "L7M9Z9",
    "result": []
  },
  {
    "postal": "L7M6T4",
    "result": []
  },
  {
    "postal": "L7M0B2",
    "result": [
      {
        "electoralDistricts": [
          {
            "election": null,
            "id": 75,
            "name": "Oakville North—Burlington"
          }
        ],
        "pollDivisionIds": [
          10140416
        ],
        "postalCode": "L7M0B2",
        "streetName": "BERWICK",
        "streetDirectionId": null,
        "streetTypeId": "DR",
        "placeName": "BURLINGTON",
        "streetNameDisplayText": "BERWICK DR, BURLINGTON"
      },
      {
        "electoralDistricts": [
          {
            "election": null,
            "id": 75,
            "name": "Oakville North—Burlington"
          }
        ],
        "pollDivisionIds": [
          10140416
        ],
        "postalCode": "L7M0B2",
        "streetName": "SAUNDERS",
        "streetDirectionId": null,
        "streetTypeId": "CRES",
        "placeName": "BURLINGTON",
        "streetNameDisplayText": "SAUNDERS CRES, BURLINGTON"
      }
    ]
  },
  {
    "postal": "L7M2L9",
    "result": [
      {
        "electoralDistricts": [
          {
            "election": null,
            "id": 15,
            "name": "Burlington"
          }
        ],
        "pollDivisionIds": [
          10137341
        ],
        "postalCode": "L7M2L9",
        "streetName": "FLANAGAN",
        "streetDirectionId": null,
        "streetTypeId": "CRT",
        "placeName": "BURLINGTON",
        "streetNameDisplayText": "FLANAGAN CRT, BURLINGTON"
      }
    ]
  },
  {
    "postal": "L7M8K9",
    "result": []
  },
  {
    "postal": "L7M2H9",
    "result": []
  },
  {
    "postal": "L7M3Z6",
    "result": [
      {
        "electoralDistricts": [
          {
            "election": null,
            "id": 75,
            "name": "Oakville North—Burlington"
          }
        ],
        "pollDivisionIds": [
          10140420
        ],
        "postalCode": "L7M3Z6",
        "streetName": "HEADON FOREST",
        "streetDirectionId": null,
        "streetTypeId": "DR",
        "placeName": "BURLINGTON",
        "streetNameDisplayText": "HEADON FOREST DR, BURLINGTON"
      }
    ]
  },
  {
    "postal": "L7M3B0",
    "result": []
  },
  {
    "postal": "L7M2H8",
    "result": []
  },
  {
    "postal": "L7M3X2",
    "result": [
      {
        "electoralDistricts": [
          {
            "election": null,
            "id": 75,
            "name": "Oakville North—Burlington"
          }
        ],
        "pollDivisionIds": [
          10140423
        ],
        "postalCode": "L7M3X2",
        "streetName": "HEIDI",
        "streetDirectionId": null,
        "streetTypeId": "AVE",
        "placeName": "BURLINGTON",
        "streetNameDisplayText": "HEIDI AVE, BURLINGTON"
      }
    ]
  },
  {
    "postal": "L7M2E9",
    "result": []
  },
  {
    "postal": "L7M9P6",
    "result": []
  },
  {
    "postal": "L7M9E2",
    "result": []
  },
  {
    "postal": "L7M9H2",
    "result": []
  },
  {
    "postal": "L7M1S8",
    "result": [
      {
        "electoralDistricts": [
          {
            "election": null,
            "id": 15,
            "name": "Burlington"
          }
        ],
        "pollDivisionIds": [
          10137335
        ],
        "postalCode": "L7M1S8",
        "streetName": "LANDMARK",
        "streetDirectionId": null,
        "streetTypeId": "RD",
        "placeName": "BURLINGTON",
        "streetNameDisplayText": "LANDMARK RD, BURLINGTON"
      }
    ]
  },
  {
    "postal": "L7M3M6",
    "result": [
      {
        "electoralDistricts": [
          {
            "election": null,
            "id": 75,
            "name": "Oakville North—Burlington"
          }
        ],
        "pollDivisionIds": [
          10140424
        ],
        "postalCode": "L7M3M6",
        "streetName": "TANIA",
        "streetDirectionId": null,
        "streetTypeId": "CRES",
        "placeName": "BURLINGTON",
        "streetNameDisplayText": "TANIA CRES, BURLINGTON"
      },
      {
        "electoralDistricts": [
          {
            "election": null,
            "id": 75,
            "name": "Oakville North—Burlington"
          }
        ],
        "pollDivisionIds": [
          10140424
        ],
        "postalCode": "L7M3M6",
        "streetName": "VISTA",
        "streetDirectionId": null,
        "streetTypeId": "DR",
        "placeName": "BURLINGTON",
        "streetNameDisplayText": "VISTA DR, BURLINGTON"
      }
    ]
  },
  {
    "postal": "L7M6Z8",
    "result": []
  },
  {
    "postal": "L7M4J2",
    "result": [
      {
        "electoralDistricts": [
          {
            "election": null,
            "id": 75,
            "name": "Oakville North—Burlington"
          }
        ],
        "pollDivisionIds": [
          10140413
        ],
        "postalCode": "L7M4J2",
        "streetName": "BONAVISTA",
        "streetDirectionId": null,
        "streetTypeId": "CRES",
        "placeName": "BURLINGTON",
        "streetNameDisplayText": "BONAVISTA CRES, BURLINGTON"
      },
      {
        "electoralDistricts": [
          {
            "election": null,
            "id": 75,
            "name": "Oakville North—Burlington"
          }
        ],
        "pollDivisionIds": [
          10140413
        ],
        "postalCode": "L7M4J2",
        "streetName": "TURNBERRY",
        "streetDirectionId": null,
        "streetTypeId": "RD",
        "placeName": "BURLINGTON",
        "streetNameDisplayText": "TURNBERRY RD, BURLINGTON"
      }
    ]
  },
  {
    "postal": "L7M9Y1",
    "result": []
  },
  {
    "postal": "L7M8V6",
    "result": []
  },
  {
    "postal": "L7M6B2",
    "result": []
  },
  {
    "postal": "L7M1P8",
    "result": [
      {
        "electoralDistricts": [
          {
            "election": null,
            "id": 75,
            "name": "Oakville North—Burlington"
          }
        ],
        "pollDivisionIds": [
          10140420
        ],
        "postalCode": "L7M1P8",
        "streetName": "TUFGAR",
        "streetDirectionId": null,
        "streetTypeId": "CRES",
        "placeName": "BURLINGTON",
        "streetNameDisplayText": "TUFGAR CRES, BURLINGTON"
      }
    ]
  },
  {
    "postal": "L7M0V8",
    "result": []
  },
  {
    "postal": "L7M4Y0",
    "result": []
  },
  {
    "postal": "L7M2T4",
    "result": [
      {
        "electoralDistricts": [
          {
            "election": null,
            "id": 75,
            "name": "Oakville North—Burlington"
          }
        ],
        "pollDivisionIds": [
          10140423
        ],
        "postalCode": "L7M2T4",
        "streetName": "HAZELWOOD",
        "streetDirectionId": null,
        "streetTypeId": "AVE",
        "placeName": "BURLINGTON",
        "streetNameDisplayText": "HAZELWOOD AVE, BURLINGTON"
      }
    ]
  },
  {
    "postal": "L7M2S3",
    "result": [
      {
        "electoralDistricts": [
          {
            "election": null,
            "id": 75,
            "name": "Oakville North—Burlington"
          }
        ],
        "pollDivisionIds": [
          10140423
        ],
        "postalCode": "L7M2S3",
        "streetName": "DEER RUN",
        "streetDirectionId": null,
        "streetTypeId": "AVE",
        "placeName": "BURLINGTON",
        "streetNameDisplayText": "DEER RUN AVE, BURLINGTON"
      },
      {
        "electoralDistricts": [
          {
            "election": null,
            "id": 75,
            "name": "Oakville North—Burlington"
          }
        ],
        "pollDivisionIds": [
          10140423
        ],
        "postalCode": "L7M2S3",
        "streetName": "WOODSIDE",
        "streetDirectionId": null,
        "streetTypeId": "AVE",
        "placeName": "BURLINGTON",
        "streetNameDisplayText": "WOODSIDE AVE, BURLINGTON"
      }
    ]
  },
  {
    "postal": "L7M0K0",
    "result": []
  },
  {
    "postal": "L7M5N1",
    "result": []
  },
  {
    "postal": "L7M7T0",
    "result": []
  },
  {
    "postal": "L7M9N2",
    "result": []
  },
  {
    "postal": "L7M5L1",
    "result": []
  },
  {
    "postal": "L7M7G5",
    "result": []
  },
  {
    "postal": "L7M6K2",
    "result": []
  },
  {
    "postal": "L7M6P9",
    "result": []
  },
  {
    "postal": "L7M0E6",
    "result": [
      {
        "electoralDistricts": [
          {
            "election": null,
            "id": 75,
            "name": "Oakville North—Burlington"
          }
        ],
        "pollDivisionIds": [
          10140413
        ],
        "postalCode": "L7M0E6",
        "streetName": "CORTINA",
        "streetDirectionId": null,
        "streetTypeId": "RD",
        "placeName": "BURLINGTON",
        "streetNameDisplayText": "CORTINA RD, BURLINGTON"
      },
      {
        "electoralDistricts": [
          {
            "election": null,
            "id": 75,
            "name": "Oakville North—Burlington"
          }
        ],
        "pollDivisionIds": [
          10140413
        ],
        "postalCode": "L7M0E6",
        "streetName": "LEANNA HEIGHTS",
        "streetDirectionId": null,
        "streetTypeId": "RD",
        "placeName": "BURLINGTON",
        "streetNameDisplayText": "LEANNA HEIGHTS RD, BURLINGTON"
      }
    ]
  },
  {
    "postal": "L7M8R9",
    "result": []
  },
  {
    "postal": "L7M3G9",
    "result": [
      {
        "electoralDistricts": [
          {
            "election": null,
            "id": 75,
            "name": "Oakville North—Burlington"
          }
        ],
        "pollDivisionIds": [
          10140424
        ],
        "postalCode": "L7M3G9",
        "streetName": "HEADON FOREST",
        "streetDirectionId": null,
        "streetTypeId": "DR",
        "placeName": "BURLINGTON",
        "streetNameDisplayText": "HEADON FOREST DR, BURLINGTON"
      },
      {
        "electoralDistricts": [
          {
            "election": null,
            "id": 75,
            "name": "Oakville North—Burlington"
          }
        ],
        "pollDivisionIds": [
          10140424
        ],
        "postalCode": "L7M3G9",
        "streetName": "SANDCLIFFE",
        "streetDirectionId": null,
        "streetTypeId": "CRT",
        "placeName": "BURLINGTON",
        "streetNameDisplayText": "SANDCLIFFE CRT, BURLINGTON"
      }
    ]
  },
  {
    "postal": "L7M0V7",
    "result": [
      {
        "electoralDistricts": [
          {
            "election": null,
            "id": 75,
            "name": "Oakville North—Burlington"
          }
        ],
        "pollDivisionIds": [
          10140413
        ],
        "postalCode": "L7M0V7",
        "streetName": "APPLEBY",
        "streetDirectionId": null,
        "streetTypeId": "LINE",
        "placeName": "BURLINGTON",
        "streetNameDisplayText": "APPLEBY LINE, BURLINGTON"
      }
    ]
  },
  {
    "postal": "L7M2Z1",
    "result": [
      {
        "electoralDistricts": [
          {
            "election": null,
            "id": 75,
            "name": "Oakville North—Burlington"
          }
        ],
        "pollDivisionIds": [
          10140424
        ],
        "postalCode": "L7M2Z1",
        "streetName": "FALLINGBROOK",
        "streetDirectionId": null,
        "streetTypeId": "CRT",
        "placeName": "BURLINGTON",
        "streetNameDisplayText": "FALLINGBROOK CRT, BURLINGTON"
      }
    ]
  },
  {
    "postal": "L7M7N1",
    "result": []
  },
  {
    "postal": "L7M3C6",
    "result": [
      {
        "electoralDistricts": [
          {
            "election": null,
            "id": 75,
            "name": "Oakville North—Burlington"
          }
        ],
        "pollDivisionIds": [
          10140424
        ],
        "postalCode": "L7M3C6",
        "streetName": "RENTON",
        "streetDirectionId": null,
        "streetTypeId": "RD",
        "placeName": "BURLINGTON",
        "streetNameDisplayText": "RENTON RD, BURLINGTON"
      }
    ]
  },
  {
    "postal": "L7M4M1",
    "result": [
      {
        "electoralDistricts": [
          {
            "election": null,
            "id": 75,
            "name": "Oakville North—Burlington"
          }
        ],
        "pollDivisionIds": [
          10140422
        ],
        "postalCode": "L7M4M1",
        "streetName": "KILMER",
        "streetDirectionId": null,
        "streetTypeId": "DR",
        "placeName": "BURLINGTON",
        "streetNameDisplayText": "KILMER DR, BURLINGTON"
      }
    ]
  },
  {
    "postal": "L7M9K2",
    "result": []
  },
  {
    "postal": "L7M9S6",
    "result": []
  },
  {
    "postal": "L7M4X1",
    "result": [
      {
        "electoralDistricts": [
          {
            "election": null,
            "id": 75,
            "name": "Oakville North—Burlington"
          }
        ],
        "pollDivisionIds": [
          10140413
        ],
        "postalCode": "L7M4X1",
        "streetName": "CLUBVIEW",
        "streetDirectionId": null,
        "streetTypeId": "DR",
        "placeName": "BURLINGTON",
        "streetNameDisplayText": "CLUBVIEW DR, BURLINGTON"
      },
      {
        "electoralDistricts": [
          {
            "election": null,
            "id": 75,
            "name": "Oakville North—Burlington"
          }
        ],
        "pollDivisionIds": [
          10140413
        ],
        "postalCode": "L7M4X1",
        "streetName": "SNEAD",
        "streetDirectionId": null,
        "streetTypeId": "RD",
        "placeName": "BURLINGTON",
        "streetNameDisplayText": "SNEAD RD, BURLINGTON"
      }
    ]
  },
  {
    "postal": "L7M8W2",
    "result": []
  },
  {
    "postal": "L7M7N2",
    "result": []
  },
  {
    "postal": "L7M8S3",
    "result": []
  },
  {
    "postal": "L7M4V0",
    "result": []
  },
  {
    "postal": "L7M6W4",
    "result": []
  },
  {
    "postal": "L7M5M1",
    "result": []
  },
  {
    "postal": "L7M0S4",
    "result": [
      {
        "electoralDistricts": [
          {
            "election": null,
            "id": 59,
            "name": "Milton"
          }
        ],
        "pollDivisionIds": [
          10126398
        ],
        "postalCode": "L7M0S4",
        "streetName": "4",
        "streetDirectionId": null,
        "streetTypeId": "SIDERD",
        "placeName": "BURLINGTON",
        "streetNameDisplayText": "4 SIDERD, BURLINGTON"
      }
    ]
  },
  {
    "postal": "L7M5X6",
    "result": []
  },
  {
    "postal": "L7M8L5",
    "result": []
  },
  {
    "postal": "L7M5M8",
    "result": []
  },
  {
    "postal": "L7M2G3",
    "result": []
  },
  {
    "postal": "L7M8E4",
    "result": []
  },
  {
    "postal": "L7M7S9",
    "result": []
  },
  {
    "postal": "L7M1K3",
    "result": [
      {
        "electoralDistricts": [
          {
            "election": null,
            "id": 15,
            "name": "Burlington"
          }
        ],
        "pollDivisionIds": [
          10137335
        ],
        "postalCode": "L7M1K3",
        "streetName": "LANSDOWN",
        "streetDirectionId": null,
        "streetTypeId": "DR",
        "placeName": "BURLINGTON",
        "streetNameDisplayText": "LANSDOWN DR, BURLINGTON"
      }
    ]
  },
  {
    "postal": "L7M4E1",
    "result": [
      {
        "electoralDistricts": [
          {
            "election": null,
            "id": 75,
            "name": "Oakville North—Burlington"
          }
        ],
        "pollDivisionIds": [
          10140418
        ],
        "postalCode": "L7M4E1",
        "streetName": "COUNTRY CLUB",
        "streetDirectionId": null,
        "streetTypeId": "DR",
        "placeName": "BURLINGTON",
        "streetNameDisplayText": "COUNTRY CLUB DR, BURLINGTON"
      }
    ]
  },
  {
    "postal": "L7M4R2",
    "result": [
      {
        "electoralDistricts": [
          {
            "election": null,
            "id": 75,
            "name": "Oakville North—Burlington"
          }
        ],
        "pollDivisionIds": [
          10140413
        ],
        "postalCode": "L7M4R2",
        "streetName": "LATIMER",
        "streetDirectionId": null,
        "streetTypeId": "CRES",
        "placeName": "BURLINGTON",
        "streetNameDisplayText": "LATIMER CRES, BURLINGTON"
      }
    ]
  },
  {
    "postal": "L7M6T0",
    "result": []
  },
  {
    "postal": "L7M3K5",
    "result": [
      {
        "electoralDistricts": [
          {
            "election": null,
            "id": 75,
            "name": "Oakville North—Burlington"
          }
        ],
        "pollDivisionIds": [
          10140424
        ],
        "postalCode": "L7M3K5",
        "streetName": "EDENWOOD",
        "streetDirectionId": null,
        "streetTypeId": "CRES",
        "placeName": "BURLINGTON",
        "streetNameDisplayText": "EDENWOOD CRES, BURLINGTON"
      }
    ]
  },
  {
    "postal": "L7M3S3",
    "result": [
      {
        "electoralDistricts": [
          {
            "election": null,
            "id": 75,
            "name": "Oakville North—Burlington"
          }
        ],
        "pollDivisionIds": [
          10140423
        ],
        "postalCode": "L7M3S3",
        "streetName": "CHRISDON",
        "streetDirectionId": null,
        "streetTypeId": "RD",
        "placeName": "BURLINGTON",
        "streetNameDisplayText": "CHRISDON RD, BURLINGTON"
      }
    ]
  },
  {
    "postal": "L7M3L4",
    "result": [
      {
        "electoralDistricts": [
          {
            "election": null,
            "id": 75,
            "name": "Oakville North—Burlington"
          }
        ],
        "pollDivisionIds": [
          10140424
        ],
        "postalCode": "L7M3L4",
        "streetName": "BUTTERNUT",
        "streetDirectionId": null,
        "streetTypeId": "CRES",
        "placeName": "BURLINGTON",
        "streetNameDisplayText": "BUTTERNUT CRES, BURLINGTON"
      },
      {
        "electoralDistricts": [
          {
            "election": null,
            "id": 75,
            "name": "Oakville North—Burlington"
          }
        ],
        "pollDivisionIds": [
          10140424
        ],
        "postalCode": "L7M3L4",
        "streetName": "HEADON FOREST",
        "streetDirectionId": null,
        "streetTypeId": "DR",
        "placeName": "BURLINGTON",
        "streetNameDisplayText": "HEADON FOREST DR, BURLINGTON"
      }
    ]
  },
  {
    "postal": "L7M9Y2",
    "result": []
  },
  {
    "postal": "L7M1E0",
    "result": []
  },
  {
    "postal": "L7M9A4",
    "result": []
  },
  {
    "postal": "L7M1L3",
    "result": [
      {
        "electoralDistricts": [
          {
            "election": null,
            "id": 15,
            "name": "Burlington"
          }
        ],
        "pollDivisionIds": [
          10137336
        ],
        "postalCode": "L7M1L3",
        "streetName": "PALMER",
        "streetDirectionId": null,
        "streetTypeId": "DR",
        "placeName": "BURLINGTON",
        "streetNameDisplayText": "PALMER DR, BURLINGTON"
      }
    ]
  },
  {
    "postal": "L7M6N1",
    "result": []
  },
  {
    "postal": "L7M6G7",
    "result": []
  },
  {
    "postal": "L7M7W1",
    "result": []
  },
  {
    "postal": "L7M4M6",
    "result": [
      {
        "electoralDistricts": [
          {
            "election": null,
            "id": 75,
            "name": "Oakville North—Burlington"
          }
        ],
        "pollDivisionIds": [
          10140418
        ],
        "postalCode": "L7M4M6",
        "streetName": "ADDISON",
        "streetDirectionId": null,
        "streetTypeId": "ST",
        "placeName": "BURLINGTON",
        "streetNameDisplayText": "ADDISON ST, BURLINGTON"
      },
      {
        "electoralDistricts": [
          {
            "election": null,
            "id": 75,
            "name": "Oakville North—Burlington"
          }
        ],
        "pollDivisionIds": [
          10140418
        ],
        "postalCode": "L7M4M6",
        "streetName": "BERTON",
        "streetDirectionId": null,
        "streetTypeId": "AVE",
        "placeName": "BURLINGTON",
        "streetNameDisplayText": "BERTON AVE, BURLINGTON"
      },
      {
        "electoralDistricts": [
          {
            "election": null,
            "id": 75,
            "name": "Oakville North—Burlington"
          }
        ],
        "pollDivisionIds": [
          10140418
        ],
        "postalCode": "L7M4M6",
        "streetName": "JARVIS",
        "streetDirectionId": null,
        "streetTypeId": "CRES",
        "placeName": "BURLINGTON",
        "streetNameDisplayText": "JARVIS CRES, BURLINGTON"
      }
    ]
  },
  {
    "postal": "L7M1K0",
    "result": []
  },
  {
    "postal": "L7M3E2",
    "result": [
      {
        "electoralDistricts": [
          {
            "election": null,
            "id": 75,
            "name": "Oakville North—Burlington"
          }
        ],
        "pollDivisionIds": [
          10140424
        ],
        "postalCode": "L7M3E2",
        "streetName": "DEER RUN",
        "streetDirectionId": null,
        "streetTypeId": "AVE",
        "placeName": "BURLINGTON",
        "streetNameDisplayText": "DEER RUN AVE, BURLINGTON"
      },
      {
        "electoralDistricts": [
          {
            "election": null,
            "id": 75,
            "name": "Oakville North—Burlington"
          }
        ],
        "pollDivisionIds": [
          10140424
        ],
        "postalCode": "L7M3E2",
        "streetName": "HUNT",
        "streetDirectionId": null,
        "streetTypeId": "CRES",
        "placeName": "BURLINGTON",
        "streetNameDisplayText": "HUNT CRES, BURLINGTON"
      }
    ]
  },
  {
    "postal": "L7M5H4",
    "result": []
  },
  {
    "postal": "L7M1K7",
    "result": [
      {
        "electoralDistricts": [
          {
            "election": null,
            "id": 15,
            "name": "Burlington"
          }
        ],
        "pollDivisionIds": [
          10137336
        ],
        "postalCode": "L7M1K7",
        "streetName": "NORTHSIDE",
        "streetDirectionId": null,
        "streetTypeId": "RD",
        "placeName": "BURLINGTON",
        "streetNameDisplayText": "NORTHSIDE RD, BURLINGTON"
      }
    ]
  },
  {
    "postal": "L7M0H0",
    "result": []
  },
  {
    "postal": "L7M0J3",
    "result": [
      {
        "electoralDistricts": [
          {
            "election": null,
            "id": 75,
            "name": "Oakville North—Burlington"
          }
        ],
        "pollDivisionIds": [
          10140416
        ],
        "postalCode": "L7M0J3",
        "streetName": "JENN",
        "streetDirectionId": null,
        "streetTypeId": "AVE",
        "placeName": "BURLINGTON",
        "streetNameDisplayText": "JENN AVE, BURLINGTON"
      },
      {
        "electoralDistricts": [
          {
            "election": null,
            "id": 75,
            "name": "Oakville North—Burlington"
          }
        ],
        "pollDivisionIds": [
          10140416
        ],
        "postalCode": "L7M0J3",
        "streetName": "SIMMONS",
        "streetDirectionId": null,
        "streetTypeId": "RD",
        "placeName": "BURLINGTON",
        "streetNameDisplayText": "SIMMONS RD, BURLINGTON"
      }
    ]
  },
  {
    "postal": "L7M1X6",
    "result": [
      {
        "electoralDistricts": [
          {
            "election": null,
            "id": 15,
            "name": "Burlington"
          }
        ],
        "pollDivisionIds": [
          10137341
        ],
        "postalCode": "L7M1X6",
        "streetName": "DRIFTWOOD",
        "streetDirectionId": null,
        "streetTypeId": "DR",
        "placeName": "BURLINGTON",
        "streetNameDisplayText": "DRIFTWOOD DR, BURLINGTON"
      }
    ]
  },
  {
    "postal": "L7M2Z6",
    "result": [
      {
        "electoralDistricts": [
          {
            "election": null,
            "id": 75,
            "name": "Oakville North—Burlington"
          }
        ],
        "pollDivisionIds": [
          10140424
        ],
        "postalCode": "L7M2Z6",
        "streetName": "PINEMEADOW",
        "streetDirectionId": null,
        "streetTypeId": "DR",
        "placeName": "BURLINGTON",
        "streetNameDisplayText": "PINEMEADOW DR, BURLINGTON"
      }
    ]
  },
  {
    "postal": "L7M4R9",
    "result": [
      {
        "electoralDistricts": [
          {
            "election": null,
            "id": 15,
            "name": "Burlington"
          }
        ],
        "pollDivisionIds": [
          10137335
        ],
        "postalCode": "L7M4R9",
        "streetName": "UPPER MIDDLE",
        "streetDirectionId": null,
        "streetTypeId": "RD",
        "placeName": "BURLINGTON",
        "streetNameDisplayText": "UPPER MIDDLE RD, BURLINGTON"
      }
    ]
  },
  {
    "postal": "L7M0W8",
    "result": []
  },
  {
    "postal": "L7M1L4",
    "result": [
      {
        "electoralDistricts": [
          {
            "election": null,
            "id": 15,
            "name": "Burlington"
          }
        ],
        "pollDivisionIds": [
          10137336
        ],
        "postalCode": "L7M1L4",
        "streetName": "PALMER",
        "streetDirectionId": null,
        "streetTypeId": "DR",
        "placeName": "BURLINGTON",
        "streetNameDisplayText": "PALMER DR, BURLINGTON"
      }
    ]
  },
  {
    "postal": "L7M0C8",
    "result": [
      {
        "electoralDistricts": [
          {
            "election": null,
            "id": 75,
            "name": "Oakville North—Burlington"
          }
        ],
        "pollDivisionIds": [
          10140416
        ],
        "postalCode": "L7M0C8",
        "streetName": "CORNERSTONE",
        "streetDirectionId": null,
        "streetTypeId": "DR",
        "placeName": "BURLINGTON",
        "streetNameDisplayText": "CORNERSTONE DR, BURLINGTON"
      },
      {
        "electoralDistricts": [
          {
            "election": null,
            "id": 75,
            "name": "Oakville North—Burlington"
          }
        ],
        "pollDivisionIds": [
          10140416
        ],
        "postalCode": "L7M0C8",
        "streetName": "JENN",
        "streetDirectionId": null,
        "streetTypeId": "AVE",
        "placeName": "BURLINGTON",
        "streetNameDisplayText": "JENN AVE, BURLINGTON"
      }
    ]
  },
  {
    "postal": "L7M9X7",
    "result": []
  },
  {
    "postal": "L7M4T1",
    "result": [
      {
        "electoralDistricts": [
          {
            "election": null,
            "id": 75,
            "name": "Oakville North—Burlington"
          }
        ],
        "pollDivisionIds": [
          10140423,
          10140418
        ],
        "postalCode": "L7M4T1",
        "streetName": "WALKER'S",
        "streetDirectionId": null,
        "streetTypeId": "LINE",
        "placeName": "BURLINGTON",
        "streetNameDisplayText": "WALKER'S LINE, BURLINGTON"
      }
    ]
  },
  {
    "postal": "L7M0M0",
    "result": []
  },
  {
    "postal": "L7M6A2",
    "result": []
  },
  {
    "postal": "L7M9S8",
    "result": []
  },
  {
    "postal": "L7M9T4",
    "result": []
  },
  {
    "postal": "L7M9Y4",
    "result": []
  },
  {
    "postal": "L7M6G5",
    "result": []
  },
  {
    "postal": "L7M6H9",
    "result": []
  },
  {
    "postal": "L7M2P3",
    "result": [
      {
        "electoralDistricts": [
          {
            "election": null,
            "id": 75,
            "name": "Oakville North—Burlington"
          }
        ],
        "pollDivisionIds": [
          10140424
        ],
        "postalCode": "L7M2P3",
        "streetName": "HUNT",
        "streetDirectionId": null,
        "streetTypeId": "CRES",
        "placeName": "BURLINGTON",
        "streetNameDisplayText": "HUNT CRES, BURLINGTON"
      }
    ]
  },
  {
    "postal": "L7M1T6",
    "result": [
      {
        "electoralDistricts": [
          {
            "election": null,
            "id": 15,
            "name": "Burlington"
          }
        ],
        "pollDivisionIds": [
          10137335
        ],
        "postalCode": "L7M1T6",
        "streetName": "DILLON",
        "streetDirectionId": null,
        "streetTypeId": "RD",
        "placeName": "BURLINGTON",
        "streetNameDisplayText": "DILLON RD, BURLINGTON"
      }
    ]
  },
  {
    "postal": "L7M4P6",
    "result": [
      {
        "electoralDistricts": [
          {
            "election": null,
            "id": 75,
            "name": "Oakville North—Burlington"
          }
        ],
        "pollDivisionIds": [
          10140421
        ],
        "postalCode": "L7M4P6",
        "streetName": "UPPER MIDDLE",
        "streetDirectionId": null,
        "streetTypeId": "RD",
        "placeName": "BURLINGTON",
        "streetNameDisplayText": "UPPER MIDDLE RD, BURLINGTON"
      }
    ]
  },
  {
    "postal": "L7M3K1",
    "result": [
      {
        "electoralDistricts": [
          {
            "election": null,
            "id": 75,
            "name": "Oakville North—Burlington"
          }
        ],
        "pollDivisionIds": [
          10140424
        ],
        "postalCode": "L7M3K1",
        "streetName": "FOLKWAY",
        "streetDirectionId": null,
        "streetTypeId": "DR",
        "placeName": "BURLINGTON",
        "streetNameDisplayText": "FOLKWAY DR, BURLINGTON"
      }
    ]
  },
  {
    "postal": "L7M6X4",
    "result": []
  },
  {
    "postal": "L7M4M8",
    "result": [
      {
        "electoralDistricts": [
          {
            "election": null,
            "id": 75,
            "name": "Oakville North—Burlington"
          }
        ],
        "pollDivisionIds": [
          10140420
        ],
        "postalCode": "L7M4M8",
        "streetName": "WALKER'S",
        "streetDirectionId": null,
        "streetTypeId": "LINE",
        "placeName": "BURLINGTON",
        "streetNameDisplayText": "WALKER'S LINE, BURLINGTON"
      }
    ]
  },
  {
    "postal": "L7M2Y1",
    "result": [
      {
        "electoralDistricts": [
          {
            "election": null,
            "id": 75,
            "name": "Oakville North—Burlington"
          }
        ],
        "pollDivisionIds": [
          10140424
        ],
        "postalCode": "L7M2Y1",
        "streetName": "DEERWOOD",
        "streetDirectionId": null,
        "streetTypeId": "DR",
        "placeName": "BURLINGTON",
        "streetNameDisplayText": "DEERWOOD DR, BURLINGTON"
      },
      {
        "electoralDistricts": [
          {
            "election": null,
            "id": 75,
            "name": "Oakville North—Burlington"
          }
        ],
        "pollDivisionIds": [
          10140424
        ],
        "postalCode": "L7M2Y1",
        "streetName": "WINDING",
        "streetDirectionId": null,
        "streetTypeId": "WAY",
        "placeName": "BURLINGTON",
        "streetNameDisplayText": "WINDING WAY, BURLINGTON"
      }
    ]
  },
  {
    "postal": "L7M6M1",
    "result": []
  },
  {
    "postal": "L7M5L8",
    "result": []
  },
  {
    "postal": "L7M3P6",
    "result": [
      {
        "electoralDistricts": [
          {
            "election": null,
            "id": 75,
            "name": "Oakville North—Burlington"
          }
        ],
        "pollDivisionIds": [
          10140423
        ],
        "postalCode": "L7M3P6",
        "streetName": "HEADON",
        "streetDirectionId": null,
        "streetTypeId": "RD",
        "placeName": "BURLINGTON",
        "streetNameDisplayText": "HEADON RD, BURLINGTON"
      },
      {
        "electoralDistricts": [
          {
            "election": null,
            "id": 75,
            "name": "Oakville North—Burlington"
          }
        ],
        "pollDivisionIds": [
          10140423
        ],
        "postalCode": "L7M3P6",
        "streetName": "HEIDI",
        "streetDirectionId": null,
        "streetTypeId": "AVE",
        "placeName": "BURLINGTON",
        "streetNameDisplayText": "HEIDI AVE, BURLINGTON"
      },
      {
        "electoralDistricts": [
          {
            "election": null,
            "id": 75,
            "name": "Oakville North—Burlington"
          }
        ],
        "pollDivisionIds": [
          10140423
        ],
        "postalCode": "L7M3P6",
        "streetName": "JORDAN",
        "streetDirectionId": null,
        "streetTypeId": "AVE",
        "placeName": "BURLINGTON",
        "streetNameDisplayText": "JORDAN AVE, BURLINGTON"
      }
    ]
  },
  {
    "postal": "L7M9A5",
    "result": []
  },
  {
    "postal": "L7M7K1",
    "result": []
  },
  {
    "postal": "L7M3J4",
    "result": [
      {
        "electoralDistricts": [
          {
            "election": null,
            "id": 75,
            "name": "Oakville North—Burlington"
          }
        ],
        "pollDivisionIds": [
          10140424
        ],
        "postalCode": "L7M3J4",
        "streetName": "FOLKWAY",
        "streetDirectionId": null,
        "streetTypeId": "DR",
        "placeName": "BURLINGTON",
        "streetNameDisplayText": "FOLKWAY DR, BURLINGTON"
      }
    ]
  },
  {
    "postal": "L7M5E7",
    "result": []
  },
  {
    "postal": "L7M3A7",
    "result": [
      {
        "electoralDistricts": [
          {
            "election": null,
            "id": 75,
            "name": "Oakville North—Burlington"
          }
        ],
        "pollDivisionIds": [
          10140424
        ],
        "postalCode": "L7M3A7",
        "streetName": "GREENBOUGH",
        "streetDirectionId": null,
        "streetTypeId": "CRES",
        "placeName": "BURLINGTON",
        "streetNameDisplayText": "GREENBOUGH CRES, BURLINGTON"
      },
      {
        "electoralDistricts": [
          {
            "election": null,
            "id": 75,
            "name": "Oakville North—Burlington"
          }
        ],
        "pollDivisionIds": [
          10140424
        ],
        "postalCode": "L7M3A7",
        "streetName": "TWIN OAKS",
        "streetDirectionId": null,
        "streetTypeId": "CRES",
        "placeName": "BURLINGTON",
        "streetNameDisplayText": "TWIN OAKS CRES, BURLINGTON"
      }
    ]
  },
  {
    "postal": "L7M1B9",
    "result": [
      {
        "electoralDistricts": [
          {
            "election": null,
            "id": 15,
            "name": "Burlington"
          }
        ],
        "pollDivisionIds": [
          10137336
        ],
        "postalCode": "L7M1B9",
        "streetName": "CENTENNIAL",
        "streetDirectionId": null,
        "streetTypeId": "DR",
        "placeName": "BURLINGTON",
        "streetNameDisplayText": "CENTENNIAL DR, BURLINGTON"
      }
    ]
  },
  {
    "postal": "L7M9E8",
    "result": []
  },
  {
    "postal": "L7M1C9",
    "result": [
      {
        "electoralDistricts": [
          {
            "election": null,
            "id": 15,
            "name": "Burlington"
          }
        ],
        "pollDivisionIds": [
          10137336,
          10137335
        ],
        "postalCode": "L7M1C9",
        "streetName": "HEATHFIELD",
        "streetDirectionId": null,
        "streetTypeId": "DR",
        "placeName": "BURLINGTON",
        "streetNameDisplayText": "HEATHFIELD DR, BURLINGTON"
      }
    ]
  },
  {
    "postal": "L7M3B5",
    "result": [
      {
        "electoralDistricts": [
          {
            "election": null,
            "id": 15,
            "name": "Burlington"
          }
        ],
        "pollDivisionIds": [
          10137335
        ],
        "postalCode": "L7M3B5",
        "streetName": "MOLTER",
        "streetDirectionId": null,
        "streetTypeId": "CRT",
        "placeName": "BURLINGTON",
        "streetNameDisplayText": "MOLTER CRT, BURLINGTON"
      }
    ]
  },
  {
    "postal": "L7M8R0",
    "result": []
  },
  {
    "postal": "L7M3P2",
    "result": [
      {
        "electoralDistricts": [
          {
            "election": null,
            "id": 15,
            "name": "Burlington"
          }
        ],
        "pollDivisionIds": [
          10137341
        ],
        "postalCode": "L7M3P2",
        "streetName": "DRIFTWOOD",
        "streetDirectionId": null,
        "streetTypeId": "DR",
        "placeName": "BURLINGTON",
        "streetNameDisplayText": "DRIFTWOOD DR, BURLINGTON"
      }
    ]
  },
  {
    "postal": "L7M5V4",
    "result": []
  },
  {
    "postal": "L7M4H0",
    "result": []
  },
  {
    "postal": "L7M4S7",
    "result": [
      {
        "electoralDistricts": [
          {
            "election": null,
            "id": 75,
            "name": "Oakville North—Burlington"
          }
        ],
        "pollDivisionIds": [
          10140413,
          10140414
        ],
        "postalCode": "L7M4S7",
        "streetName": "ARMOUR",
        "streetDirectionId": null,
        "streetTypeId": "CRES",
        "placeName": "BURLINGTON",
        "streetNameDisplayText": "ARMOUR CRES, BURLINGTON"
      },
      {
        "electoralDistricts": [
          {
            "election": null,
            "id": 75,
            "name": "Oakville North—Burlington"
          }
        ],
        "pollDivisionIds": [
          10140414
        ],
        "postalCode": "L7M4S7",
        "streetName": "BOROS",
        "streetDirectionId": null,
        "streetTypeId": "RD",
        "placeName": "BURLINGTON",
        "streetNameDisplayText": "BOROS RD, BURLINGTON"
      },
      {
        "electoralDistricts": [
          {
            "election": null,
            "id": 75,
            "name": "Oakville North—Burlington"
          }
        ],
        "pollDivisionIds": [
          10140413
        ],
        "postalCode": "L7M4S7",
        "streetName": "TAYWOOD",
        "streetDirectionId": null,
        "streetTypeId": "DR",
        "placeName": "BURLINGTON",
        "streetNameDisplayText": "TAYWOOD DR, BURLINGTON"
      },
      {
        "electoralDistricts": [
          {
            "election": null,
            "id": 75,
            "name": "Oakville North—Burlington"
          }
        ],
        "pollDivisionIds": [
          10140413
        ],
        "postalCode": "L7M4S7",
        "streetName": "TURNBERRY",
        "streetDirectionId": null,
        "streetTypeId": "RD",
        "placeName": "BURLINGTON",
        "streetNameDisplayText": "TURNBERRY RD, BURLINGTON"
      }
    ]
  },
  {
    "postal": "L7M6C2",
    "result": []
  },
  {
    "postal": "L7M8W3",
    "result": []
  },
  {
    "postal": "L7M4M5",
    "result": [
      {
        "electoralDistricts": [
          {
            "election": null,
            "id": 75,
            "name": "Oakville North—Burlington"
          }
        ],
        "pollDivisionIds": [
          10140422
        ],
        "postalCode": "L7M4M5",
        "streetName": "KILMER",
        "streetDirectionId": null,
        "streetTypeId": "DR",
        "placeName": "BURLINGTON",
        "streetNameDisplayText": "KILMER DR, BURLINGTON"
      }
    ]
  },
  {
    "postal": "L7M5T1",
    "result": []
  },
  {
    "postal": "L7M3B3",
    "result": [
      {
        "electoralDistricts": [
          {
            "election": null,
            "id": 15,
            "name": "Burlington"
          }
        ],
        "pollDivisionIds": [
          10137335
        ],
        "postalCode": "L7M3B3",
        "streetName": "KETELBEY",
        "streetDirectionId": null,
        "streetTypeId": "CRT",
        "placeName": "BURLINGTON",
        "streetNameDisplayText": "KETELBEY CRT, BURLINGTON"
      }
    ]
  },
  {
    "postal": "L7M6C6",
    "result": []
  },
  {
    "postal": "L7M7N8",
    "result": []
  },
  {
    "postal": "L7M2Y3",
    "result": [
      {
        "electoralDistricts": [
          {
            "election": null,
            "id": 75,
            "name": "Oakville North—Burlington"
          }
        ],
        "pollDivisionIds": [
          10140424
        ],
        "postalCode": "L7M2Y3",
        "streetName": "DEERWOOD",
        "streetDirectionId": null,
        "streetTypeId": "DR",
        "placeName": "BURLINGTON",
        "streetNameDisplayText": "DEERWOOD DR, BURLINGTON"
      }
    ]
  },
  {
    "postal": "L7M2R6",
    "result": [
      {
        "electoralDistricts": [
          {
            "election": null,
            "id": 75,
            "name": "Oakville North—Burlington"
          }
        ],
        "pollDivisionIds": [
          10140423
        ],
        "postalCode": "L7M2R6",
        "streetName": "WINDY OAKS",
        "streetDirectionId": null,
        "streetTypeId": "DR",
        "placeName": "BURLINGTON",
        "streetNameDisplayText": "WINDY OAKS DR, BURLINGTON"
      }
    ]
  },
  {
    "postal": "L7M7N3",
    "result": []
  },
  {
    "postal": "L7M8J2",
    "result": []
  },
  {
    "postal": "L7M6A9",
    "result": []
  },
  {
    "postal": "L7M3V2",
    "result": [
      {
        "electoralDistricts": [
          {
            "election": null,
            "id": 75,
            "name": "Oakville North—Burlington"
          }
        ],
        "pollDivisionIds": [
          10140421
        ],
        "postalCode": "L7M3V2",
        "streetName": "MILLCROFT PARK",
        "streetDirectionId": null,
        "streetTypeId": "DR",
        "placeName": "BURLINGTON",
        "streetNameDisplayText": "MILLCROFT PARK DR, BURLINGTON"
      }
    ]
  },
  {
    "postal": "L7M2N3",
    "result": [
      {
        "electoralDistricts": [
          {
            "election": null,
            "id": 75,
            "name": "Oakville North—Burlington"
          }
        ],
        "pollDivisionIds": [
          10140424
        ],
        "postalCode": "L7M2N3",
        "streetName": "HEADON FOREST",
        "streetDirectionId": null,
        "streetTypeId": "DR",
        "placeName": "BURLINGTON",
        "streetNameDisplayText": "HEADON FOREST DR, BURLINGTON"
      },
      {
        "electoralDistricts": [
          {
            "election": null,
            "id": 75,
            "name": "Oakville North—Burlington"
          }
        ],
        "pollDivisionIds": [
          10140424
        ],
        "postalCode": "L7M2N3",
        "streetName": "WENTWORTH",
        "streetDirectionId": null,
        "streetTypeId": "ST",
        "placeName": "BURLINGTON",
        "streetNameDisplayText": "WENTWORTH ST, BURLINGTON"
      }
    ]
  },
  {
    "postal": "L7M1S5",
    "result": [
      {
        "electoralDistricts": [
          {
            "election": null,
            "id": 15,
            "name": "Burlington"
          }
        ],
        "pollDivisionIds": [
          10137335
        ],
        "postalCode": "L7M1S5",
        "streetName": "LANSDOWN",
        "streetDirectionId": null,
        "streetTypeId": "DR",
        "placeName": "BURLINGTON",
        "streetNameDisplayText": "LANSDOWN DR, BURLINGTON"
      }
    ]
  },
  {
    "postal": "L7M4T7",
    "result": [
      {
        "electoralDistricts": [
          {
            "election": null,
            "id": 75,
            "name": "Oakville North—Burlington"
          }
        ],
        "pollDivisionIds": [
          10140413
        ],
        "postalCode": "L7M4T7",
        "streetName": "MILLCROFT PARK",
        "streetDirectionId": null,
        "streetTypeId": "DR",
        "placeName": "BURLINGTON",
        "streetNameDisplayText": "MILLCROFT PARK DR, BURLINGTON"
      },
      {
        "electoralDistricts": [
          {
            "election": null,
            "id": 75,
            "name": "Oakville North—Burlington"
          }
        ],
        "pollDivisionIds": [
          10140418
        ],
        "postalCode": "L7M4T7",
        "streetName": "SARAZEN",
        "streetDirectionId": null,
        "streetTypeId": "DR",
        "placeName": "BURLINGTON",
        "streetNameDisplayText": "SARAZEN DR, BURLINGTON"
      }
    ]
  },
  {
    "postal": "L7M6Y7",
    "result": []
  },
  {
    "postal": "L7M0W7",
    "result": []
  },
  {
    "postal": "L7M2W9",
    "result": [
      {
        "electoralDistricts": [
          {
            "election": null,
            "id": 75,
            "name": "Oakville North—Burlington"
          }
        ],
        "pollDivisionIds": [
          10140424
        ],
        "postalCode": "L7M2W9",
        "streetName": "CHARNWOOD",
        "streetDirectionId": null,
        "streetTypeId": "DR",
        "placeName": "BURLINGTON",
        "streetNameDisplayText": "CHARNWOOD DR, BURLINGTON"
      }
    ]
  },
  {
    "postal": "L7M8V0",
    "result": []
  },
  {
    "postal": "L7M0H4",
    "result": [
      {
        "electoralDistricts": [
          {
            "election": null,
            "id": 75,
            "name": "Oakville North—Burlington"
          }
        ],
        "pollDivisionIds": [
          10140413
        ],
        "postalCode": "L7M0H4",
        "streetName": "VALERA",
        "streetDirectionId": null,
        "streetTypeId": "RD",
        "placeName": "BURLINGTON",
        "streetNameDisplayText": "VALERA RD, BURLINGTON"
      },
      {
        "electoralDistricts": [
          {
            "election": null,
            "id": 75,
            "name": "Oakville North—Burlington"
          }
        ],
        "pollDivisionIds": [
          10140413
        ],
        "postalCode": "L7M0H4",
        "streetName": "VERDI",
        "streetDirectionId": null,
        "streetTypeId": "ST",
        "placeName": "BURLINGTON",
        "streetNameDisplayText": "VERDI ST, BURLINGTON"
      }
    ]
  },
  {
    "postal": "L7M2T1",
    "result": [
      {
        "electoralDistricts": [
          {
            "election": null,
            "id": 75,
            "name": "Oakville North—Burlington"
          }
        ],
        "pollDivisionIds": [
          10140423
        ],
        "postalCode": "L7M2T1",
        "streetName": "HUNTERS WOOD",
        "streetDirectionId": null,
        "streetTypeId": "DR",
        "placeName": "BURLINGTON",
        "streetNameDisplayText": "HUNTERS WOOD DR, BURLINGTON"
      }
    ]
  },
  {
    "postal": "L7M1B1",
    "result": [
      {
        "electoralDistricts": [
          {
            "election": null,
            "id": 15,
            "name": "Burlington"
          },
          {
            "election": null,
            "id": 75,
            "name": "Oakville North—Burlington"
          }
        ],
        "pollDivisionIds": [
          10137336,
          10140419
        ],
        "postalCode": "L7M1B1",
        "streetName": "NORTHVIEW",
        "streetDirectionId": null,
        "streetTypeId": "CRES",
        "placeName": "BURLINGTON",
        "streetNameDisplayText": "NORTHVIEW CRES, BURLINGTON"
      }
    ]
  },
  {
    "postal": "L7M8B6",
    "result": []
  },
  {
    "postal": "L7M6H1",
    "result": []
  },
  {
    "postal": "L7M8T8",
    "result": []
  },
  {
    "postal": "L7M0T4",
    "result": [
      {
        "electoralDistricts": [
          {
            "election": null,
            "id": 59,
            "name": "Milton"
          }
        ],
        "pollDivisionIds": [
          10126398
        ],
        "postalCode": "L7M0T4",
        "streetName": "2",
        "streetDirectionId": null,
        "streetTypeId": "SIDERD",
        "placeName": "BURLINGTON",
        "streetNameDisplayText": "2 SIDERD, BURLINGTON"
      }
    ]
  },
  {
    "postal": "L7M2C4",
    "result": []
  },
  {
    "postal": "L7M8N3",
    "result": []
  },
  {
    "postal": "L7M4L8",
    "result": [
      {
        "electoralDistricts": [
          {
            "election": null,
            "id": 75,
            "name": "Oakville North—Burlington"
          }
        ],
        "pollDivisionIds": [
          10140413
        ],
        "postalCode": "L7M4L8",
        "streetName": "TURNBERRY",
        "streetDirectionId": null,
        "streetTypeId": "RD",
        "placeName": "BURLINGTON",
        "streetNameDisplayText": "TURNBERRY RD, BURLINGTON"
      }
    ]
  },
  {
    "postal": "L7M2B5",
    "result": []
  },
  {
    "postal": "L7M3H1",
    "result": [
      {
        "electoralDistricts": [
          {
            "election": null,
            "id": 75,
            "name": "Oakville North—Burlington"
          }
        ],
        "pollDivisionIds": [
          10140424
        ],
        "postalCode": "L7M3H1",
        "streetName": "SANDCLIFFE",
        "streetDirectionId": null,
        "streetTypeId": "CRT",
        "placeName": "BURLINGTON",
        "streetNameDisplayText": "SANDCLIFFE CRT, BURLINGTON"
      }
    ]
  },
  {
    "postal": "L7M4Y1",
    "result": []
  },
  {
    "postal": "L7M7E2",
    "result": []
  },
  {
    "postal": "L7M2P5",
    "result": [
      {
        "electoralDistricts": [
          {
            "election": null,
            "id": 75,
            "name": "Oakville North—Burlington"
          }
        ],
        "pollDivisionIds": [
          10140424
        ],
        "postalCode": "L7M2P5",
        "streetName": "CLIPPER",
        "streetDirectionId": null,
        "streetTypeId": "CRES",
        "placeName": "BURLINGTON",
        "streetNameDisplayText": "CLIPPER CRES, BURLINGTON"
      }
    ]
  },
  {
    "postal": "L7M8R7",
    "result": []
  },
  {
    "postal": "L7M9P1",
    "result": []
  },
  {
    "postal": "L7M3B8",
    "result": [
      {
        "electoralDistricts": [
          {
            "election": null,
            "id": 15,
            "name": "Burlington"
          }
        ],
        "pollDivisionIds": [
          10137335
        ],
        "postalCode": "L7M3B8",
        "streetName": "REYNOLDS",
        "streetDirectionId": null,
        "streetTypeId": "AVE",
        "placeName": "BURLINGTON",
        "streetNameDisplayText": "REYNOLDS AVE, BURLINGTON"
      }
    ]
  },
  {
    "postal": "L7M3P7",
    "result": [
      {
        "electoralDistricts": [
          {
            "election": null,
            "id": 75,
            "name": "Oakville North—Burlington"
          }
        ],
        "pollDivisionIds": [
          10140423
        ],
        "postalCode": "L7M3P7",
        "streetName": "JORDAN",
        "streetDirectionId": null,
        "streetTypeId": "AVE",
        "placeName": "BURLINGTON",
        "streetNameDisplayText": "JORDAN AVE, BURLINGTON"
      },
      {
        "electoralDistricts": [
          {
            "election": null,
            "id": 75,
            "name": "Oakville North—Burlington"
          }
        ],
        "pollDivisionIds": [
          10140423
        ],
        "postalCode": "L7M3P7",
        "streetName": "MARC",
        "streetDirectionId": null,
        "streetTypeId": "LANE",
        "placeName": "BURLINGTON",
        "streetNameDisplayText": "MARC LANE, BURLINGTON"
      }
    ]
  },
  {
    "postal": "L7M9B2",
    "result": []
  },
  {
    "postal": "L7M6Z3",
    "result": []
  },
  {
    "postal": "L7M4N5",
    "result": [
      {
        "electoralDistricts": [
          {
            "election": null,
            "id": 75,
            "name": "Oakville North—Burlington"
          }
        ],
        "pollDivisionIds": [
          10140418
        ],
        "postalCode": "L7M4N5",
        "streetName": "CREEKVIEW",
        "streetDirectionId": null,
        "streetTypeId": "DR",
        "placeName": "BURLINGTON",
        "streetNameDisplayText": "CREEKVIEW DR, BURLINGTON"
      },
      {
        "electoralDistricts": [
          {
            "election": null,
            "id": 75,
            "name": "Oakville North—Burlington"
          }
        ],
        "pollDivisionIds": [
          10140418
        ],
        "postalCode": "L7M4N5",
        "streetName": "GREENWAY",
        "streetDirectionId": null,
        "streetTypeId": "TERR",
        "placeName": "BURLINGTON",
        "streetNameDisplayText": "GREENWAY TERR, BURLINGTON"
      },
      {
        "electoralDistricts": [
          {
            "election": null,
            "id": 75,
            "name": "Oakville North—Burlington"
          }
        ],
        "pollDivisionIds": [
          10140418
        ],
        "postalCode": "L7M4N5",
        "streetName": "RIDGEVIEW",
        "streetDirectionId": null,
        "streetTypeId": "CRT",
        "placeName": "BURLINGTON",
        "streetNameDisplayText": "RIDGEVIEW CRT, BURLINGTON"
      }
    ]
  },
  {
    "postal": "L7M8T3",
    "result": []
  },
  {
    "postal": "L7M1V2",
    "result": []
  },
  {
    "postal": "L7M1Y0",
    "result": []
  },
  {
    "postal": "L7M3G6",
    "result": [
      {
        "electoralDistricts": [
          {
            "election": null,
            "id": 15,
            "name": "Burlington"
          }
        ],
        "pollDivisionIds": [
          10137335
        ],
        "postalCode": "L7M3G6",
        "streetName": "PALMER",
        "streetDirectionId": null,
        "streetTypeId": "DR",
        "placeName": "BURLINGTON",
        "streetNameDisplayText": "PALMER DR, BURLINGTON"
      }
    ]
  },
  {
    "postal": "L7M3H7",
    "result": [
      {
        "electoralDistricts": [
          {
            "election": null,
            "id": 75,
            "name": "Oakville North—Burlington"
          }
        ],
        "pollDivisionIds": [
          10140424
        ],
        "postalCode": "L7M3H7",
        "streetName": "SILVERBIRCH",
        "streetDirectionId": null,
        "streetTypeId": "CRT",
        "placeName": "BURLINGTON",
        "streetNameDisplayText": "SILVERBIRCH CRT, BURLINGTON"
      }
    ]
  },
  {
    "postal": "L7M7X8",
    "result": []
  },
  {
    "postal": "L7M0C7",
    "result": [
      {
        "electoralDistricts": [
          {
            "election": null,
            "id": 75,
            "name": "Oakville North—Burlington"
          }
        ],
        "pollDivisionIds": [
          10140416
        ],
        "postalCode": "L7M0C7",
        "streetName": "ETHEL",
        "streetDirectionId": null,
        "streetTypeId": "RD",
        "placeName": "BURLINGTON",
        "streetNameDisplayText": "ETHEL RD, BURLINGTON"
      },
      {
        "electoralDistricts": [
          {
            "election": null,
            "id": 75,
            "name": "Oakville North—Burlington"
          }
        ],
        "pollDivisionIds": [
          10140416
        ],
        "postalCode": "L7M0C7",
        "streetName": "JENN",
        "streetDirectionId": null,
        "streetTypeId": "AVE",
        "placeName": "BURLINGTON",
        "streetNameDisplayText": "JENN AVE, BURLINGTON"
      }
    ]
  },
  {
    "postal": "L7M0W9",
    "result": []
  },
  {
    "postal": "L7M8E6",
    "result": []
  },
  {
    "postal": "L7M9Z8",
    "result": []
  },
  {
    "postal": "L7M3P4",
    "result": [
      {
        "electoralDistricts": [
          {
            "election": null,
            "id": 75,
            "name": "Oakville North—Burlington"
          }
        ],
        "pollDivisionIds": [
          10140423
        ],
        "postalCode": "L7M3P4",
        "streetName": "HEIDI",
        "streetDirectionId": null,
        "streetTypeId": "AVE",
        "placeName": "BURLINGTON",
        "streetNameDisplayText": "HEIDI AVE, BURLINGTON"
      }
    ]
  },
  {
    "postal": "L7M6L8",
    "result": []
  },
  {
    "postal": "L7M2R4",
    "result": [
      {
        "electoralDistricts": [
          {
            "election": null,
            "id": 75,
            "name": "Oakville North—Burlington"
          }
        ],
        "pollDivisionIds": [
          10140423
        ],
        "postalCode": "L7M2R4",
        "streetName": "WHISPERING PINE",
        "streetDirectionId": null,
        "streetTypeId": "RD",
        "placeName": "BURLINGTON",
        "streetNameDisplayText": "WHISPERING PINE RD, BURLINGTON"
      },
      {
        "electoralDistricts": [
          {
            "election": null,
            "id": 75,
            "name": "Oakville North—Burlington"
          }
        ],
        "pollDivisionIds": [
          10140423
        ],
        "postalCode": "L7M2R4",
        "streetName": "WINDY OAKS",
        "streetDirectionId": null,
        "streetTypeId": "DR",
        "placeName": "BURLINGTON",
        "streetNameDisplayText": "WINDY OAKS DR, BURLINGTON"
      }
    ]
  },
  {
    "postal": "L7M2W1",
    "result": [
      {
        "electoralDistricts": [
          {
            "election": null,
            "id": 75,
            "name": "Oakville North—Burlington"
          }
        ],
        "pollDivisionIds": [
          10140424
        ],
        "postalCode": "L7M2W1",
        "streetName": "HEADON FOREST",
        "streetDirectionId": null,
        "streetTypeId": "DR",
        "placeName": "BURLINGTON",
        "streetNameDisplayText": "HEADON FOREST DR, BURLINGTON"
      },
      {
        "electoralDistricts": [
          {
            "election": null,
            "id": 75,
            "name": "Oakville North—Burlington"
          }
        ],
        "pollDivisionIds": [
          10140424
        ],
        "postalCode": "L7M2W1",
        "streetName": "SOVEREIGN",
        "streetDirectionId": null,
        "streetTypeId": "RD",
        "placeName": "BURLINGTON",
        "streetNameDisplayText": "SOVEREIGN RD, BURLINGTON"
      }
    ]
  },
  {
    "postal": "L7M9H8",
    "result": []
  },
  {
    "postal": "L7M8X9",
    "result": []
  },
  {
    "postal": "L7M7H4",
    "result": []
  },
  {
    "postal": "L7M3J1",
    "result": [
      {
        "electoralDistricts": [
          {
            "election": null,
            "id": 75,
            "name": "Oakville North—Burlington"
          }
        ],
        "pollDivisionIds": [
          10140424
        ],
        "postalCode": "L7M3J1",
        "streetName": "OWEN",
        "streetDirectionId": null,
        "streetTypeId": "LANE",
        "placeName": "BURLINGTON",
        "streetNameDisplayText": "OWEN LANE, BURLINGTON"
      },
      {
        "electoralDistricts": [
          {
            "election": null,
            "id": 75,
            "name": "Oakville North—Burlington"
          }
        ],
        "pollDivisionIds": [
          10140424
        ],
        "postalCode": "L7M3J1",
        "streetName": "PHILIP",
        "streetDirectionId": null,
        "streetTypeId": "ST",
        "placeName": "BURLINGTON",
        "streetNameDisplayText": "PHILIP ST, BURLINGTON"
      }
    ]
  },
  {
    "postal": "L7M1P4",
    "result": [
      {
        "electoralDistricts": [
          {
            "election": null,
            "id": 15,
            "name": "Burlington"
          }
        ],
        "pollDivisionIds": [
          10137335
        ],
        "postalCode": "L7M1P4",
        "streetName": "EPPING",
        "streetDirectionId": null,
        "streetTypeId": "RD",
        "placeName": "BURLINGTON",
        "streetNameDisplayText": "EPPING RD, BURLINGTON"
      }
    ]
  },
  {
    "postal": "L7M2A3",
    "result": [
      {
        "electoralDistricts": [
          {
            "election": null,
            "id": 15,
            "name": "Burlington"
          }
        ],
        "pollDivisionIds": [
          10137341
        ],
        "postalCode": "L7M2A3",
        "streetName": "GUELPH",
        "streetDirectionId": null,
        "streetTypeId": "LINE",
        "placeName": "BURLINGTON",
        "streetNameDisplayText": "GUELPH LINE, BURLINGTON"
      }
    ]
  },
  {
    "postal": "L7M0Z1",
    "result": [
      {
        "electoralDistricts": [
          {
            "election": null,
            "id": 75,
            "name": "Oakville North—Burlington"
          }
        ],
        "pollDivisionIds": [
          10140422
        ],
        "postalCode": "L7M0Z1",
        "streetName": "WALKER'S",
        "streetDirectionId": null,
        "streetTypeId": "LINE",
        "placeName": "BURLINGTON",
        "streetNameDisplayText": "WALKER'S LINE, BURLINGTON"
      }
    ]
  },
  {
    "postal": "L7M1C1",
    "result": [
      {
        "electoralDistricts": [
          {
            "election": null,
            "id": 15,
            "name": "Burlington"
          }
        ],
        "pollDivisionIds": [
          10137336
        ],
        "postalCode": "L7M1C1",
        "streetName": "CENTENNIAL",
        "streetDirectionId": null,
        "streetTypeId": "DR",
        "placeName": "BURLINGTON",
        "streetNameDisplayText": "CENTENNIAL DR, BURLINGTON"
      }
    ]
  },
  {
    "postal": "L7M0H3",
    "result": [
      {
        "electoralDistricts": [
          {
            "election": null,
            "id": 75,
            "name": "Oakville North—Burlington"
          }
        ],
        "pollDivisionIds": [
          10140413
        ],
        "postalCode": "L7M0H3",
        "streetName": "COLUMBUS",
        "streetDirectionId": null,
        "streetTypeId": "DR",
        "placeName": "BURLINGTON",
        "streetNameDisplayText": "COLUMBUS DR, BURLINGTON"
      },
      {
        "electoralDistricts": [
          {
            "election": null,
            "id": 75,
            "name": "Oakville North—Burlington"
          }
        ],
        "pollDivisionIds": [
          10140413,
          10140416
        ],
        "postalCode": "L7M0H3",
        "streetName": "THOMAS ALTON",
        "streetDirectionId": null,
        "streetTypeId": "BLVD",
        "placeName": "BURLINGTON",
        "streetNameDisplayText": "THOMAS ALTON BLVD, BURLINGTON"
      }
    ]
  },
  {
    "postal": "L7M7B0",
    "result": []
  },
  {
    "postal": "L7M5K2",
    "result": []
  },
  {
    "postal": "L7M1E9",
    "result": [
      {
        "electoralDistricts": [
          {
            "election": null,
            "id": 15,
            "name": "Burlington"
          }
        ],
        "pollDivisionIds": [
          10137336
        ],
        "postalCode": "L7M1E9",
        "streetName": "TERRAVIEW",
        "streetDirectionId": null,
        "streetTypeId": "CRT",
        "placeName": "BURLINGTON",
        "streetNameDisplayText": "TERRAVIEW CRT, BURLINGTON"
      }
    ]
  },
  {
    "postal": "L7M9W7",
    "result": []
  },
  {
    "postal": "L7M5W6",
    "result": []
  },
  {
    "postal": "L7M6S6",
    "result": []
  },
  {
    "postal": "L7M2P8",
    "result": [
      {
        "electoralDistricts": [
          {
            "election": null,
            "id": 75,
            "name": "Oakville North—Burlington"
          }
        ],
        "pollDivisionIds": [
          10140424
        ],
        "postalCode": "L7M2P8",
        "streetName": "CLIPPER",
        "streetDirectionId": null,
        "streetTypeId": "CRES",
        "placeName": "BURLINGTON",
        "streetNameDisplayText": "CLIPPER CRES, BURLINGTON"
      },
      {
        "electoralDistricts": [
          {
            "election": null,
            "id": 75,
            "name": "Oakville North—Burlington"
          }
        ],
        "pollDivisionIds": [
          10140424
        ],
        "postalCode": "L7M2P8",
        "streetName": "HUNT",
        "streetDirectionId": null,
        "streetTypeId": "CRES",
        "placeName": "BURLINGTON",
        "streetNameDisplayText": "HUNT CRES, BURLINGTON"
      }
    ]
  },
  {
    "postal": "L7M4P8",
    "result": [
      {
        "electoralDistricts": [
          {
            "election": null,
            "id": 75,
            "name": "Oakville North—Burlington"
          }
        ],
        "pollDivisionIds": [
          10140413
        ],
        "postalCode": "L7M4P8",
        "streetName": "CHASEWOOD",
        "streetDirectionId": null,
        "streetTypeId": "CRT",
        "placeName": "BURLINGTON",
        "streetNameDisplayText": "CHASEWOOD CRT, BURLINGTON"
      },
      {
        "electoralDistricts": [
          {
            "election": null,
            "id": 75,
            "name": "Oakville North—Burlington"
          }
        ],
        "pollDivisionIds": [
          10140413
        ],
        "postalCode": "L7M4P8",
        "streetName": "TURNBERRY",
        "streetDirectionId": null,
        "streetTypeId": "RD",
        "placeName": "BURLINGTON",
        "streetNameDisplayText": "TURNBERRY RD, BURLINGTON"
      }
    ]
  },
  {
    "postal": "L7M0V9",
    "result": []
  },
  {
    "postal": "L7M5Y2",
    "result": []
  },
  {
    "postal": "L7M7Z7",
    "result": []
  },
  {
    "postal": "L7M6Y8",
    "result": []
  },
  {
    "postal": "L7M2G7",
    "result": []
  },
  {
    "postal": "L7M8C1",
    "result": []
  },
  {
    "postal": "L7M5C5",
    "result": [
      {
        "electoralDistricts": [
          {
            "election": null,
            "id": 75,
            "name": "Oakville North—Burlington"
          }
        ],
        "pollDivisionIds": [
          10140418
        ],
        "postalCode": "L7M5C5",
        "streetName": "AMALETTA",
        "streetDirectionId": null,
        "streetTypeId": "CRES",
        "placeName": "BURLINGTON",
        "streetNameDisplayText": "AMALETTA CRES, BURLINGTON"
      },
      {
        "electoralDistricts": [
          {
            "election": null,
            "id": 75,
            "name": "Oakville North—Burlington"
          }
        ],
        "pollDivisionIds": [
          10140418
        ],
        "postalCode": "L7M5C5",
        "streetName": "SARAZEN",
        "streetDirectionId": null,
        "streetTypeId": "DR",
        "placeName": "BURLINGTON",
        "streetNameDisplayText": "SARAZEN DR, BURLINGTON"
      }
    ]
  },
  {
    "postal": "L7M2X8",
    "result": [
      {
        "electoralDistricts": [
          {
            "election": null,
            "id": 75,
            "name": "Oakville North—Burlington"
          }
        ],
        "pollDivisionIds": [
          10140424
        ],
        "postalCode": "L7M2X8",
        "streetName": "BERRYMAN",
        "streetDirectionId": null,
        "streetTypeId": "CRT",
        "placeName": "BURLINGTON",
        "streetNameDisplayText": "BERRYMAN CRT, BURLINGTON"
      },
      {
        "electoralDistricts": [
          {
            "election": null,
            "id": 75,
            "name": "Oakville North—Burlington"
          }
        ],
        "pollDivisionIds": [
          10140424
        ],
        "postalCode": "L7M2X8",
        "streetName": "HEADON FOREST",
        "streetDirectionId": null,
        "streetTypeId": "DR",
        "placeName": "BURLINGTON",
        "streetNameDisplayText": "HEADON FOREST DR, BURLINGTON"
      },
      {
        "electoralDistricts": [
          {
            "election": null,
            "id": 75,
            "name": "Oakville North—Burlington"
          }
        ],
        "pollDivisionIds": [
          10140424
        ],
        "postalCode": "L7M2X8",
        "streetName": "WINDING",
        "streetDirectionId": null,
        "streetTypeId": "WAY",
        "placeName": "BURLINGTON",
        "streetNameDisplayText": "WINDING WAY, BURLINGTON"
      }
    ]
  },
  {
    "postal": "L7M1W5",
    "result": [
      {
        "electoralDistricts": [
          {
            "election": null,
            "id": 15,
            "name": "Burlington"
          }
        ],
        "pollDivisionIds": [
          10137335
        ],
        "postalCode": "L7M1W5",
        "streetName": "HEADON",
        "streetDirectionId": null,
        "streetTypeId": "RD",
        "placeName": "BURLINGTON",
        "streetNameDisplayText": "HEADON RD, BURLINGTON"
      }
    ]
  },
  {
    "postal": "L7M7G0",
    "result": []
  },
  {
    "postal": "L7M8J8",
    "result": []
  },
  {
    "postal": "L7M3Y0",
    "result": []
  },
  {
    "postal": "L7M9T7",
    "result": []
  },
  {
    "postal": "L7M5P4",
    "result": []
  },
  {
    "postal": "L7M4B0",
    "result": []
  },
  {
    "postal": "L7M9N8",
    "result": []
  },
  {
    "postal": "L7M4A7",
    "result": [
      {
        "electoralDistricts": [
          {
            "election": null,
            "id": 75,
            "name": "Oakville North—Burlington"
          }
        ],
        "pollDivisionIds": [
          10140421
        ],
        "postalCode": "L7M4A7",
        "streetName": "ARBOURFIELD",
        "streetDirectionId": null,
        "streetTypeId": "DR",
        "placeName": "BURLINGTON",
        "streetNameDisplayText": "ARBOURFIELD DR, BURLINGTON"
      },
      {
        "electoralDistricts": [
          {
            "election": null,
            "id": 75,
            "name": "Oakville North—Burlington"
          }
        ],
        "pollDivisionIds": [
          10140421
        ],
        "postalCode": "L7M4A7",
        "streetName": "MUIRFIELD",
        "streetDirectionId": null,
        "streetTypeId": "CRT",
        "placeName": "BURLINGTON",
        "streetNameDisplayText": "MUIRFIELD CRT, BURLINGTON"
      }
    ]
  },
  {
    "postal": "L7M4H9",
    "result": [
      {
        "electoralDistricts": [
          {
            "election": null,
            "id": 75,
            "name": "Oakville North—Burlington"
          }
        ],
        "pollDivisionIds": [
          10140418
        ],
        "postalCode": "L7M4H9",
        "streetName": "COUNTRY CLUB",
        "streetDirectionId": null,
        "streetTypeId": "DR",
        "placeName": "BURLINGTON",
        "streetNameDisplayText": "COUNTRY CLUB DR, BURLINGTON"
      }
    ]
  },
  {
    "postal": "L7M6X1",
    "result": []
  },
  {
    "postal": "L7M9Y7",
    "result": []
  },
  {
    "postal": "L7M2Y5",
    "result": [
      {
        "electoralDistricts": [
          {
            "election": null,
            "id": 75,
            "name": "Oakville North—Burlington"
          }
        ],
        "pollDivisionIds": [
          10140424
        ],
        "postalCode": "L7M2Y5",
        "streetName": "LONGMEADOW",
        "streetDirectionId": null,
        "streetTypeId": "RD",
        "placeName": "BURLINGTON",
        "streetNameDisplayText": "LONGMEADOW RD, BURLINGTON"
      }
    ]
  },
  {
    "postal": "L7M8L7",
    "result": []
  },
  {
    "postal": "L7M2A8",
    "result": []
  },
  {
    "postal": "L7M2K9",
    "result": []
  },
  {
    "postal": "L7M3E5",
    "result": [
      {
        "electoralDistricts": [
          {
            "election": null,
            "id": 75,
            "name": "Oakville North—Burlington"
          }
        ],
        "pollDivisionIds": [
          10140424
        ],
        "postalCode": "L7M3E5",
        "streetName": "DEER RUN",
        "streetDirectionId": null,
        "streetTypeId": "AVE",
        "placeName": "BURLINGTON",
        "streetNameDisplayText": "DEER RUN AVE, BURLINGTON"
      }
    ]
  },
  {
    "postal": "L7M8N6",
    "result": []
  },
  {
    "postal": "L7M8J4",
    "result": []
  },
  {
    "postal": "L7M4R7",
    "result": [
      {
        "electoralDistricts": [
          {
            "election": null,
            "id": 75,
            "name": "Oakville North—Burlington"
          },
          {
            "election": null,
            "id": 15,
            "name": "Burlington"
          }
        ],
        "pollDivisionIds": [
          10140419,
          10137335
        ],
        "postalCode": "L7M4R7",
        "streetName": "UPPER MIDDLE",
        "streetDirectionId": null,
        "streetTypeId": "RD",
        "placeName": "BURLINGTON",
        "streetNameDisplayText": "UPPER MIDDLE RD, BURLINGTON"
      }
    ]
  },
  {
    "postal": "L7M9K1",
    "result": []
  },
  {
    "postal": "L7M8E1",
    "result": []
  },
  {
    "postal": "L7M0R1",
    "result": [
      {
        "electoralDistricts": [
          {
            "election": null,
            "id": 59,
            "name": "Milton"
          }
        ],
        "pollDivisionIds": [
          10126398
        ],
        "postalCode": "L7M0R1",
        "streetName": "WALKER'S",
        "streetDirectionId": null,
        "streetTypeId": "LINE",
        "placeName": "BURLINGTON",
        "streetNameDisplayText": "WALKER'S LINE, BURLINGTON"
      }
    ]
  },
  {
    "postal": "L7M4J3",
    "result": [
      {
        "electoralDistricts": [
          {
            "election": null,
            "id": 75,
            "name": "Oakville North—Burlington"
          }
        ],
        "pollDivisionIds": [
          10140413
        ],
        "postalCode": "L7M4J3",
        "streetName": "BONAVISTA",
        "streetDirectionId": null,
        "streetTypeId": "CRES",
        "placeName": "BURLINGTON",
        "streetNameDisplayText": "BONAVISTA CRES, BURLINGTON"
      }
    ]
  },
  {
    "postal": "L7M7E7",
    "result": []
  },
  {
    "postal": "L7M0J0",
    "result": []
  },
  {
    "postal": "L7M7R8",
    "result": []
  },
  {
    "postal": "L7M9X0",
    "result": []
  },
  {
    "postal": "L7M7P6",
    "result": []
  },
  {
    "postal": "L7M0R7",
    "result": [
      {
        "electoralDistricts": [
          {
            "election": null,
            "id": 59,
            "name": "Milton"
          }
        ],
        "pollDivisionIds": [
          10126398
        ],
        "postalCode": "L7M0R7",
        "streetName": "BRITANNIA",
        "streetDirectionId": null,
        "streetTypeId": "RD",
        "placeName": "BURLINGTON",
        "streetNameDisplayText": "BRITANNIA RD, BURLINGTON"
      }
    ]
  },
  {
    "postal": "L7M5W1",
    "result": []
  },
  {
    "postal": "L7M0K4",
    "result": [
      {
        "electoralDistricts": [
          {
            "election": null,
            "id": 75,
            "name": "Oakville North—Burlington"
          }
        ],
        "pollDivisionIds": [
          10140413
        ],
        "postalCode": "L7M0K4",
        "streetName": "CLINE",
        "streetDirectionId": null,
        "streetTypeId": "ST",
        "placeName": "BURLINGTON",
        "streetNameDisplayText": "CLINE ST, BURLINGTON"
      },
      {
        "electoralDistricts": [
          {
            "election": null,
            "id": 75,
            "name": "Oakville North—Burlington"
          }
        ],
        "pollDivisionIds": [
          10140413
        ],
        "postalCode": "L7M0K4",
        "streetName": "SIMPSON",
        "streetDirectionId": null,
        "streetTypeId": "DR",
        "placeName": "BURLINGTON",
        "streetNameDisplayText": "SIMPSON DR, BURLINGTON"
      },
      {
        "electoralDistricts": [
          {
            "election": null,
            "id": 75,
            "name": "Oakville North—Burlington"
          }
        ],
        "pollDivisionIds": [
          10140413
        ],
        "postalCode": "L7M0K4",
        "streetName": "THOMAS ALTON",
        "streetDirectionId": null,
        "streetTypeId": "BLVD",
        "placeName": "BURLINGTON",
        "streetNameDisplayText": "THOMAS ALTON BLVD, BURLINGTON"
      }
    ]
  },
  {
    "postal": "L7M7N9",
    "result": []
  },
  {
    "postal": "L7M1N0",
    "result": []
  },
  {
    "postal": "L7M6P3",
    "result": []
  },
  {
    "postal": "L7M5A1",
    "result": [
      {
        "electoralDistricts": [
          {
            "election": null,
            "id": 75,
            "name": "Oakville North—Burlington"
          }
        ],
        "pollDivisionIds": [
          10140413
        ],
        "postalCode": "L7M5A1",
        "streetName": "CLUBVIEW",
        "streetDirectionId": null,
        "streetTypeId": "DR",
        "placeName": "BURLINGTON",
        "streetNameDisplayText": "CLUBVIEW DR, BURLINGTON"
      }
    ]
  },
  {
    "postal": "L7M9M9",
    "result": []
  },
  {
    "postal": "L7M7T6",
    "result": []
  },
  {
    "postal": "L7M3X0",
    "result": []
  },
  {
    "postal": "L7M2T0",
    "result": []
  },
  {
    "postal": "L7M5X9",
    "result": []
  },
  {
    "postal": "L7M2R3",
    "result": [
      {
        "electoralDistricts": [
          {
            "election": null,
            "id": 75,
            "name": "Oakville North—Burlington"
          }
        ],
        "pollDivisionIds": [
          10140423
        ],
        "postalCode": "L7M2R3",
        "streetName": "WHISPERING PINE",
        "streetDirectionId": null,
        "streetTypeId": "RD",
        "placeName": "BURLINGTON",
        "streetNameDisplayText": "WHISPERING PINE RD, BURLINGTON"
      },
      {
        "electoralDistricts": [
          {
            "election": null,
            "id": 75,
            "name": "Oakville North—Burlington"
          }
        ],
        "pollDivisionIds": [
          10140423
        ],
        "postalCode": "L7M2R3",
        "streetName": "WINDY OAKS",
        "streetDirectionId": null,
        "streetTypeId": "DR",
        "placeName": "BURLINGTON",
        "streetNameDisplayText": "WINDY OAKS DR, BURLINGTON"
      }
    ]
  },
  {
    "postal": "L7M5N2",
    "result": []
  },
  {
    "postal": "L7M4Y7",
    "result": [
      {
        "electoralDistricts": [
          {
            "election": null,
            "id": 75,
            "name": "Oakville North—Burlington"
          }
        ],
        "pollDivisionIds": [
          10140413
        ],
        "postalCode": "L7M4Y7",
        "streetName": "MILLCROFT PARK",
        "streetDirectionId": null,
        "streetTypeId": "DR",
        "placeName": "BURLINGTON",
        "streetNameDisplayText": "MILLCROFT PARK DR, BURLINGTON"
      },
      {
        "electoralDistricts": [
          {
            "election": null,
            "id": 75,
            "name": "Oakville North—Burlington"
          }
        ],
        "pollDivisionIds": [
          10140413
        ],
        "postalCode": "L7M4Y7",
        "streetName": "SARAZEN",
        "streetDirectionId": null,
        "streetTypeId": "DR",
        "placeName": "BURLINGTON",
        "streetNameDisplayText": "SARAZEN DR, BURLINGTON"
      }
    ]
  },
  {
    "postal": "L7M7M0",
    "result": []
  },
  {
    "postal": "L7M8P3",
    "result": []
  },
  {
    "postal": "L7M3N3",
    "result": [
      {
        "electoralDistricts": [
          {
            "election": null,
            "id": 75,
            "name": "Oakville North—Burlington"
          }
        ],
        "pollDivisionIds": [
          10140424
        ],
        "postalCode": "L7M3N3",
        "streetName": "TANIA",
        "streetDirectionId": null,
        "streetTypeId": "CRES",
        "placeName": "BURLINGTON",
        "streetNameDisplayText": "TANIA CRES, BURLINGTON"
      }
    ]
  },
  {
    "postal": "L7M7S3",
    "result": []
  },
  {
    "postal": "L7M3V9",
    "result": [
      {
        "electoralDistricts": [
          {
            "election": null,
            "id": 75,
            "name": "Oakville North—Burlington"
          }
        ],
        "pollDivisionIds": [
          10140421
        ],
        "postalCode": "L7M3V9",
        "streetName": "MILLCROFT PARK",
        "streetDirectionId": null,
        "streetTypeId": "DR",
        "placeName": "BURLINGTON",
        "streetNameDisplayText": "MILLCROFT PARK DR, BURLINGTON"
      },
      {
        "electoralDistricts": [
          {
            "election": null,
            "id": 75,
            "name": "Oakville North—Burlington"
          }
        ],
        "pollDivisionIds": [
          10140421
        ],
        "postalCode": "L7M3V9",
        "streetName": "WATERBRIDGE",
        "streetDirectionId": null,
        "streetTypeId": "DR",
        "placeName": "BURLINGTON",
        "streetNameDisplayText": "WATERBRIDGE DR, BURLINGTON"
      }
    ]
  },
  {
    "postal": "L7M9N7",
    "result": []
  },
  {
    "postal": "L7M0G4",
    "result": [
      {
        "electoralDistricts": [
          {
            "election": null,
            "id": 75,
            "name": "Oakville North—Burlington"
          }
        ],
        "pollDivisionIds": [
          10140416
        ],
        "postalCode": "L7M0G4",
        "streetName": "GUIRE",
        "streetDirectionId": null,
        "streetTypeId": "COMMON",
        "placeName": "BURLINGTON",
        "streetNameDisplayText": "GUIRE COMMON, BURLINGTON"
      },
      {
        "electoralDistricts": [
          {
            "election": null,
            "id": 75,
            "name": "Oakville North—Burlington"
          }
        ],
        "pollDivisionIds": [
          10140416
        ],
        "postalCode": "L7M0G4",
        "streetName": "JUDSON",
        "streetDirectionId": null,
        "streetTypeId": "COMMON",
        "placeName": "BURLINGTON",
        "streetNameDisplayText": "JUDSON COMMON, BURLINGTON"
      }
    ]
  },
  {
    "postal": "L7M2E2",
    "result": []
  },
  {
    "postal": "L7M7W8",
    "result": []
  },
  {
    "postal": "L7M7M5",
    "result": []
  },
  {
    "postal": "L7M5W8",
    "result": []
  },
  {
    "postal": "L7M5E5",
    "result": []
  },
  {
    "postal": "L7M1P9",
    "result": [
      {
        "electoralDistricts": [
          {
            "election": null,
            "id": 15,
            "name": "Burlington"
          }
        ],
        "pollDivisionIds": [
          10137335
        ],
        "postalCode": "L7M1P9",
        "streetName": "BLAIR",
        "streetDirectionId": null,
        "streetTypeId": "RD",
        "placeName": "BURLINGTON",
        "streetNameDisplayText": "BLAIR RD, BURLINGTON"
      }
    ]
  },
  {
    "postal": "L7M8V8",
    "result": []
  },
  {
    "postal": "L7M9G8",
    "result": []
  },
  {
    "postal": "L7M8H9",
    "result": []
  },
  {
    "postal": "L7M1Z1",
    "result": [
      {
        "electoralDistricts": [
          {
            "election": null,
            "id": 15,
            "name": "Burlington"
          }
        ],
        "pollDivisionIds": [
          10137335
        ],
        "postalCode": "L7M1Z1",
        "streetName": "BRISTOL",
        "streetDirectionId": null,
        "streetTypeId": "DR",
        "placeName": "BURLINGTON",
        "streetNameDisplayText": "BRISTOL DR, BURLINGTON"
      }
    ]
  },
  {
    "postal": "L7M8M3",
    "result": []
  },
  {
    "postal": "L7M5H6",
    "result": []
  },
  {
    "postal": "L7M7W7",
    "result": []
  },
  {
    "postal": "L7M4L0",
    "result": []
  },
  {
    "postal": "L7M2N1",
    "result": [
      {
        "electoralDistricts": [
          {
            "election": null,
            "id": 75,
            "name": "Oakville North—Burlington"
          }
        ],
        "pollDivisionIds": [
          10140424
        ],
        "postalCode": "L7M2N1",
        "streetName": "APPOLLO",
        "streetDirectionId": null,
        "streetTypeId": "RD",
        "placeName": "BURLINGTON",
        "streetNameDisplayText": "APPOLLO RD, BURLINGTON"
      },
      {
        "electoralDistricts": [
          {
            "election": null,
            "id": 75,
            "name": "Oakville North—Burlington"
          }
        ],
        "pollDivisionIds": [
          10140424
        ],
        "postalCode": "L7M2N1",
        "streetName": "WENTWORTH",
        "streetDirectionId": null,
        "streetTypeId": "ST",
        "placeName": "BURLINGTON",
        "streetNameDisplayText": "WENTWORTH ST, BURLINGTON"
      }
    ]
  },
  {
    "postal": "L7M2H4",
    "result": []
  },
  {
    "postal": "L7M5C8",
    "result": []
  },
  {
    "postal": "L7M8B0",
    "result": []
  },
  {
    "postal": "L7M1T4",
    "result": [
      {
        "electoralDistricts": [
          {
            "election": null,
            "id": 15,
            "name": "Burlington"
          }
        ],
        "pollDivisionIds": [
          10137335
        ],
        "postalCode": "L7M1T4",
        "streetName": "LANDMARK",
        "streetDirectionId": null,
        "streetTypeId": "RD",
        "placeName": "BURLINGTON",
        "streetNameDisplayText": "LANDMARK RD, BURLINGTON"
      }
    ]
  },
  {
    "postal": "L7M7N7",
    "result": []
  },
  {
    "postal": "L7M4L3",
    "result": [
      {
        "electoralDistricts": [
          {
            "election": null,
            "id": 75,
            "name": "Oakville North—Burlington"
          }
        ],
        "pollDivisionIds": [
          10140419
        ],
        "postalCode": "L7M4L3",
        "streetName": "FOXWOOD",
        "streetDirectionId": null,
        "streetTypeId": "DR",
        "placeName": "BURLINGTON",
        "streetNameDisplayText": "FOXWOOD DR, BURLINGTON"
      }
    ]
  },
  {
    "postal": "L7M2N2",
    "result": [
      {
        "electoralDistricts": [
          {
            "election": null,
            "id": 75,
            "name": "Oakville North—Burlington"
          }
        ],
        "pollDivisionIds": [
          10140424
        ],
        "postalCode": "L7M2N2",
        "streetName": "WENTWORTH",
        "streetDirectionId": null,
        "streetTypeId": "ST",
        "placeName": "BURLINGTON",
        "streetNameDisplayText": "WENTWORTH ST, BURLINGTON"
      }
    ]
  },
  {
    "postal": "L7M4N8",
    "result": [
      {
        "electoralDistricts": [
          {
            "election": null,
            "id": 75,
            "name": "Oakville North—Burlington"
          }
        ],
        "pollDivisionIds": [
          10140419
        ],
        "postalCode": "L7M4N8",
        "streetName": "WALKER'S",
        "streetDirectionId": null,
        "streetTypeId": "LINE",
        "placeName": "BURLINGTON",
        "streetNameDisplayText": "WALKER'S LINE, BURLINGTON"
      }
    ]
  },
  {
    "postal": "L7M3M5",
    "result": [
      {
        "electoralDistricts": [
          {
            "election": null,
            "id": 75,
            "name": "Oakville North—Burlington"
          }
        ],
        "pollDivisionIds": [
          10140424
        ],
        "postalCode": "L7M3M5",
        "streetName": "PINEMEADOW",
        "streetDirectionId": null,
        "streetTypeId": "DR",
        "placeName": "BURLINGTON",
        "streetNameDisplayText": "PINEMEADOW DR, BURLINGTON"
      }
    ]
  },
  {
    "postal": "L7M6H7",
    "result": []
  },
  {
    "postal": "L7M8Y8",
    "result": []
  },
  {
    "postal": "L7M5R9",
    "result": []
  },
  {
    "postal": "L7M8G3",
    "result": []
  },
  {
    "postal": "L7M4N7",
    "result": [
      {
        "electoralDistricts": [
          {
            "election": null,
            "id": 75,
            "name": "Oakville North—Burlington"
          }
        ],
        "pollDivisionIds": [
          10140419
        ],
        "postalCode": "L7M4N7",
        "streetName": "WALKER'S",
        "streetDirectionId": null,
        "streetTypeId": "LINE",
        "placeName": "BURLINGTON",
        "streetNameDisplayText": "WALKER'S LINE, BURLINGTON"
      }
    ]
  },
  {
    "postal": "L7M0B9",
    "result": [
      {
        "electoralDistricts": [
          {
            "election": null,
            "id": 75,
            "name": "Oakville North—Burlington"
          }
        ],
        "pollDivisionIds": [
          10140416
        ],
        "postalCode": "L7M0B9",
        "streetName": "MUNSON",
        "streetDirectionId": null,
        "streetTypeId": "CRES",
        "placeName": "BURLINGTON",
        "streetNameDisplayText": "MUNSON CRES, BURLINGTON"
      },
      {
        "electoralDistricts": [
          {
            "election": null,
            "id": 75,
            "name": "Oakville North—Burlington"
          }
        ],
        "pollDivisionIds": [
          10140416
        ],
        "postalCode": "L7M0B9",
        "streetName": "WALKER'S",
        "streetDirectionId": null,
        "streetTypeId": "LINE",
        "placeName": "BURLINGTON",
        "streetNameDisplayText": "WALKER'S LINE, BURLINGTON"
      }
    ]
  },
  {
    "postal": "L7M9K7",
    "result": []
  },
  {
    "postal": "L7M9K9",
    "result": []
  },
  {
    "postal": "L7M3Z2",
    "result": [
      {
        "electoralDistricts": [
          {
            "election": null,
            "id": 75,
            "name": "Oakville North—Burlington"
          }
        ],
        "pollDivisionIds": [
          10140421
        ],
        "postalCode": "L7M3Z2",
        "streetName": "COUNTRY CLUB",
        "streetDirectionId": null,
        "streetTypeId": "DR",
        "placeName": "BURLINGTON",
        "streetNameDisplayText": "COUNTRY CLUB DR, BURLINGTON"
      },
      {
        "electoralDistricts": [
          {
            "election": null,
            "id": 75,
            "name": "Oakville North—Burlington"
          }
        ],
        "pollDivisionIds": [
          10140421
        ],
        "postalCode": "L7M3Z2",
        "streetName": "MCKERLIE",
        "streetDirectionId": null,
        "streetTypeId": "CRES",
        "placeName": "BURLINGTON",
        "streetNameDisplayText": "MCKERLIE CRES, BURLINGTON"
      },
      {
        "electoralDistricts": [
          {
            "election": null,
            "id": 75,
            "name": "Oakville North—Burlington"
          }
        ],
        "pollDivisionIds": [
          10140421
        ],
        "postalCode": "L7M3Z2",
        "streetName": "SIMCOE",
        "streetDirectionId": null,
        "streetTypeId": "DR",
        "placeName": "BURLINGTON",
        "streetNameDisplayText": "SIMCOE DR, BURLINGTON"
      },
      {
        "electoralDistricts": [
          {
            "election": null,
            "id": 75,
            "name": "Oakville North—Burlington"
          }
        ],
        "pollDivisionIds": [
          10140421
        ],
        "postalCode": "L7M3Z2",
        "streetName": "SUSAN",
        "streetDirectionId": null,
        "streetTypeId": "CRT",
        "placeName": "BURLINGTON",
        "streetNameDisplayText": "SUSAN CRT, BURLINGTON"
      }
    ]
  },
  {
    "postal": "L7M6W7",
    "result": []
  },
  {
    "postal": "L7M0P1",
    "result": [
      {
        "electoralDistricts": [
          {
            "election": null,
            "id": 59,
            "name": "Milton"
          }
        ],
        "pollDivisionIds": [
          10126398
        ],
        "postalCode": "L7M0P1",
        "streetName": "BELL SCHOOL",
        "streetDirectionId": null,
        "streetTypeId": "LINE",
        "placeName": "BURLINGTON",
        "streetNameDisplayText": "BELL SCHOOL LINE, BURLINGTON"
      }
    ]
  },
  {
    "postal": "L7M3A0",
    "result": []
  },
  {
    "postal": "L7M8L9",
    "result": []
  },
  {
    "postal": "L7M6X0",
    "result": []
  },
  {
    "postal": "L7M3E9",
    "result": [
      {
        "electoralDistricts": [
          {
            "election": null,
            "id": 15,
            "name": "Burlington"
          }
        ],
        "pollDivisionIds": [
          10137335
        ],
        "postalCode": "L7M3E9",
        "streetName": "RILEY",
        "streetDirectionId": null,
        "streetTypeId": "AVE",
        "placeName": "BURLINGTON",
        "streetNameDisplayText": "RILEY AVE, BURLINGTON"
      }
    ]
  },
  {
    "postal": "L7M0S5",
    "result": [
      {
        "electoralDistricts": [
          {
            "election": null,
            "id": 59,
            "name": "Milton"
          }
        ],
        "pollDivisionIds": [
          10126398
        ],
        "postalCode": "L7M0S5",
        "streetName": "4",
        "streetDirectionId": null,
        "streetTypeId": "SIDERD",
        "placeName": "BURLINGTON",
        "streetNameDisplayText": "4 SIDERD, BURLINGTON"
      }
    ]
  },
  {
    "postal": "L7M1A2",
    "result": [
      {
        "electoralDistricts": [
          {
            "election": null,
            "id": 75,
            "name": "Oakville North—Burlington"
          }
        ],
        "pollDivisionIds": [
          10140420
        ],
        "postalCode": "L7M1A2",
        "streetName": "GOODYEAR",
        "streetDirectionId": null,
        "streetTypeId": "RD",
        "placeName": "BURLINGTON",
        "streetNameDisplayText": "GOODYEAR RD, BURLINGTON"
      },
      {
        "electoralDistricts": [
          {
            "election": null,
            "id": 75,
            "name": "Oakville North—Burlington"
          }
        ],
        "pollDivisionIds": [
          10140420
        ],
        "postalCode": "L7M1A2",
        "streetName": "LULA",
        "streetDirectionId": null,
        "streetTypeId": "RD",
        "placeName": "BURLINGTON",
        "streetNameDisplayText": "LULA RD, BURLINGTON"
      },
      {
        "electoralDistricts": [
          {
            "election": null,
            "id": 75,
            "name": "Oakville North—Burlington"
          }
        ],
        "pollDivisionIds": [
          10140420
        ],
        "postalCode": "L7M1A2",
        "streetName": "TUFGAR",
        "streetDirectionId": null,
        "streetTypeId": "CRES",
        "placeName": "BURLINGTON",
        "streetNameDisplayText": "TUFGAR CRES, BURLINGTON"
      }
    ]
  },
  {
    "postal": "L7M5V8",
    "result": []
  },
  {
    "postal": "L7M8C5",
    "result": []
  },
  {
    "postal": "L7M6N0",
    "result": []
  },
  {
    "postal": "L7M9E6",
    "result": []
  },
  {
    "postal": "L7M5J7",
    "result": []
  },
  {
    "postal": "L7M2R2",
    "result": [
      {
        "electoralDistricts": [
          {
            "election": null,
            "id": 75,
            "name": "Oakville North—Burlington"
          }
        ],
        "pollDivisionIds": [
          10140423
        ],
        "postalCode": "L7M2R2",
        "streetName": "DEER RUN",
        "streetDirectionId": null,
        "streetTypeId": "AVE",
        "placeName": "BURLINGTON",
        "streetNameDisplayText": "DEER RUN AVE, BURLINGTON"
      },
      {
        "electoralDistricts": [
          {
            "election": null,
            "id": 75,
            "name": "Oakville North—Burlington"
          }
        ],
        "pollDivisionIds": [
          10140423
        ],
        "postalCode": "L7M2R2",
        "streetName": "WHISPERING PINE",
        "streetDirectionId": null,
        "streetTypeId": "RD",
        "placeName": "BURLINGTON",
        "streetNameDisplayText": "WHISPERING PINE RD, BURLINGTON"
      }
    ]
  },
  {
    "postal": "L7M0P5",
    "result": [
      {
        "electoralDistricts": [
          {
            "election": null,
            "id": 59,
            "name": "Milton"
          }
        ],
        "pollDivisionIds": [
          10126398
        ],
        "postalCode": "L7M0P5",
        "streetName": "APPLEBY",
        "streetDirectionId": null,
        "streetTypeId": "LINE",
        "placeName": "BURLINGTON",
        "streetNameDisplayText": "APPLEBY LINE, BURLINGTON"
      }
    ]
  },
  {
    "postal": "L7M5A7",
    "result": [
      {
        "electoralDistricts": [
          {
            "election": null,
            "id": 75,
            "name": "Oakville North—Burlington"
          }
        ],
        "pollDivisionIds": [
          10140422
        ],
        "postalCode": "L7M5A7",
        "streetName": "KILMER",
        "streetDirectionId": null,
        "streetTypeId": "AVE",
        "placeName": "BURLINGTON",
        "streetNameDisplayText": "KILMER AVE, BURLINGTON"
      },
      {
        "electoralDistricts": [
          {
            "election": null,
            "id": 75,
            "name": "Oakville North—Burlington"
          }
        ],
        "pollDivisionIds": [
          10140422
        ],
        "postalCode": "L7M5A7",
        "streetName": "KILMER",
        "streetDirectionId": null,
        "streetTypeId": "DR",
        "placeName": "BURLINGTON",
        "streetNameDisplayText": "KILMER DR, BURLINGTON"
      }
    ]
  },
  {
    "postal": "L7M1G1",
    "result": [
      {
        "electoralDistricts": [
          {
            "election": null,
            "id": 15,
            "name": "Burlington"
          }
        ],
        "pollDivisionIds": [
          10137336
        ],
        "postalCode": "L7M1G1",
        "streetName": "TERRAVIEW",
        "streetDirectionId": null,
        "streetTypeId": "CRT",
        "placeName": "BURLINGTON",
        "streetNameDisplayText": "TERRAVIEW CRT, BURLINGTON"
      }
    ]
  },
  {
    "postal": "L7M9R6",
    "result": []
  },
  {
    "postal": "L7M4Z9",
    "result": [
      {
        "electoralDistricts": [
          {
            "election": null,
            "id": 75,
            "name": "Oakville North—Burlington"
          }
        ],
        "pollDivisionIds": [
          10140423
        ],
        "postalCode": "L7M4Z9",
        "streetName": "WALKER'S",
        "streetDirectionId": null,
        "streetTypeId": "LINE",
        "placeName": "BURLINGTON",
        "streetNameDisplayText": "WALKER'S LINE, BURLINGTON"
      }
    ]
  },
  {
    "postal": "L7M1V5",
    "result": [
      {
        "electoralDistricts": [
          {
            "election": null,
            "id": 15,
            "name": "Burlington"
          }
        ],
        "pollDivisionIds": [
          10137335
        ],
        "postalCode": "L7M1V5",
        "streetName": "VANCOUVER",
        "streetDirectionId": null,
        "streetTypeId": "CRES",
        "placeName": "BURLINGTON",
        "streetNameDisplayText": "VANCOUVER CRES, BURLINGTON"
      }
    ]
  },
  {
    "postal": "L7M9Y5",
    "result": []
  },
  {
    "postal": "L7M1P2",
    "result": [
      {
        "electoralDistricts": [
          {
            "election": null,
            "id": 15,
            "name": "Burlington"
          }
        ],
        "pollDivisionIds": [
          10137335
        ],
        "postalCode": "L7M1P2",
        "streetName": "NEWLANDS",
        "streetDirectionId": null,
        "streetTypeId": "CRES",
        "placeName": "BURLINGTON",
        "streetNameDisplayText": "NEWLANDS CRES, BURLINGTON"
      }
    ]
  },
  {
    "postal": "L7M5X0",
    "result": []
  },
  {
    "postal": "L7M7B8",
    "result": []
  },
  {
    "postal": "L7M0C6",
    "result": [
      {
        "electoralDistricts": [
          {
            "election": null,
            "id": 75,
            "name": "Oakville North—Burlington"
          }
        ],
        "pollDivisionIds": [
          10140416
        ],
        "postalCode": "L7M0C6",
        "streetName": "BUNKERHILL",
        "streetDirectionId": null,
        "streetTypeId": "PL",
        "placeName": "BURLINGTON",
        "streetNameDisplayText": "BUNKERHILL PL, BURLINGTON"
      },
      {
        "electoralDistricts": [
          {
            "election": null,
            "id": 75,
            "name": "Oakville North—Burlington"
          }
        ],
        "pollDivisionIds": [
          10140416
        ],
        "postalCode": "L7M0C6",
        "streetName": "NIXON",
        "streetDirectionId": null,
        "streetTypeId": "GATE",
        "placeName": "BURLINGTON",
        "streetNameDisplayText": "NIXON GATE, BURLINGTON"
      },
      {
        "electoralDistricts": [
          {
            "election": null,
            "id": 75,
            "name": "Oakville North—Burlington"
          }
        ],
        "pollDivisionIds": [
          10140416
        ],
        "postalCode": "L7M0C6",
        "streetName": "STEEPLECHASE",
        "streetDirectionId": null,
        "streetTypeId": "DR",
        "placeName": "BURLINGTON",
        "streetNameDisplayText": "STEEPLECHASE DR, BURLINGTON"
      }
    ]
  },
  {
    "postal": "L7M6G1",
    "result": []
  },
  {
    "postal": "L7M3K3",
    "result": [
      {
        "electoralDistricts": [
          {
            "election": null,
            "id": 75,
            "name": "Oakville North—Burlington"
          }
        ],
        "pollDivisionIds": [
          10140424
        ],
        "postalCode": "L7M3K3",
        "streetName": "EDENWOOD",
        "streetDirectionId": null,
        "streetTypeId": "CRES",
        "placeName": "BURLINGTON",
        "streetNameDisplayText": "EDENWOOD CRES, BURLINGTON"
      }
    ]
  },
  {
    "postal": "L7M9R0",
    "result": []
  },
  {
    "postal": "L7M4R8",
    "result": [
      {
        "electoralDistricts": [
          {
            "election": null,
            "id": 15,
            "name": "Burlington"
          }
        ],
        "pollDivisionIds": [
          10137335
        ],
        "postalCode": "L7M4R8",
        "streetName": "UPPER MIDDLE",
        "streetDirectionId": null,
        "streetTypeId": "RD",
        "placeName": "BURLINGTON",
        "streetNameDisplayText": "UPPER MIDDLE RD, BURLINGTON"
      }
    ]
  },
  {
    "postal": "L7M5P9",
    "result": []
  },
  {
    "postal": "L7M8N4",
    "result": []
  },
  {
    "postal": "L7M8H4",
    "result": []
  },
  {
    "postal": "L7M4V1",
    "result": [
      {
        "electoralDistricts": [
          {
            "election": null,
            "id": 75,
            "name": "Oakville North—Burlington"
          }
        ],
        "pollDivisionIds": [
          10140413
        ],
        "postalCode": "L7M4V1",
        "streetName": "NICKLAUS",
        "streetDirectionId": null,
        "streetTypeId": "CRT",
        "placeName": "BURLINGTON",
        "streetNameDisplayText": "NICKLAUS CRT, BURLINGTON"
      },
      {
        "electoralDistricts": [
          {
            "election": null,
            "id": 75,
            "name": "Oakville North—Burlington"
          }
        ],
        "pollDivisionIds": [
          10140413
        ],
        "postalCode": "L7M4V1",
        "streetName": "TAYWOOD",
        "streetDirectionId": null,
        "streetTypeId": "DR",
        "placeName": "BURLINGTON",
        "streetNameDisplayText": "TAYWOOD DR, BURLINGTON"
      }
    ]
  },
  {
    "postal": "L7M1K5",
    "result": [
      {
        "electoralDistricts": [
          {
            "election": null,
            "id": 15,
            "name": "Burlington"
          }
        ],
        "pollDivisionIds": [
          10137335
        ],
        "postalCode": "L7M1K5",
        "streetName": "PIONEER",
        "streetDirectionId": null,
        "streetTypeId": "RD",
        "placeName": "BURLINGTON",
        "streetNameDisplayText": "PIONEER RD, BURLINGTON"
      }
    ]
  },
  {
    "postal": "L7M1Z5",
    "result": [
      {
        "electoralDistricts": [
          {
            "election": null,
            "id": 15,
            "name": "Burlington"
          }
        ],
        "pollDivisionIds": [
          10137335
        ],
        "postalCode": "L7M1Z5",
        "streetName": "HANNIBAL",
        "streetDirectionId": null,
        "streetTypeId": "RD",
        "placeName": "BURLINGTON",
        "streetNameDisplayText": "HANNIBAL RD, BURLINGTON"
      }
    ]
  },
  {
    "postal": "L7M9L9",
    "result": []
  },
  {
    "postal": "L7M5L2",
    "result": []
  },
  {
    "postal": "L7M0M2",
    "result": [
      {
        "electoralDistricts": [
          {
            "election": null,
            "id": 75,
            "name": "Oakville North—Burlington"
          }
        ],
        "pollDivisionIds": [
          10140416
        ],
        "postalCode": "L7M0M2",
        "streetName": "ADOBE",
        "streetDirectionId": null,
        "streetTypeId": "GATE",
        "placeName": "BURLINGTON",
        "streetNameDisplayText": "ADOBE GATE, BURLINGTON"
      },
      {
        "electoralDistricts": [
          {
            "election": null,
            "id": 75,
            "name": "Oakville North—Burlington"
          }
        ],
        "pollDivisionIds": [
          10140416
        ],
        "postalCode": "L7M0M2",
        "streetName": "RYAN",
        "streetDirectionId": null,
        "streetTypeId": "LANE",
        "placeName": "BURLINGTON",
        "streetNameDisplayText": "RYAN LANE, BURLINGTON"
      },
      {
        "electoralDistricts": [
          {
            "election": null,
            "id": 75,
            "name": "Oakville North—Burlington"
          }
        ],
        "pollDivisionIds": [
          10140416
        ],
        "postalCode": "L7M0M2",
        "streetName": "VELEBIT PARK",
        "streetDirectionId": null,
        "streetTypeId": "BLVD",
        "placeName": "BURLINGTON",
        "streetNameDisplayText": "VELEBIT PARK BLVD, BURLINGTON"
      }
    ]
  },
  {
    "postal": "L7M1K8",
    "result": [
      {
        "electoralDistricts": [
          {
            "election": null,
            "id": 15,
            "name": "Burlington"
          }
        ],
        "pollDivisionIds": [
          10137336
        ],
        "postalCode": "L7M1K8",
        "streetName": "NORTHSIDE",
        "streetDirectionId": null,
        "streetTypeId": "RD",
        "placeName": "BURLINGTON",
        "streetNameDisplayText": "NORTHSIDE RD, BURLINGTON"
      }
    ]
  },
  {
    "postal": "L7M3M7",
    "result": [
      {
        "electoralDistricts": [
          {
            "election": null,
            "id": 75,
            "name": "Oakville North—Burlington"
          }
        ],
        "pollDivisionIds": [
          10140424
        ],
        "postalCode": "L7M3M7",
        "streetName": "TANIA",
        "streetDirectionId": null,
        "streetTypeId": "CRES",
        "placeName": "BURLINGTON",
        "streetNameDisplayText": "TANIA CRES, BURLINGTON"
      },
      {
        "electoralDistricts": [
          {
            "election": null,
            "id": 75,
            "name": "Oakville North—Burlington"
          }
        ],
        "pollDivisionIds": [
          10140424
        ],
        "postalCode": "L7M3M7",
        "streetName": "VISTA",
        "streetDirectionId": null,
        "streetTypeId": "DR",
        "placeName": "BURLINGTON",
        "streetNameDisplayText": "VISTA DR, BURLINGTON"
      }
    ]
  },
  {
    "postal": "L7M1B2",
    "result": [
      {
        "electoralDistricts": [
          {
            "election": null,
            "id": 15,
            "name": "Burlington"
          }
        ],
        "pollDivisionIds": [
          10137336
        ],
        "postalCode": "L7M1B2",
        "streetName": "NORTHVIEW",
        "streetDirectionId": null,
        "streetTypeId": "CRES",
        "placeName": "BURLINGTON",
        "streetNameDisplayText": "NORTHVIEW CRES, BURLINGTON"
      }
    ]
  },
  {
    "postal": "L7M0H9",
    "result": [
      {
        "electoralDistricts": [
          {
            "election": null,
            "id": 75,
            "name": "Oakville North—Burlington"
          }
        ],
        "pollDivisionIds": [
          10140413
        ],
        "postalCode": "L7M0H9",
        "streetName": "CAPRI",
        "streetDirectionId": null,
        "streetTypeId": "CRES",
        "placeName": "BURLINGTON",
        "streetNameDisplayText": "CAPRI CRES, BURLINGTON"
      },
      {
        "electoralDistricts": [
          {
            "election": null,
            "id": 75,
            "name": "Oakville North—Burlington"
          }
        ],
        "pollDivisionIds": [
          10140413
        ],
        "postalCode": "L7M0H9",
        "streetName": "VALERA",
        "streetDirectionId": null,
        "streetTypeId": "RD",
        "placeName": "BURLINGTON",
        "streetNameDisplayText": "VALERA RD, BURLINGTON"
      }
    ]
  },
  {
    "postal": "L7M8M4",
    "result": []
  },
  {
    "postal": "L7M2M5",
    "result": [
      {
        "electoralDistricts": [
          {
            "election": null,
            "id": 75,
            "name": "Oakville North—Burlington"
          }
        ],
        "pollDivisionIds": [
          10140424
        ],
        "postalCode": "L7M2M5",
        "streetName": "APPOLLO",
        "streetDirectionId": null,
        "streetTypeId": "RD",
        "placeName": "BURLINGTON",
        "streetNameDisplayText": "APPOLLO RD, BURLINGTON"
      }
    ]
  },
  {
    "postal": "L7M0T9",
    "result": [
      {
        "electoralDistricts": [
          {
            "election": null,
            "id": 59,
            "name": "Milton"
          }
        ],
        "pollDivisionIds": [
          10126398
        ],
        "postalCode": "L7M0T9",
        "streetName": "1",
        "streetDirectionId": null,
        "streetTypeId": "SIDERD",
        "placeName": "BURLINGTON",
        "streetNameDisplayText": "1 SIDERD, BURLINGTON"
      }
    ]
  },
  {
    "postal": "L7M3P1",
    "result": [
      {
        "electoralDistricts": [
          {
            "election": null,
            "id": 15,
            "name": "Burlington"
          }
        ],
        "pollDivisionIds": [
          10137341
        ],
        "postalCode": "L7M3P1",
        "streetName": "DRIFTWOOD",
        "streetDirectionId": null,
        "streetTypeId": "DR",
        "placeName": "BURLINGTON",
        "streetNameDisplayText": "DRIFTWOOD DR, BURLINGTON"
      }
    ]
  },
  {
    "postal": "L7M1R6",
    "result": [
      {
        "electoralDistricts": [
          {
            "election": null,
            "id": 15,
            "name": "Burlington"
          }
        ],
        "pollDivisionIds": [
          10137335
        ],
        "postalCode": "L7M1R6",
        "streetName": "HANNIBAL",
        "streetDirectionId": null,
        "streetTypeId": "RD",
        "placeName": "BURLINGTON",
        "streetNameDisplayText": "HANNIBAL RD, BURLINGTON"
      }
    ]
  },
  {
    "postal": "L7M9V5",
    "result": []
  },
  {
    "postal": "L7M9T0",
    "result": []
  },
  {
    "postal": "L7M0A9",
    "result": [
      {
        "electoralDistricts": [
          {
            "election": null,
            "id": 75,
            "name": "Oakville North—Burlington"
          }
        ],
        "pollDivisionIds": [
          10140416
        ],
        "postalCode": "L7M0A9",
        "streetName": "ROTARY",
        "streetDirectionId": null,
        "streetTypeId": "WAY",
        "placeName": "BURLINGTON",
        "streetNameDisplayText": "ROTARY WAY, BURLINGTON"
      },
      {
        "electoralDistricts": [
          {
            "election": null,
            "id": 75,
            "name": "Oakville North—Burlington"
          }
        ],
        "pollDivisionIds": [
          10140416
        ],
        "postalCode": "L7M0A9",
        "streetName": "SETTLEMENT",
        "streetDirectionId": null,
        "streetTypeId": "CRT",
        "placeName": "BURLINGTON",
        "streetNameDisplayText": "SETTLEMENT CRT, BURLINGTON"
      },
      {
        "electoralDistricts": [
          {
            "election": null,
            "id": 75,
            "name": "Oakville North—Burlington"
          }
        ],
        "pollDivisionIds": [
          10140416
        ],
        "postalCode": "L7M0A9",
        "streetName": "THOMAS ALTON",
        "streetDirectionId": null,
        "streetTypeId": "BLVD",
        "placeName": "BURLINGTON",
        "streetNameDisplayText": "THOMAS ALTON BLVD, BURLINGTON"
      }
    ]
  },
  {
    "postal": "L7M1M3",
    "result": [
      {
        "electoralDistricts": [
          {
            "election": null,
            "id": 15,
            "name": "Burlington"
          }
        ],
        "pollDivisionIds": [
          10137336
        ],
        "postalCode": "L7M1M3",
        "streetName": "BENTWORTH",
        "streetDirectionId": null,
        "streetTypeId": "DR",
        "placeName": "BURLINGTON",
        "streetNameDisplayText": "BENTWORTH DR, BURLINGTON"
      }
    ]
  },
  {
    "postal": "L7M1W8",
    "result": [
      {
        "electoralDistricts": [
          {
            "election": null,
            "id": 15,
            "name": "Burlington"
          }
        ],
        "pollDivisionIds": [
          10137336
        ],
        "postalCode": "L7M1W8",
        "streetName": "NORTHSIDE",
        "streetDirectionId": null,
        "streetTypeId": "RD",
        "placeName": "BURLINGTON",
        "streetNameDisplayText": "NORTHSIDE RD, BURLINGTON"
      }
    ]
  },
  {
    "postal": "L7M9J1",
    "result": []
  },
  {
    "postal": "L7M8N5",
    "result": []
  },
  {
    "postal": "L7M5X1",
    "result": []
  },
  {
    "postal": "L7M6S2",
    "result": []
  },
  {
    "postal": "L7M2A2",
    "result": [
      {
        "electoralDistricts": [
          {
            "election": null,
            "id": 15,
            "name": "Burlington"
          }
        ],
        "pollDivisionIds": [
          10137335
        ],
        "postalCode": "L7M2A2",
        "streetName": "PALMER",
        "streetDirectionId": null,
        "streetTypeId": "DR",
        "placeName": "BURLINGTON",
        "streetNameDisplayText": "PALMER DR, BURLINGTON"
      }
    ]
  },
  {
    "postal": "L7M6A6",
    "result": []
  },
  {
    "postal": "L7M0S3",
    "result": [
      {
        "electoralDistricts": [
          {
            "election": null,
            "id": 59,
            "name": "Milton"
          }
        ],
        "pollDivisionIds": [
          10126398
        ],
        "postalCode": "L7M0S3",
        "streetName": "BRITANNIA",
        "streetDirectionId": null,
        "streetTypeId": "RD",
        "placeName": "BURLINGTON",
        "streetNameDisplayText": "BRITANNIA RD, BURLINGTON"
      }
    ]
  },
  {
    "postal": "L7M3E7",
    "result": [
      {
        "electoralDistricts": [
          {
            "election": null,
            "id": 15,
            "name": "Burlington"
          }
        ],
        "pollDivisionIds": [
          10137335
        ],
        "postalCode": "L7M3E7",
        "streetName": "MARION",
        "streetDirectionId": null,
        "streetTypeId": "CRT",
        "placeName": "BURLINGTON",
        "streetNameDisplayText": "MARION CRT, BURLINGTON"
      }
    ]
  },
  {
    "postal": "L7M5R7",
    "result": []
  },
  {
    "postal": "L7M3R6",
    "result": [
      {
        "electoralDistricts": [
          {
            "election": null,
            "id": 75,
            "name": "Oakville North—Burlington"
          }
        ],
        "pollDivisionIds": [
          10140423
        ],
        "postalCode": "L7M3R6",
        "streetName": "DONALD",
        "streetDirectionId": null,
        "streetTypeId": "RD",
        "placeName": "BURLINGTON",
        "streetNameDisplayText": "DONALD RD, BURLINGTON"
      },
      {
        "electoralDistricts": [
          {
            "election": null,
            "id": 75,
            "name": "Oakville North—Burlington"
          }
        ],
        "pollDivisionIds": [
          10140423
        ],
        "postalCode": "L7M3R6",
        "streetName": "JUDY",
        "streetDirectionId": null,
        "streetTypeId": "CRT",
        "placeName": "BURLINGTON",
        "streetNameDisplayText": "JUDY CRT, BURLINGTON"
      }
    ]
  },
  {
    "postal": "L7M6K4",
    "result": []
  },
  {
    "postal": "L7M2W5",
    "result": [
      {
        "electoralDistricts": [
          {
            "election": null,
            "id": 75,
            "name": "Oakville North—Burlington"
          }
        ],
        "pollDivisionIds": [
          10140424
        ],
        "postalCode": "L7M2W5",
        "streetName": "DEER RUN",
        "streetDirectionId": null,
        "streetTypeId": "AVE",
        "placeName": "BURLINGTON",
        "streetNameDisplayText": "DEER RUN AVE, BURLINGTON"
      }
    ]
  },
  {
    "postal": "L7M8W4",
    "result": []
  },
  {
    "postal": "L7M9C2",
    "result": []
  },
  {
    "postal": "L7M2C0",
    "result": []
  },
  {
    "postal": "L7M0E1",
    "result": [
      {
        "electoralDistricts": [
          {
            "election": null,
            "id": 75,
            "name": "Oakville North—Burlington"
          }
        ],
        "pollDivisionIds": [
          10140416
        ],
        "postalCode": "L7M0E1",
        "streetName": "WALKER'S",
        "streetDirectionId": null,
        "streetTypeId": "LINE",
        "placeName": "BURLINGTON",
        "streetNameDisplayText": "WALKER'S LINE, BURLINGTON"
      }
    ]
  },
  {
    "postal": "L7M1K9",
    "result": [
      {
        "electoralDistricts": [
          {
            "election": null,
            "id": 15,
            "name": "Burlington"
          }
        ],
        "pollDivisionIds": [
          10137335
        ],
        "postalCode": "L7M1K9",
        "streetName": "BLAIR",
        "streetDirectionId": null,
        "streetTypeId": "RD",
        "placeName": "BURLINGTON",
        "streetNameDisplayText": "BLAIR RD, BURLINGTON"
      }
    ]
  },
  {
    "postal": "L7M1G7",
    "result": [
      {
        "electoralDistricts": [
          {
            "election": null,
            "id": 15,
            "name": "Burlington"
          }
        ],
        "pollDivisionIds": [
          10137336
        ],
        "postalCode": "L7M1G7",
        "streetName": "ADVANCE",
        "streetDirectionId": null,
        "streetTypeId": "RD",
        "placeName": "BURLINGTON",
        "streetNameDisplayText": "ADVANCE RD, BURLINGTON"
      }
    ]
  },
  {
    "postal": "L7M4E9",
    "result": [
      {
        "electoralDistricts": [
          {
            "election": null,
            "id": 75,
            "name": "Oakville North—Burlington"
          }
        ],
        "pollDivisionIds": [
          10140421
        ],
        "postalCode": "L7M4E9",
        "streetName": "SIMCOE",
        "streetDirectionId": null,
        "streetTypeId": "DR",
        "placeName": "BURLINGTON",
        "streetNameDisplayText": "SIMCOE DR, BURLINGTON"
      },
      {
        "electoralDistricts": [
          {
            "election": null,
            "id": 75,
            "name": "Oakville North—Burlington"
          }
        ],
        "pollDivisionIds": [
          10140421
        ],
        "postalCode": "L7M4E9",
        "streetName": "SUSAN",
        "streetDirectionId": null,
        "streetTypeId": "CRT",
        "placeName": "BURLINGTON",
        "streetNameDisplayText": "SUSAN CRT, BURLINGTON"
      }
    ]
  },
  {
    "postal": "L7M9P0",
    "result": []
  },
  {
    "postal": "L7M5H3",
    "result": []
  },
  {
    "postal": "L7M9X6",
    "result": []
  },
  {
    "postal": "L7M5N7",
    "result": []
  },
  {
    "postal": "L7M5A6",
    "result": [
      {
        "electoralDistricts": [
          {
            "election": null,
            "id": 75,
            "name": "Oakville North—Burlington"
          }
        ],
        "pollDivisionIds": [
          10140422
        ],
        "postalCode": "L7M5A6",
        "streetName": "KILMER",
        "streetDirectionId": null,
        "streetTypeId": "DR",
        "placeName": "BURLINGTON",
        "streetNameDisplayText": "KILMER DR, BURLINGTON"
      },
      {
        "electoralDistricts": [
          {
            "election": null,
            "id": 75,
            "name": "Oakville North—Burlington"
          }
        ],
        "pollDivisionIds": [
          10140422
        ],
        "postalCode": "L7M5A6",
        "streetName": "TOBYN",
        "streetDirectionId": null,
        "streetTypeId": "DR",
        "placeName": "BURLINGTON",
        "streetNameDisplayText": "TOBYN DR, BURLINGTON"
      }
    ]
  },
  {
    "postal": "L7M4M0",
    "result": []
  },
  {
    "postal": "L7M3V6",
    "result": [
      {
        "electoralDistricts": [
          {
            "election": null,
            "id": 75,
            "name": "Oakville North—Burlington"
          }
        ],
        "pollDivisionIds": [
          10140421
        ],
        "postalCode": "L7M3V6",
        "streetName": "PARKLANE",
        "streetDirectionId": null,
        "streetTypeId": "CRES",
        "placeName": "BURLINGTON",
        "streetNameDisplayText": "PARKLANE CRES, BURLINGTON"
      }
    ]
  },
  {
    "postal": "L7M1L7",
    "result": [
      {
        "electoralDistricts": [
          {
            "election": null,
            "id": 15,
            "name": "Burlington"
          }
        ],
        "pollDivisionIds": [
          10137336
        ],
        "postalCode": "L7M1L7",
        "streetName": "PALMER",
        "streetDirectionId": null,
        "streetTypeId": "DR",
        "placeName": "BURLINGTON",
        "streetNameDisplayText": "PALMER DR, BURLINGTON"
      }
    ]
  },
  {
    "postal": "L7M2P9",
    "result": [
      {
        "electoralDistricts": [
          {
            "election": null,
            "id": 75,
            "name": "Oakville North—Burlington"
          }
        ],
        "pollDivisionIds": [
          10140424
        ],
        "postalCode": "L7M2P9",
        "streetName": "HUNT",
        "streetDirectionId": null,
        "streetTypeId": "CRES",
        "placeName": "BURLINGTON",
        "streetNameDisplayText": "HUNT CRES, BURLINGTON"
      }
    ]
  },
  {
    "postal": "L7M5T4",
    "result": []
  },
  {
    "postal": "L7M5Z1",
    "result": []
  },
  {
    "postal": "L7M2X0",
    "result": []
  },
  {
    "postal": "L7M6Z2",
    "result": []
  },
  {
    "postal": "L7M0E0",
    "result": []
  },
  {
    "postal": "L7M3Z5",
    "result": [
      {
        "electoralDistricts": [
          {
            "election": null,
            "id": 15,
            "name": "Burlington"
          }
        ],
        "pollDivisionIds": [
          10137335
        ],
        "postalCode": "L7M3Z5",
        "streetName": "HEADON",
        "streetDirectionId": null,
        "streetTypeId": "RD",
        "placeName": "BURLINGTON",
        "streetNameDisplayText": "HEADON RD, BURLINGTON"
      }
    ]
  },
  {
    "postal": "L7M8H3",
    "result": []
  },
  {
    "postal": "L7M7S6",
    "result": []
  },
  {
    "postal": "L7M4C1",
    "result": [
      {
        "electoralDistricts": [
          {
            "election": null,
            "id": 75,
            "name": "Oakville North—Burlington"
          }
        ],
        "pollDivisionIds": [
          10140423
        ],
        "postalCode": "L7M4C1",
        "streetName": "CLEAVER",
        "streetDirectionId": null,
        "streetTypeId": "AVE",
        "placeName": "BURLINGTON",
        "streetNameDisplayText": "CLEAVER AVE, BURLINGTON"
      }
    ]
  },
  {
    "postal": "L7M3K2",
    "result": [
      {
        "electoralDistricts": [
          {
            "election": null,
            "id": 75,
            "name": "Oakville North—Burlington"
          }
        ],
        "pollDivisionIds": [
          10140424
        ],
        "postalCode": "L7M3K2",
        "streetName": "BERKSHIRE",
        "streetDirectionId": null,
        "streetTypeId": "LANE",
        "placeName": "BURLINGTON",
        "streetNameDisplayText": "BERKSHIRE LANE, BURLINGTON"
      },
      {
        "electoralDistricts": [
          {
            "election": null,
            "id": 75,
            "name": "Oakville North—Burlington"
          }
        ],
        "pollDivisionIds": [
          10140424
        ],
        "postalCode": "L7M3K2",
        "streetName": "FOLKWAY",
        "streetDirectionId": null,
        "streetTypeId": "DR",
        "placeName": "BURLINGTON",
        "streetNameDisplayText": "FOLKWAY DR, BURLINGTON"
      }
    ]
  },
  {
    "postal": "L7M1Y5",
    "result": [
      {
        "electoralDistricts": [
          {
            "election": null,
            "id": 15,
            "name": "Burlington"
          }
        ],
        "pollDivisionIds": [
          10137341
        ],
        "postalCode": "L7M1Y5",
        "streetName": "AUTUMN HILL",
        "streetDirectionId": null,
        "streetTypeId": "CRES",
        "placeName": "BURLINGTON",
        "streetNameDisplayText": "AUTUMN HILL CRES, BURLINGTON"
      }
    ]
  },
  {
    "postal": "L7M6P6",
    "result": []
  },
  {
    "postal": "L7M3N9",
    "result": [
      {
        "electoralDistricts": [
          {
            "election": null,
            "id": 15,
            "name": "Burlington"
          }
        ],
        "pollDivisionIds": [
          10137341
        ],
        "postalCode": "L7M3N9",
        "streetName": "DRIFTWOOD",
        "streetDirectionId": null,
        "streetTypeId": "DR",
        "placeName": "BURLINGTON",
        "streetNameDisplayText": "DRIFTWOOD DR, BURLINGTON"
      }
    ]
  },
  {
    "postal": "L7M3W2",
    "result": [
      {
        "electoralDistricts": [
          {
            "election": null,
            "id": 75,
            "name": "Oakville North—Burlington"
          }
        ],
        "pollDivisionIds": [
          10140421
        ],
        "postalCode": "L7M3W2",
        "streetName": "MCCLEARY",
        "streetDirectionId": null,
        "streetTypeId": "AVE",
        "placeName": "BURLINGTON",
        "streetNameDisplayText": "MCCLEARY AVE, BURLINGTON"
      },
      {
        "electoralDistricts": [
          {
            "election": null,
            "id": 75,
            "name": "Oakville North—Burlington"
          }
        ],
        "pollDivisionIds": [
          10140421
        ],
        "postalCode": "L7M3W2",
        "streetName": "WATERBRIDGE",
        "streetDirectionId": null,
        "streetTypeId": "DR",
        "placeName": "BURLINGTON",
        "streetNameDisplayText": "WATERBRIDGE DR, BURLINGTON"
      }
    ]
  },
  {
    "postal": "L7M6H8",
    "result": []
  },
  {
    "postal": "L7M9T3",
    "result": []
  },
  {
    "postal": "L7M5L9",
    "result": []
  },
  {
    "postal": "L7M7X7",
    "result": []
  },
  {
    "postal": "L7M3J5",
    "result": [
      {
        "electoralDistricts": [
          {
            "election": null,
            "id": 75,
            "name": "Oakville North—Burlington"
          }
        ],
        "pollDivisionIds": [
          10140424
        ],
        "postalCode": "L7M3J5",
        "streetName": "FOLKWAY",
        "streetDirectionId": null,
        "streetTypeId": "DR",
        "placeName": "BURLINGTON",
        "streetNameDisplayText": "FOLKWAY DR, BURLINGTON"
      }
    ]
  },
  {
    "postal": "L7M4J5",
    "result": [
      {
        "electoralDistricts": [
          {
            "election": null,
            "id": 75,
            "name": "Oakville North—Burlington"
          }
        ],
        "pollDivisionIds": [
          10140413
        ],
        "postalCode": "L7M4J5",
        "streetName": "MONTROSE",
        "streetDirectionId": null,
        "streetTypeId": "CRES",
        "placeName": "BURLINGTON",
        "streetNameDisplayText": "MONTROSE CRES, BURLINGTON"
      },
      {
        "electoralDistricts": [
          {
            "election": null,
            "id": 75,
            "name": "Oakville North—Burlington"
          }
        ],
        "pollDivisionIds": [
          10140413
        ],
        "postalCode": "L7M4J5",
        "streetName": "TURNBERRY",
        "streetDirectionId": null,
        "streetTypeId": "RD",
        "placeName": "BURLINGTON",
        "streetNameDisplayText": "TURNBERRY RD, BURLINGTON"
      }
    ]
  },
  {
    "postal": "L7M6J2",
    "result": []
  },
  {
    "postal": "L7M5V6",
    "result": []
  },
  {
    "postal": "L7M3N2",
    "result": [
      {
        "electoralDistricts": [
          {
            "election": null,
            "id": 75,
            "name": "Oakville North—Burlington"
          }
        ],
        "pollDivisionIds": [
          10140424
        ],
        "postalCode": "L7M3N2",
        "streetName": "FERENCICH",
        "streetDirectionId": null,
        "streetTypeId": "CRT",
        "placeName": "BURLINGTON",
        "streetNameDisplayText": "FERENCICH CRT, BURLINGTON"
      },
      {
        "electoralDistricts": [
          {
            "election": null,
            "id": 75,
            "name": "Oakville North—Burlington"
          }
        ],
        "pollDivisionIds": [
          10140424
        ],
        "postalCode": "L7M3N2",
        "streetName": "MEAD",
        "streetDirectionId": null,
        "streetTypeId": "CRES",
        "placeName": "BURLINGTON",
        "streetNameDisplayText": "MEAD CRES, BURLINGTON"
      },
      {
        "electoralDistricts": [
          {
            "election": null,
            "id": 75,
            "name": "Oakville North—Burlington"
          }
        ],
        "pollDivisionIds": [
          10140424
        ],
        "postalCode": "L7M3N2",
        "streetName": "MEADOW MARSH",
        "streetDirectionId": null,
        "streetTypeId": "CRES",
        "placeName": "BURLINGTON",
        "streetNameDisplayText": "MEADOW MARSH CRES, BURLINGTON"
      }
    ]
  },
  {
    "postal": "L7M3B1",
    "result": [
      {
        "electoralDistricts": [
          {
            "election": null,
            "id": 75,
            "name": "Oakville North—Burlington"
          }
        ],
        "pollDivisionIds": [
          10140424
        ],
        "postalCode": "L7M3B1",
        "streetName": "GREENBOUGH",
        "streetDirectionId": null,
        "streetTypeId": "CRES",
        "placeName": "BURLINGTON",
        "streetNameDisplayText": "GREENBOUGH CRES, BURLINGTON"
      }
    ]
  },
  {
    "postal": "L7M8B5",
    "result": []
  },
  {
    "postal": "L7M0K1",
    "result": [
      {
        "electoralDistricts": [
          {
            "election": null,
            "id": 75,
            "name": "Oakville North—Burlington"
          }
        ],
        "pollDivisionIds": [
          10140413
        ],
        "postalCode": "L7M0K1",
        "streetName": "CLINE",
        "streetDirectionId": null,
        "streetTypeId": "ST",
        "placeName": "BURLINGTON",
        "streetNameDisplayText": "CLINE ST, BURLINGTON"
      },
      {
        "electoralDistricts": [
          {
            "election": null,
            "id": 75,
            "name": "Oakville North—Burlington"
          }
        ],
        "pollDivisionIds": [
          10140413
        ],
        "postalCode": "L7M0K1",
        "streetName": "DEFOREST",
        "streetDirectionId": null,
        "streetTypeId": "CRES",
        "placeName": "BURLINGTON",
        "streetNameDisplayText": "DEFOREST CRES, BURLINGTON"
      }
    ]
  },
  {
    "postal": "L7M7M7",
    "result": []
  },
  {
    "postal": "L7M2M2",
    "result": [
      {
        "electoralDistricts": [
          {
            "election": null,
            "id": 75,
            "name": "Oakville North—Burlington"
          }
        ],
        "pollDivisionIds": [
          10140423
        ],
        "postalCode": "L7M2M2",
        "streetName": "HEADON FOREST",
        "streetDirectionId": null,
        "streetTypeId": "DR",
        "placeName": "BURLINGTON",
        "streetNameDisplayText": "HEADON FOREST DR, BURLINGTON"
      }
    ]
  },
  {
    "postal": "L7M9N3",
    "result": []
  },
  {
    "postal": "L7M4Y8",
    "result": [
      {
        "electoralDistricts": [
          {
            "election": null,
            "id": 75,
            "name": "Oakville North—Burlington"
          }
        ],
        "pollDivisionIds": [
          10140413
        ],
        "postalCode": "L7M4Y8",
        "streetName": "COUPLES",
        "streetDirectionId": null,
        "streetTypeId": "CRES",
        "placeName": "BURLINGTON",
        "streetNameDisplayText": "COUPLES CRES, BURLINGTON"
      }
    ]
  },
  {
    "postal": "L7M3V7",
    "result": [
      {
        "electoralDistricts": [
          {
            "election": null,
            "id": 75,
            "name": "Oakville North—Burlington"
          }
        ],
        "pollDivisionIds": [
          10140413
        ],
        "postalCode": "L7M3V7",
        "streetName": "MILLCROFT PARK",
        "streetDirectionId": null,
        "streetTypeId": "DR",
        "placeName": "BURLINGTON",
        "streetNameDisplayText": "MILLCROFT PARK DR, BURLINGTON"
      },
      {
        "electoralDistricts": [
          {
            "election": null,
            "id": 75,
            "name": "Oakville North—Burlington"
          }
        ],
        "pollDivisionIds": [
          10140421
        ],
        "postalCode": "L7M3V7",
        "streetName": "PARKLANE",
        "streetDirectionId": null,
        "streetTypeId": "CRES",
        "placeName": "BURLINGTON",
        "streetNameDisplayText": "PARKLANE CRES, BURLINGTON"
      }
    ]
  },
  {
    "postal": "L7M8Z1",
    "result": []
  },
  {
    "postal": "L7M7B3",
    "result": []
  },
  {
    "postal": "L7M3A8",
    "result": [
      {
        "electoralDistricts": [
          {
            "election": null,
            "id": 75,
            "name": "Oakville North—Burlington"
          }
        ],
        "pollDivisionIds": [
          10140424
        ],
        "postalCode": "L7M3A8",
        "streetName": "TWIN OAKS",
        "streetDirectionId": null,
        "streetTypeId": "CRES",
        "placeName": "BURLINGTON",
        "streetNameDisplayText": "TWIN OAKS CRES, BURLINGTON"
      }
    ]
  },
  {
    "postal": "L7M7V5",
    "result": []
  },
  {
    "postal": "L7M2T2",
    "result": [
      {
        "electoralDistricts": [
          {
            "election": null,
            "id": 75,
            "name": "Oakville North—Burlington"
          }
        ],
        "pollDivisionIds": [
          10140423
        ],
        "postalCode": "L7M2T2",
        "streetName": "HUNTERS WOOD",
        "streetDirectionId": null,
        "streetTypeId": "DR",
        "placeName": "BURLINGTON",
        "streetNameDisplayText": "HUNTERS WOOD DR, BURLINGTON"
      },
      {
        "electoralDistricts": [
          {
            "election": null,
            "id": 75,
            "name": "Oakville North—Burlington"
          }
        ],
        "pollDivisionIds": [
          10140423
        ],
        "postalCode": "L7M2T2",
        "streetName": "QUAIL VALLEY",
        "streetDirectionId": null,
        "streetTypeId": "DR",
        "placeName": "BURLINGTON",
        "streetNameDisplayText": "QUAIL VALLEY DR, BURLINGTON"
      }
    ]
  },
  {
    "postal": "L7M6L3",
    "result": []
  },
  {
    "postal": "L7M0L2",
    "result": [
      {
        "electoralDistricts": [
          {
            "election": null,
            "id": 75,
            "name": "Oakville North—Burlington"
          }
        ],
        "pollDivisionIds": [
          10140416
        ],
        "postalCode": "L7M0L2",
        "streetName": "DOUG WRIGHT",
        "streetDirectionId": null,
        "streetTypeId": "DR",
        "placeName": "BURLINGTON",
        "streetNameDisplayText": "DOUG WRIGHT DR, BURLINGTON"
      },
      {
        "electoralDistricts": [
          {
            "election": null,
            "id": 75,
            "name": "Oakville North—Burlington"
          }
        ],
        "pollDivisionIds": [
          10140416
        ],
        "postalCode": "L7M0L2",
        "streetName": "ERWIN",
        "streetDirectionId": null,
        "streetTypeId": "RD",
        "placeName": "BURLINGTON",
        "streetNameDisplayText": "ERWIN RD, BURLINGTON"
      },
      {
        "electoralDistricts": [
          {
            "election": null,
            "id": 75,
            "name": "Oakville North—Burlington"
          }
        ],
        "pollDivisionIds": [
          10140413,
          10140416
        ],
        "postalCode": "L7M0L2",
        "streetName": "HOPKINS",
        "streetDirectionId": null,
        "streetTypeId": "DR",
        "placeName": "BURLINGTON",
        "streetNameDisplayText": "HOPKINS DR, BURLINGTON"
      },
      {
        "electoralDistricts": [
          {
            "election": null,
            "id": 75,
            "name": "Oakville North—Burlington"
          }
        ],
        "pollDivisionIds": [
          10140416
        ],
        "postalCode": "L7M0L2",
        "streetName": "IRENA",
        "streetDirectionId": null,
        "streetTypeId": "AVE",
        "placeName": "BURLINGTON",
        "streetNameDisplayText": "IRENA AVE, BURLINGTON"
      }
    ]
  },
  {
    "postal": "L7M5Y8",
    "result": []
  },
  {
    "postal": "L7M0B8",
    "result": []
  },
  {
    "postal": "L7M6R5",
    "result": []
  },
  {
    "postal": "L7M8W6",
    "result": []
  },
  {
    "postal": "L7M8G6",
    "result": []
  },
  {
    "postal": "L7M6X3",
    "result": []
  },
  {
    "postal": "L7M7R7",
    "result": []
  },
  {
    "postal": "L7M4B6",
    "result": [
      {
        "electoralDistricts": [
          {
            "election": null,
            "id": 75,
            "name": "Oakville North—Burlington"
          }
        ],
        "pollDivisionIds": [
          10140423
        ],
        "postalCode": "L7M4B6",
        "streetName": "CLEAVER",
        "streetDirectionId": null,
        "streetTypeId": "AVE",
        "placeName": "BURLINGTON",
        "streetNameDisplayText": "CLEAVER AVE, BURLINGTON"
      }
    ]
  },
  {
    "postal": "L7M3P9",
    "result": [
      {
        "electoralDistricts": [
          {
            "election": null,
            "id": 75,
            "name": "Oakville North—Burlington"
          }
        ],
        "pollDivisionIds": [
          10140423
        ],
        "postalCode": "L7M3P9",
        "streetName": "CLEAVER",
        "streetDirectionId": null,
        "streetTypeId": "AVE",
        "placeName": "BURLINGTON",
        "streetNameDisplayText": "CLEAVER AVE, BURLINGTON"
      }
    ]
  },
  {
    "postal": "L7M2T3",
    "result": [
      {
        "electoralDistricts": [
          {
            "election": null,
            "id": 75,
            "name": "Oakville North—Burlington"
          }
        ],
        "pollDivisionIds": [
          10140423
        ],
        "postalCode": "L7M2T3",
        "streetName": "QUAIL VALLEY",
        "streetDirectionId": null,
        "streetTypeId": "DR",
        "placeName": "BURLINGTON",
        "streetNameDisplayText": "QUAIL VALLEY DR, BURLINGTON"
      }
    ]
  },
  {
    "postal": "L7M1M4",
    "result": [
      {
        "electoralDistricts": [
          {
            "election": null,
            "id": 15,
            "name": "Burlington"
          }
        ],
        "pollDivisionIds": [
          10137336
        ],
        "postalCode": "L7M1M4",
        "streetName": "RUSHOLME",
        "streetDirectionId": null,
        "streetTypeId": "CRES",
        "placeName": "BURLINGTON",
        "streetNameDisplayText": "RUSHOLME CRES, BURLINGTON"
      }
    ]
  },
  {
    "postal": "L7M0H1",
    "result": [
      {
        "electoralDistricts": [
          {
            "election": null,
            "id": 75,
            "name": "Oakville North—Burlington"
          }
        ],
        "pollDivisionIds": [
          10140416
        ],
        "postalCode": "L7M0H1",
        "streetName": "ROTARY",
        "streetDirectionId": null,
        "streetTypeId": "WAY",
        "placeName": "BURLINGTON",
        "streetNameDisplayText": "ROTARY WAY, BURLINGTON"
      }
    ]
  },
  {
    "postal": "L7M9W3",
    "result": []
  },
  {
    "postal": "L7M6P1",
    "result": []
  },
  {
    "postal": "L7M7G2",
    "result": []
  },
  {
    "postal": "L7M4J9",
    "result": [
      {
        "electoralDistricts": [
          {
            "election": null,
            "id": 75,
            "name": "Oakville North—Burlington"
          }
        ],
        "pollDivisionIds": [
          10140423
        ],
        "postalCode": "L7M4J9",
        "streetName": "HEADON",
        "streetDirectionId": null,
        "streetTypeId": "RD",
        "placeName": "BURLINGTON",
        "streetNameDisplayText": "HEADON RD, BURLINGTON"
      }
    ]
  },
  {
    "postal": "L7M9E4",
    "result": []
  },
  {
    "postal": "L7M8H0",
    "result": []
  },
  {
    "postal": "L7M4M7",
    "result": [
      {
        "electoralDistricts": [
          {
            "election": null,
            "id": 75,
            "name": "Oakville North—Burlington"
          }
        ],
        "pollDivisionIds": [
          10140423
        ],
        "postalCode": "L7M4M7",
        "streetName": "UPPER MIDDLE",
        "streetDirectionId": null,
        "streetTypeId": "RD",
        "placeName": "BURLINGTON",
        "streetNameDisplayText": "UPPER MIDDLE RD, BURLINGTON"
      }
    ]
  },
  {
    "postal": "L7M2G9",
    "result": []
  },
  {
    "postal": "L7M8T2",
    "result": []
  },
  {
    "postal": "L7M7G7",
    "result": []
  },
  {
    "postal": "L7M4Z3",
    "result": [
      {
        "electoralDistricts": [
          {
            "election": null,
            "id": 75,
            "name": "Oakville North—Burlington"
          }
        ],
        "pollDivisionIds": [
          10140419
        ],
        "postalCode": "L7M4Z3",
        "streetName": "INGLEHART",
        "streetDirectionId": null,
        "streetTypeId": "DR",
        "placeName": "BURLINGTON",
        "streetNameDisplayText": "INGLEHART DR, BURLINGTON"
      },
      {
        "electoralDistricts": [
          {
            "election": null,
            "id": 75,
            "name": "Oakville North—Burlington"
          }
        ],
        "pollDivisionIds": [
          10140419
        ],
        "postalCode": "L7M4Z3",
        "streetName": "RENFIELD",
        "streetDirectionId": null,
        "streetTypeId": "DR",
        "placeName": "BURLINGTON",
        "streetNameDisplayText": "RENFIELD DR, BURLINGTON"
      }
    ]
  },
  {
    "postal": "L7M5B3",
    "result": [
      {
        "electoralDistricts": [
          {
            "election": null,
            "id": 75,
            "name": "Oakville North—Burlington"
          }
        ],
        "pollDivisionIds": [
          10140421
        ],
        "postalCode": "L7M5B3",
        "streetName": "ITABASHI",
        "streetDirectionId": null,
        "streetTypeId": "WAY",
        "placeName": "BURLINGTON",
        "streetNameDisplayText": "ITABASHI WAY, BURLINGTON"
      }
    ]
  },
  {
    "postal": "L7M1S7",
    "result": [
      {
        "electoralDistricts": [
          {
            "election": null,
            "id": 15,
            "name": "Burlington"
          }
        ],
        "pollDivisionIds": [
          10137335
        ],
        "postalCode": "L7M1S7",
        "streetName": "QUEBEC",
        "streetDirectionId": null,
        "streetTypeId": "AVE",
        "placeName": "BURLINGTON",
        "streetNameDisplayText": "QUEBEC AVE, BURLINGTON"
      }
    ]
  },
  {
    "postal": "L7M2N7",
    "result": [
      {
        "electoralDistricts": [
          {
            "election": null,
            "id": 75,
            "name": "Oakville North—Burlington"
          }
        ],
        "pollDivisionIds": [
          10140424
        ],
        "postalCode": "L7M2N7",
        "streetName": "PINEMEADOW",
        "streetDirectionId": null,
        "streetTypeId": "DR",
        "placeName": "BURLINGTON",
        "streetNameDisplayText": "PINEMEADOW DR, BURLINGTON"
      }
    ]
  },
  {
    "postal": "L7M0H8",
    "result": [
      {
        "electoralDistricts": [
          {
            "election": null,
            "id": 75,
            "name": "Oakville North—Burlington"
          }
        ],
        "pollDivisionIds": [
          10140413
        ],
        "postalCode": "L7M0H8",
        "streetName": "CAPRI",
        "streetDirectionId": null,
        "streetTypeId": "CRES",
        "placeName": "BURLINGTON",
        "streetNameDisplayText": "CAPRI CRES, BURLINGTON"
      },
      {
        "electoralDistricts": [
          {
            "election": null,
            "id": 75,
            "name": "Oakville North—Burlington"
          }
        ],
        "pollDivisionIds": [
          10140413
        ],
        "postalCode": "L7M0H8",
        "streetName": "VALERA",
        "streetDirectionId": null,
        "streetTypeId": "RD",
        "placeName": "BURLINGTON",
        "streetNameDisplayText": "VALERA RD, BURLINGTON"
      }
    ]
  },
  {
    "postal": "L7M7Z4",
    "result": []
  },
  {
    "postal": "L7M7B1",
    "result": []
  },
  {
    "postal": "L7M7P8",
    "result": []
  },
  {
    "postal": "L7M7N0",
    "result": []
  },
  {
    "postal": "L7M3Y5",
    "result": [
      {
        "electoralDistricts": [
          {
            "election": null,
            "id": 75,
            "name": "Oakville North—Burlington"
          }
        ],
        "pollDivisionIds": [
          10140420
        ],
        "postalCode": "L7M3Y5",
        "streetName": "HEADON FOREST",
        "streetDirectionId": null,
        "streetTypeId": "DR",
        "placeName": "BURLINGTON",
        "streetNameDisplayText": "HEADON FOREST DR, BURLINGTON"
      },
      {
        "electoralDistricts": [
          {
            "election": null,
            "id": 75,
            "name": "Oakville North—Burlington"
          }
        ],
        "pollDivisionIds": [
          10140420
        ],
        "postalCode": "L7M3Y5",
        "streetName": "KATHLEEN",
        "streetDirectionId": null,
        "streetTypeId": "DR",
        "placeName": "BURLINGTON",
        "streetNameDisplayText": "KATHLEEN DR, BURLINGTON"
      }
    ]
  },
  {
    "postal": "L7M6K1",
    "result": []
  },
  {
    "postal": "L7M9X5",
    "result": []
  },
  {
    "postal": "L7M7S5",
    "result": []
  },
  {
    "postal": "L7M0A4",
    "result": [
      {
        "electoralDistricts": [
          {
            "election": null,
            "id": 75,
            "name": "Oakville North—Burlington"
          }
        ],
        "pollDivisionIds": [
          10140416
        ],
        "postalCode": "L7M0A4",
        "streetName": "COLE",
        "streetDirectionId": null,
        "streetTypeId": "CRES",
        "placeName": "BURLINGTON",
        "streetNameDisplayText": "COLE CRES, BURLINGTON"
      },
      {
        "electoralDistricts": [
          {
            "election": null,
            "id": 75,
            "name": "Oakville North—Burlington"
          }
        ],
        "pollDivisionIds": [
          10140416
        ],
        "postalCode": "L7M0A4",
        "streetName": "STEEPLECHASE",
        "streetDirectionId": null,
        "streetTypeId": "DR",
        "placeName": "BURLINGTON",
        "streetNameDisplayText": "STEEPLECHASE DR, BURLINGTON"
      },
      {
        "electoralDistricts": [
          {
            "election": null,
            "id": 75,
            "name": "Oakville North—Burlington"
          }
        ],
        "pollDivisionIds": [
          10140416
        ],
        "postalCode": "L7M0A4",
        "streetName": "THOMAS ALTON",
        "streetDirectionId": null,
        "streetTypeId": "BLVD",
        "placeName": "BURLINGTON",
        "streetNameDisplayText": "THOMAS ALTON BLVD, BURLINGTON"
      }
    ]
  },
  {
    "postal": "L7M4T5",
    "result": [
      {
        "electoralDistricts": [
          {
            "election": null,
            "id": 75,
            "name": "Oakville North—Burlington"
          }
        ],
        "pollDivisionIds": [
          10140413,
          10140414
        ],
        "postalCode": "L7M4T5",
        "streetName": "ARMOUR",
        "streetDirectionId": null,
        "streetTypeId": "CRES",
        "placeName": "BURLINGTON",
        "streetNameDisplayText": "ARMOUR CRES, BURLINGTON"
      },
      {
        "electoralDistricts": [
          {
            "election": null,
            "id": 75,
            "name": "Oakville North—Burlington"
          }
        ],
        "pollDivisionIds": [
          10140413
        ],
        "postalCode": "L7M4T5",
        "streetName": "HOGAN",
        "streetDirectionId": null,
        "streetTypeId": "CRES",
        "placeName": "BURLINGTON",
        "streetNameDisplayText": "HOGAN CRES, BURLINGTON"
      },
      {
        "electoralDistricts": [
          {
            "election": null,
            "id": 75,
            "name": "Oakville North—Burlington"
          }
        ],
        "pollDivisionIds": [
          10140413
        ],
        "postalCode": "L7M4T5",
        "streetName": "HOGAN",
        "streetDirectionId": null,
        "streetTypeId": "CRT",
        "placeName": "BURLINGTON",
        "streetNameDisplayText": "HOGAN CRT, BURLINGTON"
      }
    ]
  },
  {
    "postal": "L7M5K1",
    "result": []
  },
  {
    "postal": "L7M0Z9",
    "result": [
      {
        "electoralDistricts": [
          {
            "election": null,
            "id": 75,
            "name": "Oakville North—Burlington"
          }
        ],
        "pollDivisionIds": [
          10140420
        ],
        "postalCode": "L7M0Z9",
        "streetName": "GOODYEAR",
        "streetDirectionId": null,
        "streetTypeId": "RD",
        "placeName": "BURLINGTON",
        "streetNameDisplayText": "GOODYEAR RD, BURLINGTON"
      },
      {
        "electoralDistricts": [
          {
            "election": null,
            "id": 75,
            "name": "Oakville North—Burlington"
          }
        ],
        "pollDivisionIds": [
          10140420
        ],
        "postalCode": "L7M0Z9",
        "streetName": "LEONARDO",
        "streetDirectionId": null,
        "streetTypeId": "ST",
        "placeName": "BURLINGTON",
        "streetNameDisplayText": "LEONARDO ST, BURLINGTON"
      },
      {
        "electoralDistricts": [
          {
            "election": null,
            "id": 75,
            "name": "Oakville North—Burlington"
          }
        ],
        "pollDivisionIds": [
          10140420
        ],
        "postalCode": "L7M0Z9",
        "streetName": "LULA",
        "streetDirectionId": null,
        "streetTypeId": "RD",
        "placeName": "BURLINGTON",
        "streetNameDisplayText": "LULA RD, BURLINGTON"
      }
    ]
  },
  {
    "postal": "L7M7T2",
    "result": []
  },
  {
    "postal": "L7M1L5",
    "result": [
      {
        "electoralDistricts": [
          {
            "election": null,
            "id": 15,
            "name": "Burlington"
          }
        ],
        "pollDivisionIds": [
          10137336
        ],
        "postalCode": "L7M1L5",
        "streetName": "PALMER",
        "streetDirectionId": null,
        "streetTypeId": "DR",
        "placeName": "BURLINGTON",
        "streetNameDisplayText": "PALMER DR, BURLINGTON"
      }
    ]
  },
  {
    "postal": "L7M3N5",
    "result": [
      {
        "electoralDistricts": [
          {
            "election": null,
            "id": 75,
            "name": "Oakville North—Burlington"
          }
        ],
        "pollDivisionIds": [
          10140424
        ],
        "postalCode": "L7M3N5",
        "streetName": "VISTA",
        "streetDirectionId": null,
        "streetTypeId": "DR",
        "placeName": "BURLINGTON",
        "streetNameDisplayText": "VISTA DR, BURLINGTON"
      }
    ]
  },
  {
    "postal": "L7M6H4",
    "result": []
  },
  {
    "postal": "L7M5A5",
    "result": [
      {
        "electoralDistricts": [
          {
            "election": null,
            "id": 75,
            "name": "Oakville North—Burlington"
          }
        ],
        "pollDivisionIds": [
          10140421
        ],
        "postalCode": "L7M5A5",
        "streetName": "ITABASHI",
        "streetDirectionId": null,
        "streetTypeId": "WAY",
        "placeName": "BURLINGTON",
        "streetNameDisplayText": "ITABASHI WAY, BURLINGTON"
      }
    ]
  },
  {
    "postal": "L7M3R9",
    "result": [
      {
        "electoralDistricts": [
          {
            "election": null,
            "id": 75,
            "name": "Oakville North—Burlington"
          }
        ],
        "pollDivisionIds": [
          10140423
        ],
        "postalCode": "L7M3R9",
        "streetName": "DONALD",
        "streetDirectionId": null,
        "streetTypeId": "RD",
        "placeName": "BURLINGTON",
        "streetNameDisplayText": "DONALD RD, BURLINGTON"
      }
    ]
  },
  {
    "postal": "L7M7L8",
    "result": []
  },
  {
    "postal": "L7M6T6",
    "result": []
  },
  {
    "postal": "L7M7Y7",
    "result": []
  },
  {
    "postal": "L7M3M8",
    "result": [
      {
        "electoralDistricts": [
          {
            "election": null,
            "id": 75,
            "name": "Oakville North—Burlington"
          }
        ],
        "pollDivisionIds": [
          10140424
        ],
        "postalCode": "L7M3M8",
        "streetName": "VISTA",
        "streetDirectionId": null,
        "streetTypeId": "DR",
        "placeName": "BURLINGTON",
        "streetNameDisplayText": "VISTA DR, BURLINGTON"
      }
    ]
  },
  {
    "postal": "L7M2E0",
    "result": []
  },
  {
    "postal": "L7M4B5",
    "result": [
      {
        "electoralDistricts": [
          {
            "election": null,
            "id": 75,
            "name": "Oakville North—Burlington"
          }
        ],
        "pollDivisionIds": [
          10140423
        ],
        "postalCode": "L7M4B5",
        "streetName": "WALKER'S",
        "streetDirectionId": null,
        "streetTypeId": "LINE",
        "placeName": "BURLINGTON",
        "streetNameDisplayText": "WALKER'S LINE, BURLINGTON"
      }
    ]
  },
  {
    "postal": "L7M1J3",
    "result": [
      {
        "electoralDistricts": [
          {
            "election": null,
            "id": 15,
            "name": "Burlington"
          }
        ],
        "pollDivisionIds": [
          10137336
        ],
        "postalCode": "L7M1J3",
        "streetName": "REDWOOD",
        "streetDirectionId": null,
        "streetTypeId": "PL",
        "placeName": "BURLINGTON",
        "streetNameDisplayText": "REDWOOD PL, BURLINGTON"
      }
    ]
  },
  {
    "postal": "L7M5S6",
    "result": []
  },
  {
    "postal": "L7M8P7",
    "result": []
  },
  {
    "postal": "L7M7S7",
    "result": []
  },
  {
    "postal": "L7M4C2",
    "result": [
      {
        "electoralDistricts": [
          {
            "election": null,
            "id": 75,
            "name": "Oakville North—Burlington"
          }
        ],
        "pollDivisionIds": [
          10140424,
          10140423
        ],
        "postalCode": "L7M4C2",
        "streetName": "CLEAVER",
        "streetDirectionId": null,
        "streetTypeId": "AVE",
        "placeName": "BURLINGTON",
        "streetNameDisplayText": "CLEAVER AVE, BURLINGTON"
      }
    ]
  },
  {
    "postal": "L7M5Y0",
    "result": []
  },
  {
    "postal": "L7M2V7",
    "result": [
      {
        "electoralDistricts": [
          {
            "election": null,
            "id": 75,
            "name": "Oakville North—Burlington"
          }
        ],
        "pollDivisionIds": [
          10140424
        ],
        "postalCode": "L7M2V7",
        "streetName": "MADERNA",
        "streetDirectionId": null,
        "streetTypeId": "RD",
        "placeName": "BURLINGTON",
        "streetNameDisplayText": "MADERNA RD, BURLINGTON"
      },
      {
        "electoralDistricts": [
          {
            "election": null,
            "id": 75,
            "name": "Oakville North—Burlington"
          }
        ],
        "pollDivisionIds": [
          10140424
        ],
        "postalCode": "L7M2V7",
        "streetName": "SOVEREIGN",
        "streetDirectionId": null,
        "streetTypeId": "RD",
        "placeName": "BURLINGTON",
        "streetNameDisplayText": "SOVEREIGN RD, BURLINGTON"
      }
    ]
  },
  {
    "postal": "L7M8P5",
    "result": []
  },
  {
    "postal": "L7M5P5",
    "result": []
  },
  {
    "postal": "L7M5Z0",
    "result": []
  },
  {
    "postal": "L7M9B0",
    "result": []
  },
  {
    "postal": "L7M1L0",
    "result": []
  },
  {
    "postal": "L7M0B5",
    "result": [
      {
        "electoralDistricts": [
          {
            "election": null,
            "id": 75,
            "name": "Oakville North—Burlington"
          }
        ],
        "pollDivisionIds": [
          10140416
        ],
        "postalCode": "L7M0B5",
        "streetName": "PRENTICE",
        "streetDirectionId": null,
        "streetTypeId": "COMMON",
        "placeName": "BURLINGTON",
        "streetNameDisplayText": "PRENTICE COMMON, BURLINGTON"
      },
      {
        "electoralDistricts": [
          {
            "election": null,
            "id": 75,
            "name": "Oakville North—Burlington"
          }
        ],
        "pollDivisionIds": [
          10140416
        ],
        "postalCode": "L7M0B5",
        "streetName": "RAWLINS",
        "streetDirectionId": null,
        "streetTypeId": "COMMON",
        "placeName": "BURLINGTON",
        "streetNameDisplayText": "RAWLINS COMMON, BURLINGTON"
      }
    ]
  },
  {
    "postal": "L7M3L2",
    "result": [
      {
        "electoralDistricts": [
          {
            "election": null,
            "id": 75,
            "name": "Oakville North—Burlington"
          }
        ],
        "pollDivisionIds": [
          10140424
        ],
        "postalCode": "L7M3L2",
        "streetName": "BUTTERNUT",
        "streetDirectionId": null,
        "streetTypeId": "CRES",
        "placeName": "BURLINGTON",
        "streetNameDisplayText": "BUTTERNUT CRES, BURLINGTON"
      }
    ]
  },
  {
    "postal": "L7M3B7",
    "result": [
      {
        "electoralDistricts": [
          {
            "election": null,
            "id": 15,
            "name": "Burlington"
          }
        ],
        "pollDivisionIds": [
          10137335
        ],
        "postalCode": "L7M3B7",
        "streetName": "REYNOLDS",
        "streetDirectionId": null,
        "streetTypeId": "AVE",
        "placeName": "BURLINGTON",
        "streetNameDisplayText": "REYNOLDS AVE, BURLINGTON"
      }
    ]
  },
  {
    "postal": "L7M8L1",
    "result": []
  },
  {
    "postal": "L7M5M4",
    "result": []
  },
  {
    "postal": "L7M4G9",
    "result": [
      {
        "electoralDistricts": [
          {
            "election": null,
            "id": 75,
            "name": "Oakville North—Burlington"
          }
        ],
        "pollDivisionIds": [
          10140420
        ],
        "postalCode": "L7M4G9",
        "streetName": "HEADON FOREST",
        "streetDirectionId": null,
        "streetTypeId": "DR",
        "placeName": "BURLINGTON",
        "streetNameDisplayText": "HEADON FOREST DR, BURLINGTON"
      }
    ]
  },
  {
    "postal": "L7M0P0",
    "result": []
  },
  {
    "postal": "L7M8G2",
    "result": []
  },
  {
    "postal": "L7M1V9",
    "result": [
      {
        "electoralDistricts": [
          {
            "election": null,
            "id": 15,
            "name": "Burlington"
          }
        ],
        "pollDivisionIds": [
          10137336
        ],
        "postalCode": "L7M1V9",
        "streetName": "BENTWORTH",
        "streetDirectionId": null,
        "streetTypeId": "DR",
        "placeName": "BURLINGTON",
        "streetNameDisplayText": "BENTWORTH DR, BURLINGTON"
      }
    ]
  },
  {
    "postal": "L7M8N8",
    "result": []
  },
  {
    "postal": "L7M6S8",
    "result": []
  },
  {
    "postal": "L7M8H2",
    "result": []
  },
  {
    "postal": "L7M5R8",
    "result": []
  },
  {
    "postal": "L7M5L4",
    "result": []
  },
  {
    "postal": "L7M9E1",
    "result": []
  },
  {
    "postal": "L7M1C4",
    "result": [
      {
        "electoralDistricts": [
          {
            "election": null,
            "id": 15,
            "name": "Burlington"
          }
        ],
        "pollDivisionIds": [
          10137336
        ],
        "postalCode": "L7M1C4",
        "streetName": "CENTENNIAL",
        "streetDirectionId": null,
        "streetTypeId": "DR",
        "placeName": "BURLINGTON",
        "streetNameDisplayText": "CENTENNIAL DR, BURLINGTON"
      }
    ]
  },
  {
    "postal": "L7M8W5",
    "result": []
  },
  {
    "postal": "L7M1Y4",
    "result": [
      {
        "electoralDistricts": [
          {
            "election": null,
            "id": 15,
            "name": "Burlington"
          }
        ],
        "pollDivisionIds": [
          10137335
        ],
        "postalCode": "L7M1Y4",
        "streetName": "WILTSHIRE",
        "streetDirectionId": null,
        "streetTypeId": "AVE",
        "placeName": "BURLINGTON",
        "streetNameDisplayText": "WILTSHIRE AVE, BURLINGTON"
      }
    ]
  },
  {
    "postal": "L7M1C0",
    "result": []
  },
  {
    "postal": "L7M2J2",
    "result": []
  },
  {
    "postal": "L7M2J0",
    "result": []
  },
  {
    "postal": "L7M7A3",
    "result": []
  },
  {
    "postal": "L7M8M1",
    "result": []
  },
  {
    "postal": "L7M7T9",
    "result": []
  },
  {
    "postal": "L7M6C0",
    "result": []
  },
  {
    "postal": "L7M7X1",
    "result": []
  },
  {
    "postal": "L7M0G1",
    "result": [
      {
        "electoralDistricts": [
          {
            "election": null,
            "id": 75,
            "name": "Oakville North—Burlington"
          }
        ],
        "pollDivisionIds": [
          10140413
        ],
        "postalCode": "L7M0G1",
        "streetName": "KURTZ",
        "streetDirectionId": null,
        "streetTypeId": "RD",
        "placeName": "BURLINGTON",
        "streetNameDisplayText": "KURTZ RD, BURLINGTON"
      },
      {
        "electoralDistricts": [
          {
            "election": null,
            "id": 75,
            "name": "Oakville North—Burlington"
          }
        ],
        "pollDivisionIds": [
          10140413
        ],
        "postalCode": "L7M0G1",
        "streetName": "THOMAS ALTON",
        "streetDirectionId": null,
        "streetTypeId": "BLVD",
        "placeName": "BURLINGTON",
        "streetNameDisplayText": "THOMAS ALTON BLVD, BURLINGTON"
      }
    ]
  },
  {
    "postal": "L7M4X2",
    "result": [
      {
        "electoralDistricts": [
          {
            "election": null,
            "id": 75,
            "name": "Oakville North—Burlington"
          }
        ],
        "pollDivisionIds": [
          10140413
        ],
        "postalCode": "L7M4X2",
        "streetName": "CLUBVIEW",
        "streetDirectionId": null,
        "streetTypeId": "DR",
        "placeName": "BURLINGTON",
        "streetNameDisplayText": "CLUBVIEW DR, BURLINGTON"
      },
      {
        "electoralDistricts": [
          {
            "election": null,
            "id": 75,
            "name": "Oakville North—Burlington"
          }
        ],
        "pollDivisionIds": [
          10140413
        ],
        "postalCode": "L7M4X2",
        "streetName": "SNEAD",
        "streetDirectionId": null,
        "streetTypeId": "RD",
        "placeName": "BURLINGTON",
        "streetNameDisplayText": "SNEAD RD, BURLINGTON"
      }
    ]
  },
  {
    "postal": "L7M0N6",
    "result": [
      {
        "electoralDistricts": [
          {
            "election": null,
            "id": 75,
            "name": "Oakville North—Burlington"
          }
        ],
        "pollDivisionIds": [
          10140416
        ],
        "postalCode": "L7M0N6",
        "streetName": "HEDLEY",
        "streetDirectionId": null,
        "streetTypeId": "RD",
        "placeName": "BURLINGTON",
        "streetNameDisplayText": "HEDLEY RD, BURLINGTON"
      },
      {
        "electoralDistricts": [
          {
            "election": null,
            "id": 75,
            "name": "Oakville North—Burlington"
          }
        ],
        "pollDivisionIds": [
          10140416
        ],
        "postalCode": "L7M0N6",
        "streetName": "ROMA",
        "streetDirectionId": null,
        "streetTypeId": "AVE",
        "placeName": "BURLINGTON",
        "streetNameDisplayText": "ROMA AVE, BURLINGTON"
      },
      {
        "electoralDistricts": [
          {
            "election": null,
            "id": 75,
            "name": "Oakville North—Burlington"
          }
        ],
        "pollDivisionIds": [
          10140416
        ],
        "postalCode": "L7M0N6",
        "streetName": "STEEPLECHASE",
        "streetDirectionId": null,
        "streetTypeId": "DR",
        "placeName": "BURLINGTON",
        "streetNameDisplayText": "STEEPLECHASE DR, BURLINGTON"
      }
    ]
  },
  {
    "postal": "L7M8E3",
    "result": []
  },
  {
    "postal": "L7M5S8",
    "result": []
  },
  {
    "postal": "L7M0R0",
    "result": []
  },
  {
    "postal": "L7M6J6",
    "result": []
  },
  {
    "postal": "L7M4B4",
    "result": [
      {
        "electoralDistricts": [
          {
            "election": null,
            "id": 75,
            "name": "Oakville North—Burlington"
          }
        ],
        "pollDivisionIds": [
          10140420
        ],
        "postalCode": "L7M4B4",
        "streetName": "NORTHAMPTON",
        "streetDirectionId": null,
        "streetTypeId": "BLVD",
        "placeName": "BURLINGTON",
        "streetNameDisplayText": "NORTHAMPTON BLVD, BURLINGTON"
      }
    ]
  },
  {
    "postal": "L7M7E3",
    "result": []
  },
  {
    "postal": "L7M3N6",
    "result": [
      {
        "electoralDistricts": [
          {
            "election": null,
            "id": 75,
            "name": "Oakville North—Burlington"
          }
        ],
        "pollDivisionIds": [
          10140424
        ],
        "postalCode": "L7M3N6",
        "streetName": "DESMOND",
        "streetDirectionId": null,
        "streetTypeId": "DR",
        "placeName": "BURLINGTON",
        "streetNameDisplayText": "DESMOND DR, BURLINGTON"
      }
    ]
  },
  {
    "postal": "L7M3X6",
    "result": [
      {
        "electoralDistricts": [
          {
            "election": null,
            "id": 75,
            "name": "Oakville North—Burlington"
          }
        ],
        "pollDivisionIds": [
          10140424
        ],
        "postalCode": "L7M3X6",
        "streetName": "HEADON FOREST",
        "streetDirectionId": null,
        "streetTypeId": "DR",
        "placeName": "BURLINGTON",
        "streetNameDisplayText": "HEADON FOREST DR, BURLINGTON"
      }
    ]
  },
  {
    "postal": "L7M8L0",
    "result": []
  },
  {
    "postal": "L7M8N1",
    "result": []
  },
  {
    "postal": "L7M4J0",
    "result": []
  },
  {
    "postal": "L7M0X7",
    "result": []
  },
  {
    "postal": "L7M6S4",
    "result": []
  },
  {
    "postal": "L7M0Z0",
    "result": []
  },
  {
    "postal": "L7M9X8",
    "result": []
  },
  {
    "postal": "L7M3H3",
    "result": [
      {
        "electoralDistricts": [
          {
            "election": null,
            "id": 75,
            "name": "Oakville North—Burlington"
          }
        ],
        "pollDivisionIds": [
          10140424
        ],
        "postalCode": "L7M3H3",
        "streetName": "SILVERBIRCH",
        "streetDirectionId": null,
        "streetTypeId": "CRT",
        "placeName": "BURLINGTON",
        "streetNameDisplayText": "SILVERBIRCH CRT, BURLINGTON"
      }
    ]
  },
  {
    "postal": "L7M7S2",
    "result": []
  },
  {
    "postal": "L7M3T3",
    "result": [
      {
        "electoralDistricts": [
          {
            "election": null,
            "id": 15,
            "name": "Burlington"
          }
        ],
        "pollDivisionIds": [
          10137335
        ],
        "postalCode": "L7M3T3",
        "streetName": "RILEY",
        "streetDirectionId": null,
        "streetTypeId": "AVE",
        "placeName": "BURLINGTON",
        "streetNameDisplayText": "RILEY AVE, BURLINGTON"
      }
    ]
  },
  {
    "postal": "L7M9P3",
    "result": []
  },
  {
    "postal": "L7M4H8",
    "result": [
      {
        "electoralDistricts": [
          {
            "election": null,
            "id": 75,
            "name": "Oakville North—Burlington"
          }
        ],
        "pollDivisionIds": [
          10140423
        ],
        "postalCode": "L7M4H8",
        "streetName": "CLEAVER",
        "streetDirectionId": null,
        "streetTypeId": "AVE",
        "placeName": "BURLINGTON",
        "streetNameDisplayText": "CLEAVER AVE, BURLINGTON"
      }
    ]
  },
  {
    "postal": "L7M6R1",
    "result": []
  },
  {
    "postal": "L7M1S0",
    "result": []
  },
  {
    "postal": "L7M3W8",
    "result": [
      {
        "electoralDistricts": [
          {
            "election": null,
            "id": 75,
            "name": "Oakville North—Burlington"
          }
        ],
        "pollDivisionIds": [
          10140423
        ],
        "postalCode": "L7M3W8",
        "streetName": "CHRISDON",
        "streetDirectionId": null,
        "streetTypeId": "RD",
        "placeName": "BURLINGTON",
        "streetNameDisplayText": "CHRISDON RD, BURLINGTON"
      }
    ]
  },
  {
    "postal": "L7M4S3",
    "result": [
      {
        "electoralDistricts": [
          {
            "election": null,
            "id": 75,
            "name": "Oakville North—Burlington"
          }
        ],
        "pollDivisionIds": [
          10140419
        ],
        "postalCode": "L7M4S3",
        "streetName": "BLANSHARD",
        "streetDirectionId": null,
        "streetTypeId": "DR",
        "placeName": "BURLINGTON",
        "streetNameDisplayText": "BLANSHARD DR, BURLINGTON"
      },
      {
        "electoralDistricts": [
          {
            "election": null,
            "id": 75,
            "name": "Oakville North—Burlington"
          }
        ],
        "pollDivisionIds": [
          10140419
        ],
        "postalCode": "L7M4S3",
        "streetName": "FOREST RUN",
        "streetDirectionId": null,
        "streetTypeId": "AVE",
        "placeName": "BURLINGTON",
        "streetNameDisplayText": "FOREST RUN AVE, BURLINGTON"
      }
    ]
  },
  {
    "postal": "L7M1B6",
    "result": [
      {
        "electoralDistricts": [
          {
            "election": null,
            "id": 15,
            "name": "Burlington"
          }
        ],
        "pollDivisionIds": [
          10137336
        ],
        "postalCode": "L7M1B6",
        "streetName": "CENTENNIAL",
        "streetDirectionId": null,
        "streetTypeId": "DR",
        "placeName": "BURLINGTON",
        "streetNameDisplayText": "CENTENNIAL DR, BURLINGTON"
      }
    ]
  },
  {
    "postal": "L7M8R3",
    "result": []
  },
  {
    "postal": "L7M4V9",
    "result": [
      {
        "electoralDistricts": [
          {
            "election": null,
            "id": 75,
            "name": "Oakville North—Burlington"
          }
        ],
        "pollDivisionIds": [
          10140419
        ],
        "postalCode": "L7M4V9",
        "streetName": "SILVAN FOREST",
        "streetDirectionId": null,
        "streetTypeId": "DR",
        "placeName": "BURLINGTON",
        "streetNameDisplayText": "SILVAN FOREST DR, BURLINGTON"
      }
    ]
  },
  {
    "postal": "L7M9W4",
    "result": []
  },
  {
    "postal": "L7M3T4",
    "result": [
      {
        "electoralDistricts": [
          {
            "election": null,
            "id": 15,
            "name": "Burlington"
          }
        ],
        "pollDivisionIds": [
          10137335
        ],
        "postalCode": "L7M3T4",
        "streetName": "BLAIR",
        "streetDirectionId": null,
        "streetTypeId": "RD",
        "placeName": "BURLINGTON",
        "streetNameDisplayText": "BLAIR RD, BURLINGTON"
      }
    ]
  },
  {
    "postal": "L7M5C7",
    "result": []
  },
  {
    "postal": "L7M3Y1",
    "result": [
      {
        "electoralDistricts": [
          {
            "election": null,
            "id": 75,
            "name": "Oakville North—Burlington"
          }
        ],
        "pollDivisionIds": [
          10140420
        ],
        "postalCode": "L7M3Y1",
        "streetName": "CARDIFF",
        "streetDirectionId": null,
        "streetTypeId": "CRES",
        "placeName": "BURLINGTON",
        "streetNameDisplayText": "CARDIFF CRES, BURLINGTON"
      },
      {
        "electoralDistricts": [
          {
            "election": null,
            "id": 75,
            "name": "Oakville North—Burlington"
          }
        ],
        "pollDivisionIds": [
          10140420
        ],
        "postalCode": "L7M3Y1",
        "streetName": "NEWPORT",
        "streetDirectionId": null,
        "streetTypeId": "ST",
        "placeName": "BURLINGTON",
        "streetNameDisplayText": "NEWPORT ST, BURLINGTON"
      }
    ]
  },
  {
    "postal": "L7M5V0",
    "result": []
  },
  {
    "postal": "L7M8G8",
    "result": []
  },
  {
    "postal": "L7M8B1",
    "result": []
  },
  {
    "postal": "L7M4P5",
    "result": [
      {
        "electoralDistricts": [
          {
            "election": null,
            "id": 75,
            "name": "Oakville North—Burlington"
          }
        ],
        "pollDivisionIds": [
          10140422
        ],
        "postalCode": "L7M4P5",
        "streetName": "WALKER'S",
        "streetDirectionId": null,
        "streetTypeId": "LINE",
        "placeName": "BURLINGTON",
        "streetNameDisplayText": "WALKER'S LINE, BURLINGTON"
      }
    ]
  },
  {
    "postal": "L7M7B2",
    "result": []
  },
  {
    "postal": "L7M0R2",
    "result": [
      {
        "electoralDistricts": [
          {
            "election": null,
            "id": 59,
            "name": "Milton"
          }
        ],
        "pollDivisionIds": [
          10126398
        ],
        "postalCode": "L7M0R2",
        "streetName": "WALKER'S",
        "streetDirectionId": null,
        "streetTypeId": "LINE",
        "placeName": "BURLINGTON",
        "streetNameDisplayText": "WALKER'S LINE, BURLINGTON"
      },
      {
        "electoralDistricts": [
          {
            "election": null,
            "id": 59,
            "name": "Milton"
          }
        ],
        "pollDivisionIds": [
          10126398
        ],
        "postalCode": "L7M0R2",
        "streetName": "WALKER'S",
        "streetDirectionId": null,
        "streetTypeId": "LINE",
        "placeName": "MILTON",
        "streetNameDisplayText": "WALKER'S LINE, MILTON"
      }
    ]
  },
  {
    "postal": "L7M4M4",
    "result": [
      {
        "electoralDistricts": [
          {
            "election": null,
            "id": 75,
            "name": "Oakville North—Burlington"
          }
        ],
        "pollDivisionIds": [
          10140422
        ],
        "postalCode": "L7M4M4",
        "streetName": "KILMER",
        "streetDirectionId": null,
        "streetTypeId": "DR",
        "placeName": "BURLINGTON",
        "streetNameDisplayText": "KILMER DR, BURLINGTON"
      }
    ]
  },
  {
    "postal": "L7M7M4",
    "result": []
  },
  {
    "postal": "L7M9S7",
    "result": []
  },
  {
    "postal": "L7M5Z7",
    "result": []
  },
  {
    "postal": "L7M7J7",
    "result": []
  },
  {
    "postal": "L7M8R8",
    "result": []
  },
  {
    "postal": "L7M9X1",
    "result": []
  },
  {
    "postal": "L7M5M9",
    "result": []
  },
  {
    "postal": "L7M9B4",
    "result": []
  },
  {
    "postal": "L7M0L9",
    "result": [
      {
        "electoralDistricts": [
          {
            "election": null,
            "id": 75,
            "name": "Oakville North—Burlington"
          }
        ],
        "pollDivisionIds": [
          10140416
        ],
        "postalCode": "L7M0L9",
        "streetName": "FOUNDATION",
        "streetDirectionId": null,
        "streetTypeId": "GATE",
        "placeName": "BURLINGTON",
        "streetNameDisplayText": "FOUNDATION GATE, BURLINGTON"
      },
      {
        "electoralDistricts": [
          {
            "election": null,
            "id": 75,
            "name": "Oakville North—Burlington"
          }
        ],
        "pollDivisionIds": [
          10140416
        ],
        "postalCode": "L7M0L9",
        "streetName": "KEYSTONE",
        "streetDirectionId": null,
        "streetTypeId": "CRES",
        "placeName": "BURLINGTON",
        "streetNameDisplayText": "KEYSTONE CRES, BURLINGTON"
      },
      {
        "electoralDistricts": [
          {
            "election": null,
            "id": 75,
            "name": "Oakville North—Burlington"
          }
        ],
        "pollDivisionIds": [
          10140416
        ],
        "postalCode": "L7M0L9",
        "streetName": "THOMAS ALTON",
        "streetDirectionId": null,
        "streetTypeId": "BLVD",
        "placeName": "BURLINGTON",
        "streetNameDisplayText": "THOMAS ALTON BLVD, BURLINGTON"
      }
    ]
  },
  {
    "postal": "L7M9G4",
    "result": []
  },
  {
    "postal": "L7M1J4",
    "result": [
      {
        "electoralDistricts": [
          {
            "election": null,
            "id": 15,
            "name": "Burlington"
          }
        ],
        "pollDivisionIds": [
          10137336
        ],
        "postalCode": "L7M1J4",
        "streetName": "ALLANGROVE",
        "streetDirectionId": null,
        "streetTypeId": "DR",
        "placeName": "BURLINGTON",
        "streetNameDisplayText": "ALLANGROVE DR, BURLINGTON"
      }
    ]
  },
  {
    "postal": "L7M0W6",
    "result": []
  }
]
