[
  {
    "postal": "M2R9J6",
    "result": []
  },
  {
    "postal": "M2R9Z5",
    "result": []
  },
  {
    "postal": "M2R7H8",
    "result": []
  },
  {
    "postal": "M2R0P6",
    "result": []
  },
  {
    "postal": "M2R0S7",
    "result": []
  },
  {
    "postal": "M2R8B9",
    "result": []
  },
  {
    "postal": "M2R2A6",
    "result": [
      {
        "electoralDistricts": [
          {
            "election": null,
            "id": 120,
            "name": "York Centre"
          }
        ],
        "pollDivisionIds": [
          10142846
        ],
        "postalCode": "M2R2A6",
        "streetName": "CARSCADDEN",
        "streetDirectionId": null,
        "streetTypeId": "DR",
        "placeName": "NORTH YORK",
        "streetNameDisplayText": "CARSCADDEN DR, NORTH YORK"
      }
    ]
  },
  {
    "postal": "M2R7V2",
    "result": []
  },
  {
    "postal": "M2R9P4",
    "result": []
  },
  {
    "postal": "M2R6G0",
    "result": []
  },
  {
    "postal": "M2R2K0",
    "result": []
  },
  {
    "postal": "M2R7N6",
    "result": []
  },
  {
    "postal": "M2R5R3",
    "result": []
  },
  {
    "postal": "M2R7K0",
    "result": []
  },
  {
    "postal": "M2R3R2",
    "result": [
      {
        "electoralDistricts": [
          {
            "election": null,
            "id": 120,
            "name": "York Centre"
          }
        ],
        "pollDivisionIds": [
          10142845
        ],
        "postalCode": "M2R3R2",
        "streetName": "ROBERT HICKS",
        "streetDirectionId": null,
        "streetTypeId": "DR",
        "placeName": "NORTH YORK",
        "streetNameDisplayText": "ROBERT HICKS DR, NORTH YORK"
      }
    ]
  },
  {
    "postal": "M2R0J1",
    "result": []
  },
  {
    "postal": "M2R0B0",
    "result": []
  },
  {
    "postal": "M2R5Z2",
    "result": []
  },
  {
    "postal": "M2R7P3",
    "result": []
  },
  {
    "postal": "M2R2K3",
    "result": [
      {
        "electoralDistricts": [
          {
            "election": null,
            "id": 117,
            "name": "Willowdale"
          }
        ],
        "pollDivisionIds": [
          10142602
        ],
        "postalCode": "M2R2K3",
        "streetName": "DREWRY",
        "streetDirectionId": null,
        "streetTypeId": "AVE",
        "placeName": "NORTH YORK",
        "streetNameDisplayText": "DREWRY AVE, NORTH YORK"
      }
    ]
  },
  {
    "postal": "M2R7Y6",
    "result": []
  },
  {
    "postal": "M2R1L9",
    "result": [
      {
        "electoralDistricts": [
          {
            "election": null,
            "id": 117,
            "name": "Willowdale"
          }
        ],
        "pollDivisionIds": [
          10142610
        ],
        "postalCode": "M2R1L9",
        "streetName": "BEVDALE",
        "streetDirectionId": null,
        "streetTypeId": "RD",
        "placeName": "NORTH YORK",
        "streetNameDisplayText": "BEVDALE RD, NORTH YORK"
      }
    ]
  },
  {
    "postal": "M2R8T0",
    "result": []
  },
  {
    "postal": "M2R3K8",
    "result": [
      {
        "electoralDistricts": [
          {
            "election": null,
            "id": 120,
            "name": "York Centre"
          }
        ],
        "pollDivisionIds": [
          10142846
        ],
        "postalCode": "M2R3K8",
        "streetName": "RED ROBINWAY",
        "streetDirectionId": null,
        "streetTypeId": "WAY",
        "placeName": "NORTH YORK",
        "streetNameDisplayText": "RED ROBINWAY WAY, NORTH YORK"
      }
    ]
  },
  {
    "postal": "M2R5W9",
    "result": []
  },
  {
    "postal": "M2R6T9",
    "result": []
  },
  {
    "postal": "M2R4H1",
    "result": []
  },
  {
    "postal": "M2R7A2",
    "result": []
  },
  {
    "postal": "M2R5G0",
    "result": []
  },
  {
    "postal": "M2R8V5",
    "result": []
  },
  {
    "postal": "M2R2Y8",
    "result": []
  },
  {
    "postal": "M2R2B6",
    "result": [
      {
        "electoralDistricts": [
          {
            "election": null,
            "id": 120,
            "name": "York Centre"
          }
        ],
        "pollDivisionIds": [
          10142846
        ],
        "postalCode": "M2R2B6",
        "streetName": "PURBROOK",
        "streetDirectionId": null,
        "streetTypeId": "CRT",
        "placeName": "NORTH YORK",
        "streetNameDisplayText": "PURBROOK CRT, NORTH YORK"
      }
    ]
  },
  {
    "postal": "M2R4W8",
    "result": []
  },
  {
    "postal": "M2R8H7",
    "result": []
  },
  {
    "postal": "M2R5P1",
    "result": []
  },
  {
    "postal": "M2R2B8",
    "result": [
      {
        "electoralDistricts": [
          {
            "election": null,
            "id": 120,
            "name": "York Centre"
          }
        ],
        "pollDivisionIds": [
          10142846
        ],
        "postalCode": "M2R2B8",
        "streetName": "AILSA CRAIG",
        "streetDirectionId": null,
        "streetTypeId": "CRT",
        "placeName": "NORTH YORK",
        "streetNameDisplayText": "AILSA CRAIG CRT, NORTH YORK"
      }
    ]
  },
  {
    "postal": "M2R0P2",
    "result": []
  },
  {
    "postal": "M2R9M1",
    "result": []
  },
  {
    "postal": "M2R3G0",
    "result": []
  },
  {
    "postal": "M2R9Z2",
    "result": []
  },
  {
    "postal": "M2R2A0",
    "result": []
  },
  {
    "postal": "M2R6Y0",
    "result": []
  },
  {
    "postal": "M2R2Z8",
    "result": [
      {
        "electoralDistricts": [
          {
            "election": null,
            "id": 120,
            "name": "York Centre"
          }
        ],
        "pollDivisionIds": [
          10142843
        ],
        "postalCode": "M2R2Z8",
        "streetName": "ROBINGROVE",
        "streetDirectionId": null,
        "streetTypeId": "RD",
        "placeName": "NORTH YORK",
        "streetNameDisplayText": "ROBINGROVE RD, NORTH YORK"
      }
    ]
  },
  {
    "postal": "M2R7Y3",
    "result": []
  },
  {
    "postal": "M2R6Z5",
    "result": []
  },
  {
    "postal": "M2R6E0",
    "result": []
  },
  {
    "postal": "M2R9B7",
    "result": []
  },
  {
    "postal": "M2R9S5",
    "result": []
  },
  {
    "postal": "M2R3X3",
    "result": [
      {
        "electoralDistricts": [
          {
            "election": null,
            "id": 117,
            "name": "Willowdale"
          }
        ],
        "pollDivisionIds": [
          10142611
        ],
        "postalCode": "M2R3X3",
        "streetName": "SENLAC",
        "streetDirectionId": null,
        "streetTypeId": "RD",
        "placeName": "NORTH YORK",
        "streetNameDisplayText": "SENLAC RD, NORTH YORK"
      }
    ]
  },
  {
    "postal": "M2R7R5",
    "result": []
  },
  {
    "postal": "M2R2X3",
    "result": [
      {
        "electoralDistricts": [
          {
            "election": null,
            "id": 117,
            "name": "Willowdale"
          }
        ],
        "pollDivisionIds": [
          10142602
        ],
        "postalCode": "M2R2X3",
        "streetName": "BRILL",
        "streetDirectionId": null,
        "streetTypeId": "CRES",
        "placeName": "NORTH YORK",
        "streetNameDisplayText": "BRILL CRES, NORTH YORK"
      }
    ]
  },
  {
    "postal": "M2R8Z9",
    "result": []
  },
  {
    "postal": "M2R0N4",
    "result": []
  },
  {
    "postal": "M2R1K1",
    "result": [
      {
        "electoralDistricts": [
          {
            "election": null,
            "id": 117,
            "name": "Willowdale"
          }
        ],
        "pollDivisionIds": [
          10142610
        ],
        "postalCode": "M2R1K1",
        "streetName": "YORKVIEW",
        "streetDirectionId": null,
        "streetTypeId": "DR",
        "placeName": "NORTH YORK",
        "streetNameDisplayText": "YORKVIEW DR, NORTH YORK"
      }
    ]
  },
  {
    "postal": "M2R1S3",
    "result": [
      {
        "electoralDistricts": [
          {
            "election": null,
            "id": 117,
            "name": "Willowdale"
          }
        ],
        "pollDivisionIds": [
          10142612
        ],
        "postalCode": "M2R1S3",
        "streetName": "COBDEN",
        "streetDirectionId": null,
        "streetTypeId": "ST",
        "placeName": "NORTH YORK",
        "streetNameDisplayText": "COBDEN ST, NORTH YORK"
      }
    ]
  },
  {
    "postal": "M2R6M4",
    "result": []
  },
  {
    "postal": "M2R9A9",
    "result": []
  },
  {
    "postal": "M2R9Z9",
    "result": []
  },
  {
    "postal": "M2R6T4",
    "result": []
  },
  {
    "postal": "M2R0B2",
    "result": []
  },
  {
    "postal": "M2R2L9",
    "result": [
      {
        "electoralDistricts": [
          {
            "election": null,
            "id": 117,
            "name": "Willowdale"
          }
        ],
        "pollDivisionIds": [
          10142602
        ],
        "postalCode": "M2R2L9",
        "streetName": "CONNAUGHT",
        "streetDirectionId": null,
        "streetTypeId": "AVE",
        "placeName": "NORTH YORK",
        "streetNameDisplayText": "CONNAUGHT AVE, NORTH YORK"
      }
    ]
  },
  {
    "postal": "M2R8K9",
    "result": []
  },
  {
    "postal": "M2R2H9",
    "result": [
      {
        "electoralDistricts": [
          {
            "election": null,
            "id": 117,
            "name": "Willowdale"
          }
        ],
        "pollDivisionIds": [
          10142602
        ],
        "postalCode": "M2R2H9",
        "streetName": "KENTON",
        "streetDirectionId": null,
        "streetTypeId": "DR",
        "placeName": "NORTH YORK",
        "streetNameDisplayText": "KENTON DR, NORTH YORK"
      }
    ]
  },
  {
    "postal": "M2R3Z6",
    "result": []
  },
  {
    "postal": "M2R3B0",
    "result": []
  },
  {
    "postal": "M2R2H8",
    "result": [
      {
        "electoralDistricts": [
          {
            "election": null,
            "id": 117,
            "name": "Willowdale"
          }
        ],
        "pollDivisionIds": [
          10142602
        ],
        "postalCode": "M2R2H8",
        "streetName": "KENTON",
        "streetDirectionId": null,
        "streetTypeId": "DR",
        "placeName": "NORTH YORK",
        "streetNameDisplayText": "KENTON DR, NORTH YORK"
      }
    ]
  },
  {
    "postal": "M2R3X2",
    "result": [
      {
        "electoralDistricts": [
          {
            "election": null,
            "id": 120,
            "name": "York Centre"
          }
        ],
        "pollDivisionIds": [
          10142846
        ],
        "postalCode": "M2R3X2",
        "streetName": "FINCH",
        "streetDirectionId": "W",
        "streetTypeId": "AVE",
        "placeName": "NORTH YORK",
        "streetNameDisplayText": "FINCH AVE W, NORTH YORK"
      }
    ]
  },
  {
    "postal": "M2R2E9",
    "result": [
      {
        "electoralDistricts": [
          {
            "election": null,
            "id": 117,
            "name": "Willowdale"
          }
        ],
        "pollDivisionIds": [
          10142610
        ],
        "postalCode": "M2R2E9",
        "streetName": "GRANTBROOK",
        "streetDirectionId": null,
        "streetTypeId": "ST",
        "placeName": "NORTH YORK",
        "streetNameDisplayText": "GRANTBROOK ST, NORTH YORK"
      }
    ]
  },
  {
    "postal": "M2R9P6",
    "result": []
  },
  {
    "postal": "M2R9E2",
    "result": []
  },
  {
    "postal": "M2R9H2",
    "result": []
  },
  {
    "postal": "M2R1S8",
    "result": [
      {
        "electoralDistricts": [
          {
            "election": null,
            "id": 117,
            "name": "Willowdale"
          }
        ],
        "pollDivisionIds": [
          10142612
        ],
        "postalCode": "M2R1S8",
        "streetName": "WYNN",
        "streetDirectionId": null,
        "streetTypeId": "RD",
        "placeName": "NORTH YORK",
        "streetNameDisplayText": "WYNN RD, NORTH YORK"
      }
    ]
  },
  {
    "postal": "M2R3M6",
    "result": [
      {
        "electoralDistricts": [
          {
            "election": null,
            "id": 120,
            "name": "York Centre"
          }
        ],
        "pollDivisionIds": [
          10142843
        ],
        "postalCode": "M2R3M6",
        "streetName": "SEA HAWKWAY",
        "streetDirectionId": null,
        "streetTypeId": "WAY",
        "placeName": "NORTH YORK",
        "streetNameDisplayText": "SEA HAWKWAY WAY, NORTH YORK"
      }
    ]
  },
  {
    "postal": "M2R6Z8",
    "result": []
  },
  {
    "postal": "M2R4J2",
    "result": []
  },
  {
    "postal": "M2R9Y1",
    "result": []
  },
  {
    "postal": "M2R8V6",
    "result": []
  },
  {
    "postal": "M2R6B2",
    "result": []
  },
  {
    "postal": "M2R1P8",
    "result": [
      {
        "electoralDistricts": [
          {
            "election": null,
            "id": 117,
            "name": "Willowdale"
          }
        ],
        "pollDivisionIds": [
          10142612
        ],
        "postalCode": "M2R1P8",
        "streetName": "SENLAC",
        "streetDirectionId": null,
        "streetTypeId": "RD",
        "placeName": "NORTH YORK",
        "streetNameDisplayText": "SENLAC RD, NORTH YORK"
      }
    ]
  },
  {
    "postal": "M2R0V8",
    "result": []
  },
  {
    "postal": "M2R4Y0",
    "result": []
  },
  {
    "postal": "M2R2T4",
    "result": [
      {
        "electoralDistricts": [
          {
            "election": null,
            "id": 120,
            "name": "York Centre"
          }
        ],
        "pollDivisionIds": [
          10142843
        ],
        "postalCode": "M2R2T4",
        "streetName": "SUNNYCREST",
        "streetDirectionId": null,
        "streetTypeId": "RD",
        "placeName": "NORTH YORK",
        "streetNameDisplayText": "SUNNYCREST RD, NORTH YORK"
      }
    ]
  },
  {
    "postal": "M2R2S3",
    "result": [
      {
        "electoralDistricts": [
          {
            "election": null,
            "id": 117,
            "name": "Willowdale"
          }
        ],
        "pollDivisionIds": [
          10142602
        ],
        "postalCode": "M2R2S3",
        "streetName": "GREENWIN VILLAGE",
        "streetDirectionId": null,
        "streetTypeId": "RD",
        "placeName": "NORTH YORK",
        "streetNameDisplayText": "GREENWIN VILLAGE RD, NORTH YORK"
      }
    ]
  },
  {
    "postal": "M2R0K0",
    "result": []
  },
  {
    "postal": "M2R5N1",
    "result": []
  },
  {
    "postal": "M2R7T0",
    "result": []
  },
  {
    "postal": "M2R9N2",
    "result": []
  },
  {
    "postal": "M2R5L1",
    "result": []
  },
  {
    "postal": "M2R7G5",
    "result": []
  },
  {
    "postal": "M2R6K2",
    "result": []
  },
  {
    "postal": "M2R6P9",
    "result": []
  },
  {
    "postal": "M2R0E6",
    "result": []
  },
  {
    "postal": "M2R8R9",
    "result": []
  },
  {
    "postal": "M2R3G9",
    "result": [
      {
        "electoralDistricts": [
          {
            "election": null,
            "id": 120,
            "name": "York Centre"
          }
        ],
        "pollDivisionIds": [
          10142846
        ],
        "postalCode": "M2R3G9",
        "streetName": "GLADE CARSEWAY",
        "streetDirectionId": null,
        "streetTypeId": "WAY",
        "placeName": "NORTH YORK",
        "streetNameDisplayText": "GLADE CARSEWAY WAY, NORTH YORK"
      }
    ]
  },
  {
    "postal": "M2R0V7",
    "result": []
  },
  {
    "postal": "M2R2Z1",
    "result": [
      {
        "electoralDistricts": [
          {
            "election": null,
            "id": 120,
            "name": "York Centre"
          },
          {
            "election": null,
            "id": 117,
            "name": "Willowdale"
          }
        ],
        "pollDivisionIds": [
          10142874,
          10142873,
          10142611
        ],
        "postalCode": "M2R2Z1",
        "streetName": "ANTIBES",
        "streetDirectionId": null,
        "streetTypeId": "DR",
        "placeName": "NORTH YORK",
        "streetNameDisplayText": "ANTIBES DR, NORTH YORK"
      }
    ]
  },
  {
    "postal": "M2R7N1",
    "result": []
  },
  {
    "postal": "M2R3C6",
    "result": [
      {
        "electoralDistricts": [
          {
            "election": null,
            "id": 120,
            "name": "York Centre"
          }
        ],
        "pollDivisionIds": [
          10142843
        ],
        "postalCode": "M2R3C6",
        "streetName": "STONEDENE",
        "streetDirectionId": null,
        "streetTypeId": "BLVD",
        "placeName": "NORTH YORK",
        "streetNameDisplayText": "STONEDENE BLVD, NORTH YORK"
      }
    ]
  },
  {
    "postal": "M2R4M1",
    "result": []
  },
  {
    "postal": "M2R9K2",
    "result": []
  },
  {
    "postal": "M2R9S6",
    "result": []
  },
  {
    "postal": "M2R4X1",
    "result": []
  },
  {
    "postal": "M2R8W2",
    "result": []
  },
  {
    "postal": "M2R7N2",
    "result": []
  },
  {
    "postal": "M2R8S3",
    "result": []
  },
  {
    "postal": "M2R4V0",
    "result": []
  },
  {
    "postal": "M2R6W4",
    "result": []
  },
  {
    "postal": "M2R5M1",
    "result": []
  },
  {
    "postal": "M2R0S4",
    "result": []
  },
  {
    "postal": "M2R5X6",
    "result": []
  },
  {
    "postal": "M2R8L5",
    "result": []
  },
  {
    "postal": "M2R5M8",
    "result": []
  },
  {
    "postal": "M2R2G3",
    "result": [
      {
        "electoralDistricts": [
          {
            "election": null,
            "id": 117,
            "name": "Willowdale"
          }
        ],
        "pollDivisionIds": [
          10142602
        ],
        "postalCode": "M2R2G3",
        "streetName": "GRANTBROOK",
        "streetDirectionId": null,
        "streetTypeId": "ST",
        "placeName": "NORTH YORK",
        "streetNameDisplayText": "GRANTBROOK ST, NORTH YORK"
      }
    ]
  },
  {
    "postal": "M2R8E4",
    "result": []
  },
  {
    "postal": "M2R7S9",
    "result": []
  },
  {
    "postal": "M2R1K3",
    "result": [
      {
        "electoralDistricts": [
          {
            "election": null,
            "id": 117,
            "name": "Willowdale"
          }
        ],
        "pollDivisionIds": [
          10142610
        ],
        "postalCode": "M2R1K3",
        "streetName": "YORKVIEW",
        "streetDirectionId": null,
        "streetTypeId": "DR",
        "placeName": "NORTH YORK",
        "streetNameDisplayText": "YORKVIEW DR, NORTH YORK"
      }
    ]
  },
  {
    "postal": "M2R4E1",
    "result": []
  },
  {
    "postal": "M2R4R2",
    "result": []
  },
  {
    "postal": "M2R6T0",
    "result": []
  },
  {
    "postal": "M2R3K5",
    "result": [
      {
        "electoralDistricts": [
          {
            "election": null,
            "id": 120,
            "name": "York Centre"
          }
        ],
        "pollDivisionIds": [
          10142844
        ],
        "postalCode": "M2R3K5",
        "streetName": "ANTIBES",
        "streetDirectionId": null,
        "streetTypeId": "DR",
        "placeName": "NORTH YORK",
        "streetNameDisplayText": "ANTIBES DR, NORTH YORK"
      }
    ]
  },
  {
    "postal": "M2R3S3",
    "result": [
      {
        "electoralDistricts": [
          {
            "election": null,
            "id": 120,
            "name": "York Centre"
          }
        ],
        "pollDivisionIds": [
          10142843
        ],
        "postalCode": "M2R3S3",
        "streetName": "STILLWATER",
        "streetDirectionId": null,
        "streetTypeId": "CRES",
        "placeName": "NORTH YORK",
        "streetNameDisplayText": "STILLWATER CRES, NORTH YORK"
      }
    ]
  },
  {
    "postal": "M2R3L4",
    "result": [
      {
        "electoralDistricts": [
          {
            "election": null,
            "id": 120,
            "name": "York Centre"
          }
        ],
        "pollDivisionIds": [
          10142843
        ],
        "postalCode": "M2R3L4",
        "streetName": "TWIN CIRCLE",
        "streetDirectionId": null,
        "streetTypeId": "CRT",
        "placeName": "NORTH YORK",
        "streetNameDisplayText": "TWIN CIRCLE CRT, NORTH YORK"
      }
    ]
  },
  {
    "postal": "M2R9Y2",
    "result": []
  },
  {
    "postal": "M2R1E0",
    "result": []
  },
  {
    "postal": "M2R9A4",
    "result": []
  },
  {
    "postal": "M2R1L3",
    "result": [
      {
        "electoralDistricts": [
          {
            "election": null,
            "id": 117,
            "name": "Willowdale"
          }
        ],
        "pollDivisionIds": [
          10142610
        ],
        "postalCode": "M2R1L3",
        "streetName": "FLEETWELL",
        "streetDirectionId": null,
        "streetTypeId": "CRT",
        "placeName": "NORTH YORK",
        "streetNameDisplayText": "FLEETWELL CRT, NORTH YORK"
      }
    ]
  },
  {
    "postal": "M2R6N1",
    "result": []
  },
  {
    "postal": "M2R6G7",
    "result": []
  },
  {
    "postal": "M2R7W1",
    "result": []
  },
  {
    "postal": "M2R4M6",
    "result": []
  },
  {
    "postal": "M2R1K0",
    "result": []
  },
  {
    "postal": "M2R3E2",
    "result": [
      {
        "electoralDistricts": [
          {
            "election": null,
            "id": 120,
            "name": "York Centre"
          }
        ],
        "pollDivisionIds": [
          10142843
        ],
        "postalCode": "M2R3E2",
        "streetName": "RENOAK",
        "streetDirectionId": null,
        "streetTypeId": "DR",
        "placeName": "NORTH YORK",
        "streetNameDisplayText": "RENOAK DR, NORTH YORK"
      }
    ]
  },
  {
    "postal": "M2R5H4",
    "result": []
  },
  {
    "postal": "M2R1K7",
    "result": [
      {
        "electoralDistricts": [
          {
            "election": null,
            "id": 117,
            "name": "Willowdale"
          }
        ],
        "pollDivisionIds": [
          10142610
        ],
        "postalCode": "M2R1K7",
        "streetName": "LURGAN",
        "streetDirectionId": null,
        "streetTypeId": "DR",
        "placeName": "NORTH YORK",
        "streetNameDisplayText": "LURGAN DR, NORTH YORK"
      }
    ]
  },
  {
    "postal": "M2R0H0",
    "result": []
  },
  {
    "postal": "M2R0J3",
    "result": []
  },
  {
    "postal": "M2R1X6",
    "result": [
      {
        "electoralDistricts": [
          {
            "election": null,
            "id": 120,
            "name": "York Centre"
          }
        ],
        "pollDivisionIds": [
          10142846
        ],
        "postalCode": "M2R1X6",
        "streetName": "BATHURST",
        "streetDirectionId": null,
        "streetTypeId": "ST",
        "placeName": "NORTH YORK",
        "streetNameDisplayText": "BATHURST ST, NORTH YORK"
      }
    ]
  },
  {
    "postal": "M2R2Z6",
    "result": [
      {
        "electoralDistricts": [
          {
            "election": null,
            "id": 120,
            "name": "York Centre"
          }
        ],
        "pollDivisionIds": [
          10142843
        ],
        "postalCode": "M2R2Z6",
        "streetName": "ROBINGROVE",
        "streetDirectionId": null,
        "streetTypeId": "RD",
        "placeName": "NORTH YORK",
        "streetNameDisplayText": "ROBINGROVE RD, NORTH YORK"
      }
    ]
  },
  {
    "postal": "M2R4R9",
    "result": []
  },
  {
    "postal": "M2R0W8",
    "result": []
  },
  {
    "postal": "M2R1L4",
    "result": [
      {
        "electoralDistricts": [
          {
            "election": null,
            "id": 117,
            "name": "Willowdale"
          }
        ],
        "pollDivisionIds": [
          10142610
        ],
        "postalCode": "M2R1L4",
        "streetName": "FLEETWELL",
        "streetDirectionId": null,
        "streetTypeId": "CRT",
        "placeName": "NORTH YORK",
        "streetNameDisplayText": "FLEETWELL CRT, NORTH YORK"
      }
    ]
  },
  {
    "postal": "M2R0C8",
    "result": []
  },
  {
    "postal": "M2R9X7",
    "result": []
  },
  {
    "postal": "M2R4T1",
    "result": []
  },
  {
    "postal": "M2R0M0",
    "result": []
  },
  {
    "postal": "M2R6A2",
    "result": []
  },
  {
    "postal": "M2R9S8",
    "result": []
  },
  {
    "postal": "M2R9T4",
    "result": []
  },
  {
    "postal": "M2R9Y4",
    "result": []
  },
  {
    "postal": "M2R6G5",
    "result": []
  },
  {
    "postal": "M2R6H9",
    "result": []
  },
  {
    "postal": "M2R2P3",
    "result": [
      {
        "electoralDistricts": [
          {
            "election": null,
            "id": 117,
            "name": "Willowdale"
          }
        ],
        "pollDivisionIds": [
          10142602
        ],
        "postalCode": "M2R2P3",
        "streetName": "GOULDING",
        "streetDirectionId": null,
        "streetTypeId": "AVE",
        "placeName": "NORTH YORK",
        "streetNameDisplayText": "GOULDING AVE, NORTH YORK"
      }
    ]
  },
  {
    "postal": "M2R1T6",
    "result": [
      {
        "electoralDistricts": [
          {
            "election": null,
            "id": 117,
            "name": "Willowdale"
          }
        ],
        "pollDivisionIds": [
          10142612
        ],
        "postalCode": "M2R1T6",
        "streetName": "ALONZO",
        "streetDirectionId": null,
        "streetTypeId": "RD",
        "placeName": "NORTH YORK",
        "streetNameDisplayText": "ALONZO RD, NORTH YORK"
      }
    ]
  },
  {
    "postal": "M2R4P6",
    "result": []
  },
  {
    "postal": "M2R3K1",
    "result": [
      {
        "electoralDistricts": [
          {
            "election": null,
            "id": 120,
            "name": "York Centre"
          }
        ],
        "pollDivisionIds": [
          10102952
        ],
        "postalCode": "M2R3K1",
        "streetName": "STEELES",
        "streetDirectionId": "W",
        "streetTypeId": "AVE",
        "placeName": "NORTH YORK",
        "streetNameDisplayText": "STEELES AVE W, NORTH YORK"
      }
    ]
  },
  {
    "postal": "M2R6X4",
    "result": []
  },
  {
    "postal": "M2R4M8",
    "result": []
  },
  {
    "postal": "M2R2Y1",
    "result": [
      {
        "electoralDistricts": [
          {
            "election": null,
            "id": 117,
            "name": "Willowdale"
          }
        ],
        "pollDivisionIds": [
          10142602
        ],
        "postalCode": "M2R2Y1",
        "streetName": "BISON",
        "streetDirectionId": null,
        "streetTypeId": "DR",
        "placeName": "NORTH YORK",
        "streetNameDisplayText": "BISON DR, NORTH YORK"
      }
    ]
  },
  {
    "postal": "M2R6M1",
    "result": []
  },
  {
    "postal": "M2R5L8",
    "result": []
  },
  {
    "postal": "M2R3P6",
    "result": [
      {
        "electoralDistricts": [
          {
            "election": null,
            "id": 120,
            "name": "York Centre"
          }
        ],
        "pollDivisionIds": [
          10142845
        ],
        "postalCode": "M2R3P6",
        "streetName": "IVAN NELSON",
        "streetDirectionId": null,
        "streetTypeId": "DR",
        "placeName": "NORTH YORK",
        "streetNameDisplayText": "IVAN NELSON DR, NORTH YORK"
      }
    ]
  },
  {
    "postal": "M2R9A5",
    "result": []
  },
  {
    "postal": "M2R7K1",
    "result": []
  },
  {
    "postal": "M2R3J4",
    "result": [
      {
        "electoralDistricts": [
          {
            "election": null,
            "id": 117,
            "name": "Willowdale"
          }
        ],
        "pollDivisionIds": [
          10142603
        ],
        "postalCode": "M2R3J4",
        "streetName": "CACTUS",
        "streetDirectionId": null,
        "streetTypeId": "AVE",
        "placeName": "NORTH YORK",
        "streetNameDisplayText": "CACTUS AVE, NORTH YORK"
      }
    ]
  },
  {
    "postal": "M2R5E7",
    "result": []
  },
  {
    "postal": "M2R3A7",
    "result": [
      {
        "electoralDistricts": [
          {
            "election": null,
            "id": 120,
            "name": "York Centre"
          }
        ],
        "pollDivisionIds": [
          10142843
        ],
        "postalCode": "M2R3A7",
        "streetName": "ROCKFORD",
        "streetDirectionId": null,
        "streetTypeId": "RD",
        "placeName": "NORTH YORK",
        "streetNameDisplayText": "ROCKFORD RD, NORTH YORK"
      }
    ]
  },
  {
    "postal": "M2R1B9",
    "result": [
      {
        "electoralDistricts": [
          {
            "election": null,
            "id": 117,
            "name": "Willowdale"
          }
        ],
        "pollDivisionIds": [
          10142612
        ],
        "postalCode": "M2R1B9",
        "streetName": "ELLERSLIE",
        "streetDirectionId": null,
        "streetTypeId": "AVE",
        "placeName": "NORTH YORK",
        "streetNameDisplayText": "ELLERSLIE AVE, NORTH YORK"
      }
    ]
  },
  {
    "postal": "M2R9E8",
    "result": []
  },
  {
    "postal": "M2R1C9",
    "result": [
      {
        "electoralDistricts": [
          {
            "election": null,
            "id": 117,
            "name": "Willowdale"
          }
        ],
        "pollDivisionIds": [
          10142612
        ],
        "postalCode": "M2R1C9",
        "streetName": "FARRELL",
        "streetDirectionId": null,
        "streetTypeId": "AVE",
        "placeName": "NORTH YORK",
        "streetNameDisplayText": "FARRELL AVE, NORTH YORK"
      }
    ]
  },
  {
    "postal": "M2R3B5",
    "result": [
      {
        "electoralDistricts": [
          {
            "election": null,
            "id": 120,
            "name": "York Centre"
          }
        ],
        "pollDivisionIds": [
          10142843
        ],
        "postalCode": "M2R3B5",
        "streetName": "SHENSTONE",
        "streetDirectionId": null,
        "streetTypeId": "RD",
        "placeName": "NORTH YORK",
        "streetNameDisplayText": "SHENSTONE RD, NORTH YORK"
      }
    ]
  },
  {
    "postal": "M2R8R0",
    "result": []
  },
  {
    "postal": "M2R3P2",
    "result": [
      {
        "electoralDistricts": [
          {
            "election": null,
            "id": 120,
            "name": "York Centre"
          }
        ],
        "pollDivisionIds": [
          10142845
        ],
        "postalCode": "M2R3P2",
        "streetName": "DOLLERY",
        "streetDirectionId": null,
        "streetTypeId": "CRT",
        "placeName": "NORTH YORK",
        "streetNameDisplayText": "DOLLERY CRT, NORTH YORK"
      }
    ]
  },
  {
    "postal": "M2R5V4",
    "result": []
  },
  {
    "postal": "M2R4H0",
    "result": []
  },
  {
    "postal": "M2R4S7",
    "result": []
  },
  {
    "postal": "M2R6C2",
    "result": []
  },
  {
    "postal": "M2R8W3",
    "result": []
  },
  {
    "postal": "M2R4M5",
    "result": []
  },
  {
    "postal": "M2R5T1",
    "result": []
  },
  {
    "postal": "M2R3B3",
    "result": [
      {
        "electoralDistricts": [
          {
            "election": null,
            "id": 120,
            "name": "York Centre"
          }
        ],
        "pollDivisionIds": [
          10142843
        ],
        "postalCode": "M2R3B3",
        "streetName": "SHENSTONE",
        "streetDirectionId": null,
        "streetTypeId": "RD",
        "placeName": "NORTH YORK",
        "streetNameDisplayText": "SHENSTONE RD, NORTH YORK"
      }
    ]
  },
  {
    "postal": "M2R6C6",
    "result": []
  },
  {
    "postal": "M2R7N8",
    "result": []
  },
  {
    "postal": "M2R2Y3",
    "result": [
      {
        "electoralDistricts": [
          {
            "election": null,
            "id": 117,
            "name": "Willowdale"
          }
        ],
        "pollDivisionIds": [
          10142602
        ],
        "postalCode": "M2R2Y3",
        "streetName": "ROBSON",
        "streetDirectionId": null,
        "streetTypeId": "PL",
        "placeName": "NORTH YORK",
        "streetNameDisplayText": "ROBSON PL, NORTH YORK"
      }
    ]
  },
  {
    "postal": "M2R2R6",
    "result": [
      {
        "electoralDistricts": [
          {
            "election": null,
            "id": 117,
            "name": "Willowdale"
          }
        ],
        "pollDivisionIds": [
          10142602
        ],
        "postalCode": "M2R2R6",
        "streetName": "MOORE PARK",
        "streetDirectionId": null,
        "streetTypeId": "AVE",
        "placeName": "NORTH YORK",
        "streetNameDisplayText": "MOORE PARK AVE, NORTH YORK"
      }
    ]
  },
  {
    "postal": "M2R7N3",
    "result": []
  },
  {
    "postal": "M2R8J2",
    "result": []
  },
  {
    "postal": "M2R6A9",
    "result": []
  },
  {
    "postal": "M2R3V2",
    "result": [
      {
        "electoralDistricts": [
          {
            "election": null,
            "id": 120,
            "name": "York Centre"
          }
        ],
        "pollDivisionIds": [
          10142849
        ],
        "postalCode": "M2R3V2",
        "streetName": "BATHURST",
        "streetDirectionId": null,
        "streetTypeId": "ST",
        "placeName": "NORTH YORK",
        "streetNameDisplayText": "BATHURST ST, NORTH YORK"
      }
    ]
  },
  {
    "postal": "M2R2N3",
    "result": [
      {
        "electoralDistricts": [
          {
            "election": null,
            "id": 117,
            "name": "Willowdale"
          }
        ],
        "pollDivisionIds": [
          10142602
        ],
        "postalCode": "M2R2N3",
        "streetName": "HOMEWOOD",
        "streetDirectionId": null,
        "streetTypeId": "AVE",
        "placeName": "NORTH YORK",
        "streetNameDisplayText": "HOMEWOOD AVE, NORTH YORK"
      }
    ]
  },
  {
    "postal": "M2R1S5",
    "result": [
      {
        "electoralDistricts": [
          {
            "election": null,
            "id": 117,
            "name": "Willowdale"
          }
        ],
        "pollDivisionIds": [
          10142612
        ],
        "postalCode": "M2R1S5",
        "streetName": "WYNN",
        "streetDirectionId": null,
        "streetTypeId": "RD",
        "placeName": "NORTH YORK",
        "streetNameDisplayText": "WYNN RD, NORTH YORK"
      }
    ]
  },
  {
    "postal": "M2R4T7",
    "result": []
  },
  {
    "postal": "M2R6Y7",
    "result": []
  },
  {
    "postal": "M2R0W7",
    "result": []
  },
  {
    "postal": "M2R2W9",
    "result": [
      {
        "electoralDistricts": [
          {
            "election": null,
            "id": 117,
            "name": "Willowdale"
          }
        ],
        "pollDivisionIds": [
          10142602
        ],
        "postalCode": "M2R2W9",
        "streetName": "ELISE",
        "streetDirectionId": null,
        "streetTypeId": "TERR",
        "placeName": "NORTH YORK",
        "streetNameDisplayText": "ELISE TERR, NORTH YORK"
      }
    ]
  },
  {
    "postal": "M2R8V0",
    "result": []
  },
  {
    "postal": "M2R0H4",
    "result": []
  },
  {
    "postal": "M2R2T1",
    "result": [
      {
        "electoralDistricts": [
          {
            "election": null,
            "id": 120,
            "name": "York Centre"
          }
        ],
        "pollDivisionIds": [
          10142866
        ],
        "postalCode": "M2R2T1",
        "streetName": "STEELES",
        "streetDirectionId": "W",
        "streetTypeId": "AVE",
        "placeName": "NORTH YORK",
        "streetNameDisplayText": "STEELES AVE W, NORTH YORK"
      }
    ]
  },
  {
    "postal": "M2R1B1",
    "result": [
      {
        "electoralDistricts": [
          {
            "election": null,
            "id": 117,
            "name": "Willowdale"
          }
        ],
        "pollDivisionIds": [
          10142612
        ],
        "postalCode": "M2R1B1",
        "streetName": "BETTY ANN",
        "streetDirectionId": null,
        "streetTypeId": "DR",
        "placeName": "NORTH YORK",
        "streetNameDisplayText": "BETTY ANN DR, NORTH YORK"
      }
    ]
  },
  {
    "postal": "M2R8B6",
    "result": []
  },
  {
    "postal": "M2R6H1",
    "result": []
  },
  {
    "postal": "M2R8T8",
    "result": []
  },
  {
    "postal": "M2R0T4",
    "result": []
  },
  {
    "postal": "M2R2C4",
    "result": [
      {
        "electoralDistricts": [
          {
            "election": null,
            "id": 120,
            "name": "York Centre"
          }
        ],
        "pollDivisionIds": [
          10142879
        ],
        "postalCode": "M2R2C4",
        "streetName": "GOLDFINCH",
        "streetDirectionId": null,
        "streetTypeId": "CRT",
        "placeName": "NORTH YORK",
        "streetNameDisplayText": "GOLDFINCH CRT, NORTH YORK"
      }
    ]
  },
  {
    "postal": "M2R8N3",
    "result": []
  },
  {
    "postal": "M2R4L8",
    "result": []
  },
  {
    "postal": "M2R2B5",
    "result": [
      {
        "electoralDistricts": [
          {
            "election": null,
            "id": 120,
            "name": "York Centre"
          }
        ],
        "pollDivisionIds": [
          10142846
        ],
        "postalCode": "M2R2B5",
        "streetName": "VIRGILWOOD",
        "streetDirectionId": null,
        "streetTypeId": "DR",
        "placeName": "NORTH YORK",
        "streetNameDisplayText": "VIRGILWOOD DR, NORTH YORK"
      }
    ]
  },
  {
    "postal": "M2R3H1",
    "result": [
      {
        "electoralDistricts": [
          {
            "election": null,
            "id": 120,
            "name": "York Centre"
          }
        ],
        "pollDivisionIds": [
          10142846
        ],
        "postalCode": "M2R3H1",
        "streetName": "GLADE CARSEWAY",
        "streetDirectionId": null,
        "streetTypeId": "WAY",
        "placeName": "NORTH YORK",
        "streetNameDisplayText": "GLADE CARSEWAY WAY, NORTH YORK"
      }
    ]
  },
  {
    "postal": "M2R4Y1",
    "result": []
  },
  {
    "postal": "M2R7E2",
    "result": []
  },
  {
    "postal": "M2R2P5",
    "result": [
      {
        "electoralDistricts": [
          {
            "election": null,
            "id": 117,
            "name": "Willowdale"
          }
        ],
        "pollDivisionIds": [
          10142602
        ],
        "postalCode": "M2R2P5",
        "streetName": "GOULDING",
        "streetDirectionId": null,
        "streetTypeId": "AVE",
        "placeName": "NORTH YORK",
        "streetNameDisplayText": "GOULDING AVE, NORTH YORK"
      }
    ]
  },
  {
    "postal": "M2R8R7",
    "result": []
  },
  {
    "postal": "M2R9P1",
    "result": []
  },
  {
    "postal": "M2R3B8",
    "result": [
      {
        "electoralDistricts": [
          {
            "election": null,
            "id": 120,
            "name": "York Centre"
          }
        ],
        "pollDivisionIds": [
          10142843
        ],
        "postalCode": "M2R3B8",
        "streetName": "FISHERVILLE",
        "streetDirectionId": null,
        "streetTypeId": "RD",
        "placeName": "NORTH YORK",
        "streetNameDisplayText": "FISHERVILLE RD, NORTH YORK"
      }
    ]
  },
  {
    "postal": "M2R3P7",
    "result": [
      {
        "electoralDistricts": [
          {
            "election": null,
            "id": 120,
            "name": "York Centre"
          }
        ],
        "pollDivisionIds": [
          10142845
        ],
        "postalCode": "M2R3P7",
        "streetName": "IVAN NELSON",
        "streetDirectionId": null,
        "streetTypeId": "DR",
        "placeName": "NORTH YORK",
        "streetNameDisplayText": "IVAN NELSON DR, NORTH YORK"
      }
    ]
  },
  {
    "postal": "M2R9B2",
    "result": []
  },
  {
    "postal": "M2R6Z3",
    "result": []
  },
  {
    "postal": "M2R4N5",
    "result": []
  },
  {
    "postal": "M2R8T3",
    "result": []
  },
  {
    "postal": "M2R1V2",
    "result": [
      {
        "electoralDistricts": [
          {
            "election": null,
            "id": 117,
            "name": "Willowdale"
          }
        ],
        "pollDivisionIds": [
          10142612
        ],
        "postalCode": "M2R1V2",
        "streetName": "STAFFORD",
        "streetDirectionId": null,
        "streetTypeId": "RD",
        "placeName": "NORTH YORK",
        "streetNameDisplayText": "STAFFORD RD, NORTH YORK"
      }
    ]
  },
  {
    "postal": "M2R1Y0",
    "result": []
  },
  {
    "postal": "M2R3G6",
    "result": []
  },
  {
    "postal": "M2R3H7",
    "result": [
      {
        "electoralDistricts": [
          {
            "election": null,
            "id": 120,
            "name": "York Centre"
          }
        ],
        "pollDivisionIds": [
          10142846
        ],
        "postalCode": "M2R3H7",
        "streetName": "WOODED CARSEWAY",
        "streetDirectionId": null,
        "streetTypeId": "WAY",
        "placeName": "NORTH YORK",
        "streetNameDisplayText": "WOODED CARSEWAY WAY, NORTH YORK"
      },
      {
        "electoralDistricts": [
          {
            "election": null,
            "id": 120,
            "name": "York Centre"
          }
        ],
        "pollDivisionIds": [
          10142846
        ],
        "postalCode": "M2R3H7",
        "streetName": "WOODED CARSEWAY",
        "streetDirectionId": null,
        "streetTypeId": null,
        "placeName": "NORTH YORK",
        "streetNameDisplayText": "WOODED CARSEWAY, NORTH YORK"
      }
    ]
  },
  {
    "postal": "M2R7X8",
    "result": []
  },
  {
    "postal": "M2R0C7",
    "result": []
  },
  {
    "postal": "M2R0W9",
    "result": []
  },
  {
    "postal": "M2R8E6",
    "result": []
  },
  {
    "postal": "M2R9Z8",
    "result": []
  },
  {
    "postal": "M2R3P4",
    "result": [
      {
        "electoralDistricts": [
          {
            "election": null,
            "id": 120,
            "name": "York Centre"
          }
        ],
        "pollDivisionIds": [
          10142845
        ],
        "postalCode": "M2R3P4",
        "streetName": "HENRY WELSH",
        "streetDirectionId": null,
        "streetTypeId": "DR",
        "placeName": "NORTH YORK",
        "streetNameDisplayText": "HENRY WELSH DR, NORTH YORK"
      }
    ]
  },
  {
    "postal": "M2R6L8",
    "result": []
  },
  {
    "postal": "M2R2R4",
    "result": [
      {
        "electoralDistricts": [
          {
            "election": null,
            "id": 117,
            "name": "Willowdale"
          }
        ],
        "pollDivisionIds": [
          10142602
        ],
        "postalCode": "M2R2R4",
        "streetName": "PLEASANT",
        "streetDirectionId": null,
        "streetTypeId": "AVE",
        "placeName": "NORTH YORK",
        "streetNameDisplayText": "PLEASANT AVE, NORTH YORK"
      }
    ]
  },
  {
    "postal": "M2R2W1",
    "result": [
      {
        "electoralDistricts": [
          {
            "election": null,
            "id": 117,
            "name": "Willowdale"
          }
        ],
        "pollDivisionIds": [
          10142602
        ],
        "postalCode": "M2R2W1",
        "streetName": "CHELMSFORD",
        "streetDirectionId": null,
        "streetTypeId": "AVE",
        "placeName": "NORTH YORK",
        "streetNameDisplayText": "CHELMSFORD AVE, NORTH YORK"
      }
    ]
  },
  {
    "postal": "M2R9H8",
    "result": []
  },
  {
    "postal": "M2R8X9",
    "result": []
  },
  {
    "postal": "M2R7H4",
    "result": []
  },
  {
    "postal": "M2R3J1",
    "result": [
      {
        "electoralDistricts": [
          {
            "election": null,
            "id": 120,
            "name": "York Centre"
          }
        ],
        "pollDivisionIds": [
          10142844
        ],
        "postalCode": "M2R3J1",
        "streetName": "PLUM TREEWAY",
        "streetDirectionId": null,
        "streetTypeId": "WAY",
        "placeName": "NORTH YORK",
        "streetNameDisplayText": "PLUM TREEWAY WAY, NORTH YORK"
      }
    ]
  },
  {
    "postal": "M2R1P4",
    "result": [
      {
        "electoralDistricts": [
          {
            "election": null,
            "id": 117,
            "name": "Willowdale"
          }
        ],
        "pollDivisionIds": [
          10142612
        ],
        "postalCode": "M2R1P4",
        "streetName": "SENLAC",
        "streetDirectionId": null,
        "streetTypeId": "RD",
        "placeName": "NORTH YORK",
        "streetNameDisplayText": "SENLAC RD, NORTH YORK"
      }
    ]
  },
  {
    "postal": "M2R2A3",
    "result": [
      {
        "electoralDistricts": [
          {
            "election": null,
            "id": 120,
            "name": "York Centre"
          }
        ],
        "pollDivisionIds": [
          10142868
        ],
        "postalCode": "M2R2A3",
        "streetName": "BATHURST",
        "streetDirectionId": null,
        "streetTypeId": "ST",
        "placeName": "NORTH YORK",
        "streetNameDisplayText": "BATHURST ST, NORTH YORK"
      }
    ]
  },
  {
    "postal": "M2R0Z1",
    "result": []
  },
  {
    "postal": "M2R1C1",
    "result": [
      {
        "electoralDistricts": [
          {
            "election": null,
            "id": 117,
            "name": "Willowdale"
          }
        ],
        "pollDivisionIds": [
          10142612
        ],
        "postalCode": "M2R1C1",
        "streetName": "ELLERSLIE",
        "streetDirectionId": null,
        "streetTypeId": "AVE",
        "placeName": "NORTH YORK",
        "streetNameDisplayText": "ELLERSLIE AVE, NORTH YORK"
      }
    ]
  },
  {
    "postal": "M2R0H3",
    "result": []
  },
  {
    "postal": "M2R7B0",
    "result": []
  },
  {
    "postal": "M2R5K2",
    "result": []
  },
  {
    "postal": "M2R1E9",
    "result": [
      {
        "electoralDistricts": [
          {
            "election": null,
            "id": 117,
            "name": "Willowdale"
          }
        ],
        "pollDivisionIds": [
          10142612,
          10142611
        ],
        "postalCode": "M2R1E9",
        "streetName": "TERRACE",
        "streetDirectionId": null,
        "streetTypeId": "AVE",
        "placeName": "NORTH YORK",
        "streetNameDisplayText": "TERRACE AVE, NORTH YORK"
      }
    ]
  },
  {
    "postal": "M2R9W7",
    "result": []
  },
  {
    "postal": "M2R5W6",
    "result": []
  },
  {
    "postal": "M2R6S6",
    "result": []
  },
  {
    "postal": "M2R2P8",
    "result": [
      {
        "electoralDistricts": [
          {
            "election": null,
            "id": 117,
            "name": "Willowdale"
          }
        ],
        "pollDivisionIds": [
          10142602
        ],
        "postalCode": "M2R2P8",
        "streetName": "DEWLANE",
        "streetDirectionId": null,
        "streetTypeId": "DR",
        "placeName": "NORTH YORK",
        "streetNameDisplayText": "DEWLANE DR, NORTH YORK"
      }
    ]
  },
  {
    "postal": "M2R4P8",
    "result": []
  },
  {
    "postal": "M2R0V9",
    "result": []
  },
  {
    "postal": "M2R5Y2",
    "result": []
  },
  {
    "postal": "M2R7Z7",
    "result": []
  },
  {
    "postal": "M2R6Y8",
    "result": []
  },
  {
    "postal": "M2R2G7",
    "result": [
      {
        "electoralDistricts": [
          {
            "election": null,
            "id": 117,
            "name": "Willowdale"
          }
        ],
        "pollDivisionIds": [
          10142610
        ],
        "postalCode": "M2R2G7",
        "streetName": "CLARKHILL",
        "streetDirectionId": null,
        "streetTypeId": "ST",
        "placeName": "NORTH YORK",
        "streetNameDisplayText": "CLARKHILL ST, NORTH YORK"
      }
    ]
  },
  {
    "postal": "M2R8C1",
    "result": []
  },
  {
    "postal": "M2R5C5",
    "result": []
  },
  {
    "postal": "M2R2X8",
    "result": [
      {
        "electoralDistricts": [
          {
            "election": null,
            "id": 117,
            "name": "Willowdale"
          }
        ],
        "pollDivisionIds": [
          10142602
        ],
        "postalCode": "M2R2X8",
        "streetName": "REGATTA",
        "streetDirectionId": null,
        "streetTypeId": "CRES",
        "placeName": "NORTH YORK",
        "streetNameDisplayText": "REGATTA CRES, NORTH YORK"
      }
    ]
  },
  {
    "postal": "M2R1W5",
    "result": [
      {
        "electoralDistricts": [
          {
            "election": null,
            "id": 117,
            "name": "Willowdale"
          }
        ],
        "pollDivisionIds": [
          10142612
        ],
        "postalCode": "M2R1W5",
        "streetName": "COMMUNITY",
        "streetDirectionId": null,
        "streetTypeId": "CIR",
        "placeName": "NORTH YORK",
        "streetNameDisplayText": "COMMUNITY CIR, NORTH YORK"
      }
    ]
  },
  {
    "postal": "M2R7G0",
    "result": []
  },
  {
    "postal": "M2R8J8",
    "result": []
  },
  {
    "postal": "M2R3Y0",
    "result": []
  },
  {
    "postal": "M2R9T7",
    "result": []
  },
  {
    "postal": "M2R5P4",
    "result": []
  },
  {
    "postal": "M2R4B0",
    "result": []
  },
  {
    "postal": "M2R9N8",
    "result": []
  },
  {
    "postal": "M2R4A7",
    "result": []
  },
  {
    "postal": "M2R4H9",
    "result": []
  },
  {
    "postal": "M2R6X1",
    "result": []
  },
  {
    "postal": "M2R9Y7",
    "result": []
  },
  {
    "postal": "M2R2Y5",
    "result": [
      {
        "electoralDistricts": [
          {
            "election": null,
            "id": 117,
            "name": "Willowdale"
          }
        ],
        "pollDivisionIds": [
          10142602
        ],
        "postalCode": "M2R2Y5",
        "streetName": "DORNFELL",
        "streetDirectionId": null,
        "streetTypeId": "ST",
        "placeName": "NORTH YORK",
        "streetNameDisplayText": "DORNFELL ST, NORTH YORK"
      }
    ]
  },
  {
    "postal": "M2R8L7",
    "result": []
  },
  {
    "postal": "M2R2A8",
    "result": [
      {
        "electoralDistricts": [
          {
            "election": null,
            "id": 120,
            "name": "York Centre"
          }
        ],
        "pollDivisionIds": [
          10142846
        ],
        "postalCode": "M2R2A8",
        "streetName": "CARSCADDEN",
        "streetDirectionId": null,
        "streetTypeId": "DR",
        "placeName": "NORTH YORK",
        "streetNameDisplayText": "CARSCADDEN DR, NORTH YORK"
      }
    ]
  },
  {
    "postal": "M2R2K9",
    "result": [
      {
        "electoralDistricts": [
          {
            "election": null,
            "id": 117,
            "name": "Willowdale"
          }
        ],
        "pollDivisionIds": [
          10142602
        ],
        "postalCode": "M2R2K9",
        "streetName": "DREWRY",
        "streetDirectionId": null,
        "streetTypeId": "AVE",
        "placeName": "NORTH YORK",
        "streetNameDisplayText": "DREWRY AVE, NORTH YORK"
      }
    ]
  },
  {
    "postal": "M2R3E5",
    "result": [
      {
        "electoralDistricts": [
          {
            "election": null,
            "id": 120,
            "name": "York Centre"
          }
        ],
        "pollDivisionIds": [
          10142843
        ],
        "postalCode": "M2R3E5",
        "streetName": "TORRESDALE",
        "streetDirectionId": null,
        "streetTypeId": "AVE",
        "placeName": "NORTH YORK",
        "streetNameDisplayText": "TORRESDALE AVE, NORTH YORK"
      }
    ]
  },
  {
    "postal": "M2R8N6",
    "result": []
  },
  {
    "postal": "M2R8J4",
    "result": []
  },
  {
    "postal": "M2R4R7",
    "result": []
  },
  {
    "postal": "M2R9K1",
    "result": []
  },
  {
    "postal": "M2R8E1",
    "result": []
  },
  {
    "postal": "M2R0R1",
    "result": []
  },
  {
    "postal": "M2R4J3",
    "result": []
  },
  {
    "postal": "M2R7E7",
    "result": []
  },
  {
    "postal": "M2R0J0",
    "result": []
  },
  {
    "postal": "M2R7R8",
    "result": []
  },
  {
    "postal": "M2R9X0",
    "result": []
  },
  {
    "postal": "M2R7P6",
    "result": []
  },
  {
    "postal": "M2R0R7",
    "result": []
  },
  {
    "postal": "M2R5W1",
    "result": []
  },
  {
    "postal": "M2R0K4",
    "result": []
  },
  {
    "postal": "M2R7N9",
    "result": []
  },
  {
    "postal": "M2R1N0",
    "result": []
  },
  {
    "postal": "M2R6P3",
    "result": []
  },
  {
    "postal": "M2R5A1",
    "result": []
  },
  {
    "postal": "M2R9M9",
    "result": []
  },
  {
    "postal": "M2R7T6",
    "result": []
  },
  {
    "postal": "M2R3X0",
    "result": []
  },
  {
    "postal": "M2R2T0",
    "result": []
  },
  {
    "postal": "M2R5X9",
    "result": []
  },
  {
    "postal": "M2R2R3",
    "result": [
      {
        "electoralDistricts": [
          {
            "election": null,
            "id": 117,
            "name": "Willowdale"
          }
        ],
        "pollDivisionIds": [
          10142602
        ],
        "postalCode": "M2R2R3",
        "streetName": "PLEASANT",
        "streetDirectionId": null,
        "streetTypeId": "AVE",
        "placeName": "NORTH YORK",
        "streetNameDisplayText": "PLEASANT AVE, NORTH YORK"
      }
    ]
  },
  {
    "postal": "M2R5N2",
    "result": []
  },
  {
    "postal": "M2R4Y7",
    "result": []
  },
  {
    "postal": "M2R7M0",
    "result": []
  },
  {
    "postal": "M2R8P3",
    "result": []
  },
  {
    "postal": "M2R3N3",
    "result": [
      {
        "electoralDistricts": [
          {
            "election": null,
            "id": 22,
            "name": "Don Valley West"
          }
        ],
        "pollDivisionIds": [
          10137735
        ],
        "postalCode": "M2R3N3",
        "streetName": "TORRESDALE",
        "streetDirectionId": "N",
        "streetTypeId": "AVE",
        "placeName": "NORTH YORK",
        "streetNameDisplayText": "TORRESDALE AVE N, NORTH YORK"
      },
      {
        "electoralDistricts": [
          {
            "election": null,
            "id": 120,
            "name": "York Centre"
          }
        ],
        "pollDivisionIds": [
          10142843
        ],
        "postalCode": "M2R3N3",
        "streetName": "TORRESDALE",
        "streetDirectionId": null,
        "streetTypeId": "AVE",
        "placeName": "NORTH YORK",
        "streetNameDisplayText": "TORRESDALE AVE, NORTH YORK"
      }
    ]
  },
  {
    "postal": "M2R7S3",
    "result": []
  },
  {
    "postal": "M2R3V9",
    "result": [
      {
        "electoralDistricts": [
          {
            "election": null,
            "id": 120,
            "name": "York Centre"
          }
        ],
        "pollDivisionIds": [
          10142843
        ],
        "postalCode": "M2R3V9",
        "streetName": "ROCKFORD",
        "streetDirectionId": null,
        "streetTypeId": "RD",
        "placeName": "NORTH YORK",
        "streetNameDisplayText": "ROCKFORD RD, NORTH YORK"
      }
    ]
  },
  {
    "postal": "M2R9N7",
    "result": []
  },
  {
    "postal": "M2R0G4",
    "result": []
  },
  {
    "postal": "M2R2E2",
    "result": [
      {
        "electoralDistricts": [
          {
            "election": null,
            "id": 117,
            "name": "Willowdale"
          }
        ],
        "pollDivisionIds": [
          10142610
        ],
        "postalCode": "M2R2E2",
        "streetName": "DEVONDALE",
        "streetDirectionId": null,
        "streetTypeId": "AVE",
        "placeName": "NORTH YORK",
        "streetNameDisplayText": "DEVONDALE AVE, NORTH YORK"
      }
    ]
  },
  {
    "postal": "M2R7W8",
    "result": []
  },
  {
    "postal": "M2R7M5",
    "result": []
  },
  {
    "postal": "M2R5W8",
    "result": []
  },
  {
    "postal": "M2R5E5",
    "result": []
  },
  {
    "postal": "M2R1P9",
    "result": [
      {
        "electoralDistricts": [
          {
            "election": null,
            "id": 117,
            "name": "Willowdale"
          }
        ],
        "pollDivisionIds": [
          10142611
        ],
        "postalCode": "M2R1P9",
        "streetName": "SENLAC",
        "streetDirectionId": null,
        "streetTypeId": "RD",
        "placeName": "NORTH YORK",
        "streetNameDisplayText": "SENLAC RD, NORTH YORK"
      }
    ]
  },
  {
    "postal": "M2R8V8",
    "result": []
  },
  {
    "postal": "M2R9G8",
    "result": []
  },
  {
    "postal": "M2R8H9",
    "result": []
  },
  {
    "postal": "M2R1Z1",
    "result": [
      {
        "electoralDistricts": [
          {
            "election": null,
            "id": 120,
            "name": "York Centre"
          }
        ],
        "pollDivisionIds": [
          10142871
        ],
        "postalCode": "M2R1Z1",
        "streetName": "BATHURST",
        "streetDirectionId": null,
        "streetTypeId": "ST",
        "placeName": "NORTH YORK",
        "streetNameDisplayText": "BATHURST ST, NORTH YORK"
      }
    ]
  },
  {
    "postal": "M2R8M3",
    "result": []
  },
  {
    "postal": "M2R5H6",
    "result": []
  },
  {
    "postal": "M2R7W7",
    "result": []
  },
  {
    "postal": "M2R4L0",
    "result": []
  },
  {
    "postal": "M2R2N1",
    "result": [
      {
        "electoralDistricts": [
          {
            "election": null,
            "id": 117,
            "name": "Willowdale"
          }
        ],
        "pollDivisionIds": [
          10142602
        ],
        "postalCode": "M2R2N1",
        "streetName": "PATRICIA",
        "streetDirectionId": null,
        "streetTypeId": "AVE",
        "placeName": "NORTH YORK",
        "streetNameDisplayText": "PATRICIA AVE, NORTH YORK"
      }
    ]
  },
  {
    "postal": "M2R2H4",
    "result": [
      {
        "electoralDistricts": [
          {
            "election": null,
            "id": 117,
            "name": "Willowdale"
          }
        ],
        "pollDivisionIds": [
          10142610
        ],
        "postalCode": "M2R2H4",
        "streetName": "DROMORE",
        "streetDirectionId": null,
        "streetTypeId": "CRES",
        "placeName": "NORTH YORK",
        "streetNameDisplayText": "DROMORE CRES, NORTH YORK"
      }
    ]
  },
  {
    "postal": "M2R5C8",
    "result": []
  },
  {
    "postal": "M2R8B0",
    "result": []
  },
  {
    "postal": "M2R1T4",
    "result": [
      {
        "electoralDistricts": [
          {
            "election": null,
            "id": 117,
            "name": "Willowdale"
          }
        ],
        "pollDivisionIds": [
          10142612
        ],
        "postalCode": "M2R1T4",
        "streetName": "ALONZO",
        "streetDirectionId": null,
        "streetTypeId": "RD",
        "placeName": "NORTH YORK",
        "streetNameDisplayText": "ALONZO RD, NORTH YORK"
      }
    ]
  },
  {
    "postal": "M2R7N7",
    "result": []
  },
  {
    "postal": "M2R4L3",
    "result": []
  },
  {
    "postal": "M2R2N2",
    "result": [
      {
        "electoralDistricts": [
          {
            "election": null,
            "id": 117,
            "name": "Willowdale"
          }
        ],
        "pollDivisionIds": [
          10142602
        ],
        "postalCode": "M2R2N2",
        "streetName": "PATRICIA",
        "streetDirectionId": null,
        "streetTypeId": "AVE",
        "placeName": "NORTH YORK",
        "streetNameDisplayText": "PATRICIA AVE, NORTH YORK"
      }
    ]
  },
  {
    "postal": "M2R4N8",
    "result": []
  },
  {
    "postal": "M2R3M5",
    "result": [
      {
        "electoralDistricts": [
          {
            "election": null,
            "id": 120,
            "name": "York Centre"
          }
        ],
        "pollDivisionIds": [
          10142843
        ],
        "postalCode": "M2R3M5",
        "streetName": "KITE HAWKWAY",
        "streetDirectionId": null,
        "streetTypeId": "WAY",
        "placeName": "NORTH YORK",
        "streetNameDisplayText": "KITE HAWKWAY WAY, NORTH YORK"
      }
    ]
  },
  {
    "postal": "M2R6H7",
    "result": []
  },
  {
    "postal": "M2R8Y8",
    "result": []
  },
  {
    "postal": "M2R5R9",
    "result": []
  },
  {
    "postal": "M2R8G3",
    "result": []
  },
  {
    "postal": "M2R4N7",
    "result": []
  },
  {
    "postal": "M2R0B9",
    "result": []
  },
  {
    "postal": "M2R9K7",
    "result": []
  },
  {
    "postal": "M2R9K9",
    "result": []
  },
  {
    "postal": "M2R3Z2",
    "result": []
  },
  {
    "postal": "M2R6W7",
    "result": []
  },
  {
    "postal": "M2R0P1",
    "result": []
  },
  {
    "postal": "M2R3A0",
    "result": []
  },
  {
    "postal": "M2R8L9",
    "result": []
  },
  {
    "postal": "M2R6X0",
    "result": []
  },
  {
    "postal": "M2R3E9",
    "result": [
      {
        "electoralDistricts": [
          {
            "election": null,
            "id": 120,
            "name": "York Centre"
          }
        ],
        "pollDivisionIds": [
          10142843
        ],
        "postalCode": "M2R3E9",
        "streetName": "TORRESDALE",
        "streetDirectionId": "W",
        "streetTypeId": "AVE",
        "placeName": "NORTH YORK",
        "streetNameDisplayText": "TORRESDALE AVE W, NORTH YORK"
      },
      {
        "electoralDistricts": [
          {
            "election": null,
            "id": 120,
            "name": "York Centre"
          }
        ],
        "pollDivisionIds": [
          10142843
        ],
        "postalCode": "M2R3E9",
        "streetName": "TORRESDALE",
        "streetDirectionId": null,
        "streetTypeId": "AVE",
        "placeName": "NORTH YORK",
        "streetNameDisplayText": "TORRESDALE AVE, NORTH YORK"
      }
    ]
  },
  {
    "postal": "M2R0S5",
    "result": []
  },
  {
    "postal": "M2R1A2",
    "result": [
      {
        "electoralDistricts": [
          {
            "election": null,
            "id": 117,
            "name": "Willowdale"
          }
        ],
        "pollDivisionIds": [
          10142612
        ],
        "postalCode": "M2R1A2",
        "streetName": "PARK HOME",
        "streetDirectionId": null,
        "streetTypeId": "AVE",
        "placeName": "NORTH YORK",
        "streetNameDisplayText": "PARK HOME AVE, NORTH YORK"
      }
    ]
  },
  {
    "postal": "M2R5V8",
    "result": []
  },
  {
    "postal": "M2R8C5",
    "result": []
  },
  {
    "postal": "M2R6N0",
    "result": []
  },
  {
    "postal": "M2R9E6",
    "result": []
  },
  {
    "postal": "M2R5J7",
    "result": []
  },
  {
    "postal": "M2R2R2",
    "result": [
      {
        "electoralDistricts": [
          {
            "election": null,
            "id": 117,
            "name": "Willowdale"
          }
        ],
        "pollDivisionIds": [
          10142602
        ],
        "postalCode": "M2R2R2",
        "streetName": "PLEASANT",
        "streetDirectionId": null,
        "streetTypeId": "AVE",
        "placeName": "NORTH YORK",
        "streetNameDisplayText": "PLEASANT AVE, NORTH YORK"
      }
    ]
  },
  {
    "postal": "M2R0P5",
    "result": []
  },
  {
    "postal": "M2R5A7",
    "result": []
  },
  {
    "postal": "M2R1G1",
    "result": [
      {
        "electoralDistricts": [
          {
            "election": null,
            "id": 117,
            "name": "Willowdale"
          }
        ],
        "pollDivisionIds": [
          10142612
        ],
        "postalCode": "M2R1G1",
        "streetName": "TERRACE",
        "streetDirectionId": null,
        "streetTypeId": "AVE",
        "placeName": "NORTH YORK",
        "streetNameDisplayText": "TERRACE AVE, NORTH YORK"
      }
    ]
  },
  {
    "postal": "M2R9R6",
    "result": []
  },
  {
    "postal": "M2R4Z9",
    "result": []
  },
  {
    "postal": "M2R1V5",
    "result": [
      {
        "electoralDistricts": [
          {
            "election": null,
            "id": 117,
            "name": "Willowdale"
          }
        ],
        "pollDivisionIds": [
          10142610
        ],
        "postalCode": "M2R1V5",
        "streetName": "STAFFORD",
        "streetDirectionId": null,
        "streetTypeId": "RD",
        "placeName": "NORTH YORK",
        "streetNameDisplayText": "STAFFORD RD, NORTH YORK"
      }
    ]
  },
  {
    "postal": "M2R9Y5",
    "result": []
  },
  {
    "postal": "M2R1P2",
    "result": [
      {
        "electoralDistricts": [
          {
            "election": null,
            "id": 120,
            "name": "York Centre"
          }
        ],
        "pollDivisionIds": [
          10102966,
          10142847
        ],
        "postalCode": "M2R1P2",
        "streetName": "FINCH",
        "streetDirectionId": "W",
        "streetTypeId": "AVE",
        "placeName": "NORTH YORK",
        "streetNameDisplayText": "FINCH AVE W, NORTH YORK"
      }
    ]
  },
  {
    "postal": "M2R5X0",
    "result": []
  },
  {
    "postal": "M2R7B8",
    "result": []
  },
  {
    "postal": "M2R0C6",
    "result": []
  },
  {
    "postal": "M2R6G1",
    "result": []
  },
  {
    "postal": "M2R3K3",
    "result": [
      {
        "electoralDistricts": [
          {
            "election": null,
            "id": 120,
            "name": "York Centre"
          }
        ],
        "pollDivisionIds": [
          10142844
        ],
        "postalCode": "M2R3K3",
        "streetName": "ANTIBES",
        "streetDirectionId": null,
        "streetTypeId": "DR",
        "placeName": "NORTH YORK",
        "streetNameDisplayText": "ANTIBES DR, NORTH YORK"
      }
    ]
  },
  {
    "postal": "M2R9R0",
    "result": []
  },
  {
    "postal": "M2R4R8",
    "result": []
  },
  {
    "postal": "M2R5P9",
    "result": []
  },
  {
    "postal": "M2R8N4",
    "result": []
  },
  {
    "postal": "M2R8H4",
    "result": []
  },
  {
    "postal": "M2R4V1",
    "result": []
  },
  {
    "postal": "M2R1K5",
    "result": [
      {
        "electoralDistricts": [
          {
            "election": null,
            "id": 117,
            "name": "Willowdale"
          }
        ],
        "pollDivisionIds": [
          10142610
        ],
        "postalCode": "M2R1K5",
        "streetName": "YORKVIEW",
        "streetDirectionId": null,
        "streetTypeId": "DR",
        "placeName": "NORTH YORK",
        "streetNameDisplayText": "YORKVIEW DR, NORTH YORK"
      }
    ]
  },
  {
    "postal": "M2R1Z5",
    "result": [
      {
        "electoralDistricts": [
          {
            "election": null,
            "id": 117,
            "name": "Willowdale"
          }
        ],
        "pollDivisionIds": [
          10142622
        ],
        "postalCode": "M2R1Z5",
        "streetName": "BATHURST",
        "streetDirectionId": null,
        "streetTypeId": "ST",
        "placeName": "NORTH YORK",
        "streetNameDisplayText": "BATHURST ST, NORTH YORK"
      }
    ]
  },
  {
    "postal": "M2R9L9",
    "result": []
  },
  {
    "postal": "M2R5L2",
    "result": []
  },
  {
    "postal": "M2R0M2",
    "result": []
  },
  {
    "postal": "M2R1K8",
    "result": [
      {
        "electoralDistricts": [
          {
            "election": null,
            "id": 117,
            "name": "Willowdale"
          }
        ],
        "pollDivisionIds": [
          10142610
        ],
        "postalCode": "M2R1K8",
        "streetName": "FINCHURST",
        "streetDirectionId": null,
        "streetTypeId": "DR",
        "placeName": "NORTH YORK",
        "streetNameDisplayText": "FINCHURST DR, NORTH YORK"
      }
    ]
  },
  {
    "postal": "M2R3M7",
    "result": []
  },
  {
    "postal": "M2R1B2",
    "result": [
      {
        "electoralDistricts": [
          {
            "election": null,
            "id": 117,
            "name": "Willowdale"
          }
        ],
        "pollDivisionIds": [
          10142612
        ],
        "postalCode": "M2R1B2",
        "streetName": "BETTY ANN",
        "streetDirectionId": null,
        "streetTypeId": "DR",
        "placeName": "NORTH YORK",
        "streetNameDisplayText": "BETTY ANN DR, NORTH YORK"
      }
    ]
  },
  {
    "postal": "M2R0H9",
    "result": []
  },
  {
    "postal": "M2R8M4",
    "result": []
  },
  {
    "postal": "M2R2M5",
    "result": [
      {
        "electoralDistricts": [
          {
            "election": null,
            "id": 117,
            "name": "Willowdale"
          }
        ],
        "pollDivisionIds": [
          10142602
        ],
        "postalCode": "M2R2M5",
        "streetName": "PATRICIA",
        "streetDirectionId": null,
        "streetTypeId": "AVE",
        "placeName": "NORTH YORK",
        "streetNameDisplayText": "PATRICIA AVE, NORTH YORK"
      }
    ]
  },
  {
    "postal": "M2R0T9",
    "result": []
  },
  {
    "postal": "M2R3P1",
    "result": [
      {
        "electoralDistricts": [
          {
            "election": null,
            "id": 120,
            "name": "York Centre"
          }
        ],
        "pollDivisionIds": [
          10142845
        ],
        "postalCode": "M2R3P1",
        "streetName": "DOLLERY",
        "streetDirectionId": null,
        "streetTypeId": "CRT",
        "placeName": "NORTH YORK",
        "streetNameDisplayText": "DOLLERY CRT, NORTH YORK"
      }
    ]
  },
  {
    "postal": "M2R1R6",
    "result": [
      {
        "electoralDistricts": [
          {
            "election": null,
            "id": 117,
            "name": "Willowdale"
          }
        ],
        "pollDivisionIds": [
          10142612
        ],
        "postalCode": "M2R1R6",
        "streetName": "HAZELGLEN",
        "streetDirectionId": null,
        "streetTypeId": "AVE",
        "placeName": "NORTH YORK",
        "streetNameDisplayText": "HAZELGLEN AVE, NORTH YORK"
      }
    ]
  },
  {
    "postal": "M2R9V5",
    "result": []
  },
  {
    "postal": "M2R9T0",
    "result": []
  },
  {
    "postal": "M2R0A9",
    "result": []
  },
  {
    "postal": "M2R1M3",
    "result": []
  },
  {
    "postal": "M2R1W8",
    "result": [
      {
        "electoralDistricts": [
          {
            "election": null,
            "id": 120,
            "name": "York Centre"
          }
        ],
        "pollDivisionIds": [
          10142846
        ],
        "postalCode": "M2R1W8",
        "streetName": "BATHURST",
        "streetDirectionId": null,
        "streetTypeId": "ST",
        "placeName": "NORTH YORK",
        "streetNameDisplayText": "BATHURST ST, NORTH YORK"
      }
    ]
  },
  {
    "postal": "M2R9J1",
    "result": []
  },
  {
    "postal": "M2R8N5",
    "result": []
  },
  {
    "postal": "M2R5X1",
    "result": []
  },
  {
    "postal": "M2R6S2",
    "result": []
  },
  {
    "postal": "M2R2A2",
    "result": [
      {
        "electoralDistricts": [
          {
            "election": null,
            "id": 120,
            "name": "York Centre"
          }
        ],
        "pollDivisionIds": [
          10142868
        ],
        "postalCode": "M2R2A2",
        "streetName": "BATHURST",
        "streetDirectionId": null,
        "streetTypeId": "ST",
        "placeName": "NORTH YORK",
        "streetNameDisplayText": "BATHURST ST, NORTH YORK"
      }
    ]
  },
  {
    "postal": "M2R6A6",
    "result": []
  },
  {
    "postal": "M2R0S3",
    "result": []
  },
  {
    "postal": "M2R3E7",
    "result": [
      {
        "electoralDistricts": [
          {
            "election": null,
            "id": 120,
            "name": "York Centre"
          }
        ],
        "pollDivisionIds": [
          10142843
        ],
        "postalCode": "M2R3E7",
        "streetName": "TORRESDALE",
        "streetDirectionId": null,
        "streetTypeId": "AVE",
        "placeName": "NORTH YORK",
        "streetNameDisplayText": "TORRESDALE AVE, NORTH YORK"
      }
    ]
  },
  {
    "postal": "M2R5R7",
    "result": []
  },
  {
    "postal": "M2R3R6",
    "result": [
      {
        "electoralDistricts": [
          {
            "election": null,
            "id": 120,
            "name": "York Centre"
          }
        ],
        "pollDivisionIds": [
          10142843
        ],
        "postalCode": "M2R3R6",
        "streetName": "FAWNHAVEN",
        "streetDirectionId": null,
        "streetTypeId": "CRT",
        "placeName": "NORTH YORK",
        "streetNameDisplayText": "FAWNHAVEN CRT, NORTH YORK"
      }
    ]
  },
  {
    "postal": "M2R6K4",
    "result": []
  },
  {
    "postal": "M2R2W5",
    "result": [
      {
        "electoralDistricts": [
          {
            "election": null,
            "id": 117,
            "name": "Willowdale"
          }
        ],
        "pollDivisionIds": [
          10142602
        ],
        "postalCode": "M2R2W5",
        "streetName": "CHELMSFORD",
        "streetDirectionId": null,
        "streetTypeId": "AVE",
        "placeName": "NORTH YORK",
        "streetNameDisplayText": "CHELMSFORD AVE, NORTH YORK"
      }
    ]
  },
  {
    "postal": "M2R8W4",
    "result": []
  },
  {
    "postal": "M2R9C2",
    "result": []
  },
  {
    "postal": "M2R2C0",
    "result": []
  },
  {
    "postal": "M2R0E1",
    "result": []
  },
  {
    "postal": "M2R1K9",
    "result": [
      {
        "electoralDistricts": [
          {
            "election": null,
            "id": 117,
            "name": "Willowdale"
          }
        ],
        "pollDivisionIds": [
          10142610
        ],
        "postalCode": "M2R1K9",
        "streetName": "FINCHURST",
        "streetDirectionId": null,
        "streetTypeId": "DR",
        "placeName": "NORTH YORK",
        "streetNameDisplayText": "FINCHURST DR, NORTH YORK"
      }
    ]
  },
  {
    "postal": "M2R1G7",
    "result": [
      {
        "electoralDistricts": [
          {
            "election": null,
            "id": 117,
            "name": "Willowdale"
          }
        ],
        "pollDivisionIds": [
          10142612
        ],
        "postalCode": "M2R1G7",
        "streetName": "HORSHAM",
        "streetDirectionId": null,
        "streetTypeId": "AVE",
        "placeName": "NORTH YORK",
        "streetNameDisplayText": "HORSHAM AVE, NORTH YORK"
      }
    ]
  },
  {
    "postal": "M2R4E9",
    "result": []
  },
  {
    "postal": "M2R9P0",
    "result": []
  },
  {
    "postal": "M2R5H3",
    "result": []
  },
  {
    "postal": "M2R9X6",
    "result": []
  },
  {
    "postal": "M2R5N7",
    "result": []
  },
  {
    "postal": "M2R5A6",
    "result": []
  },
  {
    "postal": "M2R4M0",
    "result": []
  },
  {
    "postal": "M2R3V6",
    "result": [
      {
        "electoralDistricts": [
          {
            "election": null,
            "id": 120,
            "name": "York Centre"
          }
        ],
        "pollDivisionIds": [
          10142843
        ],
        "postalCode": "M2R3V6",
        "streetName": "CARRIAGE",
        "streetDirectionId": null,
        "streetTypeId": "LANE",
        "placeName": "NORTH YORK",
        "streetNameDisplayText": "CARRIAGE LANE, NORTH YORK"
      }
    ]
  },
  {
    "postal": "M2R1L7",
    "result": [
      {
        "electoralDistricts": [
          {
            "election": null,
            "id": 117,
            "name": "Willowdale"
          }
        ],
        "pollDivisionIds": [
          10142610
        ],
        "postalCode": "M2R1L7",
        "streetName": "BEVDALE",
        "streetDirectionId": null,
        "streetTypeId": "RD",
        "placeName": "NORTH YORK",
        "streetNameDisplayText": "BEVDALE RD, NORTH YORK"
      }
    ]
  },
  {
    "postal": "M2R2P9",
    "result": [
      {
        "electoralDistricts": [
          {
            "election": null,
            "id": 117,
            "name": "Willowdale"
          }
        ],
        "pollDivisionIds": [
          10142602
        ],
        "postalCode": "M2R2P9",
        "streetName": "DEWLANE",
        "streetDirectionId": null,
        "streetTypeId": "DR",
        "placeName": "NORTH YORK",
        "streetNameDisplayText": "DEWLANE DR, NORTH YORK"
      }
    ]
  },
  {
    "postal": "M2R5T4",
    "result": []
  },
  {
    "postal": "M2R5Z1",
    "result": []
  },
  {
    "postal": "M2R2X0",
    "result": []
  },
  {
    "postal": "M2R6Z2",
    "result": []
  },
  {
    "postal": "M2R0E0",
    "result": []
  },
  {
    "postal": "M2R3Z5",
    "result": []
  },
  {
    "postal": "M2R8H3",
    "result": []
  },
  {
    "postal": "M2R7S6",
    "result": []
  },
  {
    "postal": "M2R4C1",
    "result": []
  },
  {
    "postal": "M2R3K2",
    "result": [
      {
        "electoralDistricts": [
          {
            "election": null,
            "id": 120,
            "name": "York Centre"
          }
        ],
        "pollDivisionIds": [
          10142844
        ],
        "postalCode": "M2R3K2",
        "streetName": "TORRESDALE",
        "streetDirectionId": null,
        "streetTypeId": "AVE",
        "placeName": "NORTH YORK",
        "streetNameDisplayText": "TORRESDALE AVE, NORTH YORK"
      }
    ]
  },
  {
    "postal": "M2R1Y5",
    "result": [
      {
        "electoralDistricts": [
          {
            "election": null,
            "id": 117,
            "name": "Willowdale"
          }
        ],
        "pollDivisionIds": [
          10142610
        ],
        "postalCode": "M2R1Y5",
        "streetName": "BATHURST",
        "streetDirectionId": null,
        "streetTypeId": "ST",
        "placeName": "NORTH YORK",
        "streetNameDisplayText": "BATHURST ST, NORTH YORK"
      }
    ]
  },
  {
    "postal": "M2R6P6",
    "result": []
  },
  {
    "postal": "M2R3N9",
    "result": [
      {
        "electoralDistricts": [
          {
            "election": null,
            "id": 120,
            "name": "York Centre"
          }
        ],
        "pollDivisionIds": [
          10142845
        ],
        "postalCode": "M2R3N9",
        "streetName": "DOLLERY",
        "streetDirectionId": null,
        "streetTypeId": "CRT",
        "placeName": "NORTH YORK",
        "streetNameDisplayText": "DOLLERY CRT, NORTH YORK"
      }
    ]
  },
  {
    "postal": "M2R3W2",
    "result": [
      {
        "electoralDistricts": [
          {
            "election": null,
            "id": 120,
            "name": "York Centre"
          }
        ],
        "pollDivisionIds": [
          10142846
        ],
        "postalCode": "M2R3W2",
        "streetName": "BATHURST",
        "streetDirectionId": null,
        "streetTypeId": "ST",
        "placeName": "NORTH YORK",
        "streetNameDisplayText": "BATHURST ST, NORTH YORK"
      }
    ]
  },
  {
    "postal": "M2R6H8",
    "result": []
  },
  {
    "postal": "M2R9T3",
    "result": []
  },
  {
    "postal": "M2R5L9",
    "result": []
  },
  {
    "postal": "M2R7X7",
    "result": []
  },
  {
    "postal": "M2R3J5",
    "result": [
      {
        "electoralDistricts": [
          {
            "election": null,
            "id": 120,
            "name": "York Centre"
          }
        ],
        "pollDivisionIds": [
          10142844
        ],
        "postalCode": "M2R3J5",
        "streetName": "CANDLE LITEWAY",
        "streetDirectionId": null,
        "streetTypeId": null,
        "placeName": "NORTH YORK",
        "streetNameDisplayText": "CANDLE LITEWAY, NORTH YORK"
      }
    ]
  },
  {
    "postal": "M2R4J5",
    "result": []
  },
  {
    "postal": "M2R6J2",
    "result": []
  },
  {
    "postal": "M2R5V6",
    "result": []
  },
  {
    "postal": "M2R3N2",
    "result": [
      {
        "electoralDistricts": [
          {
            "election": null,
            "id": 120,
            "name": "York Centre"
          }
        ],
        "pollDivisionIds": [
          10142843
        ],
        "postalCode": "M2R3N2",
        "streetName": "STEELES",
        "streetDirectionId": "W",
        "streetTypeId": "AVE",
        "placeName": "NORTH YORK",
        "streetNameDisplayText": "STEELES AVE W, NORTH YORK"
      },
      {
        "electoralDistricts": [
          {
            "election": null,
            "id": 120,
            "name": "York Centre"
          }
        ],
        "pollDivisionIds": [
          10142843
        ],
        "postalCode": "M2R3N2",
        "streetName": "STEELES AVE.WEST",
        "streetDirectionId": "W",
        "streetTypeId": "AVE",
        "placeName": "NORTH YORK",
        "streetNameDisplayText": "STEELES AVE.WEST AVE W, NORTH YORK"
      }
    ]
  },
  {
    "postal": "M2R3B1",
    "result": [
      {
        "electoralDistricts": [
          {
            "election": null,
            "id": 120,
            "name": "York Centre"
          }
        ],
        "pollDivisionIds": [
          10142843
        ],
        "postalCode": "M2R3B1",
        "streetName": "RUSSFAX",
        "streetDirectionId": null,
        "streetTypeId": "DR",
        "placeName": "NORTH YORK",
        "streetNameDisplayText": "RUSSFAX DR, NORTH YORK"
      }
    ]
  },
  {
    "postal": "M2R8B5",
    "result": []
  },
  {
    "postal": "M2R0K1",
    "result": []
  },
  {
    "postal": "M2R7M7",
    "result": []
  },
  {
    "postal": "M2R2M2",
    "result": [
      {
        "electoralDistricts": [
          {
            "election": null,
            "id": 117,
            "name": "Willowdale"
          }
        ],
        "pollDivisionIds": [
          10142602
        ],
        "postalCode": "M2R2M2",
        "streetName": "CONNAUGHT",
        "streetDirectionId": null,
        "streetTypeId": "AVE",
        "placeName": "NORTH YORK",
        "streetNameDisplayText": "CONNAUGHT AVE, NORTH YORK"
      }
    ]
  },
  {
    "postal": "M2R9N3",
    "result": []
  },
  {
    "postal": "M2R4Y8",
    "result": []
  },
  {
    "postal": "M2R3V7",
    "result": [
      {
        "electoralDistricts": [
          {
            "election": null,
            "id": 117,
            "name": "Willowdale"
          }
        ],
        "pollDivisionIds": [
          10142623
        ],
        "postalCode": "M2R3V7",
        "streetName": "BATHURST",
        "streetDirectionId": null,
        "streetTypeId": "ST",
        "placeName": "NORTH YORK",
        "streetNameDisplayText": "BATHURST ST, NORTH YORK"
      }
    ]
  },
  {
    "postal": "M2R8Z1",
    "result": []
  },
  {
    "postal": "M2R7B3",
    "result": []
  },
  {
    "postal": "M2R3A8",
    "result": [
      {
        "electoralDistricts": [
          {
            "election": null,
            "id": 120,
            "name": "York Centre"
          }
        ],
        "pollDivisionIds": [
          10142843
        ],
        "postalCode": "M2R3A8",
        "streetName": "ROCKFORD",
        "streetDirectionId": null,
        "streetTypeId": "RD",
        "placeName": "NORTH YORK",
        "streetNameDisplayText": "ROCKFORD RD, NORTH YORK"
      }
    ]
  },
  {
    "postal": "M2R7V5",
    "result": []
  },
  {
    "postal": "M2R2T2",
    "result": []
  },
  {
    "postal": "M2R6L3",
    "result": []
  },
  {
    "postal": "M2R0L2",
    "result": []
  },
  {
    "postal": "M2R5Y8",
    "result": []
  },
  {
    "postal": "M2R0B8",
    "result": []
  },
  {
    "postal": "M2R6R5",
    "result": []
  },
  {
    "postal": "M2R8W6",
    "result": []
  },
  {
    "postal": "M2R8G6",
    "result": []
  },
  {
    "postal": "M2R6X3",
    "result": []
  },
  {
    "postal": "M2R7R7",
    "result": []
  },
  {
    "postal": "M2R4B6",
    "result": []
  },
  {
    "postal": "M2R3P9",
    "result": [
      {
        "electoralDistricts": [
          {
            "election": null,
            "id": 120,
            "name": "York Centre"
          }
        ],
        "pollDivisionIds": [
          10142845
        ],
        "postalCode": "M2R3P9",
        "streetName": "LEVITT",
        "streetDirectionId": null,
        "streetTypeId": "CRT",
        "placeName": "NORTH YORK",
        "streetNameDisplayText": "LEVITT CRT, NORTH YORK"
      }
    ]
  },
  {
    "postal": "M2R2T3",
    "result": []
  },
  {
    "postal": "M2R1M4",
    "result": []
  },
  {
    "postal": "M2R0H1",
    "result": []
  },
  {
    "postal": "M2R9W3",
    "result": []
  },
  {
    "postal": "M2R6P1",
    "result": []
  },
  {
    "postal": "M2R7G2",
    "result": []
  },
  {
    "postal": "M2R4J9",
    "result": []
  },
  {
    "postal": "M2R9E4",
    "result": []
  },
  {
    "postal": "M2R8H0",
    "result": []
  },
  {
    "postal": "M2R4M7",
    "result": []
  },
  {
    "postal": "M2R2G9",
    "result": [
      {
        "electoralDistricts": [
          {
            "election": null,
            "id": 117,
            "name": "Willowdale"
          }
        ],
        "pollDivisionIds": [
          10142610
        ],
        "postalCode": "M2R2G9",
        "streetName": "MELTON GROVE",
        "streetDirectionId": null,
        "streetTypeId": "ST",
        "placeName": "NORTH YORK",
        "streetNameDisplayText": "MELTON GROVE ST, NORTH YORK"
      }
    ]
  },
  {
    "postal": "M2R8T2",
    "result": []
  },
  {
    "postal": "M2R7G7",
    "result": []
  },
  {
    "postal": "M2R4Z3",
    "result": []
  },
  {
    "postal": "M2R5B3",
    "result": []
  },
  {
    "postal": "M2R1S7",
    "result": [
      {
        "electoralDistricts": [
          {
            "election": null,
            "id": 117,
            "name": "Willowdale"
          }
        ],
        "pollDivisionIds": [
          10142612
        ],
        "postalCode": "M2R1S7",
        "streetName": "WYNN",
        "streetDirectionId": null,
        "streetTypeId": "RD",
        "placeName": "NORTH YORK",
        "streetNameDisplayText": "WYNN RD, NORTH YORK"
      }
    ]
  },
  {
    "postal": "M2R2N7",
    "result": [
      {
        "electoralDistricts": [
          {
            "election": null,
            "id": 117,
            "name": "Willowdale"
          }
        ],
        "pollDivisionIds": [
          10142602
        ],
        "postalCode": "M2R2N7",
        "streetName": "HOMEWOOD",
        "streetDirectionId": null,
        "streetTypeId": "AVE",
        "placeName": "NORTH YORK",
        "streetNameDisplayText": "HOMEWOOD AVE, NORTH YORK"
      }
    ]
  },
  {
    "postal": "M2R0H8",
    "result": []
  },
  {
    "postal": "M2R7Z4",
    "result": []
  },
  {
    "postal": "M2R7B1",
    "result": []
  },
  {
    "postal": "M2R7P8",
    "result": []
  },
  {
    "postal": "M2R7N0",
    "result": []
  },
  {
    "postal": "M2R3Y5",
    "result": [
      {
        "electoralDistricts": [
          {
            "election": null,
            "id": 117,
            "name": "Willowdale"
          }
        ],
        "pollDivisionIds": [
          10142612
        ],
        "postalCode": "M2R3Y5",
        "streetName": "FLOOK",
        "streetDirectionId": null,
        "streetTypeId": "LANE",
        "placeName": "NORTH YORK",
        "streetNameDisplayText": "FLOOK LANE, NORTH YORK"
      }
    ]
  },
  {
    "postal": "M2R6K1",
    "result": []
  },
  {
    "postal": "M2R9X5",
    "result": []
  },
  {
    "postal": "M2R7S5",
    "result": []
  },
  {
    "postal": "M2R0A4",
    "result": [
      {
        "electoralDistricts": [
          {
            "election": null,
            "id": 120,
            "name": "York Centre"
          }
        ],
        "pollDivisionIds": [
          10142844
        ],
        "postalCode": "M2R0A4",
        "streetName": "ANTIBES",
        "streetDirectionId": null,
        "streetTypeId": "DR",
        "placeName": "NORTH YORK",
        "streetNameDisplayText": "ANTIBES DR, NORTH YORK"
      },
      {
        "electoralDistricts": [
          {
            "election": null,
            "id": 120,
            "name": "York Centre"
          }
        ],
        "pollDivisionIds": [
          10142844
        ],
        "postalCode": "M2R0A4",
        "streetName": "CONEFLOWER",
        "streetDirectionId": null,
        "streetTypeId": "CRES",
        "placeName": "NORTH YORK",
        "streetNameDisplayText": "CONEFLOWER CRES, NORTH YORK"
      }
    ]
  },
  {
    "postal": "M2R4T5",
    "result": []
  },
  {
    "postal": "M2R5K1",
    "result": []
  },
  {
    "postal": "M2R0Z9",
    "result": []
  },
  {
    "postal": "M2R7T2",
    "result": []
  },
  {
    "postal": "M2R1L5",
    "result": [
      {
        "electoralDistricts": [
          {
            "election": null,
            "id": 120,
            "name": "York Centre"
          }
        ],
        "pollDivisionIds": [
          10142846
        ],
        "postalCode": "M2R1L5",
        "streetName": "KINGSBRIDGE",
        "streetDirectionId": null,
        "streetTypeId": "CRT",
        "placeName": "NORTH YORK",
        "streetNameDisplayText": "KINGSBRIDGE CRT, NORTH YORK"
      }
    ]
  },
  {
    "postal": "M2R3N5",
    "result": [
      {
        "electoralDistricts": [
          {
            "election": null,
            "id": 120,
            "name": "York Centre"
          }
        ],
        "pollDivisionIds": [
          10142872
        ],
        "postalCode": "M2R3N5",
        "streetName": "ANTIBES",
        "streetDirectionId": null,
        "streetTypeId": "DR",
        "placeName": "NORTH YORK",
        "streetNameDisplayText": "ANTIBES DR, NORTH YORK"
      }
    ]
  },
  {
    "postal": "M2R6H4",
    "result": []
  },
  {
    "postal": "M2R5A5",
    "result": []
  },
  {
    "postal": "M2R3R9",
    "result": [
      {
        "electoralDistricts": [
          {
            "election": null,
            "id": 120,
            "name": "York Centre"
          }
        ],
        "pollDivisionIds": [
          10142843
        ],
        "postalCode": "M2R3R9",
        "streetName": "MILLERSGROVE",
        "streetDirectionId": null,
        "streetTypeId": "DR",
        "placeName": "NORTH YORK",
        "streetNameDisplayText": "MILLERSGROVE DR, NORTH YORK"
      }
    ]
  },
  {
    "postal": "M2R7L8",
    "result": []
  },
  {
    "postal": "M2R6T6",
    "result": []
  },
  {
    "postal": "M2R7Y7",
    "result": []
  },
  {
    "postal": "M2R3M8",
    "result": [
      {
        "electoralDistricts": [
          {
            "election": null,
            "id": 120,
            "name": "York Centre"
          }
        ],
        "pollDivisionIds": [
          10142843
        ],
        "postalCode": "M2R3M8",
        "streetName": "DOVE HAWKWAY",
        "streetDirectionId": null,
        "streetTypeId": "WAY",
        "placeName": "NORTH YORK",
        "streetNameDisplayText": "DOVE HAWKWAY WAY, NORTH YORK"
      }
    ]
  },
  {
    "postal": "M2R2E0",
    "result": []
  },
  {
    "postal": "M2R4B5",
    "result": []
  },
  {
    "postal": "M2R1J3",
    "result": [
      {
        "electoralDistricts": [
          {
            "election": null,
            "id": 120,
            "name": "York Centre"
          }
        ],
        "pollDivisionIds": [
          10142846
        ],
        "postalCode": "M2R1J3",
        "streetName": "DENMARK",
        "streetDirectionId": null,
        "streetTypeId": "CRES",
        "placeName": "NORTH YORK",
        "streetNameDisplayText": "DENMARK CRES, NORTH YORK"
      }
    ]
  },
  {
    "postal": "M2R5S6",
    "result": []
  },
  {
    "postal": "M2R8P7",
    "result": []
  },
  {
    "postal": "M2R7S7",
    "result": []
  },
  {
    "postal": "M2R4C2",
    "result": []
  },
  {
    "postal": "M2R5Y0",
    "result": []
  },
  {
    "postal": "M2R2V7",
    "result": [
      {
        "electoralDistricts": [
          {
            "election": null,
            "id": 117,
            "name": "Willowdale"
          }
        ],
        "pollDivisionIds": [
          10142602
        ],
        "postalCode": "M2R2V7",
        "streetName": "CRISPIN",
        "streetDirectionId": null,
        "streetTypeId": "CRES",
        "placeName": "NORTH YORK",
        "streetNameDisplayText": "CRISPIN CRES, NORTH YORK"
      }
    ]
  },
  {
    "postal": "M2R8P5",
    "result": []
  },
  {
    "postal": "M2R5P5",
    "result": []
  },
  {
    "postal": "M2R5Z0",
    "result": []
  },
  {
    "postal": "M2R9B0",
    "result": []
  },
  {
    "postal": "M2R1L0",
    "result": []
  },
  {
    "postal": "M2R0B5",
    "result": []
  },
  {
    "postal": "M2R3L2",
    "result": [
      {
        "electoralDistricts": [
          {
            "election": null,
            "id": 120,
            "name": "York Centre"
          }
        ],
        "pollDivisionIds": [
          10142846
        ],
        "postalCode": "M2R3L2",
        "streetName": "SEA ROBINWAY",
        "streetDirectionId": null,
        "streetTypeId": "WAY",
        "placeName": "NORTH YORK",
        "streetNameDisplayText": "SEA ROBINWAY WAY, NORTH YORK"
      },
      {
        "electoralDistricts": [
          {
            "election": null,
            "id": 120,
            "name": "York Centre"
          }
        ],
        "pollDivisionIds": [
          10142846
        ],
        "postalCode": "M2R3L2",
        "streetName": "SEA ROBINWAY",
        "streetDirectionId": null,
        "streetTypeId": null,
        "placeName": "NORTH YORK",
        "streetNameDisplayText": "SEA ROBINWAY, NORTH YORK"
      }
    ]
  },
  {
    "postal": "M2R3B7",
    "result": [
      {
        "electoralDistricts": [
          {
            "election": null,
            "id": 120,
            "name": "York Centre"
          }
        ],
        "pollDivisionIds": [
          10142866
        ],
        "postalCode": "M2R3B7",
        "streetName": "FISHERVILLE",
        "streetDirectionId": null,
        "streetTypeId": "RD",
        "placeName": "NORTH YORK",
        "streetNameDisplayText": "FISHERVILLE RD, NORTH YORK"
      }
    ]
  },
  {
    "postal": "M2R8L1",
    "result": []
  },
  {
    "postal": "M2R5M4",
    "result": []
  },
  {
    "postal": "M2R4G9",
    "result": []
  },
  {
    "postal": "M2R0P0",
    "result": []
  },
  {
    "postal": "M2R8G2",
    "result": []
  },
  {
    "postal": "M2R1V9",
    "result": [
      {
        "electoralDistricts": [
          {
            "election": null,
            "id": 117,
            "name": "Willowdale"
          }
        ],
        "pollDivisionIds": [
          10142610
        ],
        "postalCode": "M2R1V9",
        "streetName": "WALLBRIDGE",
        "streetDirectionId": null,
        "streetTypeId": "CRT",
        "placeName": "NORTH YORK",
        "streetNameDisplayText": "WALLBRIDGE CRT, NORTH YORK"
      }
    ]
  },
  {
    "postal": "M2R8N8",
    "result": []
  },
  {
    "postal": "M2R6S8",
    "result": []
  },
  {
    "postal": "M2R8H2",
    "result": []
  },
  {
    "postal": "M2R5R8",
    "result": []
  },
  {
    "postal": "M2R5L4",
    "result": []
  },
  {
    "postal": "M2R9E1",
    "result": []
  },
  {
    "postal": "M2R1C4",
    "result": [
      {
        "electoralDistricts": [
          {
            "election": null,
            "id": 117,
            "name": "Willowdale"
          }
        ],
        "pollDivisionIds": [
          10142612
        ],
        "postalCode": "M2R1C4",
        "streetName": "ELLERSLIE",
        "streetDirectionId": null,
        "streetTypeId": "AVE",
        "placeName": "NORTH YORK",
        "streetNameDisplayText": "ELLERSLIE AVE, NORTH YORK"
      }
    ]
  },
  {
    "postal": "M2R8W5",
    "result": []
  },
  {
    "postal": "M2R1Y4",
    "result": [
      {
        "electoralDistricts": [
          {
            "election": null,
            "id": 117,
            "name": "Willowdale"
          }
        ],
        "pollDivisionIds": [
          10142610
        ],
        "postalCode": "M2R1Y4",
        "streetName": "BATHURST",
        "streetDirectionId": null,
        "streetTypeId": "ST",
        "placeName": "NORTH YORK",
        "streetNameDisplayText": "BATHURST ST, NORTH YORK"
      }
    ]
  },
  {
    "postal": "M2R1C0",
    "result": []
  },
  {
    "postal": "M2R2J2",
    "result": [
      {
        "electoralDistricts": [
          {
            "election": null,
            "id": 117,
            "name": "Willowdale"
          }
        ],
        "pollDivisionIds": [
          10142602
        ],
        "postalCode": "M2R2J2",
        "streetName": "CHARLTON",
        "streetDirectionId": null,
        "streetTypeId": "BLVD",
        "placeName": "NORTH YORK",
        "streetNameDisplayText": "CHARLTON BLVD, NORTH YORK"
      }
    ]
  },
  {
    "postal": "M2R2J0",
    "result": []
  },
  {
    "postal": "M2R7A3",
    "result": []
  },
  {
    "postal": "M2R8M1",
    "result": []
  },
  {
    "postal": "M2R7T9",
    "result": []
  },
  {
    "postal": "M2R6C0",
    "result": []
  },
  {
    "postal": "M2R7X1",
    "result": []
  },
  {
    "postal": "M2R0G1",
    "result": []
  },
  {
    "postal": "M2R4X2",
    "result": []
  },
  {
    "postal": "M2R0N6",
    "result": []
  },
  {
    "postal": "M2R8E3",
    "result": []
  },
  {
    "postal": "M2R5S8",
    "result": []
  },
  {
    "postal": "M2R0R0",
    "result": []
  },
  {
    "postal": "M2R6J6",
    "result": []
  },
  {
    "postal": "M2R4B4",
    "result": []
  },
  {
    "postal": "M2R7E3",
    "result": []
  },
  {
    "postal": "M2R3N6",
    "result": []
  },
  {
    "postal": "M2R3X6",
    "result": [
      {
        "electoralDistricts": [
          {
            "election": null,
            "id": 117,
            "name": "Willowdale"
          }
        ],
        "pollDivisionIds": [
          10142602
        ],
        "postalCode": "M2R3X6",
        "streetName": "CHELMSFORD",
        "streetDirectionId": null,
        "streetTypeId": "AVE",
        "placeName": "NORTH YORK",
        "streetNameDisplayText": "CHELMSFORD AVE, NORTH YORK"
      }
    ]
  },
  {
    "postal": "M2R8L0",
    "result": []
  },
  {
    "postal": "M2R8N1",
    "result": []
  },
  {
    "postal": "M2R4J0",
    "result": []
  },
  {
    "postal": "M2R0X7",
    "result": []
  },
  {
    "postal": "M2R6S4",
    "result": []
  },
  {
    "postal": "M2R0Z0",
    "result": []
  },
  {
    "postal": "M2R9X8",
    "result": []
  },
  {
    "postal": "M2R3H3",
    "result": [
      {
        "electoralDistricts": [
          {
            "election": null,
            "id": 120,
            "name": "York Centre"
          }
        ],
        "pollDivisionIds": [
          10142846
        ],
        "postalCode": "M2R3H3",
        "streetName": "SILVAN CARSEWAY",
        "streetDirectionId": null,
        "streetTypeId": "WAY",
        "placeName": "NORTH YORK",
        "streetNameDisplayText": "SILVAN CARSEWAY WAY, NORTH YORK"
      },
      {
        "electoralDistricts": [
          {
            "election": null,
            "id": 120,
            "name": "York Centre"
          }
        ],
        "pollDivisionIds": [
          10142846
        ],
        "postalCode": "M2R3H3",
        "streetName": "SILVAN CARSEWAY",
        "streetDirectionId": null,
        "streetTypeId": null,
        "placeName": "NORTH YORK",
        "streetNameDisplayText": "SILVAN CARSEWAY, NORTH YORK"
      }
    ]
  },
  {
    "postal": "M2R7S2",
    "result": []
  },
  {
    "postal": "M2R3T3",
    "result": [
      {
        "electoralDistricts": [
          {
            "election": null,
            "id": 120,
            "name": "York Centre"
          }
        ],
        "pollDivisionIds": [
          10142843
        ],
        "postalCode": "M2R3T3",
        "streetName": "HIDDEN",
        "streetDirectionId": null,
        "streetTypeId": "TRAIL",
        "placeName": "NORTH YORK",
        "streetNameDisplayText": "HIDDEN TRAIL, NORTH YORK"
      }
    ]
  },
  {
    "postal": "M2R9P3",
    "result": []
  },
  {
    "postal": "M2R4H8",
    "result": []
  },
  {
    "postal": "M2R6R1",
    "result": []
  },
  {
    "postal": "M2R1S0",
    "result": []
  },
  {
    "postal": "M2R3W8",
    "result": [
      {
        "electoralDistricts": [
          {
            "election": null,
            "id": 120,
            "name": "York Centre"
          }
        ],
        "pollDivisionIds": [
          10142864
        ],
        "postalCode": "M2R3W8",
        "streetName": "STEELES",
        "streetDirectionId": "W",
        "streetTypeId": "AVE",
        "placeName": "NORTH YORK",
        "streetNameDisplayText": "STEELES AVE W, NORTH YORK"
      }
    ]
  },
  {
    "postal": "M2R4S3",
    "result": []
  },
  {
    "postal": "M2R1B6",
    "result": [
      {
        "electoralDistricts": [
          {
            "election": null,
            "id": 117,
            "name": "Willowdale"
          }
        ],
        "pollDivisionIds": [
          10142612
        ],
        "postalCode": "M2R1B6",
        "streetName": "ELLERSLIE",
        "streetDirectionId": null,
        "streetTypeId": "AVE",
        "placeName": "NORTH YORK",
        "streetNameDisplayText": "ELLERSLIE AVE, NORTH YORK"
      }
    ]
  },
  {
    "postal": "M2R8R3",
    "result": []
  },
  {
    "postal": "M2R4V9",
    "result": []
  },
  {
    "postal": "M2R9W4",
    "result": []
  },
  {
    "postal": "M2R3T4",
    "result": [
      {
        "electoralDistricts": [
          {
            "election": null,
            "id": 120,
            "name": "York Centre"
          }
        ],
        "pollDivisionIds": [
          10142843
        ],
        "postalCode": "M2R3T4",
        "streetName": "STEELES",
        "streetDirectionId": "W",
        "streetTypeId": "AVE",
        "placeName": "NORTH YORK",
        "streetNameDisplayText": "STEELES AVE W, NORTH YORK"
      }
    ]
  },
  {
    "postal": "M2R5C7",
    "result": []
  },
  {
    "postal": "M2R3Y1",
    "result": [
      {
        "electoralDistricts": [
          {
            "election": null,
            "id": 120,
            "name": "York Centre"
          }
        ],
        "pollDivisionIds": [
          10142871
        ],
        "postalCode": "M2R3Y1",
        "streetName": "CEDARCROFT",
        "streetDirectionId": null,
        "streetTypeId": "BLVD",
        "placeName": "NORTH YORK",
        "streetNameDisplayText": "CEDARCROFT BLVD, NORTH YORK"
      }
    ]
  },
  {
    "postal": "M2R5V0",
    "result": []
  },
  {
    "postal": "M2R8G8",
    "result": []
  },
  {
    "postal": "M2R8B1",
    "result": []
  },
  {
    "postal": "M2R4P5",
    "result": []
  },
  {
    "postal": "M2R7B2",
    "result": []
  },
  {
    "postal": "M2R0R2",
    "result": []
  },
  {
    "postal": "M2R4M4",
    "result": []
  },
  {
    "postal": "M2R7M4",
    "result": []
  },
  {
    "postal": "M2R9S7",
    "result": []
  },
  {
    "postal": "M2R5Z7",
    "result": []
  },
  {
    "postal": "M2R7J7",
    "result": []
  },
  {
    "postal": "M2R8R8",
    "result": []
  },
  {
    "postal": "M2R9X1",
    "result": []
  },
  {
    "postal": "M2R5M9",
    "result": []
  },
  {
    "postal": "M2R9B4",
    "result": []
  },
  {
    "postal": "M2R0L9",
    "result": []
  },
  {
    "postal": "M2R9G4",
    "result": []
  },
  {
    "postal": "M2R1J4",
    "result": [
      {
        "electoralDistricts": [
          {
            "election": null,
            "id": 120,
            "name": "York Centre"
          }
        ],
        "pollDivisionIds": [
          10142846
        ],
        "postalCode": "M2R1J4",
        "streetName": "DENMARK",
        "streetDirectionId": null,
        "streetTypeId": "CRES",
        "placeName": "NORTH YORK",
        "streetNameDisplayText": "DENMARK CRES, NORTH YORK"
      }
    ]
  },
  {
    "postal": "M2R0W6",
    "result": []
  },
  {
    "postal": "M2R4C5",
    "result": []
  },
  {
    "postal": "M2R7E4",
    "result": []
  },
  {
    "postal": "M2R1R9",
    "result": [
      {
        "electoralDistricts": [
          {
            "election": null,
            "id": 117,
            "name": "Willowdale"
          }
        ],
        "pollDivisionIds": [
          10142612
        ],
        "postalCode": "M2R1R9",
        "streetName": "COBDEN",
        "streetDirectionId": null,
        "streetTypeId": "ST",
        "placeName": "NORTH YORK",
        "streetNameDisplayText": "COBDEN ST, NORTH YORK"
      }
    ]
  },
  {
    "postal": "M2R2P0",
    "result": []
  },
  {
    "postal": "M2R5S4",
    "result": []
  },
  {
    "postal": "M2R5K8",
    "result": []
  },
  {
    "postal": "M2R8K4",
    "result": []
  },
  {
    "postal": "M2R7C1",
    "result": []
  },
  {
    "postal": "M2R7K9",
    "result": []
  },
  {
    "postal": "M2R5J1",
    "result": []
  },
  {
    "postal": "M2R4P9",
    "result": []
  },
  {
    "postal": "M2R0N2",
    "result": []
  },
  {
    "postal": "M2R2G6",
    "result": [
      {
        "electoralDistricts": [
          {
            "election": null,
            "id": 117,
            "name": "Willowdale"
          }
        ],
        "pollDivisionIds": [
          10142610
        ],
        "postalCode": "M2R2G6",
        "streetName": "CLARKHILL",
        "streetDirectionId": null,
        "streetTypeId": "ST",
        "placeName": "NORTH YORK",
        "streetNameDisplayText": "CLARKHILL ST, NORTH YORK"
      }
    ]
  },
  {
    "postal": "M2R6P4",
    "result": []
  },
  {
    "postal": "M2R3J0",
    "result": []
  },
  {
    "postal": "M2R8X4",
    "result": []
  },
  {
    "postal": "M2R1Y3",
    "result": []
  },
  {
    "postal": "M2R1A8",
    "result": [
      {
        "electoralDistricts": [
          {
            "election": null,
            "id": 117,
            "name": "Willowdale"
          }
        ],
        "pollDivisionIds": [
          10142612
        ],
        "postalCode": "M2R1A8",
        "streetName": "BETTY ANN",
        "streetDirectionId": null,
        "streetTypeId": "DR",
        "placeName": "NORTH YORK",
        "streetNameDisplayText": "BETTY ANN DR, NORTH YORK"
      }
    ]
  },
  {
    "postal": "M2R6Y5",
    "result": []
  },
  {
    "postal": "M2R0J6",
    "result": []
  },
  {
    "postal": "M2R2C9",
    "result": [
      {
        "electoralDistricts": [
          {
            "election": null,
            "id": 117,
            "name": "Willowdale"
          }
        ],
        "pollDivisionIds": [
          10142610
        ],
        "postalCode": "M2R2C9",
        "streetName": "DEVONDALE",
        "streetDirectionId": null,
        "streetTypeId": "AVE",
        "placeName": "NORTH YORK",
        "streetNameDisplayText": "DEVONDALE AVE, NORTH YORK"
      }
    ]
  },
  {
    "postal": "M2R8J6",
    "result": []
  },
  {
    "postal": "M2R8T4",
    "result": []
  },
  {
    "postal": "M2R1P7",
    "result": [
      {
        "electoralDistricts": [
          {
            "election": null,
            "id": 117,
            "name": "Willowdale"
          }
        ],
        "pollDivisionIds": [
          10142612
        ],
        "postalCode": "M2R1P7",
        "streetName": "SENLAC",
        "streetDirectionId": null,
        "streetTypeId": "RD",
        "placeName": "NORTH YORK",
        "streetNameDisplayText": "SENLAC RD, NORTH YORK"
      }
    ]
  },
  {
    "postal": "M2R9V9",
    "result": []
  },
  {
    "postal": "M2R0M1",
    "result": []
  },
  {
    "postal": "M2R6K5",
    "result": []
  },
  {
    "postal": "M2R2T5",
    "result": [
      {
        "electoralDistricts": [
          {
            "election": null,
            "id": 117,
            "name": "Willowdale"
          }
        ],
        "pollDivisionIds": [
          10142602
        ],
        "postalCode": "M2R2T5",
        "streetName": "CACTUS",
        "streetDirectionId": null,
        "streetTypeId": "AVE",
        "placeName": "NORTH YORK",
        "streetNameDisplayText": "CACTUS AVE, NORTH YORK"
      }
    ]
  },
  {
    "postal": "M2R7E9",
    "result": []
  },
  {
    "postal": "M2R5K5",
    "result": []
  },
  {
    "postal": "M2R3R5",
    "result": [
      {
        "electoralDistricts": [
          {
            "election": null,
            "id": 120,
            "name": "York Centre"
          }
        ],
        "pollDivisionIds": [
          10142845
        ],
        "postalCode": "M2R3R5",
        "streetName": "ROBERT HICKS",
        "streetDirectionId": null,
        "streetTypeId": "DR",
        "placeName": "NORTH YORK",
        "streetNameDisplayText": "ROBERT HICKS DR, NORTH YORK"
      }
    ]
  },
  {
    "postal": "M2R5B1",
    "result": []
  },
  {
    "postal": "M2R2P1",
    "result": [
      {
        "electoralDistricts": [
          {
            "election": null,
            "id": 117,
            "name": "Willowdale"
          }
        ],
        "pollDivisionIds": [
          10142602
        ],
        "postalCode": "M2R2P1",
        "streetName": "LISSOM",
        "streetDirectionId": null,
        "streetTypeId": "CRES",
        "placeName": "NORTH YORK",
        "streetNameDisplayText": "LISSOM CRES, NORTH YORK"
      }
    ]
  },
  {
    "postal": "M2R7L0",
    "result": []
  },
  {
    "postal": "M2R3L6",
    "result": [
      {
        "electoralDistricts": [
          {
            "election": null,
            "id": 120,
            "name": "York Centre"
          }
        ],
        "pollDivisionIds": [
          10142843
        ],
        "postalCode": "M2R3L6",
        "streetName": "BLACK HAWKWAY",
        "streetDirectionId": null,
        "streetTypeId": "WAY",
        "placeName": "NORTH YORK",
        "streetNameDisplayText": "BLACK HAWKWAY WAY, NORTH YORK"
      },
      {
        "electoralDistricts": [
          {
            "election": null,
            "id": 120,
            "name": "York Centre"
          }
        ],
        "pollDivisionIds": [
          10142843
        ],
        "postalCode": "M2R3L6",
        "streetName": "BLACK HAWKWAY",
        "streetDirectionId": null,
        "streetTypeId": null,
        "placeName": "NORTH YORK",
        "streetNameDisplayText": "BLACK HAWKWAY, NORTH YORK"
      }
    ]
  },
  {
    "postal": "M2R2A4",
    "result": [
      {
        "electoralDistricts": [
          {
            "election": null,
            "id": 120,
            "name": "York Centre"
          }
        ],
        "pollDivisionIds": [
          10142867
        ],
        "postalCode": "M2R2A4",
        "streetName": "BATHURST",
        "streetDirectionId": null,
        "streetTypeId": "ST",
        "placeName": "NORTH YORK",
        "streetNameDisplayText": "BATHURST ST, NORTH YORK"
      }
    ]
  },
  {
    "postal": "M2R8S0",
    "result": []
  },
  {
    "postal": "M2R3L5",
    "result": [
      {
        "electoralDistricts": [
          {
            "election": null,
            "id": 120,
            "name": "York Centre"
          }
        ],
        "pollDivisionIds": [
          10142843
        ],
        "postalCode": "M2R3L5",
        "streetName": "BLACK HAWKWAY",
        "streetDirectionId": null,
        "streetTypeId": "WAY",
        "placeName": "NORTH YORK",
        "streetNameDisplayText": "BLACK HAWKWAY WAY, NORTH YORK"
      }
    ]
  },
  {
    "postal": "M2R2R5",
    "result": [
      {
        "electoralDistricts": [
          {
            "election": null,
            "id": 117,
            "name": "Willowdale"
          }
        ],
        "pollDivisionIds": [
          10142602
        ],
        "postalCode": "M2R2R5",
        "streetName": "MOORE PARK",
        "streetDirectionId": null,
        "streetTypeId": "AVE",
        "placeName": "NORTH YORK",
        "streetNameDisplayText": "MOORE PARK AVE, NORTH YORK"
      }
    ]
  },
  {
    "postal": "M2R9T6",
    "result": []
  },
  {
    "postal": "M2R8Z2",
    "result": []
  },
  {
    "postal": "M2R0E9",
    "result": []
  },
  {
    "postal": "M2R8C0",
    "result": []
  },
  {
    "postal": "M2R3K7",
    "result": [
      {
        "electoralDistricts": [
          {
            "election": null,
            "id": 120,
            "name": "York Centre"
          }
        ],
        "pollDivisionIds": [
          10142846
        ],
        "postalCode": "M2R3K7",
        "streetName": "RED ROBINWAY",
        "streetDirectionId": null,
        "streetTypeId": "WAY",
        "placeName": "NORTH YORK",
        "streetNameDisplayText": "RED ROBINWAY WAY, NORTH YORK"
      }
    ]
  },
  {
    "postal": "M2R2H3",
    "result": [
      {
        "electoralDistricts": [
          {
            "election": null,
            "id": 117,
            "name": "Willowdale"
          }
        ],
        "pollDivisionIds": [
          10142610
        ],
        "postalCode": "M2R2H3",
        "streetName": "ANCONA",
        "streetDirectionId": null,
        "streetTypeId": "ST",
        "placeName": "NORTH YORK",
        "streetNameDisplayText": "ANCONA ST, NORTH YORK"
      }
    ]
  },
  {
    "postal": "M2R2Y6",
    "result": [
      {
        "electoralDistricts": [
          {
            "election": null,
            "id": 117,
            "name": "Willowdale"
          }
        ],
        "pollDivisionIds": [
          10142602
        ],
        "postalCode": "M2R2Y6",
        "streetName": "DORNFELL",
        "streetDirectionId": null,
        "streetTypeId": "ST",
        "placeName": "NORTH YORK",
        "streetNameDisplayText": "DORNFELL ST, NORTH YORK"
      }
    ]
  },
  {
    "postal": "M2R7M2",
    "result": []
  },
  {
    "postal": "M2R6E2",
    "result": []
  },
  {
    "postal": "M2R3R0",
    "result": []
  },
  {
    "postal": "M2R4J7",
    "result": []
  },
  {
    "postal": "M2R6N8",
    "result": []
  },
  {
    "postal": "M2R0J7",
    "result": []
  },
  {
    "postal": "M2R7P2",
    "result": []
  },
  {
    "postal": "M2R3T8",
    "result": [
      {
        "electoralDistricts": [
          {
            "election": null,
            "id": 120,
            "name": "York Centre"
          }
        ],
        "pollDivisionIds": [
          10142843
        ],
        "postalCode": "M2R3T8",
        "streetName": "CARNIVAL",
        "streetDirectionId": null,
        "streetTypeId": "CRT",
        "placeName": "NORTH  YORK",
        "streetNameDisplayText": "CARNIVAL CRT, NORTH  YORK"
      },
      {
        "electoralDistricts": [
          {
            "election": null,
            "id": 120,
            "name": "York Centre"
          }
        ],
        "pollDivisionIds": [
          10142843
        ],
        "postalCode": "M2R3T8",
        "streetName": "CARNIVAL",
        "streetDirectionId": null,
        "streetTypeId": "CRT",
        "placeName": "NORTH YORK",
        "streetNameDisplayText": "CARNIVAL CRT, NORTH YORK"
      }
    ]
  },
  {
    "postal": "M2R3S7",
    "result": [
      {
        "electoralDistricts": [
          {
            "election": null,
            "id": 120,
            "name": "York Centre"
          }
        ],
        "pollDivisionIds": [
          10142843
        ],
        "postalCode": "M2R3S7",
        "streetName": "HIDDEN",
        "streetDirectionId": null,
        "streetTypeId": "TRAIL",
        "placeName": "NORTH YORK",
        "streetNameDisplayText": "HIDDEN TRAIL, NORTH YORK"
      }
    ]
  },
  {
    "postal": "M2R2S7",
    "result": [
      {
        "electoralDistricts": [
          {
            "election": null,
            "id": 117,
            "name": "Willowdale"
          }
        ],
        "pollDivisionIds": [
          10142621
        ],
        "postalCode": "M2R2S7",
        "streetName": "STEELES",
        "streetDirectionId": "W",
        "streetTypeId": "AVE",
        "placeName": "NORTH YORK",
        "streetNameDisplayText": "STEELES AVE W, NORTH YORK"
      }
    ]
  },
  {
    "postal": "M2R1S4",
    "result": [
      {
        "electoralDistricts": [
          {
            "election": null,
            "id": 117,
            "name": "Willowdale"
          }
        ],
        "pollDivisionIds": [
          10142612
        ],
        "postalCode": "M2R1S4",
        "streetName": "COBDEN",
        "streetDirectionId": null,
        "streetTypeId": "ST",
        "placeName": "NORTH YORK",
        "streetNameDisplayText": "COBDEN ST, NORTH YORK"
      }
    ]
  },
  {
    "postal": "M2R1L8",
    "result": [
      {
        "electoralDistricts": [
          {
            "election": null,
            "id": 117,
            "name": "Willowdale"
          }
        ],
        "pollDivisionIds": [
          10142610
        ],
        "postalCode": "M2R1L8",
        "streetName": "BEVDALE",
        "streetDirectionId": null,
        "streetTypeId": "RD",
        "placeName": "NORTH YORK",
        "streetNameDisplayText": "BEVDALE RD, NORTH YORK"
      }
    ]
  },
  {
    "postal": "M2R8E9",
    "result": []
  },
  {
    "postal": "M2R0T0",
    "result": []
  },
  {
    "postal": "M2R3G4",
    "result": []
  },
  {
    "postal": "M2R0V6",
    "result": []
  },
  {
    "postal": "M2R4W1",
    "result": []
  },
  {
    "postal": "M2R9G9",
    "result": []
  },
  {
    "postal": "M2R5W4",
    "result": []
  },
  {
    "postal": "M2R7M8",
    "result": []
  },
  {
    "postal": "M2R2C2",
    "result": [
      {
        "electoralDistricts": [
          {
            "election": null,
            "id": 120,
            "name": "York Centre"
          }
        ],
        "pollDivisionIds": [
          10142879
        ],
        "postalCode": "M2R2C2",
        "streetName": "GOLDFINCH",
        "streetDirectionId": null,
        "streetTypeId": "CRT",
        "placeName": "NORTH YORK",
        "streetNameDisplayText": "GOLDFINCH CRT, NORTH YORK"
      }
    ]
  },
  {
    "postal": "M2R4Y2",
    "result": []
  },
  {
    "postal": "M2R9X9",
    "result": []
  },
  {
    "postal": "M2R3T0",
    "result": []
  },
  {
    "postal": "M2R4T8",
    "result": []
  },
  {
    "postal": "M2R9C4",
    "result": []
  },
  {
    "postal": "M2R8P2",
    "result": []
  },
  {
    "postal": "M2R0Y8",
    "result": []
  },
  {
    "postal": "M2R1G8",
    "result": [
      {
        "electoralDistricts": [
          {
            "election": null,
            "id": 117,
            "name": "Willowdale"
          }
        ],
        "pollDivisionIds": [
          10142612
        ],
        "postalCode": "M2R1G8",
        "streetName": "HORSHAM",
        "streetDirectionId": null,
        "streetTypeId": "AVE",
        "placeName": "NORTH YORK",
        "streetNameDisplayText": "HORSHAM AVE, NORTH YORK"
      }
    ]
  },
  {
    "postal": "M2R2T6",
    "result": [
      {
        "electoralDistricts": [
          {
            "election": null,
            "id": 117,
            "name": "Willowdale"
          }
        ],
        "pollDivisionIds": [
          10142604
        ],
        "postalCode": "M2R2T6",
        "streetName": "CACTUS",
        "streetDirectionId": null,
        "streetTypeId": "AVE",
        "placeName": "NORTH YORK",
        "streetNameDisplayText": "CACTUS AVE, NORTH YORK"
      }
    ]
  },
  {
    "postal": "M2R1N7",
    "result": [
      {
        "electoralDistricts": [
          {
            "election": null,
            "id": 120,
            "name": "York Centre"
          }
        ],
        "pollDivisionIds": [
          10142846,
          10142845
        ],
        "postalCode": "M2R1N7",
        "streetName": "FINCH",
        "streetDirectionId": "W",
        "streetTypeId": "AVE",
        "placeName": "NORTH YORK",
        "streetNameDisplayText": "FINCH AVE W, NORTH YORK"
      }
    ]
  },
  {
    "postal": "M2R0L6",
    "result": []
  },
  {
    "postal": "M2R9V4",
    "result": []
  },
  {
    "postal": "M2R2V1",
    "result": [
      {
        "electoralDistricts": [
          {
            "election": null,
            "id": 117,
            "name": "Willowdale"
          }
        ],
        "pollDivisionIds": [
          10142603
        ],
        "postalCode": "M2R2V1",
        "streetName": "CACTUS",
        "streetDirectionId": null,
        "streetTypeId": "AVE",
        "placeName": "NORTH YORK",
        "streetNameDisplayText": "CACTUS AVE, NORTH YORK"
      }
    ]
  },
  {
    "postal": "M2R3L8",
    "result": [
      {
        "electoralDistricts": [
          {
            "election": null,
            "id": 120,
            "name": "York Centre"
          }
        ],
        "pollDivisionIds": [
          10142843
        ],
        "postalCode": "M2R3L8",
        "streetName": "BLACK HAWKWAY",
        "streetDirectionId": null,
        "streetTypeId": "WAY",
        "placeName": "NORTH YORK",
        "streetNameDisplayText": "BLACK HAWKWAY WAY, NORTH YORK"
      }
    ]
  },
  {
    "postal": "M2R2R8",
    "result": [
      {
        "electoralDistricts": [
          {
            "election": null,
            "id": 117,
            "name": "Willowdale"
          }
        ],
        "pollDivisionIds": [
          10142602
        ],
        "postalCode": "M2R2R8",
        "streetName": "DONNALYN",
        "streetDirectionId": null,
        "streetTypeId": "DR",
        "placeName": "NORTH YORK",
        "streetNameDisplayText": "DONNALYN DR, NORTH YORK"
      }
    ]
  },
  {
    "postal": "M2R5C1",
    "result": []
  },
  {
    "postal": "M2R4W3",
    "result": []
  },
  {
    "postal": "M2R5X5",
    "result": []
  },
  {
    "postal": "M2R9W5",
    "result": []
  },
  {
    "postal": "M2R3C4",
    "result": [
      {
        "electoralDistricts": [
          {
            "election": null,
            "id": 120,
            "name": "York Centre"
          }
        ],
        "pollDivisionIds": [
          10142843
        ],
        "postalCode": "M2R3C4",
        "streetName": "FISHERVILLE",
        "streetDirectionId": null,
        "streetTypeId": "RD",
        "placeName": "NORTH YORK",
        "streetNameDisplayText": "FISHERVILLE RD, NORTH YORK"
      }
    ]
  },
  {
    "postal": "M2R1N6",
    "result": [
      {
        "electoralDistricts": [
          {
            "election": null,
            "id": 120,
            "name": "York Centre"
          }
        ],
        "pollDivisionIds": [
          10142846
        ],
        "postalCode": "M2R1N6",
        "streetName": "FINCH",
        "streetDirectionId": "W",
        "streetTypeId": "AVE",
        "placeName": "NORTH YORK",
        "streetNameDisplayText": "FINCH AVE W, NORTH YORK"
      }
    ]
  },
  {
    "postal": "M2R9S9",
    "result": []
  },
  {
    "postal": "M2R9M2",
    "result": []
  },
  {
    "postal": "M2R8Y4",
    "result": []
  },
  {
    "postal": "M2R7S4",
    "result": []
  },
  {
    "postal": "M2R0K6",
    "result": []
  },
  {
    "postal": "M2R1W3",
    "result": [
      {
        "electoralDistricts": [
          {
            "election": null,
            "id": 117,
            "name": "Willowdale"
          }
        ],
        "pollDivisionIds": [
          10142610
        ],
        "postalCode": "M2R1W3",
        "streetName": "MUIRKIRK",
        "streetDirectionId": null,
        "streetTypeId": "RD",
        "placeName": "NORTH YORK",
        "streetNameDisplayText": "MUIRKIRK RD, NORTH YORK"
      }
    ]
  },
  {
    "postal": "M2R7R2",
    "result": []
  },
  {
    "postal": "M2R2Y9",
    "result": [
      {
        "electoralDistricts": [
          {
            "election": null,
            "id": 120,
            "name": "York Centre"
          }
        ],
        "pollDivisionIds": [
          10142874
        ],
        "postalCode": "M2R2Y9",
        "streetName": "ANTIBES",
        "streetDirectionId": null,
        "streetTypeId": "DR",
        "placeName": "NORTH YORK",
        "streetNameDisplayText": "ANTIBES DR, NORTH YORK"
      }
    ]
  },
  {
    "postal": "M2R7G4",
    "result": []
  },
  {
    "postal": "M2R7E5",
    "result": []
  },
  {
    "postal": "M2R9G2",
    "result": []
  },
  {
    "postal": "M2R7Y8",
    "result": []
  },
  {
    "postal": "M2R9V2",
    "result": []
  },
  {
    "postal": "M2R3T7",
    "result": [
      {
        "electoralDistricts": [
          {
            "election": null,
            "id": 120,
            "name": "York Centre"
          }
        ],
        "pollDivisionIds": [
          10142843
        ],
        "postalCode": "M2R3T7",
        "streetName": "CARNIVAL",
        "streetDirectionId": null,
        "streetTypeId": "CRT",
        "placeName": "NORTH YORK",
        "streetNameDisplayText": "CARNIVAL CRT, NORTH YORK"
      }
    ]
  },
  {
    "postal": "M2R1H0",
    "result": []
  },
  {
    "postal": "M2R1M7",
    "result": [
      {
        "electoralDistricts": [
          {
            "election": null,
            "id": 117,
            "name": "Willowdale"
          }
        ],
        "pollDivisionIds": [
          10142610
        ],
        "postalCode": "M2R1M7",
        "streetName": "FINCH",
        "streetDirectionId": "W",
        "streetTypeId": "AVE",
        "placeName": "NORTH YORK",
        "streetNameDisplayText": "FINCH AVE W, NORTH YORK"
      }
    ]
  },
  {
    "postal": "M2R8V4",
    "result": []
  },
  {
    "postal": "M2R4M2",
    "result": []
  },
  {
    "postal": "M2R0X2",
    "result": []
  },
  {
    "postal": "M2R5Z4",
    "result": []
  },
  {
    "postal": "M2R6V4",
    "result": []
  },
  {
    "postal": "M2R8J3",
    "result": []
  },
  {
    "postal": "M2R8E5",
    "result": []
  },
  {
    "postal": "M2R2V5",
    "result": [
      {
        "electoralDistricts": [
          {
            "election": null,
            "id": 117,
            "name": "Willowdale"
          }
        ],
        "pollDivisionIds": [
          10142602
        ],
        "postalCode": "M2R2V5",
        "streetName": "PECKHAM",
        "streetDirectionId": null,
        "streetTypeId": "AVE",
        "placeName": "NORTH YORK",
        "streetNameDisplayText": "PECKHAM AVE, NORTH YORK"
      }
    ]
  },
  {
    "postal": "M2R7S1",
    "result": []
  },
  {
    "postal": "M2R6V3",
    "result": []
  },
  {
    "postal": "M2R2L8",
    "result": [
      {
        "electoralDistricts": [
          {
            "election": null,
            "id": 117,
            "name": "Willowdale"
          }
        ],
        "pollDivisionIds": [
          10142602
        ],
        "postalCode": "M2R2L8",
        "streetName": "MARATHON",
        "streetDirectionId": null,
        "streetTypeId": "CRES",
        "placeName": "NORTH YORK",
        "streetNameDisplayText": "MARATHON CRES, NORTH YORK"
      }
    ]
  },
  {
    "postal": "M2R9V0",
    "result": []
  },
  {
    "postal": "M2R3M4",
    "result": [
      {
        "electoralDistricts": [
          {
            "election": null,
            "id": 120,
            "name": "York Centre"
          }
        ],
        "pollDivisionIds": [
          10142843
        ],
        "postalCode": "M2R3M4",
        "streetName": "KITE HAWKWAY",
        "streetDirectionId": null,
        "streetTypeId": "WAY",
        "placeName": "NORTH YORK",
        "streetNameDisplayText": "KITE HAWKWAY WAY, NORTH YORK"
      }
    ]
  },
  {
    "postal": "M2R5B2",
    "result": []
  },
  {
    "postal": "M2R3X5",
    "result": [
      {
        "electoralDistricts": [
          {
            "election": null,
            "id": 117,
            "name": "Willowdale"
          }
        ],
        "pollDivisionIds": [
          10142612
        ],
        "postalCode": "M2R3X5",
        "streetName": "CATALDA",
        "streetDirectionId": null,
        "streetTypeId": "CRT",
        "placeName": "NORTH YORK",
        "streetNameDisplayText": "CATALDA CRT, NORTH YORK"
      }
    ]
  },
  {
    "postal": "M2R9R7",
    "result": []
  },
  {
    "postal": "M2R2X2",
    "result": [
      {
        "electoralDistricts": [
          {
            "election": null,
            "id": 117,
            "name": "Willowdale"
          }
        ],
        "pollDivisionIds": [
          10142602
        ],
        "postalCode": "M2R2X2",
        "streetName": "BRILL",
        "streetDirectionId": null,
        "streetTypeId": "CRES",
        "placeName": "NORTH YORK",
        "streetNameDisplayText": "BRILL CRES, NORTH YORK"
      }
    ]
  },
  {
    "postal": "M2R8Z6",
    "result": []
  },
  {
    "postal": "M2R4R4",
    "result": []
  },
  {
    "postal": "M2R2R1",
    "result": [
      {
        "electoralDistricts": [
          {
            "election": null,
            "id": 117,
            "name": "Willowdale"
          }
        ],
        "pollDivisionIds": [
          10142602
        ],
        "postalCode": "M2R2R1",
        "streetName": "PLEASANT",
        "streetDirectionId": null,
        "streetTypeId": "AVE",
        "placeName": "NORTH YORK",
        "streetNameDisplayText": "PLEASANT AVE, NORTH YORK"
      }
    ]
  },
  {
    "postal": "M2R3R8",
    "result": [
      {
        "electoralDistricts": [
          {
            "election": null,
            "id": 120,
            "name": "York Centre"
          }
        ],
        "pollDivisionIds": [
          10142843
        ],
        "postalCode": "M2R3R8",
        "streetName": "HIDDEN",
        "streetDirectionId": null,
        "streetTypeId": "TRAIL",
        "placeName": "NORTH YORK",
        "streetNameDisplayText": "HIDDEN TRAIL, NORTH YORK"
      }
    ]
  },
  {
    "postal": "M2R9A1",
    "result": []
  },
  {
    "postal": "M2R8L3",
    "result": []
  },
  {
    "postal": "M2R9K4",
    "result": []
  },
  {
    "postal": "M2R9S3",
    "result": []
  },
  {
    "postal": "M2R8N7",
    "result": []
  },
  {
    "postal": "M2R1C6",
    "result": [
      {
        "electoralDistricts": [
          {
            "election": null,
            "id": 117,
            "name": "Willowdale"
          }
        ],
        "pollDivisionIds": [
          10142612
        ],
        "postalCode": "M2R1C6",
        "streetName": "ELYNHILL",
        "streetDirectionId": null,
        "streetTypeId": "DR",
        "placeName": "NORTH YORK",
        "streetNameDisplayText": "ELYNHILL DR, NORTH YORK"
      }
    ]
  },
  {
    "postal": "M2R3Z8",
    "result": []
  },
  {
    "postal": "M2R8G5",
    "result": []
  },
  {
    "postal": "M2R5R6",
    "result": []
  },
  {
    "postal": "M2R2W3",
    "result": [
      {
        "electoralDistricts": [
          {
            "election": null,
            "id": 117,
            "name": "Willowdale"
          }
        ],
        "pollDivisionIds": [
          10142602
        ],
        "postalCode": "M2R2W3",
        "streetName": "CHELMSFORD",
        "streetDirectionId": null,
        "streetTypeId": "AVE",
        "placeName": "NORTH YORK",
        "streetNameDisplayText": "CHELMSFORD AVE, NORTH YORK"
      }
    ]
  },
  {
    "postal": "M2R0A0",
    "result": []
  },
  {
    "postal": "M2R6P8",
    "result": []
  },
  {
    "postal": "M2R8N9",
    "result": []
  },
  {
    "postal": "M2R0S9",
    "result": []
  },
  {
    "postal": "M2R8G0",
    "result": []
  },
  {
    "postal": "M2R8C7",
    "result": []
  },
  {
    "postal": "M2R5X8",
    "result": []
  },
  {
    "postal": "M2R7E8",
    "result": []
  },
  {
    "postal": "M2R6X2",
    "result": []
  },
  {
    "postal": "M2R4C6",
    "result": []
  },
  {
    "postal": "M2R7H2",
    "result": []
  },
  {
    "postal": "M2R4R0",
    "result": []
  },
  {
    "postal": "M2R6J3",
    "result": []
  },
  {
    "postal": "M2R4B8",
    "result": []
  },
  {
    "postal": "M2R6H6",
    "result": []
  },
  {
    "postal": "M2R0S1",
    "result": []
  },
  {
    "postal": "M2R4E3",
    "result": []
  },
  {
    "postal": "M2R7K2",
    "result": []
  },
  {
    "postal": "M2R7T8",
    "result": []
  },
  {
    "postal": "M2R0J9",
    "result": []
  },
  {
    "postal": "M2R5J9",
    "result": []
  },
  {
    "postal": "M2R5S7",
    "result": []
  },
  {
    "postal": "M2R0G9",
    "result": []
  },
  {
    "postal": "M2R3J9",
    "result": [
      {
        "electoralDistricts": [
          {
            "election": null,
            "id": 120,
            "name": "York Centre"
          }
        ],
        "pollDivisionIds": [
          10102952
        ],
        "postalCode": "M2R3J9",
        "streetName": "FISHERVILLE",
        "streetDirectionId": null,
        "streetTypeId": "RD",
        "placeName": "NORTH YORK",
        "streetNameDisplayText": "FISHERVILLE RD, NORTH YORK"
      }
    ]
  },
  {
    "postal": "M2R2Y0",
    "result": []
  },
  {
    "postal": "M2R8X5",
    "result": []
  },
  {
    "postal": "M2R2M7",
    "result": [
      {
        "electoralDistricts": [
          {
            "election": null,
            "id": 117,
            "name": "Willowdale"
          }
        ],
        "pollDivisionIds": [
          10142602
        ],
        "postalCode": "M2R2M7",
        "streetName": "PATRICIA",
        "streetDirectionId": null,
        "streetTypeId": "AVE",
        "placeName": "NORTH YORK",
        "streetNameDisplayText": "PATRICIA AVE, NORTH YORK"
      }
    ]
  },
  {
    "postal": "M2R9Z3",
    "result": []
  },
  {
    "postal": "M2R7W2",
    "result": []
  },
  {
    "postal": "M2R3W0",
    "result": []
  },
  {
    "postal": "M2R3M1",
    "result": [
      {
        "electoralDistricts": [
          {
            "election": null,
            "id": 120,
            "name": "York Centre"
          }
        ],
        "pollDivisionIds": [
          10142843
        ],
        "postalCode": "M2R3M1",
        "streetName": "DOVE HAWKWAY",
        "streetDirectionId": null,
        "streetTypeId": "WAY",
        "placeName": "NORTH YORK",
        "streetNameDisplayText": "DOVE HAWKWAY WAY, NORTH YORK"
      }
    ]
  },
  {
    "postal": "M2R6A5",
    "result": []
  },
  {
    "postal": "M2R2M9",
    "result": [
      {
        "electoralDistricts": [
          {
            "election": null,
            "id": 117,
            "name": "Willowdale"
          }
        ],
        "pollDivisionIds": [
          10142602
        ],
        "postalCode": "M2R2M9",
        "streetName": "PATRICIA",
        "streetDirectionId": null,
        "streetTypeId": "AVE",
        "placeName": "NORTH YORK",
        "streetNameDisplayText": "PATRICIA AVE, NORTH YORK"
      }
    ]
  },
  {
    "postal": "M2R5C3",
    "result": []
  },
  {
    "postal": "M2R0Y6",
    "result": []
  },
  {
    "postal": "M2R9H7",
    "result": []
  },
  {
    "postal": "M2R3L0",
    "result": []
  },
  {
    "postal": "M2R5N9",
    "result": []
  },
  {
    "postal": "M2R5E3",
    "result": []
  },
  {
    "postal": "M2R7M9",
    "result": []
  },
  {
    "postal": "M2R8N2",
    "result": []
  },
  {
    "postal": "M2R9H3",
    "result": []
  },
  {
    "postal": "M2R2K8",
    "result": [
      {
        "electoralDistricts": [
          {
            "election": null,
            "id": 117,
            "name": "Willowdale"
          }
        ],
        "pollDivisionIds": [
          10142602
        ],
        "postalCode": "M2R2K8",
        "streetName": "DREWRY",
        "streetDirectionId": null,
        "streetTypeId": "AVE",
        "placeName": "NORTH YORK",
        "streetNameDisplayText": "DREWRY AVE, NORTH YORK"
      }
    ]
  },
  {
    "postal": "M2R9L0",
    "result": []
  },
  {
    "postal": "M2R6L9",
    "result": []
  },
  {
    "postal": "M2R6A8",
    "result": []
  },
  {
    "postal": "M2R2K6",
    "result": [
      {
        "electoralDistricts": [
          {
            "election": null,
            "id": 117,
            "name": "Willowdale"
          }
        ],
        "pollDivisionIds": [
          10142602
        ],
        "postalCode": "M2R2K6",
        "streetName": "DREWRY",
        "streetDirectionId": null,
        "streetTypeId": "AVE",
        "placeName": "NORTH YORK",
        "streetNameDisplayText": "DREWRY AVE, NORTH YORK"
      },
      {
        "electoralDistricts": [
          {
            "election": null,
            "id": 120,
            "name": "York Centre"
          }
        ],
        "pollDivisionIds": [
          10142846
        ],
        "postalCode": "M2R2K6",
        "streetName": "RED ROBINWAY",
        "streetDirectionId": null,
        "streetTypeId": null,
        "placeName": "NORTH YORK",
        "streetNameDisplayText": "RED ROBINWAY, NORTH YORK"
      }
    ]
  },
  {
    "postal": "M2R2M0",
    "result": []
  },
  {
    "postal": "M2R5X7",
    "result": []
  },
  {
    "postal": "M2R0M7",
    "result": []
  },
  {
    "postal": "M2R7A6",
    "result": []
  },
  {
    "postal": "M2R3C5",
    "result": [
      {
        "electoralDistricts": [
          {
            "election": null,
            "id": 120,
            "name": "York Centre"
          }
        ],
        "pollDivisionIds": [
          10142843
        ],
        "postalCode": "M2R3C5",
        "streetName": "FISHERVILLE",
        "streetDirectionId": null,
        "streetTypeId": "RD",
        "placeName": "NORTH YORK",
        "streetNameDisplayText": "FISHERVILLE RD, NORTH YORK"
      }
    ]
  },
  {
    "postal": "M2R2P2",
    "result": [
      {
        "electoralDistricts": [
          {
            "election": null,
            "id": 117,
            "name": "Willowdale"
          }
        ],
        "pollDivisionIds": [
          10142602
        ],
        "postalCode": "M2R2P2",
        "streetName": "LISSOM",
        "streetDirectionId": null,
        "streetTypeId": "CRES",
        "placeName": "NORTH YORK",
        "streetNameDisplayText": "LISSOM CRES, NORTH YORK"
      }
    ]
  },
  {
    "postal": "M2R9N4",
    "result": []
  },
  {
    "postal": "M2R3M9",
    "result": [
      {
        "electoralDistricts": [
          {
            "election": null,
            "id": 120,
            "name": "York Centre"
          }
        ],
        "pollDivisionIds": [
          10142865
        ],
        "postalCode": "M2R3M9",
        "streetName": "STEELES",
        "streetDirectionId": "W",
        "streetTypeId": "AVE",
        "placeName": "NORTH YORK",
        "streetNameDisplayText": "STEELES AVE W, NORTH YORK"
      },
      {
        "electoralDistricts": [
          {
            "election": null,
            "id": 120,
            "name": "York Centre"
          }
        ],
        "pollDivisionIds": [
          10142865
        ],
        "postalCode": "M2R3M9",
        "streetName": "STEELES AVE.WEST",
        "streetDirectionId": "W",
        "streetTypeId": "AVE",
        "placeName": "NORTH YORK",
        "streetNameDisplayText": "STEELES AVE.WEST AVE W, NORTH YORK"
      }
    ]
  },
  {
    "postal": "M2R8K6",
    "result": []
  },
  {
    "postal": "M2R1L2",
    "result": [
      {
        "electoralDistricts": [
          {
            "election": null,
            "id": 117,
            "name": "Willowdale"
          }
        ],
        "pollDivisionIds": [
          10142610
        ],
        "postalCode": "M2R1L2",
        "streetName": "FLEETWELL",
        "streetDirectionId": null,
        "streetTypeId": "CRT",
        "placeName": "NORTH YORK",
        "streetNameDisplayText": "FLEETWELL CRT, NORTH YORK"
      }
    ]
  },
  {
    "postal": "M2R2Z9",
    "result": [
      {
        "electoralDistricts": [
          {
            "election": null,
            "id": 120,
            "name": "York Centre"
          }
        ],
        "pollDivisionIds": [
          10142843
        ],
        "postalCode": "M2R2Z9",
        "streetName": "ROBINGROVE",
        "streetDirectionId": null,
        "streetTypeId": "RD",
        "placeName": "NORTH YORK",
        "streetNameDisplayText": "ROBINGROVE RD, NORTH YORK"
      }
    ]
  },
  {
    "postal": "M2R2S2",
    "result": [
      {
        "electoralDistricts": [
          {
            "election": null,
            "id": 117,
            "name": "Willowdale"
          }
        ],
        "pollDivisionIds": [
          10142602
        ],
        "postalCode": "M2R2S2",
        "streetName": "GREENWIN VILLAGE",
        "streetDirectionId": null,
        "streetTypeId": "RD",
        "placeName": "NORTH YORK",
        "streetNameDisplayText": "GREENWIN VILLAGE RD, NORTH YORK"
      }
    ]
  },
  {
    "postal": "M2R2W2",
    "result": [
      {
        "electoralDistricts": [
          {
            "election": null,
            "id": 117,
            "name": "Willowdale"
          }
        ],
        "pollDivisionIds": [
          10142602
        ],
        "postalCode": "M2R2W2",
        "streetName": "CHELMSFORD",
        "streetDirectionId": null,
        "streetTypeId": "AVE",
        "placeName": "NORTH YORK",
        "streetNameDisplayText": "CHELMSFORD AVE, NORTH YORK"
      }
    ]
  },
  {
    "postal": "M2R2C3",
    "result": [
      {
        "electoralDistricts": [
          {
            "election": null,
            "id": 120,
            "name": "York Centre"
          }
        ],
        "pollDivisionIds": [
          10142881
        ],
        "postalCode": "M2R2C3",
        "streetName": "GOLDFINCH",
        "streetDirectionId": null,
        "streetTypeId": "CRT",
        "placeName": "NORTH YORK",
        "streetNameDisplayText": "GOLDFINCH CRT, NORTH YORK"
      }
    ]
  },
  {
    "postal": "M2R6L7",
    "result": []
  },
  {
    "postal": "M2R3K0",
    "result": []
  },
  {
    "postal": "M2R3C1",
    "result": [
      {
        "electoralDistricts": [
          {
            "election": null,
            "id": 120,
            "name": "York Centre"
          }
        ],
        "pollDivisionIds": [
          10142843
        ],
        "postalCode": "M2R3C1",
        "streetName": "FISHERVILLE",
        "streetDirectionId": null,
        "streetTypeId": "RD",
        "placeName": "NORTH YORK",
        "streetNameDisplayText": "FISHERVILLE RD, NORTH YORK"
      }
    ]
  },
  {
    "postal": "M2R6M9",
    "result": []
  },
  {
    "postal": "M2R4N9",
    "result": []
  },
  {
    "postal": "M2R3Y7",
    "result": [
      {
        "electoralDistricts": [
          {
            "election": null,
            "id": 117,
            "name": "Willowdale"
          }
        ],
        "pollDivisionIds": [
          10142612
        ],
        "postalCode": "M2R3Y7",
        "streetName": "FLOOK",
        "streetDirectionId": null,
        "streetTypeId": "LANE",
        "placeName": "NORTH YORK",
        "streetNameDisplayText": "FLOOK LANE, NORTH YORK"
      }
    ]
  },
  {
    "postal": "M2R2A9",
    "result": [
      {
        "electoralDistricts": [
          {
            "election": null,
            "id": 120,
            "name": "York Centre"
          }
        ],
        "pollDivisionIds": [
          10142846
        ],
        "postalCode": "M2R2A9",
        "streetName": "CARSCADDEN",
        "streetDirectionId": null,
        "streetTypeId": "DR",
        "placeName": "NORTH YORK",
        "streetNameDisplayText": "CARSCADDEN DR, NORTH YORK"
      }
    ]
  },
  {
    "postal": "M2R6H5",
    "result": []
  },
  {
    "postal": "M2R8B4",
    "result": []
  },
  {
    "postal": "M2R4Z2",
    "result": []
  },
  {
    "postal": "M2R9J0",
    "result": []
  },
  {
    "postal": "M2R7V7",
    "result": []
  },
  {
    "postal": "M2R5T5",
    "result": []
  },
  {
    "postal": "M2R4W5",
    "result": []
  },
  {
    "postal": "M2R1T8",
    "result": [
      {
        "electoralDistricts": [
          {
            "election": null,
            "id": 117,
            "name": "Willowdale"
          }
        ],
        "pollDivisionIds": [
          10142612
        ],
        "postalCode": "M2R1T8",
        "streetName": "STAFFORD",
        "streetDirectionId": null,
        "streetTypeId": "RD",
        "placeName": "NORTH YORK",
        "streetNameDisplayText": "STAFFORD RD, NORTH YORK"
      }
    ]
  },
  {
    "postal": "M2R9G6",
    "result": []
  },
  {
    "postal": "M2R1H3",
    "result": [
      {
        "electoralDistricts": [
          {
            "election": null,
            "id": 117,
            "name": "Willowdale"
          }
        ],
        "pollDivisionIds": [
          10142612
        ],
        "postalCode": "M2R1H3",
        "streetName": "HORSHAM",
        "streetDirectionId": null,
        "streetTypeId": "AVE",
        "placeName": "NORTH YORK",
        "streetNameDisplayText": "HORSHAM AVE, NORTH YORK"
      }
    ]
  },
  {
    "postal": "M2R5R5",
    "result": []
  },
  {
    "postal": "M2R8A4",
    "result": []
  },
  {
    "postal": "M2R3T6",
    "result": [
      {
        "electoralDistricts": [
          {
            "election": null,
            "id": 120,
            "name": "York Centre"
          }
        ],
        "pollDivisionIds": [
          10142866
        ],
        "postalCode": "M2R3T6",
        "streetName": "STEELES",
        "streetDirectionId": "W",
        "streetTypeId": "AVE",
        "placeName": "NORTH YORK",
        "streetNameDisplayText": "STEELES AVE W, NORTH YORK"
      }
    ]
  },
  {
    "postal": "M2R9W8",
    "result": []
  },
  {
    "postal": "M2R0N3",
    "result": []
  },
  {
    "postal": "M2R7V0",
    "result": []
  },
  {
    "postal": "M2R8T5",
    "result": []
  },
  {
    "postal": "M2R5N3",
    "result": []
  },
  {
    "postal": "M2R5G9",
    "result": []
  },
  {
    "postal": "M2R3X8",
    "result": []
  },
  {
    "postal": "M2R9R3",
    "result": []
  },
  {
    "postal": "M2R2S1",
    "result": [
      {
        "electoralDistricts": [
          {
            "election": null,
            "id": 117,
            "name": "Willowdale"
          }
        ],
        "pollDivisionIds": [
          10142602
        ],
        "postalCode": "M2R2S1",
        "streetName": "GREENWIN VILLAGE",
        "streetDirectionId": null,
        "streetTypeId": "RD",
        "placeName": "NORTH YORK",
        "streetNameDisplayText": "GREENWIN VILLAGE RD, NORTH YORK"
      }
    ]
  },
  {
    "postal": "M2R9J7",
    "result": []
  },
  {
    "postal": "M2R2J3",
    "result": [
      {
        "electoralDistricts": [
          {
            "election": null,
            "id": 117,
            "name": "Willowdale"
          }
        ],
        "pollDivisionIds": [
          10142602
        ],
        "postalCode": "M2R2J3",
        "streetName": "DALLAS",
        "streetDirectionId": null,
        "streetTypeId": "RD",
        "placeName": "NORTH YORK",
        "streetNameDisplayText": "DALLAS RD, NORTH YORK"
      }
    ]
  },
  {
    "postal": "M2R3B6",
    "result": [
      {
        "electoralDistricts": [
          {
            "election": null,
            "id": 120,
            "name": "York Centre"
          }
        ],
        "pollDivisionIds": [
          10142866
        ],
        "postalCode": "M2R3B6",
        "streetName": "FISHERVILLE",
        "streetDirectionId": null,
        "streetTypeId": "RD",
        "placeName": "NORTH YORK",
        "streetNameDisplayText": "FISHERVILLE RD, NORTH YORK"
      }
    ]
  },
  {
    "postal": "M2R8J0",
    "result": []
  },
  {
    "postal": "M2R7R4",
    "result": []
  },
  {
    "postal": "M2R8K8",
    "result": []
  },
  {
    "postal": "M2R4P3",
    "result": []
  },
  {
    "postal": "M2R0A2",
    "result": [
      {
        "electoralDistricts": [
          {
            "election": null,
            "id": 117,
            "name": "Willowdale"
          }
        ],
        "pollDivisionIds": [
          10142703
        ],
        "postalCode": "M2R0A2",
        "streetName": "PATRICIA",
        "streetDirectionId": null,
        "streetTypeId": "AVE",
        "placeName": "NORTH YORK",
        "streetNameDisplayText": "PATRICIA AVE, NORTH YORK"
      }
    ]
  },
  {
    "postal": "M2R2G2",
    "result": [
      {
        "electoralDistricts": [
          {
            "election": null,
            "id": 117,
            "name": "Willowdale"
          }
        ],
        "pollDivisionIds": [
          10142602
        ],
        "postalCode": "M2R2G2",
        "streetName": "GRANTBROOK",
        "streetDirectionId": null,
        "streetTypeId": "ST",
        "placeName": "NORTH YORK",
        "streetNameDisplayText": "GRANTBROOK ST, NORTH YORK"
      }
    ]
  },
  {
    "postal": "M2R5Y9",
    "result": []
  },
  {
    "postal": "M2R7X0",
    "result": []
  },
  {
    "postal": "M2R7W3",
    "result": []
  },
  {
    "postal": "M2R7X5",
    "result": []
  },
  {
    "postal": "M2R5K6",
    "result": []
  },
  {
    "postal": "M2R5B6",
    "result": []
  },
  {
    "postal": "M2R7Z0",
    "result": []
  },
  {
    "postal": "M2R9H6",
    "result": []
  },
  {
    "postal": "M2R1B4",
    "result": [
      {
        "electoralDistricts": [
          {
            "election": null,
            "id": 117,
            "name": "Willowdale"
          }
        ],
        "pollDivisionIds": [
          10142612
        ],
        "postalCode": "M2R1B4",
        "streetName": "BETTY ANN",
        "streetDirectionId": null,
        "streetTypeId": "DR",
        "placeName": "NORTH YORK",
        "streetNameDisplayText": "BETTY ANN DR, NORTH YORK"
      }
    ]
  },
  {
    "postal": "M2R1A0",
    "result": []
  },
  {
    "postal": "M2R9A0",
    "result": []
  },
  {
    "postal": "M2R1M6",
    "result": [
      {
        "electoralDistricts": [
          {
            "election": null,
            "id": 117,
            "name": "Willowdale"
          }
        ],
        "pollDivisionIds": [
          10142610
        ],
        "postalCode": "M2R1M6",
        "streetName": "FINCH",
        "streetDirectionId": "W",
        "streetTypeId": "AVE",
        "placeName": "NORTH YORK",
        "streetNameDisplayText": "FINCH AVE W, NORTH YORK"
      }
    ]
  },
  {
    "postal": "M2R5H0",
    "result": []
  },
  {
    "postal": "M2R1K6",
    "result": [
      {
        "electoralDistricts": [
          {
            "election": null,
            "id": 117,
            "name": "Willowdale"
          }
        ],
        "pollDivisionIds": [
          10142610
        ],
        "postalCode": "M2R1K6",
        "streetName": "LURGAN",
        "streetDirectionId": null,
        "streetTypeId": "DR",
        "placeName": "NORTH YORK",
        "streetNameDisplayText": "LURGAN DR, NORTH YORK"
      }
    ]
  },
  {
    "postal": "M2R5E1",
    "result": []
  },
  {
    "postal": "M2R3T9",
    "result": [
      {
        "electoralDistricts": [
          {
            "election": null,
            "id": 120,
            "name": "York Centre"
          }
        ],
        "pollDivisionIds": [
          10142843
        ],
        "postalCode": "M2R3T9",
        "streetName": "FESTIVAL",
        "streetDirectionId": null,
        "streetTypeId": "DR",
        "placeName": "NORTH YORK",
        "streetNameDisplayText": "FESTIVAL DR, NORTH YORK"
      }
    ]
  },
  {
    "postal": "M2R2M6",
    "result": [
      {
        "electoralDistricts": [
          {
            "election": null,
            "id": 117,
            "name": "Willowdale"
          }
        ],
        "pollDivisionIds": [
          10142602
        ],
        "postalCode": "M2R2M6",
        "streetName": "PATRICIA",
        "streetDirectionId": null,
        "streetTypeId": "AVE",
        "placeName": "NORTH YORK",
        "streetNameDisplayText": "PATRICIA AVE, NORTH YORK"
      }
    ]
  },
  {
    "postal": "M2R0G5",
    "result": []
  },
  {
    "postal": "M2R0Y2",
    "result": []
  },
  {
    "postal": "M2R2Y7",
    "result": [
      {
        "electoralDistricts": [
          {
            "election": null,
            "id": 120,
            "name": "York Centre"
          }
        ],
        "pollDivisionIds": [
          10142847
        ],
        "postalCode": "M2R2Y7",
        "streetName": "CANDY COURT",
        "streetDirectionId": null,
        "streetTypeId": "WAY",
        "placeName": "NORTH YORK",
        "streetNameDisplayText": "CANDY COURT WAY, NORTH YORK"
      },
      {
        "electoralDistricts": [
          {
            "election": null,
            "id": 117,
            "name": "Willowdale"
          }
        ],
        "pollDivisionIds": [
          10142602
        ],
        "postalCode": "M2R2Y7",
        "streetName": "CANDY COURTWAY",
        "streetDirectionId": null,
        "streetTypeId": null,
        "placeName": "NORTH YORK",
        "streetNameDisplayText": "CANDY COURTWAY, NORTH YORK"
      }
    ]
  },
  {
    "postal": "M2R2J7",
    "result": [
      {
        "electoralDistricts": [
          {
            "election": null,
            "id": 117,
            "name": "Willowdale"
          }
        ],
        "pollDivisionIds": [
          10142602
        ],
        "postalCode": "M2R2J7",
        "streetName": "TRANSWELL",
        "streetDirectionId": null,
        "streetTypeId": "AVE",
        "placeName": "NORTH YORK",
        "streetNameDisplayText": "TRANSWELL AVE, NORTH YORK"
      }
    ]
  },
  {
    "postal": "M2R4K7",
    "result": []
  },
  {
    "postal": "M2R7P9",
    "result": []
  },
  {
    "postal": "M2R8X0",
    "result": []
  },
  {
    "postal": "M2R3X1",
    "result": []
  },
  {
    "postal": "M2R1R5",
    "result": [
      {
        "electoralDistricts": [
          {
            "election": null,
            "id": 117,
            "name": "Willowdale"
          }
        ],
        "pollDivisionIds": [
          10142610
        ],
        "postalCode": "M2R1R5",
        "streetName": "SENLAC",
        "streetDirectionId": null,
        "streetTypeId": "RD",
        "placeName": "NORTH YORK",
        "streetNameDisplayText": "SENLAC RD, NORTH YORK"
      }
    ]
  },
  {
    "postal": "M2R6X6",
    "result": []
  },
  {
    "postal": "M2R0Y1",
    "result": []
  },
  {
    "postal": "M2R8G1",
    "result": []
  },
  {
    "postal": "M2R3J3",
    "result": []
  },
  {
    "postal": "M2R8C2",
    "result": []
  },
  {
    "postal": "M2R4X9",
    "result": []
  },
  {
    "postal": "M2R6G9",
    "result": []
  },
  {
    "postal": "M2R4M3",
    "result": []
  },
  {
    "postal": "M2R9P7",
    "result": []
  },
  {
    "postal": "M2R4E5",
    "result": []
  },
  {
    "postal": "M2R5K9",
    "result": []
  },
  {
    "postal": "M2R2V2",
    "result": [
      {
        "electoralDistricts": [
          {
            "election": null,
            "id": 117,
            "name": "Willowdale"
          }
        ],
        "pollDivisionIds": [
          10142602
        ],
        "postalCode": "M2R2V2",
        "streetName": "CACTUS",
        "streetDirectionId": null,
        "streetTypeId": "AVE",
        "placeName": "NORTH YORK",
        "streetNameDisplayText": "CACTUS AVE, NORTH YORK"
      }
    ]
  },
  {
    "postal": "M2R2N9",
    "result": [
      {
        "electoralDistricts": [
          {
            "election": null,
            "id": 117,
            "name": "Willowdale"
          }
        ],
        "pollDivisionIds": [
          10142602
        ],
        "postalCode": "M2R2N9",
        "streetName": "LISSOM",
        "streetDirectionId": null,
        "streetTypeId": "CRES",
        "placeName": "NORTH YORK",
        "streetNameDisplayText": "LISSOM CRES, NORTH YORK"
      }
    ]
  },
  {
    "postal": "M2R6L4",
    "result": []
  },
  {
    "postal": "M2R8E0",
    "result": []
  },
  {
    "postal": "M2R0N0",
    "result": []
  },
  {
    "postal": "M2R6R0",
    "result": []
  },
  {
    "postal": "M2R9C1",
    "result": []
  },
  {
    "postal": "M2R4H4",
    "result": []
  },
  {
    "postal": "M2R5W3",
    "result": []
  },
  {
    "postal": "M2R9N9",
    "result": []
  },
  {
    "postal": "M2R1V7",
    "result": [
      {
        "electoralDistricts": [
          {
            "election": null,
            "id": 117,
            "name": "Willowdale"
          }
        ],
        "pollDivisionIds": [
          10142610
        ],
        "postalCode": "M2R1V7",
        "streetName": "CLOEBURY",
        "streetDirectionId": null,
        "streetTypeId": "CRT",
        "placeName": "NORTH YORK",
        "streetNameDisplayText": "CLOEBURY CRT, NORTH YORK"
      }
    ]
  },
  {
    "postal": "M2R8J1",
    "result": []
  },
  {
    "postal": "M2R5V9",
    "result": []
  },
  {
    "postal": "M2R2S8",
    "result": [
      {
        "electoralDistricts": [
          {
            "election": null,
            "id": 117,
            "name": "Willowdale"
          }
        ],
        "pollDivisionIds": [
          10142621
        ],
        "postalCode": "M2R2S8",
        "streetName": "STEELES",
        "streetDirectionId": "W",
        "streetTypeId": "AVE",
        "placeName": "NORTH YORK",
        "streetNameDisplayText": "STEELES AVE W, NORTH YORK"
      }
    ]
  },
  {
    "postal": "M2R6P0",
    "result": []
  },
  {
    "postal": "M2R4J8",
    "result": []
  },
  {
    "postal": "M2R0N1",
    "result": []
  },
  {
    "postal": "M2R1Y7",
    "result": [
      {
        "electoralDistricts": [
          {
            "election": null,
            "id": 117,
            "name": "Willowdale"
          }
        ],
        "pollDivisionIds": [
          10142602,
          10142611
        ],
        "postalCode": "M2R1Y7",
        "streetName": "BATHURST",
        "streetDirectionId": null,
        "streetTypeId": "ST",
        "placeName": "NORTH YORK",
        "streetNameDisplayText": "BATHURST ST, NORTH YORK"
      },
      {
        "electoralDistricts": [
          {
            "election": null,
            "id": 101,
            "name": "SpadinaFort York"
          }
        ],
        "pollDivisionIds": [
          10141943
        ],
        "postalCode": "M2R1Y7",
        "streetName": "BATHURST",
        "streetDirectionId": null,
        "streetTypeId": "ST",
        "placeName": "TORONTO",
        "streetNameDisplayText": "BATHURST ST, TORONTO"
      }
    ]
  },
  {
    "postal": "M2R7W5",
    "result": []
  },
  {
    "postal": "M2R3Z1",
    "result": []
  },
  {
    "postal": "M2R7M6",
    "result": []
  },
  {
    "postal": "M2R1W7",
    "result": [
      {
        "electoralDistricts": [
          {
            "election": null,
            "id": 117,
            "name": "Willowdale"
          }
        ],
        "pollDivisionIds": [
          10142612
        ],
        "postalCode": "M2R1W7",
        "streetName": "BATHURST",
        "streetDirectionId": null,
        "streetTypeId": "ST",
        "placeName": "NORTH YORK",
        "streetNameDisplayText": "BATHURST ST, NORTH YORK"
      }
    ]
  },
  {
    "postal": "M2R1X1",
    "result": [
      {
        "electoralDistricts": [
          {
            "election": null,
            "id": 120,
            "name": "York Centre"
          },
          {
            "election": null,
            "id": 117,
            "name": "Willowdale"
          }
        ],
        "pollDivisionIds": [
          10142845,
          10142610
        ],
        "postalCode": "M2R1X1",
        "streetName": "BATHURST",
        "streetDirectionId": null,
        "streetTypeId": "ST",
        "placeName": "NORTH YORK",
        "streetNameDisplayText": "BATHURST ST, NORTH YORK"
      }
    ]
  },
  {
    "postal": "M2R0C1",
    "result": []
  },
  {
    "postal": "M2R4N3",
    "result": []
  },
  {
    "postal": "M2R4S8",
    "result": []
  },
  {
    "postal": "M2R1H6",
    "result": [
      {
        "electoralDistricts": [
          {
            "election": null,
            "id": 117,
            "name": "Willowdale"
          }
        ],
        "pollDivisionIds": [
          10142610
        ],
        "postalCode": "M2R1H6",
        "streetName": "HOUNSLOW",
        "streetDirectionId": null,
        "streetTypeId": "AVE",
        "placeName": "NORTH YORK",
        "streetNameDisplayText": "HOUNSLOW AVE, NORTH YORK"
      }
    ]
  },
  {
    "postal": "M2R2Z4",
    "result": [
      {
        "electoralDistricts": [
          {
            "election": null,
            "id": 120,
            "name": "York Centre"
          }
        ],
        "pollDivisionIds": [
          10142871
        ],
        "postalCode": "M2R2Z4",
        "streetName": "CEDARCROFT",
        "streetDirectionId": null,
        "streetTypeId": "BLVD",
        "placeName": "NORTH YORK",
        "streetNameDisplayText": "CEDARCROFT BLVD, NORTH YORK"
      }
    ]
  },
  {
    "postal": "M2R7K3",
    "result": []
  },
  {
    "postal": "M2R8A2",
    "result": []
  },
  {
    "postal": "M2R6J1",
    "result": []
  },
  {
    "postal": "M2R5Z6",
    "result": []
  },
  {
    "postal": "M2R3Z0",
    "result": []
  },
  {
    "postal": "M2R8M0",
    "result": []
  },
  {
    "postal": "M2R1Z6",
    "result": [
      {
        "electoralDistricts": [
          {
            "election": null,
            "id": 117,
            "name": "Willowdale"
          }
        ],
        "pollDivisionIds": [
          10142622
        ],
        "postalCode": "M2R1Z6",
        "streetName": "BATHURST",
        "streetDirectionId": null,
        "streetTypeId": "ST",
        "placeName": "NORTH YORK",
        "streetNameDisplayText": "BATHURST ST, NORTH YORK"
      }
    ]
  },
  {
    "postal": "M2R8K7",
    "result": []
  },
  {
    "postal": "M2R1N3",
    "result": [
      {
        "electoralDistricts": [
          {
            "election": null,
            "id": 120,
            "name": "York Centre"
          }
        ],
        "pollDivisionIds": [
          10142846
        ],
        "postalCode": "M2R1N3",
        "streetName": "FINCH",
        "streetDirectionId": "W",
        "streetTypeId": "AVE",
        "placeName": "NORTH YORK",
        "streetNameDisplayText": "FINCH AVE W, NORTH YORK"
      }
    ]
  },
  {
    "postal": "M2R9S2",
    "result": []
  },
  {
    "postal": "M2R2K1",
    "result": [
      {
        "electoralDistricts": [
          {
            "election": null,
            "id": 117,
            "name": "Willowdale"
          }
        ],
        "pollDivisionIds": [
          10142602
        ],
        "postalCode": "M2R2K1",
        "streetName": "TRANSWELL",
        "streetDirectionId": null,
        "streetTypeId": "AVE",
        "placeName": "NORTH YORK",
        "streetNameDisplayText": "TRANSWELL AVE, NORTH YORK"
      }
    ]
  },
  {
    "postal": "M2R1E8",
    "result": [
      {
        "electoralDistricts": [
          {
            "election": null,
            "id": 117,
            "name": "Willowdale"
          }
        ],
        "pollDivisionIds": [
          10142612
        ],
        "postalCode": "M2R1E8",
        "streetName": "TERRACE",
        "streetDirectionId": null,
        "streetTypeId": "AVE",
        "placeName": "NORTH YORK",
        "streetNameDisplayText": "TERRACE AVE, NORTH YORK"
      }
    ]
  },
  {
    "postal": "M2R9B8",
    "result": []
  },
  {
    "postal": "M2R7X4",
    "result": []
  },
  {
    "postal": "M2R1Z4",
    "result": [
      {
        "electoralDistricts": [
          {
            "election": null,
            "id": 117,
            "name": "Willowdale"
          }
        ],
        "pollDivisionIds": [
          10142622
        ],
        "postalCode": "M2R1Z4",
        "streetName": "BATHURST",
        "streetDirectionId": null,
        "streetTypeId": "ST",
        "placeName": "NORTH YORK",
        "streetNameDisplayText": "BATHURST ST, NORTH YORK"
      }
    ]
  },
  {
    "postal": "M2R2C7",
    "result": [
      {
        "electoralDistricts": [
          {
            "election": null,
            "id": 117,
            "name": "Willowdale"
          }
        ],
        "pollDivisionIds": [
          10142610
        ],
        "postalCode": "M2R2C7",
        "streetName": "LANBROOKE",
        "streetDirectionId": null,
        "streetTypeId": "AVE",
        "placeName": "NORTH YORK",
        "streetNameDisplayText": "LANBROOKE AVE, NORTH YORK"
      }
    ]
  },
  {
    "postal": "M2R2E7",
    "result": [
      {
        "electoralDistricts": [
          {
            "election": null,
            "id": 117,
            "name": "Willowdale"
          }
        ],
        "pollDivisionIds": [
          10142610
        ],
        "postalCode": "M2R2E7",
        "streetName": "GRANTBROOK",
        "streetDirectionId": null,
        "streetTypeId": "ST",
        "placeName": "NORTH YORK",
        "streetNameDisplayText": "GRANTBROOK ST, NORTH YORK"
      }
    ]
  },
  {
    "postal": "M2R3R1",
    "result": [
      {
        "electoralDistricts": [
          {
            "election": null,
            "id": 120,
            "name": "York Centre"
          }
        ],
        "pollDivisionIds": [
          10142845
        ],
        "postalCode": "M2R3R1",
        "streetName": "ROBERT HICKS",
        "streetDirectionId": null,
        "streetTypeId": "DR",
        "placeName": "NORTH YORK",
        "streetNameDisplayText": "ROBERT HICKS DR, NORTH YORK"
      }
    ]
  },
  {
    "postal": "M2R4K4",
    "result": []
  },
  {
    "postal": "M2R9G3",
    "result": []
  },
  {
    "postal": "M2R6C9",
    "result": []
  },
  {
    "postal": "M2R9H5",
    "result": []
  },
  {
    "postal": "M2R1P5",
    "result": [
      {
        "electoralDistricts": [
          {
            "election": null,
            "id": 117,
            "name": "Willowdale"
          }
        ],
        "pollDivisionIds": [
          10142612
        ],
        "postalCode": "M2R1P5",
        "streetName": "SENLAC",
        "streetDirectionId": null,
        "streetTypeId": "RD",
        "placeName": "NORTH YORK",
        "streetNameDisplayText": "SENLAC RD, NORTH YORK"
      }
    ]
  },
  {
    "postal": "M2R2J5",
    "result": [
      {
        "electoralDistricts": [
          {
            "election": null,
            "id": 117,
            "name": "Willowdale"
          }
        ],
        "pollDivisionIds": [
          10142602
        ],
        "postalCode": "M2R2J5",
        "streetName": "DALLAS",
        "streetDirectionId": null,
        "streetTypeId": "RD",
        "placeName": "NORTH YORK",
        "streetNameDisplayText": "DALLAS RD, NORTH YORK"
      }
    ]
  },
  {
    "postal": "M2R4W6",
    "result": []
  },
  {
    "postal": "M2R8M8",
    "result": []
  },
  {
    "postal": "M2R6C5",
    "result": []
  },
  {
    "postal": "M2R9H0",
    "result": []
  },
  {
    "postal": "M2R1X8",
    "result": []
  },
  {
    "postal": "M2R3H4",
    "result": [
      {
        "electoralDistricts": [
          {
            "election": null,
            "id": 120,
            "name": "York Centre"
          }
        ],
        "pollDivisionIds": [
          10142846
        ],
        "postalCode": "M2R3H4",
        "streetName": "VALE CARSEWAY",
        "streetDirectionId": null,
        "streetTypeId": "WAY",
        "placeName": "NORTH YORK",
        "streetNameDisplayText": "VALE CARSEWAY WAY, NORTH YORK"
      }
    ]
  },
  {
    "postal": "M2R4E7",
    "result": []
  },
  {
    "postal": "M2R8A0",
    "result": []
  },
  {
    "postal": "M2R1Z7",
    "result": [
      {
        "electoralDistricts": [
          {
            "election": null,
            "id": 120,
            "name": "York Centre"
          }
        ],
        "pollDivisionIds": [
          10142870
        ],
        "postalCode": "M2R1Z7",
        "streetName": "BATHURST",
        "streetDirectionId": null,
        "streetTypeId": "ST",
        "placeName": "NORTH YORK",
        "streetNameDisplayText": "BATHURST ST, NORTH YORK"
      }
    ]
  },
  {
    "postal": "M2R7Z3",
    "result": []
  },
  {
    "postal": "M2R0L7",
    "result": []
  },
  {
    "postal": "M2R2C6",
    "result": [
      {
        "electoralDistricts": [
          {
            "election": null,
            "id": 117,
            "name": "Willowdale"
          }
        ],
        "pollDivisionIds": [
          10142610
        ],
        "postalCode": "M2R2C6",
        "streetName": "LANBROOKE",
        "streetDirectionId": null,
        "streetTypeId": "AVE",
        "placeName": "NORTH YORK",
        "streetNameDisplayText": "LANBROOKE AVE, NORTH YORK"
      }
    ]
  },
  {
    "postal": "M2R6M3",
    "result": []
  },
  {
    "postal": "M2R2J1",
    "result": [
      {
        "electoralDistricts": [
          {
            "election": null,
            "id": 117,
            "name": "Willowdale"
          }
        ],
        "pollDivisionIds": [
          10142602
        ],
        "postalCode": "M2R2J1",
        "streetName": "CHARLTON",
        "streetDirectionId": null,
        "streetTypeId": "BLVD",
        "placeName": "NORTH YORK",
        "streetNameDisplayText": "CHARLTON BLVD, NORTH YORK"
      }
    ]
  },
  {
    "postal": "M2R3E3",
    "result": [
      {
        "electoralDistricts": [
          {
            "election": null,
            "id": 120,
            "name": "York Centre"
          }
        ],
        "pollDivisionIds": [
          10142843
        ],
        "postalCode": "M2R3E3",
        "streetName": "TORRESDALE",
        "streetDirectionId": null,
        "streetTypeId": "AVE",
        "placeName": "NORTH YORK",
        "streetNameDisplayText": "TORRESDALE AVE, NORTH YORK"
      }
    ]
  },
  {
    "postal": "M2R6Z9",
    "result": []
  },
  {
    "postal": "M2R3M3",
    "result": [
      {
        "electoralDistricts": [
          {
            "election": null,
            "id": 120,
            "name": "York Centre"
          }
        ],
        "pollDivisionIds": [
          10142843
        ],
        "postalCode": "M2R3M3",
        "streetName": "DUCK HAWKWAY",
        "streetDirectionId": null,
        "streetTypeId": "WAY",
        "placeName": "NORTH YORK",
        "streetNameDisplayText": "DUCK HAWKWAY WAY, NORTH YORK"
      }
    ]
  },
  {
    "postal": "M2R9B1",
    "result": []
  },
  {
    "postal": "M2R9J5",
    "result": []
  },
  {
    "postal": "M2R4V8",
    "result": []
  },
  {
    "postal": "M2R6W2",
    "result": []
  },
  {
    "postal": "M2R0V5",
    "result": []
  },
  {
    "postal": "M2R0Z8",
    "result": []
  },
  {
    "postal": "M2R5G2",
    "result": []
  },
  {
    "postal": "M2R4N4",
    "result": []
  },
  {
    "postal": "M2R8G7",
    "result": []
  },
  {
    "postal": "M2R8W1",
    "result": []
  },
  {
    "postal": "M2R1S6",
    "result": [
      {
        "electoralDistricts": [
          {
            "election": null,
            "id": 117,
            "name": "Willowdale"
          }
        ],
        "pollDivisionIds": [
          10142612
        ],
        "postalCode": "M2R1S6",
        "streetName": "WYNN",
        "streetDirectionId": null,
        "streetTypeId": "RD",
        "placeName": "NORTH YORK",
        "streetNameDisplayText": "WYNN RD, NORTH YORK"
      }
    ]
  },
  {
    "postal": "M2R4E0",
    "result": []
  },
  {
    "postal": "M2R4L9",
    "result": []
  },
  {
    "postal": "M2R5Z9",
    "result": []
  },
  {
    "postal": "M2R5V3",
    "result": []
  },
  {
    "postal": "M2R4V2",
    "result": []
  },
  {
    "postal": "M2R7C0",
    "result": []
  },
  {
    "postal": "M2R6L0",
    "result": []
  },
  {
    "postal": "M2R1S9",
    "result": [
      {
        "electoralDistricts": [
          {
            "election": null,
            "id": 117,
            "name": "Willowdale"
          }
        ],
        "pollDivisionIds": [
          10142612
        ],
        "postalCode": "M2R1S9",
        "streetName": "WYNN",
        "streetDirectionId": null,
        "streetTypeId": "RD",
        "placeName": "NORTH YORK",
        "streetNameDisplayText": "WYNN RD, NORTH YORK"
      }
    ]
  },
  {
    "postal": "M2R7R6",
    "result": []
  },
  {
    "postal": "M2R7J0",
    "result": []
  },
  {
    "postal": "M2R5M0",
    "result": []
  },
  {
    "postal": "M2R2E5",
    "result": [
      {
        "electoralDistricts": [
          {
            "election": null,
            "id": 117,
            "name": "Willowdale"
          }
        ],
        "pollDivisionIds": [
          10142610
        ],
        "postalCode": "M2R2E5",
        "streetName": "CALDERON",
        "streetDirectionId": null,
        "streetTypeId": "CRES",
        "placeName": "NORTH YORK",
        "streetNameDisplayText": "CALDERON CRES, NORTH YORK"
      }
    ]
  },
  {
    "postal": "M2R7C7",
    "result": []
  },
  {
    "postal": "M2R5C0",
    "result": []
  },
  {
    "postal": "M2R8V9",
    "result": []
  },
  {
    "postal": "M2R7E0",
    "result": []
  },
  {
    "postal": "M2R6R4",
    "result": []
  },
  {
    "postal": "M2R3Z7",
    "result": []
  },
  {
    "postal": "M2R1J9",
    "result": [
      {
        "electoralDistricts": [
          {
            "election": null,
            "id": 117,
            "name": "Willowdale"
          }
        ],
        "pollDivisionIds": [
          10142604,
          10142610
        ],
        "postalCode": "M2R1J9",
        "streetName": "YORKVIEW",
        "streetDirectionId": null,
        "streetTypeId": "DR",
        "placeName": "NORTH YORK",
        "streetNameDisplayText": "YORKVIEW DR, NORTH YORK"
      }
    ]
  },
  {
    "postal": "M2R7K6",
    "result": []
  },
  {
    "postal": "M2R7Y5",
    "result": []
  },
  {
    "postal": "M2R1B7",
    "result": [
      {
        "electoralDistricts": [
          {
            "election": null,
            "id": 117,
            "name": "Willowdale"
          }
        ],
        "pollDivisionIds": [
          10142612
        ],
        "postalCode": "M2R1B7",
        "streetName": "ELLERSLIE",
        "streetDirectionId": null,
        "streetTypeId": "AVE",
        "placeName": "NORTH YORK",
        "streetNameDisplayText": "ELLERSLIE AVE, NORTH YORK"
      }
    ]
  },
  {
    "postal": "M2R4S9",
    "result": []
  },
  {
    "postal": "M2R9R9",
    "result": []
  },
  {
    "postal": "M2R5K7",
    "result": []
  },
  {
    "postal": "M2R6P2",
    "result": []
  },
  {
    "postal": "M2R2C5",
    "result": [
      {
        "electoralDistricts": [
          {
            "election": null,
            "id": 117,
            "name": "Willowdale"
          }
        ],
        "pollDivisionIds": [
          10142610
        ],
        "postalCode": "M2R2C5",
        "streetName": "LANBROOKE",
        "streetDirectionId": null,
        "streetTypeId": "AVE",
        "placeName": "NORTH YORK",
        "streetNameDisplayText": "LANBROOKE AVE, NORTH YORK"
      }
    ]
  },
  {
    "postal": "M2R2N0",
    "result": []
  },
  {
    "postal": "M2R1G0",
    "result": []
  },
  {
    "postal": "M2R4K5",
    "result": []
  },
  {
    "postal": "M2R9B5",
    "result": []
  },
  {
    "postal": "M2R6T5",
    "result": []
  },
  {
    "postal": "M2R1N8",
    "result": [
      {
        "electoralDistricts": [
          {
            "election": null,
            "id": 120,
            "name": "York Centre"
          }
        ],
        "pollDivisionIds": [
          10142880
        ],
        "postalCode": "M2R1N8",
        "streetName": "FINCH",
        "streetDirectionId": "W",
        "streetTypeId": "AVE",
        "placeName": "NORTH YORK",
        "streetNameDisplayText": "FINCH AVE W, NORTH YORK"
      }
    ]
  },
  {
    "postal": "M2R0C0",
    "result": []
  },
  {
    "postal": "M2R0R9",
    "result": []
  },
  {
    "postal": "M2R7L1",
    "result": []
  },
  {
    "postal": "M2R3Y8",
    "result": [
      {
        "electoralDistricts": [
          {
            "election": null,
            "id": 117,
            "name": "Willowdale"
          }
        ],
        "pollDivisionIds": [
          10142612
        ],
        "postalCode": "M2R3Y8",
        "streetName": "FLOOK",
        "streetDirectionId": null,
        "streetTypeId": "LANE",
        "placeName": "NORTH YORK",
        "streetNameDisplayText": "FLOOK LANE, NORTH YORK"
      }
    ]
  },
  {
    "postal": "M2R7X9",
    "result": []
  },
  {
    "postal": "M2R1A7",
    "result": [
      {
        "electoralDistricts": [
          {
            "election": null,
            "id": 117,
            "name": "Willowdale"
          }
        ],
        "pollDivisionIds": [
          10142612
        ],
        "postalCode": "M2R1A7",
        "streetName": "BETTY ANN",
        "streetDirectionId": null,
        "streetTypeId": "DR",
        "placeName": "NORTH YORK",
        "streetNameDisplayText": "BETTY ANN DR, NORTH YORK"
      }
    ]
  },
  {
    "postal": "M2R2T9",
    "result": [
      {
        "electoralDistricts": [
          {
            "election": null,
            "id": 117,
            "name": "Willowdale"
          }
        ],
        "pollDivisionIds": [
          10142603
        ],
        "postalCode": "M2R2T9",
        "streetName": "CACTUS",
        "streetDirectionId": null,
        "streetTypeId": "AVE",
        "placeName": "NORTH YORK",
        "streetNameDisplayText": "CACTUS AVE, NORTH YORK"
      }
    ]
  },
  {
    "postal": "M2R2E6",
    "result": [
      {
        "electoralDistricts": [
          {
            "election": null,
            "id": 117,
            "name": "Willowdale"
          }
        ],
        "pollDivisionIds": [
          10142611
        ],
        "postalCode": "M2R2E6",
        "streetName": "GRANTBROOK",
        "streetDirectionId": null,
        "streetTypeId": "ST",
        "placeName": "NORTH YORK",
        "streetNameDisplayText": "GRANTBROOK ST, NORTH YORK"
      }
    ]
  },
  {
    "postal": "M2R8Y1",
    "result": []
  },
  {
    "postal": "M2R0J5",
    "result": []
  },
  {
    "postal": "M2R4J1",
    "result": []
  },
  {
    "postal": "M2R1A5",
    "result": [
      {
        "electoralDistricts": [
          {
            "election": null,
            "id": 117,
            "name": "Willowdale"
          }
        ],
        "pollDivisionIds": [
          10142612
        ],
        "postalCode": "M2R1A5",
        "streetName": "CHRISTINE",
        "streetDirectionId": null,
        "streetTypeId": "CRES",
        "placeName": "NORTH YORK",
        "streetNameDisplayText": "CHRISTINE CRES, NORTH YORK"
      }
    ]
  },
  {
    "postal": "M2R6Z6",
    "result": []
  },
  {
    "postal": "M2R5K4",
    "result": []
  },
  {
    "postal": "M2R7R9",
    "result": []
  },
  {
    "postal": "M2R6G4",
    "result": []
  }
]
