[
  {
    "postal": "N2B9J6",
    "result": []
  },
  {
    "postal": "N2B9Z5",
    "result": []
  },
  {
    "postal": "N2B7H8",
    "result": []
  },
  {
    "postal": "N2B0P6",
    "result": []
  },
  {
    "postal": "N2B0S7",
    "result": []
  },
  {
    "postal": "N2B8B9",
    "result": []
  },
  {
    "postal": "N2B2A6",
    "result": [
      {
        "electoralDistricts": [
          {
            "election": null,
            "id": 47,
            "name": "Kitchener Centre"
          }
        ],
        "pollDivisionIds": [
          10139211
        ],
        "postalCode": "N2B2A6",
        "streetName": "FREDERICK",
        "streetDirectionId": null,
        "streetTypeId": "ST",
        "placeName": "KITCHENER",
        "streetNameDisplayText": "FREDERICK ST, KITCHENER"
      }
    ]
  },
  {
    "postal": "N2B7V2",
    "result": []
  },
  {
    "postal": "N2B9P4",
    "result": []
  },
  {
    "postal": "N2B6G0",
    "result": []
  },
  {
    "postal": "N2B2K0",
    "result": []
  },
  {
    "postal": "N2B7N6",
    "result": []
  },
  {
    "postal": "N2B5R3",
    "result": []
  },
  {
    "postal": "N2B7K0",
    "result": []
  },
  {
    "postal": "N2B3R2",
    "result": [
      {
        "electoralDistricts": [
          {
            "election": null,
            "id": 47,
            "name": "Kitchener Centre"
          }
        ],
        "pollDivisionIds": [
          10139218
        ],
        "postalCode": "N2B3R2",
        "streetName": "LORRAINE",
        "streetDirectionId": null,
        "streetTypeId": "AVE",
        "placeName": "KITCHENER",
        "streetNameDisplayText": "LORRAINE AVE, KITCHENER"
      }
    ]
  },
  {
    "postal": "N2B0J1",
    "result": []
  },
  {
    "postal": "N2B0B0",
    "result": []
  },
  {
    "postal": "N2B5Z2",
    "result": []
  },
  {
    "postal": "N2B7P3",
    "result": []
  },
  {
    "postal": "N2B2K3",
    "result": [
      {
        "electoralDistricts": [
          {
            "election": null,
            "id": 47,
            "name": "Kitchener Centre"
          }
        ],
        "pollDivisionIds": [
          10139212
        ],
        "postalCode": "N2B2K3",
        "streetName": "CHARLOTTE",
        "streetDirectionId": null,
        "streetTypeId": "CRES",
        "placeName": "KITCHENER",
        "streetNameDisplayText": "CHARLOTTE CRES, KITCHENER"
      }
    ]
  },
  {
    "postal": "N2B7Y6",
    "result": []
  },
  {
    "postal": "N2B1L9",
    "result": [
      {
        "electoralDistricts": [
          {
            "election": null,
            "id": 47,
            "name": "Kitchener Centre"
          }
        ],
        "pollDivisionIds": [
          10139210
        ],
        "postalCode": "N2B1L9",
        "streetName": "KRUG",
        "streetDirectionId": null,
        "streetTypeId": "ST",
        "placeName": "KITCHENER",
        "streetNameDisplayText": "KRUG ST, KITCHENER"
      }
    ]
  },
  {
    "postal": "N2B8T0",
    "result": []
  },
  {
    "postal": "N2B3K8",
    "result": [
      {
        "electoralDistricts": [
          {
            "election": null,
            "id": 47,
            "name": "Kitchener Centre"
          }
        ],
        "pollDivisionIds": [
          10139218
        ],
        "postalCode": "N2B3K8",
        "streetName": "HERITAGE",
        "streetDirectionId": null,
        "streetTypeId": "DR",
        "placeName": "KITCHENER",
        "streetNameDisplayText": "HERITAGE DR, KITCHENER"
      }
    ]
  },
  {
    "postal": "N2B5W9",
    "result": []
  },
  {
    "postal": "N2B6T9",
    "result": []
  },
  {
    "postal": "N2B4H1",
    "result": []
  },
  {
    "postal": "N2B7A2",
    "result": []
  },
  {
    "postal": "N2B5G0",
    "result": []
  },
  {
    "postal": "N2B8V5",
    "result": []
  },
  {
    "postal": "N2B2Y8",
    "result": [
      {
        "electoralDistricts": [
          {
            "election": null,
            "id": 47,
            "name": "Kitchener Centre"
          }
        ],
        "pollDivisionIds": [
          10139213
        ],
        "postalCode": "N2B2Y8",
        "streetName": "CHAMPLAIN",
        "streetDirectionId": null,
        "streetTypeId": "CRT",
        "placeName": "KITCHENER",
        "streetNameDisplayText": "CHAMPLAIN CRT, KITCHENER"
      }
    ]
  },
  {
    "postal": "N2B2B6",
    "result": [
      {
        "electoralDistricts": [
          {
            "election": null,
            "id": 47,
            "name": "Kitchener Centre"
          }
        ],
        "pollDivisionIds": [
          10139211
        ],
        "postalCode": "N2B2B6",
        "streetName": "FREDERICK",
        "streetDirectionId": null,
        "streetTypeId": "ST",
        "placeName": "KITCHENER",
        "streetNameDisplayText": "FREDERICK ST, KITCHENER"
      }
    ]
  },
  {
    "postal": "N2B4W8",
    "result": []
  },
  {
    "postal": "N2B8H7",
    "result": []
  },
  {
    "postal": "N2B5P1",
    "result": []
  },
  {
    "postal": "N2B2B8",
    "result": [
      {
        "electoralDistricts": [
          {
            "election": null,
            "id": 47,
            "name": "Kitchener Centre"
          }
        ],
        "pollDivisionIds": [
          10139211
        ],
        "postalCode": "N2B2B8",
        "streetName": "FREDERICK",
        "streetDirectionId": null,
        "streetTypeId": "ST",
        "placeName": "KITCHENER",
        "streetNameDisplayText": "FREDERICK ST, KITCHENER"
      }
    ]
  },
  {
    "postal": "N2B0P2",
    "result": []
  },
  {
    "postal": "N2B9M1",
    "result": []
  },
  {
    "postal": "N2B3G0",
    "result": []
  },
  {
    "postal": "N2B9Z2",
    "result": []
  },
  {
    "postal": "N2B2A0",
    "result": []
  },
  {
    "postal": "N2B6Y0",
    "result": []
  },
  {
    "postal": "N2B2Z8",
    "result": [
      {
        "electoralDistricts": [
          {
            "election": null,
            "id": 47,
            "name": "Kitchener Centre"
          }
        ],
        "pollDivisionIds": [
          10139213
        ],
        "postalCode": "N2B2Z8",
        "streetName": "FORFAR",
        "streetDirectionId": null,
        "streetTypeId": "AVE",
        "placeName": "KITCHENER",
        "streetNameDisplayText": "FORFAR AVE, KITCHENER"
      }
    ]
  },
  {
    "postal": "N2B7Y3",
    "result": []
  },
  {
    "postal": "N2B6Z5",
    "result": []
  },
  {
    "postal": "N2B6E0",
    "result": []
  },
  {
    "postal": "N2B9B7",
    "result": []
  },
  {
    "postal": "N2B9S5",
    "result": []
  },
  {
    "postal": "N2B3X3",
    "result": [
      {
        "electoralDistricts": [
          {
            "election": null,
            "id": 47,
            "name": "Kitchener Centre"
          }
        ],
        "pollDivisionIds": [
          10139218
        ],
        "postalCode": "N2B3X3",
        "streetName": "DINEEN",
        "streetDirectionId": null,
        "streetTypeId": "CRT",
        "placeName": "KITCHENER",
        "streetNameDisplayText": "DINEEN CRT, KITCHENER"
      }
    ]
  },
  {
    "postal": "N2B7R5",
    "result": []
  },
  {
    "postal": "N2B2X3",
    "result": [
      {
        "electoralDistricts": [
          {
            "election": null,
            "id": 47,
            "name": "Kitchener Centre"
          }
        ],
        "pollDivisionIds": [
          10139213
        ],
        "postalCode": "N2B2X3",
        "streetName": "CONFEDERATION",
        "streetDirectionId": null,
        "streetTypeId": "DR",
        "placeName": "KITCHENER",
        "streetNameDisplayText": "CONFEDERATION DR, KITCHENER"
      }
    ]
  },
  {
    "postal": "N2B8Z9",
    "result": []
  },
  {
    "postal": "N2B0N4",
    "result": []
  },
  {
    "postal": "N2B1K1",
    "result": [
      {
        "electoralDistricts": [
          {
            "election": null,
            "id": 47,
            "name": "Kitchener Centre"
          }
        ],
        "pollDivisionIds": [
          10139210
        ],
        "postalCode": "N2B1K1",
        "streetName": "SHERWOOD",
        "streetDirectionId": null,
        "streetTypeId": "AVE",
        "placeName": "KITCHENER",
        "streetNameDisplayText": "SHERWOOD AVE, KITCHENER"
      }
    ]
  },
  {
    "postal": "N2B1S3",
    "result": [
      {
        "electoralDistricts": [
          {
            "election": null,
            "id": 47,
            "name": "Kitchener Centre"
          }
        ],
        "pollDivisionIds": [
          10139211
        ],
        "postalCode": "N2B1S3",
        "streetName": "ELKINGTON",
        "streetDirectionId": null,
        "streetTypeId": "DR",
        "placeName": "KITCHENER",
        "streetNameDisplayText": "ELKINGTON DR, KITCHENER"
      }
    ]
  },
  {
    "postal": "N2B6M4",
    "result": []
  },
  {
    "postal": "N2B9A9",
    "result": []
  },
  {
    "postal": "N2B9Z9",
    "result": []
  },
  {
    "postal": "N2B6T4",
    "result": []
  },
  {
    "postal": "N2B0B2",
    "result": []
  },
  {
    "postal": "N2B2L9",
    "result": [
      {
        "electoralDistricts": [
          {
            "election": null,
            "id": 47,
            "name": "Kitchener Centre"
          }
        ],
        "pollDivisionIds": [
          10139212
        ],
        "postalCode": "N2B2L9",
        "streetName": "INLET",
        "streetDirectionId": null,
        "streetTypeId": "AVE",
        "placeName": "KITCHENER",
        "streetNameDisplayText": "INLET AVE, KITCHENER"
      }
    ]
  },
  {
    "postal": "N2B8K9",
    "result": []
  },
  {
    "postal": "N2B2H9",
    "result": [
      {
        "electoralDistricts": [
          {
            "election": null,
            "id": 47,
            "name": "Kitchener Centre"
          }
        ],
        "pollDivisionIds": [
          10139212
        ],
        "postalCode": "N2B2H9",
        "streetName": "HICKSON",
        "streetDirectionId": null,
        "streetTypeId": "DR",
        "placeName": "KITCHENER",
        "streetNameDisplayText": "HICKSON DR, KITCHENER"
      }
    ]
  },
  {
    "postal": "N2B3Z6",
    "result": []
  },
  {
    "postal": "N2B3B0",
    "result": []
  },
  {
    "postal": "N2B2H8",
    "result": [
      {
        "electoralDistricts": [
          {
            "election": null,
            "id": 47,
            "name": "Kitchener Centre"
          }
        ],
        "pollDivisionIds": [
          10139212
        ],
        "postalCode": "N2B2H8",
        "streetName": "HICKSON",
        "streetDirectionId": null,
        "streetTypeId": "DR",
        "placeName": "KITCHENER",
        "streetNameDisplayText": "HICKSON DR, KITCHENER"
      }
    ]
  },
  {
    "postal": "N2B3X2",
    "result": [
      {
        "electoralDistricts": [
          {
            "election": null,
            "id": 47,
            "name": "Kitchener Centre"
          }
        ],
        "pollDivisionIds": [
          10139218
        ],
        "postalCode": "N2B3X2",
        "streetName": "CENTENNIAL",
        "streetDirectionId": null,
        "streetTypeId": "CRT",
        "placeName": "KITCHENER",
        "streetNameDisplayText": "CENTENNIAL CRT, KITCHENER"
      }
    ]
  },
  {
    "postal": "N2B2E9",
    "result": [
      {
        "electoralDistricts": [
          {
            "election": null,
            "id": 114,
            "name": "Waterloo"
          }
        ],
        "pollDivisionIds": [
          10126572
        ],
        "postalCode": "N2B2E9",
        "streetName": "RIVERBEND",
        "streetDirectionId": null,
        "streetTypeId": "DR",
        "placeName": "KITCHENER",
        "streetNameDisplayText": "RIVERBEND DR, KITCHENER"
      }
    ]
  },
  {
    "postal": "N2B9P6",
    "result": []
  },
  {
    "postal": "N2B9E2",
    "result": []
  },
  {
    "postal": "N2B9H2",
    "result": []
  },
  {
    "postal": "N2B1S8",
    "result": [
      {
        "electoralDistricts": [
          {
            "election": null,
            "id": 47,
            "name": "Kitchener Centre"
          }
        ],
        "pollDivisionIds": [
          10139211
        ],
        "postalCode": "N2B1S8",
        "streetName": "PEACHWOOD",
        "streetDirectionId": null,
        "streetTypeId": "AVE",
        "placeName": "KITCHENER",
        "streetNameDisplayText": "PEACHWOOD AVE, KITCHENER"
      }
    ]
  },
  {
    "postal": "N2B3M6",
    "result": [
      {
        "electoralDistricts": [
          {
            "election": null,
            "id": 47,
            "name": "Kitchener Centre"
          }
        ],
        "pollDivisionIds": [
          10139218
        ],
        "postalCode": "N2B3M6",
        "streetName": "WESTCHESTER",
        "streetDirectionId": null,
        "streetTypeId": "PL",
        "placeName": "KITCHENER",
        "streetNameDisplayText": "WESTCHESTER PL, KITCHENER"
      }
    ]
  },
  {
    "postal": "N2B6Z8",
    "result": []
  },
  {
    "postal": "N2B4J2",
    "result": []
  },
  {
    "postal": "N2B9Y1",
    "result": []
  },
  {
    "postal": "N2B8V6",
    "result": []
  },
  {
    "postal": "N2B6B2",
    "result": []
  },
  {
    "postal": "N2B1P8",
    "result": [
      {
        "electoralDistricts": [
          {
            "election": null,
            "id": 47,
            "name": "Kitchener Centre"
          }
        ],
        "pollDivisionIds": [
          10139211
        ],
        "postalCode": "N2B1P8",
        "streetName": "CAMDEN",
        "streetDirectionId": null,
        "streetTypeId": "PL",
        "placeName": "KITCHENER",
        "streetNameDisplayText": "CAMDEN PL, KITCHENER"
      }
    ]
  },
  {
    "postal": "N2B0V8",
    "result": []
  },
  {
    "postal": "N2B4Y0",
    "result": []
  },
  {
    "postal": "N2B2T4",
    "result": [
      {
        "electoralDistricts": [
          {
            "election": null,
            "id": 47,
            "name": "Kitchener Centre"
          }
        ],
        "pollDivisionIds": [
          10139215
        ],
        "postalCode": "N2B2T4",
        "streetName": "TECUMSEH",
        "streetDirectionId": null,
        "streetTypeId": "CRES",
        "placeName": "KITCHENER",
        "streetNameDisplayText": "TECUMSEH CRES, KITCHENER"
      }
    ]
  },
  {
    "postal": "N2B2S3",
    "result": [
      {
        "electoralDistricts": [
          {
            "election": null,
            "id": 47,
            "name": "Kitchener Centre"
          }
        ],
        "pollDivisionIds": [
          10139215
        ],
        "postalCode": "N2B2S3",
        "streetName": "HAMPTON",
        "streetDirectionId": null,
        "streetTypeId": "PL",
        "placeName": "KITCHENER",
        "streetNameDisplayText": "HAMPTON PL, KITCHENER"
      }
    ]
  },
  {
    "postal": "N2B0K0",
    "result": []
  },
  {
    "postal": "N2B5N1",
    "result": []
  },
  {
    "postal": "N2B7T0",
    "result": []
  },
  {
    "postal": "N2B9N2",
    "result": []
  },
  {
    "postal": "N2B5L1",
    "result": []
  },
  {
    "postal": "N2B7G5",
    "result": []
  },
  {
    "postal": "N2B6K2",
    "result": []
  },
  {
    "postal": "N2B6P9",
    "result": []
  },
  {
    "postal": "N2B0E6",
    "result": []
  },
  {
    "postal": "N2B8R9",
    "result": []
  },
  {
    "postal": "N2B3G9",
    "result": [
      {
        "electoralDistricts": [
          {
            "election": null,
            "id": 47,
            "name": "Kitchener Centre"
          }
        ],
        "pollDivisionIds": [
          10139210
        ],
        "postalCode": "N2B3G9",
        "streetName": "KENWOOD",
        "streetDirectionId": null,
        "streetTypeId": "DR",
        "placeName": "KITCHENER",
        "streetNameDisplayText": "KENWOOD DR, KITCHENER"
      }
    ]
  },
  {
    "postal": "N2B0V7",
    "result": []
  },
  {
    "postal": "N2B2Z1",
    "result": [
      {
        "electoralDistricts": [
          {
            "election": null,
            "id": 47,
            "name": "Kitchener Centre"
          }
        ],
        "pollDivisionIds": [
          10139213
        ],
        "postalCode": "N2B2Z1",
        "streetName": "WOLFES",
        "streetDirectionId": null,
        "streetTypeId": "CRT",
        "placeName": "KITCHENER",
        "streetNameDisplayText": "WOLFES CRT, KITCHENER"
      }
    ]
  },
  {
    "postal": "N2B7N1",
    "result": []
  },
  {
    "postal": "N2B3C6",
    "result": [
      {
        "electoralDistricts": [
          {
            "election": null,
            "id": 47,
            "name": "Kitchener Centre"
          }
        ],
        "pollDivisionIds": [
          10139211
        ],
        "postalCode": "N2B3C6",
        "streetName": "VICTORIA",
        "streetDirectionId": "N",
        "streetTypeId": "ST",
        "placeName": "KITCHENER",
        "streetNameDisplayText": "VICTORIA ST N, KITCHENER"
      }
    ]
  },
  {
    "postal": "N2B4M1",
    "result": []
  },
  {
    "postal": "N2B9K2",
    "result": []
  },
  {
    "postal": "N2B9S6",
    "result": []
  },
  {
    "postal": "N2B4X1",
    "result": []
  },
  {
    "postal": "N2B8W2",
    "result": []
  },
  {
    "postal": "N2B7N2",
    "result": []
  },
  {
    "postal": "N2B8S3",
    "result": []
  },
  {
    "postal": "N2B4V0",
    "result": []
  },
  {
    "postal": "N2B6W4",
    "result": []
  },
  {
    "postal": "N2B5M1",
    "result": []
  },
  {
    "postal": "N2B0S4",
    "result": []
  },
  {
    "postal": "N2B5X6",
    "result": []
  },
  {
    "postal": "N2B8L5",
    "result": []
  },
  {
    "postal": "N2B5M8",
    "result": []
  },
  {
    "postal": "N2B2G3",
    "result": [
      {
        "electoralDistricts": [
          {
            "election": null,
            "id": 47,
            "name": "Kitchener Centre"
          }
        ],
        "pollDivisionIds": [
          10139211
        ],
        "postalCode": "N2B2G3",
        "streetName": "RIVER",
        "streetDirectionId": "E",
        "streetTypeId": "RD",
        "placeName": "KITCHENER",
        "streetNameDisplayText": "RIVER RD E, KITCHENER"
      }
    ]
  },
  {
    "postal": "N2B8E4",
    "result": []
  },
  {
    "postal": "N2B7S9",
    "result": []
  },
  {
    "postal": "N2B1K3",
    "result": [
      {
        "electoralDistricts": [
          {
            "election": null,
            "id": 47,
            "name": "Kitchener Centre"
          }
        ],
        "pollDivisionIds": [
          10139211
        ],
        "postalCode": "N2B1K3",
        "streetName": "SHERWOOD",
        "streetDirectionId": null,
        "streetTypeId": "AVE",
        "placeName": "KITCHENER",
        "streetNameDisplayText": "SHERWOOD AVE, KITCHENER"
      }
    ]
  },
  {
    "postal": "N2B4E1",
    "result": []
  },
  {
    "postal": "N2B4R2",
    "result": []
  },
  {
    "postal": "N2B6T0",
    "result": []
  },
  {
    "postal": "N2B3K5",
    "result": [
      {
        "electoralDistricts": [
          {
            "election": null,
            "id": 47,
            "name": "Kitchener Centre"
          }
        ],
        "pollDivisionIds": [
          10139218
        ],
        "postalCode": "N2B3K5",
        "streetName": "WIMBLETON",
        "streetDirectionId": null,
        "streetTypeId": "CRES",
        "placeName": "KITCHENER",
        "streetNameDisplayText": "WIMBLETON CRES, KITCHENER"
      }
    ]
  },
  {
    "postal": "N2B3S3",
    "result": [
      {
        "electoralDistricts": [
          {
            "election": null,
            "id": 47,
            "name": "Kitchener Centre"
          }
        ],
        "pollDivisionIds": [
          10139218
        ],
        "postalCode": "N2B3S3",
        "streetName": "DENLOW",
        "streetDirectionId": null,
        "streetTypeId": "ST",
        "placeName": "KITCHENER",
        "streetNameDisplayText": "DENLOW ST, KITCHENER"
      },
      {
        "electoralDistricts": [
          {
            "election": null,
            "id": 47,
            "name": "Kitchener Centre"
          }
        ],
        "pollDivisionIds": [
          10139218
        ],
        "postalCode": "N2B3S3",
        "streetName": "NOMAD",
        "streetDirectionId": null,
        "streetTypeId": "CRT",
        "placeName": "KITCHENER",
        "streetNameDisplayText": "NOMAD CRT, KITCHENER"
      }
    ]
  },
  {
    "postal": "N2B3L4",
    "result": [
      {
        "electoralDistricts": [
          {
            "election": null,
            "id": 47,
            "name": "Kitchener Centre"
          }
        ],
        "pollDivisionIds": [
          10139218
        ],
        "postalCode": "N2B3L4",
        "streetName": "WESTCHESTER",
        "streetDirectionId": null,
        "streetTypeId": "DR",
        "placeName": "KITCHENER",
        "streetNameDisplayText": "WESTCHESTER DR, KITCHENER"
      }
    ]
  },
  {
    "postal": "N2B9Y2",
    "result": []
  },
  {
    "postal": "N2B1E0",
    "result": []
  },
  {
    "postal": "N2B9A4",
    "result": []
  },
  {
    "postal": "N2B1L3",
    "result": [
      {
        "electoralDistricts": [
          {
            "election": null,
            "id": 47,
            "name": "Kitchener Centre"
          }
        ],
        "pollDivisionIds": [
          10139210
        ],
        "postalCode": "N2B1L3",
        "streetName": "KRUG",
        "streetDirectionId": null,
        "streetTypeId": "ST",
        "placeName": "KITCHENER",
        "streetNameDisplayText": "KRUG ST, KITCHENER"
      }
    ]
  },
  {
    "postal": "N2B6N1",
    "result": []
  },
  {
    "postal": "N2B6G7",
    "result": []
  },
  {
    "postal": "N2B7W1",
    "result": []
  },
  {
    "postal": "N2B4M6",
    "result": []
  },
  {
    "postal": "N2B1K0",
    "result": []
  },
  {
    "postal": "N2B3E2",
    "result": [
      {
        "electoralDistricts": [
          {
            "election": null,
            "id": 114,
            "name": "Waterloo"
          },
          {
            "election": null,
            "id": 47,
            "name": "Kitchener Centre"
          }
        ],
        "pollDivisionIds": [
          10126572,
          10139218,
          10139213
        ],
        "postalCode": "N2B3E2",
        "streetName": "VICTORIA",
        "streetDirectionId": "N",
        "streetTypeId": "ST",
        "placeName": "KITCHENER",
        "streetNameDisplayText": "VICTORIA ST N, KITCHENER"
      }
    ]
  },
  {
    "postal": "N2B5H4",
    "result": []
  },
  {
    "postal": "N2B1K7",
    "result": [
      {
        "electoralDistricts": [
          {
            "election": null,
            "id": 47,
            "name": "Kitchener Centre"
          }
        ],
        "pollDivisionIds": [
          10139210
        ],
        "postalCode": "N2B1K7",
        "streetName": "KRUG",
        "streetDirectionId": null,
        "streetTypeId": "ST",
        "placeName": "KITCHENER",
        "streetNameDisplayText": "KRUG ST, KITCHENER"
      }
    ]
  },
  {
    "postal": "N2B0H0",
    "result": []
  },
  {
    "postal": "N2B0J3",
    "result": []
  },
  {
    "postal": "N2B1X6",
    "result": [
      {
        "electoralDistricts": [
          {
            "election": null,
            "id": 47,
            "name": "Kitchener Centre"
          }
        ],
        "pollDivisionIds": [
          10139210
        ],
        "postalCode": "N2B1X6",
        "streetName": "BECKER",
        "streetDirectionId": null,
        "streetTypeId": "ST",
        "placeName": "KITCHENER",
        "streetNameDisplayText": "BECKER ST, KITCHENER"
      }
    ]
  },
  {
    "postal": "N2B2Z6",
    "result": [
      {
        "electoralDistricts": [
          {
            "election": null,
            "id": 47,
            "name": "Kitchener Centre"
          }
        ],
        "pollDivisionIds": [
          10139213
        ],
        "postalCode": "N2B2Z6",
        "streetName": "FORFAR",
        "streetDirectionId": null,
        "streetTypeId": "AVE",
        "placeName": "KITCHENER",
        "streetNameDisplayText": "FORFAR AVE, KITCHENER"
      }
    ]
  },
  {
    "postal": "N2B4R9",
    "result": []
  },
  {
    "postal": "N2B0W8",
    "result": []
  },
  {
    "postal": "N2B1L4",
    "result": []
  },
  {
    "postal": "N2B0C8",
    "result": []
  },
  {
    "postal": "N2B9X7",
    "result": []
  },
  {
    "postal": "N2B4T1",
    "result": []
  },
  {
    "postal": "N2B0M0",
    "result": []
  },
  {
    "postal": "N2B6A2",
    "result": []
  },
  {
    "postal": "N2B9S8",
    "result": []
  },
  {
    "postal": "N2B9T4",
    "result": []
  },
  {
    "postal": "N2B9Y4",
    "result": []
  },
  {
    "postal": "N2B6G5",
    "result": []
  },
  {
    "postal": "N2B6H9",
    "result": []
  },
  {
    "postal": "N2B2P3",
    "result": [
      {
        "electoralDistricts": [
          {
            "election": null,
            "id": 47,
            "name": "Kitchener Centre"
          }
        ],
        "pollDivisionIds": [
          10139212
        ],
        "postalCode": "N2B2P3",
        "streetName": "GIBSON",
        "streetDirectionId": null,
        "streetTypeId": "DR",
        "placeName": "KITCHENER",
        "streetNameDisplayText": "GIBSON DR, KITCHENER"
      }
    ]
  },
  {
    "postal": "N2B1T6",
    "result": [
      {
        "electoralDistricts": [
          {
            "election": null,
            "id": 47,
            "name": "Kitchener Centre"
          }
        ],
        "pollDivisionIds": [
          10139211
        ],
        "postalCode": "N2B1T6",
        "streetName": "AVON",
        "streetDirectionId": null,
        "streetTypeId": "RD",
        "placeName": "KITCHENER",
        "streetNameDisplayText": "AVON RD, KITCHENER"
      }
    ]
  },
  {
    "postal": "N2B4P6",
    "result": []
  },
  {
    "postal": "N2B3K1",
    "result": [
      {
        "electoralDistricts": [
          {
            "election": null,
            "id": 47,
            "name": "Kitchener Centre"
          }
        ],
        "pollDivisionIds": [
          10139213
        ],
        "postalCode": "N2B3K1",
        "streetName": "MATTHEW",
        "streetDirectionId": null,
        "streetTypeId": "ST",
        "placeName": "KITCHENER",
        "streetNameDisplayText": "MATTHEW ST, KITCHENER"
      }
    ]
  },
  {
    "postal": "N2B6X4",
    "result": []
  },
  {
    "postal": "N2B4M8",
    "result": []
  },
  {
    "postal": "N2B2Y1",
    "result": [
      {
        "electoralDistricts": [
          {
            "election": null,
            "id": 47,
            "name": "Kitchener Centre"
          }
        ],
        "pollDivisionIds": [
          10139213
        ],
        "postalCode": "N2B2Y1",
        "streetName": "TUPPER",
        "streetDirectionId": null,
        "streetTypeId": "CRES",
        "placeName": "KITCHENER",
        "streetNameDisplayText": "TUPPER CRES, KITCHENER"
      }
    ]
  },
  {
    "postal": "N2B6M1",
    "result": []
  },
  {
    "postal": "N2B5L8",
    "result": []
  },
  {
    "postal": "N2B3P6",
    "result": [
      {
        "electoralDistricts": [
          {
            "election": null,
            "id": 47,
            "name": "Kitchener Centre"
          }
        ],
        "pollDivisionIds": [
          10139218
        ],
        "postalCode": "N2B3P6",
        "streetName": "KEEWATIN",
        "streetDirectionId": null,
        "streetTypeId": "AVE",
        "placeName": "KITCHENER",
        "streetNameDisplayText": "KEEWATIN AVE, KITCHENER"
      }
    ]
  },
  {
    "postal": "N2B9A5",
    "result": []
  },
  {
    "postal": "N2B7K1",
    "result": []
  },
  {
    "postal": "N2B3J4",
    "result": [
      {
        "electoralDistricts": [
          {
            "election": null,
            "id": 47,
            "name": "Kitchener Centre"
          }
        ],
        "pollDivisionIds": [
          10139213
        ],
        "postalCode": "N2B3J4",
        "streetName": "CARSON",
        "streetDirectionId": null,
        "streetTypeId": "DR",
        "placeName": "KITCHENER",
        "streetNameDisplayText": "CARSON DR, KITCHENER"
      }
    ]
  },
  {
    "postal": "N2B5E7",
    "result": []
  },
  {
    "postal": "N2B3A7",
    "result": [
      {
        "electoralDistricts": [
          {
            "election": null,
            "id": 47,
            "name": "Kitchener Centre"
          }
        ],
        "pollDivisionIds": [
          10139213
        ],
        "postalCode": "N2B3A7",
        "streetName": "NATCHEZ",
        "streetDirectionId": null,
        "streetTypeId": "RD",
        "placeName": "KITCHENER",
        "streetNameDisplayText": "NATCHEZ RD, KITCHENER"
      }
    ]
  },
  {
    "postal": "N2B1B9",
    "result": [
      {
        "electoralDistricts": [
          {
            "election": null,
            "id": 47,
            "name": "Kitchener Centre"
          }
        ],
        "pollDivisionIds": [
          10139210
        ],
        "postalCode": "N2B1B9",
        "streetName": "LYNDHURST",
        "streetDirectionId": null,
        "streetTypeId": "DR",
        "placeName": "KITCHENER",
        "streetNameDisplayText": "LYNDHURST DR, KITCHENER"
      }
    ]
  },
  {
    "postal": "N2B9E8",
    "result": []
  },
  {
    "postal": "N2B1C9",
    "result": [
      {
        "electoralDistricts": [
          {
            "election": null,
            "id": 47,
            "name": "Kitchener Centre"
          }
        ],
        "pollDivisionIds": [
          10139210
        ],
        "postalCode": "N2B1C9",
        "streetName": "BURBANK",
        "streetDirectionId": null,
        "streetTypeId": "RD",
        "placeName": "KITCHENER",
        "streetNameDisplayText": "BURBANK RD, KITCHENER"
      }
    ]
  },
  {
    "postal": "N2B3B5",
    "result": [
      {
        "electoralDistricts": [
          {
            "election": null,
            "id": 47,
            "name": "Kitchener Centre"
          }
        ],
        "pollDivisionIds": [
          10139213
        ],
        "postalCode": "N2B3B5",
        "streetName": "MARKETA",
        "streetDirectionId": null,
        "streetTypeId": "CRES",
        "placeName": "KITCHENER",
        "streetNameDisplayText": "MARKETA CRES, KITCHENER"
      }
    ]
  },
  {
    "postal": "N2B8R0",
    "result": []
  },
  {
    "postal": "N2B3P2",
    "result": [
      {
        "electoralDistricts": [
          {
            "election": null,
            "id": 47,
            "name": "Kitchener Centre"
          }
        ],
        "pollDivisionIds": [
          10139218
        ],
        "postalCode": "N2B3P2",
        "streetName": "WESTCHESTER",
        "streetDirectionId": null,
        "streetTypeId": "DR",
        "placeName": "KITCHENER",
        "streetNameDisplayText": "WESTCHESTER DR, KITCHENER"
      }
    ]
  },
  {
    "postal": "N2B5V4",
    "result": []
  },
  {
    "postal": "N2B4H0",
    "result": []
  },
  {
    "postal": "N2B4S7",
    "result": []
  },
  {
    "postal": "N2B6C2",
    "result": []
  },
  {
    "postal": "N2B8W3",
    "result": []
  },
  {
    "postal": "N2B4M5",
    "result": []
  },
  {
    "postal": "N2B5T1",
    "result": []
  },
  {
    "postal": "N2B3B3",
    "result": [
      {
        "electoralDistricts": [
          {
            "election": null,
            "id": 47,
            "name": "Kitchener Centre"
          }
        ],
        "pollDivisionIds": [
          10139213
        ],
        "postalCode": "N2B3B3",
        "streetName": "SUNRISE",
        "streetDirectionId": null,
        "streetTypeId": "DR",
        "placeName": "KITCHENER",
        "streetNameDisplayText": "SUNRISE DR, KITCHENER"
      }
    ]
  },
  {
    "postal": "N2B6C6",
    "result": []
  },
  {
    "postal": "N2B7N8",
    "result": []
  },
  {
    "postal": "N2B2Y3",
    "result": [
      {
        "electoralDistricts": [
          {
            "election": null,
            "id": 47,
            "name": "Kitchener Centre"
          }
        ],
        "pollDivisionIds": [
          10139213
        ],
        "postalCode": "N2B2Y3",
        "streetName": "TUPPER",
        "streetDirectionId": null,
        "streetTypeId": "CRT",
        "placeName": "KITCHENER",
        "streetNameDisplayText": "TUPPER CRT, KITCHENER"
      }
    ]
  },
  {
    "postal": "N2B2R6",
    "result": [
      {
        "electoralDistricts": [
          {
            "election": null,
            "id": 47,
            "name": "Kitchener Centre"
          }
        ],
        "pollDivisionIds": [
          10139215
        ],
        "postalCode": "N2B2R6",
        "streetName": "MONTCALM",
        "streetDirectionId": null,
        "streetTypeId": "DR",
        "placeName": "KITCHENER",
        "streetNameDisplayText": "MONTCALM DR, KITCHENER"
      }
    ]
  },
  {
    "postal": "N2B7N3",
    "result": []
  },
  {
    "postal": "N2B8J2",
    "result": []
  },
  {
    "postal": "N2B6A9",
    "result": []
  },
  {
    "postal": "N2B3V2",
    "result": [
      {
        "electoralDistricts": [
          {
            "election": null,
            "id": 47,
            "name": "Kitchener Centre"
          }
        ],
        "pollDivisionIds": [
          10139218
        ],
        "postalCode": "N2B3V2",
        "streetName": "DENLOW",
        "streetDirectionId": null,
        "streetTypeId": "ST",
        "placeName": "KITCHENER",
        "streetNameDisplayText": "DENLOW ST, KITCHENER"
      },
      {
        "electoralDistricts": [
          {
            "election": null,
            "id": 47,
            "name": "Kitchener Centre"
          }
        ],
        "pollDivisionIds": [
          10139218
        ],
        "postalCode": "N2B3V2",
        "streetName": "KEEWATIN",
        "streetDirectionId": null,
        "streetTypeId": "AVE",
        "placeName": "KITCHENER",
        "streetNameDisplayText": "KEEWATIN AVE, KITCHENER"
      },
      {
        "electoralDistricts": [
          {
            "election": null,
            "id": 47,
            "name": "Kitchener Centre"
          }
        ],
        "pollDivisionIds": [
          10139218
        ],
        "postalCode": "N2B3V2",
        "streetName": "TAMI",
        "streetDirectionId": null,
        "streetTypeId": "CRT",
        "placeName": "KITCHENER",
        "streetNameDisplayText": "TAMI CRT, KITCHENER"
      }
    ]
  },
  {
    "postal": "N2B2N3",
    "result": [
      {
        "electoralDistricts": [
          {
            "election": null,
            "id": 47,
            "name": "Kitchener Centre"
          }
        ],
        "pollDivisionIds": [
          10139215
        ],
        "postalCode": "N2B2N3",
        "streetName": "LORRAINE",
        "streetDirectionId": null,
        "streetTypeId": "AVE",
        "placeName": "KITCHENER",
        "streetNameDisplayText": "LORRAINE AVE, KITCHENER"
      }
    ]
  },
  {
    "postal": "N2B1S5",
    "result": [
      {
        "electoralDistricts": [
          {
            "election": null,
            "id": 47,
            "name": "Kitchener Centre"
          }
        ],
        "pollDivisionIds": [
          10139211
        ],
        "postalCode": "N2B1S5",
        "streetName": "TANGLEWOOD",
        "streetDirectionId": null,
        "streetTypeId": "AVE",
        "placeName": "KITCHENER",
        "streetNameDisplayText": "TANGLEWOOD AVE, KITCHENER"
      }
    ]
  },
  {
    "postal": "N2B4T7",
    "result": []
  },
  {
    "postal": "N2B6Y7",
    "result": []
  },
  {
    "postal": "N2B0W7",
    "result": []
  },
  {
    "postal": "N2B2W9",
    "result": [
      {
        "electoralDistricts": [
          {
            "election": null,
            "id": 47,
            "name": "Kitchener Centre"
          }
        ],
        "pollDivisionIds": [
          10139213
        ],
        "postalCode": "N2B2W9",
        "streetName": "STRATHCONA",
        "streetDirectionId": null,
        "streetTypeId": "CRES",
        "placeName": "KITCHENER",
        "streetNameDisplayText": "STRATHCONA CRES, KITCHENER"
      }
    ]
  },
  {
    "postal": "N2B8V0",
    "result": []
  },
  {
    "postal": "N2B0H4",
    "result": []
  },
  {
    "postal": "N2B2T1",
    "result": [
      {
        "electoralDistricts": [
          {
            "election": null,
            "id": 47,
            "name": "Kitchener Centre"
          }
        ],
        "pollDivisionIds": [
          10139215
        ],
        "postalCode": "N2B2T1",
        "streetName": "MCGEE",
        "streetDirectionId": null,
        "streetTypeId": "AVE",
        "placeName": "KITCHENER",
        "streetNameDisplayText": "MCGEE AVE, KITCHENER"
      }
    ]
  },
  {
    "postal": "N2B1B1",
    "result": [
      {
        "electoralDistricts": [
          {
            "election": null,
            "id": 47,
            "name": "Kitchener Centre"
          }
        ],
        "pollDivisionIds": [
          10139211
        ],
        "postalCode": "N2B1B1",
        "streetName": "MANCHESTER",
        "streetDirectionId": null,
        "streetTypeId": "RD",
        "placeName": "KITCHENER",
        "streetNameDisplayText": "MANCHESTER RD, KITCHENER"
      }
    ]
  },
  {
    "postal": "N2B8B6",
    "result": []
  },
  {
    "postal": "N2B6H1",
    "result": []
  },
  {
    "postal": "N2B8T8",
    "result": []
  },
  {
    "postal": "N2B0T4",
    "result": []
  },
  {
    "postal": "N2B2C4",
    "result": [
      {
        "electoralDistricts": [
          {
            "election": null,
            "id": 47,
            "name": "Kitchener Centre"
          }
        ],
        "pollDivisionIds": [
          10139211
        ],
        "postalCode": "N2B2C4",
        "streetName": "EPHRAIM",
        "streetDirectionId": null,
        "streetTypeId": "ST",
        "placeName": "KITCHENER",
        "streetNameDisplayText": "EPHRAIM ST, KITCHENER"
      }
    ]
  },
  {
    "postal": "N2B8N3",
    "result": []
  },
  {
    "postal": "N2B4L8",
    "result": []
  },
  {
    "postal": "N2B2B5",
    "result": [
      {
        "electoralDistricts": [
          {
            "election": null,
            "id": 47,
            "name": "Kitchener Centre"
          }
        ],
        "pollDivisionIds": [
          10139211
        ],
        "postalCode": "N2B2B5",
        "streetName": "FREDERICK",
        "streetDirectionId": null,
        "streetTypeId": "ST",
        "placeName": "KITCHENER",
        "streetNameDisplayText": "FREDERICK ST, KITCHENER"
      }
    ]
  },
  {
    "postal": "N2B3H1",
    "result": [
      {
        "electoralDistricts": [
          {
            "election": null,
            "id": 47,
            "name": "Kitchener Centre"
          }
        ],
        "pollDivisionIds": [
          10139210
        ],
        "postalCode": "N2B3H1",
        "streetName": "KENWOOD",
        "streetDirectionId": null,
        "streetTypeId": "DR",
        "placeName": "KITCHENER",
        "streetNameDisplayText": "KENWOOD DR, KITCHENER"
      }
    ]
  },
  {
    "postal": "N2B4Y1",
    "result": []
  },
  {
    "postal": "N2B7E2",
    "result": []
  },
  {
    "postal": "N2B2P5",
    "result": [
      {
        "electoralDistricts": [
          {
            "election": null,
            "id": 47,
            "name": "Kitchener Centre"
          }
        ],
        "pollDivisionIds": [
          10139215
        ],
        "postalCode": "N2B2P5",
        "streetName": "GIBSON",
        "streetDirectionId": null,
        "streetTypeId": "DR",
        "placeName": "KITCHENER",
        "streetNameDisplayText": "GIBSON DR, KITCHENER"
      }
    ]
  },
  {
    "postal": "N2B8R7",
    "result": []
  },
  {
    "postal": "N2B9P1",
    "result": []
  },
  {
    "postal": "N2B3B8",
    "result": [
      {
        "electoralDistricts": [
          {
            "election": null,
            "id": 47,
            "name": "Kitchener Centre"
          }
        ],
        "pollDivisionIds": [
          10139213
        ],
        "postalCode": "N2B3B8",
        "streetName": "SMETANA",
        "streetDirectionId": null,
        "streetTypeId": "DR",
        "placeName": "KITCHENER",
        "streetNameDisplayText": "SMETANA DR, KITCHENER"
      }
    ]
  },
  {
    "postal": "N2B3P7",
    "result": [
      {
        "electoralDistricts": [
          {
            "election": null,
            "id": 47,
            "name": "Kitchener Centre"
          }
        ],
        "pollDivisionIds": [
          10139218
        ],
        "postalCode": "N2B3P7",
        "streetName": "LORRAINE",
        "streetDirectionId": null,
        "streetTypeId": "AVE",
        "placeName": "KITCHENER",
        "streetNameDisplayText": "LORRAINE AVE, KITCHENER"
      }
    ]
  },
  {
    "postal": "N2B9B2",
    "result": []
  },
  {
    "postal": "N2B6Z3",
    "result": []
  },
  {
    "postal": "N2B4N5",
    "result": []
  },
  {
    "postal": "N2B8T3",
    "result": []
  },
  {
    "postal": "N2B1V2",
    "result": [
      {
        "electoralDistricts": [
          {
            "election": null,
            "id": 47,
            "name": "Kitchener Centre"
          }
        ],
        "pollDivisionIds": [
          10139211
        ],
        "postalCode": "N2B1V2",
        "streetName": "MONTEREY",
        "streetDirectionId": null,
        "streetTypeId": "RD",
        "placeName": "KITCHENER",
        "streetNameDisplayText": "MONTEREY RD, KITCHENER"
      }
    ]
  },
  {
    "postal": "N2B1Y0",
    "result": []
  },
  {
    "postal": "N2B3G6",
    "result": [
      {
        "electoralDistricts": [
          {
            "election": null,
            "id": 47,
            "name": "Kitchener Centre"
          }
        ],
        "pollDivisionIds": [
          10139210
        ],
        "postalCode": "N2B3G6",
        "streetName": "DONALD",
        "streetDirectionId": null,
        "streetTypeId": "ST",
        "placeName": "KITCHENER",
        "streetNameDisplayText": "DONALD ST, KITCHENER"
      }
    ]
  },
  {
    "postal": "N2B3H7",
    "result": [
      {
        "electoralDistricts": [
          {
            "election": null,
            "id": 47,
            "name": "Kitchener Centre"
          }
        ],
        "pollDivisionIds": [
          10139213
        ],
        "postalCode": "N2B3H7",
        "streetName": "CONFEDERATION",
        "streetDirectionId": null,
        "streetTypeId": "DR",
        "placeName": "KITCHENER",
        "streetNameDisplayText": "CONFEDERATION DR, KITCHENER"
      }
    ]
  },
  {
    "postal": "N2B7X8",
    "result": []
  },
  {
    "postal": "N2B0C7",
    "result": []
  },
  {
    "postal": "N2B0W9",
    "result": []
  },
  {
    "postal": "N2B8E6",
    "result": []
  },
  {
    "postal": "N2B9Z8",
    "result": []
  },
  {
    "postal": "N2B3P4",
    "result": [
      {
        "electoralDistricts": [
          {
            "election": null,
            "id": 47,
            "name": "Kitchener Centre"
          }
        ],
        "pollDivisionIds": [
          10139218
        ],
        "postalCode": "N2B3P4",
        "streetName": "GEORGIAN",
        "streetDirectionId": null,
        "streetTypeId": "ST",
        "placeName": "KITCHENER",
        "streetNameDisplayText": "GEORGIAN ST, KITCHENER"
      }
    ]
  },
  {
    "postal": "N2B6L8",
    "result": []
  },
  {
    "postal": "N2B2R4",
    "result": [
      {
        "electoralDistricts": [
          {
            "election": null,
            "id": 47,
            "name": "Kitchener Centre"
          }
        ],
        "pollDivisionIds": [
          10139215
        ],
        "postalCode": "N2B2R4",
        "streetName": "MONTCALM",
        "streetDirectionId": null,
        "streetTypeId": "DR",
        "placeName": "KITCHENER",
        "streetNameDisplayText": "MONTCALM DR, KITCHENER"
      }
    ]
  },
  {
    "postal": "N2B2W1",
    "result": [
      {
        "electoralDistricts": [
          {
            "election": null,
            "id": 47,
            "name": "Kitchener Centre"
          }
        ],
        "pollDivisionIds": [
          10139215
        ],
        "postalCode": "N2B2W1",
        "streetName": "HUDSON",
        "streetDirectionId": null,
        "streetTypeId": "CRT",
        "placeName": "KITCHENER",
        "streetNameDisplayText": "HUDSON CRT, KITCHENER"
      }
    ]
  },
  {
    "postal": "N2B9H8",
    "result": []
  },
  {
    "postal": "N2B8X9",
    "result": []
  },
  {
    "postal": "N2B7H4",
    "result": []
  },
  {
    "postal": "N2B3J1",
    "result": []
  },
  {
    "postal": "N2B1P4",
    "result": [
      {
        "electoralDistricts": [
          {
            "election": null,
            "id": 47,
            "name": "Kitchener Centre"
          }
        ],
        "pollDivisionIds": [
          10139211
        ],
        "postalCode": "N2B1P4",
        "streetName": "ISLINGTON",
        "streetDirectionId": null,
        "streetTypeId": "AVE",
        "placeName": "KITCHENER",
        "streetNameDisplayText": "ISLINGTON AVE, KITCHENER"
      }
    ]
  },
  {
    "postal": "N2B2A3",
    "result": [
      {
        "electoralDistricts": [
          {
            "election": null,
            "id": 47,
            "name": "Kitchener Centre"
          }
        ],
        "pollDivisionIds": [
          10139211
        ],
        "postalCode": "N2B2A3",
        "streetName": "LOIS",
        "streetDirectionId": null,
        "streetTypeId": "ST",
        "placeName": "KITCHENER",
        "streetNameDisplayText": "LOIS ST, KITCHENER"
      }
    ]
  },
  {
    "postal": "N2B0Z1",
    "result": []
  },
  {
    "postal": "N2B1C1",
    "result": [
      {
        "electoralDistricts": [
          {
            "election": null,
            "id": 47,
            "name": "Kitchener Centre"
          }
        ],
        "pollDivisionIds": [
          10139210
        ],
        "postalCode": "N2B1C1",
        "streetName": "LYNDHURST",
        "streetDirectionId": null,
        "streetTypeId": "DR",
        "placeName": "KITCHENER",
        "streetNameDisplayText": "LYNDHURST DR, KITCHENER"
      }
    ]
  },
  {
    "postal": "N2B0H3",
    "result": []
  },
  {
    "postal": "N2B7B0",
    "result": []
  },
  {
    "postal": "N2B5K2",
    "result": []
  },
  {
    "postal": "N2B1E9",
    "result": [
      {
        "electoralDistricts": [
          {
            "election": null,
            "id": 47,
            "name": "Kitchener Centre"
          }
        ],
        "pollDivisionIds": [
          10139210
        ],
        "postalCode": "N2B1E9",
        "streetName": "WEDGEWOOD",
        "streetDirectionId": null,
        "streetTypeId": "DR",
        "placeName": "KITCHENER",
        "streetNameDisplayText": "WEDGEWOOD DR, KITCHENER"
      }
    ]
  },
  {
    "postal": "N2B9W7",
    "result": []
  },
  {
    "postal": "N2B5W6",
    "result": []
  },
  {
    "postal": "N2B6S6",
    "result": []
  },
  {
    "postal": "N2B2P8",
    "result": [
      {
        "electoralDistricts": [
          {
            "election": null,
            "id": 47,
            "name": "Kitchener Centre"
          }
        ],
        "pollDivisionIds": [
          10139215
        ],
        "postalCode": "N2B2P8",
        "streetName": "MONTCALM",
        "streetDirectionId": null,
        "streetTypeId": "DR",
        "placeName": "KITCHENER",
        "streetNameDisplayText": "MONTCALM DR, KITCHENER"
      }
    ]
  },
  {
    "postal": "N2B4P8",
    "result": []
  },
  {
    "postal": "N2B0V9",
    "result": []
  },
  {
    "postal": "N2B5Y2",
    "result": []
  },
  {
    "postal": "N2B7Z7",
    "result": []
  },
  {
    "postal": "N2B6Y8",
    "result": []
  },
  {
    "postal": "N2B2G7",
    "result": [
      {
        "electoralDistricts": [
          {
            "election": null,
            "id": 47,
            "name": "Kitchener Centre"
          }
        ],
        "pollDivisionIds": [
          10139211
        ],
        "postalCode": "N2B2G7",
        "streetName": "RIVER",
        "streetDirectionId": "E",
        "streetTypeId": "RD",
        "placeName": "KITCHENER",
        "streetNameDisplayText": "RIVER RD E, KITCHENER"
      }
    ]
  },
  {
    "postal": "N2B8C1",
    "result": []
  },
  {
    "postal": "N2B5C5",
    "result": []
  },
  {
    "postal": "N2B2X8",
    "result": [
      {
        "electoralDistricts": [
          {
            "election": null,
            "id": 47,
            "name": "Kitchener Centre"
          }
        ],
        "pollDivisionIds": [
          10139213
        ],
        "postalCode": "N2B2X8",
        "streetName": "CONFEDERATION",
        "streetDirectionId": null,
        "streetTypeId": "DR",
        "placeName": "KITCHENER",
        "streetNameDisplayText": "CONFEDERATION DR, KITCHENER"
      }
    ]
  },
  {
    "postal": "N2B1W5",
    "result": [
      {
        "electoralDistricts": [
          {
            "election": null,
            "id": 47,
            "name": "Kitchener Centre"
          }
        ],
        "pollDivisionIds": [
          10139218
        ],
        "postalCode": "N2B1W5",
        "streetName": "DERBY",
        "streetDirectionId": null,
        "streetTypeId": "LANE",
        "placeName": "KITCHENER",
        "streetNameDisplayText": "DERBY LANE, KITCHENER"
      }
    ]
  },
  {
    "postal": "N2B7G0",
    "result": []
  },
  {
    "postal": "N2B8J8",
    "result": []
  },
  {
    "postal": "N2B3Y0",
    "result": []
  },
  {
    "postal": "N2B9T7",
    "result": []
  },
  {
    "postal": "N2B5P4",
    "result": []
  },
  {
    "postal": "N2B4B0",
    "result": []
  },
  {
    "postal": "N2B9N8",
    "result": []
  },
  {
    "postal": "N2B4A7",
    "result": []
  },
  {
    "postal": "N2B4H9",
    "result": []
  },
  {
    "postal": "N2B6X1",
    "result": []
  },
  {
    "postal": "N2B9Y7",
    "result": []
  },
  {
    "postal": "N2B2Y5",
    "result": [
      {
        "electoralDistricts": [
          {
            "election": null,
            "id": 47,
            "name": "Kitchener Centre"
          }
        ],
        "pollDivisionIds": [
          10139213
        ],
        "postalCode": "N2B2Y5",
        "streetName": "CHAMPLAIN",
        "streetDirectionId": null,
        "streetTypeId": "CRES",
        "placeName": "KITCHENER",
        "streetNameDisplayText": "CHAMPLAIN CRES, KITCHENER"
      }
    ]
  },
  {
    "postal": "N2B8L7",
    "result": []
  },
  {
    "postal": "N2B2A8",
    "result": [
      {
        "electoralDistricts": [
          {
            "election": null,
            "id": 47,
            "name": "Kitchener Centre"
          }
        ],
        "pollDivisionIds": [
          10139211
        ],
        "postalCode": "N2B2A8",
        "streetName": "FREDERICK",
        "streetDirectionId": null,
        "streetTypeId": "ST",
        "placeName": "KITCHENER",
        "streetNameDisplayText": "FREDERICK ST, KITCHENER"
      }
    ]
  },
  {
    "postal": "N2B2K9",
    "result": [
      {
        "electoralDistricts": [
          {
            "election": null,
            "id": 47,
            "name": "Kitchener Centre"
          }
        ],
        "pollDivisionIds": [
          10139212
        ],
        "postalCode": "N2B2K9",
        "streetName": "CROSBY",
        "streetDirectionId": null,
        "streetTypeId": "DR",
        "placeName": "KITCHENER",
        "streetNameDisplayText": "CROSBY DR, KITCHENER"
      }
    ]
  },
  {
    "postal": "N2B3E5",
    "result": [
      {
        "electoralDistricts": [
          {
            "election": null,
            "id": 114,
            "name": "Waterloo"
          },
          {
            "election": null,
            "id": 47,
            "name": "Kitchener Centre"
          }
        ],
        "pollDivisionIds": [
          10126572,
          10139218
        ],
        "postalCode": "N2B3E5",
        "streetName": "VICTORIA",
        "streetDirectionId": "N",
        "streetTypeId": "ST",
        "placeName": "KITCHENER",
        "streetNameDisplayText": "VICTORIA ST N, KITCHENER"
      }
    ]
  },
  {
    "postal": "N2B8N6",
    "result": []
  },
  {
    "postal": "N2B8J4",
    "result": []
  },
  {
    "postal": "N2B4R7",
    "result": []
  },
  {
    "postal": "N2B9K1",
    "result": []
  },
  {
    "postal": "N2B8E1",
    "result": []
  },
  {
    "postal": "N2B0R1",
    "result": []
  },
  {
    "postal": "N2B4J3",
    "result": []
  },
  {
    "postal": "N2B7E7",
    "result": []
  },
  {
    "postal": "N2B0J0",
    "result": []
  },
  {
    "postal": "N2B7R8",
    "result": []
  },
  {
    "postal": "N2B9X0",
    "result": []
  },
  {
    "postal": "N2B7P6",
    "result": []
  },
  {
    "postal": "N2B0R7",
    "result": []
  },
  {
    "postal": "N2B5W1",
    "result": []
  },
  {
    "postal": "N2B0K4",
    "result": []
  },
  {
    "postal": "N2B7N9",
    "result": []
  },
  {
    "postal": "N2B1N0",
    "result": []
  },
  {
    "postal": "N2B6P3",
    "result": []
  },
  {
    "postal": "N2B5A1",
    "result": []
  },
  {
    "postal": "N2B9M9",
    "result": []
  },
  {
    "postal": "N2B7T6",
    "result": []
  },
  {
    "postal": "N2B3X0",
    "result": []
  },
  {
    "postal": "N2B2T0",
    "result": []
  },
  {
    "postal": "N2B5X9",
    "result": []
  },
  {
    "postal": "N2B2R3",
    "result": [
      {
        "electoralDistricts": [
          {
            "election": null,
            "id": 47,
            "name": "Kitchener Centre"
          }
        ],
        "pollDivisionIds": [
          10139215
        ],
        "postalCode": "N2B2R3",
        "streetName": "MONTCALM",
        "streetDirectionId": null,
        "streetTypeId": "DR",
        "placeName": "KITCHENER",
        "streetNameDisplayText": "MONTCALM DR, KITCHENER"
      }
    ]
  },
  {
    "postal": "N2B5N2",
    "result": []
  },
  {
    "postal": "N2B4Y7",
    "result": []
  },
  {
    "postal": "N2B7M0",
    "result": []
  },
  {
    "postal": "N2B8P3",
    "result": []
  },
  {
    "postal": "N2B3N3",
    "result": [
      {
        "electoralDistricts": [
          {
            "election": null,
            "id": 47,
            "name": "Kitchener Centre"
          }
        ],
        "pollDivisionIds": [
          10139218
        ],
        "postalCode": "N2B3N3",
        "streetName": "GEORGIAN",
        "streetDirectionId": null,
        "streetTypeId": "ST",
        "placeName": "KITCHENER",
        "streetNameDisplayText": "GEORGIAN ST, KITCHENER"
      }
    ]
  },
  {
    "postal": "N2B7S3",
    "result": []
  },
  {
    "postal": "N2B3V9",
    "result": [
      {
        "electoralDistricts": [
          {
            "election": null,
            "id": 47,
            "name": "Kitchener Centre"
          }
        ],
        "pollDivisionIds": [
          10139209,
          10139218
        ],
        "postalCode": "N2B3V9",
        "streetName": "DEANS GATE",
        "streetDirectionId": null,
        "streetTypeId": "CRT",
        "placeName": "KITCHENER",
        "streetNameDisplayText": "DEANS GATE CRT, KITCHENER"
      },
      {
        "electoralDistricts": [
          {
            "election": null,
            "id": 47,
            "name": "Kitchener Centre"
          }
        ],
        "pollDivisionIds": [
          10139218
        ],
        "postalCode": "N2B3V9",
        "streetName": "DEAN'S GATE",
        "streetDirectionId": null,
        "streetTypeId": "CRT",
        "placeName": "KITCHENER",
        "streetNameDisplayText": "DEAN'S GATE CRT, KITCHENER"
      },
      {
        "electoralDistricts": [
          {
            "election": null,
            "id": 47,
            "name": "Kitchener Centre"
          }
        ],
        "pollDivisionIds": [
          10139218
        ],
        "postalCode": "N2B3V9",
        "streetName": "OTTERBEIN",
        "streetDirectionId": null,
        "streetTypeId": "RD",
        "placeName": "KITCHENER",
        "streetNameDisplayText": "OTTERBEIN RD, KITCHENER"
      }
    ]
  },
  {
    "postal": "N2B9N7",
    "result": []
  },
  {
    "postal": "N2B0G4",
    "result": []
  },
  {
    "postal": "N2B2E2",
    "result": [
      {
        "electoralDistricts": [
          {
            "election": null,
            "id": 114,
            "name": "Waterloo"
          }
        ],
        "pollDivisionIds": [
          10126572
        ],
        "postalCode": "N2B2E2",
        "streetName": "SHIRLEY",
        "streetDirectionId": null,
        "streetTypeId": "AVE",
        "placeName": "KITCHENER",
        "streetNameDisplayText": "SHIRLEY AVE, KITCHENER"
      }
    ]
  },
  {
    "postal": "N2B7W8",
    "result": []
  },
  {
    "postal": "N2B7M5",
    "result": []
  },
  {
    "postal": "N2B5W8",
    "result": []
  },
  {
    "postal": "N2B5E5",
    "result": []
  },
  {
    "postal": "N2B1P9",
    "result": [
      {
        "electoralDistricts": [
          {
            "election": null,
            "id": 47,
            "name": "Kitchener Centre"
          }
        ],
        "pollDivisionIds": [
          10139211
        ],
        "postalCode": "N2B1P9",
        "streetName": "ROSEMOUNT",
        "streetDirectionId": null,
        "streetTypeId": "DR",
        "placeName": "KITCHENER",
        "streetNameDisplayText": "ROSEMOUNT DR, KITCHENER"
      }
    ]
  },
  {
    "postal": "N2B8V8",
    "result": []
  },
  {
    "postal": "N2B9G8",
    "result": []
  },
  {
    "postal": "N2B8H9",
    "result": []
  },
  {
    "postal": "N2B1Z1",
    "result": [
      {
        "electoralDistricts": [
          {
            "election": null,
            "id": 47,
            "name": "Kitchener Centre"
          }
        ],
        "pollDivisionIds": [
          10139210
        ],
        "postalCode": "N2B1Z1",
        "streetName": "BRUCE",
        "streetDirectionId": null,
        "streetTypeId": "ST",
        "placeName": "KITCHENER",
        "streetNameDisplayText": "BRUCE ST, KITCHENER"
      }
    ]
  },
  {
    "postal": "N2B8M3",
    "result": []
  },
  {
    "postal": "N2B5H6",
    "result": []
  },
  {
    "postal": "N2B7W7",
    "result": []
  },
  {
    "postal": "N2B4L0",
    "result": []
  },
  {
    "postal": "N2B2N1",
    "result": [
      {
        "electoralDistricts": [
          {
            "election": null,
            "id": 47,
            "name": "Kitchener Centre"
          }
        ],
        "pollDivisionIds": [
          10139215
        ],
        "postalCode": "N2B2N1",
        "streetName": "LORRAINE",
        "streetDirectionId": null,
        "streetTypeId": "AVE",
        "placeName": "KITCHENER",
        "streetNameDisplayText": "LORRAINE AVE, KITCHENER"
      }
    ]
  },
  {
    "postal": "N2B2H4",
    "result": [
      {
        "electoralDistricts": [
          {
            "election": null,
            "id": 47,
            "name": "Kitchener Centre"
          }
        ],
        "pollDivisionIds": [
          10139212
        ],
        "postalCode": "N2B2H4",
        "streetName": "HICKSON",
        "streetDirectionId": null,
        "streetTypeId": "DR",
        "placeName": "KITCHENER",
        "streetNameDisplayText": "HICKSON DR, KITCHENER"
      }
    ]
  },
  {
    "postal": "N2B5C8",
    "result": []
  },
  {
    "postal": "N2B8B0",
    "result": []
  },
  {
    "postal": "N2B1T4",
    "result": [
      {
        "electoralDistricts": [
          {
            "election": null,
            "id": 47,
            "name": "Kitchener Centre"
          }
        ],
        "pollDivisionIds": [
          10139211
        ],
        "postalCode": "N2B1T4",
        "streetName": "BURLINGTON",
        "streetDirectionId": null,
        "streetTypeId": "DR",
        "placeName": "KITCHENER",
        "streetNameDisplayText": "BURLINGTON DR, KITCHENER"
      }
    ]
  },
  {
    "postal": "N2B7N7",
    "result": []
  },
  {
    "postal": "N2B4L3",
    "result": []
  },
  {
    "postal": "N2B2N2",
    "result": [
      {
        "electoralDistricts": [
          {
            "election": null,
            "id": 47,
            "name": "Kitchener Centre"
          }
        ],
        "pollDivisionIds": [
          10139213
        ],
        "postalCode": "N2B2N2",
        "streetName": "LORRAINE",
        "streetDirectionId": null,
        "streetTypeId": "AVE",
        "placeName": "KITCHENER",
        "streetNameDisplayText": "LORRAINE AVE, KITCHENER"
      }
    ]
  },
  {
    "postal": "N2B4N8",
    "result": []
  },
  {
    "postal": "N2B3M5",
    "result": [
      {
        "electoralDistricts": [
          {
            "election": null,
            "id": 47,
            "name": "Kitchener Centre"
          }
        ],
        "pollDivisionIds": [
          10139218
        ],
        "postalCode": "N2B3M5",
        "streetName": "NIPIGON",
        "streetDirectionId": null,
        "streetTypeId": "ST",
        "placeName": "KITCHENER",
        "streetNameDisplayText": "NIPIGON ST, KITCHENER"
      }
    ]
  },
  {
    "postal": "N2B6H7",
    "result": []
  },
  {
    "postal": "N2B8Y8",
    "result": []
  },
  {
    "postal": "N2B5R9",
    "result": []
  },
  {
    "postal": "N2B8G3",
    "result": []
  },
  {
    "postal": "N2B4N7",
    "result": []
  },
  {
    "postal": "N2B0B9",
    "result": []
  },
  {
    "postal": "N2B9K7",
    "result": []
  },
  {
    "postal": "N2B9K9",
    "result": []
  },
  {
    "postal": "N2B3Z2",
    "result": []
  },
  {
    "postal": "N2B6W7",
    "result": []
  },
  {
    "postal": "N2B0P1",
    "result": []
  },
  {
    "postal": "N2B3A0",
    "result": []
  },
  {
    "postal": "N2B8L9",
    "result": []
  },
  {
    "postal": "N2B6X0",
    "result": []
  },
  {
    "postal": "N2B3E9",
    "result": [
      {
        "electoralDistricts": [
          {
            "election": null,
            "id": 47,
            "name": "Kitchener Centre"
          }
        ],
        "pollDivisionIds": [
          10139218
        ],
        "postalCode": "N2B3E9",
        "streetName": "CENTENNIAL",
        "streetDirectionId": null,
        "streetTypeId": "RD",
        "placeName": "KITCHENER",
        "streetNameDisplayText": "CENTENNIAL RD, KITCHENER"
      }
    ]
  },
  {
    "postal": "N2B0S5",
    "result": []
  },
  {
    "postal": "N2B1A2",
    "result": [
      {
        "electoralDistricts": [
          {
            "election": null,
            "id": 47,
            "name": "Kitchener Centre"
          }
        ],
        "pollDivisionIds": [
          10139210
        ],
        "postalCode": "N2B1A2",
        "streetName": "MANCHESTER",
        "streetDirectionId": null,
        "streetTypeId": "RD",
        "placeName": "KITCHENER",
        "streetNameDisplayText": "MANCHESTER RD, KITCHENER"
      }
    ]
  },
  {
    "postal": "N2B5V8",
    "result": []
  },
  {
    "postal": "N2B8C5",
    "result": []
  },
  {
    "postal": "N2B6N0",
    "result": []
  },
  {
    "postal": "N2B9E6",
    "result": []
  },
  {
    "postal": "N2B5J7",
    "result": []
  },
  {
    "postal": "N2B2R2",
    "result": [
      {
        "electoralDistricts": [
          {
            "election": null,
            "id": 47,
            "name": "Kitchener Centre"
          }
        ],
        "pollDivisionIds": [
          10139215
        ],
        "postalCode": "N2B2R2",
        "streetName": "MONTCALM",
        "streetDirectionId": null,
        "streetTypeId": "DR",
        "placeName": "KITCHENER",
        "streetNameDisplayText": "MONTCALM DR, KITCHENER"
      }
    ]
  },
  {
    "postal": "N2B0P5",
    "result": []
  },
  {
    "postal": "N2B5A7",
    "result": []
  },
  {
    "postal": "N2B1G1",
    "result": [
      {
        "electoralDistricts": [
          {
            "election": null,
            "id": 47,
            "name": "Kitchener Centre"
          }
        ],
        "pollDivisionIds": [
          10139210
        ],
        "postalCode": "N2B1G1",
        "streetName": "ADA",
        "streetDirectionId": null,
        "streetTypeId": "ST",
        "placeName": "KITCHENER",
        "streetNameDisplayText": "ADA ST, KITCHENER"
      }
    ]
  },
  {
    "postal": "N2B9R6",
    "result": []
  },
  {
    "postal": "N2B4Z9",
    "result": []
  },
  {
    "postal": "N2B1V5",
    "result": [
      {
        "electoralDistricts": [
          {
            "election": null,
            "id": 47,
            "name": "Kitchener Centre"
          }
        ],
        "pollDivisionIds": [
          10139211
        ],
        "postalCode": "N2B1V5",
        "streetName": "MONTEREY",
        "streetDirectionId": null,
        "streetTypeId": "CRES",
        "placeName": "KITCHENER",
        "streetNameDisplayText": "MONTEREY CRES, KITCHENER"
      }
    ]
  },
  {
    "postal": "N2B9Y5",
    "result": []
  },
  {
    "postal": "N2B1P2",
    "result": [
      {
        "electoralDistricts": [
          {
            "election": null,
            "id": 47,
            "name": "Kitchener Centre"
          }
        ],
        "pollDivisionIds": [
          10139210
        ],
        "postalCode": "N2B1P2",
        "streetName": "ETON",
        "streetDirectionId": null,
        "streetTypeId": "DR",
        "placeName": "KITCHENER",
        "streetNameDisplayText": "ETON DR, KITCHENER"
      }
    ]
  },
  {
    "postal": "N2B5X0",
    "result": []
  },
  {
    "postal": "N2B7B8",
    "result": []
  },
  {
    "postal": "N2B0C6",
    "result": []
  },
  {
    "postal": "N2B6G1",
    "result": []
  },
  {
    "postal": "N2B3K3",
    "result": [
      {
        "electoralDistricts": [
          {
            "election": null,
            "id": 47,
            "name": "Kitchener Centre"
          }
        ],
        "pollDivisionIds": [
          10139218
        ],
        "postalCode": "N2B3K3",
        "streetName": "OAKHURST",
        "streetDirectionId": null,
        "streetTypeId": "CRES",
        "placeName": "KITCHENER",
        "streetNameDisplayText": "OAKHURST CRES, KITCHENER"
      }
    ]
  },
  {
    "postal": "N2B9R0",
    "result": []
  },
  {
    "postal": "N2B4R8",
    "result": []
  },
  {
    "postal": "N2B5P9",
    "result": []
  },
  {
    "postal": "N2B8N4",
    "result": []
  },
  {
    "postal": "N2B8H4",
    "result": []
  },
  {
    "postal": "N2B4V1",
    "result": []
  },
  {
    "postal": "N2B1K5",
    "result": [
      {
        "electoralDistricts": [
          {
            "election": null,
            "id": 47,
            "name": "Kitchener Centre"
          }
        ],
        "pollDivisionIds": [
          10139211
        ],
        "postalCode": "N2B1K5",
        "streetName": "SHERWOOD",
        "streetDirectionId": null,
        "streetTypeId": "AVE",
        "placeName": "KITCHENER",
        "streetNameDisplayText": "SHERWOOD AVE, KITCHENER"
      }
    ]
  },
  {
    "postal": "N2B1Z5",
    "result": [
      {
        "electoralDistricts": [
          {
            "election": null,
            "id": 47,
            "name": "Kitchener Centre"
          }
        ],
        "pollDivisionIds": [
          10139210
        ],
        "postalCode": "N2B1Z5",
        "streetName": "BRUCE",
        "streetDirectionId": null,
        "streetTypeId": "ST",
        "placeName": "KITCHENER",
        "streetNameDisplayText": "BRUCE ST, KITCHENER"
      }
    ]
  },
  {
    "postal": "N2B9L9",
    "result": []
  },
  {
    "postal": "N2B5L2",
    "result": []
  },
  {
    "postal": "N2B0M2",
    "result": []
  },
  {
    "postal": "N2B1K8",
    "result": [
      {
        "electoralDistricts": [
          {
            "election": null,
            "id": 47,
            "name": "Kitchener Centre"
          }
        ],
        "pollDivisionIds": [
          10139210
        ],
        "postalCode": "N2B1K8",
        "streetName": "KRUG",
        "streetDirectionId": null,
        "streetTypeId": "ST",
        "placeName": "KITCHENER",
        "streetNameDisplayText": "KRUG ST, KITCHENER"
      }
    ]
  },
  {
    "postal": "N2B3M7",
    "result": [
      {
        "electoralDistricts": [
          {
            "election": null,
            "id": 47,
            "name": "Kitchener Centre"
          }
        ],
        "pollDivisionIds": [
          10139218
        ],
        "postalCode": "N2B3M7",
        "streetName": "WESTCHESTER",
        "streetDirectionId": null,
        "streetTypeId": "DR",
        "placeName": "KITCHENER",
        "streetNameDisplayText": "WESTCHESTER DR, KITCHENER"
      }
    ]
  },
  {
    "postal": "N2B1B2",
    "result": [
      {
        "electoralDistricts": [
          {
            "election": null,
            "id": 47,
            "name": "Kitchener Centre"
          }
        ],
        "pollDivisionIds": [
          10139211
        ],
        "postalCode": "N2B1B2",
        "streetName": "MANCHESTER",
        "streetDirectionId": null,
        "streetTypeId": "RD",
        "placeName": "KITCHENER",
        "streetNameDisplayText": "MANCHESTER RD, KITCHENER"
      }
    ]
  },
  {
    "postal": "N2B0H9",
    "result": []
  },
  {
    "postal": "N2B8M4",
    "result": []
  },
  {
    "postal": "N2B2M5",
    "result": [
      {
        "electoralDistricts": [
          {
            "election": null,
            "id": 47,
            "name": "Kitchener Centre"
          }
        ],
        "pollDivisionIds": [
          10139212
        ],
        "postalCode": "N2B2M5",
        "streetName": "HALLIWELL",
        "streetDirectionId": null,
        "streetTypeId": "DR",
        "placeName": "KITCHENER",
        "streetNameDisplayText": "HALLIWELL DR, KITCHENER"
      }
    ]
  },
  {
    "postal": "N2B0T9",
    "result": []
  },
  {
    "postal": "N2B3P1",
    "result": [
      {
        "electoralDistricts": [
          {
            "election": null,
            "id": 47,
            "name": "Kitchener Centre"
          }
        ],
        "pollDivisionIds": [
          10139218
        ],
        "postalCode": "N2B3P1",
        "streetName": "GEORGIAN",
        "streetDirectionId": null,
        "streetTypeId": "PL",
        "placeName": "KITCHENER",
        "streetNameDisplayText": "GEORGIAN PL, KITCHENER"
      }
    ]
  },
  {
    "postal": "N2B1R6",
    "result": [
      {
        "electoralDistricts": [
          {
            "election": null,
            "id": 47,
            "name": "Kitchener Centre"
          }
        ],
        "pollDivisionIds": [
          10139211
        ],
        "postalCode": "N2B1R6",
        "streetName": "ROSEMOUNT",
        "streetDirectionId": null,
        "streetTypeId": "DR",
        "placeName": "KITCHENER",
        "streetNameDisplayText": "ROSEMOUNT DR, KITCHENER"
      }
    ]
  },
  {
    "postal": "N2B9V5",
    "result": []
  },
  {
    "postal": "N2B9T0",
    "result": []
  },
  {
    "postal": "N2B0A9",
    "result": []
  },
  {
    "postal": "N2B1M3",
    "result": [
      {
        "electoralDistricts": [
          {
            "election": null,
            "id": 47,
            "name": "Kitchener Centre"
          }
        ],
        "pollDivisionIds": [
          10139210
        ],
        "postalCode": "N2B1M3",
        "streetName": "HEATHER",
        "streetDirectionId": null,
        "streetTypeId": "AVE",
        "placeName": "KITCHENER",
        "streetNameDisplayText": "HEATHER AVE, KITCHENER"
      }
    ]
  },
  {
    "postal": "N2B1W8",
    "result": [
      {
        "electoralDistricts": [
          {
            "election": null,
            "id": 47,
            "name": "Kitchener Centre"
          }
        ],
        "pollDivisionIds": [
          10139218
        ],
        "postalCode": "N2B1W8",
        "streetName": "WORDSWORTH",
        "streetDirectionId": null,
        "streetTypeId": "PL",
        "placeName": "KITCHENER",
        "streetNameDisplayText": "WORDSWORTH PL, KITCHENER"
      }
    ]
  },
  {
    "postal": "N2B9J1",
    "result": []
  },
  {
    "postal": "N2B8N5",
    "result": []
  },
  {
    "postal": "N2B5X1",
    "result": []
  },
  {
    "postal": "N2B6S2",
    "result": []
  },
  {
    "postal": "N2B2A2",
    "result": [
      {
        "electoralDistricts": [
          {
            "election": null,
            "id": 47,
            "name": "Kitchener Centre"
          }
        ],
        "pollDivisionIds": [
          10139211
        ],
        "postalCode": "N2B2A2",
        "streetName": "LOIS",
        "streetDirectionId": null,
        "streetTypeId": "ST",
        "placeName": "KITCHENER",
        "streetNameDisplayText": "LOIS ST, KITCHENER"
      }
    ]
  },
  {
    "postal": "N2B6A6",
    "result": []
  },
  {
    "postal": "N2B0S3",
    "result": []
  },
  {
    "postal": "N2B3E7",
    "result": [
      {
        "electoralDistricts": [
          {
            "election": null,
            "id": 47,
            "name": "Kitchener Centre"
          }
        ],
        "pollDivisionIds": [
          10139218
        ],
        "postalCode": "N2B3E7",
        "streetName": "FORWELL",
        "streetDirectionId": null,
        "streetTypeId": "RD",
        "placeName": "KITCHENER",
        "streetNameDisplayText": "FORWELL RD, KITCHENER"
      }
    ]
  },
  {
    "postal": "N2B5R7",
    "result": []
  },
  {
    "postal": "N2B3R6",
    "result": [
      {
        "electoralDistricts": [
          {
            "election": null,
            "id": 47,
            "name": "Kitchener Centre"
          }
        ],
        "pollDivisionIds": [
          10139213
        ],
        "postalCode": "N2B3R6",
        "streetName": "VICTORIA",
        "streetDirectionId": "N",
        "streetTypeId": "ST",
        "placeName": "KITCHENER",
        "streetNameDisplayText": "VICTORIA ST N, KITCHENER"
      }
    ]
  },
  {
    "postal": "N2B6K4",
    "result": []
  },
  {
    "postal": "N2B2W5",
    "result": [
      {
        "electoralDistricts": [
          {
            "election": null,
            "id": 47,
            "name": "Kitchener Centre"
          }
        ],
        "pollDivisionIds": [
          10139213
        ],
        "postalCode": "N2B2W5",
        "streetName": "CARSON",
        "streetDirectionId": null,
        "streetTypeId": "DR",
        "placeName": "KITCHENER",
        "streetNameDisplayText": "CARSON DR, KITCHENER"
      }
    ]
  },
  {
    "postal": "N2B8W4",
    "result": []
  },
  {
    "postal": "N2B9C2",
    "result": []
  },
  {
    "postal": "N2B2C0",
    "result": []
  },
  {
    "postal": "N2B0E1",
    "result": []
  },
  {
    "postal": "N2B1K9",
    "result": [
      {
        "electoralDistricts": [
          {
            "election": null,
            "id": 47,
            "name": "Kitchener Centre"
          }
        ],
        "pollDivisionIds": [
          10139210
        ],
        "postalCode": "N2B1K9",
        "streetName": "KRUG",
        "streetDirectionId": null,
        "streetTypeId": "ST",
        "placeName": "KITCHENER",
        "streetNameDisplayText": "KRUG ST, KITCHENER"
      }
    ]
  },
  {
    "postal": "N2B1G7",
    "result": [
      {
        "electoralDistricts": [
          {
            "election": null,
            "id": 47,
            "name": "Kitchener Centre"
          }
        ],
        "pollDivisionIds": [
          10139210
        ],
        "postalCode": "N2B1G7",
        "streetName": "BELLEVIEW",
        "streetDirectionId": null,
        "streetTypeId": "AVE",
        "placeName": "KITCHENER",
        "streetNameDisplayText": "BELLEVIEW AVE, KITCHENER"
      }
    ]
  },
  {
    "postal": "N2B4E9",
    "result": []
  },
  {
    "postal": "N2B9P0",
    "result": []
  },
  {
    "postal": "N2B5H3",
    "result": []
  },
  {
    "postal": "N2B9X6",
    "result": []
  },
  {
    "postal": "N2B5N7",
    "result": []
  },
  {
    "postal": "N2B5A6",
    "result": []
  },
  {
    "postal": "N2B4M0",
    "result": []
  },
  {
    "postal": "N2B3V6",
    "result": [
      {
        "electoralDistricts": [
          {
            "election": null,
            "id": 47,
            "name": "Kitchener Centre"
          }
        ],
        "pollDivisionIds": [
          10139218
        ],
        "postalCode": "N2B3V6",
        "streetName": "MISTY",
        "streetDirectionId": null,
        "streetTypeId": "CRES",
        "placeName": "KITCHENER",
        "streetNameDisplayText": "MISTY CRES, KITCHENER"
      },
      {
        "electoralDistricts": [
          {
            "election": null,
            "id": 47,
            "name": "Kitchener Centre"
          }
        ],
        "pollDivisionIds": [
          10139218
        ],
        "postalCode": "N2B3V6",
        "streetName": "MISTY",
        "streetDirectionId": null,
        "streetTypeId": "ST",
        "placeName": "KITCHENER",
        "streetNameDisplayText": "MISTY ST, KITCHENER"
      }
    ]
  },
  {
    "postal": "N2B1L7",
    "result": [
      {
        "electoralDistricts": [
          {
            "election": null,
            "id": 47,
            "name": "Kitchener Centre"
          }
        ],
        "pollDivisionIds": [
          10139211
        ],
        "postalCode": "N2B1L7",
        "streetName": "KRUG",
        "streetDirectionId": null,
        "streetTypeId": "ST",
        "placeName": "KITCHENER",
        "streetNameDisplayText": "KRUG ST, KITCHENER"
      }
    ]
  },
  {
    "postal": "N2B2P9",
    "result": [
      {
        "electoralDistricts": [
          {
            "election": null,
            "id": 47,
            "name": "Kitchener Centre"
          }
        ],
        "pollDivisionIds": [
          10139215
        ],
        "postalCode": "N2B2P9",
        "streetName": "MONTCALM",
        "streetDirectionId": null,
        "streetTypeId": "DR",
        "placeName": "KITCHENER",
        "streetNameDisplayText": "MONTCALM DR, KITCHENER"
      }
    ]
  },
  {
    "postal": "N2B5T4",
    "result": []
  },
  {
    "postal": "N2B5Z1",
    "result": []
  },
  {
    "postal": "N2B2X0",
    "result": []
  },
  {
    "postal": "N2B6Z2",
    "result": []
  },
  {
    "postal": "N2B0E0",
    "result": []
  },
  {
    "postal": "N2B3Z5",
    "result": []
  },
  {
    "postal": "N2B8H3",
    "result": []
  },
  {
    "postal": "N2B7S6",
    "result": []
  },
  {
    "postal": "N2B4C1",
    "result": []
  },
  {
    "postal": "N2B3K2",
    "result": [
      {
        "electoralDistricts": [
          {
            "election": null,
            "id": 47,
            "name": "Kitchener Centre"
          }
        ],
        "pollDivisionIds": [
          10139218
        ],
        "postalCode": "N2B3K2",
        "streetName": "OAKHURST",
        "streetDirectionId": null,
        "streetTypeId": "CRES",
        "placeName": "KITCHENER",
        "streetNameDisplayText": "OAKHURST CRES, KITCHENER"
      }
    ]
  },
  {
    "postal": "N2B1Y5",
    "result": [
      {
        "electoralDistricts": [
          {
            "election": null,
            "id": 47,
            "name": "Kitchener Centre"
          }
        ],
        "pollDivisionIds": [
          10139211
        ],
        "postalCode": "N2B1Y5",
        "streetName": "BRUCE",
        "streetDirectionId": null,
        "streetTypeId": "ST",
        "placeName": "KITCHENER",
        "streetNameDisplayText": "BRUCE ST, KITCHENER"
      }
    ]
  },
  {
    "postal": "N2B6P6",
    "result": []
  },
  {
    "postal": "N2B3N9",
    "result": [
      {
        "electoralDistricts": [
          {
            "election": null,
            "id": 47,
            "name": "Kitchener Centre"
          }
        ],
        "pollDivisionIds": [
          10139218
        ],
        "postalCode": "N2B3N9",
        "streetName": "GEORGIAN",
        "streetDirectionId": null,
        "streetTypeId": "CRES",
        "placeName": "KITCHENER",
        "streetNameDisplayText": "GEORGIAN CRES, KITCHENER"
      }
    ]
  },
  {
    "postal": "N2B3W2",
    "result": [
      {
        "electoralDistricts": [
          {
            "election": null,
            "id": 47,
            "name": "Kitchener Centre"
          }
        ],
        "pollDivisionIds": [
          10139218
        ],
        "postalCode": "N2B3W2",
        "streetName": "KEEWATIN",
        "streetDirectionId": null,
        "streetTypeId": "AVE",
        "placeName": "KITCHENER",
        "streetNameDisplayText": "KEEWATIN AVE, KITCHENER"
      },
      {
        "electoralDistricts": [
          {
            "election": null,
            "id": 47,
            "name": "Kitchener Centre"
          }
        ],
        "pollDivisionIds": [
          10139218
        ],
        "postalCode": "N2B3W2",
        "streetName": "STANMORE",
        "streetDirectionId": null,
        "streetTypeId": "AVE",
        "placeName": "KITCHENER",
        "streetNameDisplayText": "STANMORE AVE, KITCHENER"
      }
    ]
  },
  {
    "postal": "N2B6H8",
    "result": []
  },
  {
    "postal": "N2B9T3",
    "result": []
  },
  {
    "postal": "N2B5L9",
    "result": []
  },
  {
    "postal": "N2B7X7",
    "result": []
  },
  {
    "postal": "N2B3J5",
    "result": [
      {
        "electoralDistricts": [
          {
            "election": null,
            "id": 47,
            "name": "Kitchener Centre"
          }
        ],
        "pollDivisionIds": [
          10139213
        ],
        "postalCode": "N2B3J5",
        "streetName": "CONFEDERATION",
        "streetDirectionId": null,
        "streetTypeId": "DR",
        "placeName": "KITCHENER",
        "streetNameDisplayText": "CONFEDERATION DR, KITCHENER"
      }
    ]
  },
  {
    "postal": "N2B4J5",
    "result": []
  },
  {
    "postal": "N2B6J2",
    "result": []
  },
  {
    "postal": "N2B5V6",
    "result": []
  },
  {
    "postal": "N2B3N2",
    "result": [
      {
        "electoralDistricts": [
          {
            "election": null,
            "id": 47,
            "name": "Kitchener Centre"
          }
        ],
        "pollDivisionIds": [
          10139218
        ],
        "postalCode": "N2B3N2",
        "streetName": "NIPIGON",
        "streetDirectionId": null,
        "streetTypeId": "ST",
        "placeName": "KITCHENER",
        "streetNameDisplayText": "NIPIGON ST, KITCHENER"
      }
    ]
  },
  {
    "postal": "N2B3B1",
    "result": [
      {
        "electoralDistricts": [
          {
            "election": null,
            "id": 47,
            "name": "Kitchener Centre"
          }
        ],
        "pollDivisionIds": [
          10139213
        ],
        "postalCode": "N2B3B1",
        "streetName": "MATTHEW",
        "streetDirectionId": null,
        "streetTypeId": "ST",
        "placeName": "KITCHENER",
        "streetNameDisplayText": "MATTHEW ST, KITCHENER"
      }
    ]
  },
  {
    "postal": "N2B8B5",
    "result": []
  },
  {
    "postal": "N2B0K1",
    "result": []
  },
  {
    "postal": "N2B7M7",
    "result": []
  },
  {
    "postal": "N2B2M2",
    "result": [
      {
        "electoralDistricts": [
          {
            "election": null,
            "id": 47,
            "name": "Kitchener Centre"
          }
        ],
        "pollDivisionIds": [
          10139212
        ],
        "postalCode": "N2B2M2",
        "streetName": "CHRISTINE",
        "streetDirectionId": null,
        "streetTypeId": "CRES",
        "placeName": "KITCHENER",
        "streetNameDisplayText": "CHRISTINE CRES, KITCHENER"
      }
    ]
  },
  {
    "postal": "N2B9N3",
    "result": []
  },
  {
    "postal": "N2B4Y8",
    "result": []
  },
  {
    "postal": "N2B3V7",
    "result": [
      {
        "electoralDistricts": [
          {
            "election": null,
            "id": 47,
            "name": "Kitchener Centre"
          }
        ],
        "pollDivisionIds": [
          10139218
        ],
        "postalCode": "N2B3V7",
        "streetName": "MISTY",
        "streetDirectionId": null,
        "streetTypeId": "CRES",
        "placeName": "KITCHENER",
        "streetNameDisplayText": "MISTY CRES, KITCHENER"
      }
    ]
  },
  {
    "postal": "N2B8Z1",
    "result": []
  },
  {
    "postal": "N2B7B3",
    "result": []
  },
  {
    "postal": "N2B3A8",
    "result": []
  },
  {
    "postal": "N2B7V5",
    "result": []
  },
  {
    "postal": "N2B2T2",
    "result": [
      {
        "electoralDistricts": [
          {
            "election": null,
            "id": 47,
            "name": "Kitchener Centre"
          }
        ],
        "pollDivisionIds": [
          10139215
        ],
        "postalCode": "N2B2T2",
        "streetName": "MCGEE",
        "streetDirectionId": null,
        "streetTypeId": "AVE",
        "placeName": "KITCHENER",
        "streetNameDisplayText": "MCGEE AVE, KITCHENER"
      }
    ]
  },
  {
    "postal": "N2B6L3",
    "result": []
  },
  {
    "postal": "N2B0L2",
    "result": []
  },
  {
    "postal": "N2B5Y8",
    "result": []
  },
  {
    "postal": "N2B0B8",
    "result": []
  },
  {
    "postal": "N2B6R5",
    "result": []
  },
  {
    "postal": "N2B8W6",
    "result": []
  },
  {
    "postal": "N2B8G6",
    "result": []
  },
  {
    "postal": "N2B6X3",
    "result": []
  },
  {
    "postal": "N2B7R7",
    "result": []
  },
  {
    "postal": "N2B4B6",
    "result": []
  },
  {
    "postal": "N2B3P9",
    "result": [
      {
        "electoralDistricts": [
          {
            "election": null,
            "id": 47,
            "name": "Kitchener Centre"
          }
        ],
        "pollDivisionIds": [
          10139218
        ],
        "postalCode": "N2B3P9",
        "streetName": "GEORGIAN",
        "streetDirectionId": null,
        "streetTypeId": "ST",
        "placeName": "KITCHENER",
        "streetNameDisplayText": "GEORGIAN ST, KITCHENER"
      }
    ]
  },
  {
    "postal": "N2B2T3",
    "result": [
      {
        "electoralDistricts": [
          {
            "election": null,
            "id": 47,
            "name": "Kitchener Centre"
          }
        ],
        "pollDivisionIds": [
          10139215
        ],
        "postalCode": "N2B2T3",
        "streetName": "MCGEE",
        "streetDirectionId": null,
        "streetTypeId": "AVE",
        "placeName": "KITCHENER",
        "streetNameDisplayText": "MCGEE AVE, KITCHENER"
      }
    ]
  },
  {
    "postal": "N2B1M4",
    "result": [
      {
        "electoralDistricts": [
          {
            "election": null,
            "id": 47,
            "name": "Kitchener Centre"
          }
        ],
        "pollDivisionIds": [
          10139210
        ],
        "postalCode": "N2B1M4",
        "streetName": "EDINBURGH",
        "streetDirectionId": null,
        "streetTypeId": "RD",
        "placeName": "KITCHENER",
        "streetNameDisplayText": "EDINBURGH RD, KITCHENER"
      }
    ]
  },
  {
    "postal": "N2B0H1",
    "result": []
  },
  {
    "postal": "N2B9W3",
    "result": []
  },
  {
    "postal": "N2B6P1",
    "result": []
  },
  {
    "postal": "N2B7G2",
    "result": []
  },
  {
    "postal": "N2B4J9",
    "result": []
  },
  {
    "postal": "N2B9E4",
    "result": []
  },
  {
    "postal": "N2B8H0",
    "result": []
  },
  {
    "postal": "N2B4M7",
    "result": []
  },
  {
    "postal": "N2B2G9",
    "result": [
      {
        "electoralDistricts": [
          {
            "election": null,
            "id": 47,
            "name": "Kitchener Centre"
          }
        ],
        "pollDivisionIds": [
          10139211
        ],
        "postalCode": "N2B2G9",
        "streetName": "RIVER",
        "streetDirectionId": "E",
        "streetTypeId": "RD",
        "placeName": "KITCHENER",
        "streetNameDisplayText": "RIVER RD E, KITCHENER"
      }
    ]
  },
  {
    "postal": "N2B8T2",
    "result": []
  },
  {
    "postal": "N2B7G7",
    "result": []
  },
  {
    "postal": "N2B4Z3",
    "result": []
  },
  {
    "postal": "N2B5B3",
    "result": []
  },
  {
    "postal": "N2B1S7",
    "result": [
      {
        "electoralDistricts": [
          {
            "election": null,
            "id": 47,
            "name": "Kitchener Centre"
          }
        ],
        "pollDivisionIds": [
          10139211
        ],
        "postalCode": "N2B1S7",
        "streetName": "PEACHWOOD",
        "streetDirectionId": null,
        "streetTypeId": "CRT",
        "placeName": "KITCHENER",
        "streetNameDisplayText": "PEACHWOOD CRT, KITCHENER"
      }
    ]
  },
  {
    "postal": "N2B2N7",
    "result": [
      {
        "electoralDistricts": [
          {
            "election": null,
            "id": 47,
            "name": "Kitchener Centre"
          }
        ],
        "pollDivisionIds": [
          10139215
        ],
        "postalCode": "N2B2N7",
        "streetName": "BETTLEY",
        "streetDirectionId": null,
        "streetTypeId": "CRES",
        "placeName": "KITCHENER",
        "streetNameDisplayText": "BETTLEY CRES, KITCHENER"
      }
    ]
  },
  {
    "postal": "N2B0H8",
    "result": []
  },
  {
    "postal": "N2B7Z4",
    "result": []
  },
  {
    "postal": "N2B7B1",
    "result": []
  },
  {
    "postal": "N2B7P8",
    "result": []
  },
  {
    "postal": "N2B7N0",
    "result": []
  },
  {
    "postal": "N2B3Y5",
    "result": []
  },
  {
    "postal": "N2B6K1",
    "result": []
  },
  {
    "postal": "N2B9X5",
    "result": []
  },
  {
    "postal": "N2B7S5",
    "result": []
  },
  {
    "postal": "N2B0A4",
    "result": []
  },
  {
    "postal": "N2B4T5",
    "result": []
  },
  {
    "postal": "N2B5K1",
    "result": []
  },
  {
    "postal": "N2B0Z9",
    "result": []
  },
  {
    "postal": "N2B7T2",
    "result": []
  },
  {
    "postal": "N2B1L5",
    "result": [
      {
        "electoralDistricts": [
          {
            "election": null,
            "id": 47,
            "name": "Kitchener Centre"
          }
        ],
        "pollDivisionIds": [
          10139210
        ],
        "postalCode": "N2B1L5",
        "streetName": "KRUG",
        "streetDirectionId": null,
        "streetTypeId": "ST",
        "placeName": "KITCHENER",
        "streetNameDisplayText": "KRUG ST, KITCHENER"
      }
    ]
  },
  {
    "postal": "N2B3N5",
    "result": [
      {
        "electoralDistricts": [
          {
            "election": null,
            "id": 47,
            "name": "Kitchener Centre"
          }
        ],
        "pollDivisionIds": [
          10139218
        ],
        "postalCode": "N2B3N5",
        "streetName": "NIPIGON",
        "streetDirectionId": null,
        "streetTypeId": "PL",
        "placeName": "KITCHENER",
        "streetNameDisplayText": "NIPIGON PL, KITCHENER"
      }
    ]
  },
  {
    "postal": "N2B6H4",
    "result": []
  },
  {
    "postal": "N2B5A5",
    "result": []
  },
  {
    "postal": "N2B3R9",
    "result": [
      {
        "electoralDistricts": [
          {
            "election": null,
            "id": 47,
            "name": "Kitchener Centre"
          }
        ],
        "pollDivisionIds": [
          10139213
        ],
        "postalCode": "N2B3R9",
        "streetName": "SMETANA",
        "streetDirectionId": null,
        "streetTypeId": "DR",
        "placeName": "KITCHENER",
        "streetNameDisplayText": "SMETANA DR, KITCHENER"
      }
    ]
  },
  {
    "postal": "N2B7L8",
    "result": []
  },
  {
    "postal": "N2B6T6",
    "result": []
  },
  {
    "postal": "N2B7Y7",
    "result": []
  },
  {
    "postal": "N2B3M8",
    "result": [
      {
        "electoralDistricts": [
          {
            "election": null,
            "id": 47,
            "name": "Kitchener Centre"
          }
        ],
        "pollDivisionIds": [
          10139218
        ],
        "postalCode": "N2B3M8",
        "streetName": "WESTCHESTER",
        "streetDirectionId": null,
        "streetTypeId": "DR",
        "placeName": "KITCHENER",
        "streetNameDisplayText": "WESTCHESTER DR, KITCHENER"
      }
    ]
  },
  {
    "postal": "N2B2E0",
    "result": []
  },
  {
    "postal": "N2B4B5",
    "result": []
  },
  {
    "postal": "N2B1J3",
    "result": [
      {
        "electoralDistricts": [
          {
            "election": null,
            "id": 47,
            "name": "Kitchener Centre"
          }
        ],
        "pollDivisionIds": [
          10139210
        ],
        "postalCode": "N2B1J3",
        "streetName": "PERKELL",
        "streetDirectionId": null,
        "streetTypeId": "PL",
        "placeName": "KITCHENER",
        "streetNameDisplayText": "PERKELL PL, KITCHENER"
      }
    ]
  },
  {
    "postal": "N2B5S6",
    "result": []
  },
  {
    "postal": "N2B8P7",
    "result": []
  },
  {
    "postal": "N2B7S7",
    "result": []
  },
  {
    "postal": "N2B4C2",
    "result": []
  },
  {
    "postal": "N2B5Y0",
    "result": []
  },
  {
    "postal": "N2B2V7",
    "result": [
      {
        "electoralDistricts": [
          {
            "election": null,
            "id": 47,
            "name": "Kitchener Centre"
          }
        ],
        "pollDivisionIds": [
          10139215
        ],
        "postalCode": "N2B2V7",
        "streetName": "HUDSON",
        "streetDirectionId": null,
        "streetTypeId": "CRES",
        "placeName": "KITCHENER",
        "streetNameDisplayText": "HUDSON CRES, KITCHENER"
      }
    ]
  },
  {
    "postal": "N2B8P5",
    "result": []
  },
  {
    "postal": "N2B5P5",
    "result": []
  },
  {
    "postal": "N2B5Z0",
    "result": []
  },
  {
    "postal": "N2B9B0",
    "result": []
  },
  {
    "postal": "N2B1L0",
    "result": []
  },
  {
    "postal": "N2B0B5",
    "result": []
  },
  {
    "postal": "N2B3L2",
    "result": [
      {
        "electoralDistricts": [
          {
            "election": null,
            "id": 47,
            "name": "Kitchener Centre"
          }
        ],
        "pollDivisionIds": [
          10139213
        ],
        "postalCode": "N2B3L2",
        "streetName": "NATCHEZ",
        "streetDirectionId": null,
        "streetTypeId": "RD",
        "placeName": "KITCHENER",
        "streetNameDisplayText": "NATCHEZ RD, KITCHENER"
      }
    ]
  },
  {
    "postal": "N2B3B7",
    "result": [
      {
        "electoralDistricts": [
          {
            "election": null,
            "id": 47,
            "name": "Kitchener Centre"
          }
        ],
        "pollDivisionIds": [
          10139213
        ],
        "postalCode": "N2B3B7",
        "streetName": "MARKETA",
        "streetDirectionId": null,
        "streetTypeId": "CRES",
        "placeName": "KITCHENER",
        "streetNameDisplayText": "MARKETA CRES, KITCHENER"
      }
    ]
  },
  {
    "postal": "N2B8L1",
    "result": []
  },
  {
    "postal": "N2B5M4",
    "result": []
  },
  {
    "postal": "N2B4G9",
    "result": []
  },
  {
    "postal": "N2B0P0",
    "result": []
  },
  {
    "postal": "N2B8G2",
    "result": []
  },
  {
    "postal": "N2B1V9",
    "result": [
      {
        "electoralDistricts": [
          {
            "election": null,
            "id": 47,
            "name": "Kitchener Centre"
          }
        ],
        "pollDivisionIds": [
          10139211
        ],
        "postalCode": "N2B1V9",
        "streetName": "APPLEWOOD",
        "streetDirectionId": null,
        "streetTypeId": "AVE",
        "placeName": "KITCHENER",
        "streetNameDisplayText": "APPLEWOOD AVE, KITCHENER"
      }
    ]
  },
  {
    "postal": "N2B8N8",
    "result": []
  },
  {
    "postal": "N2B6S8",
    "result": []
  },
  {
    "postal": "N2B8H2",
    "result": []
  },
  {
    "postal": "N2B5R8",
    "result": []
  },
  {
    "postal": "N2B5L4",
    "result": []
  },
  {
    "postal": "N2B9E1",
    "result": []
  },
  {
    "postal": "N2B1C4",
    "result": [
      {
        "electoralDistricts": [
          {
            "election": null,
            "id": 47,
            "name": "Kitchener Centre"
          }
        ],
        "pollDivisionIds": [
          10139210
        ],
        "postalCode": "N2B1C4",
        "streetName": "ARCHER",
        "streetDirectionId": null,
        "streetTypeId": "PL",
        "placeName": "KITCHENER",
        "streetNameDisplayText": "ARCHER PL, KITCHENER"
      }
    ]
  },
  {
    "postal": "N2B8W5",
    "result": []
  },
  {
    "postal": "N2B1Y4",
    "result": [
      {
        "electoralDistricts": [
          {
            "election": null,
            "id": 47,
            "name": "Kitchener Centre"
          }
        ],
        "pollDivisionIds": [
          10139211
        ],
        "postalCode": "N2B1Y4",
        "streetName": "BRUCE",
        "streetDirectionId": null,
        "streetTypeId": "ST",
        "placeName": "KITCHENER",
        "streetNameDisplayText": "BRUCE ST, KITCHENER"
      }
    ]
  },
  {
    "postal": "N2B1C0",
    "result": []
  },
  {
    "postal": "N2B2J2",
    "result": [
      {
        "electoralDistricts": [
          {
            "election": null,
            "id": 47,
            "name": "Kitchener Centre"
          }
        ],
        "pollDivisionIds": [
          10139212
        ],
        "postalCode": "N2B2J2",
        "streetName": "HICKSON",
        "streetDirectionId": null,
        "streetTypeId": "DR",
        "placeName": "KITCHENER",
        "streetNameDisplayText": "HICKSON DR, KITCHENER"
      }
    ]
  },
  {
    "postal": "N2B2J0",
    "result": []
  },
  {
    "postal": "N2B7A3",
    "result": []
  },
  {
    "postal": "N2B8M1",
    "result": []
  },
  {
    "postal": "N2B7T9",
    "result": []
  },
  {
    "postal": "N2B6C0",
    "result": []
  },
  {
    "postal": "N2B7X1",
    "result": []
  },
  {
    "postal": "N2B0G1",
    "result": []
  },
  {
    "postal": "N2B4X2",
    "result": []
  },
  {
    "postal": "N2B0N6",
    "result": []
  },
  {
    "postal": "N2B8E3",
    "result": []
  },
  {
    "postal": "N2B5S8",
    "result": []
  },
  {
    "postal": "N2B0R0",
    "result": []
  },
  {
    "postal": "N2B6J6",
    "result": []
  },
  {
    "postal": "N2B4B4",
    "result": []
  },
  {
    "postal": "N2B7E3",
    "result": []
  },
  {
    "postal": "N2B3N6",
    "result": [
      {
        "electoralDistricts": [
          {
            "election": null,
            "id": 47,
            "name": "Kitchener Centre"
          }
        ],
        "pollDivisionIds": [
          10139213
        ],
        "postalCode": "N2B3N6",
        "streetName": "MATTHEW",
        "streetDirectionId": null,
        "streetTypeId": "ST",
        "placeName": "KITCHENER",
        "streetNameDisplayText": "MATTHEW ST, KITCHENER"
      }
    ]
  },
  {
    "postal": "N2B3X6",
    "result": [
      {
        "electoralDistricts": [
          {
            "election": null,
            "id": 114,
            "name": "Waterloo"
          }
        ],
        "pollDivisionIds": [
          10126572
        ],
        "postalCode": "N2B3X6",
        "streetName": "CRESTVIEW",
        "streetDirectionId": null,
        "streetTypeId": "PL",
        "placeName": "KITCHENER",
        "streetNameDisplayText": "CRESTVIEW PL, KITCHENER"
      }
    ]
  },
  {
    "postal": "N2B8L0",
    "result": []
  },
  {
    "postal": "N2B8N1",
    "result": []
  },
  {
    "postal": "N2B4J0",
    "result": []
  },
  {
    "postal": "N2B0X7",
    "result": []
  },
  {
    "postal": "N2B6S4",
    "result": []
  },
  {
    "postal": "N2B0Z0",
    "result": []
  },
  {
    "postal": "N2B9X8",
    "result": []
  },
  {
    "postal": "N2B3H3",
    "result": [
      {
        "electoralDistricts": [
          {
            "election": null,
            "id": 47,
            "name": "Kitchener Centre"
          }
        ],
        "pollDivisionIds": [
          10139210
        ],
        "postalCode": "N2B3H3",
        "streetName": "KENWOOD",
        "streetDirectionId": null,
        "streetTypeId": "DR",
        "placeName": "KITCHENER",
        "streetNameDisplayText": "KENWOOD DR, KITCHENER"
      }
    ]
  },
  {
    "postal": "N2B7S2",
    "result": []
  },
  {
    "postal": "N2B3T3",
    "result": [
      {
        "electoralDistricts": [
          {
            "election": null,
            "id": 47,
            "name": "Kitchener Centre"
          }
        ],
        "pollDivisionIds": [
          10139211
        ],
        "postalCode": "N2B3T3",
        "streetName": "ANN",
        "streetDirectionId": null,
        "streetTypeId": "ST",
        "placeName": "KITCHENER",
        "streetNameDisplayText": "ANN ST, KITCHENER"
      }
    ]
  },
  {
    "postal": "N2B9P3",
    "result": []
  },
  {
    "postal": "N2B4H8",
    "result": []
  },
  {
    "postal": "N2B6R1",
    "result": []
  },
  {
    "postal": "N2B1S0",
    "result": []
  },
  {
    "postal": "N2B3W8",
    "result": [
      {
        "electoralDistricts": [
          {
            "election": null,
            "id": 47,
            "name": "Kitchener Centre"
          }
        ],
        "pollDivisionIds": [
          10139218
        ],
        "postalCode": "N2B3W8",
        "streetName": "BRANDY",
        "streetDirectionId": null,
        "streetTypeId": "CRES",
        "placeName": "KITCHENER",
        "streetNameDisplayText": "BRANDY CRES, KITCHENER"
      }
    ]
  },
  {
    "postal": "N2B4S3",
    "result": []
  },
  {
    "postal": "N2B1B6",
    "result": [
      {
        "electoralDistricts": [
          {
            "election": null,
            "id": 47,
            "name": "Kitchener Centre"
          }
        ],
        "pollDivisionIds": [
          10139210
        ],
        "postalCode": "N2B1B6",
        "streetName": "LYNDHURST",
        "streetDirectionId": null,
        "streetTypeId": "DR",
        "placeName": "KITCHENER",
        "streetNameDisplayText": "LYNDHURST DR, KITCHENER"
      }
    ]
  },
  {
    "postal": "N2B8R3",
    "result": []
  },
  {
    "postal": "N2B4V9",
    "result": []
  },
  {
    "postal": "N2B9W4",
    "result": []
  },
  {
    "postal": "N2B3T4",
    "result": [
      {
        "electoralDistricts": [
          {
            "election": null,
            "id": 47,
            "name": "Kitchener Centre"
          }
        ],
        "pollDivisionIds": [
          10139213
        ],
        "postalCode": "N2B3T4",
        "streetName": "LORRAINE",
        "streetDirectionId": null,
        "streetTypeId": "AVE",
        "placeName": "KITCHENER",
        "streetNameDisplayText": "LORRAINE AVE, KITCHENER"
      }
    ]
  },
  {
    "postal": "N2B5C7",
    "result": []
  },
  {
    "postal": "N2B3Y1",
    "result": [
      {
        "electoralDistricts": [
          {
            "election": null,
            "id": 114,
            "name": "Waterloo"
          }
        ],
        "pollDivisionIds": [
          10126572
        ],
        "postalCode": "N2B3Y1",
        "streetName": "SHIRLEY",
        "streetDirectionId": null,
        "streetTypeId": "DR",
        "placeName": "KITCHENER",
        "streetNameDisplayText": "SHIRLEY DR, KITCHENER"
      }
    ]
  },
  {
    "postal": "N2B5V0",
    "result": []
  },
  {
    "postal": "N2B8G8",
    "result": []
  },
  {
    "postal": "N2B8B1",
    "result": []
  },
  {
    "postal": "N2B4P5",
    "result": []
  },
  {
    "postal": "N2B7B2",
    "result": []
  },
  {
    "postal": "N2B0R2",
    "result": []
  },
  {
    "postal": "N2B4M4",
    "result": []
  },
  {
    "postal": "N2B7M4",
    "result": []
  },
  {
    "postal": "N2B9S7",
    "result": []
  },
  {
    "postal": "N2B5Z7",
    "result": []
  },
  {
    "postal": "N2B7J7",
    "result": []
  },
  {
    "postal": "N2B8R8",
    "result": []
  },
  {
    "postal": "N2B9X1",
    "result": []
  },
  {
    "postal": "N2B5M9",
    "result": []
  },
  {
    "postal": "N2B9B4",
    "result": []
  },
  {
    "postal": "N2B0L9",
    "result": []
  },
  {
    "postal": "N2B9G4",
    "result": []
  },
  {
    "postal": "N2B1J4",
    "result": [
      {
        "electoralDistricts": [
          {
            "election": null,
            "id": 47,
            "name": "Kitchener Centre"
          }
        ],
        "pollDivisionIds": [
          10139210
        ],
        "postalCode": "N2B1J4",
        "streetName": "PERKELL",
        "streetDirectionId": null,
        "streetTypeId": "PL",
        "placeName": "KITCHENER",
        "streetNameDisplayText": "PERKELL PL, KITCHENER"
      }
    ]
  },
  {
    "postal": "N2B0W6",
    "result": []
  }
]
