[
  {
    "postal": "L5G9J6",
    "result": []
  },
  {
    "postal": "L5G9Z5",
    "result": []
  },
  {
    "postal": "L5G7H8",
    "result": []
  },
  {
    "postal": "L5G0P6",
    "result": []
  },
  {
    "postal": "L5G0S7",
    "result": []
  },
  {
    "postal": "L5G8B9",
    "result": []
  },
  {
    "postal": "L5G2A6",
    "result": [
      {
        "electoralDistricts": [
          {
            "election": null,
            "id": 63,
            "name": "Mississauga—Lakeshore"
          }
        ],
        "pollDivisionIds": [
          10139751
        ],
        "postalCode": "L5G2A6",
        "streetName": "ATWATER",
        "streetDirectionId": null,
        "streetTypeId": "AVE",
        "placeName": "MISSISSAUGA",
        "streetNameDisplayText": "ATWATER AVE, MISSISSAUGA"
      }
    ]
  },
  {
    "postal": "L5G7V2",
    "result": []
  },
  {
    "postal": "L5G9P4",
    "result": []
  },
  {
    "postal": "L5G6G0",
    "result": []
  },
  {
    "postal": "L5G2K0",
    "result": []
  },
  {
    "postal": "L5G7N6",
    "result": []
  },
  {
    "postal": "L5G5R3",
    "result": []
  },
  {
    "postal": "L5G7K0",
    "result": []
  },
  {
    "postal": "L5G3R2",
    "result": [
      {
        "electoralDistricts": [
          {
            "election": null,
            "id": 63,
            "name": "Mississauga—Lakeshore"
          }
        ],
        "pollDivisionIds": [
          10139752
        ],
        "postalCode": "L5G3R2",
        "streetName": "GOLDTHORPE",
        "streetDirectionId": null,
        "streetTypeId": "RD",
        "placeName": "MISSISSAUGA",
        "streetNameDisplayText": "GOLDTHORPE RD, MISSISSAUGA"
      }
    ]
  },
  {
    "postal": "L5G0J1",
    "result": []
  },
  {
    "postal": "L5G0B0",
    "result": []
  },
  {
    "postal": "L5G5Z2",
    "result": []
  },
  {
    "postal": "L5G7P3",
    "result": []
  },
  {
    "postal": "L5G2K3",
    "result": [
      {
        "electoralDistricts": [
          {
            "election": null,
            "id": 63,
            "name": "Mississauga—Lakeshore"
          }
        ],
        "pollDivisionIds": [
          10139752
        ],
        "postalCode": "L5G2K3",
        "streetName": "INDIAN VALLEY",
        "streetDirectionId": null,
        "streetTypeId": "TRAIL",
        "placeName": "MISSISSAUGA",
        "streetNameDisplayText": "INDIAN VALLEY TRAIL, MISSISSAUGA"
      }
    ]
  },
  {
    "postal": "L5G7Y6",
    "result": []
  },
  {
    "postal": "L5G1L9",
    "result": [
      {
        "electoralDistricts": [
          {
            "election": null,
            "id": 63,
            "name": "Mississauga—Lakeshore"
          }
        ],
        "pollDivisionIds": [
          10139755
        ],
        "postalCode": "L5G1L9",
        "streetName": "PARK",
        "streetDirectionId": "E",
        "streetTypeId": "ST",
        "placeName": "MISSISSAUGA",
        "streetNameDisplayText": "PARK ST E, MISSISSAUGA"
      }
    ]
  },
  {
    "postal": "L5G8T0",
    "result": []
  },
  {
    "postal": "L5G3K8",
    "result": [
      {
        "electoralDistricts": [
          {
            "election": null,
            "id": 63,
            "name": "Mississauga—Lakeshore"
          }
        ],
        "pollDivisionIds": [
          10139751
        ],
        "postalCode": "L5G3K8",
        "streetName": "DRUMGRAY",
        "streetDirectionId": null,
        "streetTypeId": "AVE",
        "placeName": "MISSISSAUGA",
        "streetNameDisplayText": "DRUMGRAY AVE, MISSISSAUGA"
      }
    ]
  },
  {
    "postal": "L5G5W9",
    "result": []
  },
  {
    "postal": "L5G6T9",
    "result": []
  },
  {
    "postal": "L5G4H1",
    "result": [
      {
        "electoralDistricts": [
          {
            "election": null,
            "id": 63,
            "name": "Mississauga—Lakeshore"
          }
        ],
        "pollDivisionIds": [
          10139752
        ],
        "postalCode": "L5G4H1",
        "streetName": "RADCLIFFE",
        "streetDirectionId": null,
        "streetTypeId": "BLVD",
        "placeName": "MISSISSAUGA",
        "streetNameDisplayText": "RADCLIFFE BLVD, MISSISSAUGA"
      }
    ]
  },
  {
    "postal": "L5G7A2",
    "result": []
  },
  {
    "postal": "L5G5G0",
    "result": []
  },
  {
    "postal": "L5G8V5",
    "result": []
  },
  {
    "postal": "L5G2Y8",
    "result": [
      {
        "electoralDistricts": [
          {
            "election": null,
            "id": 63,
            "name": "Mississauga—Lakeshore"
          }
        ],
        "pollDivisionIds": [
          10139755
        ],
        "postalCode": "L5G2Y8",
        "streetName": "ELIZABETH",
        "streetDirectionId": "N",
        "streetTypeId": "ST",
        "placeName": "MISSISSAUGA",
        "streetNameDisplayText": "ELIZABETH ST N, MISSISSAUGA"
      }
    ]
  },
  {
    "postal": "L5G2B6",
    "result": [
      {
        "electoralDistricts": [
          {
            "election": null,
            "id": 63,
            "name": "Mississauga—Lakeshore"
          }
        ],
        "pollDivisionIds": [
          10139751
        ],
        "postalCode": "L5G2B6",
        "streetName": "AQUA",
        "streetDirectionId": null,
        "streetTypeId": "DR",
        "placeName": "MISSISSAUGA",
        "streetNameDisplayText": "AQUA DR, MISSISSAUGA"
      }
    ]
  },
  {
    "postal": "L5G4W8",
    "result": []
  },
  {
    "postal": "L5G8H7",
    "result": []
  },
  {
    "postal": "L5G5P1",
    "result": []
  },
  {
    "postal": "L5G2B8",
    "result": [
      {
        "electoralDistricts": [
          {
            "election": null,
            "id": 63,
            "name": "Mississauga—Lakeshore"
          }
        ],
        "pollDivisionIds": [
          10139751
        ],
        "postalCode": "L5G2B8",
        "streetName": "ORANO",
        "streetDirectionId": null,
        "streetTypeId": "AVE",
        "placeName": "MISSISSAUGA",
        "streetNameDisplayText": "ORANO AVE, MISSISSAUGA"
      }
    ]
  },
  {
    "postal": "L5G0P2",
    "result": []
  },
  {
    "postal": "L5G9M1",
    "result": []
  },
  {
    "postal": "L5G3G0",
    "result": []
  },
  {
    "postal": "L5G9Z2",
    "result": []
  },
  {
    "postal": "L5G2A0",
    "result": []
  },
  {
    "postal": "L5G6Y0",
    "result": []
  },
  {
    "postal": "L5G2Z8",
    "result": [
      {
        "electoralDistricts": [
          {
            "election": null,
            "id": 63,
            "name": "Mississauga—Lakeshore"
          }
        ],
        "pollDivisionIds": [
          10139755
        ],
        "postalCode": "L5G2Z8",
        "streetName": "MONA",
        "streetDirectionId": null,
        "streetTypeId": "RD",
        "placeName": "MISSISSAUGA",
        "streetNameDisplayText": "MONA RD, MISSISSAUGA"
      }
    ]
  },
  {
    "postal": "L5G7Y3",
    "result": []
  },
  {
    "postal": "L5G6Z5",
    "result": []
  },
  {
    "postal": "L5G6E0",
    "result": []
  },
  {
    "postal": "L5G9B7",
    "result": []
  },
  {
    "postal": "L5G9S5",
    "result": []
  },
  {
    "postal": "L5G3X3",
    "result": [
      {
        "electoralDistricts": [
          {
            "election": null,
            "id": 63,
            "name": "Mississauga—Lakeshore"
          }
        ],
        "pollDivisionIds": [
          10139752
        ],
        "postalCode": "L5G3X3",
        "streetName": "CREDITON",
        "streetDirectionId": null,
        "streetTypeId": "PKY",
        "placeName": "MISSISSAUGA",
        "streetNameDisplayText": "CREDITON PKY, MISSISSAUGA"
      }
    ]
  },
  {
    "postal": "L5G7R5",
    "result": []
  },
  {
    "postal": "L5G2X3",
    "result": [
      {
        "electoralDistricts": [
          {
            "election": null,
            "id": 63,
            "name": "Mississauga—Lakeshore"
          }
        ],
        "pollDivisionIds": [
          10139752
        ],
        "postalCode": "L5G2X3",
        "streetName": "GLENWOOD",
        "streetDirectionId": null,
        "streetTypeId": "DR",
        "placeName": "MISSISSAUGA",
        "streetNameDisplayText": "GLENWOOD DR, MISSISSAUGA"
      }
    ]
  },
  {
    "postal": "L5G8Z9",
    "result": []
  },
  {
    "postal": "L5G0N4",
    "result": []
  },
  {
    "postal": "L5G1K1",
    "result": [
      {
        "electoralDistricts": [
          {
            "election": null,
            "id": 63,
            "name": "Mississauga—Lakeshore"
          }
        ],
        "pollDivisionIds": [
          10139755
        ],
        "postalCode": "L5G1K1",
        "streetName": "HIGH",
        "streetDirectionId": "E",
        "streetTypeId": "ST",
        "placeName": "MISSISSAUGA",
        "streetNameDisplayText": "HIGH ST E, MISSISSAUGA"
      }
    ]
  },
  {
    "postal": "L5G1S3",
    "result": [
      {
        "electoralDistricts": [
          {
            "election": null,
            "id": 63,
            "name": "Mississauga—Lakeshore"
          }
        ],
        "pollDivisionIds": [
          10139753
        ],
        "postalCode": "L5G1S3",
        "streetName": "REVUS",
        "streetDirectionId": null,
        "streetTypeId": "AVE",
        "placeName": "MISSISSAUGA",
        "streetNameDisplayText": "REVUS AVE, MISSISSAUGA"
      }
    ]
  },
  {
    "postal": "L5G6M4",
    "result": []
  },
  {
    "postal": "L5G9A9",
    "result": []
  },
  {
    "postal": "L5G9Z9",
    "result": []
  },
  {
    "postal": "L5G6T4",
    "result": []
  },
  {
    "postal": "L5G0B2",
    "result": []
  },
  {
    "postal": "L5G2L9",
    "result": [
      {
        "electoralDistricts": [
          {
            "election": null,
            "id": 63,
            "name": "Mississauga—Lakeshore"
          }
        ],
        "pollDivisionIds": [
          10139751
        ],
        "postalCode": "L5G2L9",
        "streetName": "LYND",
        "streetDirectionId": null,
        "streetTypeId": "AVE",
        "placeName": "MISSISSAUGA",
        "streetNameDisplayText": "LYND AVE, MISSISSAUGA"
      }
    ]
  },
  {
    "postal": "L5G8K9",
    "result": []
  },
  {
    "postal": "L5G2H9",
    "result": [
      {
        "electoralDistricts": [
          {
            "election": null,
            "id": 63,
            "name": "Mississauga—Lakeshore"
          }
        ],
        "pollDivisionIds": [
          10139752
        ],
        "postalCode": "L5G2H9",
        "streetName": "KENOLLIE",
        "streetDirectionId": null,
        "streetTypeId": "AVE",
        "placeName": "MISSISSAUGA",
        "streetNameDisplayText": "KENOLLIE AVE, MISSISSAUGA"
      }
    ]
  },
  {
    "postal": "L5G3Z6",
    "result": [
      {
        "electoralDistricts": [
          {
            "election": null,
            "id": 63,
            "name": "Mississauga—Lakeshore"
          }
        ],
        "pollDivisionIds": [
          10139752
        ],
        "postalCode": "L5G3Z6",
        "streetName": "TROTWOOD",
        "streetDirectionId": null,
        "streetTypeId": "AVE",
        "placeName": "MISSISSAUGA",
        "streetNameDisplayText": "TROTWOOD AVE, MISSISSAUGA"
      }
    ]
  },
  {
    "postal": "L5G3B0",
    "result": []
  },
  {
    "postal": "L5G2H8",
    "result": [
      {
        "electoralDistricts": [
          {
            "election": null,
            "id": 63,
            "name": "Mississauga—Lakeshore"
          }
        ],
        "pollDivisionIds": [
          10139752
        ],
        "postalCode": "L5G2H8",
        "streetName": "KENOLLIE",
        "streetDirectionId": null,
        "streetTypeId": "AVE",
        "placeName": "MISSISSAUGA",
        "streetNameDisplayText": "KENOLLIE AVE, MISSISSAUGA"
      }
    ]
  },
  {
    "postal": "L5G3X2",
    "result": [
      {
        "electoralDistricts": [
          {
            "election": null,
            "id": 63,
            "name": "Mississauga—Lakeshore"
          }
        ],
        "pollDivisionIds": [
          10139752
        ],
        "postalCode": "L5G3X2",
        "streetName": "CREDITON",
        "streetDirectionId": null,
        "streetTypeId": "PKY",
        "placeName": "MISSISSAUGA",
        "streetNameDisplayText": "CREDITON PKY, MISSISSAUGA"
      }
    ]
  },
  {
    "postal": "L5G2E9",
    "result": [
      {
        "electoralDistricts": [
          {
            "election": null,
            "id": 63,
            "name": "Mississauga—Lakeshore"
          }
        ],
        "pollDivisionIds": [
          10139752
        ],
        "postalCode": "L5G2E9",
        "streetName": "MINEOLA",
        "streetDirectionId": "E",
        "streetTypeId": "RD",
        "placeName": "MISSISSAUGA",
        "streetNameDisplayText": "MINEOLA RD E, MISSISSAUGA"
      }
    ]
  },
  {
    "postal": "L5G9P6",
    "result": []
  },
  {
    "postal": "L5G9E2",
    "result": []
  },
  {
    "postal": "L5G9H2",
    "result": []
  },
  {
    "postal": "L5G1S8",
    "result": [
      {
        "electoralDistricts": [
          {
            "election": null,
            "id": 63,
            "name": "Mississauga—Lakeshore"
          }
        ],
        "pollDivisionIds": [
          10139751
        ],
        "postalCode": "L5G1S8",
        "streetName": "TROY",
        "streetDirectionId": null,
        "streetTypeId": "ST",
        "placeName": "MISSISSAUGA",
        "streetNameDisplayText": "TROY ST, MISSISSAUGA"
      }
    ]
  },
  {
    "postal": "L5G3M6",
    "result": [
      {
        "electoralDistricts": [
          {
            "election": null,
            "id": 63,
            "name": "Mississauga—Lakeshore"
          }
        ],
        "pollDivisionIds": [
          10139753
        ],
        "postalCode": "L5G3M6",
        "streetName": "CUMBERLAND",
        "streetDirectionId": null,
        "streetTypeId": "DR",
        "placeName": "MISSISSAUGA",
        "streetNameDisplayText": "CUMBERLAND DR, MISSISSAUGA"
      }
    ]
  },
  {
    "postal": "L5G6Z8",
    "result": []
  },
  {
    "postal": "L5G4J2",
    "result": [
      {
        "electoralDistricts": [
          {
            "election": null,
            "id": 63,
            "name": "Mississauga—Lakeshore"
          }
        ],
        "pollDivisionIds": [
          10139753
        ],
        "postalCode": "L5G4J2",
        "streetName": "AVIATION",
        "streetDirectionId": null,
        "streetTypeId": "RD",
        "placeName": "MISSISSAUGA",
        "streetNameDisplayText": "AVIATION RD, MISSISSAUGA"
      }
    ]
  },
  {
    "postal": "L5G9Y1",
    "result": []
  },
  {
    "postal": "L5G8V6",
    "result": []
  },
  {
    "postal": "L5G6B2",
    "result": []
  },
  {
    "postal": "L5G1P8",
    "result": [
      {
        "electoralDistricts": [
          {
            "election": null,
            "id": 63,
            "name": "Mississauga—Lakeshore"
          }
        ],
        "pollDivisionIds": [
          10139753
        ],
        "postalCode": "L5G1P8",
        "streetName": "CURZON",
        "streetDirectionId": null,
        "streetTypeId": "AVE",
        "placeName": "MISSISSAUGA",
        "streetNameDisplayText": "CURZON AVE, MISSISSAUGA"
      }
    ]
  },
  {
    "postal": "L5G0V8",
    "result": []
  },
  {
    "postal": "L5G4Y0",
    "result": []
  },
  {
    "postal": "L5G2T4",
    "result": [
      {
        "electoralDistricts": [
          {
            "election": null,
            "id": 63,
            "name": "Mississauga—Lakeshore"
          }
        ],
        "pollDivisionIds": [
          10139753,
          10139755
        ],
        "postalCode": "L5G2T4",
        "streetName": "STAVEBANK",
        "streetDirectionId": null,
        "streetTypeId": "RD",
        "placeName": "MISSISSAUGA",
        "streetNameDisplayText": "STAVEBANK RD, MISSISSAUGA"
      }
    ]
  },
  {
    "postal": "L5G2S3",
    "result": [
      {
        "electoralDistricts": [
          {
            "election": null,
            "id": 63,
            "name": "Mississauga—Lakeshore"
          }
        ],
        "pollDivisionIds": [
          10139752
        ],
        "postalCode": "L5G2S3",
        "streetName": "SOUTH SERVICE",
        "streetDirectionId": null,
        "streetTypeId": "RD",
        "placeName": "MISSISSAUGA",
        "streetNameDisplayText": "SOUTH SERVICE RD, MISSISSAUGA"
      }
    ]
  },
  {
    "postal": "L5G0K0",
    "result": []
  },
  {
    "postal": "L5G5N1",
    "result": []
  },
  {
    "postal": "L5G7T0",
    "result": []
  },
  {
    "postal": "L5G9N2",
    "result": []
  },
  {
    "postal": "L5G5L1",
    "result": []
  },
  {
    "postal": "L5G7G5",
    "result": []
  },
  {
    "postal": "L5G6K2",
    "result": []
  },
  {
    "postal": "L5G6P9",
    "result": []
  },
  {
    "postal": "L5G0E6",
    "result": []
  },
  {
    "postal": "L5G8R9",
    "result": []
  },
  {
    "postal": "L5G3G9",
    "result": []
  },
  {
    "postal": "L5G0V7",
    "result": []
  },
  {
    "postal": "L5G2Z1",
    "result": [
      {
        "electoralDistricts": [
          {
            "election": null,
            "id": 63,
            "name": "Mississauga—Lakeshore"
          }
        ],
        "pollDivisionIds": [
          10139755
        ],
        "postalCode": "L5G2Z1",
        "streetName": "ELIZABETH",
        "streetDirectionId": "N",
        "streetTypeId": "ST",
        "placeName": "MISSISSAUGA",
        "streetNameDisplayText": "ELIZABETH ST N, MISSISSAUGA"
      }
    ]
  },
  {
    "postal": "L5G7N1",
    "result": []
  },
  {
    "postal": "L5G3C6",
    "result": [
      {
        "electoralDistricts": [
          {
            "election": null,
            "id": 63,
            "name": "Mississauga—Lakeshore"
          }
        ],
        "pollDivisionIds": [
          10139752
        ],
        "postalCode": "L5G3C6",
        "streetName": "MILTON",
        "streetDirectionId": null,
        "streetTypeId": "AVE",
        "placeName": "MISSISSAUGA",
        "streetNameDisplayText": "MILTON AVE, MISSISSAUGA"
      }
    ]
  },
  {
    "postal": "L5G4M1",
    "result": []
  },
  {
    "postal": "L5G9K2",
    "result": []
  },
  {
    "postal": "L5G9S6",
    "result": []
  },
  {
    "postal": "L5G4X1",
    "result": []
  },
  {
    "postal": "L5G8W2",
    "result": []
  },
  {
    "postal": "L5G7N2",
    "result": []
  },
  {
    "postal": "L5G8S3",
    "result": []
  },
  {
    "postal": "L5G4V0",
    "result": []
  },
  {
    "postal": "L5G6W4",
    "result": []
  },
  {
    "postal": "L5G5M1",
    "result": []
  },
  {
    "postal": "L5G0S4",
    "result": []
  },
  {
    "postal": "L5G5X6",
    "result": []
  },
  {
    "postal": "L5G8L5",
    "result": []
  },
  {
    "postal": "L5G5M8",
    "result": []
  },
  {
    "postal": "L5G2G3",
    "result": [
      {
        "electoralDistricts": [
          {
            "election": null,
            "id": 63,
            "name": "Mississauga—Lakeshore"
          }
        ],
        "pollDivisionIds": [
          10139751
        ],
        "postalCode": "L5G2G3",
        "streetName": "MINEOLA",
        "streetDirectionId": "E",
        "streetTypeId": "RD",
        "placeName": "MISSISSAUGA",
        "streetNameDisplayText": "MINEOLA RD E, MISSISSAUGA"
      }
    ]
  },
  {
    "postal": "L5G8E4",
    "result": []
  },
  {
    "postal": "L5G7S9",
    "result": []
  },
  {
    "postal": "L5G1K3",
    "result": [
      {
        "electoralDistricts": [
          {
            "election": null,
            "id": 63,
            "name": "Mississauga—Lakeshore"
          }
        ],
        "pollDivisionIds": [
          10139755
        ],
        "postalCode": "L5G1K3",
        "streetName": "HIGH",
        "streetDirectionId": "E",
        "streetTypeId": "ST",
        "placeName": "MISSISSAUGA",
        "streetNameDisplayText": "HIGH ST E, MISSISSAUGA"
      }
    ]
  },
  {
    "postal": "L5G4E1",
    "result": [
      {
        "electoralDistricts": [
          {
            "election": null,
            "id": 63,
            "name": "Mississauga—Lakeshore"
          }
        ],
        "pollDivisionIds": [
          10139752
        ],
        "postalCode": "L5G4E1",
        "streetName": "KIPPER",
        "streetDirectionId": null,
        "streetTypeId": "AVE",
        "placeName": "MISSISSAUGA",
        "streetNameDisplayText": "KIPPER AVE, MISSISSAUGA"
      }
    ]
  },
  {
    "postal": "L5G4R2",
    "result": [
      {
        "electoralDistricts": [
          {
            "election": null,
            "id": 63,
            "name": "Mississauga—Lakeshore"
          }
        ],
        "pollDivisionIds": [
          10139752
        ],
        "postalCode": "L5G4R2",
        "streetName": "POLESDEN",
        "streetDirectionId": null,
        "streetTypeId": "DR",
        "placeName": "MISSISSAUGA",
        "streetNameDisplayText": "POLESDEN DR, MISSISSAUGA"
      }
    ]
  },
  {
    "postal": "L5G6T0",
    "result": []
  },
  {
    "postal": "L5G3K5",
    "result": [
      {
        "electoralDistricts": [
          {
            "election": null,
            "id": 63,
            "name": "Mississauga—Lakeshore"
          }
        ],
        "pollDivisionIds": [
          10139753
        ],
        "postalCode": "L5G3K5",
        "streetName": "WOODLAWN",
        "streetDirectionId": null,
        "streetTypeId": "AVE",
        "placeName": "MISSISSAUGA",
        "streetNameDisplayText": "WOODLAWN AVE, MISSISSAUGA"
      }
    ]
  },
  {
    "postal": "L5G3S3",
    "result": [
      {
        "electoralDistricts": [
          {
            "election": null,
            "id": 63,
            "name": "Mississauga—Lakeshore"
          }
        ],
        "pollDivisionIds": [
          10139753
        ],
        "postalCode": "L5G3S3",
        "streetName": "HIAWATHA",
        "streetDirectionId": null,
        "streetTypeId": "PKY",
        "placeName": "MISSISSAUGA",
        "streetNameDisplayText": "HIAWATHA PKY, MISSISSAUGA"
      }
    ]
  },
  {
    "postal": "L5G3L4",
    "result": [
      {
        "electoralDistricts": [
          {
            "election": null,
            "id": 63,
            "name": "Mississauga—Lakeshore"
          }
        ],
        "pollDivisionIds": [
          10139753
        ],
        "postalCode": "L5G3L4",
        "streetName": "OAKWOOD",
        "streetDirectionId": "N",
        "streetTypeId": "AVE",
        "placeName": "MISSISSAUGA",
        "streetNameDisplayText": "OAKWOOD AVE N, MISSISSAUGA"
      },
      {
        "electoralDistricts": [
          {
            "election": null,
            "id": 63,
            "name": "Mississauga—Lakeshore"
          }
        ],
        "pollDivisionIds": [
          10139753
        ],
        "postalCode": "L5G3L4",
        "streetName": "OAKWOOD",
        "streetDirectionId": "S",
        "streetTypeId": "AVE",
        "placeName": "MISSISSAUGA",
        "streetNameDisplayText": "OAKWOOD AVE S, MISSISSAUGA"
      }
    ]
  },
  {
    "postal": "L5G9Y2",
    "result": []
  },
  {
    "postal": "L5G1E0",
    "result": []
  },
  {
    "postal": "L5G9A4",
    "result": []
  },
  {
    "postal": "L5G1L3",
    "result": [
      {
        "electoralDistricts": [
          {
            "election": null,
            "id": 63,
            "name": "Mississauga—Lakeshore"
          }
        ],
        "pollDivisionIds": [
          10139753
        ],
        "postalCode": "L5G1L3",
        "streetName": "FOREST",
        "streetDirectionId": null,
        "streetTypeId": "AVE",
        "placeName": "MISSISSAUGA",
        "streetNameDisplayText": "FOREST AVE, MISSISSAUGA"
      }
    ]
  },
  {
    "postal": "L5G6N1",
    "result": []
  },
  {
    "postal": "L5G6G7",
    "result": []
  },
  {
    "postal": "L5G7W1",
    "result": []
  },
  {
    "postal": "L5G4M6",
    "result": []
  },
  {
    "postal": "L5G1K0",
    "result": []
  },
  {
    "postal": "L5G3E2",
    "result": [
      {
        "electoralDistricts": [
          {
            "election": null,
            "id": 63,
            "name": "Mississauga—Lakeshore"
          }
        ],
        "pollDivisionIds": [
          10139752
        ],
        "postalCode": "L5G3E2",
        "streetName": "GLENBURNIE",
        "streetDirectionId": null,
        "streetTypeId": "RD",
        "placeName": "MISSISSAUGA",
        "streetNameDisplayText": "GLENBURNIE RD, MISSISSAUGA"
      }
    ]
  },
  {
    "postal": "L5G5H4",
    "result": []
  },
  {
    "postal": "L5G1K7",
    "result": [
      {
        "electoralDistricts": [
          {
            "election": null,
            "id": 63,
            "name": "Mississauga—Lakeshore"
          }
        ],
        "pollDivisionIds": [
          10139753
        ],
        "postalCode": "L5G1K7",
        "streetName": "FOREST",
        "streetDirectionId": null,
        "streetTypeId": "AVE",
        "placeName": "MISSISSAUGA",
        "streetNameDisplayText": "FOREST AVE, MISSISSAUGA"
      }
    ]
  },
  {
    "postal": "L5G0H0",
    "result": []
  },
  {
    "postal": "L5G0J3",
    "result": []
  },
  {
    "postal": "L5G1X6",
    "result": [
      {
        "electoralDistricts": [
          {
            "election": null,
            "id": 63,
            "name": "Mississauga—Lakeshore"
          }
        ],
        "pollDivisionIds": [
          10139755
        ],
        "postalCode": "L5G1X6",
        "streetName": "INGLEWOOD",
        "streetDirectionId": null,
        "streetTypeId": "DR",
        "placeName": "MISSISSAUGA",
        "streetNameDisplayText": "INGLEWOOD DR, MISSISSAUGA"
      }
    ]
  },
  {
    "postal": "L5G2Z6",
    "result": [
      {
        "electoralDistricts": [
          {
            "election": null,
            "id": 63,
            "name": "Mississauga—Lakeshore"
          }
        ],
        "pollDivisionIds": [
          10139755
        ],
        "postalCode": "L5G2Z6",
        "streetName": "ELIZABETH",
        "streetDirectionId": "N",
        "streetTypeId": "ST",
        "placeName": "MISSISSAUGA",
        "streetNameDisplayText": "ELIZABETH ST N, MISSISSAUGA"
      }
    ]
  },
  {
    "postal": "L5G4R9",
    "result": [
      {
        "electoralDistricts": [
          {
            "election": null,
            "id": 63,
            "name": "Mississauga—Lakeshore"
          }
        ],
        "pollDivisionIds": [
          10139751
        ],
        "postalCode": "L5G4R9",
        "streetName": "DEXTER",
        "streetDirectionId": null,
        "streetTypeId": "CRES",
        "placeName": "MISSISSAUGA",
        "streetNameDisplayText": "DEXTER CRES, MISSISSAUGA"
      }
    ]
  },
  {
    "postal": "L5G0W8",
    "result": []
  },
  {
    "postal": "L5G1L4",
    "result": []
  },
  {
    "postal": "L5G0C8",
    "result": []
  },
  {
    "postal": "L5G9X7",
    "result": []
  },
  {
    "postal": "L5G4T1",
    "result": []
  },
  {
    "postal": "L5G0M0",
    "result": []
  },
  {
    "postal": "L5G6A2",
    "result": []
  },
  {
    "postal": "L5G9S8",
    "result": []
  },
  {
    "postal": "L5G9T4",
    "result": []
  },
  {
    "postal": "L5G9Y4",
    "result": []
  },
  {
    "postal": "L5G6G5",
    "result": []
  },
  {
    "postal": "L5G6H9",
    "result": []
  },
  {
    "postal": "L5G2P3",
    "result": [
      {
        "electoralDistricts": [
          {
            "election": null,
            "id": 63,
            "name": "Mississauga—Lakeshore"
          }
        ],
        "pollDivisionIds": [
          10139752
        ],
        "postalCode": "L5G2P3",
        "streetName": "DRYMEN",
        "streetDirectionId": null,
        "streetTypeId": "CRES",
        "placeName": "MISSISSAUGA",
        "streetNameDisplayText": "DRYMEN CRES, MISSISSAUGA"
      }
    ]
  },
  {
    "postal": "L5G1T6",
    "result": [
      {
        "electoralDistricts": [
          {
            "election": null,
            "id": 63,
            "name": "Mississauga—Lakeshore"
          }
        ],
        "pollDivisionIds": [
          10139751
        ],
        "postalCode": "L5G1T6",
        "streetName": "CLAREDALE",
        "streetDirectionId": null,
        "streetTypeId": "RD",
        "placeName": "MISSISSAUGA",
        "streetNameDisplayText": "CLAREDALE RD, MISSISSAUGA"
      }
    ]
  },
  {
    "postal": "L5G4P6",
    "result": [
      {
        "electoralDistricts": [
          {
            "election": null,
            "id": 63,
            "name": "Mississauga—Lakeshore"
          }
        ],
        "pollDivisionIds": [
          10139753
        ],
        "postalCode": "L5G4P6",
        "streetName": "THE THICKET",
        "streetDirectionId": null,
        "streetTypeId": null,
        "placeName": "MISSISSAUGA",
        "streetNameDisplayText": "THE THICKET, MISSISSAUGA"
      }
    ]
  },
  {
    "postal": "L5G3K1",
    "result": [
      {
        "electoralDistricts": [
          {
            "election": null,
            "id": 63,
            "name": "Mississauga—Lakeshore"
          }
        ],
        "pollDivisionIds": [
          10139753
        ],
        "postalCode": "L5G3K1",
        "streetName": "ELMWOOD",
        "streetDirectionId": "N",
        "streetTypeId": "AVE",
        "placeName": "MISSISSAUGA",
        "streetNameDisplayText": "ELMWOOD AVE N, MISSISSAUGA"
      }
    ]
  },
  {
    "postal": "L5G6X4",
    "result": []
  },
  {
    "postal": "L5G4M8",
    "result": []
  },
  {
    "postal": "L5G2Y1",
    "result": [
      {
        "electoralDistricts": [
          {
            "election": null,
            "id": 63,
            "name": "Mississauga—Lakeshore"
          }
        ],
        "pollDivisionIds": [
          10139755
        ],
        "postalCode": "L5G2Y1",
        "streetName": "WOODLAND",
        "streetDirectionId": null,
        "streetTypeId": "AVE",
        "placeName": "MISSISSAUGA",
        "streetNameDisplayText": "WOODLAND AVE, MISSISSAUGA"
      }
    ]
  },
  {
    "postal": "L5G6M1",
    "result": []
  },
  {
    "postal": "L5G5L8",
    "result": []
  },
  {
    "postal": "L5G3P6",
    "result": [
      {
        "electoralDistricts": [
          {
            "election": null,
            "id": 63,
            "name": "Mississauga—Lakeshore"
          }
        ],
        "pollDivisionIds": [
          10139752
        ],
        "postalCode": "L5G3P6",
        "streetName": "CRESTVIEW",
        "streetDirectionId": null,
        "streetTypeId": "AVE",
        "placeName": "MISSISSAUGA",
        "streetNameDisplayText": "CRESTVIEW AVE, MISSISSAUGA"
      }
    ]
  },
  {
    "postal": "L5G9A5",
    "result": []
  },
  {
    "postal": "L5G7K1",
    "result": []
  },
  {
    "postal": "L5G3J4",
    "result": [
      {
        "electoralDistricts": [
          {
            "election": null,
            "id": 63,
            "name": "Mississauga—Lakeshore"
          }
        ],
        "pollDivisionIds": [
          10139752
        ],
        "postalCode": "L5G3J4",
        "streetName": "HOLLYROOD",
        "streetDirectionId": null,
        "streetTypeId": "AVE",
        "placeName": "MISSISSAUGA",
        "streetNameDisplayText": "HOLLYROOD AVE, MISSISSAUGA"
      }
    ]
  },
  {
    "postal": "L5G5E7",
    "result": []
  },
  {
    "postal": "L5G3A7",
    "result": [
      {
        "electoralDistricts": [
          {
            "election": null,
            "id": 63,
            "name": "Mississauga—Lakeshore"
          }
        ],
        "pollDivisionIds": [
          10139752
        ],
        "postalCode": "L5G3A7",
        "streetName": "MAGENTA",
        "streetDirectionId": null,
        "streetTypeId": "CRT",
        "placeName": "MISSISSAUGA",
        "streetNameDisplayText": "MAGENTA CRT, MISSISSAUGA"
      }
    ]
  },
  {
    "postal": "L5G1B9",
    "result": [
      {
        "electoralDistricts": [
          {
            "election": null,
            "id": 63,
            "name": "Mississauga—Lakeshore"
          }
        ],
        "pollDivisionIds": [
          10139755
        ],
        "postalCode": "L5G1B9",
        "streetName": "PORT",
        "streetDirectionId": "E",
        "streetTypeId": "ST",
        "placeName": "MISSISSAUGA",
        "streetNameDisplayText": "PORT ST E, MISSISSAUGA"
      }
    ]
  },
  {
    "postal": "L5G9E8",
    "result": []
  },
  {
    "postal": "L5G1C9",
    "result": [
      {
        "electoralDistricts": [
          {
            "election": null,
            "id": 63,
            "name": "Mississauga—Lakeshore"
          }
        ],
        "pollDivisionIds": [
          10139755
        ],
        "postalCode": "L5G1C9",
        "streetName": "LAKESHORE",
        "streetDirectionId": "E",
        "streetTypeId": "RD",
        "placeName": "MISSISSAUGA",
        "streetNameDisplayText": "LAKESHORE RD E, MISSISSAUGA"
      }
    ]
  },
  {
    "postal": "L5G3B5",
    "result": [
      {
        "electoralDistricts": [
          {
            "election": null,
            "id": 63,
            "name": "Mississauga—Lakeshore"
          }
        ],
        "pollDivisionIds": [
          10139755
        ],
        "postalCode": "L5G3B5",
        "streetName": "HELENE",
        "streetDirectionId": "N",
        "streetTypeId": "ST",
        "placeName": "MISSISSAUGA",
        "streetNameDisplayText": "HELENE ST N, MISSISSAUGA"
      }
    ]
  },
  {
    "postal": "L5G8R0",
    "result": []
  },
  {
    "postal": "L5G3P2",
    "result": [
      {
        "electoralDistricts": [
          {
            "election": null,
            "id": 63,
            "name": "Mississauga—Lakeshore"
          }
        ],
        "pollDivisionIds": [
          10139751
        ],
        "postalCode": "L5G3P2",
        "streetName": "CROSSFIELD",
        "streetDirectionId": null,
        "streetTypeId": "BEND",
        "placeName": "MISSISSAUGA",
        "streetNameDisplayText": "CROSSFIELD BEND, MISSISSAUGA"
      }
    ]
  },
  {
    "postal": "L5G5V4",
    "result": []
  },
  {
    "postal": "L5G4H0",
    "result": []
  },
  {
    "postal": "L5G4S7",
    "result": []
  },
  {
    "postal": "L5G6C2",
    "result": []
  },
  {
    "postal": "L5G8W3",
    "result": []
  },
  {
    "postal": "L5G4M5",
    "result": []
  },
  {
    "postal": "L5G5T1",
    "result": []
  },
  {
    "postal": "L5G3B3",
    "result": [
      {
        "electoralDistricts": [
          {
            "election": null,
            "id": 63,
            "name": "Mississauga—Lakeshore"
          }
        ],
        "pollDivisionIds": [
          10139755
        ],
        "postalCode": "L5G3B3",
        "streetName": "HELENE",
        "streetDirectionId": "N",
        "streetTypeId": "ST",
        "placeName": "MISSISSAUGA",
        "streetNameDisplayText": "HELENE ST N, MISSISSAUGA"
      }
    ]
  },
  {
    "postal": "L5G6C6",
    "result": []
  },
  {
    "postal": "L5G7N8",
    "result": []
  },
  {
    "postal": "L5G2Y3",
    "result": [
      {
        "electoralDistricts": [
          {
            "election": null,
            "id": 63,
            "name": "Mississauga—Lakeshore"
          }
        ],
        "pollDivisionIds": [
          10139752
        ],
        "postalCode": "L5G2Y3",
        "streetName": "BIRCHWOOD HEIGHTS",
        "streetDirectionId": null,
        "streetTypeId": "DR",
        "placeName": "MISSISSAUGA",
        "streetNameDisplayText": "BIRCHWOOD HEIGHTS DR, MISSISSAUGA"
      }
    ]
  },
  {
    "postal": "L5G2R6",
    "result": [
      {
        "electoralDistricts": [
          {
            "election": null,
            "id": 63,
            "name": "Mississauga—Lakeshore"
          }
        ],
        "pollDivisionIds": [
          10139752
        ],
        "postalCode": "L5G2R6",
        "streetName": "RADLEY",
        "streetDirectionId": null,
        "streetTypeId": "RD",
        "placeName": "MISSISSAUGA",
        "streetNameDisplayText": "RADLEY RD, MISSISSAUGA"
      }
    ]
  },
  {
    "postal": "L5G7N3",
    "result": []
  },
  {
    "postal": "L5G8J2",
    "result": []
  },
  {
    "postal": "L5G6A9",
    "result": []
  },
  {
    "postal": "L5G3V2",
    "result": [
      {
        "electoralDistricts": [
          {
            "election": null,
            "id": 63,
            "name": "Mississauga—Lakeshore"
          }
        ],
        "pollDivisionIds": [
          10139752
        ],
        "postalCode": "L5G3V2",
        "streetName": "BROADMOOR",
        "streetDirectionId": null,
        "streetTypeId": "AVE",
        "placeName": "MISSISSAUGA",
        "streetNameDisplayText": "BROADMOOR AVE, MISSISSAUGA"
      }
    ]
  },
  {
    "postal": "L5G2N3",
    "result": [
      {
        "electoralDistricts": [
          {
            "election": null,
            "id": 63,
            "name": "Mississauga—Lakeshore"
          }
        ],
        "pollDivisionIds": [
          10139752
        ],
        "postalCode": "L5G2N3",
        "streetName": "BRIARHILL",
        "streetDirectionId": null,
        "streetTypeId": "DR",
        "placeName": "MISSISSAUGA",
        "streetNameDisplayText": "BRIARHILL DR, MISSISSAUGA"
      }
    ]
  },
  {
    "postal": "L5G1S5",
    "result": [
      {
        "electoralDistricts": [
          {
            "election": null,
            "id": 63,
            "name": "Mississauga—Lakeshore"
          }
        ],
        "pollDivisionIds": [
          10139755
        ],
        "postalCode": "L5G1S5",
        "streetName": "WEBSTER'S",
        "streetDirectionId": null,
        "streetTypeId": "LANE",
        "placeName": "MISSISSAUGA",
        "streetNameDisplayText": "WEBSTER'S LANE, MISSISSAUGA"
      }
    ]
  },
  {
    "postal": "L5G4T7",
    "result": []
  },
  {
    "postal": "L5G6Y7",
    "result": []
  },
  {
    "postal": "L5G0W7",
    "result": []
  },
  {
    "postal": "L5G2W9",
    "result": [
      {
        "electoralDistricts": [
          {
            "election": null,
            "id": 63,
            "name": "Mississauga—Lakeshore"
          }
        ],
        "pollDivisionIds": [
          10139752
        ],
        "postalCode": "L5G2W9",
        "streetName": "GLENWOOD",
        "streetDirectionId": null,
        "streetTypeId": "DR",
        "placeName": "MISSISSAUGA",
        "streetNameDisplayText": "GLENWOOD DR, MISSISSAUGA"
      }
    ]
  },
  {
    "postal": "L5G8V0",
    "result": []
  },
  {
    "postal": "L5G0H4",
    "result": []
  },
  {
    "postal": "L5G2T1",
    "result": []
  },
  {
    "postal": "L5G1B1",
    "result": [
      {
        "electoralDistricts": [
          {
            "election": null,
            "id": 63,
            "name": "Mississauga—Lakeshore"
          }
        ],
        "pollDivisionIds": [
          10139753
        ],
        "postalCode": "L5G1B1",
        "streetName": "WANITA",
        "streetDirectionId": null,
        "streetTypeId": "RD",
        "placeName": "MISSISSAUGA",
        "streetNameDisplayText": "WANITA RD, MISSISSAUGA"
      }
    ]
  },
  {
    "postal": "L5G8B6",
    "result": []
  },
  {
    "postal": "L5G6H1",
    "result": []
  },
  {
    "postal": "L5G8T8",
    "result": []
  },
  {
    "postal": "L5G0T4",
    "result": []
  },
  {
    "postal": "L5G2C4",
    "result": [
      {
        "electoralDistricts": [
          {
            "election": null,
            "id": 63,
            "name": "Mississauga—Lakeshore"
          }
        ],
        "pollDivisionIds": [
          10139752
        ],
        "postalCode": "L5G2C4",
        "streetName": "MINEOLA",
        "streetDirectionId": "W",
        "streetTypeId": "RD",
        "placeName": "MISSISSAUGA",
        "streetNameDisplayText": "MINEOLA RD W, MISSISSAUGA"
      }
    ]
  },
  {
    "postal": "L5G8N3",
    "result": []
  },
  {
    "postal": "L5G4L8",
    "result": []
  },
  {
    "postal": "L5G2B5",
    "result": [
      {
        "electoralDistricts": [
          {
            "election": null,
            "id": 63,
            "name": "Mississauga—Lakeshore"
          }
        ],
        "pollDivisionIds": [
          10139751
        ],
        "postalCode": "L5G2B5",
        "streetName": "AQUA",
        "streetDirectionId": null,
        "streetTypeId": "DR",
        "placeName": "MISSISSAUGA",
        "streetNameDisplayText": "AQUA DR, MISSISSAUGA"
      }
    ]
  },
  {
    "postal": "L5G3H1",
    "result": [
      {
        "electoralDistricts": [
          {
            "election": null,
            "id": 63,
            "name": "Mississauga—Lakeshore"
          }
        ],
        "pollDivisionIds": [
          10139751
        ],
        "postalCode": "L5G3H1",
        "streetName": "HURONTARIO",
        "streetDirectionId": null,
        "streetTypeId": "ST",
        "placeName": "MISSISSAUGA",
        "streetNameDisplayText": "HURONTARIO ST, MISSISSAUGA"
      }
    ]
  },
  {
    "postal": "L5G4Y1",
    "result": []
  },
  {
    "postal": "L5G7E2",
    "result": []
  },
  {
    "postal": "L5G2P5",
    "result": [
      {
        "electoralDistricts": [
          {
            "election": null,
            "id": 63,
            "name": "Mississauga—Lakeshore"
          }
        ],
        "pollDivisionIds": [
          10139752
        ],
        "postalCode": "L5G2P5",
        "streetName": "EXBURY",
        "streetDirectionId": null,
        "streetTypeId": "CRES",
        "placeName": "MISSISSAUGA",
        "streetNameDisplayText": "EXBURY CRES, MISSISSAUGA"
      }
    ]
  },
  {
    "postal": "L5G8R7",
    "result": []
  },
  {
    "postal": "L5G9P1",
    "result": []
  },
  {
    "postal": "L5G3B8",
    "result": [
      {
        "electoralDistricts": [
          {
            "election": null,
            "id": 63,
            "name": "Mississauga—Lakeshore"
          }
        ],
        "pollDivisionIds": [
          10139755
        ],
        "postalCode": "L5G3B8",
        "streetName": "VESTA",
        "streetDirectionId": null,
        "streetTypeId": "DR",
        "placeName": "MISSISSAUGA",
        "streetNameDisplayText": "VESTA DR, MISSISSAUGA"
      }
    ]
  },
  {
    "postal": "L5G3P7",
    "result": [
      {
        "electoralDistricts": [
          {
            "election": null,
            "id": 63,
            "name": "Mississauga—Lakeshore"
          }
        ],
        "pollDivisionIds": [
          10139752
        ],
        "postalCode": "L5G3P7",
        "streetName": "CRESTVIEW",
        "streetDirectionId": null,
        "streetTypeId": "AVE",
        "placeName": "MISSISSAUGA",
        "streetNameDisplayText": "CRESTVIEW AVE, MISSISSAUGA"
      }
    ]
  },
  {
    "postal": "L5G9B2",
    "result": []
  },
  {
    "postal": "L5G6Z3",
    "result": []
  },
  {
    "postal": "L5G4N5",
    "result": [
      {
        "electoralDistricts": [
          {
            "election": null,
            "id": 63,
            "name": "Mississauga—Lakeshore"
          }
        ],
        "pollDivisionIds": [
          10139752
        ],
        "postalCode": "L5G4N5",
        "streetName": "PINETREE",
        "streetDirectionId": null,
        "streetTypeId": "WAY",
        "placeName": "MISSISSAUGA",
        "streetNameDisplayText": "PINETREE WAY, MISSISSAUGA"
      }
    ]
  },
  {
    "postal": "L5G8T3",
    "result": []
  },
  {
    "postal": "L5G1V2",
    "result": [
      {
        "electoralDistricts": [
          {
            "election": null,
            "id": 63,
            "name": "Mississauga—Lakeshore"
          }
        ],
        "pollDivisionIds": [
          10139755
        ],
        "postalCode": "L5G1V2",
        "streetName": "ORIOLE",
        "streetDirectionId": null,
        "streetTypeId": "AVE",
        "placeName": "MISSISSAUGA",
        "streetNameDisplayText": "ORIOLE AVE, MISSISSAUGA"
      }
    ]
  },
  {
    "postal": "L5G1Y0",
    "result": []
  },
  {
    "postal": "L5G3G6",
    "result": [
      {
        "electoralDistricts": [
          {
            "election": null,
            "id": 63,
            "name": "Mississauga—Lakeshore"
          }
        ],
        "pollDivisionIds": [
          10139752
        ],
        "postalCode": "L5G3G6",
        "streetName": "AVONBRIDGE",
        "streetDirectionId": null,
        "streetTypeId": "DR",
        "placeName": "MISSISSAUGA",
        "streetNameDisplayText": "AVONBRIDGE DR, MISSISSAUGA"
      }
    ]
  },
  {
    "postal": "L5G3H7",
    "result": [
      {
        "electoralDistricts": [
          {
            "election": null,
            "id": 63,
            "name": "Mississauga—Lakeshore"
          }
        ],
        "pollDivisionIds": [
          10139752
        ],
        "postalCode": "L5G3H7",
        "streetName": "HURONTARIO",
        "streetDirectionId": null,
        "streetTypeId": "ST",
        "placeName": "MISSISSAUGA",
        "streetNameDisplayText": "HURONTARIO ST, MISSISSAUGA"
      }
    ]
  },
  {
    "postal": "L5G7X8",
    "result": []
  },
  {
    "postal": "L5G0C7",
    "result": []
  },
  {
    "postal": "L5G0W9",
    "result": []
  },
  {
    "postal": "L5G8E6",
    "result": []
  },
  {
    "postal": "L5G9Z8",
    "result": []
  },
  {
    "postal": "L5G3P4",
    "result": [
      {
        "electoralDistricts": [
          {
            "election": null,
            "id": 63,
            "name": "Mississauga—Lakeshore"
          }
        ],
        "pollDivisionIds": [
          10139751
        ],
        "postalCode": "L5G3P4",
        "streetName": "CROSSFIELD",
        "streetDirectionId": null,
        "streetTypeId": "BEND",
        "placeName": "MISSISSAUGA",
        "streetNameDisplayText": "CROSSFIELD BEND, MISSISSAUGA"
      }
    ]
  },
  {
    "postal": "L5G6L8",
    "result": []
  },
  {
    "postal": "L5G2R4",
    "result": [
      {
        "electoralDistricts": [
          {
            "election": null,
            "id": 63,
            "name": "Mississauga—Lakeshore"
          }
        ],
        "pollDivisionIds": [
          10139752
        ],
        "postalCode": "L5G2R4",
        "streetName": "PINETREE",
        "streetDirectionId": null,
        "streetTypeId": "WAY",
        "placeName": "MISSISSAUGA",
        "streetNameDisplayText": "PINETREE WAY, MISSISSAUGA"
      }
    ]
  },
  {
    "postal": "L5G2W1",
    "result": [
      {
        "electoralDistricts": [
          {
            "election": null,
            "id": 63,
            "name": "Mississauga—Lakeshore"
          }
        ],
        "pollDivisionIds": [
          10139752
        ],
        "postalCode": "L5G2W1",
        "streetName": "WENDIGO",
        "streetDirectionId": null,
        "streetTypeId": "TRAIL",
        "placeName": "MISSISSAUGA",
        "streetNameDisplayText": "WENDIGO TRAIL, MISSISSAUGA"
      }
    ]
  },
  {
    "postal": "L5G9H8",
    "result": []
  },
  {
    "postal": "L5G8X9",
    "result": []
  },
  {
    "postal": "L5G7H4",
    "result": []
  },
  {
    "postal": "L5G3J1",
    "result": []
  },
  {
    "postal": "L5G1P4",
    "result": [
      {
        "electoralDistricts": [
          {
            "election": null,
            "id": 63,
            "name": "Mississauga—Lakeshore"
          }
        ],
        "pollDivisionIds": [
          10139753
        ],
        "postalCode": "L5G1P4",
        "streetName": "MONTBECK",
        "streetDirectionId": null,
        "streetTypeId": "CRES",
        "placeName": "MISSISSAUGA",
        "streetNameDisplayText": "MONTBECK CRES, MISSISSAUGA"
      }
    ]
  },
  {
    "postal": "L5G2A3",
    "result": [
      {
        "electoralDistricts": [
          {
            "election": null,
            "id": 63,
            "name": "Mississauga—Lakeshore"
          }
        ],
        "pollDivisionIds": [
          10139751
        ],
        "postalCode": "L5G2A3",
        "streetName": "ATWATER",
        "streetDirectionId": null,
        "streetTypeId": "AVE",
        "placeName": "MISSISSAUGA",
        "streetNameDisplayText": "ATWATER AVE, MISSISSAUGA"
      }
    ]
  },
  {
    "postal": "L5G0Z1",
    "result": []
  },
  {
    "postal": "L5G1C1",
    "result": [
      {
        "electoralDistricts": [
          {
            "election": null,
            "id": 63,
            "name": "Mississauga—Lakeshore"
          }
        ],
        "pollDivisionIds": [
          10139755
        ],
        "postalCode": "L5G1C1",
        "streetName": "PORT",
        "streetDirectionId": "E",
        "streetTypeId": "ST",
        "placeName": "MISSISSAUGA",
        "streetNameDisplayText": "PORT ST E, MISSISSAUGA"
      }
    ]
  },
  {
    "postal": "L5G0H3",
    "result": []
  },
  {
    "postal": "L5G7B0",
    "result": []
  },
  {
    "postal": "L5G5K2",
    "result": []
  },
  {
    "postal": "L5G1E9",
    "result": [
      {
        "electoralDistricts": [
          {
            "election": null,
            "id": 63,
            "name": "Mississauga—Lakeshore"
          }
        ],
        "pollDivisionIds": [
          10139753
        ],
        "postalCode": "L5G1E9",
        "streetName": "LAKESHORE",
        "streetDirectionId": "E",
        "streetTypeId": "RD",
        "placeName": "MISSISSAUGA",
        "streetNameDisplayText": "LAKESHORE RD E, MISSISSAUGA"
      }
    ]
  },
  {
    "postal": "L5G9W7",
    "result": []
  },
  {
    "postal": "L5G5W6",
    "result": []
  },
  {
    "postal": "L5G6S6",
    "result": []
  },
  {
    "postal": "L5G2P8",
    "result": [
      {
        "electoralDistricts": [
          {
            "election": null,
            "id": 63,
            "name": "Mississauga—Lakeshore"
          }
        ],
        "pollDivisionIds": [
          10139752
        ],
        "postalCode": "L5G2P8",
        "streetName": "OAKHILL",
        "streetDirectionId": null,
        "streetTypeId": "RD",
        "placeName": "MISSISSAUGA",
        "streetNameDisplayText": "OAKHILL RD, MISSISSAUGA"
      }
    ]
  },
  {
    "postal": "L5G4P8",
    "result": [
      {
        "electoralDistricts": [
          {
            "election": null,
            "id": 63,
            "name": "Mississauga—Lakeshore"
          }
        ],
        "pollDivisionIds": [
          10139752
        ],
        "postalCode": "L5G4P8",
        "streetName": "POLESDEN",
        "streetDirectionId": null,
        "streetTypeId": "DR",
        "placeName": "MISSISSAUGA",
        "streetNameDisplayText": "POLESDEN DR, MISSISSAUGA"
      }
    ]
  },
  {
    "postal": "L5G0V9",
    "result": []
  },
  {
    "postal": "L5G5Y2",
    "result": []
  },
  {
    "postal": "L5G7Z7",
    "result": []
  },
  {
    "postal": "L5G6Y8",
    "result": []
  },
  {
    "postal": "L5G2G7",
    "result": [
      {
        "electoralDistricts": [
          {
            "election": null,
            "id": 63,
            "name": "Mississauga—Lakeshore"
          }
        ],
        "pollDivisionIds": [
          10139751
        ],
        "postalCode": "L5G2G7",
        "streetName": "HARTSDALE",
        "streetDirectionId": null,
        "streetTypeId": "AVE",
        "placeName": "MISSISSAUGA",
        "streetNameDisplayText": "HARTSDALE AVE, MISSISSAUGA"
      }
    ]
  },
  {
    "postal": "L5G8C1",
    "result": []
  },
  {
    "postal": "L5G5C5",
    "result": []
  },
  {
    "postal": "L5G2X8",
    "result": [
      {
        "electoralDistricts": [
          {
            "election": null,
            "id": 63,
            "name": "Mississauga—Lakeshore"
          }
        ],
        "pollDivisionIds": [
          10139755
        ],
        "postalCode": "L5G2X8",
        "streetName": "WOODLAND",
        "streetDirectionId": null,
        "streetTypeId": "AVE",
        "placeName": "MISSISSAUGA",
        "streetNameDisplayText": "WOODLAND AVE, MISSISSAUGA"
      }
    ]
  },
  {
    "postal": "L5G1W5",
    "result": [
      {
        "electoralDistricts": [
          {
            "election": null,
            "id": 63,
            "name": "Mississauga—Lakeshore"
          }
        ],
        "pollDivisionIds": [
          10139751
        ],
        "postalCode": "L5G1W5",
        "streetName": "NIAR",
        "streetDirectionId": null,
        "streetTypeId": "AVE",
        "placeName": "MISSISSAUGA",
        "streetNameDisplayText": "NIAR AVE, MISSISSAUGA"
      }
    ]
  },
  {
    "postal": "L5G7G0",
    "result": []
  },
  {
    "postal": "L5G8J8",
    "result": []
  },
  {
    "postal": "L5G3Y0",
    "result": []
  },
  {
    "postal": "L5G9T7",
    "result": []
  },
  {
    "postal": "L5G5P4",
    "result": []
  },
  {
    "postal": "L5G4B0",
    "result": []
  },
  {
    "postal": "L5G9N8",
    "result": []
  },
  {
    "postal": "L5G4A7",
    "result": [
      {
        "electoralDistricts": [
          {
            "election": null,
            "id": 63,
            "name": "Mississauga—Lakeshore"
          }
        ],
        "pollDivisionIds": [
          10139751
        ],
        "postalCode": "L5G4A7",
        "streetName": "CANTERBURY",
        "streetDirectionId": null,
        "streetTypeId": "RD",
        "placeName": "MISSISSAUGA",
        "streetNameDisplayText": "CANTERBURY RD, MISSISSAUGA"
      }
    ]
  },
  {
    "postal": "L5G4H9",
    "result": [
      {
        "electoralDistricts": [
          {
            "election": null,
            "id": 63,
            "name": "Mississauga—Lakeshore"
          }
        ],
        "pollDivisionIds": [
          10139753
        ],
        "postalCode": "L5G4H9",
        "streetName": "AVIATION",
        "streetDirectionId": null,
        "streetTypeId": "RD",
        "placeName": "MISSISSAUGA",
        "streetNameDisplayText": "AVIATION RD, MISSISSAUGA"
      }
    ]
  },
  {
    "postal": "L5G6X1",
    "result": []
  },
  {
    "postal": "L5G9Y7",
    "result": []
  },
  {
    "postal": "L5G2Y5",
    "result": [
      {
        "electoralDistricts": [
          {
            "election": null,
            "id": 63,
            "name": "Mississauga—Lakeshore"
          }
        ],
        "pollDivisionIds": [
          10139755
        ],
        "postalCode": "L5G2Y5",
        "streetName": "ELIZABETH",
        "streetDirectionId": "S",
        "streetTypeId": "ST",
        "placeName": "MISSISSAUGA",
        "streetNameDisplayText": "ELIZABETH ST S, MISSISSAUGA"
      }
    ]
  },
  {
    "postal": "L5G8L7",
    "result": []
  },
  {
    "postal": "L5G2A8",
    "result": [
      {
        "electoralDistricts": [
          {
            "election": null,
            "id": 63,
            "name": "Mississauga—Lakeshore"
          }
        ],
        "pollDivisionIds": [
          10139751
        ],
        "postalCode": "L5G2A8",
        "streetName": "ATWATER",
        "streetDirectionId": null,
        "streetTypeId": "AVE",
        "placeName": "MISSISSAUGA",
        "streetNameDisplayText": "ATWATER AVE, MISSISSAUGA"
      }
    ]
  },
  {
    "postal": "L5G2K9",
    "result": [
      {
        "electoralDistricts": [
          {
            "election": null,
            "id": 63,
            "name": "Mississauga—Lakeshore"
          }
        ],
        "pollDivisionIds": [
          10139752
        ],
        "postalCode": "L5G2K9",
        "streetName": "INDIAN VALLEY",
        "streetDirectionId": null,
        "streetTypeId": "TRAIL",
        "placeName": "MISSISSAUGA",
        "streetNameDisplayText": "INDIAN VALLEY TRAIL, MISSISSAUGA"
      }
    ]
  },
  {
    "postal": "L5G3E5",
    "result": [
      {
        "electoralDistricts": [
          {
            "election": null,
            "id": 63,
            "name": "Mississauga—Lakeshore"
          }
        ],
        "pollDivisionIds": [
          10139752
        ],
        "postalCode": "L5G3E5",
        "streetName": "GLENBURNIE",
        "streetDirectionId": null,
        "streetTypeId": "RD",
        "placeName": "MISSISSAUGA",
        "streetNameDisplayText": "GLENBURNIE RD, MISSISSAUGA"
      }
    ]
  },
  {
    "postal": "L5G8N6",
    "result": []
  },
  {
    "postal": "L5G8J4",
    "result": []
  },
  {
    "postal": "L5G4R7",
    "result": [
      {
        "electoralDistricts": [
          {
            "election": null,
            "id": 63,
            "name": "Mississauga—Lakeshore"
          }
        ],
        "pollDivisionIds": [
          10139751
        ],
        "postalCode": "L5G4R7",
        "streetName": "DEXTER",
        "streetDirectionId": null,
        "streetTypeId": "CRES",
        "placeName": "MISSISSAUGA",
        "streetNameDisplayText": "DEXTER CRES, MISSISSAUGA"
      }
    ]
  },
  {
    "postal": "L5G9K1",
    "result": []
  },
  {
    "postal": "L5G8E1",
    "result": []
  },
  {
    "postal": "L5G0R1",
    "result": []
  },
  {
    "postal": "L5G4J3",
    "result": [
      {
        "electoralDistricts": [
          {
            "election": null,
            "id": 63,
            "name": "Mississauga—Lakeshore"
          }
        ],
        "pollDivisionIds": [
          10139753
        ],
        "postalCode": "L5G4J3",
        "streetName": "CAVEN",
        "streetDirectionId": null,
        "streetTypeId": "ST",
        "placeName": "MISSISSAUGA",
        "streetNameDisplayText": "CAVEN ST, MISSISSAUGA"
      }
    ]
  },
  {
    "postal": "L5G7E7",
    "result": []
  },
  {
    "postal": "L5G0J0",
    "result": []
  },
  {
    "postal": "L5G7R8",
    "result": []
  },
  {
    "postal": "L5G9X0",
    "result": []
  },
  {
    "postal": "L5G7P6",
    "result": []
  },
  {
    "postal": "L5G0R7",
    "result": []
  },
  {
    "postal": "L5G5W1",
    "result": []
  },
  {
    "postal": "L5G0K4",
    "result": []
  },
  {
    "postal": "L5G7N9",
    "result": []
  },
  {
    "postal": "L5G1N0",
    "result": []
  },
  {
    "postal": "L5G6P3",
    "result": []
  },
  {
    "postal": "L5G5A1",
    "result": []
  },
  {
    "postal": "L5G9M9",
    "result": []
  },
  {
    "postal": "L5G7T6",
    "result": []
  },
  {
    "postal": "L5G3X0",
    "result": []
  },
  {
    "postal": "L5G2T0",
    "result": []
  },
  {
    "postal": "L5G5X9",
    "result": []
  },
  {
    "postal": "L5G2R3",
    "result": [
      {
        "electoralDistricts": [
          {
            "election": null,
            "id": 63,
            "name": "Mississauga—Lakeshore"
          }
        ],
        "pollDivisionIds": [
          10139752
        ],
        "postalCode": "L5G2R3",
        "streetName": "PINETREE",
        "streetDirectionId": null,
        "streetTypeId": "WAY",
        "placeName": "MISSISSAUGA",
        "streetNameDisplayText": "PINETREE WAY, MISSISSAUGA"
      }
    ]
  },
  {
    "postal": "L5G5N2",
    "result": []
  },
  {
    "postal": "L5G4Y7",
    "result": []
  },
  {
    "postal": "L5G7M0",
    "result": []
  },
  {
    "postal": "L5G8P3",
    "result": []
  },
  {
    "postal": "L5G3N3",
    "result": [
      {
        "electoralDistricts": [
          {
            "election": null,
            "id": 63,
            "name": "Mississauga—Lakeshore"
          }
        ],
        "pollDivisionIds": [
          10139753
        ],
        "postalCode": "L5G3N3",
        "streetName": "CUMBERLAND",
        "streetDirectionId": null,
        "streetTypeId": "DR",
        "placeName": "MISSISSAUGA",
        "streetNameDisplayText": "CUMBERLAND DR, MISSISSAUGA"
      }
    ]
  },
  {
    "postal": "L5G7S3",
    "result": []
  },
  {
    "postal": "L5G3V9",
    "result": [
      {
        "electoralDistricts": [
          {
            "election": null,
            "id": 63,
            "name": "Mississauga—Lakeshore"
          }
        ],
        "pollDivisionIds": [
          10139753
        ],
        "postalCode": "L5G3V9",
        "streetName": "WENONAH",
        "streetDirectionId": null,
        "streetTypeId": "DR",
        "placeName": "MISSISSAUGA",
        "streetNameDisplayText": "WENONAH DR, MISSISSAUGA"
      }
    ]
  },
  {
    "postal": "L5G9N7",
    "result": []
  },
  {
    "postal": "L5G0G4",
    "result": []
  },
  {
    "postal": "L5G2E2",
    "result": [
      {
        "electoralDistricts": [
          {
            "election": null,
            "id": 63,
            "name": "Mississauga—Lakeshore"
          }
        ],
        "pollDivisionIds": [
          10139752
        ],
        "postalCode": "L5G2E2",
        "streetName": "MINEOLA",
        "streetDirectionId": "W",
        "streetTypeId": "RD",
        "placeName": "MISSISSAUGA",
        "streetNameDisplayText": "MINEOLA RD W, MISSISSAUGA"
      }
    ]
  },
  {
    "postal": "L5G7W8",
    "result": []
  },
  {
    "postal": "L5G7M5",
    "result": []
  },
  {
    "postal": "L5G5W8",
    "result": []
  },
  {
    "postal": "L5G5E5",
    "result": []
  },
  {
    "postal": "L5G1P9",
    "result": [
      {
        "electoralDistricts": [
          {
            "election": null,
            "id": 63,
            "name": "Mississauga—Lakeshore"
          }
        ],
        "pollDivisionIds": [
          10139753
        ],
        "postalCode": "L5G1P9",
        "streetName": "CURZON",
        "streetDirectionId": null,
        "streetTypeId": "AVE",
        "placeName": "MISSISSAUGA",
        "streetNameDisplayText": "CURZON AVE, MISSISSAUGA"
      }
    ]
  },
  {
    "postal": "L5G8V8",
    "result": []
  },
  {
    "postal": "L5G9G8",
    "result": []
  },
  {
    "postal": "L5G8H9",
    "result": []
  },
  {
    "postal": "L5G1Z1",
    "result": [
      {
        "electoralDistricts": [
          {
            "election": null,
            "id": 63,
            "name": "Mississauga—Lakeshore"
          }
        ],
        "pollDivisionIds": [
          10139751
        ],
        "postalCode": "L5G1Z1",
        "streetName": "RIDGEMOUNT",
        "streetDirectionId": null,
        "streetTypeId": "CRES",
        "placeName": "MISSISSAUGA",
        "streetNameDisplayText": "RIDGEMOUNT CRES, MISSISSAUGA"
      }
    ]
  },
  {
    "postal": "L5G8M3",
    "result": []
  },
  {
    "postal": "L5G5H6",
    "result": []
  },
  {
    "postal": "L5G7W7",
    "result": []
  },
  {
    "postal": "L5G4L0",
    "result": []
  },
  {
    "postal": "L5G2N1",
    "result": [
      {
        "electoralDistricts": [
          {
            "election": null,
            "id": 63,
            "name": "Mississauga—Lakeshore"
          }
        ],
        "pollDivisionIds": [
          10139752
        ],
        "postalCode": "L5G2N1",
        "streetName": "MAPLEWOOD",
        "streetDirectionId": null,
        "streetTypeId": "RD",
        "placeName": "MISSISSAUGA",
        "streetNameDisplayText": "MAPLEWOOD RD, MISSISSAUGA"
      }
    ]
  },
  {
    "postal": "L5G2H4",
    "result": [
      {
        "electoralDistricts": [
          {
            "election": null,
            "id": 63,
            "name": "Mississauga—Lakeshore"
          }
        ],
        "pollDivisionIds": [
          10139752
        ],
        "postalCode": "L5G2H4",
        "streetName": "HOLLYROOD HEIGHTS",
        "streetDirectionId": null,
        "streetTypeId": "DR",
        "placeName": "MISSISSAUGA",
        "streetNameDisplayText": "HOLLYROOD HEIGHTS DR, MISSISSAUGA"
      }
    ]
  },
  {
    "postal": "L5G5C8",
    "result": []
  },
  {
    "postal": "L5G8B0",
    "result": []
  },
  {
    "postal": "L5G1T4",
    "result": [
      {
        "electoralDistricts": [
          {
            "election": null,
            "id": 63,
            "name": "Mississauga—Lakeshore"
          }
        ],
        "pollDivisionIds": [
          10139751
        ],
        "postalCode": "L5G1T4",
        "streetName": "MARF",
        "streetDirectionId": null,
        "streetTypeId": "AVE",
        "placeName": "MISSISSAUGA",
        "streetNameDisplayText": "MARF AVE, MISSISSAUGA"
      }
    ]
  },
  {
    "postal": "L5G7N7",
    "result": []
  },
  {
    "postal": "L5G4L3",
    "result": [
      {
        "electoralDistricts": [
          {
            "election": null,
            "id": 63,
            "name": "Mississauga—Lakeshore"
          }
        ],
        "pollDivisionIds": [
          10139752
        ],
        "postalCode": "L5G4L3",
        "streetName": "CAWTHRA",
        "streetDirectionId": null,
        "streetTypeId": "CRT",
        "placeName": "MISSISSAUGA",
        "streetNameDisplayText": "CAWTHRA CRT, MISSISSAUGA"
      }
    ]
  },
  {
    "postal": "L5G2N2",
    "result": [
      {
        "electoralDistricts": [
          {
            "election": null,
            "id": 63,
            "name": "Mississauga—Lakeshore"
          }
        ],
        "pollDivisionIds": [
          10139752
        ],
        "postalCode": "L5G2N2",
        "streetName": "BRIARHILL",
        "streetDirectionId": null,
        "streetTypeId": "DR",
        "placeName": "MISSISSAUGA",
        "streetNameDisplayText": "BRIARHILL DR, MISSISSAUGA"
      }
    ]
  },
  {
    "postal": "L5G4N8",
    "result": []
  },
  {
    "postal": "L5G3M5",
    "result": [
      {
        "electoralDistricts": [
          {
            "election": null,
            "id": 63,
            "name": "Mississauga—Lakeshore"
          }
        ],
        "pollDivisionIds": [
          10139753
        ],
        "postalCode": "L5G3M5",
        "streetName": "CUMBERLAND",
        "streetDirectionId": null,
        "streetTypeId": "DR",
        "placeName": "MISSISSAUGA",
        "streetNameDisplayText": "CUMBERLAND DR, MISSISSAUGA"
      }
    ]
  },
  {
    "postal": "L5G6H7",
    "result": []
  },
  {
    "postal": "L5G8Y8",
    "result": []
  },
  {
    "postal": "L5G5R9",
    "result": []
  },
  {
    "postal": "L5G8G3",
    "result": []
  },
  {
    "postal": "L5G4N7",
    "result": [
      {
        "electoralDistricts": [
          {
            "election": null,
            "id": 63,
            "name": "Mississauga—Lakeshore"
          }
        ],
        "pollDivisionIds": [
          10139755
        ],
        "postalCode": "L5G4N7",
        "streetName": "STAVEBANK",
        "streetDirectionId": null,
        "streetTypeId": "RD",
        "placeName": "MISSISSAUGA",
        "streetNameDisplayText": "STAVEBANK RD, MISSISSAUGA"
      }
    ]
  },
  {
    "postal": "L5G0B9",
    "result": []
  },
  {
    "postal": "L5G9K7",
    "result": []
  },
  {
    "postal": "L5G9K9",
    "result": []
  },
  {
    "postal": "L5G3Z2",
    "result": [
      {
        "electoralDistricts": [
          {
            "election": null,
            "id": 63,
            "name": "Mississauga—Lakeshore"
          }
        ],
        "pollDivisionIds": [
          10139752
        ],
        "postalCode": "L5G3Z2",
        "streetName": "CARMEN",
        "streetDirectionId": null,
        "streetTypeId": "DR",
        "placeName": "MISSISSAUGA",
        "streetNameDisplayText": "CARMEN DR, MISSISSAUGA"
      }
    ]
  },
  {
    "postal": "L5G6W7",
    "result": []
  },
  {
    "postal": "L5G0P1",
    "result": []
  },
  {
    "postal": "L5G3A0",
    "result": []
  },
  {
    "postal": "L5G8L9",
    "result": []
  },
  {
    "postal": "L5G6X0",
    "result": []
  },
  {
    "postal": "L5G3E9",
    "result": [
      {
        "electoralDistricts": [
          {
            "election": null,
            "id": 63,
            "name": "Mississauga—Lakeshore"
          }
        ],
        "pollDivisionIds": [
          10139755
        ],
        "postalCode": "L5G3E9",
        "streetName": "ANN",
        "streetDirectionId": null,
        "streetTypeId": "ST",
        "placeName": "MISSISSAUGA",
        "streetNameDisplayText": "ANN ST, MISSISSAUGA"
      }
    ]
  },
  {
    "postal": "L5G0S5",
    "result": []
  },
  {
    "postal": "L5G1A2",
    "result": [
      {
        "electoralDistricts": [
          {
            "election": null,
            "id": 63,
            "name": "Mississauga—Lakeshore"
          }
        ],
        "pollDivisionIds": [
          10139753
        ],
        "postalCode": "L5G1A2",
        "streetName": "ONAWAY",
        "streetDirectionId": null,
        "streetTypeId": "RD",
        "placeName": "MISSISSAUGA",
        "streetNameDisplayText": "ONAWAY RD, MISSISSAUGA"
      }
    ]
  },
  {
    "postal": "L5G5V8",
    "result": []
  },
  {
    "postal": "L5G8C5",
    "result": []
  },
  {
    "postal": "L5G6N0",
    "result": []
  },
  {
    "postal": "L5G9E6",
    "result": []
  },
  {
    "postal": "L5G5J7",
    "result": []
  },
  {
    "postal": "L5G2R2",
    "result": [
      {
        "electoralDistricts": [
          {
            "election": null,
            "id": 63,
            "name": "Mississauga—Lakeshore"
          }
        ],
        "pollDivisionIds": [
          10139752
        ],
        "postalCode": "L5G2R2",
        "streetName": "PINETREE",
        "streetDirectionId": null,
        "streetTypeId": "WAY",
        "placeName": "MISSISSAUGA",
        "streetNameDisplayText": "PINETREE WAY, MISSISSAUGA"
      }
    ]
  },
  {
    "postal": "L5G0P5",
    "result": []
  },
  {
    "postal": "L5G5A7",
    "result": []
  },
  {
    "postal": "L5G1G1",
    "result": [
      {
        "electoralDistricts": [
          {
            "election": null,
            "id": 63,
            "name": "Mississauga—Lakeshore"
          }
        ],
        "pollDivisionIds": [
          10139753
        ],
        "postalCode": "L5G1G1",
        "streetName": "LAKESHORE",
        "streetDirectionId": "E",
        "streetTypeId": "RD",
        "placeName": "MISSISSAUGA",
        "streetNameDisplayText": "LAKESHORE RD E, MISSISSAUGA"
      }
    ]
  },
  {
    "postal": "L5G9R6",
    "result": []
  },
  {
    "postal": "L5G4Z9",
    "result": []
  },
  {
    "postal": "L5G1V5",
    "result": [
      {
        "electoralDistricts": [
          {
            "election": null,
            "id": 63,
            "name": "Mississauga—Lakeshore"
          }
        ],
        "pollDivisionIds": [
          10139751
        ],
        "postalCode": "L5G1V5",
        "streetName": "EAGLEWOOD",
        "streetDirectionId": null,
        "streetTypeId": "BLVD",
        "placeName": "MISSISSAUGA",
        "streetNameDisplayText": "EAGLEWOOD BLVD, MISSISSAUGA"
      }
    ]
  },
  {
    "postal": "L5G9Y5",
    "result": []
  },
  {
    "postal": "L5G1P2",
    "result": [
      {
        "electoralDistricts": [
          {
            "election": null,
            "id": 63,
            "name": "Mississauga—Lakeshore"
          }
        ],
        "pollDivisionIds": [
          10139753
        ],
        "postalCode": "L5G1P2",
        "streetName": "MONTBECK",
        "streetDirectionId": null,
        "streetTypeId": "CRES",
        "placeName": "MISSISSAUGA",
        "streetNameDisplayText": "MONTBECK CRES, MISSISSAUGA"
      }
    ]
  },
  {
    "postal": "L5G5X0",
    "result": []
  },
  {
    "postal": "L5G7B8",
    "result": []
  },
  {
    "postal": "L5G0C6",
    "result": []
  },
  {
    "postal": "L5G6G1",
    "result": []
  },
  {
    "postal": "L5G3K3",
    "result": [
      {
        "electoralDistricts": [
          {
            "election": null,
            "id": 63,
            "name": "Mississauga—Lakeshore"
          }
        ],
        "pollDivisionIds": [
          10139752
        ],
        "postalCode": "L5G3K3",
        "streetName": "WILSON",
        "streetDirectionId": null,
        "streetTypeId": "AVE",
        "placeName": "MISSISSAUGA",
        "streetNameDisplayText": "WILSON AVE, MISSISSAUGA"
      }
    ]
  },
  {
    "postal": "L5G9R0",
    "result": []
  },
  {
    "postal": "L5G4R8",
    "result": [
      {
        "electoralDistricts": [
          {
            "election": null,
            "id": 63,
            "name": "Mississauga—Lakeshore"
          }
        ],
        "pollDivisionIds": [
          10139751
        ],
        "postalCode": "L5G4R8",
        "streetName": "DEXTER",
        "streetDirectionId": null,
        "streetTypeId": "CRES",
        "placeName": "MISSISSAUGA",
        "streetNameDisplayText": "DEXTER CRES, MISSISSAUGA"
      }
    ]
  },
  {
    "postal": "L5G5P9",
    "result": []
  },
  {
    "postal": "L5G8N4",
    "result": []
  },
  {
    "postal": "L5G8H4",
    "result": []
  },
  {
    "postal": "L5G4V1",
    "result": [
      {
        "electoralDistricts": [
          {
            "election": null,
            "id": 63,
            "name": "Mississauga—Lakeshore"
          }
        ],
        "pollDivisionIds": [
          10139753
        ],
        "postalCode": "L5G4V1",
        "streetName": "ST LAWRENCE",
        "streetDirectionId": null,
        "streetTypeId": "DR",
        "placeName": "MISSISSAUGA",
        "streetNameDisplayText": "ST LAWRENCE DR, MISSISSAUGA"
      }
    ]
  },
  {
    "postal": "L5G1K5",
    "result": [
      {
        "electoralDistricts": [
          {
            "election": null,
            "id": 63,
            "name": "Mississauga—Lakeshore"
          }
        ],
        "pollDivisionIds": [
          10139753
        ],
        "postalCode": "L5G1K5",
        "streetName": "TECUMSETH",
        "streetDirectionId": null,
        "streetTypeId": "AVE",
        "placeName": "MISSISSAUGA",
        "streetNameDisplayText": "TECUMSETH AVE, MISSISSAUGA"
      }
    ]
  },
  {
    "postal": "L5G1Z5",
    "result": [
      {
        "electoralDistricts": [
          {
            "election": null,
            "id": 63,
            "name": "Mississauga—Lakeshore"
          }
        ],
        "pollDivisionIds": [
          10139752
        ],
        "postalCode": "L5G1Z5",
        "streetName": "WINDY OAKS",
        "streetDirectionId": null,
        "streetTypeId": null,
        "placeName": "MISSISSAUGA",
        "streetNameDisplayText": "WINDY OAKS, MISSISSAUGA"
      }
    ]
  },
  {
    "postal": "L5G9L9",
    "result": []
  },
  {
    "postal": "L5G5L2",
    "result": []
  },
  {
    "postal": "L5G0M2",
    "result": []
  },
  {
    "postal": "L5G1K8",
    "result": [
      {
        "electoralDistricts": [
          {
            "election": null,
            "id": 63,
            "name": "Mississauga—Lakeshore"
          }
        ],
        "pollDivisionIds": [
          10139753
        ],
        "postalCode": "L5G1K8",
        "streetName": "FOREST",
        "streetDirectionId": null,
        "streetTypeId": "AVE",
        "placeName": "MISSISSAUGA",
        "streetNameDisplayText": "FOREST AVE, MISSISSAUGA"
      }
    ]
  },
  {
    "postal": "L5G3M7",
    "result": [
      {
        "electoralDistricts": [
          {
            "election": null,
            "id": 63,
            "name": "Mississauga—Lakeshore"
          }
        ],
        "pollDivisionIds": [
          10139753
        ],
        "postalCode": "L5G3M7",
        "streetName": "CUMBERLAND",
        "streetDirectionId": null,
        "streetTypeId": "DR",
        "placeName": "MISSISSAUGA",
        "streetNameDisplayText": "CUMBERLAND DR, MISSISSAUGA"
      }
    ]
  },
  {
    "postal": "L5G1B2",
    "result": [
      {
        "electoralDistricts": [
          {
            "election": null,
            "id": 63,
            "name": "Mississauga—Lakeshore"
          }
        ],
        "pollDivisionIds": [
          10139753
        ],
        "postalCode": "L5G1B2",
        "streetName": "WANITA",
        "streetDirectionId": null,
        "streetTypeId": "RD",
        "placeName": "MISSISSAUGA",
        "streetNameDisplayText": "WANITA RD, MISSISSAUGA"
      }
    ]
  },
  {
    "postal": "L5G0H9",
    "result": []
  },
  {
    "postal": "L5G8M4",
    "result": []
  },
  {
    "postal": "L5G2M5",
    "result": [
      {
        "electoralDistricts": [
          {
            "election": null,
            "id": 63,
            "name": "Mississauga—Lakeshore"
          }
        ],
        "pollDivisionIds": [
          10139752
        ],
        "postalCode": "L5G2M5",
        "streetName": "DONNELLY",
        "streetDirectionId": null,
        "streetTypeId": "DR",
        "placeName": "MISSISSAUGA",
        "streetNameDisplayText": "DONNELLY DR, MISSISSAUGA"
      }
    ]
  },
  {
    "postal": "L5G0T9",
    "result": []
  },
  {
    "postal": "L5G3P1",
    "result": [
      {
        "electoralDistricts": [
          {
            "election": null,
            "id": 63,
            "name": "Mississauga—Lakeshore"
          }
        ],
        "pollDivisionIds": [
          10139751
        ],
        "postalCode": "L5G3P1",
        "streetName": "CROSSFIELD",
        "streetDirectionId": null,
        "streetTypeId": "BEND",
        "placeName": "MISSISSAUGA",
        "streetNameDisplayText": "CROSSFIELD BEND, MISSISSAUGA"
      }
    ]
  },
  {
    "postal": "L5G1R6",
    "result": [
      {
        "electoralDistricts": [
          {
            "election": null,
            "id": 63,
            "name": "Mississauga—Lakeshore"
          }
        ],
        "pollDivisionIds": [
          10139753
        ],
        "postalCode": "L5G1R6",
        "streetName": "BYNGMOUNT",
        "streetDirectionId": null,
        "streetTypeId": "AVE",
        "placeName": "MISSISSAUGA",
        "streetNameDisplayText": "BYNGMOUNT AVE, MISSISSAUGA"
      }
    ]
  },
  {
    "postal": "L5G9V5",
    "result": []
  },
  {
    "postal": "L5G9T0",
    "result": []
  },
  {
    "postal": "L5G0A9",
    "result": [
      {
        "electoralDistricts": [
          {
            "election": null,
            "id": 63,
            "name": "Mississauga—Lakeshore"
          }
        ],
        "pollDivisionIds": [
          10139753
        ],
        "postalCode": "L5G0A9",
        "streetName": "RAPIDS",
        "streetDirectionId": null,
        "streetTypeId": "LANE",
        "placeName": "MISSISSAUGA",
        "streetNameDisplayText": "RAPIDS LANE, MISSISSAUGA"
      }
    ]
  },
  {
    "postal": "L5G1M3",
    "result": [
      {
        "electoralDistricts": [
          {
            "election": null,
            "id": 63,
            "name": "Mississauga—Lakeshore"
          }
        ],
        "pollDivisionIds": [
          10139755
        ],
        "postalCode": "L5G1M3",
        "streetName": "PARK",
        "streetDirectionId": "E",
        "streetTypeId": "ST",
        "placeName": "MISSISSAUGA",
        "streetNameDisplayText": "PARK ST E, MISSISSAUGA"
      }
    ]
  },
  {
    "postal": "L5G1W8",
    "result": [
      {
        "electoralDistricts": [
          {
            "election": null,
            "id": 63,
            "name": "Mississauga—Lakeshore"
          }
        ],
        "pollDivisionIds": [
          10139751
        ],
        "postalCode": "L5G1W8",
        "streetName": "RAPHAEL",
        "streetDirectionId": null,
        "streetTypeId": "AVE",
        "placeName": "MISSISSAUGA",
        "streetNameDisplayText": "RAPHAEL AVE, MISSISSAUGA"
      }
    ]
  },
  {
    "postal": "L5G9J1",
    "result": []
  },
  {
    "postal": "L5G8N5",
    "result": []
  },
  {
    "postal": "L5G5X1",
    "result": []
  },
  {
    "postal": "L5G6S2",
    "result": []
  },
  {
    "postal": "L5G2A2",
    "result": [
      {
        "electoralDistricts": [
          {
            "election": null,
            "id": 63,
            "name": "Mississauga—Lakeshore"
          }
        ],
        "pollDivisionIds": [
          10139751
        ],
        "postalCode": "L5G2A2",
        "streetName": "ATWATER",
        "streetDirectionId": null,
        "streetTypeId": "AVE",
        "placeName": "MISSISSAUGA",
        "streetNameDisplayText": "ATWATER AVE, MISSISSAUGA"
      }
    ]
  },
  {
    "postal": "L5G6A6",
    "result": []
  },
  {
    "postal": "L5G0S3",
    "result": []
  },
  {
    "postal": "L5G3E7",
    "result": [
      {
        "electoralDistricts": [
          {
            "election": null,
            "id": 63,
            "name": "Mississauga—Lakeshore"
          }
        ],
        "pollDivisionIds": [
          10139755
        ],
        "postalCode": "L5G3E7",
        "streetName": "HIGH",
        "streetDirectionId": "E",
        "streetTypeId": "ST",
        "placeName": "MISSISSAUGA",
        "streetNameDisplayText": "HIGH ST E, MISSISSAUGA"
      }
    ]
  },
  {
    "postal": "L5G5R7",
    "result": []
  },
  {
    "postal": "L5G3R6",
    "result": [
      {
        "electoralDistricts": [
          {
            "election": null,
            "id": 63,
            "name": "Mississauga—Lakeshore"
          }
        ],
        "pollDivisionIds": [
          10139753
        ],
        "postalCode": "L5G3R6",
        "streetName": "HIAWATHA",
        "streetDirectionId": null,
        "streetTypeId": "PKY",
        "placeName": "MISSISSAUGA",
        "streetNameDisplayText": "HIAWATHA PKY, MISSISSAUGA"
      }
    ]
  },
  {
    "postal": "L5G6K4",
    "result": []
  },
  {
    "postal": "L5G2W5",
    "result": [
      {
        "electoralDistricts": [
          {
            "election": null,
            "id": 63,
            "name": "Mississauga—Lakeshore"
          }
        ],
        "pollDivisionIds": [
          10139752
        ],
        "postalCode": "L5G2W5",
        "streetName": "BRACKENCREST",
        "streetDirectionId": null,
        "streetTypeId": "RD",
        "placeName": "MISSISSAUGA",
        "streetNameDisplayText": "BRACKENCREST RD, MISSISSAUGA"
      }
    ]
  },
  {
    "postal": "L5G8W4",
    "result": []
  },
  {
    "postal": "L5G9C2",
    "result": []
  },
  {
    "postal": "L5G2C0",
    "result": []
  },
  {
    "postal": "L5G0E1",
    "result": []
  },
  {
    "postal": "L5G1K9",
    "result": [
      {
        "electoralDistricts": [
          {
            "election": null,
            "id": 63,
            "name": "Mississauga—Lakeshore"
          }
        ],
        "pollDivisionIds": [
          10139753
        ],
        "postalCode": "L5G1K9",
        "streetName": "FOREST",
        "streetDirectionId": null,
        "streetTypeId": "AVE",
        "placeName": "MISSISSAUGA",
        "streetNameDisplayText": "FOREST AVE, MISSISSAUGA"
      }
    ]
  },
  {
    "postal": "L5G1G7",
    "result": [
      {
        "electoralDistricts": [
          {
            "election": null,
            "id": 63,
            "name": "Mississauga—Lakeshore"
          }
        ],
        "pollDivisionIds": [
          10139753
        ],
        "postalCode": "L5G1G7",
        "streetName": "LAKESHORE",
        "streetDirectionId": "E",
        "streetTypeId": "RD",
        "placeName": "MISSISSAUGA",
        "streetNameDisplayText": "LAKESHORE RD E, MISSISSAUGA"
      }
    ]
  },
  {
    "postal": "L5G4E9",
    "result": [
      {
        "electoralDistricts": [
          {
            "election": null,
            "id": 63,
            "name": "Mississauga—Lakeshore"
          }
        ],
        "pollDivisionIds": [
          10139751
        ],
        "postalCode": "L5G4E9",
        "streetName": "NORTHAVEN",
        "streetDirectionId": null,
        "streetTypeId": "DR",
        "placeName": "MISSISSAUGA",
        "streetNameDisplayText": "NORTHAVEN DR, MISSISSAUGA"
      }
    ]
  },
  {
    "postal": "L5G9P0",
    "result": []
  },
  {
    "postal": "L5G5H3",
    "result": []
  },
  {
    "postal": "L5G9X6",
    "result": []
  },
  {
    "postal": "L5G5N7",
    "result": []
  },
  {
    "postal": "L5G5A6",
    "result": []
  },
  {
    "postal": "L5G4M0",
    "result": []
  },
  {
    "postal": "L5G3V6",
    "result": [
      {
        "electoralDistricts": [
          {
            "election": null,
            "id": 63,
            "name": "Mississauga—Lakeshore"
          }
        ],
        "pollDivisionIds": [
          10139752
        ],
        "postalCode": "L5G3V6",
        "streetName": "LOCHLIN",
        "streetDirectionId": null,
        "streetTypeId": "TRAIL",
        "placeName": "MISSISSAUGA",
        "streetNameDisplayText": "LOCHLIN TRAIL, MISSISSAUGA"
      }
    ]
  },
  {
    "postal": "L5G1L7",
    "result": [
      {
        "electoralDistricts": [
          {
            "election": null,
            "id": 63,
            "name": "Mississauga—Lakeshore"
          }
        ],
        "pollDivisionIds": [
          10139755
        ],
        "postalCode": "L5G1L7",
        "streetName": "PARK",
        "streetDirectionId": "E",
        "streetTypeId": "ST",
        "placeName": "MISSISSAUGA",
        "streetNameDisplayText": "PARK ST E, MISSISSAUGA"
      }
    ]
  },
  {
    "postal": "L5G2P9",
    "result": []
  },
  {
    "postal": "L5G5T4",
    "result": []
  },
  {
    "postal": "L5G5Z1",
    "result": []
  },
  {
    "postal": "L5G2X0",
    "result": []
  },
  {
    "postal": "L5G6Z2",
    "result": []
  },
  {
    "postal": "L5G0E0",
    "result": []
  },
  {
    "postal": "L5G3Z5",
    "result": [
      {
        "electoralDistricts": [
          {
            "election": null,
            "id": 63,
            "name": "Mississauga—Lakeshore"
          }
        ],
        "pollDivisionIds": [
          10139753
        ],
        "postalCode": "L5G3Z5",
        "streetName": "SHAW",
        "streetDirectionId": null,
        "streetTypeId": "DR",
        "placeName": "MISSISSAUGA",
        "streetNameDisplayText": "SHAW DR, MISSISSAUGA"
      }
    ]
  },
  {
    "postal": "L5G8H3",
    "result": []
  },
  {
    "postal": "L5G7S6",
    "result": []
  },
  {
    "postal": "L5G4C1",
    "result": [
      {
        "electoralDistricts": [
          {
            "election": null,
            "id": 63,
            "name": "Mississauga—Lakeshore"
          }
        ],
        "pollDivisionIds": [
          10139752
        ],
        "postalCode": "L5G4C1",
        "streetName": "LEDA",
        "streetDirectionId": null,
        "streetTypeId": "AVE",
        "placeName": "MISSISSAUGA",
        "streetNameDisplayText": "LEDA AVE, MISSISSAUGA"
      }
    ]
  },
  {
    "postal": "L5G3K2",
    "result": [
      {
        "electoralDistricts": [
          {
            "election": null,
            "id": 63,
            "name": "Mississauga—Lakeshore"
          }
        ],
        "pollDivisionIds": [
          10139752
        ],
        "postalCode": "L5G3K2",
        "streetName": "WILSON",
        "streetDirectionId": null,
        "streetTypeId": "AVE",
        "placeName": "MISSISSAUGA",
        "streetNameDisplayText": "WILSON AVE, MISSISSAUGA"
      }
    ]
  },
  {
    "postal": "L5G1Y5",
    "result": [
      {
        "electoralDistricts": [
          {
            "election": null,
            "id": 63,
            "name": "Mississauga—Lakeshore"
          }
        ],
        "pollDivisionIds": [
          10139751
        ],
        "postalCode": "L5G1Y5",
        "streetName": "JUMNA",
        "streetDirectionId": null,
        "streetTypeId": "AVE",
        "placeName": "MISSISSAUGA",
        "streetNameDisplayText": "JUMNA AVE, MISSISSAUGA"
      }
    ]
  },
  {
    "postal": "L5G6P6",
    "result": []
  },
  {
    "postal": "L5G3N9",
    "result": [
      {
        "electoralDistricts": [
          {
            "election": null,
            "id": 63,
            "name": "Mississauga—Lakeshore"
          }
        ],
        "pollDivisionIds": [
          10139753
        ],
        "postalCode": "L5G3N9",
        "streetName": "BRANT",
        "streetDirectionId": null,
        "streetTypeId": "AVE",
        "placeName": "MISSISSAUGA",
        "streetNameDisplayText": "BRANT AVE, MISSISSAUGA"
      }
    ]
  },
  {
    "postal": "L5G3W2",
    "result": [
      {
        "electoralDistricts": [
          {
            "election": null,
            "id": 63,
            "name": "Mississauga—Lakeshore"
          }
        ],
        "pollDivisionIds": [
          10139753
        ],
        "postalCode": "L5G3W2",
        "streetName": "WENONAH",
        "streetDirectionId": null,
        "streetTypeId": "DR",
        "placeName": "MISSISSAUGA",
        "streetNameDisplayText": "WENONAH DR, MISSISSAUGA"
      }
    ]
  },
  {
    "postal": "L5G6H8",
    "result": []
  },
  {
    "postal": "L5G9T3",
    "result": []
  },
  {
    "postal": "L5G5L9",
    "result": []
  },
  {
    "postal": "L5G7X7",
    "result": []
  },
  {
    "postal": "L5G3J5",
    "result": [
      {
        "electoralDistricts": [
          {
            "election": null,
            "id": 63,
            "name": "Mississauga—Lakeshore"
          }
        ],
        "pollDivisionIds": [
          10139752
        ],
        "postalCode": "L5G3J5",
        "streetName": "HOLLYROOD",
        "streetDirectionId": null,
        "streetTypeId": "AVE",
        "placeName": "MISSISSAUGA",
        "streetNameDisplayText": "HOLLYROOD AVE, MISSISSAUGA"
      }
    ]
  },
  {
    "postal": "L5G4J5",
    "result": [
      {
        "electoralDistricts": [
          {
            "election": null,
            "id": 63,
            "name": "Mississauga—Lakeshore"
          }
        ],
        "pollDivisionIds": [
          10139753
        ],
        "postalCode": "L5G4J5",
        "streetName": "CAVEN",
        "streetDirectionId": null,
        "streetTypeId": "ST",
        "placeName": "MISSISSAUGA",
        "streetNameDisplayText": "CAVEN ST, MISSISSAUGA"
      }
    ]
  },
  {
    "postal": "L5G6J2",
    "result": []
  },
  {
    "postal": "L5G5V6",
    "result": []
  },
  {
    "postal": "L5G3N2",
    "result": [
      {
        "electoralDistricts": [
          {
            "election": null,
            "id": 63,
            "name": "Mississauga—Lakeshore"
          }
        ],
        "pollDivisionIds": [
          10139753
        ],
        "postalCode": "L5G3N2",
        "streetName": "CUMBERLAND",
        "streetDirectionId": null,
        "streetTypeId": "DR",
        "placeName": "MISSISSAUGA",
        "streetNameDisplayText": "CUMBERLAND DR, MISSISSAUGA"
      }
    ]
  },
  {
    "postal": "L5G3B1",
    "result": []
  },
  {
    "postal": "L5G8B5",
    "result": []
  },
  {
    "postal": "L5G0K1",
    "result": []
  },
  {
    "postal": "L5G7M7",
    "result": []
  },
  {
    "postal": "L5G2M2",
    "result": [
      {
        "electoralDistricts": [
          {
            "election": null,
            "id": 63,
            "name": "Mississauga—Lakeshore"
          }
        ],
        "pollDivisionIds": [
          10139751
        ],
        "postalCode": "L5G2M2",
        "streetName": "LYND",
        "streetDirectionId": null,
        "streetTypeId": "AVE",
        "placeName": "MISSISSAUGA",
        "streetNameDisplayText": "LYND AVE, MISSISSAUGA"
      }
    ]
  },
  {
    "postal": "L5G9N3",
    "result": []
  },
  {
    "postal": "L5G4Y8",
    "result": []
  },
  {
    "postal": "L5G3V7",
    "result": [
      {
        "electoralDistricts": [
          {
            "election": null,
            "id": 63,
            "name": "Mississauga—Lakeshore"
          }
        ],
        "pollDivisionIds": [
          10139752
        ],
        "postalCode": "L5G3V7",
        "streetName": "LOCHLIN",
        "streetDirectionId": null,
        "streetTypeId": "TRAIL",
        "placeName": "MISSISSAUGA",
        "streetNameDisplayText": "LOCHLIN TRAIL, MISSISSAUGA"
      }
    ]
  },
  {
    "postal": "L5G8Z1",
    "result": []
  },
  {
    "postal": "L5G7B3",
    "result": []
  },
  {
    "postal": "L5G3A8",
    "result": [
      {
        "electoralDistricts": [
          {
            "election": null,
            "id": 63,
            "name": "Mississauga—Lakeshore"
          }
        ],
        "pollDivisionIds": [
          10139755
        ],
        "postalCode": "L5G3A8",
        "streetName": "HELENE",
        "streetDirectionId": "S",
        "streetTypeId": "ST",
        "placeName": "MISSISSAUGA",
        "streetNameDisplayText": "HELENE ST S, MISSISSAUGA"
      }
    ]
  },
  {
    "postal": "L5G7V5",
    "result": []
  },
  {
    "postal": "L5G2T2",
    "result": [
      {
        "electoralDistricts": [
          {
            "election": null,
            "id": 63,
            "name": "Mississauga—Lakeshore"
          }
        ],
        "pollDivisionIds": [
          10139755
        ],
        "postalCode": "L5G2T2",
        "streetName": "STAVEBANK",
        "streetDirectionId": "S",
        "streetTypeId": "RD",
        "placeName": "MISSISSAUGA",
        "streetNameDisplayText": "STAVEBANK RD S, MISSISSAUGA"
      }
    ]
  },
  {
    "postal": "L5G6L3",
    "result": []
  },
  {
    "postal": "L5G0L2",
    "result": []
  },
  {
    "postal": "L5G5Y8",
    "result": []
  },
  {
    "postal": "L5G0B8",
    "result": []
  },
  {
    "postal": "L5G6R5",
    "result": []
  },
  {
    "postal": "L5G8W6",
    "result": []
  },
  {
    "postal": "L5G8G6",
    "result": []
  },
  {
    "postal": "L5G6X3",
    "result": []
  },
  {
    "postal": "L5G7R7",
    "result": []
  },
  {
    "postal": "L5G4B6",
    "result": [
      {
        "electoralDistricts": [
          {
            "election": null,
            "id": 63,
            "name": "Mississauga—Lakeshore"
          }
        ],
        "pollDivisionIds": [
          10139752
        ],
        "postalCode": "L5G4B6",
        "streetName": "KENMUIR",
        "streetDirectionId": null,
        "streetTypeId": "AVE",
        "placeName": "MISSISSAUGA",
        "streetNameDisplayText": "KENMUIR AVE, MISSISSAUGA"
      }
    ]
  },
  {
    "postal": "L5G3P9",
    "result": []
  },
  {
    "postal": "L5G2T3",
    "result": [
      {
        "electoralDistricts": [
          {
            "election": null,
            "id": 63,
            "name": "Mississauga—Lakeshore"
          }
        ],
        "pollDivisionIds": [
          10139755
        ],
        "postalCode": "L5G2T3",
        "streetName": "STAVEBANK",
        "streetDirectionId": null,
        "streetTypeId": "RD",
        "placeName": "MISSISSAUGA",
        "streetNameDisplayText": "STAVEBANK RD, MISSISSAUGA"
      }
    ]
  },
  {
    "postal": "L5G1M4",
    "result": [
      {
        "electoralDistricts": [
          {
            "election": null,
            "id": 63,
            "name": "Mississauga—Lakeshore"
          }
        ],
        "pollDivisionIds": [
          10139755
        ],
        "postalCode": "L5G1M4",
        "streetName": "PARK",
        "streetDirectionId": "E",
        "streetTypeId": "ST",
        "placeName": "MISSISSAUGA",
        "streetNameDisplayText": "PARK ST E, MISSISSAUGA"
      }
    ]
  },
  {
    "postal": "L5G0H1",
    "result": []
  },
  {
    "postal": "L5G9W3",
    "result": []
  },
  {
    "postal": "L5G6P1",
    "result": []
  },
  {
    "postal": "L5G7G2",
    "result": []
  },
  {
    "postal": "L5G4J9",
    "result": [
      {
        "electoralDistricts": [
          {
            "election": null,
            "id": 63,
            "name": "Mississauga—Lakeshore"
          }
        ],
        "pollDivisionIds": [
          10139753
        ],
        "postalCode": "L5G4J9",
        "streetName": "GOODWIN",
        "streetDirectionId": null,
        "streetTypeId": "RD",
        "placeName": "MISSISSAUGA",
        "streetNameDisplayText": "GOODWIN RD, MISSISSAUGA"
      }
    ]
  },
  {
    "postal": "L5G9E4",
    "result": []
  },
  {
    "postal": "L5G8H0",
    "result": []
  },
  {
    "postal": "L5G4M7",
    "result": []
  },
  {
    "postal": "L5G2G9",
    "result": [
      {
        "electoralDistricts": [
          {
            "election": null,
            "id": 63,
            "name": "Mississauga—Lakeshore"
          }
        ],
        "pollDivisionIds": [
          10139752
        ],
        "postalCode": "L5G2G9",
        "streetName": "WILLA",
        "streetDirectionId": null,
        "streetTypeId": "RD",
        "placeName": "MISSISSAUGA",
        "streetNameDisplayText": "WILLA RD, MISSISSAUGA"
      }
    ]
  },
  {
    "postal": "L5G8T2",
    "result": []
  },
  {
    "postal": "L5G7G7",
    "result": []
  },
  {
    "postal": "L5G4Z3",
    "result": []
  },
  {
    "postal": "L5G5B3",
    "result": []
  },
  {
    "postal": "L5G1S7",
    "result": [
      {
        "electoralDistricts": [
          {
            "election": null,
            "id": 63,
            "name": "Mississauga—Lakeshore"
          }
        ],
        "pollDivisionIds": [
          10139751
        ],
        "postalCode": "L5G1S7",
        "streetName": "TROY",
        "streetDirectionId": null,
        "streetTypeId": "ST",
        "placeName": "MISSISSAUGA",
        "streetNameDisplayText": "TROY ST, MISSISSAUGA"
      }
    ]
  },
  {
    "postal": "L5G2N7",
    "result": [
      {
        "electoralDistricts": [
          {
            "election": null,
            "id": 63,
            "name": "Mississauga—Lakeshore"
          }
        ],
        "pollDivisionIds": [
          10139752
        ],
        "postalCode": "L5G2N7",
        "streetName": "GLENVIEW",
        "streetDirectionId": null,
        "streetTypeId": "DR",
        "placeName": "MISSISSAUGA",
        "streetNameDisplayText": "GLENVIEW DR, MISSISSAUGA"
      }
    ]
  },
  {
    "postal": "L5G0H8",
    "result": []
  },
  {
    "postal": "L5G7Z4",
    "result": []
  },
  {
    "postal": "L5G7B1",
    "result": []
  },
  {
    "postal": "L5G7P8",
    "result": []
  },
  {
    "postal": "L5G7N0",
    "result": []
  },
  {
    "postal": "L5G3Y5",
    "result": [
      {
        "electoralDistricts": [
          {
            "election": null,
            "id": 63,
            "name": "Mississauga—Lakeshore"
          }
        ],
        "pollDivisionIds": [
          10139752
        ],
        "postalCode": "L5G3Y5",
        "streetName": "MINEOLA",
        "streetDirectionId": null,
        "streetTypeId": "GDNS",
        "placeName": "MISSISSAUGA",
        "streetNameDisplayText": "MINEOLA GDNS, MISSISSAUGA"
      }
    ]
  },
  {
    "postal": "L5G6K1",
    "result": []
  },
  {
    "postal": "L5G9X5",
    "result": []
  },
  {
    "postal": "L5G7S5",
    "result": []
  },
  {
    "postal": "L5G0A4",
    "result": []
  },
  {
    "postal": "L5G4T5",
    "result": []
  },
  {
    "postal": "L5G5K1",
    "result": []
  },
  {
    "postal": "L5G0Z9",
    "result": []
  },
  {
    "postal": "L5G7T2",
    "result": []
  },
  {
    "postal": "L5G1L5",
    "result": [
      {
        "electoralDistricts": [
          {
            "election": null,
            "id": 63,
            "name": "Mississauga—Lakeshore"
          }
        ],
        "pollDivisionIds": [
          10139755,
          10139756
        ],
        "postalCode": "L5G1L5",
        "streetName": "PARK",
        "streetDirectionId": "E",
        "streetTypeId": "ST",
        "placeName": "MISSISSAUGA",
        "streetNameDisplayText": "PARK ST E, MISSISSAUGA"
      }
    ]
  },
  {
    "postal": "L5G3N5",
    "result": [
      {
        "electoralDistricts": [
          {
            "election": null,
            "id": 63,
            "name": "Mississauga—Lakeshore"
          }
        ],
        "pollDivisionIds": [
          10139753
        ],
        "postalCode": "L5G3N5",
        "streetName": "BRIARWOOD",
        "streetDirectionId": null,
        "streetTypeId": "AVE",
        "placeName": "MISSISSAUGA",
        "streetNameDisplayText": "BRIARWOOD AVE, MISSISSAUGA"
      }
    ]
  },
  {
    "postal": "L5G6H4",
    "result": []
  },
  {
    "postal": "L5G5A5",
    "result": []
  },
  {
    "postal": "L5G3R9",
    "result": [
      {
        "electoralDistricts": [
          {
            "election": null,
            "id": 63,
            "name": "Mississauga—Lakeshore"
          }
        ],
        "pollDivisionIds": [
          10139753
        ],
        "postalCode": "L5G3R9",
        "streetName": "HIAWATHA",
        "streetDirectionId": null,
        "streetTypeId": "PKY",
        "placeName": "MISSISSAUGA",
        "streetNameDisplayText": "HIAWATHA PKY, MISSISSAUGA"
      }
    ]
  },
  {
    "postal": "L5G7L8",
    "result": []
  },
  {
    "postal": "L5G6T6",
    "result": []
  },
  {
    "postal": "L5G7Y7",
    "result": []
  },
  {
    "postal": "L5G3M8",
    "result": [
      {
        "electoralDistricts": [
          {
            "election": null,
            "id": 63,
            "name": "Mississauga—Lakeshore"
          }
        ],
        "pollDivisionIds": [
          10139753
        ],
        "postalCode": "L5G3M8",
        "streetName": "CUMBERLAND",
        "streetDirectionId": null,
        "streetTypeId": "DR",
        "placeName": "MISSISSAUGA",
        "streetNameDisplayText": "CUMBERLAND DR, MISSISSAUGA"
      }
    ]
  },
  {
    "postal": "L5G2E0",
    "result": []
  },
  {
    "postal": "L5G4B5",
    "result": [
      {
        "electoralDistricts": [
          {
            "election": null,
            "id": 63,
            "name": "Mississauga—Lakeshore"
          }
        ],
        "pollDivisionIds": [
          10139752
        ],
        "postalCode": "L5G4B5",
        "streetName": "KENMUIR",
        "streetDirectionId": null,
        "streetTypeId": "AVE",
        "placeName": "MISSISSAUGA",
        "streetNameDisplayText": "KENMUIR AVE, MISSISSAUGA"
      }
    ]
  },
  {
    "postal": "L5G1J3",
    "result": [
      {
        "electoralDistricts": [
          {
            "election": null,
            "id": 63,
            "name": "Mississauga—Lakeshore"
          }
        ],
        "pollDivisionIds": [
          10139753
        ],
        "postalCode": "L5G1J3",
        "streetName": "LAKESHORE",
        "streetDirectionId": "E",
        "streetTypeId": "RD",
        "placeName": "MISSISSAUGA",
        "streetNameDisplayText": "LAKESHORE RD E, MISSISSAUGA"
      }
    ]
  },
  {
    "postal": "L5G5S6",
    "result": []
  },
  {
    "postal": "L5G8P7",
    "result": []
  },
  {
    "postal": "L5G7S7",
    "result": []
  },
  {
    "postal": "L5G4C2",
    "result": [
      {
        "electoralDistricts": [
          {
            "election": null,
            "id": 63,
            "name": "Mississauga—Lakeshore"
          }
        ],
        "pollDivisionIds": [
          10139752
        ],
        "postalCode": "L5G4C2",
        "streetName": "LEDA",
        "streetDirectionId": null,
        "streetTypeId": "AVE",
        "placeName": "MISSISSAUGA",
        "streetNameDisplayText": "LEDA AVE, MISSISSAUGA"
      }
    ]
  },
  {
    "postal": "L5G5Y0",
    "result": []
  },
  {
    "postal": "L5G2V7",
    "result": [
      {
        "electoralDistricts": [
          {
            "election": null,
            "id": 63,
            "name": "Mississauga—Lakeshore"
          }
        ],
        "pollDivisionIds": [
          10139752
        ],
        "postalCode": "L5G2V7",
        "streetName": "STAVEBANK",
        "streetDirectionId": null,
        "streetTypeId": "RD",
        "placeName": "MISSISSAUGA",
        "streetNameDisplayText": "STAVEBANK RD, MISSISSAUGA"
      }
    ]
  },
  {
    "postal": "L5G8P5",
    "result": []
  },
  {
    "postal": "L5G5P5",
    "result": []
  },
  {
    "postal": "L5G5Z0",
    "result": []
  },
  {
    "postal": "L5G9B0",
    "result": []
  },
  {
    "postal": "L5G1L0",
    "result": []
  },
  {
    "postal": "L5G0B5",
    "result": [
      {
        "electoralDistricts": [
          {
            "election": null,
            "id": 63,
            "name": "Mississauga—Lakeshore"
          }
        ],
        "pollDivisionIds": [
          10139753
        ],
        "postalCode": "L5G0B5",
        "streetName": "BEACHCOMBER",
        "streetDirectionId": null,
        "streetTypeId": "RD",
        "placeName": "MISSISSAUGA",
        "streetNameDisplayText": "BEACHCOMBER RD, MISSISSAUGA"
      }
    ]
  },
  {
    "postal": "L5G3L2",
    "result": [
      {
        "electoralDistricts": [
          {
            "election": null,
            "id": 63,
            "name": "Mississauga—Lakeshore"
          }
        ],
        "pollDivisionIds": [
          10139753
        ],
        "postalCode": "L5G3L2",
        "streetName": "OAKWOOD",
        "streetDirectionId": "S",
        "streetTypeId": "AVE",
        "placeName": "MISSISSAUGA",
        "streetNameDisplayText": "OAKWOOD AVE S, MISSISSAUGA"
      }
    ]
  },
  {
    "postal": "L5G3B7",
    "result": [
      {
        "electoralDistricts": [
          {
            "election": null,
            "id": 63,
            "name": "Mississauga—Lakeshore"
          }
        ],
        "pollDivisionIds": [
          10139755
        ],
        "postalCode": "L5G3B7",
        "streetName": "HELENE",
        "streetDirectionId": "N",
        "streetTypeId": "ST",
        "placeName": "MISSISSAUGA",
        "streetNameDisplayText": "HELENE ST N, MISSISSAUGA"
      }
    ]
  },
  {
    "postal": "L5G8L1",
    "result": []
  },
  {
    "postal": "L5G5M4",
    "result": []
  },
  {
    "postal": "L5G4G9",
    "result": [
      {
        "electoralDistricts": [
          {
            "election": null,
            "id": 63,
            "name": "Mississauga—Lakeshore"
          }
        ],
        "pollDivisionIds": [
          10139752
        ],
        "postalCode": "L5G4G9",
        "streetName": "RADCLIFFE",
        "streetDirectionId": null,
        "streetTypeId": "BLVD",
        "placeName": "MISSISSAUGA",
        "streetNameDisplayText": "RADCLIFFE BLVD, MISSISSAUGA"
      }
    ]
  },
  {
    "postal": "L5G0P0",
    "result": []
  },
  {
    "postal": "L5G8G2",
    "result": []
  },
  {
    "postal": "L5G1V9",
    "result": [
      {
        "electoralDistricts": [
          {
            "election": null,
            "id": 63,
            "name": "Mississauga—Lakeshore"
          }
        ],
        "pollDivisionIds": [
          10139751
        ],
        "postalCode": "L5G1V9",
        "streetName": "EAGLEWOOD",
        "streetDirectionId": null,
        "streetTypeId": "BLVD",
        "placeName": "MISSISSAUGA",
        "streetNameDisplayText": "EAGLEWOOD BLVD, MISSISSAUGA"
      }
    ]
  },
  {
    "postal": "L5G8N8",
    "result": []
  },
  {
    "postal": "L5G6S8",
    "result": []
  },
  {
    "postal": "L5G8H2",
    "result": []
  },
  {
    "postal": "L5G5R8",
    "result": []
  },
  {
    "postal": "L5G5L4",
    "result": []
  },
  {
    "postal": "L5G9E1",
    "result": []
  },
  {
    "postal": "L5G1C4",
    "result": [
      {
        "electoralDistricts": [
          {
            "election": null,
            "id": 63,
            "name": "Mississauga—Lakeshore"
          }
        ],
        "pollDivisionIds": [
          10139753
        ],
        "postalCode": "L5G1C4",
        "streetName": "MINNEWAWA",
        "streetDirectionId": null,
        "streetTypeId": "RD",
        "placeName": "MISSISSAUGA",
        "streetNameDisplayText": "MINNEWAWA RD, MISSISSAUGA"
      }
    ]
  },
  {
    "postal": "L5G8W5",
    "result": []
  },
  {
    "postal": "L5G1Y4",
    "result": [
      {
        "electoralDistricts": [
          {
            "election": null,
            "id": 63,
            "name": "Mississauga—Lakeshore"
          }
        ],
        "pollDivisionIds": [
          10139751
        ],
        "postalCode": "L5G1Y4",
        "streetName": "JUMNA",
        "streetDirectionId": null,
        "streetTypeId": "AVE",
        "placeName": "MISSISSAUGA",
        "streetNameDisplayText": "JUMNA AVE, MISSISSAUGA"
      }
    ]
  },
  {
    "postal": "L5G1C0",
    "result": []
  },
  {
    "postal": "L5G2J2",
    "result": [
      {
        "electoralDistricts": [
          {
            "election": null,
            "id": 63,
            "name": "Mississauga—Lakeshore"
          }
        ],
        "pollDivisionIds": [
          10139752
        ],
        "postalCode": "L5G2J2",
        "streetName": "KENOLLIE",
        "streetDirectionId": null,
        "streetTypeId": "AVE",
        "placeName": "MISSISSAUGA",
        "streetNameDisplayText": "KENOLLIE AVE, MISSISSAUGA"
      }
    ]
  },
  {
    "postal": "L5G2J0",
    "result": []
  },
  {
    "postal": "L5G7A3",
    "result": []
  },
  {
    "postal": "L5G8M1",
    "result": []
  },
  {
    "postal": "L5G7T9",
    "result": []
  },
  {
    "postal": "L5G6C0",
    "result": []
  },
  {
    "postal": "L5G7X1",
    "result": []
  },
  {
    "postal": "L5G0G1",
    "result": []
  },
  {
    "postal": "L5G4X2",
    "result": []
  },
  {
    "postal": "L5G0N6",
    "result": []
  },
  {
    "postal": "L5G8E3",
    "result": []
  },
  {
    "postal": "L5G5S8",
    "result": []
  },
  {
    "postal": "L5G0R0",
    "result": []
  },
  {
    "postal": "L5G6J6",
    "result": []
  },
  {
    "postal": "L5G4B4",
    "result": [
      {
        "electoralDistricts": [
          {
            "election": null,
            "id": 63,
            "name": "Mississauga—Lakeshore"
          }
        ],
        "pollDivisionIds": [
          10139751
        ],
        "postalCode": "L5G4B4",
        "streetName": "KENMUIR",
        "streetDirectionId": null,
        "streetTypeId": "AVE",
        "placeName": "MISSISSAUGA",
        "streetNameDisplayText": "KENMUIR AVE, MISSISSAUGA"
      }
    ]
  },
  {
    "postal": "L5G7E3",
    "result": []
  },
  {
    "postal": "L5G3N6",
    "result": [
      {
        "electoralDistricts": [
          {
            "election": null,
            "id": 63,
            "name": "Mississauga—Lakeshore"
          }
        ],
        "pollDivisionIds": [
          10139753
        ],
        "postalCode": "L5G3N6",
        "streetName": "BRIARWOOD",
        "streetDirectionId": null,
        "streetTypeId": "AVE",
        "placeName": "MISSISSAUGA",
        "streetNameDisplayText": "BRIARWOOD AVE, MISSISSAUGA"
      }
    ]
  },
  {
    "postal": "L5G3X6",
    "result": [
      {
        "electoralDistricts": [
          {
            "election": null,
            "id": 63,
            "name": "Mississauga—Lakeshore"
          }
        ],
        "pollDivisionIds": [
          10139753
        ],
        "postalCode": "L5G3X6",
        "streetName": "SENECA",
        "streetDirectionId": null,
        "streetTypeId": "AVE",
        "placeName": "MISSISSAUGA",
        "streetNameDisplayText": "SENECA AVE, MISSISSAUGA"
      }
    ]
  },
  {
    "postal": "L5G8L0",
    "result": []
  },
  {
    "postal": "L5G8N1",
    "result": []
  },
  {
    "postal": "L5G4J0",
    "result": []
  },
  {
    "postal": "L5G0X7",
    "result": []
  },
  {
    "postal": "L5G6S4",
    "result": []
  },
  {
    "postal": "L5G0Z0",
    "result": []
  },
  {
    "postal": "L5G9X8",
    "result": []
  },
  {
    "postal": "L5G3H3",
    "result": [
      {
        "electoralDistricts": [
          {
            "election": null,
            "id": 63,
            "name": "Mississauga—Lakeshore"
          }
        ],
        "pollDivisionIds": [
          10139755
        ],
        "postalCode": "L5G3H3",
        "streetName": "HURONTARIO",
        "streetDirectionId": null,
        "streetTypeId": "ST",
        "placeName": "MISSISSAUGA",
        "streetNameDisplayText": "HURONTARIO ST, MISSISSAUGA"
      }
    ]
  },
  {
    "postal": "L5G7S2",
    "result": []
  },
  {
    "postal": "L5G3T3",
    "result": [
      {
        "electoralDistricts": [
          {
            "election": null,
            "id": 63,
            "name": "Mississauga—Lakeshore"
          }
        ],
        "pollDivisionIds": [
          10139752
        ],
        "postalCode": "L5G3T3",
        "streetName": "BROADMOOR",
        "streetDirectionId": null,
        "streetTypeId": "AVE",
        "placeName": "MISSISSAUGA",
        "streetNameDisplayText": "BROADMOOR AVE, MISSISSAUGA"
      }
    ]
  },
  {
    "postal": "L5G9P3",
    "result": []
  },
  {
    "postal": "L5G4H8",
    "result": [
      {
        "electoralDistricts": [
          {
            "election": null,
            "id": 63,
            "name": "Mississauga—Lakeshore"
          }
        ],
        "pollDivisionIds": [
          10139753
        ],
        "postalCode": "L5G4H8",
        "streetName": "AVIATION",
        "streetDirectionId": null,
        "streetTypeId": "RD",
        "placeName": "MISSISSAUGA",
        "streetNameDisplayText": "AVIATION RD, MISSISSAUGA"
      }
    ]
  },
  {
    "postal": "L5G6R1",
    "result": []
  },
  {
    "postal": "L5G1S0",
    "result": []
  },
  {
    "postal": "L5G3W8",
    "result": [
      {
        "electoralDistricts": [
          {
            "election": null,
            "id": 63,
            "name": "Mississauga—Lakeshore"
          }
        ],
        "pollDivisionIds": [
          10139752
        ],
        "postalCode": "L5G3W8",
        "streetName": "ELAINE",
        "streetDirectionId": null,
        "streetTypeId": "TRAIL",
        "placeName": "MISSISSAUGA",
        "streetNameDisplayText": "ELAINE TRAIL, MISSISSAUGA"
      }
    ]
  },
  {
    "postal": "L5G4S3",
    "result": []
  },
  {
    "postal": "L5G1B6",
    "result": [
      {
        "electoralDistricts": [
          {
            "election": null,
            "id": 63,
            "name": "Mississauga—Lakeshore"
          }
        ],
        "pollDivisionIds": [
          10139753
        ],
        "postalCode": "L5G1B6",
        "streetName": "WANITA",
        "streetDirectionId": null,
        "streetTypeId": "RD",
        "placeName": "MISSISSAUGA",
        "streetNameDisplayText": "WANITA RD, MISSISSAUGA"
      }
    ]
  },
  {
    "postal": "L5G8R3",
    "result": []
  },
  {
    "postal": "L5G4V9",
    "result": []
  },
  {
    "postal": "L5G9W4",
    "result": []
  },
  {
    "postal": "L5G3T4",
    "result": [
      {
        "electoralDistricts": [
          {
            "election": null,
            "id": 63,
            "name": "Mississauga—Lakeshore"
          }
        ],
        "pollDivisionIds": [
          10139751
        ],
        "postalCode": "L5G3T4",
        "streetName": "BROADMOOR",
        "streetDirectionId": null,
        "streetTypeId": "AVE",
        "placeName": "MISSISSAUGA",
        "streetNameDisplayText": "BROADMOOR AVE, MISSISSAUGA"
      }
    ]
  },
  {
    "postal": "L5G5C7",
    "result": []
  },
  {
    "postal": "L5G3Y1",
    "result": [
      {
        "electoralDistricts": [
          {
            "election": null,
            "id": 63,
            "name": "Mississauga—Lakeshore"
          }
        ],
        "pollDivisionIds": [
          10139751
        ],
        "postalCode": "L5G3Y1",
        "streetName": "MINEOLA",
        "streetDirectionId": null,
        "streetTypeId": "GDNS",
        "placeName": "MISSISSAUGA",
        "streetNameDisplayText": "MINEOLA GDNS, MISSISSAUGA"
      }
    ]
  },
  {
    "postal": "L5G5V0",
    "result": []
  },
  {
    "postal": "L5G8G8",
    "result": []
  },
  {
    "postal": "L5G8B1",
    "result": []
  },
  {
    "postal": "L5G4P5",
    "result": [
      {
        "electoralDistricts": [
          {
            "election": null,
            "id": 63,
            "name": "Mississauga—Lakeshore"
          }
        ],
        "pollDivisionIds": [
          10139753
        ],
        "postalCode": "L5G4P5",
        "streetName": "ENOLA",
        "streetDirectionId": null,
        "streetTypeId": "AVE",
        "placeName": "MISSISSAUGA",
        "streetNameDisplayText": "ENOLA AVE, MISSISSAUGA"
      }
    ]
  },
  {
    "postal": "L5G7B2",
    "result": []
  },
  {
    "postal": "L5G0R2",
    "result": []
  },
  {
    "postal": "L5G4M4",
    "result": []
  },
  {
    "postal": "L5G7M4",
    "result": []
  },
  {
    "postal": "L5G9S7",
    "result": []
  },
  {
    "postal": "L5G5Z7",
    "result": []
  },
  {
    "postal": "L5G7J7",
    "result": []
  },
  {
    "postal": "L5G8R8",
    "result": []
  },
  {
    "postal": "L5G9X1",
    "result": []
  },
  {
    "postal": "L5G5M9",
    "result": []
  },
  {
    "postal": "L5G9B4",
    "result": []
  },
  {
    "postal": "L5G0L9",
    "result": []
  },
  {
    "postal": "L5G9G4",
    "result": []
  },
  {
    "postal": "L5G1J4",
    "result": [
      {
        "electoralDistricts": [
          {
            "election": null,
            "id": 63,
            "name": "Mississauga—Lakeshore"
          }
        ],
        "pollDivisionIds": [
          10139753
        ],
        "postalCode": "L5G1J4",
        "streetName": "LAKESHORE",
        "streetDirectionId": "E",
        "streetTypeId": "RD",
        "placeName": "MISSISSAUGA",
        "streetNameDisplayText": "LAKESHORE RD E, MISSISSAUGA"
      }
    ]
  },
  {
    "postal": "L5G0W6",
    "result": []
  }
]
