[
  {
    "postal": "M2N9J6",
    "result": []
  },
  {
    "postal": "M2N9Z5",
    "result": []
  },
  {
    "postal": "M2N7H8",
    "result": []
  },
  {
    "postal": "M2N0P6",
    "result": []
  },
  {
    "postal": "M2N0S7",
    "result": []
  },
  {
    "postal": "M2N8B9",
    "result": []
  },
  {
    "postal": "M2N2A6",
    "result": [
      {
        "electoralDistricts": [
          {
            "election": null,
            "id": 117,
            "name": "Willowdale"
          }
        ],
        "pollDivisionIds": [
          10142612
        ],
        "postalCode": "M2N2A6",
        "streetName": "HORSHAM",
        "streetDirectionId": null,
        "streetTypeId": "AVE",
        "placeName": "NORTH YORK",
        "streetNameDisplayText": "HORSHAM AVE, NORTH YORK"
      }
    ]
  },
  {
    "postal": "M2N7V2",
    "result": []
  },
  {
    "postal": "M2N9P4",
    "result": []
  },
  {
    "postal": "M2N6G0",
    "result": []
  },
  {
    "postal": "M2N2K0",
    "result": []
  },
  {
    "postal": "M2N7N6",
    "result": []
  },
  {
    "postal": "M2N5R3",
    "result": [
      {
        "electoralDistricts": [
          {
            "election": null,
            "id": 117,
            "name": "Willowdale"
          }
        ],
        "pollDivisionIds": [
          10142614
        ],
        "postalCode": "M2N5R3",
        "streetName": "YONGE",
        "streetDirectionId": null,
        "streetTypeId": "ST",
        "placeName": "NORTH YORK",
        "streetNameDisplayText": "YONGE ST, NORTH YORK"
      }
    ]
  },
  {
    "postal": "M2N7K0",
    "result": []
  },
  {
    "postal": "M2N3R2",
    "result": [
      {
        "electoralDistricts": [
          {
            "election": null,
            "id": 117,
            "name": "Willowdale"
          }
        ],
        "pollDivisionIds": [
          10142616
        ],
        "postalCode": "M2N3R2",
        "streetName": "HILLCREST",
        "streetDirectionId": null,
        "streetTypeId": "AVE",
        "placeName": "NORTH YORK",
        "streetNameDisplayText": "HILLCREST AVE, NORTH YORK"
      }
    ]
  },
  {
    "postal": "M2N0J1",
    "result": []
  },
  {
    "postal": "M2N0B0",
    "result": []
  },
  {
    "postal": "M2N5Z2",
    "result": [
      {
        "electoralDistricts": [
          {
            "election": null,
            "id": 117,
            "name": "Willowdale"
          }
        ],
        "pollDivisionIds": [
          10142616
        ],
        "postalCode": "M2N5Z2",
        "streetName": "TEXAS ROSEWAY",
        "streetDirectionId": null,
        "streetTypeId": "WAY",
        "placeName": "NORTH YORK",
        "streetNameDisplayText": "TEXAS ROSEWAY WAY, NORTH YORK"
      }
    ]
  },
  {
    "postal": "M2N7P3",
    "result": []
  },
  {
    "postal": "M2N2K3",
    "result": [
      {
        "electoralDistricts": [
          {
            "election": null,
            "id": 117,
            "name": "Willowdale"
          }
        ],
        "pollDivisionIds": [
          10142619
        ],
        "postalCode": "M2N2K3",
        "streetName": "WALKER",
        "streetDirectionId": null,
        "streetTypeId": "RD",
        "placeName": "NORTH YORK",
        "streetNameDisplayText": "WALKER RD, NORTH YORK"
      }
    ]
  },
  {
    "postal": "M2N7Y6",
    "result": []
  },
  {
    "postal": "M2N1L9",
    "result": []
  },
  {
    "postal": "M2N8T0",
    "result": []
  },
  {
    "postal": "M2N3K8",
    "result": [
      {
        "electoralDistricts": [
          {
            "election": null,
            "id": 117,
            "name": "Willowdale"
          }
        ],
        "pollDivisionIds": [
          10142616
        ],
        "postalCode": "M2N3K8",
        "streetName": "HOLLYWOOD",
        "streetDirectionId": null,
        "streetTypeId": "AVE",
        "placeName": "NORTH YORK",
        "streetNameDisplayText": "HOLLYWOOD AVE, NORTH YORK"
      }
    ]
  },
  {
    "postal": "M2N5W9",
    "result": [
      {
        "electoralDistricts": [
          {
            "election": null,
            "id": 117,
            "name": "Willowdale"
          }
        ],
        "pollDivisionIds": [
          10142617
        ],
        "postalCode": "M2N5W9",
        "streetName": "SHEPPARD",
        "streetDirectionId": "E",
        "streetTypeId": "AVE",
        "placeName": "NORTH YORK",
        "streetNameDisplayText": "SHEPPARD AVE E, NORTH YORK"
      }
    ]
  },
  {
    "postal": "M2N6T9",
    "result": []
  },
  {
    "postal": "M2N4H1",
    "result": [
      {
        "electoralDistricts": [
          {
            "election": null,
            "id": 117,
            "name": "Willowdale"
          }
        ],
        "pollDivisionIds": [
          10142614
        ],
        "postalCode": "M2N4H1",
        "streetName": "LAILEY",
        "streetDirectionId": null,
        "streetTypeId": "CRES",
        "placeName": "NORTH YORK",
        "streetNameDisplayText": "LAILEY CRES, NORTH YORK"
      }
    ]
  },
  {
    "postal": "M2N7A2",
    "result": [
      {
        "electoralDistricts": [
          {
            "election": null,
            "id": 117,
            "name": "Willowdale"
          }
        ],
        "pollDivisionIds": [
          10142653
        ],
        "postalCode": "M2N7A2",
        "streetName": "NORTHTOWN",
        "streetDirectionId": null,
        "streetTypeId": "WAY",
        "placeName": "NORTH YORK",
        "streetNameDisplayText": "NORTHTOWN WAY, NORTH YORK"
      }
    ]
  },
  {
    "postal": "M2N5G0",
    "result": []
  },
  {
    "postal": "M2N8V5",
    "result": []
  },
  {
    "postal": "M2N2Y8",
    "result": [
      {
        "electoralDistricts": [
          {
            "election": null,
            "id": 117,
            "name": "Willowdale"
          }
        ],
        "pollDivisionIds": [
          10142616
        ],
        "postalCode": "M2N2Y8",
        "streetName": "IRVINGTON",
        "streetDirectionId": null,
        "streetTypeId": "CRES",
        "placeName": "NORTH YORK",
        "streetNameDisplayText": "IRVINGTON CRES, NORTH YORK"
      }
    ]
  },
  {
    "postal": "M2N2B6",
    "result": [
      {
        "electoralDistricts": [
          {
            "election": null,
            "id": 117,
            "name": "Willowdale"
          }
        ],
        "pollDivisionIds": [
          10142612
        ],
        "postalCode": "M2N2B6",
        "streetName": "HOUNSLOW",
        "streetDirectionId": null,
        "streetTypeId": "AVE",
        "placeName": "NORTH YORK",
        "streetNameDisplayText": "HOUNSLOW AVE, NORTH YORK"
      }
    ]
  },
  {
    "postal": "M2N4W8",
    "result": [
      {
        "electoralDistricts": [
          {
            "election": null,
            "id": 117,
            "name": "Willowdale"
          }
        ],
        "pollDivisionIds": [
          10142617
        ],
        "postalCode": "M2N4W8",
        "streetName": "DUDLEY",
        "streetDirectionId": null,
        "streetTypeId": "AVE",
        "placeName": "NORTH YORK",
        "streetNameDisplayText": "DUDLEY AVE, NORTH YORK"
      }
    ]
  },
  {
    "postal": "M2N8H7",
    "result": []
  },
  {
    "postal": "M2N5P1",
    "result": [
      {
        "electoralDistricts": [
          {
            "election": null,
            "id": 117,
            "name": "Willowdale"
          }
        ],
        "pollDivisionIds": [
          10142617
        ],
        "postalCode": "M2N5P1",
        "streetName": "YONGE",
        "streetDirectionId": null,
        "streetTypeId": "ST",
        "placeName": "NORTH YORK",
        "streetNameDisplayText": "YONGE ST, NORTH YORK"
      }
    ]
  },
  {
    "postal": "M2N2B8",
    "result": [
      {
        "electoralDistricts": [
          {
            "election": null,
            "id": 117,
            "name": "Willowdale"
          }
        ],
        "pollDivisionIds": [
          10142611
        ],
        "postalCode": "M2N2B8",
        "streetName": "HOUNSLOW",
        "streetDirectionId": null,
        "streetTypeId": "AVE",
        "placeName": "NORTH YORK",
        "streetNameDisplayText": "HOUNSLOW AVE, NORTH YORK"
      }
    ]
  },
  {
    "postal": "M2N0P2",
    "result": []
  },
  {
    "postal": "M2N9M1",
    "result": []
  },
  {
    "postal": "M2N3G0",
    "result": []
  },
  {
    "postal": "M2N9Z2",
    "result": []
  },
  {
    "postal": "M2N2A0",
    "result": []
  },
  {
    "postal": "M2N6Y0",
    "result": []
  },
  {
    "postal": "M2N2Z8",
    "result": [
      {
        "electoralDistricts": [
          {
            "election": null,
            "id": 117,
            "name": "Willowdale"
          }
        ],
        "pollDivisionIds": [
          10142686,
          10142617
        ],
        "postalCode": "M2N2Z8",
        "streetName": "SHEPPARD",
        "streetDirectionId": "E",
        "streetTypeId": "AVE",
        "placeName": "NORTH YORK",
        "streetNameDisplayText": "SHEPPARD AVE E, NORTH YORK"
      }
    ]
  },
  {
    "postal": "M2N7Y3",
    "result": []
  },
  {
    "postal": "M2N6Z5",
    "result": [
      {
        "electoralDistricts": [
          {
            "election": null,
            "id": 21,
            "name": "Don Valley North"
          },
          {
            "election": null,
            "id": 117,
            "name": "Willowdale"
          }
        ],
        "pollDivisionIds": [
          10137679,
          10142666
        ],
        "postalCode": "M2N6Z5",
        "streetName": "DORIS",
        "streetDirectionId": null,
        "streetTypeId": "AVE",
        "placeName": "NORTH YORK",
        "streetNameDisplayText": "DORIS AVE, NORTH YORK"
      }
    ]
  },
  {
    "postal": "M2N6E0",
    "result": []
  },
  {
    "postal": "M2N9B7",
    "result": []
  },
  {
    "postal": "M2N9S5",
    "result": []
  },
  {
    "postal": "M2N3X3",
    "result": [
      {
        "electoralDistricts": [
          {
            "election": null,
            "id": 117,
            "name": "Willowdale"
          }
        ],
        "pollDivisionIds": [
          10142616
        ],
        "postalCode": "M2N3X3",
        "streetName": "KINGSDALE",
        "streetDirectionId": null,
        "streetTypeId": "AVE",
        "placeName": "NORTH YORK",
        "streetNameDisplayText": "KINGSDALE AVE, NORTH YORK"
      }
    ]
  },
  {
    "postal": "M2N7R5",
    "result": []
  },
  {
    "postal": "M2N2X3",
    "result": [
      {
        "electoralDistricts": [
          {
            "election": null,
            "id": 117,
            "name": "Willowdale"
          }
        ],
        "pollDivisionIds": [
          10142617
        ],
        "postalCode": "M2N2X3",
        "streetName": "ANNDALE",
        "streetDirectionId": null,
        "streetTypeId": "DR",
        "placeName": "NORTH YORK",
        "streetNameDisplayText": "ANNDALE DR, NORTH YORK"
      }
    ]
  },
  {
    "postal": "M2N8Z9",
    "result": []
  },
  {
    "postal": "M2N0N4",
    "result": []
  },
  {
    "postal": "M2N1K1",
    "result": [
      {
        "electoralDistricts": [
          {
            "election": null,
            "id": 117,
            "name": "Willowdale"
          }
        ],
        "pollDivisionIds": [
          10142619
        ],
        "postalCode": "M2N1K1",
        "streetName": "POYNTZ",
        "streetDirectionId": null,
        "streetTypeId": "AVE",
        "placeName": "NORTH YORK",
        "streetNameDisplayText": "POYNTZ AVE, NORTH YORK"
      }
    ]
  },
  {
    "postal": "M2N1S3",
    "result": [
      {
        "electoralDistricts": [
          {
            "election": null,
            "id": 117,
            "name": "Willowdale"
          }
        ],
        "pollDivisionIds": [
          10143898
        ],
        "postalCode": "M2N1S3",
        "streetName": "ELMHURST",
        "streetDirectionId": null,
        "streetTypeId": "AVE",
        "placeName": "NORTH YORK",
        "streetNameDisplayText": "ELMHURST AVE, NORTH YORK"
      }
    ]
  },
  {
    "postal": "M2N6M4",
    "result": [
      {
        "electoralDistricts": [
          {
            "election": null,
            "id": 117,
            "name": "Willowdale"
          }
        ],
        "pollDivisionIds": [
          10142676
        ],
        "postalCode": "M2N6M4",
        "streetName": "UPPER MADISON",
        "streetDirectionId": null,
        "streetTypeId": "AVE",
        "placeName": "NORTH YORK",
        "streetNameDisplayText": "UPPER MADISON AVE, NORTH YORK"
      }
    ]
  },
  {
    "postal": "M2N9A9",
    "result": []
  },
  {
    "postal": "M2N9Z9",
    "result": []
  },
  {
    "postal": "M2N6T4",
    "result": []
  },
  {
    "postal": "M2N0B2",
    "result": [
      {
        "electoralDistricts": [
          {
            "election": null,
            "id": 117,
            "name": "Willowdale"
          }
        ],
        "pollDivisionIds": [
          10142609
        ],
        "postalCode": "M2N0B2",
        "streetName": "GARVIN",
        "streetDirectionId": null,
        "streetTypeId": "MEWS",
        "placeName": "NORTH YORK",
        "streetNameDisplayText": "GARVIN MEWS, NORTH YORK"
      }
    ]
  },
  {
    "postal": "M2N2L9",
    "result": [
      {
        "electoralDistricts": [
          {
            "election": null,
            "id": 117,
            "name": "Willowdale"
          }
        ],
        "pollDivisionIds": [
          10142619
        ],
        "postalCode": "M2N2L9",
        "streetName": "GWENDOLEN",
        "streetDirectionId": null,
        "streetTypeId": "CRES",
        "placeName": "NORTH YORK",
        "streetNameDisplayText": "GWENDOLEN CRES, NORTH YORK"
      }
    ]
  },
  {
    "postal": "M2N8K9",
    "result": []
  },
  {
    "postal": "M2N2H9",
    "result": [
      {
        "electoralDistricts": [
          {
            "election": null,
            "id": 117,
            "name": "Willowdale"
          }
        ],
        "pollDivisionIds": [
          10142611
        ],
        "postalCode": "M2N2H9",
        "streetName": "FINCH",
        "streetDirectionId": "W",
        "streetTypeId": "AVE",
        "placeName": "NORTH YORK",
        "streetNameDisplayText": "FINCH AVE W, NORTH YORK"
      }
    ]
  },
  {
    "postal": "M2N3Z6",
    "result": [
      {
        "electoralDistricts": [
          {
            "election": null,
            "id": 117,
            "name": "Willowdale"
          }
        ],
        "pollDivisionIds": [
          10142616
        ],
        "postalCode": "M2N3Z6",
        "streetName": "PARKVIEW",
        "streetDirectionId": null,
        "streetTypeId": "AVE",
        "placeName": "NORTH YORK",
        "streetNameDisplayText": "PARKVIEW AVE, NORTH YORK"
      }
    ]
  },
  {
    "postal": "M2N3B0",
    "result": []
  },
  {
    "postal": "M2N2H8",
    "result": [
      {
        "electoralDistricts": [
          {
            "election": null,
            "id": 117,
            "name": "Willowdale"
          }
        ],
        "pollDivisionIds": [
          10142611
        ],
        "postalCode": "M2N2H8",
        "streetName": "FINCH",
        "streetDirectionId": "W",
        "streetTypeId": "AVE",
        "placeName": "NORTH YORK",
        "streetNameDisplayText": "FINCH AVE W, NORTH YORK"
      }
    ]
  },
  {
    "postal": "M2N3X2",
    "result": [
      {
        "electoralDistricts": [
          {
            "election": null,
            "id": 117,
            "name": "Willowdale"
          }
        ],
        "pollDivisionIds": [
          10142616
        ],
        "postalCode": "M2N3X2",
        "streetName": "KINGSDALE",
        "streetDirectionId": null,
        "streetTypeId": "AVE",
        "placeName": "NORTH YORK",
        "streetNameDisplayText": "KINGSDALE AVE, NORTH YORK"
      }
    ]
  },
  {
    "postal": "M2N2E9",
    "result": [
      {
        "electoralDistricts": [
          {
            "election": null,
            "id": 117,
            "name": "Willowdale"
          }
        ],
        "pollDivisionIds": [
          10142611
        ],
        "postalCode": "M2N2E9",
        "streetName": "LURGAN",
        "streetDirectionId": null,
        "streetTypeId": "DR",
        "placeName": "NORTH YORK",
        "streetNameDisplayText": "LURGAN DR, NORTH YORK"
      }
    ]
  },
  {
    "postal": "M2N9P6",
    "result": []
  },
  {
    "postal": "M2N9E2",
    "result": []
  },
  {
    "postal": "M2N9H2",
    "result": []
  },
  {
    "postal": "M2N1S8",
    "result": [
      {
        "electoralDistricts": [
          {
            "election": null,
            "id": 117,
            "name": "Willowdale"
          }
        ],
        "pollDivisionIds": [
          10143898
        ],
        "postalCode": "M2N1S8",
        "streetName": "BURNDALE",
        "streetDirectionId": null,
        "streetTypeId": "AVE",
        "placeName": "NORTH YORK",
        "streetNameDisplayText": "BURNDALE AVE, NORTH YORK"
      }
    ]
  },
  {
    "postal": "M2N3M6",
    "result": [
      {
        "electoralDistricts": [
          {
            "election": null,
            "id": 117,
            "name": "Willowdale"
          }
        ],
        "pollDivisionIds": [
          10142615
        ],
        "postalCode": "M2N3M6",
        "streetName": "ELMWOOD",
        "streetDirectionId": null,
        "streetTypeId": "AVE",
        "placeName": "NORTH YORK",
        "streetNameDisplayText": "ELMWOOD AVE, NORTH YORK"
      }
    ]
  },
  {
    "postal": "M2N6Z8",
    "result": [
      {
        "electoralDistricts": [
          {
            "election": null,
            "id": 117,
            "name": "Willowdale"
          }
        ],
        "pollDivisionIds": [
          10142638
        ],
        "postalCode": "M2N6Z8",
        "streetName": "FINCH",
        "streetDirectionId": "E",
        "streetTypeId": "AVE",
        "placeName": "NORTH YORK",
        "streetNameDisplayText": "FINCH AVE E, NORTH YORK"
      }
    ]
  },
  {
    "postal": "M2N4J2",
    "result": [
      {
        "electoralDistricts": [
          {
            "election": null,
            "id": 117,
            "name": "Willowdale"
          }
        ],
        "pollDivisionIds": [
          10142614
        ],
        "postalCode": "M2N4J2",
        "streetName": "DUNVIEW",
        "streetDirectionId": null,
        "streetTypeId": "AVE",
        "placeName": "NORTH YORK",
        "streetNameDisplayText": "DUNVIEW AVE, NORTH YORK"
      }
    ]
  },
  {
    "postal": "M2N9Y1",
    "result": []
  },
  {
    "postal": "M2N8V6",
    "result": []
  },
  {
    "postal": "M2N6B2",
    "result": []
  },
  {
    "postal": "M2N1P8",
    "result": [
      {
        "electoralDistricts": [
          {
            "election": null,
            "id": 117,
            "name": "Willowdale"
          }
        ],
        "pollDivisionIds": [
          10143898
        ],
        "postalCode": "M2N1P8",
        "streetName": "ADDINGTON",
        "streetDirectionId": null,
        "streetTypeId": "PL",
        "placeName": "NORTH YORK",
        "streetNameDisplayText": "ADDINGTON PL, NORTH YORK"
      }
    ]
  },
  {
    "postal": "M2N0V8",
    "result": []
  },
  {
    "postal": "M2N4Y0",
    "result": []
  },
  {
    "postal": "M2N2T4",
    "result": [
      {
        "electoralDistricts": [
          {
            "election": null,
            "id": 117,
            "name": "Willowdale"
          }
        ],
        "pollDivisionIds": [
          10142617
        ],
        "postalCode": "M2N2T4",
        "streetName": "OAKBURN",
        "streetDirectionId": null,
        "streetTypeId": "CRES",
        "placeName": "NORTH YORK",
        "streetNameDisplayText": "OAKBURN CRES, NORTH YORK"
      }
    ]
  },
  {
    "postal": "M2N2S3",
    "result": []
  },
  {
    "postal": "M2N0K0",
    "result": []
  },
  {
    "postal": "M2N5N1",
    "result": [
      {
        "electoralDistricts": [
          {
            "election": null,
            "id": 117,
            "name": "Willowdale"
          }
        ],
        "pollDivisionIds": [
          10142617
        ],
        "postalCode": "M2N5N1",
        "streetName": "SHEPPARD",
        "streetDirectionId": "E",
        "streetTypeId": "AVE",
        "placeName": "NORTH YORK",
        "streetNameDisplayText": "SHEPPARD AVE E, NORTH YORK"
      }
    ]
  },
  {
    "postal": "M2N7T0",
    "result": []
  },
  {
    "postal": "M2N9N2",
    "result": []
  },
  {
    "postal": "M2N5L1",
    "result": [
      {
        "electoralDistricts": [
          {
            "election": null,
            "id": 117,
            "name": "Willowdale"
          }
        ],
        "pollDivisionIds": [
          10142616
        ],
        "postalCode": "M2N5L1",
        "streetName": "BAYVIEW",
        "streetDirectionId": null,
        "streetTypeId": "AVE",
        "placeName": "NORTH YORK",
        "streetNameDisplayText": "BAYVIEW AVE, NORTH YORK"
      }
    ]
  },
  {
    "postal": "M2N7G5",
    "result": [
      {
        "electoralDistricts": [
          {
            "election": null,
            "id": 117,
            "name": "Willowdale"
          }
        ],
        "pollDivisionIds": [
          10142640
        ],
        "postalCode": "M2N7G5",
        "streetName": "OLIVE",
        "streetDirectionId": null,
        "streetTypeId": "AVE",
        "placeName": "NORTH YORK",
        "streetNameDisplayText": "OLIVE AVE, NORTH YORK"
      }
    ]
  },
  {
    "postal": "M2N6K2",
    "result": [
      {
        "electoralDistricts": [
          {
            "election": null,
            "id": 117,
            "name": "Willowdale"
          }
        ],
        "pollDivisionIds": [
          10142609
        ],
        "postalCode": "M2N6K2",
        "streetName": "WILFRED",
        "streetDirectionId": null,
        "streetTypeId": "AVE",
        "placeName": "NORTH YORK",
        "streetNameDisplayText": "WILFRED AVE, NORTH YORK"
      }
    ]
  },
  {
    "postal": "M2N6P9",
    "result": []
  },
  {
    "postal": "M2N0E6",
    "result": []
  },
  {
    "postal": "M2N8R9",
    "result": []
  },
  {
    "postal": "M2N3G9",
    "result": [
      {
        "electoralDistricts": [
          {
            "election": null,
            "id": 117,
            "name": "Willowdale"
          }
        ],
        "pollDivisionIds": [
          10142616
        ],
        "postalCode": "M2N3G9",
        "streetName": "SPRING GARDEN",
        "streetDirectionId": null,
        "streetTypeId": "AVE",
        "placeName": "NORTH YORK",
        "streetNameDisplayText": "SPRING GARDEN AVE, NORTH YORK"
      }
    ]
  },
  {
    "postal": "M2N0V7",
    "result": []
  },
  {
    "postal": "M2N2Z1",
    "result": [
      {
        "electoralDistricts": [
          {
            "election": null,
            "id": 117,
            "name": "Willowdale"
          }
        ],
        "pollDivisionIds": [
          10142616
        ],
        "postalCode": "M2N2Z1",
        "streetName": "IRVINGTON",
        "streetDirectionId": null,
        "streetTypeId": "CRES",
        "placeName": "NORTH YORK",
        "streetNameDisplayText": "IRVINGTON CRES, NORTH YORK"
      }
    ]
  },
  {
    "postal": "M2N7N1",
    "result": []
  },
  {
    "postal": "M2N3C6",
    "result": [
      {
        "electoralDistricts": [
          {
            "election": null,
            "id": 117,
            "name": "Willowdale"
          }
        ],
        "pollDivisionIds": [
          10142616
        ],
        "postalCode": "M2N3C6",
        "streetName": "MAPLEHURST",
        "streetDirectionId": null,
        "streetTypeId": "AVE",
        "placeName": "NORTH YORK",
        "streetNameDisplayText": "MAPLEHURST AVE, NORTH YORK"
      }
    ]
  },
  {
    "postal": "M2N4M1",
    "result": [
      {
        "electoralDistricts": [
          {
            "election": null,
            "id": 117,
            "name": "Willowdale"
          }
        ],
        "pollDivisionIds": [
          10142614
        ],
        "postalCode": "M2N4M1",
        "streetName": "HOLMES",
        "streetDirectionId": null,
        "streetTypeId": "AVE",
        "placeName": "NORTH YORK",
        "streetNameDisplayText": "HOLMES AVE, NORTH YORK"
      }
    ]
  },
  {
    "postal": "M2N9K2",
    "result": []
  },
  {
    "postal": "M2N9S6",
    "result": []
  },
  {
    "postal": "M2N4X1",
    "result": [
      {
        "electoralDistricts": [
          {
            "election": null,
            "id": 117,
            "name": "Willowdale"
          }
        ],
        "pollDivisionIds": [
          10142617
        ],
        "postalCode": "M2N4X1",
        "streetName": "DUDLEY",
        "streetDirectionId": null,
        "streetTypeId": "AVE",
        "placeName": "NORTH YORK",
        "streetNameDisplayText": "DUDLEY AVE, NORTH YORK"
      }
    ]
  },
  {
    "postal": "M2N8W2",
    "result": []
  },
  {
    "postal": "M2N7N2",
    "result": []
  },
  {
    "postal": "M2N8S3",
    "result": []
  },
  {
    "postal": "M2N4V0",
    "result": []
  },
  {
    "postal": "M2N6W4",
    "result": []
  },
  {
    "postal": "M2N5M1",
    "result": [
      {
        "electoralDistricts": [
          {
            "election": null,
            "id": 117,
            "name": "Willowdale"
          }
        ],
        "pollDivisionIds": [
          10142620
        ],
        "postalCode": "M2N5M1",
        "streetName": "YONGE",
        "streetDirectionId": null,
        "streetTypeId": "ST",
        "placeName": "NORTH YORK",
        "streetNameDisplayText": "YONGE ST, NORTH YORK"
      }
    ]
  },
  {
    "postal": "M2N0S4",
    "result": []
  },
  {
    "postal": "M2N5X6",
    "result": []
  },
  {
    "postal": "M2N8L5",
    "result": []
  },
  {
    "postal": "M2N5M8",
    "result": []
  },
  {
    "postal": "M2N2G3",
    "result": [
      {
        "electoralDistricts": [
          {
            "election": null,
            "id": 117,
            "name": "Willowdale"
          }
        ],
        "pollDivisionIds": [
          10142611
        ],
        "postalCode": "M2N2G3",
        "streetName": "BEVDALE",
        "streetDirectionId": null,
        "streetTypeId": "RD",
        "placeName": "NORTH YORK",
        "streetNameDisplayText": "BEVDALE RD, NORTH YORK"
      }
    ]
  },
  {
    "postal": "M2N8E4",
    "result": []
  },
  {
    "postal": "M2N7S9",
    "result": []
  },
  {
    "postal": "M2N1K3",
    "result": []
  },
  {
    "postal": "M2N4E1",
    "result": [
      {
        "electoralDistricts": [
          {
            "election": null,
            "id": 117,
            "name": "Willowdale"
          }
        ],
        "pollDivisionIds": [
          10142614
        ],
        "postalCode": "M2N4E1",
        "streetName": "MCKEE",
        "streetDirectionId": null,
        "streetTypeId": "AVE",
        "placeName": "NORTH YORK",
        "streetNameDisplayText": "MCKEE AVE, NORTH YORK"
      }
    ]
  },
  {
    "postal": "M2N4R2",
    "result": []
  },
  {
    "postal": "M2N6T0",
    "result": []
  },
  {
    "postal": "M2N3K5",
    "result": [
      {
        "electoralDistricts": [
          {
            "election": null,
            "id": 117,
            "name": "Willowdale"
          }
        ],
        "pollDivisionIds": [
          10142617
        ],
        "postalCode": "M2N3K5",
        "streetName": "HOLLYWOOD",
        "streetDirectionId": null,
        "streetTypeId": "AVE",
        "placeName": "NORTH YORK",
        "streetNameDisplayText": "HOLLYWOOD AVE, NORTH YORK"
      }
    ]
  },
  {
    "postal": "M2N3S3",
    "result": [
      {
        "electoralDistricts": [
          {
            "election": null,
            "id": 117,
            "name": "Willowdale"
          }
        ],
        "pollDivisionIds": [
          10142616
        ],
        "postalCode": "M2N3S3",
        "streetName": "PRINCESS",
        "streetDirectionId": null,
        "streetTypeId": "AVE",
        "placeName": "NORTH YORK",
        "streetNameDisplayText": "PRINCESS AVE, NORTH YORK"
      }
    ]
  },
  {
    "postal": "M2N3L4",
    "result": [
      {
        "electoralDistricts": [
          {
            "election": null,
            "id": 117,
            "name": "Willowdale"
          }
        ],
        "pollDivisionIds": [
          10142616
        ],
        "postalCode": "M2N3L4",
        "streetName": "HOLLYWOOD",
        "streetDirectionId": null,
        "streetTypeId": "AVE",
        "placeName": "NORTH YORK",
        "streetNameDisplayText": "HOLLYWOOD AVE, NORTH YORK"
      }
    ]
  },
  {
    "postal": "M2N9Y2",
    "result": []
  },
  {
    "postal": "M2N1E0",
    "result": []
  },
  {
    "postal": "M2N9A4",
    "result": []
  },
  {
    "postal": "M2N1L3",
    "result": [
      {
        "electoralDistricts": [
          {
            "election": null,
            "id": 117,
            "name": "Willowdale"
          }
        ],
        "pollDivisionIds": [
          10142619
        ],
        "postalCode": "M2N1L3",
        "streetName": "BOGERT",
        "streetDirectionId": null,
        "streetTypeId": "AVE",
        "placeName": "NORTH YORK",
        "streetNameDisplayText": "BOGERT AVE, NORTH YORK"
      }
    ]
  },
  {
    "postal": "M2N6N1",
    "result": []
  },
  {
    "postal": "M2N6G7",
    "result": []
  },
  {
    "postal": "M2N7W1",
    "result": []
  },
  {
    "postal": "M2N4M6",
    "result": [
      {
        "electoralDistricts": [
          {
            "election": null,
            "id": 117,
            "name": "Willowdale"
          }
        ],
        "pollDivisionIds": [
          10142609
        ],
        "postalCode": "M2N4M6",
        "streetName": "HOLMES",
        "streetDirectionId": null,
        "streetTypeId": "AVE",
        "placeName": "NORTH YORK",
        "streetNameDisplayText": "HOLMES AVE, NORTH YORK"
      }
    ]
  },
  {
    "postal": "M2N1K0",
    "result": []
  },
  {
    "postal": "M2N3E2",
    "result": [
      {
        "electoralDistricts": [
          {
            "election": null,
            "id": 117,
            "name": "Willowdale"
          }
        ],
        "pollDivisionIds": [
          10142617
        ],
        "postalCode": "M2N3E2",
        "streetName": "GREENFIELD",
        "streetDirectionId": null,
        "streetTypeId": "AVE",
        "placeName": "NORTH YORK",
        "streetNameDisplayText": "GREENFIELD AVE, NORTH YORK"
      }
    ]
  },
  {
    "postal": "M2N5H4",
    "result": [
      {
        "electoralDistricts": [
          {
            "election": null,
            "id": 117,
            "name": "Willowdale"
          }
        ],
        "pollDivisionIds": [
          10142614
        ],
        "postalCode": "M2N5H4",
        "streetName": "ESTELLE",
        "streetDirectionId": null,
        "streetTypeId": "AVE",
        "placeName": "NORTH YORK",
        "streetNameDisplayText": "ESTELLE AVE, NORTH YORK"
      }
    ]
  },
  {
    "postal": "M2N1K7",
    "result": [
      {
        "electoralDistricts": [
          {
            "election": null,
            "id": 117,
            "name": "Willowdale"
          }
        ],
        "pollDivisionIds": [
          10142620
        ],
        "postalCode": "M2N1K7",
        "streetName": "BOGERT",
        "streetDirectionId": null,
        "streetTypeId": "AVE",
        "placeName": "NORTH YORK",
        "streetNameDisplayText": "BOGERT AVE, NORTH YORK"
      }
    ]
  },
  {
    "postal": "M2N0H0",
    "result": []
  },
  {
    "postal": "M2N0J3",
    "result": [
      {
        "electoralDistricts": [
          {
            "election": null,
            "id": 117,
            "name": "Willowdale"
          }
        ],
        "pollDivisionIds": [
          10142613
        ],
        "postalCode": "M2N0J3",
        "streetName": "BEECROFT",
        "streetDirectionId": null,
        "streetTypeId": "RD",
        "placeName": "NORTH YORK",
        "streetNameDisplayText": "BEECROFT RD, NORTH YORK"
      },
      {
        "electoralDistricts": [
          {
            "election": null,
            "id": 117,
            "name": "Willowdale"
          }
        ],
        "pollDivisionIds": [
          10142613
        ],
        "postalCode": "M2N0J3",
        "streetName": "CHURCHILL",
        "streetDirectionId": null,
        "streetTypeId": "AVE",
        "placeName": "NORTH YORK",
        "streetNameDisplayText": "CHURCHILL AVE, NORTH YORK"
      },
      {
        "electoralDistricts": [
          {
            "election": null,
            "id": 117,
            "name": "Willowdale"
          }
        ],
        "pollDivisionIds": [
          10142613
        ],
        "postalCode": "M2N0J3",
        "streetName": "HORSHAM",
        "streetDirectionId": null,
        "streetTypeId": "AVE",
        "placeName": "NORTH YORK",
        "streetNameDisplayText": "HORSHAM AVE, NORTH YORK"
      }
    ]
  },
  {
    "postal": "M2N1X6",
    "result": [
      {
        "electoralDistricts": [
          {
            "election": null,
            "id": 117,
            "name": "Willowdale"
          }
        ],
        "pollDivisionIds": [
          10142612
        ],
        "postalCode": "M2N1X6",
        "streetName": "BETTY ANN",
        "streetDirectionId": null,
        "streetTypeId": "DR",
        "placeName": "NORTH YORK",
        "streetNameDisplayText": "BETTY ANN DR, NORTH YORK"
      }
    ]
  },
  {
    "postal": "M2N2Z6",
    "result": [
      {
        "electoralDistricts": [
          {
            "election": null,
            "id": 117,
            "name": "Willowdale"
          }
        ],
        "pollDivisionIds": [
          10142616
        ],
        "postalCode": "M2N2Z6",
        "streetName": "GRANLEA",
        "streetDirectionId": null,
        "streetTypeId": "RD",
        "placeName": "NORTH YORK",
        "streetNameDisplayText": "GRANLEA RD, NORTH YORK"
      }
    ]
  },
  {
    "postal": "M2N4R9",
    "result": [
      {
        "electoralDistricts": [
          {
            "election": null,
            "id": 117,
            "name": "Willowdale"
          }
        ],
        "pollDivisionIds": [
          10142608
        ],
        "postalCode": "M2N4R9",
        "streetName": "FINCH",
        "streetDirectionId": "E",
        "streetTypeId": "AVE",
        "placeName": "NORTH YORK",
        "streetNameDisplayText": "FINCH AVE E, NORTH YORK"
      }
    ]
  },
  {
    "postal": "M2N0W8",
    "result": []
  },
  {
    "postal": "M2N1L4",
    "result": [
      {
        "electoralDistricts": [
          {
            "election": null,
            "id": 117,
            "name": "Willowdale"
          }
        ],
        "pollDivisionIds": [
          10142619
        ],
        "postalCode": "M2N1L4",
        "streetName": "BOGERT",
        "streetDirectionId": null,
        "streetTypeId": "AVE",
        "placeName": "NORTH YORK",
        "streetNameDisplayText": "BOGERT AVE, NORTH YORK"
      }
    ]
  },
  {
    "postal": "M2N0C8",
    "result": [
      {
        "electoralDistricts": [
          {
            "election": null,
            "id": 117,
            "name": "Willowdale"
          }
        ],
        "pollDivisionIds": [
          10142686
        ],
        "postalCode": "M2N0C8",
        "streetName": "SHEPPARD",
        "streetDirectionId": "E",
        "streetTypeId": "AVE",
        "placeName": "NORTH YORK",
        "streetNameDisplayText": "SHEPPARD AVE E, NORTH YORK"
      }
    ]
  },
  {
    "postal": "M2N9X7",
    "result": []
  },
  {
    "postal": "M2N4T1",
    "result": []
  },
  {
    "postal": "M2N0M0",
    "result": []
  },
  {
    "postal": "M2N6A2",
    "result": [
      {
        "electoralDistricts": [
          {
            "election": null,
            "id": 117,
            "name": "Willowdale"
          }
        ],
        "pollDivisionIds": [
          10142614
        ],
        "postalCode": "M2N6A2",
        "streetName": "FERNSIDE",
        "streetDirectionId": null,
        "streetTypeId": "CRT",
        "placeName": "NORTH YORK",
        "streetNameDisplayText": "FERNSIDE CRT, NORTH YORK"
      }
    ]
  },
  {
    "postal": "M2N9S8",
    "result": []
  },
  {
    "postal": "M2N9T4",
    "result": []
  },
  {
    "postal": "M2N9Y4",
    "result": []
  },
  {
    "postal": "M2N6G5",
    "result": []
  },
  {
    "postal": "M2N6H9",
    "result": [
      {
        "electoralDistricts": [
          {
            "election": null,
            "id": 117,
            "name": "Willowdale"
          }
        ],
        "pollDivisionIds": [
          10142679,
          10142617
        ],
        "postalCode": "M2N6H9",
        "streetName": "SPRING GARDEN",
        "streetDirectionId": null,
        "streetTypeId": "AVE",
        "placeName": "NORTH YORK",
        "streetNameDisplayText": "SPRING GARDEN AVE, NORTH YORK"
      }
    ]
  },
  {
    "postal": "M2N2P3",
    "result": [
      {
        "electoralDistricts": [
          {
            "election": null,
            "id": 117,
            "name": "Willowdale"
          }
        ],
        "pollDivisionIds": [
          10142613
        ],
        "postalCode": "M2N2P3",
        "streetName": "TAMWORTH",
        "streetDirectionId": null,
        "streetTypeId": "RD",
        "placeName": "NORTH YORK",
        "streetNameDisplayText": "TAMWORTH RD, NORTH YORK"
      }
    ]
  },
  {
    "postal": "M2N1T6",
    "result": [
      {
        "electoralDistricts": [
          {
            "election": null,
            "id": 117,
            "name": "Willowdale"
          }
        ],
        "pollDivisionIds": [
          10143898
        ],
        "postalCode": "M2N1T6",
        "streetName": "WENTWORTH",
        "streetDirectionId": null,
        "streetTypeId": "AVE",
        "placeName": "NORTH YORK",
        "streetNameDisplayText": "WENTWORTH AVE, NORTH YORK"
      }
    ]
  },
  {
    "postal": "M2N4P6",
    "result": [
      {
        "electoralDistricts": [
          {
            "election": null,
            "id": 117,
            "name": "Willowdale"
          }
        ],
        "pollDivisionIds": [
          10142609
        ],
        "postalCode": "M2N4P6",
        "streetName": "OLIVE",
        "streetDirectionId": null,
        "streetTypeId": "AVE",
        "placeName": "NORTH YORK",
        "streetNameDisplayText": "OLIVE AVE, NORTH YORK"
      }
    ]
  },
  {
    "postal": "M2N3K1",
    "result": [
      {
        "electoralDistricts": [
          {
            "election": null,
            "id": 117,
            "name": "Willowdale"
          }
        ],
        "pollDivisionIds": [
          10142617
        ],
        "postalCode": "M2N3K1",
        "streetName": "HOLLYWOOD",
        "streetDirectionId": null,
        "streetTypeId": "AVE",
        "placeName": "NORTH YORK",
        "streetNameDisplayText": "HOLLYWOOD AVE, NORTH YORK"
      }
    ]
  },
  {
    "postal": "M2N6X4",
    "result": [
      {
        "electoralDistricts": [
          {
            "election": null,
            "id": 117,
            "name": "Willowdale"
          }
        ],
        "pollDivisionIds": [
          10142613
        ],
        "postalCode": "M2N6X4",
        "streetName": "YONGE",
        "streetDirectionId": null,
        "streetTypeId": "ST",
        "placeName": "NORTH YORK",
        "streetNameDisplayText": "YONGE ST, NORTH YORK"
      }
    ]
  },
  {
    "postal": "M2N4M8",
    "result": [
      {
        "electoralDistricts": [
          {
            "election": null,
            "id": 117,
            "name": "Willowdale"
          }
        ],
        "pollDivisionIds": [
          10142609
        ],
        "postalCode": "M2N4M8",
        "streetName": "HOLMES",
        "streetDirectionId": null,
        "streetTypeId": "AVE",
        "placeName": "NORTH YORK",
        "streetNameDisplayText": "HOLMES AVE, NORTH YORK"
      }
    ]
  },
  {
    "postal": "M2N2Y1",
    "result": [
      {
        "electoralDistricts": [
          {
            "election": null,
            "id": 117,
            "name": "Willowdale"
          }
        ],
        "pollDivisionIds": [
          10142617
        ],
        "postalCode": "M2N2Y1",
        "streetName": "LYNDALE",
        "streetDirectionId": null,
        "streetTypeId": "DR",
        "placeName": "NORTH YORK",
        "streetNameDisplayText": "LYNDALE DR, NORTH YORK"
      }
    ]
  },
  {
    "postal": "M2N6M1",
    "result": []
  },
  {
    "postal": "M2N5L8",
    "result": []
  },
  {
    "postal": "M2N3P6",
    "result": [
      {
        "electoralDistricts": [
          {
            "election": null,
            "id": 117,
            "name": "Willowdale"
          }
        ],
        "pollDivisionIds": [
          10142616
        ],
        "postalCode": "M2N3P6",
        "streetName": "HILLCREST",
        "streetDirectionId": null,
        "streetTypeId": "AVE",
        "placeName": "NORTH YORK",
        "streetNameDisplayText": "HILLCREST AVE, NORTH YORK"
      }
    ]
  },
  {
    "postal": "M2N9A5",
    "result": []
  },
  {
    "postal": "M2N7K1",
    "result": [
      {
        "electoralDistricts": [
          {
            "election": null,
            "id": 117,
            "name": "Willowdale"
          }
        ],
        "pollDivisionIds": [
          10142686
        ],
        "postalCode": "M2N7K1",
        "streetName": "SHEPPARD",
        "streetDirectionId": "E",
        "streetTypeId": "AVE",
        "placeName": "NORTH YORK",
        "streetNameDisplayText": "SHEPPARD AVE E, NORTH YORK"
      }
    ]
  },
  {
    "postal": "M2N3J4",
    "result": [
      {
        "electoralDistricts": [
          {
            "election": null,
            "id": 117,
            "name": "Willowdale"
          }
        ],
        "pollDivisionIds": [
          10142616
        ],
        "postalCode": "M2N3J4",
        "streetName": "ALFRED",
        "streetDirectionId": null,
        "streetTypeId": "AVE",
        "placeName": "NORTH YORK",
        "streetNameDisplayText": "ALFRED AVE, NORTH YORK"
      }
    ]
  },
  {
    "postal": "M2N5E7",
    "result": [
      {
        "electoralDistricts": [
          {
            "election": null,
            "id": 117,
            "name": "Willowdale"
          }
        ],
        "pollDivisionIds": [
          10142616
        ],
        "postalCode": "M2N5E7",
        "streetName": "VONDA",
        "streetDirectionId": null,
        "streetTypeId": "AVE",
        "placeName": "NORTH YORK",
        "streetNameDisplayText": "VONDA AVE, NORTH YORK"
      }
    ]
  },
  {
    "postal": "M2N3A7",
    "result": [
      {
        "electoralDistricts": [
          {
            "election": null,
            "id": 117,
            "name": "Willowdale"
          }
        ],
        "pollDivisionIds": [
          10142617
        ],
        "postalCode": "M2N3A7",
        "streetName": "SHEPPARD",
        "streetDirectionId": "E",
        "streetTypeId": "AVE",
        "placeName": "NORTH YORK",
        "streetNameDisplayText": "SHEPPARD AVE E, NORTH YORK"
      }
    ]
  },
  {
    "postal": "M2N1B9",
    "result": [
      {
        "electoralDistricts": [
          {
            "election": null,
            "id": 117,
            "name": "Willowdale"
          }
        ],
        "pollDivisionIds": [
          10142620
        ],
        "postalCode": "M2N1B9",
        "streetName": "FRANKLIN",
        "streetDirectionId": null,
        "streetTypeId": "AVE",
        "placeName": "NORTH YORK",
        "streetNameDisplayText": "FRANKLIN AVE, NORTH YORK"
      }
    ]
  },
  {
    "postal": "M2N9E8",
    "result": []
  },
  {
    "postal": "M2N1C9",
    "result": [
      {
        "electoralDistricts": [
          {
            "election": null,
            "id": 117,
            "name": "Willowdale"
          }
        ],
        "pollDivisionIds": [
          10142620
        ],
        "postalCode": "M2N1C9",
        "streetName": "CAMERON",
        "streetDirectionId": null,
        "streetTypeId": "AVE",
        "placeName": "NORTH YORK",
        "streetNameDisplayText": "CAMERON AVE, NORTH YORK"
      }
    ]
  },
  {
    "postal": "M2N3B5",
    "result": [
      {
        "electoralDistricts": [
          {
            "election": null,
            "id": 117,
            "name": "Willowdale"
          }
        ],
        "pollDivisionIds": [
          10142616
        ],
        "postalCode": "M2N3B5",
        "streetName": "SHEPPARD",
        "streetDirectionId": "E",
        "streetTypeId": "AVE",
        "placeName": "NORTH YORK",
        "streetNameDisplayText": "SHEPPARD AVE E, NORTH YORK"
      }
    ]
  },
  {
    "postal": "M2N8R0",
    "result": []
  },
  {
    "postal": "M2N3P2",
    "result": [
      {
        "electoralDistricts": [
          {
            "election": null,
            "id": 117,
            "name": "Willowdale"
          }
        ],
        "pollDivisionIds": [
          10142615
        ],
        "postalCode": "M2N3P2",
        "streetName": "HILLCREST",
        "streetDirectionId": null,
        "streetTypeId": "AVE",
        "placeName": "NORTH YORK",
        "streetNameDisplayText": "HILLCREST AVE, NORTH YORK"
      }
    ]
  },
  {
    "postal": "M2N5V4",
    "result": []
  },
  {
    "postal": "M2N4H0",
    "result": []
  },
  {
    "postal": "M2N4S7",
    "result": [
      {
        "electoralDistricts": [
          {
            "election": null,
            "id": 117,
            "name": "Willowdale"
          }
        ],
        "pollDivisionIds": [
          10142617
        ],
        "postalCode": "M2N4S7",
        "streetName": "BALES",
        "streetDirectionId": null,
        "streetTypeId": "AVE",
        "placeName": "NORTH YORK",
        "streetNameDisplayText": "BALES AVE, NORTH YORK"
      }
    ]
  },
  {
    "postal": "M2N6C2",
    "result": []
  },
  {
    "postal": "M2N8W3",
    "result": []
  },
  {
    "postal": "M2N4M5",
    "result": [
      {
        "electoralDistricts": [
          {
            "election": null,
            "id": 117,
            "name": "Willowdale"
          }
        ],
        "pollDivisionIds": [
          10142609
        ],
        "postalCode": "M2N4M5",
        "streetName": "HOLMES",
        "streetDirectionId": null,
        "streetTypeId": "AVE",
        "placeName": "NORTH YORK",
        "streetNameDisplayText": "HOLMES AVE, NORTH YORK"
      }
    ]
  },
  {
    "postal": "M2N5T1",
    "result": []
  },
  {
    "postal": "M2N3B3",
    "result": [
      {
        "electoralDistricts": [
          {
            "election": null,
            "id": 117,
            "name": "Willowdale"
          }
        ],
        "pollDivisionIds": [
          10142616
        ],
        "postalCode": "M2N3B3",
        "streetName": "SHEPPARD",
        "streetDirectionId": "E",
        "streetTypeId": "AVE",
        "placeName": "NORTH YORK",
        "streetNameDisplayText": "SHEPPARD AVE E, NORTH YORK"
      }
    ]
  },
  {
    "postal": "M2N6C6",
    "result": [
      {
        "electoralDistricts": [
          {
            "election": null,
            "id": 117,
            "name": "Willowdale"
          }
        ],
        "pollDivisionIds": [
          10142615
        ],
        "postalCode": "M2N6C6",
        "streetName": "YONGE",
        "streetDirectionId": null,
        "streetTypeId": "ST",
        "placeName": "NORTH YORK",
        "streetNameDisplayText": "YONGE ST, NORTH YORK"
      }
    ]
  },
  {
    "postal": "M2N7N8",
    "result": []
  },
  {
    "postal": "M2N2Y3",
    "result": [
      {
        "electoralDistricts": [
          {
            "election": null,
            "id": 117,
            "name": "Willowdale"
          }
        ],
        "pollDivisionIds": [
          10142617
        ],
        "postalCode": "M2N2Y3",
        "streetName": "CRAIGMORE",
        "streetDirectionId": null,
        "streetTypeId": "CRES",
        "placeName": "NORTH YORK",
        "streetNameDisplayText": "CRAIGMORE CRES, NORTH YORK"
      }
    ]
  },
  {
    "postal": "M2N2R6",
    "result": [
      {
        "electoralDistricts": [
          {
            "election": null,
            "id": 117,
            "name": "Willowdale"
          }
        ],
        "pollDivisionIds": [
          10142612
        ],
        "postalCode": "M2N2R6",
        "streetName": "DIAGONAL",
        "streetDirectionId": null,
        "streetTypeId": "RD",
        "placeName": "NORTH YORK",
        "streetNameDisplayText": "DIAGONAL RD, NORTH YORK"
      }
    ]
  },
  {
    "postal": "M2N7N3",
    "result": []
  },
  {
    "postal": "M2N8J2",
    "result": []
  },
  {
    "postal": "M2N6A9",
    "result": [
      {
        "electoralDistricts": [
          {
            "election": null,
            "id": 117,
            "name": "Willowdale"
          }
        ],
        "pollDivisionIds": [
          10142609
        ],
        "postalCode": "M2N6A9",
        "streetName": "WILFRED",
        "streetDirectionId": null,
        "streetTypeId": "AVE",
        "placeName": "NORTH YORK",
        "streetNameDisplayText": "WILFRED AVE, NORTH YORK"
      }
    ]
  },
  {
    "postal": "M2N3V2",
    "result": [
      {
        "electoralDistricts": [
          {
            "election": null,
            "id": 117,
            "name": "Willowdale"
          }
        ],
        "pollDivisionIds": [
          10142616
        ],
        "postalCode": "M2N3V2",
        "streetName": "EMPRESS",
        "streetDirectionId": null,
        "streetTypeId": "AVE",
        "placeName": "NORTH YORK",
        "streetNameDisplayText": "EMPRESS AVE, NORTH YORK"
      }
    ]
  },
  {
    "postal": "M2N2N3",
    "result": []
  },
  {
    "postal": "M2N1S5",
    "result": []
  },
  {
    "postal": "M2N4T7",
    "result": []
  },
  {
    "postal": "M2N6Y7",
    "result": [
      {
        "electoralDistricts": [
          {
            "election": null,
            "id": 117,
            "name": "Willowdale"
          }
        ],
        "pollDivisionIds": [
          10142663
        ],
        "postalCode": "M2N6Y7",
        "streetName": "EMPRESS",
        "streetDirectionId": null,
        "streetTypeId": "AVE",
        "placeName": "NORTH YORK",
        "streetNameDisplayText": "EMPRESS AVE, NORTH YORK"
      }
    ]
  },
  {
    "postal": "M2N0W7",
    "result": []
  },
  {
    "postal": "M2N2W9",
    "result": [
      {
        "electoralDistricts": [
          {
            "election": null,
            "id": 117,
            "name": "Willowdale"
          }
        ],
        "pollDivisionIds": [
          10142617
        ],
        "postalCode": "M2N2W9",
        "streetName": "ANNDALE",
        "streetDirectionId": null,
        "streetTypeId": "DR",
        "placeName": "NORTH YORK",
        "streetNameDisplayText": "ANNDALE DR, NORTH YORK"
      }
    ]
  },
  {
    "postal": "M2N8V0",
    "result": []
  },
  {
    "postal": "M2N0H4",
    "result": [
      {
        "electoralDistricts": [
          {
            "election": null,
            "id": 117,
            "name": "Willowdale"
          }
        ],
        "pollDivisionIds": [
          10142620
        ],
        "postalCode": "M2N0H4",
        "streetName": "BOGERT",
        "streetDirectionId": null,
        "streetTypeId": "AVE",
        "placeName": "NORTH YORK",
        "streetNameDisplayText": "BOGERT AVE, NORTH YORK"
      }
    ]
  },
  {
    "postal": "M2N2T1",
    "result": []
  },
  {
    "postal": "M2N1B1",
    "result": [
      {
        "electoralDistricts": [
          {
            "election": null,
            "id": 117,
            "name": "Willowdale"
          }
        ],
        "pollDivisionIds": [
          10142620
        ],
        "postalCode": "M2N1B1",
        "streetName": "STUART",
        "streetDirectionId": null,
        "streetTypeId": "AVE",
        "placeName": "NORTH YORK",
        "streetNameDisplayText": "STUART AVE, NORTH YORK"
      }
    ]
  },
  {
    "postal": "M2N8B6",
    "result": []
  },
  {
    "postal": "M2N6H1",
    "result": [
      {
        "electoralDistricts": [
          {
            "election": null,
            "id": 117,
            "name": "Willowdale"
          }
        ],
        "pollDivisionIds": [
          10143898
        ],
        "postalCode": "M2N6H1",
        "streetName": "QUILTER",
        "streetDirectionId": null,
        "streetTypeId": "RD",
        "placeName": "NORTH YORK",
        "streetNameDisplayText": "QUILTER RD, NORTH YORK"
      }
    ]
  },
  {
    "postal": "M2N8T8",
    "result": []
  },
  {
    "postal": "M2N0T4",
    "result": []
  },
  {
    "postal": "M2N2C4",
    "result": [
      {
        "electoralDistricts": [
          {
            "election": null,
            "id": 117,
            "name": "Willowdale"
          }
        ],
        "pollDivisionIds": [
          10142613,
          10142612
        ],
        "postalCode": "M2N2C4",
        "streetName": "SANTA BARBARA",
        "streetDirectionId": null,
        "streetTypeId": "RD",
        "placeName": "NORTH YORK",
        "streetNameDisplayText": "SANTA BARBARA RD, NORTH YORK"
      }
    ]
  },
  {
    "postal": "M2N8N3",
    "result": []
  },
  {
    "postal": "M2N4L8",
    "result": [
      {
        "electoralDistricts": [
          {
            "election": null,
            "id": 117,
            "name": "Willowdale"
          }
        ],
        "pollDivisionIds": [
          10142614
        ],
        "postalCode": "M2N4L8",
        "streetName": "HOLMES",
        "streetDirectionId": null,
        "streetTypeId": "AVE",
        "placeName": "NORTH YORK",
        "streetNameDisplayText": "HOLMES AVE, NORTH YORK"
      }
    ]
  },
  {
    "postal": "M2N2B5",
    "result": [
      {
        "electoralDistricts": [
          {
            "election": null,
            "id": 117,
            "name": "Willowdale"
          }
        ],
        "pollDivisionIds": [
          10142612
        ],
        "postalCode": "M2N2B5",
        "streetName": "HOUNSLOW",
        "streetDirectionId": null,
        "streetTypeId": "AVE",
        "placeName": "NORTH YORK",
        "streetNameDisplayText": "HOUNSLOW AVE, NORTH YORK"
      }
    ]
  },
  {
    "postal": "M2N3H1",
    "result": [
      {
        "electoralDistricts": [
          {
            "election": null,
            "id": 117,
            "name": "Willowdale"
          }
        ],
        "pollDivisionIds": [
          10142616
        ],
        "postalCode": "M2N3H1",
        "streetName": "SPRING GARDEN",
        "streetDirectionId": null,
        "streetTypeId": "AVE",
        "placeName": "NORTH YORK",
        "streetNameDisplayText": "SPRING GARDEN AVE, NORTH YORK"
      }
    ]
  },
  {
    "postal": "M2N4Y1",
    "result": []
  },
  {
    "postal": "M2N7E2",
    "result": [
      {
        "electoralDistricts": [
          {
            "election": null,
            "id": 117,
            "name": "Willowdale"
          }
        ],
        "pollDivisionIds": [
          10142697
        ],
        "postalCode": "M2N7E2",
        "streetName": "HARRISON GARDEN",
        "streetDirectionId": null,
        "streetTypeId": "BLVD",
        "placeName": "NORTH YORK",
        "streetNameDisplayText": "HARRISON GARDEN BLVD, NORTH YORK"
      }
    ]
  },
  {
    "postal": "M2N2P5",
    "result": [
      {
        "electoralDistricts": [
          {
            "election": null,
            "id": 117,
            "name": "Willowdale"
          }
        ],
        "pollDivisionIds": [
          10142612
        ],
        "postalCode": "M2N2P5",
        "streetName": "TAMWORTH",
        "streetDirectionId": null,
        "streetTypeId": "RD",
        "placeName": "NORTH YORK",
        "streetNameDisplayText": "TAMWORTH RD, NORTH YORK"
      }
    ]
  },
  {
    "postal": "M2N8R7",
    "result": []
  },
  {
    "postal": "M2N9P1",
    "result": []
  },
  {
    "postal": "M2N3B8",
    "result": []
  },
  {
    "postal": "M2N3P7",
    "result": [
      {
        "electoralDistricts": [
          {
            "election": null,
            "id": 117,
            "name": "Willowdale"
          }
        ],
        "pollDivisionIds": [
          10142616
        ],
        "postalCode": "M2N3P7",
        "streetName": "HILLCREST",
        "streetDirectionId": null,
        "streetTypeId": "AVE",
        "placeName": "NORTH YORK",
        "streetNameDisplayText": "HILLCREST AVE, NORTH YORK"
      }
    ]
  },
  {
    "postal": "M2N9B2",
    "result": []
  },
  {
    "postal": "M2N6Z3",
    "result": []
  },
  {
    "postal": "M2N4N5",
    "result": []
  },
  {
    "postal": "M2N8T3",
    "result": []
  },
  {
    "postal": "M2N1V2",
    "result": []
  },
  {
    "postal": "M2N1Y0",
    "result": []
  },
  {
    "postal": "M2N3G6",
    "result": [
      {
        "electoralDistricts": [
          {
            "election": null,
            "id": 117,
            "name": "Willowdale"
          }
        ],
        "pollDivisionIds": [
          10142617
        ],
        "postalCode": "M2N3G6",
        "streetName": "SPRING GARDEN",
        "streetDirectionId": null,
        "streetTypeId": "AVE",
        "placeName": "NORTH YORK",
        "streetNameDisplayText": "SPRING GARDEN AVE, NORTH YORK"
      }
    ]
  },
  {
    "postal": "M2N3H7",
    "result": [
      {
        "electoralDistricts": [
          {
            "election": null,
            "id": 117,
            "name": "Willowdale"
          }
        ],
        "pollDivisionIds": [
          10142617
        ],
        "postalCode": "M2N3H7",
        "streetName": "ALFRED",
        "streetDirectionId": null,
        "streetTypeId": "AVE",
        "placeName": "NORTH YORK",
        "streetNameDisplayText": "ALFRED AVE, NORTH YORK"
      }
    ]
  },
  {
    "postal": "M2N7X8",
    "result": []
  },
  {
    "postal": "M2N0C7",
    "result": [
      {
        "electoralDistricts": [
          {
            "election": null,
            "id": 117,
            "name": "Willowdale"
          }
        ],
        "pollDivisionIds": [
          10142616
        ],
        "postalCode": "M2N0C7",
        "streetName": "MALLINGHAM",
        "streetDirectionId": null,
        "streetTypeId": "CRT",
        "placeName": "NORTH YORK",
        "streetNameDisplayText": "MALLINGHAM CRT, NORTH YORK"
      }
    ]
  },
  {
    "postal": "M2N0W9",
    "result": []
  },
  {
    "postal": "M2N8E6",
    "result": []
  },
  {
    "postal": "M2N9Z8",
    "result": []
  },
  {
    "postal": "M2N3P4",
    "result": [
      {
        "electoralDistricts": [
          {
            "election": null,
            "id": 117,
            "name": "Willowdale"
          }
        ],
        "pollDivisionIds": [
          10142616
        ],
        "postalCode": "M2N3P4",
        "streetName": "HILLCREST",
        "streetDirectionId": null,
        "streetTypeId": "AVE",
        "placeName": "NORTH YORK",
        "streetNameDisplayText": "HILLCREST AVE, NORTH YORK"
      }
    ]
  },
  {
    "postal": "M2N6L8",
    "result": [
      {
        "electoralDistricts": [
          {
            "election": null,
            "id": 117,
            "name": "Willowdale"
          }
        ],
        "pollDivisionIds": [
          10143898
        ],
        "postalCode": "M2N6L8",
        "streetName": "YONGE",
        "streetDirectionId": null,
        "streetTypeId": "ST",
        "placeName": "NORTH YORK",
        "streetNameDisplayText": "YONGE ST, NORTH YORK"
      }
    ]
  },
  {
    "postal": "M2N2R4",
    "result": [
      {
        "electoralDistricts": [
          {
            "election": null,
            "id": 117,
            "name": "Willowdale"
          }
        ],
        "pollDivisionIds": [
          10142611
        ],
        "postalCode": "M2N2R4",
        "streetName": "EDITHVALE",
        "streetDirectionId": null,
        "streetTypeId": "DR",
        "placeName": "NORTH YORK",
        "streetNameDisplayText": "EDITHVALE DR, NORTH YORK"
      }
    ]
  },
  {
    "postal": "M2N2W1",
    "result": [
      {
        "electoralDistricts": [
          {
            "election": null,
            "id": 117,
            "name": "Willowdale"
          }
        ],
        "pollDivisionIds": [
          10142617
        ],
        "postalCode": "M2N2W1",
        "streetName": "GLENDORA",
        "streetDirectionId": null,
        "streetTypeId": "AVE",
        "placeName": "NORTH YORK",
        "streetNameDisplayText": "GLENDORA AVE, NORTH YORK"
      }
    ]
  },
  {
    "postal": "M2N9H8",
    "result": []
  },
  {
    "postal": "M2N8X9",
    "result": []
  },
  {
    "postal": "M2N7H4",
    "result": [
      {
        "electoralDistricts": [
          {
            "election": null,
            "id": 117,
            "name": "Willowdale"
          }
        ],
        "pollDivisionIds": [
          10142647
        ],
        "postalCode": "M2N7H4",
        "streetName": "BYNG",
        "streetDirectionId": null,
        "streetTypeId": "AVE",
        "placeName": "NORTH YORK",
        "streetNameDisplayText": "BYNG AVE, NORTH YORK"
      },
      {
        "electoralDistricts": [
          {
            "election": null,
            "id": 98,
            "name": "Scarborough Southwest"
          }
        ],
        "pollDivisionIds": [
          10141775
        ],
        "postalCode": "M2N7H4",
        "streetName": "BYNG",
        "streetDirectionId": null,
        "streetTypeId": "AVE",
        "placeName": "SCARBOROUGH",
        "streetNameDisplayText": "BYNG AVE, SCARBOROUGH"
      }
    ]
  },
  {
    "postal": "M2N3J1",
    "result": [
      {
        "electoralDistricts": [
          {
            "election": null,
            "id": 117,
            "name": "Willowdale"
          }
        ],
        "pollDivisionIds": [
          10142617
        ],
        "postalCode": "M2N3J1",
        "streetName": "ALFRED",
        "streetDirectionId": null,
        "streetTypeId": "AVE",
        "placeName": "NORTH YORK",
        "streetNameDisplayText": "ALFRED AVE, NORTH YORK"
      }
    ]
  },
  {
    "postal": "M2N1P4",
    "result": [
      {
        "electoralDistricts": [
          {
            "election": null,
            "id": 117,
            "name": "Willowdale"
          }
        ],
        "pollDivisionIds": [
          10143898
        ],
        "postalCode": "M2N1P4",
        "streetName": "HARLANDALE",
        "streetDirectionId": null,
        "streetTypeId": "AVE",
        "placeName": "NORTH YORK",
        "streetNameDisplayText": "HARLANDALE AVE, NORTH YORK"
      }
    ]
  },
  {
    "postal": "M2N2A3",
    "result": [
      {
        "electoralDistricts": [
          {
            "election": null,
            "id": 117,
            "name": "Willowdale"
          }
        ],
        "pollDivisionIds": [
          10142612
        ],
        "postalCode": "M2N2A3",
        "streetName": "HORSHAM",
        "streetDirectionId": null,
        "streetTypeId": "AVE",
        "placeName": "NORTH YORK",
        "streetNameDisplayText": "HORSHAM AVE, NORTH YORK"
      }
    ]
  },
  {
    "postal": "M2N0Z1",
    "result": []
  },
  {
    "postal": "M2N1C1",
    "result": [
      {
        "electoralDistricts": [
          {
            "election": null,
            "id": 117,
            "name": "Willowdale"
          }
        ],
        "pollDivisionIds": [
          10142620
        ],
        "postalCode": "M2N1C1",
        "streetName": "FRANKLIN",
        "streetDirectionId": null,
        "streetTypeId": "AVE",
        "placeName": "NORTH YORK",
        "streetNameDisplayText": "FRANKLIN AVE, NORTH YORK"
      }
    ]
  },
  {
    "postal": "M2N0H3",
    "result": [
      {
        "electoralDistricts": [
          {
            "election": null,
            "id": 117,
            "name": "Willowdale"
          }
        ],
        "pollDivisionIds": [
          10142620
        ],
        "postalCode": "M2N0H3",
        "streetName": "BOGERT",
        "streetDirectionId": null,
        "streetTypeId": "AVE",
        "placeName": "NORTH YORK",
        "streetNameDisplayText": "BOGERT AVE, NORTH YORK"
      }
    ]
  },
  {
    "postal": "M2N7B0",
    "result": []
  },
  {
    "postal": "M2N5K2",
    "result": [
      {
        "electoralDistricts": [
          {
            "election": null,
            "id": 117,
            "name": "Willowdale"
          }
        ],
        "pollDivisionIds": [
          10142609
        ],
        "postalCode": "M2N5K2",
        "streetName": "MANORCREST",
        "streetDirectionId": null,
        "streetTypeId": "DR",
        "placeName": "NORTH YORK",
        "streetNameDisplayText": "MANORCREST DR, NORTH YORK"
      }
    ]
  },
  {
    "postal": "M2N1E9",
    "result": [
      {
        "electoralDistricts": [
          {
            "election": null,
            "id": 117,
            "name": "Willowdale"
          }
        ],
        "pollDivisionIds": [
          10142620
        ],
        "postalCode": "M2N1E9",
        "streetName": "FLORENCE",
        "streetDirectionId": null,
        "streetTypeId": "AVE",
        "placeName": "NORTH YORK",
        "streetNameDisplayText": "FLORENCE AVE, NORTH YORK"
      }
    ]
  },
  {
    "postal": "M2N9W7",
    "result": []
  },
  {
    "postal": "M2N5W6",
    "result": []
  },
  {
    "postal": "M2N6S6",
    "result": [
      {
        "electoralDistricts": [
          {
            "election": null,
            "id": 117,
            "name": "Willowdale"
          }
        ],
        "pollDivisionIds": [
          10142620
        ],
        "postalCode": "M2N6S6",
        "streetName": "SHEPPARD",
        "streetDirectionId": "W",
        "streetTypeId": "AVE",
        "placeName": "NORTH YORK",
        "streetNameDisplayText": "SHEPPARD AVE W, NORTH YORK"
      }
    ]
  },
  {
    "postal": "M2N2P8",
    "result": [
      {
        "electoralDistricts": [
          {
            "election": null,
            "id": 117,
            "name": "Willowdale"
          },
          {
            "election": null,
            "id": 56,
            "name": "MarkhamStouffville"
          }
        ],
        "pollDivisionIds": [
          10142612,
          10134338
        ],
        "postalCode": "M2N2P8",
        "streetName": "ABBOTSFORD",
        "streetDirectionId": null,
        "streetTypeId": "RD",
        "placeName": "NORTH YORK",
        "streetNameDisplayText": "ABBOTSFORD RD, NORTH YORK"
      }
    ]
  },
  {
    "postal": "M2N4P8",
    "result": [
      {
        "electoralDistricts": [
          {
            "election": null,
            "id": 117,
            "name": "Willowdale"
          }
        ],
        "pollDivisionIds": [
          10142609
        ],
        "postalCode": "M2N4P8",
        "streetName": "FELDBAR",
        "streetDirectionId": null,
        "streetTypeId": "CRT",
        "placeName": "NORTH YORK",
        "streetNameDisplayText": "FELDBAR CRT, NORTH YORK"
      }
    ]
  },
  {
    "postal": "M2N0V9",
    "result": []
  },
  {
    "postal": "M2N5Y2",
    "result": []
  },
  {
    "postal": "M2N7Z7",
    "result": []
  },
  {
    "postal": "M2N6Y8",
    "result": [
      {
        "electoralDistricts": [
          {
            "election": null,
            "id": 117,
            "name": "Willowdale"
          }
        ],
        "pollDivisionIds": [
          10142617
        ],
        "postalCode": "M2N6Y8",
        "streetName": "SHEPPARD",
        "streetDirectionId": "E",
        "streetTypeId": "AVE",
        "placeName": "NORTH YORK",
        "streetNameDisplayText": "SHEPPARD AVE E, NORTH YORK"
      }
    ]
  },
  {
    "postal": "M2N2G7",
    "result": [
      {
        "electoralDistricts": [
          {
            "election": null,
            "id": 117,
            "name": "Willowdale"
          }
        ],
        "pollDivisionIds": [
          10142639
        ],
        "postalCode": "M2N2G7",
        "streetName": "FINCH",
        "streetDirectionId": "W",
        "streetTypeId": "AVE",
        "placeName": "NORTH YORK",
        "streetNameDisplayText": "FINCH AVE W, NORTH YORK"
      }
    ]
  },
  {
    "postal": "M2N8C1",
    "result": []
  },
  {
    "postal": "M2N5C5",
    "result": [
      {
        "electoralDistricts": [
          {
            "election": null,
            "id": 117,
            "name": "Willowdale"
          }
        ],
        "pollDivisionIds": [
          10142609
        ],
        "postalCode": "M2N5C5",
        "streetName": "LONGMORE",
        "streetDirectionId": null,
        "streetTypeId": "ST",
        "placeName": "NORTH YORK",
        "streetNameDisplayText": "LONGMORE ST, NORTH YORK"
      }
    ]
  },
  {
    "postal": "M2N2X8",
    "result": [
      {
        "electoralDistricts": [
          {
            "election": null,
            "id": 117,
            "name": "Willowdale"
          }
        ],
        "pollDivisionIds": [
          10142617
        ],
        "postalCode": "M2N2X8",
        "streetName": "ANNDALE",
        "streetDirectionId": null,
        "streetTypeId": "DR",
        "placeName": "NORTH YORK",
        "streetNameDisplayText": "ANNDALE DR, NORTH YORK"
      }
    ]
  },
  {
    "postal": "M2N1W5",
    "result": [
      {
        "electoralDistricts": [
          {
            "election": null,
            "id": 117,
            "name": "Willowdale"
          }
        ],
        "pollDivisionIds": [
          10142613
        ],
        "postalCode": "M2N1W5",
        "streetName": "PARK HOME",
        "streetDirectionId": null,
        "streetTypeId": "AVE",
        "placeName": "NORTH YORK",
        "streetNameDisplayText": "PARK HOME AVE, NORTH YORK"
      }
    ]
  },
  {
    "postal": "M2N7G0",
    "result": []
  },
  {
    "postal": "M2N8J8",
    "result": []
  },
  {
    "postal": "M2N3Y0",
    "result": []
  },
  {
    "postal": "M2N9T7",
    "result": []
  },
  {
    "postal": "M2N5P4",
    "result": []
  },
  {
    "postal": "M2N4B0",
    "result": []
  },
  {
    "postal": "M2N9N8",
    "result": []
  },
  {
    "postal": "M2N4A7",
    "result": [
      {
        "electoralDistricts": [
          {
            "election": null,
            "id": 117,
            "name": "Willowdale"
          }
        ],
        "pollDivisionIds": [
          10142614
        ],
        "postalCode": "M2N4A7",
        "streetName": "NORTON",
        "streetDirectionId": null,
        "streetTypeId": "AVE",
        "placeName": "NORTH YORK",
        "streetNameDisplayText": "NORTON AVE, NORTH YORK"
      }
    ]
  },
  {
    "postal": "M2N4H9",
    "result": [
      {
        "electoralDistricts": [
          {
            "election": null,
            "id": 117,
            "name": "Willowdale"
          }
        ],
        "pollDivisionIds": [
          10142614
        ],
        "postalCode": "M2N4H9",
        "streetName": "DUNVIEW",
        "streetDirectionId": null,
        "streetTypeId": "AVE",
        "placeName": "NORTH YORK",
        "streetNameDisplayText": "DUNVIEW AVE, NORTH YORK"
      }
    ]
  },
  {
    "postal": "M2N6X1",
    "result": [
      {
        "electoralDistricts": [
          {
            "election": null,
            "id": 117,
            "name": "Willowdale"
          }
        ],
        "pollDivisionIds": [
          10142617
        ],
        "postalCode": "M2N6X1",
        "streetName": "SHEPPARD",
        "streetDirectionId": "E",
        "streetTypeId": "AVE",
        "placeName": "NORTH YORK",
        "streetNameDisplayText": "SHEPPARD AVE E, NORTH YORK"
      }
    ]
  },
  {
    "postal": "M2N9Y7",
    "result": []
  },
  {
    "postal": "M2N2Y5",
    "result": [
      {
        "electoralDistricts": [
          {
            "election": null,
            "id": 117,
            "name": "Willowdale"
          }
        ],
        "pollDivisionIds": [
          10142617
        ],
        "postalCode": "M2N2Y5",
        "streetName": "CRAIGMORE",
        "streetDirectionId": null,
        "streetTypeId": "CRES",
        "placeName": "NORTH YORK",
        "streetNameDisplayText": "CRAIGMORE CRES, NORTH YORK"
      }
    ]
  },
  {
    "postal": "M2N8L7",
    "result": []
  },
  {
    "postal": "M2N2A8",
    "result": [
      {
        "electoralDistricts": [
          {
            "election": null,
            "id": 117,
            "name": "Willowdale"
          }
        ],
        "pollDivisionIds": [
          10142613
        ],
        "postalCode": "M2N2A8",
        "streetName": "HOUNSLOW",
        "streetDirectionId": null,
        "streetTypeId": "AVE",
        "placeName": "NORTH YORK",
        "streetNameDisplayText": "HOUNSLOW AVE, NORTH YORK"
      }
    ]
  },
  {
    "postal": "M2N2K9",
    "result": [
      {
        "electoralDistricts": [
          {
            "election": null,
            "id": 117,
            "name": "Willowdale"
          }
        ],
        "pollDivisionIds": [
          10143898
        ],
        "postalCode": "M2N2K9",
        "streetName": "ADDINGTON",
        "streetDirectionId": null,
        "streetTypeId": "AVE",
        "placeName": "NORTH YORK",
        "streetNameDisplayText": "ADDINGTON AVE, NORTH YORK"
      }
    ]
  },
  {
    "postal": "M2N3E5",
    "result": [
      {
        "electoralDistricts": [
          {
            "election": null,
            "id": 117,
            "name": "Willowdale"
          }
        ],
        "pollDivisionIds": [
          10142616
        ],
        "postalCode": "M2N3E5",
        "streetName": "GREENFIELD",
        "streetDirectionId": null,
        "streetTypeId": "AVE",
        "placeName": "NORTH YORK",
        "streetNameDisplayText": "GREENFIELD AVE, NORTH YORK"
      }
    ]
  },
  {
    "postal": "M2N8N6",
    "result": []
  },
  {
    "postal": "M2N8J4",
    "result": []
  },
  {
    "postal": "M2N4R7",
    "result": [
      {
        "electoralDistricts": [
          {
            "election": null,
            "id": 117,
            "name": "Willowdale"
          }
        ],
        "pollDivisionIds": [
          10142608
        ],
        "postalCode": "M2N4R7",
        "streetName": "FINCH",
        "streetDirectionId": "E",
        "streetTypeId": "AVE",
        "placeName": "NORTH YORK",
        "streetNameDisplayText": "FINCH AVE E, NORTH YORK"
      }
    ]
  },
  {
    "postal": "M2N9K1",
    "result": []
  },
  {
    "postal": "M2N8E1",
    "result": []
  },
  {
    "postal": "M2N0R1",
    "result": []
  },
  {
    "postal": "M2N4J3",
    "result": [
      {
        "electoralDistricts": [
          {
            "election": null,
            "id": 117,
            "name": "Willowdale"
          }
        ],
        "pollDivisionIds": [
          10142614
        ],
        "postalCode": "M2N4J3",
        "streetName": "DUNVIEW",
        "streetDirectionId": null,
        "streetTypeId": "AVE",
        "placeName": "NORTH YORK",
        "streetNameDisplayText": "DUNVIEW AVE, NORTH YORK"
      }
    ]
  },
  {
    "postal": "M2N7E7",
    "result": []
  },
  {
    "postal": "M2N0J0",
    "result": []
  },
  {
    "postal": "M2N7R8",
    "result": []
  },
  {
    "postal": "M2N9X0",
    "result": []
  },
  {
    "postal": "M2N7P6",
    "result": []
  },
  {
    "postal": "M2N0R7",
    "result": []
  },
  {
    "postal": "M2N5W1",
    "result": []
  },
  {
    "postal": "M2N0K4",
    "result": []
  },
  {
    "postal": "M2N7N9",
    "result": []
  },
  {
    "postal": "M2N1N0",
    "result": []
  },
  {
    "postal": "M2N6P3",
    "result": []
  },
  {
    "postal": "M2N5A1",
    "result": [
      {
        "electoralDistricts": [
          {
            "election": null,
            "id": 117,
            "name": "Willowdale"
          }
        ],
        "pollDivisionIds": [
          10142615
        ],
        "postalCode": "M2N5A1",
        "streetName": "WILLOWDALE",
        "streetDirectionId": null,
        "streetTypeId": "AVE",
        "placeName": "NORTH YORK",
        "streetNameDisplayText": "WILLOWDALE AVE, NORTH YORK"
      }
    ]
  },
  {
    "postal": "M2N9M9",
    "result": []
  },
  {
    "postal": "M2N7T6",
    "result": []
  },
  {
    "postal": "M2N3X0",
    "result": []
  },
  {
    "postal": "M2N2T0",
    "result": []
  },
  {
    "postal": "M2N5X9",
    "result": [
      {
        "electoralDistricts": [
          {
            "election": null,
            "id": 117,
            "name": "Willowdale"
          }
        ],
        "pollDivisionIds": [
          10142683
        ],
        "postalCode": "M2N5X9",
        "streetName": "FOREST",
        "streetDirectionId": null,
        "streetTypeId": "LANEWY",
        "placeName": "NORTH YORK",
        "streetNameDisplayText": "FOREST LANEWY, NORTH YORK"
      }
    ]
  },
  {
    "postal": "M2N2R3",
    "result": [
      {
        "electoralDistricts": [
          {
            "election": null,
            "id": 117,
            "name": "Willowdale"
          }
        ],
        "pollDivisionIds": [
          10142612
        ],
        "postalCode": "M2N2R3",
        "streetName": "CLAYWOOD",
        "streetDirectionId": null,
        "streetTypeId": "RD",
        "placeName": "NORTH YORK",
        "streetNameDisplayText": "CLAYWOOD RD, NORTH YORK"
      }
    ]
  },
  {
    "postal": "M2N5N2",
    "result": [
      {
        "electoralDistricts": [
          {
            "election": null,
            "id": 117,
            "name": "Willowdale"
          }
        ],
        "pollDivisionIds": [
          10143898
        ],
        "postalCode": "M2N5N2",
        "streetName": "YONGE",
        "streetDirectionId": null,
        "streetTypeId": "ST",
        "placeName": "NORTH YORK",
        "streetNameDisplayText": "YONGE ST, NORTH YORK"
      }
    ]
  },
  {
    "postal": "M2N4Y7",
    "result": [
      {
        "electoralDistricts": [
          {
            "election": null,
            "id": 117,
            "name": "Willowdale"
          }
        ],
        "pollDivisionIds": [
          10142616
        ],
        "postalCode": "M2N4Y7",
        "streetName": "WILLOWDALE",
        "streetDirectionId": null,
        "streetTypeId": "AVE",
        "placeName": "NORTH YORK",
        "streetNameDisplayText": "WILLOWDALE AVE, NORTH YORK"
      }
    ]
  },
  {
    "postal": "M2N7M0",
    "result": []
  },
  {
    "postal": "M2N8P3",
    "result": []
  },
  {
    "postal": "M2N3N3",
    "result": [
      {
        "electoralDistricts": [
          {
            "election": null,
            "id": 117,
            "name": "Willowdale"
          }
        ],
        "pollDivisionIds": [
          10142616
        ],
        "postalCode": "M2N3N3",
        "streetName": "ELMWOOD",
        "streetDirectionId": null,
        "streetTypeId": "AVE",
        "placeName": "NORTH YORK",
        "streetNameDisplayText": "ELMWOOD AVE, NORTH YORK"
      }
    ]
  },
  {
    "postal": "M2N7S3",
    "result": []
  },
  {
    "postal": "M2N3V9",
    "result": [
      {
        "electoralDistricts": [
          {
            "election": null,
            "id": 117,
            "name": "Willowdale"
          }
        ],
        "pollDivisionIds": [
          10142616
        ],
        "postalCode": "M2N3V9",
        "streetName": "EMPRESS",
        "streetDirectionId": null,
        "streetTypeId": "AVE",
        "placeName": "NORTH YORK",
        "streetNameDisplayText": "EMPRESS AVE, NORTH YORK"
      }
    ]
  },
  {
    "postal": "M2N9N7",
    "result": []
  },
  {
    "postal": "M2N0G4",
    "result": [
      {
        "electoralDistricts": [
          {
            "election": null,
            "id": 117,
            "name": "Willowdale"
          }
        ],
        "pollDivisionIds": [
          10143898,
          10142617
        ],
        "postalCode": "M2N0G4",
        "streetName": "SHEPPARD",
        "streetDirectionId": "E",
        "streetTypeId": "AVE",
        "placeName": "NORTH YORK",
        "streetNameDisplayText": "SHEPPARD AVE E, NORTH YORK"
      }
    ]
  },
  {
    "postal": "M2N2E2",
    "result": [
      {
        "electoralDistricts": [
          {
            "election": null,
            "id": 117,
            "name": "Willowdale"
          }
        ],
        "pollDivisionIds": [
          10142611
        ],
        "postalCode": "M2N2E2",
        "streetName": "HOLCOLM",
        "streetDirectionId": null,
        "streetTypeId": "RD",
        "placeName": "NORTH YORK",
        "streetNameDisplayText": "HOLCOLM RD, NORTH YORK"
      }
    ]
  },
  {
    "postal": "M2N7W8",
    "result": []
  },
  {
    "postal": "M2N7M5",
    "result": []
  },
  {
    "postal": "M2N5W8",
    "result": [
      {
        "electoralDistricts": [
          {
            "election": null,
            "id": 117,
            "name": "Willowdale"
          }
        ],
        "pollDivisionIds": [
          10142616
        ],
        "postalCode": "M2N5W8",
        "streetName": "FLAMING ROSEWAY",
        "streetDirectionId": null,
        "streetTypeId": null,
        "placeName": "NORTH YORK",
        "streetNameDisplayText": "FLAMING ROSEWAY, NORTH YORK"
      }
    ]
  },
  {
    "postal": "M2N5E5",
    "result": [
      {
        "electoralDistricts": [
          {
            "election": null,
            "id": 117,
            "name": "Willowdale"
          }
        ],
        "pollDivisionIds": [
          10142616
        ],
        "postalCode": "M2N5E5",
        "streetName": "CALVIN",
        "streetDirectionId": null,
        "streetTypeId": "AVE",
        "placeName": "NORTH YORK",
        "streetNameDisplayText": "CALVIN AVE, NORTH YORK"
      }
    ]
  },
  {
    "postal": "M2N1P9",
    "result": [
      {
        "electoralDistricts": [
          {
            "election": null,
            "id": 117,
            "name": "Willowdale"
          }
        ],
        "pollDivisionIds": [
          10143898
        ],
        "postalCode": "M2N1P9",
        "streetName": "ADDINGTON",
        "streetDirectionId": null,
        "streetTypeId": "PL",
        "placeName": "NORTH YORK",
        "streetNameDisplayText": "ADDINGTON PL, NORTH YORK"
      }
    ]
  },
  {
    "postal": "M2N8V8",
    "result": []
  },
  {
    "postal": "M2N9G8",
    "result": []
  },
  {
    "postal": "M2N8H9",
    "result": []
  },
  {
    "postal": "M2N1Z1",
    "result": [
      {
        "electoralDistricts": [
          {
            "election": null,
            "id": 45,
            "name": "KingVaughan"
          },
          {
            "election": null,
            "id": 117,
            "name": "Willowdale"
          }
        ],
        "pollDivisionIds": [
          10102974,
          10142612
        ],
        "postalCode": "M2N1Z1",
        "streetName": "CHURCHILL",
        "streetDirectionId": null,
        "streetTypeId": "AVE",
        "placeName": "NORTH YORK",
        "streetNameDisplayText": "CHURCHILL AVE, NORTH YORK"
      }
    ]
  },
  {
    "postal": "M2N8M3",
    "result": []
  },
  {
    "postal": "M2N5H6",
    "result": [
      {
        "electoralDistricts": [
          {
            "election": null,
            "id": 117,
            "name": "Willowdale"
          }
        ],
        "pollDivisionIds": [
          10142614
        ],
        "postalCode": "M2N5H6",
        "streetName": "ESTELLE",
        "streetDirectionId": null,
        "streetTypeId": "AVE",
        "placeName": "NORTH YORK",
        "streetNameDisplayText": "ESTELLE AVE, NORTH YORK"
      }
    ]
  },
  {
    "postal": "M2N7W7",
    "result": []
  },
  {
    "postal": "M2N4L0",
    "result": []
  },
  {
    "postal": "M2N2N1",
    "result": [
      {
        "electoralDistricts": [
          {
            "election": null,
            "id": 117,
            "name": "Willowdale"
          }
        ],
        "pollDivisionIds": [
          10142613
        ],
        "postalCode": "M2N2N1",
        "streetName": "CANTERBURY",
        "streetDirectionId": null,
        "streetTypeId": "PL",
        "placeName": "NORTH YORK",
        "streetNameDisplayText": "CANTERBURY PL, NORTH YORK"
      }
    ]
  },
  {
    "postal": "M2N2H4",
    "result": [
      {
        "electoralDistricts": [
          {
            "election": null,
            "id": 117,
            "name": "Willowdale"
          }
        ],
        "pollDivisionIds": [
          10142611
        ],
        "postalCode": "M2N2H4",
        "streetName": "FINCH",
        "streetDirectionId": "W",
        "streetTypeId": "AVE",
        "placeName": "NORTH YORK",
        "streetNameDisplayText": "FINCH AVE W, NORTH YORK"
      }
    ]
  },
  {
    "postal": "M2N5C8",
    "result": [
      {
        "electoralDistricts": [
          {
            "election": null,
            "id": 117,
            "name": "Willowdale"
          }
        ],
        "pollDivisionIds": [
          10142614
        ],
        "postalCode": "M2N5C8",
        "streetName": "WILFRED",
        "streetDirectionId": null,
        "streetTypeId": "AVE",
        "placeName": "NORTH YORK",
        "streetNameDisplayText": "WILFRED AVE, NORTH YORK"
      }
    ]
  },
  {
    "postal": "M2N8B0",
    "result": []
  },
  {
    "postal": "M2N1T4",
    "result": [
      {
        "electoralDistricts": [
          {
            "election": null,
            "id": 117,
            "name": "Willowdale"
          }
        ],
        "pollDivisionIds": [
          10143898
        ],
        "postalCode": "M2N1T4",
        "streetName": "BURNDALE",
        "streetDirectionId": null,
        "streetTypeId": "AVE",
        "placeName": "NORTH YORK",
        "streetNameDisplayText": "BURNDALE AVE, NORTH YORK"
      }
    ]
  },
  {
    "postal": "M2N7N7",
    "result": []
  },
  {
    "postal": "M2N4L3",
    "result": [
      {
        "electoralDistricts": [
          {
            "election": null,
            "id": 117,
            "name": "Willowdale"
          }
        ],
        "pollDivisionIds": [
          10142609
        ],
        "postalCode": "M2N4L3",
        "streetName": "BYNG",
        "streetDirectionId": null,
        "streetTypeId": "AVE",
        "placeName": "NORTH YORK",
        "streetNameDisplayText": "BYNG AVE, NORTH YORK"
      }
    ]
  },
  {
    "postal": "M2N2N2",
    "result": [
      {
        "electoralDistricts": [
          {
            "election": null,
            "id": 117,
            "name": "Willowdale"
          }
        ],
        "pollDivisionIds": [
          10142613
        ],
        "postalCode": "M2N2N2",
        "streetName": "BASSWOOD",
        "streetDirectionId": null,
        "streetTypeId": "RD",
        "placeName": "NORTH YORK",
        "streetNameDisplayText": "BASSWOOD RD, NORTH YORK"
      }
    ]
  },
  {
    "postal": "M2N4N8",
    "result": [
      {
        "electoralDistricts": [
          {
            "election": null,
            "id": 117,
            "name": "Willowdale"
          }
        ],
        "pollDivisionIds": [
          10142614
        ],
        "postalCode": "M2N4N8",
        "streetName": "OLIVE",
        "streetDirectionId": null,
        "streetTypeId": "AVE",
        "placeName": "NORTH YORK",
        "streetNameDisplayText": "OLIVE AVE, NORTH YORK"
      }
    ]
  },
  {
    "postal": "M2N3M5",
    "result": [
      {
        "electoralDistricts": [
          {
            "election": null,
            "id": 117,
            "name": "Willowdale"
          }
        ],
        "pollDivisionIds": [
          10142616
        ],
        "postalCode": "M2N3M5",
        "streetName": "ELMWOOD",
        "streetDirectionId": null,
        "streetTypeId": "AVE",
        "placeName": "NORTH YORK",
        "streetNameDisplayText": "ELMWOOD AVE, NORTH YORK"
      }
    ]
  },
  {
    "postal": "M2N6H7",
    "result": [
      {
        "electoralDistricts": [
          {
            "election": null,
            "id": 117,
            "name": "Willowdale"
          }
        ],
        "pollDivisionIds": [
          10142616
        ],
        "postalCode": "M2N6H7",
        "streetName": "SHEPPARD",
        "streetDirectionId": "E",
        "streetTypeId": "AVE",
        "placeName": "NORTH YORK",
        "streetNameDisplayText": "SHEPPARD AVE E, NORTH YORK"
      }
    ]
  },
  {
    "postal": "M2N8Y8",
    "result": []
  },
  {
    "postal": "M2N5R9",
    "result": []
  },
  {
    "postal": "M2N8G3",
    "result": []
  },
  {
    "postal": "M2N4N7",
    "result": []
  },
  {
    "postal": "M2N0B9",
    "result": [
      {
        "electoralDistricts": [
          {
            "election": null,
            "id": 117,
            "name": "Willowdale"
          }
        ],
        "pollDivisionIds": [
          10142613
        ],
        "postalCode": "M2N0B9",
        "streetName": "CANTERBURY",
        "streetDirectionId": null,
        "streetTypeId": "PL",
        "placeName": "NORTH YORK",
        "streetNameDisplayText": "CANTERBURY PL, NORTH YORK"
      },
      {
        "electoralDistricts": [
          {
            "election": null,
            "id": 117,
            "name": "Willowdale"
          }
        ],
        "pollDivisionIds": [
          10142613
        ],
        "postalCode": "M2N0B9",
        "streetName": "CANTRBURY",
        "streetDirectionId": null,
        "streetTypeId": "PL",
        "placeName": "NORTH YORK",
        "streetNameDisplayText": "CANTRBURY PL, NORTH YORK"
      }
    ]
  },
  {
    "postal": "M2N9K7",
    "result": []
  },
  {
    "postal": "M2N9K9",
    "result": []
  },
  {
    "postal": "M2N3Z2",
    "result": [
      {
        "electoralDistricts": [
          {
            "election": null,
            "id": 117,
            "name": "Willowdale"
          }
        ],
        "pollDivisionIds": [
          10142616
        ],
        "postalCode": "M2N3Z2",
        "streetName": "PARKVIEW",
        "streetDirectionId": null,
        "streetTypeId": "AVE",
        "placeName": "NORTH YORK",
        "streetNameDisplayText": "PARKVIEW AVE, NORTH YORK"
      }
    ]
  },
  {
    "postal": "M2N6W7",
    "result": [
      {
        "electoralDistricts": [
          {
            "election": null,
            "id": 117,
            "name": "Willowdale"
          }
        ],
        "pollDivisionIds": [
          10142648
        ],
        "postalCode": "M2N6W7",
        "streetName": "SOMMERSET",
        "streetDirectionId": null,
        "streetTypeId": "WAY",
        "placeName": "NORTH YORK",
        "streetNameDisplayText": "SOMMERSET WAY, NORTH YORK"
      }
    ]
  },
  {
    "postal": "M2N0P1",
    "result": []
  },
  {
    "postal": "M2N3A0",
    "result": []
  },
  {
    "postal": "M2N8L9",
    "result": []
  },
  {
    "postal": "M2N6X0",
    "result": []
  },
  {
    "postal": "M2N3E9",
    "result": [
      {
        "electoralDistricts": [
          {
            "election": null,
            "id": 117,
            "name": "Willowdale"
          }
        ],
        "pollDivisionIds": [
          10142616
        ],
        "postalCode": "M2N3E9",
        "streetName": "A GREENFIELD",
        "streetDirectionId": null,
        "streetTypeId": "AVE",
        "placeName": "NORTH YORK",
        "streetNameDisplayText": "A GREENFIELD AVE, NORTH YORK"
      },
      {
        "electoralDistricts": [
          {
            "election": null,
            "id": 117,
            "name": "Willowdale"
          }
        ],
        "pollDivisionIds": [
          10142616
        ],
        "postalCode": "M2N3E9",
        "streetName": "GREENFIELD",
        "streetDirectionId": null,
        "streetTypeId": "AVE",
        "placeName": "NORTH YORK",
        "streetNameDisplayText": "GREENFIELD AVE, NORTH YORK"
      }
    ]
  },
  {
    "postal": "M2N0S5",
    "result": []
  },
  {
    "postal": "M2N1A2",
    "result": [
      {
        "electoralDistricts": [
          {
            "election": null,
            "id": 117,
            "name": "Willowdale"
          }
        ],
        "pollDivisionIds": [
          10142619
        ],
        "postalCode": "M2N1A2",
        "streetName": "GWENDOLEN",
        "streetDirectionId": null,
        "streetTypeId": "AVE",
        "placeName": "NORTH YORK",
        "streetNameDisplayText": "GWENDOLEN AVE, NORTH YORK"
      }
    ]
  },
  {
    "postal": "M2N5V8",
    "result": []
  },
  {
    "postal": "M2N8C5",
    "result": []
  },
  {
    "postal": "M2N6N0",
    "result": []
  },
  {
    "postal": "M2N9E6",
    "result": []
  },
  {
    "postal": "M2N5J7",
    "result": [
      {
        "electoralDistricts": [
          {
            "election": null,
            "id": 117,
            "name": "Willowdale"
          }
        ],
        "pollDivisionIds": [
          10142616
        ],
        "postalCode": "M2N5J7",
        "streetName": "CLAIRTRELL",
        "streetDirectionId": null,
        "streetTypeId": "RD",
        "placeName": "NORTH YORK",
        "streetNameDisplayText": "CLAIRTRELL RD, NORTH YORK"
      }
    ]
  },
  {
    "postal": "M2N2R2",
    "result": [
      {
        "electoralDistricts": [
          {
            "election": null,
            "id": 117,
            "name": "Willowdale"
          }
        ],
        "pollDivisionIds": [
          10142611
        ],
        "postalCode": "M2N2R2",
        "streetName": "CLAYWOOD",
        "streetDirectionId": null,
        "streetTypeId": "RD",
        "placeName": "NORTH YORK",
        "streetNameDisplayText": "CLAYWOOD RD, NORTH YORK"
      }
    ]
  },
  {
    "postal": "M2N0P5",
    "result": []
  },
  {
    "postal": "M2N5A7",
    "result": [
      {
        "electoralDistricts": [
          {
            "election": null,
            "id": 117,
            "name": "Willowdale"
          }
        ],
        "pollDivisionIds": [
          10142614
        ],
        "postalCode": "M2N5A7",
        "streetName": "WILLOWDALE",
        "streetDirectionId": null,
        "streetTypeId": "AVE",
        "placeName": "NORTH YORK",
        "streetNameDisplayText": "WILLOWDALE AVE, NORTH YORK"
      }
    ]
  },
  {
    "postal": "M2N1G1",
    "result": [
      {
        "electoralDistricts": [
          {
            "election": null,
            "id": 117,
            "name": "Willowdale"
          }
        ],
        "pollDivisionIds": [
          10142620,
          10142619
        ],
        "postalCode": "M2N1G1",
        "streetName": "FLORENCE",
        "streetDirectionId": null,
        "streetTypeId": "AVE",
        "placeName": "NORTH YORK",
        "streetNameDisplayText": "FLORENCE AVE, NORTH YORK"
      }
    ]
  },
  {
    "postal": "M2N9R6",
    "result": []
  },
  {
    "postal": "M2N4Z9",
    "result": [
      {
        "electoralDistricts": [
          {
            "election": null,
            "id": 117,
            "name": "Willowdale"
          }
        ],
        "pollDivisionIds": [
          10142615
        ],
        "postalCode": "M2N4Z9",
        "streetName": "WILLOWDALE",
        "streetDirectionId": null,
        "streetTypeId": "AVE",
        "placeName": "NORTH YORK",
        "streetNameDisplayText": "WILLOWDALE AVE, NORTH YORK"
      }
    ]
  },
  {
    "postal": "M2N1V5",
    "result": [
      {
        "electoralDistricts": [
          {
            "election": null,
            "id": 117,
            "name": "Willowdale"
          }
        ],
        "pollDivisionIds": [
          10143898
        ],
        "postalCode": "M2N1V5",
        "streetName": "BURNETT",
        "streetDirectionId": null,
        "streetTypeId": "AVE",
        "placeName": "NORTH YORK",
        "streetNameDisplayText": "BURNETT AVE, NORTH YORK"
      }
    ]
  },
  {
    "postal": "M2N9Y5",
    "result": []
  },
  {
    "postal": "M2N1P2",
    "result": [
      {
        "electoralDistricts": [
          {
            "election": null,
            "id": 117,
            "name": "Willowdale"
          }
        ],
        "pollDivisionIds": [
          10143898
        ],
        "postalCode": "M2N1P2",
        "streetName": "HARLANDALE",
        "streetDirectionId": null,
        "streetTypeId": "AVE",
        "placeName": "NORTH YORK",
        "streetNameDisplayText": "HARLANDALE AVE, NORTH YORK"
      }
    ]
  },
  {
    "postal": "M2N5X0",
    "result": []
  },
  {
    "postal": "M2N7B8",
    "result": [
      {
        "electoralDistricts": [
          {
            "election": null,
            "id": 117,
            "name": "Willowdale"
          }
        ],
        "pollDivisionIds": [
          10142613
        ],
        "postalCode": "M2N7B8",
        "streetName": "MCBRIDE",
        "streetDirectionId": null,
        "streetTypeId": "LANE",
        "placeName": "NORTH YORK",
        "streetNameDisplayText": "MCBRIDE LANE, NORTH YORK"
      }
    ]
  },
  {
    "postal": "M2N0C6",
    "result": []
  },
  {
    "postal": "M2N6G1",
    "result": []
  },
  {
    "postal": "M2N3K3",
    "result": [
      {
        "electoralDistricts": [
          {
            "election": null,
            "id": 117,
            "name": "Willowdale"
          }
        ],
        "pollDivisionIds": [
          10142617
        ],
        "postalCode": "M2N3K3",
        "streetName": "HOLLYWOOD",
        "streetDirectionId": null,
        "streetTypeId": "AVE",
        "placeName": "NORTH YORK",
        "streetNameDisplayText": "HOLLYWOOD AVE, NORTH YORK"
      }
    ]
  },
  {
    "postal": "M2N9R0",
    "result": []
  },
  {
    "postal": "M2N4R8",
    "result": [
      {
        "electoralDistricts": [
          {
            "election": null,
            "id": 117,
            "name": "Willowdale"
          }
        ],
        "pollDivisionIds": [
          10142609
        ],
        "postalCode": "M2N4R8",
        "streetName": "FINCH",
        "streetDirectionId": "E",
        "streetTypeId": "AVE",
        "placeName": "NORTH YORK",
        "streetNameDisplayText": "FINCH AVE E, NORTH YORK"
      }
    ]
  },
  {
    "postal": "M2N5P9",
    "result": [
      {
        "electoralDistricts": [
          {
            "election": null,
            "id": 117,
            "name": "Willowdale"
          }
        ],
        "pollDivisionIds": [
          10142613
        ],
        "postalCode": "M2N5P9",
        "streetName": "YONGE",
        "streetDirectionId": null,
        "streetTypeId": "ST",
        "placeName": "NORTH YORK",
        "streetNameDisplayText": "YONGE ST, NORTH YORK"
      }
    ]
  },
  {
    "postal": "M2N8N4",
    "result": []
  },
  {
    "postal": "M2N8H4",
    "result": []
  },
  {
    "postal": "M2N4V1",
    "result": [
      {
        "electoralDistricts": [
          {
            "election": null,
            "id": 117,
            "name": "Willowdale"
          }
        ],
        "pollDivisionIds": [
          10142617
        ],
        "postalCode": "M2N4V1",
        "streetName": "BONNINGTON",
        "streetDirectionId": null,
        "streetTypeId": "PL",
        "placeName": "NORTH YORK",
        "streetNameDisplayText": "BONNINGTON PL, NORTH YORK"
      }
    ]
  },
  {
    "postal": "M2N1K5",
    "result": [
      {
        "electoralDistricts": [
          {
            "election": null,
            "id": 117,
            "name": "Willowdale"
          }
        ],
        "pollDivisionIds": [
          10142620
        ],
        "postalCode": "M2N1K5",
        "streetName": "BOGERT",
        "streetDirectionId": null,
        "streetTypeId": "AVE",
        "placeName": "NORTH YORK",
        "streetNameDisplayText": "BOGERT AVE, NORTH YORK"
      }
    ]
  },
  {
    "postal": "M2N1Z5",
    "result": [
      {
        "electoralDistricts": [
          {
            "election": null,
            "id": 117,
            "name": "Willowdale"
          }
        ],
        "pollDivisionIds": [
          10142612
        ],
        "postalCode": "M2N1Z5",
        "streetName": "CHURCHILL",
        "streetDirectionId": null,
        "streetTypeId": "AVE",
        "placeName": "NORTH YORK",
        "streetNameDisplayText": "CHURCHILL AVE, NORTH YORK"
      }
    ]
  },
  {
    "postal": "M2N9L9",
    "result": []
  },
  {
    "postal": "M2N5L2",
    "result": [
      {
        "electoralDistricts": [
          {
            "election": null,
            "id": 117,
            "name": "Willowdale"
          }
        ],
        "pollDivisionIds": [
          10142614
        ],
        "postalCode": "M2N5L2",
        "streetName": "BAYVIEW",
        "streetDirectionId": null,
        "streetTypeId": "AVE",
        "placeName": "NORTH YORK",
        "streetNameDisplayText": "BAYVIEW AVE, NORTH YORK"
      }
    ]
  },
  {
    "postal": "M2N0M2",
    "result": []
  },
  {
    "postal": "M2N1K8",
    "result": [
      {
        "electoralDistricts": [
          {
            "election": null,
            "id": 117,
            "name": "Willowdale"
          }
        ],
        "pollDivisionIds": [
          10142620
        ],
        "postalCode": "M2N1K8",
        "streetName": "BOGERT",
        "streetDirectionId": null,
        "streetTypeId": "AVE",
        "placeName": "NORTH YORK",
        "streetNameDisplayText": "BOGERT AVE, NORTH YORK"
      }
    ]
  },
  {
    "postal": "M2N3M7",
    "result": [
      {
        "electoralDistricts": [
          {
            "election": null,
            "id": 117,
            "name": "Willowdale"
          }
        ],
        "pollDivisionIds": [
          10142616
        ],
        "postalCode": "M2N3M7",
        "streetName": "ELMWOOD",
        "streetDirectionId": null,
        "streetTypeId": "AVE",
        "placeName": "NORTH YORK",
        "streetNameDisplayText": "ELMWOOD AVE, NORTH YORK"
      }
    ]
  },
  {
    "postal": "M2N1B2",
    "result": [
      {
        "electoralDistricts": [
          {
            "election": null,
            "id": 117,
            "name": "Willowdale"
          }
        ],
        "pollDivisionIds": [
          10142619
        ],
        "postalCode": "M2N1B2",
        "streetName": "STUART",
        "streetDirectionId": null,
        "streetTypeId": "AVE",
        "placeName": "NORTH YORK",
        "streetNameDisplayText": "STUART AVE, NORTH YORK"
      }
    ]
  },
  {
    "postal": "M2N0H9",
    "result": []
  },
  {
    "postal": "M2N8M4",
    "result": []
  },
  {
    "postal": "M2N2M5",
    "result": [
      {
        "electoralDistricts": [
          {
            "election": null,
            "id": 117,
            "name": "Willowdale"
          }
        ],
        "pollDivisionIds": [
          10143898
        ],
        "postalCode": "M2N2M5",
        "streetName": "EDDFIELD",
        "streetDirectionId": null,
        "streetTypeId": "AVE",
        "placeName": "NORTH YORK",
        "streetNameDisplayText": "EDDFIELD AVE, NORTH YORK"
      }
    ]
  },
  {
    "postal": "M2N0T9",
    "result": []
  },
  {
    "postal": "M2N3P1",
    "result": [
      {
        "electoralDistricts": [
          {
            "election": null,
            "id": 117,
            "name": "Willowdale"
          }
        ],
        "pollDivisionIds": [
          10142615
        ],
        "postalCode": "M2N3P1",
        "streetName": "HILLCREST",
        "streetDirectionId": null,
        "streetTypeId": "AVE",
        "placeName": "NORTH YORK",
        "streetNameDisplayText": "HILLCREST AVE, NORTH YORK"
      }
    ]
  },
  {
    "postal": "M2N1R6",
    "result": [
      {
        "electoralDistricts": [
          {
            "election": null,
            "id": 117,
            "name": "Willowdale"
          }
        ],
        "pollDivisionIds": [
          10143898
        ],
        "postalCode": "M2N1R6",
        "streetName": "ELMHURST",
        "streetDirectionId": null,
        "streetTypeId": "AVE",
        "placeName": "NORTH YORK",
        "streetNameDisplayText": "ELMHURST AVE, NORTH YORK"
      },
      {
        "electoralDistricts": [
          {
            "election": null,
            "id": 30,
            "name": "Etobicoke North"
          }
        ],
        "pollDivisionIds": [
          10138218
        ],
        "postalCode": "M2N1R6",
        "streetName": "ELMHURST",
        "streetDirectionId": null,
        "streetTypeId": "DR",
        "placeName": "NORTH YORK",
        "streetNameDisplayText": "ELMHURST DR, NORTH YORK"
      }
    ]
  },
  {
    "postal": "M2N9V5",
    "result": []
  },
  {
    "postal": "M2N9T0",
    "result": []
  },
  {
    "postal": "M2N0A9",
    "result": [
      {
        "electoralDistricts": [
          {
            "election": null,
            "id": 117,
            "name": "Willowdale"
          }
        ],
        "pollDivisionIds": [
          10142674
        ],
        "postalCode": "M2N0A9",
        "streetName": "HOLLYWOOD",
        "streetDirectionId": null,
        "streetTypeId": "AVE",
        "placeName": "NORTH YORK",
        "streetNameDisplayText": "HOLLYWOOD AVE, NORTH YORK"
      }
    ]
  },
  {
    "postal": "M2N1M3",
    "result": []
  },
  {
    "postal": "M2N1W8",
    "result": [
      {
        "electoralDistricts": [
          {
            "election": null,
            "id": 117,
            "name": "Willowdale"
          }
        ],
        "pollDivisionIds": [
          10142612
        ],
        "postalCode": "M2N1W8",
        "streetName": "PARK HOME",
        "streetDirectionId": null,
        "streetTypeId": "AVE",
        "placeName": "NORTH YORK",
        "streetNameDisplayText": "PARK HOME AVE, NORTH YORK"
      }
    ]
  },
  {
    "postal": "M2N9J1",
    "result": []
  },
  {
    "postal": "M2N8N5",
    "result": []
  },
  {
    "postal": "M2N5X1",
    "result": []
  },
  {
    "postal": "M2N6S2",
    "result": [
      {
        "electoralDistricts": [
          {
            "election": null,
            "id": 117,
            "name": "Willowdale"
          }
        ],
        "pollDivisionIds": [
          10142617
        ],
        "postalCode": "M2N6S2",
        "streetName": "SHEPPARD",
        "streetDirectionId": "E",
        "streetTypeId": "AVE",
        "placeName": "NORTH YORK",
        "streetNameDisplayText": "SHEPPARD AVE E, NORTH YORK"
      }
    ]
  },
  {
    "postal": "M2N2A2",
    "result": [
      {
        "electoralDistricts": [
          {
            "election": null,
            "id": 117,
            "name": "Willowdale"
          }
        ],
        "pollDivisionIds": [
          10142612
        ],
        "postalCode": "M2N2A2",
        "streetName": "HORSHAM",
        "streetDirectionId": null,
        "streetTypeId": "AVE",
        "placeName": "NORTH YORK",
        "streetNameDisplayText": "HORSHAM AVE, NORTH YORK"
      }
    ]
  },
  {
    "postal": "M2N6A6",
    "result": [
      {
        "electoralDistricts": [
          {
            "election": null,
            "id": 117,
            "name": "Willowdale"
          }
        ],
        "pollDivisionIds": [
          10143898
        ],
        "postalCode": "M2N6A6",
        "streetName": "YONGE",
        "streetDirectionId": null,
        "streetTypeId": "ST",
        "placeName": "NORTH YORK",
        "streetNameDisplayText": "YONGE ST, NORTH YORK"
      }
    ]
  },
  {
    "postal": "M2N0S3",
    "result": []
  },
  {
    "postal": "M2N3E7",
    "result": [
      {
        "electoralDistricts": [
          {
            "election": null,
            "id": 117,
            "name": "Willowdale"
          }
        ],
        "pollDivisionIds": [
          10142616
        ],
        "postalCode": "M2N3E7",
        "streetName": "GREENFIELD",
        "streetDirectionId": null,
        "streetTypeId": "AVE",
        "placeName": "NORTH YORK",
        "streetNameDisplayText": "GREENFIELD AVE, NORTH YORK"
      }
    ]
  },
  {
    "postal": "M2N5R7",
    "result": []
  },
  {
    "postal": "M2N3R6",
    "result": [
      {
        "electoralDistricts": [
          {
            "election": null,
            "id": 117,
            "name": "Willowdale"
          }
        ],
        "pollDivisionIds": [
          10142615
        ],
        "postalCode": "M2N3R6",
        "streetName": "PRINCESS",
        "streetDirectionId": null,
        "streetTypeId": "AVE",
        "placeName": "NORTH YORK",
        "streetNameDisplayText": "PRINCESS AVE, NORTH YORK"
      }
    ]
  },
  {
    "postal": "M2N6K4",
    "result": []
  },
  {
    "postal": "M2N2W5",
    "result": [
      {
        "electoralDistricts": [
          {
            "election": null,
            "id": 117,
            "name": "Willowdale"
          }
        ],
        "pollDivisionIds": [
          10142617
        ],
        "postalCode": "M2N2W5",
        "streetName": "GLENDORA",
        "streetDirectionId": null,
        "streetTypeId": "AVE",
        "placeName": "NORTH YORK",
        "streetNameDisplayText": "GLENDORA AVE, NORTH YORK"
      }
    ]
  },
  {
    "postal": "M2N8W4",
    "result": []
  },
  {
    "postal": "M2N9C2",
    "result": []
  },
  {
    "postal": "M2N2C0",
    "result": []
  },
  {
    "postal": "M2N0E1",
    "result": [
      {
        "electoralDistricts": [
          {
            "election": null,
            "id": 117,
            "name": "Willowdale"
          }
        ],
        "pollDivisionIds": [
          10142642
        ],
        "postalCode": "M2N0E1",
        "streetName": "HOLMES",
        "streetDirectionId": null,
        "streetTypeId": "AVE",
        "placeName": "NORTH YORK",
        "streetNameDisplayText": "HOLMES AVE, NORTH YORK"
      }
    ]
  },
  {
    "postal": "M2N1K9",
    "result": [
      {
        "electoralDistricts": [
          {
            "election": null,
            "id": 117,
            "name": "Willowdale"
          }
        ],
        "pollDivisionIds": [
          10142619
        ],
        "postalCode": "M2N1K9",
        "streetName": "BOGERT",
        "streetDirectionId": null,
        "streetTypeId": "AVE",
        "placeName": "NORTH YORK",
        "streetNameDisplayText": "BOGERT AVE, NORTH YORK"
      }
    ]
  },
  {
    "postal": "M2N1G7",
    "result": [
      {
        "electoralDistricts": [
          {
            "election": null,
            "id": 117,
            "name": "Willowdale"
          }
        ],
        "pollDivisionIds": [
          10142619
        ],
        "postalCode": "M2N1G7",
        "streetName": "FLORENCE",
        "streetDirectionId": null,
        "streetTypeId": "AVE",
        "placeName": "NORTH YORK",
        "streetNameDisplayText": "FLORENCE AVE, NORTH YORK"
      }
    ]
  },
  {
    "postal": "M2N4E9",
    "result": [
      {
        "electoralDistricts": [
          {
            "election": null,
            "id": 117,
            "name": "Willowdale"
          }
        ],
        "pollDivisionIds": [
          10142614
        ],
        "postalCode": "M2N4E9",
        "streetName": "CHURCH",
        "streetDirectionId": null,
        "streetTypeId": "AVE",
        "placeName": "NORTH YORK",
        "streetNameDisplayText": "CHURCH AVE, NORTH YORK"
      }
    ]
  },
  {
    "postal": "M2N9P0",
    "result": []
  },
  {
    "postal": "M2N5H3",
    "result": [
      {
        "electoralDistricts": [
          {
            "election": null,
            "id": 117,
            "name": "Willowdale"
          }
        ],
        "pollDivisionIds": [
          10142616
        ],
        "postalCode": "M2N5H3",
        "streetName": "ESTELLE",
        "streetDirectionId": null,
        "streetTypeId": "AVE",
        "placeName": "NORTH YORK",
        "streetNameDisplayText": "ESTELLE AVE, NORTH YORK"
      }
    ]
  },
  {
    "postal": "M2N9X6",
    "result": []
  },
  {
    "postal": "M2N5N7",
    "result": []
  },
  {
    "postal": "M2N5A6",
    "result": [
      {
        "electoralDistricts": [
          {
            "election": null,
            "id": 117,
            "name": "Willowdale"
          }
        ],
        "pollDivisionIds": [
          10142614
        ],
        "postalCode": "M2N5A6",
        "streetName": "WILLOWDALE",
        "streetDirectionId": null,
        "streetTypeId": "AVE",
        "placeName": "NORTH YORK",
        "streetNameDisplayText": "WILLOWDALE AVE, NORTH YORK"
      }
    ]
  },
  {
    "postal": "M2N4M0",
    "result": []
  },
  {
    "postal": "M2N3V6",
    "result": [
      {
        "electoralDistricts": [
          {
            "election": null,
            "id": 117,
            "name": "Willowdale"
          }
        ],
        "pollDivisionIds": [
          10142616
        ],
        "postalCode": "M2N3V6",
        "streetName": "EMPRESS",
        "streetDirectionId": null,
        "streetTypeId": "AVE",
        "placeName": "NORTH YORK",
        "streetNameDisplayText": "EMPRESS AVE, NORTH YORK"
      }
    ]
  },
  {
    "postal": "M2N1L7",
    "result": [
      {
        "electoralDistricts": [
          {
            "election": null,
            "id": 117,
            "name": "Willowdale"
          }
        ],
        "pollDivisionIds": [
          10142619
        ],
        "postalCode": "M2N1L7",
        "streetName": "BOGERT",
        "streetDirectionId": null,
        "streetTypeId": "AVE",
        "placeName": "NORTH YORK",
        "streetNameDisplayText": "BOGERT AVE, NORTH YORK"
      }
    ]
  },
  {
    "postal": "M2N2P9",
    "result": [
      {
        "electoralDistricts": [
          {
            "election": null,
            "id": 117,
            "name": "Willowdale"
          }
        ],
        "pollDivisionIds": [
          10142612
        ],
        "postalCode": "M2N2P9",
        "streetName": "ABBOTSFORD",
        "streetDirectionId": null,
        "streetTypeId": "RD",
        "placeName": "NORTH YORK",
        "streetNameDisplayText": "ABBOTSFORD RD, NORTH YORK"
      }
    ]
  },
  {
    "postal": "M2N5T4",
    "result": []
  },
  {
    "postal": "M2N5Z1",
    "result": [
      {
        "electoralDistricts": [
          {
            "election": null,
            "id": 117,
            "name": "Willowdale"
          }
        ],
        "pollDivisionIds": [
          10142616
        ],
        "postalCode": "M2N5Z1",
        "streetName": "GYPSY ROSEWAY",
        "streetDirectionId": null,
        "streetTypeId": null,
        "placeName": "NORTH YORK",
        "streetNameDisplayText": "GYPSY ROSEWAY, NORTH YORK"
      }
    ]
  },
  {
    "postal": "M2N2X0",
    "result": []
  },
  {
    "postal": "M2N6Z2",
    "result": [
      {
        "electoralDistricts": [
          {
            "election": null,
            "id": 117,
            "name": "Willowdale"
          }
        ],
        "pollDivisionIds": [
          10142617
        ],
        "postalCode": "M2N6Z2",
        "streetName": "KENNETH",
        "streetDirectionId": null,
        "streetTypeId": "AVE",
        "placeName": "NORTH YORK",
        "streetNameDisplayText": "KENNETH AVE, NORTH YORK"
      }
    ]
  },
  {
    "postal": "M2N0E0",
    "result": []
  },
  {
    "postal": "M2N3Z5",
    "result": [
      {
        "electoralDistricts": [
          {
            "election": null,
            "id": 117,
            "name": "Willowdale"
          }
        ],
        "pollDivisionIds": [
          10142614
        ],
        "postalCode": "M2N3Z5",
        "streetName": "PARKVIEW",
        "streetDirectionId": null,
        "streetTypeId": "AVE",
        "placeName": "NORTH YORK",
        "streetNameDisplayText": "PARKVIEW AVE, NORTH YORK"
      }
    ]
  },
  {
    "postal": "M2N8H3",
    "result": []
  },
  {
    "postal": "M2N7S6",
    "result": []
  },
  {
    "postal": "M2N4C1",
    "result": [
      {
        "electoralDistricts": [
          {
            "election": null,
            "id": 117,
            "name": "Willowdale"
          }
        ],
        "pollDivisionIds": [
          10142614
        ],
        "postalCode": "M2N4C1",
        "streetName": "MCKEE",
        "streetDirectionId": null,
        "streetTypeId": "AVE",
        "placeName": "NORTH YORK",
        "streetNameDisplayText": "MCKEE AVE, NORTH YORK"
      }
    ]
  },
  {
    "postal": "M2N3K2",
    "result": [
      {
        "electoralDistricts": [
          {
            "election": null,
            "id": 117,
            "name": "Willowdale"
          }
        ],
        "pollDivisionIds": [
          10142617
        ],
        "postalCode": "M2N3K2",
        "streetName": "HOLLYWOOD",
        "streetDirectionId": null,
        "streetTypeId": "AVE",
        "placeName": "NORTH YORK",
        "streetNameDisplayText": "HOLLYWOOD AVE, NORTH YORK"
      }
    ]
  },
  {
    "postal": "M2N1Y5",
    "result": [
      {
        "electoralDistricts": [
          {
            "election": null,
            "id": 117,
            "name": "Willowdale"
          }
        ],
        "pollDivisionIds": [
          10142612
        ],
        "postalCode": "M2N1Y5",
        "streetName": "ELLERSLIE",
        "streetDirectionId": null,
        "streetTypeId": "AVE",
        "placeName": "NORTH YORK",
        "streetNameDisplayText": "ELLERSLIE AVE, NORTH YORK"
      }
    ]
  },
  {
    "postal": "M2N6P6",
    "result": [
      {
        "electoralDistricts": [
          {
            "election": null,
            "id": 117,
            "name": "Willowdale"
          }
        ],
        "pollDivisionIds": [
          10142617
        ],
        "postalCode": "M2N6P6",
        "streetName": "YONGE",
        "streetDirectionId": null,
        "streetTypeId": "ST",
        "placeName": "NORTH YORK",
        "streetNameDisplayText": "YONGE ST, NORTH YORK"
      }
    ]
  },
  {
    "postal": "M2N3N9",
    "result": [
      {
        "electoralDistricts": [
          {
            "election": null,
            "id": 117,
            "name": "Willowdale"
          }
        ],
        "pollDivisionIds": [
          10142615
        ],
        "postalCode": "M2N3N9",
        "streetName": "HILLCREST",
        "streetDirectionId": null,
        "streetTypeId": "AVE",
        "placeName": "NORTH YORK",
        "streetNameDisplayText": "HILLCREST AVE, NORTH YORK"
      }
    ]
  },
  {
    "postal": "M2N3W2",
    "result": []
  },
  {
    "postal": "M2N6H8",
    "result": [
      {
        "electoralDistricts": [
          {
            "election": null,
            "id": 117,
            "name": "Willowdale"
          }
        ],
        "pollDivisionIds": [
          10142637
        ],
        "postalCode": "M2N6H8",
        "streetName": "FINCH",
        "streetDirectionId": "E",
        "streetTypeId": "AVE",
        "placeName": "NORTH YORK",
        "streetNameDisplayText": "FINCH AVE E, NORTH YORK"
      }
    ]
  },
  {
    "postal": "M2N9T3",
    "result": []
  },
  {
    "postal": "M2N5L9",
    "result": []
  },
  {
    "postal": "M2N7X7",
    "result": []
  },
  {
    "postal": "M2N3J5",
    "result": [
      {
        "electoralDistricts": [
          {
            "election": null,
            "id": 117,
            "name": "Willowdale"
          }
        ],
        "pollDivisionIds": [
          10142616
        ],
        "postalCode": "M2N3J5",
        "streetName": "ALFRED",
        "streetDirectionId": null,
        "streetTypeId": "AVE",
        "placeName": "NORTH YORK",
        "streetNameDisplayText": "ALFRED AVE, NORTH YORK"
      }
    ]
  },
  {
    "postal": "M2N4J5",
    "result": [
      {
        "electoralDistricts": [
          {
            "election": null,
            "id": 117,
            "name": "Willowdale"
          }
        ],
        "pollDivisionIds": [
          10142614
        ],
        "postalCode": "M2N4J5",
        "streetName": "DUNVIEW",
        "streetDirectionId": null,
        "streetTypeId": "AVE",
        "placeName": "NORTH YORK",
        "streetNameDisplayText": "DUNVIEW AVE, NORTH YORK"
      }
    ]
  },
  {
    "postal": "M2N6J2",
    "result": []
  },
  {
    "postal": "M2N5V6",
    "result": [
      {
        "electoralDistricts": [
          {
            "election": null,
            "id": 117,
            "name": "Willowdale"
          }
        ],
        "pollDivisionIds": [
          10142609
        ],
        "postalCode": "M2N5V6",
        "streetName": "WILFRED",
        "streetDirectionId": null,
        "streetTypeId": "AVE",
        "placeName": "NORTH YORK",
        "streetNameDisplayText": "WILFRED AVE, NORTH YORK"
      }
    ]
  },
  {
    "postal": "M2N3N2",
    "result": [
      {
        "electoralDistricts": [
          {
            "election": null,
            "id": 117,
            "name": "Willowdale"
          }
        ],
        "pollDivisionIds": [
          10142616
        ],
        "postalCode": "M2N3N2",
        "streetName": "ELMWOOD",
        "streetDirectionId": null,
        "streetTypeId": "AVE",
        "placeName": "NORTH YORK",
        "streetNameDisplayText": "ELMWOOD AVE, NORTH YORK"
      }
    ]
  },
  {
    "postal": "M2N3B1",
    "result": [
      {
        "electoralDistricts": [
          {
            "election": null,
            "id": 117,
            "name": "Willowdale"
          }
        ],
        "pollDivisionIds": [
          10142616
        ],
        "postalCode": "M2N3B1",
        "streetName": "SHEPPARD",
        "streetDirectionId": "E",
        "streetTypeId": "AVE",
        "placeName": "NORTH YORK",
        "streetNameDisplayText": "SHEPPARD AVE E, NORTH YORK"
      }
    ]
  },
  {
    "postal": "M2N8B5",
    "result": []
  },
  {
    "postal": "M2N0K1",
    "result": []
  },
  {
    "postal": "M2N7M7",
    "result": []
  },
  {
    "postal": "M2N2M2",
    "result": [
      {
        "electoralDistricts": [
          {
            "election": null,
            "id": 117,
            "name": "Willowdale"
          }
        ],
        "pollDivisionIds": [
          10142619
        ],
        "postalCode": "M2N2M2",
        "streetName": "GWENDOLEN",
        "streetDirectionId": null,
        "streetTypeId": "CRES",
        "placeName": "NORTH YORK",
        "streetNameDisplayText": "GWENDOLEN CRES, NORTH YORK"
      }
    ]
  },
  {
    "postal": "M2N9N3",
    "result": []
  },
  {
    "postal": "M2N4Y8",
    "result": [
      {
        "electoralDistricts": [
          {
            "election": null,
            "id": 117,
            "name": "Willowdale"
          }
        ],
        "pollDivisionIds": [
          10142617
        ],
        "postalCode": "M2N4Y8",
        "streetName": "WILLOWDALE",
        "streetDirectionId": null,
        "streetTypeId": "AVE",
        "placeName": "NORTH YORK",
        "streetNameDisplayText": "WILLOWDALE AVE, NORTH YORK"
      }
    ]
  },
  {
    "postal": "M2N3V7",
    "result": [
      {
        "electoralDistricts": [
          {
            "election": null,
            "id": 117,
            "name": "Willowdale"
          }
        ],
        "pollDivisionIds": [
          10142616
        ],
        "postalCode": "M2N3V7",
        "streetName": "EMPRESS",
        "streetDirectionId": null,
        "streetTypeId": "AVE",
        "placeName": "NORTH YORK",
        "streetNameDisplayText": "EMPRESS AVE, NORTH YORK"
      }
    ]
  },
  {
    "postal": "M2N8Z1",
    "result": []
  },
  {
    "postal": "M2N7B3",
    "result": []
  },
  {
    "postal": "M2N3A8",
    "result": [
      {
        "electoralDistricts": [
          {
            "election": null,
            "id": 117,
            "name": "Willowdale"
          }
        ],
        "pollDivisionIds": [
          10142616,
          10142617
        ],
        "postalCode": "M2N3A8",
        "streetName": "SHEPPARD",
        "streetDirectionId": "E",
        "streetTypeId": "AVE",
        "placeName": "NORTH YORK",
        "streetNameDisplayText": "SHEPPARD AVE E, NORTH YORK"
      }
    ]
  },
  {
    "postal": "M2N7V5",
    "result": []
  },
  {
    "postal": "M2N2T2",
    "result": []
  },
  {
    "postal": "M2N6L3",
    "result": [
      {
        "electoralDistricts": [
          {
            "election": null,
            "id": 117,
            "name": "Willowdale"
          }
        ],
        "pollDivisionIds": [
          10143898
        ],
        "postalCode": "M2N6L3",
        "streetName": "PARK HOME",
        "streetDirectionId": null,
        "streetTypeId": "AVE",
        "placeName": "NORTH YORK",
        "streetNameDisplayText": "PARK HOME AVE, NORTH YORK"
      }
    ]
  },
  {
    "postal": "M2N0L2",
    "result": []
  },
  {
    "postal": "M2N5Y8",
    "result": [
      {
        "electoralDistricts": [
          {
            "election": null,
            "id": 117,
            "name": "Willowdale"
          }
        ],
        "pollDivisionIds": [
          10142616
        ],
        "postalCode": "M2N5Y8",
        "streetName": "GYPSY ROSEWAY",
        "streetDirectionId": null,
        "streetTypeId": null,
        "placeName": "NORTH YORK",
        "streetNameDisplayText": "GYPSY ROSEWAY, NORTH YORK"
      }
    ]
  },
  {
    "postal": "M2N0B8",
    "result": [
      {
        "electoralDistricts": [
          {
            "election": null,
            "id": 117,
            "name": "Willowdale"
          }
        ],
        "pollDivisionIds": [
          10142620
        ],
        "postalCode": "M2N0B8",
        "streetName": "BOTHAM",
        "streetDirectionId": null,
        "streetTypeId": "RD",
        "placeName": "NORTH YORK",
        "streetNameDisplayText": "BOTHAM RD, NORTH YORK"
      }
    ]
  },
  {
    "postal": "M2N6R5",
    "result": []
  },
  {
    "postal": "M2N8W6",
    "result": []
  },
  {
    "postal": "M2N8G6",
    "result": []
  },
  {
    "postal": "M2N6X3",
    "result": []
  },
  {
    "postal": "M2N7R7",
    "result": []
  },
  {
    "postal": "M2N4B6",
    "result": [
      {
        "electoralDistricts": [
          {
            "election": null,
            "id": 117,
            "name": "Willowdale"
          }
        ],
        "pollDivisionIds": [
          10142614
        ],
        "postalCode": "M2N4B6",
        "streetName": "RODNEY",
        "streetDirectionId": null,
        "streetTypeId": "BLVD",
        "placeName": "NORTH YORK",
        "streetNameDisplayText": "RODNEY BLVD, NORTH YORK"
      }
    ]
  },
  {
    "postal": "M2N3P9",
    "result": [
      {
        "electoralDistricts": [
          {
            "election": null,
            "id": 117,
            "name": "Willowdale"
          }
        ],
        "pollDivisionIds": [
          10142616
        ],
        "postalCode": "M2N3P9",
        "streetName": "HILLCREST",
        "streetDirectionId": null,
        "streetTypeId": "AVE",
        "placeName": "NORTH YORK",
        "streetNameDisplayText": "HILLCREST AVE, NORTH YORK"
      }
    ]
  },
  {
    "postal": "M2N2T3",
    "result": [
      {
        "electoralDistricts": [
          {
            "election": null,
            "id": 117,
            "name": "Willowdale"
          }
        ],
        "pollDivisionIds": [
          10142617
        ],
        "postalCode": "M2N2T3",
        "streetName": "OAKBURN",
        "streetDirectionId": null,
        "streetTypeId": "CRES",
        "placeName": "NORTH YORK",
        "streetNameDisplayText": "OAKBURN CRES, NORTH YORK"
      }
    ]
  },
  {
    "postal": "M2N1M4",
    "result": [
      {
        "electoralDistricts": [
          {
            "election": null,
            "id": 117,
            "name": "Willowdale"
          }
        ],
        "pollDivisionIds": [
          10142620
        ],
        "postalCode": "M2N1M4",
        "streetName": "SHEPPARD",
        "streetDirectionId": "W",
        "streetTypeId": "AVE",
        "placeName": "NORTH YORK",
        "streetNameDisplayText": "SHEPPARD AVE W, NORTH YORK"
      }
    ]
  },
  {
    "postal": "M2N0H1",
    "result": [
      {
        "electoralDistricts": [
          {
            "election": null,
            "id": 117,
            "name": "Willowdale"
          }
        ],
        "pollDivisionIds": [
          10142699
        ],
        "postalCode": "M2N0H1",
        "streetName": "HARRISON GARDEN",
        "streetDirectionId": null,
        "streetTypeId": "BLVD",
        "placeName": "NORTH YORK",
        "streetNameDisplayText": "HARRISON GARDEN BLVD, NORTH YORK"
      }
    ]
  },
  {
    "postal": "M2N9W3",
    "result": []
  },
  {
    "postal": "M2N6P1",
    "result": [
      {
        "electoralDistricts": [
          {
            "election": null,
            "id": 117,
            "name": "Willowdale"
          }
        ],
        "pollDivisionIds": [
          10143898
        ],
        "postalCode": "M2N6P1",
        "streetName": "YONGE",
        "streetDirectionId": null,
        "streetTypeId": "ST",
        "placeName": "NORTH YORK",
        "streetNameDisplayText": "YONGE ST, NORTH YORK"
      }
    ]
  },
  {
    "postal": "M2N7G2",
    "result": [
      {
        "electoralDistricts": [
          {
            "election": null,
            "id": 117,
            "name": "Willowdale"
          }
        ],
        "pollDivisionIds": [
          10142611
        ],
        "postalCode": "M2N7G2",
        "streetName": "FINCH",
        "streetDirectionId": "W",
        "streetTypeId": "AVE",
        "placeName": "NORTH YORK",
        "streetNameDisplayText": "FINCH AVE W, NORTH YORK"
      }
    ]
  },
  {
    "postal": "M2N4J9",
    "result": [
      {
        "electoralDistricts": [
          {
            "election": null,
            "id": 117,
            "name": "Willowdale"
          }
        ],
        "pollDivisionIds": [
          10142614
        ],
        "postalCode": "M2N4J9",
        "streetName": "DUNFOREST",
        "streetDirectionId": null,
        "streetTypeId": "AVE",
        "placeName": "NORTH YORK",
        "streetNameDisplayText": "DUNFOREST AVE, NORTH YORK"
      }
    ]
  },
  {
    "postal": "M2N9E4",
    "result": []
  },
  {
    "postal": "M2N8H0",
    "result": []
  },
  {
    "postal": "M2N4M7",
    "result": [
      {
        "electoralDistricts": [
          {
            "election": null,
            "id": 117,
            "name": "Willowdale"
          }
        ],
        "pollDivisionIds": [
          10142609
        ],
        "postalCode": "M2N4M7",
        "streetName": "HOLMES",
        "streetDirectionId": null,
        "streetTypeId": "AVE",
        "placeName": "NORTH YORK",
        "streetNameDisplayText": "HOLMES AVE, NORTH YORK"
      }
    ]
  },
  {
    "postal": "M2N2G9",
    "result": [
      {
        "electoralDistricts": [
          {
            "election": null,
            "id": 117,
            "name": "Willowdale"
          }
        ],
        "pollDivisionIds": [
          10142611
        ],
        "postalCode": "M2N2G9",
        "streetName": "FINCH",
        "streetDirectionId": "W",
        "streetTypeId": "AVE",
        "placeName": "NORTH YORK",
        "streetNameDisplayText": "FINCH AVE W, NORTH YORK"
      }
    ]
  },
  {
    "postal": "M2N8T2",
    "result": []
  },
  {
    "postal": "M2N7G7",
    "result": [
      {
        "electoralDistricts": [
          {
            "election": null,
            "id": 117,
            "name": "Willowdale"
          }
        ],
        "pollDivisionIds": [
          10142640
        ],
        "postalCode": "M2N7G7",
        "streetName": "OLIVE",
        "streetDirectionId": null,
        "streetTypeId": "AVE",
        "placeName": "NORTH YORK",
        "streetNameDisplayText": "OLIVE AVE, NORTH YORK"
      }
    ]
  },
  {
    "postal": "M2N4Z3",
    "result": [
      {
        "electoralDistricts": [
          {
            "election": null,
            "id": 117,
            "name": "Willowdale"
          }
        ],
        "pollDivisionIds": [
          10142615
        ],
        "postalCode": "M2N4Z3",
        "streetName": "WILLOWDALE",
        "streetDirectionId": null,
        "streetTypeId": "AVE",
        "placeName": "NORTH YORK",
        "streetNameDisplayText": "WILLOWDALE AVE, NORTH YORK"
      }
    ]
  },
  {
    "postal": "M2N5B3",
    "result": [
      {
        "electoralDistricts": [
          {
            "election": null,
            "id": 117,
            "name": "Willowdale"
          }
        ],
        "pollDivisionIds": [
          10142614
        ],
        "postalCode": "M2N5B3",
        "streetName": "WILLOWDALE",
        "streetDirectionId": null,
        "streetTypeId": "AVE",
        "placeName": "NORTH YORK",
        "streetNameDisplayText": "WILLOWDALE AVE, NORTH YORK"
      }
    ]
  },
  {
    "postal": "M2N1S7",
    "result": [
      {
        "electoralDistricts": [
          {
            "election": null,
            "id": 117,
            "name": "Willowdale"
          }
        ],
        "pollDivisionIds": [
          10143898
        ],
        "postalCode": "M2N1S7",
        "streetName": "BURNDALE",
        "streetDirectionId": null,
        "streetTypeId": "AVE",
        "placeName": "NORTH YORK",
        "streetNameDisplayText": "BURNDALE AVE, NORTH YORK"
      }
    ]
  },
  {
    "postal": "M2N2N7",
    "result": [
      {
        "electoralDistricts": [
          {
            "election": null,
            "id": 117,
            "name": "Willowdale"
          }
        ],
        "pollDivisionIds": [
          10142613
        ],
        "postalCode": "M2N2N7",
        "streetName": "TAMWORTH",
        "streetDirectionId": null,
        "streetTypeId": "RD",
        "placeName": "NORTH YORK",
        "streetNameDisplayText": "TAMWORTH RD, NORTH YORK"
      }
    ]
  },
  {
    "postal": "M2N0H8",
    "result": [
      {
        "electoralDistricts": [
          {
            "election": null,
            "id": 117,
            "name": "Willowdale"
          }
        ],
        "pollDivisionIds": [
          10142613
        ],
        "postalCode": "M2N0H8",
        "streetName": "CANTERBURY",
        "streetDirectionId": null,
        "streetTypeId": "PL",
        "placeName": "NORTH YORK",
        "streetNameDisplayText": "CANTERBURY PL, NORTH YORK"
      }
    ]
  },
  {
    "postal": "M2N7Z4",
    "result": []
  },
  {
    "postal": "M2N7B1",
    "result": [
      {
        "electoralDistricts": [
          {
            "election": null,
            "id": 117,
            "name": "Willowdale"
          }
        ],
        "pollDivisionIds": [
          10142616
        ],
        "postalCode": "M2N7B1",
        "streetName": "LONGMORE",
        "streetDirectionId": null,
        "streetTypeId": "ST",
        "placeName": "NORTH YORK",
        "streetNameDisplayText": "LONGMORE ST, NORTH YORK"
      }
    ]
  },
  {
    "postal": "M2N7P8",
    "result": []
  },
  {
    "postal": "M2N7N0",
    "result": []
  },
  {
    "postal": "M2N3Y5",
    "result": [
      {
        "electoralDistricts": [
          {
            "election": null,
            "id": 117,
            "name": "Willowdale"
          }
        ],
        "pollDivisionIds": [
          10142614
        ],
        "postalCode": "M2N3Y5",
        "streetName": "PARKVIEW",
        "streetDirectionId": null,
        "streetTypeId": "AVE",
        "placeName": "NORTH YORK",
        "streetNameDisplayText": "PARKVIEW AVE, NORTH YORK"
      },
      {
        "electoralDistricts": [
          {
            "election": null,
            "id": 7,
            "name": "BeachesEast York"
          }
        ],
        "pollDivisionIds": [
          10137033
        ],
        "postalCode": "M2N3Y5",
        "streetName": "PARKVIEW HILL",
        "streetDirectionId": null,
        "streetTypeId": "CRES",
        "placeName": "NORTH YORK",
        "streetNameDisplayText": "PARKVIEW HILL CRES, NORTH YORK"
      }
    ]
  },
  {
    "postal": "M2N6K1",
    "result": [
      {
        "electoralDistricts": [
          {
            "election": null,
            "id": 117,
            "name": "Willowdale"
          }
        ],
        "pollDivisionIds": [
          10143898,
          10142620
        ],
        "postalCode": "M2N6K1",
        "streetName": "YONGE",
        "streetDirectionId": null,
        "streetTypeId": "ST",
        "placeName": "NORTH YORK",
        "streetNameDisplayText": "YONGE ST, NORTH YORK"
      }
    ]
  },
  {
    "postal": "M2N9X5",
    "result": []
  },
  {
    "postal": "M2N7S5",
    "result": []
  },
  {
    "postal": "M2N0A4",
    "result": [
      {
        "electoralDistricts": [
          {
            "election": null,
            "id": 117,
            "name": "Willowdale"
          }
        ],
        "pollDivisionIds": [
          10142617
        ],
        "postalCode": "M2N0A4",
        "streetName": "SHEPPARD",
        "streetDirectionId": "E",
        "streetTypeId": "AVE",
        "placeName": "NORTH YORK",
        "streetNameDisplayText": "SHEPPARD AVE E, NORTH YORK"
      }
    ]
  },
  {
    "postal": "M2N4T5",
    "result": [
      {
        "electoralDistricts": [
          {
            "election": null,
            "id": 117,
            "name": "Willowdale"
          }
        ],
        "pollDivisionIds": [
          10142615
        ],
        "postalCode": "M2N4T5",
        "streetName": "GLADYS ALLISON",
        "streetDirectionId": null,
        "streetTypeId": "PL",
        "placeName": "NORTH YORK",
        "streetNameDisplayText": "GLADYS ALLISON PL, NORTH YORK"
      },
      {
        "electoralDistricts": [
          {
            "election": null,
            "id": 117,
            "name": "Willowdale"
          }
        ],
        "pollDivisionIds": [
          10142615
        ],
        "postalCode": "M2N4T5",
        "streetName": "GLADY'S ALLISON",
        "streetDirectionId": null,
        "streetTypeId": "PL",
        "placeName": "NORTH YORK",
        "streetNameDisplayText": "GLADY'S ALLISON PL, NORTH YORK"
      }
    ]
  },
  {
    "postal": "M2N5K1",
    "result": [
      {
        "electoralDistricts": [
          {
            "election": null,
            "id": 117,
            "name": "Willowdale"
          }
        ],
        "pollDivisionIds": [
          10142609
        ],
        "postalCode": "M2N5K1",
        "streetName": "MANORCREST",
        "streetDirectionId": null,
        "streetTypeId": "DR",
        "placeName": "NORTH YORK",
        "streetNameDisplayText": "MANORCREST DR, NORTH YORK"
      }
    ]
  },
  {
    "postal": "M2N0Z9",
    "result": []
  },
  {
    "postal": "M2N7T2",
    "result": []
  },
  {
    "postal": "M2N1L5",
    "result": [
      {
        "electoralDistricts": [
          {
            "election": null,
            "id": 117,
            "name": "Willowdale"
          }
        ],
        "pollDivisionIds": [
          10142619
        ],
        "postalCode": "M2N1L5",
        "streetName": "BOGERT",
        "streetDirectionId": null,
        "streetTypeId": "AVE",
        "placeName": "NORTH YORK",
        "streetNameDisplayText": "BOGERT AVE, NORTH YORK"
      }
    ]
  },
  {
    "postal": "M2N3N5",
    "result": []
  },
  {
    "postal": "M2N6H4",
    "result": [
      {
        "electoralDistricts": [
          {
            "election": null,
            "id": 117,
            "name": "Willowdale"
          }
        ],
        "pollDivisionIds": [
          10142609
        ],
        "postalCode": "M2N6H4",
        "streetName": "WILFRED",
        "streetDirectionId": null,
        "streetTypeId": "AVE",
        "placeName": "NORTH YORK",
        "streetNameDisplayText": "WILFRED AVE, NORTH YORK"
      }
    ]
  },
  {
    "postal": "M2N5A5",
    "result": [
      {
        "electoralDistricts": [
          {
            "election": null,
            "id": 117,
            "name": "Willowdale"
          }
        ],
        "pollDivisionIds": [
          10142614
        ],
        "postalCode": "M2N5A5",
        "streetName": "WILLOWDALE",
        "streetDirectionId": null,
        "streetTypeId": "AVE",
        "placeName": "NORTH YORK",
        "streetNameDisplayText": "WILLOWDALE AVE, NORTH YORK"
      }
    ]
  },
  {
    "postal": "M2N3R9",
    "result": [
      {
        "electoralDistricts": [
          {
            "election": null,
            "id": 117,
            "name": "Willowdale"
          }
        ],
        "pollDivisionIds": [
          10142615
        ],
        "postalCode": "M2N3R9",
        "streetName": "PRINCESS",
        "streetDirectionId": null,
        "streetTypeId": "AVE",
        "placeName": "NORTH YORK",
        "streetNameDisplayText": "PRINCESS AVE, NORTH YORK"
      }
    ]
  },
  {
    "postal": "M2N7L8",
    "result": [
      {
        "electoralDistricts": [
          {
            "election": null,
            "id": 117,
            "name": "Willowdale"
          }
        ],
        "pollDivisionIds": [
          10142673
        ],
        "postalCode": "M2N7L8",
        "streetName": "HOLLYWOOD",
        "streetDirectionId": null,
        "streetTypeId": "AVE",
        "placeName": "NORTH YORK",
        "streetNameDisplayText": "HOLLYWOOD AVE, NORTH YORK"
      }
    ]
  },
  {
    "postal": "M2N6T6",
    "result": [
      {
        "electoralDistricts": [
          {
            "election": null,
            "id": 117,
            "name": "Willowdale"
          }
        ],
        "pollDivisionIds": [
          10142620
        ],
        "postalCode": "M2N6T6",
        "streetName": "PEWTER",
        "streetDirectionId": null,
        "streetTypeId": "RD",
        "placeName": "NORTH YORK",
        "streetNameDisplayText": "PEWTER RD, NORTH YORK"
      }
    ]
  },
  {
    "postal": "M2N7Y7",
    "result": []
  },
  {
    "postal": "M2N3M8",
    "result": [
      {
        "electoralDistricts": [
          {
            "election": null,
            "id": 117,
            "name": "Willowdale"
          }
        ],
        "pollDivisionIds": [
          10142616
        ],
        "postalCode": "M2N3M8",
        "streetName": "ELMWOOD",
        "streetDirectionId": null,
        "streetTypeId": "AVE",
        "placeName": "NORTH YORK",
        "streetNameDisplayText": "ELMWOOD AVE, NORTH YORK"
      }
    ]
  },
  {
    "postal": "M2N2E0",
    "result": []
  },
  {
    "postal": "M2N4B5",
    "result": [
      {
        "electoralDistricts": [
          {
            "election": null,
            "id": 117,
            "name": "Willowdale"
          }
        ],
        "pollDivisionIds": [
          10142614
        ],
        "postalCode": "M2N4B5",
        "streetName": "RODNEY",
        "streetDirectionId": null,
        "streetTypeId": "BLVD",
        "placeName": "NORTH YORK",
        "streetNameDisplayText": "RODNEY BLVD, NORTH YORK"
      }
    ]
  },
  {
    "postal": "M2N1J3",
    "result": [
      {
        "electoralDistricts": [
          {
            "election": null,
            "id": 117,
            "name": "Willowdale"
          }
        ],
        "pollDivisionIds": [
          10142620
        ],
        "postalCode": "M2N1J3",
        "streetName": "POYNTZ",
        "streetDirectionId": null,
        "streetTypeId": "AVE",
        "placeName": "NORTH YORK",
        "streetNameDisplayText": "POYNTZ AVE, NORTH YORK"
      }
    ]
  },
  {
    "postal": "M2N5S6",
    "result": []
  },
  {
    "postal": "M2N8P7",
    "result": []
  },
  {
    "postal": "M2N7S7",
    "result": []
  },
  {
    "postal": "M2N4C2",
    "result": [
      {
        "electoralDistricts": [
          {
            "election": null,
            "id": 117,
            "name": "Willowdale"
          }
        ],
        "pollDivisionIds": [
          10142614
        ],
        "postalCode": "M2N4C2",
        "streetName": "MCKEE",
        "streetDirectionId": null,
        "streetTypeId": "AVE",
        "placeName": "NORTH YORK",
        "streetNameDisplayText": "MCKEE AVE, NORTH YORK"
      }
    ]
  },
  {
    "postal": "M2N5Y0",
    "result": []
  },
  {
    "postal": "M2N2V7",
    "result": [
      {
        "electoralDistricts": [
          {
            "election": null,
            "id": 117,
            "name": "Willowdale"
          }
        ],
        "pollDivisionIds": [
          10142617
        ],
        "postalCode": "M2N2V7",
        "streetName": "GLENDORA",
        "streetDirectionId": null,
        "streetTypeId": "AVE",
        "placeName": "NORTH YORK",
        "streetNameDisplayText": "GLENDORA AVE, NORTH YORK"
      }
    ]
  },
  {
    "postal": "M2N8P5",
    "result": []
  },
  {
    "postal": "M2N5P5",
    "result": [
      {
        "electoralDistricts": [
          {
            "election": null,
            "id": 117,
            "name": "Willowdale"
          }
        ],
        "pollDivisionIds": [
          10142615
        ],
        "postalCode": "M2N5P5",
        "streetName": "YONGE",
        "streetDirectionId": null,
        "streetTypeId": "ST",
        "placeName": "NORTH YORK",
        "streetNameDisplayText": "YONGE ST, NORTH YORK"
      }
    ]
  },
  {
    "postal": "M2N5Z0",
    "result": []
  },
  {
    "postal": "M2N9B0",
    "result": []
  },
  {
    "postal": "M2N1L0",
    "result": []
  },
  {
    "postal": "M2N0B5",
    "result": []
  },
  {
    "postal": "M2N3L2",
    "result": [
      {
        "electoralDistricts": [
          {
            "election": null,
            "id": 117,
            "name": "Willowdale"
          }
        ],
        "pollDivisionIds": [
          10142616
        ],
        "postalCode": "M2N3L2",
        "streetName": "HOLLYWOOD",
        "streetDirectionId": null,
        "streetTypeId": "AVE",
        "placeName": "NORTH YORK",
        "streetNameDisplayText": "HOLLYWOOD AVE, NORTH YORK"
      }
    ]
  },
  {
    "postal": "M2N3B7",
    "result": [
      {
        "electoralDistricts": [
          {
            "election": null,
            "id": 117,
            "name": "Willowdale"
          }
        ],
        "pollDivisionIds": [
          10142616
        ],
        "postalCode": "M2N3B7",
        "streetName": "SHEPPARD",
        "streetDirectionId": "E",
        "streetTypeId": "AVE",
        "placeName": "NORTH YORK",
        "streetNameDisplayText": "SHEPPARD AVE E, NORTH YORK"
      }
    ]
  },
  {
    "postal": "M2N8L1",
    "result": []
  },
  {
    "postal": "M2N5M4",
    "result": [
      {
        "electoralDistricts": [
          {
            "election": null,
            "id": 117,
            "name": "Willowdale"
          }
        ],
        "pollDivisionIds": [
          10142620
        ],
        "postalCode": "M2N5M4",
        "streetName": "YONGE",
        "streetDirectionId": null,
        "streetTypeId": "ST",
        "placeName": "NORTH YORK",
        "streetNameDisplayText": "YONGE ST, NORTH YORK"
      }
    ]
  },
  {
    "postal": "M2N4G9",
    "result": [
      {
        "electoralDistricts": [
          {
            "election": null,
            "id": 117,
            "name": "Willowdale"
          }
        ],
        "pollDivisionIds": [
          10142614
        ],
        "postalCode": "M2N4G9",
        "streetName": "LAILEY",
        "streetDirectionId": null,
        "streetTypeId": "CRES",
        "placeName": "NORTH YORK",
        "streetNameDisplayText": "LAILEY CRES, NORTH YORK"
      }
    ]
  },
  {
    "postal": "M2N0P0",
    "result": []
  },
  {
    "postal": "M2N8G2",
    "result": []
  },
  {
    "postal": "M2N1V9",
    "result": [
      {
        "electoralDistricts": [
          {
            "election": null,
            "id": 117,
            "name": "Willowdale"
          }
        ],
        "pollDivisionIds": [
          10143898
        ],
        "postalCode": "M2N1V9",
        "streetName": "BURNETT",
        "streetDirectionId": null,
        "streetTypeId": "AVE",
        "placeName": "NORTH YORK",
        "streetNameDisplayText": "BURNETT AVE, NORTH YORK"
      }
    ]
  },
  {
    "postal": "M2N8N8",
    "result": []
  },
  {
    "postal": "M2N6S8",
    "result": [
      {
        "electoralDistricts": [
          {
            "election": null,
            "id": 117,
            "name": "Willowdale"
          }
        ],
        "pollDivisionIds": [
          10142620
        ],
        "postalCode": "M2N6S8",
        "streetName": "SHEPPARD",
        "streetDirectionId": "W",
        "streetTypeId": "AVE",
        "placeName": "NORTH YORK",
        "streetNameDisplayText": "SHEPPARD AVE W, NORTH YORK"
      }
    ]
  },
  {
    "postal": "M2N8H2",
    "result": []
  },
  {
    "postal": "M2N5R8",
    "result": [
      {
        "electoralDistricts": [
          {
            "election": null,
            "id": 117,
            "name": "Willowdale"
          }
        ],
        "pollDivisionIds": [
          10142650
        ],
        "postalCode": "M2N5R8",
        "streetName": "YONGE",
        "streetDirectionId": null,
        "streetTypeId": "ST",
        "placeName": "NORTH YORK",
        "streetNameDisplayText": "YONGE ST, NORTH YORK"
      }
    ]
  },
  {
    "postal": "M2N5L4",
    "result": [
      {
        "electoralDistricts": [
          {
            "election": null,
            "id": 117,
            "name": "Willowdale"
          }
        ],
        "pollDivisionIds": [
          10142609
        ],
        "postalCode": "M2N5L4",
        "streetName": "BAYVIEW",
        "streetDirectionId": null,
        "streetTypeId": "AVE",
        "placeName": "NORTH YORK",
        "streetNameDisplayText": "BAYVIEW AVE, NORTH YORK"
      }
    ]
  },
  {
    "postal": "M2N9E1",
    "result": []
  },
  {
    "postal": "M2N1C4",
    "result": [
      {
        "electoralDistricts": [
          {
            "election": null,
            "id": 117,
            "name": "Willowdale"
          }
        ],
        "pollDivisionIds": [
          10142619
        ],
        "postalCode": "M2N1C4",
        "streetName": "FRANKLIN",
        "streetDirectionId": null,
        "streetTypeId": "AVE",
        "placeName": "NORTH YORK",
        "streetNameDisplayText": "FRANKLIN AVE, NORTH YORK"
      }
    ]
  },
  {
    "postal": "M2N8W5",
    "result": []
  },
  {
    "postal": "M2N1Y4",
    "result": [
      {
        "electoralDistricts": [
          {
            "election": null,
            "id": 117,
            "name": "Willowdale"
          }
        ],
        "pollDivisionIds": [
          10142612
        ],
        "postalCode": "M2N1Y4",
        "streetName": "ELLERSLIE",
        "streetDirectionId": null,
        "streetTypeId": "AVE",
        "placeName": "NORTH YORK",
        "streetNameDisplayText": "ELLERSLIE AVE, NORTH YORK"
      }
    ]
  },
  {
    "postal": "M2N1C0",
    "result": []
  },
  {
    "postal": "M2N2J2",
    "result": [
      {
        "electoralDistricts": [
          {
            "election": null,
            "id": 117,
            "name": "Willowdale"
          }
        ],
        "pollDivisionIds": [
          10142611
        ],
        "postalCode": "M2N2J2",
        "streetName": "FINCH",
        "streetDirectionId": "W",
        "streetTypeId": "AVE",
        "placeName": "NORTH YORK",
        "streetNameDisplayText": "FINCH AVE W, NORTH YORK"
      }
    ]
  },
  {
    "postal": "M2N2J0",
    "result": []
  },
  {
    "postal": "M2N7A3",
    "result": []
  },
  {
    "postal": "M2N8M1",
    "result": []
  },
  {
    "postal": "M2N7T9",
    "result": []
  },
  {
    "postal": "M2N6C0",
    "result": []
  },
  {
    "postal": "M2N7X1",
    "result": []
  },
  {
    "postal": "M2N0G1",
    "result": [
      {
        "electoralDistricts": [
          {
            "election": null,
            "id": 117,
            "name": "Willowdale"
          }
        ],
        "pollDivisionIds": [
          10142613
        ],
        "postalCode": "M2N0G1",
        "streetName": "YONGE",
        "streetDirectionId": null,
        "streetTypeId": "ST",
        "placeName": "NORTH YORK",
        "streetNameDisplayText": "YONGE ST, NORTH YORK"
      }
    ]
  },
  {
    "postal": "M2N4X2",
    "result": [
      {
        "electoralDistricts": [
          {
            "election": null,
            "id": 117,
            "name": "Willowdale"
          }
        ],
        "pollDivisionIds": [
          10142615
        ],
        "postalCode": "M2N4X2",
        "streetName": "DUDLEY",
        "streetDirectionId": null,
        "streetTypeId": "AVE",
        "placeName": "NORTH YORK",
        "streetNameDisplayText": "DUDLEY AVE, NORTH YORK"
      }
    ]
  },
  {
    "postal": "M2N0N6",
    "result": []
  },
  {
    "postal": "M2N8E3",
    "result": []
  },
  {
    "postal": "M2N5S8",
    "result": []
  },
  {
    "postal": "M2N0R0",
    "result": []
  },
  {
    "postal": "M2N6J6",
    "result": []
  },
  {
    "postal": "M2N4B4",
    "result": [
      {
        "electoralDistricts": [
          {
            "election": null,
            "id": 117,
            "name": "Willowdale"
          }
        ],
        "pollDivisionIds": [
          10142614
        ],
        "postalCode": "M2N4B4",
        "streetName": "WEDGEPORT",
        "streetDirectionId": null,
        "streetTypeId": "PL",
        "placeName": "NORTH YORK",
        "streetNameDisplayText": "WEDGEPORT PL, NORTH YORK"
      }
    ]
  },
  {
    "postal": "M2N7E3",
    "result": [
      {
        "electoralDistricts": [
          {
            "election": null,
            "id": 117,
            "name": "Willowdale"
          }
        ],
        "pollDivisionIds": [
          10142697
        ],
        "postalCode": "M2N7E3",
        "streetName": "HARRISON GARDEN",
        "streetDirectionId": null,
        "streetTypeId": "BLVD",
        "placeName": "NORTH YORK",
        "streetNameDisplayText": "HARRISON GARDEN BLVD, NORTH YORK"
      }
    ]
  },
  {
    "postal": "M2N3N6",
    "result": [
      {
        "electoralDistricts": [
          {
            "election": null,
            "id": 117,
            "name": "Willowdale"
          }
        ],
        "pollDivisionIds": [
          10142615
        ],
        "postalCode": "M2N3N6",
        "streetName": "HILLCREST",
        "streetDirectionId": null,
        "streetTypeId": "AVE",
        "placeName": "NORTH YORK",
        "streetNameDisplayText": "HILLCREST AVE, NORTH YORK"
      }
    ]
  },
  {
    "postal": "M2N3X6",
    "result": [
      {
        "electoralDistricts": [
          {
            "election": null,
            "id": 117,
            "name": "Willowdale"
          }
        ],
        "pollDivisionIds": [
          10142616
        ],
        "postalCode": "M2N3X6",
        "streetName": "KINGSDALE",
        "streetDirectionId": null,
        "streetTypeId": "AVE",
        "placeName": "NORTH YORK",
        "streetNameDisplayText": "KINGSDALE AVE, NORTH YORK"
      }
    ]
  },
  {
    "postal": "M2N8L0",
    "result": []
  },
  {
    "postal": "M2N8N1",
    "result": []
  },
  {
    "postal": "M2N4J0",
    "result": []
  },
  {
    "postal": "M2N0X7",
    "result": []
  },
  {
    "postal": "M2N6S4",
    "result": [
      {
        "electoralDistricts": [
          {
            "election": null,
            "id": 117,
            "name": "Willowdale"
          }
        ],
        "pollDivisionIds": [
          10142667
        ],
        "postalCode": "M2N6S4",
        "streetName": "HOLLYWOOD",
        "streetDirectionId": null,
        "streetTypeId": "AVE",
        "placeName": "NORTH YORK",
        "streetNameDisplayText": "HOLLYWOOD AVE, NORTH YORK"
      }
    ]
  },
  {
    "postal": "M2N0Z0",
    "result": []
  },
  {
    "postal": "M2N9X8",
    "result": []
  },
  {
    "postal": "M2N3H3",
    "result": [
      {
        "electoralDistricts": [
          {
            "election": null,
            "id": 117,
            "name": "Willowdale"
          }
        ],
        "pollDivisionIds": [
          10142616
        ],
        "postalCode": "M2N3H3",
        "streetName": "SPRING GARDEN",
        "streetDirectionId": null,
        "streetTypeId": "AVE",
        "placeName": "NORTH YORK",
        "streetNameDisplayText": "SPRING GARDEN AVE, NORTH YORK"
      }
    ]
  },
  {
    "postal": "M2N7S2",
    "result": []
  },
  {
    "postal": "M2N3T3",
    "result": []
  },
  {
    "postal": "M2N9P3",
    "result": []
  },
  {
    "postal": "M2N4H8",
    "result": [
      {
        "electoralDistricts": [
          {
            "election": null,
            "id": 117,
            "name": "Willowdale"
          }
        ],
        "pollDivisionIds": [
          10142614
        ],
        "postalCode": "M2N4H8",
        "streetName": "CHARLEMAGNE",
        "streetDirectionId": null,
        "streetTypeId": "DR",
        "placeName": "NORTH YORK",
        "streetNameDisplayText": "CHARLEMAGNE DR, NORTH YORK"
      }
    ]
  },
  {
    "postal": "M2N6R1",
    "result": [
      {
        "electoralDistricts": [
          {
            "election": null,
            "id": 117,
            "name": "Willowdale"
          }
        ],
        "pollDivisionIds": [
          10142616
        ],
        "postalCode": "M2N6R1",
        "streetName": "ESTELLE",
        "streetDirectionId": null,
        "streetTypeId": "AVE",
        "placeName": "NORTH YORK",
        "streetNameDisplayText": "ESTELLE AVE, NORTH YORK"
      }
    ]
  },
  {
    "postal": "M2N1S0",
    "result": []
  },
  {
    "postal": "M2N3W8",
    "result": [
      {
        "electoralDistricts": [
          {
            "election": null,
            "id": 117,
            "name": "Willowdale"
          }
        ],
        "pollDivisionIds": [
          10142615
        ],
        "postalCode": "M2N3W8",
        "streetName": "KINGSDALE",
        "streetDirectionId": null,
        "streetTypeId": "AVE",
        "placeName": "NORTH YORK",
        "streetNameDisplayText": "KINGSDALE AVE, NORTH YORK"
      }
    ]
  },
  {
    "postal": "M2N4S3",
    "result": [
      {
        "electoralDistricts": [
          {
            "election": null,
            "id": 117,
            "name": "Willowdale"
          }
        ],
        "pollDivisionIds": [
          10142609
        ],
        "postalCode": "M2N4S3",
        "streetName": "FINCH",
        "streetDirectionId": "E",
        "streetTypeId": "AVE",
        "placeName": "NORTH YORK",
        "streetNameDisplayText": "FINCH AVE E, NORTH YORK"
      }
    ]
  },
  {
    "postal": "M2N1B6",
    "result": [
      {
        "electoralDistricts": [
          {
            "election": null,
            "id": 117,
            "name": "Willowdale"
          }
        ],
        "pollDivisionIds": [
          10142620
        ],
        "postalCode": "M2N1B6",
        "streetName": "FRANKLIN",
        "streetDirectionId": null,
        "streetTypeId": "AVE",
        "placeName": "NORTH YORK",
        "streetNameDisplayText": "FRANKLIN AVE, NORTH YORK"
      }
    ]
  },
  {
    "postal": "M2N8R3",
    "result": []
  },
  {
    "postal": "M2N4V9",
    "result": [
      {
        "electoralDistricts": [
          {
            "election": null,
            "id": 117,
            "name": "Willowdale"
          }
        ],
        "pollDivisionIds": [
          10142614
        ],
        "postalCode": "M2N4V9",
        "streetName": "KENNETH",
        "streetDirectionId": null,
        "streetTypeId": "AVE",
        "placeName": "NORTH YORK",
        "streetNameDisplayText": "KENNETH AVE, NORTH YORK"
      }
    ]
  },
  {
    "postal": "M2N9W4",
    "result": []
  },
  {
    "postal": "M2N3T4",
    "result": [
      {
        "electoralDistricts": [
          {
            "election": null,
            "id": 117,
            "name": "Willowdale"
          }
        ],
        "pollDivisionIds": [
          10142615
        ],
        "postalCode": "M2N3T4",
        "streetName": "EMPRESS",
        "streetDirectionId": null,
        "streetTypeId": "AVE",
        "placeName": "NORTH YORK",
        "streetNameDisplayText": "EMPRESS AVE, NORTH YORK"
      }
    ]
  },
  {
    "postal": "M2N5C7",
    "result": [
      {
        "electoralDistricts": [
          {
            "election": null,
            "id": 111,
            "name": "TorontoSt. Paul's"
          }
        ],
        "pollDivisionIds": [
          10143910
        ],
        "postalCode": "M2N5C7",
        "streetName": "WILFRED",
        "streetDirectionId": null,
        "streetTypeId": "AVE",
        "placeName": "NORTH YORK",
        "streetNameDisplayText": "WILFRED AVE, NORTH YORK"
      }
    ]
  },
  {
    "postal": "M2N3Y1",
    "result": [
      {
        "electoralDistricts": [
          {
            "election": null,
            "id": 117,
            "name": "Willowdale"
          }
        ],
        "pollDivisionIds": [
          10142615
        ],
        "postalCode": "M2N3Y1",
        "streetName": "PARKVIEW",
        "streetDirectionId": null,
        "streetTypeId": "AVE",
        "placeName": "NORTH YORK",
        "streetNameDisplayText": "PARKVIEW AVE, NORTH YORK"
      }
    ]
  },
  {
    "postal": "M2N5V0",
    "result": []
  },
  {
    "postal": "M2N8G8",
    "result": []
  },
  {
    "postal": "M2N8B1",
    "result": []
  },
  {
    "postal": "M2N4P5",
    "result": [
      {
        "electoralDistricts": [
          {
            "election": null,
            "id": 117,
            "name": "Willowdale"
          }
        ],
        "pollDivisionIds": [
          10142609
        ],
        "postalCode": "M2N4P5",
        "streetName": "OLIVE",
        "streetDirectionId": null,
        "streetTypeId": "AVE",
        "placeName": "NORTH YORK",
        "streetNameDisplayText": "OLIVE AVE, NORTH YORK"
      }
    ]
  },
  {
    "postal": "M2N7B2",
    "result": [
      {
        "electoralDistricts": [
          {
            "election": null,
            "id": 117,
            "name": "Willowdale"
          }
        ],
        "pollDivisionIds": [
          10142606,
          10142652,
          10142614
        ],
        "postalCode": "M2N7B2",
        "streetName": "GRANDVIEW",
        "streetDirectionId": null,
        "streetTypeId": "WAY",
        "placeName": "NORTH YORK",
        "streetNameDisplayText": "GRANDVIEW WAY, NORTH YORK"
      }
    ]
  },
  {
    "postal": "M2N0R2",
    "result": []
  },
  {
    "postal": "M2N4M4",
    "result": [
      {
        "electoralDistricts": [
          {
            "election": null,
            "id": 117,
            "name": "Willowdale"
          }
        ],
        "pollDivisionIds": [
          10142614
        ],
        "postalCode": "M2N4M4",
        "streetName": "HOLMES",
        "streetDirectionId": null,
        "streetTypeId": "AVE",
        "placeName": "NORTH YORK",
        "streetNameDisplayText": "HOLMES AVE, NORTH YORK"
      }
    ]
  },
  {
    "postal": "M2N7M4",
    "result": []
  },
  {
    "postal": "M2N9S7",
    "result": []
  },
  {
    "postal": "M2N5Z7",
    "result": [
      {
        "electoralDistricts": [
          {
            "election": null,
            "id": 117,
            "name": "Willowdale"
          }
        ],
        "pollDivisionIds": [
          10142616
        ],
        "postalCode": "M2N5Z7",
        "streetName": "MEADOW LARKWAY",
        "streetDirectionId": null,
        "streetTypeId": null,
        "placeName": "NORTH YORK",
        "streetNameDisplayText": "MEADOW LARKWAY, NORTH YORK"
      }
    ]
  },
  {
    "postal": "M2N7J7",
    "result": [
      {
        "electoralDistricts": [
          {
            "election": null,
            "id": 117,
            "name": "Willowdale"
          }
        ],
        "pollDivisionIds": [
          10142692
        ],
        "postalCode": "M2N7J7",
        "streetName": "HARRISON GARDEN",
        "streetDirectionId": null,
        "streetTypeId": "BLVD",
        "placeName": "NORTH YORK",
        "streetNameDisplayText": "HARRISON GARDEN BLVD, NORTH YORK"
      }
    ]
  },
  {
    "postal": "M2N8R8",
    "result": []
  },
  {
    "postal": "M2N9X1",
    "result": []
  },
  {
    "postal": "M2N5M9",
    "result": [
      {
        "electoralDistricts": [
          {
            "election": null,
            "id": 117,
            "name": "Willowdale"
          }
        ],
        "pollDivisionIds": [
          10143898
        ],
        "postalCode": "M2N5M9",
        "streetName": "YONGE",
        "streetDirectionId": null,
        "streetTypeId": "ST",
        "placeName": "NORTH YORK",
        "streetNameDisplayText": "YONGE ST, NORTH YORK"
      }
    ]
  },
  {
    "postal": "M2N9B4",
    "result": []
  },
  {
    "postal": "M2N0L9",
    "result": []
  },
  {
    "postal": "M2N9G4",
    "result": []
  },
  {
    "postal": "M2N1J4",
    "result": [
      {
        "electoralDistricts": [
          {
            "election": null,
            "id": 117,
            "name": "Willowdale"
          }
        ],
        "pollDivisionIds": [
          10142620
        ],
        "postalCode": "M2N1J4",
        "streetName": "POYNTZ",
        "streetDirectionId": null,
        "streetTypeId": "AVE",
        "placeName": "NORTH YORK",
        "streetNameDisplayText": "POYNTZ AVE, NORTH YORK"
      }
    ]
  },
  {
    "postal": "M2N0W6",
    "result": []
  }
]
