[
  {
    "postal": "M6P9J6",
    "result": []
  },
  {
    "postal": "M6P9Z5",
    "result": []
  },
  {
    "postal": "M6P7H8",
    "result": []
  },
  {
    "postal": "M6P0P6",
    "result": []
  },
  {
    "postal": "M6P0S7",
    "result": []
  },
  {
    "postal": "M6P8B9",
    "result": []
  },
  {
    "postal": "M6P2A6",
    "result": [
      {
        "electoralDistricts": [
          {
            "election": null,
            "id": 83,
            "name": "Parkdale—High Park"
          }
        ],
        "pollDivisionIds": [
          10126423
        ],
        "postalCode": "M6P2A6",
        "streetName": "DUNDAS",
        "streetDirectionId": "W",
        "streetTypeId": "ST",
        "placeName": "TORONTO",
        "streetNameDisplayText": "DUNDAS ST W, TORONTO"
      }
    ]
  },
  {
    "postal": "M6P7V2",
    "result": []
  },
  {
    "postal": "M6P9P4",
    "result": []
  },
  {
    "postal": "M6P6G0",
    "result": []
  },
  {
    "postal": "M6P2K0",
    "result": []
  },
  {
    "postal": "M6P7N6",
    "result": []
  },
  {
    "postal": "M6P5R3",
    "result": []
  },
  {
    "postal": "M6P7K0",
    "result": []
  },
  {
    "postal": "M6P3R2",
    "result": [
      {
        "electoralDistricts": [
          {
            "election": null,
            "id": 19,
            "name": "Davenport"
          }
        ],
        "pollDivisionIds": [
          10136090
        ],
        "postalCode": "M6P3R2",
        "streetName": "ANTLER",
        "streetDirectionId": null,
        "streetTypeId": "ST",
        "placeName": "TORONTO",
        "streetNameDisplayText": "ANTLER ST, TORONTO"
      }
    ]
  },
  {
    "postal": "M6P0J1",
    "result": []
  },
  {
    "postal": "M6P0B0",
    "result": []
  },
  {
    "postal": "M6P5Z2",
    "result": []
  },
  {
    "postal": "M6P7P3",
    "result": []
  },
  {
    "postal": "M6P2K3",
    "result": [
      {
        "electoralDistricts": [
          {
            "election": null,
            "id": 83,
            "name": "Parkdale—High Park"
          }
        ],
        "pollDivisionIds": [
          10126429
        ],
        "postalCode": "M6P2K3",
        "streetName": "KEELE",
        "streetDirectionId": null,
        "streetTypeId": "ST",
        "placeName": "TORONTO",
        "streetNameDisplayText": "KEELE ST, TORONTO"
      }
    ]
  },
  {
    "postal": "M6P7Y6",
    "result": []
  },
  {
    "postal": "M6P1L9",
    "result": [
      {
        "electoralDistricts": [
          {
            "election": null,
            "id": 83,
            "name": "Parkdale—High Park"
          }
        ],
        "pollDivisionIds": [
          10126431
        ],
        "postalCode": "M6P1L9",
        "streetName": "WOODSIDE",
        "streetDirectionId": null,
        "streetTypeId": "AVE",
        "placeName": "TORONTO",
        "streetNameDisplayText": "WOODSIDE AVE, TORONTO"
      }
    ]
  },
  {
    "postal": "M6P8T0",
    "result": []
  },
  {
    "postal": "M6P3K8",
    "result": [
      {
        "electoralDistricts": [
          {
            "election": null,
            "id": 83,
            "name": "Parkdale—High Park"
          }
        ],
        "pollDivisionIds": [
          10126433
        ],
        "postalCode": "M6P3K8",
        "streetName": "BLOOR",
        "streetDirectionId": "W",
        "streetTypeId": "ST",
        "placeName": "TORONTO",
        "streetNameDisplayText": "BLOOR ST W, TORONTO"
      }
    ]
  },
  {
    "postal": "M6P5W9",
    "result": []
  },
  {
    "postal": "M6P6T9",
    "result": []
  },
  {
    "postal": "M6P4H1",
    "result": [
      {
        "electoralDistricts": [
          {
            "election": null,
            "id": 19,
            "name": "Davenport"
          }
        ],
        "pollDivisionIds": [
          10136095
        ],
        "postalCode": "M6P4H1",
        "streetName": "RANKIN",
        "streetDirectionId": null,
        "streetTypeId": "CRES",
        "placeName": "TORONTO",
        "streetNameDisplayText": "RANKIN CRES, TORONTO"
      }
    ]
  },
  {
    "postal": "M6P7A2",
    "result": []
  },
  {
    "postal": "M6P5G0",
    "result": []
  },
  {
    "postal": "M6P8V5",
    "result": []
  },
  {
    "postal": "M6P2Y8",
    "result": [
      {
        "electoralDistricts": [
          {
            "election": null,
            "id": 83,
            "name": "Parkdale—High Park"
          }
        ],
        "pollDivisionIds": [
          10126428
        ],
        "postalCode": "M6P2Y8",
        "streetName": "LAWS",
        "streetDirectionId": null,
        "streetTypeId": "ST",
        "placeName": "TORONTO",
        "streetNameDisplayText": "LAWS ST, TORONTO"
      }
    ]
  },
  {
    "postal": "M6P2B6",
    "result": [
      {
        "electoralDistricts": [
          {
            "election": null,
            "id": 83,
            "name": "Parkdale—High Park"
          }
        ],
        "pollDivisionIds": [
          10126434
        ],
        "postalCode": "M6P2B6",
        "streetName": "DORVAL",
        "streetDirectionId": null,
        "streetTypeId": "RD",
        "placeName": "TORONTO",
        "streetNameDisplayText": "DORVAL RD, TORONTO"
      }
    ]
  },
  {
    "postal": "M6P4W8",
    "result": []
  },
  {
    "postal": "M6P8H7",
    "result": []
  },
  {
    "postal": "M6P5P1",
    "result": []
  },
  {
    "postal": "M6P2B8",
    "result": [
      {
        "electoralDistricts": [
          {
            "election": null,
            "id": 83,
            "name": "Parkdale—High Park"
          }
        ],
        "pollDivisionIds": [
          10126434
        ],
        "postalCode": "M6P2B8",
        "streetName": "DORVAL",
        "streetDirectionId": null,
        "streetTypeId": "RD",
        "placeName": "TORONTO",
        "streetNameDisplayText": "DORVAL RD, TORONTO"
      }
    ]
  },
  {
    "postal": "M6P0P2",
    "result": []
  },
  {
    "postal": "M6P9M1",
    "result": []
  },
  {
    "postal": "M6P3G0",
    "result": []
  },
  {
    "postal": "M6P9Z2",
    "result": []
  },
  {
    "postal": "M6P2A0",
    "result": []
  },
  {
    "postal": "M6P6Y0",
    "result": []
  },
  {
    "postal": "M6P2Z8",
    "result": [
      {
        "electoralDistricts": [
          {
            "election": null,
            "id": 83,
            "name": "Parkdale—High Park"
          }
        ],
        "pollDivisionIds": [
          10126428
        ],
        "postalCode": "M6P2Z8",
        "streetName": "EVELYN",
        "streetDirectionId": null,
        "streetTypeId": "AVE",
        "placeName": "TORONTO",
        "streetNameDisplayText": "EVELYN AVE, TORONTO"
      }
    ]
  },
  {
    "postal": "M6P7Y3",
    "result": []
  },
  {
    "postal": "M6P6Z5",
    "result": []
  },
  {
    "postal": "M6P6E0",
    "result": []
  },
  {
    "postal": "M6P9B7",
    "result": []
  },
  {
    "postal": "M6P9S5",
    "result": []
  },
  {
    "postal": "M6P3X3",
    "result": []
  },
  {
    "postal": "M6P7R5",
    "result": []
  },
  {
    "postal": "M6P2X3",
    "result": [
      {
        "electoralDistricts": [
          {
            "election": null,
            "id": 83,
            "name": "Parkdale—High Park"
          }
        ],
        "pollDivisionIds": [
          10126428
        ],
        "postalCode": "M6P2X3",
        "streetName": "CLENDENAN",
        "streetDirectionId": null,
        "streetTypeId": "AVE",
        "placeName": "TORONTO",
        "streetNameDisplayText": "CLENDENAN AVE, TORONTO"
      }
    ]
  },
  {
    "postal": "M6P8Z9",
    "result": []
  },
  {
    "postal": "M6P0N4",
    "result": []
  },
  {
    "postal": "M6P1K1",
    "result": [
      {
        "electoralDistricts": [
          {
            "election": null,
            "id": 83,
            "name": "Parkdale—High Park"
          }
        ],
        "pollDivisionIds": [
          10126434
        ],
        "postalCode": "M6P1K1",
        "streetName": "HUMBERSIDE",
        "streetDirectionId": null,
        "streetTypeId": "AVE",
        "placeName": "TORONTO",
        "streetNameDisplayText": "HUMBERSIDE AVE, TORONTO"
      }
    ]
  },
  {
    "postal": "M6P1S3",
    "result": [
      {
        "electoralDistricts": [
          {
            "election": null,
            "id": 83,
            "name": "Parkdale—High Park"
          }
        ],
        "pollDivisionIds": [
          10126428,
          10126426
        ],
        "postalCode": "M6P1S3",
        "streetName": "ANNETTE",
        "streetDirectionId": null,
        "streetTypeId": "ST",
        "placeName": "TORONTO",
        "streetNameDisplayText": "ANNETTE ST, TORONTO"
      }
    ]
  },
  {
    "postal": "M6P6M4",
    "result": []
  },
  {
    "postal": "M6P9A9",
    "result": []
  },
  {
    "postal": "M6P9Z9",
    "result": []
  },
  {
    "postal": "M6P6T4",
    "result": []
  },
  {
    "postal": "M6P0B2",
    "result": []
  },
  {
    "postal": "M6P2L9",
    "result": [
      {
        "electoralDistricts": [
          {
            "election": null,
            "id": 83,
            "name": "Parkdale—High Park"
          }
        ],
        "pollDivisionIds": [
          10126429
        ],
        "postalCode": "M6P2L9",
        "streetName": "MAVETY",
        "streetDirectionId": null,
        "streetTypeId": "ST",
        "placeName": "TORONTO",
        "streetNameDisplayText": "MAVETY ST, TORONTO"
      }
    ]
  },
  {
    "postal": "M6P8K9",
    "result": []
  },
  {
    "postal": "M6P2H9",
    "result": [
      {
        "electoralDistricts": [
          {
            "election": null,
            "id": 83,
            "name": "Parkdale—High Park"
          }
        ],
        "pollDivisionIds": [
          10126424
        ],
        "postalCode": "M6P2H9",
        "streetName": "INDIAN",
        "streetDirectionId": null,
        "streetTypeId": "GROVE",
        "placeName": "TORONTO",
        "streetNameDisplayText": "INDIAN GROVE, TORONTO"
      }
    ]
  },
  {
    "postal": "M6P3Z6",
    "result": [
      {
        "electoralDistricts": [
          {
            "election": null,
            "id": 19,
            "name": "Davenport"
          }
        ],
        "pollDivisionIds": [
          10136090
        ],
        "postalCode": "M6P3Z6",
        "streetName": "EDWIN",
        "streetDirectionId": null,
        "streetTypeId": "AVE",
        "placeName": "TORONTO",
        "streetNameDisplayText": "EDWIN AVE, TORONTO"
      }
    ]
  },
  {
    "postal": "M6P3B0",
    "result": []
  },
  {
    "postal": "M6P2H8",
    "result": [
      {
        "electoralDistricts": [
          {
            "election": null,
            "id": 83,
            "name": "Parkdale—High Park"
          }
        ],
        "pollDivisionIds": [
          10126424
        ],
        "postalCode": "M6P2H8",
        "streetName": "INDIAN",
        "streetDirectionId": null,
        "streetTypeId": "GROVE",
        "placeName": "TORONTO",
        "streetNameDisplayText": "INDIAN GROVE, TORONTO"
      }
    ]
  },
  {
    "postal": "M6P3X2",
    "result": [
      {
        "electoralDistricts": [
          {
            "election": null,
            "id": 19,
            "name": "Davenport"
          }
        ],
        "pollDivisionIds": [
          10136095
        ],
        "postalCode": "M6P3X2",
        "streetName": "PERTH",
        "streetDirectionId": null,
        "streetTypeId": "AVE",
        "placeName": "TORONTO",
        "streetNameDisplayText": "PERTH AVE, TORONTO"
      }
    ]
  },
  {
    "postal": "M6P2E9",
    "result": [
      {
        "electoralDistricts": [
          {
            "election": null,
            "id": 83,
            "name": "Parkdale—High Park"
          }
        ],
        "pollDivisionIds": [
          10126434
        ],
        "postalCode": "M6P2E9",
        "streetName": "INDIAN ROAD",
        "streetDirectionId": null,
        "streetTypeId": "CRES",
        "placeName": "TORONTO",
        "streetNameDisplayText": "INDIAN ROAD CRES, TORONTO"
      }
    ]
  },
  {
    "postal": "M6P9P6",
    "result": []
  },
  {
    "postal": "M6P9E2",
    "result": []
  },
  {
    "postal": "M6P9H2",
    "result": []
  },
  {
    "postal": "M6P1S8",
    "result": [
      {
        "electoralDistricts": [
          {
            "election": null,
            "id": 83,
            "name": "Parkdale—High Park"
          }
        ],
        "pollDivisionIds": [
          10126426
        ],
        "postalCode": "M6P1S8",
        "streetName": "MAHER",
        "streetDirectionId": null,
        "streetTypeId": "AVE",
        "placeName": "TORONTO",
        "streetNameDisplayText": "MAHER AVE, TORONTO"
      }
    ]
  },
  {
    "postal": "M6P3M6",
    "result": []
  },
  {
    "postal": "M6P6Z8",
    "result": []
  },
  {
    "postal": "M6P4J2",
    "result": []
  },
  {
    "postal": "M6P9Y1",
    "result": []
  },
  {
    "postal": "M6P8V6",
    "result": []
  },
  {
    "postal": "M6P6B2",
    "result": []
  },
  {
    "postal": "M6P1P8",
    "result": [
      {
        "electoralDistricts": [
          {
            "election": null,
            "id": 83,
            "name": "Parkdale—High Park"
          }
        ],
        "pollDivisionIds": [
          10126428
        ],
        "postalCode": "M6P1P8",
        "streetName": "ANNETTE",
        "streetDirectionId": null,
        "streetTypeId": "ST",
        "placeName": "TORONTO",
        "streetNameDisplayText": "ANNETTE ST, TORONTO"
      }
    ]
  },
  {
    "postal": "M6P0V8",
    "result": []
  },
  {
    "postal": "M6P4Y0",
    "result": []
  },
  {
    "postal": "M6P2T4",
    "result": [
      {
        "electoralDistricts": [
          {
            "election": null,
            "id": 83,
            "name": "Parkdale—High Park"
          }
        ],
        "pollDivisionIds": [
          10126460
        ],
        "postalCode": "M6P2T4",
        "streetName": "QUEBEC",
        "streetDirectionId": null,
        "streetTypeId": "AVE",
        "placeName": "TORONTO",
        "streetNameDisplayText": "QUEBEC AVE, TORONTO"
      }
    ]
  },
  {
    "postal": "M6P2S3",
    "result": [
      {
        "electoralDistricts": [
          {
            "election": null,
            "id": 83,
            "name": "Parkdale—High Park"
          }
        ],
        "pollDivisionIds": [
          10126433
        ],
        "postalCode": "M6P2S3",
        "streetName": "HIGH PARK",
        "streetDirectionId": null,
        "streetTypeId": "AVE",
        "placeName": "TORONTO",
        "streetNameDisplayText": "HIGH PARK AVE, TORONTO"
      }
    ]
  },
  {
    "postal": "M6P0K0",
    "result": []
  },
  {
    "postal": "M6P5N1",
    "result": []
  },
  {
    "postal": "M6P7T0",
    "result": []
  },
  {
    "postal": "M6P9N2",
    "result": []
  },
  {
    "postal": "M6P5L1",
    "result": []
  },
  {
    "postal": "M6P7G5",
    "result": []
  },
  {
    "postal": "M6P6K2",
    "result": []
  },
  {
    "postal": "M6P6P9",
    "result": []
  },
  {
    "postal": "M6P0E6",
    "result": []
  },
  {
    "postal": "M6P8R9",
    "result": []
  },
  {
    "postal": "M6P3G9",
    "result": [
      {
        "electoralDistricts": [
          {
            "election": null,
            "id": 83,
            "name": "Parkdale—High Park"
          }
        ],
        "pollDivisionIds": [
          10126432
        ],
        "postalCode": "M6P3G9",
        "streetName": "NORMA",
        "streetDirectionId": null,
        "streetTypeId": "CRES",
        "placeName": "TORONTO",
        "streetNameDisplayText": "NORMA CRES, TORONTO"
      }
    ]
  },
  {
    "postal": "M6P0V7",
    "result": []
  },
  {
    "postal": "M6P2Z1",
    "result": [
      {
        "electoralDistricts": [
          {
            "election": null,
            "id": 83,
            "name": "Parkdale—High Park"
          }
        ],
        "pollDivisionIds": [
          10126432
        ],
        "postalCode": "M6P2Z1",
        "streetName": "EVELYN",
        "streetDirectionId": null,
        "streetTypeId": "AVE",
        "placeName": "TORONTO",
        "streetNameDisplayText": "EVELYN AVE, TORONTO"
      }
    ]
  },
  {
    "postal": "M6P7N1",
    "result": []
  },
  {
    "postal": "M6P3C6",
    "result": [
      {
        "electoralDistricts": [
          {
            "election": null,
            "id": 83,
            "name": "Parkdale—High Park"
          }
        ],
        "pollDivisionIds": [
          10126431
        ],
        "postalCode": "M6P3C6",
        "streetName": "GLENWOOD",
        "streetDirectionId": null,
        "streetTypeId": "AVE",
        "placeName": "TORONTO",
        "streetNameDisplayText": "GLENWOOD AVE, TORONTO"
      }
    ]
  },
  {
    "postal": "M6P4M1",
    "result": []
  },
  {
    "postal": "M6P9K2",
    "result": []
  },
  {
    "postal": "M6P9S6",
    "result": []
  },
  {
    "postal": "M6P4X1",
    "result": []
  },
  {
    "postal": "M6P8W2",
    "result": []
  },
  {
    "postal": "M6P7N2",
    "result": []
  },
  {
    "postal": "M6P8S3",
    "result": []
  },
  {
    "postal": "M6P4V0",
    "result": []
  },
  {
    "postal": "M6P6W4",
    "result": []
  },
  {
    "postal": "M6P5M1",
    "result": []
  },
  {
    "postal": "M6P0S4",
    "result": []
  },
  {
    "postal": "M6P5X6",
    "result": []
  },
  {
    "postal": "M6P8L5",
    "result": []
  },
  {
    "postal": "M6P5M8",
    "result": []
  },
  {
    "postal": "M6P2G3",
    "result": [
      {
        "electoralDistricts": [
          {
            "election": null,
            "id": 83,
            "name": "Parkdale—High Park"
          }
        ],
        "pollDivisionIds": [
          10126434
        ],
        "postalCode": "M6P2G3",
        "streetName": "INDIAN ROAD",
        "streetDirectionId": null,
        "streetTypeId": "CRES",
        "placeName": "TORONTO",
        "streetNameDisplayText": "INDIAN ROAD CRES, TORONTO"
      }
    ]
  },
  {
    "postal": "M6P8E4",
    "result": []
  },
  {
    "postal": "M6P7S9",
    "result": []
  },
  {
    "postal": "M6P1K3",
    "result": [
      {
        "electoralDistricts": [
          {
            "election": null,
            "id": 83,
            "name": "Parkdale—High Park"
          }
        ],
        "pollDivisionIds": [
          10126434
        ],
        "postalCode": "M6P1K3",
        "streetName": "HUMBERSIDE",
        "streetDirectionId": null,
        "streetTypeId": "AVE",
        "placeName": "TORONTO",
        "streetNameDisplayText": "HUMBERSIDE AVE, TORONTO"
      }
    ]
  },
  {
    "postal": "M6P4E1",
    "result": [
      {
        "electoralDistricts": [
          {
            "election": null,
            "id": 19,
            "name": "Davenport"
          }
        ],
        "pollDivisionIds": [
          10136095
        ],
        "postalCode": "M6P4E1",
        "streetName": "PERTH",
        "streetDirectionId": null,
        "streetTypeId": "AVE",
        "placeName": "TORONTO",
        "streetNameDisplayText": "PERTH AVE, TORONTO"
      }
    ]
  },
  {
    "postal": "M6P4R2",
    "result": []
  },
  {
    "postal": "M6P6T0",
    "result": []
  },
  {
    "postal": "M6P3K5",
    "result": [
      {
        "electoralDistricts": [
          {
            "election": null,
            "id": 83,
            "name": "Parkdale—High Park"
          }
        ],
        "pollDivisionIds": [
          10126433
        ],
        "postalCode": "M6P3K5",
        "streetName": "BLOOR",
        "streetDirectionId": "W",
        "streetTypeId": "ST",
        "placeName": "TORONTO",
        "streetNameDisplayText": "BLOOR ST W, TORONTO"
      }
    ]
  },
  {
    "postal": "M6P3S3",
    "result": [
      {
        "electoralDistricts": [
          {
            "election": null,
            "id": 19,
            "name": "Davenport"
          }
        ],
        "pollDivisionIds": [
          10136089
        ],
        "postalCode": "M6P3S3",
        "streetName": "DUPONT",
        "streetDirectionId": null,
        "streetTypeId": "ST",
        "placeName": "TORONTO",
        "streetNameDisplayText": "DUPONT ST, TORONTO"
      }
    ]
  },
  {
    "postal": "M6P3L4",
    "result": [
      {
        "electoralDistricts": [
          {
            "election": null,
            "id": 19,
            "name": "Davenport"
          }
        ],
        "pollDivisionIds": [
          10136095,
          10136098
        ],
        "postalCode": "M6P3L4",
        "streetName": "BLOOR",
        "streetDirectionId": "W",
        "streetTypeId": "ST",
        "placeName": "TORONTO",
        "streetNameDisplayText": "BLOOR ST W, TORONTO"
      }
    ]
  },
  {
    "postal": "M6P9Y2",
    "result": []
  },
  {
    "postal": "M6P1E0",
    "result": []
  },
  {
    "postal": "M6P9A4",
    "result": []
  },
  {
    "postal": "M6P1L3",
    "result": [
      {
        "electoralDistricts": [
          {
            "election": null,
            "id": 83,
            "name": "Parkdale—High Park"
          }
        ],
        "pollDivisionIds": [
          10126428
        ],
        "postalCode": "M6P1L3",
        "streetName": "HUMBERSIDE",
        "streetDirectionId": null,
        "streetTypeId": "AVE",
        "placeName": "TORONTO",
        "streetNameDisplayText": "HUMBERSIDE AVE, TORONTO"
      }
    ]
  },
  {
    "postal": "M6P6N1",
    "result": []
  },
  {
    "postal": "M6P6G7",
    "result": []
  },
  {
    "postal": "M6P7W1",
    "result": []
  },
  {
    "postal": "M6P4M6",
    "result": []
  },
  {
    "postal": "M6P1K0",
    "result": []
  },
  {
    "postal": "M6P3E2",
    "result": [
      {
        "electoralDistricts": [
          {
            "election": null,
            "id": 83,
            "name": "Parkdale—High Park"
          }
        ],
        "pollDivisionIds": [
          10126431
        ],
        "postalCode": "M6P3E2",
        "streetName": "EVELYN",
        "streetDirectionId": null,
        "streetTypeId": "CRES",
        "placeName": "TORONTO",
        "streetNameDisplayText": "EVELYN CRES, TORONTO"
      }
    ]
  },
  {
    "postal": "M6P5H4",
    "result": []
  },
  {
    "postal": "M6P1K7",
    "result": [
      {
        "electoralDistricts": [
          {
            "election": null,
            "id": 83,
            "name": "Parkdale—High Park"
          }
        ],
        "pollDivisionIds": [
          10126429,
          10126434
        ],
        "postalCode": "M6P1K7",
        "streetName": "HUMBERSIDE",
        "streetDirectionId": null,
        "streetTypeId": "AVE",
        "placeName": "TORONTO",
        "streetNameDisplayText": "HUMBERSIDE AVE, TORONTO"
      }
    ]
  },
  {
    "postal": "M6P0H0",
    "result": []
  },
  {
    "postal": "M6P0J3",
    "result": []
  },
  {
    "postal": "M6P1X6",
    "result": [
      {
        "electoralDistricts": [
          {
            "election": null,
            "id": 83,
            "name": "Parkdale—High Park"
          }
        ],
        "pollDivisionIds": [
          10126434
        ],
        "postalCode": "M6P1X6",
        "streetName": "DUNDAS",
        "streetDirectionId": "W",
        "streetTypeId": "ST",
        "placeName": "TORONTO",
        "streetNameDisplayText": "DUNDAS ST W, TORONTO"
      }
    ]
  },
  {
    "postal": "M6P2Z6",
    "result": [
      {
        "electoralDistricts": [
          {
            "election": null,
            "id": 83,
            "name": "Parkdale—High Park"
          }
        ],
        "pollDivisionIds": [
          10126428
        ],
        "postalCode": "M6P2Z6",
        "streetName": "EVELYN",
        "streetDirectionId": null,
        "streetTypeId": "AVE",
        "placeName": "TORONTO",
        "streetNameDisplayText": "EVELYN AVE, TORONTO"
      }
    ]
  },
  {
    "postal": "M6P4R9",
    "result": []
  },
  {
    "postal": "M6P0W8",
    "result": []
  },
  {
    "postal": "M6P1L4",
    "result": [
      {
        "electoralDistricts": [
          {
            "election": null,
            "id": 83,
            "name": "Parkdale—High Park"
          }
        ],
        "pollDivisionIds": [
          10126433
        ],
        "postalCode": "M6P1L4",
        "streetName": "HUMBERSIDE",
        "streetDirectionId": null,
        "streetTypeId": "AVE",
        "placeName": "TORONTO",
        "streetNameDisplayText": "HUMBERSIDE AVE, TORONTO"
      }
    ]
  },
  {
    "postal": "M6P0C8",
    "result": []
  },
  {
    "postal": "M6P9X7",
    "result": []
  },
  {
    "postal": "M6P4T1",
    "result": []
  },
  {
    "postal": "M6P0M0",
    "result": []
  },
  {
    "postal": "M6P6A2",
    "result": []
  },
  {
    "postal": "M6P9S8",
    "result": []
  },
  {
    "postal": "M6P9T4",
    "result": []
  },
  {
    "postal": "M6P9Y4",
    "result": []
  },
  {
    "postal": "M6P6G5",
    "result": []
  },
  {
    "postal": "M6P6H9",
    "result": []
  },
  {
    "postal": "M6P2P3",
    "result": [
      {
        "electoralDistricts": [
          {
            "election": null,
            "id": 83,
            "name": "Parkdale—High Park"
          }
        ],
        "pollDivisionIds": [
          10126433
        ],
        "postalCode": "M6P2P3",
        "streetName": "PACIFIC",
        "streetDirectionId": null,
        "streetTypeId": "AVE",
        "placeName": "TORONTO",
        "streetNameDisplayText": "PACIFIC AVE, TORONTO"
      }
    ]
  },
  {
    "postal": "M6P1T6",
    "result": [
      {
        "electoralDistricts": [
          {
            "election": null,
            "id": 83,
            "name": "Parkdale—High Park"
          }
        ],
        "pollDivisionIds": [
          10126424
        ],
        "postalCode": "M6P1T6",
        "streetName": "JACKSON",
        "streetDirectionId": null,
        "streetTypeId": "PL",
        "placeName": "TORONTO",
        "streetNameDisplayText": "JACKSON PL, TORONTO"
      }
    ]
  },
  {
    "postal": "M6P4P6",
    "result": []
  },
  {
    "postal": "M6P3K1",
    "result": []
  },
  {
    "postal": "M6P6X4",
    "result": []
  },
  {
    "postal": "M6P4M8",
    "result": []
  },
  {
    "postal": "M6P2Y1",
    "result": [
      {
        "electoralDistricts": [
          {
            "election": null,
            "id": 83,
            "name": "Parkdale—High Park"
          }
        ],
        "pollDivisionIds": [
          10126423
        ],
        "postalCode": "M6P2Y1",
        "streetName": "CLENDENAN",
        "streetDirectionId": null,
        "streetTypeId": "AVE",
        "placeName": "TORONTO",
        "streetNameDisplayText": "CLENDENAN AVE, TORONTO"
      }
    ]
  },
  {
    "postal": "M6P6M1",
    "result": []
  },
  {
    "postal": "M6P5L8",
    "result": []
  },
  {
    "postal": "M6P3P6",
    "result": [
      {
        "electoralDistricts": [
          {
            "election": null,
            "id": 19,
            "name": "Davenport"
          }
        ],
        "pollDivisionIds": [
          10136090
        ],
        "postalCode": "M6P3P6",
        "streetName": "MACAULAY",
        "streetDirectionId": null,
        "streetTypeId": "AVE",
        "placeName": "TORONTO",
        "streetNameDisplayText": "MACAULAY AVE, TORONTO"
      },
      {
        "electoralDistricts": [
          {
            "election": null,
            "id": 19,
            "name": "Davenport"
          }
        ],
        "pollDivisionIds": [
          10136090
        ],
        "postalCode": "M6P3P6",
        "streetName": "MACAULEY",
        "streetDirectionId": null,
        "streetTypeId": "AVE",
        "placeName": "TORONTO",
        "streetNameDisplayText": "MACAULEY AVE, TORONTO"
      }
    ]
  },
  {
    "postal": "M6P9A5",
    "result": []
  },
  {
    "postal": "M6P7K1",
    "result": []
  },
  {
    "postal": "M6P3J4",
    "result": []
  },
  {
    "postal": "M6P5E7",
    "result": []
  },
  {
    "postal": "M6P3A7",
    "result": [
      {
        "electoralDistricts": [
          {
            "election": null,
            "id": 83,
            "name": "Parkdale—High Park"
          }
        ],
        "pollDivisionIds": [
          10126431
        ],
        "postalCode": "M6P3A7",
        "streetName": "GILMOUR",
        "streetDirectionId": null,
        "streetTypeId": "AVE",
        "placeName": "TORONTO",
        "streetNameDisplayText": "GILMOUR AVE, TORONTO"
      }
    ]
  },
  {
    "postal": "M6P1B9",
    "result": [
      {
        "electoralDistricts": [
          {
            "election": null,
            "id": 83,
            "name": "Parkdale—High Park"
          }
        ],
        "pollDivisionIds": [
          10126435
        ],
        "postalCode": "M6P1B9",
        "streetName": "CHELSEA",
        "streetDirectionId": null,
        "streetTypeId": "AVE",
        "placeName": "TORONTO",
        "streetNameDisplayText": "CHELSEA AVE, TORONTO"
      }
    ]
  },
  {
    "postal": "M6P9E8",
    "result": []
  },
  {
    "postal": "M6P1C9",
    "result": [
      {
        "electoralDistricts": [
          {
            "election": null,
            "id": 83,
            "name": "Parkdale—High Park"
          }
        ],
        "pollDivisionIds": [
          10126434
        ],
        "postalCode": "M6P1C9",
        "streetName": "GLENLAKE",
        "streetDirectionId": null,
        "streetTypeId": "AVE",
        "placeName": "TORONTO",
        "streetNameDisplayText": "GLENLAKE AVE, TORONTO"
      }
    ]
  },
  {
    "postal": "M6P3B5",
    "result": [
      {
        "electoralDistricts": [
          {
            "election": null,
            "id": 83,
            "name": "Parkdale—High Park"
          }
        ],
        "pollDivisionIds": [
          10126426
        ],
        "postalCode": "M6P3B5",
        "streetName": "GILMOUR",
        "streetDirectionId": null,
        "streetTypeId": "AVE",
        "placeName": "TORONTO",
        "streetNameDisplayText": "GILMOUR AVE, TORONTO"
      }
    ]
  },
  {
    "postal": "M6P8R0",
    "result": []
  },
  {
    "postal": "M6P3P2",
    "result": [
      {
        "electoralDistricts": [
          {
            "election": null,
            "id": 19,
            "name": "Davenport"
          }
        ],
        "pollDivisionIds": [
          10136090
        ],
        "postalCode": "M6P3P2",
        "streetName": "WALLACE",
        "streetDirectionId": null,
        "streetTypeId": "AVE",
        "placeName": "TORONTO",
        "streetNameDisplayText": "WALLACE AVE, TORONTO"
      }
    ]
  },
  {
    "postal": "M6P5V4",
    "result": []
  },
  {
    "postal": "M6P4H0",
    "result": []
  },
  {
    "postal": "M6P4S7",
    "result": []
  },
  {
    "postal": "M6P6C2",
    "result": []
  },
  {
    "postal": "M6P8W3",
    "result": []
  },
  {
    "postal": "M6P4M5",
    "result": []
  },
  {
    "postal": "M6P5T1",
    "result": []
  },
  {
    "postal": "M6P3B3",
    "result": [
      {
        "electoralDistricts": [
          {
            "election": null,
            "id": 83,
            "name": "Parkdale—High Park"
          }
        ],
        "pollDivisionIds": [
          10126426
        ],
        "postalCode": "M6P3B3",
        "streetName": "GILMOUR",
        "streetDirectionId": null,
        "streetTypeId": "AVE",
        "placeName": "TORONTO",
        "streetNameDisplayText": "GILMOUR AVE, TORONTO"
      }
    ]
  },
  {
    "postal": "M6P6C6",
    "result": []
  },
  {
    "postal": "M6P7N8",
    "result": []
  },
  {
    "postal": "M6P2Y3",
    "result": [
      {
        "electoralDistricts": [
          {
            "election": null,
            "id": 83,
            "name": "Parkdale—High Park"
          }
        ],
        "pollDivisionIds": [
          10126423
        ],
        "postalCode": "M6P2Y3",
        "streetName": "BOLER",
        "streetDirectionId": null,
        "streetTypeId": "ST",
        "placeName": "TORONTO",
        "streetNameDisplayText": "BOLER ST, TORONTO"
      }
    ]
  },
  {
    "postal": "M6P2R6",
    "result": [
      {
        "electoralDistricts": [
          {
            "election": null,
            "id": 83,
            "name": "Parkdale—High Park"
          }
        ],
        "pollDivisionIds": [
          10126467
        ],
        "postalCode": "M6P2R6",
        "streetName": "HIGH PARK",
        "streetDirectionId": null,
        "streetTypeId": "AVE",
        "placeName": "TORONTO",
        "streetNameDisplayText": "HIGH PARK AVE, TORONTO"
      }
    ]
  },
  {
    "postal": "M6P7N3",
    "result": []
  },
  {
    "postal": "M6P8J2",
    "result": []
  },
  {
    "postal": "M6P6A9",
    "result": []
  },
  {
    "postal": "M6P3V2",
    "result": [
      {
        "electoralDistricts": [
          {
            "election": null,
            "id": 19,
            "name": "Davenport"
          }
        ],
        "pollDivisionIds": [
          10136095
        ],
        "postalCode": "M6P3V2",
        "streetName": "CAMPBELL",
        "streetDirectionId": null,
        "streetTypeId": "AVE",
        "placeName": "TORONTO",
        "streetNameDisplayText": "CAMPBELL AVE, TORONTO"
      }
    ]
  },
  {
    "postal": "M6P2N3",
    "result": [
      {
        "electoralDistricts": [
          {
            "election": null,
            "id": 83,
            "name": "Parkdale—High Park"
          }
        ],
        "pollDivisionIds": [
          10126429
        ],
        "postalCode": "M6P2N3",
        "streetName": "MEDLAND",
        "streetDirectionId": null,
        "streetTypeId": "CRES",
        "placeName": "TORONTO",
        "streetNameDisplayText": "MEDLAND CRES, TORONTO"
      }
    ]
  },
  {
    "postal": "M6P1S5",
    "result": [
      {
        "electoralDistricts": [
          {
            "election": null,
            "id": 83,
            "name": "Parkdale—High Park"
          }
        ],
        "pollDivisionIds": [
          10126424
        ],
        "postalCode": "M6P1S5",
        "streetName": "BODWIN",
        "streetDirectionId": null,
        "streetTypeId": "AVE",
        "placeName": "TORONTO",
        "streetNameDisplayText": "BODWIN AVE, TORONTO"
      }
    ]
  },
  {
    "postal": "M6P4T7",
    "result": []
  },
  {
    "postal": "M6P6Y7",
    "result": []
  },
  {
    "postal": "M6P0W7",
    "result": []
  },
  {
    "postal": "M6P2W9",
    "result": [
      {
        "electoralDistricts": [
          {
            "election": null,
            "id": 83,
            "name": "Parkdale—High Park"
          }
        ],
        "pollDivisionIds": [
          10126428
        ],
        "postalCode": "M6P2W9",
        "streetName": "CLENDENAN",
        "streetDirectionId": null,
        "streetTypeId": "AVE",
        "placeName": "TORONTO",
        "streetNameDisplayText": "CLENDENAN AVE, TORONTO"
      }
    ]
  },
  {
    "postal": "M6P8V0",
    "result": []
  },
  {
    "postal": "M6P0H4",
    "result": []
  },
  {
    "postal": "M6P2T1",
    "result": [
      {
        "electoralDistricts": [
          {
            "election": null,
            "id": 83,
            "name": "Parkdale—High Park"
          }
        ],
        "pollDivisionIds": [
          10126428
        ],
        "postalCode": "M6P2T1",
        "streetName": "MCMURRAY",
        "streetDirectionId": null,
        "streetTypeId": "AVE",
        "placeName": "TORONTO",
        "streetNameDisplayText": "MCMURRAY AVE, TORONTO"
      }
    ]
  },
  {
    "postal": "M6P1B1",
    "result": [
      {
        "electoralDistricts": [
          {
            "election": null,
            "id": 83,
            "name": "Parkdale—High Park"
          }
        ],
        "pollDivisionIds": [
          10126439
        ],
        "postalCode": "M6P1B1",
        "streetName": "BLOOR",
        "streetDirectionId": "W",
        "streetTypeId": "ST",
        "placeName": "TORONTO",
        "streetNameDisplayText": "BLOOR ST W, TORONTO"
      }
    ]
  },
  {
    "postal": "M6P8B6",
    "result": []
  },
  {
    "postal": "M6P6H1",
    "result": []
  },
  {
    "postal": "M6P8T8",
    "result": []
  },
  {
    "postal": "M6P0T4",
    "result": []
  },
  {
    "postal": "M6P2C4",
    "result": [
      {
        "electoralDistricts": [
          {
            "election": null,
            "id": 83,
            "name": "Parkdale—High Park"
          }
        ],
        "pollDivisionIds": [
          10126434
        ],
        "postalCode": "M6P2C4",
        "streetName": "INDIAN",
        "streetDirectionId": null,
        "streetTypeId": "RD",
        "placeName": "TORONTO",
        "streetNameDisplayText": "INDIAN RD, TORONTO"
      }
    ]
  },
  {
    "postal": "M6P8N3",
    "result": []
  },
  {
    "postal": "M6P4L8",
    "result": []
  },
  {
    "postal": "M6P2B5",
    "result": [
      {
        "electoralDistricts": [
          {
            "election": null,
            "id": 83,
            "name": "Parkdale—High Park"
          }
        ],
        "pollDivisionIds": [
          10126435
        ],
        "postalCode": "M6P2B5",
        "streetName": "DORVAL",
        "streetDirectionId": null,
        "streetTypeId": "RD",
        "placeName": "TORONTO",
        "streetNameDisplayText": "DORVAL RD, TORONTO"
      }
    ]
  },
  {
    "postal": "M6P3H1",
    "result": [
      {
        "electoralDistricts": [
          {
            "election": null,
            "id": 83,
            "name": "Parkdale—High Park"
          }
        ],
        "pollDivisionIds": [
          10126432
        ],
        "postalCode": "M6P3H1",
        "streetName": "NORMA",
        "streetDirectionId": null,
        "streetTypeId": "CRES",
        "placeName": "TORONTO",
        "streetNameDisplayText": "NORMA CRES, TORONTO"
      }
    ]
  },
  {
    "postal": "M6P4Y1",
    "result": []
  },
  {
    "postal": "M6P7E2",
    "result": []
  },
  {
    "postal": "M6P2P5",
    "result": [
      {
        "electoralDistricts": [
          {
            "election": null,
            "id": 83,
            "name": "Parkdale—High Park"
          }
        ],
        "pollDivisionIds": [
          10126433
        ],
        "postalCode": "M6P2P5",
        "streetName": "PACIFIC",
        "streetDirectionId": null,
        "streetTypeId": "AVE",
        "placeName": "TORONTO",
        "streetNameDisplayText": "PACIFIC AVE, TORONTO"
      }
    ]
  },
  {
    "postal": "M6P8R7",
    "result": []
  },
  {
    "postal": "M6P9P1",
    "result": []
  },
  {
    "postal": "M6P3B8",
    "result": [
      {
        "electoralDistricts": [
          {
            "election": null,
            "id": 83,
            "name": "Parkdale—High Park"
          }
        ],
        "pollDivisionIds": [
          10126426
        ],
        "postalCode": "M6P3B8",
        "streetName": "WESTHOLME",
        "streetDirectionId": null,
        "streetTypeId": "AVE",
        "placeName": "TORONTO",
        "streetNameDisplayText": "WESTHOLME AVE, TORONTO"
      }
    ]
  },
  {
    "postal": "M6P3P7",
    "result": [
      {
        "electoralDistricts": [
          {
            "election": null,
            "id": 19,
            "name": "Davenport"
          }
        ],
        "pollDivisionIds": [
          10136090
        ],
        "postalCode": "M6P3P7",
        "streetName": "RUSKIN",
        "streetDirectionId": null,
        "streetTypeId": "AVE",
        "placeName": "TORONTO",
        "streetNameDisplayText": "RUSKIN AVE, TORONTO"
      }
    ]
  },
  {
    "postal": "M6P9B2",
    "result": []
  },
  {
    "postal": "M6P6Z3",
    "result": []
  },
  {
    "postal": "M6P4N5",
    "result": []
  },
  {
    "postal": "M6P8T3",
    "result": []
  },
  {
    "postal": "M6P1V2",
    "result": [
      {
        "electoralDistricts": [
          {
            "election": null,
            "id": 83,
            "name": "Parkdale—High Park"
          }
        ],
        "pollDivisionIds": [
          10126426
        ],
        "postalCode": "M6P1V2",
        "streetName": "ST JOHNS",
        "streetDirectionId": null,
        "streetTypeId": "RD",
        "placeName": "TORONTO",
        "streetNameDisplayText": "ST JOHNS RD, TORONTO"
      }
    ]
  },
  {
    "postal": "M6P1Y0",
    "result": []
  },
  {
    "postal": "M6P3G6",
    "result": [
      {
        "electoralDistricts": [
          {
            "election": null,
            "id": 83,
            "name": "Parkdale—High Park"
          }
        ],
        "pollDivisionIds": [
          10126428
        ],
        "postalCode": "M6P3G6",
        "streetName": "PINE CREST",
        "streetDirectionId": null,
        "streetTypeId": "RD",
        "placeName": "TORONTO",
        "streetNameDisplayText": "PINE CREST RD, TORONTO"
      }
    ]
  },
  {
    "postal": "M6P3H7",
    "result": [
      {
        "electoralDistricts": [
          {
            "election": null,
            "id": 83,
            "name": "Parkdale—High Park"
          }
        ],
        "pollDivisionIds": [
          10126432
        ],
        "postalCode": "M6P3H7",
        "streetName": "ELORA",
        "streetDirectionId": null,
        "streetTypeId": "RD",
        "placeName": "TORONTO",
        "streetNameDisplayText": "ELORA RD, TORONTO"
      }
    ]
  },
  {
    "postal": "M6P7X8",
    "result": []
  },
  {
    "postal": "M6P0C7",
    "result": []
  },
  {
    "postal": "M6P0W9",
    "result": []
  },
  {
    "postal": "M6P8E6",
    "result": []
  },
  {
    "postal": "M6P9Z8",
    "result": []
  },
  {
    "postal": "M6P3P4",
    "result": [
      {
        "electoralDistricts": [
          {
            "election": null,
            "id": 19,
            "name": "Davenport"
          }
        ],
        "pollDivisionIds": [
          10136090
        ],
        "postalCode": "M6P3P4",
        "streetName": "SARNIA",
        "streetDirectionId": null,
        "streetTypeId": "AVE",
        "placeName": "TORONTO",
        "streetNameDisplayText": "SARNIA AVE, TORONTO"
      }
    ]
  },
  {
    "postal": "M6P6L8",
    "result": []
  },
  {
    "postal": "M6P2R4",
    "result": [
      {
        "electoralDistricts": [
          {
            "election": null,
            "id": 83,
            "name": "Parkdale—High Park"
          }
        ],
        "pollDivisionIds": [
          10126428
        ],
        "postalCode": "M6P2R4",
        "streetName": "PACIFIC",
        "streetDirectionId": null,
        "streetTypeId": "AVE",
        "placeName": "TORONTO",
        "streetNameDisplayText": "PACIFIC AVE, TORONTO"
      }
    ]
  },
  {
    "postal": "M6P2W1",
    "result": [
      {
        "electoralDistricts": [
          {
            "election": null,
            "id": 83,
            "name": "Parkdale—High Park"
          }
        ],
        "pollDivisionIds": [
          10126432
        ],
        "postalCode": "M6P2W1",
        "streetName": "PARKVIEW",
        "streetDirectionId": null,
        "streetTypeId": "GDNS",
        "placeName": "TORONTO",
        "streetNameDisplayText": "PARKVIEW GDNS, TORONTO"
      }
    ]
  },
  {
    "postal": "M6P9H8",
    "result": []
  },
  {
    "postal": "M6P8X9",
    "result": []
  },
  {
    "postal": "M6P7H4",
    "result": []
  },
  {
    "postal": "M6P3J1",
    "result": [
      {
        "electoralDistricts": [
          {
            "election": null,
            "id": 83,
            "name": "Parkdale—High Park"
          }
        ],
        "pollDivisionIds": [
          10126432
        ],
        "postalCode": "M6P3J1",
        "streetName": "OAKVIEW",
        "streetDirectionId": null,
        "streetTypeId": "AVE",
        "placeName": "TORONTO",
        "streetNameDisplayText": "OAKVIEW AVE, TORONTO"
      }
    ]
  },
  {
    "postal": "M6P1P4",
    "result": [
      {
        "electoralDistricts": [
          {
            "election": null,
            "id": 83,
            "name": "Parkdale—High Park"
          }
        ],
        "pollDivisionIds": [
          10126429,
          10126428
        ],
        "postalCode": "M6P1P4",
        "streetName": "ANNETTE",
        "streetDirectionId": null,
        "streetTypeId": "ST",
        "placeName": "TORONTO",
        "streetNameDisplayText": "ANNETTE ST, TORONTO"
      },
      {
        "electoralDistricts": [
          {
            "election": null,
            "id": 83,
            "name": "Parkdale—High Park"
          }
        ],
        "pollDivisionIds": [
          10126428
        ],
        "postalCode": "M6P1P4",
        "streetName": "ANNETTE ST.",
        "streetDirectionId": null,
        "streetTypeId": "ST",
        "placeName": "TORONTO",
        "streetNameDisplayText": "ANNETTE ST. ST, TORONTO"
      }
    ]
  },
  {
    "postal": "M6P2A3",
    "result": [
      {
        "electoralDistricts": [
          {
            "election": null,
            "id": 83,
            "name": "Parkdale—High Park"
          }
        ],
        "pollDivisionIds": [
          10126423
        ],
        "postalCode": "M6P2A3",
        "streetName": "DUNDAS",
        "streetDirectionId": "W",
        "streetTypeId": "ST",
        "placeName": "TORONTO",
        "streetNameDisplayText": "DUNDAS ST W, TORONTO"
      }
    ]
  },
  {
    "postal": "M6P0Z1",
    "result": []
  },
  {
    "postal": "M6P1C1",
    "result": [
      {
        "electoralDistricts": [
          {
            "election": null,
            "id": 83,
            "name": "Parkdale—High Park"
          }
        ],
        "pollDivisionIds": [
          10126435
        ],
        "postalCode": "M6P1C1",
        "streetName": "CHELSEA",
        "streetDirectionId": null,
        "streetTypeId": "AVE",
        "placeName": "TORONTO",
        "streetNameDisplayText": "CHELSEA AVE, TORONTO"
      }
    ]
  },
  {
    "postal": "M6P0H3",
    "result": []
  },
  {
    "postal": "M6P7B0",
    "result": []
  },
  {
    "postal": "M6P5K2",
    "result": []
  },
  {
    "postal": "M6P1E9",
    "result": [
      {
        "electoralDistricts": [
          {
            "election": null,
            "id": 83,
            "name": "Parkdale—High Park"
          }
        ],
        "pollDivisionIds": [
          10126433
        ],
        "postalCode": "M6P1E9",
        "streetName": "GLENLAKE",
        "streetDirectionId": null,
        "streetTypeId": "AVE",
        "placeName": "TORONTO",
        "streetNameDisplayText": "GLENLAKE AVE, TORONTO"
      }
    ]
  },
  {
    "postal": "M6P9W7",
    "result": []
  },
  {
    "postal": "M6P5W6",
    "result": []
  },
  {
    "postal": "M6P6S6",
    "result": []
  },
  {
    "postal": "M6P2P8",
    "result": [
      {
        "electoralDistricts": [
          {
            "election": null,
            "id": 83,
            "name": "Parkdale—High Park"
          }
        ],
        "pollDivisionIds": [
          10126429
        ],
        "postalCode": "M6P2P8",
        "streetName": "PACIFIC",
        "streetDirectionId": null,
        "streetTypeId": "AVE",
        "placeName": "TORONTO",
        "streetNameDisplayText": "PACIFIC AVE, TORONTO"
      }
    ]
  },
  {
    "postal": "M6P4P8",
    "result": []
  },
  {
    "postal": "M6P0V9",
    "result": []
  },
  {
    "postal": "M6P5Y2",
    "result": []
  },
  {
    "postal": "M6P7Z7",
    "result": []
  },
  {
    "postal": "M6P6Y8",
    "result": []
  },
  {
    "postal": "M6P2G7",
    "result": [
      {
        "electoralDistricts": [
          {
            "election": null,
            "id": 83,
            "name": "Parkdale—High Park"
          }
        ],
        "pollDivisionIds": [
          10126434
        ],
        "postalCode": "M6P2G7",
        "streetName": "INDIAN ROAD",
        "streetDirectionId": null,
        "streetTypeId": "CRES",
        "placeName": "TORONTO",
        "streetNameDisplayText": "INDIAN ROAD CRES, TORONTO"
      }
    ]
  },
  {
    "postal": "M6P8C1",
    "result": []
  },
  {
    "postal": "M6P5C5",
    "result": []
  },
  {
    "postal": "M6P2X8",
    "result": [
      {
        "electoralDistricts": [
          {
            "election": null,
            "id": 83,
            "name": "Parkdale—High Park"
          }
        ],
        "pollDivisionIds": [
          10126428,
          10126423
        ],
        "postalCode": "M6P2X8",
        "streetName": "CLENDENAN",
        "streetDirectionId": null,
        "streetTypeId": "AVE",
        "placeName": "TORONTO",
        "streetNameDisplayText": "CLENDENAN AVE, TORONTO"
      }
    ]
  },
  {
    "postal": "M6P1W5",
    "result": [
      {
        "electoralDistricts": [
          {
            "election": null,
            "id": 83,
            "name": "Parkdale—High Park"
          }
        ],
        "pollDivisionIds": [
          10126423
        ],
        "postalCode": "M6P1W5",
        "streetName": "MARIA",
        "streetDirectionId": null,
        "streetTypeId": "ST",
        "placeName": "TORONTO",
        "streetNameDisplayText": "MARIA ST, TORONTO"
      }
    ]
  },
  {
    "postal": "M6P7G0",
    "result": []
  },
  {
    "postal": "M6P8J8",
    "result": []
  },
  {
    "postal": "M6P3Y0",
    "result": []
  },
  {
    "postal": "M6P9T7",
    "result": []
  },
  {
    "postal": "M6P5P4",
    "result": []
  },
  {
    "postal": "M6P4B0",
    "result": []
  },
  {
    "postal": "M6P9N8",
    "result": []
  },
  {
    "postal": "M6P4A7",
    "result": []
  },
  {
    "postal": "M6P4H9",
    "result": [
      {
        "electoralDistricts": [
          {
            "election": null,
            "id": 19,
            "name": "Davenport"
          }
        ],
        "pollDivisionIds": [
          10136095
        ],
        "postalCode": "M6P4H9",
        "streetName": "RANKIN",
        "streetDirectionId": null,
        "streetTypeId": "CRES",
        "placeName": "TORONTO",
        "streetNameDisplayText": "RANKIN CRES, TORONTO"
      }
    ]
  },
  {
    "postal": "M6P6X1",
    "result": []
  },
  {
    "postal": "M6P9Y7",
    "result": []
  },
  {
    "postal": "M6P2Y5",
    "result": [
      {
        "electoralDistricts": [
          {
            "election": null,
            "id": 83,
            "name": "Parkdale—High Park"
          }
        ],
        "pollDivisionIds": [
          10126423
        ],
        "postalCode": "M6P2Y5",
        "streetName": "SHIPMAN",
        "streetDirectionId": null,
        "streetTypeId": "ST",
        "placeName": "TORONTO",
        "streetNameDisplayText": "SHIPMAN ST, TORONTO"
      }
    ]
  },
  {
    "postal": "M6P8L7",
    "result": []
  },
  {
    "postal": "M6P2A8",
    "result": [
      {
        "electoralDistricts": [
          {
            "election": null,
            "id": 83,
            "name": "Parkdale—High Park"
          }
        ],
        "pollDivisionIds": [
          10126435
        ],
        "postalCode": "M6P2A8",
        "streetName": "PRINCE RUPERT",
        "streetDirectionId": null,
        "streetTypeId": "AVE",
        "placeName": "TORONTO",
        "streetNameDisplayText": "PRINCE RUPERT AVE, TORONTO"
      }
    ]
  },
  {
    "postal": "M6P2K9",
    "result": [
      {
        "electoralDistricts": [
          {
            "election": null,
            "id": 83,
            "name": "Parkdale—High Park"
          }
        ],
        "pollDivisionIds": [
          10126453,
          10126424
        ],
        "postalCode": "M6P2K9",
        "streetName": "KEELE",
        "streetDirectionId": null,
        "streetTypeId": "ST",
        "placeName": "TORONTO",
        "streetNameDisplayText": "KEELE ST, TORONTO"
      },
      {
        "electoralDistricts": [
          {
            "election": null,
            "id": 111,
            "name": "Toronto—St. Paul's"
          }
        ],
        "pollDivisionIds": [
          10136032
        ],
        "postalCode": "M6P2K9",
        "streetName": "RAGLAN",
        "streetDirectionId": null,
        "streetTypeId": "AVE",
        "placeName": "TORONTO,ON",
        "streetNameDisplayText": "RAGLAN AVE, TORONTO,ON"
      }
    ]
  },
  {
    "postal": "M6P3E5",
    "result": [
      {
        "electoralDistricts": [
          {
            "election": null,
            "id": 83,
            "name": "Parkdale—High Park"
          }
        ],
        "pollDivisionIds": [
          10126432
        ],
        "postalCode": "M6P3E5",
        "streetName": "GLENDONWYNNE",
        "streetDirectionId": null,
        "streetTypeId": "RD",
        "placeName": "TORONTO",
        "streetNameDisplayText": "GLENDONWYNNE RD, TORONTO"
      }
    ]
  },
  {
    "postal": "M6P8N6",
    "result": []
  },
  {
    "postal": "M6P8J4",
    "result": []
  },
  {
    "postal": "M6P4R7",
    "result": []
  },
  {
    "postal": "M6P9K1",
    "result": []
  },
  {
    "postal": "M6P8E1",
    "result": []
  },
  {
    "postal": "M6P0R1",
    "result": []
  },
  {
    "postal": "M6P4J3",
    "result": []
  },
  {
    "postal": "M6P7E7",
    "result": []
  },
  {
    "postal": "M6P0J0",
    "result": []
  },
  {
    "postal": "M6P7R8",
    "result": []
  },
  {
    "postal": "M6P9X0",
    "result": []
  },
  {
    "postal": "M6P7P6",
    "result": []
  },
  {
    "postal": "M6P0R7",
    "result": []
  },
  {
    "postal": "M6P5W1",
    "result": []
  },
  {
    "postal": "M6P0K4",
    "result": []
  },
  {
    "postal": "M6P7N9",
    "result": []
  },
  {
    "postal": "M6P1N0",
    "result": []
  },
  {
    "postal": "M6P6P3",
    "result": []
  },
  {
    "postal": "M6P5A1",
    "result": [
      {
        "electoralDistricts": [
          {
            "election": null,
            "id": 83,
            "name": "Parkdale—High Park"
          }
        ],
        "pollDivisionIds": [
          10126453
        ],
        "postalCode": "M6P5A1",
        "streetName": "HEINTZMAN",
        "streetDirectionId": null,
        "streetTypeId": "ST",
        "placeName": "TORONTO",
        "streetNameDisplayText": "HEINTZMAN ST, TORONTO"
      }
    ]
  },
  {
    "postal": "M6P9M9",
    "result": []
  },
  {
    "postal": "M6P7T6",
    "result": []
  },
  {
    "postal": "M6P3X0",
    "result": []
  },
  {
    "postal": "M6P2T0",
    "result": []
  },
  {
    "postal": "M6P5X9",
    "result": []
  },
  {
    "postal": "M6P2R3",
    "result": [
      {
        "electoralDistricts": [
          {
            "election": null,
            "id": 83,
            "name": "Parkdale—High Park"
          }
        ],
        "pollDivisionIds": [
          10126424
        ],
        "postalCode": "M6P2R3",
        "streetName": "PACIFIC",
        "streetDirectionId": null,
        "streetTypeId": "AVE",
        "placeName": "TORONTO",
        "streetNameDisplayText": "PACIFIC AVE, TORONTO"
      }
    ]
  },
  {
    "postal": "M6P5N2",
    "result": []
  },
  {
    "postal": "M6P4Y7",
    "result": []
  },
  {
    "postal": "M6P7M0",
    "result": []
  },
  {
    "postal": "M6P8P3",
    "result": []
  },
  {
    "postal": "M6P3N3",
    "result": [
      {
        "electoralDistricts": [
          {
            "election": null,
            "id": 19,
            "name": "Davenport"
          }
        ],
        "pollDivisionIds": [
          10136095
        ],
        "postalCode": "M6P3N3",
        "streetName": "ELSIE",
        "streetDirectionId": null,
        "streetTypeId": "LANE",
        "placeName": "TORONTO",
        "streetNameDisplayText": "ELSIE LANE, TORONTO"
      }
    ]
  },
  {
    "postal": "M6P7S3",
    "result": []
  },
  {
    "postal": "M6P3V9",
    "result": [
      {
        "electoralDistricts": [
          {
            "election": null,
            "id": 19,
            "name": "Davenport"
          }
        ],
        "pollDivisionIds": [
          10136089
        ],
        "postalCode": "M6P3V9",
        "streetName": "CAMPBELL",
        "streetDirectionId": null,
        "streetTypeId": "AVE",
        "placeName": "TORONTO",
        "streetNameDisplayText": "CAMPBELL AVE, TORONTO"
      }
    ]
  },
  {
    "postal": "M6P9N7",
    "result": []
  },
  {
    "postal": "M6P0G4",
    "result": []
  },
  {
    "postal": "M6P2E2",
    "result": [
      {
        "electoralDistricts": [
          {
            "election": null,
            "id": 83,
            "name": "Parkdale—High Park"
          }
        ],
        "pollDivisionIds": [
          10126434
        ],
        "postalCode": "M6P2E2",
        "streetName": "INDIAN",
        "streetDirectionId": null,
        "streetTypeId": "RD",
        "placeName": "TORONTO",
        "streetNameDisplayText": "INDIAN RD, TORONTO"
      }
    ]
  },
  {
    "postal": "M6P7W8",
    "result": []
  },
  {
    "postal": "M6P7M5",
    "result": []
  },
  {
    "postal": "M6P5W8",
    "result": []
  },
  {
    "postal": "M6P5E5",
    "result": []
  },
  {
    "postal": "M6P1P9",
    "result": [
      {
        "electoralDistricts": [
          {
            "election": null,
            "id": 83,
            "name": "Parkdale—High Park"
          }
        ],
        "pollDivisionIds": [
          10126428
        ],
        "postalCode": "M6P1P9",
        "streetName": "ANNETTE",
        "streetDirectionId": null,
        "streetTypeId": "ST",
        "placeName": "TORONTO",
        "streetNameDisplayText": "ANNETTE ST, TORONTO"
      }
    ]
  },
  {
    "postal": "M6P8V8",
    "result": []
  },
  {
    "postal": "M6P9G8",
    "result": []
  },
  {
    "postal": "M6P8H9",
    "result": []
  },
  {
    "postal": "M6P1Z1",
    "result": [
      {
        "electoralDistricts": [
          {
            "election": null,
            "id": 83,
            "name": "Parkdale—High Park"
          }
        ],
        "pollDivisionIds": [
          10126428,
          10126429
        ],
        "postalCode": "M6P1Z1",
        "streetName": "DUNDAS",
        "streetDirectionId": "W",
        "streetTypeId": "ST",
        "placeName": "TORONTO",
        "streetNameDisplayText": "DUNDAS ST W, TORONTO"
      }
    ]
  },
  {
    "postal": "M6P8M3",
    "result": []
  },
  {
    "postal": "M6P5H6",
    "result": []
  },
  {
    "postal": "M6P7W7",
    "result": []
  },
  {
    "postal": "M6P4L0",
    "result": []
  },
  {
    "postal": "M6P2N1",
    "result": [
      {
        "electoralDistricts": [
          {
            "election": null,
            "id": 83,
            "name": "Parkdale—High Park"
          }
        ],
        "pollDivisionIds": [
          10126433
        ],
        "postalCode": "M6P2N1",
        "streetName": "OAKMOUNT",
        "streetDirectionId": null,
        "streetTypeId": "RD",
        "placeName": "TORONTO",
        "streetNameDisplayText": "OAKMOUNT RD, TORONTO"
      }
    ]
  },
  {
    "postal": "M6P2H4",
    "result": [
      {
        "electoralDistricts": [
          {
            "election": null,
            "id": 83,
            "name": "Parkdale—High Park"
          }
        ],
        "pollDivisionIds": [
          10126434
        ],
        "postalCode": "M6P2H4",
        "streetName": "INDIAN",
        "streetDirectionId": null,
        "streetTypeId": "GROVE",
        "placeName": "TORONTO",
        "streetNameDisplayText": "INDIAN GROVE, TORONTO"
      }
    ]
  },
  {
    "postal": "M6P5C8",
    "result": []
  },
  {
    "postal": "M6P8B0",
    "result": []
  },
  {
    "postal": "M6P1T4",
    "result": [
      {
        "electoralDistricts": [
          {
            "election": null,
            "id": 83,
            "name": "Parkdale—High Park"
          }
        ],
        "pollDivisionIds": [
          10126424
        ],
        "postalCode": "M6P1T4",
        "streetName": "HOOK",
        "streetDirectionId": null,
        "streetTypeId": "AVE",
        "placeName": "TORONTO",
        "streetNameDisplayText": "HOOK AVE, TORONTO"
      }
    ]
  },
  {
    "postal": "M6P7N7",
    "result": []
  },
  {
    "postal": "M6P4L3",
    "result": []
  },
  {
    "postal": "M6P2N2",
    "result": [
      {
        "electoralDistricts": [
          {
            "election": null,
            "id": 83,
            "name": "Parkdale—High Park"
          }
        ],
        "pollDivisionIds": [
          10126429
        ],
        "postalCode": "M6P2N2",
        "streetName": "MEDLAND",
        "streetDirectionId": null,
        "streetTypeId": "CRES",
        "placeName": "TORONTO",
        "streetNameDisplayText": "MEDLAND CRES, TORONTO"
      }
    ]
  },
  {
    "postal": "M6P4N8",
    "result": []
  },
  {
    "postal": "M6P3M5",
    "result": [
      {
        "electoralDistricts": [
          {
            "election": null,
            "id": 19,
            "name": "Davenport"
          }
        ],
        "pollDivisionIds": [
          10136095
        ],
        "postalCode": "M6P3M5",
        "streetName": "ERNEST",
        "streetDirectionId": null,
        "streetTypeId": "AVE",
        "placeName": "TORONTO",
        "streetNameDisplayText": "ERNEST AVE, TORONTO"
      }
    ]
  },
  {
    "postal": "M6P6H7",
    "result": []
  },
  {
    "postal": "M6P8Y8",
    "result": []
  },
  {
    "postal": "M6P5R9",
    "result": []
  },
  {
    "postal": "M6P8G3",
    "result": []
  },
  {
    "postal": "M6P4N7",
    "result": []
  },
  {
    "postal": "M6P0B9",
    "result": []
  },
  {
    "postal": "M6P9K7",
    "result": []
  },
  {
    "postal": "M6P9K9",
    "result": []
  },
  {
    "postal": "M6P3Z2",
    "result": [
      {
        "electoralDistricts": [
          {
            "election": null,
            "id": 83,
            "name": "Parkdale—High Park"
          }
        ],
        "pollDivisionIds": [
          10126424
        ],
        "postalCode": "M6P3Z2",
        "streetName": "FRANKLIN  AVENUE",
        "streetDirectionId": null,
        "streetTypeId": "AVE",
        "placeName": "TORONTO",
        "streetNameDisplayText": "FRANKLIN  AVENUE AVE, TORONTO"
      },
      {
        "electoralDistricts": [
          {
            "election": null,
            "id": 19,
            "name": "Davenport"
          }
        ],
        "pollDivisionIds": [
          10136090
        ],
        "postalCode": "M6P3Z2",
        "streetName": "FRANKLIN",
        "streetDirectionId": null,
        "streetTypeId": "AVE",
        "placeName": "TORONTO",
        "streetNameDisplayText": "FRANKLIN AVE, TORONTO"
      }
    ]
  },
  {
    "postal": "M6P6W7",
    "result": []
  },
  {
    "postal": "M6P0P1",
    "result": []
  },
  {
    "postal": "M6P3A0",
    "result": []
  },
  {
    "postal": "M6P8L9",
    "result": []
  },
  {
    "postal": "M6P6X0",
    "result": []
  },
  {
    "postal": "M6P3E9",
    "result": [
      {
        "electoralDistricts": [
          {
            "election": null,
            "id": 83,
            "name": "Parkdale—High Park"
          }
        ],
        "pollDivisionIds": [
          10126428
        ],
        "postalCode": "M6P3E9",
        "streetName": "GLENDONWYNNE",
        "streetDirectionId": null,
        "streetTypeId": "RD",
        "placeName": "TORONTO",
        "streetNameDisplayText": "GLENDONWYNNE RD, TORONTO"
      }
    ]
  },
  {
    "postal": "M6P0S5",
    "result": []
  },
  {
    "postal": "M6P1A2",
    "result": []
  },
  {
    "postal": "M6P5V8",
    "result": []
  },
  {
    "postal": "M6P8C5",
    "result": []
  },
  {
    "postal": "M6P6N0",
    "result": []
  },
  {
    "postal": "M6P9E6",
    "result": []
  },
  {
    "postal": "M6P5J7",
    "result": []
  },
  {
    "postal": "M6P2R2",
    "result": [
      {
        "electoralDistricts": [
          {
            "election": null,
            "id": 83,
            "name": "Parkdale—High Park"
          }
        ],
        "pollDivisionIds": [
          10126428
        ],
        "postalCode": "M6P2R2",
        "streetName": "PACIFIC",
        "streetDirectionId": null,
        "streetTypeId": "AVE",
        "placeName": "TORONTO",
        "streetNameDisplayText": "PACIFIC AVE, TORONTO"
      }
    ]
  },
  {
    "postal": "M6P0P5",
    "result": []
  },
  {
    "postal": "M6P5A7",
    "result": []
  },
  {
    "postal": "M6P1G1",
    "result": [
      {
        "electoralDistricts": [
          {
            "election": null,
            "id": 83,
            "name": "Parkdale—High Park"
          }
        ],
        "pollDivisionIds": [
          10126433
        ],
        "postalCode": "M6P1G1",
        "streetName": "GLENLAKE",
        "streetDirectionId": null,
        "streetTypeId": "AVE",
        "placeName": "TORONTO",
        "streetNameDisplayText": "GLENLAKE AVE, TORONTO"
      }
    ]
  },
  {
    "postal": "M6P9R6",
    "result": []
  },
  {
    "postal": "M6P4Z9",
    "result": []
  },
  {
    "postal": "M6P1V5",
    "result": []
  },
  {
    "postal": "M6P9Y5",
    "result": []
  },
  {
    "postal": "M6P1P2",
    "result": [
      {
        "electoralDistricts": [
          {
            "election": null,
            "id": 83,
            "name": "Parkdale—High Park"
          }
        ],
        "pollDivisionIds": [
          10126429
        ],
        "postalCode": "M6P1P2",
        "streetName": "ANNETTE",
        "streetDirectionId": null,
        "streetTypeId": "ST",
        "placeName": "TORONTO",
        "streetNameDisplayText": "ANNETTE ST, TORONTO"
      }
    ]
  },
  {
    "postal": "M6P5X0",
    "result": []
  },
  {
    "postal": "M6P7B8",
    "result": []
  },
  {
    "postal": "M6P0C6",
    "result": []
  },
  {
    "postal": "M6P6G1",
    "result": []
  },
  {
    "postal": "M6P3K3",
    "result": [
      {
        "electoralDistricts": [
          {
            "election": null,
            "id": 83,
            "name": "Parkdale—High Park"
          }
        ],
        "pollDivisionIds": [
          10126429
        ],
        "postalCode": "M6P3K3",
        "streetName": "OAKMOUNT",
        "streetDirectionId": null,
        "streetTypeId": "RD",
        "placeName": "TORONTO",
        "streetNameDisplayText": "OAKMOUNT RD, TORONTO"
      }
    ]
  },
  {
    "postal": "M6P9R0",
    "result": []
  },
  {
    "postal": "M6P4R8",
    "result": []
  },
  {
    "postal": "M6P5P9",
    "result": []
  },
  {
    "postal": "M6P8N4",
    "result": []
  },
  {
    "postal": "M6P8H4",
    "result": []
  },
  {
    "postal": "M6P4V1",
    "result": []
  },
  {
    "postal": "M6P1K5",
    "result": [
      {
        "electoralDistricts": [
          {
            "election": null,
            "id": 83,
            "name": "Parkdale—High Park"
          }
        ],
        "pollDivisionIds": [
          10126429
        ],
        "postalCode": "M6P1K5",
        "streetName": "HUMBERSIDE",
        "streetDirectionId": null,
        "streetTypeId": "AVE",
        "placeName": "TORONTO",
        "streetNameDisplayText": "HUMBERSIDE AVE, TORONTO"
      }
    ]
  },
  {
    "postal": "M6P1Z5",
    "result": [
      {
        "electoralDistricts": [
          {
            "election": null,
            "id": 83,
            "name": "Parkdale—High Park"
          }
        ],
        "pollDivisionIds": [
          10126428
        ],
        "postalCode": "M6P1Z5",
        "streetName": "DUNDAS",
        "streetDirectionId": "W",
        "streetTypeId": "ST",
        "placeName": "TORONTO",
        "streetNameDisplayText": "DUNDAS ST W, TORONTO"
      }
    ]
  },
  {
    "postal": "M6P9L9",
    "result": []
  },
  {
    "postal": "M6P5L2",
    "result": []
  },
  {
    "postal": "M6P0M2",
    "result": []
  },
  {
    "postal": "M6P1K8",
    "result": [
      {
        "electoralDistricts": [
          {
            "election": null,
            "id": 83,
            "name": "Parkdale—High Park"
          }
        ],
        "pollDivisionIds": [
          10126429
        ],
        "postalCode": "M6P1K8",
        "streetName": "HUMBERSIDE",
        "streetDirectionId": null,
        "streetTypeId": "AVE",
        "placeName": "TORONTO",
        "streetNameDisplayText": "HUMBERSIDE AVE, TORONTO"
      }
    ]
  },
  {
    "postal": "M6P3M7",
    "result": [
      {
        "electoralDistricts": [
          {
            "election": null,
            "id": 19,
            "name": "Davenport"
          }
        ],
        "pollDivisionIds": [
          10136095
        ],
        "postalCode": "M6P3M7",
        "streetName": "ERNEST",
        "streetDirectionId": null,
        "streetTypeId": "AVE",
        "placeName": "TORONTO",
        "streetNameDisplayText": "ERNEST AVE, TORONTO"
      }
    ]
  },
  {
    "postal": "M6P1B2",
    "result": [
      {
        "electoralDistricts": [
          {
            "election": null,
            "id": 83,
            "name": "Parkdale—High Park"
          }
        ],
        "pollDivisionIds": [
          10126439,
          10126484
        ],
        "postalCode": "M6P1B2",
        "streetName": "BLOOR",
        "streetDirectionId": "W",
        "streetTypeId": "ST",
        "placeName": "TORONTO",
        "streetNameDisplayText": "BLOOR ST W, TORONTO"
      }
    ]
  },
  {
    "postal": "M6P0H9",
    "result": []
  },
  {
    "postal": "M6P8M4",
    "result": []
  },
  {
    "postal": "M6P2M5",
    "result": [
      {
        "electoralDistricts": [
          {
            "election": null,
            "id": 83,
            "name": "Parkdale—High Park"
          }
        ],
        "pollDivisionIds": [
          10126450
        ],
        "postalCode": "M6P2M5",
        "streetName": "OAKMOUNT",
        "streetDirectionId": null,
        "streetTypeId": "RD",
        "placeName": "TORONTO",
        "streetNameDisplayText": "OAKMOUNT RD, TORONTO"
      }
    ]
  },
  {
    "postal": "M6P0T9",
    "result": []
  },
  {
    "postal": "M6P3P1",
    "result": []
  },
  {
    "postal": "M6P1R6",
    "result": [
      {
        "electoralDistricts": [
          {
            "election": null,
            "id": 83,
            "name": "Parkdale—High Park"
          }
        ],
        "pollDivisionIds": [
          10126428
        ],
        "postalCode": "M6P1R6",
        "streetName": "ANNETTE",
        "streetDirectionId": null,
        "streetTypeId": "ST",
        "placeName": "TORONTO",
        "streetNameDisplayText": "ANNETTE ST, TORONTO"
      }
    ]
  },
  {
    "postal": "M6P9V5",
    "result": []
  },
  {
    "postal": "M6P9T0",
    "result": []
  },
  {
    "postal": "M6P0A9",
    "result": [
      {
        "electoralDistricts": [
          {
            "election": null,
            "id": 19,
            "name": "Davenport"
          }
        ],
        "pollDivisionIds": [
          10136090
        ],
        "postalCode": "M6P0A9",
        "streetName": "SOUSA MENDES",
        "streetDirectionId": null,
        "streetTypeId": "ST",
        "placeName": "TORONTO",
        "streetNameDisplayText": "SOUSA MENDES ST, TORONTO"
      }
    ]
  },
  {
    "postal": "M6P1M3",
    "result": [
      {
        "electoralDistricts": [
          {
            "election": null,
            "id": 83,
            "name": "Parkdale—High Park"
          }
        ],
        "pollDivisionIds": [
          10126428
        ],
        "postalCode": "M6P1M3",
        "streetName": "ROWLAND",
        "streetDirectionId": null,
        "streetTypeId": "ST",
        "placeName": "TORONTO",
        "streetNameDisplayText": "ROWLAND ST, TORONTO"
      }
    ]
  },
  {
    "postal": "M6P1W8",
    "result": []
  },
  {
    "postal": "M6P9J1",
    "result": []
  },
  {
    "postal": "M6P8N5",
    "result": []
  },
  {
    "postal": "M6P5X1",
    "result": []
  },
  {
    "postal": "M6P6S2",
    "result": []
  },
  {
    "postal": "M6P2A2",
    "result": [
      {
        "electoralDistricts": [
          {
            "election": null,
            "id": 83,
            "name": "Parkdale—High Park"
          }
        ],
        "pollDivisionIds": [
          10126423
        ],
        "postalCode": "M6P2A2",
        "streetName": "DUNDAS",
        "streetDirectionId": "W",
        "streetTypeId": "ST",
        "placeName": "TORONTO",
        "streetNameDisplayText": "DUNDAS ST W, TORONTO"
      }
    ]
  },
  {
    "postal": "M6P6A6",
    "result": []
  },
  {
    "postal": "M6P0S3",
    "result": []
  },
  {
    "postal": "M6P3E7",
    "result": [
      {
        "electoralDistricts": [
          {
            "election": null,
            "id": 83,
            "name": "Parkdale—High Park"
          }
        ],
        "pollDivisionIds": [
          10126432
        ],
        "postalCode": "M6P3E7",
        "streetName": "GLENDONWYNNE",
        "streetDirectionId": null,
        "streetTypeId": "RD",
        "placeName": "TORONTO",
        "streetNameDisplayText": "GLENDONWYNNE RD, TORONTO"
      }
    ]
  },
  {
    "postal": "M6P5R7",
    "result": []
  },
  {
    "postal": "M6P3R6",
    "result": [
      {
        "electoralDistricts": [
          {
            "election": null,
            "id": 19,
            "name": "Davenport"
          }
        ],
        "pollDivisionIds": [
          10136090
        ],
        "postalCode": "M6P3R6",
        "streetName": "ALPINE",
        "streetDirectionId": null,
        "streetTypeId": "AVE",
        "placeName": "TORONTO",
        "streetNameDisplayText": "ALPINE AVE, TORONTO"
      }
    ]
  },
  {
    "postal": "M6P6K4",
    "result": []
  },
  {
    "postal": "M6P2W5",
    "result": [
      {
        "electoralDistricts": [
          {
            "election": null,
            "id": 83,
            "name": "Parkdale—High Park"
          }
        ],
        "pollDivisionIds": [
          10126432
        ],
        "postalCode": "M6P2W5",
        "streetName": "CLENDENAN",
        "streetDirectionId": null,
        "streetTypeId": "AVE",
        "placeName": "TORONTO",
        "streetNameDisplayText": "CLENDENAN AVE, TORONTO"
      }
    ]
  },
  {
    "postal": "M6P8W4",
    "result": []
  },
  {
    "postal": "M6P9C2",
    "result": []
  },
  {
    "postal": "M6P2C0",
    "result": []
  },
  {
    "postal": "M6P0E1",
    "result": []
  },
  {
    "postal": "M6P1K9",
    "result": [
      {
        "electoralDistricts": [
          {
            "election": null,
            "id": 83,
            "name": "Parkdale—High Park"
          }
        ],
        "pollDivisionIds": [
          10126429
        ],
        "postalCode": "M6P1K9",
        "streetName": "HUMBERSIDE",
        "streetDirectionId": null,
        "streetTypeId": "AVE",
        "placeName": "TORONTO",
        "streetNameDisplayText": "HUMBERSIDE AVE, TORONTO"
      }
    ]
  },
  {
    "postal": "M6P1G7",
    "result": [
      {
        "electoralDistricts": [
          {
            "election": null,
            "id": 83,
            "name": "Parkdale—High Park"
          }
        ],
        "pollDivisionIds": [
          10126428
        ],
        "postalCode": "M6P1G7",
        "streetName": "GLENLAKE",
        "streetDirectionId": null,
        "streetTypeId": "AVE",
        "placeName": "TORONTO",
        "streetNameDisplayText": "GLENLAKE AVE, TORONTO"
      }
    ]
  },
  {
    "postal": "M6P4E9",
    "result": []
  },
  {
    "postal": "M6P9P0",
    "result": []
  },
  {
    "postal": "M6P5H3",
    "result": []
  },
  {
    "postal": "M6P9X6",
    "result": []
  },
  {
    "postal": "M6P5N7",
    "result": []
  },
  {
    "postal": "M6P5A6",
    "result": []
  },
  {
    "postal": "M6P4M0",
    "result": []
  },
  {
    "postal": "M6P3V6",
    "result": [
      {
        "electoralDistricts": [
          {
            "election": null,
            "id": 19,
            "name": "Davenport"
          }
        ],
        "pollDivisionIds": [
          10136089
        ],
        "postalCode": "M6P3V6",
        "streetName": "CAMPBELL",
        "streetDirectionId": null,
        "streetTypeId": "AVE",
        "placeName": "TORONTO",
        "streetNameDisplayText": "CAMPBELL AVE, TORONTO"
      }
    ]
  },
  {
    "postal": "M6P1L7",
    "result": [
      {
        "electoralDistricts": [
          {
            "election": null,
            "id": 83,
            "name": "Parkdale—High Park"
          }
        ],
        "pollDivisionIds": [
          10126428
        ],
        "postalCode": "M6P1L7",
        "streetName": "WOODSIDE",
        "streetDirectionId": null,
        "streetTypeId": "AVE",
        "placeName": "TORONTO",
        "streetNameDisplayText": "WOODSIDE AVE, TORONTO"
      }
    ]
  },
  {
    "postal": "M6P2P9",
    "result": [
      {
        "electoralDistricts": [
          {
            "election": null,
            "id": 83,
            "name": "Parkdale—High Park"
          }
        ],
        "pollDivisionIds": [
          10126428
        ],
        "postalCode": "M6P2P9",
        "streetName": "PACIFIC",
        "streetDirectionId": null,
        "streetTypeId": "AVE",
        "placeName": "TORONTO",
        "streetNameDisplayText": "PACIFIC AVE, TORONTO"
      }
    ]
  },
  {
    "postal": "M6P5T4",
    "result": []
  },
  {
    "postal": "M6P5Z1",
    "result": []
  },
  {
    "postal": "M6P2X0",
    "result": []
  },
  {
    "postal": "M6P6Z2",
    "result": []
  },
  {
    "postal": "M6P0E0",
    "result": []
  },
  {
    "postal": "M6P3Z5",
    "result": [
      {
        "electoralDistricts": [
          {
            "election": null,
            "id": 19,
            "name": "Davenport"
          }
        ],
        "pollDivisionIds": [
          10136090
        ],
        "postalCode": "M6P3Z5",
        "streetName": "EDWIN",
        "streetDirectionId": null,
        "streetTypeId": "AVE",
        "placeName": "TORONTO",
        "streetNameDisplayText": "EDWIN AVE, TORONTO"
      }
    ]
  },
  {
    "postal": "M6P8H3",
    "result": []
  },
  {
    "postal": "M6P7S6",
    "result": []
  },
  {
    "postal": "M6P4C1",
    "result": [
      {
        "electoralDistricts": [
          {
            "election": null,
            "id": 83,
            "name": "Parkdale—High Park"
          }
        ],
        "pollDivisionIds": [
          10126433
        ],
        "postalCode": "M6P4C1",
        "streetName": "KEELE",
        "streetDirectionId": null,
        "streetTypeId": "ST",
        "placeName": "TORONTO",
        "streetNameDisplayText": "KEELE ST, TORONTO"
      }
    ]
  },
  {
    "postal": "M6P3K2",
    "result": []
  },
  {
    "postal": "M6P1Y5",
    "result": [
      {
        "electoralDistricts": [
          {
            "election": null,
            "id": 83,
            "name": "Parkdale—High Park"
          }
        ],
        "pollDivisionIds": [
          10126424
        ],
        "postalCode": "M6P1Y5",
        "streetName": "DUNDAS",
        "streetDirectionId": "W",
        "streetTypeId": "ST",
        "placeName": "TORONTO",
        "streetNameDisplayText": "DUNDAS ST W, TORONTO"
      }
    ]
  },
  {
    "postal": "M6P6P6",
    "result": []
  },
  {
    "postal": "M6P3N9",
    "result": [
      {
        "electoralDistricts": [
          {
            "election": null,
            "id": 19,
            "name": "Davenport"
          }
        ],
        "pollDivisionIds": [
          10136095
        ],
        "postalCode": "M6P3N9",
        "streetName": "ELSIE",
        "streetDirectionId": null,
        "streetTypeId": "LANE",
        "placeName": "TORONTO",
        "streetNameDisplayText": "ELSIE LANE, TORONTO"
      }
    ]
  },
  {
    "postal": "M6P3W2",
    "result": [
      {
        "electoralDistricts": [
          {
            "election": null,
            "id": 19,
            "name": "Davenport"
          }
        ],
        "pollDivisionIds": [
          10136095
        ],
        "postalCode": "M6P3W2",
        "streetName": "SYMINGTON",
        "streetDirectionId": null,
        "streetTypeId": "AVE",
        "placeName": "TORONTO",
        "streetNameDisplayText": "SYMINGTON AVE, TORONTO"
      }
    ]
  },
  {
    "postal": "M6P6H8",
    "result": []
  },
  {
    "postal": "M6P9T3",
    "result": []
  },
  {
    "postal": "M6P5L9",
    "result": []
  },
  {
    "postal": "M6P7X7",
    "result": []
  },
  {
    "postal": "M6P3J5",
    "result": []
  },
  {
    "postal": "M6P4J5",
    "result": [
      {
        "electoralDistricts": [
          {
            "election": null,
            "id": 19,
            "name": "Davenport"
          }
        ],
        "pollDivisionIds": [
          10136095
        ],
        "postalCode": "M6P4J5",
        "streetName": "BLOOR",
        "streetDirectionId": "W",
        "streetTypeId": "ST",
        "placeName": "TORONTO",
        "streetNameDisplayText": "BLOOR ST W, TORONTO"
      }
    ]
  },
  {
    "postal": "M6P6J2",
    "result": []
  },
  {
    "postal": "M6P5V6",
    "result": []
  },
  {
    "postal": "M6P3N2",
    "result": [
      {
        "electoralDistricts": [
          {
            "election": null,
            "id": 19,
            "name": "Davenport"
          }
        ],
        "pollDivisionIds": [
          10136090
        ],
        "postalCode": "M6P3N2",
        "streetName": "WALLACE",
        "streetDirectionId": null,
        "streetTypeId": "AVE",
        "placeName": "TORONTO",
        "streetNameDisplayText": "WALLACE AVE, TORONTO"
      }
    ]
  },
  {
    "postal": "M6P3B1",
    "result": [
      {
        "electoralDistricts": [
          {
            "election": null,
            "id": 83,
            "name": "Parkdale—High Park"
          }
        ],
        "pollDivisionIds": [
          10126428
        ],
        "postalCode": "M6P3B1",
        "streetName": "GILMOUR",
        "streetDirectionId": null,
        "streetTypeId": "AVE",
        "placeName": "TORONTO",
        "streetNameDisplayText": "GILMOUR AVE, TORONTO"
      }
    ]
  },
  {
    "postal": "M6P8B5",
    "result": []
  },
  {
    "postal": "M6P0K1",
    "result": []
  },
  {
    "postal": "M6P7M7",
    "result": []
  },
  {
    "postal": "M6P2M2",
    "result": [
      {
        "electoralDistricts": [
          {
            "election": null,
            "id": 83,
            "name": "Parkdale—High Park"
          }
        ],
        "pollDivisionIds": [
          10126429
        ],
        "postalCode": "M6P2M2",
        "streetName": "MAVETY",
        "streetDirectionId": null,
        "streetTypeId": "ST",
        "placeName": "TORONTO",
        "streetNameDisplayText": "MAVETY ST, TORONTO"
      }
    ]
  },
  {
    "postal": "M6P9N3",
    "result": []
  },
  {
    "postal": "M6P4Y8",
    "result": []
  },
  {
    "postal": "M6P3V7",
    "result": [
      {
        "electoralDistricts": [
          {
            "election": null,
            "id": 19,
            "name": "Davenport"
          }
        ],
        "pollDivisionIds": [
          10136089
        ],
        "postalCode": "M6P3V7",
        "streetName": "CAMPBELL",
        "streetDirectionId": null,
        "streetTypeId": "AVE",
        "placeName": "TORONTO",
        "streetNameDisplayText": "CAMPBELL AVE, TORONTO"
      }
    ]
  },
  {
    "postal": "M6P8Z1",
    "result": []
  },
  {
    "postal": "M6P7B3",
    "result": []
  },
  {
    "postal": "M6P3A8",
    "result": [
      {
        "electoralDistricts": [
          {
            "election": null,
            "id": 83,
            "name": "Parkdale—High Park"
          }
        ],
        "pollDivisionIds": [
          10126428
        ],
        "postalCode": "M6P3A8",
        "streetName": "GILMOUR",
        "streetDirectionId": null,
        "streetTypeId": "AVE",
        "placeName": "TORONTO",
        "streetNameDisplayText": "GILMOUR AVE, TORONTO"
      }
    ]
  },
  {
    "postal": "M6P7V5",
    "result": []
  },
  {
    "postal": "M6P2T2",
    "result": [
      {
        "electoralDistricts": [
          {
            "election": null,
            "id": 83,
            "name": "Parkdale—High Park"
          }
        ],
        "pollDivisionIds": [
          10126428
        ],
        "postalCode": "M6P2T2",
        "streetName": "MCMURRAY",
        "streetDirectionId": null,
        "streetTypeId": "AVE",
        "placeName": "TORONTO",
        "streetNameDisplayText": "MCMURRAY AVE, TORONTO"
      }
    ]
  },
  {
    "postal": "M6P6L3",
    "result": []
  },
  {
    "postal": "M6P0L2",
    "result": []
  },
  {
    "postal": "M6P5Y8",
    "result": []
  },
  {
    "postal": "M6P0B8",
    "result": [
      {
        "electoralDistricts": [
          {
            "election": null,
            "id": 19,
            "name": "Davenport"
          }
        ],
        "pollDivisionIds": [
          10136095
        ],
        "postalCode": "M6P0B8",
        "streetName": "ELSIE",
        "streetDirectionId": null,
        "streetTypeId": "LANE",
        "placeName": "TORONTO",
        "streetNameDisplayText": "ELSIE LANE, TORONTO"
      },
      {
        "electoralDistricts": [
          {
            "election": null,
            "id": 19,
            "name": "Davenport"
          }
        ],
        "pollDivisionIds": [
          10136095
        ],
        "postalCode": "M6P0B8",
        "streetName": "ERNEST",
        "streetDirectionId": null,
        "streetTypeId": "AVE",
        "placeName": "TORONTO",
        "streetNameDisplayText": "ERNEST AVE, TORONTO"
      }
    ]
  },
  {
    "postal": "M6P6R5",
    "result": []
  },
  {
    "postal": "M6P8W6",
    "result": []
  },
  {
    "postal": "M6P8G6",
    "result": []
  },
  {
    "postal": "M6P6X3",
    "result": []
  },
  {
    "postal": "M6P7R7",
    "result": []
  },
  {
    "postal": "M6P4B6",
    "result": [
      {
        "electoralDistricts": [
          {
            "election": null,
            "id": 83,
            "name": "Parkdale—High Park"
          }
        ],
        "pollDivisionIds": [
          10126433
        ],
        "postalCode": "M6P4B6",
        "streetName": "GLENDALE",
        "streetDirectionId": null,
        "streetTypeId": "AVE",
        "placeName": "TORONTO",
        "streetNameDisplayText": "GLENDALE AVE, TORONTO"
      },
      {
        "electoralDistricts": [
          {
            "election": null,
            "id": 83,
            "name": "Parkdale—High Park"
          }
        ],
        "pollDivisionIds": [
          10126433
        ],
        "postalCode": "M6P4B6",
        "streetName": "GLENLAKE",
        "streetDirectionId": null,
        "streetTypeId": "AVE",
        "placeName": "TORONTO",
        "streetNameDisplayText": "GLENLAKE AVE, TORONTO"
      }
    ]
  },
  {
    "postal": "M6P3P9",
    "result": [
      {
        "electoralDistricts": [
          {
            "election": null,
            "id": 19,
            "name": "Davenport"
          }
        ],
        "pollDivisionIds": [
          10136090
        ],
        "postalCode": "M6P3P9",
        "streetName": "RUSKIN",
        "streetDirectionId": null,
        "streetTypeId": "AVE",
        "placeName": "TORONTO",
        "streetNameDisplayText": "RUSKIN AVE, TORONTO"
      }
    ]
  },
  {
    "postal": "M6P2T3",
    "result": [
      {
        "electoralDistricts": [
          {
            "election": null,
            "id": 83,
            "name": "Parkdale—High Park"
          }
        ],
        "pollDivisionIds": [
          10126455,
          10126433,
          10126432
        ],
        "postalCode": "M6P2T3",
        "streetName": "QUEBEC",
        "streetDirectionId": null,
        "streetTypeId": "AVE",
        "placeName": "TORONTO",
        "streetNameDisplayText": "QUEBEC AVE, TORONTO"
      }
    ]
  },
  {
    "postal": "M6P1M4",
    "result": [
      {
        "electoralDistricts": [
          {
            "election": null,
            "id": 83,
            "name": "Parkdale—High Park"
          }
        ],
        "pollDivisionIds": [
          10126431
        ],
        "postalCode": "M6P1M4",
        "streetName": "WEBB",
        "streetDirectionId": null,
        "streetTypeId": "AVE",
        "placeName": "TORONTO",
        "streetNameDisplayText": "WEBB AVE, TORONTO"
      }
    ]
  },
  {
    "postal": "M6P0H1",
    "result": []
  },
  {
    "postal": "M6P9W3",
    "result": []
  },
  {
    "postal": "M6P6P1",
    "result": []
  },
  {
    "postal": "M6P7G2",
    "result": []
  },
  {
    "postal": "M6P4J9",
    "result": []
  },
  {
    "postal": "M6P9E4",
    "result": []
  },
  {
    "postal": "M6P8H0",
    "result": []
  },
  {
    "postal": "M6P4M7",
    "result": []
  },
  {
    "postal": "M6P2G9",
    "result": [
      {
        "electoralDistricts": [
          {
            "election": null,
            "id": 83,
            "name": "Parkdale—High Park"
          }
        ],
        "pollDivisionIds": [
          10126424
        ],
        "postalCode": "M6P2G9",
        "streetName": "INDIAN ROAD",
        "streetDirectionId": null,
        "streetTypeId": "CRES",
        "placeName": "TORONTO",
        "streetNameDisplayText": "INDIAN ROAD CRES, TORONTO"
      }
    ]
  },
  {
    "postal": "M6P8T2",
    "result": []
  },
  {
    "postal": "M6P7G7",
    "result": []
  },
  {
    "postal": "M6P4Z3",
    "result": []
  },
  {
    "postal": "M6P5B3",
    "result": []
  },
  {
    "postal": "M6P1S7",
    "result": [
      {
        "electoralDistricts": [
          {
            "election": null,
            "id": 83,
            "name": "Parkdale—High Park"
          }
        ],
        "pollDivisionIds": [
          10126426
        ],
        "postalCode": "M6P1S7",
        "streetName": "MAHER",
        "streetDirectionId": null,
        "streetTypeId": "AVE",
        "placeName": "TORONTO",
        "streetNameDisplayText": "MAHER AVE, TORONTO"
      }
    ]
  },
  {
    "postal": "M6P2N7",
    "result": [
      {
        "electoralDistricts": [
          {
            "election": null,
            "id": 83,
            "name": "Parkdale—High Park"
          }
        ],
        "pollDivisionIds": [
          10126429
        ],
        "postalCode": "M6P2N7",
        "streetName": "MEDLAND",
        "streetDirectionId": null,
        "streetTypeId": "ST",
        "placeName": "TORONTO",
        "streetNameDisplayText": "MEDLAND ST, TORONTO"
      }
    ]
  },
  {
    "postal": "M6P0H8",
    "result": []
  },
  {
    "postal": "M6P7Z4",
    "result": []
  },
  {
    "postal": "M6P7B1",
    "result": []
  },
  {
    "postal": "M6P7P8",
    "result": []
  },
  {
    "postal": "M6P7N0",
    "result": []
  },
  {
    "postal": "M6P3Y5",
    "result": [
      {
        "electoralDistricts": [
          {
            "election": null,
            "id": 19,
            "name": "Davenport"
          }
        ],
        "pollDivisionIds": [
          10136090
        ],
        "postalCode": "M6P3Y5",
        "streetName": "PERTH",
        "streetDirectionId": null,
        "streetTypeId": "AVE",
        "placeName": "TORONTO",
        "streetNameDisplayText": "PERTH AVE, TORONTO"
      }
    ]
  },
  {
    "postal": "M6P6K1",
    "result": []
  },
  {
    "postal": "M6P9X5",
    "result": []
  },
  {
    "postal": "M6P7S5",
    "result": []
  },
  {
    "postal": "M6P0A4",
    "result": []
  },
  {
    "postal": "M6P4T5",
    "result": []
  },
  {
    "postal": "M6P5K1",
    "result": []
  },
  {
    "postal": "M6P0Z9",
    "result": []
  },
  {
    "postal": "M6P7T2",
    "result": []
  },
  {
    "postal": "M6P1L5",
    "result": [
      {
        "electoralDistricts": [
          {
            "election": null,
            "id": 83,
            "name": "Parkdale—High Park"
          }
        ],
        "pollDivisionIds": [
          10126428
        ],
        "postalCode": "M6P1L5",
        "streetName": "HUMBERSIDE",
        "streetDirectionId": null,
        "streetTypeId": "AVE",
        "placeName": "TORONTO",
        "streetNameDisplayText": "HUMBERSIDE AVE, TORONTO"
      }
    ]
  },
  {
    "postal": "M6P3N5",
    "result": [
      {
        "electoralDistricts": [
          {
            "election": null,
            "id": 19,
            "name": "Davenport"
          }
        ],
        "pollDivisionIds": [
          10136095
        ],
        "postalCode": "M6P3N5",
        "streetName": "WALLACE",
        "streetDirectionId": null,
        "streetTypeId": "AVE",
        "placeName": "TORONTO",
        "streetNameDisplayText": "WALLACE AVE, TORONTO"
      }
    ]
  },
  {
    "postal": "M6P6H4",
    "result": []
  },
  {
    "postal": "M6P5A5",
    "result": []
  },
  {
    "postal": "M6P3R9",
    "result": [
      {
        "electoralDistricts": [
          {
            "election": null,
            "id": 19,
            "name": "Davenport"
          }
        ],
        "pollDivisionIds": [
          10136089
        ],
        "postalCode": "M6P3R9",
        "streetName": "DUPONT",
        "streetDirectionId": null,
        "streetTypeId": "ST",
        "placeName": "TORONTO",
        "streetNameDisplayText": "DUPONT ST, TORONTO"
      }
    ]
  },
  {
    "postal": "M6P7L8",
    "result": []
  },
  {
    "postal": "M6P6T6",
    "result": []
  },
  {
    "postal": "M6P7Y7",
    "result": []
  },
  {
    "postal": "M6P3M8",
    "result": []
  },
  {
    "postal": "M6P2E0",
    "result": []
  },
  {
    "postal": "M6P4B5",
    "result": [
      {
        "electoralDistricts": [
          {
            "election": null,
            "id": 83,
            "name": "Parkdale—High Park"
          }
        ],
        "pollDivisionIds": [
          10126423
        ],
        "postalCode": "M6P4B5",
        "streetName": "GILMOUR",
        "streetDirectionId": null,
        "streetTypeId": "AVE",
        "placeName": "TORONTO",
        "streetNameDisplayText": "GILMOUR AVE, TORONTO"
      }
    ]
  },
  {
    "postal": "M6P1J3",
    "result": [
      {
        "electoralDistricts": [
          {
            "election": null,
            "id": 83,
            "name": "Parkdale—High Park"
          }
        ],
        "pollDivisionIds": [
          10126434
        ],
        "postalCode": "M6P1J3",
        "streetName": "KENNETH",
        "streetDirectionId": null,
        "streetTypeId": "AVE",
        "placeName": "TORONTO",
        "streetNameDisplayText": "KENNETH AVE, TORONTO"
      }
    ]
  },
  {
    "postal": "M6P5S6",
    "result": []
  },
  {
    "postal": "M6P8P7",
    "result": []
  },
  {
    "postal": "M6P7S7",
    "result": []
  },
  {
    "postal": "M6P4C2",
    "result": [
      {
        "electoralDistricts": [
          {
            "election": null,
            "id": 83,
            "name": "Parkdale—High Park"
          }
        ],
        "pollDivisionIds": [
          10126423
        ],
        "postalCode": "M6P4C2",
        "streetName": "ST JOHNS",
        "streetDirectionId": null,
        "streetTypeId": "PL",
        "placeName": "TORONTO",
        "streetNameDisplayText": "ST JOHNS PL, TORONTO"
      }
    ]
  },
  {
    "postal": "M6P5Y0",
    "result": []
  },
  {
    "postal": "M6P2V7",
    "result": [
      {
        "electoralDistricts": [
          {
            "election": null,
            "id": 83,
            "name": "Parkdale—High Park"
          }
        ],
        "pollDivisionIds": [
          10126423
        ],
        "postalCode": "M6P2V7",
        "streetName": "QUEBEC",
        "streetDirectionId": null,
        "streetTypeId": "AVE",
        "placeName": "TORONTO",
        "streetNameDisplayText": "QUEBEC AVE, TORONTO"
      }
    ]
  },
  {
    "postal": "M6P8P5",
    "result": []
  },
  {
    "postal": "M6P5P5",
    "result": []
  },
  {
    "postal": "M6P5Z0",
    "result": []
  },
  {
    "postal": "M6P9B0",
    "result": []
  },
  {
    "postal": "M6P1L0",
    "result": []
  },
  {
    "postal": "M6P0B5",
    "result": [
      {
        "electoralDistricts": [
          {
            "election": null,
            "id": 83,
            "name": "Parkdale—High Park"
          }
        ],
        "pollDivisionIds": [
          10126433
        ],
        "postalCode": "M6P0B5",
        "streetName": "QUEBEC",
        "streetDirectionId": null,
        "streetTypeId": "AVE",
        "placeName": "TORONTO",
        "streetNameDisplayText": "QUEBEC AVE, TORONTO"
      }
    ]
  },
  {
    "postal": "M6P3L2",
    "result": [
      {
        "electoralDistricts": [
          {
            "election": null,
            "id": 83,
            "name": "Parkdale—High Park"
          }
        ],
        "pollDivisionIds": [
          10126432
        ],
        "postalCode": "M6P3L2",
        "streetName": "BLOOR",
        "streetDirectionId": "W",
        "streetTypeId": "ST",
        "placeName": "TORONTO",
        "streetNameDisplayText": "BLOOR ST W, TORONTO"
      }
    ]
  },
  {
    "postal": "M6P3B7",
    "result": [
      {
        "electoralDistricts": [
          {
            "election": null,
            "id": 83,
            "name": "Parkdale—High Park"
          }
        ],
        "pollDivisionIds": [
          10126423
        ],
        "postalCode": "M6P3B7",
        "streetName": "GILMOUR",
        "streetDirectionId": null,
        "streetTypeId": "AVE",
        "placeName": "TORONTO",
        "streetNameDisplayText": "GILMOUR AVE, TORONTO"
      }
    ]
  },
  {
    "postal": "M6P8L1",
    "result": []
  },
  {
    "postal": "M6P5M4",
    "result": []
  },
  {
    "postal": "M6P4G9",
    "result": [
      {
        "electoralDistricts": [
          {
            "election": null,
            "id": 19,
            "name": "Davenport"
          }
        ],
        "pollDivisionIds": [
          10136095
        ],
        "postalCode": "M6P4G9",
        "streetName": "SYMINGTON",
        "streetDirectionId": null,
        "streetTypeId": "AVE",
        "placeName": "TORONTO",
        "streetNameDisplayText": "SYMINGTON AVE, TORONTO"
      }
    ]
  },
  {
    "postal": "M6P0P0",
    "result": []
  },
  {
    "postal": "M6P8G2",
    "result": []
  },
  {
    "postal": "M6P1V9",
    "result": [
      {
        "electoralDistricts": [
          {
            "election": null,
            "id": 83,
            "name": "Parkdale—High Park"
          }
        ],
        "pollDivisionIds": [
          10126428
        ],
        "postalCode": "M6P1V9",
        "streetName": "VINE",
        "streetDirectionId": null,
        "streetTypeId": "AVE",
        "placeName": "TORONTO",
        "streetNameDisplayText": "VINE AVE, TORONTO"
      }
    ]
  },
  {
    "postal": "M6P8N8",
    "result": []
  },
  {
    "postal": "M6P6S8",
    "result": []
  },
  {
    "postal": "M6P8H2",
    "result": []
  },
  {
    "postal": "M6P5R8",
    "result": []
  },
  {
    "postal": "M6P5L4",
    "result": []
  },
  {
    "postal": "M6P9E1",
    "result": []
  },
  {
    "postal": "M6P1C4",
    "result": [
      {
        "electoralDistricts": [
          {
            "election": null,
            "id": 83,
            "name": "Parkdale—High Park"
          }
        ],
        "pollDivisionIds": [
          10126434
        ],
        "postalCode": "M6P1C4",
        "streetName": "WANDA",
        "streetDirectionId": null,
        "streetTypeId": "RD",
        "placeName": "TORONTO",
        "streetNameDisplayText": "WANDA RD, TORONTO"
      }
    ]
  },
  {
    "postal": "M6P8W5",
    "result": []
  },
  {
    "postal": "M6P1Y4",
    "result": [
      {
        "electoralDistricts": [
          {
            "election": null,
            "id": 83,
            "name": "Parkdale—High Park"
          }
        ],
        "pollDivisionIds": [
          10126424
        ],
        "postalCode": "M6P1Y4",
        "streetName": "DUNDAS",
        "streetDirectionId": "W",
        "streetTypeId": "ST",
        "placeName": "TORONTO",
        "streetNameDisplayText": "DUNDAS ST W, TORONTO"
      }
    ]
  },
  {
    "postal": "M6P1C0",
    "result": []
  },
  {
    "postal": "M6P2J2",
    "result": [
      {
        "electoralDistricts": [
          {
            "election": null,
            "id": 83,
            "name": "Parkdale—High Park"
          }
        ],
        "pollDivisionIds": [
          10126424
        ],
        "postalCode": "M6P2J2",
        "streetName": "INDIAN",
        "streetDirectionId": null,
        "streetTypeId": "GROVE",
        "placeName": "TORONTO",
        "streetNameDisplayText": "INDIAN GROVE, TORONTO"
      }
    ]
  },
  {
    "postal": "M6P2J0",
    "result": []
  },
  {
    "postal": "M6P7A3",
    "result": []
  },
  {
    "postal": "M6P8M1",
    "result": []
  },
  {
    "postal": "M6P7T9",
    "result": []
  },
  {
    "postal": "M6P6C0",
    "result": []
  },
  {
    "postal": "M6P7X1",
    "result": []
  },
  {
    "postal": "M6P0G1",
    "result": []
  },
  {
    "postal": "M6P4X2",
    "result": []
  },
  {
    "postal": "M6P0N6",
    "result": []
  },
  {
    "postal": "M6P8E3",
    "result": []
  },
  {
    "postal": "M6P5S8",
    "result": []
  },
  {
    "postal": "M6P0R0",
    "result": []
  },
  {
    "postal": "M6P6J6",
    "result": []
  },
  {
    "postal": "M6P4B4",
    "result": [
      {
        "electoralDistricts": [
          {
            "election": null,
            "id": 83,
            "name": "Parkdale—High Park"
          }
        ],
        "pollDivisionIds": [
          10126465
        ],
        "postalCode": "M6P4B4",
        "streetName": "QUEBEC",
        "streetDirectionId": null,
        "streetTypeId": "AVE",
        "placeName": "TORONTO",
        "streetNameDisplayText": "QUEBEC AVE, TORONTO"
      }
    ]
  },
  {
    "postal": "M6P7E3",
    "result": []
  },
  {
    "postal": "M6P3N6",
    "result": [
      {
        "electoralDistricts": [
          {
            "election": null,
            "id": 19,
            "name": "Davenport"
          }
        ],
        "pollDivisionIds": [
          10136095
        ],
        "postalCode": "M6P3N6",
        "streetName": "WALLACE",
        "streetDirectionId": null,
        "streetTypeId": "AVE",
        "placeName": "TORONTO",
        "streetNameDisplayText": "WALLACE AVE, TORONTO"
      }
    ]
  },
  {
    "postal": "M6P3X6",
    "result": [
      {
        "electoralDistricts": [
          {
            "election": null,
            "id": 19,
            "name": "Davenport"
          }
        ],
        "pollDivisionIds": [
          10136095
        ],
        "postalCode": "M6P3X6",
        "streetName": "PERTH",
        "streetDirectionId": null,
        "streetTypeId": "AVE",
        "placeName": "TORONTO",
        "streetNameDisplayText": "PERTH AVE, TORONTO"
      }
    ]
  },
  {
    "postal": "M6P8L0",
    "result": []
  },
  {
    "postal": "M6P8N1",
    "result": []
  },
  {
    "postal": "M6P4J0",
    "result": []
  },
  {
    "postal": "M6P0X7",
    "result": []
  },
  {
    "postal": "M6P6S4",
    "result": []
  },
  {
    "postal": "M6P0Z0",
    "result": []
  },
  {
    "postal": "M6P9X8",
    "result": []
  },
  {
    "postal": "M6P3H3",
    "result": [
      {
        "electoralDistricts": [
          {
            "election": null,
            "id": 83,
            "name": "Parkdale—High Park"
          }
        ],
        "pollDivisionIds": [
          10126432
        ],
        "postalCode": "M6P3H3",
        "streetName": "KENNEDY PARK",
        "streetDirectionId": null,
        "streetTypeId": "RD",
        "placeName": "TORONTO",
        "streetNameDisplayText": "KENNEDY PARK RD, TORONTO"
      }
    ]
  },
  {
    "postal": "M6P7S2",
    "result": []
  },
  {
    "postal": "M6P3T3",
    "result": [
      {
        "electoralDistricts": [
          {
            "election": null,
            "id": 19,
            "name": "Davenport"
          }
        ],
        "pollDivisionIds": [
          10136090
        ],
        "postalCode": "M6P3T3",
        "streetName": "HUGO",
        "streetDirectionId": null,
        "streetTypeId": "AVE",
        "placeName": "TORONTO",
        "streetNameDisplayText": "HUGO AVE, TORONTO"
      }
    ]
  },
  {
    "postal": "M6P9P3",
    "result": []
  },
  {
    "postal": "M6P4H8",
    "result": [
      {
        "electoralDistricts": [
          {
            "election": null,
            "id": 19,
            "name": "Davenport"
          }
        ],
        "pollDivisionIds": [
          10136095
        ],
        "postalCode": "M6P4H8",
        "streetName": "RANKIN",
        "streetDirectionId": null,
        "streetTypeId": "CRES",
        "placeName": "TORONTO",
        "streetNameDisplayText": "RANKIN CRES, TORONTO"
      }
    ]
  },
  {
    "postal": "M6P6R1",
    "result": []
  },
  {
    "postal": "M6P1S0",
    "result": []
  },
  {
    "postal": "M6P3W8",
    "result": [
      {
        "electoralDistricts": [
          {
            "election": null,
            "id": 19,
            "name": "Davenport"
          }
        ],
        "pollDivisionIds": [
          10136089
        ],
        "postalCode": "M6P3W8",
        "streetName": "SYMINGTON",
        "streetDirectionId": null,
        "streetTypeId": "AVE",
        "placeName": "TORONTO",
        "streetNameDisplayText": "SYMINGTON AVE, TORONTO"
      }
    ]
  },
  {
    "postal": "M6P4S3",
    "result": []
  },
  {
    "postal": "M6P1B6",
    "result": [
      {
        "electoralDistricts": [
          {
            "election": null,
            "id": 83,
            "name": "Parkdale—High Park"
          }
        ],
        "pollDivisionIds": [
          10126434
        ],
        "postalCode": "M6P1B6",
        "streetName": "EDNA",
        "streetDirectionId": null,
        "streetTypeId": "AVE",
        "placeName": "TORONTO",
        "streetNameDisplayText": "EDNA AVE, TORONTO"
      }
    ]
  },
  {
    "postal": "M6P8R3",
    "result": []
  },
  {
    "postal": "M6P4V9",
    "result": []
  },
  {
    "postal": "M6P9W4",
    "result": []
  },
  {
    "postal": "M6P3T4",
    "result": [
      {
        "electoralDistricts": [
          {
            "election": null,
            "id": 19,
            "name": "Davenport"
          }
        ],
        "pollDivisionIds": [
          10136090
        ],
        "postalCode": "M6P3T4",
        "streetName": "HUGO",
        "streetDirectionId": null,
        "streetTypeId": "AVE",
        "placeName": "TORONTO",
        "streetNameDisplayText": "HUGO AVE, TORONTO"
      }
    ]
  },
  {
    "postal": "M6P5C7",
    "result": []
  },
  {
    "postal": "M6P3Y1",
    "result": [
      {
        "electoralDistricts": [
          {
            "election": null,
            "id": 19,
            "name": "Davenport"
          }
        ],
        "pollDivisionIds": [
          10136090
        ],
        "postalCode": "M6P3Y1",
        "streetName": "PERTH",
        "streetDirectionId": null,
        "streetTypeId": "AVE",
        "placeName": "TORONTO",
        "streetNameDisplayText": "PERTH AVE, TORONTO"
      }
    ]
  },
  {
    "postal": "M6P5V0",
    "result": []
  },
  {
    "postal": "M6P8G8",
    "result": []
  },
  {
    "postal": "M6P8B1",
    "result": []
  },
  {
    "postal": "M6P4P5",
    "result": []
  },
  {
    "postal": "M6P7B2",
    "result": []
  },
  {
    "postal": "M6P0R2",
    "result": []
  },
  {
    "postal": "M6P4M4",
    "result": []
  },
  {
    "postal": "M6P7M4",
    "result": []
  },
  {
    "postal": "M6P9S7",
    "result": []
  },
  {
    "postal": "M6P5Z7",
    "result": []
  },
  {
    "postal": "M6P7J7",
    "result": []
  },
  {
    "postal": "M6P8R8",
    "result": []
  },
  {
    "postal": "M6P9X1",
    "result": []
  },
  {
    "postal": "M6P5M9",
    "result": []
  },
  {
    "postal": "M6P9B4",
    "result": []
  },
  {
    "postal": "M6P0L9",
    "result": []
  },
  {
    "postal": "M6P9G4",
    "result": []
  },
  {
    "postal": "M6P1J4",
    "result": [
      {
        "electoralDistricts": [
          {
            "election": null,
            "id": 83,
            "name": "Parkdale—High Park"
          }
        ],
        "pollDivisionIds": [
          10126433
        ],
        "postalCode": "M6P1J4",
        "streetName": "HILLSVIEW",
        "streetDirectionId": null,
        "streetTypeId": "AVE",
        "placeName": "TORONTO",
        "streetNameDisplayText": "HILLSVIEW AVE, TORONTO"
      }
    ]
  },
  {
    "postal": "M6P0W6",
    "result": []
  },
  {
    "postal": "M6P4C5",
    "result": []
  },
  {
    "postal": "M6P7E4",
    "result": []
  },
  {
    "postal": "M6P1R9",
    "result": [
      {
        "electoralDistricts": [
          {
            "election": null,
            "id": 83,
            "setId": 0,
            "name": "Parkdale—High Park"
          }
        ],
        "pollDivisionIds": [
          10126426
        ],
        "postalCode": "M6P1R9",
        "streetName": "ANNETTE",
        "streetDirectionId": null,
        "streetTypeId": "ST",
        "placeName": "TORONTO",
        "streetNameDisplayText": "ANNETTE ST, TORONTO"
      }
    ]
  },
  {
    "postal": "M6P2P0",
    "result": []
  },
  {
    "postal": "M6P5S4",
    "result": []
  },
  {
    "postal": "M6P5K8",
    "result": []
  },
  {
    "postal": "M6P8K4",
    "result": []
  },
  {
    "postal": "M6P7C1",
    "result": []
  },
  {
    "postal": "M6P7K9",
    "result": []
  },
  {
    "postal": "M6P5J1",
    "result": []
  },
  {
    "postal": "M6P4P9",
    "result": []
  },
  {
    "postal": "M6P0N2",
    "result": []
  },
  {
    "postal": "M6P2G6",
    "result": [
      {
        "electoralDistricts": [
          {
            "election": null,
            "id": 83,
            "setId": 0,
            "name": "Parkdale—High Park"
          }
        ],
        "pollDivisionIds": [
          10126434
        ],
        "postalCode": "M6P2G6",
        "streetName": "INDIAN ROAD",
        "streetDirectionId": null,
        "streetTypeId": "CRES",
        "placeName": "TORONTO",
        "streetNameDisplayText": "INDIAN ROAD CRES, TORONTO"
      }
    ]
  },
  {
    "postal": "M6P6P4",
    "result": []
  },
  {
    "postal": "M6P3J0",
    "result": []
  },
  {
    "postal": "M6P8X4",
    "result": []
  },
  {
    "postal": "M6P1Y3",
    "result": [
      {
        "electoralDistricts": [
          {
            "election": null,
            "id": 109,
            "setId": 0,
            "name": "Toronto Centre"
          },
          {
            "election": null,
            "id": 83,
            "setId": 0,
            "name": "Parkdale—High Park"
          }
        ],
        "pollDivisionIds": [
          10143889,
          10126424
        ],
        "postalCode": "M6P1Y3",
        "streetName": "DUNDAS",
        "streetDirectionId": "W",
        "streetTypeId": "ST",
        "placeName": "TORONTO",
        "streetNameDisplayText": "DUNDAS ST W, TORONTO"
      }
    ]
  },
  {
    "postal": "M6P1A8",
    "result": [
      {
        "electoralDistricts": [
          {
            "election": null,
            "id": 83,
            "setId": 0,
            "name": "Parkdale—High Park"
          }
        ],
        "pollDivisionIds": [
          10126434
        ],
        "postalCode": "M6P1A8",
        "streetName": "BLOOR",
        "streetDirectionId": "W",
        "streetTypeId": "ST",
        "placeName": "TORONTO",
        "streetNameDisplayText": "BLOOR ST W, TORONTO"
      }
    ]
  },
  {
    "postal": "M6P6Y5",
    "result": []
  },
  {
    "postal": "M6P0J6",
    "result": []
  },
  {
    "postal": "M6P2C9",
    "result": [
      {
        "electoralDistricts": [
          {
            "election": null,
            "id": 83,
            "setId": 0,
            "name": "Parkdale—High Park"
          }
        ],
        "pollDivisionIds": [
          10126434
        ],
        "postalCode": "M6P2C9",
        "streetName": "INDIAN",
        "streetDirectionId": null,
        "streetTypeId": "RD",
        "placeName": "TORONTO",
        "streetNameDisplayText": "INDIAN RD, TORONTO"
      }
    ]
  },
  {
    "postal": "M6P8J6",
    "result": []
  },
  {
    "postal": "M6P8T4",
    "result": []
  },
  {
    "postal": "M6P1P7",
    "result": [
      {
        "electoralDistricts": [
          {
            "election": null,
            "id": 83,
            "setId": 0,
            "name": "Parkdale—High Park"
          }
        ],
        "pollDivisionIds": [
          10126428
        ],
        "postalCode": "M6P1P7",
        "streetName": "ANNETTE",
        "streetDirectionId": null,
        "streetTypeId": "ST",
        "placeName": "TORONTO",
        "streetNameDisplayText": "ANNETTE ST, TORONTO"
      }
    ]
  },
  {
    "postal": "M6P9V9",
    "result": []
  },
  {
    "postal": "M6P0M1",
    "result": []
  },
  {
    "postal": "M6P6K5",
    "result": []
  },
  {
    "postal": "M6P2T5",
    "result": [
      {
        "electoralDistricts": [
          {
            "election": null,
            "id": 83,
            "setId": 0,
            "name": "Parkdale—High Park"
          }
        ],
        "pollDivisionIds": [
          10126432
        ],
        "postalCode": "M6P2T5",
        "streetName": "QUEBEC",
        "streetDirectionId": null,
        "streetTypeId": "AVE",
        "placeName": "TORONTO",
        "streetNameDisplayText": "QUEBEC AVE, TORONTO"
      }
    ]
  },
  {
    "postal": "M6P7E9",
    "result": []
  },
  {
    "postal": "M6P5K5",
    "result": []
  },
  {
    "postal": "M6P3R5",
    "result": [
      {
        "electoralDistricts": [
          {
            "election": null,
            "id": 19,
            "setId": 0,
            "name": "Davenport"
          }
        ],
        "pollDivisionIds": [
          10136090
        ],
        "postalCode": "M6P3R5",
        "streetName": "PARKMAN",
        "streetDirectionId": null,
        "streetTypeId": "AVE",
        "placeName": "TORONTO",
        "streetNameDisplayText": "PARKMAN AVE, TORONTO"
      }
    ]
  },
  {
    "postal": "M6P5B1",
    "result": []
  },
  {
    "postal": "M6P2P1",
    "result": []
  },
  {
    "postal": "M6P7L0",
    "result": []
  },
  {
    "postal": "M6P3L6",
    "result": [
      {
        "electoralDistricts": [
          {
            "election": null,
            "id": 19,
            "setId": 0,
            "name": "Davenport"
          }
        ],
        "pollDivisionIds": [
          10136098
        ],
        "postalCode": "M6P3L6",
        "streetName": "BLOOR",
        "streetDirectionId": "W",
        "streetTypeId": "ST",
        "placeName": "TORONTO",
        "streetNameDisplayText": "BLOOR ST W, TORONTO"
      }
    ]
  },
  {
    "postal": "M6P2A4",
    "result": [
      {
        "electoralDistricts": [
          {
            "election": null,
            "id": 83,
            "setId": 0,
            "name": "Parkdale—High Park"
          }
        ],
        "pollDivisionIds": [
          10126423
        ],
        "postalCode": "M6P2A4",
        "streetName": "DUNDAS",
        "streetDirectionId": "W",
        "streetTypeId": "ST",
        "placeName": "TORONTO",
        "streetNameDisplayText": "DUNDAS ST W, TORONTO"
      }
    ]
  },
  {
    "postal": "M6P8S0",
    "result": []
  },
  {
    "postal": "M6P3L5",
    "result": [
      {
        "electoralDistricts": [
          {
            "election": null,
            "id": 19,
            "setId": 0,
            "name": "Davenport"
          }
        ],
        "pollDivisionIds": [
          10136095
        ],
        "postalCode": "M6P3L5",
        "streetName": "BLOOR",
        "streetDirectionId": "W",
        "streetTypeId": "ST",
        "placeName": "TORONTO",
        "streetNameDisplayText": "BLOOR ST W, TORONTO"
      },
      {
        "electoralDistricts": [
          {
            "election": null,
            "id": 19,
            "setId": 0,
            "name": "Davenport"
          }
        ],
        "pollDivisionIds": [
          10136095
        ],
        "postalCode": "M6P3L5",
        "streetName": "BLOOR STREEET",
        "streetDirectionId": "W",
        "streetTypeId": "ST",
        "placeName": "TORONTO",
        "streetNameDisplayText": "BLOOR STREEET ST W, TORONTO"
      },
      {
        "electoralDistricts": [
          {
            "election": null,
            "id": 19,
            "setId": 0,
            "name": "Davenport"
          }
        ],
        "pollDivisionIds": [
          10136095
        ],
        "postalCode": "M6P3L5",
        "streetName": "BLOOR STREET WEST",
        "streetDirectionId": "W",
        "streetTypeId": "ST",
        "placeName": "TORONTO",
        "streetNameDisplayText": "BLOOR STREET WEST ST W, TORONTO"
      }
    ]
  },
  {
    "postal": "M6P2R5",
    "result": [
      {
        "electoralDistricts": [
          {
            "election": null,
            "id": 83,
            "setId": 0,
            "name": "Parkdale—High Park"
          }
        ],
        "pollDivisionIds": [
          10126433
        ],
        "postalCode": "M6P2R5",
        "streetName": "HIGH PARK",
        "streetDirectionId": null,
        "streetTypeId": "AVE",
        "placeName": "TORONTO",
        "streetNameDisplayText": "HIGH PARK AVE, TORONTO"
      }
    ]
  },
  {
    "postal": "M6P9T6",
    "result": []
  },
  {
    "postal": "M6P8Z2",
    "result": []
  },
  {
    "postal": "M6P0E9",
    "result": []
  },
  {
    "postal": "M6P8C0",
    "result": []
  },
  {
    "postal": "M6P3K7",
    "result": [
      {
        "electoralDistricts": [
          {
            "election": null,
            "id": 83,
            "setId": 0,
            "name": "Parkdale—High Park"
          }
        ],
        "pollDivisionIds": [
          10126433
        ],
        "postalCode": "M6P3K7",
        "streetName": "BLOOR",
        "streetDirectionId": "W",
        "streetTypeId": "ST",
        "placeName": "TORONTO",
        "streetNameDisplayText": "BLOOR ST W, TORONTO"
      }
    ]
  },
  {
    "postal": "M6P2H3",
    "result": [
      {
        "electoralDistricts": [
          {
            "election": null,
            "id": 83,
            "setId": 0,
            "name": "Parkdale—High Park"
          }
        ],
        "pollDivisionIds": [
          10126434
        ],
        "postalCode": "M6P2H3",
        "streetName": "INDIAN",
        "streetDirectionId": null,
        "streetTypeId": "GROVE",
        "placeName": "TORONTO",
        "streetNameDisplayText": "INDIAN GROVE, TORONTO"
      },
      {
        "electoralDistricts": [
          {
            "election": null,
            "id": 83,
            "setId": 0,
            "name": "Parkdale—High Park"
          }
        ],
        "pollDivisionIds": [
          10140949
        ],
        "postalCode": "M6P2H3",
        "streetName": "INDIAN",
        "streetDirectionId": null,
        "streetTypeId": "RD",
        "placeName": "TORONTO",
        "streetNameDisplayText": "INDIAN RD, TORONTO"
      }
    ]
  },
  {
    "postal": "M6P2Y6",
    "result": [
      {
        "electoralDistricts": [
          {
            "election": null,
            "id": 83,
            "setId": 0,
            "name": "Parkdale—High Park"
          }
        ],
        "pollDivisionIds": [
          10126423
        ],
        "postalCode": "M6P2Y6",
        "streetName": "ST JOHNS",
        "streetDirectionId": null,
        "streetTypeId": "PL",
        "placeName": "TORONTO",
        "streetNameDisplayText": "ST JOHNS PL, TORONTO"
      }
    ]
  },
  {
    "postal": "M6P7M2",
    "result": []
  },
  {
    "postal": "M6P6E2",
    "result": []
  },
  {
    "postal": "M6P3R0",
    "result": []
  },
  {
    "postal": "M6P4J7",
    "result": []
  },
  {
    "postal": "M6P6N8",
    "result": []
  },
  {
    "postal": "M6P0J7",
    "result": []
  },
  {
    "postal": "M6P7P2",
    "result": []
  },
  {
    "postal": "M6P3T8",
    "result": [
      {
        "electoralDistricts": [
          {
            "election": null,
            "id": 19,
            "setId": 0,
            "name": "Davenport"
          }
        ],
        "pollDivisionIds": [
          10136095
        ],
        "postalCode": "M6P3T8",
        "streetName": "CAMPBELL",
        "streetDirectionId": null,
        "streetTypeId": "AVE",
        "placeName": "TORONTO",
        "streetNameDisplayText": "CAMPBELL AVE, TORONTO"
      }
    ]
  },
  {
    "postal": "M6P3S7",
    "result": [
      {
        "electoralDistricts": [
          {
            "election": null,
            "id": 19,
            "setId": 0,
            "name": "Davenport"
          }
        ],
        "pollDivisionIds": [
          10136090
        ],
        "postalCode": "M6P3S7",
        "streetName": "DUPONT",
        "streetDirectionId": null,
        "streetTypeId": "ST",
        "placeName": "TORONTO",
        "streetNameDisplayText": "DUPONT ST, TORONTO"
      }
    ]
  },
  {
    "postal": "M6P2S7",
    "result": [
      {
        "electoralDistricts": [
          {
            "election": null,
            "id": 83,
            "setId": 0,
            "name": "Parkdale—High Park"
          }
        ],
        "pollDivisionIds": [
          10126428
        ],
        "postalCode": "M6P2S7",
        "streetName": "HIGH PARK",
        "streetDirectionId": null,
        "streetTypeId": "AVE",
        "placeName": "TORONTO",
        "streetNameDisplayText": "HIGH PARK AVE, TORONTO"
      }
    ]
  },
  {
    "postal": "M6P1S4",
    "result": [
      {
        "electoralDistricts": [
          {
            "election": null,
            "id": 83,
            "setId": 0,
            "name": "Parkdale—High Park"
          }
        ],
        "pollDivisionIds": [
          10126424
        ],
        "postalCode": "M6P1S4",
        "streetName": "BODWIN",
        "streetDirectionId": null,
        "streetTypeId": "AVE",
        "placeName": "TORONTO",
        "streetNameDisplayText": "BODWIN AVE, TORONTO"
      }
    ]
  },
  {
    "postal": "M6P1L8",
    "result": [
      {
        "electoralDistricts": [
          {
            "election": null,
            "id": 83,
            "setId": 0,
            "name": "Parkdale—High Park"
          }
        ],
        "pollDivisionIds": [
          10126428
        ],
        "postalCode": "M6P1L8",
        "streetName": "WOODSIDE",
        "streetDirectionId": null,
        "streetTypeId": "AVE",
        "placeName": "TORONTO",
        "streetNameDisplayText": "WOODSIDE AVE, TORONTO"
      }
    ]
  },
  {
    "postal": "M6P8E9",
    "result": []
  },
  {
    "postal": "M6P0T0",
    "result": []
  },
  {
    "postal": "M6P3G4",
    "result": [
      {
        "electoralDistricts": [
          {
            "election": null,
            "id": 83,
            "setId": 0,
            "name": "Parkdale—High Park"
          }
        ],
        "pollDivisionIds": [
          10126428
        ],
        "postalCode": "M6P3G4",
        "streetName": "GLENDONWYNNE",
        "streetDirectionId": null,
        "streetTypeId": "RD",
        "placeName": "TORONTO",
        "streetNameDisplayText": "GLENDONWYNNE RD, TORONTO"
      }
    ]
  },
  {
    "postal": "M6P0V6",
    "result": []
  },
  {
    "postal": "M6P4W1",
    "result": []
  },
  {
    "postal": "M6P9G9",
    "result": []
  },
  {
    "postal": "M6P5W4",
    "result": []
  },
  {
    "postal": "M6P7M8",
    "result": []
  },
  {
    "postal": "M6P2C2",
    "result": [
      {
        "electoralDistricts": [
          {
            "election": null,
            "id": 83,
            "setId": 0,
            "name": "Parkdale—High Park"
          }
        ],
        "pollDivisionIds": [
          10126434
        ],
        "postalCode": "M6P2C2",
        "streetName": "INDIAN",
        "streetDirectionId": null,
        "streetTypeId": "RD",
        "placeName": "TORONTO",
        "streetNameDisplayText": "INDIAN RD, TORONTO"
      }
    ]
  },
  {
    "postal": "M6P4Y2",
    "result": []
  },
  {
    "postal": "M6P9X9",
    "result": []
  },
  {
    "postal": "M6P3T0",
    "result": []
  },
  {
    "postal": "M6P4T8",
    "result": []
  },
  {
    "postal": "M6P9C4",
    "result": []
  },
  {
    "postal": "M6P8P2",
    "result": []
  },
  {
    "postal": "M6P0Y8",
    "result": []
  },
  {
    "postal": "M6P1G8",
    "result": [
      {
        "electoralDistricts": [
          {
            "election": null,
            "id": 83,
            "setId": 0,
            "name": "Parkdale—High Park"
          }
        ],
        "pollDivisionIds": [
          10126432
        ],
        "postalCode": "M6P1G8",
        "streetName": "GLENLAKE",
        "streetDirectionId": null,
        "streetTypeId": "AVE",
        "placeName": "TORONTO",
        "streetNameDisplayText": "GLENLAKE AVE, TORONTO"
      }
    ]
  },
  {
    "postal": "M6P2T6",
    "result": [
      {
        "electoralDistricts": [
          {
            "election": null,
            "id": 83,
            "setId": 0,
            "name": "Parkdale—High Park"
          }
        ],
        "pollDivisionIds": [
          10126432
        ],
        "postalCode": "M6P2T6",
        "streetName": "QUEBEC",
        "streetDirectionId": null,
        "streetTypeId": "AVE",
        "placeName": "TORONTO",
        "streetNameDisplayText": "QUEBEC AVE, TORONTO"
      }
    ]
  },
  {
    "postal": "M6P1N7",
    "result": [
      {
        "electoralDistricts": [
          {
            "election": null,
            "id": 83,
            "setId": 0,
            "name": "Parkdale—High Park"
          }
        ],
        "pollDivisionIds": [
          10126424
        ],
        "postalCode": "M6P1N7",
        "streetName": "ANNETTE",
        "streetDirectionId": null,
        "streetTypeId": "ST",
        "placeName": "TORONTO",
        "streetNameDisplayText": "ANNETTE ST, TORONTO"
      }
    ]
  },
  {
    "postal": "M6P0L6",
    "result": []
  },
  {
    "postal": "M6P9V4",
    "result": []
  },
  {
    "postal": "M6P2V1",
    "result": [
      {
        "electoralDistricts": [
          {
            "election": null,
            "id": 83,
            "setId": 0,
            "name": "Parkdale—High Park"
          }
        ],
        "pollDivisionIds": [
          10126428
        ],
        "postalCode": "M6P2V1",
        "streetName": "QUEBEC",
        "streetDirectionId": null,
        "streetTypeId": "AVE",
        "placeName": "TORONTO",
        "streetNameDisplayText": "QUEBEC AVE, TORONTO"
      }
    ]
  },
  {
    "postal": "M6P3L8",
    "result": [
      {
        "electoralDistricts": [
          {
            "election": null,
            "id": 19,
            "setId": 0,
            "name": "Davenport"
          }
        ],
        "pollDivisionIds": [
          10136095
        ],
        "postalCode": "M6P3L8",
        "streetName": "RANDOLPH",
        "streetDirectionId": null,
        "streetTypeId": "AVE",
        "placeName": "TORONTO",
        "streetNameDisplayText": "RANDOLPH AVE, TORONTO"
      }
    ]
  },
  {
    "postal": "M6P2R8",
    "result": [
      {
        "electoralDistricts": [
          {
            "election": null,
            "id": 83,
            "setId": 0,
            "name": "Parkdale—High Park"
          }
        ],
        "pollDivisionIds": [
          10126456
        ],
        "postalCode": "M6P2R8",
        "streetName": "HIGH PARK",
        "streetDirectionId": null,
        "streetTypeId": "AVE",
        "placeName": "TORONTO",
        "streetNameDisplayText": "HIGH PARK AVE, TORONTO"
      }
    ]
  },
  {
    "postal": "M6P5C1",
    "result": []
  },
  {
    "postal": "M6P4W3",
    "result": []
  },
  {
    "postal": "M6P5X5",
    "result": []
  },
  {
    "postal": "M6P9W5",
    "result": []
  },
  {
    "postal": "M6P3C4",
    "result": [
      {
        "electoralDistricts": [
          {
            "election": null,
            "id": 83,
            "setId": 0,
            "name": "Parkdale—High Park"
          }
        ],
        "pollDivisionIds": [
          10126432
        ],
        "postalCode": "M6P3C4",
        "streetName": "KENNEDY",
        "streetDirectionId": null,
        "streetTypeId": "AVE",
        "placeName": "TORONTO",
        "streetNameDisplayText": "KENNEDY AVE, TORONTO"
      }
    ]
  },
  {
    "postal": "M6P1N6",
    "result": [
      {
        "electoralDistricts": [
          {
            "election": null,
            "id": 83,
            "setId": 0,
            "name": "Parkdale—High Park"
          }
        ],
        "pollDivisionIds": [
          10126424
        ],
        "postalCode": "M6P1N6",
        "streetName": "ANNETTE",
        "streetDirectionId": null,
        "streetTypeId": "ST",
        "placeName": "TORONTO",
        "streetNameDisplayText": "ANNETTE ST, TORONTO"
      }
    ]
  },
  {
    "postal": "M6P9S9",
    "result": []
  },
  {
    "postal": "M6P9M2",
    "result": []
  },
  {
    "postal": "M6P8Y4",
    "result": []
  },
  {
    "postal": "M6P7S4",
    "result": []
  },
  {
    "postal": "M6P0K6",
    "result": []
  },
  {
    "postal": "M6P1W3",
    "result": [
      {
        "electoralDistricts": [
          {
            "election": null,
            "id": 83,
            "setId": 0,
            "name": "Parkdale—High Park"
          }
        ],
        "pollDivisionIds": [
          10126423
        ],
        "postalCode": "M6P1W3",
        "streetName": "MARIA",
        "streetDirectionId": null,
        "streetTypeId": "ST",
        "placeName": "TORONTO",
        "streetNameDisplayText": "MARIA ST, TORONTO"
      }
    ]
  },
  {
    "postal": "M6P7R2",
    "result": []
  },
  {
    "postal": "M6P2Y9",
    "result": [
      {
        "electoralDistricts": [
          {
            "election": null,
            "id": 83,
            "setId": 0,
            "name": "Parkdale—High Park"
          }
        ],
        "pollDivisionIds": [
          10126432
        ],
        "postalCode": "M6P2Y9",
        "streetName": "EVELYN",
        "streetDirectionId": null,
        "streetTypeId": "AVE",
        "placeName": "TORONTO",
        "streetNameDisplayText": "EVELYN AVE, TORONTO"
      }
    ]
  },
  {
    "postal": "M6P7G4",
    "result": []
  },
  {
    "postal": "M6P7E5",
    "result": []
  },
  {
    "postal": "M6P9G2",
    "result": []
  },
  {
    "postal": "M6P7Y8",
    "result": []
  },
  {
    "postal": "M6P9V2",
    "result": []
  },
  {
    "postal": "M6P3T7",
    "result": [
      {
        "electoralDistricts": [
          {
            "election": null,
            "id": 19,
            "setId": 0,
            "name": "Davenport"
          }
        ],
        "pollDivisionIds": [
          10136090
        ],
        "postalCode": "M6P3T7",
        "streetName": "CARIBOO",
        "streetDirectionId": null,
        "streetTypeId": "AVE",
        "placeName": "TORONTO",
        "streetNameDisplayText": "CARIBOO AVE, TORONTO"
      }
    ]
  },
  {
    "postal": "M6P1H0",
    "result": []
  },
  {
    "postal": "M6P1M7",
    "result": [
      {
        "electoralDistricts": [
          {
            "election": null,
            "id": 83,
            "setId": 0,
            "name": "Parkdale—High Park"
          }
        ],
        "pollDivisionIds": [
          10126428
        ],
        "postalCode": "M6P1M7",
        "streetName": "LINCOLN",
        "streetDirectionId": null,
        "streetTypeId": "AVE",
        "placeName": "TORONTO",
        "streetNameDisplayText": "LINCOLN AVE, TORONTO"
      }
    ]
  },
  {
    "postal": "M6P8V4",
    "result": []
  },
  {
    "postal": "M6P4M2",
    "result": []
  },
  {
    "postal": "M6P0X2",
    "result": []
  },
  {
    "postal": "M6P5Z4",
    "result": []
  },
  {
    "postal": "M6P6V4",
    "result": []
  },
  {
    "postal": "M6P8J3",
    "result": []
  },
  {
    "postal": "M6P8E5",
    "result": []
  },
  {
    "postal": "M6P2V5",
    "result": [
      {
        "electoralDistricts": [
          {
            "election": null,
            "id": 83,
            "setId": 0,
            "name": "Parkdale—High Park"
          }
        ],
        "pollDivisionIds": [
          10126428
        ],
        "postalCode": "M6P2V5",
        "streetName": "QUEBEC",
        "streetDirectionId": null,
        "streetTypeId": "AVE",
        "placeName": "TORONTO",
        "streetNameDisplayText": "QUEBEC AVE, TORONTO"
      }
    ]
  },
  {
    "postal": "M6P7S1",
    "result": []
  },
  {
    "postal": "M6P6V3",
    "result": []
  },
  {
    "postal": "M6P2L8",
    "result": [
      {
        "electoralDistricts": [
          {
            "election": null,
            "id": 83,
            "setId": 0,
            "name": "Parkdale—High Park"
          }
        ],
        "pollDivisionIds": [
          10126429
        ],
        "postalCode": "M6P2L8",
        "streetName": "MAVETY",
        "streetDirectionId": null,
        "streetTypeId": "ST",
        "placeName": "TORONTO",
        "streetNameDisplayText": "MAVETY ST, TORONTO"
      }
    ]
  },
  {
    "postal": "M6P9V0",
    "result": []
  },
  {
    "postal": "M6P3M4",
    "result": [
      {
        "electoralDistricts": [
          {
            "election": null,
            "id": 19,
            "setId": 0,
            "name": "Davenport"
          }
        ],
        "pollDivisionIds": [
          10136095
        ],
        "postalCode": "M6P3M4",
        "streetName": "ERNEST",
        "streetDirectionId": null,
        "streetTypeId": "AVE",
        "placeName": "TORONTO",
        "streetNameDisplayText": "ERNEST AVE, TORONTO"
      }
    ]
  },
  {
    "postal": "M6P5B2",
    "result": []
  },
  {
    "postal": "M6P3X5",
    "result": [
      {
        "electoralDistricts": [
          {
            "election": null,
            "id": 19,
            "setId": 0,
            "name": "Davenport"
          }
        ],
        "pollDivisionIds": [
          10136095
        ],
        "postalCode": "M6P3X5",
        "streetName": "PERTH",
        "streetDirectionId": null,
        "streetTypeId": "AVE",
        "placeName": "TORONTO",
        "streetNameDisplayText": "PERTH AVE, TORONTO"
      }
    ]
  },
  {
    "postal": "M6P9R7",
    "result": []
  },
  {
    "postal": "M6P2X2",
    "result": [
      {
        "electoralDistricts": [
          {
            "election": null,
            "id": 83,
            "setId": 0,
            "name": "Parkdale—High Park"
          }
        ],
        "pollDivisionIds": [
          10126428
        ],
        "postalCode": "M6P2X2",
        "streetName": "CLENDENAN",
        "streetDirectionId": null,
        "streetTypeId": "AVE",
        "placeName": "TORONTO",
        "streetNameDisplayText": "CLENDENAN AVE, TORONTO"
      }
    ]
  },
  {
    "postal": "M6P8Z6",
    "result": []
  },
  {
    "postal": "M6P4R4",
    "result": []
  },
  {
    "postal": "M6P2R1",
    "result": [
      {
        "electoralDistricts": [
          {
            "election": null,
            "id": 83,
            "setId": 0,
            "name": "Parkdale—High Park"
          }
        ],
        "pollDivisionIds": [
          10126428
        ],
        "postalCode": "M6P2R1",
        "streetName": "PACIFIC",
        "streetDirectionId": null,
        "streetTypeId": "AVE",
        "placeName": "TORONTO",
        "streetNameDisplayText": "PACIFIC AVE, TORONTO"
      }
    ]
  },
  {
    "postal": "M6P3R8",
    "result": []
  },
  {
    "postal": "M6P9A1",
    "result": []
  },
  {
    "postal": "M6P8L3",
    "result": []
  },
  {
    "postal": "M6P9K4",
    "result": []
  },
  {
    "postal": "M6P9S3",
    "result": []
  },
  {
    "postal": "M6P8N7",
    "result": []
  },
  {
    "postal": "M6P1C6",
    "result": [
      {
        "electoralDistricts": [
          {
            "election": null,
            "id": 83,
            "setId": 0,
            "name": "Parkdale—High Park"
          }
        ],
        "pollDivisionIds": [
          10126434
        ],
        "postalCode": "M6P1C6",
        "streetName": "WANDA",
        "streetDirectionId": null,
        "streetTypeId": "RD",
        "placeName": "TORONTO",
        "streetNameDisplayText": "WANDA RD, TORONTO"
      }
    ]
  },
  {
    "postal": "M6P3Z8",
    "result": [
      {
        "electoralDistricts": [
          {
            "election": null,
            "id": 19,
            "setId": 0,
            "name": "Davenport"
          }
        ],
        "pollDivisionIds": [
          10136090
        ],
        "postalCode": "M6P3Z8",
        "streetName": "EDWIN",
        "streetDirectionId": null,
        "streetTypeId": "AVE",
        "placeName": "TORONTO",
        "streetNameDisplayText": "EDWIN AVE, TORONTO"
      }
    ]
  },
  {
    "postal": "M6P8G5",
    "result": []
  },
  {
    "postal": "M6P5R6",
    "result": []
  },
  {
    "postal": "M6P2W3",
    "result": [
      {
        "electoralDistricts": [
          {
            "election": null,
            "id": 83,
            "setId": 0,
            "name": "Parkdale—High Park"
          }
        ],
        "pollDivisionIds": [
          10126432
        ],
        "postalCode": "M6P2W3",
        "streetName": "PARKVIEW",
        "streetDirectionId": null,
        "streetTypeId": "GDNS",
        "placeName": "TORONTO",
        "streetNameDisplayText": "PARKVIEW GDNS, TORONTO"
      }
    ]
  },
  {
    "postal": "M6P0A0",
    "result": []
  },
  {
    "postal": "M6P6P8",
    "result": []
  },
  {
    "postal": "M6P8N9",
    "result": []
  },
  {
    "postal": "M6P0S9",
    "result": []
  },
  {
    "postal": "M6P8G0",
    "result": []
  },
  {
    "postal": "M6P8C7",
    "result": []
  },
  {
    "postal": "M6P5X8",
    "result": []
  },
  {
    "postal": "M6P7E8",
    "result": []
  },
  {
    "postal": "M6P6X2",
    "result": []
  },
  {
    "postal": "M6P4C6",
    "result": []
  },
  {
    "postal": "M6P7H2",
    "result": []
  },
  {
    "postal": "M6P4R0",
    "result": []
  },
  {
    "postal": "M6P6J3",
    "result": []
  },
  {
    "postal": "M6P4B8",
    "result": [
      {
        "electoralDistricts": [
          {
            "election": null,
            "id": 83,
            "setId": 0,
            "name": "Parkdale—High Park"
          }
        ],
        "pollDivisionIds": [
          10126459
        ],
        "postalCode": "M6P4B8",
        "streetName": "QUEBEC",
        "streetDirectionId": null,
        "streetTypeId": "AVE",
        "placeName": "TORONTO",
        "streetNameDisplayText": "QUEBEC AVE, TORONTO"
      }
    ]
  },
  {
    "postal": "M6P6H6",
    "result": []
  },
  {
    "postal": "M6P0S1",
    "result": []
  },
  {
    "postal": "M6P4E3",
    "result": []
  },
  {
    "postal": "M6P7K2",
    "result": []
  },
  {
    "postal": "M6P7T8",
    "result": []
  },
  {
    "postal": "M6P0J9",
    "result": []
  },
  {
    "postal": "M6P5J9",
    "result": []
  },
  {
    "postal": "M6P5S7",
    "result": []
  },
  {
    "postal": "M6P0G9",
    "result": []
  },
  {
    "postal": "M6P3J9",
    "result": []
  },
  {
    "postal": "M6P2Y0",
    "result": []
  },
  {
    "postal": "M6P8X5",
    "result": []
  },
  {
    "postal": "M6P2M7",
    "result": [
      {
        "electoralDistricts": [
          {
            "election": null,
            "id": 83,
            "setId": 0,
            "name": "Parkdale—High Park"
          }
        ],
        "pollDivisionIds": [
          10126469
        ],
        "postalCode": "M6P2M7",
        "streetName": "OAKMOUNT",
        "streetDirectionId": null,
        "streetTypeId": "RD",
        "placeName": "TORONTO",
        "streetNameDisplayText": "OAKMOUNT RD, TORONTO"
      }
    ]
  },
  {
    "postal": "M6P9Z3",
    "result": []
  },
  {
    "postal": "M6P7W2",
    "result": []
  },
  {
    "postal": "M6P3W0",
    "result": []
  },
  {
    "postal": "M6P3M1",
    "result": []
  },
  {
    "postal": "M6P6A5",
    "result": []
  },
  {
    "postal": "M6P2M9",
    "result": [
      {
        "electoralDistricts": [
          {
            "election": null,
            "id": 83,
            "setId": 0,
            "name": "Parkdale—High Park"
          }
        ],
        "pollDivisionIds": [
          10126433
        ],
        "postalCode": "M6P2M9",
        "streetName": "OAKMOUNT",
        "streetDirectionId": null,
        "streetTypeId": "RD",
        "placeName": "TORONTO",
        "streetNameDisplayText": "OAKMOUNT RD, TORONTO"
      }
    ]
  },
  {
    "postal": "M6P5C3",
    "result": []
  },
  {
    "postal": "M6P0Y6",
    "result": []
  },
  {
    "postal": "M6P9H7",
    "result": []
  },
  {
    "postal": "M6P3L0",
    "result": []
  },
  {
    "postal": "M6P5N9",
    "result": []
  },
  {
    "postal": "M6P5E3",
    "result": []
  },
  {
    "postal": "M6P7M9",
    "result": []
  },
  {
    "postal": "M6P8N2",
    "result": []
  },
  {
    "postal": "M6P9H3",
    "result": []
  },
  {
    "postal": "M6P2K8",
    "result": [
      {
        "electoralDistricts": [
          {
            "election": null,
            "id": 83,
            "setId": 0,
            "name": "Parkdale—High Park"
          }
        ],
        "pollDivisionIds": [
          10126424
        ],
        "postalCode": "M6P2K8",
        "streetName": "KEELE",
        "streetDirectionId": null,
        "streetTypeId": "ST",
        "placeName": "TORONTO",
        "streetNameDisplayText": "KEELE ST, TORONTO"
      }
    ]
  },
  {
    "postal": "M6P9L0",
    "result": []
  },
  {
    "postal": "M6P6L9",
    "result": []
  },
  {
    "postal": "M6P6A8",
    "result": []
  },
  {
    "postal": "M6P2K6",
    "result": [
      {
        "electoralDistricts": [
          {
            "election": null,
            "id": 83,
            "setId": 0,
            "name": "Parkdale—High Park"
          }
        ],
        "pollDivisionIds": [
          10126424
        ],
        "postalCode": "M6P2K6",
        "streetName": "KEELE",
        "streetDirectionId": null,
        "streetTypeId": "ST",
        "placeName": "TORONTO",
        "streetNameDisplayText": "KEELE ST, TORONTO"
      }
    ]
  },
  {
    "postal": "M6P2M0",
    "result": []
  },
  {
    "postal": "M6P5X7",
    "result": []
  },
  {
    "postal": "M6P0M7",
    "result": []
  },
  {
    "postal": "M6P7A6",
    "result": []
  },
  {
    "postal": "M6P3C5",
    "result": [
      {
        "electoralDistricts": [
          {
            "election": null,
            "id": 83,
            "setId": 0,
            "name": "Parkdale—High Park"
          }
        ],
        "pollDivisionIds": [
          10126431
        ],
        "postalCode": "M6P3C5",
        "streetName": "KENNEDY",
        "streetDirectionId": null,
        "streetTypeId": "AVE",
        "placeName": "TORONTO",
        "streetNameDisplayText": "KENNEDY AVE, TORONTO"
      }
    ]
  },
  {
    "postal": "M6P2P2",
    "result": [
      {
        "electoralDistricts": [
          {
            "election": null,
            "id": 83,
            "setId": 0,
            "name": "Parkdale—High Park"
          }
        ],
        "pollDivisionIds": [
          10126462
        ],
        "postalCode": "M6P2P2",
        "streetName": "PACIFIC",
        "streetDirectionId": null,
        "streetTypeId": "AVE",
        "placeName": "TORONTO",
        "streetNameDisplayText": "PACIFIC AVE, TORONTO"
      }
    ]
  },
  {
    "postal": "M6P9N4",
    "result": []
  },
  {
    "postal": "M6P3M9",
    "result": [
      {
        "electoralDistricts": [
          {
            "election": null,
            "id": 19,
            "setId": 0,
            "name": "Davenport"
          }
        ],
        "pollDivisionIds": [
          10136090
        ],
        "postalCode": "M6P3M9",
        "streetName": "WALLACE",
        "streetDirectionId": null,
        "streetTypeId": "AVE",
        "placeName": "TORONTO",
        "streetNameDisplayText": "WALLACE AVE, TORONTO"
      }
    ]
  },
  {
    "postal": "M6P8K6",
    "result": []
  },
  {
    "postal": "M6P1L2",
    "result": [
      {
        "electoralDistricts": [
          {
            "election": null,
            "id": 83,
            "setId": 0,
            "name": "Parkdale—High Park"
          }
        ],
        "pollDivisionIds": [
          10126433
        ],
        "postalCode": "M6P1L2",
        "streetName": "HUMBERSIDE",
        "streetDirectionId": null,
        "streetTypeId": "AVE",
        "placeName": "TORONTO",
        "streetNameDisplayText": "HUMBERSIDE AVE, TORONTO"
      }
    ]
  },
  {
    "postal": "M6P2Z9",
    "result": [
      {
        "electoralDistricts": [
          {
            "election": null,
            "id": 83,
            "setId": 0,
            "name": "Parkdale—High Park"
          }
        ],
        "pollDivisionIds": [
          10126428
        ],
        "postalCode": "M6P2Z9",
        "streetName": "EVELYN",
        "streetDirectionId": null,
        "streetTypeId": "AVE",
        "placeName": "TORONTO",
        "streetNameDisplayText": "EVELYN AVE, TORONTO"
      }
    ]
  },
  {
    "postal": "M6P2S2",
    "result": [
      {
        "electoralDistricts": [
          {
            "election": null,
            "id": 83,
            "setId": 0,
            "name": "Parkdale—High Park"
          }
        ],
        "pollDivisionIds": [
          10126455
        ],
        "postalCode": "M6P2S2",
        "streetName": "HIGH PARK",
        "streetDirectionId": null,
        "streetTypeId": "AVE",
        "placeName": "TORONTO",
        "streetNameDisplayText": "HIGH PARK AVE, TORONTO"
      }
    ]
  },
  {
    "postal": "M6P2W2",
    "result": [
      {
        "electoralDistricts": [
          {
            "election": null,
            "id": 83,
            "setId": 0,
            "name": "Parkdale—High Park"
          }
        ],
        "pollDivisionIds": [
          10126432
        ],
        "postalCode": "M6P2W2",
        "streetName": "PARKVIEW",
        "streetDirectionId": null,
        "streetTypeId": "GDNS",
        "placeName": "TORONTO",
        "streetNameDisplayText": "PARKVIEW GDNS, TORONTO"
      }
    ]
  },
  {
    "postal": "M6P2C3",
    "result": [
      {
        "electoralDistricts": [
          {
            "election": null,
            "id": 83,
            "setId": 0,
            "name": "Parkdale—High Park"
          }
        ],
        "pollDivisionIds": [
          10126434
        ],
        "postalCode": "M6P2C3",
        "streetName": "INDIAN",
        "streetDirectionId": null,
        "streetTypeId": "RD",
        "placeName": "TORONTO",
        "streetNameDisplayText": "INDIAN RD, TORONTO"
      }
    ]
  },
  {
    "postal": "M6P6L7",
    "result": []
  },
  {
    "postal": "M6P3K0",
    "result": []
  },
  {
    "postal": "M6P3C1",
    "result": [
      {
        "electoralDistricts": [
          {
            "election": null,
            "id": 83,
            "setId": 0,
            "name": "Parkdale—High Park"
          }
        ],
        "pollDivisionIds": [
          10126423
        ],
        "postalCode": "M6P3C1",
        "streetName": "FISKEN",
        "streetDirectionId": null,
        "streetTypeId": "AVE",
        "placeName": "TORONTO",
        "streetNameDisplayText": "FISKEN AVE, TORONTO"
      }
    ]
  },
  {
    "postal": "M6P6M9",
    "result": []
  },
  {
    "postal": "M6P4N9",
    "result": []
  },
  {
    "postal": "M6P3Y7",
    "result": [
      {
        "electoralDistricts": [
          {
            "election": null,
            "id": 19,
            "setId": 0,
            "name": "Davenport"
          }
        ],
        "pollDivisionIds": [
          10136090
        ],
        "postalCode": "M6P3Y7",
        "streetName": "PERTH",
        "streetDirectionId": null,
        "streetTypeId": "AVE",
        "placeName": "TORONTO",
        "streetNameDisplayText": "PERTH AVE, TORONTO"
      }
    ]
  },
  {
    "postal": "M6P2A9",
    "result": [
      {
        "electoralDistricts": [
          {
            "election": null,
            "id": 83,
            "setId": 0,
            "name": "Parkdale—High Park"
          }
        ],
        "pollDivisionIds": [
          10126424
        ],
        "postalCode": "M6P2A9",
        "streetName": "OLD WESTON",
        "streetDirectionId": null,
        "streetTypeId": "RD",
        "placeName": "TORONTO",
        "streetNameDisplayText": "OLD WESTON RD, TORONTO"
      }
    ]
  },
  {
    "postal": "M6P6H5",
    "result": []
  },
  {
    "postal": "M6P8B4",
    "result": []
  },
  {
    "postal": "M6P4Z2",
    "result": []
  },
  {
    "postal": "M6P9J0",
    "result": []
  },
  {
    "postal": "M6P7V7",
    "result": []
  },
  {
    "postal": "M6P5T5",
    "result": []
  },
  {
    "postal": "M6P4W5",
    "result": []
  },
  {
    "postal": "M6P1T8",
    "result": [
      {
        "electoralDistricts": [
          {
            "election": null,
            "id": 83,
            "setId": 0,
            "name": "Parkdale—High Park"
          }
        ],
        "pollDivisionIds": [
          10126428
        ],
        "postalCode": "M6P1T8",
        "streetName": "ST JOHNS",
        "streetDirectionId": null,
        "streetTypeId": "RD",
        "placeName": "TORONTO",
        "streetNameDisplayText": "ST JOHNS RD, TORONTO"
      },
      {
        "electoralDistricts": [
          {
            "election": null,
            "id": 83,
            "setId": 0,
            "name": "Parkdale—High Park"
          }
        ],
        "pollDivisionIds": [
          10126428
        ],
        "postalCode": "M6P1T8",
        "streetName": "ST JOHN'S",
        "streetDirectionId": null,
        "streetTypeId": "RD",
        "placeName": "TORONTO",
        "streetNameDisplayText": "ST JOHN'S RD, TORONTO"
      }
    ]
  },
  {
    "postal": "M6P9G6",
    "result": []
  },
  {
    "postal": "M6P1H3",
    "result": [
      {
        "electoralDistricts": [
          {
            "election": null,
            "id": 83,
            "setId": 0,
            "name": "Parkdale—High Park"
          }
        ],
        "pollDivisionIds": [
          10126434
        ],
        "postalCode": "M6P1H3",
        "streetName": "ABBOTT",
        "streetDirectionId": null,
        "streetTypeId": "AVE",
        "placeName": "TORONTO",
        "streetNameDisplayText": "ABBOTT AVE, TORONTO"
      }
    ]
  },
  {
    "postal": "M6P5R5",
    "result": []
  },
  {
    "postal": "M6P8A4",
    "result": []
  },
  {
    "postal": "M6P3T6",
    "result": [
      {
        "electoralDistricts": [
          {
            "election": null,
            "id": 19,
            "setId": 0,
            "name": "Davenport"
          }
        ],
        "pollDivisionIds": [
          10136090
        ],
        "postalCode": "M6P3T6",
        "streetName": "CARIBOO",
        "streetDirectionId": null,
        "streetTypeId": "AVE",
        "placeName": "TORONTO",
        "streetNameDisplayText": "CARIBOO AVE, TORONTO"
      }
    ]
  },
  {
    "postal": "M6P9W8",
    "result": []
  },
  {
    "postal": "M6P0N3",
    "result": []
  },
  {
    "postal": "M6P7V0",
    "result": []
  },
  {
    "postal": "M6P8T5",
    "result": []
  },
  {
    "postal": "M6P5N3",
    "result": []
  },
  {
    "postal": "M6P5G9",
    "result": []
  },
  {
    "postal": "M6P3X8",
    "result": [
      {
        "electoralDistricts": [
          {
            "election": null,
            "id": 19,
            "setId": 0,
            "name": "Davenport"
          }
        ],
        "pollDivisionIds": [
          10136095
        ],
        "postalCode": "M6P3X8",
        "streetName": "PERTH",
        "streetDirectionId": null,
        "streetTypeId": "AVE",
        "placeName": "TORONTO",
        "streetNameDisplayText": "PERTH AVE, TORONTO"
      }
    ]
  },
  {
    "postal": "M6P9R3",
    "result": []
  },
  {
    "postal": "M6P2S1",
    "result": [
      {
        "electoralDistricts": [
          {
            "election": null,
            "id": 83,
            "setId": 0,
            "name": "Parkdale—High Park"
          }
        ],
        "pollDivisionIds": [
          10126466
        ],
        "postalCode": "M6P2S1",
        "streetName": "HIGH PARK",
        "streetDirectionId": null,
        "streetTypeId": "AVE",
        "placeName": "TORONTO",
        "streetNameDisplayText": "HIGH PARK AVE, TORONTO"
      }
    ]
  },
  {
    "postal": "M6P9J7",
    "result": []
  },
  {
    "postal": "M6P2J3",
    "result": [
      {
        "electoralDistricts": [
          {
            "election": null,
            "id": 83,
            "setId": 0,
            "name": "Parkdale—High Park"
          }
        ],
        "pollDivisionIds": [
          10126424
        ],
        "postalCode": "M6P2J3",
        "streetName": "INDIAN",
        "streetDirectionId": null,
        "streetTypeId": "GROVE",
        "placeName": "TORONTO",
        "streetNameDisplayText": "INDIAN GROVE, TORONTO"
      }
    ]
  },
  {
    "postal": "M6P3B6",
    "result": [
      {
        "electoralDistricts": [
          {
            "election": null,
            "id": 83,
            "setId": 0,
            "name": "Parkdale—High Park"
          }
        ],
        "pollDivisionIds": [
          10126423
        ],
        "postalCode": "M6P3B6",
        "streetName": "GILMOUR",
        "streetDirectionId": null,
        "streetTypeId": "AVE",
        "placeName": "TORONTO",
        "streetNameDisplayText": "GILMOUR AVE, TORONTO"
      }
    ]
  },
  {
    "postal": "M6P8J0",
    "result": []
  },
  {
    "postal": "M6P7R4",
    "result": []
  },
  {
    "postal": "M6P8K8",
    "result": []
  },
  {
    "postal": "M6P4P3",
    "result": []
  },
  {
    "postal": "M6P0A2",
    "result": [
      {
        "electoralDistricts": [
          {
            "election": null,
            "id": 83,
            "setId": 0,
            "name": "Parkdale—High Park"
          }
        ],
        "pollDivisionIds": [
          10126433
        ],
        "postalCode": "M6P0A2",
        "streetName": "BLOOR",
        "streetDirectionId": "W",
        "streetTypeId": "ST",
        "placeName": "TORONTO",
        "streetNameDisplayText": "BLOOR ST W, TORONTO"
      }
    ]
  },
  {
    "postal": "M6P2G2",
    "result": [
      {
        "electoralDistricts": [
          {
            "election": null,
            "id": 83,
            "setId": 0,
            "name": "Parkdale—High Park"
          }
        ],
        "pollDivisionIds": [
          10126434
        ],
        "postalCode": "M6P2G2",
        "streetName": "INDIAN ROAD",
        "streetDirectionId": null,
        "streetTypeId": "CRES",
        "placeName": "TORONTO",
        "streetNameDisplayText": "INDIAN ROAD CRES, TORONTO"
      }
    ]
  },
  {
    "postal": "M6P5Y9",
    "result": []
  },
  {
    "postal": "M6P7X0",
    "result": []
  },
  {
    "postal": "M6P7W3",
    "result": []
  },
  {
    "postal": "M6P7X5",
    "result": []
  },
  {
    "postal": "M6P5K6",
    "result": []
  },
  {
    "postal": "M6P5B6",
    "result": []
  },
  {
    "postal": "M6P7Z0",
    "result": []
  },
  {
    "postal": "M6P9H6",
    "result": []
  },
  {
    "postal": "M6P1B4",
    "result": []
  },
  {
    "postal": "M6P1A0",
    "result": []
  },
  {
    "postal": "M6P9A0",
    "result": []
  },
  {
    "postal": "M6P1M6",
    "result": [
      {
        "electoralDistricts": [
          {
            "election": null,
            "id": 83,
            "setId": 0,
            "name": "Parkdale—High Park"
          }
        ],
        "pollDivisionIds": [
          10126428
        ],
        "postalCode": "M6P1M6",
        "streetName": "JENNINGS",
        "streetDirectionId": null,
        "streetTypeId": "AVE",
        "placeName": "TORONTO",
        "streetNameDisplayText": "JENNINGS AVE, TORONTO"
      }
    ]
  },
  {
    "postal": "M6P5H0",
    "result": []
  },
  {
    "postal": "M6P1K6",
    "result": [
      {
        "electoralDistricts": [
          {
            "election": null,
            "id": 83,
            "setId": 0,
            "name": "Parkdale—High Park"
          }
        ],
        "pollDivisionIds": [
          10126429
        ],
        "postalCode": "M6P1K6",
        "streetName": "HUMBERSIDE",
        "streetDirectionId": null,
        "streetTypeId": "AVE",
        "placeName": "TORONTO",
        "streetNameDisplayText": "HUMBERSIDE AVE, TORONTO"
      }
    ]
  },
  {
    "postal": "M6P5E1",
    "result": []
  },
  {
    "postal": "M6P3T9",
    "result": [
      {
        "electoralDistricts": [
          {
            "election": null,
            "id": 19,
            "setId": 0,
            "name": "Davenport"
          }
        ],
        "pollDivisionIds": [
          10136095
        ],
        "postalCode": "M6P3T9",
        "streetName": "CAMPBELL",
        "streetDirectionId": null,
        "streetTypeId": "AVE",
        "placeName": "TORONTO",
        "streetNameDisplayText": "CAMPBELL AVE, TORONTO"
      }
    ]
  },
  {
    "postal": "M6P2M6",
    "result": []
  },
  {
    "postal": "M6P0G5",
    "result": []
  },
  {
    "postal": "M6P0Y2",
    "result": []
  },
  {
    "postal": "M6P2Y7",
    "result": [
      {
        "electoralDistricts": [
          {
            "election": null,
            "id": 83,
            "setId": 0,
            "name": "Parkdale—High Park"
          }
        ],
        "pollDivisionIds": [
          10126428
        ],
        "postalCode": "M6P2Y7",
        "streetName": "LAWS",
        "streetDirectionId": null,
        "streetTypeId": "ST",
        "placeName": "TORONTO",
        "streetNameDisplayText": "LAWS ST, TORONTO"
      }
    ]
  },
  {
    "postal": "M6P2J7",
    "result": [
      {
        "electoralDistricts": [
          {
            "election": null,
            "id": 83,
            "setId": 0,
            "name": "Parkdale—High Park"
          }
        ],
        "pollDivisionIds": [
          10126424
        ],
        "postalCode": "M6P2J7",
        "streetName": "HEINTZMAN",
        "streetDirectionId": null,
        "streetTypeId": "ST",
        "placeName": "TORONTO",
        "streetNameDisplayText": "HEINTZMAN ST, TORONTO"
      }
    ]
  },
  {
    "postal": "M6P4K7",
    "result": []
  },
  {
    "postal": "M6P7P9",
    "result": []
  },
  {
    "postal": "M6P8X0",
    "result": []
  },
  {
    "postal": "M6P3X1",
    "result": [
      {
        "electoralDistricts": [
          {
            "election": null,
            "id": 19,
            "setId": 0,
            "name": "Davenport"
          }
        ],
        "pollDivisionIds": [
          10136089
        ],
        "postalCode": "M6P3X1",
        "streetName": "SYMINGTON",
        "streetDirectionId": null,
        "streetTypeId": "AVE",
        "placeName": "TORONTO",
        "streetNameDisplayText": "SYMINGTON AVE, TORONTO"
      }
    ]
  },
  {
    "postal": "M6P1R5",
    "result": [
      {
        "electoralDistricts": [
          {
            "election": null,
            "id": 83,
            "setId": 0,
            "name": "Parkdale—High Park"
          }
        ],
        "pollDivisionIds": [
          10126428
        ],
        "postalCode": "M6P1R5",
        "streetName": "ANNETTE",
        "streetDirectionId": null,
        "streetTypeId": "ST",
        "placeName": "TORONTO",
        "streetNameDisplayText": "ANNETTE ST, TORONTO"
      }
    ]
  },
  {
    "postal": "M6P6X6",
    "result": []
  },
  {
    "postal": "M6P0Y1",
    "result": []
  },
  {
    "postal": "M6P8G1",
    "result": []
  },
  {
    "postal": "M6P3J3",
    "result": [
      {
        "electoralDistricts": [
          {
            "election": null,
            "id": 83,
            "setId": 0,
            "name": "Parkdale—High Park"
          }
        ],
        "pollDivisionIds": [
          10126432
        ],
        "postalCode": "M6P3J3",
        "streetName": "OAKVIEW",
        "streetDirectionId": null,
        "streetTypeId": "AVE",
        "placeName": "TORONTO",
        "streetNameDisplayText": "OAKVIEW AVE, TORONTO"
      }
    ]
  },
  {
    "postal": "M6P8C2",
    "result": []
  },
  {
    "postal": "M6P4X9",
    "result": []
  },
  {
    "postal": "M6P6G9",
    "result": []
  },
  {
    "postal": "M6P4M3",
    "result": []
  },
  {
    "postal": "M6P9P7",
    "result": []
  },
  {
    "postal": "M6P4E5",
    "result": [
      {
        "electoralDistricts": [
          {
            "election": null,
            "id": 83,
            "setId": 0,
            "name": "Parkdale—High Park"
          }
        ],
        "pollDivisionIds": [
          10126484
        ],
        "postalCode": "M6P4E5",
        "streetName": "BLOOR",
        "streetDirectionId": "W",
        "streetTypeId": "ST",
        "placeName": "TORONTO",
        "streetNameDisplayText": "BLOOR ST W, TORONTO"
      }
    ]
  },
  {
    "postal": "M6P5K9",
    "result": []
  },
  {
    "postal": "M6P2V2",
    "result": [
      {
        "electoralDistricts": [
          {
            "election": null,
            "id": 83,
            "setId": 0,
            "name": "Parkdale—High Park"
          }
        ],
        "pollDivisionIds": [
          10126428
        ],
        "postalCode": "M6P2V2",
        "streetName": "QUEBEC",
        "streetDirectionId": null,
        "streetTypeId": "AVE",
        "placeName": "TORONTO",
        "streetNameDisplayText": "QUEBEC AVE, TORONTO"
      }
    ]
  },
  {
    "postal": "M6P2N9",
    "result": [
      {
        "electoralDistricts": [
          {
            "election": null,
            "id": 83,
            "setId": 0,
            "name": "Parkdale—High Park"
          }
        ],
        "pollDivisionIds": [
          10126429
        ],
        "postalCode": "M6P2N9",
        "streetName": "AZIEL",
        "streetDirectionId": null,
        "streetTypeId": "ST",
        "placeName": "TORONTO",
        "streetNameDisplayText": "AZIEL ST, TORONTO"
      }
    ]
  },
  {
    "postal": "M6P6L4",
    "result": []
  },
  {
    "postal": "M6P8E0",
    "result": []
  },
  {
    "postal": "M6P0N0",
    "result": []
  },
  {
    "postal": "M6P6R0",
    "result": []
  },
  {
    "postal": "M6P9C1",
    "result": []
  },
  {
    "postal": "M6P4H4",
    "result": [
      {
        "electoralDistricts": [
          {
            "election": null,
            "id": 83,
            "setId": 0,
            "name": "Parkdale—High Park"
          }
        ],
        "pollDivisionIds": [
          10126424
        ],
        "postalCode": "M6P4H4",
        "streetName": "KEELE",
        "streetDirectionId": null,
        "streetTypeId": "ST",
        "placeName": "TORONTO",
        "streetNameDisplayText": "KEELE ST, TORONTO"
      }
    ]
  },
  {
    "postal": "M6P5W3",
    "result": []
  },
  {
    "postal": "M6P9N9",
    "result": []
  },
  {
    "postal": "M6P1V7",
    "result": [
      {
        "electoralDistricts": [
          {
            "election": null,
            "id": 83,
            "setId": 0,
            "name": "Parkdale—High Park"
          }
        ],
        "pollDivisionIds": [
          10126428,
          10126424
        ],
        "postalCode": "M6P1V7",
        "streetName": "VINE",
        "streetDirectionId": null,
        "streetTypeId": "AVE",
        "placeName": "TORONTO",
        "streetNameDisplayText": "VINE AVE, TORONTO"
      }
    ]
  },
  {
    "postal": "M6P8J1",
    "result": []
  },
  {
    "postal": "M6P5V9",
    "result": []
  },
  {
    "postal": "M6P2S8",
    "result": [
      {
        "electoralDistricts": [
          {
            "election": null,
            "id": 83,
            "setId": 0,
            "name": "Parkdale—High Park"
          }
        ],
        "pollDivisionIds": [
          10126428
        ],
        "postalCode": "M6P2S8",
        "streetName": "HIGH PARK",
        "streetDirectionId": null,
        "streetTypeId": "AVE",
        "placeName": "TORONTO",
        "streetNameDisplayText": "HIGH PARK AVE, TORONTO"
      }
    ]
  },
  {
    "postal": "M6P6P0",
    "result": []
  },
  {
    "postal": "M6P4J8",
    "result": []
  },
  {
    "postal": "M6P0N1",
    "result": []
  },
  {
    "postal": "M6P1Y7",
    "result": [
      {
        "electoralDistricts": [
          {
            "election": null,
            "id": 83,
            "setId": 0,
            "name": "Parkdale—High Park"
          }
        ],
        "pollDivisionIds": [
          10126424
        ],
        "postalCode": "M6P1Y7",
        "streetName": "DUNDAS",
        "streetDirectionId": "W",
        "streetTypeId": "ST",
        "placeName": "TORONTO",
        "streetNameDisplayText": "DUNDAS ST W, TORONTO"
      }
    ]
  },
  {
    "postal": "M6P7W5",
    "result": []
  },
  {
    "postal": "M6P3Z1",
    "result": [
      {
        "electoralDistricts": [
          {
            "election": null,
            "id": 83,
            "setId": 0,
            "name": "Parkdale—High Park"
          }
        ],
        "pollDivisionIds": [
          10126428
        ],
        "postalCode": "M6P3Z1",
        "streetName": "FRANKLIN  AVENUE",
        "streetDirectionId": null,
        "streetTypeId": "AVE",
        "placeName": "TORONTO",
        "streetNameDisplayText": "FRANKLIN  AVENUE AVE, TORONTO"
      },
      {
        "electoralDistricts": [
          {
            "election": null,
            "id": 19,
            "setId": 0,
            "name": "Davenport"
          }
        ],
        "pollDivisionIds": [
          10136090
        ],
        "postalCode": "M6P3Z1",
        "streetName": "FRANKLIN",
        "streetDirectionId": null,
        "streetTypeId": "AVE",
        "placeName": "TORONTO",
        "streetNameDisplayText": "FRANKLIN AVE, TORONTO"
      }
    ]
  },
  {
    "postal": "M6P7M6",
    "result": []
  },
  {
    "postal": "M6P1W7",
    "result": [
      {
        "electoralDistricts": [
          {
            "election": null,
            "id": 83,
            "setId": 0,
            "name": "Parkdale—High Park"
          }
        ],
        "pollDivisionIds": [
          10126434
        ],
        "postalCode": "M6P1W7",
        "streetName": "DUNDAS",
        "streetDirectionId": "W",
        "streetTypeId": "ST",
        "placeName": "TORONTO",
        "streetNameDisplayText": "DUNDAS ST W, TORONTO"
      }
    ]
  },
  {
    "postal": "M6P1X1",
    "result": []
  },
  {
    "postal": "M6P0C1",
    "result": []
  },
  {
    "postal": "M6P4N3",
    "result": []
  },
  {
    "postal": "M6P4S8",
    "result": []
  },
  {
    "postal": "M6P1H6",
    "result": [
      {
        "electoralDistricts": [
          {
            "election": null,
            "id": 83,
            "setId": 0,
            "name": "Parkdale—High Park"
          }
        ],
        "pollDivisionIds": [
          10126434
        ],
        "postalCode": "M6P1H6",
        "streetName": "ABBOTT",
        "streetDirectionId": null,
        "streetTypeId": "AVE",
        "placeName": "TORONTO",
        "streetNameDisplayText": "ABBOTT AVE, TORONTO"
      }
    ]
  },
  {
    "postal": "M6P2Z4",
    "result": []
  },
  {
    "postal": "M6P7K3",
    "result": []
  },
  {
    "postal": "M6P8A2",
    "result": []
  },
  {
    "postal": "M6P6J1",
    "result": []
  },
  {
    "postal": "M6P5Z6",
    "result": []
  },
  {
    "postal": "M6P3Z0",
    "result": []
  },
  {
    "postal": "M6P8M0",
    "result": []
  },
  {
    "postal": "M6P1Z6",
    "result": []
  },
  {
    "postal": "M6P8K7",
    "result": []
  },
  {
    "postal": "M6P1N3",
    "result": [
      {
        "electoralDistricts": [
          {
            "election": null,
            "id": 83,
            "setId": 0,
            "name": "Parkdale—High Park"
          }
        ],
        "pollDivisionIds": [
          10126434
        ],
        "postalCode": "M6P1N3",
        "streetName": "ANNETTE",
        "streetDirectionId": null,
        "streetTypeId": "ST",
        "placeName": "TORONTO",
        "streetNameDisplayText": "ANNETTE ST, TORONTO"
      }
    ]
  },
  {
    "postal": "M6P9S2",
    "result": []
  },
  {
    "postal": "M6P2K1",
    "result": [
      {
        "electoralDistricts": [
          {
            "election": null,
            "id": 83,
            "setId": 0,
            "name": "Parkdale—High Park"
          }
        ],
        "pollDivisionIds": [
          10126434,
          10126433
        ],
        "postalCode": "M6P2K1",
        "streetName": "KEELE",
        "streetDirectionId": null,
        "streetTypeId": "ST",
        "placeName": "TORONTO",
        "streetNameDisplayText": "KEELE ST, TORONTO"
      }
    ]
  },
  {
    "postal": "M6P1E8",
    "result": []
  },
  {
    "postal": "M6P9B8",
    "result": []
  },
  {
    "postal": "M6P7X4",
    "result": []
  },
  {
    "postal": "M6P1Z4",
    "result": [
      {
        "electoralDistricts": [
          {
            "election": null,
            "id": 83,
            "setId": 0,
            "name": "Parkdale—High Park"
          }
        ],
        "pollDivisionIds": [
          10126428
        ],
        "postalCode": "M6P1Z4",
        "streetName": "DUNDAS",
        "streetDirectionId": "W",
        "streetTypeId": "ST",
        "placeName": "TORONTO",
        "streetNameDisplayText": "DUNDAS ST W, TORONTO"
      }
    ]
  },
  {
    "postal": "M6P2C7",
    "result": [
      {
        "electoralDistricts": [
          {
            "election": null,
            "id": 83,
            "setId": 0,
            "name": "Parkdale—High Park"
          }
        ],
        "pollDivisionIds": [
          10126434
        ],
        "postalCode": "M6P2C7",
        "streetName": "INDIAN",
        "streetDirectionId": null,
        "streetTypeId": "RD",
        "placeName": "TORONTO",
        "streetNameDisplayText": "INDIAN RD, TORONTO"
      }
    ]
  },
  {
    "postal": "M6P2E7",
    "result": [
      {
        "electoralDistricts": [
          {
            "election": null,
            "id": 83,
            "setId": 0,
            "name": "Parkdale—High Park"
          }
        ],
        "pollDivisionIds": [
          10126424
        ],
        "postalCode": "M6P2E7",
        "streetName": "WATKINSON",
        "streetDirectionId": null,
        "streetTypeId": "AVE",
        "placeName": "TORONTO",
        "streetNameDisplayText": "WATKINSON AVE, TORONTO"
      }
    ]
  },
  {
    "postal": "M6P3R1",
    "result": [
      {
        "electoralDistricts": [
          {
            "election": null,
            "id": 19,
            "setId": 0,
            "name": "Davenport"
          }
        ],
        "pollDivisionIds": [
          10136089
        ],
        "postalCode": "M6P3R1",
        "streetName": "ANTLER",
        "streetDirectionId": null,
        "streetTypeId": "ST",
        "placeName": "TORONTO",
        "streetNameDisplayText": "ANTLER ST, TORONTO"
      }
    ]
  },
  {
    "postal": "M6P4K4",
    "result": []
  },
  {
    "postal": "M6P9G3",
    "result": []
  },
  {
    "postal": "M6P6C9",
    "result": []
  },
  {
    "postal": "M6P9H5",
    "result": []
  },
  {
    "postal": "M6P1P5",
    "result": [
      {
        "electoralDistricts": [
          {
            "election": null,
            "id": 83,
            "setId": 0,
            "name": "Parkdale—High Park"
          }
        ],
        "pollDivisionIds": [
          10126429
        ],
        "postalCode": "M6P1P5",
        "streetName": "ANNETTE",
        "streetDirectionId": null,
        "streetTypeId": "ST",
        "placeName": "TORONTO",
        "streetNameDisplayText": "ANNETTE ST, TORONTO"
      }
    ]
  },
  {
    "postal": "M6P2J5",
    "result": []
  },
  {
    "postal": "M6P4W6",
    "result": []
  },
  {
    "postal": "M6P8M8",
    "result": []
  },
  {
    "postal": "M6P6C5",
    "result": []
  },
  {
    "postal": "M6P9H0",
    "result": []
  },
  {
    "postal": "M6P1X8",
    "result": [
      {
        "electoralDistricts": [
          {
            "election": null,
            "id": 83,
            "setId": 0,
            "name": "Parkdale—High Park"
          }
        ],
        "pollDivisionIds": [
          10126424
        ],
        "postalCode": "M6P1X8",
        "streetName": "DUNDAS",
        "streetDirectionId": "W",
        "streetTypeId": "ST",
        "placeName": "TORONTO",
        "streetNameDisplayText": "DUNDAS ST W, TORONTO"
      }
    ]
  },
  {
    "postal": "M6P3H4",
    "result": [
      {
        "electoralDistricts": [
          {
            "election": null,
            "id": 83,
            "setId": 0,
            "name": "Parkdale—High Park"
          }
        ],
        "pollDivisionIds": [
          10126432
        ],
        "postalCode": "M6P3H4",
        "streetName": "MARGDON",
        "streetDirectionId": null,
        "streetTypeId": "RD",
        "placeName": "TORONTO",
        "streetNameDisplayText": "MARGDON RD, TORONTO"
      }
    ]
  },
  {
    "postal": "M6P4E7",
    "result": []
  },
  {
    "postal": "M6P8A0",
    "result": []
  },
  {
    "postal": "M6P1Z7",
    "result": [
      {
        "electoralDistricts": [
          {
            "election": null,
            "id": 83,
            "setId": 0,
            "name": "Parkdale—High Park"
          }
        ],
        "pollDivisionIds": [
          10126428
        ],
        "postalCode": "M6P1Z7",
        "streetName": "DUNDAS",
        "streetDirectionId": "W",
        "streetTypeId": "ST",
        "placeName": "TORONTO",
        "streetNameDisplayText": "DUNDAS ST W, TORONTO"
      }
    ]
  },
  {
    "postal": "M6P7Z3",
    "result": []
  },
  {
    "postal": "M6P0L7",
    "result": []
  },
  {
    "postal": "M6P2C6",
    "result": [
      {
        "electoralDistricts": [
          {
            "election": null,
            "id": 83,
            "setId": 0,
            "name": "Parkdale—High Park"
          }
        ],
        "pollDivisionIds": [
          10126434
        ],
        "postalCode": "M6P2C6",
        "streetName": "INDIAN",
        "streetDirectionId": null,
        "streetTypeId": "RD",
        "placeName": "TORONTO",
        "streetNameDisplayText": "INDIAN RD, TORONTO"
      }
    ]
  },
  {
    "postal": "M6P6M3",
    "result": []
  },
  {
    "postal": "M6P2J1",
    "result": [
      {
        "electoralDistricts": [
          {
            "election": null,
            "id": 83,
            "setId": 0,
            "name": "Parkdale—High Park"
          }
        ],
        "pollDivisionIds": [
          10126424
        ],
        "postalCode": "M6P2J1",
        "streetName": "INDIAN",
        "streetDirectionId": null,
        "streetTypeId": "GROVE",
        "placeName": "TORONTO",
        "streetNameDisplayText": "INDIAN GROVE, TORONTO"
      }
    ]
  },
  {
    "postal": "M6P3E3",
    "result": []
  },
  {
    "postal": "M6P6Z9",
    "result": []
  },
  {
    "postal": "M6P3M3",
    "result": [
      {
        "electoralDistricts": [
          {
            "election": null,
            "id": 19,
            "setId": 0,
            "name": "Davenport"
          }
        ],
        "pollDivisionIds": [
          10136095
        ],
        "postalCode": "M6P3M3",
        "streetName": "PATON",
        "streetDirectionId": null,
        "streetTypeId": "RD",
        "placeName": "TORONTO",
        "streetNameDisplayText": "PATON RD, TORONTO"
      }
    ]
  },
  {
    "postal": "M6P9B1",
    "result": []
  },
  {
    "postal": "M6P9J5",
    "result": []
  },
  {
    "postal": "M6P4V8",
    "result": []
  },
  {
    "postal": "M6P6W2",
    "result": []
  },
  {
    "postal": "M6P0V5",
    "result": []
  },
  {
    "postal": "M6P0Z8",
    "result": []
  },
  {
    "postal": "M6P5G2",
    "result": []
  },
  {
    "postal": "M6P4N4",
    "result": []
  },
  {
    "postal": "M6P8G7",
    "result": []
  },
  {
    "postal": "M6P8W1",
    "result": []
  },
  {
    "postal": "M6P1S6",
    "result": [
      {
        "electoralDistricts": [
          {
            "election": null,
            "id": 83,
            "setId": 0,
            "name": "Parkdale—High Park"
          }
        ],
        "pollDivisionIds": [
          10126426
        ],
        "postalCode": "M6P1S6",
        "streetName": "MAHER",
        "streetDirectionId": null,
        "streetTypeId": "AVE",
        "placeName": "TORONTO",
        "streetNameDisplayText": "MAHER AVE, TORONTO"
      }
    ]
  },
  {
    "postal": "M6P4E0",
    "result": []
  },
  {
    "postal": "M6P4L9",
    "result": []
  },
  {
    "postal": "M6P5Z9",
    "result": []
  },
  {
    "postal": "M6P5V3",
    "result": []
  },
  {
    "postal": "M6P4V2",
    "result": []
  },
  {
    "postal": "M6P7C0",
    "result": []
  },
  {
    "postal": "M6P6L0",
    "result": []
  },
  {
    "postal": "M6P1S9",
    "result": [
      {
        "electoralDistricts": [
          {
            "election": null,
            "id": 83,
            "setId": 0,
            "name": "Parkdale—High Park"
          }
        ],
        "pollDivisionIds": [
          10126426
        ],
        "postalCode": "M6P1S9",
        "streetName": "VERNON",
        "streetDirectionId": null,
        "streetTypeId": "ST",
        "placeName": "TORONTO",
        "streetNameDisplayText": "VERNON ST, TORONTO"
      }
    ]
  },
  {
    "postal": "M6P7R6",
    "result": []
  },
  {
    "postal": "M6P7J0",
    "result": []
  },
  {
    "postal": "M6P5M0",
    "result": []
  },
  {
    "postal": "M6P2E5",
    "result": [
      {
        "electoralDistricts": [
          {
            "election": null,
            "id": 83,
            "setId": 0,
            "name": "Parkdale—High Park"
          }
        ],
        "pollDivisionIds": [
          10126434
        ],
        "postalCode": "M6P2E5",
        "streetName": "INDIAN",
        "streetDirectionId": null,
        "streetTypeId": "RD",
        "placeName": "TORONTO",
        "streetNameDisplayText": "INDIAN RD, TORONTO"
      }
    ]
  },
  {
    "postal": "M6P7C7",
    "result": []
  },
  {
    "postal": "M6P5C0",
    "result": []
  },
  {
    "postal": "M6P8V9",
    "result": []
  },
  {
    "postal": "M6P7E0",
    "result": []
  },
  {
    "postal": "M6P6R4",
    "result": []
  },
  {
    "postal": "M6P3Z7",
    "result": [
      {
        "electoralDistricts": [
          {
            "election": null,
            "id": 19,
            "setId": 0,
            "name": "Davenport"
          }
        ],
        "pollDivisionIds": [
          10136090
        ],
        "postalCode": "M6P3Z7",
        "streetName": "EDWIN",
        "streetDirectionId": null,
        "streetTypeId": "AVE",
        "placeName": "TORONTO",
        "streetNameDisplayText": "EDWIN AVE, TORONTO"
      }
    ]
  },
  {
    "postal": "M6P1J9",
    "result": [
      {
        "electoralDistricts": [
          {
            "election": null,
            "id": 83,
            "setId": 0,
            "name": "Parkdale—High Park"
          }
        ],
        "pollDivisionIds": [
          10126434
        ],
        "postalCode": "M6P1J9",
        "streetName": "HUMBERSIDE",
        "streetDirectionId": null,
        "streetTypeId": "AVE",
        "placeName": "TORONTO",
        "streetNameDisplayText": "HUMBERSIDE AVE, TORONTO"
      }
    ]
  },
  {
    "postal": "M6P7K6",
    "result": []
  },
  {
    "postal": "M6P7Y5",
    "result": []
  },
  {
    "postal": "M6P1B7",
    "result": [
      {
        "electoralDistricts": [
          {
            "election": null,
            "id": 83,
            "setId": 0,
            "name": "Parkdale—High Park"
          }
        ],
        "pollDivisionIds": [
          10126434
        ],
        "postalCode": "M6P1B7",
        "streetName": "GLEN GORDON",
        "streetDirectionId": null,
        "streetTypeId": "RD",
        "placeName": "TORONTO",
        "streetNameDisplayText": "GLEN GORDON RD, TORONTO"
      }
    ]
  },
  {
    "postal": "M6P4S9",
    "result": []
  },
  {
    "postal": "M6P9R9",
    "result": []
  },
  {
    "postal": "M6P5K7",
    "result": []
  },
  {
    "postal": "M6P6P2",
    "result": []
  },
  {
    "postal": "M6P2C5",
    "result": [
      {
        "electoralDistricts": [
          {
            "election": null,
            "id": 83,
            "setId": 0,
            "name": "Parkdale—High Park"
          }
        ],
        "pollDivisionIds": [
          10140949,
          10126434
        ],
        "postalCode": "M6P2C5",
        "streetName": "INDIAN",
        "streetDirectionId": null,
        "streetTypeId": "RD",
        "placeName": "TORONTO",
        "streetNameDisplayText": "INDIAN RD, TORONTO"
      }
    ]
  },
  {
    "postal": "M6P2N0",
    "result": []
  },
  {
    "postal": "M6P1G0",
    "result": []
  },
  {
    "postal": "M6P4K5",
    "result": []
  },
  {
    "postal": "M6P9B5",
    "result": []
  },
  {
    "postal": "M6P6T5",
    "result": []
  },
  {
    "postal": "M6P1N8",
    "result": [
      {
        "electoralDistricts": [
          {
            "election": null,
            "id": 83,
            "setId": 0,
            "name": "Parkdale—High Park"
          }
        ],
        "pollDivisionIds": [
          10126429
        ],
        "postalCode": "M6P1N8",
        "streetName": "ANNETTE",
        "streetDirectionId": null,
        "streetTypeId": "ST",
        "placeName": "TORONTO",
        "streetNameDisplayText": "ANNETTE ST, TORONTO"
      }
    ]
  },
  {
    "postal": "M6P0C0",
    "result": []
  },
  {
    "postal": "M6P0R9",
    "result": []
  },
  {
    "postal": "M6P7L1",
    "result": []
  },
  {
    "postal": "M6P3Y8",
    "result": [
      {
        "electoralDistricts": [
          {
            "election": null,
            "id": 19,
            "setId": 0,
            "name": "Davenport"
          }
        ],
        "pollDivisionIds": [
          10136090
        ],
        "postalCode": "M6P3Y8",
        "streetName": "FRANKLIN",
        "streetDirectionId": null,
        "streetTypeId": "AVE",
        "placeName": "TORONTO",
        "streetNameDisplayText": "FRANKLIN AVE, TORONTO"
      }
    ]
  },
  {
    "postal": "M6P7X9",
    "result": []
  },
  {
    "postal": "M6P1A7",
    "result": [
      {
        "electoralDistricts": [
          {
            "election": null,
            "id": 83,
            "setId": 0,
            "name": "Parkdale—High Park"
          }
        ],
        "pollDivisionIds": [
          10126434
        ],
        "postalCode": "M6P1A7",
        "streetName": "BLOOR",
        "streetDirectionId": "W",
        "streetTypeId": "ST",
        "placeName": "TORONTO",
        "streetNameDisplayText": "BLOOR ST W, TORONTO"
      },
      {
        "electoralDistricts": [
          {
            "election": null,
            "id": 83,
            "setId": 0,
            "name": "Parkdale—High Park"
          }
        ],
        "pollDivisionIds": [
          10126434
        ],
        "postalCode": "M6P1A7",
        "streetName": "DUNDAS",
        "streetDirectionId": "W",
        "streetTypeId": "ST",
        "placeName": "TORONTO",
        "streetNameDisplayText": "DUNDAS ST W, TORONTO"
      }
    ]
  },
  {
    "postal": "M6P2T9",
    "result": [
      {
        "electoralDistricts": [
          {
            "election": null,
            "id": 83,
            "setId": 0,
            "name": "Parkdale—High Park"
          }
        ],
        "pollDivisionIds": [
          10126428,
          10126455
        ],
        "postalCode": "M6P2T9",
        "streetName": "QUEBEC",
        "streetDirectionId": null,
        "streetTypeId": "AVE",
        "placeName": "TORONTO",
        "streetNameDisplayText": "QUEBEC AVE, TORONTO"
      }
    ]
  },
  {
    "postal": "M6P2E6",
    "result": [
      {
        "electoralDistricts": [
          {
            "election": null,
            "id": 83,
            "setId": 0,
            "name": "Parkdale—High Park"
          }
        ],
        "pollDivisionIds": [
          10126424
        ],
        "postalCode": "M6P2E6",
        "streetName": "WATKINSON",
        "streetDirectionId": null,
        "streetTypeId": "AVE",
        "placeName": "TORONTO",
        "streetNameDisplayText": "WATKINSON AVE, TORONTO"
      }
    ]
  },
  {
    "postal": "M6P8Y1",
    "result": []
  },
  {
    "postal": "M6P0J5",
    "result": []
  },
  {
    "postal": "M6P4J1",
    "result": [
      {
        "electoralDistricts": [
          {
            "election": null,
            "id": 83,
            "setId": 0,
            "name": "Parkdale—High Park"
          }
        ],
        "pollDivisionIds": [
          10126424
        ],
        "postalCode": "M6P4J1",
        "streetName": "INDIAN",
        "streetDirectionId": null,
        "streetTypeId": "GROVE",
        "placeName": "TORONTO",
        "streetNameDisplayText": "INDIAN GROVE, TORONTO"
      }
    ]
  },
  {
    "postal": "M6P1A5",
    "result": [
      {
        "electoralDistricts": [
          {
            "election": null,
            "id": 83,
            "setId": 0,
            "name": "Parkdale—High Park"
          }
        ],
        "pollDivisionIds": [
          10126439
        ],
        "postalCode": "M6P1A5",
        "streetName": "BLOOR",
        "streetDirectionId": "W",
        "streetTypeId": "ST",
        "placeName": "TORONTO",
        "streetNameDisplayText": "BLOOR ST W, TORONTO"
      }
    ]
  },
  {
    "postal": "M6P6Z6",
    "result": []
  },
  {
    "postal": "M6P5K4",
    "result": []
  },
  {
    "postal": "M6P7R9",
    "result": []
  },
  {
    "postal": "M6P6G4",
    "result": []
  }
]
