[
  {
    "postal": "K8P9J6",
    "result": []
  },
  {
    "postal": "K8P9Z5",
    "result": []
  },
  {
    "postal": "K8P7H8",
    "result": []
  },
  {
    "postal": "K8P0P6",
    "result": []
  },
  {
    "postal": "K8P0S7",
    "result": []
  },
  {
    "postal": "K8P8B9",
    "result": []
  },
  {
    "postal": "K8P2A6",
    "result": [
      {
        "electoralDistricts": [
          {
            "election": null,
            "id": 6,
            "name": "Bay of Quinte"
          }
        ],
        "pollDivisionIds": [
          10136969
        ],
        "postalCode": "K8P2A6",
        "streetName": "KING GEORGE",
        "streetDirectionId": null,
        "streetTypeId": "SQ",
        "placeName": "BELLEVILLE",
        "streetNameDisplayText": "KING GEORGE SQ, BELLEVILLE"
      }
    ]
  },
  {
    "postal": "K8P7V2",
    "result": []
  },
  {
    "postal": "K8P9P4",
    "result": []
  },
  {
    "postal": "K8P6G0",
    "result": []
  },
  {
    "postal": "K8P2K0",
    "result": []
  },
  {
    "postal": "K8P7N6",
    "result": []
  },
  {
    "postal": "K8P5R3",
    "result": []
  },
  {
    "postal": "K8P7K0",
    "result": []
  },
  {
    "postal": "K8P3R2",
    "result": [
      {
        "electoralDistricts": [
          {
            "election": null,
            "id": 6,
            "name": "Bay of Quinte"
          }
        ],
        "pollDivisionIds": [
          10136978
        ],
        "postalCode": "K8P3R2",
        "streetName": "HIGHLAND",
        "streetDirectionId": null,
        "streetTypeId": "AVE",
        "placeName": "BELLEVILLE",
        "streetNameDisplayText": "HIGHLAND AVE, BELLEVILLE"
      }
    ]
  },
  {
    "postal": "K8P0J1",
    "result": []
  },
  {
    "postal": "K8P0B0",
    "result": []
  },
  {
    "postal": "K8P5Z2",
    "result": []
  },
  {
    "postal": "K8P7P3",
    "result": []
  },
  {
    "postal": "K8P2K3",
    "result": [
      {
        "electoralDistricts": [
          {
            "election": null,
            "id": 6,
            "name": "Bay of Quinte"
          }
        ],
        "pollDivisionIds": [
          10136967
        ],
        "postalCode": "K8P2K3",
        "streetName": "ORCHARD",
        "streetDirectionId": null,
        "streetTypeId": "DR",
        "placeName": "BELLEVILLE",
        "streetNameDisplayText": "ORCHARD DR, BELLEVILLE"
      }
    ]
  },
  {
    "postal": "K8P7Y6",
    "result": []
  },
  {
    "postal": "K8P1L9",
    "result": [
      {
        "electoralDistricts": [
          {
            "election": null,
            "id": 6,
            "name": "Bay of Quinte"
          }
        ],
        "pollDivisionIds": [
          10136973
        ],
        "postalCode": "K8P1L9",
        "streetName": "CATHARINE",
        "streetDirectionId": null,
        "streetTypeId": "ST",
        "placeName": "BELLEVILLE",
        "streetNameDisplayText": "CATHARINE ST, BELLEVILLE"
      },
      {
        "electoralDistricts": [
          {
            "election": null,
            "id": 6,
            "name": "Bay of Quinte"
          }
        ],
        "pollDivisionIds": [
          10136978
        ],
        "postalCode": "K8P1L9",
        "streetName": "CATHERINE",
        "streetDirectionId": null,
        "streetTypeId": "ST",
        "placeName": "BELLEVILLE",
        "streetNameDisplayText": "CATHERINE ST, BELLEVILLE"
      }
    ]
  },
  {
    "postal": "K8P8T0",
    "result": []
  },
  {
    "postal": "K8P3K8",
    "result": [
      {
        "electoralDistricts": [
          {
            "election": null,
            "id": 6,
            "name": "Bay of Quinte"
          }
        ],
        "pollDivisionIds": [
          10136973
        ],
        "postalCode": "K8P3K8",
        "streetName": "BOSWELL",
        "streetDirectionId": null,
        "streetTypeId": "ST",
        "placeName": "BELLEVILLE",
        "streetNameDisplayText": "BOSWELL ST, BELLEVILLE"
      }
    ]
  },
  {
    "postal": "K8P5W9",
    "result": []
  },
  {
    "postal": "K8P6T9",
    "result": []
  },
  {
    "postal": "K8P4H1",
    "result": [
      {
        "electoralDistricts": [
          {
            "election": null,
            "id": 6,
            "name": "Bay of Quinte"
          }
        ],
        "pollDivisionIds": [
          10136966
        ],
        "postalCode": "K8P4H1",
        "streetName": "LEMOINE",
        "streetDirectionId": null,
        "streetTypeId": "ST",
        "placeName": "BELLEVILLE",
        "streetNameDisplayText": "LEMOINE ST, BELLEVILLE"
      }
    ]
  },
  {
    "postal": "K8P7A2",
    "result": []
  },
  {
    "postal": "K8P5G0",
    "result": []
  },
  {
    "postal": "K8P8V5",
    "result": []
  },
  {
    "postal": "K8P2Y8",
    "result": [
      {
        "electoralDistricts": [
          {
            "election": null,
            "id": 6,
            "name": "Bay of Quinte"
          }
        ],
        "pollDivisionIds": [
          10136967
        ],
        "postalCode": "K8P2Y8",
        "streetName": "NORTH PARK",
        "streetDirectionId": null,
        "streetTypeId": "ST",
        "placeName": "BELLEVILLE",
        "streetNameDisplayText": "NORTH PARK ST, BELLEVILLE"
      }
    ]
  },
  {
    "postal": "K8P2B6",
    "result": [
      {
        "electoralDistricts": [
          {
            "election": null,
            "id": 6,
            "name": "Bay of Quinte"
          }
        ],
        "pollDivisionIds": [
          10136969
        ],
        "postalCode": "K8P2B6",
        "streetName": "UNION",
        "streetDirectionId": null,
        "streetTypeId": "ST",
        "placeName": "BELLEVILLE",
        "streetNameDisplayText": "UNION ST, BELLEVILLE"
      }
    ]
  },
  {
    "postal": "K8P4W8",
    "result": [
      {
        "electoralDistricts": [
          {
            "election": null,
            "id": 6,
            "name": "Bay of Quinte"
          }
        ],
        "pollDivisionIds": [
          10136966
        ],
        "postalCode": "K8P4W8",
        "streetName": "BEVERLEY",
        "streetDirectionId": null,
        "streetTypeId": "CRES",
        "placeName": "BELLEVILLE",
        "streetNameDisplayText": "BEVERLEY CRES, BELLEVILLE"
      }
    ]
  },
  {
    "postal": "K8P8H7",
    "result": []
  },
  {
    "postal": "K8P5P1",
    "result": [
      {
        "electoralDistricts": [
          {
            "election": null,
            "id": 6,
            "name": "Bay of Quinte"
          }
        ],
        "pollDivisionIds": [
          10136972
        ],
        "postalCode": "K8P5P1",
        "streetName": "BOYCE",
        "streetDirectionId": null,
        "streetTypeId": "CRT",
        "placeName": "BELLEVILLE",
        "streetNameDisplayText": "BOYCE CRT, BELLEVILLE"
      }
    ]
  },
  {
    "postal": "K8P2B8",
    "result": [
      {
        "electoralDistricts": [
          {
            "election": null,
            "id": 6,
            "name": "Bay of Quinte"
          }
        ],
        "pollDivisionIds": [
          10136969
        ],
        "postalCode": "K8P2B8",
        "streetName": "PROGRESS",
        "streetDirectionId": null,
        "streetTypeId": "AVE",
        "placeName": "BELLEVILLE",
        "streetNameDisplayText": "PROGRESS AVE, BELLEVILLE"
      }
    ]
  },
  {
    "postal": "K8P0P2",
    "result": []
  },
  {
    "postal": "K8P9M1",
    "result": []
  },
  {
    "postal": "K8P3G0",
    "result": []
  },
  {
    "postal": "K8P9Z2",
    "result": []
  },
  {
    "postal": "K8P2A0",
    "result": []
  },
  {
    "postal": "K8P6Y0",
    "result": []
  },
  {
    "postal": "K8P2Z8",
    "result": [
      {
        "electoralDistricts": [
          {
            "election": null,
            "id": 6,
            "name": "Bay of Quinte"
          }
        ],
        "pollDivisionIds": [
          10136970
        ],
        "postalCode": "K8P2Z8",
        "streetName": "GRIER",
        "streetDirectionId": null,
        "streetTypeId": "ST",
        "placeName": "BELLEVILLE",
        "streetNameDisplayText": "GRIER ST, BELLEVILLE"
      }
    ]
  },
  {
    "postal": "K8P7Y3",
    "result": []
  },
  {
    "postal": "K8P6Z5",
    "result": []
  },
  {
    "postal": "K8P6E0",
    "result": []
  },
  {
    "postal": "K8P9B7",
    "result": []
  },
  {
    "postal": "K8P9S5",
    "result": []
  },
  {
    "postal": "K8P3X3",
    "result": [
      {
        "electoralDistricts": [
          {
            "election": null,
            "id": 6,
            "name": "Bay of Quinte"
          }
        ],
        "pollDivisionIds": [
          10136973
        ],
        "postalCode": "K8P3X3",
        "streetName": "YEOMANS",
        "streetDirectionId": null,
        "streetTypeId": "ST",
        "placeName": "BELLEVILLE",
        "streetNameDisplayText": "YEOMANS ST, BELLEVILLE"
      }
    ]
  },
  {
    "postal": "K8P7R5",
    "result": []
  },
  {
    "postal": "K8P2X3",
    "result": [
      {
        "electoralDistricts": [
          {
            "election": null,
            "id": 6,
            "name": "Bay of Quinte"
          }
        ],
        "pollDivisionIds": [
          10136970
        ],
        "postalCode": "K8P2X3",
        "streetName": "GEDDES",
        "streetDirectionId": null,
        "streetTypeId": "ST",
        "placeName": "BELLEVILLE",
        "streetNameDisplayText": "GEDDES ST, BELLEVILLE"
      }
    ]
  },
  {
    "postal": "K8P8Z9",
    "result": []
  },
  {
    "postal": "K8P0N4",
    "result": []
  },
  {
    "postal": "K8P1K1",
    "result": []
  },
  {
    "postal": "K8P1S3",
    "result": [
      {
        "electoralDistricts": [
          {
            "election": null,
            "id": 6,
            "name": "Bay of Quinte"
          }
        ],
        "pollDivisionIds": [
          10136973
        ],
        "postalCode": "K8P1S3",
        "streetName": "MOIRA",
        "streetDirectionId": "W",
        "streetTypeId": "ST",
        "placeName": "BELLEVILLE",
        "streetNameDisplayText": "MOIRA ST W, BELLEVILLE"
      }
    ]
  },
  {
    "postal": "K8P6M4",
    "result": []
  },
  {
    "postal": "K8P9A9",
    "result": []
  },
  {
    "postal": "K8P9Z9",
    "result": []
  },
  {
    "postal": "K8P6T4",
    "result": []
  },
  {
    "postal": "K8P0B2",
    "result": [
      {
        "electoralDistricts": [
          {
            "election": null,
            "id": 6,
            "name": "Bay of Quinte"
          }
        ],
        "pollDivisionIds": [
          10136969
        ],
        "postalCode": "K8P0B2",
        "streetName": "AVA",
        "streetDirectionId": null,
        "streetTypeId": "CRT",
        "placeName": "BELLEVILLE",
        "streetNameDisplayText": "AVA CRT, BELLEVILLE"
      },
      {
        "electoralDistricts": [
          {
            "election": null,
            "id": 6,
            "name": "Bay of Quinte"
          }
        ],
        "pollDivisionIds": [
          10136969
        ],
        "postalCode": "K8P0B2",
        "streetName": "SARAH",
        "streetDirectionId": null,
        "streetTypeId": "CRT",
        "placeName": "BELLEVILLE",
        "streetNameDisplayText": "SARAH CRT, BELLEVILLE"
      }
    ]
  },
  {
    "postal": "K8P2L9",
    "result": [
      {
        "electoralDistricts": [
          {
            "election": null,
            "id": 6,
            "name": "Bay of Quinte"
          }
        ],
        "pollDivisionIds": [
          10136969
        ],
        "postalCode": "K8P2L9",
        "streetName": "NORTH PARK",
        "streetDirectionId": null,
        "streetTypeId": "GDNS",
        "placeName": "BELLEVILLE",
        "streetNameDisplayText": "NORTH PARK GDNS, BELLEVILLE"
      }
    ]
  },
  {
    "postal": "K8P8K9",
    "result": []
  },
  {
    "postal": "K8P2H9",
    "result": [
      {
        "electoralDistricts": [
          {
            "election": null,
            "id": 6,
            "name": "Bay of Quinte"
          }
        ],
        "pollDivisionIds": [
          10136969
        ],
        "postalCode": "K8P2H9",
        "streetName": "DONALD",
        "streetDirectionId": null,
        "streetTypeId": "ST",
        "placeName": "BELLEVILLE",
        "streetNameDisplayText": "DONALD ST, BELLEVILLE"
      }
    ]
  },
  {
    "postal": "K8P3Z6",
    "result": [
      {
        "electoralDistricts": [
          {
            "election": null,
            "id": 6,
            "name": "Bay of Quinte"
          }
        ],
        "pollDivisionIds": [
          10136972,
          10136969
        ],
        "postalCode": "K8P3Z6",
        "streetName": "SIDNEY",
        "streetDirectionId": null,
        "streetTypeId": "ST",
        "placeName": "BELLEVILLE",
        "streetNameDisplayText": "SIDNEY ST, BELLEVILLE"
      }
    ]
  },
  {
    "postal": "K8P3B0",
    "result": []
  },
  {
    "postal": "K8P2H8",
    "result": []
  },
  {
    "postal": "K8P3X2",
    "result": [
      {
        "electoralDistricts": [
          {
            "election": null,
            "id": 6,
            "name": "Bay of Quinte"
          }
        ],
        "pollDivisionIds": [
          10136973
        ],
        "postalCode": "K8P3X2",
        "streetName": "YEOMANS",
        "streetDirectionId": null,
        "streetTypeId": "ST",
        "placeName": "BELLEVILLE",
        "streetNameDisplayText": "YEOMANS ST, BELLEVILLE"
      }
    ]
  },
  {
    "postal": "K8P2E9",
    "result": [
      {
        "electoralDistricts": [
          {
            "election": null,
            "id": 6,
            "name": "Bay of Quinte"
          }
        ],
        "pollDivisionIds": [
          10136970
        ],
        "postalCode": "K8P2E9",
        "streetName": "COLLEGE",
        "streetDirectionId": "E",
        "streetTypeId": "ST",
        "placeName": "BELLEVILLE",
        "streetNameDisplayText": "COLLEGE ST E, BELLEVILLE"
      }
    ]
  },
  {
    "postal": "K8P9P6",
    "result": []
  },
  {
    "postal": "K8P9E2",
    "result": []
  },
  {
    "postal": "K8P9H2",
    "result": []
  },
  {
    "postal": "K8P1S8",
    "result": [
      {
        "electoralDistricts": [
          {
            "election": null,
            "id": 6,
            "name": "Bay of Quinte"
          }
        ],
        "pollDivisionIds": [
          10136973
        ],
        "postalCode": "K8P1S8",
        "streetName": "MOIRA",
        "streetDirectionId": "W",
        "streetTypeId": "ST",
        "placeName": "BELLEVILLE",
        "streetNameDisplayText": "MOIRA ST W, BELLEVILLE"
      }
    ]
  },
  {
    "postal": "K8P3M6",
    "result": []
  },
  {
    "postal": "K8P6Z8",
    "result": []
  },
  {
    "postal": "K8P4J2",
    "result": [
      {
        "electoralDistricts": [
          {
            "election": null,
            "id": 6,
            "name": "Bay of Quinte"
          }
        ],
        "pollDivisionIds": [
          10136966
        ],
        "postalCode": "K8P4J2",
        "streetName": "SHAMROCK",
        "streetDirectionId": null,
        "streetTypeId": "RD",
        "placeName": "BELLEVILLE",
        "streetNameDisplayText": "SHAMROCK RD, BELLEVILLE"
      }
    ]
  },
  {
    "postal": "K8P9Y1",
    "result": []
  },
  {
    "postal": "K8P8V6",
    "result": []
  },
  {
    "postal": "K8P6B2",
    "result": []
  },
  {
    "postal": "K8P1P8",
    "result": [
      {
        "electoralDistricts": [
          {
            "election": null,
            "id": 6,
            "name": "Bay of Quinte"
          }
        ],
        "pollDivisionIds": [
          10136973
        ],
        "postalCode": "K8P1P8",
        "streetName": "BENJAMIN",
        "streetDirectionId": null,
        "streetTypeId": "ST",
        "placeName": "BELLEVILLE",
        "streetNameDisplayText": "BENJAMIN ST, BELLEVILLE"
      }
    ]
  },
  {
    "postal": "K8P0V8",
    "result": []
  },
  {
    "postal": "K8P4Y0",
    "result": []
  },
  {
    "postal": "K8P2T4",
    "result": [
      {
        "electoralDistricts": [
          {
            "election": null,
            "id": 6,
            "name": "Bay of Quinte"
          }
        ],
        "pollDivisionIds": [
          10136970
        ],
        "postalCode": "K8P2T4",
        "streetName": "PRINCE OF WALES",
        "streetDirectionId": null,
        "streetTypeId": "DR",
        "placeName": "BELLEVILLE",
        "streetNameDisplayText": "PRINCE OF WALES DR, BELLEVILLE"
      }
    ]
  },
  {
    "postal": "K8P2S3",
    "result": [
      {
        "electoralDistricts": [
          {
            "election": null,
            "id": 6,
            "name": "Bay of Quinte"
          }
        ],
        "pollDivisionIds": [
          10136970,
          10136973
        ],
        "postalCode": "K8P2S3",
        "streetName": "MOIRA",
        "streetDirectionId": "E",
        "streetTypeId": "ST",
        "placeName": "BELLEVILLE",
        "streetNameDisplayText": "MOIRA ST E, BELLEVILLE"
      },
      {
        "electoralDistricts": [
          {
            "election": null,
            "id": 6,
            "name": "Bay of Quinte"
          }
        ],
        "pollDivisionIds": [
          10136973
        ],
        "postalCode": "K8P2S3",
        "streetName": "MOIRA",
        "streetDirectionId": "W",
        "streetTypeId": "ST",
        "placeName": "BELLEVILLE",
        "streetNameDisplayText": "MOIRA ST W, BELLEVILLE"
      }
    ]
  },
  {
    "postal": "K8P0K0",
    "result": []
  },
  {
    "postal": "K8P5N1",
    "result": [
      {
        "electoralDistricts": [
          {
            "election": null,
            "id": 6,
            "name": "Bay of Quinte"
          }
        ],
        "pollDivisionIds": [
          10136994
        ],
        "postalCode": "K8P5N1",
        "streetName": "ALDERSGATE",
        "streetDirectionId": null,
        "streetTypeId": "DR",
        "placeName": "BELLEVILLE",
        "streetNameDisplayText": "ALDERSGATE DR, BELLEVILLE"
      }
    ]
  },
  {
    "postal": "K8P7T0",
    "result": []
  },
  {
    "postal": "K8P9N2",
    "result": []
  },
  {
    "postal": "K8P5L1",
    "result": [
      {
        "electoralDistricts": [
          {
            "election": null,
            "id": 6,
            "name": "Bay of Quinte"
          }
        ],
        "pollDivisionIds": [
          10136972
        ],
        "postalCode": "K8P5L1",
        "streetName": "PEPPER",
        "streetDirectionId": null,
        "streetTypeId": "AVE",
        "placeName": "BELLEVILLE",
        "streetNameDisplayText": "PEPPER AVE, BELLEVILLE"
      }
    ]
  },
  {
    "postal": "K8P7G5",
    "result": []
  },
  {
    "postal": "K8P6K2",
    "result": []
  },
  {
    "postal": "K8P6P9",
    "result": []
  },
  {
    "postal": "K8P0E6",
    "result": [
      {
        "electoralDistricts": [
          {
            "election": null,
            "id": 6,
            "name": "Bay of Quinte"
          }
        ],
        "pollDivisionIds": [
          10136972,
          10136974
        ],
        "postalCode": "K8P0E6",
        "streetName": "RIDGEWAY",
        "streetDirectionId": null,
        "streetTypeId": "PL",
        "placeName": "BELLEVILLE",
        "streetNameDisplayText": "RIDGEWAY PL, BELLEVILLE"
      }
    ]
  },
  {
    "postal": "K8P8R9",
    "result": []
  },
  {
    "postal": "K8P3G9",
    "result": [
      {
        "electoralDistricts": [
          {
            "election": null,
            "id": 6,
            "name": "Bay of Quinte"
          }
        ],
        "pollDivisionIds": [
          10136969
        ],
        "postalCode": "K8P3G9",
        "streetName": "GILBERT",
        "streetDirectionId": null,
        "streetTypeId": "ST",
        "placeName": "BELLEVILLE",
        "streetNameDisplayText": "GILBERT ST, BELLEVILLE"
      }
    ]
  },
  {
    "postal": "K8P0V7",
    "result": []
  },
  {
    "postal": "K8P2Z1",
    "result": [
      {
        "electoralDistricts": [
          {
            "election": null,
            "id": 6,
            "name": "Bay of Quinte"
          }
        ],
        "pollDivisionIds": [
          10136967
        ],
        "postalCode": "K8P2Z1",
        "streetName": "NORTH PARK",
        "streetDirectionId": null,
        "streetTypeId": "ST",
        "placeName": "BELLEVILLE",
        "streetNameDisplayText": "NORTH PARK ST, BELLEVILLE"
      }
    ]
  },
  {
    "postal": "K8P7N1",
    "result": []
  },
  {
    "postal": "K8P3C6",
    "result": [
      {
        "electoralDistricts": [
          {
            "election": null,
            "id": 6,
            "name": "Bay of Quinte"
          }
        ],
        "pollDivisionIds": [
          10136969
        ],
        "postalCode": "K8P3C6",
        "streetName": "NORTH FRONT",
        "streetDirectionId": null,
        "streetTypeId": "ST",
        "placeName": "BELLEVILLE",
        "streetNameDisplayText": "NORTH FRONT ST, BELLEVILLE"
      }
    ]
  },
  {
    "postal": "K8P4M1",
    "result": [
      {
        "electoralDistricts": [
          {
            "election": null,
            "id": 6,
            "name": "Bay of Quinte"
          }
        ],
        "pollDivisionIds": [
          10136966
        ],
        "postalCode": "K8P4M1",
        "streetName": "THORNCLIFFE",
        "streetDirectionId": null,
        "streetTypeId": "DR",
        "placeName": "BELLEVILLE",
        "streetNameDisplayText": "THORNCLIFFE DR, BELLEVILLE"
      }
    ]
  },
  {
    "postal": "K8P9K2",
    "result": []
  },
  {
    "postal": "K8P9S6",
    "result": []
  },
  {
    "postal": "K8P4X1",
    "result": [
      {
        "electoralDistricts": [
          {
            "election": null,
            "id": 6,
            "name": "Bay of Quinte"
          }
        ],
        "pollDivisionIds": [
          10137001
        ],
        "postalCode": "K8P4X1",
        "streetName": "SIDNEY",
        "streetDirectionId": null,
        "streetTypeId": "ST",
        "placeName": "BELLEVILLE",
        "streetNameDisplayText": "SIDNEY ST, BELLEVILLE"
      }
    ]
  },
  {
    "postal": "K8P8W2",
    "result": []
  },
  {
    "postal": "K8P7N2",
    "result": []
  },
  {
    "postal": "K8P8S3",
    "result": []
  },
  {
    "postal": "K8P4V0",
    "result": []
  },
  {
    "postal": "K8P6W4",
    "result": []
  },
  {
    "postal": "K8P5M1",
    "result": [
      {
        "electoralDistricts": [
          {
            "election": null,
            "id": 6,
            "name": "Bay of Quinte"
          }
        ],
        "pollDivisionIds": [
          10136972
        ],
        "postalCode": "K8P5M1",
        "streetName": "BRIDGE",
        "streetDirectionId": "W",
        "streetTypeId": "ST",
        "placeName": "BELLEVILLE",
        "streetNameDisplayText": "BRIDGE ST W, BELLEVILLE"
      },
      {
        "electoralDistricts": [
          {
            "election": null,
            "id": 6,
            "name": "Bay of Quinte"
          }
        ],
        "pollDivisionIds": [
          10136972
        ],
        "postalCode": "K8P5M1",
        "streetName": "WATSON",
        "streetDirectionId": null,
        "streetTypeId": "CRT",
        "placeName": "BELLEVILLE",
        "streetNameDisplayText": "WATSON CRT, BELLEVILLE"
      }
    ]
  },
  {
    "postal": "K8P0S4",
    "result": []
  },
  {
    "postal": "K8P5X6",
    "result": []
  },
  {
    "postal": "K8P8L5",
    "result": []
  },
  {
    "postal": "K8P5M8",
    "result": [
      {
        "electoralDistricts": [
          {
            "election": null,
            "id": 6,
            "name": "Bay of Quinte"
          }
        ],
        "pollDivisionIds": [
          10136972
        ],
        "postalCode": "K8P5M8",
        "streetName": "BUTLER",
        "streetDirectionId": null,
        "streetTypeId": "LANE",
        "placeName": "BELLEVILLE",
        "streetNameDisplayText": "BUTLER LANE, BELLEVILLE"
      },
      {
        "electoralDistricts": [
          {
            "election": null,
            "id": 6,
            "name": "Bay of Quinte"
          }
        ],
        "pollDivisionIds": [
          10136972
        ],
        "postalCode": "K8P5M8",
        "streetName": "LAKE",
        "streetDirectionId": null,
        "streetTypeId": "CRT",
        "placeName": "BELLEVILLE",
        "streetNameDisplayText": "LAKE CRT, BELLEVILLE"
      }
    ]
  },
  {
    "postal": "K8P2G3",
    "result": [
      {
        "electoralDistricts": [
          {
            "election": null,
            "id": 6,
            "name": "Bay of Quinte"
          }
        ],
        "pollDivisionIds": [
          10136969
        ],
        "postalCode": "K8P2G3",
        "streetName": "COLLEGE",
        "streetDirectionId": "W",
        "streetTypeId": "ST",
        "placeName": "BELLEVILLE",
        "streetNameDisplayText": "COLLEGE ST W, BELLEVILLE"
      }
    ]
  },
  {
    "postal": "K8P8E4",
    "result": []
  },
  {
    "postal": "K8P7S9",
    "result": []
  },
  {
    "postal": "K8P1K3",
    "result": []
  },
  {
    "postal": "K8P4E1",
    "result": [
      {
        "electoralDistricts": [
          {
            "election": null,
            "id": 6,
            "name": "Bay of Quinte"
          }
        ],
        "pollDivisionIds": [
          10136972
        ],
        "postalCode": "K8P4E1",
        "streetName": "PALMER",
        "streetDirectionId": null,
        "streetTypeId": "RD",
        "placeName": "BELLEVILLE",
        "streetNameDisplayText": "PALMER RD, BELLEVILLE"
      }
    ]
  },
  {
    "postal": "K8P4R2",
    "result": [
      {
        "electoralDistricts": [
          {
            "election": null,
            "id": 6,
            "name": "Bay of Quinte"
          }
        ],
        "pollDivisionIds": [
          10136972
        ],
        "postalCode": "K8P4R2",
        "streetName": "PEPPER",
        "streetDirectionId": null,
        "streetTypeId": "AVE",
        "placeName": "BELLEVILLE",
        "streetNameDisplayText": "PEPPER AVE, BELLEVILLE"
      }
    ]
  },
  {
    "postal": "K8P6T0",
    "result": []
  },
  {
    "postal": "K8P3K5",
    "result": [
      {
        "electoralDistricts": [
          {
            "election": null,
            "id": 6,
            "name": "Bay of Quinte"
          }
        ],
        "pollDivisionIds": [
          10136973
        ],
        "postalCode": "K8P3K5",
        "streetName": "EVERETT",
        "streetDirectionId": null,
        "streetTypeId": "ST",
        "placeName": "BELLEVILLE",
        "streetNameDisplayText": "EVERETT ST, BELLEVILLE"
      }
    ]
  },
  {
    "postal": "K8P3S3",
    "result": [
      {
        "electoralDistricts": [
          {
            "election": null,
            "id": 6,
            "name": "Bay of Quinte"
          }
        ],
        "pollDivisionIds": [
          10136977
        ],
        "postalCode": "K8P3S3",
        "streetName": "MOODIE",
        "streetDirectionId": null,
        "streetTypeId": "ST",
        "placeName": "BELLEVILLE",
        "streetNameDisplayText": "MOODIE ST, BELLEVILLE"
      }
    ]
  },
  {
    "postal": "K8P3L4",
    "result": [
      {
        "electoralDistricts": [
          {
            "election": null,
            "id": 6,
            "name": "Bay of Quinte"
          }
        ],
        "pollDivisionIds": [
          10136978
        ],
        "postalCode": "K8P3L4",
        "streetName": "JAMES",
        "streetDirectionId": null,
        "streetTypeId": "ST",
        "placeName": "BELLEVILLE",
        "streetNameDisplayText": "JAMES ST, BELLEVILLE"
      }
    ]
  },
  {
    "postal": "K8P9Y2",
    "result": []
  },
  {
    "postal": "K8P1E0",
    "result": []
  },
  {
    "postal": "K8P9A4",
    "result": []
  },
  {
    "postal": "K8P1L3",
    "result": [
      {
        "electoralDistricts": [
          {
            "election": null,
            "id": 6,
            "name": "Bay of Quinte"
          }
        ],
        "pollDivisionIds": [
          10136973
        ],
        "postalCode": "K8P1L3",
        "streetName": "CATHARINE",
        "streetDirectionId": null,
        "streetTypeId": "ST",
        "placeName": "BELLEVILLE",
        "streetNameDisplayText": "CATHARINE ST, BELLEVILLE"
      }
    ]
  },
  {
    "postal": "K8P6N1",
    "result": []
  },
  {
    "postal": "K8P6G7",
    "result": []
  },
  {
    "postal": "K8P7W1",
    "result": []
  },
  {
    "postal": "K8P4M6",
    "result": [
      {
        "electoralDistricts": [
          {
            "election": null,
            "id": 6,
            "name": "Bay of Quinte"
          }
        ],
        "pollDivisionIds": [
          10136972
        ],
        "postalCode": "K8P4M6",
        "streetName": "DUNNETT",
        "streetDirectionId": null,
        "streetTypeId": "BLVD",
        "placeName": "BELLEVILLE",
        "streetNameDisplayText": "DUNNETT BLVD, BELLEVILLE"
      }
    ]
  },
  {
    "postal": "K8P1K0",
    "result": []
  },
  {
    "postal": "K8P3E2",
    "result": []
  },
  {
    "postal": "K8P5H4",
    "result": [
      {
        "electoralDistricts": [
          {
            "election": null,
            "id": 6,
            "name": "Bay of Quinte"
          }
        ],
        "pollDivisionIds": [
          10136967
        ],
        "postalCode": "K8P5H4",
        "streetName": "TRACEY PARK",
        "streetDirectionId": null,
        "streetTypeId": "DR",
        "placeName": "BELLEVILLE",
        "streetNameDisplayText": "TRACEY PARK DR, BELLEVILLE"
      }
    ]
  },
  {
    "postal": "K8P1K7",
    "result": []
  },
  {
    "postal": "K8P0H0",
    "result": []
  },
  {
    "postal": "K8P0J3",
    "result": []
  },
  {
    "postal": "K8P1X6",
    "result": [
      {
        "electoralDistricts": [
          {
            "election": null,
            "id": 6,
            "name": "Bay of Quinte"
          }
        ],
        "pollDivisionIds": [
          10136970
        ],
        "postalCode": "K8P1X6",
        "streetName": "ELM",
        "streetDirectionId": null,
        "streetTypeId": "ST",
        "placeName": "BELLEVILLE",
        "streetNameDisplayText": "ELM ST, BELLEVILLE"
      }
    ]
  },
  {
    "postal": "K8P2Z6",
    "result": [
      {
        "electoralDistricts": [
          {
            "election": null,
            "id": 6,
            "name": "Bay of Quinte"
          }
        ],
        "pollDivisionIds": [
          10136970
        ],
        "postalCode": "K8P2Z6",
        "streetName": "GRIER",
        "streetDirectionId": null,
        "streetTypeId": "ST",
        "placeName": "BELLEVILLE",
        "streetNameDisplayText": "GRIER ST, BELLEVILLE"
      }
    ]
  },
  {
    "postal": "K8P4R9",
    "result": [
      {
        "electoralDistricts": [
          {
            "election": null,
            "id": 6,
            "name": "Bay of Quinte"
          }
        ],
        "pollDivisionIds": [
          10136972
        ],
        "postalCode": "K8P4R9",
        "streetName": "OHARE",
        "streetDirectionId": null,
        "streetTypeId": "ST",
        "placeName": "BELLEVILLE",
        "streetNameDisplayText": "OHARE ST, BELLEVILLE"
      },
      {
        "electoralDistricts": [
          {
            "election": null,
            "id": 6,
            "name": "Bay of Quinte"
          }
        ],
        "pollDivisionIds": [
          10136972
        ],
        "postalCode": "K8P4R9",
        "streetName": "O'HARE",
        "streetDirectionId": null,
        "streetTypeId": "ST",
        "placeName": "BELLEVILLE",
        "streetNameDisplayText": "O'HARE ST, BELLEVILLE"
      }
    ]
  },
  {
    "postal": "K8P0W8",
    "result": []
  },
  {
    "postal": "K8P1L4",
    "result": [
      {
        "electoralDistricts": [
          {
            "election": null,
            "id": 6,
            "name": "Bay of Quinte"
          }
        ],
        "pollDivisionIds": [
          10136978
        ],
        "postalCode": "K8P1L4",
        "streetName": "CATHARINE",
        "streetDirectionId": null,
        "streetTypeId": "ST",
        "placeName": "BELLEVILLE",
        "streetNameDisplayText": "CATHARINE ST, BELLEVILLE"
      },
      {
        "electoralDistricts": [
          {
            "election": null,
            "id": 6,
            "name": "Bay of Quinte"
          }
        ],
        "pollDivisionIds": [
          10136973
        ],
        "postalCode": "K8P1L4",
        "streetName": "CATHERINE",
        "streetDirectionId": null,
        "streetTypeId": "ST",
        "placeName": "BELLEVILLE",
        "streetNameDisplayText": "CATHERINE ST, BELLEVILLE"
      }
    ]
  },
  {
    "postal": "K8P0C8",
    "result": [
      {
        "electoralDistricts": [
          {
            "election": null,
            "id": 6,
            "name": "Bay of Quinte"
          }
        ],
        "pollDivisionIds": [
          10136969
        ],
        "postalCode": "K8P0C8",
        "streetName": "VALLEYVIEW",
        "streetDirectionId": null,
        "streetTypeId": "CRT",
        "placeName": "BELLEVILLE",
        "streetNameDisplayText": "VALLEYVIEW CRT, BELLEVILLE"
      }
    ]
  },
  {
    "postal": "K8P9X7",
    "result": []
  },
  {
    "postal": "K8P4T1",
    "result": [
      {
        "electoralDistricts": [
          {
            "election": null,
            "id": 6,
            "name": "Bay of Quinte"
          }
        ],
        "pollDivisionIds": [
          10136966
        ],
        "postalCode": "K8P4T1",
        "streetName": "GLENDALE",
        "streetDirectionId": null,
        "streetTypeId": "RD",
        "placeName": "BELLEVILLE",
        "streetNameDisplayText": "GLENDALE RD, BELLEVILLE"
      }
    ]
  },
  {
    "postal": "K8P0M0",
    "result": []
  },
  {
    "postal": "K8P6A2",
    "result": []
  },
  {
    "postal": "K8P9S8",
    "result": []
  },
  {
    "postal": "K8P9T4",
    "result": []
  },
  {
    "postal": "K8P9Y4",
    "result": []
  },
  {
    "postal": "K8P6G5",
    "result": []
  },
  {
    "postal": "K8P6H9",
    "result": []
  },
  {
    "postal": "K8P2P3",
    "result": [
      {
        "electoralDistricts": [
          {
            "election": null,
            "id": 6,
            "name": "Bay of Quinte"
          }
        ],
        "pollDivisionIds": [
          10136966
        ],
        "postalCode": "K8P2P3",
        "streetName": "PARKDALE",
        "streetDirectionId": null,
        "streetTypeId": "DR",
        "placeName": "BELLEVILLE",
        "streetNameDisplayText": "PARKDALE DR, BELLEVILLE"
      }
    ]
  },
  {
    "postal": "K8P1T6",
    "result": [
      {
        "electoralDistricts": [
          {
            "election": null,
            "id": 6,
            "name": "Bay of Quinte"
          }
        ],
        "pollDivisionIds": [
          10136973
        ],
        "postalCode": "K8P1T6",
        "streetName": "MOIRA",
        "streetDirectionId": "W",
        "streetTypeId": "ST",
        "placeName": "BELLEVILLE",
        "streetNameDisplayText": "MOIRA ST W, BELLEVILLE"
      }
    ]
  },
  {
    "postal": "K8P4P6",
    "result": [
      {
        "electoralDistricts": [
          {
            "election": null,
            "id": 6,
            "name": "Bay of Quinte"
          }
        ],
        "pollDivisionIds": [
          10136967
        ],
        "postalCode": "K8P4P6",
        "streetName": "MARSH",
        "streetDirectionId": null,
        "streetTypeId": "DR",
        "placeName": "BELLEVILLE",
        "streetNameDisplayText": "MARSH DR, BELLEVILLE"
      }
    ]
  },
  {
    "postal": "K8P3K1",
    "result": [
      {
        "electoralDistricts": [
          {
            "election": null,
            "id": 6,
            "name": "Bay of Quinte"
          }
        ],
        "pollDivisionIds": [
          10136973
        ],
        "postalCode": "K8P3K1",
        "streetName": "EVERETT",
        "streetDirectionId": null,
        "streetTypeId": "ST",
        "placeName": "BELLEVILLE",
        "streetNameDisplayText": "EVERETT ST, BELLEVILLE"
      }
    ]
  },
  {
    "postal": "K8P6X4",
    "result": []
  },
  {
    "postal": "K8P4M8",
    "result": [
      {
        "electoralDistricts": [
          {
            "election": null,
            "id": 6,
            "name": "Bay of Quinte"
          }
        ],
        "pollDivisionIds": [
          10136972
        ],
        "postalCode": "K8P4M8",
        "streetName": "DUNNETT",
        "streetDirectionId": null,
        "streetTypeId": "BLVD",
        "placeName": "BELLEVILLE",
        "streetNameDisplayText": "DUNNETT BLVD, BELLEVILLE"
      }
    ]
  },
  {
    "postal": "K8P2Y1",
    "result": [
      {
        "electoralDistricts": [
          {
            "election": null,
            "id": 6,
            "name": "Bay of Quinte"
          }
        ],
        "pollDivisionIds": [
          10136970
        ],
        "postalCode": "K8P2Y1",
        "streetName": "NORTH PARK",
        "streetDirectionId": null,
        "streetTypeId": "ST",
        "placeName": "BELLEVILLE",
        "streetNameDisplayText": "NORTH PARK ST, BELLEVILLE"
      }
    ]
  },
  {
    "postal": "K8P6M1",
    "result": []
  },
  {
    "postal": "K8P5L8",
    "result": [
      {
        "electoralDistricts": [
          {
            "election": null,
            "id": 6,
            "name": "Bay of Quinte"
          }
        ],
        "pollDivisionIds": [
          10136967
        ],
        "postalCode": "K8P5L8",
        "streetName": "BELL",
        "streetDirectionId": null,
        "streetTypeId": "BLVD",
        "placeName": "BELLEVILLE",
        "streetNameDisplayText": "BELL BLVD, BELLEVILLE"
      }
    ]
  },
  {
    "postal": "K8P3P6",
    "result": [
      {
        "electoralDistricts": [
          {
            "election": null,
            "id": 6,
            "name": "Bay of Quinte"
          }
        ],
        "pollDivisionIds": [
          10136978
        ],
        "postalCode": "K8P3P6",
        "streetName": "BAY BRIDGE",
        "streetDirectionId": null,
        "streetTypeId": "RD",
        "placeName": "BELLEVILLE",
        "streetNameDisplayText": "BAY BRIDGE RD, BELLEVILLE"
      }
    ]
  },
  {
    "postal": "K8P9A5",
    "result": []
  },
  {
    "postal": "K8P7K1",
    "result": []
  },
  {
    "postal": "K8P3J4",
    "result": [
      {
        "electoralDistricts": [
          {
            "election": null,
            "id": 6,
            "name": "Bay of Quinte"
          }
        ],
        "pollDivisionIds": [
          10136973
        ],
        "postalCode": "K8P3J4",
        "streetName": "COLEMAN",
        "streetDirectionId": null,
        "streetTypeId": "ST",
        "placeName": "BELLEVILLE",
        "streetNameDisplayText": "COLEMAN ST, BELLEVILLE"
      }
    ]
  },
  {
    "postal": "K8P5E7",
    "result": [
      {
        "electoralDistricts": [
          {
            "election": null,
            "id": 6,
            "name": "Bay of Quinte"
          }
        ],
        "pollDivisionIds": [
          10136967
        ],
        "postalCode": "K8P5E7",
        "streetName": "DUNGANNON",
        "streetDirectionId": null,
        "streetTypeId": "DR",
        "placeName": "BELLEVILLE",
        "streetNameDisplayText": "DUNGANNON DR, BELLEVILLE"
      }
    ]
  },
  {
    "postal": "K8P3A7",
    "result": [
      {
        "electoralDistricts": [
          {
            "election": null,
            "id": 6,
            "name": "Bay of Quinte"
          }
        ],
        "pollDivisionIds": [
          10136973
        ],
        "postalCode": "K8P3A7",
        "streetName": "FRONT",
        "streetDirectionId": "N",
        "streetTypeId": "ST",
        "placeName": "BELLEVILLE",
        "streetNameDisplayText": "FRONT ST N, BELLEVILLE"
      },
      {
        "electoralDistricts": [
          {
            "election": null,
            "id": 6,
            "name": "Bay of Quinte"
          }
        ],
        "pollDivisionIds": [
          10136973
        ],
        "postalCode": "K8P3A7",
        "streetName": "NORTH FRONT",
        "streetDirectionId": null,
        "streetTypeId": "ST",
        "placeName": "BELLEVILLE",
        "streetNameDisplayText": "NORTH FRONT ST, BELLEVILLE"
      }
    ]
  },
  {
    "postal": "K8P1B9",
    "result": []
  },
  {
    "postal": "K8P9E8",
    "result": []
  },
  {
    "postal": "K8P1C9",
    "result": [
      {
        "electoralDistricts": [
          {
            "election": null,
            "id": 6,
            "name": "Bay of Quinte"
          }
        ],
        "pollDivisionIds": [
          10136978
        ],
        "postalCode": "K8P1C9",
        "streetName": "PARKER",
        "streetDirectionId": null,
        "streetTypeId": "ST",
        "placeName": "BELLEVILLE",
        "streetNameDisplayText": "PARKER ST, BELLEVILLE"
      }
    ]
  },
  {
    "postal": "K8P3B5",
    "result": [
      {
        "electoralDistricts": [
          {
            "election": null,
            "id": 6,
            "name": "Bay of Quinte"
          }
        ],
        "pollDivisionIds": [
          10136969
        ],
        "postalCode": "K8P3B5",
        "streetName": "NORTH FRONT",
        "streetDirectionId": null,
        "streetTypeId": "ST",
        "placeName": "BELLEVILLE",
        "streetNameDisplayText": "NORTH FRONT ST, BELLEVILLE"
      }
    ]
  },
  {
    "postal": "K8P8R0",
    "result": []
  },
  {
    "postal": "K8P3P2",
    "result": [
      {
        "electoralDistricts": [
          {
            "election": null,
            "id": 6,
            "name": "Bay of Quinte"
          }
        ],
        "pollDivisionIds": [
          10136973
        ],
        "postalCode": "K8P3P2",
        "streetName": "OCTAVIA",
        "streetDirectionId": null,
        "streetTypeId": "ST",
        "placeName": "BELLEVILLE",
        "streetNameDisplayText": "OCTAVIA ST, BELLEVILLE"
      }
    ]
  },
  {
    "postal": "K8P5V4",
    "result": []
  },
  {
    "postal": "K8P4H0",
    "result": []
  },
  {
    "postal": "K8P4S7",
    "result": [
      {
        "electoralDistricts": [
          {
            "election": null,
            "id": 6,
            "name": "Bay of Quinte"
          }
        ],
        "pollDivisionIds": [
          10136966
        ],
        "postalCode": "K8P4S7",
        "streetName": "PANTER",
        "streetDirectionId": null,
        "streetTypeId": "CIR",
        "placeName": "BELLEVILLE",
        "streetNameDisplayText": "PANTER CIR, BELLEVILLE"
      }
    ]
  },
  {
    "postal": "K8P6C2",
    "result": []
  },
  {
    "postal": "K8P8W3",
    "result": []
  },
  {
    "postal": "K8P4M5",
    "result": [
      {
        "electoralDistricts": [
          {
            "election": null,
            "id": 6,
            "name": "Bay of Quinte"
          }
        ],
        "pollDivisionIds": [
          10136972
        ],
        "postalCode": "K8P4M5",
        "streetName": "DUNNETT",
        "streetDirectionId": null,
        "streetTypeId": "BLVD",
        "placeName": "BELLEVILLE",
        "streetNameDisplayText": "DUNNETT BLVD, BELLEVILLE"
      }
    ]
  },
  {
    "postal": "K8P5T1",
    "result": []
  },
  {
    "postal": "K8P3B3",
    "result": [
      {
        "electoralDistricts": [
          {
            "election": null,
            "id": 6,
            "name": "Bay of Quinte"
          }
        ],
        "pollDivisionIds": [
          10136973
        ],
        "postalCode": "K8P3B3",
        "streetName": "NORTH FRONT",
        "streetDirectionId": null,
        "streetTypeId": "ST",
        "placeName": "BELLEVILLE",
        "streetNameDisplayText": "NORTH FRONT ST, BELLEVILLE"
      }
    ]
  },
  {
    "postal": "K8P6C6",
    "result": []
  },
  {
    "postal": "K8P7N8",
    "result": []
  },
  {
    "postal": "K8P2Y3",
    "result": [
      {
        "electoralDistricts": [
          {
            "election": null,
            "id": 6,
            "name": "Bay of Quinte"
          }
        ],
        "pollDivisionIds": [
          10136969
        ],
        "postalCode": "K8P2Y3",
        "streetName": "NORTH PARK",
        "streetDirectionId": null,
        "streetTypeId": "ST",
        "placeName": "BELLEVILLE",
        "streetNameDisplayText": "NORTH PARK ST, BELLEVILLE"
      }
    ]
  },
  {
    "postal": "K8P2R6",
    "result": [
      {
        "electoralDistricts": [
          {
            "election": null,
            "id": 6,
            "name": "Bay of Quinte"
          }
        ],
        "pollDivisionIds": [
          10136967
        ],
        "postalCode": "K8P2R6",
        "streetName": "TRACEY PARK",
        "streetDirectionId": null,
        "streetTypeId": "DR",
        "placeName": "BELLEVILLE",
        "streetNameDisplayText": "TRACEY PARK DR, BELLEVILLE"
      },
      {
        "electoralDistricts": [
          {
            "election": null,
            "id": 6,
            "name": "Bay of Quinte"
          }
        ],
        "pollDivisionIds": [
          10136966
        ],
        "postalCode": "K8P2R6",
        "streetName": "TRACEY",
        "streetDirectionId": null,
        "streetTypeId": "ST",
        "placeName": "BELLEVILLE",
        "streetNameDisplayText": "TRACEY ST, BELLEVILLE"
      }
    ]
  },
  {
    "postal": "K8P7N3",
    "result": []
  },
  {
    "postal": "K8P8J2",
    "result": []
  },
  {
    "postal": "K8P6A9",
    "result": []
  },
  {
    "postal": "K8P3V2",
    "result": [
      {
        "electoralDistricts": [
          {
            "election": null,
            "id": 6,
            "name": "Bay of Quinte"
          }
        ],
        "pollDivisionIds": [
          10136973
        ],
        "postalCode": "K8P3V2",
        "streetName": "FRANK",
        "streetDirectionId": null,
        "streetTypeId": "ST",
        "placeName": "BELLEVILLE",
        "streetNameDisplayText": "FRANK ST, BELLEVILLE"
      }
    ]
  },
  {
    "postal": "K8P2N3",
    "result": [
      {
        "electoralDistricts": [
          {
            "election": null,
            "id": 6,
            "name": "Bay of Quinte"
          }
        ],
        "pollDivisionIds": [
          10136969
        ],
        "postalCode": "K8P2N3",
        "streetName": "AUBURN",
        "streetDirectionId": null,
        "streetTypeId": "ST",
        "placeName": "BELLEVILLE",
        "streetNameDisplayText": "AUBURN ST, BELLEVILLE"
      }
    ]
  },
  {
    "postal": "K8P1S5",
    "result": [
      {
        "electoralDistricts": [
          {
            "election": null,
            "id": 6,
            "name": "Bay of Quinte"
          }
        ],
        "pollDivisionIds": [
          10136973
        ],
        "postalCode": "K8P1S5",
        "streetName": "MOIRA",
        "streetDirectionId": "W",
        "streetTypeId": "ST",
        "placeName": "BELLEVILLE",
        "streetNameDisplayText": "MOIRA ST W, BELLEVILLE"
      }
    ]
  },
  {
    "postal": "K8P4T7",
    "result": [
      {
        "electoralDistricts": [
          {
            "election": null,
            "id": 6,
            "name": "Bay of Quinte"
          }
        ],
        "pollDivisionIds": [
          10136972
        ],
        "postalCode": "K8P4T7",
        "streetName": "KENSINGTON",
        "streetDirectionId": null,
        "streetTypeId": "CRES",
        "placeName": "BELLEVILLE",
        "streetNameDisplayText": "KENSINGTON CRES, BELLEVILLE"
      }
    ]
  },
  {
    "postal": "K8P6Y7",
    "result": []
  },
  {
    "postal": "K8P0W7",
    "result": []
  },
  {
    "postal": "K8P2W9",
    "result": [
      {
        "electoralDistricts": [
          {
            "election": null,
            "id": 6,
            "name": "Bay of Quinte"
          }
        ],
        "pollDivisionIds": [
          10136970
        ],
        "postalCode": "K8P2W9",
        "streetName": "PARK",
        "streetDirectionId": "S",
        "streetTypeId": "ST",
        "placeName": "BELLEVILLE",
        "streetNameDisplayText": "PARK ST S, BELLEVILLE"
      }
    ]
  },
  {
    "postal": "K8P8V0",
    "result": []
  },
  {
    "postal": "K8P0H4",
    "result": []
  },
  {
    "postal": "K8P2T1",
    "result": [
      {
        "electoralDistricts": [
          {
            "election": null,
            "id": 6,
            "name": "Bay of Quinte"
          }
        ],
        "pollDivisionIds": [
          10136970
        ],
        "postalCode": "K8P2T1",
        "streetName": "MOIRA",
        "streetDirectionId": "E",
        "streetTypeId": "ST",
        "placeName": "BELLEVILLE",
        "streetNameDisplayText": "MOIRA ST E, BELLEVILLE"
      }
    ]
  },
  {
    "postal": "K8P1B1",
    "result": [
      {
        "electoralDistricts": [
          {
            "election": null,
            "id": 6,
            "name": "Bay of Quinte"
          }
        ],
        "pollDivisionIds": [
          10136972
        ],
        "postalCode": "K8P1B1",
        "streetName": "DUNDAS",
        "streetDirectionId": "W",
        "streetTypeId": "ST",
        "placeName": "BELLEVILLE",
        "streetNameDisplayText": "DUNDAS ST W, BELLEVILLE"
      }
    ]
  },
  {
    "postal": "K8P8B6",
    "result": []
  },
  {
    "postal": "K8P6H1",
    "result": []
  },
  {
    "postal": "K8P8T8",
    "result": []
  },
  {
    "postal": "K8P0T4",
    "result": []
  },
  {
    "postal": "K8P2C4",
    "result": [
      {
        "electoralDistricts": [
          {
            "election": null,
            "id": 6,
            "name": "Bay of Quinte"
          }
        ],
        "pollDivisionIds": [
          10136969
        ],
        "postalCode": "K8P2C4",
        "streetName": "ALBANY",
        "streetDirectionId": null,
        "streetTypeId": "HTS",
        "placeName": "BELLEVILLE",
        "streetNameDisplayText": "ALBANY HTS, BELLEVILLE"
      }
    ]
  },
  {
    "postal": "K8P8N3",
    "result": []
  },
  {
    "postal": "K8P4L8",
    "result": [
      {
        "electoralDistricts": [
          {
            "election": null,
            "id": 6,
            "name": "Bay of Quinte"
          }
        ],
        "pollDivisionIds": [
          10136966
        ],
        "postalCode": "K8P4L8",
        "streetName": "THORNCLIFFE",
        "streetDirectionId": null,
        "streetTypeId": "DR",
        "placeName": "BELLEVILLE",
        "streetNameDisplayText": "THORNCLIFFE DR, BELLEVILLE"
      }
    ]
  },
  {
    "postal": "K8P2B5",
    "result": [
      {
        "electoralDistricts": [
          {
            "election": null,
            "id": 6,
            "name": "Bay of Quinte"
          }
        ],
        "pollDivisionIds": [
          10136969
        ],
        "postalCode": "K8P2B5",
        "streetName": "UNION",
        "streetDirectionId": null,
        "streetTypeId": "ST",
        "placeName": "BELLEVILLE",
        "streetNameDisplayText": "UNION ST, BELLEVILLE"
      }
    ]
  },
  {
    "postal": "K8P3H1",
    "result": [
      {
        "electoralDistricts": [
          {
            "election": null,
            "id": 6,
            "name": "Bay of Quinte"
          }
        ],
        "pollDivisionIds": [
          10136969
        ],
        "postalCode": "K8P3H1",
        "streetName": "GILBERT",
        "streetDirectionId": null,
        "streetTypeId": "ST",
        "placeName": "BELLEVILLE",
        "streetNameDisplayText": "GILBERT ST, BELLEVILLE"
      }
    ]
  },
  {
    "postal": "K8P4Y1",
    "result": [
      {
        "electoralDistricts": [
          {
            "election": null,
            "id": 6,
            "name": "Bay of Quinte"
          }
        ],
        "pollDivisionIds": [
          10136972,
          10137000
        ],
        "postalCode": "K8P4Y1",
        "streetName": "SIDNEY",
        "streetDirectionId": null,
        "streetTypeId": "ST",
        "placeName": "BELLEVILLE",
        "streetNameDisplayText": "SIDNEY ST, BELLEVILLE"
      }
    ]
  },
  {
    "postal": "K8P7E2",
    "result": []
  },
  {
    "postal": "K8P2P5",
    "result": [
      {
        "electoralDistricts": [
          {
            "election": null,
            "id": 6,
            "name": "Bay of Quinte"
          }
        ],
        "pollDivisionIds": [
          10136966
        ],
        "postalCode": "K8P2P5",
        "streetName": "CASCADE",
        "streetDirectionId": null,
        "streetTypeId": "BLVD",
        "placeName": "BELLEVILLE",
        "streetNameDisplayText": "CASCADE BLVD, BELLEVILLE"
      }
    ]
  },
  {
    "postal": "K8P8R7",
    "result": []
  },
  {
    "postal": "K8P9P1",
    "result": []
  },
  {
    "postal": "K8P3B8",
    "result": [
      {
        "electoralDistricts": [
          {
            "election": null,
            "id": 6,
            "name": "Bay of Quinte"
          }
        ],
        "pollDivisionIds": [
          10136969
        ],
        "postalCode": "K8P3B8",
        "streetName": "NORTH FRONT",
        "streetDirectionId": null,
        "streetTypeId": "ST",
        "placeName": "BELLEVILLE",
        "streetNameDisplayText": "NORTH FRONT ST, BELLEVILLE"
      }
    ]
  },
  {
    "postal": "K8P3P7",
    "result": []
  },
  {
    "postal": "K8P9B2",
    "result": []
  },
  {
    "postal": "K8P6Z3",
    "result": []
  },
  {
    "postal": "K8P4N5",
    "result": [
      {
        "electoralDistricts": [
          {
            "election": null,
            "id": 6,
            "name": "Bay of Quinte"
          }
        ],
        "pollDivisionIds": [
          10136972
        ],
        "postalCode": "K8P4N5",
        "streetName": "TRIPP",
        "streetDirectionId": null,
        "streetTypeId": "AVE",
        "placeName": "BELLEVILLE",
        "streetNameDisplayText": "TRIPP AVE, BELLEVILLE"
      }
    ]
  },
  {
    "postal": "K8P8T3",
    "result": []
  },
  {
    "postal": "K8P1V2",
    "result": [
      {
        "electoralDistricts": [
          {
            "election": null,
            "id": 6,
            "name": "Bay of Quinte"
          }
        ],
        "pollDivisionIds": [
          10136973
        ],
        "postalCode": "K8P1V2",
        "streetName": "HARRIETT",
        "streetDirectionId": null,
        "streetTypeId": "ST",
        "placeName": "BELLEVILLE",
        "streetNameDisplayText": "HARRIETT ST, BELLEVILLE"
      }
    ]
  },
  {
    "postal": "K8P1Y0",
    "result": []
  },
  {
    "postal": "K8P3G6",
    "result": [
      {
        "electoralDistricts": [
          {
            "election": null,
            "id": 6,
            "name": "Bay of Quinte"
          }
        ],
        "pollDivisionIds": [
          10136969
        ],
        "postalCode": "K8P3G6",
        "streetName": "JACKSON",
        "streetDirectionId": null,
        "streetTypeId": "AVE",
        "placeName": "BELLEVILLE",
        "streetNameDisplayText": "JACKSON AVE, BELLEVILLE"
      }
    ]
  },
  {
    "postal": "K8P3H7",
    "result": [
      {
        "electoralDistricts": [
          {
            "election": null,
            "id": 6,
            "name": "Bay of Quinte"
          }
        ],
        "pollDivisionIds": [
          10136973
        ],
        "postalCode": "K8P3H7",
        "streetName": "COLEMAN",
        "streetDirectionId": null,
        "streetTypeId": "ST",
        "placeName": "BELLEVILLE",
        "streetNameDisplayText": "COLEMAN ST, BELLEVILLE"
      }
    ]
  },
  {
    "postal": "K8P7X8",
    "result": []
  },
  {
    "postal": "K8P0C7",
    "result": []
  },
  {
    "postal": "K8P0W9",
    "result": []
  },
  {
    "postal": "K8P8E6",
    "result": []
  },
  {
    "postal": "K8P9Z8",
    "result": []
  },
  {
    "postal": "K8P3P4",
    "result": [
      {
        "electoralDistricts": [
          {
            "election": null,
            "id": 6,
            "name": "Bay of Quinte"
          }
        ],
        "pollDivisionIds": [
          10136973
        ],
        "postalCode": "K8P3P4",
        "streetName": "OCTAVIA",
        "streetDirectionId": null,
        "streetTypeId": "ST",
        "placeName": "BELLEVILLE",
        "streetNameDisplayText": "OCTAVIA ST, BELLEVILLE"
      }
    ]
  },
  {
    "postal": "K8P6L8",
    "result": []
  },
  {
    "postal": "K8P2R4",
    "result": [
      {
        "electoralDistricts": [
          {
            "election": null,
            "id": 6,
            "name": "Bay of Quinte"
          }
        ],
        "pollDivisionIds": [
          10136967
        ],
        "postalCode": "K8P2R4",
        "streetName": "MAPLE",
        "streetDirectionId": null,
        "streetTypeId": "DR",
        "placeName": "BELLEVILLE",
        "streetNameDisplayText": "MAPLE DR, BELLEVILLE"
      }
    ]
  },
  {
    "postal": "K8P2W1",
    "result": [
      {
        "electoralDistricts": [
          {
            "election": null,
            "id": 6,
            "name": "Bay of Quinte"
          }
        ],
        "pollDivisionIds": [
          10136970
        ],
        "postalCode": "K8P2W1",
        "streetName": "ST CHARLES",
        "streetDirectionId": null,
        "streetTypeId": "ST",
        "placeName": "BELLEVILLE",
        "streetNameDisplayText": "ST CHARLES ST, BELLEVILLE"
      }
    ]
  },
  {
    "postal": "K8P9H8",
    "result": []
  },
  {
    "postal": "K8P8X9",
    "result": []
  },
  {
    "postal": "K8P7H4",
    "result": []
  },
  {
    "postal": "K8P3J1",
    "result": [
      {
        "electoralDistricts": [
          {
            "election": null,
            "id": 6,
            "name": "Bay of Quinte"
          }
        ],
        "pollDivisionIds": [
          10136973
        ],
        "postalCode": "K8P3J1",
        "streetName": "COLEMAN",
        "streetDirectionId": null,
        "streetTypeId": "ST",
        "placeName": "BELLEVILLE",
        "streetNameDisplayText": "COLEMAN ST, BELLEVILLE"
      }
    ]
  },
  {
    "postal": "K8P1P4",
    "result": [
      {
        "electoralDistricts": [
          {
            "election": null,
            "id": 6,
            "name": "Bay of Quinte"
          }
        ],
        "pollDivisionIds": [
          10136973
        ],
        "postalCode": "K8P1P4",
        "streetName": "GRAHAM",
        "streetDirectionId": null,
        "streetTypeId": "ST",
        "placeName": "BELLEVILLE",
        "streetNameDisplayText": "GRAHAM ST, BELLEVILLE"
      }
    ]
  },
  {
    "postal": "K8P2A3",
    "result": [
      {
        "electoralDistricts": [
          {
            "election": null,
            "id": 6,
            "name": "Bay of Quinte"
          }
        ],
        "pollDivisionIds": [
          10136970
        ],
        "postalCode": "K8P2A3",
        "streetName": "OLIVE",
        "streetDirectionId": null,
        "streetTypeId": "ST",
        "placeName": "BELLEVILLE",
        "streetNameDisplayText": "OLIVE ST, BELLEVILLE"
      }
    ]
  },
  {
    "postal": "K8P0Z1",
    "result": []
  },
  {
    "postal": "K8P1C1",
    "result": []
  },
  {
    "postal": "K8P0H3",
    "result": []
  },
  {
    "postal": "K8P7B0",
    "result": []
  },
  {
    "postal": "K8P5K2",
    "result": [
      {
        "electoralDistricts": [
          {
            "election": null,
            "id": 6,
            "name": "Bay of Quinte"
          }
        ],
        "pollDivisionIds": [
          10136970
        ],
        "postalCode": "K8P5K2",
        "streetName": "OLIVE",
        "streetDirectionId": null,
        "streetTypeId": "ST",
        "placeName": "BELLEVILLE",
        "streetNameDisplayText": "OLIVE ST, BELLEVILLE"
      }
    ]
  },
  {
    "postal": "K8P1E9",
    "result": [
      {
        "electoralDistricts": [
          {
            "election": null,
            "id": 6,
            "name": "Bay of Quinte"
          }
        ],
        "pollDivisionIds": [
          10136972
        ],
        "postalCode": "K8P1E9",
        "streetName": "HUTTON",
        "streetDirectionId": null,
        "streetTypeId": "DR",
        "placeName": "BELLEVILLE",
        "streetNameDisplayText": "HUTTON DR, BELLEVILLE"
      }
    ]
  },
  {
    "postal": "K8P9W7",
    "result": []
  },
  {
    "postal": "K8P5W6",
    "result": []
  },
  {
    "postal": "K8P6S6",
    "result": []
  },
  {
    "postal": "K8P2P8",
    "result": [
      {
        "electoralDistricts": [
          {
            "election": null,
            "id": 6,
            "name": "Bay of Quinte"
          }
        ],
        "pollDivisionIds": [
          10136966
        ],
        "postalCode": "K8P2P8",
        "streetName": "MAPLE",
        "streetDirectionId": null,
        "streetTypeId": "DR",
        "placeName": "BELLEVILLE",
        "streetNameDisplayText": "MAPLE DR, BELLEVILLE"
      }
    ]
  },
  {
    "postal": "K8P4P8",
    "result": [
      {
        "electoralDistricts": [
          {
            "election": null,
            "id": 6,
            "name": "Bay of Quinte"
          }
        ],
        "pollDivisionIds": [
          10136967
        ],
        "postalCode": "K8P4P8",
        "streetName": "CHOWN",
        "streetDirectionId": null,
        "streetTypeId": "CRES",
        "placeName": "BELLEVILLE",
        "streetNameDisplayText": "CHOWN CRES, BELLEVILLE"
      }
    ]
  },
  {
    "postal": "K8P0V9",
    "result": []
  },
  {
    "postal": "K8P5Y2",
    "result": []
  },
  {
    "postal": "K8P7Z7",
    "result": []
  },
  {
    "postal": "K8P6Y8",
    "result": []
  },
  {
    "postal": "K8P2G7",
    "result": [
      {
        "electoralDistricts": [
          {
            "election": null,
            "id": 6,
            "name": "Bay of Quinte"
          }
        ],
        "pollDivisionIds": [
          10136969
        ],
        "postalCode": "K8P2G7",
        "streetName": "COLLEGE",
        "streetDirectionId": "W",
        "streetTypeId": "ST",
        "placeName": "BELLEVILLE",
        "streetNameDisplayText": "COLLEGE ST W, BELLEVILLE"
      }
    ]
  },
  {
    "postal": "K8P8C1",
    "result": []
  },
  {
    "postal": "K8P5C5",
    "result": [
      {
        "electoralDistricts": [
          {
            "election": null,
            "id": 6,
            "name": "Bay of Quinte"
          }
        ],
        "pollDivisionIds": [
          10136967
        ],
        "postalCode": "K8P5C5",
        "streetName": "TRACEY PARK",
        "streetDirectionId": null,
        "streetTypeId": "DR",
        "placeName": "BELLEVILLE",
        "streetNameDisplayText": "TRACEY PARK DR, BELLEVILLE"
      }
    ]
  },
  {
    "postal": "K8P2X8",
    "result": [
      {
        "electoralDistricts": [
          {
            "election": null,
            "id": 6,
            "name": "Bay of Quinte"
          }
        ],
        "pollDivisionIds": [
          10136969
        ],
        "postalCode": "K8P2X8",
        "streetName": "GEDDES",
        "streetDirectionId": null,
        "streetTypeId": "ST",
        "placeName": "BELLEVILLE",
        "streetNameDisplayText": "GEDDES ST, BELLEVILLE"
      }
    ]
  },
  {
    "postal": "K8P1W5",
    "result": [
      {
        "electoralDistricts": [
          {
            "election": null,
            "id": 6,
            "name": "Bay of Quinte"
          }
        ],
        "pollDivisionIds": [
          10136973
        ],
        "postalCode": "K8P1W5",
        "streetName": "STRACHAN",
        "streetDirectionId": null,
        "streetTypeId": "ST",
        "placeName": "BELLEVILLE",
        "streetNameDisplayText": "STRACHAN ST, BELLEVILLE"
      }
    ]
  },
  {
    "postal": "K8P7G0",
    "result": []
  },
  {
    "postal": "K8P8J8",
    "result": []
  },
  {
    "postal": "K8P3Y0",
    "result": []
  },
  {
    "postal": "K8P9T7",
    "result": []
  },
  {
    "postal": "K8P5P4",
    "result": [
      {
        "electoralDistricts": [
          {
            "election": null,
            "id": 6,
            "name": "Bay of Quinte"
          }
        ],
        "pollDivisionIds": [
          10136969
        ],
        "postalCode": "K8P5P4",
        "streetName": "HEARTWOOD",
        "streetDirectionId": null,
        "streetTypeId": "DR",
        "placeName": "BELLEVILLE",
        "streetNameDisplayText": "HEARTWOOD DR, BELLEVILLE"
      }
    ]
  },
  {
    "postal": "K8P4B0",
    "result": []
  },
  {
    "postal": "K8P9N8",
    "result": []
  },
  {
    "postal": "K8P4A7",
    "result": [
      {
        "electoralDistricts": [
          {
            "election": null,
            "id": 6,
            "name": "Bay of Quinte"
          }
        ],
        "pollDivisionIds": [
          10136966
        ],
        "postalCode": "K8P4A7",
        "streetName": "SIDNEY",
        "streetDirectionId": null,
        "streetTypeId": "ST",
        "placeName": "BELLEVILLE",
        "streetNameDisplayText": "SIDNEY ST, BELLEVILLE"
      }
    ]
  },
  {
    "postal": "K8P4H9",
    "result": [
      {
        "electoralDistricts": [
          {
            "election": null,
            "id": 6,
            "name": "Bay of Quinte"
          }
        ],
        "pollDivisionIds": [
          10136966
        ],
        "postalCode": "K8P4H9",
        "streetName": "ADRIAN",
        "streetDirectionId": null,
        "streetTypeId": "ST",
        "placeName": "BELLEVILLE",
        "streetNameDisplayText": "ADRIAN ST, BELLEVILLE"
      }
    ]
  },
  {
    "postal": "K8P6X1",
    "result": []
  },
  {
    "postal": "K8P9Y7",
    "result": []
  },
  {
    "postal": "K8P2Y5",
    "result": [
      {
        "electoralDistricts": [
          {
            "election": null,
            "id": 6,
            "name": "Bay of Quinte"
          }
        ],
        "pollDivisionIds": [
          10136969
        ],
        "postalCode": "K8P2Y5",
        "streetName": "NORTH PARK",
        "streetDirectionId": null,
        "streetTypeId": "ST",
        "placeName": "BELLEVILLE",
        "streetNameDisplayText": "NORTH PARK ST, BELLEVILLE"
      }
    ]
  },
  {
    "postal": "K8P8L7",
    "result": []
  },
  {
    "postal": "K8P2A8",
    "result": [
      {
        "electoralDistricts": [
          {
            "election": null,
            "id": 6,
            "name": "Bay of Quinte"
          }
        ],
        "pollDivisionIds": [
          10136969
        ],
        "postalCode": "K8P2A8",
        "streetName": "EVANS",
        "streetDirectionId": null,
        "streetTypeId": "ST",
        "placeName": "BELLEVILLE",
        "streetNameDisplayText": "EVANS ST, BELLEVILLE"
      }
    ]
  },
  {
    "postal": "K8P2K9",
    "result": [
      {
        "electoralDistricts": [
          {
            "election": null,
            "id": 6,
            "name": "Bay of Quinte"
          }
        ],
        "pollDivisionIds": [
          10136967
        ],
        "postalCode": "K8P2K9",
        "streetName": "ORCHARD",
        "streetDirectionId": null,
        "streetTypeId": "DR",
        "placeName": "BELLEVILLE",
        "streetNameDisplayText": "ORCHARD DR, BELLEVILLE"
      }
    ]
  },
  {
    "postal": "K8P3E5",
    "result": [
      {
        "electoralDistricts": [
          {
            "election": null,
            "id": 6,
            "name": "Bay of Quinte"
          }
        ],
        "pollDivisionIds": [
          10136973
        ],
        "postalCode": "K8P3E5",
        "streetName": "GORDON",
        "streetDirectionId": null,
        "streetTypeId": "ST",
        "placeName": "BELLEVILLE",
        "streetNameDisplayText": "GORDON ST, BELLEVILLE"
      },
      {
        "electoralDistricts": [
          {
            "election": null,
            "id": 6,
            "name": "Bay of Quinte"
          }
        ],
        "pollDivisionIds": [
          10136978
        ],
        "postalCode": "K8P3E5",
        "streetName": "JOHN",
        "streetDirectionId": null,
        "streetTypeId": "ST",
        "placeName": "BELLEVILLE",
        "streetNameDisplayText": "JOHN ST, BELLEVILLE"
      }
    ]
  },
  {
    "postal": "K8P8N6",
    "result": []
  },
  {
    "postal": "K8P8J4",
    "result": []
  },
  {
    "postal": "K8P4R7",
    "result": [
      {
        "electoralDistricts": [
          {
            "election": null,
            "id": 6,
            "name": "Bay of Quinte"
          }
        ],
        "pollDivisionIds": [
          10136970
        ],
        "postalCode": "K8P4R7",
        "streetName": "BALDWIN",
        "streetDirectionId": null,
        "streetTypeId": "ST",
        "placeName": "BELLEVILLE",
        "streetNameDisplayText": "BALDWIN ST, BELLEVILLE"
      }
    ]
  },
  {
    "postal": "K8P9K1",
    "result": []
  },
  {
    "postal": "K8P8E1",
    "result": []
  },
  {
    "postal": "K8P0R1",
    "result": []
  },
  {
    "postal": "K8P4J3",
    "result": [
      {
        "electoralDistricts": [
          {
            "election": null,
            "id": 6,
            "name": "Bay of Quinte"
          }
        ],
        "pollDivisionIds": [
          10136966
        ],
        "postalCode": "K8P4J3",
        "streetName": "POPLAR",
        "streetDirectionId": null,
        "streetTypeId": "ST",
        "placeName": "BELLEVILLE",
        "streetNameDisplayText": "POPLAR ST, BELLEVILLE"
      }
    ]
  },
  {
    "postal": "K8P7E7",
    "result": []
  },
  {
    "postal": "K8P0J0",
    "result": []
  },
  {
    "postal": "K8P7R8",
    "result": []
  },
  {
    "postal": "K8P9X0",
    "result": []
  },
  {
    "postal": "K8P7P6",
    "result": []
  },
  {
    "postal": "K8P0R7",
    "result": []
  },
  {
    "postal": "K8P5W1",
    "result": []
  },
  {
    "postal": "K8P0K4",
    "result": []
  },
  {
    "postal": "K8P7N9",
    "result": []
  },
  {
    "postal": "K8P1N0",
    "result": []
  },
  {
    "postal": "K8P6P3",
    "result": []
  },
  {
    "postal": "K8P5A1",
    "result": []
  },
  {
    "postal": "K8P9M9",
    "result": []
  },
  {
    "postal": "K8P7T6",
    "result": []
  },
  {
    "postal": "K8P3X0",
    "result": []
  },
  {
    "postal": "K8P2T0",
    "result": []
  },
  {
    "postal": "K8P5X9",
    "result": []
  },
  {
    "postal": "K8P2R3",
    "result": [
      {
        "electoralDistricts": [
          {
            "election": null,
            "id": 6,
            "name": "Bay of Quinte"
          }
        ],
        "pollDivisionIds": [
          10136969
        ],
        "postalCode": "K8P2R3",
        "streetName": "MAPLE",
        "streetDirectionId": null,
        "streetTypeId": "DR",
        "placeName": "BELLEVILLE",
        "streetNameDisplayText": "MAPLE DR, BELLEVILLE"
      }
    ]
  },
  {
    "postal": "K8P5N2",
    "result": [
      {
        "electoralDistricts": [
          {
            "election": null,
            "id": 6,
            "name": "Bay of Quinte"
          }
        ],
        "pollDivisionIds": [
          10136972
        ],
        "postalCode": "K8P5N2",
        "streetName": "HILTON",
        "streetDirectionId": null,
        "streetTypeId": "PL",
        "placeName": "BELLEVILLE",
        "streetNameDisplayText": "HILTON PL, BELLEVILLE"
      }
    ]
  },
  {
    "postal": "K8P4Y7",
    "result": [
      {
        "electoralDistricts": [
          {
            "election": null,
            "id": 6,
            "name": "Bay of Quinte"
          }
        ],
        "pollDivisionIds": [
          10136967
        ],
        "postalCode": "K8P4Y7",
        "streetName": "BELL",
        "streetDirectionId": null,
        "streetTypeId": "BLVD",
        "placeName": "BELLEVILLE",
        "streetNameDisplayText": "BELL BLVD, BELLEVILLE"
      }
    ]
  },
  {
    "postal": "K8P7M0",
    "result": []
  },
  {
    "postal": "K8P8P3",
    "result": []
  },
  {
    "postal": "K8P3N3",
    "result": [
      {
        "electoralDistricts": [
          {
            "election": null,
            "id": 6,
            "name": "Bay of Quinte"
          }
        ],
        "pollDivisionIds": [
          10136978
        ],
        "postalCode": "K8P3N3",
        "streetName": "ISABEL",
        "streetDirectionId": null,
        "streetTypeId": "ST",
        "placeName": "BELLEVILLE",
        "streetNameDisplayText": "ISABEL ST, BELLEVILLE"
      }
    ]
  },
  {
    "postal": "K8P7S3",
    "result": []
  },
  {
    "postal": "K8P3V9",
    "result": [
      {
        "electoralDistricts": [
          {
            "election": null,
            "id": 6,
            "name": "Bay of Quinte"
          }
        ],
        "pollDivisionIds": [
          10136971,
          10136973
        ],
        "postalCode": "K8P3V9",
        "streetName": "RITCHIE",
        "streetDirectionId": null,
        "streetTypeId": "AVE",
        "placeName": "BELLEVILLE",
        "streetNameDisplayText": "RITCHIE AVE, BELLEVILLE"
      }
    ]
  },
  {
    "postal": "K8P9N7",
    "result": []
  },
  {
    "postal": "K8P0G4",
    "result": [
      {
        "electoralDistricts": [
          {
            "election": null,
            "id": 6,
            "name": "Bay of Quinte"
          }
        ],
        "pollDivisionIds": [
          10136972
        ],
        "postalCode": "K8P0G4",
        "streetName": "DEACON",
        "streetDirectionId": null,
        "streetTypeId": "PL",
        "placeName": "BELLEVILLE",
        "streetNameDisplayText": "DEACON PL, BELLEVILLE"
      }
    ]
  },
  {
    "postal": "K8P2E2",
    "result": [
      {
        "electoralDistricts": [
          {
            "election": null,
            "id": 6,
            "name": "Bay of Quinte"
          }
        ],
        "pollDivisionIds": [
          10136970
        ],
        "postalCode": "K8P2E2",
        "streetName": "COLLEGE",
        "streetDirectionId": "E",
        "streetTypeId": "ST",
        "placeName": "BELLEVILLE",
        "streetNameDisplayText": "COLLEGE ST E, BELLEVILLE"
      },
      {
        "electoralDistricts": [
          {
            "election": null,
            "id": 6,
            "name": "Bay of Quinte"
          }
        ],
        "pollDivisionIds": [
          10136969
        ],
        "postalCode": "K8P2E2",
        "streetName": "COLLEGE",
        "streetDirectionId": "W",
        "streetTypeId": "ST",
        "placeName": "BELLEVILLE",
        "streetNameDisplayText": "COLLEGE ST W, BELLEVILLE"
      }
    ]
  },
  {
    "postal": "K8P7W8",
    "result": []
  },
  {
    "postal": "K8P7M5",
    "result": []
  },
  {
    "postal": "K8P5W8",
    "result": []
  },
  {
    "postal": "K8P5E5",
    "result": [
      {
        "electoralDistricts": [
          {
            "election": null,
            "id": 6,
            "name": "Bay of Quinte"
          }
        ],
        "pollDivisionIds": [
          10136967
        ],
        "postalCode": "K8P5E5",
        "streetName": "MARCHMONT",
        "streetDirectionId": null,
        "streetTypeId": "PL",
        "placeName": "BELLEVILLE",
        "streetNameDisplayText": "MARCHMONT PL, BELLEVILLE"
      },
      {
        "electoralDistricts": [
          {
            "election": null,
            "id": 6,
            "name": "Bay of Quinte"
          }
        ],
        "pollDivisionIds": [
          10136967
        ],
        "postalCode": "K8P5E5",
        "streetName": "QUEENSBORO",
        "streetDirectionId": null,
        "streetTypeId": "CRT",
        "placeName": "BELLEVILLE",
        "streetNameDisplayText": "QUEENSBORO CRT, BELLEVILLE"
      },
      {
        "electoralDistricts": [
          {
            "election": null,
            "id": 6,
            "name": "Bay of Quinte"
          }
        ],
        "pollDivisionIds": [
          10136967
        ],
        "postalCode": "K8P5E5",
        "streetName": "TRACEY PARK",
        "streetDirectionId": null,
        "streetTypeId": "DR",
        "placeName": "BELLEVILLE",
        "streetNameDisplayText": "TRACEY PARK DR, BELLEVILLE"
      }
    ]
  },
  {
    "postal": "K8P1P9",
    "result": [
      {
        "electoralDistricts": [
          {
            "election": null,
            "id": 6,
            "name": "Bay of Quinte"
          }
        ],
        "pollDivisionIds": [
          10136973
        ],
        "postalCode": "K8P1P9",
        "streetName": "BENJAMIN",
        "streetDirectionId": null,
        "streetTypeId": "ST",
        "placeName": "BELLEVILLE",
        "streetNameDisplayText": "BENJAMIN ST, BELLEVILLE"
      }
    ]
  },
  {
    "postal": "K8P8V8",
    "result": []
  },
  {
    "postal": "K8P9G8",
    "result": []
  },
  {
    "postal": "K8P8H9",
    "result": []
  },
  {
    "postal": "K8P1Z1",
    "result": [
      {
        "electoralDistricts": [
          {
            "election": null,
            "id": 6,
            "name": "Bay of Quinte"
          }
        ],
        "pollDivisionIds": [
          10136973
        ],
        "postalCode": "K8P1Z1",
        "streetName": "PURDY",
        "streetDirectionId": null,
        "streetTypeId": "ST",
        "placeName": "BELLEVILLE",
        "streetNameDisplayText": "PURDY ST, BELLEVILLE"
      }
    ]
  },
  {
    "postal": "K8P8M3",
    "result": []
  },
  {
    "postal": "K8P5H6",
    "result": [
      {
        "electoralDistricts": [
          {
            "election": null,
            "id": 6,
            "name": "Bay of Quinte"
          }
        ],
        "pollDivisionIds": [
          10136967
        ],
        "postalCode": "K8P5H6",
        "streetName": "BELL",
        "streetDirectionId": null,
        "streetTypeId": "BLVD",
        "placeName": "BELLEVILLE",
        "streetNameDisplayText": "BELL BLVD, BELLEVILLE"
      }
    ]
  },
  {
    "postal": "K8P7W7",
    "result": []
  },
  {
    "postal": "K8P4L0",
    "result": []
  },
  {
    "postal": "K8P2N1",
    "result": [
      {
        "electoralDistricts": [
          {
            "election": null,
            "id": 6,
            "name": "Bay of Quinte"
          }
        ],
        "pollDivisionIds": [
          10136966
        ],
        "postalCode": "K8P2N1",
        "streetName": "AUBURN",
        "streetDirectionId": null,
        "streetTypeId": "ST",
        "placeName": "BELLEVILLE",
        "streetNameDisplayText": "AUBURN ST, BELLEVILLE"
      }
    ]
  },
  {
    "postal": "K8P2H4",
    "result": [
      {
        "electoralDistricts": [
          {
            "election": null,
            "id": 6,
            "name": "Bay of Quinte"
          }
        ],
        "pollDivisionIds": [
          10136969
        ],
        "postalCode": "K8P2H4",
        "streetName": "COLLEGE",
        "streetDirectionId": "W",
        "streetTypeId": "ST",
        "placeName": "BELLEVILLE",
        "streetNameDisplayText": "COLLEGE ST W, BELLEVILLE"
      }
    ]
  },
  {
    "postal": "K8P5C8",
    "result": [
      {
        "electoralDistricts": [
          {
            "election": null,
            "id": 6,
            "name": "Bay of Quinte"
          }
        ],
        "pollDivisionIds": [
          10136967
        ],
        "postalCode": "K8P5C8",
        "streetName": "DUNGANNON",
        "streetDirectionId": null,
        "streetTypeId": "DR",
        "placeName": "BELLEVILLE",
        "streetNameDisplayText": "DUNGANNON DR, BELLEVILLE"
      },
      {
        "electoralDistricts": [
          {
            "election": null,
            "id": 6,
            "name": "Bay of Quinte"
          }
        ],
        "pollDivisionIds": [
          10136967
        ],
        "postalCode": "K8P5C8",
        "streetName": "TRACEY PARK",
        "streetDirectionId": null,
        "streetTypeId": "DR",
        "placeName": "BELLEVILLE",
        "streetNameDisplayText": "TRACEY PARK DR, BELLEVILLE"
      }
    ]
  },
  {
    "postal": "K8P8B0",
    "result": []
  },
  {
    "postal": "K8P1T4",
    "result": [
      {
        "electoralDistricts": [
          {
            "election": null,
            "id": 6,
            "name": "Bay of Quinte"
          }
        ],
        "pollDivisionIds": [
          10136973
        ],
        "postalCode": "K8P1T4",
        "streetName": "MOIRA",
        "streetDirectionId": "W",
        "streetTypeId": "ST",
        "placeName": "BELLEVILLE",
        "streetNameDisplayText": "MOIRA ST W, BELLEVILLE"
      }
    ]
  },
  {
    "postal": "K8P7N7",
    "result": []
  },
  {
    "postal": "K8P4L3",
    "result": [
      {
        "electoralDistricts": [
          {
            "election": null,
            "id": 6,
            "name": "Bay of Quinte"
          }
        ],
        "pollDivisionIds": [
          10136966
        ],
        "postalCode": "K8P4L3",
        "streetName": "THORNCLIFFE",
        "streetDirectionId": null,
        "streetTypeId": "DR",
        "placeName": "BELLEVILLE",
        "streetNameDisplayText": "THORNCLIFFE DR, BELLEVILLE"
      }
    ]
  },
  {
    "postal": "K8P2N2",
    "result": [
      {
        "electoralDistricts": [
          {
            "election": null,
            "id": 6,
            "name": "Bay of Quinte"
          }
        ],
        "pollDivisionIds": [
          10136966
        ],
        "postalCode": "K8P2N2",
        "streetName": "AUBURN",
        "streetDirectionId": null,
        "streetTypeId": "ST",
        "placeName": "BELLEVILLE",
        "streetNameDisplayText": "AUBURN ST, BELLEVILLE"
      }
    ]
  },
  {
    "postal": "K8P4N8",
    "result": [
      {
        "electoralDistricts": [
          {
            "election": null,
            "id": 6,
            "name": "Bay of Quinte"
          }
        ],
        "pollDivisionIds": [
          10136969
        ],
        "postalCode": "K8P4N8",
        "streetName": "CONGER",
        "streetDirectionId": null,
        "streetTypeId": "PL",
        "placeName": "BELLEVILLE",
        "streetNameDisplayText": "CONGER PL, BELLEVILLE"
      }
    ]
  },
  {
    "postal": "K8P3M5",
    "result": [
      {
        "electoralDistricts": [
          {
            "election": null,
            "id": 6,
            "name": "Bay of Quinte"
          }
        ],
        "pollDivisionIds": [
          10136973
        ],
        "postalCode": "K8P3M5",
        "streetName": "FAHEY",
        "streetDirectionId": null,
        "streetTypeId": "ST",
        "placeName": "BELLEVILLE",
        "streetNameDisplayText": "FAHEY ST, BELLEVILLE"
      }
    ]
  },
  {
    "postal": "K8P6H7",
    "result": []
  },
  {
    "postal": "K8P8Y8",
    "result": []
  },
  {
    "postal": "K8P5R9",
    "result": []
  },
  {
    "postal": "K8P8G3",
    "result": []
  },
  {
    "postal": "K8P4N7",
    "result": [
      {
        "electoralDistricts": [
          {
            "election": null,
            "id": 6,
            "name": "Bay of Quinte"
          }
        ],
        "pollDivisionIds": [
          10136972
        ],
        "postalCode": "K8P4N7",
        "streetName": "TRIPP",
        "streetDirectionId": null,
        "streetTypeId": "AVE",
        "placeName": "BELLEVILLE",
        "streetNameDisplayText": "TRIPP AVE, BELLEVILLE"
      }
    ]
  },
  {
    "postal": "K8P0B9",
    "result": [
      {
        "electoralDistricts": [
          {
            "election": null,
            "id": 6,
            "name": "Bay of Quinte"
          }
        ],
        "pollDivisionIds": [
          10136972
        ],
        "postalCode": "K8P0B9",
        "streetName": "LAVENDER",
        "streetDirectionId": null,
        "streetTypeId": "PL",
        "placeName": "BELLEVILLE",
        "streetNameDisplayText": "LAVENDER PL, BELLEVILLE"
      }
    ]
  },
  {
    "postal": "K8P9K7",
    "result": []
  },
  {
    "postal": "K8P9K9",
    "result": []
  },
  {
    "postal": "K8P3Z2",
    "result": [
      {
        "electoralDistricts": [
          {
            "election": null,
            "id": 6,
            "name": "Bay of Quinte"
          }
        ],
        "pollDivisionIds": [
          10136973
        ],
        "postalCode": "K8P3Z2",
        "streetName": "SIDNEY",
        "streetDirectionId": null,
        "streetTypeId": "ST",
        "placeName": "BELLEVILLE",
        "streetNameDisplayText": "SIDNEY ST, BELLEVILLE"
      }
    ]
  },
  {
    "postal": "K8P6W7",
    "result": []
  },
  {
    "postal": "K8P0P1",
    "result": []
  },
  {
    "postal": "K8P3A0",
    "result": []
  },
  {
    "postal": "K8P8L9",
    "result": []
  },
  {
    "postal": "K8P6X0",
    "result": []
  },
  {
    "postal": "K8P3E9",
    "result": [
      {
        "electoralDistricts": [
          {
            "election": null,
            "id": 6,
            "name": "Bay of Quinte"
          }
        ],
        "pollDivisionIds": [
          10136969
        ],
        "postalCode": "K8P3E9",
        "streetName": "VALLEYVIEW",
        "streetDirectionId": null,
        "streetTypeId": "CRES",
        "placeName": "BELLEVILLE",
        "streetNameDisplayText": "VALLEYVIEW CRES, BELLEVILLE"
      }
    ]
  },
  {
    "postal": "K8P0S5",
    "result": []
  },
  {
    "postal": "K8P1A2",
    "result": []
  },
  {
    "postal": "K8P5V8",
    "result": [
      {
        "electoralDistricts": [
          {
            "election": null,
            "id": 6,
            "name": "Bay of Quinte"
          }
        ],
        "pollDivisionIds": [
          10136973
        ],
        "postalCode": "K8P5V8",
        "streetName": "LESTER",
        "streetDirectionId": null,
        "streetTypeId": "RD",
        "placeName": "TRENTON (QUINTE WEST)",
        "streetNameDisplayText": "LESTER RD, TRENTON (QUINTE WEST)"
      }
    ]
  },
  {
    "postal": "K8P8C5",
    "result": []
  },
  {
    "postal": "K8P6N0",
    "result": []
  },
  {
    "postal": "K8P9E6",
    "result": []
  },
  {
    "postal": "K8P5J7",
    "result": [
      {
        "electoralDistricts": [
          {
            "election": null,
            "id": 6,
            "name": "Bay of Quinte"
          }
        ],
        "pollDivisionIds": [
          10136972
        ],
        "postalCode": "K8P5J7",
        "streetName": "HARDER",
        "streetDirectionId": null,
        "streetTypeId": "DR",
        "placeName": "BELLEVILLE",
        "streetNameDisplayText": "HARDER DR, BELLEVILLE"
      }
    ]
  },
  {
    "postal": "K8P2R2",
    "result": [
      {
        "electoralDistricts": [
          {
            "election": null,
            "id": 6,
            "name": "Bay of Quinte"
          }
        ],
        "pollDivisionIds": [
          10136967
        ],
        "postalCode": "K8P2R2",
        "streetName": "MAPLE",
        "streetDirectionId": null,
        "streetTypeId": "DR",
        "placeName": "BELLEVILLE",
        "streetNameDisplayText": "MAPLE DR, BELLEVILLE"
      }
    ]
  },
  {
    "postal": "K8P0P5",
    "result": []
  },
  {
    "postal": "K8P5A7",
    "result": [
      {
        "electoralDistricts": [
          {
            "election": null,
            "id": 6,
            "name": "Bay of Quinte"
          }
        ],
        "pollDivisionIds": [
          10136967
        ],
        "postalCode": "K8P5A7",
        "streetName": "NORTH PARK",
        "streetDirectionId": null,
        "streetTypeId": "ST",
        "placeName": "BELLEVILLE",
        "streetNameDisplayText": "NORTH PARK ST, BELLEVILLE"
      }
    ]
  },
  {
    "postal": "K8P1G1",
    "result": [
      {
        "electoralDistricts": [
          {
            "election": null,
            "id": 6,
            "name": "Bay of Quinte"
          }
        ],
        "pollDivisionIds": [
          10136972
        ],
        "postalCode": "K8P1G1",
        "streetName": "HUTTON",
        "streetDirectionId": null,
        "streetTypeId": "DR",
        "placeName": "BELLEVILLE",
        "streetNameDisplayText": "HUTTON DR, BELLEVILLE"
      }
    ]
  },
  {
    "postal": "K8P9R6",
    "result": []
  },
  {
    "postal": "K8P4Z9",
    "result": []
  },
  {
    "postal": "K8P1V5",
    "result": [
      {
        "electoralDistricts": [
          {
            "election": null,
            "id": 6,
            "name": "Bay of Quinte"
          }
        ],
        "pollDivisionIds": [
          10136973
        ],
        "postalCode": "K8P1V5",
        "streetName": "HARRIETT",
        "streetDirectionId": null,
        "streetTypeId": "ST",
        "placeName": "BELLEVILLE",
        "streetNameDisplayText": "HARRIETT ST, BELLEVILLE"
      }
    ]
  },
  {
    "postal": "K8P9Y5",
    "result": []
  },
  {
    "postal": "K8P1P2",
    "result": [
      {
        "electoralDistricts": [
          {
            "election": null,
            "id": 6,
            "name": "Bay of Quinte"
          }
        ],
        "pollDivisionIds": [
          10136973
        ],
        "postalCode": "K8P1P2",
        "streetName": "WILKINS",
        "streetDirectionId": null,
        "streetTypeId": "ST",
        "placeName": "BELLEVILLE",
        "streetNameDisplayText": "WILKINS ST, BELLEVILLE"
      }
    ]
  },
  {
    "postal": "K8P5X0",
    "result": []
  },
  {
    "postal": "K8P7B8",
    "result": []
  },
  {
    "postal": "K8P0C6",
    "result": [
      {
        "electoralDistricts": [
          {
            "election": null,
            "id": 6,
            "name": "Bay of Quinte"
          }
        ],
        "pollDivisionIds": [
          10136972
        ],
        "postalCode": "K8P0C6",
        "streetName": "ALDERSGATE",
        "streetDirectionId": null,
        "streetTypeId": "DR",
        "placeName": "BELLEVILLE",
        "streetNameDisplayText": "ALDERSGATE DR, BELLEVILLE"
      },
      {
        "electoralDistricts": [
          {
            "election": null,
            "id": 6,
            "name": "Bay of Quinte"
          }
        ],
        "pollDivisionIds": [
          10136972
        ],
        "postalCode": "K8P0C6",
        "streetName": "BUTTERNUT",
        "streetDirectionId": null,
        "streetTypeId": "CRT",
        "placeName": "BELLEVILLE",
        "streetNameDisplayText": "BUTTERNUT CRT, BELLEVILLE"
      },
      {
        "electoralDistricts": [
          {
            "election": null,
            "id": 6,
            "name": "Bay of Quinte"
          }
        ],
        "pollDivisionIds": [
          10136972
        ],
        "postalCode": "K8P0C6",
        "streetName": "CHINOOK",
        "streetDirectionId": null,
        "streetTypeId": "ST",
        "placeName": "BELLEVILLE",
        "streetNameDisplayText": "CHINOOK ST, BELLEVILLE"
      },
      {
        "electoralDistricts": [
          {
            "election": null,
            "id": 6,
            "name": "Bay of Quinte"
          }
        ],
        "pollDivisionIds": [
          10136972
        ],
        "postalCode": "K8P0C6",
        "streetName": "GRANITE",
        "streetDirectionId": null,
        "streetTypeId": "DR",
        "placeName": "BELLEVILLE",
        "streetNameDisplayText": "GRANITE DR, BELLEVILLE"
      }
    ]
  },
  {
    "postal": "K8P6G1",
    "result": []
  },
  {
    "postal": "K8P3K3",
    "result": [
      {
        "electoralDistricts": [
          {
            "election": null,
            "id": 6,
            "name": "Bay of Quinte"
          }
        ],
        "pollDivisionIds": [
          10136973
        ],
        "postalCode": "K8P3K3",
        "streetName": "EVERETT",
        "streetDirectionId": null,
        "streetTypeId": "ST",
        "placeName": "BELLEVILLE",
        "streetNameDisplayText": "EVERETT ST, BELLEVILLE"
      }
    ]
  },
  {
    "postal": "K8P9R0",
    "result": []
  },
  {
    "postal": "K8P4R8",
    "result": [
      {
        "electoralDistricts": [
          {
            "election": null,
            "id": 6,
            "name": "Bay of Quinte"
          }
        ],
        "pollDivisionIds": [
          10136966
        ],
        "postalCode": "K8P4R8",
        "streetName": "VILLAGE",
        "streetDirectionId": null,
        "streetTypeId": "DR",
        "placeName": "BELLEVILLE",
        "streetNameDisplayText": "VILLAGE DR, BELLEVILLE"
      }
    ]
  },
  {
    "postal": "K8P5P9",
    "result": []
  },
  {
    "postal": "K8P8N4",
    "result": []
  },
  {
    "postal": "K8P8H4",
    "result": []
  },
  {
    "postal": "K8P4V1",
    "result": [
      {
        "electoralDistricts": [
          {
            "election": null,
            "id": 6,
            "name": "Bay of Quinte"
          }
        ],
        "pollDivisionIds": [
          10136972
        ],
        "postalCode": "K8P4V1",
        "streetName": "HARDER",
        "streetDirectionId": null,
        "streetTypeId": "DR",
        "placeName": "BELLEVILLE",
        "streetNameDisplayText": "HARDER DR, BELLEVILLE"
      }
    ]
  },
  {
    "postal": "K8P1K5",
    "result": [
      {
        "electoralDistricts": [
          {
            "election": null,
            "id": 6,
            "name": "Bay of Quinte"
          }
        ],
        "pollDivisionIds": [
          10136978
        ],
        "postalCode": "K8P1K5",
        "streetName": "JANE",
        "streetDirectionId": null,
        "streetTypeId": "ST",
        "placeName": "BELLEVILLE",
        "streetNameDisplayText": "JANE ST, BELLEVILLE"
      }
    ]
  },
  {
    "postal": "K8P1Z5",
    "result": [
      {
        "electoralDistricts": [
          {
            "election": null,
            "id": 6,
            "name": "Bay of Quinte"
          }
        ],
        "pollDivisionIds": [
          10136973
        ],
        "postalCode": "K8P1Z5",
        "streetName": "WALLBRIDGE",
        "streetDirectionId": null,
        "streetTypeId": "CRES",
        "placeName": "BELLEVILLE",
        "streetNameDisplayText": "WALLBRIDGE CRES, BELLEVILLE"
      }
    ]
  },
  {
    "postal": "K8P9L9",
    "result": []
  },
  {
    "postal": "K8P5L2",
    "result": []
  },
  {
    "postal": "K8P0M2",
    "result": []
  },
  {
    "postal": "K8P1K8",
    "result": [
      {
        "electoralDistricts": [
          {
            "election": null,
            "id": 6,
            "name": "Bay of Quinte"
          }
        ],
        "pollDivisionIds": [
          10136973
        ],
        "postalCode": "K8P1K8",
        "streetName": "CATHARINE",
        "streetDirectionId": null,
        "streetTypeId": "ST",
        "placeName": "BELLEVILLE",
        "streetNameDisplayText": "CATHARINE ST, BELLEVILLE"
      }
    ]
  },
  {
    "postal": "K8P3M7",
    "result": [
      {
        "electoralDistricts": [
          {
            "election": null,
            "id": 6,
            "name": "Bay of Quinte"
          }
        ],
        "pollDivisionIds": [
          10136978
        ],
        "postalCode": "K8P3M7",
        "streetName": "DUNDAS",
        "streetDirectionId": "W",
        "streetTypeId": "ST",
        "placeName": "BELLEVILLE",
        "streetNameDisplayText": "DUNDAS ST W, BELLEVILLE"
      }
    ]
  },
  {
    "postal": "K8P1B2",
    "result": [
      {
        "electoralDistricts": [
          {
            "election": null,
            "id": 6,
            "name": "Bay of Quinte"
          }
        ],
        "pollDivisionIds": [
          10136972
        ],
        "postalCode": "K8P1B2",
        "streetName": "DUNDAS",
        "streetDirectionId": "W",
        "streetTypeId": "ST",
        "placeName": "BELLEVILLE",
        "streetNameDisplayText": "DUNDAS ST W, BELLEVILLE"
      }
    ]
  },
  {
    "postal": "K8P0H9",
    "result": []
  },
  {
    "postal": "K8P8M4",
    "result": []
  },
  {
    "postal": "K8P2M5",
    "result": [
      {
        "electoralDistricts": [
          {
            "election": null,
            "id": 6,
            "name": "Bay of Quinte"
          }
        ],
        "pollDivisionIds": [
          10136967
        ],
        "postalCode": "K8P2M5",
        "streetName": "NORTH PARK",
        "streetDirectionId": null,
        "streetTypeId": "GDNS",
        "placeName": "BELLEVILLE",
        "streetNameDisplayText": "NORTH PARK GDNS, BELLEVILLE"
      }
    ]
  },
  {
    "postal": "K8P0T9",
    "result": []
  },
  {
    "postal": "K8P3P1",
    "result": [
      {
        "electoralDistricts": [
          {
            "election": null,
            "id": 6,
            "name": "Bay of Quinte"
          }
        ],
        "pollDivisionIds": [
          10136978
        ],
        "postalCode": "K8P3P1",
        "streetName": "OCTAVIA",
        "streetDirectionId": null,
        "streetTypeId": "ST",
        "placeName": "BELLEVILLE",
        "streetNameDisplayText": "OCTAVIA ST, BELLEVILLE"
      }
    ]
  },
  {
    "postal": "K8P1R6",
    "result": [
      {
        "electoralDistricts": [
          {
            "election": null,
            "id": 6,
            "name": "Bay of Quinte"
          }
        ],
        "pollDivisionIds": [
          10136973
        ],
        "postalCode": "K8P1R6",
        "streetName": "GREENE",
        "streetDirectionId": null,
        "streetTypeId": "ST",
        "placeName": "BELLEVILLE",
        "streetNameDisplayText": "GREENE ST, BELLEVILLE"
      }
    ]
  },
  {
    "postal": "K8P9V5",
    "result": []
  },
  {
    "postal": "K8P9T0",
    "result": []
  },
  {
    "postal": "K8P0A9",
    "result": [
      {
        "electoralDistricts": [
          {
            "election": null,
            "id": 6,
            "name": "Bay of Quinte"
          }
        ],
        "pollDivisionIds": [
          10137019
        ],
        "postalCode": "K8P0A9",
        "streetName": "COLLEGE",
        "streetDirectionId": "W",
        "streetTypeId": "ST",
        "placeName": "BELLEVILLE",
        "streetNameDisplayText": "COLLEGE ST W, BELLEVILLE"
      }
    ]
  },
  {
    "postal": "K8P1M3",
    "result": [
      {
        "electoralDistricts": [
          {
            "election": null,
            "id": 6,
            "name": "Bay of Quinte"
          }
        ],
        "pollDivisionIds": [
          10136973
        ],
        "postalCode": "K8P1M3",
        "streetName": "CATHARINE",
        "streetDirectionId": null,
        "streetTypeId": "ST",
        "placeName": "BELLEVILLE",
        "streetNameDisplayText": "CATHARINE ST, BELLEVILLE"
      },
      {
        "electoralDistricts": [
          {
            "election": null,
            "id": 6,
            "name": "Bay of Quinte"
          }
        ],
        "pollDivisionIds": [
          10136973
        ],
        "postalCode": "K8P1M3",
        "streetName": "CATHERINE",
        "streetDirectionId": null,
        "streetTypeId": "ST",
        "placeName": "BELLEVILLE",
        "streetNameDisplayText": "CATHERINE ST, BELLEVILLE"
      }
    ]
  },
  {
    "postal": "K8P1W8",
    "result": [
      {
        "electoralDistricts": [
          {
            "election": null,
            "id": 6,
            "name": "Bay of Quinte"
          }
        ],
        "pollDivisionIds": [
          10136973,
          10136970
        ],
        "postalCode": "K8P1W8",
        "streetName": "STRACHAN",
        "streetDirectionId": null,
        "streetTypeId": "ST",
        "placeName": "BELLEVILLE",
        "streetNameDisplayText": "STRACHAN ST, BELLEVILLE"
      }
    ]
  },
  {
    "postal": "K8P9J1",
    "result": []
  },
  {
    "postal": "K8P8N5",
    "result": []
  },
  {
    "postal": "K8P5X1",
    "result": []
  },
  {
    "postal": "K8P6S2",
    "result": []
  },
  {
    "postal": "K8P2A2",
    "result": [
      {
        "electoralDistricts": [
          {
            "election": null,
            "id": 6,
            "name": "Bay of Quinte"
          }
        ],
        "pollDivisionIds": [
          10136970
        ],
        "postalCode": "K8P2A2",
        "streetName": "OLIVE",
        "streetDirectionId": null,
        "streetTypeId": "ST",
        "placeName": "BELLEVILLE",
        "streetNameDisplayText": "OLIVE ST, BELLEVILLE"
      }
    ]
  },
  {
    "postal": "K8P6A6",
    "result": []
  },
  {
    "postal": "K8P0S3",
    "result": []
  },
  {
    "postal": "K8P3E7",
    "result": [
      {
        "electoralDistricts": [
          {
            "election": null,
            "id": 6,
            "name": "Bay of Quinte"
          }
        ],
        "pollDivisionIds": [
          10136973
        ],
        "postalCode": "K8P3E7",
        "streetName": "GORDON",
        "streetDirectionId": null,
        "streetTypeId": "ST",
        "placeName": "BELLEVILLE",
        "streetNameDisplayText": "GORDON ST, BELLEVILLE"
      }
    ]
  },
  {
    "postal": "K8P5R7",
    "result": []
  },
  {
    "postal": "K8P3R6",
    "result": [
      {
        "electoralDistricts": [
          {
            "election": null,
            "id": 6,
            "name": "Bay of Quinte"
          }
        ],
        "pollDivisionIds": [
          10136973
        ],
        "postalCode": "K8P3R6",
        "streetName": "DUNBAR",
        "streetDirectionId": null,
        "streetTypeId": "ST",
        "placeName": "BELLEVILLE",
        "streetNameDisplayText": "DUNBAR ST, BELLEVILLE"
      }
    ]
  },
  {
    "postal": "K8P6K4",
    "result": []
  },
  {
    "postal": "K8P2W5",
    "result": [
      {
        "electoralDistricts": [
          {
            "election": null,
            "id": 6,
            "name": "Bay of Quinte"
          }
        ],
        "pollDivisionIds": [
          10136970
        ],
        "postalCode": "K8P2W5",
        "streetName": "ST CHARLES",
        "streetDirectionId": null,
        "streetTypeId": "ST",
        "placeName": "BELLEVILLE",
        "streetNameDisplayText": "ST CHARLES ST, BELLEVILLE"
      }
    ]
  },
  {
    "postal": "K8P8W4",
    "result": []
  },
  {
    "postal": "K8P9C2",
    "result": []
  },
  {
    "postal": "K8P2C0",
    "result": []
  },
  {
    "postal": "K8P0E1",
    "result": []
  },
  {
    "postal": "K8P1K9",
    "result": []
  },
  {
    "postal": "K8P1G7",
    "result": [
      {
        "electoralDistricts": [
          {
            "election": null,
            "id": 6,
            "name": "Bay of Quinte"
          }
        ],
        "pollDivisionIds": [
          10136972
        ],
        "postalCode": "K8P1G7",
        "streetName": "LELAND",
        "streetDirectionId": null,
        "streetTypeId": "DR",
        "placeName": "BELLEVILLE",
        "streetNameDisplayText": "LELAND DR, BELLEVILLE"
      }
    ]
  },
  {
    "postal": "K8P4E9",
    "result": [
      {
        "electoralDistricts": [
          {
            "election": null,
            "id": 6,
            "name": "Bay of Quinte"
          }
        ],
        "pollDivisionIds": [
          10136972
        ],
        "postalCode": "K8P4E9",
        "streetName": "GLEN",
        "streetDirectionId": null,
        "streetTypeId": "RD",
        "placeName": "BELLEVILLE",
        "streetNameDisplayText": "GLEN RD, BELLEVILLE"
      }
    ]
  },
  {
    "postal": "K8P9P0",
    "result": []
  },
  {
    "postal": "K8P5H3",
    "result": [
      {
        "electoralDistricts": [
          {
            "election": null,
            "id": 6,
            "name": "Bay of Quinte"
          }
        ],
        "pollDivisionIds": [
          10136967
        ],
        "postalCode": "K8P5H3",
        "streetName": "BELL",
        "streetDirectionId": null,
        "streetTypeId": "BLVD",
        "placeName": "BELLEVILLE",
        "streetNameDisplayText": "BELL BLVD, BELLEVILLE"
      }
    ]
  },
  {
    "postal": "K8P9X6",
    "result": []
  },
  {
    "postal": "K8P5N7",
    "result": [
      {
        "electoralDistricts": [
          {
            "election": null,
            "id": 6,
            "name": "Bay of Quinte"
          }
        ],
        "pollDivisionIds": [
          10136967
        ],
        "postalCode": "K8P5N7",
        "streetName": "LEMOINE",
        "streetDirectionId": null,
        "streetTypeId": "ST",
        "placeName": "BELLEVILLE",
        "streetNameDisplayText": "LEMOINE ST, BELLEVILLE"
      }
    ]
  },
  {
    "postal": "K8P5A6",
    "result": [
      {
        "electoralDistricts": [
          {
            "election": null,
            "id": 6,
            "name": "Bay of Quinte"
          }
        ],
        "pollDivisionIds": [
          10136967
        ],
        "postalCode": "K8P5A6",
        "streetName": "NORTH PARK",
        "streetDirectionId": null,
        "streetTypeId": "ST",
        "placeName": "BELLEVILLE",
        "streetNameDisplayText": "NORTH PARK ST, BELLEVILLE"
      }
    ]
  },
  {
    "postal": "K8P4M0",
    "result": []
  },
  {
    "postal": "K8P3V6",
    "result": [
      {
        "electoralDistricts": [
          {
            "election": null,
            "id": 6,
            "name": "Bay of Quinte"
          }
        ],
        "pollDivisionIds": [
          10136969
        ],
        "postalCode": "K8P3V6",
        "streetName": "FRANK",
        "streetDirectionId": null,
        "streetTypeId": "ST",
        "placeName": "BELLEVILLE",
        "streetNameDisplayText": "FRANK ST, BELLEVILLE"
      }
    ]
  },
  {
    "postal": "K8P1L7",
    "result": [
      {
        "electoralDistricts": [
          {
            "election": null,
            "id": 6,
            "name": "Bay of Quinte"
          }
        ],
        "pollDivisionIds": [
          10136973
        ],
        "postalCode": "K8P1L7",
        "streetName": "CATHARINE",
        "streetDirectionId": null,
        "streetTypeId": "ST",
        "placeName": "BELLEVILLE",
        "streetNameDisplayText": "CATHARINE ST, BELLEVILLE"
      }
    ]
  },
  {
    "postal": "K8P2P9",
    "result": [
      {
        "electoralDistricts": [
          {
            "election": null,
            "id": 6,
            "name": "Bay of Quinte"
          }
        ],
        "pollDivisionIds": [
          10136966
        ],
        "postalCode": "K8P2P9",
        "streetName": "MAPLE",
        "streetDirectionId": null,
        "streetTypeId": "DR",
        "placeName": "BELLEVILLE",
        "streetNameDisplayText": "MAPLE DR, BELLEVILLE"
      }
    ]
  },
  {
    "postal": "K8P5T4",
    "result": []
  },
  {
    "postal": "K8P5Z1",
    "result": []
  },
  {
    "postal": "K8P2X0",
    "result": []
  },
  {
    "postal": "K8P6Z2",
    "result": []
  },
  {
    "postal": "K8P0E0",
    "result": []
  },
  {
    "postal": "K8P3Z5",
    "result": [
      {
        "electoralDistricts": [
          {
            "election": null,
            "id": 6,
            "name": "Bay of Quinte"
          }
        ],
        "pollDivisionIds": [
          10136973
        ],
        "postalCode": "K8P3Z5",
        "streetName": "SIDNEY",
        "streetDirectionId": null,
        "streetTypeId": "ST",
        "placeName": "BELLEVILLE",
        "streetNameDisplayText": "SIDNEY ST, BELLEVILLE"
      }
    ]
  },
  {
    "postal": "K8P8H3",
    "result": []
  },
  {
    "postal": "K8P7S6",
    "result": []
  },
  {
    "postal": "K8P4C1",
    "result": [
      {
        "electoralDistricts": [
          {
            "election": null,
            "id": 6,
            "name": "Bay of Quinte"
          }
        ],
        "pollDivisionIds": [
          10136972
        ],
        "postalCode": "K8P4C1",
        "streetName": "NISBET",
        "streetDirectionId": null,
        "streetTypeId": "AVE",
        "placeName": "BELLEVILLE",
        "streetNameDisplayText": "NISBET AVE, BELLEVILLE"
      }
    ]
  },
  {
    "postal": "K8P3K2",
    "result": [
      {
        "electoralDistricts": [
          {
            "election": null,
            "id": 6,
            "name": "Bay of Quinte"
          }
        ],
        "pollDivisionIds": [
          10137021,
          10136973
        ],
        "postalCode": "K8P3K2",
        "streetName": "EVERETT",
        "streetDirectionId": null,
        "streetTypeId": "ST",
        "placeName": "BELLEVILLE",
        "streetNameDisplayText": "EVERETT ST, BELLEVILLE"
      }
    ]
  },
  {
    "postal": "K8P1Y5",
    "result": [
      {
        "electoralDistricts": [
          {
            "election": null,
            "id": 6,
            "name": "Bay of Quinte"
          }
        ],
        "pollDivisionIds": [
          10136973
        ],
        "postalCode": "K8P1Y5",
        "streetName": "RIDLEY",
        "streetDirectionId": "W",
        "streetTypeId": "ST",
        "placeName": "BELLEVILLE",
        "streetNameDisplayText": "RIDLEY ST W, BELLEVILLE"
      }
    ]
  },
  {
    "postal": "K8P6P6",
    "result": []
  },
  {
    "postal": "K8P3N9",
    "result": [
      {
        "electoralDistricts": [
          {
            "election": null,
            "id": 6,
            "name": "Bay of Quinte"
          }
        ],
        "pollDivisionIds": [
          10136973
        ],
        "postalCode": "K8P3N9",
        "streetName": "OCTAVIA",
        "streetDirectionId": null,
        "streetTypeId": "ST",
        "placeName": "BELLEVILLE",
        "streetNameDisplayText": "OCTAVIA ST, BELLEVILLE"
      }
    ]
  },
  {
    "postal": "K8P3W2",
    "result": [
      {
        "electoralDistricts": [
          {
            "election": null,
            "id": 6,
            "name": "Bay of Quinte"
          }
        ],
        "pollDivisionIds": [
          10136973
        ],
        "postalCode": "K8P3W2",
        "streetName": "RITCHIE",
        "streetDirectionId": null,
        "streetTypeId": "AVE",
        "placeName": "BELLEVILLE",
        "streetNameDisplayText": "RITCHIE AVE, BELLEVILLE"
      }
    ]
  },
  {
    "postal": "K8P6H8",
    "result": []
  },
  {
    "postal": "K8P9T3",
    "result": []
  },
  {
    "postal": "K8P5L9",
    "result": [
      {
        "electoralDistricts": [
          {
            "election": null,
            "id": 6,
            "name": "Bay of Quinte"
          }
        ],
        "pollDivisionIds": [
          10136969
        ],
        "postalCode": "K8P5L9",
        "streetName": "HEARTWOOD",
        "streetDirectionId": null,
        "streetTypeId": "DR",
        "placeName": "BELLEVILLE",
        "streetNameDisplayText": "HEARTWOOD DR, BELLEVILLE"
      }
    ]
  },
  {
    "postal": "K8P7X7",
    "result": []
  },
  {
    "postal": "K8P3J5",
    "result": [
      {
        "electoralDistricts": [
          {
            "election": null,
            "id": 6,
            "name": "Bay of Quinte"
          }
        ],
        "pollDivisionIds": [
          10136973
        ],
        "postalCode": "K8P3J5",
        "streetName": "COLEMAN",
        "streetDirectionId": null,
        "streetTypeId": "ST",
        "placeName": "BELLEVILLE",
        "streetNameDisplayText": "COLEMAN ST, BELLEVILLE"
      }
    ]
  },
  {
    "postal": "K8P4J5",
    "result": [
      {
        "electoralDistricts": [
          {
            "election": null,
            "id": 6,
            "name": "Bay of Quinte"
          }
        ],
        "pollDivisionIds": [
          10136966
        ],
        "postalCode": "K8P4J5",
        "streetName": "BIRCH",
        "streetDirectionId": null,
        "streetTypeId": "ST",
        "placeName": "BELLEVILLE",
        "streetNameDisplayText": "BIRCH ST, BELLEVILLE"
      }
    ]
  },
  {
    "postal": "K8P6J2",
    "result": []
  },
  {
    "postal": "K8P5V6",
    "result": []
  },
  {
    "postal": "K8P3N2",
    "result": [
      {
        "electoralDistricts": [
          {
            "election": null,
            "id": 6,
            "name": "Bay of Quinte"
          }
        ],
        "pollDivisionIds": [
          10136978
        ],
        "postalCode": "K8P3N2",
        "streetName": "MARY",
        "streetDirectionId": null,
        "streetTypeId": "ST",
        "placeName": "BELLEVILLE",
        "streetNameDisplayText": "MARY ST, BELLEVILLE"
      }
    ]
  },
  {
    "postal": "K8P3B1",
    "result": [
      {
        "electoralDistricts": [
          {
            "election": null,
            "id": 6,
            "name": "Bay of Quinte"
          }
        ],
        "pollDivisionIds": [
          10136973
        ],
        "postalCode": "K8P3B1",
        "streetName": "NORTH FRONT",
        "streetDirectionId": null,
        "streetTypeId": "ST",
        "placeName": "BELLEVILLE",
        "streetNameDisplayText": "NORTH FRONT ST, BELLEVILLE"
      }
    ]
  },
  {
    "postal": "K8P8B5",
    "result": []
  },
  {
    "postal": "K8P0K1",
    "result": []
  },
  {
    "postal": "K8P7M7",
    "result": []
  },
  {
    "postal": "K8P2M2",
    "result": [
      {
        "electoralDistricts": [
          {
            "election": null,
            "id": 6,
            "name": "Bay of Quinte"
          }
        ],
        "pollDivisionIds": [
          10136967
        ],
        "postalCode": "K8P2M2",
        "streetName": "NORTH PARK",
        "streetDirectionId": null,
        "streetTypeId": "GDNS",
        "placeName": "BELLEVILLE",
        "streetNameDisplayText": "NORTH PARK GDNS, BELLEVILLE"
      }
    ]
  },
  {
    "postal": "K8P9N3",
    "result": []
  },
  {
    "postal": "K8P4Y8",
    "result": [
      {
        "electoralDistricts": [
          {
            "election": null,
            "id": 6,
            "name": "Bay of Quinte"
          }
        ],
        "pollDivisionIds": [
          10136974
        ],
        "postalCode": "K8P4Y8",
        "streetName": "FRONT",
        "streetDirectionId": null,
        "streetTypeId": "ST",
        "placeName": "BELLEVILLE",
        "streetNameDisplayText": "FRONT ST, BELLEVILLE"
      },
      {
        "electoralDistricts": [
          {
            "election": null,
            "id": 6,
            "name": "Bay of Quinte"
          }
        ],
        "pollDivisionIds": [
          10137020
        ],
        "postalCode": "K8P4Y8",
        "streetName": "NORTH FRONT",
        "streetDirectionId": null,
        "streetTypeId": "ST",
        "placeName": "BELLEVILLE",
        "streetNameDisplayText": "NORTH FRONT ST, BELLEVILLE"
      }
    ]
  },
  {
    "postal": "K8P3V7",
    "result": [
      {
        "electoralDistricts": [
          {
            "election": null,
            "id": 6,
            "name": "Bay of Quinte"
          }
        ],
        "pollDivisionIds": [
          10136969
        ],
        "postalCode": "K8P3V7",
        "streetName": "FRANK",
        "streetDirectionId": null,
        "streetTypeId": "ST",
        "placeName": "BELLEVILLE",
        "streetNameDisplayText": "FRANK ST, BELLEVILLE"
      }
    ]
  },
  {
    "postal": "K8P8Z1",
    "result": []
  },
  {
    "postal": "K8P7B3",
    "result": []
  },
  {
    "postal": "K8P3A8",
    "result": []
  },
  {
    "postal": "K8P7V5",
    "result": []
  },
  {
    "postal": "K8P2T2",
    "result": [
      {
        "electoralDistricts": [
          {
            "election": null,
            "id": 6,
            "name": "Bay of Quinte"
          }
        ],
        "pollDivisionIds": [
          10136970
        ],
        "postalCode": "K8P2T2",
        "streetName": "ELVINS",
        "streetDirectionId": null,
        "streetTypeId": "GDNS",
        "placeName": "BELLEVILLE",
        "streetNameDisplayText": "ELVINS GDNS, BELLEVILLE"
      }
    ]
  },
  {
    "postal": "K8P6L3",
    "result": []
  },
  {
    "postal": "K8P0L2",
    "result": []
  },
  {
    "postal": "K8P5Y8",
    "result": []
  },
  {
    "postal": "K8P0B8",
    "result": [
      {
        "electoralDistricts": [
          {
            "election": null,
            "id": 6,
            "name": "Bay of Quinte"
          }
        ],
        "pollDivisionIds": [
          10136972
        ],
        "postalCode": "K8P0B8",
        "streetName": "COBBLESTONE",
        "streetDirectionId": null,
        "streetTypeId": "ST",
        "placeName": "BELLEVILLE",
        "streetNameDisplayText": "COBBLESTONE ST, BELLEVILLE"
      }
    ]
  },
  {
    "postal": "K8P6R5",
    "result": []
  },
  {
    "postal": "K8P8W6",
    "result": []
  },
  {
    "postal": "K8P8G6",
    "result": []
  },
  {
    "postal": "K8P6X3",
    "result": []
  },
  {
    "postal": "K8P7R7",
    "result": []
  },
  {
    "postal": "K8P4B6",
    "result": [
      {
        "electoralDistricts": [
          {
            "election": null,
            "id": 6,
            "name": "Bay of Quinte"
          }
        ],
        "pollDivisionIds": [
          10136972
        ],
        "postalCode": "K8P4B6",
        "streetName": "KELLER",
        "streetDirectionId": null,
        "streetTypeId": "DR",
        "placeName": "BELLEVILLE",
        "streetNameDisplayText": "KELLER DR, BELLEVILLE"
      }
    ]
  },
  {
    "postal": "K8P3P9",
    "result": [
      {
        "electoralDistricts": [
          {
            "election": null,
            "id": 6,
            "name": "Bay of Quinte"
          }
        ],
        "pollDivisionIds": [
          10136978
        ],
        "postalCode": "K8P3P9",
        "streetName": "HIGHLAND",
        "streetDirectionId": null,
        "streetTypeId": "AVE",
        "placeName": "BELLEVILLE",
        "streetNameDisplayText": "HIGHLAND AVE, BELLEVILLE"
      }
    ]
  },
  {
    "postal": "K8P2T3",
    "result": [
      {
        "electoralDistricts": [
          {
            "election": null,
            "id": 6,
            "name": "Bay of Quinte"
          }
        ],
        "pollDivisionIds": [
          10136970
        ],
        "postalCode": "K8P2T3",
        "streetName": "ELVINS",
        "streetDirectionId": null,
        "streetTypeId": "GDNS",
        "placeName": "BELLEVILLE",
        "streetNameDisplayText": "ELVINS GDNS, BELLEVILLE"
      }
    ]
  },
  {
    "postal": "K8P1M4",
    "result": [
      {
        "electoralDistricts": [
          {
            "election": null,
            "id": 6,
            "name": "Bay of Quinte"
          }
        ],
        "pollDivisionIds": [
          10136973
        ],
        "postalCode": "K8P1M4",
        "streetName": "CATHARINE",
        "streetDirectionId": null,
        "streetTypeId": "ST",
        "placeName": "BELLEVILLE",
        "streetNameDisplayText": "CATHARINE ST, BELLEVILLE"
      }
    ]
  },
  {
    "postal": "K8P0H1",
    "result": []
  },
  {
    "postal": "K8P9W3",
    "result": []
  },
  {
    "postal": "K8P6P1",
    "result": []
  },
  {
    "postal": "K8P7G2",
    "result": []
  },
  {
    "postal": "K8P4J9",
    "result": [
      {
        "electoralDistricts": [
          {
            "election": null,
            "id": 6,
            "name": "Bay of Quinte"
          }
        ],
        "pollDivisionIds": [
          10136969
        ],
        "postalCode": "K8P4J9",
        "streetName": "VILLAGE",
        "streetDirectionId": null,
        "streetTypeId": "DR",
        "placeName": "BELLEVILLE",
        "streetNameDisplayText": "VILLAGE DR, BELLEVILLE"
      }
    ]
  },
  {
    "postal": "K8P9E4",
    "result": []
  },
  {
    "postal": "K8P8H0",
    "result": []
  },
  {
    "postal": "K8P4M7",
    "result": [
      {
        "electoralDistricts": [
          {
            "election": null,
            "id": 6,
            "name": "Bay of Quinte"
          }
        ],
        "pollDivisionIds": [
          10136972
        ],
        "postalCode": "K8P4M7",
        "streetName": "DUNNETT",
        "streetDirectionId": null,
        "streetTypeId": "BLVD",
        "placeName": "BELLEVILLE",
        "streetNameDisplayText": "DUNNETT BLVD, BELLEVILLE"
      }
    ]
  },
  {
    "postal": "K8P2G9",
    "result": [
      {
        "electoralDistricts": [
          {
            "election": null,
            "id": 6,
            "name": "Bay of Quinte"
          }
        ],
        "pollDivisionIds": [
          10136969
        ],
        "postalCode": "K8P2G9",
        "streetName": "COLLEGE",
        "streetDirectionId": "W",
        "streetTypeId": "ST",
        "placeName": "BELLEVILLE",
        "streetNameDisplayText": "COLLEGE ST W, BELLEVILLE"
      }
    ]
  },
  {
    "postal": "K8P8T2",
    "result": []
  },
  {
    "postal": "K8P7G7",
    "result": []
  },
  {
    "postal": "K8P4Z3",
    "result": [
      {
        "electoralDistricts": [
          {
            "election": null,
            "id": 6,
            "name": "Bay of Quinte"
          }
        ],
        "pollDivisionIds": [
          10136969
        ],
        "postalCode": "K8P4Z3",
        "streetName": "PROGRESS",
        "streetDirectionId": null,
        "streetTypeId": "AVE",
        "placeName": "BELLEVILLE",
        "streetNameDisplayText": "PROGRESS AVE, BELLEVILLE"
      }
    ]
  },
  {
    "postal": "K8P5B3",
    "result": [
      {
        "electoralDistricts": [
          {
            "election": null,
            "id": 6,
            "name": "Bay of Quinte"
          }
        ],
        "pollDivisionIds": [
          10136969
        ],
        "postalCode": "K8P5B3",
        "streetName": "MORRIS",
        "streetDirectionId": null,
        "streetTypeId": "DR",
        "placeName": "BELLEVILLE",
        "streetNameDisplayText": "MORRIS DR, BELLEVILLE"
      }
    ]
  },
  {
    "postal": "K8P1S7",
    "result": [
      {
        "electoralDistricts": [
          {
            "election": null,
            "id": 6,
            "name": "Bay of Quinte"
          }
        ],
        "pollDivisionIds": [
          10136973
        ],
        "postalCode": "K8P1S7",
        "streetName": "MOIRA",
        "streetDirectionId": "W",
        "streetTypeId": "ST",
        "placeName": "BELLEVILLE",
        "streetNameDisplayText": "MOIRA ST W, BELLEVILLE"
      }
    ]
  },
  {
    "postal": "K8P2N7",
    "result": [
      {
        "electoralDistricts": [
          {
            "election": null,
            "id": 6,
            "name": "Bay of Quinte"
          }
        ],
        "pollDivisionIds": [
          10136966
        ],
        "postalCode": "K8P2N7",
        "streetName": "STAVEBANK",
        "streetDirectionId": null,
        "streetTypeId": "RD",
        "placeName": "BELLEVILLE",
        "streetNameDisplayText": "STAVEBANK RD, BELLEVILLE"
      }
    ]
  },
  {
    "postal": "K8P0H8",
    "result": []
  },
  {
    "postal": "K8P7Z4",
    "result": []
  },
  {
    "postal": "K8P7B1",
    "result": []
  },
  {
    "postal": "K8P7P8",
    "result": []
  },
  {
    "postal": "K8P7N0",
    "result": []
  },
  {
    "postal": "K8P3Y5",
    "result": [
      {
        "electoralDistricts": [
          {
            "election": null,
            "id": 6,
            "name": "Bay of Quinte"
          }
        ],
        "pollDivisionIds": [
          10136973
        ],
        "postalCode": "K8P3Y5",
        "streetName": "YEOMANS",
        "streetDirectionId": null,
        "streetTypeId": "ST",
        "placeName": "BELLEVILLE",
        "streetNameDisplayText": "YEOMANS ST, BELLEVILLE"
      }
    ]
  },
  {
    "postal": "K8P6K1",
    "result": []
  },
  {
    "postal": "K8P9X5",
    "result": []
  },
  {
    "postal": "K8P7S5",
    "result": []
  },
  {
    "postal": "K8P0A4",
    "result": [
      {
        "electoralDistricts": [
          {
            "election": null,
            "id": 6,
            "name": "Bay of Quinte"
          }
        ],
        "pollDivisionIds": [
          10136972
        ],
        "postalCode": "K8P0A4",
        "streetName": "AVONDALE",
        "streetDirectionId": null,
        "streetTypeId": "RD",
        "placeName": "BELLEVILLE",
        "streetNameDisplayText": "AVONDALE RD, BELLEVILLE"
      }
    ]
  },
  {
    "postal": "K8P4T5",
    "result": []
  },
  {
    "postal": "K8P5K1",
    "result": [
      {
        "electoralDistricts": [
          {
            "election": null,
            "id": 6,
            "name": "Bay of Quinte"
          }
        ],
        "pollDivisionIds": [
          10136966
        ],
        "postalCode": "K8P5K1",
        "streetName": "GLENDALE",
        "streetDirectionId": null,
        "streetTypeId": "RD",
        "placeName": "BELLEVILLE",
        "streetNameDisplayText": "GLENDALE RD, BELLEVILLE"
      }
    ]
  },
  {
    "postal": "K8P0Z9",
    "result": []
  },
  {
    "postal": "K8P7T2",
    "result": []
  },
  {
    "postal": "K8P1L5",
    "result": [
      {
        "electoralDistricts": [
          {
            "election": null,
            "id": 6,
            "name": "Bay of Quinte"
          }
        ],
        "pollDivisionIds": [
          10136973
        ],
        "postalCode": "K8P1L5",
        "streetName": "CATHARINE",
        "streetDirectionId": null,
        "streetTypeId": "ST",
        "placeName": "BELLEVILLE",
        "streetNameDisplayText": "CATHARINE ST, BELLEVILLE"
      }
    ]
  },
  {
    "postal": "K8P3N5",
    "result": [
      {
        "electoralDistricts": [
          {
            "election": null,
            "id": 6,
            "name": "Bay of Quinte"
          }
        ],
        "pollDivisionIds": [
          10136973
        ],
        "postalCode": "K8P3N5",
        "streetName": "MURNEY",
        "streetDirectionId": null,
        "streetTypeId": "ST",
        "placeName": "BELLEVILLE",
        "streetNameDisplayText": "MURNEY ST, BELLEVILLE"
      }
    ]
  },
  {
    "postal": "K8P6H4",
    "result": []
  },
  {
    "postal": "K8P5A5",
    "result": []
  },
  {
    "postal": "K8P3R9",
    "result": [
      {
        "electoralDistricts": [
          {
            "election": null,
            "id": 6,
            "name": "Bay of Quinte"
          }
        ],
        "pollDivisionIds": [
          10136973
        ],
        "postalCode": "K8P3R9",
        "streetName": "HILLSIDE",
        "streetDirectionId": null,
        "streetTypeId": "ST",
        "placeName": "BELLEVILLE",
        "streetNameDisplayText": "HILLSIDE ST, BELLEVILLE"
      }
    ]
  },
  {
    "postal": "K8P7L8",
    "result": []
  },
  {
    "postal": "K8P6T6",
    "result": []
  },
  {
    "postal": "K8P7Y7",
    "result": []
  },
  {
    "postal": "K8P3M8",
    "result": []
  },
  {
    "postal": "K8P2E0",
    "result": []
  },
  {
    "postal": "K8P4B5",
    "result": [
      {
        "electoralDistricts": [
          {
            "election": null,
            "id": 6,
            "name": "Bay of Quinte"
          }
        ],
        "pollDivisionIds": [
          10136972
        ],
        "postalCode": "K8P4B5",
        "streetName": "KELLER",
        "streetDirectionId": null,
        "streetTypeId": "DR",
        "placeName": "BELLEVILLE",
        "streetNameDisplayText": "KELLER DR, BELLEVILLE"
      }
    ]
  },
  {
    "postal": "K8P1J3",
    "result": [
      {
        "electoralDistricts": [
          {
            "election": null,
            "id": 6,
            "name": "Bay of Quinte"
          }
        ],
        "pollDivisionIds": [
          10136978
        ],
        "postalCode": "K8P1J3",
        "streetName": "BRIDGE",
        "streetDirectionId": "W",
        "streetTypeId": "ST",
        "placeName": "BELLEVILLE",
        "streetNameDisplayText": "BRIDGE ST W, BELLEVILLE"
      }
    ]
  },
  {
    "postal": "K8P5S6",
    "result": []
  },
  {
    "postal": "K8P8P7",
    "result": []
  },
  {
    "postal": "K8P7S7",
    "result": []
  },
  {
    "postal": "K8P4C2",
    "result": [
      {
        "electoralDistricts": [
          {
            "election": null,
            "id": 6,
            "name": "Bay of Quinte"
          }
        ],
        "pollDivisionIds": [
          10136972
        ],
        "postalCode": "K8P4C2",
        "streetName": "ROBERTSON",
        "streetDirectionId": null,
        "streetTypeId": "LANE",
        "placeName": "BELLEVILLE",
        "streetNameDisplayText": "ROBERTSON LANE, BELLEVILLE"
      }
    ]
  },
  {
    "postal": "K8P5Y0",
    "result": []
  },
  {
    "postal": "K8P2V7",
    "result": [
      {
        "electoralDistricts": [
          {
            "election": null,
            "id": 6,
            "name": "Bay of Quinte"
          }
        ],
        "pollDivisionIds": [
          10136970
        ],
        "postalCode": "K8P2V7",
        "streetName": "ST CHARLES",
        "streetDirectionId": null,
        "streetTypeId": "ST",
        "placeName": "BELLEVILLE",
        "streetNameDisplayText": "ST CHARLES ST, BELLEVILLE"
      }
    ]
  },
  {
    "postal": "K8P8P5",
    "result": []
  },
  {
    "postal": "K8P5P5",
    "result": []
  },
  {
    "postal": "K8P5Z0",
    "result": []
  },
  {
    "postal": "K8P9B0",
    "result": []
  },
  {
    "postal": "K8P1L0",
    "result": []
  },
  {
    "postal": "K8P0B5",
    "result": [
      {
        "electoralDistricts": [
          {
            "election": null,
            "id": 6,
            "name": "Bay of Quinte"
          }
        ],
        "pollDivisionIds": [
          10136972
        ],
        "postalCode": "K8P0B5",
        "streetName": "AMBER",
        "streetDirectionId": null,
        "streetTypeId": "PL",
        "placeName": "BELLEVILLE",
        "streetNameDisplayText": "AMBER PL, BELLEVILLE"
      }
    ]
  },
  {
    "postal": "K8P3L2",
    "result": []
  },
  {
    "postal": "K8P3B7",
    "result": [
      {
        "electoralDistricts": [
          {
            "election": null,
            "id": 6,
            "name": "Bay of Quinte"
          }
        ],
        "pollDivisionIds": [
          10136970
        ],
        "postalCode": "K8P3B7",
        "streetName": "NORTH FRONT",
        "streetDirectionId": null,
        "streetTypeId": "ST",
        "placeName": "BELLEVILLE",
        "streetNameDisplayText": "NORTH FRONT ST, BELLEVILLE"
      }
    ]
  },
  {
    "postal": "K8P8L1",
    "result": []
  },
  {
    "postal": "K8P5M4",
    "result": [
      {
        "electoralDistricts": [
          {
            "election": null,
            "id": 6,
            "name": "Bay of Quinte"
          }
        ],
        "pollDivisionIds": [
          10136969
        ],
        "postalCode": "K8P5M4",
        "streetName": "HAWTHORN",
        "streetDirectionId": null,
        "streetTypeId": "ST",
        "placeName": "BELLEVILLE",
        "streetNameDisplayText": "HAWTHORN ST, BELLEVILLE"
      },
      {
        "electoralDistricts": [
          {
            "election": null,
            "id": 6,
            "name": "Bay of Quinte"
          }
        ],
        "pollDivisionIds": [
          10136969
        ],
        "postalCode": "K8P5M4",
        "streetName": "HAZEL",
        "streetDirectionId": null,
        "streetTypeId": "CRT",
        "placeName": "BELLEVILLE",
        "streetNameDisplayText": "HAZEL CRT, BELLEVILLE"
      },
      {
        "electoralDistricts": [
          {
            "election": null,
            "id": 6,
            "name": "Bay of Quinte"
          }
        ],
        "pollDivisionIds": [
          10136969
        ],
        "postalCode": "K8P5M4",
        "streetName": "HEARTWOOD",
        "streetDirectionId": null,
        "streetTypeId": "DR",
        "placeName": "BELLEVILLE",
        "streetNameDisplayText": "HEARTWOOD DR, BELLEVILLE"
      }
    ]
  },
  {
    "postal": "K8P4G9",
    "result": [
      {
        "electoralDistricts": [
          {
            "election": null,
            "id": 6,
            "name": "Bay of Quinte"
          }
        ],
        "pollDivisionIds": [
          10136966
        ],
        "postalCode": "K8P4G9",
        "streetName": "LEMOINE",
        "streetDirectionId": null,
        "streetTypeId": "ST",
        "placeName": "BELLEVILLE",
        "streetNameDisplayText": "LEMOINE ST, BELLEVILLE"
      }
    ]
  },
  {
    "postal": "K8P0P0",
    "result": []
  },
  {
    "postal": "K8P8G2",
    "result": []
  },
  {
    "postal": "K8P1V9",
    "result": [
      {
        "electoralDistricts": [
          {
            "election": null,
            "id": 6,
            "name": "Bay of Quinte"
          }
        ],
        "pollDivisionIds": [
          10136973
        ],
        "postalCode": "K8P1V9",
        "streetName": "GROVE",
        "streetDirectionId": null,
        "streetTypeId": "ST",
        "placeName": "BELLEVILLE",
        "streetNameDisplayText": "GROVE ST, BELLEVILLE"
      }
    ]
  },
  {
    "postal": "K8P8N8",
    "result": []
  },
  {
    "postal": "K8P6S8",
    "result": []
  },
  {
    "postal": "K8P8H2",
    "result": []
  },
  {
    "postal": "K8P5R8",
    "result": []
  },
  {
    "postal": "K8P5L4",
    "result": [
      {
        "electoralDistricts": [
          {
            "election": null,
            "id": 6,
            "name": "Bay of Quinte"
          }
        ],
        "pollDivisionIds": [
          10136969,
          10136967
        ],
        "postalCode": "K8P5L4",
        "streetName": "FINCH",
        "streetDirectionId": null,
        "streetTypeId": "DR",
        "placeName": "BELLEVILLE",
        "streetNameDisplayText": "FINCH DR, BELLEVILLE"
      }
    ]
  },
  {
    "postal": "K8P9E1",
    "result": []
  },
  {
    "postal": "K8P1C4",
    "result": [
      {
        "electoralDistricts": [
          {
            "election": null,
            "id": 6,
            "name": "Bay of Quinte"
          }
        ],
        "pollDivisionIds": [
          10136978
        ],
        "postalCode": "K8P1C4",
        "streetName": "BROCK",
        "streetDirectionId": null,
        "streetTypeId": "ST",
        "placeName": "BELLEVILLE",
        "streetNameDisplayText": "BROCK ST, BELLEVILLE"
      }
    ]
  },
  {
    "postal": "K8P8W5",
    "result": []
  },
  {
    "postal": "K8P1Y4",
    "result": [
      {
        "electoralDistricts": [
          {
            "election": null,
            "id": 6,
            "name": "Bay of Quinte"
          }
        ],
        "pollDivisionIds": [
          10136970
        ],
        "postalCode": "K8P1Y4",
        "streetName": "RIDLEY",
        "streetDirectionId": "E",
        "streetTypeId": "ST",
        "placeName": "BELLEVILLE",
        "streetNameDisplayText": "RIDLEY ST E, BELLEVILLE"
      }
    ]
  },
  {
    "postal": "K8P1C0",
    "result": []
  },
  {
    "postal": "K8P2J2",
    "result": [
      {
        "electoralDistricts": [
          {
            "election": null,
            "id": 6,
            "name": "Bay of Quinte"
          }
        ],
        "pollDivisionIds": [
          10136970
        ],
        "postalCode": "K8P2J2",
        "streetName": "DONALD",
        "streetDirectionId": null,
        "streetTypeId": "ST",
        "placeName": "BELLEVILLE",
        "streetNameDisplayText": "DONALD ST, BELLEVILLE"
      }
    ]
  },
  {
    "postal": "K8P2J0",
    "result": []
  },
  {
    "postal": "K8P7A3",
    "result": []
  },
  {
    "postal": "K8P8M1",
    "result": []
  },
  {
    "postal": "K8P7T9",
    "result": []
  },
  {
    "postal": "K8P6C0",
    "result": []
  },
  {
    "postal": "K8P7X1",
    "result": []
  },
  {
    "postal": "K8P0G1",
    "result": [
      {
        "electoralDistricts": [
          {
            "election": null,
            "id": 6,
            "name": "Bay of Quinte"
          }
        ],
        "pollDivisionIds": [
          10136972
        ],
        "postalCode": "K8P0G1",
        "streetName": "GLENVIEW",
        "streetDirectionId": null,
        "streetTypeId": "CRES",
        "placeName": "BELLEVILLE",
        "streetNameDisplayText": "GLENVIEW CRES, BELLEVILLE"
      }
    ]
  },
  {
    "postal": "K8P4X2",
    "result": [
      {
        "electoralDistricts": [
          {
            "election": null,
            "id": 6,
            "name": "Bay of Quinte"
          }
        ],
        "pollDivisionIds": [
          10136972
        ],
        "postalCode": "K8P4X2",
        "streetName": "HARDER",
        "streetDirectionId": null,
        "streetTypeId": "DR",
        "placeName": "BELLEVILLE",
        "streetNameDisplayText": "HARDER DR, BELLEVILLE"
      }
    ]
  },
  {
    "postal": "K8P0N6",
    "result": []
  },
  {
    "postal": "K8P8E3",
    "result": []
  },
  {
    "postal": "K8P5S8",
    "result": []
  },
  {
    "postal": "K8P0R0",
    "result": []
  },
  {
    "postal": "K8P6J6",
    "result": []
  },
  {
    "postal": "K8P4B4",
    "result": [
      {
        "electoralDistricts": [
          {
            "election": null,
            "id": 6,
            "name": "Bay of Quinte"
          }
        ],
        "pollDivisionIds": [
          10136972
        ],
        "postalCode": "K8P4B4",
        "streetName": "KELLER",
        "streetDirectionId": null,
        "streetTypeId": "DR",
        "placeName": "BELLEVILLE",
        "streetNameDisplayText": "KELLER DR, BELLEVILLE"
      }
    ]
  },
  {
    "postal": "K8P7E3",
    "result": []
  },
  {
    "postal": "K8P3N6",
    "result": [
      {
        "electoralDistricts": [
          {
            "election": null,
            "id": 6,
            "name": "Bay of Quinte"
          }
        ],
        "pollDivisionIds": [
          10136973
        ],
        "postalCode": "K8P3N6",
        "streetName": "MURNEY",
        "streetDirectionId": null,
        "streetTypeId": "ST",
        "placeName": "BELLEVILLE",
        "streetNameDisplayText": "MURNEY ST, BELLEVILLE"
      }
    ]
  },
  {
    "postal": "K8P3X6",
    "result": [
      {
        "electoralDistricts": [
          {
            "election": null,
            "id": 6,
            "name": "Bay of Quinte"
          }
        ],
        "pollDivisionIds": [
          10136973
        ],
        "postalCode": "K8P3X6",
        "streetName": "YEOMANS",
        "streetDirectionId": null,
        "streetTypeId": "ST",
        "placeName": "BELLEVILLE",
        "streetNameDisplayText": "YEOMANS ST, BELLEVILLE"
      }
    ]
  },
  {
    "postal": "K8P8L0",
    "result": []
  },
  {
    "postal": "K8P8N1",
    "result": []
  },
  {
    "postal": "K8P4J0",
    "result": []
  },
  {
    "postal": "K8P0X7",
    "result": []
  },
  {
    "postal": "K8P6S4",
    "result": []
  },
  {
    "postal": "K8P0Z0",
    "result": []
  },
  {
    "postal": "K8P9X8",
    "result": []
  },
  {
    "postal": "K8P3H3",
    "result": [
      {
        "electoralDistricts": [
          {
            "election": null,
            "id": 6,
            "name": "Bay of Quinte"
          }
        ],
        "pollDivisionIds": [
          10136978
        ],
        "postalCode": "K8P3H3",
        "streetName": "COLEMAN",
        "streetDirectionId": null,
        "streetTypeId": "ST",
        "placeName": "BELLEVILLE",
        "streetNameDisplayText": "COLEMAN ST, BELLEVILLE"
      }
    ]
  },
  {
    "postal": "K8P7S2",
    "result": []
  },
  {
    "postal": "K8P3T3",
    "result": [
      {
        "electoralDistricts": [
          {
            "election": null,
            "id": 6,
            "name": "Bay of Quinte"
          }
        ],
        "pollDivisionIds": [
          10136973
        ],
        "postalCode": "K8P3T3",
        "streetName": "PONTON",
        "streetDirectionId": null,
        "streetTypeId": "ST",
        "placeName": "BELLEVILLE",
        "streetNameDisplayText": "PONTON ST, BELLEVILLE"
      }
    ]
  },
  {
    "postal": "K8P9P3",
    "result": []
  },
  {
    "postal": "K8P4H8",
    "result": [
      {
        "electoralDistricts": [
          {
            "election": null,
            "id": 6,
            "name": "Bay of Quinte"
          }
        ],
        "pollDivisionIds": [
          10136966
        ],
        "postalCode": "K8P4H8",
        "streetName": "ADRIAN",
        "streetDirectionId": null,
        "streetTypeId": "ST",
        "placeName": "BELLEVILLE",
        "streetNameDisplayText": "ADRIAN ST, BELLEVILLE"
      }
    ]
  },
  {
    "postal": "K8P6R1",
    "result": []
  },
  {
    "postal": "K8P1S0",
    "result": []
  },
  {
    "postal": "K8P3W8",
    "result": [
      {
        "electoralDistricts": [
          {
            "election": null,
            "id": 6,
            "name": "Bay of Quinte"
          }
        ],
        "pollDivisionIds": [
          10136977
        ],
        "postalCode": "K8P3W8",
        "streetName": "WELLINGTON",
        "streetDirectionId": null,
        "streetTypeId": "ST",
        "placeName": "BELLEVILLE",
        "streetNameDisplayText": "WELLINGTON ST, BELLEVILLE"
      }
    ]
  },
  {
    "postal": "K8P4S3",
    "result": [
      {
        "electoralDistricts": [
          {
            "election": null,
            "id": 6,
            "name": "Bay of Quinte"
          }
        ],
        "pollDivisionIds": [
          10136972
        ],
        "postalCode": "K8P4S3",
        "streetName": "HOPE",
        "streetDirectionId": null,
        "streetTypeId": "CRES",
        "placeName": "BELLEVILLE",
        "streetNameDisplayText": "HOPE CRES, BELLEVILLE"
      }
    ]
  },
  {
    "postal": "K8P1B6",
    "result": [
      {
        "electoralDistricts": [
          {
            "election": null,
            "id": 6,
            "name": "Bay of Quinte"
          }
        ],
        "pollDivisionIds": [
          10136972
        ],
        "postalCode": "K8P1B6",
        "streetName": "A DUNDAS",
        "streetDirectionId": "W",
        "streetTypeId": "ST",
        "placeName": "BELLEVILLE",
        "streetNameDisplayText": "A DUNDAS ST W, BELLEVILLE"
      },
      {
        "electoralDistricts": [
          {
            "election": null,
            "id": 6,
            "name": "Bay of Quinte"
          }
        ],
        "pollDivisionIds": [
          10136972,
          10136975,
          10137016
        ],
        "postalCode": "K8P1B6",
        "streetName": "DUNDAS",
        "streetDirectionId": "W",
        "streetTypeId": "ST",
        "placeName": "BELLEVILLE",
        "streetNameDisplayText": "DUNDAS ST W, BELLEVILLE"
      }
    ]
  },
  {
    "postal": "K8P8R3",
    "result": []
  },
  {
    "postal": "K8P4V9",
    "result": [
      {
        "electoralDistricts": [
          {
            "election": null,
            "id": 6,
            "name": "Bay of Quinte"
          }
        ],
        "pollDivisionIds": [
          10136966
        ],
        "postalCode": "K8P4V9",
        "streetName": "ALNET",
        "streetDirectionId": null,
        "streetTypeId": "DR",
        "placeName": "BELLEVILLE",
        "streetNameDisplayText": "ALNET DR, BELLEVILLE"
      }
    ]
  },
  {
    "postal": "K8P9W4",
    "result": []
  },
  {
    "postal": "K8P3T4",
    "result": [
      {
        "electoralDistricts": [
          {
            "election": null,
            "id": 6,
            "name": "Bay of Quinte"
          }
        ],
        "pollDivisionIds": [
          10136973
        ],
        "postalCode": "K8P3T4",
        "streetName": "PONTON",
        "streetDirectionId": null,
        "streetTypeId": "ST",
        "placeName": "BELLEVILLE",
        "streetNameDisplayText": "PONTON ST, BELLEVILLE"
      }
    ]
  },
  {
    "postal": "K8P5C7",
    "result": [
      {
        "electoralDistricts": [
          {
            "election": null,
            "id": 6,
            "name": "Bay of Quinte"
          }
        ],
        "pollDivisionIds": [
          10136966,
          10136967
        ],
        "postalCode": "K8P5C7",
        "streetName": "TRACEY PARK",
        "streetDirectionId": null,
        "streetTypeId": "DR",
        "placeName": "BELLEVILLE",
        "streetNameDisplayText": "TRACEY PARK DR, BELLEVILLE"
      }
    ]
  },
  {
    "postal": "K8P3Y1",
    "result": [
      {
        "electoralDistricts": [
          {
            "election": null,
            "id": 6,
            "name": "Bay of Quinte"
          }
        ],
        "pollDivisionIds": [
          10136973
        ],
        "postalCode": "K8P3Y1",
        "streetName": "YEOMANS",
        "streetDirectionId": null,
        "streetTypeId": "ST",
        "placeName": "BELLEVILLE",
        "streetNameDisplayText": "YEOMANS ST, BELLEVILLE"
      }
    ]
  },
  {
    "postal": "K8P5V0",
    "result": []
  },
  {
    "postal": "K8P8G8",
    "result": []
  },
  {
    "postal": "K8P8B1",
    "result": []
  },
  {
    "postal": "K8P4P5",
    "result": [
      {
        "electoralDistricts": [
          {
            "election": null,
            "id": 6,
            "name": "Bay of Quinte"
          }
        ],
        "pollDivisionIds": [
          10136967
        ],
        "postalCode": "K8P4P5",
        "streetName": "MARSH",
        "streetDirectionId": null,
        "streetTypeId": "DR",
        "placeName": "BELLEVILLE",
        "streetNameDisplayText": "MARSH DR, BELLEVILLE"
      }
    ]
  },
  {
    "postal": "K8P7B2",
    "result": []
  },
  {
    "postal": "K8P0R2",
    "result": []
  },
  {
    "postal": "K8P4M4",
    "result": [
      {
        "electoralDistricts": [
          {
            "election": null,
            "id": 6,
            "name": "Bay of Quinte"
          }
        ],
        "pollDivisionIds": [
          10136972
        ],
        "postalCode": "K8P4M4",
        "streetName": "DUNNETT",
        "streetDirectionId": null,
        "streetTypeId": "BLVD",
        "placeName": "BELLEVILLE",
        "streetNameDisplayText": "DUNNETT BLVD, BELLEVILLE"
      }
    ]
  },
  {
    "postal": "K8P7M4",
    "result": []
  },
  {
    "postal": "K8P9S7",
    "result": []
  },
  {
    "postal": "K8P5Z7",
    "result": []
  },
  {
    "postal": "K8P7J7",
    "result": []
  },
  {
    "postal": "K8P8R8",
    "result": []
  },
  {
    "postal": "K8P9X1",
    "result": []
  },
  {
    "postal": "K8P5M9",
    "result": [
      {
        "electoralDistricts": [
          {
            "election": null,
            "id": 6,
            "name": "Bay of Quinte"
          }
        ],
        "pollDivisionIds": [
          10136966
        ],
        "postalCode": "K8P5M9",
        "streetName": "ROBERT",
        "streetDirectionId": null,
        "streetTypeId": "DR",
        "placeName": "BELLEVILLE",
        "streetNameDisplayText": "ROBERT DR, BELLEVILLE"
      }
    ]
  },
  {
    "postal": "K8P9B4",
    "result": []
  },
  {
    "postal": "K8P0L9",
    "result": []
  },
  {
    "postal": "K8P9G4",
    "result": []
  },
  {
    "postal": "K8P1J4",
    "result": [
      {
        "electoralDistricts": [
          {
            "election": null,
            "id": 6,
            "name": "Bay of Quinte"
          }
        ],
        "pollDivisionIds": [
          10136977
        ],
        "postalCode": "K8P1J4",
        "streetName": "BRIDGE",
        "streetDirectionId": "W",
        "streetTypeId": "ST",
        "placeName": "BELLEVILLE",
        "streetNameDisplayText": "BRIDGE ST W, BELLEVILLE"
      }
    ]
  },
  {
    "postal": "K8P0W6",
    "result": []
  }
]
