[
  {
    "postal": "M5A9J6",
    "result": []
  },
  {
    "postal": "M5A9Z5",
    "result": []
  },
  {
    "postal": "M5A7H8",
    "result": []
  },
  {
    "postal": "M5A0P6",
    "result": []
  },
  {
    "postal": "M5A0S7",
    "result": []
  },
  {
    "postal": "M5A8B9",
    "result": []
  },
  {
    "postal": "M5A2A6",
    "result": [
      {
        "electoralDistricts": [
          {
            "election": null,
            "id": 109,
            "name": "Toronto Centre"
          }
        ],
        "pollDivisionIds": [
          10135197
        ],
        "postalCode": "M5A2A6",
        "streetName": "DUNDAS",
        "streetDirectionId": "E",
        "streetTypeId": "ST",
        "placeName": "TORONTO",
        "streetNameDisplayText": "DUNDAS ST E, TORONTO"
      }
    ]
  },
  {
    "postal": "M5A7V2",
    "result": []
  },
  {
    "postal": "M5A9P4",
    "result": []
  },
  {
    "postal": "M5A6G0",
    "result": []
  },
  {
    "postal": "M5A2K0",
    "result": []
  },
  {
    "postal": "M5A7N6",
    "result": []
  },
  {
    "postal": "M5A5R3",
    "result": []
  },
  {
    "postal": "M5A7K0",
    "result": []
  },
  {
    "postal": "M5A3R2",
    "result": []
  },
  {
    "postal": "M5A0J1",
    "result": []
  },
  {
    "postal": "M5A0B0",
    "result": []
  },
  {
    "postal": "M5A5Z2",
    "result": []
  },
  {
    "postal": "M5A7P3",
    "result": []
  },
  {
    "postal": "M5A2K3",
    "result": [
      {
        "electoralDistricts": [
          {
            "election": null,
            "id": 109,
            "name": "Toronto Centre"
          }
        ],
        "pollDivisionIds": [
          10135195
        ],
        "postalCode": "M5A2K3",
        "streetName": "CARLTON",
        "streetDirectionId": null,
        "streetTypeId": "ST",
        "placeName": "TORONTO",
        "streetNameDisplayText": "CARLTON ST, TORONTO"
      }
    ]
  },
  {
    "postal": "M5A7Y6",
    "result": []
  },
  {
    "postal": "M5A1L9",
    "result": [
      {
        "electoralDistricts": [
          {
            "election": null,
            "id": 109,
            "name": "Toronto Centre"
          }
        ],
        "pollDivisionIds": [
          10135202
        ],
        "postalCode": "M5A1L9",
        "streetName": "KING",
        "streetDirectionId": "E",
        "streetTypeId": "ST",
        "placeName": "TORONTO",
        "streetNameDisplayText": "KING ST E, TORONTO"
      }
    ]
  },
  {
    "postal": "M5A8T0",
    "result": []
  },
  {
    "postal": "M5A3K8",
    "result": [
      {
        "electoralDistricts": [
          {
            "election": null,
            "id": 110,
            "name": "Toronto—Danforth"
          }
        ],
        "pollDivisionIds": [
          10142530
        ],
        "postalCode": "M5A3K8",
        "streetName": "CHERRY",
        "streetDirectionId": null,
        "streetTypeId": "ST",
        "placeName": "TORONTO",
        "streetNameDisplayText": "CHERRY ST, TORONTO"
      }
    ]
  },
  {
    "postal": "M5A5W9",
    "result": []
  },
  {
    "postal": "M5A6T9",
    "result": []
  },
  {
    "postal": "M5A4H1",
    "result": [
      {
        "electoralDistricts": [
          {
            "election": null,
            "id": 109,
            "name": "Toronto Centre"
          }
        ],
        "pollDivisionIds": [
          10135204
        ],
        "postalCode": "M5A4H1",
        "streetName": "FREDERICK",
        "streetDirectionId": null,
        "streetTypeId": "ST",
        "placeName": "TORONTO",
        "streetNameDisplayText": "FREDERICK ST, TORONTO"
      }
    ]
  },
  {
    "postal": "M5A7A2",
    "result": []
  },
  {
    "postal": "M5A5G0",
    "result": []
  },
  {
    "postal": "M5A8V5",
    "result": []
  },
  {
    "postal": "M5A2Y8",
    "result": [
      {
        "electoralDistricts": [
          {
            "election": null,
            "id": 109,
            "name": "Toronto Centre"
          }
        ],
        "pollDivisionIds": [
          10135201
        ],
        "postalCode": "M5A2Y8",
        "streetName": "PARLIAMENT",
        "streetDirectionId": null,
        "streetTypeId": "ST",
        "placeName": "TORONTO",
        "streetNameDisplayText": "PARLIAMENT ST, TORONTO"
      }
    ]
  },
  {
    "postal": "M5A2B6",
    "result": [
      {
        "electoralDistricts": [
          {
            "election": null,
            "id": 109,
            "name": "Toronto Centre"
          }
        ],
        "pollDivisionIds": [
          10135196
        ],
        "postalCode": "M5A2B6",
        "streetName": "DUNDAS",
        "streetDirectionId": "E",
        "streetTypeId": "ST",
        "placeName": "TORONTO",
        "streetNameDisplayText": "DUNDAS ST E, TORONTO"
      }
    ]
  },
  {
    "postal": "M5A4W8",
    "result": []
  },
  {
    "postal": "M5A8H7",
    "result": []
  },
  {
    "postal": "M5A5P1",
    "result": []
  },
  {
    "postal": "M5A2B8",
    "result": []
  },
  {
    "postal": "M5A0P2",
    "result": [
      {
        "electoralDistricts": [
          {
            "election": null,
            "id": 101,
            "name": "Spadina—Fort York"
          },
          {
            "election": null,
            "id": 109,
            "name": "Toronto Centre"
          }
        ],
        "pollDivisionIds": [
          10141970,
          10135201
        ],
        "postalCode": "M5A0P2",
        "streetName": "MERCHANTS'",
        "streetDirectionId": null,
        "streetTypeId": "WHARF",
        "placeName": "TORONTO",
        "streetNameDisplayText": "MERCHANTS' WHARF, TORONTO"
      }
    ]
  },
  {
    "postal": "M5A9M1",
    "result": []
  },
  {
    "postal": "M5A3G0",
    "result": []
  },
  {
    "postal": "M5A9Z2",
    "result": []
  },
  {
    "postal": "M5A2A0",
    "result": []
  },
  {
    "postal": "M5A6Y0",
    "result": []
  },
  {
    "postal": "M5A2Z8",
    "result": []
  },
  {
    "postal": "M5A7Y3",
    "result": []
  },
  {
    "postal": "M5A6Z5",
    "result": []
  },
  {
    "postal": "M5A6E0",
    "result": []
  },
  {
    "postal": "M5A9B7",
    "result": []
  },
  {
    "postal": "M5A9S5",
    "result": []
  },
  {
    "postal": "M5A3X3",
    "result": []
  },
  {
    "postal": "M5A7R5",
    "result": []
  },
  {
    "postal": "M5A2X3",
    "result": [
      {
        "electoralDistricts": [
          {
            "election": null,
            "id": 109,
            "name": "Toronto Centre"
          }
        ],
        "pollDivisionIds": [
          10135197
        ],
        "postalCode": "M5A2X3",
        "streetName": "BERKELEY",
        "streetDirectionId": null,
        "streetTypeId": "ST",
        "placeName": "TORONTO",
        "streetNameDisplayText": "BERKELEY ST, TORONTO"
      }
    ]
  },
  {
    "postal": "M5A8Z9",
    "result": []
  },
  {
    "postal": "M5A0N4",
    "result": [
      {
        "electoralDistricts": [
          {
            "election": null,
            "id": 109,
            "name": "Toronto Centre"
          }
        ],
        "pollDivisionIds": [
          10135196
        ],
        "postalCode": "M5A0N4",
        "streetName": "TUBMAN",
        "streetDirectionId": null,
        "streetTypeId": "AVE",
        "placeName": "TORONTO",
        "streetNameDisplayText": "TUBMAN AVE, TORONTO"
      }
    ]
  },
  {
    "postal": "M5A1K1",
    "result": [
      {
        "electoralDistricts": [
          {
            "election": null,
            "id": 109,
            "name": "Toronto Centre"
          }
        ],
        "pollDivisionIds": [
          10135201
        ],
        "postalCode": "M5A1K1",
        "streetName": "KING",
        "streetDirectionId": "E",
        "streetTypeId": "ST",
        "placeName": "TORONTO",
        "streetNameDisplayText": "KING ST E, TORONTO"
      }
    ]
  },
  {
    "postal": "M5A1S3",
    "result": [
      {
        "electoralDistricts": [
          {
            "election": null,
            "id": 109,
            "name": "Toronto Centre"
          }
        ],
        "pollDivisionIds": [
          10135200
        ],
        "postalCode": "M5A1S3",
        "streetName": "QUEEN",
        "streetDirectionId": "E",
        "streetTypeId": "ST",
        "placeName": "TORONTO",
        "streetNameDisplayText": "QUEEN ST E, TORONTO"
      }
    ]
  },
  {
    "postal": "M5A6M4",
    "result": []
  },
  {
    "postal": "M5A9A9",
    "result": []
  },
  {
    "postal": "M5A9Z9",
    "result": []
  },
  {
    "postal": "M5A6T4",
    "result": []
  },
  {
    "postal": "M5A0B2",
    "result": [
      {
        "electoralDistricts": [
          {
            "election": null,
            "id": 109,
            "name": "Toronto Centre"
          }
        ],
        "pollDivisionIds": [
          10135201
        ],
        "postalCode": "M5A0B2",
        "streetName": "PARLIAMENT",
        "streetDirectionId": null,
        "streetTypeId": "ST",
        "placeName": "TORONTO",
        "streetNameDisplayText": "PARLIAMENT ST, TORONTO"
      }
    ]
  },
  {
    "postal": "M5A2L9",
    "result": [
      {
        "electoralDistricts": [
          {
            "election": null,
            "id": 109,
            "name": "Toronto Centre"
          }
        ],
        "pollDivisionIds": [
          10135190
        ],
        "postalCode": "M5A2L9",
        "streetName": "CARLTON",
        "streetDirectionId": null,
        "streetTypeId": "ST",
        "placeName": "TORONTO",
        "streetNameDisplayText": "CARLTON ST, TORONTO"
      }
    ]
  },
  {
    "postal": "M5A8K9",
    "result": []
  },
  {
    "postal": "M5A2H9",
    "result": [
      {
        "electoralDistricts": [
          {
            "election": null,
            "id": 109,
            "name": "Toronto Centre"
          }
        ],
        "pollDivisionIds": [
          10135190
        ],
        "postalCode": "M5A2H9",
        "streetName": "SPRUCE",
        "streetDirectionId": null,
        "streetTypeId": "ST",
        "placeName": "TORONTO",
        "streetNameDisplayText": "SPRUCE ST, TORONTO"
      }
    ]
  },
  {
    "postal": "M5A3Z6",
    "result": [
      {
        "electoralDistricts": [
          {
            "election": null,
            "id": 109,
            "name": "Toronto Centre"
          }
        ],
        "pollDivisionIds": [
          10135197
        ],
        "postalCode": "M5A3Z6",
        "streetName": "MILAN",
        "streetDirectionId": null,
        "streetTypeId": "ST",
        "placeName": "TORONTO",
        "streetNameDisplayText": "MILAN ST, TORONTO"
      }
    ]
  },
  {
    "postal": "M5A3B0",
    "result": []
  },
  {
    "postal": "M5A2H8",
    "result": [
      {
        "electoralDistricts": [
          {
            "election": null,
            "id": 109,
            "name": "Toronto Centre"
          }
        ],
        "pollDivisionIds": [
          10135190
        ],
        "postalCode": "M5A2H8",
        "streetName": "SPRUCE",
        "streetDirectionId": null,
        "streetTypeId": "ST",
        "placeName": "TORONTO",
        "streetNameDisplayText": "SPRUCE ST, TORONTO"
      }
    ]
  },
  {
    "postal": "M5A3X2",
    "result": [
      {
        "electoralDistricts": [
          {
            "election": null,
            "id": 109,
            "name": "Toronto Centre"
          }
        ],
        "pollDivisionIds": [
          10135197
        ],
        "postalCode": "M5A3X2",
        "streetName": "SHERBOURNE",
        "streetDirectionId": null,
        "streetTypeId": "ST",
        "placeName": "TORONTO",
        "streetNameDisplayText": "SHERBOURNE ST, TORONTO"
      }
    ]
  },
  {
    "postal": "M5A2E9",
    "result": [
      {
        "electoralDistricts": [
          {
            "election": null,
            "id": 109,
            "name": "Toronto Centre"
          }
        ],
        "pollDivisionIds": [
          10135195
        ],
        "postalCode": "M5A2E9",
        "streetName": "GERRARD",
        "streetDirectionId": "E",
        "streetTypeId": "ST",
        "placeName": "TORONTO",
        "streetNameDisplayText": "GERRARD ST E, TORONTO"
      }
    ]
  },
  {
    "postal": "M5A9P6",
    "result": []
  },
  {
    "postal": "M5A9E2",
    "result": []
  },
  {
    "postal": "M5A9H2",
    "result": []
  },
  {
    "postal": "M5A1S8",
    "result": [
      {
        "electoralDistricts": [
          {
            "election": null,
            "id": 109,
            "name": "Toronto Centre"
          }
        ],
        "pollDivisionIds": [
          10135201
        ],
        "postalCode": "M5A1S8",
        "streetName": "QUEEN",
        "streetDirectionId": "E",
        "streetTypeId": "ST",
        "placeName": "TORONTO",
        "streetNameDisplayText": "QUEEN ST E, TORONTO"
      }
    ]
  },
  {
    "postal": "M5A3M6",
    "result": [
      {
        "electoralDistricts": [
          {
            "election": null,
            "id": 109,
            "name": "Toronto Centre"
          }
        ],
        "pollDivisionIds": [
          10135196
        ],
        "postalCode": "M5A3M6",
        "streetName": "BLEVINS",
        "streetDirectionId": null,
        "streetTypeId": "PL",
        "placeName": "TORONTO",
        "streetNameDisplayText": "BLEVINS PL, TORONTO"
      }
    ]
  },
  {
    "postal": "M5A6Z8",
    "result": []
  },
  {
    "postal": "M5A4J2",
    "result": [
      {
        "electoralDistricts": [
          {
            "election": null,
            "id": 109,
            "name": "Toronto Centre"
          },
          {
            "election": null,
            "id": 101,
            "name": "Spadina—Fort York"
          }
        ],
        "pollDivisionIds": [
          10136447,
          10141943,
          10141970
        ],
        "postalCode": "M5A4J2",
        "streetName": "SCADDING",
        "streetDirectionId": null,
        "streetTypeId": "AVE",
        "placeName": "TORONTO",
        "streetNameDisplayText": "SCADDING AVE, TORONTO"
      }
    ]
  },
  {
    "postal": "M5A9Y1",
    "result": []
  },
  {
    "postal": "M5A8V6",
    "result": []
  },
  {
    "postal": "M5A6B2",
    "result": []
  },
  {
    "postal": "M5A1P8",
    "result": []
  },
  {
    "postal": "M5A0V8",
    "result": []
  },
  {
    "postal": "M5A4Y0",
    "result": []
  },
  {
    "postal": "M5A2T4",
    "result": [
      {
        "electoralDistricts": [
          {
            "election": null,
            "id": 109,
            "name": "Toronto Centre"
          }
        ],
        "pollDivisionIds": [
          10135195
        ],
        "postalCode": "M5A2T4",
        "streetName": "SEATON",
        "streetDirectionId": null,
        "streetTypeId": "ST",
        "placeName": "TORONTO",
        "streetNameDisplayText": "SEATON ST, TORONTO"
      }
    ]
  },
  {
    "postal": "M5A2S3",
    "result": [
      {
        "electoralDistricts": [
          {
            "election": null,
            "id": 109,
            "name": "Toronto Centre"
          }
        ],
        "pollDivisionIds": [
          10135195,
          10135258
        ],
        "postalCode": "M5A2S3",
        "streetName": "SHERBOURNE",
        "streetDirectionId": null,
        "streetTypeId": "ST",
        "placeName": "TORONTO",
        "streetNameDisplayText": "SHERBOURNE ST, TORONTO"
      }
    ]
  },
  {
    "postal": "M5A0K0",
    "result": []
  },
  {
    "postal": "M5A5N1",
    "result": []
  },
  {
    "postal": "M5A7T0",
    "result": []
  },
  {
    "postal": "M5A9N2",
    "result": []
  },
  {
    "postal": "M5A5L1",
    "result": []
  },
  {
    "postal": "M5A7G5",
    "result": []
  },
  {
    "postal": "M5A6K2",
    "result": []
  },
  {
    "postal": "M5A6P9",
    "result": []
  },
  {
    "postal": "M5A0E6",
    "result": [
      {
        "electoralDistricts": [
          {
            "election": null,
            "id": 101,
            "name": "Spadina—Fort York"
          }
        ],
        "pollDivisionIds": [
          10141952
        ],
        "postalCode": "M5A0E6",
        "streetName": "FRONT",
        "streetDirectionId": "W",
        "streetTypeId": "ST",
        "placeName": "TORONTO",
        "streetNameDisplayText": "FRONT ST W, TORONTO"
      }
    ]
  },
  {
    "postal": "M5A8R9",
    "result": []
  },
  {
    "postal": "M5A3G9",
    "result": []
  },
  {
    "postal": "M5A0V7",
    "result": []
  },
  {
    "postal": "M5A2Z1",
    "result": [
      {
        "electoralDistricts": [
          {
            "election": null,
            "id": 109,
            "name": "Toronto Centre"
          }
        ],
        "pollDivisionIds": [
          10135201
        ],
        "postalCode": "M5A2Z1",
        "streetName": "PARLIAMENT",
        "streetDirectionId": null,
        "streetTypeId": "ST",
        "placeName": "TORONTO",
        "streetNameDisplayText": "PARLIAMENT ST, TORONTO"
      }
    ]
  },
  {
    "postal": "M5A7N1",
    "result": []
  },
  {
    "postal": "M5A3C6",
    "result": [
      {
        "electoralDistricts": [
          {
            "election": null,
            "id": 109,
            "name": "Toronto Centre"
          }
        ],
        "pollDivisionIds": [
          10135202
        ],
        "postalCode": "M5A3C6",
        "streetName": "TRINITY",
        "streetDirectionId": null,
        "streetTypeId": "ST",
        "placeName": "TORONTO",
        "streetNameDisplayText": "TRINITY ST, TORONTO"
      }
    ]
  },
  {
    "postal": "M5A4M1",
    "result": [
      {
        "electoralDistricts": [
          {
            "election": null,
            "id": 109,
            "name": "Toronto Centre"
          }
        ],
        "pollDivisionIds": [
          10135197
        ],
        "postalCode": "M5A4M1",
        "streetName": "DUNDAS",
        "streetDirectionId": "E",
        "streetTypeId": "ST",
        "placeName": "TORONTO",
        "streetNameDisplayText": "DUNDAS ST E, TORONTO"
      }
    ]
  },
  {
    "postal": "M5A9K2",
    "result": []
  },
  {
    "postal": "M5A9S6",
    "result": []
  },
  {
    "postal": "M5A4X1",
    "result": []
  },
  {
    "postal": "M5A8W2",
    "result": []
  },
  {
    "postal": "M5A7N2",
    "result": []
  },
  {
    "postal": "M5A8S3",
    "result": []
  },
  {
    "postal": "M5A4V0",
    "result": []
  },
  {
    "postal": "M5A6W4",
    "result": []
  },
  {
    "postal": "M5A5M1",
    "result": []
  },
  {
    "postal": "M5A0S4",
    "result": []
  },
  {
    "postal": "M5A5X6",
    "result": []
  },
  {
    "postal": "M5A8L5",
    "result": []
  },
  {
    "postal": "M5A5M8",
    "result": []
  },
  {
    "postal": "M5A2G3",
    "result": [
      {
        "electoralDistricts": [
          {
            "election": null,
            "id": 109,
            "name": "Toronto Centre"
          }
        ],
        "pollDivisionIds": [
          10135195
        ],
        "postalCode": "M5A2G3",
        "streetName": "GERRARD",
        "streetDirectionId": "E",
        "streetTypeId": "ST",
        "placeName": "TORONTO",
        "streetNameDisplayText": "GERRARD ST E, TORONTO"
      }
    ]
  },
  {
    "postal": "M5A8E4",
    "result": []
  },
  {
    "postal": "M5A7S9",
    "result": []
  },
  {
    "postal": "M5A1K3",
    "result": []
  },
  {
    "postal": "M5A4E1",
    "result": [
      {
        "electoralDistricts": [
          {
            "election": null,
            "id": 101,
            "name": "Spadina—Fort York"
          }
        ],
        "pollDivisionIds": [
          10141970
        ],
        "postalCode": "M5A4E1",
        "streetName": "LONGBOAT",
        "streetDirectionId": null,
        "streetTypeId": "AVE",
        "placeName": "TORONTO",
        "streetNameDisplayText": "LONGBOAT AVE, TORONTO"
      }
    ]
  },
  {
    "postal": "M5A4R2",
    "result": [
      {
        "electoralDistricts": [
          {
            "election": null,
            "id": 101,
            "name": "Spadina—Fort York"
          }
        ],
        "pollDivisionIds": [
          10141944,
          10141972
        ],
        "postalCode": "M5A4R2",
        "streetName": "PARLIAMENT",
        "streetDirectionId": null,
        "streetTypeId": "ST",
        "placeName": "TORONTO",
        "streetNameDisplayText": "PARLIAMENT ST, TORONTO"
      }
    ]
  },
  {
    "postal": "M5A6T0",
    "result": []
  },
  {
    "postal": "M5A3K5",
    "result": [
      {
        "electoralDistricts": [
          {
            "election": null,
            "id": 109,
            "name": "Toronto Centre"
          }
        ],
        "pollDivisionIds": [
          10135190,
          10135202
        ],
        "postalCode": "M5A3K5",
        "streetName": "SUMACH",
        "streetDirectionId": null,
        "streetTypeId": "ST",
        "placeName": "TORONTO",
        "streetNameDisplayText": "SUMACH ST, TORONTO"
      }
    ]
  },
  {
    "postal": "M5A3S3",
    "result": []
  },
  {
    "postal": "M5A3L4",
    "result": []
  },
  {
    "postal": "M5A9Y2",
    "result": []
  },
  {
    "postal": "M5A1E0",
    "result": []
  },
  {
    "postal": "M5A9A4",
    "result": []
  },
  {
    "postal": "M5A1L3",
    "result": [
      {
        "electoralDistricts": [
          {
            "election": null,
            "id": 109,
            "name": "Toronto Centre"
          }
        ],
        "pollDivisionIds": [
          10135201
        ],
        "postalCode": "M5A1L3",
        "streetName": "KING",
        "streetDirectionId": "E",
        "streetTypeId": "ST",
        "placeName": "TORONTO",
        "streetNameDisplayText": "KING ST E, TORONTO"
      }
    ]
  },
  {
    "postal": "M5A6N1",
    "result": []
  },
  {
    "postal": "M5A6G7",
    "result": []
  },
  {
    "postal": "M5A7W1",
    "result": []
  },
  {
    "postal": "M5A4M6",
    "result": [
      {
        "electoralDistricts": [
          {
            "election": null,
            "id": 109,
            "name": "Toronto Centre"
          }
        ],
        "pollDivisionIds": [
          10135241
        ],
        "postalCode": "M5A4M6",
        "streetName": "COLE",
        "streetDirectionId": null,
        "streetTypeId": "ST",
        "placeName": "TORONTO",
        "streetNameDisplayText": "COLE ST, TORONTO"
      }
    ]
  },
  {
    "postal": "M5A1K0",
    "result": []
  },
  {
    "postal": "M5A3E2",
    "result": [
      {
        "electoralDistricts": [
          {
            "election": null,
            "id": 109,
            "name": "Toronto Centre"
          }
        ],
        "pollDivisionIds": [
          10135202
        ],
        "postalCode": "M5A3E2",
        "streetName": "SACKVILLE",
        "streetDirectionId": null,
        "streetTypeId": "ST",
        "placeName": "TORONTO",
        "streetNameDisplayText": "SACKVILLE ST, TORONTO"
      }
    ]
  },
  {
    "postal": "M5A5H4",
    "result": []
  },
  {
    "postal": "M5A1K7",
    "result": [
      {
        "electoralDistricts": [
          {
            "election": null,
            "id": 109,
            "name": "Toronto Centre"
          }
        ],
        "pollDivisionIds": [
          10135201
        ],
        "postalCode": "M5A1K7",
        "streetName": "KING",
        "streetDirectionId": "E",
        "streetTypeId": "ST",
        "placeName": "TORONTO",
        "streetNameDisplayText": "KING ST E, TORONTO"
      }
    ]
  },
  {
    "postal": "M5A0H0",
    "result": []
  },
  {
    "postal": "M5A0J3",
    "result": [
      {
        "electoralDistricts": [
          {
            "election": null,
            "id": 109,
            "name": "Toronto Centre"
          }
        ],
        "pollDivisionIds": [
          10135202
        ],
        "postalCode": "M5A0J3",
        "streetName": "COOPERAGE",
        "streetDirectionId": null,
        "streetTypeId": "ST",
        "placeName": "TORONTO",
        "streetNameDisplayText": "COOPERAGE ST, TORONTO"
      }
    ]
  },
  {
    "postal": "M5A1X6",
    "result": [
      {
        "electoralDistricts": [
          {
            "election": null,
            "id": 109,
            "name": "Toronto Centre"
          }
        ],
        "pollDivisionIds": [
          10135196
        ],
        "postalCode": "M5A1X6",
        "streetName": "SHUTER",
        "streetDirectionId": null,
        "streetTypeId": "ST",
        "placeName": "TORONTO",
        "streetNameDisplayText": "SHUTER ST, TORONTO"
      }
    ]
  },
  {
    "postal": "M5A2Z6",
    "result": [
      {
        "electoralDistricts": [
          {
            "election": null,
            "id": 109,
            "name": "Toronto Centre"
          }
        ],
        "pollDivisionIds": [
          10135196
        ],
        "postalCode": "M5A2Z6",
        "streetName": "PARLIAMENT",
        "streetDirectionId": null,
        "streetTypeId": "ST",
        "placeName": "TORONTO",
        "streetNameDisplayText": "PARLIAMENT ST, TORONTO"
      }
    ]
  },
  {
    "postal": "M5A4R9",
    "result": [
      {
        "electoralDistricts": [
          {
            "election": null,
            "id": 109,
            "name": "Toronto Centre"
          }
        ],
        "pollDivisionIds": [
          10135195,
          10135197
        ],
        "postalCode": "M5A4R9",
        "streetName": "DUNDAS",
        "streetDirectionId": "E",
        "streetTypeId": "ST",
        "placeName": "TORONTO",
        "streetNameDisplayText": "DUNDAS ST E, TORONTO"
      }
    ]
  },
  {
    "postal": "M5A0W8",
    "result": []
  },
  {
    "postal": "M5A1L4",
    "result": [
      {
        "electoralDistricts": [
          {
            "election": null,
            "id": 109,
            "name": "Toronto Centre"
          }
        ],
        "pollDivisionIds": [
          10135202,
          10135201
        ],
        "postalCode": "M5A1L4",
        "streetName": "KING",
        "streetDirectionId": "E",
        "streetTypeId": "ST",
        "placeName": "TORONTO",
        "streetNameDisplayText": "KING ST E, TORONTO"
      }
    ]
  },
  {
    "postal": "M5A0C8",
    "result": [
      {
        "electoralDistricts": [
          {
            "election": null,
            "id": 101,
            "name": "Spadina—Fort York"
          }
        ],
        "pollDivisionIds": [
          10141970
        ],
        "postalCode": "M5A0C8",
        "streetName": "BONNYCASTLE",
        "streetDirectionId": null,
        "streetTypeId": "ST",
        "placeName": "TORONTO",
        "streetNameDisplayText": "BONNYCASTLE ST, TORONTO"
      }
    ]
  },
  {
    "postal": "M5A9X7",
    "result": []
  },
  {
    "postal": "M5A4T1",
    "result": [
      {
        "electoralDistricts": [
          {
            "election": null,
            "id": 109,
            "name": "Toronto Centre"
          }
        ],
        "pollDivisionIds": [
          10135196
        ],
        "postalCode": "M5A4T1",
        "streetName": "OLD PRIMROSE",
        "streetDirectionId": null,
        "streetTypeId": "LANE",
        "placeName": "TORONTO",
        "streetNameDisplayText": "OLD PRIMROSE LANE, TORONTO"
      }
    ]
  },
  {
    "postal": "M5A0M0",
    "result": []
  },
  {
    "postal": "M5A6A2",
    "result": []
  },
  {
    "postal": "M5A9S8",
    "result": []
  },
  {
    "postal": "M5A9T4",
    "result": []
  },
  {
    "postal": "M5A9Y4",
    "result": []
  },
  {
    "postal": "M5A6G5",
    "result": []
  },
  {
    "postal": "M5A6H9",
    "result": []
  },
  {
    "postal": "M5A2P3",
    "result": []
  },
  {
    "postal": "M5A1T6",
    "result": [
      {
        "electoralDistricts": [
          {
            "election": null,
            "id": 109,
            "name": "Toronto Centre"
          }
        ],
        "pollDivisionIds": [
          10135202
        ],
        "postalCode": "M5A1T6",
        "streetName": "QUEEN",
        "streetDirectionId": "E",
        "streetTypeId": "ST",
        "placeName": "TORONTO",
        "streetNameDisplayText": "QUEEN ST E, TORONTO"
      }
    ]
  },
  {
    "postal": "M5A4P6",
    "result": [
      {
        "electoralDistricts": [
          {
            "election": null,
            "id": 109,
            "name": "Toronto Centre"
          }
        ],
        "pollDivisionIds": [
          10135202
        ],
        "postalCode": "M5A4P6",
        "streetName": "SUMACH",
        "streetDirectionId": null,
        "streetTypeId": "ST",
        "placeName": "TORONTO",
        "streetNameDisplayText": "SUMACH ST, TORONTO"
      }
    ]
  },
  {
    "postal": "M5A3K1",
    "result": [
      {
        "electoralDistricts": [
          {
            "election": null,
            "id": 109,
            "name": "Toronto Centre"
          }
        ],
        "pollDivisionIds": [
          10135196
        ],
        "postalCode": "M5A3K1",
        "streetName": "SUMACH",
        "streetDirectionId": null,
        "streetTypeId": "ST",
        "placeName": "TORONTO",
        "streetNameDisplayText": "SUMACH ST, TORONTO"
      }
    ]
  },
  {
    "postal": "M5A6X4",
    "result": []
  },
  {
    "postal": "M5A4M8",
    "result": [
      {
        "electoralDistricts": [
          {
            "election": null,
            "id": 109,
            "name": "Toronto Centre"
          },
          {
            "election": null,
            "id": 101,
            "name": "Spadina—Fort York"
          }
        ],
        "pollDivisionIds": [
          10135253,
          10141971
        ],
        "postalCode": "M5A4M8",
        "streetName": "THE ESPLANADE",
        "streetDirectionId": null,
        "streetTypeId": null,
        "placeName": "TORONTO",
        "streetNameDisplayText": "THE ESPLANADE, TORONTO"
      }
    ]
  },
  {
    "postal": "M5A2Y1",
    "result": [
      {
        "electoralDistricts": [
          {
            "election": null,
            "id": 101,
            "name": "Spadina—Fort York"
          }
        ],
        "pollDivisionIds": [
          10141970
        ],
        "postalCode": "M5A2Y1",
        "streetName": "PARLIAMENT",
        "streetDirectionId": null,
        "streetTypeId": "ST",
        "placeName": "TORONTO",
        "streetNameDisplayText": "PARLIAMENT ST, TORONTO"
      }
    ]
  },
  {
    "postal": "M5A6M1",
    "result": []
  },
  {
    "postal": "M5A5L8",
    "result": []
  },
  {
    "postal": "M5A3P6",
    "result": [
      {
        "electoralDistricts": [
          {
            "election": null,
            "id": 109,
            "name": "Toronto Centre"
          }
        ],
        "pollDivisionIds": [
          10135196
        ],
        "postalCode": "M5A3P6",
        "streetName": "RIVER",
        "streetDirectionId": null,
        "streetTypeId": "ST",
        "placeName": "TORONTO",
        "streetNameDisplayText": "RIVER ST, TORONTO"
      }
    ]
  },
  {
    "postal": "M5A9A5",
    "result": []
  },
  {
    "postal": "M5A7K1",
    "result": []
  },
  {
    "postal": "M5A3J4",
    "result": [
      {
        "electoralDistricts": [
          {
            "election": null,
            "id": 109,
            "name": "Toronto Centre"
          }
        ],
        "pollDivisionIds": [
          10135202
        ],
        "postalCode": "M5A3J4",
        "streetName": "SUMACH",
        "streetDirectionId": null,
        "streetTypeId": "ST",
        "placeName": "TORONTO",
        "streetNameDisplayText": "SUMACH ST, TORONTO"
      }
    ]
  },
  {
    "postal": "M5A5E7",
    "result": []
  },
  {
    "postal": "M5A3A7",
    "result": [
      {
        "electoralDistricts": [
          {
            "election": null,
            "id": 109,
            "name": "Toronto Centre"
          }
        ],
        "pollDivisionIds": [
          10135201
        ],
        "postalCode": "M5A3A7",
        "streetName": "POWER",
        "streetDirectionId": null,
        "streetTypeId": "ST",
        "placeName": "TORONTO",
        "streetNameDisplayText": "POWER ST, TORONTO"
      }
    ]
  },
  {
    "postal": "M5A1B9",
    "result": [
      {
        "electoralDistricts": [
          {
            "election": null,
            "id": 101,
            "name": "Spadina—Fort York"
          }
        ],
        "pollDivisionIds": [
          10141970
        ],
        "postalCode": "M5A1B9",
        "streetName": "LAKE SHORE",
        "streetDirectionId": "E",
        "streetTypeId": "BLVD",
        "placeName": "TORONTO",
        "streetNameDisplayText": "LAKE SHORE BLVD E, TORONTO"
      }
    ]
  },
  {
    "postal": "M5A9E8",
    "result": []
  },
  {
    "postal": "M5A1C9",
    "result": []
  },
  {
    "postal": "M5A3B5",
    "result": [
      {
        "electoralDistricts": [
          {
            "election": null,
            "id": 109,
            "name": "Toronto Centre"
          }
        ],
        "pollDivisionIds": [
          10135190
        ],
        "postalCode": "M5A3B5",
        "streetName": "DERMOTT",
        "streetDirectionId": null,
        "streetTypeId": "PL",
        "placeName": "TORONTO",
        "streetNameDisplayText": "DERMOTT PL, TORONTO"
      }
    ]
  },
  {
    "postal": "M5A8R0",
    "result": []
  },
  {
    "postal": "M5A3P2",
    "result": [
      {
        "electoralDistricts": [
          {
            "election": null,
            "id": 109,
            "name": "Toronto Centre"
          }
        ],
        "pollDivisionIds": [
          10135196
        ],
        "postalCode": "M5A3P2",
        "streetName": "OLD BREWERY",
        "streetDirectionId": null,
        "streetTypeId": "LANE",
        "placeName": "TORONTO",
        "streetNameDisplayText": "OLD BREWERY LANE, TORONTO"
      }
    ]
  },
  {
    "postal": "M5A5V4",
    "result": []
  },
  {
    "postal": "M5A4H0",
    "result": []
  },
  {
    "postal": "M5A4S7",
    "result": [
      {
        "electoralDistricts": [
          {
            "election": null,
            "id": 109,
            "name": "Toronto Centre"
          }
        ],
        "pollDivisionIds": [
          10135201
        ],
        "postalCode": "M5A4S7",
        "streetName": "RICHMOND",
        "streetDirectionId": "E",
        "streetTypeId": "ST",
        "placeName": "TORONTO",
        "streetNameDisplayText": "RICHMOND ST E, TORONTO"
      }
    ]
  },
  {
    "postal": "M5A6C2",
    "result": []
  },
  {
    "postal": "M5A8W3",
    "result": []
  },
  {
    "postal": "M5A4M5",
    "result": [
      {
        "electoralDistricts": [
          {
            "election": null,
            "id": 109,
            "name": "Toronto Centre"
          }
        ],
        "pollDivisionIds": [
          10135204
        ],
        "postalCode": "M5A4M5",
        "streetName": "FREDERICK",
        "streetDirectionId": null,
        "streetTypeId": "ST",
        "placeName": "TORONTO",
        "streetNameDisplayText": "FREDERICK ST, TORONTO"
      }
    ]
  },
  {
    "postal": "M5A5T1",
    "result": []
  },
  {
    "postal": "M5A3B3",
    "result": [
      {
        "electoralDistricts": [
          {
            "election": null,
            "id": 109,
            "name": "Toronto Centre"
          }
        ],
        "pollDivisionIds": [
          10135190
        ],
        "postalCode": "M5A3B3",
        "streetName": "ROLSTON",
        "streetDirectionId": null,
        "streetTypeId": "AVE",
        "placeName": "TORONTO",
        "streetNameDisplayText": "ROLSTON AVE, TORONTO"
      }
    ]
  },
  {
    "postal": "M5A6C6",
    "result": []
  },
  {
    "postal": "M5A7N8",
    "result": []
  },
  {
    "postal": "M5A2Y3",
    "result": []
  },
  {
    "postal": "M5A2R6",
    "result": [
      {
        "electoralDistricts": [
          {
            "election": null,
            "id": 109,
            "name": "Toronto Centre"
          }
        ],
        "pollDivisionIds": [
          10135200
        ],
        "postalCode": "M5A2R6",
        "streetName": "SHERBOURNE",
        "streetDirectionId": null,
        "streetTypeId": "ST",
        "placeName": "TORONTO",
        "streetNameDisplayText": "SHERBOURNE ST, TORONTO"
      }
    ]
  },
  {
    "postal": "M5A7N3",
    "result": []
  },
  {
    "postal": "M5A8J2",
    "result": []
  },
  {
    "postal": "M5A6A9",
    "result": []
  },
  {
    "postal": "M5A3V2",
    "result": [
      {
        "electoralDistricts": [
          {
            "election": null,
            "id": 109,
            "name": "Toronto Centre"
          }
        ],
        "pollDivisionIds": [
          10135196
        ],
        "postalCode": "M5A3V2",
        "streetName": "SUTTON",
        "streetDirectionId": null,
        "streetTypeId": "AVE",
        "placeName": "TORONTO",
        "streetNameDisplayText": "SUTTON AVE, TORONTO"
      }
    ]
  },
  {
    "postal": "M5A2N3",
    "result": [
      {
        "electoralDistricts": [
          {
            "election": null,
            "id": 109,
            "name": "Toronto Centre"
          }
        ],
        "pollDivisionIds": [
          10135190,
          10135194,
          10143889
        ],
        "postalCode": "M5A2N3",
        "streetName": "GEORGE",
        "streetDirectionId": null,
        "streetTypeId": "ST",
        "placeName": "TORONTO",
        "streetNameDisplayText": "GEORGE ST, TORONTO"
      }
    ]
  },
  {
    "postal": "M5A1S5",
    "result": [
      {
        "electoralDistricts": [
          {
            "election": null,
            "id": 109,
            "name": "Toronto Centre"
          }
        ],
        "pollDivisionIds": [
          10135200
        ],
        "postalCode": "M5A1S5",
        "streetName": "QUEEN",
        "streetDirectionId": "E",
        "streetTypeId": "ST",
        "placeName": "TORONTO",
        "streetNameDisplayText": "QUEEN ST E, TORONTO"
      }
    ]
  },
  {
    "postal": "M5A4T7",
    "result": [
      {
        "electoralDistricts": [
          {
            "election": null,
            "id": 109,
            "name": "Toronto Centre"
          }
        ],
        "pollDivisionIds": [
          10135200
        ],
        "postalCode": "M5A4T7",
        "streetName": "RICHMOND",
        "streetDirectionId": "E",
        "streetTypeId": "ST",
        "placeName": "TORONTO",
        "streetNameDisplayText": "RICHMOND ST E, TORONTO"
      }
    ]
  },
  {
    "postal": "M5A6Y7",
    "result": []
  },
  {
    "postal": "M5A0W7",
    "result": []
  },
  {
    "postal": "M5A2W9",
    "result": [
      {
        "electoralDistricts": [
          {
            "election": null,
            "id": 109,
            "name": "Toronto Centre"
          }
        ],
        "pollDivisionIds": [
          10135201
        ],
        "postalCode": "M5A2W9",
        "streetName": "BERKELEY",
        "streetDirectionId": null,
        "streetTypeId": "ST",
        "placeName": "TORONTO",
        "streetNameDisplayText": "BERKELEY ST, TORONTO"
      }
    ]
  },
  {
    "postal": "M5A8V0",
    "result": []
  },
  {
    "postal": "M5A0H4",
    "result": [
      {
        "electoralDistricts": [
          {
            "election": null,
            "id": 109,
            "name": "Toronto Centre"
          }
        ],
        "pollDivisionIds": [
          10135202,
          10135184
        ],
        "postalCode": "M5A0H4",
        "streetName": "TROLLEY",
        "streetDirectionId": null,
        "streetTypeId": "CRES",
        "placeName": "TORONTO",
        "streetNameDisplayText": "TROLLEY CRES, TORONTO"
      }
    ]
  },
  {
    "postal": "M5A2T1",
    "result": [
      {
        "electoralDistricts": [
          {
            "election": null,
            "id": 109,
            "name": "Toronto Centre"
          }
        ],
        "pollDivisionIds": [
          10135201
        ],
        "postalCode": "M5A2T1",
        "streetName": "PRINCESS",
        "streetDirectionId": null,
        "streetTypeId": "ST",
        "placeName": "TORONTO",
        "streetNameDisplayText": "PRINCESS ST, TORONTO"
      }
    ]
  },
  {
    "postal": "M5A1B1",
    "result": [
      {
        "electoralDistricts": [
          {
            "election": null,
            "id": 110,
            "name": "Toronto—Danforth"
          }
        ],
        "pollDivisionIds": [
          10142530
        ],
        "postalCode": "M5A1B1",
        "streetName": "VILLIERS",
        "streetDirectionId": null,
        "streetTypeId": "ST",
        "placeName": "TORONTO",
        "streetNameDisplayText": "VILLIERS ST, TORONTO"
      }
    ]
  },
  {
    "postal": "M5A8B6",
    "result": []
  },
  {
    "postal": "M5A6H1",
    "result": []
  },
  {
    "postal": "M5A8T8",
    "result": []
  },
  {
    "postal": "M5A0T4",
    "result": []
  },
  {
    "postal": "M5A2C4",
    "result": [
      {
        "electoralDistricts": [
          {
            "election": null,
            "id": 109,
            "name": "Toronto Centre"
          }
        ],
        "pollDivisionIds": [
          10135196
        ],
        "postalCode": "M5A2C4",
        "streetName": "DUNDAS",
        "streetDirectionId": "E",
        "streetTypeId": "ST",
        "placeName": "TORONTO",
        "streetNameDisplayText": "DUNDAS ST E, TORONTO"
      }
    ]
  },
  {
    "postal": "M5A8N3",
    "result": []
  },
  {
    "postal": "M5A4L8",
    "result": [
      {
        "electoralDistricts": [
          {
            "election": null,
            "id": 109,
            "name": "Toronto Centre"
          }
        ],
        "pollDivisionIds": [
          10135204
        ],
        "postalCode": "M5A4L8",
        "streetName": "GEORGE",
        "streetDirectionId": null,
        "streetTypeId": "ST",
        "placeName": "TORONTO",
        "streetNameDisplayText": "GEORGE ST, TORONTO"
      }
    ]
  },
  {
    "postal": "M5A2B5",
    "result": [
      {
        "electoralDistricts": [
          {
            "election": null,
            "id": 109,
            "name": "Toronto Centre"
          }
        ],
        "pollDivisionIds": [
          10135196
        ],
        "postalCode": "M5A2B5",
        "streetName": "DUNDAS",
        "streetDirectionId": "E",
        "streetTypeId": "ST",
        "placeName": "TORONTO",
        "streetNameDisplayText": "DUNDAS ST E, TORONTO"
      }
    ]
  },
  {
    "postal": "M5A3H1",
    "result": [
      {
        "electoralDistricts": [
          {
            "election": null,
            "id": 109,
            "name": "Toronto Centre"
          }
        ],
        "pollDivisionIds": [
          10135196
        ],
        "postalCode": "M5A3H1",
        "streetName": "SACKVILLE",
        "streetDirectionId": null,
        "streetTypeId": "ST",
        "placeName": "TORONTO",
        "streetNameDisplayText": "SACKVILLE ST, TORONTO"
      }
    ]
  },
  {
    "postal": "M5A4Y1",
    "result": []
  },
  {
    "postal": "M5A7E2",
    "result": []
  },
  {
    "postal": "M5A2P5",
    "result": [
      {
        "electoralDistricts": [
          {
            "election": null,
            "id": 109,
            "name": "Toronto Centre"
          }
        ],
        "pollDivisionIds": [
          10135201
        ],
        "postalCode": "M5A2P5",
        "streetName": "SHERBOURNE",
        "streetDirectionId": null,
        "streetTypeId": "ST",
        "placeName": "TORONTO",
        "streetNameDisplayText": "SHERBOURNE ST, TORONTO"
      }
    ]
  },
  {
    "postal": "M5A8R7",
    "result": []
  },
  {
    "postal": "M5A9P1",
    "result": []
  },
  {
    "postal": "M5A3B8",
    "result": []
  },
  {
    "postal": "M5A3P7",
    "result": [
      {
        "electoralDistricts": [
          {
            "election": null,
            "id": 109,
            "name": "Toronto Centre"
          }
        ],
        "pollDivisionIds": [
          10135196
        ],
        "postalCode": "M5A3P7",
        "streetName": "RIVER",
        "streetDirectionId": null,
        "streetTypeId": "ST",
        "placeName": "TORONTO",
        "streetNameDisplayText": "RIVER ST, TORONTO"
      }
    ]
  },
  {
    "postal": "M5A9B2",
    "result": []
  },
  {
    "postal": "M5A6Z3",
    "result": []
  },
  {
    "postal": "M5A4N5",
    "result": [
      {
        "electoralDistricts": [
          {
            "election": null,
            "id": 109,
            "name": "Toronto Centre"
          }
        ],
        "pollDivisionIds": [
          10135196
        ],
        "postalCode": "M5A4N5",
        "streetName": "DUNDAS",
        "streetDirectionId": "E",
        "streetTypeId": "ST",
        "placeName": "TORONTO",
        "streetNameDisplayText": "DUNDAS ST E, TORONTO"
      }
    ]
  },
  {
    "postal": "M5A8T3",
    "result": []
  },
  {
    "postal": "M5A1V2",
    "result": [
      {
        "electoralDistricts": [
          {
            "election": null,
            "id": 109,
            "name": "Toronto Centre"
          }
        ],
        "pollDivisionIds": [
          10135196
        ],
        "postalCode": "M5A1V2",
        "streetName": "QUEEN",
        "streetDirectionId": "E",
        "streetTypeId": "ST",
        "placeName": "TORONTO",
        "streetNameDisplayText": "QUEEN ST E, TORONTO"
      }
    ]
  },
  {
    "postal": "M5A1Y0",
    "result": []
  },
  {
    "postal": "M5A3G6",
    "result": []
  },
  {
    "postal": "M5A3H7",
    "result": [
      {
        "electoralDistricts": [
          {
            "election": null,
            "id": 109,
            "name": "Toronto Centre"
          }
        ],
        "pollDivisionIds": [
          10135196
        ],
        "postalCode": "M5A3H7",
        "streetName": "BELSHAW",
        "streetDirectionId": null,
        "streetTypeId": "PL",
        "placeName": "TORONTO",
        "streetNameDisplayText": "BELSHAW PL, TORONTO"
      }
    ]
  },
  {
    "postal": "M5A7X8",
    "result": []
  },
  {
    "postal": "M5A0C7",
    "result": [
      {
        "electoralDistricts": [
          {
            "election": null,
            "id": 109,
            "name": "Toronto Centre"
          }
        ],
        "pollDivisionIds": [
          10135196
        ],
        "postalCode": "M5A0C7",
        "streetName": "DUNDAS",
        "streetDirectionId": "E",
        "streetTypeId": "ST",
        "placeName": "TORONTO",
        "streetNameDisplayText": "DUNDAS ST E, TORONTO"
      }
    ]
  },
  {
    "postal": "M5A0W9",
    "result": []
  },
  {
    "postal": "M5A8E6",
    "result": []
  },
  {
    "postal": "M5A9Z8",
    "result": []
  },
  {
    "postal": "M5A3P4",
    "result": [
      {
        "electoralDistricts": [
          {
            "election": null,
            "id": 109,
            "name": "Toronto Centre"
          }
        ],
        "pollDivisionIds": [
          10135196
        ],
        "postalCode": "M5A3P4",
        "streetName": "RIVER",
        "streetDirectionId": null,
        "streetTypeId": "ST",
        "placeName": "TORONTO",
        "streetNameDisplayText": "RIVER ST, TORONTO"
      }
    ]
  },
  {
    "postal": "M5A6L8",
    "result": []
  },
  {
    "postal": "M5A2R4",
    "result": [
      {
        "electoralDistricts": [
          {
            "election": null,
            "id": 109,
            "name": "Toronto Centre"
          }
        ],
        "pollDivisionIds": [
          10135200
        ],
        "postalCode": "M5A2R4",
        "streetName": "SHERBOURNE",
        "streetDirectionId": null,
        "streetTypeId": "ST",
        "placeName": "TORONTO",
        "streetNameDisplayText": "SHERBOURNE ST, TORONTO"
      }
    ]
  },
  {
    "postal": "M5A2W1",
    "result": [
      {
        "electoralDistricts": [
          {
            "election": null,
            "id": 109,
            "name": "Toronto Centre"
          }
        ],
        "pollDivisionIds": [
          10135195
        ],
        "postalCode": "M5A2W1",
        "streetName": "ONTARIO",
        "streetDirectionId": null,
        "streetTypeId": "ST",
        "placeName": "TORONTO",
        "streetNameDisplayText": "ONTARIO ST, TORONTO"
      }
    ]
  },
  {
    "postal": "M5A9H8",
    "result": []
  },
  {
    "postal": "M5A8X9",
    "result": []
  },
  {
    "postal": "M5A7H4",
    "result": []
  },
  {
    "postal": "M5A3J1",
    "result": [
      {
        "electoralDistricts": [
          {
            "election": null,
            "id": 109,
            "name": "Toronto Centre"
          }
        ],
        "pollDivisionIds": [
          10135190
        ],
        "postalCode": "M5A3J1",
        "streetName": "GIFFORD",
        "streetDirectionId": null,
        "streetTypeId": "ST",
        "placeName": "TORONTO",
        "streetNameDisplayText": "GIFFORD ST, TORONTO"
      }
    ]
  },
  {
    "postal": "M5A1P4",
    "result": [
      {
        "electoralDistricts": [
          {
            "election": null,
            "id": 109,
            "name": "Toronto Centre"
          }
        ],
        "pollDivisionIds": [
          10135200
        ],
        "postalCode": "M5A1P4",
        "streetName": "RICHMOND",
        "streetDirectionId": "E",
        "streetTypeId": "ST",
        "placeName": "TORONTO",
        "streetNameDisplayText": "RICHMOND ST E, TORONTO"
      }
    ]
  },
  {
    "postal": "M5A2A3",
    "result": [
      {
        "electoralDistricts": [
          {
            "election": null,
            "id": 109,
            "name": "Toronto Centre"
          }
        ],
        "pollDivisionIds": [
          10135195
        ],
        "postalCode": "M5A2A3",
        "streetName": "DUNDAS",
        "streetDirectionId": "E",
        "streetTypeId": "ST",
        "placeName": "TORONTO",
        "streetNameDisplayText": "DUNDAS ST E, TORONTO"
      }
    ]
  },
  {
    "postal": "M5A0Z1",
    "result": []
  },
  {
    "postal": "M5A1C1",
    "result": [
      {
        "electoralDistricts": [
          {
            "election": null,
            "id": 101,
            "name": "Spadina—Fort York"
          }
        ],
        "pollDivisionIds": [
          10141970
        ],
        "postalCode": "M5A1C1",
        "streetName": "LAKE SHORE",
        "streetDirectionId": "E",
        "streetTypeId": "BLVD",
        "placeName": "TORONTO",
        "streetNameDisplayText": "LAKE SHORE BLVD E, TORONTO"
      }
    ]
  },
  {
    "postal": "M5A0H3",
    "result": [
      {
        "electoralDistricts": [
          {
            "election": null,
            "id": 109,
            "name": "Toronto Centre"
          }
        ],
        "pollDivisionIds": [
          10135202
        ],
        "postalCode": "M5A0H3",
        "streetName": "LOWER RIVER",
        "streetDirectionId": null,
        "streetTypeId": "ST",
        "placeName": "TORONTO",
        "streetNameDisplayText": "LOWER RIVER ST, TORONTO"
      }
    ]
  },
  {
    "postal": "M5A7B0",
    "result": []
  },
  {
    "postal": "M5A5K2",
    "result": []
  },
  {
    "postal": "M5A1E9",
    "result": [
      {
        "electoralDistricts": [
          {
            "election": null,
            "id": 109,
            "name": "Toronto Centre"
          }
        ],
        "pollDivisionIds": [
          10135201
        ],
        "postalCode": "M5A1E9",
        "streetName": "FRONT",
        "streetDirectionId": "E",
        "streetTypeId": "ST",
        "placeName": "TORONTO",
        "streetNameDisplayText": "FRONT ST E, TORONTO"
      }
    ]
  },
  {
    "postal": "M5A9W7",
    "result": []
  },
  {
    "postal": "M5A5W6",
    "result": []
  },
  {
    "postal": "M5A6S6",
    "result": []
  },
  {
    "postal": "M5A2P8",
    "result": [
      {
        "electoralDistricts": [
          {
            "election": null,
            "id": 109,
            "name": "Toronto Centre"
          }
        ],
        "pollDivisionIds": [
          10135201
        ],
        "postalCode": "M5A2P8",
        "streetName": "SHERBOURNE",
        "streetDirectionId": null,
        "streetTypeId": "ST",
        "placeName": "TORONTO",
        "streetNameDisplayText": "SHERBOURNE ST, TORONTO"
      }
    ]
  },
  {
    "postal": "M5A4P8",
    "result": [
      {
        "electoralDistricts": [
          {
            "election": null,
            "id": 109,
            "name": "Toronto Centre"
          }
        ],
        "pollDivisionIds": [
          10135204
        ],
        "postalCode": "M5A4P8",
        "streetName": "GEORGE",
        "streetDirectionId": "S",
        "streetTypeId": "ST",
        "placeName": "TORONTO",
        "streetNameDisplayText": "GEORGE ST S, TORONTO"
      },
      {
        "electoralDistricts": [
          {
            "election": null,
            "id": 109,
            "name": "Toronto Centre"
          }
        ],
        "pollDivisionIds": [
          10135248
        ],
        "postalCode": "M5A4P8",
        "streetName": "GEORGE",
        "streetDirectionId": null,
        "streetTypeId": "ST",
        "placeName": "TORONTO",
        "streetNameDisplayText": "GEORGE ST, TORONTO"
      }
    ]
  },
  {
    "postal": "M5A0V9",
    "result": []
  },
  {
    "postal": "M5A5Y2",
    "result": []
  },
  {
    "postal": "M5A7Z7",
    "result": []
  },
  {
    "postal": "M5A6Y8",
    "result": []
  },
  {
    "postal": "M5A2G7",
    "result": [
      {
        "electoralDistricts": [
          {
            "election": null,
            "id": 109,
            "name": "Toronto Centre"
          }
        ],
        "pollDivisionIds": [
          10135190
        ],
        "postalCode": "M5A2G7",
        "streetName": "GERRARD",
        "streetDirectionId": "E",
        "streetTypeId": "ST",
        "placeName": "TORONTO",
        "streetNameDisplayText": "GERRARD ST E, TORONTO"
      }
    ]
  },
  {
    "postal": "M5A8C1",
    "result": []
  },
  {
    "postal": "M5A5C5",
    "result": []
  },
  {
    "postal": "M5A2X8",
    "result": [
      {
        "electoralDistricts": [
          {
            "election": null,
            "id": 109,
            "name": "Toronto Centre"
          }
        ],
        "pollDivisionIds": [
          10135195
        ],
        "postalCode": "M5A2X8",
        "streetName": "BERKELEY",
        "streetDirectionId": null,
        "streetTypeId": "ST",
        "placeName": "TORONTO",
        "streetNameDisplayText": "BERKELEY ST, TORONTO"
      }
    ]
  },
  {
    "postal": "M5A1W5",
    "result": [
      {
        "electoralDistricts": [
          {
            "election": null,
            "id": 109,
            "name": "Toronto Centre"
          }
        ],
        "pollDivisionIds": [
          10135199
        ],
        "postalCode": "M5A1W5",
        "streetName": "SHUTER",
        "streetDirectionId": null,
        "streetTypeId": "ST",
        "placeName": "TORONTO",
        "streetNameDisplayText": "SHUTER ST, TORONTO"
      }
    ]
  },
  {
    "postal": "M5A7G0",
    "result": []
  },
  {
    "postal": "M5A8J8",
    "result": []
  },
  {
    "postal": "M5A3Y0",
    "result": []
  },
  {
    "postal": "M5A9T7",
    "result": []
  },
  {
    "postal": "M5A5P4",
    "result": []
  },
  {
    "postal": "M5A4B0",
    "result": []
  },
  {
    "postal": "M5A9N8",
    "result": []
  },
  {
    "postal": "M5A4A7",
    "result": [
      {
        "electoralDistricts": [
          {
            "election": null,
            "id": 109,
            "name": "Toronto Centre"
          }
        ],
        "pollDivisionIds": [
          10135204
        ],
        "postalCode": "M5A4A7",
        "streetName": "JENOVES",
        "streetDirectionId": null,
        "streetTypeId": "PL",
        "placeName": "TORONTO",
        "streetNameDisplayText": "JENOVES PL, TORONTO"
      }
    ]
  },
  {
    "postal": "M5A4H9",
    "result": [
      {
        "electoralDistricts": [
          {
            "election": null,
            "id": 109,
            "name": "Toronto Centre"
          }
        ],
        "pollDivisionIds": [
          10135204
        ],
        "postalCode": "M5A4H9",
        "streetName": "FREDERICK",
        "streetDirectionId": null,
        "streetTypeId": "ST",
        "placeName": "TORONTO",
        "streetNameDisplayText": "FREDERICK ST, TORONTO"
      }
    ]
  },
  {
    "postal": "M5A6X1",
    "result": []
  },
  {
    "postal": "M5A9Y7",
    "result": []
  },
  {
    "postal": "M5A2Y5",
    "result": [
      {
        "electoralDistricts": [
          {
            "election": null,
            "id": 109,
            "name": "Toronto Centre"
          }
        ],
        "pollDivisionIds": [
          10135201
        ],
        "postalCode": "M5A2Y5",
        "streetName": "PARLIAMENT",
        "streetDirectionId": null,
        "streetTypeId": "ST",
        "placeName": "TORONTO",
        "streetNameDisplayText": "PARLIAMENT ST, TORONTO"
      }
    ]
  },
  {
    "postal": "M5A8L7",
    "result": []
  },
  {
    "postal": "M5A2A8",
    "result": [
      {
        "electoralDistricts": [
          {
            "election": null,
            "id": 109,
            "name": "Toronto Centre"
          }
        ],
        "pollDivisionIds": [
          10135195
        ],
        "postalCode": "M5A2A8",
        "streetName": "DUNDAS",
        "streetDirectionId": "E",
        "streetTypeId": "ST",
        "placeName": "TORONTO",
        "streetNameDisplayText": "DUNDAS ST E, TORONTO"
      }
    ]
  },
  {
    "postal": "M5A2K9",
    "result": [
      {
        "electoralDistricts": [
          {
            "election": null,
            "id": 109,
            "name": "Toronto Centre"
          }
        ],
        "pollDivisionIds": [
          10135195
        ],
        "postalCode": "M5A2K9",
        "streetName": "CARLTON",
        "streetDirectionId": null,
        "streetTypeId": "ST",
        "placeName": "TORONTO",
        "streetNameDisplayText": "CARLTON ST, TORONTO"
      }
    ]
  },
  {
    "postal": "M5A3E5",
    "result": [
      {
        "electoralDistricts": [
          {
            "election": null,
            "id": 109,
            "name": "Toronto Centre"
          }
        ],
        "pollDivisionIds": [
          10135201
        ],
        "postalCode": "M5A3E5",
        "streetName": "SACKVILLE",
        "streetDirectionId": null,
        "streetTypeId": "ST",
        "placeName": "TORONTO",
        "streetNameDisplayText": "SACKVILLE ST, TORONTO"
      }
    ]
  },
  {
    "postal": "M5A8N6",
    "result": []
  },
  {
    "postal": "M5A8J4",
    "result": []
  },
  {
    "postal": "M5A4R7",
    "result": []
  },
  {
    "postal": "M5A9K1",
    "result": []
  },
  {
    "postal": "M5A8E1",
    "result": []
  },
  {
    "postal": "M5A0R1",
    "result": []
  },
  {
    "postal": "M5A4J3",
    "result": [
      {
        "electoralDistricts": [
          {
            "election": null,
            "id": 101,
            "name": "Spadina—Fort York"
          }
        ],
        "pollDivisionIds": [
          10141970
        ],
        "postalCode": "M5A4J3",
        "streetName": "SCADDING",
        "streetDirectionId": null,
        "streetTypeId": "AVE",
        "placeName": "TORONTO",
        "streetNameDisplayText": "SCADDING AVE, TORONTO"
      }
    ]
  },
  {
    "postal": "M5A7E7",
    "result": []
  },
  {
    "postal": "M5A0J0",
    "result": []
  },
  {
    "postal": "M5A7R8",
    "result": []
  },
  {
    "postal": "M5A9X0",
    "result": []
  },
  {
    "postal": "M5A7P6",
    "result": []
  },
  {
    "postal": "M5A0R7",
    "result": []
  },
  {
    "postal": "M5A5W1",
    "result": []
  },
  {
    "postal": "M5A0K4",
    "result": []
  },
  {
    "postal": "M5A7N9",
    "result": []
  },
  {
    "postal": "M5A1N0",
    "result": []
  },
  {
    "postal": "M5A6P3",
    "result": []
  },
  {
    "postal": "M5A5A1",
    "result": []
  },
  {
    "postal": "M5A9M9",
    "result": []
  },
  {
    "postal": "M5A7T6",
    "result": []
  },
  {
    "postal": "M5A3X0",
    "result": []
  },
  {
    "postal": "M5A2T0",
    "result": []
  },
  {
    "postal": "M5A5X9",
    "result": []
  },
  {
    "postal": "M5A2R3",
    "result": [
      {
        "electoralDistricts": [
          {
            "election": null,
            "id": 109,
            "name": "Toronto Centre"
          }
        ],
        "pollDivisionIds": [
          10135246,
          10135200
        ],
        "postalCode": "M5A2R3",
        "streetName": "SHERBOURNE",
        "streetDirectionId": null,
        "streetTypeId": "ST",
        "placeName": "TORONTO",
        "streetNameDisplayText": "SHERBOURNE ST, TORONTO"
      }
    ]
  },
  {
    "postal": "M5A5N2",
    "result": []
  },
  {
    "postal": "M5A4Y7",
    "result": []
  },
  {
    "postal": "M5A7M0",
    "result": []
  },
  {
    "postal": "M5A8P3",
    "result": []
  },
  {
    "postal": "M5A3N3",
    "result": [
      {
        "electoralDistricts": [
          {
            "election": null,
            "id": 109,
            "name": "Toronto Centre"
          }
        ],
        "pollDivisionIds": [
          10135190
        ],
        "postalCode": "M5A3N3",
        "streetName": "SWORD",
        "streetDirectionId": null,
        "streetTypeId": "ST",
        "placeName": "TORONTO",
        "streetNameDisplayText": "SWORD ST, TORONTO"
      }
    ]
  },
  {
    "postal": "M5A7S3",
    "result": []
  },
  {
    "postal": "M5A3V9",
    "result": []
  },
  {
    "postal": "M5A9N7",
    "result": []
  },
  {
    "postal": "M5A0G4",
    "result": [
      {
        "electoralDistricts": [
          {
            "election": null,
            "id": 109,
            "name": "Toronto Centre"
          },
          {
            "election": null,
            "id": 22,
            "name": "Don Valley West"
          }
        ],
        "pollDivisionIds": [
          10135202,
          10137767,
          10135201
        ],
        "postalCode": "M5A0G4",
        "streetName": "BAYVIEW",
        "streetDirectionId": null,
        "streetTypeId": "AVE",
        "placeName": "TORONTO",
        "streetNameDisplayText": "BAYVIEW AVE, TORONTO"
      }
    ]
  },
  {
    "postal": "M5A2E2",
    "result": [
      {
        "electoralDistricts": [
          {
            "election": null,
            "id": 109,
            "name": "Toronto Centre"
          }
        ],
        "pollDivisionIds": [
          10135191
        ],
        "postalCode": "M5A2E2",
        "streetName": "OAK",
        "streetDirectionId": null,
        "streetTypeId": "ST",
        "placeName": "TORONTO",
        "streetNameDisplayText": "OAK ST, TORONTO"
      }
    ]
  },
  {
    "postal": "M5A7W8",
    "result": []
  },
  {
    "postal": "M5A7M5",
    "result": []
  },
  {
    "postal": "M5A5W8",
    "result": []
  },
  {
    "postal": "M5A5E5",
    "result": []
  },
  {
    "postal": "M5A1P9",
    "result": [
      {
        "electoralDistricts": [
          {
            "election": null,
            "id": 109,
            "name": "Toronto Centre"
          }
        ],
        "pollDivisionIds": [
          10135246
        ],
        "postalCode": "M5A1P9",
        "streetName": "RICHMOND",
        "streetDirectionId": "E",
        "streetTypeId": "ST",
        "placeName": "TORONTO",
        "streetNameDisplayText": "RICHMOND ST E, TORONTO"
      },
      {
        "electoralDistricts": [
          {
            "election": null,
            "id": 109,
            "name": "Toronto Centre"
          }
        ],
        "pollDivisionIds": [
          10135180
        ],
        "postalCode": "M5A1P9",
        "streetName": "RICHMOND ST EAST",
        "streetDirectionId": "E",
        "streetTypeId": "ST",
        "placeName": "TORONTO",
        "streetNameDisplayText": "RICHMOND ST EAST ST E, TORONTO"
      }
    ]
  },
  {
    "postal": "M5A8V8",
    "result": []
  },
  {
    "postal": "M5A9G8",
    "result": []
  },
  {
    "postal": "M5A8H9",
    "result": []
  },
  {
    "postal": "M5A1Z1",
    "result": [
      {
        "electoralDistricts": [
          {
            "election": null,
            "id": 109,
            "name": "Toronto Centre"
          }
        ],
        "pollDivisionIds": [
          10135196
        ],
        "postalCode": "M5A1Z1",
        "streetName": "LABATT",
        "streetDirectionId": null,
        "streetTypeId": "AVE",
        "placeName": "TORONTO",
        "streetNameDisplayText": "LABATT AVE, TORONTO"
      }
    ]
  },
  {
    "postal": "M5A8M3",
    "result": []
  },
  {
    "postal": "M5A5H6",
    "result": []
  },
  {
    "postal": "M5A7W7",
    "result": []
  },
  {
    "postal": "M5A4L0",
    "result": []
  },
  {
    "postal": "M5A2N1",
    "result": [
      {
        "electoralDistricts": [
          {
            "election": null,
            "id": 109,
            "name": "Toronto Centre"
          }
        ],
        "pollDivisionIds": [
          10135200,
          10135197
        ],
        "postalCode": "M5A2N1",
        "streetName": "GEORGE",
        "streetDirectionId": null,
        "streetTypeId": "ST",
        "placeName": "TORONTO",
        "streetNameDisplayText": "GEORGE ST, TORONTO"
      }
    ]
  },
  {
    "postal": "M5A2H4",
    "result": [
      {
        "electoralDistricts": [
          {
            "election": null,
            "id": 109,
            "name": "Toronto Centre"
          }
        ],
        "pollDivisionIds": [
          10135196
        ],
        "postalCode": "M5A2H4",
        "streetName": "GERRARD",
        "streetDirectionId": "E",
        "streetTypeId": "ST",
        "placeName": "TORONTO",
        "streetNameDisplayText": "GERRARD ST E, TORONTO"
      },
      {
        "electoralDistricts": [
          {
            "election": null,
            "id": 109,
            "name": "Toronto Centre"
          }
        ],
        "pollDivisionIds": [
          10135196
        ],
        "postalCode": "M5A2H4",
        "streetName": "GERRARD STREET EAST",
        "streetDirectionId": "E",
        "streetTypeId": "ST",
        "placeName": "TORONTO",
        "streetNameDisplayText": "GERRARD STREET EAST ST E, TORONTO"
      }
    ]
  },
  {
    "postal": "M5A5C8",
    "result": []
  },
  {
    "postal": "M5A8B0",
    "result": []
  },
  {
    "postal": "M5A1T4",
    "result": [
      {
        "electoralDistricts": [
          {
            "election": null,
            "id": 109,
            "name": "Toronto Centre"
          }
        ],
        "pollDivisionIds": [
          10135201
        ],
        "postalCode": "M5A1T4",
        "streetName": "QUEEN",
        "streetDirectionId": "E",
        "streetTypeId": "ST",
        "placeName": "TORONTO",
        "streetNameDisplayText": "QUEEN ST E, TORONTO"
      }
    ]
  },
  {
    "postal": "M5A7N7",
    "result": []
  },
  {
    "postal": "M5A4L3",
    "result": []
  },
  {
    "postal": "M5A2N2",
    "result": [
      {
        "electoralDistricts": [
          {
            "election": null,
            "id": 109,
            "name": "Toronto Centre"
          }
        ],
        "pollDivisionIds": [
          10143889
        ],
        "postalCode": "M5A2N2",
        "streetName": "GEORGE",
        "streetDirectionId": null,
        "streetTypeId": "ST",
        "placeName": "TORONTO",
        "streetNameDisplayText": "GEORGE ST, TORONTO"
      }
    ]
  },
  {
    "postal": "M5A4N8",
    "result": [
      {
        "electoralDistricts": [
          {
            "election": null,
            "id": 109,
            "name": "Toronto Centre"
          }
        ],
        "pollDivisionIds": [
          10135242
        ],
        "postalCode": "M5A4N8",
        "streetName": "COLE",
        "streetDirectionId": null,
        "streetTypeId": "ST",
        "placeName": "TORONTO",
        "streetNameDisplayText": "COLE ST, TORONTO"
      }
    ]
  },
  {
    "postal": "M5A3M5",
    "result": [
      {
        "electoralDistricts": [
          {
            "election": null,
            "id": 109,
            "name": "Toronto Centre"
          }
        ],
        "pollDivisionIds": [
          10135196
        ],
        "postalCode": "M5A3M5",
        "streetName": "BLEVINS",
        "streetDirectionId": null,
        "streetTypeId": "PL",
        "placeName": "TORONTO",
        "streetNameDisplayText": "BLEVINS PL, TORONTO"
      }
    ]
  },
  {
    "postal": "M5A6H7",
    "result": []
  },
  {
    "postal": "M5A8Y8",
    "result": []
  },
  {
    "postal": "M5A5R9",
    "result": []
  },
  {
    "postal": "M5A8G3",
    "result": []
  },
  {
    "postal": "M5A4N7",
    "result": [
      {
        "electoralDistricts": [
          {
            "election": null,
            "id": 109,
            "name": "Toronto Centre"
          }
        ],
        "pollDivisionIds": [
          10135196
        ],
        "postalCode": "M5A4N7",
        "streetName": "ANNA HILLIARD",
        "streetDirectionId": null,
        "streetTypeId": "LANE",
        "placeName": "TORONTO",
        "streetNameDisplayText": "ANNA HILLIARD LANE, TORONTO"
      }
    ]
  },
  {
    "postal": "M5A0B9",
    "result": [
      {
        "electoralDistricts": [
          {
            "election": null,
            "id": 109,
            "name": "Toronto Centre"
          }
        ],
        "pollDivisionIds": [
          10135196
        ],
        "postalCode": "M5A0B9",
        "streetName": "SACKVILLE",
        "streetDirectionId": null,
        "streetTypeId": "ST",
        "placeName": "TORONTO",
        "streetNameDisplayText": "SACKVILLE ST, TORONTO"
      }
    ]
  },
  {
    "postal": "M5A9K7",
    "result": []
  },
  {
    "postal": "M5A9K9",
    "result": []
  },
  {
    "postal": "M5A3Z2",
    "result": [
      {
        "electoralDistricts": [
          {
            "election": null,
            "id": 109,
            "name": "Toronto Centre"
          }
        ],
        "pollDivisionIds": [
          10135190
        ],
        "postalCode": "M5A3Z2",
        "streetName": "ROLSTON",
        "streetDirectionId": null,
        "streetTypeId": "AVE",
        "placeName": "TORONTO",
        "streetNameDisplayText": "ROLSTON AVE, TORONTO"
      }
    ]
  },
  {
    "postal": "M5A6W7",
    "result": []
  },
  {
    "postal": "M5A0P1",
    "result": [
      {
        "electoralDistricts": [
          {
            "election": null,
            "id": 109,
            "name": "Toronto Centre"
          }
        ],
        "pollDivisionIds": [
          10135196,
          10135180
        ],
        "postalCode": "M5A0P1",
        "streetName": "BARTHOLOMEW",
        "streetDirectionId": null,
        "streetTypeId": "ST",
        "placeName": "TORONTO",
        "streetNameDisplayText": "BARTHOLOMEW ST, TORONTO"
      },
      {
        "electoralDistricts": [
          {
            "election": null,
            "id": 109,
            "name": "Toronto Centre"
          }
        ],
        "pollDivisionIds": [
          10135182,
          10135196
        ],
        "postalCode": "M5A0P1",
        "streetName": "REGENT",
        "streetDirectionId": null,
        "streetTypeId": "ST",
        "placeName": "TORONTO",
        "streetNameDisplayText": "REGENT ST, TORONTO"
      },
      {
        "electoralDistricts": [
          {
            "election": null,
            "id": 109,
            "name": "Toronto Centre"
          }
        ],
        "pollDivisionIds": [
          10135196
        ],
        "postalCode": "M5A0P1",
        "streetName": "ST BARTHOLOMEW",
        "streetDirectionId": null,
        "streetTypeId": "ST",
        "placeName": "TORONTO",
        "streetNameDisplayText": "ST BARTHOLOMEW ST, TORONTO"
      }
    ]
  },
  {
    "postal": "M5A3A0",
    "result": []
  },
  {
    "postal": "M5A8L9",
    "result": []
  },
  {
    "postal": "M5A6X0",
    "result": []
  },
  {
    "postal": "M5A3E9",
    "result": [
      {
        "electoralDistricts": [
          {
            "election": null,
            "id": 109,
            "name": "Toronto Centre"
          }
        ],
        "pollDivisionIds": [
          10135242
        ],
        "postalCode": "M5A3E9",
        "streetName": "SACKVILLE",
        "streetDirectionId": null,
        "streetTypeId": "ST",
        "placeName": "TORONTO",
        "streetNameDisplayText": "SACKVILLE ST, TORONTO"
      }
    ]
  },
  {
    "postal": "M5A0S5",
    "result": []
  },
  {
    "postal": "M5A1A2",
    "result": [
      {
        "electoralDistricts": [
          {
            "election": null,
            "id": 110,
            "name": "Toronto—Danforth"
          }
        ],
        "pollDivisionIds": [
          10142530
        ],
        "postalCode": "M5A1A2",
        "streetName": "UNWIN",
        "streetDirectionId": null,
        "streetTypeId": "AVE",
        "placeName": "TORONTO",
        "streetNameDisplayText": "UNWIN AVE, TORONTO"
      }
    ]
  },
  {
    "postal": "M5A5V8",
    "result": []
  },
  {
    "postal": "M5A8C5",
    "result": []
  },
  {
    "postal": "M5A6N0",
    "result": []
  },
  {
    "postal": "M5A9E6",
    "result": []
  },
  {
    "postal": "M5A5J7",
    "result": []
  },
  {
    "postal": "M5A2R2",
    "result": [
      {
        "electoralDistricts": [
          {
            "election": null,
            "id": 109,
            "name": "Toronto Centre"
          }
        ],
        "pollDivisionIds": [
          10135200
        ],
        "postalCode": "M5A2R2",
        "streetName": "SHERBOURNE",
        "streetDirectionId": null,
        "streetTypeId": "ST",
        "placeName": "TORONTO",
        "streetNameDisplayText": "SHERBOURNE ST, TORONTO"
      }
    ]
  },
  {
    "postal": "M5A0P5",
    "result": [
      {
        "electoralDistricts": [
          {
            "election": null,
            "id": 109,
            "name": "Toronto Centre"
          }
        ],
        "pollDivisionIds": [
          10135196
        ],
        "postalCode": "M5A0P5",
        "streetName": "WYATT",
        "streetDirectionId": null,
        "streetTypeId": "AVE",
        "placeName": "TORONTO",
        "streetNameDisplayText": "WYATT AVE, TORONTO"
      }
    ]
  },
  {
    "postal": "M5A5A7",
    "result": []
  },
  {
    "postal": "M5A1G1",
    "result": [
      {
        "electoralDistricts": [
          {
            "election": null,
            "id": 109,
            "name": "Toronto Centre"
          }
        ],
        "pollDivisionIds": [
          10135201
        ],
        "postalCode": "M5A1G1",
        "streetName": "FRONT",
        "streetDirectionId": "E",
        "streetTypeId": "ST",
        "placeName": "TORONTO",
        "streetNameDisplayText": "FRONT ST E, TORONTO"
      }
    ]
  },
  {
    "postal": "M5A9R6",
    "result": []
  },
  {
    "postal": "M5A4Z9",
    "result": []
  },
  {
    "postal": "M5A1V5",
    "result": [
      {
        "electoralDistricts": [
          {
            "election": null,
            "id": 109,
            "name": "Toronto Centre"
          }
        ],
        "pollDivisionIds": [
          10135196
        ],
        "postalCode": "M5A1V5",
        "streetName": "WASCANA",
        "streetDirectionId": null,
        "streetTypeId": "AVE",
        "placeName": "TORONTO",
        "streetNameDisplayText": "WASCANA AVE, TORONTO"
      }
    ]
  },
  {
    "postal": "M5A9Y5",
    "result": []
  },
  {
    "postal": "M5A1P2",
    "result": [
      {
        "electoralDistricts": [
          {
            "election": null,
            "id": 109,
            "name": "Toronto Centre"
          }
        ],
        "pollDivisionIds": [
          10135200
        ],
        "postalCode": "M5A1P2",
        "streetName": "RICHMOND",
        "streetDirectionId": "E",
        "streetTypeId": "ST",
        "placeName": "TORONTO",
        "streetNameDisplayText": "RICHMOND ST E, TORONTO"
      }
    ]
  },
  {
    "postal": "M5A5X0",
    "result": []
  },
  {
    "postal": "M5A7B8",
    "result": []
  },
  {
    "postal": "M5A0C6",
    "result": []
  },
  {
    "postal": "M5A6G1",
    "result": []
  },
  {
    "postal": "M5A3K3",
    "result": [
      {
        "electoralDistricts": [
          {
            "election": null,
            "id": 109,
            "name": "Toronto Centre"
          }
        ],
        "pollDivisionIds": [
          10135196
        ],
        "postalCode": "M5A3K3",
        "streetName": "SUMACH",
        "streetDirectionId": null,
        "streetTypeId": "ST",
        "placeName": "TORONTO",
        "streetNameDisplayText": "SUMACH ST, TORONTO"
      }
    ]
  },
  {
    "postal": "M5A9R0",
    "result": []
  },
  {
    "postal": "M5A4R8",
    "result": []
  },
  {
    "postal": "M5A5P9",
    "result": []
  },
  {
    "postal": "M5A8N4",
    "result": []
  },
  {
    "postal": "M5A8H4",
    "result": []
  },
  {
    "postal": "M5A4V1",
    "result": []
  },
  {
    "postal": "M5A1K5",
    "result": [
      {
        "electoralDistricts": [
          {
            "election": null,
            "id": 109,
            "name": "Toronto Centre"
          }
        ],
        "pollDivisionIds": [
          10135249,
          10135201
        ],
        "postalCode": "M5A1K5",
        "streetName": "KING",
        "streetDirectionId": "E",
        "streetTypeId": "ST",
        "placeName": "TORONTO",
        "streetNameDisplayText": "KING ST E, TORONTO"
      }
    ]
  },
  {
    "postal": "M5A1Z5",
    "result": [
      {
        "electoralDistricts": [
          {
            "election": null,
            "id": 109,
            "name": "Toronto Centre"
          }
        ],
        "pollDivisionIds": [
          10135197
        ],
        "postalCode": "M5A1Z5",
        "streetName": "POULETT",
        "streetDirectionId": null,
        "streetTypeId": "ST",
        "placeName": "TORONTO",
        "streetNameDisplayText": "POULETT ST, TORONTO"
      }
    ]
  },
  {
    "postal": "M5A9L9",
    "result": []
  },
  {
    "postal": "M5A5L2",
    "result": []
  },
  {
    "postal": "M5A0M2",
    "result": [
      {
        "electoralDistricts": [
          {
            "election": null,
            "id": 109,
            "name": "Toronto Centre"
          }
        ],
        "pollDivisionIds": [
          10135196
        ],
        "postalCode": "M5A0M2",
        "streetName": "RIVER",
        "streetDirectionId": null,
        "streetTypeId": "ST",
        "placeName": "TORONTO",
        "streetNameDisplayText": "RIVER ST, TORONTO"
      }
    ]
  },
  {
    "postal": "M5A1K8",
    "result": [
      {
        "electoralDistricts": [
          {
            "election": null,
            "id": 109,
            "name": "Toronto Centre"
          }
        ],
        "pollDivisionIds": [
          10135201
        ],
        "postalCode": "M5A1K8",
        "streetName": "KING",
        "streetDirectionId": "E",
        "streetTypeId": "ST",
        "placeName": "TORONTO",
        "streetNameDisplayText": "KING ST E, TORONTO"
      }
    ]
  },
  {
    "postal": "M5A3M7",
    "result": [
      {
        "electoralDistricts": [
          {
            "election": null,
            "id": 109,
            "name": "Toronto Centre"
          }
        ],
        "pollDivisionIds": [
          10135202
        ],
        "postalCode": "M5A3M7",
        "streetName": "PERCY",
        "streetDirectionId": null,
        "streetTypeId": "ST",
        "placeName": "TORONTO",
        "streetNameDisplayText": "PERCY ST, TORONTO"
      }
    ]
  },
  {
    "postal": "M5A1B2",
    "result": []
  },
  {
    "postal": "M5A0H9",
    "result": []
  },
  {
    "postal": "M5A8M4",
    "result": []
  },
  {
    "postal": "M5A2M5",
    "result": [
      {
        "electoralDistricts": [
          {
            "election": null,
            "id": 109,
            "name": "Toronto Centre"
          }
        ],
        "pollDivisionIds": [
          10135248
        ],
        "postalCode": "M5A2M5",
        "streetName": "GEORGE",
        "streetDirectionId": null,
        "streetTypeId": "ST",
        "placeName": "TORONTO",
        "streetNameDisplayText": "GEORGE ST, TORONTO"
      }
    ]
  },
  {
    "postal": "M5A0T9",
    "result": [
      {
        "electoralDistricts": [
          {
            "election": null,
            "id": 109,
            "name": "Toronto Centre"
          }
        ],
        "pollDivisionIds": [
          10135201
        ],
        "postalCode": "M5A0T9",
        "streetName": "SHERBOURNE",
        "streetDirectionId": null,
        "streetTypeId": "ST",
        "placeName": "TORONTO",
        "streetNameDisplayText": "SHERBOURNE ST, TORONTO"
      }
    ]
  },
  {
    "postal": "M5A3P1",
    "result": [
      {
        "electoralDistricts": [
          {
            "election": null,
            "id": 109,
            "name": "Toronto Centre"
          }
        ],
        "pollDivisionIds": [
          10135196
        ],
        "postalCode": "M5A3P1",
        "streetName": "RIVER",
        "streetDirectionId": null,
        "streetTypeId": "ST",
        "placeName": "TORONTO",
        "streetNameDisplayText": "RIVER ST, TORONTO"
      }
    ]
  },
  {
    "postal": "M5A1R6",
    "result": [
      {
        "electoralDistricts": [
          {
            "election": null,
            "id": 109,
            "name": "Toronto Centre"
          }
        ],
        "pollDivisionIds": [
          10135200
        ],
        "postalCode": "M5A1R6",
        "streetName": "BRITAIN",
        "streetDirectionId": null,
        "streetTypeId": "ST",
        "placeName": "TORONTO",
        "streetNameDisplayText": "BRITAIN ST, TORONTO"
      }
    ]
  },
  {
    "postal": "M5A9V5",
    "result": []
  },
  {
    "postal": "M5A9T0",
    "result": []
  },
  {
    "postal": "M5A0A9",
    "result": []
  },
  {
    "postal": "M5A1M3",
    "result": [
      {
        "electoralDistricts": [
          {
            "election": null,
            "id": 109,
            "name": "Toronto Centre"
          }
        ],
        "pollDivisionIds": [
          10135202
        ],
        "postalCode": "M5A1M3",
        "streetName": "FRONT",
        "streetDirectionId": "E",
        "streetTypeId": "ST",
        "placeName": "TORONTO",
        "streetNameDisplayText": "FRONT ST E, TORONTO"
      },
      {
        "electoralDistricts": [
          {
            "election": null,
            "id": 109,
            "name": "Toronto Centre"
          }
        ],
        "pollDivisionIds": [
          10135202
        ],
        "postalCode": "M5A1M3",
        "streetName": "KING",
        "streetDirectionId": "E",
        "streetTypeId": "ST",
        "placeName": "TORONTO",
        "streetNameDisplayText": "KING ST E, TORONTO"
      }
    ]
  },
  {
    "postal": "M5A1W8",
    "result": [
      {
        "electoralDistricts": [
          {
            "election": null,
            "id": 109,
            "name": "Toronto Centre"
          }
        ],
        "pollDivisionIds": [
          10135196
        ],
        "postalCode": "M5A1W8",
        "streetName": "SHUTER",
        "streetDirectionId": null,
        "streetTypeId": "ST",
        "placeName": "TORONTO",
        "streetNameDisplayText": "SHUTER ST, TORONTO"
      }
    ]
  },
  {
    "postal": "M5A9J1",
    "result": []
  },
  {
    "postal": "M5A8N5",
    "result": []
  },
  {
    "postal": "M5A5X1",
    "result": []
  },
  {
    "postal": "M5A6S2",
    "result": []
  },
  {
    "postal": "M5A2A2",
    "result": [
      {
        "electoralDistricts": [
          {
            "election": null,
            "id": 109,
            "name": "Toronto Centre"
          }
        ],
        "pollDivisionIds": [
          10135197,
          10135195
        ],
        "postalCode": "M5A2A2",
        "streetName": "DUNDAS",
        "streetDirectionId": "E",
        "streetTypeId": "ST",
        "placeName": "TORONTO",
        "streetNameDisplayText": "DUNDAS ST E, TORONTO"
      }
    ]
  },
  {
    "postal": "M5A6A6",
    "result": []
  },
  {
    "postal": "M5A0S3",
    "result": []
  },
  {
    "postal": "M5A3E7",
    "result": [
      {
        "electoralDistricts": [
          {
            "election": null,
            "id": 109,
            "name": "Toronto Centre"
          }
        ],
        "pollDivisionIds": [
          10135201,
          10135196
        ],
        "postalCode": "M5A3E7",
        "streetName": "SACKVILLE",
        "streetDirectionId": null,
        "streetTypeId": "ST",
        "placeName": "TORONTO",
        "streetNameDisplayText": "SACKVILLE ST, TORONTO"
      }
    ]
  },
  {
    "postal": "M5A5R7",
    "result": []
  },
  {
    "postal": "M5A3R6",
    "result": []
  },
  {
    "postal": "M5A6K4",
    "result": []
  },
  {
    "postal": "M5A2W5",
    "result": [
      {
        "electoralDistricts": [
          {
            "election": null,
            "id": 109,
            "name": "Toronto Centre"
          }
        ],
        "pollDivisionIds": [
          10135201
        ],
        "postalCode": "M5A2W5",
        "streetName": "BERKELEY",
        "streetDirectionId": null,
        "streetTypeId": "ST",
        "placeName": "TORONTO",
        "streetNameDisplayText": "BERKELEY ST, TORONTO"
      }
    ]
  },
  {
    "postal": "M5A8W4",
    "result": []
  },
  {
    "postal": "M5A9C2",
    "result": []
  },
  {
    "postal": "M5A2C0",
    "result": []
  },
  {
    "postal": "M5A0E1",
    "result": [
      {
        "electoralDistricts": [
          {
            "election": null,
            "id": 109,
            "name": "Toronto Centre"
          }
        ],
        "pollDivisionIds": [
          10135201
        ],
        "postalCode": "M5A0E1",
        "streetName": "KING",
        "streetDirectionId": "E",
        "streetTypeId": "ST",
        "placeName": "TORONTO",
        "streetNameDisplayText": "KING ST E, TORONTO"
      }
    ]
  },
  {
    "postal": "M5A1K9",
    "result": [
      {
        "electoralDistricts": [
          {
            "election": null,
            "id": 109,
            "name": "Toronto Centre"
          }
        ],
        "pollDivisionIds": [
          10135201
        ],
        "postalCode": "M5A1K9",
        "streetName": "KING",
        "streetDirectionId": "E",
        "streetTypeId": "ST",
        "placeName": "TORONTO",
        "streetNameDisplayText": "KING ST E, TORONTO"
      }
    ]
  },
  {
    "postal": "M5A1G7",
    "result": [
      {
        "electoralDistricts": [
          {
            "election": null,
            "id": 110,
            "name": "Toronto—Danforth"
          }
        ],
        "pollDivisionIds": [
          10142530
        ],
        "postalCode": "M5A1G7",
        "streetName": "MUNITION",
        "streetDirectionId": null,
        "streetTypeId": "ST",
        "placeName": "TORONTO",
        "streetNameDisplayText": "MUNITION ST, TORONTO"
      }
    ]
  },
  {
    "postal": "M5A4E9",
    "result": [
      {
        "electoralDistricts": [
          {
            "election": null,
            "id": 101,
            "name": "Spadina—Fort York"
          }
        ],
        "pollDivisionIds": [
          10141944,
          10141970
        ],
        "postalCode": "M5A4E9",
        "streetName": "SCADDING",
        "streetDirectionId": null,
        "streetTypeId": "AVE",
        "placeName": "TORONTO",
        "streetNameDisplayText": "SCADDING AVE, TORONTO"
      }
    ]
  },
  {
    "postal": "M5A9P0",
    "result": []
  },
  {
    "postal": "M5A5H3",
    "result": []
  },
  {
    "postal": "M5A9X6",
    "result": []
  },
  {
    "postal": "M5A5N7",
    "result": []
  },
  {
    "postal": "M5A5A6",
    "result": []
  },
  {
    "postal": "M5A4M0",
    "result": []
  },
  {
    "postal": "M5A3V6",
    "result": [
      {
        "electoralDistricts": [
          {
            "election": null,
            "id": 109,
            "name": "Toronto Centre"
          }
        ],
        "pollDivisionIds": [
          10135200
        ],
        "postalCode": "M5A3V6",
        "streetName": "ONTARIO",
        "streetDirectionId": null,
        "streetTypeId": "ST",
        "placeName": "TORONTO",
        "streetNameDisplayText": "ONTARIO ST, TORONTO"
      }
    ]
  },
  {
    "postal": "M5A1L7",
    "result": [
      {
        "electoralDistricts": [
          {
            "election": null,
            "id": 109,
            "name": "Toronto Centre"
          }
        ],
        "pollDivisionIds": [
          10135202
        ],
        "postalCode": "M5A1L7",
        "streetName": "KING",
        "streetDirectionId": "E",
        "streetTypeId": "ST",
        "placeName": "TORONTO",
        "streetNameDisplayText": "KING ST E, TORONTO"
      }
    ]
  },
  {
    "postal": "M5A2P9",
    "result": [
      {
        "electoralDistricts": [
          {
            "election": null,
            "id": 109,
            "name": "Toronto Centre"
          }
        ],
        "pollDivisionIds": [
          10135201
        ],
        "postalCode": "M5A2P9",
        "streetName": "SHERBOURNE",
        "streetDirectionId": null,
        "streetTypeId": "ST",
        "placeName": "TORONTO",
        "streetNameDisplayText": "SHERBOURNE ST, TORONTO"
      }
    ]
  },
  {
    "postal": "M5A5T4",
    "result": []
  },
  {
    "postal": "M5A5Z1",
    "result": []
  },
  {
    "postal": "M5A2X0",
    "result": []
  },
  {
    "postal": "M5A6Z2",
    "result": []
  },
  {
    "postal": "M5A0E0",
    "result": []
  },
  {
    "postal": "M5A3Z5",
    "result": [
      {
        "electoralDistricts": [
          {
            "election": null,
            "id": 109,
            "name": "Toronto Centre"
          }
        ],
        "pollDivisionIds": [
          10135197
        ],
        "postalCode": "M5A3Z5",
        "streetName": "SHERBOURNE",
        "streetDirectionId": null,
        "streetTypeId": "ST",
        "placeName": "TORONTO",
        "streetNameDisplayText": "SHERBOURNE ST, TORONTO"
      }
    ]
  },
  {
    "postal": "M5A8H3",
    "result": []
  },
  {
    "postal": "M5A7S6",
    "result": []
  },
  {
    "postal": "M5A4C1",
    "result": []
  },
  {
    "postal": "M5A3K2",
    "result": [
      {
        "electoralDistricts": [
          {
            "election": null,
            "id": 109,
            "name": "Toronto Centre"
          }
        ],
        "pollDivisionIds": [
          10135196
        ],
        "postalCode": "M5A3K2",
        "streetName": "SUMACH",
        "streetDirectionId": null,
        "streetTypeId": "ST",
        "placeName": "TORONTO",
        "streetNameDisplayText": "SUMACH ST, TORONTO"
      }
    ]
  },
  {
    "postal": "M5A1Y5",
    "result": []
  },
  {
    "postal": "M5A6P6",
    "result": []
  },
  {
    "postal": "M5A3N9",
    "result": [
      {
        "electoralDistricts": [
          {
            "election": null,
            "id": 109,
            "name": "Toronto Centre"
          }
        ],
        "pollDivisionIds": [
          10135196
        ],
        "postalCode": "M5A3N9",
        "streetName": "RIVER",
        "streetDirectionId": null,
        "streetTypeId": "ST",
        "placeName": "TORONTO",
        "streetNameDisplayText": "RIVER ST, TORONTO"
      }
    ]
  },
  {
    "postal": "M5A3W2",
    "result": [
      {
        "electoralDistricts": [
          {
            "election": null,
            "id": 109,
            "name": "Toronto Centre"
          }
        ],
        "pollDivisionIds": [
          10135246,
          10135197,
          10135199
        ],
        "postalCode": "M5A3W2",
        "streetName": "SHERBOURNE",
        "streetDirectionId": null,
        "streetTypeId": "ST",
        "placeName": "TORONTO",
        "streetNameDisplayText": "SHERBOURNE ST, TORONTO"
      }
    ]
  },
  {
    "postal": "M5A6H8",
    "result": []
  },
  {
    "postal": "M5A9T3",
    "result": []
  },
  {
    "postal": "M5A5L9",
    "result": []
  },
  {
    "postal": "M5A7X7",
    "result": []
  },
  {
    "postal": "M5A3J5",
    "result": [
      {
        "electoralDistricts": [
          {
            "election": null,
            "id": 109,
            "name": "Toronto Centre"
          }
        ],
        "pollDivisionIds": [
          10135202
        ],
        "postalCode": "M5A3J5",
        "streetName": "SUMACH",
        "streetDirectionId": null,
        "streetTypeId": "ST",
        "placeName": "TORONTO",
        "streetNameDisplayText": "SUMACH ST, TORONTO"
      }
    ]
  },
  {
    "postal": "M5A4J5",
    "result": [
      {
        "electoralDistricts": [
          {
            "election": null,
            "id": 109,
            "name": "Toronto Centre"
          }
        ],
        "pollDivisionIds": [
          10135201
        ],
        "postalCode": "M5A4J5",
        "streetName": "BERKELEY",
        "streetDirectionId": null,
        "streetTypeId": "ST",
        "placeName": "TORONTO",
        "streetNameDisplayText": "BERKELEY ST, TORONTO"
      }
    ]
  },
  {
    "postal": "M5A6J2",
    "result": []
  },
  {
    "postal": "M5A5V6",
    "result": []
  },
  {
    "postal": "M5A3N2",
    "result": [
      {
        "electoralDistricts": [
          {
            "election": null,
            "id": 109,
            "name": "Toronto Centre"
          }
        ],
        "pollDivisionIds": [
          10135190
        ],
        "postalCode": "M5A3N2",
        "streetName": "SWORD",
        "streetDirectionId": null,
        "streetTypeId": "ST",
        "placeName": "TORONTO",
        "streetNameDisplayText": "SWORD ST, TORONTO"
      }
    ]
  },
  {
    "postal": "M5A3B1",
    "result": [
      {
        "electoralDistricts": [
          {
            "election": null,
            "id": 109,
            "name": "Toronto Centre"
          }
        ],
        "pollDivisionIds": [
          10135196
        ],
        "postalCode": "M5A3B1",
        "streetName": "RIVER",
        "streetDirectionId": null,
        "streetTypeId": "ST",
        "placeName": "TORONTO",
        "streetNameDisplayText": "RIVER ST, TORONTO"
      }
    ]
  },
  {
    "postal": "M5A8B5",
    "result": []
  },
  {
    "postal": "M5A0K1",
    "result": [
      {
        "electoralDistricts": [
          {
            "election": null,
            "id": 109,
            "name": "Toronto Centre"
          }
        ],
        "pollDivisionIds": [
          10135202
        ],
        "postalCode": "M5A0K1",
        "streetName": "LOWER RIVER",
        "streetDirectionId": null,
        "streetTypeId": "ST",
        "placeName": "TORONTO",
        "streetNameDisplayText": "LOWER RIVER ST, TORONTO"
      }
    ]
  },
  {
    "postal": "M5A7M7",
    "result": []
  },
  {
    "postal": "M5A2M2",
    "result": [
      {
        "electoralDistricts": [
          {
            "election": null,
            "id": 109,
            "name": "Toronto Centre"
          }
        ],
        "pollDivisionIds": [
          10135190
        ],
        "postalCode": "M5A2M2",
        "streetName": "CARLTON",
        "streetDirectionId": null,
        "streetTypeId": "ST",
        "placeName": "TORONTO",
        "streetNameDisplayText": "CARLTON ST, TORONTO"
      }
    ]
  },
  {
    "postal": "M5A9N3",
    "result": []
  },
  {
    "postal": "M5A4Y8",
    "result": []
  },
  {
    "postal": "M5A3V7",
    "result": [
      {
        "electoralDistricts": [
          {
            "election": null,
            "id": 109,
            "name": "Toronto Centre"
          }
        ],
        "pollDivisionIds": [
          10135242
        ],
        "postalCode": "M5A3V7",
        "streetName": "REGENT",
        "streetDirectionId": null,
        "streetTypeId": "ST",
        "placeName": "TORONTO",
        "streetNameDisplayText": "REGENT ST, TORONTO"
      }
    ]
  },
  {
    "postal": "M5A8Z1",
    "result": []
  },
  {
    "postal": "M5A7B3",
    "result": []
  },
  {
    "postal": "M5A3A8",
    "result": [
      {
        "electoralDistricts": [
          {
            "election": null,
            "id": 109,
            "name": "Toronto Centre"
          }
        ],
        "pollDivisionIds": [
          10135201
        ],
        "postalCode": "M5A3A8",
        "streetName": "POWER",
        "streetDirectionId": null,
        "streetTypeId": "ST",
        "placeName": "TORONTO",
        "streetNameDisplayText": "POWER ST, TORONTO"
      }
    ]
  },
  {
    "postal": "M5A7V5",
    "result": []
  },
  {
    "postal": "M5A2T2",
    "result": [
      {
        "electoralDistricts": [
          {
            "election": null,
            "id": 109,
            "name": "Toronto Centre"
          }
        ],
        "pollDivisionIds": [
          10135197
        ],
        "postalCode": "M5A2T2",
        "streetName": "SEATON",
        "streetDirectionId": null,
        "streetTypeId": "ST",
        "placeName": "TORONTO",
        "streetNameDisplayText": "SEATON ST, TORONTO"
      }
    ]
  },
  {
    "postal": "M5A6L3",
    "result": []
  },
  {
    "postal": "M5A0L2",
    "result": []
  },
  {
    "postal": "M5A5Y8",
    "result": []
  },
  {
    "postal": "M5A0B8",
    "result": [
      {
        "electoralDistricts": [
          {
            "election": null,
            "id": 109,
            "name": "Toronto Centre"
          }
        ],
        "pollDivisionIds": [
          10135196
        ],
        "postalCode": "M5A0B8",
        "streetName": "SACKVILLE",
        "streetDirectionId": null,
        "streetTypeId": "ST",
        "placeName": "TORONTO",
        "streetNameDisplayText": "SACKVILLE ST, TORONTO"
      }
    ]
  },
  {
    "postal": "M5A6R5",
    "result": []
  },
  {
    "postal": "M5A8W6",
    "result": []
  },
  {
    "postal": "M5A8G6",
    "result": []
  },
  {
    "postal": "M5A6X3",
    "result": []
  },
  {
    "postal": "M5A7R7",
    "result": []
  },
  {
    "postal": "M5A4B6",
    "result": [
      {
        "electoralDistricts": [
          {
            "election": null,
            "id": 101,
            "name": "Spadina—Fort York"
          }
        ],
        "pollDivisionIds": [
          10141971
        ],
        "postalCode": "M5A4B6",
        "streetName": "CHERRY",
        "streetDirectionId": null,
        "streetTypeId": "ST",
        "placeName": "TORONTO",
        "streetNameDisplayText": "CHERRY ST, TORONTO"
      },
      {
        "electoralDistricts": [
          {
            "election": null,
            "id": 101,
            "name": "Spadina—Fort York"
          }
        ],
        "pollDivisionIds": [
          10141971
        ],
        "postalCode": "M5A4B6",
        "streetName": "HENRY LANE",
        "streetDirectionId": null,
        "streetTypeId": "TERR",
        "placeName": "TORONTO",
        "streetNameDisplayText": "HENRY LANE TERR, TORONTO"
      }
    ]
  },
  {
    "postal": "M5A3P9",
    "result": [
      {
        "electoralDistricts": [
          {
            "election": null,
            "id": 109,
            "name": "Toronto Centre"
          }
        ],
        "pollDivisionIds": [
          10135190
        ],
        "postalCode": "M5A3P9",
        "streetName": "RIVER",
        "streetDirectionId": null,
        "streetTypeId": "ST",
        "placeName": "TORONTO",
        "streetNameDisplayText": "RIVER ST, TORONTO"
      }
    ]
  },
  {
    "postal": "M5A2T3",
    "result": [
      {
        "electoralDistricts": [
          {
            "election": null,
            "id": 109,
            "name": "Toronto Centre"
          }
        ],
        "pollDivisionIds": [
          10135197
        ],
        "postalCode": "M5A2T3",
        "streetName": "SEATON",
        "streetDirectionId": null,
        "streetTypeId": "ST",
        "placeName": "TORONTO",
        "streetNameDisplayText": "SEATON ST, TORONTO"
      }
    ]
  },
  {
    "postal": "M5A1M4",
    "result": [
      {
        "electoralDistricts": [
          {
            "election": null,
            "id": 109,
            "name": "Toronto Centre"
          }
        ],
        "pollDivisionIds": [
          10135202
        ],
        "postalCode": "M5A1M4",
        "streetName": "KING",
        "streetDirectionId": "E",
        "streetTypeId": "ST",
        "placeName": "TORONTO",
        "streetNameDisplayText": "KING ST E, TORONTO"
      }
    ]
  },
  {
    "postal": "M5A0H1",
    "result": []
  },
  {
    "postal": "M5A9W3",
    "result": []
  },
  {
    "postal": "M5A6P1",
    "result": []
  },
  {
    "postal": "M5A7G2",
    "result": []
  },
  {
    "postal": "M5A4J9",
    "result": []
  },
  {
    "postal": "M5A9E4",
    "result": []
  },
  {
    "postal": "M5A8H0",
    "result": []
  },
  {
    "postal": "M5A4M7",
    "result": [
      {
        "electoralDistricts": [
          {
            "election": null,
            "id": 109,
            "name": "Toronto Centre"
          }
        ],
        "pollDivisionIds": [
          10135242
        ],
        "postalCode": "M5A4M7",
        "streetName": "COLE",
        "streetDirectionId": null,
        "streetTypeId": "ST",
        "placeName": "TORONTO",
        "streetNameDisplayText": "COLE ST, TORONTO"
      }
    ]
  },
  {
    "postal": "M5A2G9",
    "result": [
      {
        "electoralDistricts": [
          {
            "election": null,
            "id": 109,
            "name": "Toronto Centre"
          }
        ],
        "pollDivisionIds": [
          10135190
        ],
        "postalCode": "M5A2G9",
        "streetName": "GERRARD",
        "streetDirectionId": "E",
        "streetTypeId": "ST",
        "placeName": "TORONTO",
        "streetNameDisplayText": "GERRARD ST E, TORONTO"
      }
    ]
  },
  {
    "postal": "M5A8T2",
    "result": []
  },
  {
    "postal": "M5A7G7",
    "result": []
  },
  {
    "postal": "M5A4Z3",
    "result": []
  },
  {
    "postal": "M5A5B3",
    "result": []
  },
  {
    "postal": "M5A1S7",
    "result": [
      {
        "electoralDistricts": [
          {
            "election": null,
            "id": 109,
            "name": "Toronto Centre"
          }
        ],
        "pollDivisionIds": [
          10135200,
          10135201
        ],
        "postalCode": "M5A1S7",
        "streetName": "QUEEN",
        "streetDirectionId": "E",
        "streetTypeId": "ST",
        "placeName": "TORONTO",
        "streetNameDisplayText": "QUEEN ST E, TORONTO"
      }
    ]
  },
  {
    "postal": "M5A2N7",
    "result": [
      {
        "electoralDistricts": [
          {
            "election": null,
            "id": 109,
            "name": "Toronto Centre"
          }
        ],
        "pollDivisionIds": [
          10135197
        ],
        "postalCode": "M5A2N7",
        "streetName": "PEMBROKE",
        "streetDirectionId": null,
        "streetTypeId": "ST",
        "placeName": "TORONTO",
        "streetNameDisplayText": "PEMBROKE ST, TORONTO"
      }
    ]
  },
  {
    "postal": "M5A0H8",
    "result": [
      {
        "electoralDistricts": [
          {
            "election": null,
            "id": 101,
            "name": "Spadina—Fort York"
          }
        ],
        "pollDivisionIds": [
          10141959
        ],
        "postalCode": "M5A0H8",
        "streetName": "FRONT",
        "streetDirectionId": "W",
        "streetTypeId": "ST",
        "placeName": "TORONTO",
        "streetNameDisplayText": "FRONT ST W, TORONTO"
      }
    ]
  },
  {
    "postal": "M5A7Z4",
    "result": []
  },
  {
    "postal": "M5A7B1",
    "result": []
  },
  {
    "postal": "M5A7P8",
    "result": []
  },
  {
    "postal": "M5A7N0",
    "result": []
  },
  {
    "postal": "M5A3Y5",
    "result": []
  },
  {
    "postal": "M5A6K1",
    "result": []
  },
  {
    "postal": "M5A9X5",
    "result": []
  },
  {
    "postal": "M5A7S5",
    "result": []
  },
  {
    "postal": "M5A0A4",
    "result": []
  },
  {
    "postal": "M5A4T5",
    "result": [
      {
        "electoralDistricts": [
          {
            "election": null,
            "id": 109,
            "name": "Toronto Centre"
          }
        ],
        "pollDivisionIds": [
          10135201
        ],
        "postalCode": "M5A4T5",
        "streetName": "KING",
        "streetDirectionId": "E",
        "streetTypeId": "ST",
        "placeName": "TORONTO",
        "streetNameDisplayText": "KING ST E, TORONTO"
      }
    ]
  },
  {
    "postal": "M5A5K1",
    "result": []
  },
  {
    "postal": "M5A0Z9",
    "result": []
  },
  {
    "postal": "M5A7T2",
    "result": []
  },
  {
    "postal": "M5A1L5",
    "result": [
      {
        "electoralDistricts": [
          {
            "election": null,
            "id": 109,
            "name": "Toronto Centre"
          }
        ],
        "pollDivisionIds": [
          10135202
        ],
        "postalCode": "M5A1L5",
        "streetName": "KING",
        "streetDirectionId": "E",
        "streetTypeId": "ST",
        "placeName": "TORONTO",
        "streetNameDisplayText": "KING ST E, TORONTO"
      }
    ]
  },
  {
    "postal": "M5A3N5",
    "result": []
  },
  {
    "postal": "M5A6H4",
    "result": []
  },
  {
    "postal": "M5A5A5",
    "result": []
  },
  {
    "postal": "M5A3R9",
    "result": []
  },
  {
    "postal": "M5A7L8",
    "result": []
  },
  {
    "postal": "M5A6T6",
    "result": []
  },
  {
    "postal": "M5A7Y7",
    "result": []
  },
  {
    "postal": "M5A3M8",
    "result": [
      {
        "electoralDistricts": [
          {
            "election": null,
            "id": 109,
            "name": "Toronto Centre"
          }
        ],
        "pollDivisionIds": [
          10135202
        ],
        "postalCode": "M5A3M8",
        "streetName": "PERCY",
        "streetDirectionId": null,
        "streetTypeId": "ST",
        "placeName": "TORONTO",
        "streetNameDisplayText": "PERCY ST, TORONTO"
      }
    ]
  },
  {
    "postal": "M5A2E0",
    "result": []
  },
  {
    "postal": "M5A4B5",
    "result": [
      {
        "electoralDistricts": [
          {
            "election": null,
            "id": 101,
            "name": "Spadina—Fort York"
          }
        ],
        "pollDivisionIds": [
          10141971
        ],
        "postalCode": "M5A4B5",
        "streetName": "HENRY LANE",
        "streetDirectionId": null,
        "streetTypeId": "TERR",
        "placeName": "TORONTO",
        "streetNameDisplayText": "HENRY LANE TERR, TORONTO"
      }
    ]
  },
  {
    "postal": "M5A1J3",
    "result": [
      {
        "electoralDistricts": [
          {
            "election": null,
            "id": 109,
            "name": "Toronto Centre"
          }
        ],
        "pollDivisionIds": [
          10135201
        ],
        "postalCode": "M5A1J3",
        "streetName": "KING",
        "streetDirectionId": "E",
        "streetTypeId": "ST",
        "placeName": "TORONTO",
        "streetNameDisplayText": "KING ST E, TORONTO"
      }
    ]
  },
  {
    "postal": "M5A5S6",
    "result": []
  },
  {
    "postal": "M5A8P7",
    "result": []
  },
  {
    "postal": "M5A7S7",
    "result": []
  },
  {
    "postal": "M5A4C2",
    "result": [
      {
        "electoralDistricts": [
          {
            "election": null,
            "id": 109,
            "name": "Toronto Centre"
          }
        ],
        "pollDivisionIds": [
          10135196
        ],
        "postalCode": "M5A4C2",
        "streetName": "RIVER",
        "streetDirectionId": null,
        "streetTypeId": "ST",
        "placeName": "TORONTO",
        "streetNameDisplayText": "RIVER ST, TORONTO"
      }
    ]
  },
  {
    "postal": "M5A5Y0",
    "result": []
  },
  {
    "postal": "M5A2V7",
    "result": [
      {
        "electoralDistricts": [
          {
            "election": null,
            "id": 109,
            "name": "Toronto Centre"
          }
        ],
        "pollDivisionIds": [
          10135195
        ],
        "postalCode": "M5A2V7",
        "streetName": "ONTARIO",
        "streetDirectionId": null,
        "streetTypeId": "ST",
        "placeName": "TORONTO",
        "streetNameDisplayText": "ONTARIO ST, TORONTO"
      }
    ]
  },
  {
    "postal": "M5A8P5",
    "result": []
  },
  {
    "postal": "M5A5P5",
    "result": []
  },
  {
    "postal": "M5A5Z0",
    "result": []
  },
  {
    "postal": "M5A9B0",
    "result": []
  },
  {
    "postal": "M5A1L0",
    "result": []
  },
  {
    "postal": "M5A0B5",
    "result": []
  },
  {
    "postal": "M5A3L2",
    "result": [
      {
        "electoralDistricts": [
          {
            "election": null,
            "id": 101,
            "name": "Spadina—Fort York"
          },
          {
            "election": null,
            "id": 110,
            "name": "Toronto—Danforth"
          }
        ],
        "pollDivisionIds": [
          10141972,
          10142530
        ],
        "postalCode": "M5A3L2",
        "streetName": "CHERRY",
        "streetDirectionId": null,
        "streetTypeId": "ST",
        "placeName": "TORONTO",
        "streetNameDisplayText": "CHERRY ST, TORONTO"
      }
    ]
  },
  {
    "postal": "M5A3B7",
    "result": []
  },
  {
    "postal": "M5A8L1",
    "result": []
  },
  {
    "postal": "M5A5M4",
    "result": []
  },
  {
    "postal": "M5A4G9",
    "result": [
      {
        "electoralDistricts": [
          {
            "election": null,
            "id": 101,
            "name": "Spadina—Fort York"
          }
        ],
        "pollDivisionIds": [
          10141970
        ],
        "postalCode": "M5A4G9",
        "streetName": "SCADDING",
        "streetDirectionId": null,
        "streetTypeId": "AVE",
        "placeName": "TORONTO",
        "streetNameDisplayText": "SCADDING AVE, TORONTO"
      }
    ]
  },
  {
    "postal": "M5A0P0",
    "result": []
  },
  {
    "postal": "M5A8G2",
    "result": []
  },
  {
    "postal": "M5A1V9",
    "result": [
      {
        "electoralDistricts": [
          {
            "election": null,
            "id": 109,
            "name": "Toronto Centre"
          }
        ],
        "pollDivisionIds": [
          10135200
        ],
        "postalCode": "M5A1V9",
        "streetName": "SHUTER",
        "streetDirectionId": null,
        "streetTypeId": "ST",
        "placeName": "TORONTO",
        "streetNameDisplayText": "SHUTER ST, TORONTO"
      }
    ]
  },
  {
    "postal": "M5A8N8",
    "result": []
  },
  {
    "postal": "M5A6S8",
    "result": []
  },
  {
    "postal": "M5A8H2",
    "result": []
  },
  {
    "postal": "M5A5R8",
    "result": []
  },
  {
    "postal": "M5A5L4",
    "result": []
  },
  {
    "postal": "M5A9E1",
    "result": []
  },
  {
    "postal": "M5A1C4",
    "result": []
  },
  {
    "postal": "M5A8W5",
    "result": []
  },
  {
    "postal": "M5A1Y4",
    "result": []
  },
  {
    "postal": "M5A1C0",
    "result": []
  },
  {
    "postal": "M5A2J2",
    "result": [
      {
        "electoralDistricts": [
          {
            "election": null,
            "id": 109,
            "name": "Toronto Centre"
          }
        ],
        "pollDivisionIds": [
          10135190
        ],
        "postalCode": "M5A2J2",
        "streetName": "SPRUCE",
        "streetDirectionId": null,
        "streetTypeId": "ST",
        "placeName": "TORONTO",
        "streetNameDisplayText": "SPRUCE ST, TORONTO"
      }
    ]
  },
  {
    "postal": "M5A2J0",
    "result": []
  },
  {
    "postal": "M5A7A3",
    "result": []
  },
  {
    "postal": "M5A8M1",
    "result": []
  },
  {
    "postal": "M5A7T9",
    "result": []
  },
  {
    "postal": "M5A6C0",
    "result": []
  },
  {
    "postal": "M5A7X1",
    "result": []
  },
  {
    "postal": "M5A0G1",
    "result": [
      {
        "electoralDistricts": [
          {
            "election": null,
            "id": 109,
            "name": "Toronto Centre"
          }
        ],
        "pollDivisionIds": [
          10135202
        ],
        "postalCode": "M5A0G1",
        "streetName": "LOWER RIVER",
        "streetDirectionId": null,
        "streetTypeId": "ST",
        "placeName": "TORONTO",
        "streetNameDisplayText": "LOWER RIVER ST, TORONTO"
      }
    ]
  },
  {
    "postal": "M5A4X2",
    "result": []
  },
  {
    "postal": "M5A0N6",
    "result": [
      {
        "electoralDistricts": [
          {
            "election": null,
            "id": 109,
            "name": "Toronto Centre"
          }
        ],
        "pollDivisionIds": [
          10135201
        ],
        "postalCode": "M5A0N6",
        "streetName": "PARLIAMENT",
        "streetDirectionId": null,
        "streetTypeId": "ST",
        "placeName": "TORONTO",
        "streetNameDisplayText": "PARLIAMENT ST, TORONTO"
      }
    ]
  },
  {
    "postal": "M5A8E3",
    "result": []
  },
  {
    "postal": "M5A5S8",
    "result": []
  },
  {
    "postal": "M5A0R0",
    "result": []
  },
  {
    "postal": "M5A6J6",
    "result": []
  },
  {
    "postal": "M5A4B4",
    "result": [
      {
        "electoralDistricts": [
          {
            "election": null,
            "id": 101,
            "name": "Spadina—Fort York"
          }
        ],
        "pollDivisionIds": [
          10141971
        ],
        "postalCode": "M5A4B4",
        "streetName": "ALBERT FRANCK",
        "streetDirectionId": null,
        "streetTypeId": "PL",
        "placeName": "TORONTO",
        "streetNameDisplayText": "ALBERT FRANCK PL, TORONTO"
      }
    ]
  },
  {
    "postal": "M5A7E3",
    "result": []
  },
  {
    "postal": "M5A3N6",
    "result": [
      {
        "electoralDistricts": [
          {
            "election": null,
            "id": 109,
            "name": "Toronto Centre"
          }
        ],
        "pollDivisionIds": [
          10135196
        ],
        "postalCode": "M5A3N6",
        "streetName": "REGENT",
        "streetDirectionId": null,
        "streetTypeId": "ST",
        "placeName": "TORONTO",
        "streetNameDisplayText": "REGENT ST, TORONTO"
      }
    ]
  },
  {
    "postal": "M5A3X6",
    "result": []
  },
  {
    "postal": "M5A8L0",
    "result": []
  },
  {
    "postal": "M5A8N1",
    "result": []
  },
  {
    "postal": "M5A4J0",
    "result": []
  },
  {
    "postal": "M5A0X7",
    "result": []
  },
  {
    "postal": "M5A6S4",
    "result": []
  },
  {
    "postal": "M5A0Z0",
    "result": []
  },
  {
    "postal": "M5A9X8",
    "result": []
  },
  {
    "postal": "M5A3H3",
    "result": [
      {
        "electoralDistricts": [
          {
            "election": null,
            "id": 109,
            "name": "Toronto Centre"
          }
        ],
        "pollDivisionIds": [
          10135202
        ],
        "postalCode": "M5A3H3",
        "streetName": "ST PAUL",
        "streetDirectionId": null,
        "streetTypeId": "ST",
        "placeName": "TORONTO",
        "streetNameDisplayText": "ST PAUL ST, TORONTO"
      }
    ]
  },
  {
    "postal": "M5A7S2",
    "result": []
  },
  {
    "postal": "M5A3T3",
    "result": [
      {
        "electoralDistricts": [
          {
            "election": null,
            "id": 109,
            "name": "Toronto Centre"
          }
        ],
        "pollDivisionIds": [
          10135196
        ],
        "postalCode": "M5A3T3",
        "streetName": "WYATT",
        "streetDirectionId": null,
        "streetTypeId": "WALK",
        "placeName": "TORONTO",
        "streetNameDisplayText": "WYATT WALK, TORONTO"
      }
    ]
  },
  {
    "postal": "M5A9P3",
    "result": []
  },
  {
    "postal": "M5A4H8",
    "result": [
      {
        "electoralDistricts": [
          {
            "election": null,
            "id": 101,
            "name": "Spadina—Fort York"
          }
        ],
        "pollDivisionIds": [
          10141970
        ],
        "postalCode": "M5A4H8",
        "streetName": "SCADDING",
        "streetDirectionId": null,
        "streetTypeId": "AVE",
        "placeName": "TORONTO",
        "streetNameDisplayText": "SCADDING AVE, TORONTO"
      }
    ]
  },
  {
    "postal": "M5A6R1",
    "result": []
  },
  {
    "postal": "M5A1S0",
    "result": []
  },
  {
    "postal": "M5A3W8",
    "result": [
      {
        "electoralDistricts": [
          {
            "election": null,
            "id": 109,
            "name": "Toronto Centre"
          }
        ],
        "pollDivisionIds": [
          10135201
        ],
        "postalCode": "M5A3W8",
        "streetName": "KING",
        "streetDirectionId": "E",
        "streetTypeId": "ST",
        "placeName": "TORONTO",
        "streetNameDisplayText": "KING ST E, TORONTO"
      }
    ]
  },
  {
    "postal": "M5A4S3",
    "result": [
      {
        "electoralDistricts": [
          {
            "election": null,
            "id": 109,
            "name": "Toronto Centre"
          }
        ],
        "pollDivisionIds": [
          10135201
        ],
        "postalCode": "M5A4S3",
        "streetName": "ADELAIDE",
        "streetDirectionId": "E",
        "streetTypeId": "ST",
        "placeName": "TORONTO",
        "streetNameDisplayText": "ADELAIDE ST E, TORONTO"
      }
    ]
  },
  {
    "postal": "M5A1B6",
    "result": [
      {
        "electoralDistricts": [
          {
            "election": null,
            "id": 101,
            "name": "Spadina—Fort York"
          }
        ],
        "pollDivisionIds": [
          10141970
        ],
        "postalCode": "M5A1B6",
        "streetName": "QUEEN'S",
        "streetDirectionId": "E",
        "streetTypeId": "QUAY",
        "placeName": "TORONTO",
        "streetNameDisplayText": "QUEEN'S QUAY E, TORONTO"
      },
      {
        "electoralDistricts": [
          {
            "election": null,
            "id": 101,
            "name": "Spadina—Fort York"
          }
        ],
        "pollDivisionIds": [
          10141965
        ],
        "postalCode": "M5A1B6",
        "streetName": "QUEENS",
        "streetDirectionId": "W",
        "streetTypeId": "QUAY",
        "placeName": "TORONTO",
        "streetNameDisplayText": "QUEENS QUAY W, TORONTO"
      }
    ]
  },
  {
    "postal": "M5A8R3",
    "result": []
  },
  {
    "postal": "M5A4V9",
    "result": []
  },
  {
    "postal": "M5A9W4",
    "result": []
  },
  {
    "postal": "M5A3T4",
    "result": [
      {
        "electoralDistricts": [
          {
            "election": null,
            "id": 109,
            "name": "Toronto Centre"
          }
        ],
        "pollDivisionIds": [
          10135194
        ],
        "postalCode": "M5A3T4",
        "streetName": "GERRARD",
        "streetDirectionId": "E",
        "streetTypeId": "ST",
        "placeName": "TORONTO",
        "streetNameDisplayText": "GERRARD ST E, TORONTO"
      }
    ]
  },
  {
    "postal": "M5A5C7",
    "result": []
  },
  {
    "postal": "M5A3Y1",
    "result": [
      {
        "electoralDistricts": [
          {
            "election": null,
            "id": 109,
            "name": "Toronto Centre"
          }
        ],
        "pollDivisionIds": [
          10135195
        ],
        "postalCode": "M5A3Y1",
        "streetName": "SHERBOURNE",
        "streetDirectionId": null,
        "streetTypeId": "ST",
        "placeName": "TORONTO",
        "streetNameDisplayText": "SHERBOURNE ST, TORONTO"
      }
    ]
  },
  {
    "postal": "M5A5V0",
    "result": []
  },
  {
    "postal": "M5A8G8",
    "result": []
  },
  {
    "postal": "M5A8B1",
    "result": []
  },
  {
    "postal": "M5A4P5",
    "result": [
      {
        "electoralDistricts": [
          {
            "election": null,
            "id": 109,
            "name": "Toronto Centre"
          }
        ],
        "pollDivisionIds": [
          10135204
        ],
        "postalCode": "M5A4P5",
        "streetName": "THE ESPLANADE",
        "streetDirectionId": null,
        "streetTypeId": null,
        "placeName": "TORONTO",
        "streetNameDisplayText": "THE ESPLANADE, TORONTO"
      }
    ]
  },
  {
    "postal": "M5A7B2",
    "result": []
  },
  {
    "postal": "M5A0R2",
    "result": []
  },
  {
    "postal": "M5A4M4",
    "result": []
  },
  {
    "postal": "M5A7M4",
    "result": []
  },
  {
    "postal": "M5A9S7",
    "result": []
  },
  {
    "postal": "M5A5Z7",
    "result": []
  },
  {
    "postal": "M5A7J7",
    "result": []
  },
  {
    "postal": "M5A8R8",
    "result": []
  },
  {
    "postal": "M5A9X1",
    "result": []
  },
  {
    "postal": "M5A5M9",
    "result": []
  },
  {
    "postal": "M5A9B4",
    "result": []
  },
  {
    "postal": "M5A0L9",
    "result": []
  },
  {
    "postal": "M5A9G4",
    "result": []
  },
  {
    "postal": "M5A1J4",
    "result": [
      {
        "electoralDistricts": [
          {
            "election": null,
            "id": 109,
            "name": "Toronto Centre"
          }
        ],
        "pollDivisionIds": [
          10135204
        ],
        "postalCode": "M5A1J4",
        "streetName": "KING",
        "streetDirectionId": "E",
        "streetTypeId": "ST",
        "placeName": "TORONTO",
        "streetNameDisplayText": "KING ST E, TORONTO"
      }
    ]
  },
  {
    "postal": "M5A0W6",
    "result": []
  }
]
