[
  {
    "postal": "N6C9J6",
    "result": []
  },
  {
    "postal": "N6C9Z5",
    "result": []
  },
  {
    "postal": "N6C7H8",
    "result": []
  },
  {
    "postal": "N6C0P6",
    "result": []
  },
  {
    "postal": "N6C0S7",
    "result": []
  },
  {
    "postal": "N6C8B9",
    "result": []
  },
  {
    "postal": "N6C2A6",
    "result": [
      {
        "electoralDistricts": [
          {
            "election": null,
            "id": 55,
            "name": "London West"
          }
        ],
        "pollDivisionIds": [
          10139628
        ],
        "postalCode": "N6C2A6",
        "streetName": "FOXBAR",
        "streetDirectionId": null,
        "streetTypeId": "RD",
        "placeName": "LONDON",
        "streetNameDisplayText": "FOXBAR RD, LONDON"
      }
    ]
  },
  {
    "postal": "N6C7V2",
    "result": []
  },
  {
    "postal": "N6C9P4",
    "result": []
  },
  {
    "postal": "N6C6G0",
    "result": []
  },
  {
    "postal": "N6C2K0",
    "result": []
  },
  {
    "postal": "N6C7N6",
    "result": []
  },
  {
    "postal": "N6C5R3",
    "result": [
      {
        "electoralDistricts": [
          {
            "election": null,
            "id": 53,
            "name": "London—Fanshawe"
          }
        ],
        "pollDivisionIds": [
          10139585
        ],
        "postalCode": "N6C5R3",
        "streetName": "COUNTRY CLUB",
        "streetDirectionId": null,
        "streetTypeId": "DR",
        "placeName": "LONDON",
        "streetNameDisplayText": "COUNTRY CLUB DR, LONDON"
      }
    ]
  },
  {
    "postal": "N6C7K0",
    "result": []
  },
  {
    "postal": "N6C3R2",
    "result": [
      {
        "electoralDistricts": [
          {
            "election": null,
            "id": 55,
            "name": "London West"
          }
        ],
        "pollDivisionIds": [
          10139634
        ],
        "postalCode": "N6C3R2",
        "streetName": "WORTLEY",
        "streetDirectionId": null,
        "streetTypeId": "RD",
        "placeName": "LONDON",
        "streetNameDisplayText": "WORTLEY RD, LONDON"
      }
    ]
  },
  {
    "postal": "N6C0J1",
    "result": []
  },
  {
    "postal": "N6C0B0",
    "result": []
  },
  {
    "postal": "N6C5Z2",
    "result": [
      {
        "electoralDistricts": [
          {
            "election": null,
            "id": 55,
            "name": "London West"
          }
        ],
        "pollDivisionIds": [
          10139635
        ],
        "postalCode": "N6C5Z2",
        "streetName": "BASE LINE",
        "streetDirectionId": "E",
        "streetTypeId": "RD",
        "placeName": "LONDON",
        "streetNameDisplayText": "BASE LINE RD E, LONDON"
      }
    ]
  },
  {
    "postal": "N6C7P3",
    "result": []
  },
  {
    "postal": "N6C2K3",
    "result": [
      {
        "electoralDistricts": [
          {
            "election": null,
            "id": 55,
            "name": "London West"
          }
        ],
        "pollDivisionIds": [
          10139635
        ],
        "postalCode": "N6C2K3",
        "streetName": "CHESTER",
        "streetDirectionId": null,
        "streetTypeId": "ST",
        "placeName": "LONDON",
        "streetNameDisplayText": "CHESTER ST, LONDON"
      }
    ]
  },
  {
    "postal": "N6C7Y6",
    "result": []
  },
  {
    "postal": "N6C1L9",
    "result": [
      {
        "electoralDistricts": [
          {
            "election": null,
            "id": 55,
            "name": "London West"
          }
        ],
        "pollDivisionIds": [
          10139626,
          10139657
        ],
        "postalCode": "N6C1L9",
        "streetName": "GRAND",
        "streetDirectionId": null,
        "streetTypeId": "AVE",
        "placeName": "LONDON",
        "streetNameDisplayText": "GRAND AVE, LONDON"
      }
    ]
  },
  {
    "postal": "N6C8T0",
    "result": []
  },
  {
    "postal": "N6C3K8",
    "result": [
      {
        "electoralDistricts": [
          {
            "election": null,
            "id": 55,
            "name": "London West"
          }
        ],
        "pollDivisionIds": [
          10139625
        ],
        "postalCode": "N6C3K8",
        "streetName": "TERESA",
        "streetDirectionId": null,
        "streetTypeId": "ST",
        "placeName": "LONDON",
        "streetNameDisplayText": "TERESA ST, LONDON"
      }
    ]
  },
  {
    "postal": "N6C5W9",
    "result": [
      {
        "electoralDistricts": [
          {
            "election": null,
            "id": 53,
            "name": "London—Fanshawe"
          }
        ],
        "pollDivisionIds": [
          10139585
        ],
        "postalCode": "N6C5W9",
        "streetName": "HIGHLAND WOODS",
        "streetDirectionId": null,
        "streetTypeId": "CRT",
        "placeName": "LONDON",
        "streetNameDisplayText": "HIGHLAND WOODS CRT, LONDON"
      }
    ]
  },
  {
    "postal": "N6C6T9",
    "result": []
  },
  {
    "postal": "N6C4H1",
    "result": [
      {
        "electoralDistricts": [
          {
            "election": null,
            "id": 55,
            "name": "London West"
          }
        ],
        "pollDivisionIds": [
          10139634
        ],
        "postalCode": "N6C4H1",
        "streetName": "SOUTHGATE",
        "streetDirectionId": null,
        "streetTypeId": "ST",
        "placeName": "LONDON",
        "streetNameDisplayText": "SOUTHGATE ST, LONDON"
      }
    ]
  },
  {
    "postal": "N6C7A2",
    "result": []
  },
  {
    "postal": "N6C5G0",
    "result": []
  },
  {
    "postal": "N6C8V5",
    "result": []
  },
  {
    "postal": "N6C2Y8",
    "result": [
      {
        "electoralDistricts": [
          {
            "election": null,
            "id": 53,
            "name": "London—Fanshawe"
          }
        ],
        "pollDivisionIds": [
          10139585
        ],
        "postalCode": "N6C2Y8",
        "streetName": "FERNDALE",
        "streetDirectionId": null,
        "streetTypeId": "AVE",
        "placeName": "LONDON",
        "streetNameDisplayText": "FERNDALE AVE, LONDON"
      }
    ]
  },
  {
    "postal": "N6C2B6",
    "result": [
      {
        "electoralDistricts": [
          {
            "election": null,
            "id": 55,
            "name": "London West"
          }
        ],
        "pollDivisionIds": [
          10139634
        ],
        "postalCode": "N6C2B6",
        "streetName": "GARFIELD",
        "streetDirectionId": null,
        "streetTypeId": "AVE",
        "placeName": "LONDON",
        "streetNameDisplayText": "GARFIELD AVE, LONDON"
      }
    ]
  },
  {
    "postal": "N6C4W8",
    "result": [
      {
        "electoralDistricts": [
          {
            "election": null,
            "id": 53,
            "name": "London—Fanshawe"
          }
        ],
        "pollDivisionIds": [
          10139579
        ],
        "postalCode": "N6C4W8",
        "streetName": "STANHOPE",
        "streetDirectionId": null,
        "streetTypeId": "PL",
        "placeName": "LONDON",
        "streetNameDisplayText": "STANHOPE PL, LONDON"
      }
    ]
  },
  {
    "postal": "N6C8H7",
    "result": []
  },
  {
    "postal": "N6C5P1",
    "result": [
      {
        "electoralDistricts": [
          {
            "election": null,
            "id": 53,
            "name": "London—Fanshawe"
          }
        ],
        "pollDivisionIds": [
          10139586
        ],
        "postalCode": "N6C5P1",
        "streetName": "CRAWFORD",
        "streetDirectionId": null,
        "streetTypeId": "ST",
        "placeName": "LONDON",
        "streetNameDisplayText": "CRAWFORD ST, LONDON"
      },
      {
        "electoralDistricts": [
          {
            "election": null,
            "id": 53,
            "name": "London—Fanshawe"
          }
        ],
        "pollDivisionIds": [
          10139586
        ],
        "postalCode": "N6C5P1",
        "streetName": "GOLFDALE",
        "streetDirectionId": null,
        "streetTypeId": "CRES",
        "placeName": "LONDON",
        "streetNameDisplayText": "GOLFDALE CRES, LONDON"
      }
    ]
  },
  {
    "postal": "N6C2B8",
    "result": [
      {
        "electoralDistricts": [
          {
            "election": null,
            "id": 55,
            "name": "London West"
          }
        ],
        "pollDivisionIds": [
          10139634
        ],
        "postalCode": "N6C2B8",
        "streetName": "GARFIELD",
        "streetDirectionId": null,
        "streetTypeId": "AVE",
        "placeName": "LONDON",
        "streetNameDisplayText": "GARFIELD AVE, LONDON"
      }
    ]
  },
  {
    "postal": "N6C0P2",
    "result": []
  },
  {
    "postal": "N6C9M1",
    "result": []
  },
  {
    "postal": "N6C3G0",
    "result": []
  },
  {
    "postal": "N6C9Z2",
    "result": []
  },
  {
    "postal": "N6C2A0",
    "result": []
  },
  {
    "postal": "N6C6Y0",
    "result": []
  },
  {
    "postal": "N6C2Z8",
    "result": [
      {
        "electoralDistricts": [
          {
            "election": null,
            "id": 53,
            "name": "London—Fanshawe"
          }
        ],
        "pollDivisionIds": [
          10139584
        ],
        "postalCode": "N6C2Z8",
        "streetName": "EDEN",
        "streetDirectionId": null,
        "streetTypeId": "AVE",
        "placeName": "LONDON",
        "streetNameDisplayText": "EDEN AVE, LONDON"
      }
    ]
  },
  {
    "postal": "N6C7Y3",
    "result": []
  },
  {
    "postal": "N6C6Z5",
    "result": []
  },
  {
    "postal": "N6C6E0",
    "result": []
  },
  {
    "postal": "N6C9B7",
    "result": []
  },
  {
    "postal": "N6C9S5",
    "result": []
  },
  {
    "postal": "N6C3X3",
    "result": [
      {
        "electoralDistricts": [
          {
            "election": null,
            "id": 55,
            "name": "London West"
          }
        ],
        "pollDivisionIds": [
          10139626
        ],
        "postalCode": "N6C3X3",
        "streetName": "RIDOUT",
        "streetDirectionId": "S",
        "streetTypeId": "ST",
        "placeName": "LONDON",
        "streetNameDisplayText": "RIDOUT ST S, LONDON"
      },
      {
        "electoralDistricts": [
          {
            "election": null,
            "id": 54,
            "name": "London North Centre"
          }
        ],
        "pollDivisionIds": [
          10135386
        ],
        "postalCode": "N6C3X3",
        "streetName": "RIDOUT",
        "streetDirectionId": "S",
        "streetTypeId": "ST",
        "placeName": "LONDON,ON",
        "streetNameDisplayText": "RIDOUT ST S, LONDON,ON"
      }
    ]
  },
  {
    "postal": "N6C7R5",
    "result": []
  },
  {
    "postal": "N6C2X3",
    "result": [
      {
        "electoralDistricts": [
          {
            "election": null,
            "id": 53,
            "name": "London—Fanshawe"
          }
        ],
        "pollDivisionIds": [
          10139584
        ],
        "postalCode": "N6C2X3",
        "streetName": "CHIDDINGTON",
        "streetDirectionId": null,
        "streetTypeId": "PL",
        "placeName": "LONDON",
        "streetNameDisplayText": "CHIDDINGTON PL, LONDON"
      }
    ]
  },
  {
    "postal": "N6C8Z9",
    "result": []
  },
  {
    "postal": "N6C0N4",
    "result": []
  },
  {
    "postal": "N6C1K1",
    "result": [
      {
        "electoralDistricts": [
          {
            "election": null,
            "id": 55,
            "name": "London West"
          }
        ],
        "pollDivisionIds": [
          10139625
        ],
        "postalCode": "N6C1K1",
        "streetName": "ELMWOOD",
        "streetDirectionId": "E",
        "streetTypeId": "AVE",
        "placeName": "LONDON",
        "streetNameDisplayText": "ELMWOOD AVE E, LONDON"
      }
    ]
  },
  {
    "postal": "N6C1S3",
    "result": [
      {
        "electoralDistricts": [
          {
            "election": null,
            "id": 55,
            "name": "London West"
          }
        ],
        "pollDivisionIds": [
          10139624
        ],
        "postalCode": "N6C1S3",
        "streetName": "TECUMSEH",
        "streetDirectionId": "E",
        "streetTypeId": "AVE",
        "placeName": "LONDON",
        "streetNameDisplayText": "TECUMSEH AVE E, LONDON"
      }
    ]
  },
  {
    "postal": "N6C6M4",
    "result": []
  },
  {
    "postal": "N6C9A9",
    "result": []
  },
  {
    "postal": "N6C9Z9",
    "result": []
  },
  {
    "postal": "N6C6T4",
    "result": []
  },
  {
    "postal": "N6C0B2",
    "result": []
  },
  {
    "postal": "N6C2L9",
    "result": [
      {
        "electoralDistricts": [
          {
            "election": null,
            "id": 55,
            "name": "London West"
          }
        ],
        "pollDivisionIds": [
          10139635
        ],
        "postalCode": "N6C2L9",
        "streetName": "ROWNTREE",
        "streetDirectionId": null,
        "streetTypeId": "AVE",
        "placeName": "LONDON",
        "streetNameDisplayText": "ROWNTREE AVE, LONDON"
      }
    ]
  },
  {
    "postal": "N6C8K9",
    "result": []
  },
  {
    "postal": "N6C2H9",
    "result": [
      {
        "electoralDistricts": [
          {
            "election": null,
            "id": 55,
            "name": "London West"
          }
        ],
        "pollDivisionIds": [
          10139634
        ],
        "postalCode": "N6C2H9",
        "streetName": "DEVONSHIRE",
        "streetDirectionId": null,
        "streetTypeId": "AVE",
        "placeName": "LONDON",
        "streetNameDisplayText": "DEVONSHIRE AVE, LONDON"
      }
    ]
  },
  {
    "postal": "N6C3Z6",
    "result": [
      {
        "electoralDistricts": [
          {
            "election": null,
            "id": 55,
            "name": "London West"
          }
        ],
        "pollDivisionIds": [
          10139633
        ],
        "postalCode": "N6C3Z6",
        "streetName": "RIDOUT",
        "streetDirectionId": "S",
        "streetTypeId": "ST",
        "placeName": "LONDON",
        "streetNameDisplayText": "RIDOUT ST S, LONDON"
      }
    ]
  },
  {
    "postal": "N6C3B0",
    "result": []
  },
  {
    "postal": "N6C2H8",
    "result": [
      {
        "electoralDistricts": [
          {
            "election": null,
            "id": 55,
            "name": "London West"
          }
        ],
        "pollDivisionIds": [
          10139624
        ],
        "postalCode": "N6C2H8",
        "streetName": "DEVONSHIRE",
        "streetDirectionId": null,
        "streetTypeId": "AVE",
        "placeName": "LONDON",
        "streetNameDisplayText": "DEVONSHIRE AVE, LONDON"
      }
    ]
  },
  {
    "postal": "N6C3X2",
    "result": [
      {
        "electoralDistricts": [
          {
            "election": null,
            "id": 55,
            "name": "London West"
          }
        ],
        "pollDivisionIds": [
          10139626
        ],
        "postalCode": "N6C3X2",
        "streetName": "RIDOUT",
        "streetDirectionId": "S",
        "streetTypeId": "ST",
        "placeName": "LONDON",
        "streetNameDisplayText": "RIDOUT ST S, LONDON"
      }
    ]
  },
  {
    "postal": "N6C2E9",
    "result": [
      {
        "electoralDistricts": [
          {
            "election": null,
            "id": 55,
            "name": "London West"
          }
        ],
        "pollDivisionIds": [
          10139634
        ],
        "postalCode": "N6C2E9",
        "streetName": "EMERY",
        "streetDirectionId": "E",
        "streetTypeId": "ST",
        "placeName": "LONDON",
        "streetNameDisplayText": "EMERY ST E, LONDON"
      },
      {
        "electoralDistricts": [
          {
            "election": null,
            "id": 54,
            "name": "London North Centre"
          }
        ],
        "pollDivisionIds": [
          10135372
        ],
        "postalCode": "N6C2E9",
        "streetName": "EMERY ST",
        "streetDirectionId": "E",
        "streetTypeId": "ST",
        "placeName": "LONDON",
        "streetNameDisplayText": "EMERY ST ST E, LONDON"
      }
    ]
  },
  {
    "postal": "N6C9P6",
    "result": []
  },
  {
    "postal": "N6C9E2",
    "result": []
  },
  {
    "postal": "N6C9H2",
    "result": []
  },
  {
    "postal": "N6C1S8",
    "result": [
      {
        "electoralDistricts": [
          {
            "election": null,
            "id": 55,
            "name": "London West"
          }
        ],
        "pollDivisionIds": [
          10139625
        ],
        "postalCode": "N6C1S8",
        "streetName": "TECUMSEH",
        "streetDirectionId": "E",
        "streetTypeId": "AVE",
        "placeName": "LONDON",
        "streetNameDisplayText": "TECUMSEH AVE E, LONDON"
      }
    ]
  },
  {
    "postal": "N6C3M6",
    "result": [
      {
        "electoralDistricts": [
          {
            "election": null,
            "id": 55,
            "name": "London West"
          }
        ],
        "pollDivisionIds": [
          10139624
        ],
        "postalCode": "N6C3M6",
        "streetName": "CATHCART",
        "streetDirectionId": null,
        "streetTypeId": "ST",
        "placeName": "LONDON",
        "streetNameDisplayText": "CATHCART ST, LONDON"
      }
    ]
  },
  {
    "postal": "N6C6Z8",
    "result": []
  },
  {
    "postal": "N6C4J2",
    "result": [
      {
        "electoralDistricts": [
          {
            "election": null,
            "id": 53,
            "name": "London—Fanshawe"
          }
        ],
        "pollDivisionIds": [
          10139584
        ],
        "postalCode": "N6C4J2",
        "streetName": "HUNTINGDON",
        "streetDirectionId": null,
        "streetTypeId": "DR",
        "placeName": "LONDON",
        "streetNameDisplayText": "HUNTINGDON DR, LONDON"
      }
    ]
  },
  {
    "postal": "N6C9Y1",
    "result": []
  },
  {
    "postal": "N6C8V6",
    "result": []
  },
  {
    "postal": "N6C6B2",
    "result": []
  },
  {
    "postal": "N6C1P8",
    "result": [
      {
        "electoralDistricts": [
          {
            "election": null,
            "id": 55,
            "name": "London West"
          }
        ],
        "pollDivisionIds": [
          10139626
        ],
        "postalCode": "N6C1P8",
        "streetName": "MCCLARY",
        "streetDirectionId": null,
        "streetTypeId": "AVE",
        "placeName": "LONDON",
        "streetNameDisplayText": "MCCLARY AVE, LONDON"
      }
    ]
  },
  {
    "postal": "N6C0V8",
    "result": []
  },
  {
    "postal": "N6C4Y0",
    "result": []
  },
  {
    "postal": "N6C2T4",
    "result": [
      {
        "electoralDistricts": [
          {
            "election": null,
            "id": 53,
            "name": "London—Fanshawe"
          }
        ],
        "pollDivisionIds": [
          10139584
        ],
        "postalCode": "N6C2T4",
        "streetName": "HIGHLAND",
        "streetDirectionId": null,
        "streetTypeId": "HTS",
        "placeName": "LONDON",
        "streetNameDisplayText": "HIGHLAND HTS, LONDON"
      }
    ]
  },
  {
    "postal": "N6C2S3",
    "result": [
      {
        "electoralDistricts": [
          {
            "election": null,
            "id": 55,
            "name": "London West"
          }
        ],
        "pollDivisionIds": [
          10139633
        ],
        "postalCode": "N6C2S3",
        "streetName": "MOUNTSFIELD",
        "streetDirectionId": null,
        "streetTypeId": "DR",
        "placeName": "LONDON",
        "streetNameDisplayText": "MOUNTSFIELD DR, LONDON"
      }
    ]
  },
  {
    "postal": "N6C0K0",
    "result": []
  },
  {
    "postal": "N6C5N1",
    "result": [
      {
        "electoralDistricts": [
          {
            "election": null,
            "id": 53,
            "name": "London—Fanshawe"
          }
        ],
        "pollDivisionIds": [
          10139586
        ],
        "postalCode": "N6C5N1",
        "streetName": "GOLFVIEW",
        "streetDirectionId": null,
        "streetTypeId": "CRES",
        "placeName": "LONDON",
        "streetNameDisplayText": "GOLFVIEW CRES, LONDON"
      },
      {
        "electoralDistricts": [
          {
            "election": null,
            "id": 53,
            "name": "London—Fanshawe"
          }
        ],
        "pollDivisionIds": [
          10139586
        ],
        "postalCode": "N6C5N1",
        "streetName": "HOMEVIEW",
        "streetDirectionId": null,
        "streetTypeId": "RD",
        "placeName": "LONDON",
        "streetNameDisplayText": "HOMEVIEW RD, LONDON"
      }
    ]
  },
  {
    "postal": "N6C7T0",
    "result": []
  },
  {
    "postal": "N6C9N2",
    "result": []
  },
  {
    "postal": "N6C5L1",
    "result": [
      {
        "electoralDistricts": [
          {
            "election": null,
            "id": 53,
            "name": "London—Fanshawe"
          }
        ],
        "pollDivisionIds": [
          10139585
        ],
        "postalCode": "N6C5L1",
        "streetName": "FERNDALE",
        "streetDirectionId": null,
        "streetTypeId": "AVE",
        "placeName": "LONDON",
        "streetNameDisplayText": "FERNDALE AVE, LONDON"
      }
    ]
  },
  {
    "postal": "N6C7G5",
    "result": []
  },
  {
    "postal": "N6C6K2",
    "result": []
  },
  {
    "postal": "N6C6P9",
    "result": []
  },
  {
    "postal": "N6C0E6",
    "result": []
  },
  {
    "postal": "N6C8R9",
    "result": []
  },
  {
    "postal": "N6C3G9",
    "result": [
      {
        "electoralDistricts": [
          {
            "election": null,
            "id": 55,
            "name": "London West"
          }
        ],
        "pollDivisionIds": [
          10139625
        ],
        "postalCode": "N6C3G9",
        "streetName": "EDWARD",
        "streetDirectionId": null,
        "streetTypeId": "ST",
        "placeName": "LONDON",
        "streetNameDisplayText": "EDWARD ST, LONDON"
      }
    ]
  },
  {
    "postal": "N6C0V7",
    "result": []
  },
  {
    "postal": "N6C2Z1",
    "result": [
      {
        "electoralDistricts": [
          {
            "election": null,
            "id": 53,
            "name": "London—Fanshawe"
          }
        ],
        "pollDivisionIds": [
          10139585,
          10139584
        ],
        "postalCode": "N6C2Z1",
        "streetName": "FERNDALE",
        "streetDirectionId": null,
        "streetTypeId": "AVE",
        "placeName": "LONDON",
        "streetNameDisplayText": "FERNDALE AVE, LONDON"
      }
    ]
  },
  {
    "postal": "N6C7N1",
    "result": []
  },
  {
    "postal": "N6C3C6",
    "result": [
      {
        "electoralDistricts": [
          {
            "election": null,
            "id": 53,
            "name": "London—Fanshawe"
          }
        ],
        "pollDivisionIds": [
          10139583
        ],
        "postalCode": "N6C3C6",
        "streetName": "WINBLEST",
        "streetDirectionId": null,
        "streetTypeId": "AVE",
        "placeName": "LONDON",
        "streetNameDisplayText": "WINBLEST AVE, LONDON"
      }
    ]
  },
  {
    "postal": "N6C4M1",
    "result": [
      {
        "electoralDistricts": [
          {
            "election": null,
            "id": 55,
            "name": "London West"
          }
        ],
        "pollDivisionIds": [
          10139635
        ],
        "postalCode": "N6C4M1",
        "streetName": "SYLVAN",
        "streetDirectionId": null,
        "streetTypeId": "ST",
        "placeName": "LONDON",
        "streetNameDisplayText": "SYLVAN ST, LONDON"
      }
    ]
  },
  {
    "postal": "N6C9K2",
    "result": []
  },
  {
    "postal": "N6C9S6",
    "result": []
  },
  {
    "postal": "N6C4X1",
    "result": [
      {
        "electoralDistricts": [
          {
            "election": null,
            "id": 53,
            "name": "London—Fanshawe"
          }
        ],
        "pollDivisionIds": [
          10139579
        ],
        "postalCode": "N6C4X1",
        "streetName": "JERMYN",
        "streetDirectionId": null,
        "streetTypeId": "PL",
        "placeName": "LONDON",
        "streetNameDisplayText": "JERMYN PL, LONDON"
      }
    ]
  },
  {
    "postal": "N6C8W2",
    "result": []
  },
  {
    "postal": "N6C7N2",
    "result": []
  },
  {
    "postal": "N6C8S3",
    "result": []
  },
  {
    "postal": "N6C4V0",
    "result": []
  },
  {
    "postal": "N6C6W4",
    "result": []
  },
  {
    "postal": "N6C5M1",
    "result": [
      {
        "electoralDistricts": [
          {
            "election": null,
            "id": 53,
            "name": "London—Fanshawe"
          }
        ],
        "pollDivisionIds": [
          10139585
        ],
        "postalCode": "N6C5M1",
        "streetName": "WESTWINDS",
        "streetDirectionId": null,
        "streetTypeId": "DR",
        "placeName": "LONDON",
        "streetNameDisplayText": "WESTWINDS DR, LONDON"
      }
    ]
  },
  {
    "postal": "N6C0S4",
    "result": []
  },
  {
    "postal": "N6C5X6",
    "result": [
      {
        "electoralDistricts": [
          {
            "election": null,
            "id": 53,
            "name": "London—Fanshawe"
          }
        ],
        "pollDivisionIds": [
          10139586
        ],
        "postalCode": "N6C5X6",
        "streetName": "GOLFDALE",
        "streetDirectionId": null,
        "streetTypeId": "CRES",
        "placeName": "LONDON",
        "streetNameDisplayText": "GOLFDALE CRES, LONDON"
      }
    ]
  },
  {
    "postal": "N6C8L5",
    "result": []
  },
  {
    "postal": "N6C5M8",
    "result": [
      {
        "electoralDistricts": [
          {
            "election": null,
            "id": 53,
            "name": "London—Fanshawe"
          }
        ],
        "pollDivisionIds": [
          10139578
        ],
        "postalCode": "N6C5M8",
        "streetName": "WINSHIP",
        "streetDirectionId": null,
        "streetTypeId": "CLOSE",
        "placeName": "LONDON",
        "streetNameDisplayText": "WINSHIP CLOSE, LONDON"
      }
    ]
  },
  {
    "postal": "N6C2G3",
    "result": [
      {
        "electoralDistricts": [
          {
            "election": null,
            "id": 55,
            "name": "London West"
          }
        ],
        "pollDivisionIds": [
          10139635
        ],
        "postalCode": "N6C2G3",
        "streetName": "EMERY",
        "streetDirectionId": "E",
        "streetTypeId": "ST",
        "placeName": "LONDON",
        "streetNameDisplayText": "EMERY ST E, LONDON"
      }
    ]
  },
  {
    "postal": "N6C8E4",
    "result": []
  },
  {
    "postal": "N6C7S9",
    "result": []
  },
  {
    "postal": "N6C1K3",
    "result": [
      {
        "electoralDistricts": [
          {
            "election": null,
            "id": 55,
            "name": "London West"
          }
        ],
        "pollDivisionIds": [
          10139626
        ],
        "postalCode": "N6C1K3",
        "streetName": "FRONT",
        "streetDirectionId": null,
        "streetTypeId": "ST",
        "placeName": "LONDON",
        "streetNameDisplayText": "FRONT ST, LONDON"
      }
    ]
  },
  {
    "postal": "N6C4E1",
    "result": [
      {
        "electoralDistricts": [
          {
            "election": null,
            "id": 55,
            "name": "London West"
          }
        ],
        "pollDivisionIds": [
          10139633
        ],
        "postalCode": "N6C4E1",
        "streetName": "CONNINGTON",
        "streetDirectionId": null,
        "streetTypeId": "ST",
        "placeName": "LONDON",
        "streetNameDisplayText": "CONNINGTON ST, LONDON"
      }
    ]
  },
  {
    "postal": "N6C4R2",
    "result": [
      {
        "electoralDistricts": [
          {
            "election": null,
            "id": 53,
            "name": "London—Fanshawe"
          }
        ],
        "pollDivisionIds": [
          10139579
        ],
        "postalCode": "N6C4R2",
        "streetName": "WELLINGTON",
        "streetDirectionId": null,
        "streetTypeId": "RD",
        "placeName": "LONDON",
        "streetNameDisplayText": "WELLINGTON RD, LONDON"
      }
    ]
  },
  {
    "postal": "N6C6T0",
    "result": []
  },
  {
    "postal": "N6C3K5",
    "result": [
      {
        "electoralDistricts": [
          {
            "election": null,
            "id": 55,
            "name": "London West"
          }
        ],
        "pollDivisionIds": [
          10139623
        ],
        "postalCode": "N6C3K5",
        "streetName": "MACKINNON",
        "streetDirectionId": null,
        "streetTypeId": "PL",
        "placeName": "LONDON",
        "streetNameDisplayText": "MACKINNON PL, LONDON"
      }
    ]
  },
  {
    "postal": "N6C3S3",
    "result": [
      {
        "electoralDistricts": [
          {
            "election": null,
            "id": 55,
            "name": "London West"
          }
        ],
        "pollDivisionIds": [
          10139633
        ],
        "postalCode": "N6C3S3",
        "streetName": "WORTLEY",
        "streetDirectionId": null,
        "streetTypeId": "RD",
        "placeName": "LONDON",
        "streetNameDisplayText": "WORTLEY RD, LONDON"
      }
    ]
  },
  {
    "postal": "N6C3L4",
    "result": [
      {
        "electoralDistricts": [
          {
            "election": null,
            "id": 55,
            "name": "London West"
          }
        ],
        "pollDivisionIds": [
          10139624
        ],
        "postalCode": "N6C3L4",
        "streetName": "DEVONSHIRE",
        "streetDirectionId": null,
        "streetTypeId": "PL",
        "placeName": "LONDON",
        "streetNameDisplayText": "DEVONSHIRE PL, LONDON"
      }
    ]
  },
  {
    "postal": "N6C9Y2",
    "result": []
  },
  {
    "postal": "N6C1E0",
    "result": []
  },
  {
    "postal": "N6C9A4",
    "result": []
  },
  {
    "postal": "N6C1L3",
    "result": [
      {
        "electoralDistricts": [
          {
            "election": null,
            "id": 55,
            "name": "London West"
          }
        ],
        "pollDivisionIds": [
          10139625
        ],
        "postalCode": "N6C1L3",
        "streetName": "GRAND",
        "streetDirectionId": null,
        "streetTypeId": "AVE",
        "placeName": "LONDON",
        "streetNameDisplayText": "GRAND AVE, LONDON"
      }
    ]
  },
  {
    "postal": "N6C6N1",
    "result": []
  },
  {
    "postal": "N6C6G7",
    "result": []
  },
  {
    "postal": "N6C7W1",
    "result": []
  },
  {
    "postal": "N6C4M6",
    "result": [
      {
        "electoralDistricts": [
          {
            "election": null,
            "id": 55,
            "name": "London West"
          }
        ],
        "pollDivisionIds": [
          10139628
        ],
        "postalCode": "N6C4M6",
        "streetName": "WELLINGTON",
        "streetDirectionId": null,
        "streetTypeId": "RD",
        "placeName": "LONDON",
        "streetNameDisplayText": "WELLINGTON RD, LONDON"
      }
    ]
  },
  {
    "postal": "N6C1K0",
    "result": []
  },
  {
    "postal": "N6C3E2",
    "result": [
      {
        "electoralDistricts": [
          {
            "election": null,
            "id": 53,
            "name": "London—Fanshawe"
          }
        ],
        "pollDivisionIds": [
          10139579
        ],
        "postalCode": "N6C3E2",
        "streetName": "EBURY",
        "streetDirectionId": null,
        "streetTypeId": "CRES",
        "placeName": "LONDON",
        "streetNameDisplayText": "EBURY CRES, LONDON"
      }
    ]
  },
  {
    "postal": "N6C5H4",
    "result": [
      {
        "electoralDistricts": [
          {
            "election": null,
            "id": 55,
            "name": "London West"
          }
        ],
        "pollDivisionIds": [
          10139635
        ],
        "postalCode": "N6C5H4",
        "streetName": "WESTMINSTER",
        "streetDirectionId": null,
        "streetTypeId": "AVE",
        "placeName": "LONDON",
        "streetNameDisplayText": "WESTMINSTER AVE, LONDON"
      }
    ]
  },
  {
    "postal": "N6C1K7",
    "result": [
      {
        "electoralDistricts": [
          {
            "election": null,
            "id": 55,
            "name": "London West"
          }
        ],
        "pollDivisionIds": [
          10139628
        ],
        "postalCode": "N6C1K7",
        "streetName": "KENNON",
        "streetDirectionId": null,
        "streetTypeId": "PL",
        "placeName": "LONDON",
        "streetNameDisplayText": "KENNON PL, LONDON"
      }
    ]
  },
  {
    "postal": "N6C0H0",
    "result": []
  },
  {
    "postal": "N6C0J3",
    "result": []
  },
  {
    "postal": "N6C1X6",
    "result": [
      {
        "electoralDistricts": [
          {
            "election": null,
            "id": 55,
            "name": "London West"
          }
        ],
        "pollDivisionIds": [
          10139634
        ],
        "postalCode": "N6C1X6",
        "streetName": "BRISCOE",
        "streetDirectionId": "E",
        "streetTypeId": "ST",
        "placeName": "LONDON",
        "streetNameDisplayText": "BRISCOE ST E, LONDON"
      }
    ]
  },
  {
    "postal": "N6C2Z6",
    "result": [
      {
        "electoralDistricts": [
          {
            "election": null,
            "id": 53,
            "name": "London—Fanshawe"
          }
        ],
        "pollDivisionIds": [
          10139584
        ],
        "postalCode": "N6C2Z6",
        "streetName": "EDEN",
        "streetDirectionId": null,
        "streetTypeId": "AVE",
        "placeName": "LONDON",
        "streetNameDisplayText": "EDEN AVE, LONDON"
      }
    ]
  },
  {
    "postal": "N6C4R9",
    "result": [
      {
        "electoralDistricts": [
          {
            "election": null,
            "id": 55,
            "name": "London West"
          }
        ],
        "pollDivisionIds": [
          10139628
        ],
        "postalCode": "N6C4R9",
        "streetName": "BEVERLEY",
        "streetDirectionId": null,
        "streetTypeId": "ST",
        "placeName": "LONDON",
        "streetNameDisplayText": "BEVERLEY ST, LONDON"
      }
    ]
  },
  {
    "postal": "N6C0W8",
    "result": []
  },
  {
    "postal": "N6C1L4",
    "result": [
      {
        "electoralDistricts": [
          {
            "election": null,
            "id": 55,
            "name": "London West"
          }
        ],
        "pollDivisionIds": [
          10139626
        ],
        "postalCode": "N6C1L4",
        "streetName": "GRAND",
        "streetDirectionId": null,
        "streetTypeId": "AVE",
        "placeName": "LONDON",
        "streetNameDisplayText": "GRAND AVE, LONDON"
      }
    ]
  },
  {
    "postal": "N6C0C8",
    "result": []
  },
  {
    "postal": "N6C9X7",
    "result": []
  },
  {
    "postal": "N6C4T1",
    "result": [
      {
        "electoralDistricts": [
          {
            "election": null,
            "id": 55,
            "name": "London West"
          }
        ],
        "pollDivisionIds": [
          10139628
        ],
        "postalCode": "N6C4T1",
        "streetName": "TREVITHEN",
        "streetDirectionId": null,
        "streetTypeId": "ST",
        "placeName": "LONDON",
        "streetNameDisplayText": "TREVITHEN ST, LONDON"
      }
    ]
  },
  {
    "postal": "N6C0M0",
    "result": []
  },
  {
    "postal": "N6C6A2",
    "result": []
  },
  {
    "postal": "N6C9S8",
    "result": []
  },
  {
    "postal": "N6C9T4",
    "result": []
  },
  {
    "postal": "N6C9Y4",
    "result": []
  },
  {
    "postal": "N6C6G5",
    "result": []
  },
  {
    "postal": "N6C6H9",
    "result": []
  },
  {
    "postal": "N6C2P3",
    "result": []
  },
  {
    "postal": "N6C1T6",
    "result": [
      {
        "electoralDistricts": [
          {
            "election": null,
            "id": 55,
            "name": "London West"
          }
        ],
        "pollDivisionIds": [
          10139628
        ],
        "postalCode": "N6C1T6",
        "streetName": "TECUMSEH",
        "streetDirectionId": "E",
        "streetTypeId": "AVE",
        "placeName": "LONDON",
        "streetNameDisplayText": "TECUMSEH AVE E, LONDON"
      }
    ]
  },
  {
    "postal": "N6C4P6",
    "result": [
      {
        "electoralDistricts": [
          {
            "election": null,
            "id": 55,
            "name": "London West"
          }
        ],
        "pollDivisionIds": [
          10139635
        ],
        "postalCode": "N6C4P6",
        "streetName": "WELLINGTON",
        "streetDirectionId": null,
        "streetTypeId": "RD",
        "placeName": "LONDON",
        "streetNameDisplayText": "WELLINGTON RD, LONDON"
      }
    ]
  },
  {
    "postal": "N6C3K1",
    "result": [
      {
        "electoralDistricts": [
          {
            "election": null,
            "id": 55,
            "name": "London West"
          }
        ],
        "pollDivisionIds": [
          10139633
        ],
        "postalCode": "N6C3K1",
        "streetName": "EDWARD",
        "streetDirectionId": null,
        "streetTypeId": "ST",
        "placeName": "LONDON",
        "streetNameDisplayText": "EDWARD ST, LONDON"
      }
    ]
  },
  {
    "postal": "N6C6X4",
    "result": []
  },
  {
    "postal": "N6C4M8",
    "result": [
      {
        "electoralDistricts": [
          {
            "election": null,
            "id": 55,
            "name": "London West"
          }
        ],
        "pollDivisionIds": [
          10139628
        ],
        "postalCode": "N6C4M8",
        "streetName": "WELLINGTON",
        "streetDirectionId": "S",
        "streetTypeId": "RD",
        "placeName": "LONDON",
        "streetNameDisplayText": "WELLINGTON RD S, LONDON"
      },
      {
        "electoralDistricts": [
          {
            "election": null,
            "id": 55,
            "name": "London West"
          }
        ],
        "pollDivisionIds": [
          10139628
        ],
        "postalCode": "N6C4M8",
        "streetName": "WELLINGTON",
        "streetDirectionId": null,
        "streetTypeId": "RD",
        "placeName": "LONDON",
        "streetNameDisplayText": "WELLINGTON RD, LONDON"
      }
    ]
  },
  {
    "postal": "N6C2Y1",
    "result": [
      {
        "electoralDistricts": [
          {
            "election": null,
            "id": 53,
            "name": "London—Fanshawe"
          }
        ],
        "pollDivisionIds": [
          10139579
        ],
        "postalCode": "N6C2Y1",
        "streetName": "PARLIAMENT",
        "streetDirectionId": null,
        "streetTypeId": "CRES",
        "placeName": "LONDON",
        "streetNameDisplayText": "PARLIAMENT CRES, LONDON"
      }
    ]
  },
  {
    "postal": "N6C6M1",
    "result": []
  },
  {
    "postal": "N6C5L8",
    "result": [
      {
        "electoralDistricts": [
          {
            "election": null,
            "id": 53,
            "name": "London—Fanshawe"
          }
        ],
        "pollDivisionIds": [
          10139585
        ],
        "postalCode": "N6C5L8",
        "streetName": "PARKSIDE",
        "streetDirectionId": null,
        "streetTypeId": "CRES",
        "placeName": "LONDON",
        "streetNameDisplayText": "PARKSIDE CRES, LONDON"
      }
    ]
  },
  {
    "postal": "N6C3P6",
    "result": [
      {
        "electoralDistricts": [
          {
            "election": null,
            "id": 55,
            "name": "London West"
          }
        ],
        "pollDivisionIds": [
          10139624
        ],
        "postalCode": "N6C3P6",
        "streetName": "WORTLEY",
        "streetDirectionId": null,
        "streetTypeId": "RD",
        "placeName": "LONDON",
        "streetNameDisplayText": "WORTLEY RD, LONDON"
      }
    ]
  },
  {
    "postal": "N6C9A5",
    "result": []
  },
  {
    "postal": "N6C7K1",
    "result": []
  },
  {
    "postal": "N6C3J4",
    "result": [
      {
        "electoralDistricts": [
          {
            "election": null,
            "id": 55,
            "name": "London West"
          }
        ],
        "pollDivisionIds": [
          10139624
        ],
        "postalCode": "N6C3J4",
        "streetName": "EDWARD",
        "streetDirectionId": null,
        "streetTypeId": "ST",
        "placeName": "LONDON",
        "streetNameDisplayText": "EDWARD ST, LONDON"
      }
    ]
  },
  {
    "postal": "N6C5E7",
    "result": [
      {
        "electoralDistricts": [
          {
            "election": null,
            "id": 53,
            "name": "London—Fanshawe"
          }
        ],
        "pollDivisionIds": [
          10139585
        ],
        "postalCode": "N6C5E7",
        "streetName": "HIGHLAND",
        "streetDirectionId": null,
        "streetTypeId": "PL",
        "placeName": "LONDON",
        "streetNameDisplayText": "HIGHLAND PL, LONDON"
      }
    ]
  },
  {
    "postal": "N6C3A7",
    "result": [
      {
        "electoralDistricts": [
          {
            "election": null,
            "id": 53,
            "name": "London—Fanshawe"
          }
        ],
        "pollDivisionIds": [
          10139584
        ],
        "postalCode": "N6C3A7",
        "streetName": "CRESTON",
        "streetDirectionId": null,
        "streetTypeId": "AVE",
        "placeName": "LONDON",
        "streetNameDisplayText": "CRESTON AVE, LONDON"
      }
    ]
  },
  {
    "postal": "N6C1B9",
    "result": [
      {
        "electoralDistricts": [
          {
            "election": null,
            "id": 55,
            "name": "London West"
          }
        ],
        "pollDivisionIds": [
          10139623
        ],
        "postalCode": "N6C1B9",
        "streetName": "VICTOR",
        "streetDirectionId": null,
        "streetTypeId": "ST",
        "placeName": "LONDON",
        "streetNameDisplayText": "VICTOR ST, LONDON"
      }
    ]
  },
  {
    "postal": "N6C9E8",
    "result": []
  },
  {
    "postal": "N6C1C9",
    "result": [
      {
        "electoralDistricts": [
          {
            "election": null,
            "id": 55,
            "name": "London West"
          }
        ],
        "pollDivisionIds": [
          10139625
        ],
        "postalCode": "N6C1C9",
        "streetName": "INGLESIDE",
        "streetDirectionId": null,
        "streetTypeId": "PL",
        "placeName": "LONDON",
        "streetNameDisplayText": "INGLESIDE PL, LONDON"
      }
    ]
  },
  {
    "postal": "N6C3B5",
    "result": [
      {
        "electoralDistricts": [
          {
            "election": null,
            "id": 53,
            "name": "London—Fanshawe"
          }
        ],
        "pollDivisionIds": [
          10139586
        ],
        "postalCode": "N6C3B5",
        "streetName": "STOCKTON",
        "streetDirectionId": null,
        "streetTypeId": "ST",
        "placeName": "LONDON",
        "streetNameDisplayText": "STOCKTON ST, LONDON"
      }
    ]
  },
  {
    "postal": "N6C8R0",
    "result": []
  },
  {
    "postal": "N6C3P2",
    "result": [
      {
        "electoralDistricts": [
          {
            "election": null,
            "id": 55,
            "name": "London West"
          }
        ],
        "pollDivisionIds": [
          10139623
        ],
        "postalCode": "N6C3P2",
        "streetName": "WORTLEY",
        "streetDirectionId": null,
        "streetTypeId": "RD",
        "placeName": "LONDON",
        "streetNameDisplayText": "WORTLEY RD, LONDON"
      }
    ]
  },
  {
    "postal": "N6C5V4",
    "result": [
      {
        "electoralDistricts": [
          {
            "election": null,
            "id": 53,
            "name": "London—Fanshawe"
          }
        ],
        "pollDivisionIds": [
          10139586
        ],
        "postalCode": "N6C5V4",
        "streetName": "GOLFVIEW",
        "streetDirectionId": null,
        "streetTypeId": "CRT",
        "placeName": "LONDON",
        "streetNameDisplayText": "GOLFVIEW CRT, LONDON"
      },
      {
        "electoralDistricts": [
          {
            "election": null,
            "id": 53,
            "name": "London—Fanshawe"
          }
        ],
        "pollDivisionIds": [
          10139585,
          10139586
        ],
        "postalCode": "N6C5V4",
        "streetName": "GOLFVIEW",
        "streetDirectionId": null,
        "streetTypeId": "RD",
        "placeName": "LONDON",
        "streetNameDisplayText": "GOLFVIEW RD, LONDON"
      }
    ]
  },
  {
    "postal": "N6C4H0",
    "result": []
  },
  {
    "postal": "N6C4S7",
    "result": [
      {
        "electoralDistricts": [
          {
            "election": null,
            "id": 55,
            "name": "London West"
          }
        ],
        "pollDivisionIds": [
          10139628
        ],
        "postalCode": "N6C4S7",
        "streetName": "TREVITHEN",
        "streetDirectionId": null,
        "streetTypeId": "ST",
        "placeName": "LONDON",
        "streetNameDisplayText": "TREVITHEN ST, LONDON"
      }
    ]
  },
  {
    "postal": "N6C6C2",
    "result": [
      {
        "electoralDistricts": [
          {
            "election": null,
            "id": 53,
            "name": "London—Fanshawe"
          }
        ],
        "pollDivisionIds": [
          10139585
        ],
        "postalCode": "N6C6C2",
        "streetName": "HOMEVIEW",
        "streetDirectionId": null,
        "streetTypeId": "CRT",
        "placeName": "LONDON",
        "streetNameDisplayText": "HOMEVIEW CRT, LONDON"
      }
    ]
  },
  {
    "postal": "N6C8W3",
    "result": []
  },
  {
    "postal": "N6C4M5",
    "result": [
      {
        "electoralDistricts": [
          {
            "election": null,
            "id": 55,
            "name": "London West"
          }
        ],
        "pollDivisionIds": [
          10139628
        ],
        "postalCode": "N6C4M5",
        "streetName": "WELLINGTON",
        "streetDirectionId": null,
        "streetTypeId": "RD",
        "placeName": "LONDON",
        "streetNameDisplayText": "WELLINGTON RD, LONDON"
      }
    ]
  },
  {
    "postal": "N6C5T1",
    "result": [
      {
        "electoralDistricts": [
          {
            "election": null,
            "id": 53,
            "name": "London—Fanshawe"
          }
        ],
        "pollDivisionIds": [
          10139584
        ],
        "postalCode": "N6C5T1",
        "streetName": "WATERMAN",
        "streetDirectionId": null,
        "streetTypeId": "AVE",
        "placeName": "LONDON",
        "streetNameDisplayText": "WATERMAN AVE, LONDON"
      }
    ]
  },
  {
    "postal": "N6C3B3",
    "result": [
      {
        "electoralDistricts": [
          {
            "election": null,
            "id": 53,
            "name": "London—Fanshawe"
          }
        ],
        "pollDivisionIds": [
          10139586
        ],
        "postalCode": "N6C3B3",
        "streetName": "CRAWFORD",
        "streetDirectionId": null,
        "streetTypeId": "ST",
        "placeName": "LONDON",
        "streetNameDisplayText": "CRAWFORD ST, LONDON"
      }
    ]
  },
  {
    "postal": "N6C6C6",
    "result": []
  },
  {
    "postal": "N6C7N8",
    "result": []
  },
  {
    "postal": "N6C2Y3",
    "result": [
      {
        "electoralDistricts": [
          {
            "election": null,
            "id": 53,
            "name": "London—Fanshawe"
          }
        ],
        "pollDivisionIds": [
          10139579
        ],
        "postalCode": "N6C2Y3",
        "streetName": "LEICESTER",
        "streetDirectionId": null,
        "streetTypeId": "CRES",
        "placeName": "LONDON",
        "streetNameDisplayText": "LEICESTER CRES, LONDON"
      }
    ]
  },
  {
    "postal": "N6C2R6",
    "result": []
  },
  {
    "postal": "N6C7N3",
    "result": []
  },
  {
    "postal": "N6C8J2",
    "result": []
  },
  {
    "postal": "N6C6A9",
    "result": []
  },
  {
    "postal": "N6C3V2",
    "result": [
      {
        "electoralDistricts": [
          {
            "election": null,
            "id": 53,
            "name": "London—Fanshawe"
          }
        ],
        "pollDivisionIds": [
          10139586
        ],
        "postalCode": "N6C3V2",
        "streetName": "DUNDALK",
        "streetDirectionId": null,
        "streetTypeId": "DR",
        "placeName": "LONDON",
        "streetNameDisplayText": "DUNDALK DR, LONDON"
      }
    ]
  },
  {
    "postal": "N6C2N3",
    "result": [
      {
        "electoralDistricts": [
          {
            "election": null,
            "id": 55,
            "name": "London West"
          }
        ],
        "pollDivisionIds": [
          10139634
        ],
        "postalCode": "N6C2N3",
        "streetName": "MARLA",
        "streetDirectionId": null,
        "streetTypeId": "CRES",
        "placeName": "LONDON",
        "streetNameDisplayText": "MARLA CRES, LONDON"
      }
    ]
  },
  {
    "postal": "N6C1S5",
    "result": [
      {
        "electoralDistricts": [
          {
            "election": null,
            "id": 55,
            "name": "London West"
          }
        ],
        "pollDivisionIds": [
          10139634
        ],
        "postalCode": "N6C1S5",
        "streetName": "TECUMSEH",
        "streetDirectionId": "E",
        "streetTypeId": "AVE",
        "placeName": "LONDON",
        "streetNameDisplayText": "TECUMSEH AVE E, LONDON"
      }
    ]
  },
  {
    "postal": "N6C4T7",
    "result": [
      {
        "electoralDistricts": [
          {
            "election": null,
            "id": 55,
            "name": "London West"
          }
        ],
        "pollDivisionIds": [
          10139628
        ],
        "postalCode": "N6C4T7",
        "streetName": "FAIRVIEW",
        "streetDirectionId": null,
        "streetTypeId": "AVE",
        "placeName": "LONDON",
        "streetNameDisplayText": "FAIRVIEW AVE, LONDON"
      }
    ]
  },
  {
    "postal": "N6C6Y7",
    "result": []
  },
  {
    "postal": "N6C0W7",
    "result": []
  },
  {
    "postal": "N6C2W9",
    "result": [
      {
        "electoralDistricts": [
          {
            "election": null,
            "id": 53,
            "name": "London—Fanshawe"
          }
        ],
        "pollDivisionIds": [
          10139584
        ],
        "postalCode": "N6C2W9",
        "streetName": "CHIDDINGTON",
        "streetDirectionId": null,
        "streetTypeId": "AVE",
        "placeName": "LONDON",
        "streetNameDisplayText": "CHIDDINGTON AVE, LONDON"
      }
    ]
  },
  {
    "postal": "N6C8V0",
    "result": []
  },
  {
    "postal": "N6C0H4",
    "result": []
  },
  {
    "postal": "N6C2T1",
    "result": [
      {
        "electoralDistricts": [
          {
            "election": null,
            "id": 55,
            "name": "London West"
          }
        ],
        "pollDivisionIds": [
          10139633
        ],
        "postalCode": "N6C2T1",
        "streetName": "COMMISSIONERS",
        "streetDirectionId": "E",
        "streetTypeId": "RD",
        "placeName": "LONDON",
        "streetNameDisplayText": "COMMISSIONERS RD E, LONDON"
      }
    ]
  },
  {
    "postal": "N6C1B1",
    "result": [
      {
        "electoralDistricts": [
          {
            "election": null,
            "id": 54,
            "name": "London North Centre"
          }
        ],
        "pollDivisionIds": [
          10135385
        ],
        "postalCode": "N6C1B1",
        "streetName": "STANLEY",
        "streetDirectionId": null,
        "streetTypeId": "ST",
        "placeName": "LONDON",
        "streetNameDisplayText": "STANLEY ST, LONDON"
      }
    ]
  },
  {
    "postal": "N6C8B6",
    "result": []
  },
  {
    "postal": "N6C6H1",
    "result": []
  },
  {
    "postal": "N6C8T8",
    "result": []
  },
  {
    "postal": "N6C0T4",
    "result": []
  },
  {
    "postal": "N6C2C4",
    "result": [
      {
        "electoralDistricts": [
          {
            "election": null,
            "id": 55,
            "name": "London West"
          }
        ],
        "pollDivisionIds": [
          10139628
        ],
        "postalCode": "N6C2C4",
        "streetName": "LINCOLN",
        "streetDirectionId": null,
        "streetTypeId": "PL",
        "placeName": "LONDON",
        "streetNameDisplayText": "LINCOLN PL, LONDON"
      }
    ]
  },
  {
    "postal": "N6C8N3",
    "result": []
  },
  {
    "postal": "N6C4L8",
    "result": [
      {
        "electoralDistricts": [
          {
            "election": null,
            "id": 53,
            "name": "London—Fanshawe"
          }
        ],
        "pollDivisionIds": [
          10139584
        ],
        "postalCode": "N6C4L8",
        "streetName": "ROCKINGHAM",
        "streetDirectionId": null,
        "streetTypeId": "CRT",
        "placeName": "LONDON",
        "streetNameDisplayText": "ROCKINGHAM CRT, LONDON"
      }
    ]
  },
  {
    "postal": "N6C2B5",
    "result": [
      {
        "electoralDistricts": [
          {
            "election": null,
            "id": 55,
            "name": "London West"
          }
        ],
        "pollDivisionIds": [
          10139634
        ],
        "postalCode": "N6C2B5",
        "streetName": "GARFIELD",
        "streetDirectionId": null,
        "streetTypeId": "AVE",
        "placeName": "LONDON",
        "streetNameDisplayText": "GARFIELD AVE, LONDON"
      }
    ]
  },
  {
    "postal": "N6C3H1",
    "result": [
      {
        "electoralDistricts": [
          {
            "election": null,
            "id": 55,
            "name": "London West"
          }
        ],
        "pollDivisionIds": [
          10139624
        ],
        "postalCode": "N6C3H1",
        "streetName": "EDWARD",
        "streetDirectionId": null,
        "streetTypeId": "ST",
        "placeName": "LONDON",
        "streetNameDisplayText": "EDWARD ST, LONDON"
      }
    ]
  },
  {
    "postal": "N6C4Y1",
    "result": [
      {
        "electoralDistricts": [
          {
            "election": null,
            "id": 53,
            "name": "London—Fanshawe"
          }
        ],
        "pollDivisionIds": [
          10139584
        ],
        "postalCode": "N6C4Y1",
        "streetName": "FERNDALE",
        "streetDirectionId": null,
        "streetTypeId": "AVE",
        "placeName": "LONDON",
        "streetNameDisplayText": "FERNDALE AVE, LONDON"
      }
    ]
  },
  {
    "postal": "N6C7E2",
    "result": []
  },
  {
    "postal": "N6C2P5",
    "result": [
      {
        "electoralDistricts": [
          {
            "election": null,
            "id": 55,
            "name": "London West"
          }
        ],
        "pollDivisionIds": [
          10139633
        ],
        "postalCode": "N6C2P5",
        "streetName": "BASE LINE",
        "streetDirectionId": "E",
        "streetTypeId": "RD",
        "placeName": "LONDON",
        "streetNameDisplayText": "BASE LINE RD E, LONDON"
      }
    ]
  },
  {
    "postal": "N6C8R7",
    "result": []
  },
  {
    "postal": "N6C9P1",
    "result": []
  },
  {
    "postal": "N6C3B8",
    "result": [
      {
        "electoralDistricts": [
          {
            "election": null,
            "id": 53,
            "name": "London—Fanshawe"
          }
        ],
        "pollDivisionIds": [
          10139584
        ],
        "postalCode": "N6C3B8",
        "streetName": "ALSTON",
        "streetDirectionId": null,
        "streetTypeId": "RD",
        "placeName": "LONDON",
        "streetNameDisplayText": "ALSTON RD, LONDON"
      }
    ]
  },
  {
    "postal": "N6C3P7",
    "result": [
      {
        "electoralDistricts": [
          {
            "election": null,
            "id": 55,
            "name": "London West"
          }
        ],
        "pollDivisionIds": [
          10139625
        ],
        "postalCode": "N6C3P7",
        "streetName": "WORTLEY",
        "streetDirectionId": null,
        "streetTypeId": "RD",
        "placeName": "LONDON",
        "streetNameDisplayText": "WORTLEY RD, LONDON"
      }
    ]
  },
  {
    "postal": "N6C9B2",
    "result": []
  },
  {
    "postal": "N6C6Z3",
    "result": []
  },
  {
    "postal": "N6C4N5",
    "result": [
      {
        "electoralDistricts": [
          {
            "election": null,
            "id": 55,
            "name": "London West"
          }
        ],
        "pollDivisionIds": [
          10139628
        ],
        "postalCode": "N6C4N5",
        "streetName": "WELLINGTON",
        "streetDirectionId": null,
        "streetTypeId": "RD",
        "placeName": "LONDON",
        "streetNameDisplayText": "WELLINGTON RD, LONDON"
      },
      {
        "electoralDistricts": [
          {
            "election": null,
            "id": 54,
            "name": "London North Centre"
          }
        ],
        "pollDivisionIds": [
          10135390
        ],
        "postalCode": "N6C4N5",
        "streetName": "WELLINGTON",
        "streetDirectionId": null,
        "streetTypeId": "ST",
        "placeName": "LONDON",
        "streetNameDisplayText": "WELLINGTON ST, LONDON"
      }
    ]
  },
  {
    "postal": "N6C8T3",
    "result": []
  },
  {
    "postal": "N6C1V2",
    "result": [
      {
        "electoralDistricts": [
          {
            "election": null,
            "id": 55,
            "name": "London West"
          }
        ],
        "pollDivisionIds": [
          10139634
        ],
        "postalCode": "N6C1V2",
        "streetName": "MCKENZIE",
        "streetDirectionId": null,
        "streetTypeId": "AVE",
        "placeName": "LONDON",
        "streetNameDisplayText": "MCKENZIE AVE, LONDON"
      }
    ]
  },
  {
    "postal": "N6C1Y0",
    "result": []
  },
  {
    "postal": "N6C3G6",
    "result": [
      {
        "electoralDistricts": [
          {
            "election": null,
            "id": 55,
            "name": "London West"
          }
        ],
        "pollDivisionIds": [
          10139623
        ],
        "postalCode": "N6C3G6",
        "streetName": "WESTCOTT",
        "streetDirectionId": null,
        "streetTypeId": "ST",
        "placeName": "LONDON",
        "streetNameDisplayText": "WESTCOTT ST, LONDON"
      }
    ]
  },
  {
    "postal": "N6C3H7",
    "result": [
      {
        "electoralDistricts": [
          {
            "election": null,
            "id": 55,
            "name": "London West"
          }
        ],
        "pollDivisionIds": [
          10139624
        ],
        "postalCode": "N6C3H7",
        "streetName": "EDWARD",
        "streetDirectionId": null,
        "streetTypeId": "ST",
        "placeName": "LONDON",
        "streetNameDisplayText": "EDWARD ST, LONDON"
      }
    ]
  },
  {
    "postal": "N6C7X8",
    "result": []
  },
  {
    "postal": "N6C0C7",
    "result": []
  },
  {
    "postal": "N6C0W9",
    "result": []
  },
  {
    "postal": "N6C8E6",
    "result": []
  },
  {
    "postal": "N6C9Z8",
    "result": []
  },
  {
    "postal": "N6C3P4",
    "result": [
      {
        "electoralDistricts": [
          {
            "election": null,
            "id": 55,
            "name": "London West"
          }
        ],
        "pollDivisionIds": [
          10139625
        ],
        "postalCode": "N6C3P4",
        "streetName": "WORTLEY",
        "streetDirectionId": null,
        "streetTypeId": "RD",
        "placeName": "LONDON",
        "streetNameDisplayText": "WORTLEY RD, LONDON"
      }
    ]
  },
  {
    "postal": "N6C6L8",
    "result": []
  },
  {
    "postal": "N6C2R4",
    "result": [
      {
        "electoralDistricts": [
          {
            "election": null,
            "id": 55,
            "name": "London West"
          }
        ],
        "pollDivisionIds": [
          10139635
        ],
        "postalCode": "N6C2R4",
        "streetName": "BASE LINE",
        "streetDirectionId": "E",
        "streetTypeId": "RD",
        "placeName": "LONDON",
        "streetNameDisplayText": "BASE LINE RD E, LONDON"
      }
    ]
  },
  {
    "postal": "N6C2W1",
    "result": [
      {
        "electoralDistricts": [
          {
            "election": null,
            "id": 53,
            "name": "London—Fanshawe"
          }
        ],
        "pollDivisionIds": [
          10139584
        ],
        "postalCode": "N6C2W1",
        "streetName": "CHIDDINGTON",
        "streetDirectionId": null,
        "streetTypeId": "AVE",
        "placeName": "LONDON",
        "streetNameDisplayText": "CHIDDINGTON AVE, LONDON"
      }
    ]
  },
  {
    "postal": "N6C9H8",
    "result": []
  },
  {
    "postal": "N6C8X9",
    "result": []
  },
  {
    "postal": "N6C7H4",
    "result": []
  },
  {
    "postal": "N6C3J1",
    "result": [
      {
        "electoralDistricts": [
          {
            "election": null,
            "id": 55,
            "name": "London West"
          }
        ],
        "pollDivisionIds": [
          10139624
        ],
        "postalCode": "N6C3J1",
        "streetName": "EDWARD",
        "streetDirectionId": null,
        "streetTypeId": "ST",
        "placeName": "LONDON",
        "streetNameDisplayText": "EDWARD ST, LONDON"
      }
    ]
  },
  {
    "postal": "N6C1P4",
    "result": [
      {
        "electoralDistricts": [
          {
            "election": null,
            "id": 55,
            "name": "London West"
          }
        ],
        "pollDivisionIds": [
          10139626
        ],
        "postalCode": "N6C1P4",
        "streetName": "FERGUSON",
        "streetDirectionId": null,
        "streetTypeId": "PL",
        "placeName": "LONDON",
        "streetNameDisplayText": "FERGUSON PL, LONDON"
      }
    ]
  },
  {
    "postal": "N6C2A3",
    "result": [
      {
        "electoralDistricts": [
          {
            "election": null,
            "id": 55,
            "name": "London West"
          }
        ],
        "pollDivisionIds": [
          10139634
        ],
        "postalCode": "N6C2A3",
        "streetName": "WINDSOR",
        "streetDirectionId": null,
        "streetTypeId": "AVE",
        "placeName": "LONDON",
        "streetNameDisplayText": "WINDSOR AVE, LONDON"
      }
    ]
  },
  {
    "postal": "N6C0Z1",
    "result": []
  },
  {
    "postal": "N6C1C1",
    "result": [
      {
        "electoralDistricts": [
          {
            "election": null,
            "id": 55,
            "name": "London West"
          }
        ],
        "pollDivisionIds": [
          10139623
        ],
        "postalCode": "N6C1C1",
        "streetName": "EUCLID",
        "streetDirectionId": null,
        "streetTypeId": "AVE",
        "placeName": "LONDON",
        "streetNameDisplayText": "EUCLID AVE, LONDON"
      }
    ]
  },
  {
    "postal": "N6C0H3",
    "result": []
  },
  {
    "postal": "N6C7B0",
    "result": []
  },
  {
    "postal": "N6C5K2",
    "result": [
      {
        "electoralDistricts": [
          {
            "election": null,
            "id": 54,
            "name": "London North Centre"
          }
        ],
        "pollDivisionIds": [
          10135385
        ],
        "postalCode": "N6C5K2",
        "streetName": "WORTLEY",
        "streetDirectionId": null,
        "streetTypeId": "RD",
        "placeName": "LONDON",
        "streetNameDisplayText": "WORTLEY RD, LONDON"
      }
    ]
  },
  {
    "postal": "N6C1E9",
    "result": [
      {
        "electoralDistricts": [
          {
            "election": null,
            "id": 55,
            "name": "London West"
          }
        ],
        "pollDivisionIds": [
          10139625
        ],
        "postalCode": "N6C1E9",
        "streetName": "CRAIG",
        "streetDirectionId": null,
        "streetTypeId": "ST",
        "placeName": "LONDON",
        "streetNameDisplayText": "CRAIG ST, LONDON"
      }
    ]
  },
  {
    "postal": "N6C9W7",
    "result": []
  },
  {
    "postal": "N6C5W6",
    "result": [
      {
        "electoralDistricts": [
          {
            "election": null,
            "id": 53,
            "name": "London—Fanshawe"
          }
        ],
        "pollDivisionIds": [
          10139586
        ],
        "postalCode": "N6C5W6",
        "streetName": "ANSONDALE",
        "streetDirectionId": null,
        "streetTypeId": "RD",
        "placeName": "LONDON",
        "streetNameDisplayText": "ANSONDALE RD, LONDON"
      }
    ]
  },
  {
    "postal": "N6C6S6",
    "result": []
  },
  {
    "postal": "N6C2P8",
    "result": [
      {
        "electoralDistricts": [
          {
            "election": null,
            "id": 55,
            "name": "London West"
          }
        ],
        "pollDivisionIds": [
          10139633
        ],
        "postalCode": "N6C2P8",
        "streetName": "BASE LINE",
        "streetDirectionId": "E",
        "streetTypeId": "RD",
        "placeName": "LONDON",
        "streetNameDisplayText": "BASE LINE RD E, LONDON"
      }
    ]
  },
  {
    "postal": "N6C4P8",
    "result": [
      {
        "electoralDistricts": [
          {
            "election": null,
            "id": 55,
            "name": "London West"
          }
        ],
        "pollDivisionIds": [
          10139635
        ],
        "postalCode": "N6C4P8",
        "streetName": "WELLINGTON",
        "streetDirectionId": null,
        "streetTypeId": "RD",
        "placeName": "LONDON",
        "streetNameDisplayText": "WELLINGTON RD, LONDON"
      }
    ]
  },
  {
    "postal": "N6C0V9",
    "result": []
  },
  {
    "postal": "N6C5Y2",
    "result": [
      {
        "electoralDistricts": [
          {
            "election": null,
            "id": 53,
            "name": "London—Fanshawe"
          }
        ],
        "pollDivisionIds": [
          10139584
        ],
        "postalCode": "N6C5Y2",
        "streetName": "CLARENDON",
        "streetDirectionId": null,
        "streetTypeId": "CRES",
        "placeName": "LONDON",
        "streetNameDisplayText": "CLARENDON CRES, LONDON"
      }
    ]
  },
  {
    "postal": "N6C7Z7",
    "result": []
  },
  {
    "postal": "N6C6Y8",
    "result": []
  },
  {
    "postal": "N6C2G7",
    "result": [
      {
        "electoralDistricts": [
          {
            "election": null,
            "id": 55,
            "name": "London West"
          }
        ],
        "pollDivisionIds": [
          10139634
        ],
        "postalCode": "N6C2G7",
        "streetName": "FRANKLIN",
        "streetDirectionId": null,
        "streetTypeId": "AVE",
        "placeName": "LONDON",
        "streetNameDisplayText": "FRANKLIN AVE, LONDON"
      }
    ]
  },
  {
    "postal": "N6C8C1",
    "result": []
  },
  {
    "postal": "N6C5C5",
    "result": []
  },
  {
    "postal": "N6C2X8",
    "result": [
      {
        "electoralDistricts": [
          {
            "election": null,
            "id": 53,
            "name": "London—Fanshawe"
          }
        ],
        "pollDivisionIds": [
          10139579
        ],
        "postalCode": "N6C2X8",
        "streetName": "PARLIAMENT",
        "streetDirectionId": null,
        "streetTypeId": "CRES",
        "placeName": "LONDON",
        "streetNameDisplayText": "PARLIAMENT CRES, LONDON"
      }
    ]
  },
  {
    "postal": "N6C1W5",
    "result": [
      {
        "electoralDistricts": [
          {
            "election": null,
            "id": 55,
            "name": "London West"
          }
        ],
        "pollDivisionIds": [
          10139628
        ],
        "postalCode": "N6C1W5",
        "streetName": "BOND",
        "streetDirectionId": null,
        "streetTypeId": "ST",
        "placeName": "LONDON",
        "streetNameDisplayText": "BOND ST, LONDON"
      }
    ]
  },
  {
    "postal": "N6C7G0",
    "result": []
  },
  {
    "postal": "N6C8J8",
    "result": []
  },
  {
    "postal": "N6C3Y0",
    "result": []
  },
  {
    "postal": "N6C9T7",
    "result": []
  },
  {
    "postal": "N6C5P4",
    "result": [
      {
        "electoralDistricts": [
          {
            "election": null,
            "id": 53,
            "name": "London—Fanshawe"
          }
        ],
        "pollDivisionIds": [
          10139586
        ],
        "postalCode": "N6C5P4",
        "streetName": "GOLFDALE",
        "streetDirectionId": null,
        "streetTypeId": "CRES",
        "placeName": "LONDON",
        "streetNameDisplayText": "GOLFDALE CRES, LONDON"
      }
    ]
  },
  {
    "postal": "N6C4B0",
    "result": []
  },
  {
    "postal": "N6C9N8",
    "result": []
  },
  {
    "postal": "N6C4A7",
    "result": [
      {
        "electoralDistricts": [
          {
            "election": null,
            "id": 55,
            "name": "London West"
          }
        ],
        "pollDivisionIds": [
          10139626
        ],
        "postalCode": "N6C4A7",
        "streetName": "BELLEVUE",
        "streetDirectionId": null,
        "streetTypeId": "AVE",
        "placeName": "LONDON",
        "streetNameDisplayText": "BELLEVUE AVE, LONDON"
      }
    ]
  },
  {
    "postal": "N6C4H9",
    "result": [
      {
        "electoralDistricts": [
          {
            "election": null,
            "id": 53,
            "name": "London—Fanshawe"
          }
        ],
        "pollDivisionIds": [
          10139584
        ],
        "postalCode": "N6C4H9",
        "streetName": "HUNTINGDON",
        "streetDirectionId": null,
        "streetTypeId": "DR",
        "placeName": "LONDON",
        "streetNameDisplayText": "HUNTINGDON DR, LONDON"
      }
    ]
  },
  {
    "postal": "N6C6X1",
    "result": []
  },
  {
    "postal": "N6C9Y7",
    "result": []
  },
  {
    "postal": "N6C2Y5",
    "result": [
      {
        "electoralDistricts": [
          {
            "election": null,
            "id": 53,
            "name": "London—Fanshawe"
          }
        ],
        "pollDivisionIds": [
          10139579
        ],
        "postalCode": "N6C2Y5",
        "streetName": "SHAFTESBURY",
        "streetDirectionId": null,
        "streetTypeId": "AVE",
        "placeName": "LONDON",
        "streetNameDisplayText": "SHAFTESBURY AVE, LONDON"
      }
    ]
  },
  {
    "postal": "N6C8L7",
    "result": []
  },
  {
    "postal": "N6C2A8",
    "result": [
      {
        "electoralDistricts": [
          {
            "election": null,
            "id": 55,
            "name": "London West"
          }
        ],
        "pollDivisionIds": [
          10139628
        ],
        "postalCode": "N6C2A8",
        "streetName": "ALEXANDRA",
        "streetDirectionId": null,
        "streetTypeId": "ST",
        "placeName": "LONDON",
        "streetNameDisplayText": "ALEXANDRA ST, LONDON"
      }
    ]
  },
  {
    "postal": "N6C2K9",
    "result": [
      {
        "electoralDistricts": [
          {
            "election": null,
            "id": 55,
            "name": "London West"
          }
        ],
        "pollDivisionIds": [
          10139633
        ],
        "postalCode": "N6C2K9",
        "streetName": "IROQUOIS",
        "streetDirectionId": null,
        "streetTypeId": "AVE",
        "placeName": "LONDON",
        "streetNameDisplayText": "IROQUOIS AVE, LONDON"
      }
    ]
  },
  {
    "postal": "N6C3E5",
    "result": [
      {
        "electoralDistricts": [
          {
            "election": null,
            "id": 55,
            "name": "London West"
          }
        ],
        "pollDivisionIds": [
          10139624
        ],
        "postalCode": "N6C3E5",
        "streetName": "LOCKYER",
        "streetDirectionId": null,
        "streetTypeId": "ST",
        "placeName": "LONDON",
        "streetNameDisplayText": "LOCKYER ST, LONDON"
      }
    ]
  },
  {
    "postal": "N6C8N6",
    "result": []
  },
  {
    "postal": "N6C8J4",
    "result": []
  },
  {
    "postal": "N6C4R7",
    "result": [
      {
        "electoralDistricts": [
          {
            "election": null,
            "id": 53,
            "name": "London—Fanshawe"
          }
        ],
        "pollDivisionIds": [
          10139583,
          10139584
        ],
        "postalCode": "N6C4R7",
        "streetName": "NADINE",
        "streetDirectionId": null,
        "streetTypeId": "AVE",
        "placeName": "LONDON",
        "streetNameDisplayText": "NADINE AVE, LONDON"
      }
    ]
  },
  {
    "postal": "N6C9K1",
    "result": []
  },
  {
    "postal": "N6C8E1",
    "result": []
  },
  {
    "postal": "N6C0R1",
    "result": []
  },
  {
    "postal": "N6C4J3",
    "result": [
      {
        "electoralDistricts": [
          {
            "election": null,
            "id": 53,
            "name": "London—Fanshawe"
          }
        ],
        "pollDivisionIds": [
          10139584
        ],
        "postalCode": "N6C4J3",
        "streetName": "HUNTINGDON",
        "streetDirectionId": null,
        "streetTypeId": "DR",
        "placeName": "LONDON",
        "streetNameDisplayText": "HUNTINGDON DR, LONDON"
      }
    ]
  },
  {
    "postal": "N6C7E7",
    "result": []
  },
  {
    "postal": "N6C0J0",
    "result": []
  },
  {
    "postal": "N6C7R8",
    "result": []
  },
  {
    "postal": "N6C9X0",
    "result": []
  },
  {
    "postal": "N6C7P6",
    "result": []
  },
  {
    "postal": "N6C0R7",
    "result": []
  },
  {
    "postal": "N6C5W1",
    "result": [
      {
        "electoralDistricts": [
          {
            "election": null,
            "id": 55,
            "name": "London West"
          }
        ],
        "pollDivisionIds": [
          10139632
        ],
        "postalCode": "N6C5W1",
        "streetName": "NIXON",
        "streetDirectionId": null,
        "streetTypeId": "AV",
        "placeName": "LONDON",
        "streetNameDisplayText": "NIXON AV, LONDON"
      },
      {
        "electoralDistricts": [
          {
            "election": null,
            "id": 53,
            "name": "London—Fanshawe"
          }
        ],
        "pollDivisionIds": [
          10139584
        ],
        "postalCode": "N6C5W1",
        "streetName": "NIXON",
        "streetDirectionId": null,
        "streetTypeId": "AVE",
        "placeName": "LONDON",
        "streetNameDisplayText": "NIXON AVE, LONDON"
      }
    ]
  },
  {
    "postal": "N6C0K4",
    "result": []
  },
  {
    "postal": "N6C7N9",
    "result": []
  },
  {
    "postal": "N6C1N0",
    "result": []
  },
  {
    "postal": "N6C6P3",
    "result": []
  },
  {
    "postal": "N6C5A1",
    "result": [
      {
        "electoralDistricts": [
          {
            "election": null,
            "id": 53,
            "name": "London—Fanshawe"
          }
        ],
        "pollDivisionIds": [
          10139584
        ],
        "postalCode": "N6C5A1",
        "streetName": "VERULAM",
        "streetDirectionId": null,
        "streetTypeId": "ST",
        "placeName": "LONDON",
        "streetNameDisplayText": "VERULAM ST, LONDON"
      }
    ]
  },
  {
    "postal": "N6C9M9",
    "result": []
  },
  {
    "postal": "N6C7T6",
    "result": []
  },
  {
    "postal": "N6C3X0",
    "result": []
  },
  {
    "postal": "N6C2T0",
    "result": []
  },
  {
    "postal": "N6C5X9",
    "result": [
      {
        "electoralDistricts": [
          {
            "election": null,
            "id": 53,
            "name": "London—Fanshawe"
          }
        ],
        "pollDivisionIds": [
          10139586
        ],
        "postalCode": "N6C5X9",
        "streetName": "FERNDALE",
        "streetDirectionId": null,
        "streetTypeId": "AVE",
        "placeName": "LONDON",
        "streetNameDisplayText": "FERNDALE AVE, LONDON"
      }
    ]
  },
  {
    "postal": "N6C2R3",
    "result": [
      {
        "electoralDistricts": [
          {
            "election": null,
            "id": 55,
            "name": "London West"
          }
        ],
        "pollDivisionIds": [
          10139635
        ],
        "postalCode": "N6C2R3",
        "streetName": "BASE LINE",
        "streetDirectionId": "E",
        "streetTypeId": "RD",
        "placeName": "LONDON",
        "streetNameDisplayText": "BASE LINE RD E, LONDON"
      },
      {
        "electoralDistricts": [
          {
            "election": null,
            "id": 55,
            "name": "London West"
          }
        ],
        "pollDivisionIds": [
          10139635
        ],
        "postalCode": "N6C2R3",
        "streetName": "BASELINE",
        "streetDirectionId": "E",
        "streetTypeId": "RD",
        "placeName": "LONDON",
        "streetNameDisplayText": "BASELINE RD E, LONDON"
      }
    ]
  },
  {
    "postal": "N6C5N2",
    "result": [
      {
        "electoralDistricts": [
          {
            "election": null,
            "id": 53,
            "name": "London—Fanshawe"
          }
        ],
        "pollDivisionIds": [
          10139586
        ],
        "postalCode": "N6C5N2",
        "streetName": "GOLFVIEW",
        "streetDirectionId": null,
        "streetTypeId": "CRES",
        "placeName": "LONDON",
        "streetNameDisplayText": "GOLFVIEW CRES, LONDON"
      },
      {
        "electoralDistricts": [
          {
            "election": null,
            "id": 53,
            "name": "London—Fanshawe"
          }
        ],
        "pollDivisionIds": [
          10139586
        ],
        "postalCode": "N6C5N2",
        "streetName": "HOMEVIEW",
        "streetDirectionId": null,
        "streetTypeId": "RD",
        "placeName": "LONDON",
        "streetNameDisplayText": "HOMEVIEW RD, LONDON"
      }
    ]
  },
  {
    "postal": "N6C4Y7",
    "result": [
      {
        "electoralDistricts": [
          {
            "election": null,
            "id": 55,
            "name": "London West"
          }
        ],
        "pollDivisionIds": [
          10139625
        ],
        "postalCode": "N6C4Y7",
        "streetName": "WORTLEY",
        "streetDirectionId": null,
        "streetTypeId": "RD",
        "placeName": "LONDON",
        "streetNameDisplayText": "WORTLEY RD, LONDON"
      }
    ]
  },
  {
    "postal": "N6C7M0",
    "result": []
  },
  {
    "postal": "N6C8P3",
    "result": []
  },
  {
    "postal": "N6C3N3",
    "result": [
      {
        "electoralDistricts": [
          {
            "election": null,
            "id": 55,
            "name": "London West"
          }
        ],
        "pollDivisionIds": [
          10139633
        ],
        "postalCode": "N6C3N3",
        "streetName": "CATHCART",
        "streetDirectionId": null,
        "streetTypeId": "ST",
        "placeName": "LONDON",
        "streetNameDisplayText": "CATHCART ST, LONDON"
      }
    ]
  },
  {
    "postal": "N6C7S3",
    "result": []
  },
  {
    "postal": "N6C3V9",
    "result": [
      {
        "electoralDistricts": [
          {
            "election": null,
            "id": 53,
            "name": "London—Fanshawe"
          }
        ],
        "pollDivisionIds": [
          10139586
        ],
        "postalCode": "N6C3V9",
        "streetName": "CLIFTON",
        "streetDirectionId": null,
        "streetTypeId": "CRES",
        "placeName": "LONDON",
        "streetNameDisplayText": "CLIFTON CRES, LONDON"
      }
    ]
  },
  {
    "postal": "N6C9N7",
    "result": []
  },
  {
    "postal": "N6C0G4",
    "result": []
  },
  {
    "postal": "N6C2E2",
    "result": [
      {
        "electoralDistricts": [
          {
            "election": null,
            "id": 55,
            "name": "London West"
          }
        ],
        "pollDivisionIds": [
          10139634
        ],
        "postalCode": "N6C2E2",
        "streetName": "EMERY",
        "streetDirectionId": "E",
        "streetTypeId": "ST",
        "placeName": "LONDON",
        "streetNameDisplayText": "EMERY ST E, LONDON"
      }
    ]
  },
  {
    "postal": "N6C7W8",
    "result": []
  },
  {
    "postal": "N6C7M5",
    "result": []
  },
  {
    "postal": "N6C5W8",
    "result": [
      {
        "electoralDistricts": [
          {
            "election": null,
            "id": 53,
            "name": "London—Fanshawe"
          }
        ],
        "pollDivisionIds": [
          10139585
        ],
        "postalCode": "N6C5W8",
        "streetName": "HIGHVIEW",
        "streetDirectionId": "E",
        "streetTypeId": "AVE",
        "placeName": "LONDON",
        "streetNameDisplayText": "HIGHVIEW AVE E, LONDON"
      }
    ]
  },
  {
    "postal": "N6C5E5",
    "result": [
      {
        "electoralDistricts": [
          {
            "election": null,
            "id": 55,
            "name": "London West"
          }
        ],
        "pollDivisionIds": [
          10139633
        ],
        "postalCode": "N6C5E5",
        "streetName": "DUNDEE",
        "streetDirectionId": null,
        "streetTypeId": "PL",
        "placeName": "LONDON",
        "streetNameDisplayText": "DUNDEE PL, LONDON"
      }
    ]
  },
  {
    "postal": "N6C1P9",
    "result": [
      {
        "electoralDistricts": [
          {
            "election": null,
            "id": 55,
            "name": "London West"
          }
        ],
        "pollDivisionIds": [
          10139628
        ],
        "postalCode": "N6C1P9",
        "streetName": "MCCLARY",
        "streetDirectionId": null,
        "streetTypeId": "AVE",
        "placeName": "LONDON",
        "streetNameDisplayText": "MCCLARY AVE, LONDON"
      }
    ]
  },
  {
    "postal": "N6C8V8",
    "result": []
  },
  {
    "postal": "N6C9G8",
    "result": []
  },
  {
    "postal": "N6C8H9",
    "result": []
  },
  {
    "postal": "N6C1Z1",
    "result": [
      {
        "electoralDistricts": [
          {
            "election": null,
            "id": 55,
            "name": "London West"
          }
        ],
        "pollDivisionIds": [
          10139624
        ],
        "postalCode": "N6C1Z1",
        "streetName": "LANGARTH",
        "streetDirectionId": "E",
        "streetTypeId": "ST",
        "placeName": "LONDON",
        "streetNameDisplayText": "LANGARTH ST E, LONDON"
      }
    ]
  },
  {
    "postal": "N6C8M3",
    "result": []
  },
  {
    "postal": "N6C5H6",
    "result": [
      {
        "electoralDistricts": [
          {
            "election": null,
            "id": 55,
            "name": "London West"
          }
        ],
        "pollDivisionIds": [
          10139627
        ],
        "postalCode": "N6C5H6",
        "streetName": "RIDOUT",
        "streetDirectionId": "S",
        "streetTypeId": "ST",
        "placeName": "LONDON",
        "streetNameDisplayText": "RIDOUT ST S, LONDON"
      }
    ]
  },
  {
    "postal": "N6C7W7",
    "result": []
  },
  {
    "postal": "N6C4L0",
    "result": []
  },
  {
    "postal": "N6C2N1",
    "result": [
      {
        "electoralDistricts": [
          {
            "election": null,
            "id": 55,
            "name": "London West"
          }
        ],
        "pollDivisionIds": [
          10139633
        ],
        "postalCode": "N6C2N1",
        "streetName": "BELHAVEN",
        "streetDirectionId": null,
        "streetTypeId": "RD",
        "placeName": "LONDON",
        "streetNameDisplayText": "BELHAVEN RD, LONDON"
      }
    ]
  },
  {
    "postal": "N6C2H4",
    "result": [
      {
        "electoralDistricts": [
          {
            "election": null,
            "id": 55,
            "name": "London West"
          }
        ],
        "pollDivisionIds": [
          10139633
        ],
        "postalCode": "N6C2H4",
        "streetName": "DEVONSHIRE",
        "streetDirectionId": null,
        "streetTypeId": "AVE",
        "placeName": "LONDON",
        "streetNameDisplayText": "DEVONSHIRE AVE, LONDON"
      }
    ]
  },
  {
    "postal": "N6C5C8",
    "result": [
      {
        "electoralDistricts": [
          {
            "election": null,
            "id": 53,
            "name": "London—Fanshawe"
          }
        ],
        "pollDivisionIds": [
          10139584
        ],
        "postalCode": "N6C5C8",
        "streetName": "WILKINS",
        "streetDirectionId": null,
        "streetTypeId": "ST",
        "placeName": "LONDON",
        "streetNameDisplayText": "WILKINS ST, LONDON"
      }
    ]
  },
  {
    "postal": "N6C8B0",
    "result": []
  },
  {
    "postal": "N6C1T4",
    "result": [
      {
        "electoralDistricts": [
          {
            "election": null,
            "id": 55,
            "name": "London West"
          }
        ],
        "pollDivisionIds": [
          10139626
        ],
        "postalCode": "N6C1T4",
        "streetName": "TECUMSEH",
        "streetDirectionId": "E",
        "streetTypeId": "AVE",
        "placeName": "LONDON",
        "streetNameDisplayText": "TECUMSEH AVE E, LONDON"
      }
    ]
  },
  {
    "postal": "N6C7N7",
    "result": []
  },
  {
    "postal": "N6C4L3",
    "result": [
      {
        "electoralDistricts": [
          {
            "election": null,
            "id": 55,
            "name": "London West"
          }
        ],
        "pollDivisionIds": [
          10139634
        ],
        "postalCode": "N6C4L3",
        "streetName": "HIGH",
        "streetDirectionId": null,
        "streetTypeId": "ST",
        "placeName": "LONDON",
        "streetNameDisplayText": "HIGH ST, LONDON"
      }
    ]
  },
  {
    "postal": "N6C2N2",
    "result": [
      {
        "electoralDistricts": [
          {
            "election": null,
            "id": 55,
            "name": "London West"
          }
        ],
        "pollDivisionIds": [
          10139633
        ],
        "postalCode": "N6C2N2",
        "streetName": "BELHAVEN",
        "streetDirectionId": null,
        "streetTypeId": "RD",
        "placeName": "LONDON",
        "streetNameDisplayText": "BELHAVEN RD, LONDON"
      }
    ]
  },
  {
    "postal": "N6C4N8",
    "result": [
      {
        "electoralDistricts": [
          {
            "election": null,
            "id": 55,
            "name": "London West"
          }
        ],
        "pollDivisionIds": [
          10139635
        ],
        "postalCode": "N6C4N8",
        "streetName": "WELLINGTON",
        "streetDirectionId": null,
        "streetTypeId": "RD",
        "placeName": "LONDON",
        "streetNameDisplayText": "WELLINGTON RD, LONDON"
      }
    ]
  },
  {
    "postal": "N6C3M5",
    "result": [
      {
        "electoralDistricts": [
          {
            "election": null,
            "id": 55,
            "name": "London West"
          }
        ],
        "pollDivisionIds": [
          10139624
        ],
        "postalCode": "N6C3M5",
        "streetName": "CATHCART",
        "streetDirectionId": null,
        "streetTypeId": "ST",
        "placeName": "LONDON",
        "streetNameDisplayText": "CATHCART ST, LONDON"
      }
    ]
  },
  {
    "postal": "N6C6H7",
    "result": []
  },
  {
    "postal": "N6C8Y8",
    "result": []
  },
  {
    "postal": "N6C5R9",
    "result": [
      {
        "electoralDistricts": [
          {
            "election": null,
            "id": 53,
            "name": "London—Fanshawe"
          }
        ],
        "pollDivisionIds": [
          10139585
        ],
        "postalCode": "N6C5R9",
        "streetName": "COUNTRY CLUB",
        "streetDirectionId": null,
        "streetTypeId": "CRES",
        "placeName": "LONDON",
        "streetNameDisplayText": "COUNTRY CLUB CRES, LONDON"
      },
      {
        "electoralDistricts": [
          {
            "election": null,
            "id": 53,
            "name": "London—Fanshawe"
          }
        ],
        "pollDivisionIds": [
          10139585
        ],
        "postalCode": "N6C5R9",
        "streetName": "COUNTRY CLUB",
        "streetDirectionId": null,
        "streetTypeId": "CRT",
        "placeName": "LONDON",
        "streetNameDisplayText": "COUNTRY CLUB CRT, LONDON"
      }
    ]
  },
  {
    "postal": "N6C8G3",
    "result": []
  },
  {
    "postal": "N6C4N7",
    "result": [
      {
        "electoralDistricts": [
          {
            "election": null,
            "id": 55,
            "name": "London West"
          }
        ],
        "pollDivisionIds": [
          10139635
        ],
        "postalCode": "N6C4N7",
        "streetName": "WELLINGTON",
        "streetDirectionId": null,
        "streetTypeId": "RD",
        "placeName": "LONDON",
        "streetNameDisplayText": "WELLINGTON RD, LONDON"
      }
    ]
  },
  {
    "postal": "N6C0B9",
    "result": []
  },
  {
    "postal": "N6C9K7",
    "result": []
  },
  {
    "postal": "N6C9K9",
    "result": []
  },
  {
    "postal": "N6C3Z2",
    "result": [
      {
        "electoralDistricts": [
          {
            "election": null,
            "id": 55,
            "name": "London West"
          }
        ],
        "pollDivisionIds": [
          10139634
        ],
        "postalCode": "N6C3Z2",
        "streetName": "RIDOUT",
        "streetDirectionId": "S",
        "streetTypeId": "ST",
        "placeName": "LONDON",
        "streetNameDisplayText": "RIDOUT ST S, LONDON"
      }
    ]
  },
  {
    "postal": "N6C6W7",
    "result": []
  },
  {
    "postal": "N6C0P1",
    "result": []
  },
  {
    "postal": "N6C3A0",
    "result": []
  },
  {
    "postal": "N6C8L9",
    "result": []
  },
  {
    "postal": "N6C6X0",
    "result": []
  },
  {
    "postal": "N6C3E9",
    "result": [
      {
        "electoralDistricts": [
          {
            "election": null,
            "id": 55,
            "name": "London West"
          }
        ],
        "pollDivisionIds": [
          10139625
        ],
        "postalCode": "N6C3E9",
        "streetName": "CYNTHIA",
        "streetDirectionId": null,
        "streetTypeId": "ST",
        "placeName": "LONDON",
        "streetNameDisplayText": "CYNTHIA ST, LONDON"
      }
    ]
  },
  {
    "postal": "N6C0S5",
    "result": []
  },
  {
    "postal": "N6C1A2",
    "result": [
      {
        "electoralDistricts": [
          {
            "election": null,
            "id": 54,
            "name": "London North Centre"
          }
        ],
        "pollDivisionIds": [
          10135385
        ],
        "postalCode": "N6C1A2",
        "streetName": "THE RIDGEWAY",
        "streetDirectionId": null,
        "streetTypeId": null,
        "placeName": "LONDON",
        "streetNameDisplayText": "THE RIDGEWAY, LONDON"
      }
    ]
  },
  {
    "postal": "N6C5V8",
    "result": [
      {
        "electoralDistricts": [
          {
            "election": null,
            "id": 53,
            "name": "London—Fanshawe"
          }
        ],
        "pollDivisionIds": [
          10139585
        ],
        "postalCode": "N6C5V8",
        "streetName": "HIGHVIEW",
        "streetDirectionId": "E",
        "streetTypeId": "AVE",
        "placeName": "LONDON",
        "streetNameDisplayText": "HIGHVIEW AVE E, LONDON"
      }
    ]
  },
  {
    "postal": "N6C8C5",
    "result": []
  },
  {
    "postal": "N6C6N0",
    "result": []
  },
  {
    "postal": "N6C9E6",
    "result": []
  },
  {
    "postal": "N6C5J7",
    "result": []
  },
  {
    "postal": "N6C2R2",
    "result": [
      {
        "electoralDistricts": [
          {
            "election": null,
            "id": 55,
            "name": "London West"
          }
        ],
        "pollDivisionIds": [
          10139635
        ],
        "postalCode": "N6C2R2",
        "streetName": "BASE LINE",
        "streetDirectionId": "E",
        "streetTypeId": "RD",
        "placeName": "LONDON",
        "streetNameDisplayText": "BASE LINE RD E, LONDON"
      }
    ]
  },
  {
    "postal": "N6C0P5",
    "result": []
  },
  {
    "postal": "N6C5A7",
    "result": []
  },
  {
    "postal": "N6C1G1",
    "result": [
      {
        "electoralDistricts": [
          {
            "election": null,
            "id": 55,
            "name": "London West"
          }
        ],
        "pollDivisionIds": [
          10139626
        ],
        "postalCode": "N6C1G1",
        "streetName": "CARFRAE",
        "streetDirectionId": null,
        "streetTypeId": "ST",
        "placeName": "LONDON",
        "streetNameDisplayText": "CARFRAE ST, LONDON"
      },
      {
        "electoralDistricts": [
          {
            "election": null,
            "id": 53,
            "name": "London—Fanshawe"
          }
        ],
        "pollDivisionIds": [
          10139571
        ],
        "postalCode": "N6C1G1",
        "streetName": "CARFRAE ST.",
        "streetDirectionId": null,
        "streetTypeId": "ST",
        "placeName": "LONDON",
        "streetNameDisplayText": "CARFRAE ST. ST, LONDON"
      }
    ]
  },
  {
    "postal": "N6C9R6",
    "result": []
  },
  {
    "postal": "N6C4Z9",
    "result": [
      {
        "electoralDistricts": [
          {
            "election": null,
            "id": 53,
            "name": "London—Fanshawe"
          }
        ],
        "pollDivisionIds": [
          10139584
        ],
        "postalCode": "N6C4Z9",
        "streetName": "WILKINS",
        "streetDirectionId": null,
        "streetTypeId": "ST",
        "placeName": "LONDON",
        "streetNameDisplayText": "WILKINS ST, LONDON"
      }
    ]
  },
  {
    "postal": "N6C1V5",
    "result": [
      {
        "electoralDistricts": [
          {
            "election": null,
            "id": 55,
            "name": "London West"
          }
        ],
        "pollDivisionIds": [
          10139634
        ],
        "postalCode": "N6C1V5",
        "streetName": "MCKENZIE",
        "streetDirectionId": null,
        "streetTypeId": "AVE",
        "placeName": "LONDON",
        "streetNameDisplayText": "MCKENZIE AVE, LONDON"
      }
    ]
  },
  {
    "postal": "N6C9Y5",
    "result": []
  },
  {
    "postal": "N6C1P2",
    "result": [
      {
        "electoralDistricts": [
          {
            "election": null,
            "id": 55,
            "name": "London West"
          }
        ],
        "pollDivisionIds": [
          10139625
        ],
        "postalCode": "N6C1P2",
        "streetName": "DUCHESS",
        "streetDirectionId": null,
        "streetTypeId": "AVE",
        "placeName": "LONDON",
        "streetNameDisplayText": "DUCHESS AVE, LONDON"
      }
    ]
  },
  {
    "postal": "N6C5X0",
    "result": []
  },
  {
    "postal": "N6C7B8",
    "result": []
  },
  {
    "postal": "N6C0C6",
    "result": []
  },
  {
    "postal": "N6C6G1",
    "result": []
  },
  {
    "postal": "N6C3K3",
    "result": [
      {
        "electoralDistricts": [
          {
            "election": null,
            "id": 54,
            "name": "London North Centre"
          }
        ],
        "pollDivisionIds": [
          10135385
        ],
        "postalCode": "N6C3K3",
        "streetName": "HORN",
        "streetDirectionId": null,
        "streetTypeId": "ST",
        "placeName": "LONDON",
        "streetNameDisplayText": "HORN ST, LONDON"
      }
    ]
  },
  {
    "postal": "N6C9R0",
    "result": []
  },
  {
    "postal": "N6C4R8",
    "result": [
      {
        "electoralDistricts": [
          {
            "election": null,
            "id": 53,
            "name": "London—Fanshawe"
          }
        ],
        "pollDivisionIds": [
          10139583
        ],
        "postalCode": "N6C4R8",
        "streetName": "NADINE",
        "streetDirectionId": null,
        "streetTypeId": "AVE",
        "placeName": "LONDON",
        "streetNameDisplayText": "NADINE AVE, LONDON"
      }
    ]
  },
  {
    "postal": "N6C5P9",
    "result": [
      {
        "electoralDistricts": [
          {
            "election": null,
            "id": 53,
            "name": "London—Fanshawe"
          }
        ],
        "pollDivisionIds": [
          10139585
        ],
        "postalCode": "N6C5P9",
        "streetName": "COUNTRY CLUB",
        "streetDirectionId": null,
        "streetTypeId": "DR",
        "placeName": "LONDON",
        "streetNameDisplayText": "COUNTRY CLUB DR, LONDON"
      }
    ]
  },
  {
    "postal": "N6C8N4",
    "result": []
  },
  {
    "postal": "N6C8H4",
    "result": []
  },
  {
    "postal": "N6C4V1",
    "result": [
      {
        "electoralDistricts": [
          {
            "election": null,
            "id": 55,
            "name": "London West"
          }
        ],
        "pollDivisionIds": [
          10139635
        ],
        "postalCode": "N6C4V1",
        "streetName": "FAIRVIEW",
        "streetDirectionId": null,
        "streetTypeId": "AVE",
        "placeName": "LONDON",
        "streetNameDisplayText": "FAIRVIEW AVE, LONDON"
      }
    ]
  },
  {
    "postal": "N6C1K5",
    "result": []
  },
  {
    "postal": "N6C1Z5",
    "result": [
      {
        "electoralDistricts": [
          {
            "election": null,
            "id": 55,
            "name": "London West"
          }
        ],
        "pollDivisionIds": [
          10139624
        ],
        "postalCode": "N6C1Z5",
        "streetName": "LANGARTH",
        "streetDirectionId": "E",
        "streetTypeId": "ST",
        "placeName": "LONDON",
        "streetNameDisplayText": "LANGARTH ST E, LONDON"
      }
    ]
  },
  {
    "postal": "N6C9L9",
    "result": []
  },
  {
    "postal": "N6C5L2",
    "result": [
      {
        "electoralDistricts": [
          {
            "election": null,
            "id": 53,
            "name": "London—Fanshawe"
          }
        ],
        "pollDivisionIds": [
          10139584
        ],
        "postalCode": "N6C5L2",
        "streetName": "UPPER QUEEN",
        "streetDirectionId": null,
        "streetTypeId": "ST",
        "placeName": "LONDON",
        "streetNameDisplayText": "UPPER QUEEN ST, LONDON"
      }
    ]
  },
  {
    "postal": "N6C0M2",
    "result": []
  },
  {
    "postal": "N6C1K8",
    "result": [
      {
        "electoralDistricts": [
          {
            "election": null,
            "id": 55,
            "name": "London West"
          }
        ],
        "pollDivisionIds": [
          10139626
        ],
        "postalCode": "N6C1K8",
        "streetName": "GRAND",
        "streetDirectionId": null,
        "streetTypeId": "AVE",
        "placeName": "LONDON",
        "streetNameDisplayText": "GRAND AVE, LONDON"
      }
    ]
  },
  {
    "postal": "N6C3M7",
    "result": [
      {
        "electoralDistricts": [
          {
            "election": null,
            "id": 55,
            "name": "London West"
          }
        ],
        "pollDivisionIds": [
          10139634
        ],
        "postalCode": "N6C3M7",
        "streetName": "CATHCART",
        "streetDirectionId": null,
        "streetTypeId": "ST",
        "placeName": "LONDON",
        "streetNameDisplayText": "CATHCART ST, LONDON"
      }
    ]
  },
  {
    "postal": "N6C1B2",
    "result": [
      {
        "electoralDistricts": [
          {
            "election": null,
            "id": 54,
            "name": "London North Centre"
          }
        ],
        "pollDivisionIds": [
          10135385
        ],
        "postalCode": "N6C1B2",
        "streetName": "STANLEY",
        "streetDirectionId": null,
        "streetTypeId": "ST",
        "placeName": "LONDON",
        "streetNameDisplayText": "STANLEY ST, LONDON"
      }
    ]
  },
  {
    "postal": "N6C0H9",
    "result": []
  },
  {
    "postal": "N6C8M4",
    "result": []
  },
  {
    "postal": "N6C2M5",
    "result": [
      {
        "electoralDistricts": [
          {
            "election": null,
            "id": 55,
            "name": "London West"
          }
        ],
        "pollDivisionIds": [
          10139633
        ],
        "postalCode": "N6C2M5",
        "streetName": "ELWORTHY",
        "streetDirectionId": null,
        "streetTypeId": "AVE",
        "placeName": "LONDON",
        "streetNameDisplayText": "ELWORTHY AVE, LONDON"
      }
    ]
  },
  {
    "postal": "N6C0T9",
    "result": []
  },
  {
    "postal": "N6C3P1",
    "result": [
      {
        "electoralDistricts": [
          {
            "election": null,
            "id": 55,
            "name": "London West"
          }
        ],
        "pollDivisionIds": [
          10139623
        ],
        "postalCode": "N6C3P1",
        "streetName": "WORTLEY",
        "streetDirectionId": null,
        "streetTypeId": "RD",
        "placeName": "LONDON",
        "streetNameDisplayText": "WORTLEY RD, LONDON"
      }
    ]
  },
  {
    "postal": "N6C1R6",
    "result": [
      {
        "electoralDistricts": [
          {
            "election": null,
            "id": 55,
            "name": "London West"
          }
        ],
        "pollDivisionIds": [
          10139624
        ],
        "postalCode": "N6C1R6",
        "streetName": "TECUMSEH",
        "streetDirectionId": "E",
        "streetTypeId": "AVE",
        "placeName": "LONDON",
        "streetNameDisplayText": "TECUMSEH AVE E, LONDON"
      }
    ]
  },
  {
    "postal": "N6C9V5",
    "result": []
  },
  {
    "postal": "N6C9T0",
    "result": []
  },
  {
    "postal": "N6C0A9",
    "result": [
      {
        "electoralDistricts": [
          {
            "election": null,
            "id": 53,
            "name": "London—Fanshawe"
          }
        ],
        "pollDivisionIds": [
          10139585,
          10139587,
          10139584
        ],
        "postalCode": "N6C0A9",
        "streetName": "CARNEGIE",
        "streetDirectionId": null,
        "streetTypeId": "LANE",
        "placeName": "LONDON",
        "streetNameDisplayText": "CARNEGIE LANE, LONDON"
      },
      {
        "electoralDistricts": [
          {
            "election": null,
            "id": 53,
            "name": "London—Fanshawe"
          }
        ],
        "pollDivisionIds": [
          10139585,
          10139584
        ],
        "postalCode": "N6C0A9",
        "streetName": "EDWIN",
        "streetDirectionId": null,
        "streetTypeId": "DR",
        "placeName": "LONDON",
        "streetNameDisplayText": "EDWIN DR, LONDON"
      }
    ]
  },
  {
    "postal": "N6C1M3",
    "result": [
      {
        "electoralDistricts": [
          {
            "election": null,
            "id": 55,
            "name": "London West"
          }
        ],
        "pollDivisionIds": [
          10139626
        ],
        "postalCode": "N6C1M3",
        "streetName": "GRAND",
        "streetDirectionId": null,
        "streetTypeId": "AVE",
        "placeName": "LONDON",
        "streetNameDisplayText": "GRAND AVE, LONDON"
      }
    ]
  },
  {
    "postal": "N6C1W8",
    "result": [
      {
        "electoralDistricts": [
          {
            "election": null,
            "id": 55,
            "name": "London West"
          }
        ],
        "pollDivisionIds": [
          10139624
        ],
        "postalCode": "N6C1W8",
        "streetName": "BRISCOE",
        "streetDirectionId": "E",
        "streetTypeId": "ST",
        "placeName": "LONDON",
        "streetNameDisplayText": "BRISCOE ST E, LONDON"
      }
    ]
  },
  {
    "postal": "N6C9J1",
    "result": []
  },
  {
    "postal": "N6C8N5",
    "result": []
  },
  {
    "postal": "N6C5X1",
    "result": [
      {
        "electoralDistricts": [
          {
            "election": null,
            "id": 53,
            "name": "London—Fanshawe"
          }
        ],
        "pollDivisionIds": [
          10139585
        ],
        "postalCode": "N6C5X1",
        "streetName": "HIGHLAND WOODS",
        "streetDirectionId": null,
        "streetTypeId": "CRT",
        "placeName": "LONDON",
        "streetNameDisplayText": "HIGHLAND WOODS CRT, LONDON"
      }
    ]
  },
  {
    "postal": "N6C6S2",
    "result": []
  },
  {
    "postal": "N6C2A2",
    "result": [
      {
        "electoralDistricts": [
          {
            "election": null,
            "id": 55,
            "name": "London West"
          }
        ],
        "pollDivisionIds": [
          10139628
        ],
        "postalCode": "N6C2A2",
        "streetName": "WINDSOR",
        "streetDirectionId": null,
        "streetTypeId": "AVE",
        "placeName": "LONDON",
        "streetNameDisplayText": "WINDSOR AVE, LONDON"
      }
    ]
  },
  {
    "postal": "N6C6A6",
    "result": []
  },
  {
    "postal": "N6C0S3",
    "result": []
  },
  {
    "postal": "N6C3E7",
    "result": [
      {
        "electoralDistricts": [
          {
            "election": null,
            "id": 54,
            "name": "London North Centre"
          }
        ],
        "pollDivisionIds": [
          10135385
        ],
        "postalCode": "N6C3E7",
        "streetName": "PERRY",
        "streetDirectionId": null,
        "streetTypeId": "ST",
        "placeName": "LONDON",
        "streetNameDisplayText": "PERRY ST, LONDON"
      }
    ]
  },
  {
    "postal": "N6C5R7",
    "result": [
      {
        "electoralDistricts": [
          {
            "election": null,
            "id": 53,
            "name": "London—Fanshawe"
          }
        ],
        "pollDivisionIds": [
          10139585
        ],
        "postalCode": "N6C5R7",
        "streetName": "COUNTRY CLUB",
        "streetDirectionId": null,
        "streetTypeId": "CRES",
        "placeName": "LONDON",
        "streetNameDisplayText": "COUNTRY CLUB CRES, LONDON"
      }
    ]
  },
  {
    "postal": "N6C3R6",
    "result": [
      {
        "electoralDistricts": [
          {
            "election": null,
            "id": 55,
            "name": "London West"
          }
        ],
        "pollDivisionIds": [
          10139624
        ],
        "postalCode": "N6C3R6",
        "streetName": "WORTLEY",
        "streetDirectionId": null,
        "streetTypeId": "RD",
        "placeName": "LONDON",
        "streetNameDisplayText": "WORTLEY RD, LONDON"
      }
    ]
  },
  {
    "postal": "N6C6K4",
    "result": []
  },
  {
    "postal": "N6C2W5",
    "result": [
      {
        "electoralDistricts": [
          {
            "election": null,
            "id": 53,
            "name": "London—Fanshawe"
          }
        ],
        "pollDivisionIds": [
          10139584
        ],
        "postalCode": "N6C2W5",
        "streetName": "CHIDDINGTON",
        "streetDirectionId": null,
        "streetTypeId": "AVE",
        "placeName": "LONDON",
        "streetNameDisplayText": "CHIDDINGTON AVE, LONDON"
      }
    ]
  },
  {
    "postal": "N6C8W4",
    "result": []
  },
  {
    "postal": "N6C9C2",
    "result": []
  },
  {
    "postal": "N6C2C0",
    "result": []
  },
  {
    "postal": "N6C0E1",
    "result": []
  },
  {
    "postal": "N6C1K9",
    "result": [
      {
        "electoralDistricts": [
          {
            "election": null,
            "id": 55,
            "name": "London West"
          }
        ],
        "pollDivisionIds": [
          10139656
        ],
        "postalCode": "N6C1K9",
        "streetName": "GRAND",
        "streetDirectionId": null,
        "streetTypeId": "AVE",
        "placeName": "LONDON",
        "streetNameDisplayText": "GRAND AVE, LONDON"
      }
    ]
  },
  {
    "postal": "N6C1G7",
    "result": [
      {
        "electoralDistricts": [
          {
            "election": null,
            "id": 55,
            "name": "London West"
          }
        ],
        "pollDivisionIds": [
          10139624
        ],
        "postalCode": "N6C1G7",
        "streetName": "BRUCE",
        "streetDirectionId": null,
        "streetTypeId": "ST",
        "placeName": "LONDON",
        "streetNameDisplayText": "BRUCE ST, LONDON"
      }
    ]
  },
  {
    "postal": "N6C4E9",
    "result": [
      {
        "electoralDistricts": [
          {
            "election": null,
            "id": 53,
            "name": "London—Fanshawe"
          }
        ],
        "pollDivisionIds": [
          10139584
        ],
        "postalCode": "N6C4E9",
        "streetName": "COMPTON",
        "streetDirectionId": null,
        "streetTypeId": "CRES",
        "placeName": "LONDON",
        "streetNameDisplayText": "COMPTON CRES, LONDON"
      }
    ]
  },
  {
    "postal": "N6C9P0",
    "result": []
  },
  {
    "postal": "N6C5H3",
    "result": [
      {
        "electoralDistricts": [
          {
            "election": null,
            "id": 55,
            "name": "London West"
          }
        ],
        "pollDivisionIds": [
          10139635
        ],
        "postalCode": "N6C5H3",
        "streetName": "WESTMINSTER",
        "streetDirectionId": null,
        "streetTypeId": "AVE",
        "placeName": "LONDON",
        "streetNameDisplayText": "WESTMINSTER AVE, LONDON"
      }
    ]
  },
  {
    "postal": "N6C9X6",
    "result": []
  },
  {
    "postal": "N6C5N7",
    "result": [
      {
        "electoralDistricts": [
          {
            "election": null,
            "id": 53,
            "name": "London—Fanshawe"
          }
        ],
        "pollDivisionIds": [
          10139586
        ],
        "postalCode": "N6C5N7",
        "streetName": "CRAWFORD",
        "streetDirectionId": null,
        "streetTypeId": "ST",
        "placeName": "LONDON",
        "streetNameDisplayText": "CRAWFORD ST, LONDON"
      },
      {
        "electoralDistricts": [
          {
            "election": null,
            "id": 53,
            "name": "London—Fanshawe"
          }
        ],
        "pollDivisionIds": [
          10139585
        ],
        "postalCode": "N6C5N7",
        "streetName": "HOMEVIEW",
        "streetDirectionId": null,
        "streetTypeId": "RD",
        "placeName": "LONDON",
        "streetNameDisplayText": "HOMEVIEW RD, LONDON"
      }
    ]
  },
  {
    "postal": "N6C5A6",
    "result": [
      {
        "electoralDistricts": [
          {
            "election": null,
            "id": 53,
            "name": "London—Fanshawe"
          }
        ],
        "pollDivisionIds": [
          10139578
        ],
        "postalCode": "N6C5A6",
        "streetName": "HARROW",
        "streetDirectionId": null,
        "streetTypeId": "CRT",
        "placeName": "LONDON",
        "streetNameDisplayText": "HARROW CRT, LONDON"
      }
    ]
  },
  {
    "postal": "N6C4M0",
    "result": []
  },
  {
    "postal": "N6C3V6",
    "result": [
      {
        "electoralDistricts": [
          {
            "election": null,
            "id": 53,
            "name": "London—Fanshawe"
          }
        ],
        "pollDivisionIds": [
          10139586
        ],
        "postalCode": "N6C3V6",
        "streetName": "DUNDALK",
        "streetDirectionId": null,
        "streetTypeId": "DR",
        "placeName": "LONDON",
        "streetNameDisplayText": "DUNDALK DR, LONDON"
      }
    ]
  },
  {
    "postal": "N6C1L7",
    "result": [
      {
        "electoralDistricts": [
          {
            "election": null,
            "id": 55,
            "name": "London West"
          }
        ],
        "pollDivisionIds": [
          10139626
        ],
        "postalCode": "N6C1L7",
        "streetName": "GRAND",
        "streetDirectionId": null,
        "streetTypeId": "AVE",
        "placeName": "LONDON",
        "streetNameDisplayText": "GRAND AVE, LONDON"
      }
    ]
  },
  {
    "postal": "N6C2P9",
    "result": [
      {
        "electoralDistricts": [
          {
            "election": null,
            "id": 55,
            "name": "London West"
          }
        ],
        "pollDivisionIds": [
          10139634
        ],
        "postalCode": "N6C2P9",
        "streetName": "BASE LINE",
        "streetDirectionId": "E",
        "streetTypeId": "RD",
        "placeName": "LONDON",
        "streetNameDisplayText": "BASE LINE RD E, LONDON"
      }
    ]
  },
  {
    "postal": "N6C5T4",
    "result": [
      {
        "electoralDistricts": [
          {
            "election": null,
            "id": 53,
            "name": "London—Fanshawe"
          }
        ],
        "pollDivisionIds": [
          10139584
        ],
        "postalCode": "N6C5T4",
        "streetName": "WATERMAN",
        "streetDirectionId": null,
        "streetTypeId": "AVE",
        "placeName": "LONDON",
        "streetNameDisplayText": "WATERMAN AVE, LONDON"
      }
    ]
  },
  {
    "postal": "N6C5Z1",
    "result": [
      {
        "electoralDistricts": [
          {
            "election": null,
            "id": 53,
            "name": "London—Fanshawe"
          }
        ],
        "pollDivisionIds": [
          10139584
        ],
        "postalCode": "N6C5Z1",
        "streetName": "CHIDDINGTON",
        "streetDirectionId": null,
        "streetTypeId": "AVE",
        "placeName": "LONDON",
        "streetNameDisplayText": "CHIDDINGTON AVE, LONDON"
      }
    ]
  },
  {
    "postal": "N6C2X0",
    "result": []
  },
  {
    "postal": "N6C6Z2",
    "result": []
  },
  {
    "postal": "N6C0E0",
    "result": []
  },
  {
    "postal": "N6C3Z5",
    "result": [
      {
        "electoralDistricts": [
          {
            "election": null,
            "id": 55,
            "name": "London West"
          }
        ],
        "pollDivisionIds": [
          10139633
        ],
        "postalCode": "N6C3Z5",
        "streetName": "RIDOUT",
        "streetDirectionId": "S",
        "streetTypeId": "ST",
        "placeName": "LONDON",
        "streetNameDisplayText": "RIDOUT ST S, LONDON"
      }
    ]
  },
  {
    "postal": "N6C8H3",
    "result": []
  },
  {
    "postal": "N6C7S6",
    "result": []
  },
  {
    "postal": "N6C4C1",
    "result": [
      {
        "electoralDistricts": [
          {
            "election": null,
            "id": 55,
            "name": "London West"
          }
        ],
        "pollDivisionIds": [
          10139634
        ],
        "postalCode": "N6C4C1",
        "streetName": "BELGRAVE",
        "streetDirectionId": null,
        "streetTypeId": "AVE",
        "placeName": "LONDON",
        "streetNameDisplayText": "BELGRAVE AVE, LONDON"
      }
    ]
  },
  {
    "postal": "N6C3K2",
    "result": [
      {
        "electoralDistricts": [
          {
            "election": null,
            "id": 55,
            "name": "London West"
          }
        ],
        "pollDivisionIds": [
          10139633
        ],
        "postalCode": "N6C3K2",
        "streetName": "EDWARD",
        "streetDirectionId": null,
        "streetTypeId": "ST",
        "placeName": "LONDON",
        "streetNameDisplayText": "EDWARD ST, LONDON"
      }
    ]
  },
  {
    "postal": "N6C1Y5",
    "result": [
      {
        "electoralDistricts": [
          {
            "election": null,
            "id": 55,
            "name": "London West"
          }
        ],
        "pollDivisionIds": [
          10139628
        ],
        "postalCode": "N6C1Y5",
        "streetName": "RAYWOOD",
        "streetDirectionId": null,
        "streetTypeId": "AVE",
        "placeName": "LONDON",
        "streetNameDisplayText": "RAYWOOD AVE, LONDON"
      },
      {
        "electoralDistricts": [
          {
            "election": null,
            "id": 54,
            "name": "London North Centre"
          }
        ],
        "pollDivisionIds": [
          10135359
        ],
        "postalCode": "N6C1Y5",
        "streetName": "RICHMOND",
        "streetDirectionId": "N",
        "streetTypeId": "ST",
        "placeName": "LONDON,ON",
        "streetNameDisplayText": "RICHMOND ST N, LONDON,ON"
      }
    ]
  },
  {
    "postal": "N6C6P6",
    "result": []
  },
  {
    "postal": "N6C3N9",
    "result": [
      {
        "electoralDistricts": [
          {
            "election": null,
            "id": 55,
            "name": "London West"
          }
        ],
        "pollDivisionIds": [
          10139623
        ],
        "postalCode": "N6C3N9",
        "streetName": "WORTLEY",
        "streetDirectionId": null,
        "streetTypeId": "RD",
        "placeName": "LONDON",
        "streetNameDisplayText": "WORTLEY RD, LONDON"
      }
    ]
  },
  {
    "postal": "N6C3W2",
    "result": [
      {
        "electoralDistricts": [
          {
            "election": null,
            "id": 53,
            "name": "London—Fanshawe"
          }
        ],
        "pollDivisionIds": [
          10139586
        ],
        "postalCode": "N6C3W2",
        "streetName": "MATHERS",
        "streetDirectionId": null,
        "streetTypeId": "ST",
        "placeName": "LONDON",
        "streetNameDisplayText": "MATHERS ST, LONDON"
      }
    ]
  },
  {
    "postal": "N6C6H8",
    "result": []
  },
  {
    "postal": "N6C9T3",
    "result": []
  },
  {
    "postal": "N6C5L9",
    "result": [
      {
        "electoralDistricts": [
          {
            "election": null,
            "id": 53,
            "name": "London—Fanshawe"
          }
        ],
        "pollDivisionIds": [
          10139585
        ],
        "postalCode": "N6C5L9",
        "streetName": "PARKSIDE",
        "streetDirectionId": null,
        "streetTypeId": "CRES",
        "placeName": "LONDON",
        "streetNameDisplayText": "PARKSIDE CRES, LONDON"
      },
      {
        "electoralDistricts": [
          {
            "election": null,
            "id": 53,
            "name": "London—Fanshawe"
          }
        ],
        "pollDivisionIds": [
          10139585
        ],
        "postalCode": "N6C5L9",
        "streetName": "WESTWINDS",
        "streetDirectionId": null,
        "streetTypeId": "DR",
        "placeName": "LONDON",
        "streetNameDisplayText": "WESTWINDS DR, LONDON"
      }
    ]
  },
  {
    "postal": "N6C7X7",
    "result": []
  },
  {
    "postal": "N6C3J5",
    "result": [
      {
        "electoralDistricts": [
          {
            "election": null,
            "id": 55,
            "name": "London West"
          }
        ],
        "pollDivisionIds": [
          10139633
        ],
        "postalCode": "N6C3J5",
        "streetName": "EDWARD",
        "streetDirectionId": null,
        "streetTypeId": "ST",
        "placeName": "LONDON",
        "streetNameDisplayText": "EDWARD ST, LONDON"
      }
    ]
  },
  {
    "postal": "N6C4J5",
    "result": [
      {
        "electoralDistricts": [
          {
            "election": null,
            "id": 55,
            "name": "London West"
          }
        ],
        "pollDivisionIds": [
          10139626
        ],
        "postalCode": "N6C4J5",
        "streetName": "HIGH",
        "streetDirectionId": null,
        "streetTypeId": "ST",
        "placeName": "LONDON",
        "streetNameDisplayText": "HIGH ST, LONDON"
      }
    ]
  },
  {
    "postal": "N6C6J2",
    "result": []
  },
  {
    "postal": "N6C5V6",
    "result": [
      {
        "electoralDistricts": [
          {
            "election": null,
            "id": 53,
            "name": "London—Fanshawe"
          }
        ],
        "pollDivisionIds": [
          10139585
        ],
        "postalCode": "N6C5V6",
        "streetName": "HIGHVIEW",
        "streetDirectionId": "E",
        "streetTypeId": "AVE",
        "placeName": "LONDON",
        "streetNameDisplayText": "HIGHVIEW AVE E, LONDON"
      }
    ]
  },
  {
    "postal": "N6C3N2",
    "result": [
      {
        "electoralDistricts": [
          {
            "election": null,
            "id": 55,
            "name": "London West"
          }
        ],
        "pollDivisionIds": [
          10139634
        ],
        "postalCode": "N6C3N2",
        "streetName": "CATHCART",
        "streetDirectionId": null,
        "streetTypeId": "ST",
        "placeName": "LONDON",
        "streetNameDisplayText": "CATHCART ST, LONDON"
      }
    ]
  },
  {
    "postal": "N6C3B1",
    "result": [
      {
        "electoralDistricts": [
          {
            "election": null,
            "id": 53,
            "name": "London—Fanshawe"
          }
        ],
        "pollDivisionIds": [
          10139579
        ],
        "postalCode": "N6C3B1",
        "streetName": "STANHOPE",
        "streetDirectionId": null,
        "streetTypeId": "CRES",
        "placeName": "LONDON",
        "streetNameDisplayText": "STANHOPE CRES, LONDON"
      }
    ]
  },
  {
    "postal": "N6C8B5",
    "result": []
  },
  {
    "postal": "N6C0K1",
    "result": []
  },
  {
    "postal": "N6C7M7",
    "result": []
  },
  {
    "postal": "N6C2M2",
    "result": [
      {
        "electoralDistricts": [
          {
            "election": null,
            "id": 55,
            "name": "London West"
          }
        ],
        "pollDivisionIds": [
          10139633
        ],
        "postalCode": "N6C2M2",
        "streetName": "ELWORTHY",
        "streetDirectionId": null,
        "streetTypeId": "AVE",
        "placeName": "LONDON",
        "streetNameDisplayText": "ELWORTHY AVE, LONDON"
      }
    ]
  },
  {
    "postal": "N6C9N3",
    "result": []
  },
  {
    "postal": "N6C4Y8",
    "result": [
      {
        "electoralDistricts": [
          {
            "election": null,
            "id": 53,
            "name": "London—Fanshawe"
          }
        ],
        "pollDivisionIds": [
          10139586
        ],
        "postalCode": "N6C4Y8",
        "streetName": "DUNDALK",
        "streetDirectionId": null,
        "streetTypeId": "DR",
        "placeName": "LONDON",
        "streetNameDisplayText": "DUNDALK DR, LONDON"
      }
    ]
  },
  {
    "postal": "N6C3V7",
    "result": [
      {
        "electoralDistricts": [
          {
            "election": null,
            "id": 53,
            "name": "London—Fanshawe"
          }
        ],
        "pollDivisionIds": [
          10139586
        ],
        "postalCode": "N6C3V7",
        "streetName": "CLIFTON",
        "streetDirectionId": null,
        "streetTypeId": "CRES",
        "placeName": "LONDON",
        "streetNameDisplayText": "CLIFTON CRES, LONDON"
      }
    ]
  },
  {
    "postal": "N6C8Z1",
    "result": []
  },
  {
    "postal": "N6C7B3",
    "result": []
  },
  {
    "postal": "N6C3A8",
    "result": [
      {
        "electoralDistricts": [
          {
            "election": null,
            "id": 53,
            "name": "London—Fanshawe"
          }
        ],
        "pollDivisionIds": [
          10139584
        ],
        "postalCode": "N6C3A8",
        "streetName": "CRESTON",
        "streetDirectionId": null,
        "streetTypeId": "AVE",
        "placeName": "LONDON",
        "streetNameDisplayText": "CRESTON AVE, LONDON"
      }
    ]
  },
  {
    "postal": "N6C7V5",
    "result": []
  },
  {
    "postal": "N6C2T2",
    "result": [
      {
        "electoralDistricts": [
          {
            "election": null,
            "id": 55,
            "name": "London West"
          }
        ],
        "pollDivisionIds": [
          10139633
        ],
        "postalCode": "N6C2T2",
        "streetName": "COMMISSIONERS",
        "streetDirectionId": "E",
        "streetTypeId": "RD",
        "placeName": "LONDON",
        "streetNameDisplayText": "COMMISSIONERS RD E, LONDON"
      }
    ]
  },
  {
    "postal": "N6C6L3",
    "result": []
  },
  {
    "postal": "N6C0L2",
    "result": []
  },
  {
    "postal": "N6C5Y8",
    "result": [
      {
        "electoralDistricts": [
          {
            "election": null,
            "id": 55,
            "name": "London West"
          }
        ],
        "pollDivisionIds": [
          10139633,
          10139635
        ],
        "postalCode": "N6C5Y8",
        "streetName": "COMMISSIONERS",
        "streetDirectionId": "E",
        "streetTypeId": "RD",
        "placeName": "LONDON",
        "streetNameDisplayText": "COMMISSIONERS RD E, LONDON"
      }
    ]
  },
  {
    "postal": "N6C0B8",
    "result": []
  },
  {
    "postal": "N6C6R5",
    "result": []
  },
  {
    "postal": "N6C8W6",
    "result": []
  },
  {
    "postal": "N6C8G6",
    "result": []
  },
  {
    "postal": "N6C6X3",
    "result": []
  },
  {
    "postal": "N6C7R7",
    "result": []
  },
  {
    "postal": "N6C4B6",
    "result": [
      {
        "electoralDistricts": [
          {
            "election": null,
            "id": 55,
            "name": "London West"
          }
        ],
        "pollDivisionIds": [
          10139628
        ],
        "postalCode": "N6C4B6",
        "streetName": "BELGRAVE",
        "streetDirectionId": null,
        "streetTypeId": "AVE",
        "placeName": "LONDON",
        "streetNameDisplayText": "BELGRAVE AVE, LONDON"
      }
    ]
  },
  {
    "postal": "N6C3P9",
    "result": [
      {
        "electoralDistricts": [
          {
            "election": null,
            "id": 55,
            "name": "London West"
          }
        ],
        "pollDivisionIds": [
          10139624
        ],
        "postalCode": "N6C3P9",
        "streetName": "WORTLEY",
        "streetDirectionId": null,
        "streetTypeId": "RD",
        "placeName": "LONDON",
        "streetNameDisplayText": "WORTLEY RD, LONDON"
      }
    ]
  },
  {
    "postal": "N6C2T3",
    "result": [
      {
        "electoralDistricts": [
          {
            "election": null,
            "id": 53,
            "name": "London—Fanshawe"
          }
        ],
        "pollDivisionIds": [
          10139584
        ],
        "postalCode": "N6C2T3",
        "streetName": "COMMISSIONERS",
        "streetDirectionId": "E",
        "streetTypeId": "RD",
        "placeName": "LONDON",
        "streetNameDisplayText": "COMMISSIONERS RD E, LONDON"
      }
    ]
  },
  {
    "postal": "N6C1M4",
    "result": [
      {
        "electoralDistricts": [
          {
            "election": null,
            "id": 55,
            "name": "London West"
          }
        ],
        "pollDivisionIds": [
          10139626
        ],
        "postalCode": "N6C1M4",
        "streetName": "GRAND",
        "streetDirectionId": null,
        "streetTypeId": "AVE",
        "placeName": "LONDON",
        "streetNameDisplayText": "GRAND AVE, LONDON"
      }
    ]
  },
  {
    "postal": "N6C0H1",
    "result": []
  },
  {
    "postal": "N6C9W3",
    "result": []
  },
  {
    "postal": "N6C6P1",
    "result": []
  },
  {
    "postal": "N6C7G2",
    "result": []
  },
  {
    "postal": "N6C4J9",
    "result": [
      {
        "electoralDistricts": [
          {
            "election": null,
            "id": 55,
            "name": "London West"
          }
        ],
        "pollDivisionIds": [
          10139626
        ],
        "postalCode": "N6C4J9",
        "streetName": "HIGH",
        "streetDirectionId": null,
        "streetTypeId": "ST",
        "placeName": "LONDON",
        "streetNameDisplayText": "HIGH ST, LONDON"
      }
    ]
  },
  {
    "postal": "N6C9E4",
    "result": []
  },
  {
    "postal": "N6C8H0",
    "result": []
  },
  {
    "postal": "N6C4M7",
    "result": [
      {
        "electoralDistricts": [
          {
            "election": null,
            "id": 55,
            "name": "London West"
          }
        ],
        "pollDivisionIds": [
          10139626
        ],
        "postalCode": "N6C4M7",
        "streetName": "WELLINGTON",
        "streetDirectionId": null,
        "streetTypeId": "RD",
        "placeName": "LONDON",
        "streetNameDisplayText": "WELLINGTON RD, LONDON"
      }
    ]
  },
  {
    "postal": "N6C2G9",
    "result": [
      {
        "electoralDistricts": [
          {
            "election": null,
            "id": 55,
            "name": "London West"
          }
        ],
        "pollDivisionIds": [
          10139635
        ],
        "postalCode": "N6C2G9",
        "streetName": "THOMAS JANES",
        "streetDirectionId": null,
        "streetTypeId": "DR",
        "placeName": "LONDON",
        "streetNameDisplayText": "THOMAS JANES DR, LONDON"
      }
    ]
  },
  {
    "postal": "N6C8T2",
    "result": []
  },
  {
    "postal": "N6C7G7",
    "result": []
  },
  {
    "postal": "N6C4Z3",
    "result": [
      {
        "electoralDistricts": [
          {
            "election": null,
            "id": 53,
            "name": "London—Fanshawe"
          }
        ],
        "pollDivisionIds": [
          10139584
        ],
        "postalCode": "N6C4Z3",
        "streetName": "EASY",
        "streetDirectionId": null,
        "streetTypeId": "ST",
        "placeName": "LONDON",
        "streetNameDisplayText": "EASY ST, LONDON"
      }
    ]
  },
  {
    "postal": "N6C5B3",
    "result": [
      {
        "electoralDistricts": [
          {
            "election": null,
            "id": 53,
            "name": "London—Fanshawe"
          }
        ],
        "pollDivisionIds": [
          10139584
        ],
        "postalCode": "N6C5B3",
        "streetName": "SANDRINGHAM",
        "streetDirectionId": null,
        "streetTypeId": "CRES",
        "placeName": "LONDON",
        "streetNameDisplayText": "SANDRINGHAM CRES, LONDON"
      }
    ]
  },
  {
    "postal": "N6C1S7",
    "result": [
      {
        "electoralDistricts": [
          {
            "election": null,
            "id": 55,
            "name": "London West"
          }
        ],
        "pollDivisionIds": [
          10139634
        ],
        "postalCode": "N6C1S7",
        "streetName": "TECUMSEH",
        "streetDirectionId": "E",
        "streetTypeId": "AVE",
        "placeName": "LONDON",
        "streetNameDisplayText": "TECUMSEH AVE E, LONDON"
      }
    ]
  },
  {
    "postal": "N6C2N7",
    "result": [
      {
        "electoralDistricts": [
          {
            "election": null,
            "id": 55,
            "name": "London West"
          }
        ],
        "pollDivisionIds": [
          10139633
        ],
        "postalCode": "N6C2N7",
        "streetName": "BASE LINE",
        "streetDirectionId": "E",
        "streetTypeId": "RD",
        "placeName": "LONDON",
        "streetNameDisplayText": "BASE LINE RD E, LONDON"
      }
    ]
  },
  {
    "postal": "N6C0H8",
    "result": []
  },
  {
    "postal": "N6C7Z4",
    "result": []
  },
  {
    "postal": "N6C7B1",
    "result": []
  },
  {
    "postal": "N6C7P8",
    "result": []
  },
  {
    "postal": "N6C7N0",
    "result": []
  },
  {
    "postal": "N6C3Y5",
    "result": [
      {
        "electoralDistricts": [
          {
            "election": null,
            "id": 55,
            "name": "London West"
          }
        ],
        "pollDivisionIds": [
          10139634
        ],
        "postalCode": "N6C3Y5",
        "streetName": "RIDOUT",
        "streetDirectionId": "S",
        "streetTypeId": "ST",
        "placeName": "LONDON",
        "streetNameDisplayText": "RIDOUT ST S, LONDON"
      }
    ]
  },
  {
    "postal": "N6C6K1",
    "result": []
  },
  {
    "postal": "N6C9X5",
    "result": []
  },
  {
    "postal": "N6C7S5",
    "result": []
  },
  {
    "postal": "N6C0A4",
    "result": []
  },
  {
    "postal": "N6C4T5",
    "result": [
      {
        "electoralDistricts": [
          {
            "election": null,
            "id": 55,
            "name": "London West"
          }
        ],
        "pollDivisionIds": [
          10139628
        ],
        "postalCode": "N6C4T5",
        "streetName": "FAIRVIEW",
        "streetDirectionId": null,
        "streetTypeId": "AVE",
        "placeName": "LONDON",
        "streetNameDisplayText": "FAIRVIEW AVE, LONDON"
      }
    ]
  },
  {
    "postal": "N6C5K1",
    "result": [
      {
        "electoralDistricts": [
          {
            "election": null,
            "id": 55,
            "name": "London West"
          }
        ],
        "pollDivisionIds": [
          10139633
        ],
        "postalCode": "N6C5K1",
        "streetName": "MARKLAND",
        "streetDirectionId": null,
        "streetTypeId": "DR",
        "placeName": "LONDON",
        "streetNameDisplayText": "MARKLAND DR, LONDON"
      }
    ]
  },
  {
    "postal": "N6C0Z9",
    "result": []
  },
  {
    "postal": "N6C7T2",
    "result": []
  },
  {
    "postal": "N6C1L5",
    "result": [
      {
        "electoralDistricts": [
          {
            "election": null,
            "id": 55,
            "name": "London West"
          }
        ],
        "pollDivisionIds": [
          10139626
        ],
        "postalCode": "N6C1L5",
        "streetName": "GRAND",
        "streetDirectionId": null,
        "streetTypeId": "AVE",
        "placeName": "LONDON",
        "streetNameDisplayText": "GRAND AVE, LONDON"
      }
    ]
  },
  {
    "postal": "N6C3N5",
    "result": [
      {
        "electoralDistricts": [
          {
            "election": null,
            "id": 55,
            "name": "London West"
          }
        ],
        "pollDivisionIds": [
          10139633
        ],
        "postalCode": "N6C3N5",
        "streetName": "CATHCART",
        "streetDirectionId": null,
        "streetTypeId": "ST",
        "placeName": "LONDON",
        "streetNameDisplayText": "CATHCART ST, LONDON"
      }
    ]
  },
  {
    "postal": "N6C6H4",
    "result": []
  },
  {
    "postal": "N6C5A5",
    "result": [
      {
        "electoralDistricts": [
          {
            "election": null,
            "id": 53,
            "name": "London—Fanshawe"
          }
        ],
        "pollDivisionIds": [
          10139584
        ],
        "postalCode": "N6C5A5",
        "streetName": "NIXON",
        "streetDirectionId": null,
        "streetTypeId": "AVE",
        "placeName": "LONDON",
        "streetNameDisplayText": "NIXON AVE, LONDON"
      }
    ]
  },
  {
    "postal": "N6C3R9",
    "result": [
      {
        "electoralDistricts": [
          {
            "election": null,
            "id": 55,
            "name": "London West"
          }
        ],
        "pollDivisionIds": [
          10139634
        ],
        "postalCode": "N6C3R9",
        "streetName": "WORTLEY",
        "streetDirectionId": null,
        "streetTypeId": "RD",
        "placeName": "LONDON",
        "streetNameDisplayText": "WORTLEY RD, LONDON"
      }
    ]
  },
  {
    "postal": "N6C7L8",
    "result": []
  },
  {
    "postal": "N6C6T6",
    "result": []
  },
  {
    "postal": "N6C7Y7",
    "result": []
  },
  {
    "postal": "N6C3M8",
    "result": [
      {
        "electoralDistricts": [
          {
            "election": null,
            "id": 55,
            "name": "London West"
          }
        ],
        "pollDivisionIds": [
          10139624
        ],
        "postalCode": "N6C3M8",
        "streetName": "CATHCART",
        "streetDirectionId": null,
        "streetTypeId": "ST",
        "placeName": "LONDON",
        "streetNameDisplayText": "CATHCART ST, LONDON"
      }
    ]
  },
  {
    "postal": "N6C2E0",
    "result": []
  },
  {
    "postal": "N6C4B5",
    "result": [
      {
        "electoralDistricts": [
          {
            "election": null,
            "id": 55,
            "name": "London West"
          }
        ],
        "pollDivisionIds": [
          10139634
        ],
        "postalCode": "N6C4B5",
        "streetName": "BELGRAVE",
        "streetDirectionId": null,
        "streetTypeId": "AVE",
        "placeName": "LONDON",
        "streetNameDisplayText": "BELGRAVE AVE, LONDON"
      }
    ]
  },
  {
    "postal": "N6C1J3",
    "result": [
      {
        "electoralDistricts": [
          {
            "election": null,
            "id": 55,
            "name": "London West"
          }
        ],
        "pollDivisionIds": [
          10139625
        ],
        "postalCode": "N6C1J3",
        "streetName": "ELMWOOD",
        "streetDirectionId": "E",
        "streetTypeId": "AVE",
        "placeName": "LONDON",
        "streetNameDisplayText": "ELMWOOD AVE E, LONDON"
      }
    ]
  },
  {
    "postal": "N6C5S6",
    "result": [
      {
        "electoralDistricts": [
          {
            "election": null,
            "id": 53,
            "name": "London—Fanshawe"
          }
        ],
        "pollDivisionIds": [
          10139586
        ],
        "postalCode": "N6C5S6",
        "streetName": "ANSONDALE",
        "streetDirectionId": null,
        "streetTypeId": "RD",
        "placeName": "LONDON",
        "streetNameDisplayText": "ANSONDALE RD, LONDON"
      },
      {
        "electoralDistricts": [
          {
            "election": null,
            "id": 53,
            "name": "London—Fanshawe"
          }
        ],
        "pollDivisionIds": [
          10139585,
          10139586
        ],
        "postalCode": "N6C5S6",
        "streetName": "HOMEVIEW",
        "streetDirectionId": null,
        "streetTypeId": "RD",
        "placeName": "LONDON",
        "streetNameDisplayText": "HOMEVIEW RD, LONDON"
      }
    ]
  },
  {
    "postal": "N6C8P7",
    "result": []
  },
  {
    "postal": "N6C7S7",
    "result": []
  },
  {
    "postal": "N6C4C2",
    "result": [
      {
        "electoralDistricts": [
          {
            "election": null,
            "id": 55,
            "name": "London West"
          }
        ],
        "pollDivisionIds": [
          10139633
        ],
        "postalCode": "N6C4C2",
        "streetName": "BELGRAVE",
        "streetDirectionId": null,
        "streetTypeId": "AVE",
        "placeName": "LONDON",
        "streetNameDisplayText": "BELGRAVE AVE, LONDON"
      }
    ]
  },
  {
    "postal": "N6C5Y0",
    "result": []
  },
  {
    "postal": "N6C2V7",
    "result": [
      {
        "electoralDistricts": [
          {
            "election": null,
            "id": 53,
            "name": "London—Fanshawe"
          }
        ],
        "pollDivisionIds": [
          10139584
        ],
        "postalCode": "N6C2V7",
        "streetName": "COWAN",
        "streetDirectionId": null,
        "streetTypeId": "CRES",
        "placeName": "LONDON",
        "streetNameDisplayText": "COWAN CRES, LONDON"
      }
    ]
  },
  {
    "postal": "N6C8P5",
    "result": []
  },
  {
    "postal": "N6C5P5",
    "result": [
      {
        "electoralDistricts": [
          {
            "election": null,
            "id": 53,
            "name": "London—Fanshawe"
          }
        ],
        "pollDivisionIds": [
          10139586
        ],
        "postalCode": "N6C5P5",
        "streetName": "GOLFDALE",
        "streetDirectionId": null,
        "streetTypeId": "CRES",
        "placeName": "LONDON",
        "streetNameDisplayText": "GOLFDALE CRES, LONDON"
      }
    ]
  },
  {
    "postal": "N6C5Z0",
    "result": []
  },
  {
    "postal": "N6C9B0",
    "result": []
  },
  {
    "postal": "N6C1L0",
    "result": []
  },
  {
    "postal": "N6C0B5",
    "result": []
  },
  {
    "postal": "N6C3L2",
    "result": [
      {
        "electoralDistricts": [
          {
            "election": null,
            "id": 55,
            "name": "London West"
          }
        ],
        "pollDivisionIds": [
          10139624
        ],
        "postalCode": "N6C3L2",
        "streetName": "DEANE",
        "streetDirectionId": null,
        "streetTypeId": "ST",
        "placeName": "LONDON",
        "streetNameDisplayText": "DEANE ST, LONDON"
      }
    ]
  },
  {
    "postal": "N6C3B7",
    "result": [
      {
        "electoralDistricts": [
          {
            "election": null,
            "id": 53,
            "name": "London—Fanshawe"
          }
        ],
        "pollDivisionIds": [
          10139586
        ],
        "postalCode": "N6C3B7",
        "streetName": "STOCKTON",
        "streetDirectionId": null,
        "streetTypeId": "ST",
        "placeName": "LONDON",
        "streetNameDisplayText": "STOCKTON ST, LONDON"
      }
    ]
  },
  {
    "postal": "N6C8L1",
    "result": []
  },
  {
    "postal": "N6C5M4",
    "result": [
      {
        "electoralDistricts": [
          {
            "election": null,
            "id": 53,
            "name": "London—Fanshawe"
          }
        ],
        "pollDivisionIds": [
          10139585
        ],
        "postalCode": "N6C5M4",
        "streetName": "WESTWINDS",
        "streetDirectionId": null,
        "streetTypeId": "DR",
        "placeName": "LONDON",
        "streetNameDisplayText": "WESTWINDS DR, LONDON"
      }
    ]
  },
  {
    "postal": "N6C4G9",
    "result": [
      {
        "electoralDistricts": [
          {
            "election": null,
            "id": 55,
            "name": "London West"
          }
        ],
        "pollDivisionIds": [
          10139634
        ],
        "postalCode": "N6C4G9",
        "streetName": "SOUTHGATE",
        "streetDirectionId": null,
        "streetTypeId": "ST",
        "placeName": "LONDON",
        "streetNameDisplayText": "SOUTHGATE ST, LONDON"
      }
    ]
  },
  {
    "postal": "N6C0P0",
    "result": []
  },
  {
    "postal": "N6C8G2",
    "result": []
  },
  {
    "postal": "N6C1V9",
    "result": [
      {
        "electoralDistricts": [
          {
            "election": null,
            "id": 55,
            "name": "London West"
          }
        ],
        "pollDivisionIds": [
          10139628
        ],
        "postalCode": "N6C1V9",
        "streetName": "WINDSOR",
        "streetDirectionId": null,
        "streetTypeId": "CRES",
        "placeName": "LONDON",
        "streetNameDisplayText": "WINDSOR CRES, LONDON"
      }
    ]
  },
  {
    "postal": "N6C8N8",
    "result": []
  },
  {
    "postal": "N6C6S8",
    "result": []
  },
  {
    "postal": "N6C8H2",
    "result": []
  },
  {
    "postal": "N6C5R8",
    "result": [
      {
        "electoralDistricts": [
          {
            "election": null,
            "id": 53,
            "name": "London—Fanshawe"
          }
        ],
        "pollDivisionIds": [
          10139585
        ],
        "postalCode": "N6C5R8",
        "streetName": "COUNTRY CLUB",
        "streetDirectionId": null,
        "streetTypeId": "CRES",
        "placeName": "LONDON",
        "streetNameDisplayText": "COUNTRY CLUB CRES, LONDON"
      },
      {
        "electoralDistricts": [
          {
            "election": null,
            "id": 53,
            "name": "London—Fanshawe"
          }
        ],
        "pollDivisionIds": [
          10139585
        ],
        "postalCode": "N6C5R8",
        "streetName": "COUNTRY CLUB",
        "streetDirectionId": null,
        "streetTypeId": "LANE",
        "placeName": "LONDON",
        "streetNameDisplayText": "COUNTRY CLUB LANE, LONDON"
      }
    ]
  },
  {
    "postal": "N6C5L4",
    "result": []
  },
  {
    "postal": "N6C9E1",
    "result": []
  },
  {
    "postal": "N6C1C4",
    "result": [
      {
        "electoralDistricts": [
          {
            "election": null,
            "id": 55,
            "name": "London West"
          }
        ],
        "pollDivisionIds": [
          10139625
        ],
        "postalCode": "N6C1C4",
        "streetName": "BYRON",
        "streetDirectionId": "E",
        "streetTypeId": "AVE",
        "placeName": "LONDON",
        "streetNameDisplayText": "BYRON AVE E, LONDON"
      }
    ]
  },
  {
    "postal": "N6C8W5",
    "result": []
  },
  {
    "postal": "N6C1Y4",
    "result": [
      {
        "electoralDistricts": [
          {
            "election": null,
            "id": 55,
            "name": "London West"
          }
        ],
        "pollDivisionIds": [
          10139628
        ],
        "postalCode": "N6C1Y4",
        "streetName": "RAYWOOD",
        "streetDirectionId": null,
        "streetTypeId": "AVE",
        "placeName": "LONDON",
        "streetNameDisplayText": "RAYWOOD AVE, LONDON"
      }
    ]
  },
  {
    "postal": "N6C1C0",
    "result": []
  },
  {
    "postal": "N6C2J2",
    "result": [
      {
        "electoralDistricts": [
          {
            "election": null,
            "id": 55,
            "name": "London West"
          }
        ],
        "pollDivisionIds": [
          10139633
        ],
        "postalCode": "N6C2J2",
        "streetName": "DEVONSHIRE",
        "streetDirectionId": null,
        "streetTypeId": "AVE",
        "placeName": "LONDON",
        "streetNameDisplayText": "DEVONSHIRE AVE, LONDON"
      }
    ]
  },
  {
    "postal": "N6C2J0",
    "result": []
  },
  {
    "postal": "N6C7A3",
    "result": []
  },
  {
    "postal": "N6C8M1",
    "result": []
  },
  {
    "postal": "N6C7T9",
    "result": []
  },
  {
    "postal": "N6C6C0",
    "result": []
  },
  {
    "postal": "N6C7X1",
    "result": []
  },
  {
    "postal": "N6C0G1",
    "result": []
  },
  {
    "postal": "N6C4X2",
    "result": [
      {
        "electoralDistricts": [
          {
            "election": null,
            "id": 53,
            "name": "London—Fanshawe"
          }
        ],
        "pollDivisionIds": [
          10139578
        ],
        "postalCode": "N6C4X2",
        "streetName": "LUPUS",
        "streetDirectionId": null,
        "streetTypeId": "PL",
        "placeName": "LONDON",
        "streetNameDisplayText": "LUPUS PL, LONDON"
      }
    ]
  },
  {
    "postal": "N6C0N6",
    "result": []
  },
  {
    "postal": "N6C8E3",
    "result": []
  },
  {
    "postal": "N6C5S8",
    "result": [
      {
        "electoralDistricts": [
          {
            "election": null,
            "id": 53,
            "name": "London—Fanshawe"
          }
        ],
        "pollDivisionIds": [
          10139586
        ],
        "postalCode": "N6C5S8",
        "streetName": "ANSONDALE",
        "streetDirectionId": null,
        "streetTypeId": "RD",
        "placeName": "LONDON",
        "streetNameDisplayText": "ANSONDALE RD, LONDON"
      }
    ]
  },
  {
    "postal": "N6C0R0",
    "result": []
  },
  {
    "postal": "N6C6J6",
    "result": []
  },
  {
    "postal": "N6C4B4",
    "result": [
      {
        "electoralDistricts": [
          {
            "election": null,
            "id": 55,
            "name": "London West"
          }
        ],
        "pollDivisionIds": [
          10139626
        ],
        "postalCode": "N6C4B4",
        "streetName": "BELGRAVE",
        "streetDirectionId": null,
        "streetTypeId": "AVE",
        "placeName": "LONDON",
        "streetNameDisplayText": "BELGRAVE AVE, LONDON"
      }
    ]
  },
  {
    "postal": "N6C7E3",
    "result": []
  },
  {
    "postal": "N6C3N6",
    "result": [
      {
        "electoralDistricts": [
          {
            "election": null,
            "id": 55,
            "name": "London West"
          }
        ],
        "pollDivisionIds": [
          10139633
        ],
        "postalCode": "N6C3N6",
        "streetName": "CATHCART",
        "streetDirectionId": null,
        "streetTypeId": "ST",
        "placeName": "LONDON",
        "streetNameDisplayText": "CATHCART ST, LONDON"
      }
    ]
  },
  {
    "postal": "N6C3X6",
    "result": [
      {
        "electoralDistricts": [
          {
            "election": null,
            "id": 55,
            "name": "London West"
          }
        ],
        "pollDivisionIds": [
          10139625
        ],
        "postalCode": "N6C3X6",
        "streetName": "RIDOUT",
        "streetDirectionId": "S",
        "streetTypeId": "ST",
        "placeName": "LONDON",
        "streetNameDisplayText": "RIDOUT ST S, LONDON"
      }
    ]
  },
  {
    "postal": "N6C8L0",
    "result": []
  },
  {
    "postal": "N6C8N1",
    "result": []
  },
  {
    "postal": "N6C4J0",
    "result": []
  },
  {
    "postal": "N6C0X7",
    "result": []
  },
  {
    "postal": "N6C6S4",
    "result": []
  },
  {
    "postal": "N6C0Z0",
    "result": []
  },
  {
    "postal": "N6C9X8",
    "result": []
  },
  {
    "postal": "N6C3H3",
    "result": [
      {
        "electoralDistricts": [
          {
            "election": null,
            "id": 55,
            "name": "London West"
          }
        ],
        "pollDivisionIds": [
          10139624
        ],
        "postalCode": "N6C3H3",
        "streetName": "EDWARD",
        "streetDirectionId": null,
        "streetTypeId": "ST",
        "placeName": "LONDON",
        "streetNameDisplayText": "EDWARD ST, LONDON"
      }
    ]
  },
  {
    "postal": "N6C7S2",
    "result": []
  },
  {
    "postal": "N6C3T3",
    "result": [
      {
        "electoralDistricts": [
          {
            "election": null,
            "id": 55,
            "name": "London West"
          }
        ],
        "pollDivisionIds": [
          10139625
        ],
        "postalCode": "N6C3T3",
        "streetName": "MARLEY",
        "streetDirectionId": null,
        "streetTypeId": "PL",
        "placeName": "LONDON",
        "streetNameDisplayText": "MARLEY PL, LONDON"
      }
    ]
  },
  {
    "postal": "N6C9P3",
    "result": []
  },
  {
    "postal": "N6C4H8",
    "result": [
      {
        "electoralDistricts": [
          {
            "election": null,
            "id": 55,
            "name": "London West"
          }
        ],
        "pollDivisionIds": [
          10139634
        ],
        "postalCode": "N6C4H8",
        "streetName": "LYNDHURST",
        "streetDirectionId": null,
        "streetTypeId": "PL",
        "placeName": "LONDON",
        "streetNameDisplayText": "LYNDHURST PL, LONDON"
      }
    ]
  },
  {
    "postal": "N6C6R1",
    "result": []
  },
  {
    "postal": "N6C1S0",
    "result": []
  },
  {
    "postal": "N6C3W8",
    "result": [
      {
        "electoralDistricts": [
          {
            "election": null,
            "id": 55,
            "name": "London West"
          }
        ],
        "pollDivisionIds": [
          10139625
        ],
        "postalCode": "N6C3W8",
        "streetName": "RIDOUT",
        "streetDirectionId": "S",
        "streetTypeId": "ST",
        "placeName": "LONDON",
        "streetNameDisplayText": "RIDOUT ST S, LONDON"
      }
    ]
  },
  {
    "postal": "N6C4S3",
    "result": [
      {
        "electoralDistricts": [
          {
            "election": null,
            "id": 55,
            "name": "London West"
          }
        ],
        "pollDivisionIds": [
          10139628
        ],
        "postalCode": "N6C4S3",
        "streetName": "HERKIMER",
        "streetDirectionId": null,
        "streetTypeId": "ST",
        "placeName": "LONDON",
        "streetNameDisplayText": "HERKIMER ST, LONDON"
      }
    ]
  },
  {
    "postal": "N6C1B6",
    "result": [
      {
        "electoralDistricts": [
          {
            "election": null,
            "id": 55,
            "name": "London West"
          }
        ],
        "pollDivisionIds": [
          10139623
        ],
        "postalCode": "N6C1B6",
        "streetName": "BEACONSFIELD",
        "streetDirectionId": null,
        "streetTypeId": "AVE",
        "placeName": "LONDON",
        "streetNameDisplayText": "BEACONSFIELD AVE, LONDON"
      }
    ]
  },
  {
    "postal": "N6C8R3",
    "result": []
  },
  {
    "postal": "N6C4V9",
    "result": [
      {
        "electoralDistricts": [
          {
            "election": null,
            "id": 53,
            "name": "London—Fanshawe"
          }
        ],
        "pollDivisionIds": [
          10139579
        ],
        "postalCode": "N6C4V9",
        "streetName": "MILLBANK",
        "streetDirectionId": null,
        "streetTypeId": "DR",
        "placeName": "LONDON",
        "streetNameDisplayText": "MILLBANK DR, LONDON"
      }
    ]
  },
  {
    "postal": "N6C9W4",
    "result": []
  },
  {
    "postal": "N6C3T4",
    "result": [
      {
        "electoralDistricts": [
          {
            "election": null,
            "id": 55,
            "name": "London West"
          }
        ],
        "pollDivisionIds": [
          10139625
        ],
        "postalCode": "N6C3T4",
        "streetName": "MARLEY",
        "streetDirectionId": null,
        "streetTypeId": "PL",
        "placeName": "LONDON",
        "streetNameDisplayText": "MARLEY PL, LONDON"
      }
    ]
  },
  {
    "postal": "N6C5C7",
    "result": [
      {
        "electoralDistricts": [
          {
            "election": null,
            "id": 53,
            "name": "London—Fanshawe"
          }
        ],
        "pollDivisionIds": [
          10139584
        ],
        "postalCode": "N6C5C7",
        "streetName": "VERULAM",
        "streetDirectionId": null,
        "streetTypeId": "ST",
        "placeName": "LONDON",
        "streetNameDisplayText": "VERULAM ST, LONDON"
      }
    ]
  },
  {
    "postal": "N6C3Y1",
    "result": [
      {
        "electoralDistricts": [
          {
            "election": null,
            "id": 55,
            "name": "London West"
          }
        ],
        "pollDivisionIds": [
          10139634
        ],
        "postalCode": "N6C3Y1",
        "streetName": "RIDOUT",
        "streetDirectionId": "S",
        "streetTypeId": "ST",
        "placeName": "LONDON",
        "streetNameDisplayText": "RIDOUT ST S, LONDON"
      }
    ]
  },
  {
    "postal": "N6C5V0",
    "result": []
  },
  {
    "postal": "N6C8G8",
    "result": []
  },
  {
    "postal": "N6C8B1",
    "result": []
  },
  {
    "postal": "N6C4P5",
    "result": []
  },
  {
    "postal": "N6C7B2",
    "result": []
  },
  {
    "postal": "N6C0R2",
    "result": []
  },
  {
    "postal": "N6C4M4",
    "result": [
      {
        "electoralDistricts": [
          {
            "election": null,
            "id": 55,
            "name": "London West"
          }
        ],
        "pollDivisionIds": [
          10139635
        ],
        "postalCode": "N6C4M4",
        "streetName": "BALDERSTONE",
        "streetDirectionId": null,
        "streetTypeId": "AVE",
        "placeName": "LONDON",
        "streetNameDisplayText": "BALDERSTONE AVE, LONDON"
      }
    ]
  },
  {
    "postal": "N6C7M4",
    "result": []
  },
  {
    "postal": "N6C9S7",
    "result": []
  },
  {
    "postal": "N6C5Z7",
    "result": [
      {
        "electoralDistricts": [
          {
            "election": null,
            "id": 53,
            "name": "London—Fanshawe"
          },
          {
            "election": null,
            "id": 55,
            "name": "London West"
          }
        ],
        "pollDivisionIds": [
          10139585,
          10139633
        ],
        "postalCode": "N6C5Z7",
        "streetName": "COMMISSIONERS",
        "streetDirectionId": "E",
        "streetTypeId": "RD",
        "placeName": "LONDON",
        "streetNameDisplayText": "COMMISSIONERS RD E, LONDON"
      }
    ]
  },
  {
    "postal": "N6C7J7",
    "result": []
  },
  {
    "postal": "N6C8R8",
    "result": []
  },
  {
    "postal": "N6C9X1",
    "result": []
  },
  {
    "postal": "N6C5M9",
    "result": [
      {
        "electoralDistricts": [
          {
            "election": null,
            "id": 53,
            "name": "London—Fanshawe"
          }
        ],
        "pollDivisionIds": [
          10139586
        ],
        "postalCode": "N6C5M9",
        "streetName": "GOLFVIEW",
        "streetDirectionId": null,
        "streetTypeId": "CRES",
        "placeName": "LONDON",
        "streetNameDisplayText": "GOLFVIEW CRES, LONDON"
      }
    ]
  },
  {
    "postal": "N6C9B4",
    "result": []
  },
  {
    "postal": "N6C0L9",
    "result": []
  },
  {
    "postal": "N6C9G4",
    "result": []
  },
  {
    "postal": "N6C1J4",
    "result": [
      {
        "electoralDistricts": [
          {
            "election": null,
            "id": 55,
            "name": "London West"
          }
        ],
        "pollDivisionIds": [
          10139624
        ],
        "postalCode": "N6C1J4",
        "streetName": "ELMWOOD",
        "streetDirectionId": "E",
        "streetTypeId": "AVE",
        "placeName": "LONDON",
        "streetNameDisplayText": "ELMWOOD AVE E, LONDON"
      }
    ]
  },
  {
    "postal": "N6C0W6",
    "result": []
  }
]
