[
  {
    "postal": "L4T9J6",
    "result": []
  },
  {
    "postal": "L4T9Z5",
    "result": []
  },
  {
    "postal": "L4T7H8",
    "result": []
  },
  {
    "postal": "L4T0P6",
    "result": []
  },
  {
    "postal": "L4T0S7",
    "result": []
  },
  {
    "postal": "L4T8B9",
    "result": []
  },
  {
    "postal": "L4T2A6",
    "result": [
      {
        "electoralDistricts": [
          {
            "election": null,
            "id": 64,
            "name": "Mississauga—Malton"
          }
        ],
        "pollDivisionIds": [
          10139803
        ],
        "postalCode": "L4T2A6",
        "streetName": "TEESWATER",
        "streetDirectionId": null,
        "streetTypeId": "RD",
        "placeName": "MISSISSAUGA",
        "streetNameDisplayText": "TEESWATER RD, MISSISSAUGA"
      }
    ]
  },
  {
    "postal": "L4T7V2",
    "result": []
  },
  {
    "postal": "L4T9P4",
    "result": []
  },
  {
    "postal": "L4T6G0",
    "result": []
  },
  {
    "postal": "L4T2K0",
    "result": []
  },
  {
    "postal": "L4T7N6",
    "result": []
  },
  {
    "postal": "L4T5R3",
    "result": []
  },
  {
    "postal": "L4T7K0",
    "result": []
  },
  {
    "postal": "L4T3R2",
    "result": [
      {
        "electoralDistricts": [
          {
            "election": null,
            "id": 64,
            "name": "Mississauga—Malton"
          }
        ],
        "pollDivisionIds": [
          10139805
        ],
        "postalCode": "L4T3R2",
        "streetName": "BYBROOK",
        "streetDirectionId": null,
        "streetTypeId": "DR",
        "placeName": "MISSISSAUGA",
        "streetNameDisplayText": "BYBROOK DR, MISSISSAUGA"
      }
    ]
  },
  {
    "postal": "L4T0J1",
    "result": []
  },
  {
    "postal": "L4T0B0",
    "result": []
  },
  {
    "postal": "L4T5Z2",
    "result": []
  },
  {
    "postal": "L4T7P3",
    "result": []
  },
  {
    "postal": "L4T2K3",
    "result": [
      {
        "electoralDistricts": [
          {
            "election": null,
            "id": 64,
            "name": "Mississauga—Malton"
          }
        ],
        "pollDivisionIds": [
          10139807
        ],
        "postalCode": "L4T2K3",
        "streetName": "SILLS",
        "streetDirectionId": null,
        "streetTypeId": "RD",
        "placeName": "MISSISSAUGA",
        "streetNameDisplayText": "SILLS RD, MISSISSAUGA"
      }
    ]
  },
  {
    "postal": "L4T7Y6",
    "result": []
  },
  {
    "postal": "L4T1L9",
    "result": [
      {
        "electoralDistricts": [
          {
            "election": null,
            "id": 64,
            "name": "Mississauga—Malton"
          }
        ],
        "pollDivisionIds": [
          10139809
        ],
        "postalCode": "L4T1L9",
        "streetName": "VICTORY",
        "streetDirectionId": null,
        "streetTypeId": "CRES",
        "placeName": "MISSISSAUGA",
        "streetNameDisplayText": "VICTORY CRES, MISSISSAUGA"
      }
    ]
  },
  {
    "postal": "L4T8T0",
    "result": []
  },
  {
    "postal": "L4T3K8",
    "result": [
      {
        "electoralDistricts": [
          {
            "election": null,
            "id": 64,
            "name": "Mississauga—Malton"
          }
        ],
        "pollDivisionIds": [
          10139803
        ],
        "postalCode": "L4T3K8",
        "streetName": "MEYER",
        "streetDirectionId": null,
        "streetTypeId": "DR",
        "placeName": "MISSISSAUGA",
        "streetNameDisplayText": "MEYER DR, MISSISSAUGA"
      }
    ]
  },
  {
    "postal": "L4T5W9",
    "result": []
  },
  {
    "postal": "L4T6T9",
    "result": []
  },
  {
    "postal": "L4T4H1",
    "result": [
      {
        "electoralDistricts": [
          {
            "election": null,
            "id": 64,
            "name": "Mississauga—Malton"
          }
        ],
        "pollDivisionIds": [
          10139809
        ],
        "postalCode": "L4T4H1",
        "streetName": "BREN",
        "streetDirectionId": null,
        "streetTypeId": "RD",
        "placeName": "MISSISSAUGA",
        "streetNameDisplayText": "BREN RD, MISSISSAUGA"
      }
    ]
  },
  {
    "postal": "L4T7A2",
    "result": []
  },
  {
    "postal": "L4T5G0",
    "result": []
  },
  {
    "postal": "L4T8V5",
    "result": []
  },
  {
    "postal": "L4T2Y8",
    "result": [
      {
        "electoralDistricts": [
          {
            "election": null,
            "id": 64,
            "name": "Mississauga—Malton"
          }
        ],
        "pollDivisionIds": [
          10139804
        ],
        "postalCode": "L4T2Y8",
        "streetName": "WAINBROOK",
        "streetDirectionId": null,
        "streetTypeId": "RD",
        "placeName": "MISSISSAUGA",
        "streetNameDisplayText": "WAINBROOK RD, MISSISSAUGA"
      }
    ]
  },
  {
    "postal": "L4T2B6",
    "result": [
      {
        "electoralDistricts": [
          {
            "election": null,
            "id": 64,
            "name": "Mississauga—Malton"
          }
        ],
        "pollDivisionIds": [
          10139807
        ],
        "postalCode": "L4T2B6",
        "streetName": "REDSTONE",
        "streetDirectionId": null,
        "streetTypeId": "RD",
        "placeName": "MISSISSAUGA",
        "streetNameDisplayText": "REDSTONE RD, MISSISSAUGA"
      }
    ]
  },
  {
    "postal": "L4T4W8",
    "result": []
  },
  {
    "postal": "L4T8H7",
    "result": []
  },
  {
    "postal": "L4T5P1",
    "result": []
  },
  {
    "postal": "L4T2B8",
    "result": [
      {
        "electoralDistricts": [
          {
            "election": null,
            "id": 64,
            "name": "Mississauga—Malton"
          }
        ],
        "pollDivisionIds": [
          10139807
        ],
        "postalCode": "L4T2B8",
        "streetName": "REDSTONE",
        "streetDirectionId": null,
        "streetTypeId": "RD",
        "placeName": "MISSISSAUGA",
        "streetNameDisplayText": "REDSTONE RD, MISSISSAUGA"
      }
    ]
  },
  {
    "postal": "L4T0P2",
    "result": []
  },
  {
    "postal": "L4T9M1",
    "result": []
  },
  {
    "postal": "L4T3G0",
    "result": []
  },
  {
    "postal": "L4T9Z2",
    "result": []
  },
  {
    "postal": "L4T2A0",
    "result": []
  },
  {
    "postal": "L4T6Y0",
    "result": []
  },
  {
    "postal": "L4T2Z8",
    "result": [
      {
        "electoralDistricts": [
          {
            "election": null,
            "id": 64,
            "name": "Mississauga—Malton"
          }
        ],
        "pollDivisionIds": [
          10139802
        ],
        "postalCode": "L4T2Z8",
        "streetName": "ROCKHILL",
        "streetDirectionId": null,
        "streetTypeId": "RD",
        "placeName": "MISSISSAUGA",
        "streetNameDisplayText": "ROCKHILL RD, MISSISSAUGA"
      }
    ]
  },
  {
    "postal": "L4T7Y3",
    "result": []
  },
  {
    "postal": "L4T6Z5",
    "result": []
  },
  {
    "postal": "L4T6E0",
    "result": []
  },
  {
    "postal": "L4T9B7",
    "result": []
  },
  {
    "postal": "L4T9S5",
    "result": []
  },
  {
    "postal": "L4T3X3",
    "result": []
  },
  {
    "postal": "L4T7R5",
    "result": []
  },
  {
    "postal": "L4T2X3",
    "result": [
      {
        "electoralDistricts": [
          {
            "election": null,
            "id": 64,
            "name": "Mississauga—Malton"
          }
        ],
        "pollDivisionIds": [
          10139806
        ],
        "postalCode": "L4T2X3",
        "streetName": "DARCEL",
        "streetDirectionId": null,
        "streetTypeId": "AVE",
        "placeName": "MISSISSAUGA",
        "streetNameDisplayText": "DARCEL AVE, MISSISSAUGA"
      }
    ]
  },
  {
    "postal": "L4T8Z9",
    "result": []
  },
  {
    "postal": "L4T0N4",
    "result": []
  },
  {
    "postal": "L4T1K1",
    "result": [
      {
        "electoralDistricts": [
          {
            "election": null,
            "id": 64,
            "name": "Mississauga—Malton"
          }
        ],
        "pollDivisionIds": [
          10139809
        ],
        "postalCode": "L4T1K1",
        "streetName": "NORTH ALARTON",
        "streetDirectionId": null,
        "streetTypeId": "ST",
        "placeName": "MISSISSAUGA",
        "streetNameDisplayText": "NORTH ALARTON ST, MISSISSAUGA"
      }
    ]
  },
  {
    "postal": "L4T1S3",
    "result": [
      {
        "electoralDistricts": [
          {
            "election": null,
            "id": 64,
            "name": "Mississauga—Malton"
          }
        ],
        "pollDivisionIds": [
          10139808
        ],
        "postalCode": "L4T1S3",
        "streetName": "CAPRICORN",
        "streetDirectionId": null,
        "streetTypeId": "CRES",
        "placeName": "MISSISSAUGA",
        "streetNameDisplayText": "CAPRICORN CRES, MISSISSAUGA"
      }
    ]
  },
  {
    "postal": "L4T6M4",
    "result": []
  },
  {
    "postal": "L4T9A9",
    "result": []
  },
  {
    "postal": "L4T9Z9",
    "result": []
  },
  {
    "postal": "L4T6T4",
    "result": []
  },
  {
    "postal": "L4T0B2",
    "result": []
  },
  {
    "postal": "L4T2L9",
    "result": [
      {
        "electoralDistricts": [
          {
            "election": null,
            "id": 64,
            "name": "Mississauga—Malton"
          }
        ],
        "pollDivisionIds": [
          10139809
        ],
        "postalCode": "L4T2L9",
        "streetName": "REDFOX",
        "streetDirectionId": null,
        "streetTypeId": "RD",
        "placeName": "MISSISSAUGA",
        "streetNameDisplayText": "REDFOX RD, MISSISSAUGA"
      }
    ]
  },
  {
    "postal": "L4T8K9",
    "result": []
  },
  {
    "postal": "L4T2H9",
    "result": [
      {
        "electoralDistricts": [
          {
            "election": null,
            "id": 64,
            "name": "Mississauga—Malton"
          }
        ],
        "pollDivisionIds": [
          10139809
        ],
        "postalCode": "L4T2H9",
        "streetName": "LANDEN",
        "streetDirectionId": null,
        "streetTypeId": "CRT",
        "placeName": "MISSISSAUGA",
        "streetNameDisplayText": "LANDEN CRT, MISSISSAUGA"
      }
    ]
  },
  {
    "postal": "L4T3Z6",
    "result": [
      {
        "electoralDistricts": [
          {
            "election": null,
            "id": 64,
            "name": "Mississauga—Malton"
          }
        ],
        "pollDivisionIds": [
          10139805
        ],
        "postalCode": "L4T3Z6",
        "streetName": "FINERY",
        "streetDirectionId": null,
        "streetTypeId": "CRES",
        "placeName": "MISSISSAUGA",
        "streetNameDisplayText": "FINERY CRES, MISSISSAUGA"
      }
    ]
  },
  {
    "postal": "L4T3B0",
    "result": []
  },
  {
    "postal": "L4T2H8",
    "result": [
      {
        "electoralDistricts": [
          {
            "election": null,
            "id": 64,
            "name": "Mississauga—Malton"
          }
        ],
        "pollDivisionIds": [
          10139809
        ],
        "postalCode": "L4T2H8",
        "streetName": "COLLETT",
        "streetDirectionId": null,
        "streetTypeId": "RD",
        "placeName": "MISSISSAUGA",
        "streetNameDisplayText": "COLLETT RD, MISSISSAUGA"
      }
    ]
  },
  {
    "postal": "L4T3X2",
    "result": [
      {
        "electoralDistricts": [
          {
            "election": null,
            "id": 64,
            "name": "Mississauga—Malton"
          }
        ],
        "pollDivisionIds": [
          10139809
        ],
        "postalCode": "L4T3X2",
        "streetName": "TORBRAM",
        "streetDirectionId": null,
        "streetTypeId": "RD",
        "placeName": "MISSISSAUGA",
        "streetNameDisplayText": "TORBRAM RD, MISSISSAUGA"
      }
    ]
  },
  {
    "postal": "L4T2E9",
    "result": [
      {
        "electoralDistricts": [
          {
            "election": null,
            "id": 64,
            "name": "Mississauga—Malton"
          }
        ],
        "pollDivisionIds": [
          10139803
        ],
        "postalCode": "L4T2E9",
        "streetName": "YUMA",
        "streetDirectionId": null,
        "streetTypeId": "CRT",
        "placeName": "MISSISSAUGA",
        "streetNameDisplayText": "YUMA CRT, MISSISSAUGA"
      }
    ]
  },
  {
    "postal": "L4T9P6",
    "result": []
  },
  {
    "postal": "L4T9E2",
    "result": []
  },
  {
    "postal": "L4T9H2",
    "result": []
  },
  {
    "postal": "L4T1S8",
    "result": [
      {
        "electoralDistricts": [
          {
            "election": null,
            "id": 64,
            "name": "Mississauga—Malton"
          }
        ],
        "pollDivisionIds": [
          10139809
        ],
        "postalCode": "L4T1S8",
        "streetName": "ETUDE",
        "streetDirectionId": null,
        "streetTypeId": "DR",
        "placeName": "MISSISSAUGA",
        "streetNameDisplayText": "ETUDE DR, MISSISSAUGA"
      }
    ]
  },
  {
    "postal": "L4T3M6",
    "result": [
      {
        "electoralDistricts": [
          {
            "election": null,
            "id": 64,
            "name": "Mississauga—Malton"
          }
        ],
        "pollDivisionIds": [
          10139809
        ],
        "postalCode": "L4T3M6",
        "streetName": "KIMBEL",
        "streetDirectionId": null,
        "streetTypeId": "ST",
        "placeName": "MISSISSAUGA",
        "streetNameDisplayText": "KIMBEL ST, MISSISSAUGA"
      }
    ]
  },
  {
    "postal": "L4T6Z8",
    "result": []
  },
  {
    "postal": "L4T4J2",
    "result": [
      {
        "electoralDistricts": [
          {
            "election": null,
            "id": 64,
            "name": "Mississauga—Malton"
          }
        ],
        "pollDivisionIds": [
          10139808
        ],
        "postalCode": "L4T4J2",
        "streetName": "GOREWAY",
        "streetDirectionId": null,
        "streetTypeId": "DR",
        "placeName": "MISSISSAUGA",
        "streetNameDisplayText": "GOREWAY DR, MISSISSAUGA"
      }
    ]
  },
  {
    "postal": "L4T9Y1",
    "result": []
  },
  {
    "postal": "L4T8V6",
    "result": []
  },
  {
    "postal": "L4T6B2",
    "result": []
  },
  {
    "postal": "L4T1P8",
    "result": [
      {
        "electoralDistricts": [
          {
            "election": null,
            "id": 64,
            "name": "Mississauga—Malton"
          }
        ],
        "pollDivisionIds": [
          10139808
        ],
        "postalCode": "L4T1P8",
        "streetName": "MICHAUD",
        "streetDirectionId": null,
        "streetTypeId": "AVE",
        "placeName": "MISSISSAUGA",
        "streetNameDisplayText": "MICHAUD AVE, MISSISSAUGA"
      }
    ]
  },
  {
    "postal": "L4T0V8",
    "result": []
  },
  {
    "postal": "L4T4Y0",
    "result": []
  },
  {
    "postal": "L4T2T4",
    "result": [
      {
        "electoralDistricts": [
          {
            "election": null,
            "id": 64,
            "name": "Mississauga—Malton"
          }
        ],
        "pollDivisionIds": [
          10139801
        ],
        "postalCode": "L4T2T4",
        "streetName": "CATALPA",
        "streetDirectionId": null,
        "streetTypeId": "RD",
        "placeName": "MISSISSAUGA",
        "streetNameDisplayText": "CATALPA RD, MISSISSAUGA"
      }
    ]
  },
  {
    "postal": "L4T2S3",
    "result": [
      {
        "electoralDistricts": [
          {
            "election": null,
            "id": 64,
            "name": "Mississauga—Malton"
          }
        ],
        "pollDivisionIds": [
          10139808
        ],
        "postalCode": "L4T2S3",
        "streetName": "HERMITAGE",
        "streetDirectionId": null,
        "streetTypeId": "RD",
        "placeName": "MISSISSAUGA",
        "streetNameDisplayText": "HERMITAGE RD, MISSISSAUGA"
      }
    ]
  },
  {
    "postal": "L4T0K0",
    "result": []
  },
  {
    "postal": "L4T5N1",
    "result": []
  },
  {
    "postal": "L4T7T0",
    "result": []
  },
  {
    "postal": "L4T9N2",
    "result": []
  },
  {
    "postal": "L4T5L1",
    "result": []
  },
  {
    "postal": "L4T7G5",
    "result": []
  },
  {
    "postal": "L4T6K2",
    "result": []
  },
  {
    "postal": "L4T6P9",
    "result": []
  },
  {
    "postal": "L4T0E6",
    "result": []
  },
  {
    "postal": "L4T8R9",
    "result": []
  },
  {
    "postal": "L4T3G9",
    "result": [
      {
        "electoralDistricts": [
          {
            "election": null,
            "id": 64,
            "name": "Mississauga—Malton"
          }
        ],
        "pollDivisionIds": [
          10139807
        ],
        "postalCode": "L4T3G9",
        "streetName": "NETHERWOOD",
        "streetDirectionId": null,
        "streetTypeId": "RD",
        "placeName": "MISSISSAUGA",
        "streetNameDisplayText": "NETHERWOOD RD, MISSISSAUGA"
      }
    ]
  },
  {
    "postal": "L4T0V7",
    "result": []
  },
  {
    "postal": "L4T2Z1",
    "result": [
      {
        "electoralDistricts": [
          {
            "election": null,
            "id": 64,
            "name": "Mississauga—Malton"
          }
        ],
        "pollDivisionIds": [
          10139803
        ],
        "postalCode": "L4T2Z1",
        "streetName": "CORLISS",
        "streetDirectionId": null,
        "streetTypeId": "CRES",
        "placeName": "MISSISSAUGA",
        "streetNameDisplayText": "CORLISS CRES, MISSISSAUGA"
      }
    ]
  },
  {
    "postal": "L4T7N1",
    "result": []
  },
  {
    "postal": "L4T3C6",
    "result": [
      {
        "electoralDistricts": [
          {
            "election": null,
            "id": 64,
            "name": "Mississauga—Malton"
          }
        ],
        "pollDivisionIds": [
          10139804
        ],
        "postalCode": "L4T3C6",
        "streetName": "ETUDE",
        "streetDirectionId": null,
        "streetTypeId": "DR",
        "placeName": "MISSISSAUGA",
        "streetNameDisplayText": "ETUDE DR, MISSISSAUGA"
      }
    ]
  },
  {
    "postal": "L4T4M1",
    "result": [
      {
        "electoralDistricts": [
          {
            "election": null,
            "id": 64,
            "name": "Mississauga—Malton"
          }
        ],
        "pollDivisionIds": [
          10103037
        ],
        "postalCode": "L4T4M1",
        "streetName": "REXWOOD",
        "streetDirectionId": null,
        "streetTypeId": "RD",
        "placeName": "MISSISSAUGA",
        "streetNameDisplayText": "REXWOOD RD, MISSISSAUGA"
      }
    ]
  },
  {
    "postal": "L4T9K2",
    "result": []
  },
  {
    "postal": "L4T9S6",
    "result": []
  },
  {
    "postal": "L4T4X1",
    "result": []
  },
  {
    "postal": "L4T8W2",
    "result": []
  },
  {
    "postal": "L4T7N2",
    "result": []
  },
  {
    "postal": "L4T8S3",
    "result": []
  },
  {
    "postal": "L4T4V0",
    "result": []
  },
  {
    "postal": "L4T6W4",
    "result": []
  },
  {
    "postal": "L4T5M1",
    "result": []
  },
  {
    "postal": "L4T0S4",
    "result": []
  },
  {
    "postal": "L4T5X6",
    "result": []
  },
  {
    "postal": "L4T8L5",
    "result": []
  },
  {
    "postal": "L4T5M8",
    "result": []
  },
  {
    "postal": "L4T2G3",
    "result": [
      {
        "electoralDistricts": [
          {
            "election": null,
            "id": 64,
            "name": "Mississauga—Malton"
          }
        ],
        "pollDivisionIds": [
          10139801
        ],
        "postalCode": "L4T2G3",
        "streetName": "BRANDON GATE",
        "streetDirectionId": null,
        "streetTypeId": "DR",
        "placeName": "MISSISSAUGA",
        "streetNameDisplayText": "BRANDON GATE DR, MISSISSAUGA"
      }
    ]
  },
  {
    "postal": "L4T8E4",
    "result": []
  },
  {
    "postal": "L4T7S9",
    "result": []
  },
  {
    "postal": "L4T1K3",
    "result": [
      {
        "electoralDistricts": [
          {
            "election": null,
            "id": 64,
            "name": "Mississauga—Malton"
          }
        ],
        "pollDivisionIds": [
          10139809
        ],
        "postalCode": "L4T1K3",
        "streetName": "SLEDMAN",
        "streetDirectionId": null,
        "streetTypeId": "ST",
        "placeName": "MISSISSAUGA",
        "streetNameDisplayText": "SLEDMAN ST, MISSISSAUGA"
      }
    ]
  },
  {
    "postal": "L4T4E1",
    "result": []
  },
  {
    "postal": "L4T4R2",
    "result": []
  },
  {
    "postal": "L4T6T0",
    "result": []
  },
  {
    "postal": "L4T3K5",
    "result": [
      {
        "electoralDistricts": [
          {
            "election": null,
            "id": 64,
            "name": "Mississauga—Malton"
          }
        ],
        "pollDivisionIds": [
          10139805
        ],
        "postalCode": "L4T3K5",
        "streetName": "BRANDON GATE",
        "streetDirectionId": null,
        "streetTypeId": "DR",
        "placeName": "MISSISSAUGA",
        "streetNameDisplayText": "BRANDON GATE DR, MISSISSAUGA"
      }
    ]
  },
  {
    "postal": "L4T3S3",
    "result": [
      {
        "electoralDistricts": [
          {
            "election": null,
            "id": 64,
            "name": "Mississauga—Malton"
          }
        ],
        "pollDivisionIds": [
          10139802
        ],
        "postalCode": "L4T3S3",
        "streetName": "MIDDLESHIRE",
        "streetDirectionId": null,
        "streetTypeId": "DR",
        "placeName": "MISSISSAUGA",
        "streetNameDisplayText": "MIDDLESHIRE DR, MISSISSAUGA"
      }
    ]
  },
  {
    "postal": "L4T3L4",
    "result": [
      {
        "electoralDistricts": [
          {
            "election": null,
            "id": 64,
            "name": "Mississauga—Malton"
          }
        ],
        "pollDivisionIds": [
          10139805
        ],
        "postalCode": "L4T3L4",
        "streetName": "DELMONTE",
        "streetDirectionId": null,
        "streetTypeId": "CRES",
        "placeName": "MISSISSAUGA",
        "streetNameDisplayText": "DELMONTE CRES, MISSISSAUGA"
      }
    ]
  },
  {
    "postal": "L4T9Y2",
    "result": []
  },
  {
    "postal": "L4T1E0",
    "result": []
  },
  {
    "postal": "L4T9A4",
    "result": []
  },
  {
    "postal": "L4T1L3",
    "result": []
  },
  {
    "postal": "L4T6N1",
    "result": []
  },
  {
    "postal": "L4T6G7",
    "result": []
  },
  {
    "postal": "L4T7W1",
    "result": []
  },
  {
    "postal": "L4T4M6",
    "result": [
      {
        "electoralDistricts": [
          {
            "election": null,
            "id": 64,
            "name": "Mississauga—Malton"
          }
        ],
        "pollDivisionIds": [
          10139806
        ],
        "postalCode": "L4T4M6",
        "streetName": "REXWOOD",
        "streetDirectionId": null,
        "streetTypeId": "RD",
        "placeName": "MISSISSAUGA",
        "streetNameDisplayText": "REXWOOD RD, MISSISSAUGA"
      }
    ]
  },
  {
    "postal": "L4T1K0",
    "result": []
  },
  {
    "postal": "L4T3E2",
    "result": [
      {
        "electoralDistricts": [
          {
            "election": null,
            "id": 64,
            "name": "Mississauga—Malton"
          }
        ],
        "pollDivisionIds": [
          10139802
        ],
        "postalCode": "L4T3E2",
        "streetName": "BRANDON GATE",
        "streetDirectionId": null,
        "streetTypeId": "DR",
        "placeName": "MISSISSAUGA",
        "streetNameDisplayText": "BRANDON GATE DR, MISSISSAUGA"
      }
    ]
  },
  {
    "postal": "L4T5H4",
    "result": []
  },
  {
    "postal": "L4T1K7",
    "result": [
      {
        "electoralDistricts": [
          {
            "election": null,
            "id": 64,
            "name": "Mississauga—Malton"
          }
        ],
        "pollDivisionIds": [
          10139809
        ],
        "postalCode": "L4T1K7",
        "streetName": "KNASEBORO",
        "streetDirectionId": null,
        "streetTypeId": "ST",
        "placeName": "MISSISSAUGA",
        "streetNameDisplayText": "KNASEBORO ST, MISSISSAUGA"
      }
    ]
  },
  {
    "postal": "L4T0H0",
    "result": []
  },
  {
    "postal": "L4T0J3",
    "result": []
  },
  {
    "postal": "L4T1X6",
    "result": [
      {
        "electoralDistricts": [
          {
            "election": null,
            "id": 64,
            "name": "Mississauga—Malton"
          }
        ],
        "pollDivisionIds": [
          10139809
        ],
        "postalCode": "L4T1X6",
        "streetName": "MORNING STAR",
        "streetDirectionId": null,
        "streetTypeId": "DR",
        "placeName": "MISSISSAUGA",
        "streetNameDisplayText": "MORNING STAR DR, MISSISSAUGA"
      }
    ]
  },
  {
    "postal": "L4T2Z6",
    "result": [
      {
        "electoralDistricts": [
          {
            "election": null,
            "id": 64,
            "name": "Mississauga—Malton"
          }
        ],
        "pollDivisionIds": [
          10139802
        ],
        "postalCode": "L4T2Z6",
        "streetName": "ROCKHILL",
        "streetDirectionId": null,
        "streetTypeId": "RD",
        "placeName": "MISSISSAUGA",
        "streetNameDisplayText": "ROCKHILL RD, MISSISSAUGA"
      }
    ]
  },
  {
    "postal": "L4T4R9",
    "result": []
  },
  {
    "postal": "L4T0W8",
    "result": []
  },
  {
    "postal": "L4T1L4",
    "result": [
      {
        "electoralDistricts": [
          {
            "election": null,
            "id": 64,
            "name": "Mississauga—Malton"
          }
        ],
        "pollDivisionIds": [
          10139809
        ],
        "postalCode": "L4T1L4",
        "streetName": "VICTORY",
        "streetDirectionId": null,
        "streetTypeId": "CRES",
        "placeName": "MISSISSAUGA",
        "streetNameDisplayText": "VICTORY CRES, MISSISSAUGA"
      }
    ]
  },
  {
    "postal": "L4T0C8",
    "result": []
  },
  {
    "postal": "L4T9X7",
    "result": []
  },
  {
    "postal": "L4T4T1",
    "result": []
  },
  {
    "postal": "L4T0M0",
    "result": []
  },
  {
    "postal": "L4T6A2",
    "result": []
  },
  {
    "postal": "L4T9S8",
    "result": []
  },
  {
    "postal": "L4T9T4",
    "result": []
  },
  {
    "postal": "L4T9Y4",
    "result": []
  },
  {
    "postal": "L4T6G5",
    "result": []
  },
  {
    "postal": "L4T6H9",
    "result": []
  },
  {
    "postal": "L4T2P3",
    "result": [
      {
        "electoralDistricts": [
          {
            "election": null,
            "id": 64,
            "name": "Mississauga—Malton"
          }
        ],
        "pollDivisionIds": [
          10139801
        ],
        "postalCode": "L4T2P3",
        "streetName": "LULLY",
        "streetDirectionId": null,
        "streetTypeId": "CRT",
        "placeName": "MISSISSAUGA",
        "streetNameDisplayText": "LULLY CRT, MISSISSAUGA"
      }
    ]
  },
  {
    "postal": "L4T1T6",
    "result": [
      {
        "electoralDistricts": [
          {
            "election": null,
            "id": 64,
            "name": "Mississauga—Malton"
          }
        ],
        "pollDivisionIds": [
          10139808
        ],
        "postalCode": "L4T1T6",
        "streetName": "ETUDE",
        "streetDirectionId": null,
        "streetTypeId": "DR",
        "placeName": "MISSISSAUGA",
        "streetNameDisplayText": "ETUDE DR, MISSISSAUGA"
      }
    ]
  },
  {
    "postal": "L4T4P6",
    "result": []
  },
  {
    "postal": "L4T3K1",
    "result": []
  },
  {
    "postal": "L4T6X4",
    "result": []
  },
  {
    "postal": "L4T4M8",
    "result": [
      {
        "electoralDistricts": [
          {
            "election": null,
            "id": 64,
            "name": "Mississauga—Malton"
          }
        ],
        "pollDivisionIds": [
          10139806
        ],
        "postalCode": "L4T4M8",
        "streetName": "REXWOOD",
        "streetDirectionId": null,
        "streetTypeId": "RD",
        "placeName": "MISSISSAUGA",
        "streetNameDisplayText": "REXWOOD RD, MISSISSAUGA"
      }
    ]
  },
  {
    "postal": "L4T2Y1",
    "result": [
      {
        "electoralDistricts": [
          {
            "election": null,
            "id": 64,
            "name": "Mississauga—Malton"
          }
        ],
        "pollDivisionIds": [
          10139802
        ],
        "postalCode": "L4T2Y1",
        "streetName": "DARCEL",
        "streetDirectionId": null,
        "streetTypeId": "AVE",
        "placeName": "MISSISSAUGA",
        "streetNameDisplayText": "DARCEL AVE, MISSISSAUGA"
      }
    ]
  },
  {
    "postal": "L4T6M1",
    "result": []
  },
  {
    "postal": "L4T5L8",
    "result": []
  },
  {
    "postal": "L4T3P6",
    "result": [
      {
        "electoralDistricts": [
          {
            "election": null,
            "id": 64,
            "name": "Mississauga—Malton"
          }
        ],
        "pollDivisionIds": [
          10139802
        ],
        "postalCode": "L4T3P6",
        "streetName": "WILDFERN",
        "streetDirectionId": null,
        "streetTypeId": "DR",
        "placeName": "MISSISSAUGA",
        "streetNameDisplayText": "WILDFERN DR, MISSISSAUGA"
      }
    ]
  },
  {
    "postal": "L4T9A5",
    "result": []
  },
  {
    "postal": "L4T7K1",
    "result": []
  },
  {
    "postal": "L4T3J4",
    "result": [
      {
        "electoralDistricts": [
          {
            "election": null,
            "id": 64,
            "name": "Mississauga—Malton"
          }
        ],
        "pollDivisionIds": [
          10139801
        ],
        "postalCode": "L4T3J4",
        "streetName": "DWIGGIN",
        "streetDirectionId": null,
        "streetTypeId": "AVE",
        "placeName": "MISSISSAUGA",
        "streetNameDisplayText": "DWIGGIN AVE, MISSISSAUGA"
      }
    ]
  },
  {
    "postal": "L4T5E7",
    "result": []
  },
  {
    "postal": "L4T3A7",
    "result": [
      {
        "electoralDistricts": [
          {
            "election": null,
            "id": 64,
            "name": "Mississauga—Malton"
          }
        ],
        "pollDivisionIds": [
          10139804
        ],
        "postalCode": "L4T3A7",
        "streetName": "MADIERA",
        "streetDirectionId": null,
        "streetTypeId": "RD",
        "placeName": "MISSISSAUGA",
        "streetNameDisplayText": "MADIERA RD, MISSISSAUGA"
      }
    ]
  },
  {
    "postal": "L4T1B9",
    "result": [
      {
        "electoralDistricts": [
          {
            "election": null,
            "id": 64,
            "name": "Mississauga—Malton"
          }
        ],
        "pollDivisionIds": [
          10139809
        ],
        "postalCode": "L4T1B9",
        "streetName": "BURLINGTON",
        "streetDirectionId": null,
        "streetTypeId": "ST",
        "placeName": "MISSISSAUGA",
        "streetNameDisplayText": "BURLINGTON ST, MISSISSAUGA"
      }
    ]
  },
  {
    "postal": "L4T9E8",
    "result": []
  },
  {
    "postal": "L4T1C9",
    "result": [
      {
        "electoralDistricts": [
          {
            "election": null,
            "id": 64,
            "name": "Mississauga—Malton"
          }
        ],
        "pollDivisionIds": [
          10139809
        ],
        "postalCode": "L4T1C9",
        "streetName": "HULL",
        "streetDirectionId": null,
        "streetTypeId": "ST",
        "placeName": "MISSISSAUGA",
        "streetNameDisplayText": "HULL ST, MISSISSAUGA"
      }
    ]
  },
  {
    "postal": "L4T3B5",
    "result": []
  },
  {
    "postal": "L4T8R0",
    "result": []
  },
  {
    "postal": "L4T3P2",
    "result": [
      {
        "electoralDistricts": [
          {
            "election": null,
            "id": 64,
            "name": "Mississauga—Malton"
          }
        ],
        "pollDivisionIds": [
          10139805
        ],
        "postalCode": "L4T3P2",
        "streetName": "BRANDON GATE",
        "streetDirectionId": null,
        "streetTypeId": "DR",
        "placeName": "MISSISSAUGA",
        "streetNameDisplayText": "BRANDON GATE DR, MISSISSAUGA"
      }
    ]
  },
  {
    "postal": "L4T5V4",
    "result": []
  },
  {
    "postal": "L4T4H0",
    "result": []
  },
  {
    "postal": "L4T4S7",
    "result": []
  },
  {
    "postal": "L4T6C2",
    "result": []
  },
  {
    "postal": "L4T8W3",
    "result": []
  },
  {
    "postal": "L4T4M5",
    "result": []
  },
  {
    "postal": "L4T5T1",
    "result": []
  },
  {
    "postal": "L4T3B3",
    "result": []
  },
  {
    "postal": "L4T6C6",
    "result": []
  },
  {
    "postal": "L4T7N8",
    "result": []
  },
  {
    "postal": "L4T2Y3",
    "result": [
      {
        "electoralDistricts": [
          {
            "election": null,
            "id": 64,
            "name": "Mississauga—Malton"
          }
        ],
        "pollDivisionIds": [
          10139804
        ],
        "postalCode": "L4T2Y3",
        "streetName": "DELLAPORT",
        "streetDirectionId": null,
        "streetTypeId": "DR",
        "placeName": "MISSISSAUGA",
        "streetNameDisplayText": "DELLAPORT DR, MISSISSAUGA"
      }
    ]
  },
  {
    "postal": "L4T2R6",
    "result": [
      {
        "electoralDistricts": [
          {
            "election": null,
            "id": 64,
            "name": "Mississauga—Malton"
          }
        ],
        "pollDivisionIds": [
          10139808
        ],
        "postalCode": "L4T2R6",
        "streetName": "CAMBRETT",
        "streetDirectionId": null,
        "streetTypeId": "DR",
        "placeName": "MISSISSAUGA",
        "streetNameDisplayText": "CAMBRETT DR, MISSISSAUGA"
      }
    ]
  },
  {
    "postal": "L4T7N3",
    "result": []
  },
  {
    "postal": "L4T8J2",
    "result": []
  },
  {
    "postal": "L4T6A9",
    "result": []
  },
  {
    "postal": "L4T3V2",
    "result": [
      {
        "electoralDistricts": [
          {
            "election": null,
            "id": 64,
            "name": "Mississauga—Malton"
          }
        ],
        "pollDivisionIds": [
          10139809
        ],
        "postalCode": "L4T3V2",
        "streetName": "TORBRAM",
        "streetDirectionId": null,
        "streetTypeId": "RD",
        "placeName": "MISSISSAUGA",
        "streetNameDisplayText": "TORBRAM RD, MISSISSAUGA"
      }
    ]
  },
  {
    "postal": "L4T2N3",
    "result": [
      {
        "electoralDistricts": [
          {
            "election": null,
            "id": 64,
            "name": "Mississauga—Malton"
          }
        ],
        "pollDivisionIds": [
          10139807
        ],
        "postalCode": "L4T2N3",
        "streetName": "TASMAN",
        "streetDirectionId": null,
        "streetTypeId": "CRT",
        "placeName": "MISSISSAUGA",
        "streetNameDisplayText": "TASMAN CRT, MISSISSAUGA"
      }
    ]
  },
  {
    "postal": "L4T1S5",
    "result": [
      {
        "electoralDistricts": [
          {
            "election": null,
            "id": 64,
            "name": "Mississauga—Malton"
          }
        ],
        "pollDivisionIds": [
          10139808
        ],
        "postalCode": "L4T1S5",
        "streetName": "CAPRICORN",
        "streetDirectionId": null,
        "streetTypeId": "CRES",
        "placeName": "MISSISSAUGA",
        "streetNameDisplayText": "CAPRICORN CRES, MISSISSAUGA"
      }
    ]
  },
  {
    "postal": "L4T4T7",
    "result": []
  },
  {
    "postal": "L4T6Y7",
    "result": []
  },
  {
    "postal": "L4T0W7",
    "result": []
  },
  {
    "postal": "L4T2W9",
    "result": [
      {
        "electoralDistricts": [
          {
            "election": null,
            "id": 64,
            "name": "Mississauga—Malton"
          }
        ],
        "pollDivisionIds": [
          10139806
        ],
        "postalCode": "L4T2W9",
        "streetName": "DARCEL",
        "streetDirectionId": null,
        "streetTypeId": "AVE",
        "placeName": "MISSISSAUGA",
        "streetNameDisplayText": "DARCEL AVE, MISSISSAUGA"
      }
    ]
  },
  {
    "postal": "L4T8V0",
    "result": []
  },
  {
    "postal": "L4T0H4",
    "result": []
  },
  {
    "postal": "L4T2T1",
    "result": [
      {
        "electoralDistricts": [
          {
            "election": null,
            "id": 64,
            "name": "Mississauga—Malton"
          }
        ],
        "pollDivisionIds": [
          10139808
        ],
        "postalCode": "L4T2T1",
        "streetName": "MINOTOLA",
        "streetDirectionId": null,
        "streetTypeId": "AVE",
        "placeName": "MISSISSAUGA",
        "streetNameDisplayText": "MINOTOLA AVE, MISSISSAUGA"
      }
    ]
  },
  {
    "postal": "L4T1B1",
    "result": [
      {
        "electoralDistricts": [
          {
            "election": null,
            "id": 64,
            "name": "Mississauga—Malton"
          }
        ],
        "pollDivisionIds": [
          10139804,
          10139810
        ],
        "postalCode": "L4T1B1",
        "streetName": "DERRY",
        "streetDirectionId": "E",
        "streetTypeId": "RD",
        "placeName": "MISSISSAUGA",
        "streetNameDisplayText": "DERRY RD E, MISSISSAUGA"
      }
    ]
  },
  {
    "postal": "L4T8B6",
    "result": []
  },
  {
    "postal": "L4T6H1",
    "result": []
  },
  {
    "postal": "L4T8T8",
    "result": []
  },
  {
    "postal": "L4T0T4",
    "result": []
  },
  {
    "postal": "L4T2C4",
    "result": [
      {
        "electoralDistricts": [
          {
            "election": null,
            "id": 64,
            "name": "Mississauga—Malton"
          }
        ],
        "pollDivisionIds": [
          10139807
        ],
        "postalCode": "L4T2C4",
        "streetName": "CHINOOK",
        "streetDirectionId": null,
        "streetTypeId": "DR",
        "placeName": "MISSISSAUGA",
        "streetNameDisplayText": "CHINOOK DR, MISSISSAUGA"
      }
    ]
  },
  {
    "postal": "L4T8N3",
    "result": []
  },
  {
    "postal": "L4T4L8",
    "result": []
  },
  {
    "postal": "L4T2B5",
    "result": [
      {
        "electoralDistricts": [
          {
            "election": null,
            "id": 64,
            "name": "Mississauga—Malton"
          }
        ],
        "pollDivisionIds": [
          10139807
        ],
        "postalCode": "L4T2B5",
        "streetName": "REDSTONE",
        "streetDirectionId": null,
        "streetTypeId": "RD",
        "placeName": "MISSISSAUGA",
        "streetNameDisplayText": "REDSTONE RD, MISSISSAUGA"
      }
    ]
  },
  {
    "postal": "L4T3H1",
    "result": [
      {
        "electoralDistricts": [
          {
            "election": null,
            "id": 64,
            "name": "Mississauga—Malton"
          }
        ],
        "pollDivisionIds": [
          10139807
        ],
        "postalCode": "L4T3H1",
        "streetName": "NETHERWOOD",
        "streetDirectionId": null,
        "streetTypeId": "RD",
        "placeName": "MISSISSAUGA",
        "streetNameDisplayText": "NETHERWOOD RD, MISSISSAUGA"
      }
    ]
  },
  {
    "postal": "L4T4Y1",
    "result": []
  },
  {
    "postal": "L4T7E2",
    "result": []
  },
  {
    "postal": "L4T2P5",
    "result": [
      {
        "electoralDistricts": [
          {
            "election": null,
            "id": 64,
            "name": "Mississauga—Malton"
          }
        ],
        "pollDivisionIds": [
          10139808
        ],
        "postalCode": "L4T2P5",
        "streetName": "VERNOR",
        "streetDirectionId": null,
        "streetTypeId": "DR",
        "placeName": "MISSISSAUGA",
        "streetNameDisplayText": "VERNOR DR, MISSISSAUGA"
      }
    ]
  },
  {
    "postal": "L4T8R7",
    "result": []
  },
  {
    "postal": "L4T9P1",
    "result": []
  },
  {
    "postal": "L4T3B8",
    "result": []
  },
  {
    "postal": "L4T3P7",
    "result": [
      {
        "electoralDistricts": [
          {
            "election": null,
            "id": 64,
            "name": "Mississauga—Malton"
          }
        ],
        "pollDivisionIds": [
          10139802
        ],
        "postalCode": "L4T3P7",
        "streetName": "WILDFERN",
        "streetDirectionId": null,
        "streetTypeId": "DR",
        "placeName": "MISSISSAUGA",
        "streetNameDisplayText": "WILDFERN DR, MISSISSAUGA"
      }
    ]
  },
  {
    "postal": "L4T9B2",
    "result": []
  },
  {
    "postal": "L4T6Z3",
    "result": []
  },
  {
    "postal": "L4T4N5",
    "result": []
  },
  {
    "postal": "L4T8T3",
    "result": []
  },
  {
    "postal": "L4T1V2",
    "result": [
      {
        "electoralDistricts": [
          {
            "election": null,
            "id": 64,
            "name": "Mississauga—Malton"
          }
        ],
        "pollDivisionIds": [
          10139809
        ],
        "postalCode": "L4T1V2",
        "streetName": "REDBANK",
        "streetDirectionId": null,
        "streetTypeId": "CRES",
        "placeName": "MISSISSAUGA",
        "streetNameDisplayText": "REDBANK CRES, MISSISSAUGA"
      }
    ]
  },
  {
    "postal": "L4T1Y0",
    "result": []
  },
  {
    "postal": "L4T3G6",
    "result": [
      {
        "electoralDistricts": [
          {
            "election": null,
            "id": 64,
            "name": "Mississauga—Malton"
          }
        ],
        "pollDivisionIds": [
          10139807
        ],
        "postalCode": "L4T3G6",
        "streetName": "COWIE",
        "streetDirectionId": null,
        "streetTypeId": "CRT",
        "placeName": "MISSISSAUGA",
        "streetNameDisplayText": "COWIE CRT, MISSISSAUGA"
      }
    ]
  },
  {
    "postal": "L4T3H7",
    "result": [
      {
        "electoralDistricts": [
          {
            "election": null,
            "id": 64,
            "name": "Mississauga—Malton"
          }
        ],
        "pollDivisionIds": [
          10139801
        ],
        "postalCode": "L4T3H7",
        "streetName": "ANAKA",
        "streetDirectionId": null,
        "streetTypeId": "DR",
        "placeName": "MISSISSAUGA",
        "streetNameDisplayText": "ANAKA DR, MISSISSAUGA"
      }
    ]
  },
  {
    "postal": "L4T7X8",
    "result": []
  },
  {
    "postal": "L4T0C7",
    "result": []
  },
  {
    "postal": "L4T0W9",
    "result": []
  },
  {
    "postal": "L4T8E6",
    "result": []
  },
  {
    "postal": "L4T9Z8",
    "result": []
  },
  {
    "postal": "L4T3P4",
    "result": [
      {
        "electoralDistricts": [
          {
            "election": null,
            "id": 64,
            "name": "Mississauga—Malton"
          }
        ],
        "pollDivisionIds": [
          10139802
        ],
        "postalCode": "L4T3P4",
        "streetName": "RHINEBANK",
        "streetDirectionId": null,
        "streetTypeId": "ST",
        "placeName": "MISSISSAUGA",
        "streetNameDisplayText": "RHINEBANK ST, MISSISSAUGA"
      }
    ]
  },
  {
    "postal": "L4T6L8",
    "result": []
  },
  {
    "postal": "L4T2R4",
    "result": [
      {
        "electoralDistricts": [
          {
            "election": null,
            "id": 64,
            "name": "Mississauga—Malton"
          }
        ],
        "pollDivisionIds": [
          10139808
        ],
        "postalCode": "L4T2R4",
        "streetName": "CAMBRETT",
        "streetDirectionId": null,
        "streetTypeId": "DR",
        "placeName": "MISSISSAUGA",
        "streetNameDisplayText": "CAMBRETT DR, MISSISSAUGA"
      }
    ]
  },
  {
    "postal": "L4T2W1",
    "result": [
      {
        "electoralDistricts": [
          {
            "election": null,
            "id": 64,
            "name": "Mississauga—Malton"
          }
        ],
        "pollDivisionIds": [
          10139806
        ],
        "postalCode": "L4T2W1",
        "streetName": "NETHERBRAE",
        "streetDirectionId": null,
        "streetTypeId": "RD",
        "placeName": "MISSISSAUGA",
        "streetNameDisplayText": "NETHERBRAE RD, MISSISSAUGA"
      }
    ]
  },
  {
    "postal": "L4T9H8",
    "result": []
  },
  {
    "postal": "L4T8X9",
    "result": []
  },
  {
    "postal": "L4T7H4",
    "result": []
  },
  {
    "postal": "L4T3J1",
    "result": [
      {
        "electoralDistricts": [
          {
            "election": null,
            "id": 64,
            "name": "Mississauga—Malton"
          }
        ],
        "pollDivisionIds": [
          10139801
        ],
        "postalCode": "L4T3J1",
        "streetName": "LOHENGRIN",
        "streetDirectionId": null,
        "streetTypeId": "CRT",
        "placeName": "MISSISSAUGA",
        "streetNameDisplayText": "LOHENGRIN CRT, MISSISSAUGA"
      }
    ]
  },
  {
    "postal": "L4T1P4",
    "result": [
      {
        "electoralDistricts": [
          {
            "election": null,
            "id": 64,
            "name": "Mississauga—Malton"
          }
        ],
        "pollDivisionIds": [
          10139809
        ],
        "postalCode": "L4T1P4",
        "streetName": "MERRITT",
        "streetDirectionId": null,
        "streetTypeId": "AVE",
        "placeName": "MISSISSAUGA",
        "streetNameDisplayText": "MERRITT AVE, MISSISSAUGA"
      }
    ]
  },
  {
    "postal": "L4T2A3",
    "result": [
      {
        "electoralDistricts": [
          {
            "election": null,
            "id": 64,
            "name": "Mississauga—Malton"
          }
        ],
        "pollDivisionIds": [
          10139803
        ],
        "postalCode": "L4T2A3",
        "streetName": "WYEWOOD",
        "streetDirectionId": null,
        "streetTypeId": "RD",
        "placeName": "MISSISSAUGA",
        "streetNameDisplayText": "WYEWOOD RD, MISSISSAUGA"
      }
    ]
  },
  {
    "postal": "L4T0Z1",
    "result": []
  },
  {
    "postal": "L4T1C1",
    "result": [
      {
        "electoralDistricts": [
          {
            "election": null,
            "id": 64,
            "name": "Mississauga—Malton"
          }
        ],
        "pollDivisionIds": [
          10139809
        ],
        "postalCode": "L4T1C1",
        "streetName": "BURLINGTON",
        "streetDirectionId": null,
        "streetTypeId": "ST",
        "placeName": "MISSISSAUGA",
        "streetNameDisplayText": "BURLINGTON ST, MISSISSAUGA"
      }
    ]
  },
  {
    "postal": "L4T0H3",
    "result": []
  },
  {
    "postal": "L4T7B0",
    "result": []
  },
  {
    "postal": "L4T5K2",
    "result": []
  },
  {
    "postal": "L4T1E9",
    "result": [
      {
        "electoralDistricts": [
          {
            "election": null,
            "id": 64,
            "name": "Mississauga—Malton"
          }
        ],
        "pollDivisionIds": [
          10139809
        ],
        "postalCode": "L4T1E9",
        "streetName": "BEVERLEY",
        "streetDirectionId": null,
        "streetTypeId": "ST",
        "placeName": "MISSISSAUGA",
        "streetNameDisplayText": "BEVERLEY ST, MISSISSAUGA"
      }
    ]
  },
  {
    "postal": "L4T9W7",
    "result": []
  },
  {
    "postal": "L4T5W6",
    "result": []
  },
  {
    "postal": "L4T6S6",
    "result": []
  },
  {
    "postal": "L4T2P8",
    "result": [
      {
        "electoralDistricts": [
          {
            "election": null,
            "id": 64,
            "name": "Mississauga—Malton"
          }
        ],
        "pollDivisionIds": [
          10139808
        ],
        "postalCode": "L4T2P8",
        "streetName": "SHALLFORD",
        "streetDirectionId": null,
        "streetTypeId": "RD",
        "placeName": "MISSISSAUGA",
        "streetNameDisplayText": "SHALLFORD RD, MISSISSAUGA"
      }
    ]
  },
  {
    "postal": "L4T4P8",
    "result": []
  },
  {
    "postal": "L4T0V9",
    "result": []
  },
  {
    "postal": "L4T5Y2",
    "result": []
  },
  {
    "postal": "L4T7Z7",
    "result": []
  },
  {
    "postal": "L4T6Y8",
    "result": []
  },
  {
    "postal": "L4T2G7",
    "result": [
      {
        "electoralDistricts": [
          {
            "election": null,
            "id": 64,
            "name": "Mississauga—Malton"
          }
        ],
        "pollDivisionIds": [
          10139809
        ],
        "postalCode": "L4T2G7",
        "streetName": "AIRPORT",
        "streetDirectionId": null,
        "streetTypeId": "RD",
        "placeName": "MISSISSAUGA",
        "streetNameDisplayText": "AIRPORT RD, MISSISSAUGA"
      }
    ]
  },
  {
    "postal": "L4T8C1",
    "result": []
  },
  {
    "postal": "L4T5C5",
    "result": []
  },
  {
    "postal": "L4T2X8",
    "result": [
      {
        "electoralDistricts": [
          {
            "election": null,
            "id": 64,
            "name": "Mississauga—Malton"
          }
        ],
        "pollDivisionIds": [
          10139803
        ],
        "postalCode": "L4T2X8",
        "streetName": "DARCEL",
        "streetDirectionId": null,
        "streetTypeId": "AVE",
        "placeName": "MISSISSAUGA",
        "streetNameDisplayText": "DARCEL AVE, MISSISSAUGA"
      }
    ]
  },
  {
    "postal": "L4T1W5",
    "result": [
      {
        "electoralDistricts": [
          {
            "election": null,
            "id": 64,
            "name": "Mississauga—Malton"
          }
        ],
        "pollDivisionIds": [
          10139808
        ],
        "postalCode": "L4T1W5",
        "streetName": "DRIFTON",
        "streetDirectionId": null,
        "streetTypeId": "CRES",
        "placeName": "MISSISSAUGA",
        "streetNameDisplayText": "DRIFTON CRES, MISSISSAUGA"
      }
    ]
  },
  {
    "postal": "L4T7G0",
    "result": []
  },
  {
    "postal": "L4T8J8",
    "result": []
  },
  {
    "postal": "L4T3Y0",
    "result": []
  },
  {
    "postal": "L4T9T7",
    "result": []
  },
  {
    "postal": "L4T5P4",
    "result": []
  },
  {
    "postal": "L4T4B0",
    "result": []
  },
  {
    "postal": "L4T9N8",
    "result": []
  },
  {
    "postal": "L4T4A7",
    "result": []
  },
  {
    "postal": "L4T4H9",
    "result": [
      {
        "electoralDistricts": [
          {
            "election": null,
            "id": 64,
            "name": "Mississauga—Malton"
          }
        ],
        "pollDivisionIds": [
          10139809
        ],
        "postalCode": "L4T4H9",
        "streetName": "YORK",
        "streetDirectionId": null,
        "streetTypeId": "ST",
        "placeName": "MISSISSAUGA",
        "streetNameDisplayText": "YORK ST, MISSISSAUGA"
      }
    ]
  },
  {
    "postal": "L4T6X1",
    "result": []
  },
  {
    "postal": "L4T9Y7",
    "result": []
  },
  {
    "postal": "L4T2Y5",
    "result": [
      {
        "electoralDistricts": [
          {
            "election": null,
            "id": 64,
            "name": "Mississauga—Malton"
          }
        ],
        "pollDivisionIds": [
          10139804
        ],
        "postalCode": "L4T2Y5",
        "streetName": "TOPPING",
        "streetDirectionId": null,
        "streetTypeId": "RD",
        "placeName": "MISSISSAUGA",
        "streetNameDisplayText": "TOPPING RD, MISSISSAUGA"
      }
    ]
  },
  {
    "postal": "L4T8L7",
    "result": []
  },
  {
    "postal": "L4T2A8",
    "result": [
      {
        "electoralDistricts": [
          {
            "election": null,
            "id": 64,
            "name": "Mississauga—Malton"
          }
        ],
        "pollDivisionIds": [
          10139807
        ],
        "postalCode": "L4T2A8",
        "streetName": "HOMESIDE",
        "streetDirectionId": null,
        "streetTypeId": "GDNS",
        "placeName": "MISSISSAUGA",
        "streetNameDisplayText": "HOMESIDE GDNS, MISSISSAUGA"
      }
    ]
  },
  {
    "postal": "L4T2K9",
    "result": [
      {
        "electoralDistricts": [
          {
            "election": null,
            "id": 64,
            "name": "Mississauga—Malton"
          }
        ],
        "pollDivisionIds": [
          10139809
        ],
        "postalCode": "L4T2K9",
        "streetName": "LANCASTER",
        "streetDirectionId": null,
        "streetTypeId": "AVE",
        "placeName": "MISSISSAUGA",
        "streetNameDisplayText": "LANCASTER AVE, MISSISSAUGA"
      }
    ]
  },
  {
    "postal": "L4T3E5",
    "result": [
      {
        "electoralDistricts": [
          {
            "election": null,
            "id": 64,
            "name": "Mississauga—Malton"
          }
        ],
        "pollDivisionIds": [
          10139802
        ],
        "postalCode": "L4T3E5",
        "streetName": "BRANDON GATE",
        "streetDirectionId": null,
        "streetTypeId": "DR",
        "placeName": "MISSISSAUGA",
        "streetNameDisplayText": "BRANDON GATE DR, MISSISSAUGA"
      }
    ]
  },
  {
    "postal": "L4T8N6",
    "result": []
  },
  {
    "postal": "L4T8J4",
    "result": []
  },
  {
    "postal": "L4T4R7",
    "result": []
  },
  {
    "postal": "L4T9K1",
    "result": []
  },
  {
    "postal": "L4T8E1",
    "result": []
  },
  {
    "postal": "L4T0R1",
    "result": []
  },
  {
    "postal": "L4T4J3",
    "result": [
      {
        "electoralDistricts": [
          {
            "election": null,
            "id": 64,
            "name": "Mississauga—Malton"
          }
        ],
        "pollDivisionIds": [
          10139809
        ],
        "postalCode": "L4T4J3",
        "streetName": "AIRPORT",
        "streetDirectionId": null,
        "streetTypeId": "RD",
        "placeName": "MISSISSAUGA",
        "streetNameDisplayText": "AIRPORT RD, MISSISSAUGA"
      }
    ]
  },
  {
    "postal": "L4T7E7",
    "result": []
  },
  {
    "postal": "L4T0J0",
    "result": []
  },
  {
    "postal": "L4T7R8",
    "result": []
  },
  {
    "postal": "L4T9X0",
    "result": []
  },
  {
    "postal": "L4T7P6",
    "result": []
  },
  {
    "postal": "L4T0R7",
    "result": []
  },
  {
    "postal": "L4T5W1",
    "result": []
  },
  {
    "postal": "L4T0K4",
    "result": []
  },
  {
    "postal": "L4T7N9",
    "result": []
  },
  {
    "postal": "L4T1N0",
    "result": []
  },
  {
    "postal": "L4T6P3",
    "result": []
  },
  {
    "postal": "L4T5A1",
    "result": []
  },
  {
    "postal": "L4T9M9",
    "result": []
  },
  {
    "postal": "L4T7T6",
    "result": []
  },
  {
    "postal": "L4T3X0",
    "result": []
  },
  {
    "postal": "L4T2T0",
    "result": []
  },
  {
    "postal": "L4T5X9",
    "result": []
  },
  {
    "postal": "L4T2R3",
    "result": [
      {
        "electoralDistricts": [
          {
            "election": null,
            "id": 64,
            "name": "Mississauga—Malton"
          }
        ],
        "pollDivisionIds": [
          10139808
        ],
        "postalCode": "L4T2R3",
        "streetName": "CAMBRETT",
        "streetDirectionId": null,
        "streetTypeId": "DR",
        "placeName": "MISSISSAUGA",
        "streetNameDisplayText": "CAMBRETT DR, MISSISSAUGA"
      }
    ]
  },
  {
    "postal": "L4T5N2",
    "result": []
  },
  {
    "postal": "L4T4Y7",
    "result": []
  },
  {
    "postal": "L4T7M0",
    "result": []
  },
  {
    "postal": "L4T8P3",
    "result": []
  },
  {
    "postal": "L4T3N3",
    "result": [
      {
        "electoralDistricts": [
          {
            "election": null,
            "id": 64,
            "name": "Mississauga—Malton"
          }
        ],
        "pollDivisionIds": [
          10139801
        ],
        "postalCode": "L4T3N3",
        "streetName": "BRANDON GATE",
        "streetDirectionId": null,
        "streetTypeId": "DR",
        "placeName": "MISSISSAUGA",
        "streetNameDisplayText": "BRANDON GATE DR, MISSISSAUGA"
      }
    ]
  },
  {
    "postal": "L4T7S3",
    "result": []
  },
  {
    "postal": "L4T3V9",
    "result": [
      {
        "electoralDistricts": [
          {
            "election": null,
            "id": 64,
            "name": "Mississauga—Malton"
          }
        ],
        "pollDivisionIds": [
          10139802
        ],
        "postalCode": "L4T3V9",
        "streetName": "BRANDON GATE",
        "streetDirectionId": null,
        "streetTypeId": "DR",
        "placeName": "MISSISSAUGA",
        "streetNameDisplayText": "BRANDON GATE DR, MISSISSAUGA"
      }
    ]
  },
  {
    "postal": "L4T9N7",
    "result": []
  },
  {
    "postal": "L4T0G4",
    "result": []
  },
  {
    "postal": "L4T2E2",
    "result": [
      {
        "electoralDistricts": [
          {
            "election": null,
            "id": 64,
            "name": "Mississauga—Malton"
          }
        ],
        "pollDivisionIds": [
          10139801
        ],
        "postalCode": "L4T2E2",
        "streetName": "CHIPLEY",
        "streetDirectionId": null,
        "streetTypeId": "CRES",
        "placeName": "MISSISSAUGA",
        "streetNameDisplayText": "CHIPLEY CRES, MISSISSAUGA"
      }
    ]
  },
  {
    "postal": "L4T7W8",
    "result": []
  },
  {
    "postal": "L4T7M5",
    "result": []
  },
  {
    "postal": "L4T5W8",
    "result": []
  },
  {
    "postal": "L4T5E5",
    "result": []
  },
  {
    "postal": "L4T1P9",
    "result": [
      {
        "electoralDistricts": [
          {
            "election": null,
            "id": 64,
            "name": "Mississauga—Malton"
          }
        ],
        "pollDivisionIds": [
          10139808
        ],
        "postalCode": "L4T1P9",
        "streetName": "MICHAUD",
        "streetDirectionId": null,
        "streetTypeId": "AVE",
        "placeName": "MISSISSAUGA",
        "streetNameDisplayText": "MICHAUD AVE, MISSISSAUGA"
      }
    ]
  },
  {
    "postal": "L4T8V8",
    "result": []
  },
  {
    "postal": "L4T9G8",
    "result": []
  },
  {
    "postal": "L4T8H9",
    "result": []
  },
  {
    "postal": "L4T1Z1",
    "result": [
      {
        "electoralDistricts": [
          {
            "election": null,
            "id": 64,
            "name": "Mississauga—Malton"
          }
        ],
        "pollDivisionIds": [
          10139805
        ],
        "postalCode": "L4T1Z1",
        "streetName": "MORNING STAR",
        "streetDirectionId": null,
        "streetTypeId": "DR",
        "placeName": "MISSISSAUGA",
        "streetNameDisplayText": "MORNING STAR DR, MISSISSAUGA"
      }
    ]
  },
  {
    "postal": "L4T8M3",
    "result": []
  },
  {
    "postal": "L4T5H6",
    "result": []
  },
  {
    "postal": "L4T7W7",
    "result": []
  },
  {
    "postal": "L4T4L0",
    "result": []
  },
  {
    "postal": "L4T2N1",
    "result": [
      {
        "electoralDistricts": [
          {
            "election": null,
            "id": 64,
            "name": "Mississauga—Malton"
          }
        ],
        "pollDivisionIds": [
          10139809
        ],
        "postalCode": "L4T2N1",
        "streetName": "PICKFAIR",
        "streetDirectionId": null,
        "streetTypeId": "DR",
        "placeName": "MISSISSAUGA",
        "streetNameDisplayText": "PICKFAIR DR, MISSISSAUGA"
      }
    ]
  },
  {
    "postal": "L4T2H4",
    "result": []
  },
  {
    "postal": "L4T5C8",
    "result": []
  },
  {
    "postal": "L4T8B0",
    "result": []
  },
  {
    "postal": "L4T1T4",
    "result": [
      {
        "electoralDistricts": [
          {
            "election": null,
            "id": 64,
            "name": "Mississauga—Malton"
          }
        ],
        "pollDivisionIds": [
          10139808
        ],
        "postalCode": "L4T1T4",
        "streetName": "ETUDE",
        "streetDirectionId": null,
        "streetTypeId": "DR",
        "placeName": "MISSISSAUGA",
        "streetNameDisplayText": "ETUDE DR, MISSISSAUGA"
      }
    ]
  },
  {
    "postal": "L4T7N7",
    "result": []
  },
  {
    "postal": "L4T4L3",
    "result": [
      {
        "electoralDistricts": [
          {
            "election": null,
            "id": 64,
            "name": "Mississauga—Malton"
          }
        ],
        "pollDivisionIds": [
          10139806
        ],
        "postalCode": "L4T4L3",
        "streetName": "REXWOOD",
        "streetDirectionId": null,
        "streetTypeId": "RD",
        "placeName": "MISSISSAUGA",
        "streetNameDisplayText": "REXWOOD RD, MISSISSAUGA"
      }
    ]
  },
  {
    "postal": "L4T2N2",
    "result": [
      {
        "electoralDistricts": [
          {
            "election": null,
            "id": 64,
            "name": "Mississauga—Malton"
          }
        ],
        "pollDivisionIds": [
          10139807
        ],
        "postalCode": "L4T2N2",
        "streetName": "TASMAN",
        "streetDirectionId": null,
        "streetTypeId": "CRT",
        "placeName": "MISSISSAUGA",
        "streetNameDisplayText": "TASMAN CRT, MISSISSAUGA"
      }
    ]
  },
  {
    "postal": "L4T4N8",
    "result": []
  },
  {
    "postal": "L4T3M5",
    "result": [
      {
        "electoralDistricts": [
          {
            "election": null,
            "id": 64,
            "name": "Mississauga—Malton"
          }
        ],
        "pollDivisionIds": [
          10139809
        ],
        "postalCode": "L4T3M5",
        "streetName": "DREW",
        "streetDirectionId": null,
        "streetTypeId": "RD",
        "placeName": "MISSISSAUGA",
        "streetNameDisplayText": "DREW RD, MISSISSAUGA"
      }
    ]
  },
  {
    "postal": "L4T6H7",
    "result": []
  },
  {
    "postal": "L4T8Y8",
    "result": []
  },
  {
    "postal": "L4T5R9",
    "result": []
  },
  {
    "postal": "L4T8G3",
    "result": []
  },
  {
    "postal": "L4T4N7",
    "result": []
  },
  {
    "postal": "L4T0B9",
    "result": []
  },
  {
    "postal": "L4T9K7",
    "result": []
  },
  {
    "postal": "L4T9K9",
    "result": []
  },
  {
    "postal": "L4T3Z2",
    "result": []
  },
  {
    "postal": "L4T6W7",
    "result": []
  },
  {
    "postal": "L4T0P1",
    "result": []
  },
  {
    "postal": "L4T3A0",
    "result": []
  },
  {
    "postal": "L4T8L9",
    "result": []
  },
  {
    "postal": "L4T6X0",
    "result": []
  },
  {
    "postal": "L4T3E9",
    "result": []
  },
  {
    "postal": "L4T0S5",
    "result": []
  },
  {
    "postal": "L4T1A2",
    "result": [
      {
        "electoralDistricts": [
          {
            "election": null,
            "id": 64,
            "name": "Mississauga—Malton"
          }
        ],
        "pollDivisionIds": [
          10139809
        ],
        "postalCode": "L4T1A2",
        "streetName": "DERRY",
        "streetDirectionId": "E",
        "streetTypeId": "RD",
        "placeName": "MISSISSAUGA",
        "streetNameDisplayText": "DERRY RD E, MISSISSAUGA"
      }
    ]
  },
  {
    "postal": "L4T5V8",
    "result": []
  },
  {
    "postal": "L4T8C5",
    "result": []
  },
  {
    "postal": "L4T6N0",
    "result": []
  },
  {
    "postal": "L4T9E6",
    "result": []
  },
  {
    "postal": "L4T5J7",
    "result": []
  },
  {
    "postal": "L4T2R2",
    "result": [
      {
        "electoralDistricts": [
          {
            "election": null,
            "id": 64,
            "name": "Mississauga—Malton"
          }
        ],
        "pollDivisionIds": [
          10139808
        ],
        "postalCode": "L4T2R2",
        "streetName": "HONEYSUCKLE",
        "streetDirectionId": null,
        "streetTypeId": "AVE",
        "placeName": "MISSISSAUGA",
        "streetNameDisplayText": "HONEYSUCKLE AVE, MISSISSAUGA"
      },
      {
        "electoralDistricts": [
          {
            "election": null,
            "id": 64,
            "name": "Mississauga—Malton"
          }
        ],
        "pollDivisionIds": [
          10139803
        ],
        "postalCode": "L4T2R2",
        "streetName": "TEESWATER",
        "streetDirectionId": null,
        "streetTypeId": "RD",
        "placeName": "MISSISSAUGA",
        "streetNameDisplayText": "TEESWATER RD, MISSISSAUGA"
      }
    ]
  },
  {
    "postal": "L4T0P5",
    "result": []
  },
  {
    "postal": "L4T5A7",
    "result": []
  },
  {
    "postal": "L4T1G1",
    "result": [
      {
        "electoralDistricts": [
          {
            "election": null,
            "id": 64,
            "name": "Mississauga—Malton"
          }
        ],
        "pollDivisionIds": [
          10139809
        ],
        "postalCode": "L4T1G1",
        "streetName": "DREW",
        "streetDirectionId": null,
        "streetTypeId": "RD",
        "placeName": "MISSISSAUGA",
        "streetNameDisplayText": "DREW RD, MISSISSAUGA"
      }
    ]
  },
  {
    "postal": "L4T9R6",
    "result": []
  },
  {
    "postal": "L4T4Z9",
    "result": []
  },
  {
    "postal": "L4T1V5",
    "result": [
      {
        "electoralDistricts": [
          {
            "election": null,
            "id": 64,
            "name": "Mississauga—Malton"
          }
        ],
        "pollDivisionIds": [
          10139809
        ],
        "postalCode": "L4T1V5",
        "streetName": "HAROLD SHEARD",
        "streetDirectionId": null,
        "streetTypeId": "DR",
        "placeName": "MISSISSAUGA",
        "streetNameDisplayText": "HAROLD SHEARD DR, MISSISSAUGA"
      }
    ]
  },
  {
    "postal": "L4T9Y5",
    "result": []
  },
  {
    "postal": "L4T1P2",
    "result": [
      {
        "electoralDistricts": [
          {
            "election": null,
            "id": 64,
            "name": "Mississauga—Malton"
          }
        ],
        "pollDivisionIds": [
          10139809
        ],
        "postalCode": "L4T1P2",
        "streetName": "MERRITT",
        "streetDirectionId": null,
        "streetTypeId": "AVE",
        "placeName": "MISSISSAUGA",
        "streetNameDisplayText": "MERRITT AVE, MISSISSAUGA"
      }
    ]
  },
  {
    "postal": "L4T5X0",
    "result": []
  },
  {
    "postal": "L4T7B8",
    "result": []
  },
  {
    "postal": "L4T0C6",
    "result": []
  },
  {
    "postal": "L4T6G1",
    "result": []
  },
  {
    "postal": "L4T3K3",
    "result": [
      {
        "electoralDistricts": [
          {
            "election": null,
            "id": 64,
            "name": "Mississauga—Malton"
          }
        ],
        "pollDivisionIds": [
          10139805
        ],
        "postalCode": "L4T3K3",
        "streetName": "BRANDON GATE",
        "streetDirectionId": null,
        "streetTypeId": "DR",
        "placeName": "MISSISSAUGA",
        "streetNameDisplayText": "BRANDON GATE DR, MISSISSAUGA"
      }
    ]
  },
  {
    "postal": "L4T9R0",
    "result": []
  },
  {
    "postal": "L4T4R8",
    "result": []
  },
  {
    "postal": "L4T5P9",
    "result": []
  },
  {
    "postal": "L4T8N4",
    "result": []
  },
  {
    "postal": "L4T8H4",
    "result": []
  },
  {
    "postal": "L4T4V1",
    "result": []
  },
  {
    "postal": "L4T1K5",
    "result": [
      {
        "electoralDistricts": [
          {
            "election": null,
            "id": 64,
            "name": "Mississauga—Malton"
          }
        ],
        "pollDivisionIds": [
          10139809
        ],
        "postalCode": "L4T1K5",
        "streetName": "SLEDMAN",
        "streetDirectionId": null,
        "streetTypeId": "ST",
        "placeName": "MISSISSAUGA",
        "streetNameDisplayText": "SLEDMAN ST, MISSISSAUGA"
      }
    ]
  },
  {
    "postal": "L4T1Z5",
    "result": [
      {
        "electoralDistricts": [
          {
            "election": null,
            "id": 64,
            "name": "Mississauga—Malton"
          }
        ],
        "pollDivisionIds": [
          10139807
        ],
        "postalCode": "L4T1Z5",
        "streetName": "LAFONTAINE",
        "streetDirectionId": null,
        "streetTypeId": "RD",
        "placeName": "MISSISSAUGA",
        "streetNameDisplayText": "LAFONTAINE RD, MISSISSAUGA"
      }
    ]
  },
  {
    "postal": "L4T9L9",
    "result": []
  },
  {
    "postal": "L4T5L2",
    "result": []
  },
  {
    "postal": "L4T0M2",
    "result": []
  },
  {
    "postal": "L4T1K8",
    "result": [
      {
        "electoralDistricts": [
          {
            "election": null,
            "id": 64,
            "name": "Mississauga—Malton"
          }
        ],
        "pollDivisionIds": [
          10139809
        ],
        "postalCode": "L4T1K8",
        "streetName": "KNASEBORO",
        "streetDirectionId": null,
        "streetTypeId": "ST",
        "placeName": "MISSISSAUGA",
        "streetNameDisplayText": "KNASEBORO ST, MISSISSAUGA"
      }
    ]
  },
  {
    "postal": "L4T3M7",
    "result": [
      {
        "electoralDistricts": [
          {
            "election": null,
            "id": 64,
            "name": "Mississauga—Malton"
          }
        ],
        "pollDivisionIds": [
          10139809
        ],
        "postalCode": "L4T3M7",
        "streetName": "YORK",
        "streetDirectionId": null,
        "streetTypeId": "ST",
        "placeName": "MISSISSAUGA",
        "streetNameDisplayText": "YORK ST, MISSISSAUGA"
      }
    ]
  },
  {
    "postal": "L4T1B2",
    "result": [
      {
        "electoralDistricts": [
          {
            "election": null,
            "id": 64,
            "name": "Mississauga—Malton"
          }
        ],
        "pollDivisionIds": [
          10139804
        ],
        "postalCode": "L4T1B2",
        "streetName": "DERRY",
        "streetDirectionId": "E",
        "streetTypeId": "RD",
        "placeName": "MISSISSAUGA",
        "streetNameDisplayText": "DERRY RD E, MISSISSAUGA"
      }
    ]
  },
  {
    "postal": "L4T0H9",
    "result": []
  },
  {
    "postal": "L4T8M4",
    "result": []
  },
  {
    "postal": "L4T2M5",
    "result": [
      {
        "electoralDistricts": [
          {
            "election": null,
            "id": 64,
            "name": "Mississauga—Malton"
          }
        ],
        "pollDivisionIds": [
          10139808
        ],
        "postalCode": "L4T2M5",
        "streetName": "CODLIN",
        "streetDirectionId": null,
        "streetTypeId": "AVE",
        "placeName": "MISSISSAUGA",
        "streetNameDisplayText": "CODLIN AVE, MISSISSAUGA"
      }
    ]
  },
  {
    "postal": "L4T0T9",
    "result": []
  },
  {
    "postal": "L4T3P1",
    "result": [
      {
        "electoralDistricts": [
          {
            "election": null,
            "id": 64,
            "name": "Mississauga—Malton"
          }
        ],
        "pollDivisionIds": [
          10139802
        ],
        "postalCode": "L4T3P1",
        "streetName": "BRANDON GATE",
        "streetDirectionId": null,
        "streetTypeId": "DR",
        "placeName": "MISSISSAUGA",
        "streetNameDisplayText": "BRANDON GATE DR, MISSISSAUGA"
      }
    ]
  },
  {
    "postal": "L4T1R6",
    "result": [
      {
        "electoralDistricts": [
          {
            "election": null,
            "id": 64,
            "name": "Mississauga—Malton"
          }
        ],
        "pollDivisionIds": [
          10139809
        ],
        "postalCode": "L4T1R6",
        "streetName": "CHURCHILL",
        "streetDirectionId": null,
        "streetTypeId": "AVE",
        "placeName": "MISSISSAUGA",
        "streetNameDisplayText": "CHURCHILL AVE, MISSISSAUGA"
      }
    ]
  },
  {
    "postal": "L4T9V5",
    "result": []
  },
  {
    "postal": "L4T9T0",
    "result": []
  },
  {
    "postal": "L4T0A9",
    "result": []
  },
  {
    "postal": "L4T1M3",
    "result": [
      {
        "electoralDistricts": [
          {
            "election": null,
            "id": 64,
            "name": "Mississauga—Malton"
          }
        ],
        "pollDivisionIds": [
          10139808
        ],
        "postalCode": "L4T1M3",
        "streetName": "JUSTINE",
        "streetDirectionId": null,
        "streetTypeId": "DR",
        "placeName": "MISSISSAUGA",
        "streetNameDisplayText": "JUSTINE DR, MISSISSAUGA"
      }
    ]
  },
  {
    "postal": "L4T1W8",
    "result": [
      {
        "electoralDistricts": [
          {
            "election": null,
            "id": 64,
            "name": "Mississauga—Malton"
          }
        ],
        "pollDivisionIds": [
          10139808
        ],
        "postalCode": "L4T1W8",
        "streetName": "LEHIGH",
        "streetDirectionId": null,
        "streetTypeId": "CRES",
        "placeName": "MISSISSAUGA",
        "streetNameDisplayText": "LEHIGH CRES, MISSISSAUGA"
      }
    ]
  },
  {
    "postal": "L4T9J1",
    "result": []
  },
  {
    "postal": "L4T8N5",
    "result": []
  },
  {
    "postal": "L4T5X1",
    "result": []
  },
  {
    "postal": "L4T6S2",
    "result": []
  },
  {
    "postal": "L4T2A2",
    "result": [
      {
        "electoralDistricts": [
          {
            "election": null,
            "id": 64,
            "name": "Mississauga—Malton"
          }
        ],
        "pollDivisionIds": [
          10139803
        ],
        "postalCode": "L4T2A2",
        "streetName": "WYEWOOD",
        "streetDirectionId": null,
        "streetTypeId": "RD",
        "placeName": "MISSISSAUGA",
        "streetNameDisplayText": "WYEWOOD RD, MISSISSAUGA"
      }
    ]
  },
  {
    "postal": "L4T6A6",
    "result": []
  },
  {
    "postal": "L4T0S3",
    "result": []
  },
  {
    "postal": "L4T3E7",
    "result": [
      {
        "electoralDistricts": [
          {
            "election": null,
            "id": 64,
            "name": "Mississauga—Malton"
          }
        ],
        "pollDivisionIds": [
          10139802
        ],
        "postalCode": "L4T3E7",
        "streetName": "MONICA",
        "streetDirectionId": null,
        "streetTypeId": "DR",
        "placeName": "MISSISSAUGA",
        "streetNameDisplayText": "MONICA DR, MISSISSAUGA"
      }
    ]
  },
  {
    "postal": "L4T5R7",
    "result": []
  },
  {
    "postal": "L4T3R6",
    "result": [
      {
        "electoralDistricts": [
          {
            "election": null,
            "id": 64,
            "name": "Mississauga—Malton"
          }
        ],
        "pollDivisionIds": [
          10139805
        ],
        "postalCode": "L4T3R6",
        "streetName": "LEESBURG",
        "streetDirectionId": null,
        "streetTypeId": "ST",
        "placeName": "MISSISSAUGA",
        "streetNameDisplayText": "LEESBURG ST, MISSISSAUGA"
      }
    ]
  },
  {
    "postal": "L4T6K4",
    "result": []
  },
  {
    "postal": "L4T2W5",
    "result": [
      {
        "electoralDistricts": [
          {
            "election": null,
            "id": 64,
            "name": "Mississauga—Malton"
          }
        ],
        "pollDivisionIds": [
          10139806
        ],
        "postalCode": "L4T2W5",
        "streetName": "DARCEL",
        "streetDirectionId": null,
        "streetTypeId": "AVE",
        "placeName": "MISSISSAUGA",
        "streetNameDisplayText": "DARCEL AVE, MISSISSAUGA"
      }
    ]
  },
  {
    "postal": "L4T8W4",
    "result": []
  },
  {
    "postal": "L4T9C2",
    "result": []
  },
  {
    "postal": "L4T2C0",
    "result": []
  },
  {
    "postal": "L4T0E1",
    "result": []
  },
  {
    "postal": "L4T1K9",
    "result": [
      {
        "electoralDistricts": [
          {
            "election": null,
            "id": 64,
            "name": "Mississauga—Malton"
          }
        ],
        "pollDivisionIds": [
          10139809
        ],
        "postalCode": "L4T1K9",
        "streetName": "KNASEBORO",
        "streetDirectionId": null,
        "streetTypeId": "ST",
        "placeName": "MISSISSAUGA",
        "streetNameDisplayText": "KNASEBORO ST, MISSISSAUGA"
      }
    ]
  },
  {
    "postal": "L4T1G7",
    "result": [
      {
        "electoralDistricts": [
          {
            "election": null,
            "id": 64,
            "name": "Mississauga—Malton"
          }
        ],
        "pollDivisionIds": [
          10139809
        ],
        "postalCode": "L4T1G7",
        "streetName": "TORBRAM",
        "streetDirectionId": null,
        "streetTypeId": "RD",
        "placeName": "MISSISSAUGA",
        "streetNameDisplayText": "TORBRAM RD, MISSISSAUGA"
      }
    ]
  },
  {
    "postal": "L4T4E9",
    "result": [
      {
        "electoralDistricts": [
          {
            "election": null,
            "id": 64,
            "name": "Mississauga—Malton"
          }
        ],
        "pollDivisionIds": [
          10139804
        ],
        "postalCode": "L4T4E9",
        "streetName": "DALEWOOD",
        "streetDirectionId": null,
        "streetTypeId": "DR",
        "placeName": "MISSISSAUGA",
        "streetNameDisplayText": "DALEWOOD DR, MISSISSAUGA"
      }
    ]
  },
  {
    "postal": "L4T9P0",
    "result": []
  },
  {
    "postal": "L4T5H3",
    "result": []
  },
  {
    "postal": "L4T9X6",
    "result": []
  },
  {
    "postal": "L4T5N7",
    "result": []
  },
  {
    "postal": "L4T5A6",
    "result": []
  },
  {
    "postal": "L4T4M0",
    "result": []
  },
  {
    "postal": "L4T3V6",
    "result": [
      {
        "electoralDistricts": [
          {
            "election": null,
            "id": 64,
            "name": "Mississauga—Malton"
          }
        ],
        "pollDivisionIds": [
          10139802
        ],
        "postalCode": "L4T3V6",
        "streetName": "DARCEL",
        "streetDirectionId": null,
        "streetTypeId": "AVE",
        "placeName": "MISSISSAUGA",
        "streetNameDisplayText": "DARCEL AVE, MISSISSAUGA"
      }
    ]
  },
  {
    "postal": "L4T1L7",
    "result": [
      {
        "electoralDistricts": [
          {
            "election": null,
            "id": 64,
            "name": "Mississauga—Malton"
          }
        ],
        "pollDivisionIds": [
          10139809
        ],
        "postalCode": "L4T1L7",
        "streetName": "VICTORY",
        "streetDirectionId": null,
        "streetTypeId": "CRES",
        "placeName": "MISSISSAUGA",
        "streetNameDisplayText": "VICTORY CRES, MISSISSAUGA"
      }
    ]
  },
  {
    "postal": "L4T2P9",
    "result": [
      {
        "electoralDistricts": [
          {
            "election": null,
            "id": 64,
            "name": "Mississauga—Malton"
          }
        ],
        "pollDivisionIds": [
          10139808
        ],
        "postalCode": "L4T2P9",
        "streetName": "SHALLFORD",
        "streetDirectionId": null,
        "streetTypeId": "RD",
        "placeName": "MISSISSAUGA",
        "streetNameDisplayText": "SHALLFORD RD, MISSISSAUGA"
      }
    ]
  },
  {
    "postal": "L4T5T4",
    "result": []
  },
  {
    "postal": "L4T5Z1",
    "result": []
  },
  {
    "postal": "L4T2X0",
    "result": []
  },
  {
    "postal": "L4T6Z2",
    "result": []
  },
  {
    "postal": "L4T0E0",
    "result": []
  },
  {
    "postal": "L4T3Z5",
    "result": [
      {
        "electoralDistricts": [
          {
            "election": null,
            "id": 64,
            "name": "Mississauga—Malton"
          }
        ],
        "pollDivisionIds": [
          10139805
        ],
        "postalCode": "L4T3Z5",
        "streetName": "FINERY",
        "streetDirectionId": null,
        "streetTypeId": "CRES",
        "placeName": "MISSISSAUGA",
        "streetNameDisplayText": "FINERY CRES, MISSISSAUGA"
      }
    ]
  },
  {
    "postal": "L4T8H3",
    "result": []
  },
  {
    "postal": "L4T7S6",
    "result": []
  },
  {
    "postal": "L4T4C1",
    "result": [
      {
        "electoralDistricts": [
          {
            "election": null,
            "id": 64,
            "name": "Mississauga—Malton"
          }
        ],
        "pollDivisionIds": [
          10139809
        ],
        "postalCode": "L4T4C1",
        "streetName": "BATH",
        "streetDirectionId": null,
        "streetTypeId": "RD",
        "placeName": "MISSISSAUGA",
        "streetNameDisplayText": "BATH RD, MISSISSAUGA"
      }
    ]
  },
  {
    "postal": "L4T3K2",
    "result": [
      {
        "electoralDistricts": [
          {
            "election": null,
            "id": 64,
            "name": "Mississauga—Malton"
          }
        ],
        "pollDivisionIds": [
          10139805
        ],
        "postalCode": "L4T3K2",
        "streetName": "MORNING STAR",
        "streetDirectionId": null,
        "streetTypeId": "DR",
        "placeName": "MISSISSAUGA",
        "streetNameDisplayText": "MORNING STAR DR, MISSISSAUGA"
      }
    ]
  },
  {
    "postal": "L4T1Y5",
    "result": [
      {
        "electoralDistricts": [
          {
            "election": null,
            "id": 64,
            "name": "Mississauga—Malton"
          }
        ],
        "pollDivisionIds": [
          10139804
        ],
        "postalCode": "L4T1Y5",
        "streetName": "MORNING STAR",
        "streetDirectionId": null,
        "streetTypeId": "DR",
        "placeName": "MISSISSAUGA",
        "streetNameDisplayText": "MORNING STAR DR, MISSISSAUGA"
      }
    ]
  },
  {
    "postal": "L4T6P6",
    "result": []
  },
  {
    "postal": "L4T3N9",
    "result": [
      {
        "electoralDistricts": [
          {
            "election": null,
            "id": 64,
            "name": "Mississauga—Malton"
          }
        ],
        "pollDivisionIds": [
          10139802
        ],
        "postalCode": "L4T3N9",
        "streetName": "BRANDON GATE",
        "streetDirectionId": null,
        "streetTypeId": "DR",
        "placeName": "MISSISSAUGA",
        "streetNameDisplayText": "BRANDON GATE DR, MISSISSAUGA"
      }
    ]
  },
  {
    "postal": "L4T3W2",
    "result": []
  },
  {
    "postal": "L4T6H8",
    "result": []
  },
  {
    "postal": "L4T9T3",
    "result": []
  },
  {
    "postal": "L4T5L9",
    "result": []
  },
  {
    "postal": "L4T7X7",
    "result": []
  },
  {
    "postal": "L4T3J5",
    "result": [
      {
        "electoralDistricts": [
          {
            "election": null,
            "id": 64,
            "name": "Mississauga—Malton"
          }
        ],
        "pollDivisionIds": [
          10139801
        ],
        "postalCode": "L4T3J5",
        "streetName": "KITTRIDGE",
        "streetDirectionId": null,
        "streetTypeId": "DR",
        "placeName": "MISSISSAUGA",
        "streetNameDisplayText": "KITTRIDGE DR, MISSISSAUGA"
      }
    ]
  },
  {
    "postal": "L4T4J5",
    "result": []
  },
  {
    "postal": "L4T6J2",
    "result": []
  },
  {
    "postal": "L4T5V6",
    "result": []
  },
  {
    "postal": "L4T3N2",
    "result": [
      {
        "electoralDistricts": [
          {
            "election": null,
            "id": 64,
            "name": "Mississauga—Malton"
          }
        ],
        "pollDivisionIds": [
          10139801
        ],
        "postalCode": "L4T3N2",
        "streetName": "ROSELLE",
        "streetDirectionId": null,
        "streetTypeId": "CRES",
        "placeName": "MISSISSAUGA",
        "streetNameDisplayText": "ROSELLE CRES, MISSISSAUGA"
      }
    ]
  },
  {
    "postal": "L4T3B1",
    "result": [
      {
        "electoralDistricts": [
          {
            "election": null,
            "id": 64,
            "name": "Mississauga—Malton"
          }
        ],
        "pollDivisionIds": [
          10139805
        ],
        "postalCode": "L4T3B1",
        "streetName": "CUSTER",
        "streetDirectionId": null,
        "streetTypeId": "CRES",
        "placeName": "MISSISSAUGA",
        "streetNameDisplayText": "CUSTER CRES, MISSISSAUGA"
      }
    ]
  },
  {
    "postal": "L4T8B5",
    "result": []
  },
  {
    "postal": "L4T0K1",
    "result": []
  },
  {
    "postal": "L4T7M7",
    "result": []
  },
  {
    "postal": "L4T2M2",
    "result": [
      {
        "electoralDistricts": [
          {
            "election": null,
            "id": 64,
            "name": "Mississauga—Malton"
          }
        ],
        "pollDivisionIds": [
          10139807
        ],
        "postalCode": "L4T2M2",
        "streetName": "MOODIE",
        "streetDirectionId": null,
        "streetTypeId": "CRT",
        "placeName": "MISSISSAUGA",
        "streetNameDisplayText": "MOODIE CRT, MISSISSAUGA"
      }
    ]
  },
  {
    "postal": "L4T9N3",
    "result": []
  },
  {
    "postal": "L4T4Y8",
    "result": []
  },
  {
    "postal": "L4T3V7",
    "result": [
      {
        "electoralDistricts": [
          {
            "election": null,
            "id": 64,
            "name": "Mississauga—Malton"
          }
        ],
        "pollDivisionIds": [
          10139809
        ],
        "postalCode": "L4T3V7",
        "streetName": "DERRY",
        "streetDirectionId": "E",
        "streetTypeId": "RD",
        "placeName": "MISSISSAUGA",
        "streetNameDisplayText": "DERRY RD E, MISSISSAUGA"
      }
    ]
  },
  {
    "postal": "L4T8Z1",
    "result": []
  },
  {
    "postal": "L4T7B3",
    "result": []
  },
  {
    "postal": "L4T3A8",
    "result": [
      {
        "electoralDistricts": [
          {
            "election": null,
            "id": 64,
            "name": "Mississauga—Malton"
          }
        ],
        "pollDivisionIds": [
          10139804
        ],
        "postalCode": "L4T3A8",
        "streetName": "MADIERA",
        "streetDirectionId": null,
        "streetTypeId": "RD",
        "placeName": "MISSISSAUGA",
        "streetNameDisplayText": "MADIERA RD, MISSISSAUGA"
      }
    ]
  },
  {
    "postal": "L4T7V5",
    "result": []
  },
  {
    "postal": "L4T2T2",
    "result": [
      {
        "electoralDistricts": [
          {
            "election": null,
            "id": 64,
            "name": "Mississauga—Malton"
          }
        ],
        "pollDivisionIds": [
          10139801
        ],
        "postalCode": "L4T2T2",
        "streetName": "CATALPA",
        "streetDirectionId": null,
        "streetTypeId": "RD",
        "placeName": "MISSISSAUGA",
        "streetNameDisplayText": "CATALPA RD, MISSISSAUGA"
      }
    ]
  },
  {
    "postal": "L4T6L3",
    "result": []
  },
  {
    "postal": "L4T0L2",
    "result": []
  },
  {
    "postal": "L4T5Y8",
    "result": []
  },
  {
    "postal": "L4T0B8",
    "result": []
  },
  {
    "postal": "L4T6R5",
    "result": []
  },
  {
    "postal": "L4T8W6",
    "result": []
  },
  {
    "postal": "L4T8G6",
    "result": []
  },
  {
    "postal": "L4T6X3",
    "result": []
  },
  {
    "postal": "L4T7R7",
    "result": []
  },
  {
    "postal": "L4T4B6",
    "result": []
  },
  {
    "postal": "L4T3P9",
    "result": [
      {
        "electoralDistricts": [
          {
            "election": null,
            "id": 64,
            "name": "Mississauga—Malton"
          }
        ],
        "pollDivisionIds": [
          10139802
        ],
        "postalCode": "L4T3P9",
        "streetName": "WILDFERN",
        "streetDirectionId": null,
        "streetTypeId": "DR",
        "placeName": "MISSISSAUGA",
        "streetNameDisplayText": "WILDFERN DR, MISSISSAUGA"
      }
    ]
  },
  {
    "postal": "L4T2T3",
    "result": [
      {
        "electoralDistricts": [
          {
            "election": null,
            "id": 64,
            "name": "Mississauga—Malton"
          }
        ],
        "pollDivisionIds": [
          10139801
        ],
        "postalCode": "L4T2T3",
        "streetName": "CATALPA",
        "streetDirectionId": null,
        "streetTypeId": "RD",
        "placeName": "MISSISSAUGA",
        "streetNameDisplayText": "CATALPA RD, MISSISSAUGA"
      }
    ]
  },
  {
    "postal": "L4T1M4",
    "result": [
      {
        "electoralDistricts": [
          {
            "election": null,
            "id": 64,
            "name": "Mississauga—Malton"
          }
        ],
        "pollDivisionIds": [
          10139808
        ],
        "postalCode": "L4T1M4",
        "streetName": "JUSTINE",
        "streetDirectionId": null,
        "streetTypeId": "DR",
        "placeName": "MISSISSAUGA",
        "streetNameDisplayText": "JUSTINE DR, MISSISSAUGA"
      }
    ]
  },
  {
    "postal": "L4T0H1",
    "result": []
  },
  {
    "postal": "L4T9W3",
    "result": []
  },
  {
    "postal": "L4T6P1",
    "result": []
  },
  {
    "postal": "L4T7G2",
    "result": []
  },
  {
    "postal": "L4T4J9",
    "result": []
  },
  {
    "postal": "L4T9E4",
    "result": []
  },
  {
    "postal": "L4T8H0",
    "result": []
  },
  {
    "postal": "L4T4M7",
    "result": [
      {
        "electoralDistricts": [
          {
            "election": null,
            "id": 64,
            "name": "Mississauga—Malton"
          }
        ],
        "pollDivisionIds": [
          10139806
        ],
        "postalCode": "L4T4M7",
        "streetName": "REXWOOD",
        "streetDirectionId": null,
        "streetTypeId": "RD",
        "placeName": "MISSISSAUGA",
        "streetNameDisplayText": "REXWOOD RD, MISSISSAUGA"
      }
    ]
  },
  {
    "postal": "L4T2G9",
    "result": []
  },
  {
    "postal": "L4T8T2",
    "result": []
  },
  {
    "postal": "L4T7G7",
    "result": []
  },
  {
    "postal": "L4T4Z3",
    "result": []
  },
  {
    "postal": "L4T5B3",
    "result": []
  },
  {
    "postal": "L4T1S7",
    "result": [
      {
        "electoralDistricts": [
          {
            "election": null,
            "id": 64,
            "name": "Mississauga—Malton"
          }
        ],
        "pollDivisionIds": [
          10139806
        ],
        "postalCode": "L4T1S7",
        "streetName": "CRABTREE",
        "streetDirectionId": null,
        "streetTypeId": "CRES",
        "placeName": "MISSISSAUGA",
        "streetNameDisplayText": "CRABTREE CRES, MISSISSAUGA"
      }
    ]
  },
  {
    "postal": "L4T2N7",
    "result": [
      {
        "electoralDistricts": [
          {
            "election": null,
            "id": 64,
            "name": "Mississauga—Malton"
          }
        ],
        "pollDivisionIds": [
          10139801
        ],
        "postalCode": "L4T2N7",
        "streetName": "NETHERWOOD",
        "streetDirectionId": null,
        "streetTypeId": "RD",
        "placeName": "MISSISSAUGA",
        "streetNameDisplayText": "NETHERWOOD RD, MISSISSAUGA"
      }
    ]
  },
  {
    "postal": "L4T0H8",
    "result": []
  },
  {
    "postal": "L4T7Z4",
    "result": []
  },
  {
    "postal": "L4T7B1",
    "result": []
  },
  {
    "postal": "L4T7P8",
    "result": []
  },
  {
    "postal": "L4T7N0",
    "result": []
  },
  {
    "postal": "L4T3Y5",
    "result": []
  },
  {
    "postal": "L4T6K1",
    "result": []
  },
  {
    "postal": "L4T9X5",
    "result": []
  },
  {
    "postal": "L4T7S5",
    "result": []
  },
  {
    "postal": "L4T0A4",
    "result": [
      {
        "electoralDistricts": [
          {
            "election": null,
            "id": 64,
            "name": "Mississauga—Malton"
          }
        ],
        "pollDivisionIds": [
          10139809
        ],
        "postalCode": "L4T0A4",
        "streetName": "DREW",
        "streetDirectionId": null,
        "streetTypeId": "RD",
        "placeName": "MISSISSAUGA",
        "streetNameDisplayText": "DREW RD, MISSISSAUGA"
      }
    ]
  },
  {
    "postal": "L4T4T5",
    "result": []
  },
  {
    "postal": "L4T5K1",
    "result": []
  },
  {
    "postal": "L4T0Z9",
    "result": []
  },
  {
    "postal": "L4T7T2",
    "result": []
  },
  {
    "postal": "L4T1L5",
    "result": [
      {
        "electoralDistricts": [
          {
            "election": null,
            "id": 64,
            "name": "Mississauga—Malton"
          }
        ],
        "pollDivisionIds": [
          10139809
        ],
        "postalCode": "L4T1L5",
        "streetName": "VICTORY",
        "streetDirectionId": null,
        "streetTypeId": "CRES",
        "placeName": "MISSISSAUGA",
        "streetNameDisplayText": "VICTORY CRES, MISSISSAUGA"
      }
    ]
  },
  {
    "postal": "L4T3N5",
    "result": [
      {
        "electoralDistricts": [
          {
            "election": null,
            "id": 64,
            "name": "Mississauga—Malton"
          }
        ],
        "pollDivisionIds": [
          10139802
        ],
        "postalCode": "L4T3N5",
        "streetName": "BRANDON GATE",
        "streetDirectionId": null,
        "streetTypeId": "DR",
        "placeName": "MISSISSAUGA",
        "streetNameDisplayText": "BRANDON GATE DR, MISSISSAUGA"
      }
    ]
  },
  {
    "postal": "L4T6H4",
    "result": []
  },
  {
    "postal": "L4T5A5",
    "result": []
  },
  {
    "postal": "L4T3R9",
    "result": [
      {
        "electoralDistricts": [
          {
            "election": null,
            "id": 64,
            "name": "Mississauga—Malton"
          }
        ],
        "pollDivisionIds": [
          10139802
        ],
        "postalCode": "L4T3R9",
        "streetName": "MIDDLEBROOK",
        "streetDirectionId": null,
        "streetTypeId": "ST",
        "placeName": "MISSISSAUGA",
        "streetNameDisplayText": "MIDDLEBROOK ST, MISSISSAUGA"
      }
    ]
  },
  {
    "postal": "L4T7L8",
    "result": []
  },
  {
    "postal": "L4T6T6",
    "result": []
  },
  {
    "postal": "L4T7Y7",
    "result": []
  },
  {
    "postal": "L4T3M8",
    "result": [
      {
        "electoralDistricts": [
          {
            "election": null,
            "id": 64,
            "name": "Mississauga—Malton"
          }
        ],
        "pollDivisionIds": [
          10139802
        ],
        "postalCode": "L4T3M8",
        "streetName": "BRANDON GATE",
        "streetDirectionId": null,
        "streetTypeId": "DR",
        "placeName": "MISSISSAUGA",
        "streetNameDisplayText": "BRANDON GATE DR, MISSISSAUGA"
      }
    ]
  },
  {
    "postal": "L4T2E0",
    "result": []
  },
  {
    "postal": "L4T4B5",
    "result": [
      {
        "electoralDistricts": [
          {
            "election": null,
            "id": 64,
            "name": "Mississauga—Malton"
          }
        ],
        "pollDivisionIds": [
          10139809
        ],
        "postalCode": "L4T4B5",
        "streetName": "TORBRAM",
        "streetDirectionId": null,
        "streetTypeId": "RD",
        "placeName": "MISSISSAUGA",
        "streetNameDisplayText": "TORBRAM RD, MISSISSAUGA"
      }
    ]
  },
  {
    "postal": "L4T1J3",
    "result": [
      {
        "electoralDistricts": [
          {
            "election": null,
            "id": 64,
            "name": "Mississauga—Malton"
          }
        ],
        "pollDivisionIds": [
          10139809
        ],
        "postalCode": "L4T1J3",
        "streetName": "HARROW",
        "streetDirectionId": null,
        "streetTypeId": "ST",
        "placeName": "MISSISSAUGA",
        "streetNameDisplayText": "HARROW ST, MISSISSAUGA"
      }
    ]
  },
  {
    "postal": "L4T5S6",
    "result": []
  },
  {
    "postal": "L4T8P7",
    "result": []
  },
  {
    "postal": "L4T7S7",
    "result": []
  },
  {
    "postal": "L4T4C2",
    "result": []
  },
  {
    "postal": "L4T5Y0",
    "result": []
  },
  {
    "postal": "L4T2V7",
    "result": [
      {
        "electoralDistricts": [
          {
            "election": null,
            "id": 64,
            "name": "Mississauga—Malton"
          }
        ],
        "pollDivisionIds": [
          10139803
        ],
        "postalCode": "L4T2V7",
        "streetName": "WRENWOOD",
        "streetDirectionId": null,
        "streetTypeId": "CRES",
        "placeName": "MISSISSAUGA",
        "streetNameDisplayText": "WRENWOOD CRES, MISSISSAUGA"
      }
    ]
  },
  {
    "postal": "L4T8P5",
    "result": []
  },
  {
    "postal": "L4T5P5",
    "result": []
  },
  {
    "postal": "L4T5Z0",
    "result": []
  },
  {
    "postal": "L4T9B0",
    "result": []
  },
  {
    "postal": "L4T1L0",
    "result": []
  },
  {
    "postal": "L4T0B5",
    "result": []
  },
  {
    "postal": "L4T3L2",
    "result": [
      {
        "electoralDistricts": [
          {
            "election": null,
            "id": 64,
            "name": "Mississauga—Malton"
          }
        ],
        "pollDivisionIds": [
          10139805
        ],
        "postalCode": "L4T3L2",
        "streetName": "TEESWATER",
        "streetDirectionId": null,
        "streetTypeId": "RD",
        "placeName": "MISSISSAUGA",
        "streetNameDisplayText": "TEESWATER RD, MISSISSAUGA"
      }
    ]
  },
  {
    "postal": "L4T3B7",
    "result": []
  },
  {
    "postal": "L4T8L1",
    "result": []
  },
  {
    "postal": "L4T5M4",
    "result": []
  },
  {
    "postal": "L4T4G9",
    "result": []
  },
  {
    "postal": "L4T0P0",
    "result": []
  },
  {
    "postal": "L4T8G2",
    "result": []
  },
  {
    "postal": "L4T1V9",
    "result": [
      {
        "electoralDistricts": [
          {
            "election": null,
            "id": 64,
            "name": "Mississauga—Malton"
          }
        ],
        "pollDivisionIds": [
          10139806
        ],
        "postalCode": "L4T1V9",
        "streetName": "DUNRANKIN",
        "streetDirectionId": null,
        "streetTypeId": "DR",
        "placeName": "MISSISSAUGA",
        "streetNameDisplayText": "DUNRANKIN DR, MISSISSAUGA"
      }
    ]
  },
  {
    "postal": "L4T8N8",
    "result": []
  },
  {
    "postal": "L4T6S8",
    "result": []
  },
  {
    "postal": "L4T8H2",
    "result": []
  },
  {
    "postal": "L4T5R8",
    "result": []
  },
  {
    "postal": "L4T5L4",
    "result": []
  },
  {
    "postal": "L4T9E1",
    "result": []
  },
  {
    "postal": "L4T1C4",
    "result": [
      {
        "electoralDistricts": [
          {
            "election": null,
            "id": 64,
            "name": "Mississauga—Malton"
          }
        ],
        "pollDivisionIds": [
          10139809
        ],
        "postalCode": "L4T1C4",
        "streetName": "HULL",
        "streetDirectionId": null,
        "streetTypeId": "ST",
        "placeName": "MISSISSAUGA",
        "streetNameDisplayText": "HULL ST, MISSISSAUGA"
      }
    ]
  },
  {
    "postal": "L4T8W5",
    "result": []
  },
  {
    "postal": "L4T1Y4",
    "result": [
      {
        "electoralDistricts": [
          {
            "election": null,
            "id": 64,
            "name": "Mississauga—Malton"
          }
        ],
        "pollDivisionIds": [
          10139803
        ],
        "postalCode": "L4T1Y4",
        "streetName": "MORNING STAR",
        "streetDirectionId": null,
        "streetTypeId": "DR",
        "placeName": "MISSISSAUGA",
        "streetNameDisplayText": "MORNING STAR DR, MISSISSAUGA"
      }
    ]
  },
  {
    "postal": "L4T1C0",
    "result": []
  },
  {
    "postal": "L4T2J2",
    "result": [
      {
        "electoralDistricts": [
          {
            "election": null,
            "id": 64,
            "name": "Mississauga—Malton"
          }
        ],
        "pollDivisionIds": [
          10139807
        ],
        "postalCode": "L4T2J2",
        "streetName": "BONAVENTURE",
        "streetDirectionId": null,
        "streetTypeId": "DR",
        "placeName": "MISSISSAUGA",
        "streetNameDisplayText": "BONAVENTURE DR, MISSISSAUGA"
      }
    ]
  },
  {
    "postal": "L4T2J0",
    "result": []
  },
  {
    "postal": "L4T7A3",
    "result": []
  },
  {
    "postal": "L4T8M1",
    "result": []
  },
  {
    "postal": "L4T7T9",
    "result": []
  },
  {
    "postal": "L4T6C0",
    "result": []
  },
  {
    "postal": "L4T7X1",
    "result": []
  },
  {
    "postal": "L4T0G1",
    "result": []
  },
  {
    "postal": "L4T4X2",
    "result": []
  },
  {
    "postal": "L4T0N6",
    "result": []
  },
  {
    "postal": "L4T8E3",
    "result": []
  },
  {
    "postal": "L4T5S8",
    "result": []
  },
  {
    "postal": "L4T0R0",
    "result": []
  },
  {
    "postal": "L4T6J6",
    "result": []
  },
  {
    "postal": "L4T4B4",
    "result": []
  },
  {
    "postal": "L4T7E3",
    "result": []
  },
  {
    "postal": "L4T3N6",
    "result": [
      {
        "electoralDistricts": [
          {
            "election": null,
            "id": 64,
            "name": "Mississauga—Malton"
          }
        ],
        "pollDivisionIds": [
          10139802
        ],
        "postalCode": "L4T3N6",
        "streetName": "BRANDON GATE",
        "streetDirectionId": null,
        "streetTypeId": "DR",
        "placeName": "MISSISSAUGA",
        "streetNameDisplayText": "BRANDON GATE DR, MISSISSAUGA"
      }
    ]
  },
  {
    "postal": "L4T3X6",
    "result": [
      {
        "electoralDistricts": [
          {
            "election": null,
            "id": 64,
            "name": "Mississauga—Malton"
          }
        ],
        "pollDivisionIds": [
          10139808
        ],
        "postalCode": "L4T3X6",
        "streetName": "GOREWAY",
        "streetDirectionId": null,
        "streetTypeId": "DR",
        "placeName": "MISSISSAUGA",
        "streetNameDisplayText": "GOREWAY DR, MISSISSAUGA"
      }
    ]
  },
  {
    "postal": "L4T8L0",
    "result": []
  },
  {
    "postal": "L4T8N1",
    "result": []
  },
  {
    "postal": "L4T4J0",
    "result": []
  },
  {
    "postal": "L4T0X7",
    "result": []
  },
  {
    "postal": "L4T6S4",
    "result": []
  },
  {
    "postal": "L4T0Z0",
    "result": []
  },
  {
    "postal": "L4T9X8",
    "result": []
  },
  {
    "postal": "L4T3H3",
    "result": [
      {
        "electoralDistricts": [
          {
            "election": null,
            "id": 64,
            "name": "Mississauga—Malton"
          }
        ],
        "pollDivisionIds": [
          10139807
        ],
        "postalCode": "L4T3H3",
        "streetName": "NETHERWOOD",
        "streetDirectionId": null,
        "streetTypeId": "RD",
        "placeName": "MISSISSAUGA",
        "streetNameDisplayText": "NETHERWOOD RD, MISSISSAUGA"
      }
    ]
  },
  {
    "postal": "L4T7S2",
    "result": []
  },
  {
    "postal": "L4T3T3",
    "result": [
      {
        "electoralDistricts": [
          {
            "election": null,
            "id": 64,
            "name": "Mississauga—Malton"
          }
        ],
        "pollDivisionIds": [
          10139803,
          10139801
        ],
        "postalCode": "L4T3T3",
        "streetName": "GOREWAY",
        "streetDirectionId": null,
        "streetTypeId": "DR",
        "placeName": "MISSISSAUGA",
        "streetNameDisplayText": "GOREWAY DR, MISSISSAUGA"
      }
    ]
  },
  {
    "postal": "L4T9P3",
    "result": []
  },
  {
    "postal": "L4T4H8",
    "result": []
  },
  {
    "postal": "L4T6R1",
    "result": []
  },
  {
    "postal": "L4T1S0",
    "result": []
  },
  {
    "postal": "L4T3W8",
    "result": [
      {
        "electoralDistricts": [
          {
            "election": null,
            "id": 64,
            "name": "Mississauga—Malton"
          }
        ],
        "pollDivisionIds": [
          10139802
        ],
        "postalCode": "L4T3W8",
        "streetName": "BRANDON GATE",
        "streetDirectionId": null,
        "streetTypeId": "DR",
        "placeName": "MISSISSAUGA",
        "streetNameDisplayText": "BRANDON GATE DR, MISSISSAUGA"
      }
    ]
  },
  {
    "postal": "L4T4S3",
    "result": []
  },
  {
    "postal": "L4T1B6",
    "result": [
      {
        "electoralDistricts": [
          {
            "election": null,
            "id": 64,
            "name": "Mississauga—Malton"
          }
        ],
        "pollDivisionIds": [
          10139809
        ],
        "postalCode": "L4T1B6",
        "streetName": "BURLINGTON",
        "streetDirectionId": null,
        "streetTypeId": "ST",
        "placeName": "MISSISSAUGA",
        "streetNameDisplayText": "BURLINGTON ST, MISSISSAUGA"
      }
    ]
  },
  {
    "postal": "L4T8R3",
    "result": []
  },
  {
    "postal": "L4T4V9",
    "result": []
  },
  {
    "postal": "L4T9W4",
    "result": []
  },
  {
    "postal": "L4T3T4",
    "result": [
      {
        "electoralDistricts": [
          {
            "election": null,
            "id": 64,
            "name": "Mississauga—Malton"
          }
        ],
        "pollDivisionIds": [
          10139804,
          10139801
        ],
        "postalCode": "L4T3T4",
        "streetName": "BRANDON GATE",
        "streetDirectionId": null,
        "streetTypeId": "DR",
        "placeName": "MISSISSAUGA",
        "streetNameDisplayText": "BRANDON GATE DR, MISSISSAUGA"
      }
    ]
  },
  {
    "postal": "L4T5C7",
    "result": []
  },
  {
    "postal": "L4T3Y1",
    "result": []
  },
  {
    "postal": "L4T5V0",
    "result": []
  },
  {
    "postal": "L4T8G8",
    "result": []
  },
  {
    "postal": "L4T8B1",
    "result": []
  },
  {
    "postal": "L4T4P5",
    "result": []
  },
  {
    "postal": "L4T7B2",
    "result": []
  },
  {
    "postal": "L4T0R2",
    "result": []
  },
  {
    "postal": "L4T4M4",
    "result": []
  },
  {
    "postal": "L4T7M4",
    "result": []
  },
  {
    "postal": "L4T9S7",
    "result": []
  },
  {
    "postal": "L4T5Z7",
    "result": []
  },
  {
    "postal": "L4T7J7",
    "result": []
  },
  {
    "postal": "L4T8R8",
    "result": []
  },
  {
    "postal": "L4T9X1",
    "result": []
  },
  {
    "postal": "L4T5M9",
    "result": []
  },
  {
    "postal": "L4T9B4",
    "result": []
  },
  {
    "postal": "L4T0L9",
    "result": []
  },
  {
    "postal": "L4T9G4",
    "result": []
  },
  {
    "postal": "L4T1J4",
    "result": [
      {
        "electoralDistricts": [
          {
            "election": null,
            "id": 64,
            "name": "Mississauga—Malton"
          }
        ],
        "pollDivisionIds": [
          10139809
        ],
        "postalCode": "L4T1J4",
        "streetName": "HARROW",
        "streetDirectionId": null,
        "streetTypeId": "ST",
        "placeName": "MISSISSAUGA",
        "streetNameDisplayText": "HARROW ST, MISSISSAUGA"
      }
    ]
  },
  {
    "postal": "L4T0W6",
    "result": []
  },
  {
    "postal": "L4T4C5",
    "result": []
  },
  {
    "postal": "L4T7E4",
    "result": []
  },
  {
    "postal": "L4T1R9",
    "result": [
      {
        "electoralDistricts": [
          {
            "election": null,
            "id": 64,
            "name": "Mississauga—Malton"
          }
        ],
        "pollDivisionIds": [
          10139808
        ],
        "postalCode": "L4T1R9",
        "streetName": "NEWBOUND",
        "streetDirectionId": null,
        "streetTypeId": "CRT",
        "placeName": "MISSISSAUGA",
        "streetNameDisplayText": "NEWBOUND CRT, MISSISSAUGA"
      }
    ]
  },
  {
    "postal": "L4T2P0",
    "result": []
  },
  {
    "postal": "L4T5S4",
    "result": []
  },
  {
    "postal": "L4T5K8",
    "result": []
  },
  {
    "postal": "L4T8K4",
    "result": []
  },
  {
    "postal": "L4T7C1",
    "result": []
  },
  {
    "postal": "L4T7K9",
    "result": []
  },
  {
    "postal": "L4T5J1",
    "result": []
  },
  {
    "postal": "L4T4P9",
    "result": []
  },
  {
    "postal": "L4T0N2",
    "result": []
  },
  {
    "postal": "L4T2G6",
    "result": [
      {
        "electoralDistricts": [
          {
            "election": null,
            "id": 64,
            "name": "Mississauga—Malton"
          }
        ],
        "pollDivisionIds": [
          10139802
        ],
        "postalCode": "L4T2G6",
        "streetName": "BAYSWATER",
        "streetDirectionId": null,
        "streetTypeId": "CRES",
        "placeName": "MISSISSAUGA",
        "streetNameDisplayText": "BAYSWATER CRES, MISSISSAUGA"
      }
    ]
  },
  {
    "postal": "L4T6P4",
    "result": []
  },
  {
    "postal": "L4T3J0",
    "result": []
  },
  {
    "postal": "L4T8X4",
    "result": []
  },
  {
    "postal": "L4T1Y3",
    "result": [
      {
        "electoralDistricts": [
          {
            "election": null,
            "id": 64,
            "name": "Mississauga—Malton"
          }
        ],
        "pollDivisionIds": [
          10139804
        ],
        "postalCode": "L4T1Y3",
        "streetName": "MORNING STAR",
        "streetDirectionId": null,
        "streetTypeId": "DR",
        "placeName": "MISSISSAUGA",
        "streetNameDisplayText": "MORNING STAR DR, MISSISSAUGA"
      }
    ]
  },
  {
    "postal": "L4T1A8",
    "result": [
      {
        "electoralDistricts": [
          {
            "election": null,
            "id": 64,
            "name": "Mississauga—Malton"
          }
        ],
        "pollDivisionIds": [
          10139809,
          10139808
        ],
        "postalCode": "L4T1A8",
        "streetName": "DERRY",
        "streetDirectionId": "E",
        "streetTypeId": "RD",
        "placeName": "MISSISSAUGA",
        "streetNameDisplayText": "DERRY RD E, MISSISSAUGA"
      }
    ]
  },
  {
    "postal": "L4T6Y5",
    "result": []
  },
  {
    "postal": "L4T0J6",
    "result": []
  },
  {
    "postal": "L4T2C9",
    "result": [
      {
        "electoralDistricts": [
          {
            "election": null,
            "id": 64,
            "name": "Mississauga—Malton"
          }
        ],
        "pollDivisionIds": [
          10139803
        ],
        "postalCode": "L4T2C9",
        "streetName": "DARLA",
        "streetDirectionId": null,
        "streetTypeId": "DR",
        "placeName": "MISSISSAUGA",
        "streetNameDisplayText": "DARLA DR, MISSISSAUGA"
      }
    ]
  },
  {
    "postal": "L4T8J6",
    "result": []
  },
  {
    "postal": "L4T8T4",
    "result": []
  },
  {
    "postal": "L4T1P7",
    "result": [
      {
        "electoralDistricts": [
          {
            "election": null,
            "id": 64,
            "name": "Mississauga—Malton"
          }
        ],
        "pollDivisionIds": [
          10139808
        ],
        "postalCode": "L4T1P7",
        "streetName": "MICHAUD",
        "streetDirectionId": null,
        "streetTypeId": "AVE",
        "placeName": "MISSISSAUGA",
        "streetNameDisplayText": "MICHAUD AVE, MISSISSAUGA"
      }
    ]
  },
  {
    "postal": "L4T9V9",
    "result": []
  },
  {
    "postal": "L4T0M1",
    "result": []
  },
  {
    "postal": "L4T6K5",
    "result": []
  },
  {
    "postal": "L4T2T5",
    "result": [
      {
        "electoralDistricts": [
          {
            "election": null,
            "id": 64,
            "name": "Mississauga—Malton"
          }
        ],
        "pollDivisionIds": [
          10139808,
          10139804
        ],
        "postalCode": "L4T2T5",
        "streetName": "GOREWAY",
        "streetDirectionId": null,
        "streetTypeId": "DR",
        "placeName": "MISSISSAUGA",
        "streetNameDisplayText": "GOREWAY DR, MISSISSAUGA"
      }
    ]
  },
  {
    "postal": "L4T7E9",
    "result": []
  },
  {
    "postal": "L4T5K5",
    "result": []
  },
  {
    "postal": "L4T3R5",
    "result": [
      {
        "electoralDistricts": [
          {
            "election": null,
            "id": 64,
            "name": "Mississauga—Malton"
          }
        ],
        "pollDivisionIds": [
          10139805
        ],
        "postalCode": "L4T3R5",
        "streetName": "DARCEL",
        "streetDirectionId": null,
        "streetTypeId": "AVE",
        "placeName": "MISSISSAUGA",
        "streetNameDisplayText": "DARCEL AVE, MISSISSAUGA"
      }
    ]
  },
  {
    "postal": "L4T5B1",
    "result": []
  },
  {
    "postal": "L4T2P1",
    "result": [
      {
        "electoralDistricts": [
          {
            "election": null,
            "id": 64,
            "name": "Mississauga—Malton"
          }
        ],
        "pollDivisionIds": [
          10139807
        ],
        "postalCode": "L4T2P1",
        "streetName": "NETHERBRAE",
        "streetDirectionId": null,
        "streetTypeId": "RD",
        "placeName": "MISSISSAUGA",
        "streetNameDisplayText": "NETHERBRAE RD, MISSISSAUGA"
      },
      {
        "electoralDistricts": [
          {
            "election": null,
            "id": 64,
            "name": "Mississauga—Malton"
          }
        ],
        "pollDivisionIds": [
          10139807
        ],
        "postalCode": "L4T2P1",
        "streetName": "NETHERWOOD",
        "streetDirectionId": null,
        "streetTypeId": "RD",
        "placeName": "MISSISSAUGA",
        "streetNameDisplayText": "NETHERWOOD RD, MISSISSAUGA"
      }
    ]
  },
  {
    "postal": "L4T7L0",
    "result": []
  },
  {
    "postal": "L4T3L6",
    "result": [
      {
        "electoralDistricts": [
          {
            "election": null,
            "id": 64,
            "name": "Mississauga—Malton"
          }
        ],
        "pollDivisionIds": [
          10139805
        ],
        "postalCode": "L4T3L6",
        "streetName": "SIGSBEE",
        "streetDirectionId": null,
        "streetTypeId": "DR",
        "placeName": "MISSISSAUGA",
        "streetNameDisplayText": "SIGSBEE DR, MISSISSAUGA"
      }
    ]
  },
  {
    "postal": "L4T2A4",
    "result": [
      {
        "electoralDistricts": [
          {
            "election": null,
            "id": 64,
            "name": "Mississauga—Malton"
          }
        ],
        "pollDivisionIds": [
          10139803
        ],
        "postalCode": "L4T2A4",
        "streetName": "TEESWATER",
        "streetDirectionId": null,
        "streetTypeId": "RD",
        "placeName": "MISSISSAUGA",
        "streetNameDisplayText": "TEESWATER RD, MISSISSAUGA"
      }
    ]
  },
  {
    "postal": "L4T8S0",
    "result": []
  },
  {
    "postal": "L4T3L5",
    "result": [
      {
        "electoralDistricts": [
          {
            "election": null,
            "id": 64,
            "name": "Mississauga—Malton"
          }
        ],
        "pollDivisionIds": [
          10139805
        ],
        "postalCode": "L4T3L5",
        "streetName": "BRANDON GATE",
        "streetDirectionId": null,
        "streetTypeId": "DR",
        "placeName": "MISSISSAUGA",
        "streetNameDisplayText": "BRANDON GATE DR, MISSISSAUGA"
      }
    ]
  },
  {
    "postal": "L4T2R5",
    "result": [
      {
        "electoralDistricts": [
          {
            "election": null,
            "id": 64,
            "name": "Mississauga—Malton"
          }
        ],
        "pollDivisionIds": [
          10139808
        ],
        "postalCode": "L4T2R5",
        "streetName": "CAMBRETT",
        "streetDirectionId": null,
        "streetTypeId": "DR",
        "placeName": "MISSISSAUGA",
        "streetNameDisplayText": "CAMBRETT DR, MISSISSAUGA"
      }
    ]
  },
  {
    "postal": "L4T9T6",
    "result": []
  },
  {
    "postal": "L4T8Z2",
    "result": []
  },
  {
    "postal": "L4T0E9",
    "result": []
  },
  {
    "postal": "L4T8C0",
    "result": []
  },
  {
    "postal": "L4T3K7",
    "result": [
      {
        "electoralDistricts": [
          {
            "election": null,
            "id": 64,
            "name": "Mississauga—Malton"
          }
        ],
        "pollDivisionIds": [
          10139805
        ],
        "postalCode": "L4T3K7",
        "streetName": "CUSTER",
        "streetDirectionId": null,
        "streetTypeId": "CRES",
        "placeName": "MISSISSAUGA",
        "streetNameDisplayText": "CUSTER CRES, MISSISSAUGA"
      }
    ]
  },
  {
    "postal": "L4T2H3",
    "result": [
      {
        "electoralDistricts": [
          {
            "election": null,
            "id": 64,
            "name": "Mississauga—Malton"
          }
        ],
        "pollDivisionIds": [
          10139809
        ],
        "postalCode": "L4T2H3",
        "streetName": "AIRPORT",
        "streetDirectionId": null,
        "streetTypeId": "RD",
        "placeName": "MISSISSAUGA",
        "streetNameDisplayText": "AIRPORT RD, MISSISSAUGA"
      }
    ]
  },
  {
    "postal": "L4T2Y6",
    "result": [
      {
        "electoralDistricts": [
          {
            "election": null,
            "id": 64,
            "name": "Mississauga—Malton"
          }
        ],
        "pollDivisionIds": [
          10139804
        ],
        "postalCode": "L4T2Y6",
        "streetName": "TOPPING",
        "streetDirectionId": null,
        "streetTypeId": "RD",
        "placeName": "MISSISSAUGA",
        "streetNameDisplayText": "TOPPING RD, MISSISSAUGA"
      }
    ]
  },
  {
    "postal": "L4T7M2",
    "result": []
  },
  {
    "postal": "L4T6E2",
    "result": []
  },
  {
    "postal": "L4T3R0",
    "result": []
  },
  {
    "postal": "L4T4J7",
    "result": []
  },
  {
    "postal": "L4T6N8",
    "result": []
  },
  {
    "postal": "L4T0J7",
    "result": []
  },
  {
    "postal": "L4T7P2",
    "result": []
  },
  {
    "postal": "L4T3T8",
    "result": [
      {
        "electoralDistricts": [
          {
            "election": null,
            "id": 64,
            "name": "Mississauga—Malton"
          }
        ],
        "pollDivisionIds": [
          10139804
        ],
        "postalCode": "L4T3T8",
        "streetName": "ETUDE",
        "streetDirectionId": null,
        "streetTypeId": "DR",
        "placeName": "MISSISSAUGA",
        "streetNameDisplayText": "ETUDE DR, MISSISSAUGA"
      }
    ]
  },
  {
    "postal": "L4T3S7",
    "result": [
      {
        "electoralDistricts": [
          {
            "election": null,
            "id": 64,
            "name": "Mississauga—Malton"
          }
        ],
        "pollDivisionIds": [
          10139805
        ],
        "postalCode": "L4T3S7",
        "streetName": "TEESWATER",
        "streetDirectionId": null,
        "streetTypeId": "RD",
        "placeName": "MISSISSAUGA",
        "streetNameDisplayText": "TEESWATER RD, MISSISSAUGA"
      }
    ]
  },
  {
    "postal": "L4T2S7",
    "result": [
      {
        "electoralDistricts": [
          {
            "election": null,
            "id": 64,
            "name": "Mississauga—Malton"
          }
        ],
        "pollDivisionIds": [
          10139808
        ],
        "postalCode": "L4T2S7",
        "streetName": "DOOLEY",
        "streetDirectionId": null,
        "streetTypeId": "DR",
        "placeName": "MISSISSAUGA",
        "streetNameDisplayText": "DOOLEY DR, MISSISSAUGA"
      }
    ]
  },
  {
    "postal": "L4T1S4",
    "result": [
      {
        "electoralDistricts": [
          {
            "election": null,
            "id": 64,
            "name": "Mississauga—Malton"
          }
        ],
        "pollDivisionIds": [
          10139808
        ],
        "postalCode": "L4T1S4",
        "streetName": "CAPRICORN",
        "streetDirectionId": null,
        "streetTypeId": "CRES",
        "placeName": "MISSISSAUGA",
        "streetNameDisplayText": "CAPRICORN CRES, MISSISSAUGA"
      }
    ]
  },
  {
    "postal": "L4T1L8",
    "result": [
      {
        "electoralDistricts": [
          {
            "election": null,
            "id": 64,
            "name": "Mississauga—Malton"
          }
        ],
        "pollDivisionIds": [
          10139809
        ],
        "postalCode": "L4T1L8",
        "streetName": "VICTORY",
        "streetDirectionId": null,
        "streetTypeId": "CRES",
        "placeName": "MISSISSAUGA",
        "streetNameDisplayText": "VICTORY CRES, MISSISSAUGA"
      }
    ]
  },
  {
    "postal": "L4T8E9",
    "result": []
  },
  {
    "postal": "L4T0T0",
    "result": []
  },
  {
    "postal": "L4T3G4",
    "result": [
      {
        "electoralDistricts": [
          {
            "election": null,
            "id": 64,
            "name": "Mississauga—Malton"
          }
        ],
        "pollDivisionIds": [
          10139807
        ],
        "postalCode": "L4T3G4",
        "streetName": "BENAVON",
        "streetDirectionId": null,
        "streetTypeId": "RD",
        "placeName": "MISSISSAUGA",
        "streetNameDisplayText": "BENAVON RD, MISSISSAUGA"
      }
    ]
  },
  {
    "postal": "L4T0V6",
    "result": []
  },
  {
    "postal": "L4T4W1",
    "result": []
  },
  {
    "postal": "L4T9G9",
    "result": []
  },
  {
    "postal": "L4T5W4",
    "result": []
  },
  {
    "postal": "L4T7M8",
    "result": []
  },
  {
    "postal": "L4T2C2",
    "result": [
      {
        "electoralDistricts": [
          {
            "election": null,
            "id": 64,
            "name": "Mississauga—Malton"
          }
        ],
        "pollDivisionIds": [
          10139807
        ],
        "postalCode": "L4T2C2",
        "streetName": "REDSTONE",
        "streetDirectionId": null,
        "streetTypeId": "RD",
        "placeName": "MISSISSAUGA",
        "streetNameDisplayText": "REDSTONE RD, MISSISSAUGA"
      }
    ]
  },
  {
    "postal": "L4T4Y2",
    "result": []
  },
  {
    "postal": "L4T9X9",
    "result": []
  },
  {
    "postal": "L4T3T0",
    "result": []
  },
  {
    "postal": "L4T4T8",
    "result": []
  },
  {
    "postal": "L4T9C4",
    "result": []
  },
  {
    "postal": "L4T8P2",
    "result": []
  },
  {
    "postal": "L4T0Y8",
    "result": []
  },
  {
    "postal": "L4T1G8",
    "result": [
      {
        "electoralDistricts": [
          {
            "election": null,
            "id": 64,
            "name": "Mississauga—Malton"
          }
        ],
        "pollDivisionIds": [
          10139809
        ],
        "postalCode": "L4T1G8",
        "streetName": "TORBRAM",
        "streetDirectionId": null,
        "streetTypeId": "RD",
        "placeName": "MISSISSAUGA",
        "streetNameDisplayText": "TORBRAM RD, MISSISSAUGA"
      }
    ]
  },
  {
    "postal": "L4T2T6",
    "result": [
      {
        "electoralDistricts": [
          {
            "election": null,
            "id": 64,
            "name": "Mississauga—Malton"
          }
        ],
        "pollDivisionIds": [
          10139808
        ],
        "postalCode": "L4T2T6",
        "streetName": "GOREWAY",
        "streetDirectionId": null,
        "streetTypeId": "DR",
        "placeName": "MISSISSAUGA",
        "streetNameDisplayText": "GOREWAY DR, MISSISSAUGA"
      }
    ]
  },
  {
    "postal": "L4T1N7",
    "result": [
      {
        "electoralDistricts": [
          {
            "election": null,
            "id": 64,
            "name": "Mississauga—Malton"
          }
        ],
        "pollDivisionIds": [
          10139809
        ],
        "postalCode": "L4T1N7",
        "streetName": "IRESON",
        "streetDirectionId": null,
        "streetTypeId": "CRT",
        "placeName": "MISSISSAUGA",
        "streetNameDisplayText": "IRESON CRT, MISSISSAUGA"
      }
    ]
  },
  {
    "postal": "L4T0L6",
    "result": []
  },
  {
    "postal": "L4T9V4",
    "result": []
  },
  {
    "postal": "L4T2V1",
    "result": [
      {
        "electoralDistricts": [
          {
            "election": null,
            "id": 64,
            "name": "Mississauga—Malton"
          }
        ],
        "pollDivisionIds": [
          10139808
        ],
        "postalCode": "L4T2V1",
        "streetName": "GOREWAY",
        "streetDirectionId": null,
        "streetTypeId": "DR",
        "placeName": "MISSISSAUGA",
        "streetNameDisplayText": "GOREWAY DR, MISSISSAUGA"
      }
    ]
  },
  {
    "postal": "L4T3L8",
    "result": [
      {
        "electoralDistricts": [
          {
            "election": null,
            "id": 64,
            "name": "Mississauga—Malton"
          }
        ],
        "pollDivisionIds": [
          10139809
        ],
        "postalCode": "L4T3L8",
        "streetName": "TORBRAM",
        "streetDirectionId": null,
        "streetTypeId": "RD",
        "placeName": "MISSISSAUGA",
        "streetNameDisplayText": "TORBRAM RD, MISSISSAUGA"
      }
    ]
  },
  {
    "postal": "L4T2R8",
    "result": [
      {
        "electoralDistricts": [
          {
            "election": null,
            "id": 64,
            "name": "Mississauga—Malton"
          }
        ],
        "pollDivisionIds": [
          10139801
        ],
        "postalCode": "L4T2R8",
        "streetName": "LANGWORTHY",
        "streetDirectionId": null,
        "streetTypeId": "DR",
        "placeName": "MISSISSAUGA",
        "streetNameDisplayText": "LANGWORTHY DR, MISSISSAUGA"
      }
    ]
  },
  {
    "postal": "L4T5C1",
    "result": []
  },
  {
    "postal": "L4T4W3",
    "result": []
  },
  {
    "postal": "L4T5X5",
    "result": []
  },
  {
    "postal": "L4T9W5",
    "result": []
  },
  {
    "postal": "L4T3C4",
    "result": [
      {
        "electoralDistricts": [
          {
            "election": null,
            "id": 64,
            "name": "Mississauga—Malton"
          }
        ],
        "pollDivisionIds": [
          10139809
        ],
        "postalCode": "L4T3C4",
        "streetName": "DREW",
        "streetDirectionId": null,
        "streetTypeId": "RD",
        "placeName": "MISSISSAUGA",
        "streetNameDisplayText": "DREW RD, MISSISSAUGA"
      }
    ]
  },
  {
    "postal": "L4T1N6",
    "result": [
      {
        "electoralDistricts": [
          {
            "election": null,
            "id": 64,
            "name": "Mississauga—Malton"
          }
        ],
        "pollDivisionIds": [
          10139806
        ],
        "postalCode": "L4T1N6",
        "streetName": "CHIGWEL",
        "streetDirectionId": null,
        "streetTypeId": "CRT",
        "placeName": "MISSISSAUGA",
        "streetNameDisplayText": "CHIGWEL CRT, MISSISSAUGA"
      }
    ]
  },
  {
    "postal": "L4T9S9",
    "result": []
  },
  {
    "postal": "L4T9M2",
    "result": []
  },
  {
    "postal": "L4T8Y4",
    "result": []
  },
  {
    "postal": "L4T7S4",
    "result": []
  },
  {
    "postal": "L4T0K6",
    "result": []
  },
  {
    "postal": "L4T1W3",
    "result": [
      {
        "electoralDistricts": [
          {
            "election": null,
            "id": 64,
            "name": "Mississauga—Malton"
          }
        ],
        "pollDivisionIds": [
          10139806
        ],
        "postalCode": "L4T1W3",
        "streetName": "DUNRANKIN",
        "streetDirectionId": null,
        "streetTypeId": "DR",
        "placeName": "MISSISSAUGA",
        "streetNameDisplayText": "DUNRANKIN DR, MISSISSAUGA"
      }
    ]
  },
  {
    "postal": "L4T7R2",
    "result": []
  },
  {
    "postal": "L4T2Y9",
    "result": [
      {
        "electoralDistricts": [
          {
            "election": null,
            "id": 64,
            "name": "Mississauga—Malton"
          }
        ],
        "pollDivisionIds": [
          10139804
        ],
        "postalCode": "L4T2Y9",
        "streetName": "WAINBROOK",
        "streetDirectionId": null,
        "streetTypeId": "RD",
        "placeName": "MISSISSAUGA",
        "streetNameDisplayText": "WAINBROOK RD, MISSISSAUGA"
      }
    ]
  },
  {
    "postal": "L4T7G4",
    "result": []
  },
  {
    "postal": "L4T7E5",
    "result": []
  },
  {
    "postal": "L4T9G2",
    "result": []
  },
  {
    "postal": "L4T7Y8",
    "result": []
  },
  {
    "postal": "L4T9V2",
    "result": []
  },
  {
    "postal": "L4T3T7",
    "result": [
      {
        "electoralDistricts": [
          {
            "election": null,
            "id": 64,
            "name": "Mississauga—Malton"
          }
        ],
        "pollDivisionIds": [
          10139804
        ],
        "postalCode": "L4T3T7",
        "streetName": "DARCEL",
        "streetDirectionId": null,
        "streetTypeId": "AVE",
        "placeName": "MISSISSAUGA",
        "streetNameDisplayText": "DARCEL AVE, MISSISSAUGA"
      }
    ]
  },
  {
    "postal": "L4T1H0",
    "result": []
  },
  {
    "postal": "L4T1M7",
    "result": [
      {
        "electoralDistricts": [
          {
            "election": null,
            "id": 64,
            "name": "Mississauga—Malton"
          }
        ],
        "pollDivisionIds": [
          10139808
        ],
        "postalCode": "L4T1M7",
        "streetName": "JUSTINE",
        "streetDirectionId": null,
        "streetTypeId": "DR",
        "placeName": "MISSISSAUGA",
        "streetNameDisplayText": "JUSTINE DR, MISSISSAUGA"
      }
    ]
  },
  {
    "postal": "L4T8V4",
    "result": []
  },
  {
    "postal": "L4T4M2",
    "result": []
  },
  {
    "postal": "L4T0X2",
    "result": []
  },
  {
    "postal": "L4T5Z4",
    "result": []
  },
  {
    "postal": "L4T6V4",
    "result": []
  },
  {
    "postal": "L4T8J3",
    "result": []
  },
  {
    "postal": "L4T8E5",
    "result": []
  },
  {
    "postal": "L4T2V5",
    "result": [
      {
        "electoralDistricts": [
          {
            "election": null,
            "id": 64,
            "name": "Mississauga—Malton"
          }
        ],
        "pollDivisionIds": [
          10139803
        ],
        "postalCode": "L4T2V5",
        "streetName": "LOCKINGTON",
        "streetDirectionId": null,
        "streetTypeId": "CRES",
        "placeName": "MISSISSAUGA",
        "streetNameDisplayText": "LOCKINGTON CRES, MISSISSAUGA"
      }
    ]
  },
  {
    "postal": "L4T7S1",
    "result": []
  },
  {
    "postal": "L4T6V3",
    "result": []
  },
  {
    "postal": "L4T2L8",
    "result": [
      {
        "electoralDistricts": [
          {
            "election": null,
            "id": 64,
            "name": "Mississauga—Malton"
          }
        ],
        "pollDivisionIds": [
          10139809
        ],
        "postalCode": "L4T2L8",
        "streetName": "REDFOX",
        "streetDirectionId": null,
        "streetTypeId": "RD",
        "placeName": "MISSISSAUGA",
        "streetNameDisplayText": "REDFOX RD, MISSISSAUGA"
      }
    ]
  },
  {
    "postal": "L4T9V0",
    "result": []
  },
  {
    "postal": "L4T3M4",
    "result": [
      {
        "electoralDistricts": [
          {
            "election": null,
            "id": 64,
            "name": "Mississauga—Malton"
          }
        ],
        "pollDivisionIds": [
          10139809
        ],
        "postalCode": "L4T3M4",
        "streetName": "YORK",
        "streetDirectionId": null,
        "streetTypeId": "ST",
        "placeName": "MISSISSAUGA",
        "streetNameDisplayText": "YORK ST, MISSISSAUGA"
      }
    ]
  },
  {
    "postal": "L4T5B2",
    "result": []
  },
  {
    "postal": "L4T3X5",
    "result": []
  },
  {
    "postal": "L4T9R7",
    "result": []
  },
  {
    "postal": "L4T2X2",
    "result": [
      {
        "electoralDistricts": [
          {
            "election": null,
            "id": 64,
            "name": "Mississauga—Malton"
          }
        ],
        "pollDivisionIds": [
          10139806
        ],
        "postalCode": "L4T2X2",
        "streetName": "DARCEL",
        "streetDirectionId": null,
        "streetTypeId": "AVE",
        "placeName": "MISSISSAUGA",
        "streetNameDisplayText": "DARCEL AVE, MISSISSAUGA"
      }
    ]
  },
  {
    "postal": "L4T8Z6",
    "result": []
  },
  {
    "postal": "L4T4R4",
    "result": []
  },
  {
    "postal": "L4T2R1",
    "result": [
      {
        "electoralDistricts": [
          {
            "election": null,
            "id": 64,
            "name": "Mississauga—Malton"
          }
        ],
        "pollDivisionIds": [
          10139808
        ],
        "postalCode": "L4T2R1",
        "streetName": "HONEYSUCKLE",
        "streetDirectionId": null,
        "streetTypeId": "AVE",
        "placeName": "MISSISSAUGA",
        "streetNameDisplayText": "HONEYSUCKLE AVE, MISSISSAUGA"
      }
    ]
  },
  {
    "postal": "L4T3R8",
    "result": [
      {
        "electoralDistricts": [
          {
            "election": null,
            "id": 64,
            "name": "Mississauga—Malton"
          }
        ],
        "pollDivisionIds": [
          10139805
        ],
        "postalCode": "L4T3R8",
        "streetName": "LEESBURG",
        "streetDirectionId": null,
        "streetTypeId": "ST",
        "placeName": "MISSISSAUGA",
        "streetNameDisplayText": "LEESBURG ST, MISSISSAUGA"
      }
    ]
  },
  {
    "postal": "L4T9A1",
    "result": []
  },
  {
    "postal": "L4T8L3",
    "result": []
  },
  {
    "postal": "L4T9K4",
    "result": []
  },
  {
    "postal": "L4T9S3",
    "result": []
  },
  {
    "postal": "L4T8N7",
    "result": []
  },
  {
    "postal": "L4T1C6",
    "result": [
      {
        "electoralDistricts": [
          {
            "election": null,
            "id": 64,
            "name": "Mississauga—Malton"
          }
        ],
        "pollDivisionIds": [
          10139809
        ],
        "postalCode": "L4T1C6",
        "streetName": "HULL",
        "streetDirectionId": null,
        "streetTypeId": "ST",
        "placeName": "MISSISSAUGA",
        "streetNameDisplayText": "HULL ST, MISSISSAUGA"
      }
    ]
  },
  {
    "postal": "L4T3Z8",
    "result": []
  },
  {
    "postal": "L4T8G5",
    "result": []
  },
  {
    "postal": "L4T5R6",
    "result": []
  },
  {
    "postal": "L4T2W3",
    "result": [
      {
        "electoralDistricts": [
          {
            "election": null,
            "id": 64,
            "name": "Mississauga—Malton"
          }
        ],
        "pollDivisionIds": [
          10139806
        ],
        "postalCode": "L4T2W3",
        "streetName": "DARCEL",
        "streetDirectionId": null,
        "streetTypeId": "AVE",
        "placeName": "MISSISSAUGA",
        "streetNameDisplayText": "DARCEL AVE, MISSISSAUGA"
      }
    ]
  },
  {
    "postal": "L4T0A0",
    "result": []
  },
  {
    "postal": "L4T6P8",
    "result": []
  },
  {
    "postal": "L4T8N9",
    "result": []
  },
  {
    "postal": "L4T0S9",
    "result": []
  },
  {
    "postal": "L4T8G0",
    "result": []
  },
  {
    "postal": "L4T8C7",
    "result": []
  },
  {
    "postal": "L4T5X8",
    "result": []
  },
  {
    "postal": "L4T7E8",
    "result": []
  },
  {
    "postal": "L4T6X2",
    "result": []
  },
  {
    "postal": "L4T4C6",
    "result": [
      {
        "electoralDistricts": [
          {
            "election": null,
            "id": 64,
            "name": "Mississauga—Malton"
          }
        ],
        "pollDivisionIds": [
          10139805
        ],
        "postalCode": "L4T4C6",
        "streetName": "LONGO",
        "streetDirectionId": null,
        "streetTypeId": "CIR",
        "placeName": "MISSISSAUGA",
        "streetNameDisplayText": "LONGO CIR, MISSISSAUGA"
      }
    ]
  },
  {
    "postal": "L4T7H2",
    "result": []
  },
  {
    "postal": "L4T4R0",
    "result": []
  },
  {
    "postal": "L4T6J3",
    "result": []
  },
  {
    "postal": "L4T4B8",
    "result": [
      {
        "electoralDistricts": [
          {
            "election": null,
            "id": 64,
            "name": "Mississauga—Malton"
          }
        ],
        "pollDivisionIds": [
          10139805
        ],
        "postalCode": "L4T4B8",
        "streetName": "PENNY",
        "streetDirectionId": null,
        "streetTypeId": "LANE",
        "placeName": "MISSISSAUGA",
        "streetNameDisplayText": "PENNY LANE, MISSISSAUGA"
      }
    ]
  },
  {
    "postal": "L4T6H6",
    "result": []
  },
  {
    "postal": "L4T0S1",
    "result": []
  },
  {
    "postal": "L4T4E3",
    "result": [
      {
        "electoralDistricts": [
          {
            "election": null,
            "id": 64,
            "name": "Mississauga—Malton"
          }
        ],
        "pollDivisionIds": [
          10139809
        ],
        "postalCode": "L4T4E3",
        "streetName": "DERRY",
        "streetDirectionId": "E",
        "streetTypeId": "RD",
        "placeName": "MISSISSAUGA",
        "streetNameDisplayText": "DERRY RD E, MISSISSAUGA"
      }
    ]
  },
  {
    "postal": "L4T7K2",
    "result": []
  },
  {
    "postal": "L4T7T8",
    "result": []
  },
  {
    "postal": "L4T0J9",
    "result": []
  },
  {
    "postal": "L4T5J9",
    "result": []
  },
  {
    "postal": "L4T5S7",
    "result": []
  },
  {
    "postal": "L4T0G9",
    "result": []
  },
  {
    "postal": "L4T3J9",
    "result": []
  },
  {
    "postal": "L4T2Y0",
    "result": []
  },
  {
    "postal": "L4T8X5",
    "result": []
  },
  {
    "postal": "L4T2M7",
    "result": [
      {
        "electoralDistricts": [
          {
            "election": null,
            "id": 64,
            "name": "Mississauga—Malton"
          }
        ],
        "pollDivisionIds": [
          10139809
        ],
        "postalCode": "L4T2M7",
        "streetName": "REINDEER",
        "streetDirectionId": null,
        "streetTypeId": "DR",
        "placeName": "MISSISSAUGA",
        "streetNameDisplayText": "REINDEER DR, MISSISSAUGA"
      }
    ]
  },
  {
    "postal": "L4T9Z3",
    "result": []
  },
  {
    "postal": "L4T7W2",
    "result": []
  },
  {
    "postal": "L4T3W0",
    "result": []
  },
  {
    "postal": "L4T3M1",
    "result": [
      {
        "electoralDistricts": [
          {
            "election": null,
            "id": 64,
            "name": "Mississauga—Malton"
          }
        ],
        "pollDivisionIds": [
          10139802
        ],
        "postalCode": "L4T3M1",
        "streetName": "KEENAN",
        "streetDirectionId": null,
        "streetTypeId": "CRES",
        "placeName": "MISSISSAUGA",
        "streetNameDisplayText": "KEENAN CRES, MISSISSAUGA"
      }
    ]
  },
  {
    "postal": "L4T6A5",
    "result": []
  },
  {
    "postal": "L4T2M9",
    "result": [
      {
        "electoralDistricts": [
          {
            "election": null,
            "id": 64,
            "name": "Mississauga—Malton"
          }
        ],
        "pollDivisionIds": [
          10139807
        ],
        "postalCode": "L4T2M9",
        "streetName": "PICKFAIR",
        "streetDirectionId": null,
        "streetTypeId": "DR",
        "placeName": "MISSISSAUGA",
        "streetNameDisplayText": "PICKFAIR DR, MISSISSAUGA"
      }
    ]
  },
  {
    "postal": "L4T5C3",
    "result": []
  },
  {
    "postal": "L4T0Y6",
    "result": []
  },
  {
    "postal": "L4T9H7",
    "result": []
  },
  {
    "postal": "L4T3L0",
    "result": []
  },
  {
    "postal": "L4T5N9",
    "result": []
  },
  {
    "postal": "L4T5E3",
    "result": []
  },
  {
    "postal": "L4T7M9",
    "result": []
  },
  {
    "postal": "L4T8N2",
    "result": []
  },
  {
    "postal": "L4T9H3",
    "result": []
  },
  {
    "postal": "L4T2K8",
    "result": [
      {
        "electoralDistricts": [
          {
            "election": null,
            "id": 64,
            "name": "Mississauga—Malton"
          }
        ],
        "pollDivisionIds": [
          10139807
        ],
        "postalCode": "L4T2K8",
        "streetName": "MANION",
        "streetDirectionId": null,
        "streetTypeId": "RD",
        "placeName": "MISSISSAUGA",
        "streetNameDisplayText": "MANION RD, MISSISSAUGA"
      }
    ]
  },
  {
    "postal": "L4T9L0",
    "result": []
  },
  {
    "postal": "L4T6L9",
    "result": []
  },
  {
    "postal": "L4T6A8",
    "result": []
  },
  {
    "postal": "L4T2K6",
    "result": [
      {
        "electoralDistricts": [
          {
            "election": null,
            "id": 64,
            "name": "Mississauga—Malton"
          }
        ],
        "pollDivisionIds": [
          10139809
        ],
        "postalCode": "L4T2K6",
        "streetName": "MANION",
        "streetDirectionId": null,
        "streetTypeId": "RD",
        "placeName": "MISSISSAUGA",
        "streetNameDisplayText": "MANION RD, MISSISSAUGA"
      }
    ]
  },
  {
    "postal": "L4T2M0",
    "result": []
  },
  {
    "postal": "L4T5X7",
    "result": []
  },
  {
    "postal": "L4T0M7",
    "result": []
  },
  {
    "postal": "L4T7A6",
    "result": []
  },
  {
    "postal": "L4T3C5",
    "result": [
      {
        "electoralDistricts": [
          {
            "election": null,
            "id": 64,
            "name": "Mississauga—Malton"
          }
        ],
        "pollDivisionIds": [
          10139804
        ],
        "postalCode": "L4T3C5",
        "streetName": "DARCEL",
        "streetDirectionId": null,
        "streetTypeId": "AVE",
        "placeName": "MISSISSAUGA",
        "streetNameDisplayText": "DARCEL AVE, MISSISSAUGA"
      }
    ]
  },
  {
    "postal": "L4T2P2",
    "result": [
      {
        "electoralDistricts": [
          {
            "election": null,
            "id": 64,
            "name": "Mississauga—Malton"
          }
        ],
        "pollDivisionIds": [
          10139801
        ],
        "postalCode": "L4T2P2",
        "streetName": "LULLY",
        "streetDirectionId": null,
        "streetTypeId": "CRT",
        "placeName": "MISSISSAUGA",
        "streetNameDisplayText": "LULLY CRT, MISSISSAUGA"
      }
    ]
  },
  {
    "postal": "L4T9N4",
    "result": []
  },
  {
    "postal": "L4T3M9",
    "result": [
      {
        "electoralDistricts": [
          {
            "election": null,
            "id": 64,
            "name": "Mississauga—Malton"
          }
        ],
        "pollDivisionIds": [
          10139803
        ],
        "postalCode": "L4T3M9",
        "streetName": "GOREWAY",
        "streetDirectionId": null,
        "streetTypeId": "DR",
        "placeName": "MISSISSAUGA",
        "streetNameDisplayText": "GOREWAY DR, MISSISSAUGA"
      }
    ]
  },
  {
    "postal": "L4T8K6",
    "result": []
  },
  {
    "postal": "L4T1L2",
    "result": [
      {
        "electoralDistricts": [
          {
            "election": null,
            "id": 64,
            "name": "Mississauga—Malton"
          }
        ],
        "pollDivisionIds": [
          10139809
        ],
        "postalCode": "L4T1L2",
        "streetName": "BATH",
        "streetDirectionId": null,
        "streetTypeId": "RD",
        "placeName": "MISSISSAUGA",
        "streetNameDisplayText": "BATH RD, MISSISSAUGA"
      }
    ]
  },
  {
    "postal": "L4T2Z9",
    "result": [
      {
        "electoralDistricts": [
          {
            "election": null,
            "id": 64,
            "name": "Mississauga—Malton"
          }
        ],
        "pollDivisionIds": [
          10139802
        ],
        "postalCode": "L4T2Z9",
        "streetName": "ROCKHILL",
        "streetDirectionId": null,
        "streetTypeId": "RD",
        "placeName": "MISSISSAUGA",
        "streetNameDisplayText": "ROCKHILL RD, MISSISSAUGA"
      }
    ]
  },
  {
    "postal": "L4T2S2",
    "result": [
      {
        "electoralDistricts": [
          {
            "election": null,
            "id": 64,
            "name": "Mississauga—Malton"
          }
        ],
        "pollDivisionIds": [
          10139801
        ],
        "postalCode": "L4T2S2",
        "streetName": "MCKECHNIE",
        "streetDirectionId": null,
        "streetTypeId": "CRT",
        "placeName": "MISSISSAUGA",
        "streetNameDisplayText": "MCKECHNIE CRT, MISSISSAUGA"
      }
    ]
  },
  {
    "postal": "L4T2W2",
    "result": [
      {
        "electoralDistricts": [
          {
            "election": null,
            "id": 64,
            "name": "Mississauga—Malton"
          }
        ],
        "pollDivisionIds": [
          10139806
        ],
        "postalCode": "L4T2W2",
        "streetName": "NETHERBRAE",
        "streetDirectionId": null,
        "streetTypeId": "RD",
        "placeName": "MISSISSAUGA",
        "streetNameDisplayText": "NETHERBRAE RD, MISSISSAUGA"
      }
    ]
  },
  {
    "postal": "L4T2C3",
    "result": [
      {
        "electoralDistricts": [
          {
            "election": null,
            "id": 64,
            "name": "Mississauga—Malton"
          }
        ],
        "pollDivisionIds": [
          10139807
        ],
        "postalCode": "L4T2C3",
        "streetName": "CHINOOK",
        "streetDirectionId": null,
        "streetTypeId": "DR",
        "placeName": "MISSISSAUGA",
        "streetNameDisplayText": "CHINOOK DR, MISSISSAUGA"
      }
    ]
  },
  {
    "postal": "L4T6L7",
    "result": []
  },
  {
    "postal": "L4T3K0",
    "result": []
  },
  {
    "postal": "L4T3C1",
    "result": []
  },
  {
    "postal": "L4T6M9",
    "result": []
  },
  {
    "postal": "L4T4N9",
    "result": []
  },
  {
    "postal": "L4T3Y7",
    "result": [
      {
        "electoralDistricts": [
          {
            "election": null,
            "id": 64,
            "name": "Mississauga—Malton"
          }
        ],
        "pollDivisionIds": [
          10139809
        ],
        "postalCode": "L4T3Y7",
        "streetName": "TORBRAM",
        "streetDirectionId": null,
        "streetTypeId": "RD",
        "placeName": "MISSISSAUGA",
        "streetNameDisplayText": "TORBRAM RD, MISSISSAUGA"
      }
    ]
  },
  {
    "postal": "L4T2A9",
    "result": [
      {
        "electoralDistricts": [
          {
            "election": null,
            "id": 64,
            "name": "Mississauga—Malton"
          }
        ],
        "pollDivisionIds": [
          10139809
        ],
        "postalCode": "L4T2A9",
        "streetName": "REDSTONE",
        "streetDirectionId": null,
        "streetTypeId": "RD",
        "placeName": "MISSISSAUGA",
        "streetNameDisplayText": "REDSTONE RD, MISSISSAUGA"
      }
    ]
  },
  {
    "postal": "L4T6H5",
    "result": []
  },
  {
    "postal": "L4T8B4",
    "result": []
  },
  {
    "postal": "L4T4Z2",
    "result": []
  },
  {
    "postal": "L4T9J0",
    "result": []
  },
  {
    "postal": "L4T7V7",
    "result": []
  },
  {
    "postal": "L4T5T5",
    "result": []
  },
  {
    "postal": "L4T4W5",
    "result": []
  },
  {
    "postal": "L4T1T8",
    "result": [
      {
        "electoralDistricts": [
          {
            "election": null,
            "id": 64,
            "name": "Mississauga—Malton"
          }
        ],
        "pollDivisionIds": [
          10139806
        ],
        "postalCode": "L4T1T8",
        "streetName": "WOODRUFF",
        "streetDirectionId": null,
        "streetTypeId": "CRES",
        "placeName": "MISSISSAUGA",
        "streetNameDisplayText": "WOODRUFF CRES, MISSISSAUGA"
      }
    ]
  },
  {
    "postal": "L4T9G6",
    "result": []
  },
  {
    "postal": "L4T1H3",
    "result": [
      {
        "electoralDistricts": [
          {
            "election": null,
            "id": 64,
            "name": "Mississauga—Malton"
          }
        ],
        "pollDivisionIds": [
          10139809
        ],
        "postalCode": "L4T1H3",
        "streetName": "BREN",
        "streetDirectionId": null,
        "streetTypeId": "RD",
        "placeName": "MISSISSAUGA",
        "streetNameDisplayText": "BREN RD, MISSISSAUGA"
      }
    ]
  },
  {
    "postal": "L4T5R5",
    "result": []
  },
  {
    "postal": "L4T8A4",
    "result": []
  },
  {
    "postal": "L4T3T6",
    "result": [
      {
        "electoralDistricts": [
          {
            "election": null,
            "id": 64,
            "name": "Mississauga—Malton"
          }
        ],
        "pollDivisionIds": [
          10139804
        ],
        "postalCode": "L4T3T6",
        "streetName": "DARCEL",
        "streetDirectionId": null,
        "streetTypeId": "AVE",
        "placeName": "MISSISSAUGA",
        "streetNameDisplayText": "DARCEL AVE, MISSISSAUGA"
      }
    ]
  },
  {
    "postal": "L4T9W8",
    "result": []
  },
  {
    "postal": "L4T0N3",
    "result": []
  },
  {
    "postal": "L4T7V0",
    "result": []
  },
  {
    "postal": "L4T8T5",
    "result": []
  },
  {
    "postal": "L4T5N3",
    "result": []
  },
  {
    "postal": "L4T5G9",
    "result": []
  },
  {
    "postal": "L4T3X8",
    "result": [
      {
        "electoralDistricts": [
          {
            "election": null,
            "id": 64,
            "name": "Mississauga—Malton"
          }
        ],
        "pollDivisionIds": [
          10139802
        ],
        "postalCode": "L4T3X8",
        "streetName": "DARCEL",
        "streetDirectionId": null,
        "streetTypeId": "AVE",
        "placeName": "MISSISSAUGA",
        "streetNameDisplayText": "DARCEL AVE, MISSISSAUGA"
      }
    ]
  },
  {
    "postal": "L4T9R3",
    "result": []
  },
  {
    "postal": "L4T2S1",
    "result": [
      {
        "electoralDistricts": [
          {
            "election": null,
            "id": 64,
            "name": "Mississauga—Malton"
          }
        ],
        "pollDivisionIds": [
          10139801
        ],
        "postalCode": "L4T2S1",
        "streetName": "MCKECHNIE",
        "streetDirectionId": null,
        "streetTypeId": "CRT",
        "placeName": "MISSISSAUGA",
        "streetNameDisplayText": "MCKECHNIE CRT, MISSISSAUGA"
      }
    ]
  },
  {
    "postal": "L4T9J7",
    "result": []
  },
  {
    "postal": "L4T2J3",
    "result": [
      {
        "electoralDistricts": [
          {
            "election": null,
            "id": 64,
            "name": "Mississauga—Malton"
          }
        ],
        "pollDivisionIds": [
          10139807
        ],
        "postalCode": "L4T2J3",
        "streetName": "BONAVENTURE",
        "streetDirectionId": null,
        "streetTypeId": "DR",
        "placeName": "MISSISSAUGA",
        "streetNameDisplayText": "BONAVENTURE DR, MISSISSAUGA"
      }
    ]
  },
  {
    "postal": "L4T3B6",
    "result": []
  },
  {
    "postal": "L4T8J0",
    "result": []
  },
  {
    "postal": "L4T7R4",
    "result": []
  },
  {
    "postal": "L4T8K8",
    "result": []
  },
  {
    "postal": "L4T4P3",
    "result": []
  },
  {
    "postal": "L4T0A2",
    "result": []
  },
  {
    "postal": "L4T2G2",
    "result": [
      {
        "electoralDistricts": [
          {
            "election": null,
            "id": 64,
            "name": "Mississauga—Malton"
          }
        ],
        "pollDivisionIds": [
          10139801
        ],
        "postalCode": "L4T2G2",
        "streetName": "BRANDON GATE",
        "streetDirectionId": null,
        "streetTypeId": "DR",
        "placeName": "MISSISSAUGA",
        "streetNameDisplayText": "BRANDON GATE DR, MISSISSAUGA"
      }
    ]
  },
  {
    "postal": "L4T5Y9",
    "result": []
  },
  {
    "postal": "L4T7X0",
    "result": []
  },
  {
    "postal": "L4T7W3",
    "result": []
  },
  {
    "postal": "L4T7X5",
    "result": []
  },
  {
    "postal": "L4T5K6",
    "result": []
  },
  {
    "postal": "L4T5B6",
    "result": []
  },
  {
    "postal": "L4T7Z0",
    "result": []
  },
  {
    "postal": "L4T9H6",
    "result": []
  },
  {
    "postal": "L4T1B4",
    "result": []
  },
  {
    "postal": "L4T1A0",
    "result": []
  },
  {
    "postal": "L4T9A0",
    "result": []
  },
  {
    "postal": "L4T1M6",
    "result": [
      {
        "electoralDistricts": [
          {
            "election": null,
            "id": 64,
            "name": "Mississauga—Malton"
          }
        ],
        "pollDivisionIds": [
          10139808
        ],
        "postalCode": "L4T1M6",
        "streetName": "JUSTINE",
        "streetDirectionId": null,
        "streetTypeId": "DR",
        "placeName": "MISSISSAUGA",
        "streetNameDisplayText": "JUSTINE DR, MISSISSAUGA"
      }
    ]
  },
  {
    "postal": "L4T5H0",
    "result": []
  },
  {
    "postal": "L4T1K6",
    "result": [
      {
        "electoralDistricts": [
          {
            "election": null,
            "id": 64,
            "name": "Mississauga—Malton"
          }
        ],
        "pollDivisionIds": [
          10139809
        ],
        "postalCode": "L4T1K6",
        "streetName": "SLEDMAN",
        "streetDirectionId": null,
        "streetTypeId": "ST",
        "placeName": "MISSISSAUGA",
        "streetNameDisplayText": "SLEDMAN ST, MISSISSAUGA"
      }
    ]
  },
  {
    "postal": "L4T5E1",
    "result": []
  },
  {
    "postal": "L4T3T9",
    "result": [
      {
        "electoralDistricts": [
          {
            "election": null,
            "id": 64,
            "name": "Mississauga—Malton"
          }
        ],
        "pollDivisionIds": [
          10139803
        ],
        "postalCode": "L4T3T9",
        "streetName": "MORNING STAR",
        "streetDirectionId": null,
        "streetTypeId": "DR",
        "placeName": "MISSISSAUGA",
        "streetNameDisplayText": "MORNING STAR DR, MISSISSAUGA"
      }
    ]
  },
  {
    "postal": "L4T2M6",
    "result": [
      {
        "electoralDistricts": [
          {
            "election": null,
            "id": 64,
            "name": "Mississauga—Malton"
          }
        ],
        "pollDivisionIds": [
          10139809
        ],
        "postalCode": "L4T2M6",
        "streetName": "REINDEER",
        "streetDirectionId": null,
        "streetTypeId": "DR",
        "placeName": "MISSISSAUGA",
        "streetNameDisplayText": "REINDEER DR, MISSISSAUGA"
      }
    ]
  },
  {
    "postal": "L4T0G5",
    "result": []
  },
  {
    "postal": "L4T0Y2",
    "result": []
  },
  {
    "postal": "L4T2Y7",
    "result": [
      {
        "electoralDistricts": [
          {
            "election": null,
            "id": 64,
            "name": "Mississauga—Malton"
          }
        ],
        "pollDivisionIds": [
          10139804
        ],
        "postalCode": "L4T2Y7",
        "streetName": "WAINBROOK",
        "streetDirectionId": null,
        "streetTypeId": "RD",
        "placeName": "MISSISSAUGA",
        "streetNameDisplayText": "WAINBROOK RD, MISSISSAUGA"
      }
    ]
  },
  {
    "postal": "L4T2J7",
    "result": [
      {
        "electoralDistricts": [
          {
            "election": null,
            "id": 64,
            "name": "Mississauga—Malton"
          }
        ],
        "pollDivisionIds": [
          10139809
        ],
        "postalCode": "L4T2J7",
        "streetName": "PURNELL",
        "streetDirectionId": null,
        "streetTypeId": "CRT",
        "placeName": "MISSISSAUGA",
        "streetNameDisplayText": "PURNELL CRT, MISSISSAUGA"
      }
    ]
  },
  {
    "postal": "L4T4K7",
    "result": []
  },
  {
    "postal": "L4T7P9",
    "result": []
  },
  {
    "postal": "L4T8X0",
    "result": []
  },
  {
    "postal": "L4T3X1",
    "result": [
      {
        "electoralDistricts": [
          {
            "election": null,
            "id": 64,
            "name": "Mississauga—Malton"
          }
        ],
        "pollDivisionIds": [
          10139809
        ],
        "postalCode": "L4T3X1",
        "streetName": "DREW",
        "streetDirectionId": null,
        "streetTypeId": "RD",
        "placeName": "MISSISSAUGA",
        "streetNameDisplayText": "DREW RD, MISSISSAUGA"
      }
    ]
  },
  {
    "postal": "L4T1R5",
    "result": [
      {
        "electoralDistricts": [
          {
            "election": null,
            "id": 64,
            "name": "Mississauga—Malton"
          }
        ],
        "pollDivisionIds": [
          10139809
        ],
        "postalCode": "L4T1R5",
        "streetName": "CHURCHILL",
        "streetDirectionId": null,
        "streetTypeId": "AVE",
        "placeName": "MISSISSAUGA",
        "streetNameDisplayText": "CHURCHILL AVE, MISSISSAUGA"
      }
    ]
  },
  {
    "postal": "L4T6X6",
    "result": []
  },
  {
    "postal": "L4T0Y1",
    "result": []
  },
  {
    "postal": "L4T8G1",
    "result": []
  },
  {
    "postal": "L4T3J3",
    "result": [
      {
        "electoralDistricts": [
          {
            "election": null,
            "id": 64,
            "name": "Mississauga—Malton"
          }
        ],
        "pollDivisionIds": [
          10139801
        ],
        "postalCode": "L4T3J3",
        "streetName": "DWIGGIN",
        "streetDirectionId": null,
        "streetTypeId": "AVE",
        "placeName": "MISSISSAUGA",
        "streetNameDisplayText": "DWIGGIN AVE, MISSISSAUGA"
      }
    ]
  },
  {
    "postal": "L4T8C2",
    "result": []
  },
  {
    "postal": "L4T4X9",
    "result": []
  },
  {
    "postal": "L4T6G9",
    "result": []
  },
  {
    "postal": "L4T4M3",
    "result": []
  },
  {
    "postal": "L4T9P7",
    "result": []
  },
  {
    "postal": "L4T4E5",
    "result": [
      {
        "electoralDistricts": [
          {
            "election": null,
            "id": 64,
            "name": "Mississauga—Malton"
          }
        ],
        "pollDivisionIds": [
          10139809
        ],
        "postalCode": "L4T4E5",
        "streetName": "AIRPORT",
        "streetDirectionId": null,
        "streetTypeId": "RD",
        "placeName": "MISSISSAUGA",
        "streetNameDisplayText": "AIRPORT RD, MISSISSAUGA"
      }
    ]
  },
  {
    "postal": "L4T5K9",
    "result": []
  },
  {
    "postal": "L4T2V2",
    "result": [
      {
        "electoralDistricts": [
          {
            "election": null,
            "id": 64,
            "name": "Mississauga—Malton"
          }
        ],
        "pollDivisionIds": [
          10139801
        ],
        "postalCode": "L4T2V2",
        "streetName": "GOREWAY",
        "streetDirectionId": null,
        "streetTypeId": "DR",
        "placeName": "MISSISSAUGA",
        "streetNameDisplayText": "GOREWAY DR, MISSISSAUGA"
      }
    ]
  },
  {
    "postal": "L4T2N9",
    "result": [
      {
        "electoralDistricts": [
          {
            "election": null,
            "id": 64,
            "name": "Mississauga—Malton"
          }
        ],
        "pollDivisionIds": [
          10139807
        ],
        "postalCode": "L4T2N9",
        "streetName": "NETHERWOOD",
        "streetDirectionId": null,
        "streetTypeId": "RD",
        "placeName": "MISSISSAUGA",
        "streetNameDisplayText": "NETHERWOOD RD, MISSISSAUGA"
      }
    ]
  },
  {
    "postal": "L4T6L4",
    "result": []
  },
  {
    "postal": "L4T8E0",
    "result": []
  },
  {
    "postal": "L4T0N0",
    "result": []
  },
  {
    "postal": "L4T6R0",
    "result": []
  },
  {
    "postal": "L4T9C1",
    "result": []
  },
  {
    "postal": "L4T4H4",
    "result": [
      {
        "electoralDistricts": [
          {
            "election": null,
            "id": 64,
            "name": "Mississauga—Malton"
          }
        ],
        "pollDivisionIds": [
          10139809
        ],
        "postalCode": "L4T4H4",
        "streetName": "AIRPORT",
        "streetDirectionId": null,
        "streetTypeId": "RD",
        "placeName": "MISSISSAUGA",
        "streetNameDisplayText": "AIRPORT RD, MISSISSAUGA"
      }
    ]
  },
  {
    "postal": "L4T5W3",
    "result": []
  },
  {
    "postal": "L4T9N9",
    "result": []
  },
  {
    "postal": "L4T1V7",
    "result": [
      {
        "electoralDistricts": [
          {
            "election": null,
            "id": 64,
            "name": "Mississauga—Malton"
          }
        ],
        "pollDivisionIds": [
          10139808
        ],
        "postalCode": "L4T1V7",
        "streetName": "JOLLIFFE",
        "streetDirectionId": null,
        "streetTypeId": "AVE",
        "placeName": "MISSISSAUGA",
        "streetNameDisplayText": "JOLLIFFE AVE, MISSISSAUGA"
      }
    ]
  },
  {
    "postal": "L4T8J1",
    "result": []
  },
  {
    "postal": "L4T5V9",
    "result": []
  },
  {
    "postal": "L4T2S8",
    "result": [
      {
        "electoralDistricts": [
          {
            "election": null,
            "id": 64,
            "name": "Mississauga—Malton"
          }
        ],
        "pollDivisionIds": [
          10139808
        ],
        "postalCode": "L4T2S8",
        "streetName": "MINOTOLA",
        "streetDirectionId": null,
        "streetTypeId": "AVE",
        "placeName": "MISSISSAUGA",
        "streetNameDisplayText": "MINOTOLA AVE, MISSISSAUGA"
      }
    ]
  },
  {
    "postal": "L4T6P0",
    "result": []
  },
  {
    "postal": "L4T4J8",
    "result": []
  },
  {
    "postal": "L4T0N1",
    "result": []
  },
  {
    "postal": "L4T1Y7",
    "result": [
      {
        "electoralDistricts": [
          {
            "election": null,
            "id": 64,
            "name": "Mississauga—Malton"
          }
        ],
        "pollDivisionIds": [
          10139804
        ],
        "postalCode": "L4T1Y7",
        "streetName": "MORNING STAR",
        "streetDirectionId": null,
        "streetTypeId": "DR",
        "placeName": "MISSISAUGA",
        "streetNameDisplayText": "MORNING STAR DR, MISSISAUGA"
      },
      {
        "electoralDistricts": [
          {
            "election": null,
            "id": 64,
            "name": "Mississauga—Malton"
          }
        ],
        "pollDivisionIds": [
          10139804
        ],
        "postalCode": "L4T1Y7",
        "streetName": "MORNING STAR",
        "streetDirectionId": null,
        "streetTypeId": "DR",
        "placeName": "MISSISSAUGA",
        "streetNameDisplayText": "MORNING STAR DR, MISSISSAUGA"
      }
    ]
  },
  {
    "postal": "L4T7W5",
    "result": []
  },
  {
    "postal": "L4T3Z1",
    "result": []
  },
  {
    "postal": "L4T7M6",
    "result": []
  },
  {
    "postal": "L4T1W7",
    "result": [
      {
        "electoralDistricts": [
          {
            "election": null,
            "id": 64,
            "name": "Mississauga—Malton"
          }
        ],
        "pollDivisionIds": [
          10139808
        ],
        "postalCode": "L4T1W7",
        "streetName": "DRIFTON",
        "streetDirectionId": null,
        "streetTypeId": "CRES",
        "placeName": "MISSISSAUGA",
        "streetNameDisplayText": "DRIFTON CRES, MISSISSAUGA"
      }
    ]
  },
  {
    "postal": "L4T1X1",
    "result": [
      {
        "electoralDistricts": [
          {
            "election": null,
            "id": 64,
            "name": "Mississauga—Malton"
          }
        ],
        "pollDivisionIds": [
          10139809
        ],
        "postalCode": "L4T1X1",
        "streetName": "MORNING STAR",
        "streetDirectionId": null,
        "streetTypeId": "DR",
        "placeName": "MISSISSAUGA",
        "streetNameDisplayText": "MORNING STAR DR, MISSISSAUGA"
      }
    ]
  },
  {
    "postal": "L4T0C1",
    "result": []
  },
  {
    "postal": "L4T4N3",
    "result": []
  },
  {
    "postal": "L4T4S8",
    "result": []
  },
  {
    "postal": "L4T1H6",
    "result": [
      {
        "electoralDistricts": [
          {
            "election": null,
            "id": 64,
            "name": "Mississauga—Malton"
          }
        ],
        "pollDivisionIds": [
          10139809
        ],
        "postalCode": "L4T1H6",
        "streetName": "CATTRICK",
        "streetDirectionId": null,
        "streetTypeId": "ST",
        "placeName": "MISSISSAUGA",
        "streetNameDisplayText": "CATTRICK ST, MISSISSAUGA"
      }
    ]
  },
  {
    "postal": "L4T2Z4",
    "result": [
      {
        "electoralDistricts": [
          {
            "election": null,
            "id": 64,
            "name": "Mississauga—Malton"
          }
        ],
        "pollDivisionIds": [
          10139803
        ],
        "postalCode": "L4T2Z4",
        "streetName": "CORLISS",
        "streetDirectionId": null,
        "streetTypeId": "CRES",
        "placeName": "MISSISSAUGA",
        "streetNameDisplayText": "CORLISS CRES, MISSISSAUGA"
      }
    ]
  },
  {
    "postal": "L4T7K3",
    "result": []
  },
  {
    "postal": "L4T8A2",
    "result": []
  },
  {
    "postal": "L4T6J1",
    "result": []
  },
  {
    "postal": "L4T5Z6",
    "result": []
  },
  {
    "postal": "L4T3Z0",
    "result": []
  },
  {
    "postal": "L4T8M0",
    "result": []
  },
  {
    "postal": "L4T1Z6",
    "result": [
      {
        "electoralDistricts": [
          {
            "election": null,
            "id": 64,
            "name": "Mississauga—Malton"
          }
        ],
        "pollDivisionIds": [
          10139807
        ],
        "postalCode": "L4T1Z6",
        "streetName": "BALLAD",
        "streetDirectionId": null,
        "streetTypeId": "DR",
        "placeName": "MISSISSAUGA",
        "streetNameDisplayText": "BALLAD DR, MISSISSAUGA"
      }
    ]
  },
  {
    "postal": "L4T8K7",
    "result": []
  },
  {
    "postal": "L4T1N3",
    "result": [
      {
        "electoralDistricts": [
          {
            "election": null,
            "id": 64,
            "name": "Mississauga—Malton"
          }
        ],
        "pollDivisionIds": [
          10139806
        ],
        "postalCode": "L4T1N3",
        "streetName": "CHIGWEL",
        "streetDirectionId": null,
        "streetTypeId": "CRT",
        "placeName": "MISSISSAUGA",
        "streetNameDisplayText": "CHIGWEL CRT, MISSISSAUGA"
      }
    ]
  },
  {
    "postal": "L4T9S2",
    "result": []
  },
  {
    "postal": "L4T2K1",
    "result": [
      {
        "electoralDistricts": [
          {
            "election": null,
            "id": 64,
            "name": "Mississauga—Malton"
          }
        ],
        "pollDivisionIds": [
          10139807
        ],
        "postalCode": "L4T2K1",
        "streetName": "SILLS",
        "streetDirectionId": null,
        "streetTypeId": "RD",
        "placeName": "MISSISSAUGA",
        "streetNameDisplayText": "SILLS RD, MISSISSAUGA"
      }
    ]
  },
  {
    "postal": "L4T1E8",
    "result": [
      {
        "electoralDistricts": [
          {
            "election": null,
            "id": 64,
            "name": "Mississauga—Malton"
          }
        ],
        "pollDivisionIds": [
          10139809
        ],
        "postalCode": "L4T1E8",
        "streetName": "BEVERLEY",
        "streetDirectionId": null,
        "streetTypeId": "ST",
        "placeName": "MISSISSAUGA",
        "streetNameDisplayText": "BEVERLEY ST, MISSISSAUGA"
      }
    ]
  },
  {
    "postal": "L4T9B8",
    "result": []
  },
  {
    "postal": "L4T7X4",
    "result": []
  },
  {
    "postal": "L4T1Z4",
    "result": [
      {
        "electoralDistricts": [
          {
            "election": null,
            "id": 64,
            "name": "Mississauga—Malton"
          }
        ],
        "pollDivisionIds": [
          10139807
        ],
        "postalCode": "L4T1Z4",
        "streetName": "LAFONTAINE",
        "streetDirectionId": null,
        "streetTypeId": "RD",
        "placeName": "MISSISSAUGA",
        "streetNameDisplayText": "LAFONTAINE RD, MISSISSAUGA"
      }
    ]
  },
  {
    "postal": "L4T2C7",
    "result": [
      {
        "electoralDistricts": [
          {
            "election": null,
            "id": 64,
            "name": "Mississauga—Malton"
          }
        ],
        "pollDivisionIds": [
          10139801
        ],
        "postalCode": "L4T2C7",
        "streetName": "CLARA",
        "streetDirectionId": null,
        "streetTypeId": "DR",
        "placeName": "MISSISSAUGA",
        "streetNameDisplayText": "CLARA DR, MISSISSAUGA"
      }
    ]
  },
  {
    "postal": "L4T2E7",
    "result": [
      {
        "electoralDistricts": [
          {
            "election": null,
            "id": 64,
            "name": "Mississauga—Malton"
          }
        ],
        "pollDivisionIds": [
          10139803
        ],
        "postalCode": "L4T2E7",
        "streetName": "MONICA",
        "streetDirectionId": null,
        "streetTypeId": "DR",
        "placeName": "MISSISSAUGA",
        "streetNameDisplayText": "MONICA DR, MISSISSAUGA"
      }
    ]
  },
  {
    "postal": "L4T3R1",
    "result": []
  },
  {
    "postal": "L4T4K4",
    "result": []
  },
  {
    "postal": "L4T9G3",
    "result": []
  },
  {
    "postal": "L4T6C9",
    "result": []
  },
  {
    "postal": "L4T9H5",
    "result": []
  },
  {
    "postal": "L4T1P5",
    "result": [
      {
        "electoralDistricts": [
          {
            "election": null,
            "id": 64,
            "name": "Mississauga—Malton"
          }
        ],
        "pollDivisionIds": [
          10139809
        ],
        "postalCode": "L4T1P5",
        "streetName": "MERRITT",
        "streetDirectionId": null,
        "streetTypeId": "AVE",
        "placeName": "MISSISSAUGA",
        "streetNameDisplayText": "MERRITT AVE, MISSISSAUGA"
      }
    ]
  },
  {
    "postal": "L4T2J5",
    "result": [
      {
        "electoralDistricts": [
          {
            "election": null,
            "id": 64,
            "name": "Mississauga—Malton"
          }
        ],
        "pollDivisionIds": [
          10139807
        ],
        "postalCode": "L4T2J5",
        "streetName": "BONAVENTURE",
        "streetDirectionId": null,
        "streetTypeId": "DR",
        "placeName": "MISSISSAUGA",
        "streetNameDisplayText": "BONAVENTURE DR, MISSISSAUGA"
      }
    ]
  },
  {
    "postal": "L4T4W6",
    "result": []
  },
  {
    "postal": "L4T8M8",
    "result": []
  },
  {
    "postal": "L4T6C5",
    "result": []
  },
  {
    "postal": "L4T9H0",
    "result": []
  },
  {
    "postal": "L4T1X8",
    "result": [
      {
        "electoralDistricts": [
          {
            "election": null,
            "id": 64,
            "name": "Mississauga—Malton"
          }
        ],
        "pollDivisionIds": [
          10139808
        ],
        "postalCode": "L4T1X8",
        "streetName": "MORNING STAR",
        "streetDirectionId": null,
        "streetTypeId": "DR",
        "placeName": "MISSISSAUGA",
        "streetNameDisplayText": "MORNING STAR DR, MISSISSAUGA"
      }
    ]
  },
  {
    "postal": "L4T3H4",
    "result": [
      {
        "electoralDistricts": [
          {
            "election": null,
            "id": 64,
            "name": "Mississauga—Malton"
          }
        ],
        "pollDivisionIds": [
          10139801
        ],
        "postalCode": "L4T3H4",
        "streetName": "PRIORY",
        "streetDirectionId": null,
        "streetTypeId": "CRES",
        "placeName": "MISSISSAUGA",
        "streetNameDisplayText": "PRIORY CRES, MISSISSAUGA"
      }
    ]
  },
  {
    "postal": "L4T4E7",
    "result": []
  },
  {
    "postal": "L4T8A0",
    "result": []
  },
  {
    "postal": "L4T1Z7",
    "result": [
      {
        "electoralDistricts": [
          {
            "election": null,
            "id": 64,
            "name": "Mississauga—Malton"
          }
        ],
        "pollDivisionIds": [
          10139807
        ],
        "postalCode": "L4T1Z7",
        "streetName": "BALLAD",
        "streetDirectionId": null,
        "streetTypeId": "DR",
        "placeName": "MISSISSAUGA",
        "streetNameDisplayText": "BALLAD DR, MISSISSAUGA"
      }
    ]
  },
  {
    "postal": "L4T7Z3",
    "result": []
  },
  {
    "postal": "L4T0L7",
    "result": []
  },
  {
    "postal": "L4T2C6",
    "result": [
      {
        "electoralDistricts": [
          {
            "election": null,
            "id": 64,
            "name": "Mississauga—Malton"
          }
        ],
        "pollDivisionIds": [
          10139809
        ],
        "postalCode": "L4T2C6",
        "streetName": "MALLBRIDGE",
        "streetDirectionId": null,
        "streetTypeId": "CRES",
        "placeName": "MISSISSAUGA",
        "streetNameDisplayText": "MALLBRIDGE CRES, MISSISSAUGA"
      }
    ]
  },
  {
    "postal": "L4T6M3",
    "result": []
  },
  {
    "postal": "L4T2J1",
    "result": [
      {
        "electoralDistricts": [
          {
            "election": null,
            "id": 64,
            "name": "Mississauga—Malton"
          }
        ],
        "pollDivisionIds": [
          10139809
        ],
        "postalCode": "L4T2J1",
        "streetName": "LANDEN",
        "streetDirectionId": null,
        "streetTypeId": "CRT",
        "placeName": "MISSISSAUGA",
        "streetNameDisplayText": "LANDEN CRT, MISSISSAUGA"
      }
    ]
  },
  {
    "postal": "L4T3E3",
    "result": [
      {
        "electoralDistricts": [
          {
            "election": null,
            "id": 64,
            "name": "Mississauga—Malton"
          }
        ],
        "pollDivisionIds": [
          10139802
        ],
        "postalCode": "L4T3E3",
        "streetName": "BRANDON GATE",
        "streetDirectionId": null,
        "streetTypeId": "DR",
        "placeName": "MISSISSAUGA",
        "streetNameDisplayText": "BRANDON GATE DR, MISSISSAUGA"
      }
    ]
  },
  {
    "postal": "L4T6Z9",
    "result": []
  },
  {
    "postal": "L4T3M3",
    "result": [
      {
        "electoralDistricts": [
          {
            "election": null,
            "id": 64,
            "name": "Mississauga—Malton"
          }
        ],
        "pollDivisionIds": [
          10139802
        ],
        "postalCode": "L4T3M3",
        "streetName": "BRANDON GATE",
        "streetDirectionId": null,
        "streetTypeId": "DR",
        "placeName": "MISSISSAUGA",
        "streetNameDisplayText": "BRANDON GATE DR, MISSISSAUGA"
      }
    ]
  },
  {
    "postal": "L4T9B1",
    "result": []
  },
  {
    "postal": "L4T9J5",
    "result": []
  },
  {
    "postal": "L4T4V8",
    "result": []
  },
  {
    "postal": "L4T6W2",
    "result": []
  },
  {
    "postal": "L4T0V5",
    "result": []
  },
  {
    "postal": "L4T0Z8",
    "result": []
  },
  {
    "postal": "L4T5G2",
    "result": []
  },
  {
    "postal": "L4T4N4",
    "result": []
  },
  {
    "postal": "L4T8G7",
    "result": []
  },
  {
    "postal": "L4T8W1",
    "result": []
  },
  {
    "postal": "L4T1S6",
    "result": [
      {
        "electoralDistricts": [
          {
            "election": null,
            "id": 64,
            "name": "Mississauga—Malton"
          }
        ],
        "pollDivisionIds": [
          10139806
        ],
        "postalCode": "L4T1S6",
        "streetName": "CRABTREE",
        "streetDirectionId": null,
        "streetTypeId": "CRES",
        "placeName": "MISSISSAUGA",
        "streetNameDisplayText": "CRABTREE CRES, MISSISSAUGA"
      }
    ]
  },
  {
    "postal": "L4T4E0",
    "result": []
  },
  {
    "postal": "L4T4L9",
    "result": []
  },
  {
    "postal": "L4T5Z9",
    "result": []
  },
  {
    "postal": "L4T5V3",
    "result": []
  },
  {
    "postal": "L4T4V2",
    "result": []
  },
  {
    "postal": "L4T7C0",
    "result": []
  },
  {
    "postal": "L4T6L0",
    "result": []
  },
  {
    "postal": "L4T1S9",
    "result": [
      {
        "electoralDistricts": [
          {
            "election": null,
            "id": 64,
            "name": "Mississauga—Malton"
          }
        ],
        "pollDivisionIds": [
          10139808,
          10139809
        ],
        "postalCode": "L4T1S9",
        "streetName": "ETUDE",
        "streetDirectionId": null,
        "streetTypeId": "DR",
        "placeName": "MISSISSAUGA",
        "streetNameDisplayText": "ETUDE DR, MISSISSAUGA"
      }
    ]
  },
  {
    "postal": "L4T7R6",
    "result": []
  },
  {
    "postal": "L4T7J0",
    "result": []
  },
  {
    "postal": "L4T5M0",
    "result": []
  },
  {
    "postal": "L4T2E5",
    "result": [
      {
        "electoralDistricts": [
          {
            "election": null,
            "id": 64,
            "name": "Mississauga—Malton"
          }
        ],
        "pollDivisionIds": [
          10139803
        ],
        "postalCode": "L4T2E5",
        "streetName": "MONICA",
        "streetDirectionId": null,
        "streetTypeId": "DR",
        "placeName": "MISSISSAUGA",
        "streetNameDisplayText": "MONICA DR, MISSISSAUGA"
      }
    ]
  },
  {
    "postal": "L4T7C7",
    "result": []
  },
  {
    "postal": "L4T5C0",
    "result": []
  },
  {
    "postal": "L4T8V9",
    "result": []
  },
  {
    "postal": "L4T7E0",
    "result": []
  },
  {
    "postal": "L4T6R4",
    "result": []
  },
  {
    "postal": "L4T3Z7",
    "result": []
  },
  {
    "postal": "L4T1J9",
    "result": [
      {
        "electoralDistricts": [
          {
            "election": null,
            "id": 64,
            "name": "Mississauga—Malton"
          }
        ],
        "pollDivisionIds": [
          10139809
        ],
        "postalCode": "L4T1J9",
        "streetName": "NORTH ALARTON",
        "streetDirectionId": null,
        "streetTypeId": "ST",
        "placeName": "MISSISSAUGA",
        "streetNameDisplayText": "NORTH ALARTON ST, MISSISSAUGA"
      }
    ]
  },
  {
    "postal": "L4T7K6",
    "result": []
  },
  {
    "postal": "L4T7Y5",
    "result": []
  },
  {
    "postal": "L4T1B7",
    "result": [
      {
        "electoralDistricts": [
          {
            "election": null,
            "id": 64,
            "name": "Mississauga—Malton"
          }
        ],
        "pollDivisionIds": [
          10139809
        ],
        "postalCode": "L4T1B7",
        "streetName": "BURLINGTON",
        "streetDirectionId": null,
        "streetTypeId": "ST",
        "placeName": "MISSISSAUGA",
        "streetNameDisplayText": "BURLINGTON ST, MISSISSAUGA"
      }
    ]
  },
  {
    "postal": "L4T4S9",
    "result": []
  },
  {
    "postal": "L4T9R9",
    "result": []
  },
  {
    "postal": "L4T5K7",
    "result": []
  },
  {
    "postal": "L4T6P2",
    "result": []
  },
  {
    "postal": "L4T2C5",
    "result": [
      {
        "electoralDistricts": [
          {
            "election": null,
            "id": 64,
            "name": "Mississauga—Malton"
          }
        ],
        "pollDivisionIds": [
          10139807
        ],
        "postalCode": "L4T2C5",
        "streetName": "MALLBRIDGE",
        "streetDirectionId": null,
        "streetTypeId": "CRES",
        "placeName": "MISSISSAUGA",
        "streetNameDisplayText": "MALLBRIDGE CRES, MISSISSAUGA"
      }
    ]
  },
  {
    "postal": "L4T2N0",
    "result": []
  },
  {
    "postal": "L4T1G0",
    "result": []
  },
  {
    "postal": "L4T4K5",
    "result": []
  },
  {
    "postal": "L4T9B5",
    "result": []
  },
  {
    "postal": "L4T6T5",
    "result": []
  },
  {
    "postal": "L4T1N8",
    "result": [
      {
        "electoralDistricts": [
          {
            "election": null,
            "id": 64,
            "name": "Mississauga—Malton"
          }
        ],
        "pollDivisionIds": [
          10139809
        ],
        "postalCode": "L4T1N8",
        "streetName": "IRESON",
        "streetDirectionId": null,
        "streetTypeId": "CRT",
        "placeName": "MISSISSAUGA",
        "streetNameDisplayText": "IRESON CRT, MISSISSAUGA"
      }
    ]
  },
  {
    "postal": "L4T0C0",
    "result": []
  },
  {
    "postal": "L4T0R9",
    "result": []
  },
  {
    "postal": "L4T7L1",
    "result": []
  },
  {
    "postal": "L4T3Y8",
    "result": []
  },
  {
    "postal": "L4T7X9",
    "result": []
  },
  {
    "postal": "L4T1A7",
    "result": []
  },
  {
    "postal": "L4T2T9",
    "result": [
      {
        "electoralDistricts": [
          {
            "election": null,
            "id": 64,
            "name": "Mississauga—Malton"
          }
        ],
        "pollDivisionIds": [
          10139804
        ],
        "postalCode": "L4T2T9",
        "streetName": "GOREWAY",
        "streetDirectionId": null,
        "streetTypeId": "DR",
        "placeName": "MISSISSAUGA",
        "streetNameDisplayText": "GOREWAY DR, MISSISSAUGA"
      }
    ]
  },
  {
    "postal": "L4T2E6",
    "result": [
      {
        "electoralDistricts": [
          {
            "election": null,
            "id": 64,
            "name": "Mississauga—Malton"
          }
        ],
        "pollDivisionIds": [
          10139803
        ],
        "postalCode": "L4T2E6",
        "streetName": "MONICA",
        "streetDirectionId": null,
        "streetTypeId": "DR",
        "placeName": "MISSISSAUGA",
        "streetNameDisplayText": "MONICA DR, MISSISSAUGA"
      }
    ]
  },
  {
    "postal": "L4T8Y1",
    "result": []
  },
  {
    "postal": "L4T0J5",
    "result": []
  },
  {
    "postal": "L4T4J1",
    "result": []
  },
  {
    "postal": "L4T1A5",
    "result": [
      {
        "electoralDistricts": [
          {
            "election": null,
            "id": 64,
            "name": "Mississauga—Malton"
          }
        ],
        "pollDivisionIds": [
          10139809
        ],
        "postalCode": "L4T1A5",
        "streetName": "DERRY",
        "streetDirectionId": "E",
        "streetTypeId": "RD",
        "placeName": "MISSISSAUGA",
        "streetNameDisplayText": "DERRY RD E, MISSISSAUGA"
      }
    ]
  },
  {
    "postal": "L4T6Z6",
    "result": []
  },
  {
    "postal": "L4T5K4",
    "result": []
  },
  {
    "postal": "L4T7R9",
    "result": []
  },
  {
    "postal": "L4T6G4",
    "result": []
  }
]
