[
  {
    "postal": "N2J9J6",
    "result": []
  },
  {
    "postal": "N2J9Z5",
    "result": []
  },
  {
    "postal": "N2J7H8",
    "result": []
  },
  {
    "postal": "N2J0P6",
    "result": []
  },
  {
    "postal": "N2J0S7",
    "result": []
  },
  {
    "postal": "N2J8B9",
    "result": []
  },
  {
    "postal": "N2J2A6",
    "result": [
      {
        "electoralDistricts": [
          {
            "election": null,
            "id": 114,
            "name": "Waterloo"
          }
        ],
        "pollDivisionIds": [
          10126563
        ],
        "postalCode": "N2J2A6",
        "streetName": "WEBER",
        "streetDirectionId": "S",
        "streetTypeId": "ST",
        "placeName": "WATERLOO",
        "streetNameDisplayText": "WEBER ST S, WATERLOO"
      }
    ]
  },
  {
    "postal": "N2J7V2",
    "result": []
  },
  {
    "postal": "N2J9P4",
    "result": []
  },
  {
    "postal": "N2J6G0",
    "result": []
  },
  {
    "postal": "N2J2K0",
    "result": []
  },
  {
    "postal": "N2J7N6",
    "result": []
  },
  {
    "postal": "N2J5R3",
    "result": []
  },
  {
    "postal": "N2J7K0",
    "result": []
  },
  {
    "postal": "N2J3R2",
    "result": [
      {
        "electoralDistricts": [
          {
            "election": null,
            "id": 114,
            "name": "Waterloo"
          }
        ],
        "pollDivisionIds": [
          10126567
        ],
        "postalCode": "N2J3R2",
        "streetName": "MARGARET",
        "streetDirectionId": "N",
        "streetTypeId": "AVE",
        "placeName": "WATERLOO",
        "streetNameDisplayText": "MARGARET AVE N, WATERLOO"
      }
    ]
  },
  {
    "postal": "N2J0J1",
    "result": []
  },
  {
    "postal": "N2J0B0",
    "result": []
  },
  {
    "postal": "N2J5Z2",
    "result": []
  },
  {
    "postal": "N2J7P3",
    "result": []
  },
  {
    "postal": "N2J2K3",
    "result": [
      {
        "electoralDistricts": [
          {
            "election": null,
            "id": 114,
            "name": "Waterloo"
          }
        ],
        "pollDivisionIds": [
          10126566
        ],
        "postalCode": "N2J2K3",
        "streetName": "BRIDGEPORT",
        "streetDirectionId": "E",
        "streetTypeId": "RD",
        "placeName": "WATERLOO",
        "streetNameDisplayText": "BRIDGEPORT RD E, WATERLOO"
      }
    ]
  },
  {
    "postal": "N2J7Y6",
    "result": []
  },
  {
    "postal": "N2J1L9",
    "result": [
      {
        "electoralDistricts": [
          {
            "election": null,
            "id": 114,
            "name": "Waterloo"
          }
        ],
        "pollDivisionIds": [
          10126563
        ],
        "postalCode": "N2J1L9",
        "streetName": "ERB",
        "streetDirectionId": "E",
        "streetTypeId": "ST",
        "placeName": "WATERLOO",
        "streetNameDisplayText": "ERB ST E, WATERLOO"
      }
    ]
  },
  {
    "postal": "N2J8T0",
    "result": []
  },
  {
    "postal": "N2J3K8",
    "result": [
      {
        "electoralDistricts": [
          {
            "election": null,
            "id": 114,
            "name": "Waterloo"
          }
        ],
        "pollDivisionIds": [
          10126562
        ],
        "postalCode": "N2J3K8",
        "streetName": "CARTER",
        "streetDirectionId": null,
        "streetTypeId": "AVE",
        "placeName": "WATERLOO",
        "streetNameDisplayText": "CARTER AVE, WATERLOO"
      }
    ]
  },
  {
    "postal": "N2J5W9",
    "result": []
  },
  {
    "postal": "N2J6T9",
    "result": []
  },
  {
    "postal": "N2J4H1",
    "result": [
      {
        "electoralDistricts": [
          {
            "election": null,
            "id": 114,
            "name": "Waterloo"
          }
        ],
        "pollDivisionIds": [
          10142551
        ],
        "postalCode": "N2J4H1",
        "streetName": "REGINA",
        "streetDirectionId": "N",
        "streetTypeId": "ST",
        "placeName": "WATERLOO",
        "streetNameDisplayText": "REGINA ST N, WATERLOO"
      }
    ]
  },
  {
    "postal": "N2J7A2",
    "result": []
  },
  {
    "postal": "N2J5G0",
    "result": []
  },
  {
    "postal": "N2J8V5",
    "result": []
  },
  {
    "postal": "N2J2Y8",
    "result": [
      {
        "electoralDistricts": [
          {
            "election": null,
            "id": 114,
            "name": "Waterloo"
          }
        ],
        "pollDivisionIds": [
          10142551
        ],
        "postalCode": "N2J2Y8",
        "streetName": "KING",
        "streetDirectionId": "N",
        "streetTypeId": "ST",
        "placeName": "WATERLOO",
        "streetNameDisplayText": "KING ST N, WATERLOO"
      }
    ]
  },
  {
    "postal": "N2J2B6",
    "result": [
      {
        "electoralDistricts": [
          {
            "election": null,
            "id": 114,
            "name": "Waterloo"
          }
        ],
        "pollDivisionIds": [
          10126566
        ],
        "postalCode": "N2J2B6",
        "streetName": "ELLIS",
        "streetDirectionId": "S",
        "streetTypeId": "CRES",
        "placeName": "WATERLOO",
        "streetNameDisplayText": "ELLIS CRES S, WATERLOO"
      }
    ]
  },
  {
    "postal": "N2J4W8",
    "result": []
  },
  {
    "postal": "N2J8H7",
    "result": []
  },
  {
    "postal": "N2J5P1",
    "result": []
  },
  {
    "postal": "N2J2B8",
    "result": [
      {
        "electoralDistricts": [
          {
            "election": null,
            "id": 114,
            "name": "Waterloo"
          }
        ],
        "pollDivisionIds": [
          10126566
        ],
        "postalCode": "N2J2B8",
        "streetName": "ELLIS",
        "streetDirectionId": "S",
        "streetTypeId": "CRES",
        "placeName": "WATERLOO",
        "streetNameDisplayText": "ELLIS CRES S, WATERLOO"
      }
    ]
  },
  {
    "postal": "N2J0P2",
    "result": []
  },
  {
    "postal": "N2J9M1",
    "result": []
  },
  {
    "postal": "N2J3G0",
    "result": []
  },
  {
    "postal": "N2J9Z2",
    "result": []
  },
  {
    "postal": "N2J2A0",
    "result": []
  },
  {
    "postal": "N2J6Y0",
    "result": []
  },
  {
    "postal": "N2J2Z8",
    "result": [
      {
        "electoralDistricts": [
          {
            "election": null,
            "id": 114,
            "name": "Waterloo"
          }
        ],
        "pollDivisionIds": [
          10126553
        ],
        "postalCode": "N2J2Z8",
        "streetName": "REGINA",
        "streetDirectionId": "N",
        "streetTypeId": "ST",
        "placeName": "WATERLOO",
        "streetNameDisplayText": "REGINA ST N, WATERLOO"
      }
    ]
  },
  {
    "postal": "N2J7Y3",
    "result": []
  },
  {
    "postal": "N2J6Z5",
    "result": []
  },
  {
    "postal": "N2J6E0",
    "result": []
  },
  {
    "postal": "N2J9B7",
    "result": []
  },
  {
    "postal": "N2J9S5",
    "result": []
  },
  {
    "postal": "N2J3X3",
    "result": [
      {
        "electoralDistricts": [
          {
            "election": null,
            "id": 114,
            "name": "Waterloo"
          }
        ],
        "pollDivisionIds": [
          10126562
        ],
        "postalCode": "N2J3X3",
        "streetName": "MACGREGOR",
        "streetDirectionId": null,
        "streetTypeId": "CRES",
        "placeName": "WATERLOO",
        "streetNameDisplayText": "MACGREGOR CRES, WATERLOO"
      }
    ]
  },
  {
    "postal": "N2J7R5",
    "result": []
  },
  {
    "postal": "N2J2X3",
    "result": [
      {
        "electoralDistricts": [
          {
            "election": null,
            "id": 114,
            "name": "Waterloo"
          }
        ],
        "pollDivisionIds": [
          10126553
        ],
        "postalCode": "N2J2X3",
        "streetName": "KING",
        "streetDirectionId": "N",
        "streetTypeId": "ST",
        "placeName": "WATERLOO",
        "streetNameDisplayText": "KING ST N, WATERLOO"
      }
    ]
  },
  {
    "postal": "N2J8Z9",
    "result": []
  },
  {
    "postal": "N2J0N4",
    "result": []
  },
  {
    "postal": "N2J1K1",
    "result": [
      {
        "electoralDistricts": [
          {
            "election": null,
            "id": 114,
            "name": "Waterloo"
          }
        ],
        "pollDivisionIds": [
          10126566
        ],
        "postalCode": "N2J1K1",
        "streetName": "ALLEN",
        "streetDirectionId": "E",
        "streetTypeId": "ST",
        "placeName": "WATERLOO",
        "streetNameDisplayText": "ALLEN ST E, WATERLOO"
      }
    ]
  },
  {
    "postal": "N2J1S3",
    "result": [
      {
        "electoralDistricts": [
          {
            "election": null,
            "id": 114,
            "name": "Waterloo"
          }
        ],
        "pollDivisionIds": [
          10126561
        ],
        "postalCode": "N2J1S3",
        "streetName": "MARY",
        "streetDirectionId": null,
        "streetTypeId": "ST",
        "placeName": "WATERLOO",
        "streetNameDisplayText": "MARY ST, WATERLOO"
      }
    ]
  },
  {
    "postal": "N2J6M4",
    "result": []
  },
  {
    "postal": "N2J9A9",
    "result": []
  },
  {
    "postal": "N2J9Z9",
    "result": []
  },
  {
    "postal": "N2J6T4",
    "result": []
  },
  {
    "postal": "N2J0B2",
    "result": []
  },
  {
    "postal": "N2J2L9",
    "result": [
      {
        "electoralDistricts": [
          {
            "election": null,
            "id": 114,
            "name": "Waterloo"
          }
        ],
        "pollDivisionIds": [
          10126567
        ],
        "postalCode": "N2J2L9",
        "streetName": "NEILSON",
        "streetDirectionId": null,
        "streetTypeId": "AVE",
        "placeName": "WATERLOO",
        "streetNameDisplayText": "NEILSON AVE, WATERLOO"
      }
    ]
  },
  {
    "postal": "N2J8K9",
    "result": []
  },
  {
    "postal": "N2J2H9",
    "result": [
      {
        "electoralDistricts": [
          {
            "election": null,
            "id": 114,
            "name": "Waterloo"
          }
        ],
        "pollDivisionIds": [
          10126566
        ],
        "postalCode": "N2J2H9",
        "streetName": "ROYAL",
        "streetDirectionId": null,
        "streetTypeId": "ST",
        "placeName": "WATERLOO",
        "streetNameDisplayText": "ROYAL ST, WATERLOO"
      }
    ]
  },
  {
    "postal": "N2J3Z6",
    "result": []
  },
  {
    "postal": "N2J3B0",
    "result": []
  },
  {
    "postal": "N2J2H8",
    "result": [
      {
        "electoralDistricts": [
          {
            "election": null,
            "id": 114,
            "name": "Waterloo"
          }
        ],
        "pollDivisionIds": [
          10126566
        ],
        "postalCode": "N2J2H8",
        "streetName": "ROYAL",
        "streetDirectionId": null,
        "streetTypeId": "ST",
        "placeName": "WATERLOO",
        "streetNameDisplayText": "ROYAL ST, WATERLOO"
      }
    ]
  },
  {
    "postal": "N2J3X2",
    "result": [
      {
        "electoralDistricts": [
          {
            "election": null,
            "id": 114,
            "name": "Waterloo"
          }
        ],
        "pollDivisionIds": [
          10126562
        ],
        "postalCode": "N2J3X2",
        "streetName": "MACGREGOR",
        "streetDirectionId": null,
        "streetTypeId": "CRES",
        "placeName": "WATERLOO",
        "streetNameDisplayText": "MACGREGOR CRES, WATERLOO"
      }
    ]
  },
  {
    "postal": "N2J2E9",
    "result": [
      {
        "electoralDistricts": [
          {
            "election": null,
            "id": 114,
            "name": "Waterloo"
          }
        ],
        "pollDivisionIds": [
          10126566
        ],
        "postalCode": "N2J2E9",
        "streetName": "CARDINAL",
        "streetDirectionId": "S",
        "streetTypeId": "CRES",
        "placeName": "WATERLOO",
        "streetNameDisplayText": "CARDINAL CRES S, WATERLOO"
      }
    ]
  },
  {
    "postal": "N2J9P6",
    "result": []
  },
  {
    "postal": "N2J9E2",
    "result": []
  },
  {
    "postal": "N2J9H2",
    "result": []
  },
  {
    "postal": "N2J1S8",
    "result": []
  },
  {
    "postal": "N2J3M6",
    "result": [
      {
        "electoralDistricts": [
          {
            "election": null,
            "id": 114,
            "name": "Waterloo"
          }
        ],
        "pollDivisionIds": [
          10126559
        ],
        "postalCode": "N2J3M6",
        "streetName": "ASHCROFT",
        "streetDirectionId": null,
        "streetTypeId": "PL",
        "placeName": "WATERLOO",
        "streetNameDisplayText": "ASHCROFT PL, WATERLOO"
      }
    ]
  },
  {
    "postal": "N2J6Z8",
    "result": []
  },
  {
    "postal": "N2J4J2",
    "result": []
  },
  {
    "postal": "N2J9Y1",
    "result": []
  },
  {
    "postal": "N2J8V6",
    "result": []
  },
  {
    "postal": "N2J6B2",
    "result": []
  },
  {
    "postal": "N2J1P8",
    "result": [
      {
        "electoralDistricts": [
          {
            "election": null,
            "id": 114,
            "name": "Waterloo"
          }
        ],
        "pollDivisionIds": [
          10126561
        ],
        "postalCode": "N2J1P8",
        "streetName": "KING",
        "streetDirectionId": "S",
        "streetTypeId": "ST",
        "placeName": "WATERLOO",
        "streetNameDisplayText": "KING ST S, WATERLOO"
      }
    ]
  },
  {
    "postal": "N2J0V8",
    "result": []
  },
  {
    "postal": "N2J4Y0",
    "result": []
  },
  {
    "postal": "N2J2T4",
    "result": [
      {
        "electoralDistricts": [
          {
            "election": null,
            "id": 114,
            "name": "Waterloo"
          }
        ],
        "pollDivisionIds": [
          10126553
        ],
        "postalCode": "N2J2T4",
        "streetName": "MARSHALL",
        "streetDirectionId": null,
        "streetTypeId": "ST",
        "placeName": "WATERLOO",
        "streetNameDisplayText": "MARSHALL ST, WATERLOO"
      }
    ]
  },
  {
    "postal": "N2J2S3",
    "result": [
      {
        "electoralDistricts": [
          {
            "election": null,
            "id": 114,
            "name": "Waterloo"
          }
        ],
        "pollDivisionIds": [
          10126559
        ],
        "postalCode": "N2J2S3",
        "streetName": "ELGIN",
        "streetDirectionId": null,
        "streetTypeId": "CRES",
        "placeName": "WATERLOO",
        "streetNameDisplayText": "ELGIN CRES, WATERLOO"
      }
    ]
  },
  {
    "postal": "N2J0K0",
    "result": []
  },
  {
    "postal": "N2J5N1",
    "result": []
  },
  {
    "postal": "N2J7T0",
    "result": []
  },
  {
    "postal": "N2J9N2",
    "result": []
  },
  {
    "postal": "N2J5L1",
    "result": []
  },
  {
    "postal": "N2J7G5",
    "result": []
  },
  {
    "postal": "N2J6K2",
    "result": []
  },
  {
    "postal": "N2J6P9",
    "result": []
  },
  {
    "postal": "N2J0E6",
    "result": []
  },
  {
    "postal": "N2J8R9",
    "result": []
  },
  {
    "postal": "N2J3G9",
    "result": [
      {
        "electoralDistricts": [
          {
            "election": null,
            "id": 114,
            "name": "Waterloo"
          }
        ],
        "pollDivisionIds": [
          10126551,
          10126559
        ],
        "postalCode": "N2J3G9",
        "streetName": "WEBER",
        "streetDirectionId": "N",
        "streetTypeId": "ST",
        "placeName": "WATERLOO",
        "streetNameDisplayText": "WEBER ST N, WATERLOO"
      }
    ]
  },
  {
    "postal": "N2J0V7",
    "result": []
  },
  {
    "postal": "N2J2Z1",
    "result": [
      {
        "electoralDistricts": [
          {
            "election": null,
            "id": 114,
            "name": "Waterloo"
          }
        ],
        "pollDivisionIds": [
          10142551
        ],
        "postalCode": "N2J2Z1",
        "streetName": "KING",
        "streetDirectionId": "N",
        "streetTypeId": "ST",
        "placeName": "WATERLOO",
        "streetNameDisplayText": "KING ST N, WATERLOO"
      }
    ]
  },
  {
    "postal": "N2J7N1",
    "result": []
  },
  {
    "postal": "N2J3C6",
    "result": [
      {
        "electoralDistricts": [
          {
            "election": null,
            "id": 114,
            "name": "Waterloo"
          }
        ],
        "pollDivisionIds": [
          10126559
        ],
        "postalCode": "N2J3C6",
        "streetName": "PEPPLER",
        "streetDirectionId": null,
        "streetTypeId": "ST",
        "placeName": "WATERLOO",
        "streetNameDisplayText": "PEPPLER ST, WATERLOO"
      }
    ]
  },
  {
    "postal": "N2J4M1",
    "result": [
      {
        "electoralDistricts": [
          {
            "election": null,
            "id": 114,
            "name": "Waterloo"
          }
        ],
        "pollDivisionIds": [
          10126558
        ],
        "postalCode": "N2J4M1",
        "streetName": "BLUE SPRINGS",
        "streetDirectionId": null,
        "streetTypeId": "DR",
        "placeName": "WATERLOO",
        "streetNameDisplayText": "BLUE SPRINGS DR, WATERLOO"
      }
    ]
  },
  {
    "postal": "N2J9K2",
    "result": []
  },
  {
    "postal": "N2J9S6",
    "result": []
  },
  {
    "postal": "N2J4X1",
    "result": []
  },
  {
    "postal": "N2J8W2",
    "result": []
  },
  {
    "postal": "N2J7N2",
    "result": []
  },
  {
    "postal": "N2J8S3",
    "result": []
  },
  {
    "postal": "N2J4V0",
    "result": []
  },
  {
    "postal": "N2J6W4",
    "result": []
  },
  {
    "postal": "N2J5M1",
    "result": []
  },
  {
    "postal": "N2J0S4",
    "result": []
  },
  {
    "postal": "N2J5X6",
    "result": []
  },
  {
    "postal": "N2J8L5",
    "result": []
  },
  {
    "postal": "N2J5M8",
    "result": []
  },
  {
    "postal": "N2J2G3",
    "result": [
      {
        "electoralDistricts": [
          {
            "election": null,
            "id": 114,
            "name": "Waterloo"
          }
        ],
        "pollDivisionIds": [
          10126566
        ],
        "postalCode": "N2J2G3",
        "streetName": "TERRYSTONE",
        "streetDirectionId": null,
        "streetTypeId": "WALK",
        "placeName": "WATERLOO",
        "streetNameDisplayText": "TERRYSTONE WALK, WATERLOO"
      }
    ]
  },
  {
    "postal": "N2J8E4",
    "result": []
  },
  {
    "postal": "N2J7S9",
    "result": []
  },
  {
    "postal": "N2J1K3",
    "result": [
      {
        "electoralDistricts": [
          {
            "election": null,
            "id": 114,
            "name": "Waterloo"
          }
        ],
        "pollDivisionIds": [
          10126566
        ],
        "postalCode": "N2J1K3",
        "streetName": "ALLEN",
        "streetDirectionId": "E",
        "streetTypeId": "ST",
        "placeName": "WATERLOO",
        "streetNameDisplayText": "ALLEN ST E, WATERLOO"
      }
    ]
  },
  {
    "postal": "N2J4E1",
    "result": []
  },
  {
    "postal": "N2J4R2",
    "result": [
      {
        "electoralDistricts": [
          {
            "election": null,
            "id": 114,
            "name": "Waterloo"
          }
        ],
        "pollDivisionIds": [
          10126558
        ],
        "postalCode": "N2J4R2",
        "streetName": "LEXINGTON",
        "streetDirectionId": null,
        "streetTypeId": "CRT",
        "placeName": "WATERLOO",
        "streetNameDisplayText": "LEXINGTON CRT, WATERLOO"
      }
    ]
  },
  {
    "postal": "N2J6T0",
    "result": []
  },
  {
    "postal": "N2J3K5",
    "result": [
      {
        "electoralDistricts": [
          {
            "election": null,
            "id": 114,
            "name": "Waterloo"
          }
        ],
        "pollDivisionIds": [
          10126562
        ],
        "postalCode": "N2J3K5",
        "streetName": "CARTER",
        "streetDirectionId": null,
        "streetTypeId": "AVE",
        "placeName": "WATERLOO",
        "streetNameDisplayText": "CARTER AVE, WATERLOO"
      }
    ]
  },
  {
    "postal": "N2J3S3",
    "result": [
      {
        "electoralDistricts": [
          {
            "election": null,
            "id": 114,
            "name": "Waterloo"
          }
        ],
        "pollDivisionIds": [
          10126562
        ],
        "postalCode": "N2J3S3",
        "streetName": "MAYFIELD",
        "streetDirectionId": null,
        "streetTypeId": "AVE",
        "placeName": "WATERLOO",
        "streetNameDisplayText": "MAYFIELD AVE, WATERLOO"
      }
    ]
  },
  {
    "postal": "N2J3L4",
    "result": [
      {
        "electoralDistricts": [
          {
            "election": null,
            "id": 114,
            "name": "Waterloo"
          }
        ],
        "pollDivisionIds": [
          10126562
        ],
        "postalCode": "N2J3L4",
        "streetName": "BELLEHAVEN",
        "streetDirectionId": null,
        "streetTypeId": "DR",
        "placeName": "WATERLOO",
        "streetNameDisplayText": "BELLEHAVEN DR, WATERLOO"
      }
    ]
  },
  {
    "postal": "N2J9Y2",
    "result": []
  },
  {
    "postal": "N2J1E0",
    "result": []
  },
  {
    "postal": "N2J9A4",
    "result": []
  },
  {
    "postal": "N2J1L3",
    "result": []
  },
  {
    "postal": "N2J6N1",
    "result": []
  },
  {
    "postal": "N2J6G7",
    "result": []
  },
  {
    "postal": "N2J7W1",
    "result": []
  },
  {
    "postal": "N2J4M6",
    "result": [
      {
        "electoralDistricts": [
          {
            "election": null,
            "id": 114,
            "name": "Waterloo"
          }
        ],
        "pollDivisionIds": [
          10142551
        ],
        "postalCode": "N2J4M6",
        "streetName": "WEBER",
        "streetDirectionId": "N",
        "streetTypeId": "ST",
        "placeName": "WATERLOO",
        "streetNameDisplayText": "WEBER ST N, WATERLOO"
      }
    ]
  },
  {
    "postal": "N2J1K0",
    "result": []
  },
  {
    "postal": "N2J3E2",
    "result": [
      {
        "electoralDistricts": [
          {
            "election": null,
            "id": 114,
            "name": "Waterloo"
          }
        ],
        "pollDivisionIds": [
          10126563
        ],
        "postalCode": "N2J3E2",
        "streetName": "TWEED",
        "streetDirectionId": null,
        "streetTypeId": "ST",
        "placeName": "WATERLOO",
        "streetNameDisplayText": "TWEED ST, WATERLOO"
      }
    ]
  },
  {
    "postal": "N2J5H4",
    "result": []
  },
  {
    "postal": "N2J1K7",
    "result": [
      {
        "electoralDistricts": [
          {
            "election": null,
            "id": 114,
            "name": "Waterloo"
          }
        ],
        "pollDivisionIds": [
          10126561
        ],
        "postalCode": "N2J1K7",
        "streetName": "GEORGE",
        "streetDirectionId": null,
        "streetTypeId": "ST",
        "placeName": "WATERLOO",
        "streetNameDisplayText": "GEORGE ST, WATERLOO"
      }
    ]
  },
  {
    "postal": "N2J0H0",
    "result": []
  },
  {
    "postal": "N2J0J3",
    "result": []
  },
  {
    "postal": "N2J1X6",
    "result": [
      {
        "electoralDistricts": [
          {
            "election": null,
            "id": 114,
            "name": "Waterloo"
          }
        ],
        "pollDivisionIds": [
          10126561
        ],
        "postalCode": "N2J1X6",
        "streetName": "MOORE",
        "streetDirectionId": "N",
        "streetTypeId": "AVE",
        "placeName": "WATERLOO",
        "streetNameDisplayText": "MOORE AVE N, WATERLOO"
      },
      {
        "electoralDistricts": [
          {
            "election": null,
            "id": 114,
            "name": "Waterloo"
          }
        ],
        "pollDivisionIds": [
          10126561
        ],
        "postalCode": "N2J1X6",
        "streetName": "MOORE",
        "streetDirectionId": "S",
        "streetTypeId": "AVE",
        "placeName": "WATERLOO",
        "streetNameDisplayText": "MOORE AVE S, WATERLOO"
      }
    ]
  },
  {
    "postal": "N2J2Z6",
    "result": [
      {
        "electoralDistricts": [
          {
            "election": null,
            "id": 114,
            "name": "Waterloo"
          }
        ],
        "pollDivisionIds": [
          10126558
        ],
        "postalCode": "N2J2Z6",
        "streetName": "KING",
        "streetDirectionId": "N",
        "streetTypeId": "ST",
        "placeName": "WATERLOO",
        "streetNameDisplayText": "KING ST N, WATERLOO"
      }
    ]
  },
  {
    "postal": "N2J4R9",
    "result": [
      {
        "electoralDistricts": [
          {
            "election": null,
            "id": 114,
            "name": "Waterloo"
          }
        ],
        "pollDivisionIds": [
          10126558
        ],
        "postalCode": "N2J4R9",
        "streetName": "LEXINGTON",
        "streetDirectionId": null,
        "streetTypeId": "CRT",
        "placeName": "WATERLOO",
        "streetNameDisplayText": "LEXINGTON CRT, WATERLOO"
      }
    ]
  },
  {
    "postal": "N2J0W8",
    "result": []
  },
  {
    "postal": "N2J1L4",
    "result": [
      {
        "electoralDistricts": [
          {
            "election": null,
            "id": 114,
            "name": "Waterloo"
          }
        ],
        "pollDivisionIds": [
          10126553
        ],
        "postalCode": "N2J1L4",
        "streetName": "ERB",
        "streetDirectionId": "E",
        "streetTypeId": "ST",
        "placeName": "WATERLOO",
        "streetNameDisplayText": "ERB ST E, WATERLOO"
      },
      {
        "electoralDistricts": [
          {
            "election": null,
            "id": 114,
            "name": "Waterloo"
          }
        ],
        "pollDivisionIds": [
          10126553
        ],
        "postalCode": "N2J1L4",
        "streetName": "ERB",
        "streetDirectionId": "W",
        "streetTypeId": "ST",
        "placeName": "WATERLOO",
        "streetNameDisplayText": "ERB ST W, WATERLOO"
      }
    ]
  },
  {
    "postal": "N2J0C8",
    "result": []
  },
  {
    "postal": "N2J9X7",
    "result": []
  },
  {
    "postal": "N2J4T1",
    "result": []
  },
  {
    "postal": "N2J0M0",
    "result": []
  },
  {
    "postal": "N2J6A2",
    "result": []
  },
  {
    "postal": "N2J9S8",
    "result": []
  },
  {
    "postal": "N2J9T4",
    "result": []
  },
  {
    "postal": "N2J9Y4",
    "result": []
  },
  {
    "postal": "N2J6G5",
    "result": []
  },
  {
    "postal": "N2J6H9",
    "result": []
  },
  {
    "postal": "N2J2P3",
    "result": [
      {
        "electoralDistricts": [
          {
            "election": null,
            "id": 114,
            "name": "Waterloo"
          }
        ],
        "pollDivisionIds": [
          10126562
        ],
        "postalCode": "N2J2P3",
        "streetName": "LINCOLN",
        "streetDirectionId": null,
        "streetTypeId": "RD",
        "placeName": "WATERLOO",
        "streetNameDisplayText": "LINCOLN RD, WATERLOO"
      }
    ]
  },
  {
    "postal": "N2J1T6",
    "result": [
      {
        "electoralDistricts": [
          {
            "election": null,
            "id": 114,
            "name": "Waterloo"
          }
        ],
        "pollDivisionIds": [
          10126561
        ],
        "postalCode": "N2J1T6",
        "streetName": "HERBERT",
        "streetDirectionId": null,
        "streetTypeId": "ST",
        "placeName": "WATERLOO",
        "streetNameDisplayText": "HERBERT ST, WATERLOO"
      }
    ]
  },
  {
    "postal": "N2J4P6",
    "result": []
  },
  {
    "postal": "N2J3K1",
    "result": [
      {
        "electoralDistricts": [
          {
            "election": null,
            "id": 114,
            "name": "Waterloo"
          }
        ],
        "pollDivisionIds": [
          10126559
        ],
        "postalCode": "N2J3K1",
        "streetName": "MACKAY",
        "streetDirectionId": null,
        "streetTypeId": "CRES",
        "placeName": "WATERLOO",
        "streetNameDisplayText": "MACKAY CRES, WATERLOO"
      }
    ]
  },
  {
    "postal": "N2J6X4",
    "result": []
  },
  {
    "postal": "N2J4M8",
    "result": []
  },
  {
    "postal": "N2J2Y1",
    "result": [
      {
        "electoralDistricts": [
          {
            "election": null,
            "id": 114,
            "name": "Waterloo"
          }
        ],
        "pollDivisionIds": [
          10126553
        ],
        "postalCode": "N2J2Y1",
        "streetName": "KING",
        "streetDirectionId": "N",
        "streetTypeId": "ST",
        "placeName": "WATERLOO",
        "streetNameDisplayText": "KING ST N, WATERLOO"
      }
    ]
  },
  {
    "postal": "N2J6M1",
    "result": []
  },
  {
    "postal": "N2J5L8",
    "result": []
  },
  {
    "postal": "N2J3P6",
    "result": [
      {
        "electoralDistricts": [
          {
            "election": null,
            "id": 114,
            "name": "Waterloo"
          }
        ],
        "pollDivisionIds": [
          10126567
        ],
        "postalCode": "N2J3P6",
        "streetName": "MARGARET",
        "streetDirectionId": "N",
        "streetTypeId": "AVE",
        "placeName": "WATERLOO",
        "streetNameDisplayText": "MARGARET AVE N, WATERLOO"
      }
    ]
  },
  {
    "postal": "N2J9A5",
    "result": []
  },
  {
    "postal": "N2J7K1",
    "result": []
  },
  {
    "postal": "N2J3J4",
    "result": []
  },
  {
    "postal": "N2J5E7",
    "result": []
  },
  {
    "postal": "N2J3A7",
    "result": [
      {
        "electoralDistricts": [
          {
            "election": null,
            "id": 114,
            "name": "Waterloo"
          }
        ],
        "pollDivisionIds": [
          10126559
        ],
        "postalCode": "N2J3A7",
        "streetName": "REGINA",
        "streetDirectionId": "N",
        "streetTypeId": "ST",
        "placeName": "WATERLOO",
        "streetNameDisplayText": "REGINA ST N, WATERLOO"
      },
      {
        "electoralDistricts": [
          {
            "election": null,
            "id": 114,
            "name": "Waterloo"
          }
        ],
        "pollDivisionIds": [
          10126561
        ],
        "postalCode": "N2J3A7",
        "streetName": "REGINA",
        "streetDirectionId": "S",
        "streetTypeId": "ST",
        "placeName": "WATERLOO",
        "streetNameDisplayText": "REGINA ST S, WATERLOO"
      }
    ]
  },
  {
    "postal": "N2J1B9",
    "result": [
      {
        "electoralDistricts": [
          {
            "election": null,
            "id": 114,
            "name": "Waterloo"
          }
        ],
        "pollDivisionIds": [
          10126561
        ],
        "postalCode": "N2J1B9",
        "streetName": "UNION",
        "streetDirectionId": "E",
        "streetTypeId": "ST",
        "placeName": "WATERLOO",
        "streetNameDisplayText": "UNION ST E, WATERLOO"
      }
    ]
  },
  {
    "postal": "N2J9E8",
    "result": []
  },
  {
    "postal": "N2J1C9",
    "result": [
      {
        "electoralDistricts": [
          {
            "election": null,
            "id": 114,
            "name": "Waterloo"
          }
        ],
        "pollDivisionIds": [
          10126563
        ],
        "postalCode": "N2J1C9",
        "streetName": "UNION",
        "streetDirectionId": "E",
        "streetTypeId": "ST",
        "placeName": "WATERLOO",
        "streetNameDisplayText": "UNION ST E, WATERLOO"
      }
    ]
  },
  {
    "postal": "N2J3B5",
    "result": [
      {
        "electoralDistricts": [
          {
            "election": null,
            "id": 114,
            "name": "Waterloo"
          }
        ],
        "pollDivisionIds": [
          10126553
        ],
        "postalCode": "N2J3B5",
        "streetName": "REGINA",
        "streetDirectionId": "N",
        "streetTypeId": "ST",
        "placeName": "WATERLOO",
        "streetNameDisplayText": "REGINA ST N, WATERLOO"
      }
    ]
  },
  {
    "postal": "N2J8R0",
    "result": []
  },
  {
    "postal": "N2J3P2",
    "result": [
      {
        "electoralDistricts": [
          {
            "election": null,
            "id": 114,
            "name": "Waterloo"
          }
        ],
        "pollDivisionIds": [
          10126566
        ],
        "postalCode": "N2J3P2",
        "streetName": "MARGARET",
        "streetDirectionId": "N",
        "streetTypeId": "AVE",
        "placeName": "WATERLOO",
        "streetNameDisplayText": "MARGARET AVE N, WATERLOO"
      }
    ]
  },
  {
    "postal": "N2J5V4",
    "result": []
  },
  {
    "postal": "N2J4H0",
    "result": []
  },
  {
    "postal": "N2J4S7",
    "result": [
      {
        "electoralDistricts": [
          {
            "election": null,
            "id": 114,
            "name": "Waterloo"
          }
        ],
        "pollDivisionIds": [
          10126567
        ],
        "postalCode": "N2J4S7",
        "streetName": "LINCOLN",
        "streetDirectionId": null,
        "streetTypeId": "RD",
        "placeName": "WATERLOO",
        "streetNameDisplayText": "LINCOLN RD, WATERLOO"
      }
    ]
  },
  {
    "postal": "N2J6C2",
    "result": []
  },
  {
    "postal": "N2J8W3",
    "result": []
  },
  {
    "postal": "N2J4M5",
    "result": [
      {
        "electoralDistricts": [
          {
            "election": null,
            "id": 114,
            "name": "Waterloo"
          }
        ],
        "pollDivisionIds": [
          10126562
        ],
        "postalCode": "N2J4M5",
        "streetName": "MAYFIELD",
        "streetDirectionId": null,
        "streetTypeId": "AVE",
        "placeName": "WATERLOO",
        "streetNameDisplayText": "MAYFIELD AVE, WATERLOO"
      }
    ]
  },
  {
    "postal": "N2J5T1",
    "result": []
  },
  {
    "postal": "N2J3B3",
    "result": [
      {
        "electoralDistricts": [
          {
            "election": null,
            "id": 114,
            "name": "Waterloo"
          }
        ],
        "pollDivisionIds": [
          10126553
        ],
        "postalCode": "N2J3B3",
        "streetName": "REGINA",
        "streetDirectionId": "N",
        "streetTypeId": "ST",
        "placeName": "WATERLOO",
        "streetNameDisplayText": "REGINA ST N, WATERLOO"
      }
    ]
  },
  {
    "postal": "N2J6C6",
    "result": []
  },
  {
    "postal": "N2J7N8",
    "result": []
  },
  {
    "postal": "N2J2Y3",
    "result": [
      {
        "electoralDistricts": [
          {
            "election": null,
            "id": 114,
            "name": "Waterloo"
          }
        ],
        "pollDivisionIds": [
          10126553
        ],
        "postalCode": "N2J2Y3",
        "streetName": "KING",
        "streetDirectionId": "N",
        "streetTypeId": "ST",
        "placeName": "WATERLOO",
        "streetNameDisplayText": "KING ST N, WATERLOO"
      },
      {
        "electoralDistricts": [
          {
            "election": null,
            "id": 114,
            "name": "Waterloo"
          }
        ],
        "pollDivisionIds": [
          10126561
        ],
        "postalCode": "N2J2Y3",
        "streetName": "KING",
        "streetDirectionId": "S",
        "streetTypeId": "ST",
        "placeName": "WATERLOO",
        "streetNameDisplayText": "KING ST S, WATERLOO"
      }
    ]
  },
  {
    "postal": "N2J2R6",
    "result": [
      {
        "electoralDistricts": [
          {
            "election": null,
            "id": 114,
            "name": "Waterloo"
          }
        ],
        "pollDivisionIds": [
          10126559
        ],
        "postalCode": "N2J2R6",
        "streetName": "NOECKER",
        "streetDirectionId": null,
        "streetTypeId": "ST",
        "placeName": "WATERLOO",
        "streetNameDisplayText": "NOECKER ST, WATERLOO"
      }
    ]
  },
  {
    "postal": "N2J7N3",
    "result": []
  },
  {
    "postal": "N2J8J2",
    "result": []
  },
  {
    "postal": "N2J6A9",
    "result": []
  },
  {
    "postal": "N2J3V2",
    "result": [
      {
        "electoralDistricts": [
          {
            "election": null,
            "id": 114,
            "name": "Waterloo"
          }
        ],
        "pollDivisionIds": [
          10126562
        ],
        "postalCode": "N2J3V2",
        "streetName": "MEAFORD",
        "streetDirectionId": null,
        "streetTypeId": "DR",
        "placeName": "WATERLOO",
        "streetNameDisplayText": "MEAFORD DR, WATERLOO"
      }
    ]
  },
  {
    "postal": "N2J2N3",
    "result": [
      {
        "electoralDistricts": [
          {
            "election": null,
            "id": 114,
            "name": "Waterloo"
          }
        ],
        "pollDivisionIds": [
          10126567
        ],
        "postalCode": "N2J2N3",
        "streetName": "VERMONT",
        "streetDirectionId": null,
        "streetTypeId": "ST",
        "placeName": "WATERLOO",
        "streetNameDisplayText": "VERMONT ST, WATERLOO"
      }
    ]
  },
  {
    "postal": "N2J1S5",
    "result": [
      {
        "electoralDistricts": [
          {
            "election": null,
            "id": 114,
            "name": "Waterloo"
          }
        ],
        "pollDivisionIds": [
          10126561
        ],
        "postalCode": "N2J1S5",
        "streetName": "MARY",
        "streetDirectionId": null,
        "streetTypeId": "ST",
        "placeName": "WATERLOO",
        "streetNameDisplayText": "MARY ST, WATERLOO"
      }
    ]
  },
  {
    "postal": "N2J4T7",
    "result": []
  },
  {
    "postal": "N2J6Y7",
    "result": []
  },
  {
    "postal": "N2J0W7",
    "result": []
  },
  {
    "postal": "N2J2W9",
    "result": [
      {
        "electoralDistricts": [
          {
            "election": null,
            "id": 114,
            "name": "Waterloo"
          }
        ],
        "pollDivisionIds": [
          10126553
        ],
        "postalCode": "N2J2W9",
        "streetName": "KING",
        "streetDirectionId": "N",
        "streetTypeId": "ST",
        "placeName": "WATERLOO",
        "streetNameDisplayText": "KING ST N, WATERLOO"
      },
      {
        "electoralDistricts": [
          {
            "election": null,
            "id": 16,
            "name": "Cambridge"
          }
        ],
        "pollDivisionIds": [
          10137414
        ],
        "postalCode": "N2J2W9",
        "streetName": "KING",
        "streetDirectionId": "W",
        "streetTypeId": "ST",
        "placeName": "WATERLOO",
        "streetNameDisplayText": "KING ST W, WATERLOO"
      }
    ]
  },
  {
    "postal": "N2J8V0",
    "result": []
  },
  {
    "postal": "N2J0H4",
    "result": []
  },
  {
    "postal": "N2J2T1",
    "result": [
      {
        "electoralDistricts": [
          {
            "election": null,
            "id": 114,
            "name": "Waterloo"
          }
        ],
        "pollDivisionIds": [
          10126553
        ],
        "postalCode": "N2J2T1",
        "streetName": "MARSHALL",
        "streetDirectionId": null,
        "streetTypeId": "ST",
        "placeName": "WATERLOO",
        "streetNameDisplayText": "MARSHALL ST, WATERLOO"
      }
    ]
  },
  {
    "postal": "N2J1B1",
    "result": [
      {
        "electoralDistricts": [
          {
            "election": null,
            "id": 114,
            "name": "Waterloo"
          }
        ],
        "pollDivisionIds": [
          10126563
        ],
        "postalCode": "N2J1B1",
        "streetName": "ROGER",
        "streetDirectionId": null,
        "streetTypeId": "ST",
        "placeName": "WATERLOO",
        "streetNameDisplayText": "ROGER ST, WATERLOO"
      }
    ]
  },
  {
    "postal": "N2J8B6",
    "result": []
  },
  {
    "postal": "N2J6H1",
    "result": []
  },
  {
    "postal": "N2J8T8",
    "result": []
  },
  {
    "postal": "N2J0T4",
    "result": []
  },
  {
    "postal": "N2J2C4",
    "result": [
      {
        "electoralDistricts": [
          {
            "election": null,
            "id": 114,
            "name": "Waterloo"
          }
        ],
        "pollDivisionIds": [
          10126563
        ],
        "postalCode": "N2J2C4",
        "streetName": "ELLIS",
        "streetDirectionId": "S",
        "streetTypeId": "CRES",
        "placeName": "WATERLOO",
        "streetNameDisplayText": "ELLIS CRES S, WATERLOO"
      }
    ]
  },
  {
    "postal": "N2J8N3",
    "result": []
  },
  {
    "postal": "N2J4L8",
    "result": [
      {
        "electoralDistricts": [
          {
            "election": null,
            "id": 114,
            "name": "Waterloo"
          }
        ],
        "pollDivisionIds": [
          10126562
        ],
        "postalCode": "N2J4L8",
        "streetName": "BLUE VALE",
        "streetDirectionId": "N",
        "streetTypeId": "ST",
        "placeName": "WATERLOO",
        "streetNameDisplayText": "BLUE VALE ST N, WATERLOO"
      },
      {
        "electoralDistricts": [
          {
            "election": null,
            "id": 114,
            "name": "Waterloo"
          }
        ],
        "pollDivisionIds": [
          10126562
        ],
        "postalCode": "N2J4L8",
        "streetName": "BLUEVALE",
        "streetDirectionId": "N",
        "streetTypeId": "ST",
        "placeName": "WATERLOO",
        "streetNameDisplayText": "BLUEVALE ST N, WATERLOO"
      }
    ]
  },
  {
    "postal": "N2J2B5",
    "result": [
      {
        "electoralDistricts": [
          {
            "election": null,
            "id": 114,
            "name": "Waterloo"
          }
        ],
        "pollDivisionIds": [
          10126566
        ],
        "postalCode": "N2J2B5",
        "streetName": "ELLIS",
        "streetDirectionId": "S",
        "streetTypeId": "CRES",
        "placeName": "WATERLOO",
        "streetNameDisplayText": "ELLIS CRES S, WATERLOO"
      }
    ]
  },
  {
    "postal": "N2J3H1",
    "result": [
      {
        "electoralDistricts": [
          {
            "election": null,
            "id": 114,
            "name": "Waterloo"
          }
        ],
        "pollDivisionIds": [
          10126551,
          10126559,
          10126553
        ],
        "postalCode": "N2J3H1",
        "streetName": "WEBER",
        "streetDirectionId": "N",
        "streetTypeId": "ST",
        "placeName": "WATERLOO",
        "streetNameDisplayText": "WEBER ST N, WATERLOO"
      }
    ]
  },
  {
    "postal": "N2J4Y1",
    "result": []
  },
  {
    "postal": "N2J7E2",
    "result": []
  },
  {
    "postal": "N2J2P5",
    "result": [
      {
        "electoralDistricts": [
          {
            "election": null,
            "id": 114,
            "name": "Waterloo"
          }
        ],
        "pollDivisionIds": [
          10126562
        ],
        "postalCode": "N2J2P5",
        "streetName": "LINCOLN",
        "streetDirectionId": null,
        "streetTypeId": "RD",
        "placeName": "WATERLOO",
        "streetNameDisplayText": "LINCOLN RD, WATERLOO"
      }
    ]
  },
  {
    "postal": "N2J8R7",
    "result": []
  },
  {
    "postal": "N2J9P1",
    "result": []
  },
  {
    "postal": "N2J3B8",
    "result": [
      {
        "electoralDistricts": [
          {
            "election": null,
            "id": 114,
            "name": "Waterloo"
          }
        ],
        "pollDivisionIds": [
          10142551
        ],
        "postalCode": "N2J3B8",
        "streetName": "REGINA",
        "streetDirectionId": "N",
        "streetTypeId": "ST",
        "placeName": "WATERLOO",
        "streetNameDisplayText": "REGINA ST N, WATERLOO"
      }
    ]
  },
  {
    "postal": "N2J3P7",
    "result": [
      {
        "electoralDistricts": [
          {
            "election": null,
            "id": 114,
            "name": "Waterloo"
          }
        ],
        "pollDivisionIds": [
          10126567
        ],
        "postalCode": "N2J3P7",
        "streetName": "MARGARET",
        "streetDirectionId": "N",
        "streetTypeId": "AVE",
        "placeName": "WATERLOO",
        "streetNameDisplayText": "MARGARET AVE N, WATERLOO"
      }
    ]
  },
  {
    "postal": "N2J9B2",
    "result": []
  },
  {
    "postal": "N2J6Z3",
    "result": []
  },
  {
    "postal": "N2J4N5",
    "result": [
      {
        "electoralDistricts": [
          {
            "election": null,
            "id": 114,
            "name": "Waterloo"
          }
        ],
        "pollDivisionIds": [
          10126558
        ],
        "postalCode": "N2J4N5",
        "streetName": "DEARBORN",
        "streetDirectionId": null,
        "streetTypeId": "PL",
        "placeName": "WATERLOO",
        "streetNameDisplayText": "DEARBORN PL, WATERLOO"
      }
    ]
  },
  {
    "postal": "N2J8T3",
    "result": []
  },
  {
    "postal": "N2J1V2",
    "result": [
      {
        "electoralDistricts": [
          {
            "election": null,
            "id": 114,
            "name": "Waterloo"
          }
        ],
        "pollDivisionIds": [
          10126561
        ],
        "postalCode": "N2J1V2",
        "streetName": "HERBERT",
        "streetDirectionId": null,
        "streetTypeId": "ST",
        "placeName": "WATERLOO",
        "streetNameDisplayText": "HERBERT ST, WATERLOO"
      }
    ]
  },
  {
    "postal": "N2J1Y0",
    "result": []
  },
  {
    "postal": "N2J3G6",
    "result": [
      {
        "electoralDistricts": [
          {
            "election": null,
            "id": 114,
            "name": "Waterloo"
          }
        ],
        "pollDivisionIds": [
          10126566,
          10126559
        ],
        "postalCode": "N2J3G6",
        "streetName": "WEBER",
        "streetDirectionId": "N",
        "streetTypeId": "ST",
        "placeName": "WATERLOO",
        "streetNameDisplayText": "WEBER ST N, WATERLOO"
      },
      {
        "electoralDistricts": [
          {
            "election": null,
            "id": 114,
            "name": "Waterloo"
          }
        ],
        "pollDivisionIds": [
          10126539
        ],
        "postalCode": "N2J3G6",
        "streetName": "WESTMOUNT",
        "streetDirectionId": "N",
        "streetTypeId": "RD",
        "placeName": "WATERLOO",
        "streetNameDisplayText": "WESTMOUNT RD N, WATERLOO"
      }
    ]
  },
  {
    "postal": "N2J3H7",
    "result": [
      {
        "electoralDistricts": [
          {
            "election": null,
            "id": 114,
            "name": "Waterloo"
          }
        ],
        "pollDivisionIds": [
          10142551
        ],
        "postalCode": "N2J3H7",
        "streetName": "WEBER",
        "streetDirectionId": "N",
        "streetTypeId": "ST",
        "placeName": "WATERLOO",
        "streetNameDisplayText": "WEBER ST N, WATERLOO"
      }
    ]
  },
  {
    "postal": "N2J7X8",
    "result": []
  },
  {
    "postal": "N2J0C7",
    "result": [
      {
        "electoralDistricts": [
          {
            "election": null,
            "id": 114,
            "name": "Waterloo"
          }
        ],
        "pollDivisionIds": [
          10142551
        ],
        "postalCode": "N2J0C7",
        "streetName": "REGINA",
        "streetDirectionId": "N",
        "streetTypeId": "ST",
        "placeName": "WATERLOO",
        "streetNameDisplayText": "REGINA ST N, WATERLOO"
      }
    ]
  },
  {
    "postal": "N2J0W9",
    "result": []
  },
  {
    "postal": "N2J8E6",
    "result": []
  },
  {
    "postal": "N2J9Z8",
    "result": []
  },
  {
    "postal": "N2J3P4",
    "result": [
      {
        "electoralDistricts": [
          {
            "election": null,
            "id": 114,
            "name": "Waterloo"
          }
        ],
        "pollDivisionIds": [
          10126567
        ],
        "postalCode": "N2J3P4",
        "streetName": "MARGARET",
        "streetDirectionId": "N",
        "streetTypeId": "AVE",
        "placeName": "WATERLOO",
        "streetNameDisplayText": "MARGARET AVE N, WATERLOO"
      }
    ]
  },
  {
    "postal": "N2J6L8",
    "result": []
  },
  {
    "postal": "N2J2R4",
    "result": [
      {
        "electoralDistricts": [
          {
            "election": null,
            "id": 114,
            "name": "Waterloo"
          }
        ],
        "pollDivisionIds": [
          10126553
        ],
        "postalCode": "N2J2R4",
        "streetName": "NOECKER",
        "streetDirectionId": null,
        "streetTypeId": "ST",
        "placeName": "WATERLOO",
        "streetNameDisplayText": "NOECKER ST, WATERLOO"
      }
    ]
  },
  {
    "postal": "N2J2W1",
    "result": [
      {
        "electoralDistricts": [
          {
            "election": null,
            "id": 114,
            "name": "Waterloo"
          }
        ],
        "pollDivisionIds": [
          10126559
        ],
        "postalCode": "N2J2W1",
        "streetName": "UNIVERSITY",
        "streetDirectionId": "E",
        "streetTypeId": "AVE",
        "placeName": "WATERLOO",
        "streetNameDisplayText": "UNIVERSITY AVE E, WATERLOO"
      },
      {
        "electoralDistricts": [
          {
            "election": null,
            "id": 114,
            "name": "Waterloo"
          }
        ],
        "pollDivisionIds": [
          10126546
        ],
        "postalCode": "N2J2W1",
        "streetName": "UNIVERSITY",
        "streetDirectionId": "W",
        "streetTypeId": "AVE",
        "placeName": "WATERLOO",
        "streetNameDisplayText": "UNIVERSITY AVE W, WATERLOO"
      }
    ]
  },
  {
    "postal": "N2J9H8",
    "result": []
  },
  {
    "postal": "N2J8X9",
    "result": []
  },
  {
    "postal": "N2J7H4",
    "result": []
  },
  {
    "postal": "N2J3J1",
    "result": []
  },
  {
    "postal": "N2J1P4",
    "result": []
  },
  {
    "postal": "N2J2A3",
    "result": [
      {
        "electoralDistricts": [
          {
            "election": null,
            "id": 114,
            "name": "Waterloo"
          }
        ],
        "pollDivisionIds": [
          10126566
        ],
        "postalCode": "N2J2A3",
        "streetName": "WEBER",
        "streetDirectionId": "S",
        "streetTypeId": "ST",
        "placeName": "WATERLOO",
        "streetNameDisplayText": "WEBER ST S, WATERLOO"
      }
    ]
  },
  {
    "postal": "N2J0Z1",
    "result": []
  },
  {
    "postal": "N2J1C1",
    "result": [
      {
        "electoralDistricts": [
          {
            "election": null,
            "id": 114,
            "name": "Waterloo"
          }
        ],
        "pollDivisionIds": [
          10126561
        ],
        "postalCode": "N2J1C1",
        "streetName": "UNION",
        "streetDirectionId": "E",
        "streetTypeId": "ST",
        "placeName": "WATERLOO",
        "streetNameDisplayText": "UNION ST E, WATERLOO"
      }
    ]
  },
  {
    "postal": "N2J0H3",
    "result": []
  },
  {
    "postal": "N2J7B0",
    "result": []
  },
  {
    "postal": "N2J5K2",
    "result": []
  },
  {
    "postal": "N2J1E9",
    "result": [
      {
        "electoralDistricts": [
          {
            "election": null,
            "id": 114,
            "name": "Waterloo"
          }
        ],
        "pollDivisionIds": [
          10126561
        ],
        "postalCode": "N2J1E9",
        "streetName": "JOHN",
        "streetDirectionId": "E",
        "streetTypeId": "ST",
        "placeName": "WATERLOO",
        "streetNameDisplayText": "JOHN ST E, WATERLOO"
      }
    ]
  },
  {
    "postal": "N2J9W7",
    "result": []
  },
  {
    "postal": "N2J5W6",
    "result": []
  },
  {
    "postal": "N2J6S6",
    "result": []
  },
  {
    "postal": "N2J2P8",
    "result": [
      {
        "electoralDistricts": [
          {
            "election": null,
            "id": 48,
            "name": "KitchenerConestoga"
          }
        ],
        "pollDivisionIds": [
          10139247
        ],
        "postalCode": "N2J2P8",
        "streetName": "ELGIN",
        "streetDirectionId": "E",
        "streetTypeId": "ST",
        "placeName": "WATERLOO",
        "streetNameDisplayText": "ELGIN ST E, WATERLOO"
      },
      {
        "electoralDistricts": [
          {
            "election": null,
            "id": 114,
            "name": "Waterloo"
          }
        ],
        "pollDivisionIds": [
          10126559
        ],
        "postalCode": "N2J2P8",
        "streetName": "ELGIN",
        "streetDirectionId": null,
        "streetTypeId": "ST",
        "placeName": "WATERLOO",
        "streetNameDisplayText": "ELGIN ST, WATERLOO"
      }
    ]
  },
  {
    "postal": "N2J4P8",
    "result": []
  },
  {
    "postal": "N2J0V9",
    "result": []
  },
  {
    "postal": "N2J5Y2",
    "result": []
  },
  {
    "postal": "N2J7Z7",
    "result": []
  },
  {
    "postal": "N2J6Y8",
    "result": []
  },
  {
    "postal": "N2J2G7",
    "result": []
  },
  {
    "postal": "N2J8C1",
    "result": []
  },
  {
    "postal": "N2J5C5",
    "result": []
  },
  {
    "postal": "N2J2X8",
    "result": [
      {
        "electoralDistricts": [
          {
            "election": null,
            "id": 114,
            "name": "Waterloo"
          }
        ],
        "pollDivisionIds": [
          10126559
        ],
        "postalCode": "N2J2X8",
        "streetName": "KING",
        "streetDirectionId": "N",
        "streetTypeId": "ST",
        "placeName": "WATERLOO",
        "streetNameDisplayText": "KING ST N, WATERLOO"
      }
    ]
  },
  {
    "postal": "N2J1W5",
    "result": [
      {
        "electoralDistricts": [
          {
            "election": null,
            "id": 114,
            "name": "Waterloo"
          }
        ],
        "pollDivisionIds": [
          10126561
        ],
        "postalCode": "N2J1W5",
        "streetName": "BOWMAN",
        "streetDirectionId": null,
        "streetTypeId": "ST",
        "placeName": "WATERLOO",
        "streetNameDisplayText": "BOWMAN ST, WATERLOO"
      }
    ]
  },
  {
    "postal": "N2J7G0",
    "result": []
  },
  {
    "postal": "N2J8J8",
    "result": []
  },
  {
    "postal": "N2J3Y0",
    "result": []
  },
  {
    "postal": "N2J9T7",
    "result": []
  },
  {
    "postal": "N2J5P4",
    "result": []
  },
  {
    "postal": "N2J4B0",
    "result": []
  },
  {
    "postal": "N2J9N8",
    "result": []
  },
  {
    "postal": "N2J4A7",
    "result": []
  },
  {
    "postal": "N2J4H9",
    "result": [
      {
        "electoralDistricts": [
          {
            "election": null,
            "id": 114,
            "name": "Waterloo"
          }
        ],
        "pollDivisionIds": [
          10126562
        ],
        "postalCode": "N2J4H9",
        "streetName": "HARVARD",
        "streetDirectionId": null,
        "streetTypeId": "PL",
        "placeName": "WATERLOO",
        "streetNameDisplayText": "HARVARD PL, WATERLOO"
      }
    ]
  },
  {
    "postal": "N2J6X1",
    "result": []
  },
  {
    "postal": "N2J9Y7",
    "result": []
  },
  {
    "postal": "N2J2Y5",
    "result": [
      {
        "electoralDistricts": [
          {
            "election": null,
            "id": 114,
            "name": "Waterloo"
          }
        ],
        "pollDivisionIds": [
          10126553
        ],
        "postalCode": "N2J2Y5",
        "streetName": "KING",
        "streetDirectionId": "N",
        "streetTypeId": "ST",
        "placeName": "WATERLOO",
        "streetNameDisplayText": "KING ST N, WATERLOO"
      },
      {
        "electoralDistricts": [
          {
            "election": null,
            "id": 114,
            "name": "Waterloo"
          }
        ],
        "pollDivisionIds": [
          10126561
        ],
        "postalCode": "N2J2Y5",
        "streetName": "KING",
        "streetDirectionId": "S",
        "streetTypeId": "ST",
        "placeName": "WATERLOO",
        "streetNameDisplayText": "KING ST S, WATERLOO"
      }
    ]
  },
  {
    "postal": "N2J8L7",
    "result": []
  },
  {
    "postal": "N2J2A8",
    "result": [
      {
        "electoralDistricts": [
          {
            "election": null,
            "id": 114,
            "name": "Waterloo"
          }
        ],
        "pollDivisionIds": [
          10126563
        ],
        "postalCode": "N2J2A8",
        "streetName": "WEBER",
        "streetDirectionId": "S",
        "streetTypeId": "ST",
        "placeName": "WATERLOO",
        "streetNameDisplayText": "WEBER ST S, WATERLOO"
      }
    ]
  },
  {
    "postal": "N2J2K9",
    "result": [
      {
        "electoralDistricts": [
          {
            "election": null,
            "id": 114,
            "name": "Waterloo"
          }
        ],
        "pollDivisionIds": [
          10126566
        ],
        "postalCode": "N2J2K9",
        "streetName": "BRIDGEPORT",
        "streetDirectionId": "E",
        "streetTypeId": "RD",
        "placeName": "WATERLOO",
        "streetNameDisplayText": "BRIDGEPORT RD E, WATERLOO"
      }
    ]
  },
  {
    "postal": "N2J3E5",
    "result": [
      {
        "electoralDistricts": [
          {
            "election": null,
            "id": 114,
            "name": "Waterloo"
          }
        ],
        "pollDivisionIds": [
          10126563
        ],
        "postalCode": "N2J3E5",
        "streetName": "MOORE",
        "streetDirectionId": "N",
        "streetTypeId": "AVE",
        "placeName": "WATERLOO",
        "streetNameDisplayText": "MOORE AVE N, WATERLOO"
      }
    ]
  },
  {
    "postal": "N2J8N6",
    "result": []
  },
  {
    "postal": "N2J8J4",
    "result": []
  },
  {
    "postal": "N2J4R7",
    "result": [
      {
        "electoralDistricts": [
          {
            "election": null,
            "id": 114,
            "name": "Waterloo"
          }
        ],
        "pollDivisionIds": [
          10126558
        ],
        "postalCode": "N2J4R7",
        "streetName": "LEXINGTON",
        "streetDirectionId": null,
        "streetTypeId": "RD",
        "placeName": "WATERLOO",
        "streetNameDisplayText": "LEXINGTON RD, WATERLOO"
      }
    ]
  },
  {
    "postal": "N2J9K1",
    "result": []
  },
  {
    "postal": "N2J8E1",
    "result": []
  },
  {
    "postal": "N2J0R1",
    "result": []
  },
  {
    "postal": "N2J4J3",
    "result": []
  },
  {
    "postal": "N2J7E7",
    "result": []
  },
  {
    "postal": "N2J0J0",
    "result": []
  },
  {
    "postal": "N2J7R8",
    "result": []
  },
  {
    "postal": "N2J9X0",
    "result": []
  },
  {
    "postal": "N2J7P6",
    "result": []
  },
  {
    "postal": "N2J0R7",
    "result": []
  },
  {
    "postal": "N2J5W1",
    "result": []
  },
  {
    "postal": "N2J0K4",
    "result": []
  },
  {
    "postal": "N2J7N9",
    "result": []
  },
  {
    "postal": "N2J1N0",
    "result": []
  },
  {
    "postal": "N2J6P3",
    "result": []
  },
  {
    "postal": "N2J5A1",
    "result": []
  },
  {
    "postal": "N2J9M9",
    "result": []
  },
  {
    "postal": "N2J7T6",
    "result": []
  },
  {
    "postal": "N2J3X0",
    "result": []
  },
  {
    "postal": "N2J2T0",
    "result": []
  },
  {
    "postal": "N2J5X9",
    "result": []
  },
  {
    "postal": "N2J2R3",
    "result": [
      {
        "electoralDistricts": [
          {
            "election": null,
            "id": 114,
            "name": "Waterloo"
          }
        ],
        "pollDivisionIds": [
          10126559
        ],
        "postalCode": "N2J2R3",
        "streetName": "NOECKER",
        "streetDirectionId": null,
        "streetTypeId": "ST",
        "placeName": "WATERLOO",
        "streetNameDisplayText": "NOECKER ST, WATERLOO"
      }
    ]
  },
  {
    "postal": "N2J5N2",
    "result": []
  },
  {
    "postal": "N2J4Y7",
    "result": [
      {
        "electoralDistricts": [
          {
            "election": null,
            "id": 114,
            "name": "Waterloo"
          }
        ],
        "pollDivisionIds": [
          10126558
        ],
        "postalCode": "N2J4Y7",
        "streetName": "HOLBEACH",
        "streetDirectionId": null,
        "streetTypeId": "CRES",
        "placeName": "WATERLOO",
        "streetNameDisplayText": "HOLBEACH CRES, WATERLOO"
      },
      {
        "electoralDistricts": [
          {
            "election": null,
            "id": 114,
            "name": "Waterloo"
          }
        ],
        "pollDivisionIds": [
          10126558
        ],
        "postalCode": "N2J4Y7",
        "streetName": "HOLBEACH",
        "streetDirectionId": null,
        "streetTypeId": "CRT",
        "placeName": "WATERLOO",
        "streetNameDisplayText": "HOLBEACH CRT, WATERLOO"
      }
    ]
  },
  {
    "postal": "N2J7M0",
    "result": []
  },
  {
    "postal": "N2J8P3",
    "result": []
  },
  {
    "postal": "N2J3N3",
    "result": [
      {
        "electoralDistricts": [
          {
            "election": null,
            "id": 114,
            "name": "Waterloo"
          }
        ],
        "pollDivisionIds": [
          10126566
        ],
        "postalCode": "N2J3N3",
        "streetName": "ELLIS",
        "streetDirectionId": "N",
        "streetTypeId": "CRES",
        "placeName": "WATERLOO",
        "streetNameDisplayText": "ELLIS CRES N, WATERLOO"
      }
    ]
  },
  {
    "postal": "N2J7S3",
    "result": []
  },
  {
    "postal": "N2J3V9",
    "result": [
      {
        "electoralDistricts": [
          {
            "election": null,
            "id": 114,
            "name": "Waterloo"
          }
        ],
        "pollDivisionIds": [
          10126562
        ],
        "postalCode": "N2J3V9",
        "streetName": "ASCOT",
        "streetDirectionId": null,
        "streetTypeId": "PL",
        "placeName": "WATERLOO",
        "streetNameDisplayText": "ASCOT PL, WATERLOO"
      }
    ]
  },
  {
    "postal": "N2J9N7",
    "result": []
  },
  {
    "postal": "N2J0G4",
    "result": []
  },
  {
    "postal": "N2J2E2",
    "result": [
      {
        "electoralDistricts": [
          {
            "election": null,
            "id": 114,
            "name": "Waterloo"
          }
        ],
        "pollDivisionIds": [
          10126563
        ],
        "postalCode": "N2J2E2",
        "streetName": "MARGARET",
        "streetDirectionId": "S",
        "streetTypeId": "AVE",
        "placeName": "WATERLOO",
        "streetNameDisplayText": "MARGARET AVE S, WATERLOO"
      }
    ]
  },
  {
    "postal": "N2J7W8",
    "result": []
  },
  {
    "postal": "N2J7M5",
    "result": []
  },
  {
    "postal": "N2J5W8",
    "result": []
  },
  {
    "postal": "N2J5E5",
    "result": []
  },
  {
    "postal": "N2J1P9",
    "result": [
      {
        "electoralDistricts": [
          {
            "election": null,
            "id": 114,
            "name": "Waterloo"
          }
        ],
        "pollDivisionIds": [
          10126552,
          10126561
        ],
        "postalCode": "N2J1P9",
        "streetName": "KING",
        "streetDirectionId": "S",
        "streetTypeId": "ST",
        "placeName": "WATERLOO",
        "streetNameDisplayText": "KING ST S, WATERLOO"
      }
    ]
  },
  {
    "postal": "N2J8V8",
    "result": []
  },
  {
    "postal": "N2J9G8",
    "result": []
  },
  {
    "postal": "N2J8H9",
    "result": []
  },
  {
    "postal": "N2J1Z1",
    "result": [
      {
        "electoralDistricts": [
          {
            "election": null,
            "id": 114,
            "name": "Waterloo"
          }
        ],
        "pollDivisionIds": [
          10126563
        ],
        "postalCode": "N2J1Z1",
        "streetName": "DOVER",
        "streetDirectionId": null,
        "streetTypeId": "ST",
        "placeName": "WATERLOO",
        "streetNameDisplayText": "DOVER ST, WATERLOO"
      }
    ]
  },
  {
    "postal": "N2J8M3",
    "result": []
  },
  {
    "postal": "N2J5H6",
    "result": []
  },
  {
    "postal": "N2J7W7",
    "result": []
  },
  {
    "postal": "N2J4L0",
    "result": []
  },
  {
    "postal": "N2J2N1",
    "result": [
      {
        "electoralDistricts": [
          {
            "election": null,
            "id": 114,
            "name": "Waterloo"
          }
        ],
        "pollDivisionIds": [
          10126567
        ],
        "postalCode": "N2J2N1",
        "streetName": "VERMONT",
        "streetDirectionId": null,
        "streetTypeId": "ST",
        "placeName": "WATERLOO",
        "streetNameDisplayText": "VERMONT ST, WATERLOO"
      }
    ]
  },
  {
    "postal": "N2J2H4",
    "result": [
      {
        "electoralDistricts": [
          {
            "election": null,
            "id": 114,
            "name": "Waterloo"
          }
        ],
        "pollDivisionIds": [
          10126553
        ],
        "postalCode": "N2J2H4",
        "streetName": "PRINCESS",
        "streetDirectionId": "E",
        "streetTypeId": "ST",
        "placeName": "WATERLOO",
        "streetNameDisplayText": "PRINCESS ST E, WATERLOO"
      }
    ]
  },
  {
    "postal": "N2J5C8",
    "result": []
  },
  {
    "postal": "N2J8B0",
    "result": []
  },
  {
    "postal": "N2J1T4",
    "result": [
      {
        "electoralDistricts": [
          {
            "election": null,
            "id": 114,
            "name": "Waterloo"
          }
        ],
        "pollDivisionIds": [
          10126561
        ],
        "postalCode": "N2J1T4",
        "streetName": "HERBERT",
        "streetDirectionId": null,
        "streetTypeId": "ST",
        "placeName": "WATERLOO",
        "streetNameDisplayText": "HERBERT ST, WATERLOO"
      }
    ]
  },
  {
    "postal": "N2J7N7",
    "result": []
  },
  {
    "postal": "N2J4L3",
    "result": [
      {
        "electoralDistricts": [
          {
            "election": null,
            "id": 114,
            "name": "Waterloo"
          }
        ],
        "pollDivisionIds": [
          10142551
        ],
        "postalCode": "N2J4L3",
        "streetName": "HICKORY",
        "streetDirectionId": "E",
        "streetTypeId": "ST",
        "placeName": "WATERLOO",
        "streetNameDisplayText": "HICKORY ST E, WATERLOO"
      }
    ]
  },
  {
    "postal": "N2J2N2",
    "result": [
      {
        "electoralDistricts": [
          {
            "election": null,
            "id": 114,
            "name": "Waterloo"
          }
        ],
        "pollDivisionIds": [
          10126567
        ],
        "postalCode": "N2J2N2",
        "streetName": "VERMONT",
        "streetDirectionId": null,
        "streetTypeId": "ST",
        "placeName": "WATERLOO",
        "streetNameDisplayText": "VERMONT ST, WATERLOO"
      }
    ]
  },
  {
    "postal": "N2J4N8",
    "result": []
  },
  {
    "postal": "N2J3M5",
    "result": [
      {
        "electoralDistricts": [
          {
            "election": null,
            "id": 114,
            "name": "Waterloo"
          }
        ],
        "pollDivisionIds": [
          10126562
        ],
        "postalCode": "N2J3M5",
        "streetName": "WILLOWDALE",
        "streetDirectionId": null,
        "streetTypeId": "PL",
        "placeName": "WATERLOO",
        "streetNameDisplayText": "WILLOWDALE PL, WATERLOO"
      }
    ]
  },
  {
    "postal": "N2J6H7",
    "result": []
  },
  {
    "postal": "N2J8Y8",
    "result": []
  },
  {
    "postal": "N2J5R9",
    "result": []
  },
  {
    "postal": "N2J8G3",
    "result": []
  },
  {
    "postal": "N2J4N7",
    "result": [
      {
        "electoralDistricts": [
          {
            "election": null,
            "id": 114,
            "name": "Waterloo"
          }
        ],
        "pollDivisionIds": [
          10126562
        ],
        "postalCode": "N2J4N7",
        "streetName": "COLUMBIA",
        "streetDirectionId": "E",
        "streetTypeId": "ST",
        "placeName": "WATERLOO",
        "streetNameDisplayText": "COLUMBIA ST E, WATERLOO"
      }
    ]
  },
  {
    "postal": "N2J0B9",
    "result": [
      {
        "electoralDistricts": [
          {
            "election": null,
            "id": 114,
            "name": "Waterloo"
          }
        ],
        "pollDivisionIds": [
          10142551
        ],
        "postalCode": "N2J0B9",
        "streetName": "KING",
        "streetDirectionId": "N",
        "streetTypeId": "ST",
        "placeName": "WATERLOO",
        "streetNameDisplayText": "KING ST N, WATERLOO"
      }
    ]
  },
  {
    "postal": "N2J9K7",
    "result": []
  },
  {
    "postal": "N2J9K9",
    "result": []
  },
  {
    "postal": "N2J3Z2",
    "result": [
      {
        "electoralDistricts": [
          {
            "election": null,
            "id": 114,
            "name": "Waterloo"
          }
        ],
        "pollDivisionIds": [
          10126562
        ],
        "postalCode": "N2J3Z2",
        "streetName": "MARSLAND",
        "streetDirectionId": null,
        "streetTypeId": "DR",
        "placeName": "WATERLOO",
        "streetNameDisplayText": "MARSLAND DR, WATERLOO"
      }
    ]
  },
  {
    "postal": "N2J6W7",
    "result": []
  },
  {
    "postal": "N2J0P1",
    "result": []
  },
  {
    "postal": "N2J3A0",
    "result": []
  },
  {
    "postal": "N2J8L9",
    "result": []
  },
  {
    "postal": "N2J6X0",
    "result": []
  },
  {
    "postal": "N2J3E9",
    "result": [
      {
        "electoralDistricts": [
          {
            "election": null,
            "id": 114,
            "name": "Waterloo"
          }
        ],
        "pollDivisionIds": [
          10126559
        ],
        "postalCode": "N2J3E9",
        "streetName": "BRIGHTON",
        "streetDirectionId": null,
        "streetTypeId": "ST",
        "placeName": "WATERLOO",
        "streetNameDisplayText": "BRIGHTON ST, WATERLOO"
      }
    ]
  },
  {
    "postal": "N2J0S5",
    "result": []
  },
  {
    "postal": "N2J1A2",
    "result": [
      {
        "electoralDistricts": [
          {
            "election": null,
            "id": 114,
            "name": "Waterloo"
          }
        ],
        "pollDivisionIds": [
          10126561
        ],
        "postalCode": "N2J1A2",
        "streetName": "GRAHAM",
        "streetDirectionId": null,
        "streetTypeId": "ST",
        "placeName": "WATERLOO",
        "streetNameDisplayText": "GRAHAM ST, WATERLOO"
      }
    ]
  },
  {
    "postal": "N2J5V8",
    "result": []
  },
  {
    "postal": "N2J8C5",
    "result": []
  },
  {
    "postal": "N2J6N0",
    "result": []
  },
  {
    "postal": "N2J9E6",
    "result": []
  },
  {
    "postal": "N2J5J7",
    "result": []
  },
  {
    "postal": "N2J2R2",
    "result": [
      {
        "electoralDistricts": [
          {
            "election": null,
            "id": 114,
            "name": "Waterloo"
          }
        ],
        "pollDivisionIds": [
          10126553
        ],
        "postalCode": "N2J2R2",
        "streetName": "NOECKER",
        "streetDirectionId": null,
        "streetTypeId": "ST",
        "placeName": "WATERLOO",
        "streetNameDisplayText": "NOECKER ST, WATERLOO"
      }
    ]
  },
  {
    "postal": "N2J0P5",
    "result": []
  },
  {
    "postal": "N2J5A7",
    "result": []
  },
  {
    "postal": "N2J1G1",
    "result": [
      {
        "electoralDistricts": [
          {
            "election": null,
            "id": 114,
            "name": "Waterloo"
          }
        ],
        "pollDivisionIds": [
          10126563,
          10126561
        ],
        "postalCode": "N2J1G1",
        "streetName": "JOHN",
        "streetDirectionId": "E",
        "streetTypeId": "ST",
        "placeName": "WATERLOO",
        "streetNameDisplayText": "JOHN ST E, WATERLOO"
      }
    ]
  },
  {
    "postal": "N2J9R6",
    "result": []
  },
  {
    "postal": "N2J4Z9",
    "result": []
  },
  {
    "postal": "N2J1V5",
    "result": [
      {
        "electoralDistricts": [
          {
            "election": null,
            "id": 114,
            "name": "Waterloo"
          }
        ],
        "pollDivisionIds": [
          10126563,
          10126561,
          10126553
        ],
        "postalCode": "N2J1V5",
        "streetName": "WILLOW",
        "streetDirectionId": null,
        "streetTypeId": "ST",
        "placeName": "WATERLOO",
        "streetNameDisplayText": "WILLOW ST, WATERLOO"
      }
    ]
  },
  {
    "postal": "N2J9Y5",
    "result": []
  },
  {
    "postal": "N2J1P2",
    "result": [
      {
        "electoralDistricts": [
          {
            "election": null,
            "id": 114,
            "name": "Waterloo"
          }
        ],
        "pollDivisionIds": [
          10126557
        ],
        "postalCode": "N2J1P2",
        "streetName": "KING",
        "streetDirectionId": "S",
        "streetTypeId": "ST",
        "placeName": "WATERLOO",
        "streetNameDisplayText": "KING ST S, WATERLOO"
      },
      {
        "electoralDistricts": [
          {
            "election": null,
            "id": 114,
            "name": "Waterloo"
          }
        ],
        "pollDivisionIds": [
          10126557
        ],
        "postalCode": "N2J1P2",
        "streetName": "WILLIS",
        "streetDirectionId": null,
        "streetTypeId": "WAY",
        "placeName": "WATERLOO",
        "streetNameDisplayText": "WILLIS WAY, WATERLOO"
      }
    ]
  },
  {
    "postal": "N2J5X0",
    "result": []
  },
  {
    "postal": "N2J7B8",
    "result": []
  },
  {
    "postal": "N2J0C6",
    "result": [
      {
        "electoralDistricts": [
          {
            "election": null,
            "id": 114,
            "name": "Waterloo"
          }
        ],
        "pollDivisionIds": [
          10126561
        ],
        "postalCode": "N2J0C6",
        "streetName": "KING ST S",
        "streetDirectionId": "S",
        "streetTypeId": "ST",
        "placeName": "WATERLOO",
        "streetNameDisplayText": "KING ST S ST S, WATERLOO"
      },
      {
        "electoralDistricts": [
          {
            "election": null,
            "id": 114,
            "name": "Waterloo"
          }
        ],
        "pollDivisionIds": [
          10126561
        ],
        "postalCode": "N2J0C6",
        "streetName": "KING",
        "streetDirectionId": "S",
        "streetTypeId": "ST",
        "placeName": "WATERLOO",
        "streetNameDisplayText": "KING ST S, WATERLOO"
      }
    ]
  },
  {
    "postal": "N2J6G1",
    "result": []
  },
  {
    "postal": "N2J3K3",
    "result": [
      {
        "electoralDistricts": [
          {
            "election": null,
            "id": 114,
            "name": "Waterloo"
          }
        ],
        "pollDivisionIds": [
          10126559
        ],
        "postalCode": "N2J3K3",
        "streetName": "MACKAY",
        "streetDirectionId": null,
        "streetTypeId": "CRES",
        "placeName": "WATERLOO",
        "streetNameDisplayText": "MACKAY CRES, WATERLOO"
      }
    ]
  },
  {
    "postal": "N2J9R0",
    "result": []
  },
  {
    "postal": "N2J4R8",
    "result": [
      {
        "electoralDistricts": [
          {
            "election": null,
            "id": 114,
            "name": "Waterloo"
          }
        ],
        "pollDivisionIds": [
          10126558
        ],
        "postalCode": "N2J4R8",
        "streetName": "LEXINGTON",
        "streetDirectionId": null,
        "streetTypeId": "RD",
        "placeName": "WATERLOO",
        "streetNameDisplayText": "LEXINGTON RD, WATERLOO"
      }
    ]
  },
  {
    "postal": "N2J5P9",
    "result": []
  },
  {
    "postal": "N2J8N4",
    "result": []
  },
  {
    "postal": "N2J8H4",
    "result": []
  },
  {
    "postal": "N2J4V1",
    "result": []
  },
  {
    "postal": "N2J1K5",
    "result": [
      {
        "electoralDistricts": [
          {
            "election": null,
            "id": 16,
            "name": "Cambridge"
          }
        ],
        "pollDivisionIds": [
          10137440
        ],
        "postalCode": "N2J1K5",
        "streetName": "GEORGE",
        "streetDirectionId": "S",
        "streetTypeId": "ST",
        "placeName": "CAMBRIDGE",
        "streetNameDisplayText": "GEORGE ST S, CAMBRIDGE"
      },
      {
        "electoralDistricts": [
          {
            "election": null,
            "id": 48,
            "name": "KitchenerConestoga"
          }
        ],
        "pollDivisionIds": [
          10139253
        ],
        "postalCode": "N2J1K5",
        "streetName": "GEORGE",
        "streetDirectionId": null,
        "streetTypeId": "ST",
        "placeName": "LINWOOD",
        "streetNameDisplayText": "GEORGE ST, LINWOOD"
      },
      {
        "electoralDistricts": [
          {
            "election": null,
            "id": 48,
            "name": "KitchenerConestoga"
          },
          {
            "election": null,
            "id": 114,
            "name": "Waterloo"
          }
        ],
        "pollDivisionIds": [
          10139244,
          10126561
        ],
        "postalCode": "N2J1K5",
        "streetName": "GEORGE",
        "streetDirectionId": null,
        "streetTypeId": "ST",
        "placeName": "WATERLOO",
        "streetNameDisplayText": "GEORGE ST, WATERLOO"
      }
    ]
  },
  {
    "postal": "N2J1Z5",
    "result": [
      {
        "electoralDistricts": [
          {
            "election": null,
            "id": 114,
            "name": "Waterloo"
          }
        ],
        "pollDivisionIds": [
          10126563
        ],
        "postalCode": "N2J1Z5",
        "streetName": "DOVER",
        "streetDirectionId": null,
        "streetTypeId": "ST",
        "placeName": "WATERLOO",
        "streetNameDisplayText": "DOVER ST, WATERLOO"
      }
    ]
  },
  {
    "postal": "N2J9L9",
    "result": []
  },
  {
    "postal": "N2J5L2",
    "result": []
  },
  {
    "postal": "N2J0M2",
    "result": []
  },
  {
    "postal": "N2J1K8",
    "result": [
      {
        "electoralDistricts": [
          {
            "election": null,
            "id": 114,
            "name": "Waterloo"
          }
        ],
        "pollDivisionIds": [
          10126561
        ],
        "postalCode": "N2J1K8",
        "streetName": "GEORGE",
        "streetDirectionId": null,
        "streetTypeId": "ST",
        "placeName": "WATERLOO",
        "streetNameDisplayText": "GEORGE ST, WATERLOO"
      }
    ]
  },
  {
    "postal": "N2J3M7",
    "result": [
      {
        "electoralDistricts": [
          {
            "election": null,
            "id": 114,
            "name": "Waterloo"
          }
        ],
        "pollDivisionIds": [
          10126559
        ],
        "postalCode": "N2J3M7",
        "streetName": "ASHCROFT",
        "streetDirectionId": null,
        "streetTypeId": "PL",
        "placeName": "WATERLOO",
        "streetNameDisplayText": "ASHCROFT PL, WATERLOO"
      }
    ]
  },
  {
    "postal": "N2J1B2",
    "result": [
      {
        "electoralDistricts": [
          {
            "election": null,
            "id": 114,
            "name": "Waterloo"
          }
        ],
        "pollDivisionIds": [
          10126563
        ],
        "postalCode": "N2J1B2",
        "streetName": "HARTWOOD",
        "streetDirectionId": null,
        "streetTypeId": "AVE",
        "placeName": "WATERLOO",
        "streetNameDisplayText": "HARTWOOD AVE, WATERLOO"
      }
    ]
  },
  {
    "postal": "N2J0H9",
    "result": []
  },
  {
    "postal": "N2J8M4",
    "result": []
  },
  {
    "postal": "N2J2M5",
    "result": [
      {
        "electoralDistricts": [
          {
            "election": null,
            "id": 114,
            "name": "Waterloo"
          }
        ],
        "pollDivisionIds": [
          10126567
        ],
        "postalCode": "N2J2M5",
        "streetName": "MURDOCK",
        "streetDirectionId": null,
        "streetTypeId": "AVE",
        "placeName": "WATERLOO",
        "streetNameDisplayText": "MURDOCK AVE, WATERLOO"
      }
    ]
  },
  {
    "postal": "N2J0T9",
    "result": []
  },
  {
    "postal": "N2J3P1",
    "result": [
      {
        "electoralDistricts": [
          {
            "election": null,
            "id": 114,
            "name": "Waterloo"
          }
        ],
        "pollDivisionIds": [
          10126566
        ],
        "postalCode": "N2J3P1",
        "streetName": "MARGARET",
        "streetDirectionId": "N",
        "streetTypeId": "AVE",
        "placeName": "WATERLOO",
        "streetNameDisplayText": "MARGARET AVE N, WATERLOO"
      }
    ]
  },
  {
    "postal": "N2J1R6",
    "result": []
  },
  {
    "postal": "N2J9V5",
    "result": []
  },
  {
    "postal": "N2J9T0",
    "result": []
  },
  {
    "postal": "N2J0A9",
    "result": []
  },
  {
    "postal": "N2J1M3",
    "result": [
      {
        "electoralDistricts": [
          {
            "election": null,
            "id": 114,
            "name": "Waterloo"
          }
        ],
        "pollDivisionIds": [
          10126563
        ],
        "postalCode": "N2J1M3",
        "streetName": "ERB",
        "streetDirectionId": "E",
        "streetTypeId": "ST",
        "placeName": "WATERLOO",
        "streetNameDisplayText": "ERB ST E, WATERLOO"
      }
    ]
  },
  {
    "postal": "N2J1W8",
    "result": [
      {
        "electoralDistricts": [
          {
            "election": null,
            "id": 114,
            "name": "Waterloo"
          }
        ],
        "pollDivisionIds": [
          10126563
        ],
        "postalCode": "N2J1W8",
        "streetName": "MOORE",
        "streetDirectionId": "S",
        "streetTypeId": "AVE",
        "placeName": "WATERLOO",
        "streetNameDisplayText": "MOORE AVE S, WATERLOO"
      }
    ]
  },
  {
    "postal": "N2J9J1",
    "result": []
  },
  {
    "postal": "N2J8N5",
    "result": []
  },
  {
    "postal": "N2J5X1",
    "result": []
  },
  {
    "postal": "N2J6S2",
    "result": []
  },
  {
    "postal": "N2J2A2",
    "result": [
      {
        "electoralDistricts": [
          {
            "election": null,
            "id": 114,
            "name": "Waterloo"
          }
        ],
        "pollDivisionIds": [
          10126563
        ],
        "postalCode": "N2J2A2",
        "streetName": "WEBER",
        "streetDirectionId": "S",
        "streetTypeId": "ST",
        "placeName": "WATERLOO",
        "streetNameDisplayText": "WEBER ST S, WATERLOO"
      }
    ]
  },
  {
    "postal": "N2J6A6",
    "result": []
  },
  {
    "postal": "N2J0S3",
    "result": []
  },
  {
    "postal": "N2J3E7",
    "result": [
      {
        "electoralDistricts": [
          {
            "election": null,
            "id": 114,
            "name": "Waterloo"
          }
        ],
        "pollDivisionIds": [
          10126563
        ],
        "postalCode": "N2J3E7",
        "streetName": "DEVITT",
        "streetDirectionId": "N",
        "streetTypeId": "AVE",
        "placeName": "WATERLOO",
        "streetNameDisplayText": "DEVITT AVE N, WATERLOO"
      }
    ]
  },
  {
    "postal": "N2J5R7",
    "result": []
  },
  {
    "postal": "N2J3R6",
    "result": [
      {
        "electoralDistricts": [
          {
            "election": null,
            "id": 114,
            "name": "Waterloo"
          }
        ],
        "pollDivisionIds": [
          10126567
        ],
        "postalCode": "N2J3R6",
        "streetName": "BLUEVALE",
        "streetDirectionId": "N",
        "streetTypeId": "ST",
        "placeName": "WATERLOO",
        "streetNameDisplayText": "BLUEVALE ST N, WATERLOO"
      }
    ]
  },
  {
    "postal": "N2J6K4",
    "result": []
  },
  {
    "postal": "N2J2W5",
    "result": []
  },
  {
    "postal": "N2J8W4",
    "result": []
  },
  {
    "postal": "N2J9C2",
    "result": []
  },
  {
    "postal": "N2J2C0",
    "result": []
  },
  {
    "postal": "N2J0E1",
    "result": [
      {
        "electoralDistricts": [
          {
            "election": null,
            "id": 114,
            "name": "Waterloo"
          }
        ],
        "pollDivisionIds": [
          10126554
        ],
        "postalCode": "N2J0E1",
        "streetName": "KING",
        "streetDirectionId": "N",
        "streetTypeId": "ST",
        "placeName": "WATERLOO",
        "streetNameDisplayText": "KING ST N, WATERLOO"
      },
      {
        "electoralDistricts": [
          {
            "election": null,
            "id": 114,
            "name": "Waterloo"
          }
        ],
        "pollDivisionIds": [
          10126557
        ],
        "postalCode": "N2J0E1",
        "streetName": "KING",
        "streetDirectionId": "S",
        "streetTypeId": "ST",
        "placeName": "WATERLOO",
        "streetNameDisplayText": "KING ST S, WATERLOO"
      }
    ]
  },
  {
    "postal": "N2J1K9",
    "result": [
      {
        "electoralDistricts": [
          {
            "election": null,
            "id": 114,
            "name": "Waterloo"
          }
        ],
        "pollDivisionIds": [
          10126561
        ],
        "postalCode": "N2J1K9",
        "streetName": "WILLIAM",
        "streetDirectionId": "E",
        "streetTypeId": "ST",
        "placeName": "WATERLOO",
        "streetNameDisplayText": "WILLIAM ST E, WATERLOO"
      }
    ]
  },
  {
    "postal": "N2J1G7",
    "result": [
      {
        "electoralDistricts": [
          {
            "election": null,
            "id": 114,
            "name": "Waterloo"
          }
        ],
        "pollDivisionIds": [
          10126563
        ],
        "postalCode": "N2J1G7",
        "streetName": "RODNEY",
        "streetDirectionId": null,
        "streetTypeId": "ST",
        "placeName": "WATERLOO",
        "streetNameDisplayText": "RODNEY ST, WATERLOO"
      }
    ]
  },
  {
    "postal": "N2J4E9",
    "result": []
  },
  {
    "postal": "N2J9P0",
    "result": []
  },
  {
    "postal": "N2J5H3",
    "result": []
  },
  {
    "postal": "N2J9X6",
    "result": []
  },
  {
    "postal": "N2J5N7",
    "result": []
  },
  {
    "postal": "N2J5A6",
    "result": []
  },
  {
    "postal": "N2J4M0",
    "result": []
  },
  {
    "postal": "N2J3V6",
    "result": [
      {
        "electoralDistricts": [
          {
            "election": null,
            "id": 114,
            "name": "Waterloo"
          }
        ],
        "pollDivisionIds": [
          10126567
        ],
        "postalCode": "N2J3V6",
        "streetName": "HARVARD",
        "streetDirectionId": null,
        "streetTypeId": "RD",
        "placeName": "WATERLOO",
        "streetNameDisplayText": "HARVARD RD, WATERLOO"
      }
    ]
  },
  {
    "postal": "N2J1L7",
    "result": [
      {
        "electoralDistricts": [
          {
            "election": null,
            "id": 114,
            "name": "Waterloo"
          }
        ],
        "pollDivisionIds": [
          10126553,
          10126557
        ],
        "postalCode": "N2J1L7",
        "streetName": "ERB",
        "streetDirectionId": "E",
        "streetTypeId": "ST",
        "placeName": "WATERLOO",
        "streetNameDisplayText": "ERB ST E, WATERLOO"
      }
    ]
  },
  {
    "postal": "N2J2P9",
    "result": [
      {
        "electoralDistricts": [
          {
            "election": null,
            "id": 114,
            "name": "Waterloo"
          }
        ],
        "pollDivisionIds": [
          10126559
        ],
        "postalCode": "N2J2P9",
        "streetName": "ELGIN",
        "streetDirectionId": null,
        "streetTypeId": "ST",
        "placeName": "WATERLOO",
        "streetNameDisplayText": "ELGIN ST, WATERLOO"
      }
    ]
  },
  {
    "postal": "N2J5T4",
    "result": []
  },
  {
    "postal": "N2J5Z1",
    "result": []
  },
  {
    "postal": "N2J2X0",
    "result": []
  },
  {
    "postal": "N2J6Z2",
    "result": []
  },
  {
    "postal": "N2J0E0",
    "result": []
  },
  {
    "postal": "N2J3Z5",
    "result": []
  },
  {
    "postal": "N2J8H3",
    "result": []
  },
  {
    "postal": "N2J7S6",
    "result": []
  },
  {
    "postal": "N2J4C1",
    "result": [
      {
        "electoralDistricts": [
          {
            "election": null,
            "id": 114,
            "name": "Waterloo"
          }
        ],
        "pollDivisionIds": [
          10126539
        ],
        "postalCode": "N2J4C1",
        "streetName": "UNIVERSITY",
        "streetDirectionId": null,
        "streetTypeId": "AVE",
        "placeName": "WATERLOO",
        "streetNameDisplayText": "UNIVERSITY AVE, WATERLOO"
      }
    ]
  },
  {
    "postal": "N2J3K2",
    "result": [
      {
        "electoralDistricts": [
          {
            "election": null,
            "id": 114,
            "name": "Waterloo"
          }
        ],
        "pollDivisionIds": [
          10126559
        ],
        "postalCode": "N2J3K2",
        "streetName": "MACKAY",
        "streetDirectionId": null,
        "streetTypeId": "CRES",
        "placeName": "WATERLOO",
        "streetNameDisplayText": "MACKAY CRES, WATERLOO"
      }
    ]
  },
  {
    "postal": "N2J1Y5",
    "result": [
      {
        "electoralDistricts": [
          {
            "election": null,
            "id": 114,
            "name": "Waterloo"
          }
        ],
        "pollDivisionIds": [
          10126563
        ],
        "postalCode": "N2J1Y5",
        "streetName": "DEVITT",
        "streetDirectionId": "S",
        "streetTypeId": "AVE",
        "placeName": "WATERLOO",
        "streetNameDisplayText": "DEVITT AVE S, WATERLOO"
      }
    ]
  },
  {
    "postal": "N2J6P6",
    "result": []
  },
  {
    "postal": "N2J3N9",
    "result": [
      {
        "electoralDistricts": [
          {
            "election": null,
            "id": 114,
            "name": "Waterloo"
          }
        ],
        "pollDivisionIds": [
          10126566
        ],
        "postalCode": "N2J3N9",
        "streetName": "MARGARET",
        "streetDirectionId": "N",
        "streetTypeId": "AVE",
        "placeName": "WATERLOO",
        "streetNameDisplayText": "MARGARET AVE N, WATERLOO"
      }
    ]
  },
  {
    "postal": "N2J3W2",
    "result": [
      {
        "electoralDistricts": [
          {
            "election": null,
            "id": 114,
            "name": "Waterloo"
          }
        ],
        "pollDivisionIds": [
          10126567
        ],
        "postalCode": "N2J3W2",
        "streetName": "WESTON",
        "streetDirectionId": null,
        "streetTypeId": "PL",
        "placeName": "WATERLOO",
        "streetNameDisplayText": "WESTON PL, WATERLOO"
      }
    ]
  },
  {
    "postal": "N2J6H8",
    "result": []
  },
  {
    "postal": "N2J9T3",
    "result": []
  },
  {
    "postal": "N2J5L9",
    "result": []
  },
  {
    "postal": "N2J7X7",
    "result": []
  },
  {
    "postal": "N2J3J5",
    "result": [
      {
        "electoralDistricts": [
          {
            "election": null,
            "id": 114,
            "name": "Waterloo"
          }
        ],
        "pollDivisionIds": [
          10142551
        ],
        "postalCode": "N2J3J5",
        "streetName": "HICKORY",
        "streetDirectionId": "E",
        "streetTypeId": "ST",
        "placeName": "WATERLOO",
        "streetNameDisplayText": "HICKORY ST E, WATERLOO"
      }
    ]
  },
  {
    "postal": "N2J4J5",
    "result": [
      {
        "electoralDistricts": [
          {
            "election": null,
            "id": 114,
            "name": "Waterloo"
          }
        ],
        "pollDivisionIds": [
          10126567
        ],
        "postalCode": "N2J4J5",
        "streetName": "BRENDAWOOD",
        "streetDirectionId": null,
        "streetTypeId": "CRES",
        "placeName": "WATERLOO",
        "streetNameDisplayText": "BRENDAWOOD CRES, WATERLOO"
      }
    ]
  },
  {
    "postal": "N2J6J2",
    "result": []
  },
  {
    "postal": "N2J5V6",
    "result": []
  },
  {
    "postal": "N2J3N2",
    "result": [
      {
        "electoralDistricts": [
          {
            "election": null,
            "id": 114,
            "name": "Waterloo"
          }
        ],
        "pollDivisionIds": [
          10126566
        ],
        "postalCode": "N2J3N2",
        "streetName": "ELLIS",
        "streetDirectionId": "N",
        "streetTypeId": "CRES",
        "placeName": "WATERLOO",
        "streetNameDisplayText": "ELLIS CRES N, WATERLOO"
      }
    ]
  },
  {
    "postal": "N2J3B1",
    "result": [
      {
        "electoralDistricts": [
          {
            "election": null,
            "id": 114,
            "name": "Waterloo"
          }
        ],
        "pollDivisionIds": [
          10126553
        ],
        "postalCode": "N2J3B1",
        "streetName": "REGINA",
        "streetDirectionId": "N",
        "streetTypeId": "ST",
        "placeName": "WATERLOO",
        "streetNameDisplayText": "REGINA ST N, WATERLOO"
      }
    ]
  },
  {
    "postal": "N2J8B5",
    "result": []
  },
  {
    "postal": "N2J0K1",
    "result": []
  },
  {
    "postal": "N2J7M7",
    "result": []
  },
  {
    "postal": "N2J2M2",
    "result": [
      {
        "electoralDistricts": [
          {
            "election": null,
            "id": 114,
            "name": "Waterloo"
          }
        ],
        "pollDivisionIds": [
          10126567
        ],
        "postalCode": "N2J2M2",
        "streetName": "NEILSON",
        "streetDirectionId": null,
        "streetTypeId": "AVE",
        "placeName": "WATERLOO",
        "streetNameDisplayText": "NEILSON AVE, WATERLOO"
      }
    ]
  },
  {
    "postal": "N2J9N3",
    "result": []
  },
  {
    "postal": "N2J4Y8",
    "result": [
      {
        "electoralDistricts": [
          {
            "election": null,
            "id": 114,
            "name": "Waterloo"
          }
        ],
        "pollDivisionIds": [
          10126558
        ],
        "postalCode": "N2J4Y8",
        "streetName": "DEARBORN",
        "streetDirectionId": null,
        "streetTypeId": "BLVD",
        "placeName": "WATERLOO",
        "streetNameDisplayText": "DEARBORN BLVD, WATERLOO"
      },
      {
        "electoralDistricts": [
          {
            "election": null,
            "id": 114,
            "name": "Waterloo"
          }
        ],
        "pollDivisionIds": [
          10126558
        ],
        "postalCode": "N2J4Y8",
        "streetName": "TEALBY",
        "streetDirectionId": null,
        "streetTypeId": "CRES",
        "placeName": "WATERLOO",
        "streetNameDisplayText": "TEALBY CRES, WATERLOO"
      }
    ]
  },
  {
    "postal": "N2J3V7",
    "result": [
      {
        "electoralDistricts": [
          {
            "election": null,
            "id": 114,
            "name": "Waterloo"
          }
        ],
        "pollDivisionIds": [
          10126562
        ],
        "postalCode": "N2J3V7",
        "streetName": "HARVARD",
        "streetDirectionId": null,
        "streetTypeId": "RD",
        "placeName": "WATERLOO",
        "streetNameDisplayText": "HARVARD RD, WATERLOO"
      }
    ]
  },
  {
    "postal": "N2J8Z1",
    "result": []
  },
  {
    "postal": "N2J7B3",
    "result": []
  },
  {
    "postal": "N2J3A8",
    "result": [
      {
        "electoralDistricts": [
          {
            "election": null,
            "id": 114,
            "name": "Waterloo"
          }
        ],
        "pollDivisionIds": [
          10126559,
          10126553
        ],
        "postalCode": "N2J3A8",
        "streetName": "REGINA",
        "streetDirectionId": "N",
        "streetTypeId": "ST",
        "placeName": "WATERLOO",
        "streetNameDisplayText": "REGINA ST N, WATERLOO"
      },
      {
        "electoralDistricts": [
          {
            "election": null,
            "id": 114,
            "name": "Waterloo"
          }
        ],
        "pollDivisionIds": [
          10126561
        ],
        "postalCode": "N2J3A8",
        "streetName": "REGINA",
        "streetDirectionId": "S",
        "streetTypeId": "ST",
        "placeName": "WATERLOO",
        "streetNameDisplayText": "REGINA ST S, WATERLOO"
      }
    ]
  },
  {
    "postal": "N2J7V5",
    "result": []
  },
  {
    "postal": "N2J2T2",
    "result": [
      {
        "electoralDistricts": [
          {
            "election": null,
            "id": 114,
            "name": "Waterloo"
          }
        ],
        "pollDivisionIds": [
          10126533,
          10126553
        ],
        "postalCode": "N2J2T2",
        "streetName": "MARSHALL",
        "streetDirectionId": null,
        "streetTypeId": "ST",
        "placeName": "WATERLOO",
        "streetNameDisplayText": "MARSHALL ST, WATERLOO"
      }
    ]
  },
  {
    "postal": "N2J6L3",
    "result": []
  },
  {
    "postal": "N2J0L2",
    "result": []
  },
  {
    "postal": "N2J5Y8",
    "result": []
  },
  {
    "postal": "N2J0B8",
    "result": [
      {
        "electoralDistricts": [
          {
            "election": null,
            "id": 114,
            "name": "Waterloo"
          }
        ],
        "pollDivisionIds": [
          10126553
        ],
        "postalCode": "N2J0B8",
        "streetName": "KING",
        "streetDirectionId": "N",
        "streetTypeId": "ST",
        "placeName": "WATERLOO",
        "streetNameDisplayText": "KING ST N, WATERLOO"
      }
    ]
  },
  {
    "postal": "N2J6R5",
    "result": []
  },
  {
    "postal": "N2J8W6",
    "result": []
  },
  {
    "postal": "N2J8G6",
    "result": []
  },
  {
    "postal": "N2J6X3",
    "result": []
  },
  {
    "postal": "N2J7R7",
    "result": []
  },
  {
    "postal": "N2J4B6",
    "result": [
      {
        "electoralDistricts": [
          {
            "election": null,
            "id": 114,
            "name": "Waterloo"
          }
        ],
        "pollDivisionIds": [
          10126546
        ],
        "postalCode": "N2J4B6",
        "streetName": "UNIVERSITY",
        "streetDirectionId": "W",
        "streetTypeId": "AVE",
        "placeName": "WATERLOO",
        "streetNameDisplayText": "UNIVERSITY AVE W, WATERLOO"
      },
      {
        "electoralDistricts": [
          {
            "election": null,
            "id": 114,
            "name": "Waterloo"
          }
        ],
        "pollDivisionIds": [
          10126539
        ],
        "postalCode": "N2J4B6",
        "streetName": "VILLAGE I EAST 1",
        "streetDirectionId": "E",
        "streetTypeId": "VILLGE",
        "placeName": "WATERLOO",
        "streetNameDisplayText": "VILLAGE I EAST 1 VILLGE E, WATERLOO"
      },
      {
        "electoralDistricts": [
          {
            "election": null,
            "id": 114,
            "name": "Waterloo"
          }
        ],
        "pollDivisionIds": [
          10126539
        ],
        "postalCode": "N2J4B6",
        "streetName": "VILLAGE I NORTH 1",
        "streetDirectionId": "N",
        "streetTypeId": "VILLGE",
        "placeName": "WATERLOO",
        "streetNameDisplayText": "VILLAGE I NORTH 1 VILLGE N, WATERLOO"
      },
      {
        "electoralDistricts": [
          {
            "election": null,
            "id": 114,
            "name": "Waterloo"
          }
        ],
        "pollDivisionIds": [
          10126539
        ],
        "postalCode": "N2J4B6",
        "streetName": "VILLAGE I NORTH 2",
        "streetDirectionId": "N",
        "streetTypeId": "VILLGE",
        "placeName": "WATERLOO",
        "streetNameDisplayText": "VILLAGE I NORTH 2 VILLGE N, WATERLOO"
      },
      {
        "electoralDistricts": [
          {
            "election": null,
            "id": 114,
            "name": "Waterloo"
          }
        ],
        "pollDivisionIds": [
          10126539
        ],
        "postalCode": "N2J4B6",
        "streetName": "VILLAGE I NORTH 4",
        "streetDirectionId": "N",
        "streetTypeId": "VILLGE",
        "placeName": "WATERLOO",
        "streetNameDisplayText": "VILLAGE I NORTH 4 VILLGE N, WATERLOO"
      },
      {
        "electoralDistricts": [
          {
            "election": null,
            "id": 114,
            "name": "Waterloo"
          }
        ],
        "pollDivisionIds": [
          10126539
        ],
        "postalCode": "N2J4B6",
        "streetName": "VILLAGE I NORTH 5",
        "streetDirectionId": "N",
        "streetTypeId": "VILLGE",
        "placeName": "WATERLOO",
        "streetNameDisplayText": "VILLAGE I NORTH 5 VILLGE N, WATERLOO"
      },
      {
        "electoralDistricts": [
          {
            "election": null,
            "id": 114,
            "name": "Waterloo"
          }
        ],
        "pollDivisionIds": [
          10126539
        ],
        "postalCode": "N2J4B6",
        "streetName": "VILLAGE I SOUTH 1",
        "streetDirectionId": "S",
        "streetTypeId": "VILLGE",
        "placeName": "WATERLOO",
        "streetNameDisplayText": "VILLAGE I SOUTH 1 VILLGE S, WATERLOO"
      },
      {
        "electoralDistricts": [
          {
            "election": null,
            "id": 114,
            "name": "Waterloo"
          }
        ],
        "pollDivisionIds": [
          10126539
        ],
        "postalCode": "N2J4B6",
        "streetName": "VILLAGE I SOUTH 2",
        "streetDirectionId": "S",
        "streetTypeId": "VILLGE",
        "placeName": "WATERLOO",
        "streetNameDisplayText": "VILLAGE I SOUTH 2 VILLGE S, WATERLOO"
      },
      {
        "electoralDistricts": [
          {
            "election": null,
            "id": 114,
            "name": "Waterloo"
          }
        ],
        "pollDivisionIds": [
          10126539
        ],
        "postalCode": "N2J4B6",
        "streetName": "VILLAGE I SOUTH 3",
        "streetDirectionId": "S",
        "streetTypeId": "VILLGE",
        "placeName": "WATERLOO",
        "streetNameDisplayText": "VILLAGE I SOUTH 3 VILLGE S, WATERLOO"
      },
      {
        "electoralDistricts": [
          {
            "election": null,
            "id": 114,
            "name": "Waterloo"
          }
        ],
        "pollDivisionIds": [
          10126539
        ],
        "postalCode": "N2J4B6",
        "streetName": "VILLAGE I SOUTH 5",
        "streetDirectionId": "S",
        "streetTypeId": "VILLGE",
        "placeName": "WATERLOO",
        "streetNameDisplayText": "VILLAGE I SOUTH 5 VILLGE S, WATERLOO"
      },
      {
        "electoralDistricts": [
          {
            "election": null,
            "id": 114,
            "name": "Waterloo"
          }
        ],
        "pollDivisionIds": [
          10126539
        ],
        "postalCode": "N2J4B6",
        "streetName": "VILLAGE I SOUTH 6",
        "streetDirectionId": "S",
        "streetTypeId": "VILLGE",
        "placeName": "WATERLOO",
        "streetNameDisplayText": "VILLAGE I SOUTH 6 VILLGE S, WATERLOO"
      },
      {
        "electoralDistricts": [
          {
            "election": null,
            "id": 114,
            "name": "Waterloo"
          }
        ],
        "pollDivisionIds": [
          10126539
        ],
        "postalCode": "N2J4B6",
        "streetName": "VILLAGE I WEST 1",
        "streetDirectionId": "W",
        "streetTypeId": "VILLGE",
        "placeName": "WATERLOO",
        "streetNameDisplayText": "VILLAGE I WEST 1 VILLGE W, WATERLOO"
      },
      {
        "electoralDistricts": [
          {
            "election": null,
            "id": 114,
            "name": "Waterloo"
          }
        ],
        "pollDivisionIds": [
          10126539
        ],
        "postalCode": "N2J4B6",
        "streetName": "VILLAGE I WEST 2",
        "streetDirectionId": "W",
        "streetTypeId": "VILLGE",
        "placeName": "WATERLOO",
        "streetNameDisplayText": "VILLAGE I WEST 2 VILLGE W, WATERLOO"
      },
      {
        "electoralDistricts": [
          {
            "election": null,
            "id": 114,
            "name": "Waterloo"
          }
        ],
        "pollDivisionIds": [
          10126539
        ],
        "postalCode": "N2J4B6",
        "streetName": "VILLAGE I WEST 6",
        "streetDirectionId": "W",
        "streetTypeId": "VILLGE",
        "placeName": "WATERLOO",
        "streetNameDisplayText": "VILLAGE I WEST 6 VILLGE W, WATERLOO"
      }
    ]
  },
  {
    "postal": "N2J3P9",
    "result": [
      {
        "electoralDistricts": [
          {
            "election": null,
            "id": 114,
            "name": "Waterloo"
          }
        ],
        "pollDivisionIds": [
          10126567
        ],
        "postalCode": "N2J3P9",
        "streetName": "MARGARET",
        "streetDirectionId": "N",
        "streetTypeId": "AVE",
        "placeName": "WATERLOO",
        "streetNameDisplayText": "MARGARET AVE N, WATERLOO"
      }
    ]
  },
  {
    "postal": "N2J2T3",
    "result": [
      {
        "electoralDistricts": [
          {
            "election": null,
            "id": 114,
            "name": "Waterloo"
          }
        ],
        "pollDivisionIds": [
          10126553,
          10126533
        ],
        "postalCode": "N2J2T3",
        "streetName": "MARSHALL",
        "streetDirectionId": null,
        "streetTypeId": "ST",
        "placeName": "WATERLOO",
        "streetNameDisplayText": "MARSHALL ST, WATERLOO"
      }
    ]
  },
  {
    "postal": "N2J1M4",
    "result": [
      {
        "electoralDistricts": [
          {
            "election": null,
            "id": 114,
            "name": "Waterloo"
          }
        ],
        "pollDivisionIds": [
          10126563
        ],
        "postalCode": "N2J1M4",
        "streetName": "ERB",
        "streetDirectionId": "E",
        "streetTypeId": "ST",
        "placeName": "WATERLOO",
        "streetNameDisplayText": "ERB ST E, WATERLOO"
      }
    ]
  },
  {
    "postal": "N2J0H1",
    "result": []
  },
  {
    "postal": "N2J9W3",
    "result": []
  },
  {
    "postal": "N2J6P1",
    "result": []
  },
  {
    "postal": "N2J7G2",
    "result": []
  },
  {
    "postal": "N2J4J9",
    "result": [
      {
        "electoralDistricts": [
          {
            "election": null,
            "id": 114,
            "name": "Waterloo"
          }
        ],
        "pollDivisionIds": [
          10126567,
          10126533
        ],
        "postalCode": "N2J4J9",
        "streetName": "LILLIAN",
        "streetDirectionId": null,
        "streetTypeId": "DR",
        "placeName": "WATERLOO",
        "streetNameDisplayText": "LILLIAN DR, WATERLOO"
      }
    ]
  },
  {
    "postal": "N2J9E4",
    "result": []
  },
  {
    "postal": "N2J8H0",
    "result": []
  },
  {
    "postal": "N2J4M7",
    "result": [
      {
        "electoralDistricts": [
          {
            "election": null,
            "id": 114,
            "name": "Waterloo"
          }
        ],
        "pollDivisionIds": [
          10126567
        ],
        "postalCode": "N2J4M7",
        "streetName": "ROSE LEA",
        "streetDirectionId": null,
        "streetTypeId": "CRES",
        "placeName": "WATERLOO",
        "streetNameDisplayText": "ROSE LEA CRES, WATERLOO"
      }
    ]
  },
  {
    "postal": "N2J2G9",
    "result": [
      {
        "electoralDistricts": [
          {
            "election": null,
            "id": 114,
            "name": "Waterloo"
          }
        ],
        "pollDivisionIds": [
          10126553
        ],
        "postalCode": "N2J2G9",
        "streetName": "DUPONT",
        "streetDirectionId": "E",
        "streetTypeId": "ST",
        "placeName": "WATERLOO",
        "streetNameDisplayText": "DUPONT ST E, WATERLOO"
      }
    ]
  },
  {
    "postal": "N2J8T2",
    "result": []
  },
  {
    "postal": "N2J7G7",
    "result": []
  },
  {
    "postal": "N2J4Z3",
    "result": []
  },
  {
    "postal": "N2J5B3",
    "result": []
  },
  {
    "postal": "N2J1S7",
    "result": [
      {
        "electoralDistricts": [
          {
            "election": null,
            "id": 114,
            "name": "Waterloo"
          }
        ],
        "pollDivisionIds": [
          10126561
        ],
        "postalCode": "N2J1S7",
        "streetName": "MARY",
        "streetDirectionId": null,
        "streetTypeId": "ST",
        "placeName": "WATERLOO",
        "streetNameDisplayText": "MARY ST, WATERLOO"
      }
    ]
  },
  {
    "postal": "N2J2N7",
    "result": [
      {
        "electoralDistricts": [
          {
            "election": null,
            "id": 114,
            "name": "Waterloo"
          }
        ],
        "pollDivisionIds": [
          10126567
        ],
        "postalCode": "N2J2N7",
        "streetName": "WASHINGTON",
        "streetDirectionId": null,
        "streetTypeId": "AVE",
        "placeName": "WATERLOO",
        "streetNameDisplayText": "WASHINGTON AVE, WATERLOO"
      }
    ]
  },
  {
    "postal": "N2J0H8",
    "result": []
  },
  {
    "postal": "N2J7Z4",
    "result": []
  },
  {
    "postal": "N2J7B1",
    "result": []
  },
  {
    "postal": "N2J7P8",
    "result": []
  },
  {
    "postal": "N2J7N0",
    "result": []
  },
  {
    "postal": "N2J3Y5",
    "result": [
      {
        "electoralDistricts": [
          {
            "election": null,
            "id": 114,
            "name": "Waterloo"
          }
        ],
        "pollDivisionIds": [
          10126562
        ],
        "postalCode": "N2J3Y5",
        "streetName": "DALE",
        "streetDirectionId": null,
        "streetTypeId": "CRES",
        "placeName": "WATERLOO",
        "streetNameDisplayText": "DALE CRES, WATERLOO"
      }
    ]
  },
  {
    "postal": "N2J6K1",
    "result": []
  },
  {
    "postal": "N2J9X5",
    "result": []
  },
  {
    "postal": "N2J7S5",
    "result": []
  },
  {
    "postal": "N2J0A4",
    "result": []
  },
  {
    "postal": "N2J4T5",
    "result": [
      {
        "electoralDistricts": [
          {
            "election": null,
            "id": 114,
            "name": "Waterloo"
          }
        ],
        "pollDivisionIds": [
          10126554
        ],
        "postalCode": "N2J4T5",
        "streetName": "KING",
        "streetDirectionId": "N",
        "streetTypeId": "ST",
        "placeName": "WATERLOO",
        "streetNameDisplayText": "KING ST N, WATERLOO"
      }
    ]
  },
  {
    "postal": "N2J5K1",
    "result": []
  },
  {
    "postal": "N2J0Z9",
    "result": []
  },
  {
    "postal": "N2J7T2",
    "result": []
  },
  {
    "postal": "N2J1L5",
    "result": [
      {
        "electoralDistricts": [
          {
            "election": null,
            "id": 114,
            "name": "Waterloo"
          }
        ],
        "pollDivisionIds": [
          10126553
        ],
        "postalCode": "N2J1L5",
        "streetName": "ERB",
        "streetDirectionId": "E",
        "streetTypeId": "ST",
        "placeName": "WATERLOO",
        "streetNameDisplayText": "ERB ST E, WATERLOO"
      }
    ]
  },
  {
    "postal": "N2J3N5",
    "result": [
      {
        "electoralDistricts": [
          {
            "election": null,
            "id": 114,
            "name": "Waterloo"
          }
        ],
        "pollDivisionIds": [
          10126567
        ],
        "postalCode": "N2J3N5",
        "streetName": "ELLIS",
        "streetDirectionId": "N",
        "streetTypeId": "CRES",
        "placeName": "WATERLOO",
        "streetNameDisplayText": "ELLIS CRES N, WATERLOO"
      }
    ]
  },
  {
    "postal": "N2J6H4",
    "result": []
  },
  {
    "postal": "N2J5A5",
    "result": []
  },
  {
    "postal": "N2J3R9",
    "result": [
      {
        "electoralDistricts": [
          {
            "election": null,
            "id": 114,
            "name": "Waterloo"
          }
        ],
        "pollDivisionIds": [
          10126567
        ],
        "postalCode": "N2J3R9",
        "streetName": "MAYFIELD",
        "streetDirectionId": null,
        "streetTypeId": "AVE",
        "placeName": "WATERLOO",
        "streetNameDisplayText": "MAYFIELD AVE, WATERLOO"
      }
    ]
  },
  {
    "postal": "N2J7L8",
    "result": []
  },
  {
    "postal": "N2J6T6",
    "result": []
  },
  {
    "postal": "N2J7Y7",
    "result": []
  },
  {
    "postal": "N2J3M8",
    "result": [
      {
        "electoralDistricts": [
          {
            "election": null,
            "id": 114,
            "name": "Waterloo"
          }
        ],
        "pollDivisionIds": [
          10126562
        ],
        "postalCode": "N2J3M8",
        "streetName": "WINFIELD",
        "streetDirectionId": null,
        "streetTypeId": "AVE",
        "placeName": "WATERLOO",
        "streetNameDisplayText": "WINFIELD AVE, WATERLOO"
      }
    ]
  },
  {
    "postal": "N2J2E0",
    "result": []
  },
  {
    "postal": "N2J4B5",
    "result": []
  },
  {
    "postal": "N2J1J3",
    "result": [
      {
        "electoralDistricts": [
          {
            "election": null,
            "id": 114,
            "name": "Waterloo"
          }
        ],
        "pollDivisionIds": [
          10126561
        ],
        "postalCode": "N2J1J3",
        "streetName": "ALLEN",
        "streetDirectionId": "E",
        "streetTypeId": "ST",
        "placeName": "WATERLOO",
        "streetNameDisplayText": "ALLEN ST E, WATERLOO"
      }
    ]
  },
  {
    "postal": "N2J5S6",
    "result": []
  },
  {
    "postal": "N2J8P7",
    "result": []
  },
  {
    "postal": "N2J7S7",
    "result": []
  },
  {
    "postal": "N2J4C2",
    "result": []
  },
  {
    "postal": "N2J5Y0",
    "result": []
  },
  {
    "postal": "N2J2V7",
    "result": [
      {
        "electoralDistricts": [
          {
            "election": null,
            "id": 114,
            "name": "Waterloo"
          }
        ],
        "pollDivisionIds": [
          10142551
        ],
        "postalCode": "N2J2V7",
        "streetName": "UNIVERSITY",
        "streetDirectionId": "E",
        "streetTypeId": "AVE",
        "placeName": "WATERLOO",
        "streetNameDisplayText": "UNIVERSITY AVE E, WATERLOO"
      }
    ]
  },
  {
    "postal": "N2J8P5",
    "result": []
  },
  {
    "postal": "N2J5P5",
    "result": []
  },
  {
    "postal": "N2J5Z0",
    "result": []
  },
  {
    "postal": "N2J9B0",
    "result": []
  },
  {
    "postal": "N2J1L0",
    "result": []
  },
  {
    "postal": "N2J0B5",
    "result": [
      {
        "electoralDistricts": [
          {
            "election": null,
            "id": 114,
            "name": "Waterloo"
          }
        ],
        "pollDivisionIds": [
          10142551
        ],
        "postalCode": "N2J0B5",
        "streetName": "REGINA",
        "streetDirectionId": "N",
        "streetTypeId": "ST",
        "placeName": "WATERLOO",
        "streetNameDisplayText": "REGINA ST N, WATERLOO"
      }
    ]
  },
  {
    "postal": "N2J3L2",
    "result": [
      {
        "electoralDistricts": [
          {
            "election": null,
            "id": 114,
            "name": "Waterloo"
          }
        ],
        "pollDivisionIds": [
          10126562
        ],
        "postalCode": "N2J3L2",
        "streetName": "BELLEHAVEN",
        "streetDirectionId": null,
        "streetTypeId": "DR",
        "placeName": "WATERLOO",
        "streetNameDisplayText": "BELLEHAVEN DR, WATERLOO"
      }
    ]
  },
  {
    "postal": "N2J3B7",
    "result": [
      {
        "electoralDistricts": [
          {
            "election": null,
            "id": 114,
            "name": "Waterloo"
          }
        ],
        "pollDivisionIds": [
          10142551
        ],
        "postalCode": "N2J3B7",
        "streetName": "REGINA",
        "streetDirectionId": "N",
        "streetTypeId": "ST",
        "placeName": "WATERLOO",
        "streetNameDisplayText": "REGINA ST N, WATERLOO"
      }
    ]
  },
  {
    "postal": "N2J8L1",
    "result": []
  },
  {
    "postal": "N2J5M4",
    "result": []
  },
  {
    "postal": "N2J4G9",
    "result": []
  },
  {
    "postal": "N2J0P0",
    "result": []
  },
  {
    "postal": "N2J8G2",
    "result": []
  },
  {
    "postal": "N2J1V9",
    "result": [
      {
        "electoralDistricts": [
          {
            "election": null,
            "id": 114,
            "name": "Waterloo"
          }
        ],
        "pollDivisionIds": [
          10126561
        ],
        "postalCode": "N2J1V9",
        "streetName": "WILLOW",
        "streetDirectionId": null,
        "streetTypeId": "ST",
        "placeName": "WATERLOO",
        "streetNameDisplayText": "WILLOW ST, WATERLOO"
      }
    ]
  },
  {
    "postal": "N2J8N8",
    "result": []
  },
  {
    "postal": "N2J6S8",
    "result": []
  },
  {
    "postal": "N2J8H2",
    "result": []
  },
  {
    "postal": "N2J5R8",
    "result": []
  },
  {
    "postal": "N2J5L4",
    "result": []
  },
  {
    "postal": "N2J9E1",
    "result": []
  },
  {
    "postal": "N2J1C4",
    "result": [
      {
        "electoralDistricts": [
          {
            "election": null,
            "id": 42,
            "name": "HuronBruce"
          }
        ],
        "pollDivisionIds": [
          10138857
        ],
        "postalCode": "N2J1C4",
        "streetName": "HEMLOCK",
        "streetDirectionId": "E",
        "streetTypeId": "ST",
        "placeName": "WATERLOO",
        "streetNameDisplayText": "HEMLOCK ST E, WATERLOO"
      },
      {
        "electoralDistricts": [
          {
            "election": null,
            "id": 114,
            "name": "Waterloo"
          },
          {
            "election": null,
            "id": 48,
            "name": "KitchenerConestoga"
          }
        ],
        "pollDivisionIds": [
          10126563,
          10139244
        ],
        "postalCode": "N2J1C4",
        "streetName": "UNION",
        "streetDirectionId": "E",
        "streetTypeId": "ST",
        "placeName": "WATERLOO",
        "streetNameDisplayText": "UNION ST E, WATERLOO"
      }
    ]
  },
  {
    "postal": "N2J8W5",
    "result": []
  },
  {
    "postal": "N2J1Y4",
    "result": [
      {
        "electoralDistricts": [
          {
            "election": null,
            "id": 114,
            "name": "Waterloo"
          }
        ],
        "pollDivisionIds": [
          10126561
        ],
        "postalCode": "N2J1Y4",
        "streetName": "WATERLOO",
        "streetDirectionId": null,
        "streetTypeId": "ST",
        "placeName": "WATERLOO",
        "streetNameDisplayText": "WATERLOO ST, WATERLOO"
      }
    ]
  },
  {
    "postal": "N2J1C0",
    "result": []
  },
  {
    "postal": "N2J2J2",
    "result": [
      {
        "electoralDistricts": [
          {
            "election": null,
            "id": 114,
            "name": "Waterloo"
          }
        ],
        "pollDivisionIds": [
          10126566
        ],
        "postalCode": "N2J2J2",
        "streetName": "ROYAL",
        "streetDirectionId": null,
        "streetTypeId": "ST",
        "placeName": "WATERLOO",
        "streetNameDisplayText": "ROYAL ST, WATERLOO"
      }
    ]
  },
  {
    "postal": "N2J2J0",
    "result": []
  },
  {
    "postal": "N2J7A3",
    "result": []
  },
  {
    "postal": "N2J8M1",
    "result": []
  },
  {
    "postal": "N2J7T9",
    "result": []
  },
  {
    "postal": "N2J6C0",
    "result": []
  },
  {
    "postal": "N2J7X1",
    "result": []
  },
  {
    "postal": "N2J0G1",
    "result": []
  },
  {
    "postal": "N2J4X2",
    "result": []
  },
  {
    "postal": "N2J0N6",
    "result": []
  },
  {
    "postal": "N2J8E3",
    "result": []
  },
  {
    "postal": "N2J5S8",
    "result": []
  },
  {
    "postal": "N2J0R0",
    "result": []
  },
  {
    "postal": "N2J6J6",
    "result": []
  },
  {
    "postal": "N2J4B4",
    "result": []
  },
  {
    "postal": "N2J7E3",
    "result": []
  },
  {
    "postal": "N2J3N6",
    "result": [
      {
        "electoralDistricts": [
          {
            "election": null,
            "id": 114,
            "name": "Waterloo"
          }
        ],
        "pollDivisionIds": [
          10126567,
          10126533
        ],
        "postalCode": "N2J3N6",
        "streetName": "ELLIS",
        "streetDirectionId": "N",
        "streetTypeId": "CRES",
        "placeName": "WATERLOO",
        "streetNameDisplayText": "ELLIS CRES N, WATERLOO"
      }
    ]
  },
  {
    "postal": "N2J3X6",
    "result": [
      {
        "electoralDistricts": [
          {
            "election": null,
            "id": 114,
            "name": "Waterloo"
          }
        ],
        "pollDivisionIds": [
          10126562
        ],
        "postalCode": "N2J3X6",
        "streetName": "VILLA",
        "streetDirectionId": null,
        "streetTypeId": "PL",
        "placeName": "WATERLOO",
        "streetNameDisplayText": "VILLA PL, WATERLOO"
      }
    ]
  },
  {
    "postal": "N2J8L0",
    "result": []
  },
  {
    "postal": "N2J8N1",
    "result": []
  },
  {
    "postal": "N2J4J0",
    "result": []
  },
  {
    "postal": "N2J0X7",
    "result": []
  },
  {
    "postal": "N2J6S4",
    "result": []
  },
  {
    "postal": "N2J0Z0",
    "result": []
  },
  {
    "postal": "N2J9X8",
    "result": []
  },
  {
    "postal": "N2J3H3",
    "result": [
      {
        "electoralDistricts": [
          {
            "election": null,
            "id": 114,
            "name": "Waterloo"
          }
        ],
        "pollDivisionIds": [
          10126553
        ],
        "postalCode": "N2J3H3",
        "streetName": "WEBER",
        "streetDirectionId": "N",
        "streetTypeId": "ST",
        "placeName": "WATERLOO",
        "streetNameDisplayText": "WEBER ST N, WATERLOO"
      }
    ]
  },
  {
    "postal": "N2J7S2",
    "result": []
  },
  {
    "postal": "N2J3T3",
    "result": [
      {
        "electoralDistricts": [
          {
            "election": null,
            "id": 114,
            "name": "Waterloo"
          }
        ],
        "pollDivisionIds": [
          10126562
        ],
        "postalCode": "N2J3T3",
        "streetName": "RENAUD",
        "streetDirectionId": null,
        "streetTypeId": "DR",
        "placeName": "WATERLOO",
        "streetNameDisplayText": "RENAUD DR, WATERLOO"
      }
    ]
  },
  {
    "postal": "N2J9P3",
    "result": []
  },
  {
    "postal": "N2J4H8",
    "result": [
      {
        "electoralDistricts": [
          {
            "election": null,
            "id": 114,
            "name": "Waterloo"
          }
        ],
        "pollDivisionIds": [
          10126562
        ],
        "postalCode": "N2J4H8",
        "streetName": "GLENRIDGE",
        "streetDirectionId": null,
        "streetTypeId": "DR",
        "placeName": "WATERLOO",
        "streetNameDisplayText": "GLENRIDGE DR, WATERLOO"
      }
    ]
  },
  {
    "postal": "N2J6R1",
    "result": []
  },
  {
    "postal": "N2J1S0",
    "result": []
  },
  {
    "postal": "N2J3W8",
    "result": [
      {
        "electoralDistricts": [
          {
            "election": null,
            "id": 114,
            "name": "Waterloo"
          }
        ],
        "pollDivisionIds": [
          10126562
        ],
        "postalCode": "N2J3W8",
        "streetName": "MACGREGOR",
        "streetDirectionId": null,
        "streetTypeId": "CRES",
        "placeName": "WATERLOO",
        "streetNameDisplayText": "MACGREGOR CRES, WATERLOO"
      }
    ]
  },
  {
    "postal": "N2J4S3",
    "result": [
      {
        "electoralDistricts": [
          {
            "election": null,
            "id": 114,
            "name": "Waterloo"
          }
        ],
        "pollDivisionIds": [
          10126577
        ],
        "postalCode": "N2J4S3",
        "streetName": "WILLOW",
        "streetDirectionId": null,
        "streetTypeId": "ST",
        "placeName": "WATERLOO",
        "streetNameDisplayText": "WILLOW ST, WATERLOO"
      }
    ]
  },
  {
    "postal": "N2J1B6",
    "result": [
      {
        "electoralDistricts": [
          {
            "election": null,
            "id": 114,
            "name": "Waterloo"
          }
        ],
        "pollDivisionIds": [
          10126561
        ],
        "postalCode": "N2J1B6",
        "streetName": "UNION",
        "streetDirectionId": "E",
        "streetTypeId": "ST",
        "placeName": "WATERLOO",
        "streetNameDisplayText": "UNION ST E, WATERLOO"
      }
    ]
  },
  {
    "postal": "N2J8R3",
    "result": []
  },
  {
    "postal": "N2J4V9",
    "result": []
  },
  {
    "postal": "N2J9W4",
    "result": []
  },
  {
    "postal": "N2J3T4",
    "result": [
      {
        "electoralDistricts": [
          {
            "election": null,
            "id": 114,
            "name": "Waterloo"
          }
        ],
        "pollDivisionIds": [
          10126567
        ],
        "postalCode": "N2J3T4",
        "streetName": "CHELFORD",
        "streetDirectionId": null,
        "streetTypeId": "CRES",
        "placeName": "WATERLOO",
        "streetNameDisplayText": "CHELFORD CRES, WATERLOO"
      }
    ]
  },
  {
    "postal": "N2J5C7",
    "result": []
  },
  {
    "postal": "N2J3Y1",
    "result": [
      {
        "electoralDistricts": [
          {
            "election": null,
            "id": 114,
            "name": "Waterloo"
          }
        ],
        "pollDivisionIds": [
          10126562
        ],
        "postalCode": "N2J3Y1",
        "streetName": "GLENRIDGE",
        "streetDirectionId": null,
        "streetTypeId": "PL",
        "placeName": "WATERLOO",
        "streetNameDisplayText": "GLENRIDGE PL, WATERLOO"
      }
    ]
  },
  {
    "postal": "N2J5V0",
    "result": []
  },
  {
    "postal": "N2J8G8",
    "result": []
  },
  {
    "postal": "N2J8B1",
    "result": []
  },
  {
    "postal": "N2J4P5",
    "result": []
  },
  {
    "postal": "N2J7B2",
    "result": []
  },
  {
    "postal": "N2J0R2",
    "result": []
  },
  {
    "postal": "N2J4M4",
    "result": [
      {
        "electoralDistricts": [
          {
            "election": null,
            "id": 114,
            "name": "Waterloo"
          }
        ],
        "pollDivisionIds": [
          10126558
        ],
        "postalCode": "N2J4M4",
        "streetName": "BLUE SPRINGS",
        "streetDirectionId": null,
        "streetTypeId": "DR",
        "placeName": "WATERLOO",
        "streetNameDisplayText": "BLUE SPRINGS DR, WATERLOO"
      }
    ]
  },
  {
    "postal": "N2J7M4",
    "result": []
  },
  {
    "postal": "N2J9S7",
    "result": []
  },
  {
    "postal": "N2J5Z7",
    "result": []
  },
  {
    "postal": "N2J7J7",
    "result": []
  },
  {
    "postal": "N2J8R8",
    "result": []
  },
  {
    "postal": "N2J9X1",
    "result": []
  },
  {
    "postal": "N2J5M9",
    "result": []
  },
  {
    "postal": "N2J9B4",
    "result": []
  },
  {
    "postal": "N2J0L9",
    "result": []
  },
  {
    "postal": "N2J9G4",
    "result": []
  },
  {
    "postal": "N2J1J4",
    "result": [
      {
        "electoralDistricts": [
          {
            "election": null,
            "id": 114,
            "name": "Waterloo"
          }
        ],
        "pollDivisionIds": [
          10126561,
          10126563,
          10126566
        ],
        "postalCode": "N2J1J4",
        "streetName": "ALLEN",
        "streetDirectionId": "E",
        "streetTypeId": "ST",
        "placeName": "WATERLOO",
        "streetNameDisplayText": "ALLEN ST E, WATERLOO"
      }
    ]
  },
  {
    "postal": "N2J0W6",
    "result": []
  }
]
