[
  {
    "postal": "M1C9J6",
    "result": []
  },
  {
    "postal": "M1C9Z5",
    "result": []
  },
  {
    "postal": "M1C7H8",
    "result": []
  },
  {
    "postal": "M1C0P6",
    "result": []
  },
  {
    "postal": "M1C0S7",
    "result": []
  },
  {
    "postal": "M1C8B9",
    "result": []
  },
  {
    "postal": "M1C2A6",
    "result": [
      {
        "electoralDistricts": [
          {
            "election": null,
            "id": 97,
            "name": "Scarborough—Rouge Park"
          }
        ],
        "pollDivisionIds": [
          10141745
        ],
        "postalCode": "M1C2A6",
        "streetName": "CENTENNIAL",
        "streetDirectionId": "N",
        "streetTypeId": "RD",
        "placeName": "SCARBOROUGH",
        "streetNameDisplayText": "CENTENNIAL RD N, SCARBOROUGH"
      }
    ]
  },
  {
    "postal": "M1C7V2",
    "result": []
  },
  {
    "postal": "M1C9P4",
    "result": []
  },
  {
    "postal": "M1C6G0",
    "result": []
  },
  {
    "postal": "M1C2K0",
    "result": []
  },
  {
    "postal": "M1C7N6",
    "result": []
  },
  {
    "postal": "M1C5R3",
    "result": []
  },
  {
    "postal": "M1C7K0",
    "result": []
  },
  {
    "postal": "M1C3R2",
    "result": [
      {
        "electoralDistricts": [
          {
            "election": null,
            "id": 97,
            "name": "Scarborough—Rouge Park"
          }
        ],
        "pollDivisionIds": [
          10141753
        ],
        "postalCode": "M1C3R2",
        "streetName": "ROUGE HIGHLANDS",
        "streetDirectionId": null,
        "streetTypeId": "DR",
        "placeName": "SCARBOROUGH",
        "streetNameDisplayText": "ROUGE HIGHLANDS DR, SCARBOROUGH"
      }
    ]
  },
  {
    "postal": "M1C0J1",
    "result": []
  },
  {
    "postal": "M1C0B0",
    "result": []
  },
  {
    "postal": "M1C5Z2",
    "result": []
  },
  {
    "postal": "M1C7P3",
    "result": []
  },
  {
    "postal": "M1C2K3",
    "result": [
      {
        "electoralDistricts": [
          {
            "election": null,
            "id": 97,
            "name": "Scarborough—Rouge Park"
          }
        ],
        "pollDivisionIds": [
          10143252
        ],
        "postalCode": "M1C2K3",
        "streetName": "IRVINE",
        "streetDirectionId": null,
        "streetTypeId": "RD",
        "placeName": "SCARBOROUGH",
        "streetNameDisplayText": "IRVINE RD, SCARBOROUGH"
      }
    ]
  },
  {
    "postal": "M1C7Y6",
    "result": []
  },
  {
    "postal": "M1C1L9",
    "result": [
      {
        "electoralDistricts": [
          {
            "election": null,
            "id": 97,
            "name": "Scarborough—Rouge Park"
          }
        ],
        "pollDivisionIds": [
          10141745
        ],
        "postalCode": "M1C1L9",
        "streetName": "DEEP DENE",
        "streetDirectionId": null,
        "streetTypeId": "DR",
        "placeName": "SCARBOROUGH",
        "streetNameDisplayText": "DEEP DENE DR, SCARBOROUGH"
      }
    ]
  },
  {
    "postal": "M1C8T0",
    "result": []
  },
  {
    "postal": "M1C3K8",
    "result": [
      {
        "electoralDistricts": [
          {
            "election": null,
            "id": 97,
            "name": "Scarborough—Rouge Park"
          }
        ],
        "pollDivisionIds": [
          10141752
        ],
        "postalCode": "M1C3K8",
        "streetName": "MABERLEY",
        "streetDirectionId": null,
        "streetTypeId": "CRES",
        "placeName": "SCARBOROUGH",
        "streetNameDisplayText": "MABERLEY CRES, SCARBOROUGH"
      }
    ]
  },
  {
    "postal": "M1C5W9",
    "result": []
  },
  {
    "postal": "M1C6T9",
    "result": []
  },
  {
    "postal": "M1C4H1",
    "result": [
      {
        "electoralDistricts": [
          {
            "election": null,
            "id": 97,
            "name": "Scarborough—Rouge Park"
          }
        ],
        "pollDivisionIds": [
          10141746
        ],
        "postalCode": "M1C4H1",
        "streetName": "MILROY",
        "streetDirectionId": null,
        "streetTypeId": "CRES",
        "placeName": "SCARBOROUGH",
        "streetNameDisplayText": "MILROY CRES, SCARBOROUGH"
      }
    ]
  },
  {
    "postal": "M1C7A2",
    "result": []
  },
  {
    "postal": "M1C5G0",
    "result": []
  },
  {
    "postal": "M1C8V5",
    "result": []
  },
  {
    "postal": "M1C2Y8",
    "result": [
      {
        "electoralDistricts": [
          {
            "election": null,
            "id": 97,
            "name": "Scarborough—Rouge Park"
          }
        ],
        "pollDivisionIds": [
          10141753
        ],
        "postalCode": "M1C2Y8",
        "streetName": "BROWNFIELD",
        "streetDirectionId": null,
        "streetTypeId": "GDNS",
        "placeName": "SCARBOROUGH",
        "streetNameDisplayText": "BROWNFIELD GDNS, SCARBOROUGH"
      }
    ]
  },
  {
    "postal": "M1C2B6",
    "result": [
      {
        "electoralDistricts": [
          {
            "election": null,
            "id": 97,
            "name": "Scarborough—Rouge Park"
          },
          {
            "election": null,
            "id": 6,
            "name": "Bay of Quinte"
          }
        ],
        "pollDivisionIds": [
          10141751,
          10136986
        ],
        "postalCode": "M1C2B6",
        "streetName": "LANGEVIN",
        "streetDirectionId": null,
        "streetTypeId": "CRES",
        "placeName": "SCARBOROUGH",
        "streetNameDisplayText": "LANGEVIN CRES, SCARBOROUGH"
      }
    ]
  },
  {
    "postal": "M1C4W8",
    "result": [
      {
        "electoralDistricts": [
          {
            "election": null,
            "id": 97,
            "name": "Scarborough—Rouge Park"
          }
        ],
        "pollDivisionIds": [
          10141745
        ],
        "postalCode": "M1C4W8",
        "streetName": "DALMATIAN",
        "streetDirectionId": null,
        "streetTypeId": "CRES",
        "placeName": "SCARBOROUGH",
        "streetNameDisplayText": "DALMATIAN CRES, SCARBOROUGH"
      }
    ]
  },
  {
    "postal": "M1C8H7",
    "result": []
  },
  {
    "postal": "M1C5P1",
    "result": []
  },
  {
    "postal": "M1C2B8",
    "result": [
      {
        "electoralDistricts": [
          {
            "election": null,
            "id": 97,
            "name": "Scarborough—Rouge Park"
          }
        ],
        "pollDivisionIds": [
          10141751
        ],
        "postalCode": "M1C2B8",
        "streetName": "LANGEVIN",
        "streetDirectionId": null,
        "streetTypeId": "CRES",
        "placeName": "SCARBOROUGH",
        "streetNameDisplayText": "LANGEVIN CRES, SCARBOROUGH"
      }
    ]
  },
  {
    "postal": "M1C0P2",
    "result": []
  },
  {
    "postal": "M1C9M1",
    "result": []
  },
  {
    "postal": "M1C3G0",
    "result": []
  },
  {
    "postal": "M1C9Z2",
    "result": []
  },
  {
    "postal": "M1C2A0",
    "result": []
  },
  {
    "postal": "M1C6Y0",
    "result": []
  },
  {
    "postal": "M1C2Z8",
    "result": [
      {
        "electoralDistricts": [
          {
            "election": null,
            "id": 97,
            "name": "Scarborough—Rouge Park"
          }
        ],
        "pollDivisionIds": [
          10141753
        ],
        "postalCode": "M1C2Z8",
        "streetName": "ROUGE HILLS",
        "streetDirectionId": null,
        "streetTypeId": "DR",
        "placeName": "SCARBOROUGH",
        "streetNameDisplayText": "ROUGE HILLS DR, SCARBOROUGH"
      }
    ]
  },
  {
    "postal": "M1C7Y3",
    "result": []
  },
  {
    "postal": "M1C6Z5",
    "result": []
  },
  {
    "postal": "M1C6E0",
    "result": []
  },
  {
    "postal": "M1C9B7",
    "result": []
  },
  {
    "postal": "M1C9S5",
    "result": []
  },
  {
    "postal": "M1C3X3",
    "result": [
      {
        "electoralDistricts": [
          {
            "election": null,
            "id": 97,
            "name": "Scarborough—Rouge Park"
          }
        ],
        "pollDivisionIds": [
          10141752
        ],
        "postalCode": "M1C3X3",
        "streetName": "WHEELING",
        "streetDirectionId": null,
        "streetTypeId": "DR",
        "placeName": "SCARBOROUGH",
        "streetNameDisplayText": "WHEELING DR, SCARBOROUGH"
      }
    ]
  },
  {
    "postal": "M1C7R5",
    "result": []
  },
  {
    "postal": "M1C2X3",
    "result": [
      {
        "electoralDistricts": [
          {
            "election": null,
            "id": 97,
            "name": "Scarborough—Rouge Park"
          }
        ],
        "pollDivisionIds": [
          10141754,
          10141753
        ],
        "postalCode": "M1C2X3",
        "streetName": "RIDGEWOOD",
        "streetDirectionId": null,
        "streetTypeId": "RD",
        "placeName": "SCARBOROUGH",
        "streetNameDisplayText": "RIDGEWOOD RD, SCARBOROUGH"
      }
    ]
  },
  {
    "postal": "M1C8Z9",
    "result": []
  },
  {
    "postal": "M1C0N4",
    "result": []
  },
  {
    "postal": "M1C1K1",
    "result": [
      {
        "electoralDistricts": [
          {
            "election": null,
            "id": 101,
            "name": "Spadina—Fort York"
          },
          {
            "election": null,
            "id": 97,
            "name": "Scarborough—Rouge Park"
          }
        ],
        "pollDivisionIds": [
          10141942,
          10141745
        ],
        "postalCode": "M1C1K1",
        "streetName": "EUCLID",
        "streetDirectionId": null,
        "streetTypeId": "AVE",
        "placeName": "SCARBOROUGH",
        "streetNameDisplayText": "EUCLID AVE, SCARBOROUGH"
      }
    ]
  },
  {
    "postal": "M1C1S3",
    "result": []
  },
  {
    "postal": "M1C6M4",
    "result": []
  },
  {
    "postal": "M1C9A9",
    "result": []
  },
  {
    "postal": "M1C9Z9",
    "result": []
  },
  {
    "postal": "M1C6T4",
    "result": []
  },
  {
    "postal": "M1C0B2",
    "result": [
      {
        "electoralDistricts": [
          {
            "election": null,
            "id": 97,
            "name": "Scarborough—Rouge Park"
          }
        ],
        "pollDivisionIds": [
          10141744
        ],
        "postalCode": "M1C0B2",
        "streetName": "ELLESMERE",
        "streetDirectionId": null,
        "streetTypeId": "RD",
        "placeName": "SCARBOROUGH",
        "streetNameDisplayText": "ELLESMERE RD, SCARBOROUGH"
      },
      {
        "electoralDistricts": [
          {
            "election": null,
            "id": 97,
            "name": "Scarborough—Rouge Park"
          }
        ],
        "pollDivisionIds": [
          10141744
        ],
        "postalCode": "M1C0B2",
        "streetName": "SPALL",
        "streetDirectionId": null,
        "streetTypeId": "CRT",
        "placeName": "SCARBOROUGH",
        "streetNameDisplayText": "SPALL CRT, SCARBOROUGH"
      }
    ]
  },
  {
    "postal": "M1C2L9",
    "result": [
      {
        "electoralDistricts": [
          {
            "election": null,
            "id": 97,
            "name": "Scarborough—Rouge Park"
          }
        ],
        "pollDivisionIds": [
          10141753
        ],
        "postalCode": "M1C2L9",
        "streetName": "PORT UNION",
        "streetDirectionId": null,
        "streetTypeId": "RD",
        "placeName": "SCARBOROUGH",
        "streetNameDisplayText": "PORT UNION RD, SCARBOROUGH"
      }
    ]
  },
  {
    "postal": "M1C8K9",
    "result": []
  },
  {
    "postal": "M1C2H9",
    "result": [
      {
        "electoralDistricts": [
          {
            "election": null,
            "id": 97,
            "name": "Scarborough—Rouge Park"
          }
        ],
        "pollDivisionIds": [
          10143252
        ],
        "postalCode": "M1C2H9",
        "streetName": "WICHEY",
        "streetDirectionId": null,
        "streetTypeId": "RD",
        "placeName": "SCARBOROUGH",
        "streetNameDisplayText": "WICHEY RD, SCARBOROUGH"
      }
    ]
  },
  {
    "postal": "M1C3Z6",
    "result": [
      {
        "electoralDistricts": [
          {
            "election": null,
            "id": 97,
            "name": "Scarborough—Rouge Park"
          }
        ],
        "pollDivisionIds": [
          10141744
        ],
        "postalCode": "M1C3Z6",
        "streetName": "SCARBELL",
        "streetDirectionId": null,
        "streetTypeId": "DR",
        "placeName": "SCARBOROUGH",
        "streetNameDisplayText": "SCARBELL DR, SCARBOROUGH"
      }
    ]
  },
  {
    "postal": "M1C3B0",
    "result": []
  },
  {
    "postal": "M1C2H8",
    "result": [
      {
        "electoralDistricts": [
          {
            "election": null,
            "id": 97,
            "name": "Scarborough—Rouge Park"
          }
        ],
        "pollDivisionIds": [
          10141752
        ],
        "postalCode": "M1C2H8",
        "streetName": "WICHEY",
        "streetDirectionId": null,
        "streetTypeId": "RD",
        "placeName": "SCARBOROUGH",
        "streetNameDisplayText": "WICHEY RD, SCARBOROUGH"
      }
    ]
  },
  {
    "postal": "M1C3X2",
    "result": [
      {
        "electoralDistricts": [
          {
            "election": null,
            "id": 97,
            "name": "Scarborough—Rouge Park"
          }
        ],
        "pollDivisionIds": [
          10141752
        ],
        "postalCode": "M1C3X2",
        "streetName": "WHEELING",
        "streetDirectionId": null,
        "streetTypeId": "DR",
        "placeName": "SCARBOROUGH",
        "streetNameDisplayText": "WHEELING DR, SCARBOROUGH"
      }
    ]
  },
  {
    "postal": "M1C2E9",
    "result": [
      {
        "electoralDistricts": [
          {
            "election": null,
            "id": 97,
            "name": "Scarborough—Rouge Park"
          }
        ],
        "pollDivisionIds": [
          10141752
        ],
        "postalCode": "M1C2E9",
        "streetName": "CONFERENCE",
        "streetDirectionId": null,
        "streetTypeId": "BLVD",
        "placeName": "SCARBOROUGH",
        "streetNameDisplayText": "CONFERENCE BLVD, SCARBOROUGH"
      }
    ]
  },
  {
    "postal": "M1C9P6",
    "result": []
  },
  {
    "postal": "M1C9E2",
    "result": []
  },
  {
    "postal": "M1C9H2",
    "result": []
  },
  {
    "postal": "M1C1S8",
    "result": [
      {
        "electoralDistricts": [
          {
            "election": null,
            "id": 97,
            "name": "Scarborough—Rouge Park"
          }
        ],
        "pollDivisionIds": [
          10141745
        ],
        "postalCode": "M1C1S8",
        "streetName": "MEADOWVALE",
        "streetDirectionId": null,
        "streetTypeId": "RD",
        "placeName": "SCARBOROUGH",
        "streetNameDisplayText": "MEADOWVALE RD, SCARBOROUGH"
      }
    ]
  },
  {
    "postal": "M1C3M6",
    "result": [
      {
        "electoralDistricts": [
          {
            "election": null,
            "id": 97,
            "name": "Scarborough—Rouge Park"
          }
        ],
        "pollDivisionIds": [
          10141746
        ],
        "postalCode": "M1C3M6",
        "streetName": "SUGARBUSH",
        "streetDirectionId": null,
        "streetTypeId": "SQ",
        "placeName": "SCARBOROUGH",
        "streetNameDisplayText": "SUGARBUSH SQ, SCARBOROUGH"
      }
    ]
  },
  {
    "postal": "M1C6Z8",
    "result": []
  },
  {
    "postal": "M1C4J2",
    "result": [
      {
        "electoralDistricts": [
          {
            "election": null,
            "id": 97,
            "name": "Scarborough—Rouge Park"
          }
        ],
        "pollDivisionIds": [
          10141744
        ],
        "postalCode": "M1C4J2",
        "streetName": "GRAYBARK",
        "streetDirectionId": null,
        "streetTypeId": "CRES",
        "placeName": "SCARBOROUGH",
        "streetNameDisplayText": "GRAYBARK CRES, SCARBOROUGH"
      }
    ]
  },
  {
    "postal": "M1C9Y1",
    "result": []
  },
  {
    "postal": "M1C8V6",
    "result": []
  },
  {
    "postal": "M1C6B2",
    "result": []
  },
  {
    "postal": "M1C1P8",
    "result": [
      {
        "electoralDistricts": [
          {
            "election": null,
            "id": 97,
            "name": "Scarborough—Rouge Park"
          }
        ],
        "pollDivisionIds": [
          10143252
        ],
        "postalCode": "M1C1P8",
        "streetName": "COLONEL DANFORTH",
        "streetDirectionId": null,
        "streetTypeId": "TRAIL",
        "placeName": "SCARBOROUGH",
        "streetNameDisplayText": "COLONEL DANFORTH TRAIL, SCARBOROUGH"
      }
    ]
  },
  {
    "postal": "M1C0V8",
    "result": []
  },
  {
    "postal": "M1C4Y0",
    "result": []
  },
  {
    "postal": "M1C2T4",
    "result": [
      {
        "electoralDistricts": [
          {
            "election": null,
            "id": 97,
            "name": "Scarborough—Rouge Park"
          }
        ],
        "pollDivisionIds": [
          10141751
        ],
        "postalCode": "M1C2T4",
        "streetName": "D'ARCY MAGEE",
        "streetDirectionId": null,
        "streetTypeId": "CRES",
        "placeName": "SCARBOROUGH",
        "streetNameDisplayText": "D'ARCY MAGEE CRES, SCARBOROUGH"
      }
    ]
  },
  {
    "postal": "M1C2S3",
    "result": [
      {
        "electoralDistricts": [
          {
            "election": null,
            "id": 97,
            "name": "Scarborough—Rouge Park"
          }
        ],
        "pollDivisionIds": [
          10141753
        ],
        "postalCode": "M1C2S3",
        "streetName": "TUDOR GLEN",
        "streetDirectionId": null,
        "streetTypeId": "CRES",
        "placeName": "SCARBOROUGH",
        "streetNameDisplayText": "TUDOR GLEN CRES, SCARBOROUGH"
      }
    ]
  },
  {
    "postal": "M1C0K0",
    "result": []
  },
  {
    "postal": "M1C5N1",
    "result": []
  },
  {
    "postal": "M1C7T0",
    "result": []
  },
  {
    "postal": "M1C9N2",
    "result": []
  },
  {
    "postal": "M1C5L1",
    "result": []
  },
  {
    "postal": "M1C7G5",
    "result": []
  },
  {
    "postal": "M1C6K2",
    "result": []
  },
  {
    "postal": "M1C6P9",
    "result": []
  },
  {
    "postal": "M1C0E6",
    "result": [
      {
        "electoralDistricts": [
          {
            "election": null,
            "id": 97,
            "name": "Scarborough—Rouge Park"
          }
        ],
        "pollDivisionIds": [
          10143252
        ],
        "postalCode": "M1C0E6",
        "streetName": "CLEMES",
        "streetDirectionId": null,
        "streetTypeId": "DR",
        "placeName": "SCARBOROUGH",
        "streetNameDisplayText": "CLEMES DR, SCARBOROUGH"
      }
    ]
  },
  {
    "postal": "M1C8R9",
    "result": []
  },
  {
    "postal": "M1C3G9",
    "result": [
      {
        "electoralDistricts": [
          {
            "election": null,
            "id": 97,
            "name": "Scarborough—Rouge Park"
          }
        ],
        "pollDivisionIds": [
          10143252
        ],
        "postalCode": "M1C3G9",
        "streetName": "RAMBLEWOOD",
        "streetDirectionId": null,
        "streetTypeId": "DR",
        "placeName": "SCARBOROUGH",
        "streetNameDisplayText": "RAMBLEWOOD DR, SCARBOROUGH"
      }
    ]
  },
  {
    "postal": "M1C0V7",
    "result": []
  },
  {
    "postal": "M1C2Z1",
    "result": [
      {
        "electoralDistricts": [
          {
            "election": null,
            "id": 97,
            "name": "Scarborough—Rouge Park"
          }
        ],
        "pollDivisionIds": [
          10141754
        ],
        "postalCode": "M1C2Z1",
        "streetName": "ROUGE HILLS",
        "streetDirectionId": null,
        "streetTypeId": "DR",
        "placeName": "SCARBOROUGH",
        "streetNameDisplayText": "ROUGE HILLS DR, SCARBOROUGH"
      }
    ]
  },
  {
    "postal": "M1C7N1",
    "result": []
  },
  {
    "postal": "M1C3C6",
    "result": [
      {
        "electoralDistricts": [
          {
            "election": null,
            "id": 97,
            "name": "Scarborough—Rouge Park"
          }
        ],
        "pollDivisionIds": [
          10143252
        ],
        "postalCode": "M1C3C6",
        "streetName": "ROYDAWN",
        "streetDirectionId": null,
        "streetTypeId": "CRT",
        "placeName": "SCARBOROUGH",
        "streetNameDisplayText": "ROYDAWN CRT, SCARBOROUGH"
      }
    ]
  },
  {
    "postal": "M1C4M1",
    "result": [
      {
        "electoralDistricts": [
          {
            "election": null,
            "id": 97,
            "name": "Scarborough—Rouge Park"
          }
        ],
        "pollDivisionIds": [
          10141754
        ],
        "postalCode": "M1C4M1",
        "streetName": "MILLDOCK",
        "streetDirectionId": null,
        "streetTypeId": "DR",
        "placeName": "SCARBOROUGH",
        "streetNameDisplayText": "MILLDOCK DR, SCARBOROUGH"
      }
    ]
  },
  {
    "postal": "M1C9K2",
    "result": []
  },
  {
    "postal": "M1C9S6",
    "result": []
  },
  {
    "postal": "M1C4X1",
    "result": [
      {
        "electoralDistricts": [
          {
            "election": null,
            "id": 97,
            "name": "Scarborough—Rouge Park"
          }
        ],
        "pollDivisionIds": [
          10141745
        ],
        "postalCode": "M1C4X1",
        "streetName": "CHOICELAND",
        "streetDirectionId": null,
        "streetTypeId": "BLVD",
        "placeName": "SCARBOROUGH",
        "streetNameDisplayText": "CHOICELAND BLVD, SCARBOROUGH"
      },
      {
        "electoralDistricts": [
          {
            "election": null,
            "id": 97,
            "name": "Scarborough—Rouge Park"
          }
        ],
        "pollDivisionIds": [
          10141745
        ],
        "postalCode": "M1C4X1",
        "streetName": "DALMATIAN",
        "streetDirectionId": null,
        "streetTypeId": "CRES",
        "placeName": "SCARBOROUGH",
        "streetNameDisplayText": "DALMATIAN CRES, SCARBOROUGH"
      }
    ]
  },
  {
    "postal": "M1C8W2",
    "result": []
  },
  {
    "postal": "M1C7N2",
    "result": []
  },
  {
    "postal": "M1C8S3",
    "result": []
  },
  {
    "postal": "M1C4V0",
    "result": []
  },
  {
    "postal": "M1C6W4",
    "result": []
  },
  {
    "postal": "M1C5M1",
    "result": []
  },
  {
    "postal": "M1C0S4",
    "result": []
  },
  {
    "postal": "M1C5X6",
    "result": []
  },
  {
    "postal": "M1C8L5",
    "result": []
  },
  {
    "postal": "M1C5M8",
    "result": []
  },
  {
    "postal": "M1C2G3",
    "result": [
      {
        "electoralDistricts": [
          {
            "election": null,
            "id": 97,
            "name": "Scarborough—Rouge Park"
          }
        ],
        "pollDivisionIds": [
          10143252
        ],
        "postalCode": "M1C2G3",
        "streetName": "TILLEY",
        "streetDirectionId": null,
        "streetTypeId": "DR",
        "placeName": "SCARBOROUGH",
        "streetNameDisplayText": "TILLEY DR, SCARBOROUGH"
      }
    ]
  },
  {
    "postal": "M1C8E4",
    "result": []
  },
  {
    "postal": "M1C7S9",
    "result": []
  },
  {
    "postal": "M1C1K3",
    "result": [
      {
        "electoralDistricts": [
          {
            "election": null,
            "id": 97,
            "name": "Scarborough—Rouge Park"
          }
        ],
        "pollDivisionIds": [
          10141746
        ],
        "postalCode": "M1C1K3",
        "streetName": "KINGSTON",
        "streetDirectionId": null,
        "streetTypeId": "RD",
        "placeName": "SCARBOROUGH",
        "streetNameDisplayText": "KINGSTON RD, SCARBOROUGH"
      }
    ]
  },
  {
    "postal": "M1C4E1",
    "result": []
  },
  {
    "postal": "M1C4R2",
    "result": [
      {
        "electoralDistricts": [
          {
            "election": null,
            "id": 97,
            "name": "Scarborough—Rouge Park"
          }
        ],
        "pollDivisionIds": [
          10141754
        ],
        "postalCode": "M1C4R2",
        "streetName": "MILLDOCK",
        "streetDirectionId": null,
        "streetTypeId": "DR",
        "placeName": "SCARBOROUGH",
        "streetNameDisplayText": "MILLDOCK DR, SCARBOROUGH"
      }
    ]
  },
  {
    "postal": "M1C6T0",
    "result": []
  },
  {
    "postal": "M1C3K5",
    "result": [
      {
        "electoralDistricts": [
          {
            "election": null,
            "id": 97,
            "name": "Scarborough—Rouge Park"
          }
        ],
        "pollDivisionIds": [
          10141753,
          10141752
        ],
        "postalCode": "M1C3K5",
        "streetName": "BROADBRIDGE",
        "streetDirectionId": null,
        "streetTypeId": "DR",
        "placeName": "SCARBOROUGH",
        "streetNameDisplayText": "BROADBRIDGE DR, SCARBOROUGH"
      }
    ]
  },
  {
    "postal": "M1C3S3",
    "result": [
      {
        "electoralDistricts": [
          {
            "election": null,
            "id": 97,
            "name": "Scarborough—Rouge Park"
          }
        ],
        "pollDivisionIds": [
          10141744
        ],
        "postalCode": "M1C3S3",
        "streetName": "CALTHORPE",
        "streetDirectionId": null,
        "streetTypeId": "AVE",
        "placeName": "SCARBOROUGH",
        "streetNameDisplayText": "CALTHORPE AVE, SCARBOROUGH"
      }
    ]
  },
  {
    "postal": "M1C3L4",
    "result": [
      {
        "electoralDistricts": [
          {
            "election": null,
            "id": 97,
            "name": "Scarborough—Rouge Park"
          }
        ],
        "pollDivisionIds": [
          10141752
        ],
        "postalCode": "M1C3L4",
        "streetName": "OXHORN",
        "streetDirectionId": null,
        "streetTypeId": "RD",
        "placeName": "SCARBOROUGH",
        "streetNameDisplayText": "OXHORN RD, SCARBOROUGH"
      }
    ]
  },
  {
    "postal": "M1C9Y2",
    "result": []
  },
  {
    "postal": "M1C1E0",
    "result": []
  },
  {
    "postal": "M1C9A4",
    "result": []
  },
  {
    "postal": "M1C1L3",
    "result": [
      {
        "electoralDistricts": [
          {
            "election": null,
            "id": 97,
            "name": "Scarborough—Rouge Park"
          }
        ],
        "pollDivisionIds": [
          10141745
        ],
        "postalCode": "M1C1L3",
        "streetName": "KINGSTON",
        "streetDirectionId": null,
        "streetTypeId": "RD",
        "placeName": "SCARBOROUGH",
        "streetNameDisplayText": "KINGSTON RD, SCARBOROUGH"
      }
    ]
  },
  {
    "postal": "M1C6N1",
    "result": []
  },
  {
    "postal": "M1C6G7",
    "result": []
  },
  {
    "postal": "M1C7W1",
    "result": []
  },
  {
    "postal": "M1C4M6",
    "result": [
      {
        "electoralDistricts": [
          {
            "election": null,
            "id": 97,
            "name": "Scarborough—Rouge Park"
          }
        ],
        "pollDivisionIds": [
          10141754
        ],
        "postalCode": "M1C4M6",
        "streetName": "BIRDSILVER",
        "streetDirectionId": null,
        "streetTypeId": "GDNS",
        "placeName": "SCARBOROUGH",
        "streetNameDisplayText": "BIRDSILVER GDNS, SCARBOROUGH"
      }
    ]
  },
  {
    "postal": "M1C1K0",
    "result": []
  },
  {
    "postal": "M1C3E2",
    "result": [
      {
        "electoralDistricts": [
          {
            "election": null,
            "id": 97,
            "name": "Scarborough—Rouge Park"
          }
        ],
        "pollDivisionIds": [
          10143252
        ],
        "postalCode": "M1C3E2",
        "streetName": "RAMBLEWOOD",
        "streetDirectionId": null,
        "streetTypeId": "DR",
        "placeName": "SCARBOROUGH",
        "streetNameDisplayText": "RAMBLEWOOD DR, SCARBOROUGH"
      }
    ]
  },
  {
    "postal": "M1C5H4",
    "result": [
      {
        "electoralDistricts": [
          {
            "election": null,
            "id": 97,
            "name": "Scarborough—Rouge Park"
          }
        ],
        "pollDivisionIds": [
          10141745
        ],
        "postalCode": "M1C5H4",
        "streetName": "GOLDENE",
        "streetDirectionId": null,
        "streetTypeId": "WAY",
        "placeName": "SCARBOROUGH",
        "streetNameDisplayText": "GOLDENE WAY, SCARBOROUGH"
      }
    ]
  },
  {
    "postal": "M1C1K7",
    "result": [
      {
        "electoralDistricts": [
          {
            "election": null,
            "id": 97,
            "name": "Scarborough—Rouge Park"
          }
        ],
        "pollDivisionIds": [
          10141745
        ],
        "postalCode": "M1C1K7",
        "streetName": "KINGSTON",
        "streetDirectionId": null,
        "streetTypeId": "RD",
        "placeName": "SCARBOROUGH",
        "streetNameDisplayText": "KINGSTON RD, SCARBOROUGH"
      }
    ]
  },
  {
    "postal": "M1C0H0",
    "result": []
  },
  {
    "postal": "M1C0J3",
    "result": []
  },
  {
    "postal": "M1C1X6",
    "result": [
      {
        "electoralDistricts": [
          {
            "election": null,
            "id": 97,
            "name": "Scarborough—Rouge Park"
          }
        ],
        "pollDivisionIds": [
          10143252
        ],
        "postalCode": "M1C1X6",
        "streetName": "BATHGATE",
        "streetDirectionId": null,
        "streetTypeId": "DR",
        "placeName": "SCARBOROUGH",
        "streetNameDisplayText": "BATHGATE DR, SCARBOROUGH"
      }
    ]
  },
  {
    "postal": "M1C2Z6",
    "result": [
      {
        "electoralDistricts": [
          {
            "election": null,
            "id": 97,
            "name": "Scarborough—Rouge Park"
          }
        ],
        "pollDivisionIds": [
          10141754
        ],
        "postalCode": "M1C2Z6",
        "streetName": "ROUGE HILLS",
        "streetDirectionId": null,
        "streetTypeId": "DR",
        "placeName": "SCARBOROUGH",
        "streetNameDisplayText": "ROUGE HILLS DR, SCARBOROUGH"
      }
    ]
  },
  {
    "postal": "M1C4R9",
    "result": [
      {
        "electoralDistricts": [
          {
            "election": null,
            "id": 97,
            "name": "Scarborough—Rouge Park"
          }
        ],
        "pollDivisionIds": [
          10141745
        ],
        "postalCode": "M1C4R9",
        "streetName": "BLUENOSE",
        "streetDirectionId": null,
        "streetTypeId": "CRES",
        "placeName": "SCARBOROUGH",
        "streetNameDisplayText": "BLUENOSE CRES, SCARBOROUGH"
      }
    ]
  },
  {
    "postal": "M1C0W8",
    "result": []
  },
  {
    "postal": "M1C1L4",
    "result": [
      {
        "electoralDistricts": [
          {
            "election": null,
            "id": 97,
            "name": "Scarborough—Rouge Park"
          }
        ],
        "pollDivisionIds": [
          10141745
        ],
        "postalCode": "M1C1L4",
        "streetName": "KINGSTON",
        "streetDirectionId": null,
        "streetTypeId": "RD",
        "placeName": "SCARBOROUGH",
        "streetNameDisplayText": "KINGSTON RD, SCARBOROUGH"
      }
    ]
  },
  {
    "postal": "M1C0C8",
    "result": [
      {
        "electoralDistricts": [
          {
            "election": null,
            "id": 97,
            "name": "Scarborough—Rouge Park"
          }
        ],
        "pollDivisionIds": [
          10141754,
          10141752
        ],
        "postalCode": "M1C0C8",
        "streetName": "PORTWINE",
        "streetDirectionId": null,
        "streetTypeId": "DR",
        "placeName": "SCARBOROUGH",
        "streetNameDisplayText": "PORTWINE DR, SCARBOROUGH"
      },
      {
        "electoralDistricts": [
          {
            "election": null,
            "id": 97,
            "name": "Scarborough—Rouge Park"
          }
        ],
        "pollDivisionIds": [
          10141754,
          10141752
        ],
        "postalCode": "M1C0C8",
        "streetName": "STOTTS",
        "streetDirectionId": null,
        "streetTypeId": "TERR",
        "placeName": "SCARBOROUGH",
        "streetNameDisplayText": "STOTTS TERR, SCARBOROUGH"
      }
    ]
  },
  {
    "postal": "M1C9X7",
    "result": []
  },
  {
    "postal": "M1C4T1",
    "result": [
      {
        "electoralDistricts": [
          {
            "election": null,
            "id": 97,
            "name": "Scarborough—Rouge Park"
          }
        ],
        "pollDivisionIds": [
          10141745
        ],
        "postalCode": "M1C4T1",
        "streetName": "ORLEANS",
        "streetDirectionId": null,
        "streetTypeId": "DR",
        "placeName": "SCARBOROUGH",
        "streetNameDisplayText": "ORLEANS DR, SCARBOROUGH"
      }
    ]
  },
  {
    "postal": "M1C0M0",
    "result": []
  },
  {
    "postal": "M1C6A2",
    "result": []
  },
  {
    "postal": "M1C9S8",
    "result": []
  },
  {
    "postal": "M1C9T4",
    "result": []
  },
  {
    "postal": "M1C9Y4",
    "result": []
  },
  {
    "postal": "M1C6G5",
    "result": []
  },
  {
    "postal": "M1C6H9",
    "result": []
  },
  {
    "postal": "M1C2P3",
    "result": [
      {
        "electoralDistricts": [
          {
            "election": null,
            "id": 97,
            "name": "Scarborough—Rouge Park"
          }
        ],
        "pollDivisionIds": [
          10141753
        ],
        "postalCode": "M1C2P3",
        "streetName": "SUNNYSLOPE",
        "streetDirectionId": null,
        "streetTypeId": "AVE",
        "placeName": "SCARBOROUGH",
        "streetNameDisplayText": "SUNNYSLOPE AVE, SCARBOROUGH"
      }
    ]
  },
  {
    "postal": "M1C1T6",
    "result": [
      {
        "electoralDistricts": [
          {
            "election": null,
            "id": 97,
            "name": "Scarborough—Rouge Park"
          }
        ],
        "pollDivisionIds": [
          10143252
        ],
        "postalCode": "M1C1T6",
        "streetName": "BATHGATE",
        "streetDirectionId": null,
        "streetTypeId": "DR",
        "placeName": "SCARBOROUGH",
        "streetNameDisplayText": "BATHGATE DR, SCARBOROUGH"
      }
    ]
  },
  {
    "postal": "M1C4P6",
    "result": [
      {
        "electoralDistricts": [
          {
            "election": null,
            "id": 97,
            "name": "Scarborough—Rouge Park"
          }
        ],
        "pollDivisionIds": [
          10141754
        ],
        "postalCode": "M1C4P6",
        "streetName": "RIDGEWOOD",
        "streetDirectionId": null,
        "streetTypeId": "RD",
        "placeName": "SCARBOROUGH",
        "streetNameDisplayText": "RIDGEWOOD RD, SCARBOROUGH"
      },
      {
        "electoralDistricts": [
          {
            "election": null,
            "id": 97,
            "name": "Scarborough—Rouge Park"
          }
        ],
        "pollDivisionIds": [
          10141754
        ],
        "postalCode": "M1C4P6",
        "streetName": "STARSPRAY",
        "streetDirectionId": null,
        "streetTypeId": "BLVD",
        "placeName": "SCARBOROUGH",
        "streetNameDisplayText": "STARSPRAY BLVD, SCARBOROUGH"
      }
    ]
  },
  {
    "postal": "M1C3K1",
    "result": [
      {
        "electoralDistricts": [
          {
            "election": null,
            "id": 97,
            "name": "Scarborough—Rouge Park"
          }
        ],
        "pollDivisionIds": [
          10141752
        ],
        "postalCode": "M1C3K1",
        "streetName": "EAST",
        "streetDirectionId": null,
        "streetTypeId": "AVE",
        "placeName": "SCARBOROUGH",
        "streetNameDisplayText": "EAST AVE, SCARBOROUGH"
      }
    ]
  },
  {
    "postal": "M1C6X4",
    "result": []
  },
  {
    "postal": "M1C4M8",
    "result": [
      {
        "electoralDistricts": [
          {
            "election": null,
            "id": 97,
            "name": "Scarborough—Rouge Park"
          }
        ],
        "pollDivisionIds": [
          10141754,
          10141753
        ],
        "postalCode": "M1C4M8",
        "streetName": "BLUEKING",
        "streetDirectionId": null,
        "streetTypeId": "CRES",
        "placeName": "SCARBOROUGH",
        "streetNameDisplayText": "BLUEKING CRES, SCARBOROUGH"
      }
    ]
  },
  {
    "postal": "M1C2Y1",
    "result": [
      {
        "electoralDistricts": [
          {
            "election": null,
            "id": 97,
            "name": "Scarborough—Rouge Park"
          }
        ],
        "pollDivisionIds": [
          10141753
        ],
        "postalCode": "M1C2Y1",
        "streetName": "FRIENDSHIP",
        "streetDirectionId": null,
        "streetTypeId": "AVE",
        "placeName": "SCARBOROUGH",
        "streetNameDisplayText": "FRIENDSHIP AVE, SCARBOROUGH"
      }
    ]
  },
  {
    "postal": "M1C6M1",
    "result": []
  },
  {
    "postal": "M1C5L8",
    "result": []
  },
  {
    "postal": "M1C3P6",
    "result": [
      {
        "electoralDistricts": [
          {
            "election": null,
            "id": 97,
            "name": "Scarborough—Rouge Park"
          }
        ],
        "pollDivisionIds": [
          10141752
        ],
        "postalCode": "M1C3P6",
        "streetName": "GOLDERS GREEN",
        "streetDirectionId": null,
        "streetTypeId": "AVE",
        "placeName": "SCARBOROUGH",
        "streetNameDisplayText": "GOLDERS GREEN AVE, SCARBOROUGH"
      }
    ]
  },
  {
    "postal": "M1C9A5",
    "result": []
  },
  {
    "postal": "M1C7K1",
    "result": []
  },
  {
    "postal": "M1C3J4",
    "result": [
      {
        "electoralDistricts": [
          {
            "election": null,
            "id": 97,
            "name": "Scarborough—Rouge Park"
          }
        ],
        "pollDivisionIds": [
          10141751
        ],
        "postalCode": "M1C3J4",
        "streetName": "TREDVALLEY",
        "streetDirectionId": null,
        "streetTypeId": "GROVE",
        "placeName": "SCARBOROUGH",
        "streetNameDisplayText": "TREDVALLEY GROVE, SCARBOROUGH"
      }
    ]
  },
  {
    "postal": "M1C5E7",
    "result": [
      {
        "electoralDistricts": [
          {
            "election": null,
            "id": 97,
            "name": "Scarborough—Rouge Park"
          }
        ],
        "pollDivisionIds": [
          10141751
        ],
        "postalCode": "M1C5E7",
        "streetName": "BAR HARBOUR",
        "streetDirectionId": null,
        "streetTypeId": "SQ",
        "placeName": "SCARBOROUGH",
        "streetNameDisplayText": "BAR HARBOUR SQ, SCARBOROUGH"
      },
      {
        "electoralDistricts": [
          {
            "election": null,
            "id": 97,
            "name": "Scarborough—Rouge Park"
          }
        ],
        "pollDivisionIds": [
          10141751
        ],
        "postalCode": "M1C5E7",
        "streetName": "LAWRENCE",
        "streetDirectionId": "E",
        "streetTypeId": "AVE",
        "placeName": "SCARBOROUGH",
        "streetNameDisplayText": "LAWRENCE AVE E, SCARBOROUGH"
      }
    ]
  },
  {
    "postal": "M1C3A7",
    "result": [
      {
        "electoralDistricts": [
          {
            "election": null,
            "id": 97,
            "name": "Scarborough—Rouge Park"
          }
        ],
        "pollDivisionIds": [
          10141753
        ],
        "postalCode": "M1C3A7",
        "streetName": "KIRKDENE",
        "streetDirectionId": null,
        "streetTypeId": "DR",
        "placeName": "SCARBOROUGH",
        "streetNameDisplayText": "KIRKDENE DR, SCARBOROUGH"
      }
    ]
  },
  {
    "postal": "M1C1B9",
    "result": [
      {
        "electoralDistricts": [
          {
            "election": null,
            "id": 97,
            "name": "Scarborough—Rouge Park"
          }
        ],
        "pollDivisionIds": [
          10141744
        ],
        "postalCode": "M1C1B9",
        "streetName": "MORNINGSIDE",
        "streetDirectionId": null,
        "streetTypeId": "AVE",
        "placeName": "SCARBOROUGH",
        "streetNameDisplayText": "MORNINGSIDE AVE, SCARBOROUGH"
      }
    ]
  },
  {
    "postal": "M1C9E8",
    "result": []
  },
  {
    "postal": "M1C1C9",
    "result": [
      {
        "electoralDistricts": [
          {
            "election": null,
            "id": 97,
            "name": "Scarborough—Rouge Park"
          }
        ],
        "pollDivisionIds": [
          10141746
        ],
        "postalCode": "M1C1C9",
        "streetName": "BOBMAR",
        "streetDirectionId": null,
        "streetTypeId": "RD",
        "placeName": "SCARBOROUGH",
        "streetNameDisplayText": "BOBMAR RD, SCARBOROUGH"
      }
    ]
  },
  {
    "postal": "M1C3B5",
    "result": [
      {
        "electoralDistricts": [
          {
            "election": null,
            "id": 97,
            "name": "Scarborough—Rouge Park"
          }
        ],
        "pollDivisionIds": [
          10143252
        ],
        "postalCode": "M1C3B5",
        "streetName": "MCGRATH",
        "streetDirectionId": null,
        "streetTypeId": "CRT",
        "placeName": "SCARBOROUGH",
        "streetNameDisplayText": "MCGRATH CRT, SCARBOROUGH"
      }
    ]
  },
  {
    "postal": "M1C8R0",
    "result": []
  },
  {
    "postal": "M1C3P2",
    "result": [
      {
        "electoralDistricts": [
          {
            "election": null,
            "id": 97,
            "name": "Scarborough—Rouge Park"
          }
        ],
        "pollDivisionIds": [
          10141753
        ],
        "postalCode": "M1C3P2",
        "streetName": "BLUE ANCHOR",
        "streetDirectionId": null,
        "streetTypeId": "TRAIL",
        "placeName": "SCARBOROUGH",
        "streetNameDisplayText": "BLUE ANCHOR TRAIL, SCARBOROUGH"
      }
    ]
  },
  {
    "postal": "M1C5V4",
    "result": []
  },
  {
    "postal": "M1C4H0",
    "result": []
  },
  {
    "postal": "M1C4S7",
    "result": [
      {
        "electoralDistricts": [
          {
            "election": null,
            "id": 97,
            "name": "Scarborough—Rouge Park"
          }
        ],
        "pollDivisionIds": [
          10141745
        ],
        "postalCode": "M1C4S7",
        "streetName": "MUIRBANK",
        "streetDirectionId": null,
        "streetTypeId": "BLVD",
        "placeName": "SCARBOROUGH",
        "streetNameDisplayText": "MUIRBANK BLVD, SCARBOROUGH"
      },
      {
        "electoralDistricts": [
          {
            "election": null,
            "id": 97,
            "name": "Scarborough—Rouge Park"
          }
        ],
        "pollDivisionIds": [
          10141745
        ],
        "postalCode": "M1C4S7",
        "streetName": "ORLEANS",
        "streetDirectionId": null,
        "streetTypeId": "DR",
        "placeName": "SCARBOROUGH",
        "streetNameDisplayText": "ORLEANS DR, SCARBOROUGH"
      }
    ]
  },
  {
    "postal": "M1C6C2",
    "result": []
  },
  {
    "postal": "M1C8W3",
    "result": []
  },
  {
    "postal": "M1C4M5",
    "result": [
      {
        "electoralDistricts": [
          {
            "election": null,
            "id": 97,
            "name": "Scarborough—Rouge Park"
          }
        ],
        "pollDivisionIds": [
          10141754
        ],
        "postalCode": "M1C4M5",
        "streetName": "BIRDSILVER",
        "streetDirectionId": null,
        "streetTypeId": "GDNS",
        "placeName": "SCARBOROUGH",
        "streetNameDisplayText": "BIRDSILVER GDNS, SCARBOROUGH"
      }
    ]
  },
  {
    "postal": "M1C5T1",
    "result": []
  },
  {
    "postal": "M1C3B3",
    "result": [
      {
        "electoralDistricts": [
          {
            "election": null,
            "id": 97,
            "name": "Scarborough—Rouge Park"
          }
        ],
        "pollDivisionIds": [
          10143252
        ],
        "postalCode": "M1C3B3",
        "streetName": "SATCHELL",
        "streetDirectionId": null,
        "streetTypeId": "BLVD",
        "placeName": "SCARBOROUGH",
        "streetNameDisplayText": "SATCHELL BLVD, SCARBOROUGH"
      }
    ]
  },
  {
    "postal": "M1C6C6",
    "result": []
  },
  {
    "postal": "M1C7N8",
    "result": []
  },
  {
    "postal": "M1C2Y3",
    "result": [
      {
        "electoralDistricts": [
          {
            "election": null,
            "id": 97,
            "name": "Scarborough—Rouge Park"
          }
        ],
        "pollDivisionIds": [
          10141753
        ],
        "postalCode": "M1C2Y3",
        "streetName": "FRIENDSHIP",
        "streetDirectionId": null,
        "streetTypeId": "AVE",
        "placeName": "SCARBOROUGH",
        "streetNameDisplayText": "FRIENDSHIP AVE, SCARBOROUGH"
      }
    ]
  },
  {
    "postal": "M1C2R6",
    "result": [
      {
        "electoralDistricts": [
          {
            "election": null,
            "id": 97,
            "name": "Scarborough—Rouge Park"
          }
        ],
        "pollDivisionIds": [
          10141754
        ],
        "postalCode": "M1C2R6",
        "streetName": "TAYLOR",
        "streetDirectionId": null,
        "streetTypeId": "RD",
        "placeName": "SCARBOROUGH",
        "streetNameDisplayText": "TAYLOR RD, SCARBOROUGH"
      }
    ]
  },
  {
    "postal": "M1C7N3",
    "result": []
  },
  {
    "postal": "M1C8J2",
    "result": []
  },
  {
    "postal": "M1C6A9",
    "result": []
  },
  {
    "postal": "M1C3V2",
    "result": [
      {
        "electoralDistricts": [
          {
            "election": null,
            "id": 97,
            "name": "Scarborough—Rouge Park"
          }
        ],
        "pollDivisionIds": [
          10141744
        ],
        "postalCode": "M1C3V2",
        "streetName": "HALFMOON",
        "streetDirectionId": null,
        "streetTypeId": "SQ",
        "placeName": "SCARBOROUGH",
        "streetNameDisplayText": "HALFMOON SQ, SCARBOROUGH"
      }
    ]
  },
  {
    "postal": "M1C2N3",
    "result": [
      {
        "electoralDistricts": [
          {
            "election": null,
            "id": 97,
            "name": "Scarborough—Rouge Park"
          }
        ],
        "pollDivisionIds": [
          10141753
        ],
        "postalCode": "M1C2N3",
        "streetName": "FANFARE",
        "streetDirectionId": null,
        "streetTypeId": "AVE",
        "placeName": "SCARBOROUGH",
        "streetNameDisplayText": "FANFARE AVE, SCARBOROUGH"
      }
    ]
  },
  {
    "postal": "M1C1S5",
    "result": [
      {
        "electoralDistricts": [
          {
            "election": null,
            "id": 97,
            "name": "Scarborough—Rouge Park"
          }
        ],
        "pollDivisionIds": [
          10141745
        ],
        "postalCode": "M1C1S5",
        "streetName": "MEADOWVALE",
        "streetDirectionId": null,
        "streetTypeId": "RD",
        "placeName": "SCARBOROUGH",
        "streetNameDisplayText": "MEADOWVALE RD, SCARBOROUGH"
      }
    ]
  },
  {
    "postal": "M1C4T7",
    "result": [
      {
        "electoralDistricts": [
          {
            "election": null,
            "id": 97,
            "name": "Scarborough—Rouge Park"
          }
        ],
        "pollDivisionIds": [
          10141745
        ],
        "postalCode": "M1C4T7",
        "streetName": "MUIRBANK",
        "streetDirectionId": null,
        "streetTypeId": "BLVD",
        "placeName": "SCARBOROUGH",
        "streetNameDisplayText": "MUIRBANK BLVD, SCARBOROUGH"
      },
      {
        "electoralDistricts": [
          {
            "election": null,
            "id": 97,
            "name": "Scarborough—Rouge Park"
          }
        ],
        "pollDivisionIds": [
          10141745
        ],
        "postalCode": "M1C4T7",
        "streetName": "ORLEANS",
        "streetDirectionId": null,
        "streetTypeId": "DR",
        "placeName": "SCARBOROUGH",
        "streetNameDisplayText": "ORLEANS DR, SCARBOROUGH"
      }
    ]
  },
  {
    "postal": "M1C6Y7",
    "result": []
  },
  {
    "postal": "M1C0W7",
    "result": []
  },
  {
    "postal": "M1C2W9",
    "result": [
      {
        "electoralDistricts": [
          {
            "election": null,
            "id": 97,
            "name": "Scarborough—Rouge Park"
          }
        ],
        "pollDivisionIds": [
          10141753
        ],
        "postalCode": "M1C2W9",
        "streetName": "EAST",
        "streetDirectionId": null,
        "streetTypeId": "AVE",
        "placeName": "SCARBOROUGH",
        "streetNameDisplayText": "EAST AVE, SCARBOROUGH"
      }
    ]
  },
  {
    "postal": "M1C8V0",
    "result": []
  },
  {
    "postal": "M1C0H4",
    "result": []
  },
  {
    "postal": "M1C2T1",
    "result": [
      {
        "electoralDistricts": [
          {
            "election": null,
            "id": 97,
            "name": "Scarborough—Rouge Park"
          }
        ],
        "pollDivisionIds": [
          10141751
        ],
        "postalCode": "M1C2T1",
        "streetName": "COCKBURN",
        "streetDirectionId": null,
        "streetTypeId": "DR",
        "placeName": "SCARBOROUGH",
        "streetNameDisplayText": "COCKBURN DR, SCARBOROUGH"
      }
    ]
  },
  {
    "postal": "M1C1B1",
    "result": [
      {
        "electoralDistricts": [
          {
            "election": null,
            "id": 97,
            "name": "Scarborough—Rouge Park"
          }
        ],
        "pollDivisionIds": [
          10141746
        ],
        "postalCode": "M1C1B1",
        "streetName": "MILITARY",
        "streetDirectionId": null,
        "streetTypeId": "TRAIL",
        "placeName": "SCARBOROUGH",
        "streetNameDisplayText": "MILITARY TRAIL, SCARBOROUGH"
      }
    ]
  },
  {
    "postal": "M1C8B6",
    "result": []
  },
  {
    "postal": "M1C6H1",
    "result": []
  },
  {
    "postal": "M1C8T8",
    "result": []
  },
  {
    "postal": "M1C0T4",
    "result": []
  },
  {
    "postal": "M1C2C4",
    "result": [
      {
        "electoralDistricts": [
          {
            "election": null,
            "id": 97,
            "name": "Scarborough—Rouge Park"
          }
        ],
        "pollDivisionIds": [
          10141751
        ],
        "postalCode": "M1C2C4",
        "streetName": "CHAPAIS",
        "streetDirectionId": null,
        "streetTypeId": "CRES",
        "placeName": "SCARBOROUGH",
        "streetNameDisplayText": "CHAPAIS CRES, SCARBOROUGH"
      }
    ]
  },
  {
    "postal": "M1C8N3",
    "result": []
  },
  {
    "postal": "M1C4L8",
    "result": [
      {
        "electoralDistricts": [
          {
            "election": null,
            "id": 97,
            "name": "Scarborough—Rouge Park"
          }
        ],
        "pollDivisionIds": [
          10141754
        ],
        "postalCode": "M1C4L8",
        "streetName": "BOWES GARDEN",
        "streetDirectionId": null,
        "streetTypeId": "CRT",
        "placeName": "SCARBOROUGH",
        "streetNameDisplayText": "BOWES GARDEN CRT, SCARBOROUGH"
      }
    ]
  },
  {
    "postal": "M1C2B5",
    "result": [
      {
        "electoralDistricts": [
          {
            "election": null,
            "id": 97,
            "name": "Scarborough—Rouge Park"
          }
        ],
        "pollDivisionIds": [
          10141751
        ],
        "postalCode": "M1C2B5",
        "streetName": "MCCULLEY",
        "streetDirectionId": null,
        "streetTypeId": "ST",
        "placeName": "SCARBOROUGH",
        "streetNameDisplayText": "MCCULLEY ST, SCARBOROUGH"
      }
    ]
  },
  {
    "postal": "M1C3H1",
    "result": [
      {
        "electoralDistricts": [
          {
            "election": null,
            "id": 97,
            "name": "Scarborough—Rouge Park"
          }
        ],
        "pollDivisionIds": [
          10143252
        ],
        "postalCode": "M1C3H1",
        "streetName": "CHERRYDALE",
        "streetDirectionId": null,
        "streetTypeId": "CRT",
        "placeName": "SCARBOROUGH",
        "streetNameDisplayText": "CHERRYDALE CRT, SCARBOROUGH"
      }
    ]
  },
  {
    "postal": "M1C4Y1",
    "result": [
      {
        "electoralDistricts": [
          {
            "election": null,
            "id": 97,
            "name": "Scarborough—Rouge Park"
          }
        ],
        "pollDivisionIds": [
          10141744
        ],
        "postalCode": "M1C4Y1",
        "streetName": "MORRISH",
        "streetDirectionId": null,
        "streetTypeId": "RD",
        "placeName": "SCARBOROUGH",
        "streetNameDisplayText": "MORRISH RD, SCARBOROUGH"
      }
    ]
  },
  {
    "postal": "M1C7E2",
    "result": []
  },
  {
    "postal": "M1C2P5",
    "result": [
      {
        "electoralDistricts": [
          {
            "election": null,
            "id": 101,
            "name": "Spadina—Fort York"
          }
        ],
        "pollDivisionIds": [
          10141974
        ],
        "postalCode": "M1C2P5",
        "streetName": "AVENUE OF THE ISLAND",
        "streetDirectionId": null,
        "streetTypeId": "RD",
        "placeName": "SCARBOROUGH",
        "streetNameDisplayText": "AVENUE OF THE ISLAND RD, SCARBOROUGH"
      },
      {
        "electoralDistricts": [
          {
            "election": null,
            "id": 97,
            "name": "Scarborough—Rouge Park"
          }
        ],
        "pollDivisionIds": [
          10141767,
          10141753
        ],
        "postalCode": "M1C2P5",
        "streetName": "ISLAND",
        "streetDirectionId": null,
        "streetTypeId": "RD",
        "placeName": "SCARBOROUGH",
        "streetNameDisplayText": "ISLAND RD, SCARBOROUGH"
      }
    ]
  },
  {
    "postal": "M1C8R7",
    "result": []
  },
  {
    "postal": "M1C9P1",
    "result": []
  },
  {
    "postal": "M1C3B8",
    "result": [
      {
        "electoralDistricts": [
          {
            "election": null,
            "id": 97,
            "name": "Scarborough—Rouge Park"
          }
        ],
        "pollDivisionIds": [
          10143252
        ],
        "postalCode": "M1C3B8",
        "streetName": "BONACRES",
        "streetDirectionId": null,
        "streetTypeId": "AVE",
        "placeName": "SCARBOROUGH",
        "streetNameDisplayText": "BONACRES AVE, SCARBOROUGH"
      }
    ]
  },
  {
    "postal": "M1C3P7",
    "result": [
      {
        "electoralDistricts": [
          {
            "election": null,
            "id": 97,
            "name": "Scarborough—Rouge Park"
          }
        ],
        "pollDivisionIds": [
          10141753
        ],
        "postalCode": "M1C3P7",
        "streetName": "BLUE ANCHOR",
        "streetDirectionId": null,
        "streetTypeId": "TRAIL",
        "placeName": "SCARBOROUGH",
        "streetNameDisplayText": "BLUE ANCHOR TRAIL, SCARBOROUGH"
      }
    ]
  },
  {
    "postal": "M1C9B2",
    "result": []
  },
  {
    "postal": "M1C6Z3",
    "result": []
  },
  {
    "postal": "M1C4N5",
    "result": [
      {
        "electoralDistricts": [
          {
            "election": null,
            "id": 97,
            "name": "Scarborough—Rouge Park"
          }
        ],
        "pollDivisionIds": [
          10141754
        ],
        "postalCode": "M1C4N5",
        "streetName": "GREYBEAVER",
        "streetDirectionId": null,
        "streetTypeId": "TRAIL",
        "placeName": "SCARBOROUGH",
        "streetNameDisplayText": "GREYBEAVER TRAIL, SCARBOROUGH"
      }
    ]
  },
  {
    "postal": "M1C8T3",
    "result": []
  },
  {
    "postal": "M1C1V2",
    "result": [
      {
        "electoralDistricts": [
          {
            "election": null,
            "id": 97,
            "name": "Scarborough—Rouge Park"
          }
        ],
        "pollDivisionIds": [
          10143252
        ],
        "postalCode": "M1C1V2",
        "streetName": "IVAN",
        "streetDirectionId": null,
        "streetTypeId": "RD",
        "placeName": "SCARBOROUGH",
        "streetNameDisplayText": "IVAN RD, SCARBOROUGH"
      }
    ]
  },
  {
    "postal": "M1C1Y0",
    "result": []
  },
  {
    "postal": "M1C3G6",
    "result": [
      {
        "electoralDistricts": [
          {
            "election": null,
            "id": 97,
            "name": "Scarborough—Rouge Park"
          }
        ],
        "pollDivisionIds": [
          10143252
        ],
        "postalCode": "M1C3G6",
        "streetName": "DELBEATRICE",
        "streetDirectionId": null,
        "streetTypeId": "CRES",
        "placeName": "SCARBOROUGH",
        "streetNameDisplayText": "DELBEATRICE CRES, SCARBOROUGH"
      }
    ]
  },
  {
    "postal": "M1C3H7",
    "result": [
      {
        "electoralDistricts": [
          {
            "election": null,
            "id": 97,
            "name": "Scarborough—Rouge Park"
          }
        ],
        "pollDivisionIds": [
          10141751
        ],
        "postalCode": "M1C3H7",
        "streetName": "GOLDBERRY",
        "streetDirectionId": null,
        "streetTypeId": "SQ",
        "placeName": "SCARBOROUGH",
        "streetNameDisplayText": "GOLDBERRY SQ, SCARBOROUGH"
      }
    ]
  },
  {
    "postal": "M1C7X8",
    "result": []
  },
  {
    "postal": "M1C0C7",
    "result": []
  },
  {
    "postal": "M1C0W9",
    "result": []
  },
  {
    "postal": "M1C8E6",
    "result": []
  },
  {
    "postal": "M1C9Z8",
    "result": []
  },
  {
    "postal": "M1C3P4",
    "result": [
      {
        "electoralDistricts": [
          {
            "election": null,
            "id": 97,
            "name": "Scarborough—Rouge Park"
          }
        ],
        "pollDivisionIds": [
          10141752
        ],
        "postalCode": "M1C3P4",
        "streetName": "EAST",
        "streetDirectionId": null,
        "streetTypeId": "AVE",
        "placeName": "SCARBOROUGH",
        "streetNameDisplayText": "EAST AVE, SCARBOROUGH"
      }
    ]
  },
  {
    "postal": "M1C6L8",
    "result": []
  },
  {
    "postal": "M1C2R4",
    "result": [
      {
        "electoralDistricts": [
          {
            "election": null,
            "id": 97,
            "name": "Scarborough—Rouge Park"
          }
        ],
        "pollDivisionIds": [
          10141754
        ],
        "postalCode": "M1C2R4",
        "streetName": "BRYCEMOOR",
        "streetDirectionId": null,
        "streetTypeId": "RD",
        "placeName": "SCARBOROUGH",
        "streetNameDisplayText": "BRYCEMOOR RD, SCARBOROUGH"
      }
    ]
  },
  {
    "postal": "M1C2W1",
    "result": [
      {
        "electoralDistricts": [
          {
            "election": null,
            "id": 97,
            "name": "Scarborough—Rouge Park"
          }
        ],
        "pollDivisionIds": [
          10141753
        ],
        "postalCode": "M1C2W1",
        "streetName": "DECIMAL",
        "streetDirectionId": null,
        "streetTypeId": "PL",
        "placeName": "SCARBOROUGH",
        "streetNameDisplayText": "DECIMAL PL, SCARBOROUGH"
      }
    ]
  },
  {
    "postal": "M1C9H8",
    "result": []
  },
  {
    "postal": "M1C8X9",
    "result": []
  },
  {
    "postal": "M1C7H4",
    "result": []
  },
  {
    "postal": "M1C3J1",
    "result": [
      {
        "electoralDistricts": [
          {
            "election": null,
            "id": 97,
            "name": "Scarborough—Rouge Park"
          }
        ],
        "pollDivisionIds": [
          10143252
        ],
        "postalCode": "M1C3J1",
        "streetName": "CLEMES",
        "streetDirectionId": null,
        "streetTypeId": "DR",
        "placeName": "SCARBOROUGH",
        "streetNameDisplayText": "CLEMES DR, SCARBOROUGH"
      }
    ]
  },
  {
    "postal": "M1C1P4",
    "result": [
      {
        "electoralDistricts": [
          {
            "election": null,
            "id": 97,
            "name": "Scarborough—Rouge Park"
          }
        ],
        "pollDivisionIds": [
          10141745
        ],
        "postalCode": "M1C1P4",
        "streetName": "VALMOUNT",
        "streetDirectionId": null,
        "streetTypeId": "AVE",
        "placeName": "SCARBOROUGH",
        "streetNameDisplayText": "VALMOUNT AVE, SCARBOROUGH"
      }
    ]
  },
  {
    "postal": "M1C2A3",
    "result": [
      {
        "electoralDistricts": [
          {
            "election": null,
            "id": 97,
            "name": "Scarborough—Rouge Park"
          }
        ],
        "pollDivisionIds": [
          10143252
        ],
        "postalCode": "M1C2A3",
        "streetName": "CENTENNIAL",
        "streetDirectionId": null,
        "streetTypeId": "RD",
        "placeName": "SCARBOROUGH",
        "streetNameDisplayText": "CENTENNIAL RD, SCARBOROUGH"
      }
    ]
  },
  {
    "postal": "M1C0Z1",
    "result": []
  },
  {
    "postal": "M1C1C1",
    "result": [
      {
        "electoralDistricts": [
          {
            "election": null,
            "id": 97,
            "name": "Scarborough—Rouge Park"
          }
        ],
        "pollDivisionIds": [
          10141746
        ],
        "postalCode": "M1C1C1",
        "streetName": "LASH",
        "streetDirectionId": null,
        "streetTypeId": "CRT",
        "placeName": "SCARBOROUGH",
        "streetNameDisplayText": "LASH CRT, SCARBOROUGH"
      }
    ]
  },
  {
    "postal": "M1C0H3",
    "result": []
  },
  {
    "postal": "M1C7B0",
    "result": []
  },
  {
    "postal": "M1C5K2",
    "result": [
      {
        "electoralDistricts": [
          {
            "election": null,
            "id": 97,
            "name": "Scarborough—Rouge Park"
          }
        ],
        "pollDivisionIds": [
          10141751
        ],
        "postalCode": "M1C5K2",
        "streetName": "LAKERIDGE",
        "streetDirectionId": null,
        "streetTypeId": "DR",
        "placeName": "SCARBOROUGH",
        "streetNameDisplayText": "LAKERIDGE DR, SCARBOROUGH"
      }
    ]
  },
  {
    "postal": "M1C1E9",
    "result": [
      {
        "electoralDistricts": [
          {
            "election": null,
            "id": 97,
            "name": "Scarborough—Rouge Park"
          }
        ],
        "pollDivisionIds": [
          10141746
        ],
        "postalCode": "M1C1E9",
        "streetName": "MORRISH",
        "streetDirectionId": null,
        "streetTypeId": "RD",
        "placeName": "SCARBOROUGH",
        "streetNameDisplayText": "MORRISH RD, SCARBOROUGH"
      }
    ]
  },
  {
    "postal": "M1C9W7",
    "result": []
  },
  {
    "postal": "M1C5W6",
    "result": []
  },
  {
    "postal": "M1C6S6",
    "result": []
  },
  {
    "postal": "M1C2P8",
    "result": [
      {
        "electoralDistricts": [
          {
            "election": null,
            "id": 97,
            "name": "Scarborough—Rouge Park"
          }
        ],
        "pollDivisionIds": [
          10141753
        ],
        "postalCode": "M1C2P8",
        "streetName": "ISLAND",
        "streetDirectionId": null,
        "streetTypeId": "RD",
        "placeName": "SCARBOROUGH",
        "streetNameDisplayText": "ISLAND RD, SCARBOROUGH"
      }
    ]
  },
  {
    "postal": "M1C4P8",
    "result": [
      {
        "electoralDistricts": [
          {
            "election": null,
            "id": 97,
            "name": "Scarborough—Rouge Park"
          }
        ],
        "pollDivisionIds": [
          10141754
        ],
        "postalCode": "M1C4P8",
        "streetName": "BORNHOLM",
        "streetDirectionId": null,
        "streetTypeId": "DR",
        "placeName": "SCARBOROUGH",
        "streetNameDisplayText": "BORNHOLM DR, SCARBOROUGH"
      }
    ]
  },
  {
    "postal": "M1C0V9",
    "result": []
  },
  {
    "postal": "M1C5Y2",
    "result": []
  },
  {
    "postal": "M1C7Z7",
    "result": []
  },
  {
    "postal": "M1C6Y8",
    "result": []
  },
  {
    "postal": "M1C2G7",
    "result": [
      {
        "electoralDistricts": [
          {
            "election": null,
            "id": 97,
            "name": "Scarborough—Rouge Park"
          }
        ],
        "pollDivisionIds": [
          10141752
        ],
        "postalCode": "M1C2G7",
        "streetName": "CLAPPISON",
        "streetDirectionId": null,
        "streetTypeId": "BLVD",
        "placeName": "SCARBOROUGH",
        "streetNameDisplayText": "CLAPPISON BLVD, SCARBOROUGH"
      }
    ]
  },
  {
    "postal": "M1C8C1",
    "result": []
  },
  {
    "postal": "M1C5C5",
    "result": [
      {
        "electoralDistricts": [
          {
            "election": null,
            "id": 97,
            "name": "Scarborough—Rouge Park"
          }
        ],
        "pollDivisionIds": [
          10141751
        ],
        "postalCode": "M1C5C5",
        "streetName": "LAKERIDGE",
        "streetDirectionId": null,
        "streetTypeId": "DR",
        "placeName": "SCARBOROUGH",
        "streetNameDisplayText": "LAKERIDGE DR, SCARBOROUGH"
      },
      {
        "electoralDistricts": [
          {
            "election": null,
            "id": 97,
            "name": "Scarborough—Rouge Park"
          }
        ],
        "pollDivisionIds": [
          10141751
        ],
        "postalCode": "M1C5C5",
        "streetName": "WATERBRIDGE",
        "streetDirectionId": null,
        "streetTypeId": "WAY",
        "placeName": "SCARBOROUGH",
        "streetNameDisplayText": "WATERBRIDGE WAY, SCARBOROUGH"
      }
    ]
  },
  {
    "postal": "M1C2X8",
    "result": [
      {
        "electoralDistricts": [
          {
            "election": null,
            "id": 97,
            "name": "Scarborough—Rouge Park"
          }
        ],
        "pollDivisionIds": [
          10141753,
          10141754
        ],
        "postalCode": "M1C2X8",
        "streetName": "FRIENDSHIP",
        "streetDirectionId": null,
        "streetTypeId": "AVE",
        "placeName": "SCARBOROUGH",
        "streetNameDisplayText": "FRIENDSHIP AVE, SCARBOROUGH"
      }
    ]
  },
  {
    "postal": "M1C1W5",
    "result": [
      {
        "electoralDistricts": [
          {
            "election": null,
            "id": 97,
            "name": "Scarborough—Rouge Park"
          }
        ],
        "pollDivisionIds": [
          10141751
        ],
        "postalCode": "M1C1W5",
        "streetName": "PAULANDER",
        "streetDirectionId": null,
        "streetTypeId": "AVE",
        "placeName": "SCARBOROUGH",
        "streetNameDisplayText": "PAULANDER AVE, SCARBOROUGH"
      }
    ]
  },
  {
    "postal": "M1C7G0",
    "result": []
  },
  {
    "postal": "M1C8J8",
    "result": []
  },
  {
    "postal": "M1C3Y0",
    "result": []
  },
  {
    "postal": "M1C9T7",
    "result": []
  },
  {
    "postal": "M1C5P4",
    "result": []
  },
  {
    "postal": "M1C4B0",
    "result": []
  },
  {
    "postal": "M1C9N8",
    "result": []
  },
  {
    "postal": "M1C4A7",
    "result": [
      {
        "electoralDistricts": [
          {
            "election": null,
            "id": 97,
            "name": "Scarborough—Rouge Park"
          }
        ],
        "pollDivisionIds": [
          10141752,
          10141754
        ],
        "postalCode": "M1C4A7",
        "streetName": "LAWRENCE",
        "streetDirectionId": "E",
        "streetTypeId": "AVE",
        "placeName": "SCARBOROUGH",
        "streetNameDisplayText": "LAWRENCE AVE E, SCARBOROUGH"
      }
    ]
  },
  {
    "postal": "M1C4H9",
    "result": [
      {
        "electoralDistricts": [
          {
            "election": null,
            "id": 97,
            "name": "Scarborough—Rouge Park"
          }
        ],
        "pollDivisionIds": [
          10141744
        ],
        "postalCode": "M1C4H9",
        "streetName": "GRAYBARK",
        "streetDirectionId": null,
        "streetTypeId": "CRES",
        "placeName": "SCARBOROUGH",
        "streetNameDisplayText": "GRAYBARK CRES, SCARBOROUGH"
      }
    ]
  },
  {
    "postal": "M1C6X1",
    "result": []
  },
  {
    "postal": "M1C9Y7",
    "result": []
  },
  {
    "postal": "M1C2Y5",
    "result": [
      {
        "electoralDistricts": [
          {
            "election": null,
            "id": 97,
            "name": "Scarborough—Rouge Park"
          }
        ],
        "pollDivisionIds": [
          10141753
        ],
        "postalCode": "M1C2Y5",
        "streetName": "FRIENDSHIP",
        "streetDirectionId": null,
        "streetTypeId": "AVE",
        "placeName": "SCARBOROUGH",
        "streetNameDisplayText": "FRIENDSHIP AVE, SCARBOROUGH"
      }
    ]
  },
  {
    "postal": "M1C8L7",
    "result": []
  },
  {
    "postal": "M1C2A8",
    "result": [
      {
        "electoralDistricts": [
          {
            "election": null,
            "id": 97,
            "name": "Scarborough—Rouge Park"
          }
        ],
        "pollDivisionIds": [
          10141751
        ],
        "postalCode": "M1C2A8",
        "streetName": "CHARLES TUPPER",
        "streetDirectionId": null,
        "streetTypeId": "DR",
        "placeName": "SCARBOROUGH",
        "streetNameDisplayText": "CHARLES TUPPER DR, SCARBOROUGH"
      }
    ]
  },
  {
    "postal": "M1C2K9",
    "result": [
      {
        "electoralDistricts": [
          {
            "election": null,
            "id": 97,
            "name": "Scarborough—Rouge Park"
          }
        ],
        "pollDivisionIds": [
          10141753
        ],
        "postalCode": "M1C2K9",
        "streetName": "ROZELL",
        "streetDirectionId": null,
        "streetTypeId": "RD",
        "placeName": "SCARBOROUGH",
        "streetNameDisplayText": "ROZELL RD, SCARBOROUGH"
      }
    ]
  },
  {
    "postal": "M1C3E5",
    "result": [
      {
        "electoralDistricts": [
          {
            "election": null,
            "id": 97,
            "name": "Scarborough—Rouge Park"
          }
        ],
        "pollDivisionIds": [
          10143252
        ],
        "postalCode": "M1C3E5",
        "streetName": "ACHESON",
        "streetDirectionId": null,
        "streetTypeId": "BLVD",
        "placeName": "SCARBOROUGH",
        "streetNameDisplayText": "ACHESON BLVD, SCARBOROUGH"
      }
    ]
  },
  {
    "postal": "M1C8N6",
    "result": []
  },
  {
    "postal": "M1C8J4",
    "result": []
  },
  {
    "postal": "M1C4R7",
    "result": [
      {
        "electoralDistricts": [
          {
            "election": null,
            "id": 97,
            "name": "Scarborough—Rouge Park"
          }
        ],
        "pollDivisionIds": [
          10141745
        ],
        "postalCode": "M1C4R7",
        "streetName": "BLUENOSE",
        "streetDirectionId": null,
        "streetTypeId": "CRES",
        "placeName": "SCARBOROUGH",
        "streetNameDisplayText": "BLUENOSE CRES, SCARBOROUGH"
      }
    ]
  },
  {
    "postal": "M1C9K1",
    "result": []
  },
  {
    "postal": "M1C8E1",
    "result": []
  },
  {
    "postal": "M1C0R1",
    "result": []
  },
  {
    "postal": "M1C4J3",
    "result": [
      {
        "electoralDistricts": [
          {
            "election": null,
            "id": 97,
            "name": "Scarborough—Rouge Park"
          }
        ],
        "pollDivisionIds": [
          10141744
        ],
        "postalCode": "M1C4J3",
        "streetName": "PONYMEADOW",
        "streetDirectionId": null,
        "streetTypeId": "TERR",
        "placeName": "SCARBOROUGH",
        "streetNameDisplayText": "PONYMEADOW TERR, SCARBOROUGH"
      }
    ]
  },
  {
    "postal": "M1C7E7",
    "result": []
  },
  {
    "postal": "M1C0J0",
    "result": []
  },
  {
    "postal": "M1C7R8",
    "result": []
  },
  {
    "postal": "M1C9X0",
    "result": []
  },
  {
    "postal": "M1C7P6",
    "result": []
  },
  {
    "postal": "M1C0R7",
    "result": []
  },
  {
    "postal": "M1C5W1",
    "result": []
  },
  {
    "postal": "M1C0K4",
    "result": []
  },
  {
    "postal": "M1C7N9",
    "result": []
  },
  {
    "postal": "M1C1N0",
    "result": []
  },
  {
    "postal": "M1C6P3",
    "result": []
  },
  {
    "postal": "M1C5A1",
    "result": [
      {
        "electoralDistricts": [
          {
            "election": null,
            "id": 97,
            "name": "Scarborough—Rouge Park"
          }
        ],
        "pollDivisionIds": [
          10141753
        ],
        "postalCode": "M1C5A1",
        "streetName": "ADAMS PARK",
        "streetDirectionId": null,
        "streetTypeId": "GATE",
        "placeName": "SCARBOROUGH",
        "streetNameDisplayText": "ADAMS PARK GATE, SCARBOROUGH"
      },
      {
        "electoralDistricts": [
          {
            "election": null,
            "id": 97,
            "name": "Scarborough—Rouge Park"
          }
        ],
        "pollDivisionIds": [
          10141753
        ],
        "postalCode": "M1C5A1",
        "streetName": "ANDONA",
        "streetDirectionId": null,
        "streetTypeId": "CRES",
        "placeName": "SCARBOROUGH",
        "streetNameDisplayText": "ANDONA CRES, SCARBOROUGH"
      }
    ]
  },
  {
    "postal": "M1C9M9",
    "result": []
  },
  {
    "postal": "M1C7T6",
    "result": []
  },
  {
    "postal": "M1C3X0",
    "result": []
  },
  {
    "postal": "M1C2T0",
    "result": []
  },
  {
    "postal": "M1C5X9",
    "result": []
  },
  {
    "postal": "M1C2R3",
    "result": [
      {
        "electoralDistricts": [
          {
            "election": null,
            "id": 97,
            "name": "Scarborough—Rouge Park"
          }
        ],
        "pollDivisionIds": [
          10141753
        ],
        "postalCode": "M1C2R3",
        "streetName": "BRYCEMOOR",
        "streetDirectionId": null,
        "streetTypeId": "RD",
        "placeName": "SCARBOROUGH",
        "streetNameDisplayText": "BRYCEMOOR RD, SCARBOROUGH"
      }
    ]
  },
  {
    "postal": "M1C5N2",
    "result": []
  },
  {
    "postal": "M1C4Y7",
    "result": [
      {
        "electoralDistricts": [
          {
            "election": null,
            "id": 97,
            "name": "Scarborough—Rouge Park"
          }
        ],
        "pollDivisionIds": [
          10141746
        ],
        "postalCode": "M1C4Y7",
        "streetName": "MIRROW",
        "streetDirectionId": null,
        "streetTypeId": "CRT",
        "placeName": "SCARBOROUGH",
        "streetNameDisplayText": "MIRROW CRT, SCARBOROUGH"
      },
      {
        "electoralDistricts": [
          {
            "election": null,
            "id": 97,
            "name": "Scarborough—Rouge Park"
          }
        ],
        "pollDivisionIds": [
          10141746
        ],
        "postalCode": "M1C4Y7",
        "streetName": "NORVALLEY",
        "streetDirectionId": null,
        "streetTypeId": "CRT",
        "placeName": "SCARBOROUGH",
        "streetNameDisplayText": "NORVALLEY CRT, SCARBOROUGH"
      }
    ]
  },
  {
    "postal": "M1C7M0",
    "result": []
  },
  {
    "postal": "M1C8P3",
    "result": []
  },
  {
    "postal": "M1C3N3",
    "result": [
      {
        "electoralDistricts": [
          {
            "election": null,
            "id": 97,
            "name": "Scarborough—Rouge Park"
          }
        ],
        "pollDivisionIds": [
          10141752
        ],
        "postalCode": "M1C3N3",
        "streetName": "WHITEROCK",
        "streetDirectionId": null,
        "streetTypeId": "DR",
        "placeName": "SCARBOROUGH",
        "streetNameDisplayText": "WHITEROCK DR, SCARBOROUGH"
      }
    ]
  },
  {
    "postal": "M1C7S3",
    "result": []
  },
  {
    "postal": "M1C3V9",
    "result": [
      {
        "electoralDistricts": [
          {
            "election": null,
            "id": 97,
            "name": "Scarborough—Rouge Park"
          }
        ],
        "pollDivisionIds": [
          10141744
        ],
        "postalCode": "M1C3V9",
        "streetName": "CALVERLEY",
        "streetDirectionId": null,
        "streetTypeId": "TRAIL",
        "placeName": "SCARBOROUGH",
        "streetNameDisplayText": "CALVERLEY TRAIL, SCARBOROUGH"
      }
    ]
  },
  {
    "postal": "M1C9N7",
    "result": []
  },
  {
    "postal": "M1C0G4",
    "result": []
  },
  {
    "postal": "M1C2E2",
    "result": [
      {
        "electoralDistricts": [
          {
            "election": null,
            "id": 97,
            "name": "Scarborough—Rouge Park"
          }
        ],
        "pollDivisionIds": [
          10141751
        ],
        "postalCode": "M1C2E2",
        "streetName": "CONFERENCE",
        "streetDirectionId": null,
        "streetTypeId": "BLVD",
        "placeName": "SCARBOROUGH",
        "streetNameDisplayText": "CONFERENCE BLVD, SCARBOROUGH"
      }
    ]
  },
  {
    "postal": "M1C7W8",
    "result": []
  },
  {
    "postal": "M1C7M5",
    "result": []
  },
  {
    "postal": "M1C5W8",
    "result": []
  },
  {
    "postal": "M1C5E5",
    "result": [
      {
        "electoralDistricts": [
          {
            "election": null,
            "id": 97,
            "name": "Scarborough—Rouge Park"
          }
        ],
        "pollDivisionIds": [
          10141751
        ],
        "postalCode": "M1C5E5",
        "streetName": "BRIDGEPORT",
        "streetDirectionId": null,
        "streetTypeId": "DR",
        "placeName": "SCARBOROUGH",
        "streetNameDisplayText": "BRIDGEPORT DR, SCARBOROUGH"
      },
      {
        "electoralDistricts": [
          {
            "election": null,
            "id": 97,
            "name": "Scarborough—Rouge Park"
          }
        ],
        "pollDivisionIds": [
          10141751
        ],
        "postalCode": "M1C5E5",
        "streetName": "LONG ISLAND",
        "streetDirectionId": null,
        "streetTypeId": "CRES",
        "placeName": "SCARBOROUGH",
        "streetNameDisplayText": "LONG ISLAND CRES, SCARBOROUGH"
      }
    ]
  },
  {
    "postal": "M1C1P9",
    "result": [
      {
        "electoralDistricts": [
          {
            "election": null,
            "id": 97,
            "name": "Scarborough—Rouge Park"
          }
        ],
        "pollDivisionIds": [
          10143252
        ],
        "postalCode": "M1C1P9",
        "streetName": "COLONEL DANFORTH",
        "streetDirectionId": null,
        "streetTypeId": "TRAIL",
        "placeName": "SCARBOROUGH",
        "streetNameDisplayText": "COLONEL DANFORTH TRAIL, SCARBOROUGH"
      }
    ]
  },
  {
    "postal": "M1C8V8",
    "result": []
  },
  {
    "postal": "M1C9G8",
    "result": []
  },
  {
    "postal": "M1C8H9",
    "result": []
  },
  {
    "postal": "M1C1Z1",
    "result": [
      {
        "electoralDistricts": [
          {
            "election": null,
            "id": 97,
            "name": "Scarborough—Rouge Park"
          }
        ],
        "pollDivisionIds": [
          10141751
        ],
        "postalCode": "M1C1Z1",
        "streetName": "CENTENNIAL",
        "streetDirectionId": null,
        "streetTypeId": "RD",
        "placeName": "SCARBOROUGH",
        "streetNameDisplayText": "CENTENNIAL RD, SCARBOROUGH"
      }
    ]
  },
  {
    "postal": "M1C8M3",
    "result": []
  },
  {
    "postal": "M1C5H6",
    "result": [
      {
        "electoralDistricts": [
          {
            "election": null,
            "id": 97,
            "name": "Scarborough—Rouge Park"
          }
        ],
        "pollDivisionIds": [
          10141752
        ],
        "postalCode": "M1C5H6",
        "streetName": "WUTHERING HEIGHTS",
        "streetDirectionId": null,
        "streetTypeId": "RD",
        "placeName": "SCARBOROUGH",
        "streetNameDisplayText": "WUTHERING HEIGHTS RD, SCARBOROUGH"
      }
    ]
  },
  {
    "postal": "M1C7W7",
    "result": []
  },
  {
    "postal": "M1C4L0",
    "result": []
  },
  {
    "postal": "M1C2N1",
    "result": [
      {
        "electoralDistricts": [
          {
            "election": null,
            "id": 97,
            "name": "Scarborough—Rouge Park"
          }
        ],
        "pollDivisionIds": [
          10141753
        ],
        "postalCode": "M1C2N1",
        "streetName": "FANFARE",
        "streetDirectionId": null,
        "streetTypeId": "AVE",
        "placeName": "SCARBOROUGH",
        "streetNameDisplayText": "FANFARE AVE, SCARBOROUGH"
      }
    ]
  },
  {
    "postal": "M1C2H4",
    "result": [
      {
        "electoralDistricts": [
          {
            "election": null,
            "id": 97,
            "name": "Scarborough—Rouge Park"
          }
        ],
        "pollDivisionIds": [
          10141752
        ],
        "postalCode": "M1C2H4",
        "streetName": "WICHEY",
        "streetDirectionId": null,
        "streetTypeId": "RD",
        "placeName": "SCARBOROUGH",
        "streetNameDisplayText": "WICHEY RD, SCARBOROUGH"
      }
    ]
  },
  {
    "postal": "M1C5C8",
    "result": [
      {
        "electoralDistricts": [
          {
            "election": null,
            "id": 97,
            "name": "Scarborough—Rouge Park"
          }
        ],
        "pollDivisionIds": [
          10141751
        ],
        "postalCode": "M1C5C8",
        "streetName": "LAWRENCE",
        "streetDirectionId": "E",
        "streetTypeId": "AVE",
        "placeName": "SCARBOROUGH",
        "streetNameDisplayText": "LAWRENCE AVE E, SCARBOROUGH"
      },
      {
        "electoralDistricts": [
          {
            "election": null,
            "id": 97,
            "name": "Scarborough—Rouge Park"
          }
        ],
        "pollDivisionIds": [
          10141751
        ],
        "postalCode": "M1C5C8",
        "streetName": "PORTSMOUTH",
        "streetDirectionId": null,
        "streetTypeId": "DR",
        "placeName": "SCARBOROUGH",
        "streetNameDisplayText": "PORTSMOUTH DR, SCARBOROUGH"
      }
    ]
  },
  {
    "postal": "M1C8B0",
    "result": []
  },
  {
    "postal": "M1C1T4",
    "result": [
      {
        "electoralDistricts": [
          {
            "election": null,
            "id": 97,
            "name": "Scarborough—Rouge Park"
          }
        ],
        "pollDivisionIds": [
          10143252
        ],
        "postalCode": "M1C1T4",
        "streetName": "BATHGATE",
        "streetDirectionId": null,
        "streetTypeId": "DR",
        "placeName": "SCARBOROUGH",
        "streetNameDisplayText": "BATHGATE DR, SCARBOROUGH"
      }
    ]
  },
  {
    "postal": "M1C7N7",
    "result": []
  },
  {
    "postal": "M1C4L3",
    "result": [
      {
        "electoralDistricts": [
          {
            "election": null,
            "id": 97,
            "name": "Scarborough—Rouge Park"
          }
        ],
        "pollDivisionIds": [
          10141754
        ],
        "postalCode": "M1C4L3",
        "streetName": "MILLDOCK",
        "streetDirectionId": null,
        "streetTypeId": "DR",
        "placeName": "SCARBOROUGH",
        "streetNameDisplayText": "MILLDOCK DR, SCARBOROUGH"
      },
      {
        "electoralDistricts": [
          {
            "election": null,
            "id": 97,
            "name": "Scarborough—Rouge Park"
          }
        ],
        "pollDivisionIds": [
          10141754
        ],
        "postalCode": "M1C4L3",
        "streetName": "STARSPRAY",
        "streetDirectionId": null,
        "streetTypeId": "BLVD",
        "placeName": "SCARBOROUGH",
        "streetNameDisplayText": "STARSPRAY BLVD, SCARBOROUGH"
      }
    ]
  },
  {
    "postal": "M1C2N2",
    "result": [
      {
        "electoralDistricts": [
          {
            "election": null,
            "id": 97,
            "name": "Scarborough—Rouge Park"
          }
        ],
        "pollDivisionIds": [
          10141753
        ],
        "postalCode": "M1C2N2",
        "streetName": "FANFARE",
        "streetDirectionId": null,
        "streetTypeId": "AVE",
        "placeName": "SCARBOROUGH",
        "streetNameDisplayText": "FANFARE AVE, SCARBOROUGH"
      }
    ]
  },
  {
    "postal": "M1C4N8",
    "result": [
      {
        "electoralDistricts": [
          {
            "election": null,
            "id": 97,
            "name": "Scarborough—Rouge Park"
          }
        ],
        "pollDivisionIds": [
          10141754
        ],
        "postalCode": "M1C4N8",
        "streetName": "BORNHOLM",
        "streetDirectionId": null,
        "streetTypeId": "DR",
        "placeName": "SCARBOROUGH",
        "streetNameDisplayText": "BORNHOLM DR, SCARBOROUGH"
      }
    ]
  },
  {
    "postal": "M1C3M5",
    "result": [
      {
        "electoralDistricts": [
          {
            "election": null,
            "id": 97,
            "name": "Scarborough—Rouge Park"
          }
        ],
        "pollDivisionIds": [
          10141751
        ],
        "postalCode": "M1C3M5",
        "streetName": "TESSON",
        "streetDirectionId": null,
        "streetTypeId": "PL",
        "placeName": "SCARBOROUGH",
        "streetNameDisplayText": "TESSON PL, SCARBOROUGH"
      }
    ]
  },
  {
    "postal": "M1C6H7",
    "result": []
  },
  {
    "postal": "M1C8Y8",
    "result": []
  },
  {
    "postal": "M1C5R9",
    "result": []
  },
  {
    "postal": "M1C8G3",
    "result": []
  },
  {
    "postal": "M1C4N7",
    "result": [
      {
        "electoralDistricts": [
          {
            "election": null,
            "id": 97,
            "name": "Scarborough—Rouge Park"
          }
        ],
        "pollDivisionIds": [
          10141754
        ],
        "postalCode": "M1C4N7",
        "streetName": "GREYBEAVER",
        "streetDirectionId": null,
        "streetTypeId": "TRAIL",
        "placeName": "SCARBOROUGH",
        "streetNameDisplayText": "GREYBEAVER TRAIL, SCARBOROUGH"
      }
    ]
  },
  {
    "postal": "M1C0B9",
    "result": [
      {
        "electoralDistricts": [
          {
            "election": null,
            "id": 97,
            "name": "Scarborough—Rouge Park"
          }
        ],
        "pollDivisionIds": [
          10141745
        ],
        "postalCode": "M1C0B9",
        "streetName": "PYTHAGORAS",
        "streetDirectionId": null,
        "streetTypeId": "DR",
        "placeName": "SCARBOROUGH",
        "streetNameDisplayText": "PYTHAGORAS DR, SCARBOROUGH"
      }
    ]
  },
  {
    "postal": "M1C9K7",
    "result": []
  },
  {
    "postal": "M1C9K9",
    "result": []
  },
  {
    "postal": "M1C3Z2",
    "result": [
      {
        "electoralDistricts": [
          {
            "election": null,
            "id": 97,
            "name": "Scarborough—Rouge Park"
          }
        ],
        "pollDivisionIds": [
          10141744
        ],
        "postalCode": "M1C3Z2",
        "streetName": "ELLESMERE",
        "streetDirectionId": null,
        "streetTypeId": "RD",
        "placeName": "SCARBOROUGH",
        "streetNameDisplayText": "ELLESMERE RD, SCARBOROUGH"
      }
    ]
  },
  {
    "postal": "M1C6W7",
    "result": []
  },
  {
    "postal": "M1C0P1",
    "result": []
  },
  {
    "postal": "M1C3A0",
    "result": []
  },
  {
    "postal": "M1C8L9",
    "result": []
  },
  {
    "postal": "M1C6X0",
    "result": []
  },
  {
    "postal": "M1C3E9",
    "result": [
      {
        "electoralDistricts": [
          {
            "election": null,
            "id": 97,
            "name": "Scarborough—Rouge Park"
          }
        ],
        "pollDivisionIds": [
          10143252
        ],
        "postalCode": "M1C3E9",
        "streetName": "INVERMARGE",
        "streetDirectionId": null,
        "streetTypeId": "DR",
        "placeName": "SCARBOROUGH",
        "streetNameDisplayText": "INVERMARGE DR, SCARBOROUGH"
      }
    ]
  },
  {
    "postal": "M1C0S5",
    "result": []
  },
  {
    "postal": "M1C1A2",
    "result": []
  },
  {
    "postal": "M1C5V8",
    "result": []
  },
  {
    "postal": "M1C8C5",
    "result": []
  },
  {
    "postal": "M1C6N0",
    "result": []
  },
  {
    "postal": "M1C9E6",
    "result": []
  },
  {
    "postal": "M1C5J7",
    "result": [
      {
        "electoralDistricts": [
          {
            "election": null,
            "id": 97,
            "name": "Scarborough—Rouge Park"
          }
        ],
        "pollDivisionIds": [
          10141753
        ],
        "postalCode": "M1C5J7",
        "streetName": "ANDONA",
        "streetDirectionId": null,
        "streetTypeId": "CRES",
        "placeName": "SCARBOROUGH",
        "streetNameDisplayText": "ANDONA CRES, SCARBOROUGH"
      }
    ]
  },
  {
    "postal": "M1C2R2",
    "result": [
      {
        "electoralDistricts": [
          {
            "election": null,
            "id": 97,
            "name": "Scarborough—Rouge Park"
          }
        ],
        "pollDivisionIds": [
          10141753
        ],
        "postalCode": "M1C2R2",
        "streetName": "ISLAND",
        "streetDirectionId": null,
        "streetTypeId": "RD",
        "placeName": "SCARBOROUGH",
        "streetNameDisplayText": "ISLAND RD, SCARBOROUGH"
      }
    ]
  },
  {
    "postal": "M1C0P5",
    "result": []
  },
  {
    "postal": "M1C5A7",
    "result": [
      {
        "electoralDistricts": [
          {
            "election": null,
            "id": 97,
            "name": "Scarborough—Rouge Park"
          }
        ],
        "pollDivisionIds": [
          10141753
        ],
        "postalCode": "M1C5A7",
        "streetName": "CAMERON GLEN",
        "streetDirectionId": null,
        "streetTypeId": "BLVD",
        "placeName": "SCARBOROUGH",
        "streetNameDisplayText": "CAMERON GLEN BLVD, SCARBOROUGH"
      },
      {
        "electoralDistricts": [
          {
            "election": null,
            "id": 97,
            "name": "Scarborough—Rouge Park"
          }
        ],
        "pollDivisionIds": [
          10141753
        ],
        "postalCode": "M1C5A7",
        "streetName": "KILSYTH",
        "streetDirectionId": null,
        "streetTypeId": "DR",
        "placeName": "SCARBOROUGH",
        "streetNameDisplayText": "KILSYTH DR, SCARBOROUGH"
      }
    ]
  },
  {
    "postal": "M1C1G1",
    "result": [
      {
        "electoralDistricts": [
          {
            "election": null,
            "id": 97,
            "name": "Scarborough—Rouge Park"
          }
        ],
        "pollDivisionIds": [
          10141746
        ],
        "postalCode": "M1C1G1",
        "streetName": "MORRISH",
        "streetDirectionId": null,
        "streetTypeId": "RD",
        "placeName": "SCARBOROUGH",
        "streetNameDisplayText": "MORRISH RD, SCARBOROUGH"
      }
    ]
  },
  {
    "postal": "M1C9R6",
    "result": []
  },
  {
    "postal": "M1C4Z9",
    "result": [
      {
        "electoralDistricts": [
          {
            "election": null,
            "id": 97,
            "name": "Scarborough—Rouge Park"
          }
        ],
        "pollDivisionIds": [
          10141745
        ],
        "postalCode": "M1C4Z9",
        "streetName": "CLARESHOLME",
        "streetDirectionId": null,
        "streetTypeId": "DR",
        "placeName": "SCARBOROUGH",
        "streetNameDisplayText": "CLARESHOLME DR, SCARBOROUGH"
      },
      {
        "electoralDistricts": [
          {
            "election": null,
            "id": 97,
            "name": "Scarborough—Rouge Park"
          }
        ],
        "pollDivisionIds": [
          10141745
        ],
        "postalCode": "M1C4Z9",
        "streetName": "HANIA",
        "streetDirectionId": null,
        "streetTypeId": "TERR",
        "placeName": "SCARBOROUGH",
        "streetNameDisplayText": "HANIA TERR, SCARBOROUGH"
      }
    ]
  },
  {
    "postal": "M1C1V5",
    "result": [
      {
        "electoralDistricts": [
          {
            "election": null,
            "id": 97,
            "name": "Scarborough—Rouge Park"
          }
        ],
        "pollDivisionIds": [
          10141751
        ],
        "postalCode": "M1C1V5",
        "streetName": "HOLMCREST",
        "streetDirectionId": null,
        "streetTypeId": "TRAIL",
        "placeName": "SCARBOROUGH",
        "streetNameDisplayText": "HOLMCREST TRAIL, SCARBOROUGH"
      }
    ]
  },
  {
    "postal": "M1C9Y5",
    "result": []
  },
  {
    "postal": "M1C1P2",
    "result": [
      {
        "electoralDistricts": [
          {
            "election": null,
            "id": 97,
            "name": "Scarborough—Rouge Park"
          }
        ],
        "pollDivisionIds": [
          10141745
        ],
        "postalCode": "M1C1P2",
        "streetName": "WHITE",
        "streetDirectionId": null,
        "streetTypeId": "AVE",
        "placeName": "SCARBOROUGH",
        "streetNameDisplayText": "WHITE AVE, SCARBOROUGH"
      }
    ]
  },
  {
    "postal": "M1C5X0",
    "result": []
  },
  {
    "postal": "M1C7B8",
    "result": []
  },
  {
    "postal": "M1C0C6",
    "result": [
      {
        "electoralDistricts": [
          {
            "election": null,
            "id": 97,
            "name": "Scarborough—Rouge Park"
          }
        ],
        "pollDivisionIds": [
          10143252
        ],
        "postalCode": "M1C0C6",
        "streetName": "ST MAGNUS",
        "streetDirectionId": null,
        "streetTypeId": "DR",
        "placeName": "SCARBOROUGH",
        "streetNameDisplayText": "ST MAGNUS DR, SCARBOROUGH"
      }
    ]
  },
  {
    "postal": "M1C6G1",
    "result": []
  },
  {
    "postal": "M1C3K3",
    "result": [
      {
        "electoralDistricts": [
          {
            "election": null,
            "id": 97,
            "name": "Scarborough—Rouge Park"
          }
        ],
        "pollDivisionIds": [
          10141752
        ],
        "postalCode": "M1C3K3",
        "streetName": "HARTSVILLE",
        "streetDirectionId": null,
        "streetTypeId": "AVE",
        "placeName": "SCARBOROUGH",
        "streetNameDisplayText": "HARTSVILLE AVE, SCARBOROUGH"
      }
    ]
  },
  {
    "postal": "M1C9R0",
    "result": []
  },
  {
    "postal": "M1C4R8",
    "result": [
      {
        "electoralDistricts": [
          {
            "election": null,
            "id": 97,
            "name": "Scarborough—Rouge Park"
          }
        ],
        "pollDivisionIds": [
          10141745
        ],
        "postalCode": "M1C4R8",
        "streetName": "BLUENOSE",
        "streetDirectionId": null,
        "streetTypeId": "CRES",
        "placeName": "SCARBOROUGH",
        "streetNameDisplayText": "BLUENOSE CRES, SCARBOROUGH"
      },
      {
        "electoralDistricts": [
          {
            "election": null,
            "id": 97,
            "name": "Scarborough—Rouge Park"
          }
        ],
        "pollDivisionIds": [
          10141745
        ],
        "postalCode": "M1C4R8",
        "streetName": "MUIRBANK",
        "streetDirectionId": null,
        "streetTypeId": "BLVD",
        "placeName": "SCARBOROUGH",
        "streetNameDisplayText": "MUIRBANK BLVD, SCARBOROUGH"
      }
    ]
  },
  {
    "postal": "M1C5P9",
    "result": []
  },
  {
    "postal": "M1C8N4",
    "result": []
  },
  {
    "postal": "M1C8H4",
    "result": []
  },
  {
    "postal": "M1C4V1",
    "result": [
      {
        "electoralDistricts": [
          {
            "election": null,
            "id": 97,
            "name": "Scarborough—Rouge Park"
          }
        ],
        "pollDivisionIds": [
          10141744
        ],
        "postalCode": "M1C4V1",
        "streetName": "CHALLENGER",
        "streetDirectionId": null,
        "streetTypeId": "CRT",
        "placeName": "SCARBOROUGH",
        "streetNameDisplayText": "CHALLENGER CRT, SCARBOROUGH"
      }
    ]
  },
  {
    "postal": "M1C1K5",
    "result": [
      {
        "electoralDistricts": [
          {
            "election": null,
            "id": 97,
            "name": "Scarborough—Rouge Park"
          }
        ],
        "pollDivisionIds": [
          10141746
        ],
        "postalCode": "M1C1K5",
        "streetName": "KINGSTON",
        "streetDirectionId": null,
        "streetTypeId": "RD",
        "placeName": "SCARBOROUGH",
        "streetNameDisplayText": "KINGSTON RD, SCARBOROUGH"
      }
    ]
  },
  {
    "postal": "M1C1Z5",
    "result": [
      {
        "electoralDistricts": [
          {
            "election": null,
            "id": 97,
            "name": "Scarborough—Rouge Park"
          }
        ],
        "pollDivisionIds": [
          10141751
        ],
        "postalCode": "M1C1Z5",
        "streetName": "CENTENNIAL",
        "streetDirectionId": null,
        "streetTypeId": "RD",
        "placeName": "SCARBOROUGH",
        "streetNameDisplayText": "CENTENNIAL RD, SCARBOROUGH"
      }
    ]
  },
  {
    "postal": "M1C9L9",
    "result": []
  },
  {
    "postal": "M1C5L2",
    "result": []
  },
  {
    "postal": "M1C0M2",
    "result": []
  },
  {
    "postal": "M1C1K8",
    "result": [
      {
        "electoralDistricts": [
          {
            "election": null,
            "id": 97,
            "name": "Scarborough—Rouge Park"
          }
        ],
        "pollDivisionIds": [
          10141745
        ],
        "postalCode": "M1C1K8",
        "streetName": "KINGSTON",
        "streetDirectionId": null,
        "streetTypeId": "RD",
        "placeName": "SCARBOROUGH",
        "streetNameDisplayText": "KINGSTON RD, SCARBOROUGH"
      }
    ]
  },
  {
    "postal": "M1C3M7",
    "result": [
      {
        "electoralDistricts": [
          {
            "election": null,
            "id": 97,
            "name": "Scarborough—Rouge Park"
          }
        ],
        "pollDivisionIds": [
          10141746
        ],
        "postalCode": "M1C3M7",
        "streetName": "SUGARBUSH",
        "streetDirectionId": null,
        "streetTypeId": "SQ",
        "placeName": "SCARBOROUGH",
        "streetNameDisplayText": "SUGARBUSH SQ, SCARBOROUGH"
      }
    ]
  },
  {
    "postal": "M1C1B2",
    "result": [
      {
        "electoralDistricts": [
          {
            "election": null,
            "id": 97,
            "name": "Scarborough—Rouge Park"
          }
        ],
        "pollDivisionIds": [
          10141746
        ],
        "postalCode": "M1C1B2",
        "streetName": "MILITARY",
        "streetDirectionId": null,
        "streetTypeId": "TRAIL",
        "placeName": "SCARBOROUGH",
        "streetNameDisplayText": "MILITARY TRAIL, SCARBOROUGH"
      }
    ]
  },
  {
    "postal": "M1C0H9",
    "result": []
  },
  {
    "postal": "M1C8M4",
    "result": []
  },
  {
    "postal": "M1C2M5",
    "result": [
      {
        "electoralDistricts": [
          {
            "election": null,
            "id": 97,
            "name": "Scarborough—Rouge Park"
          }
        ],
        "pollDivisionIds": [
          10141753
        ],
        "postalCode": "M1C2M5",
        "streetName": "RAVINE PARK",
        "streetDirectionId": null,
        "streetTypeId": "CRES",
        "placeName": "SCARBOROUGH",
        "streetNameDisplayText": "RAVINE PARK CRES, SCARBOROUGH"
      }
    ]
  },
  {
    "postal": "M1C0T9",
    "result": []
  },
  {
    "postal": "M1C3P1",
    "result": [
      {
        "electoralDistricts": [
          {
            "election": null,
            "id": 97,
            "name": "Scarborough—Rouge Park"
          }
        ],
        "pollDivisionIds": [
          10141753
        ],
        "postalCode": "M1C3P1",
        "streetName": "BLUE ANCHOR",
        "streetDirectionId": null,
        "streetTypeId": "TRAIL",
        "placeName": "SCARBOROUGH",
        "streetNameDisplayText": "BLUE ANCHOR TRAIL, SCARBOROUGH"
      }
    ]
  },
  {
    "postal": "M1C1R6",
    "result": []
  },
  {
    "postal": "M1C9V5",
    "result": []
  },
  {
    "postal": "M1C9T0",
    "result": []
  },
  {
    "postal": "M1C0A9",
    "result": [
      {
        "electoralDistricts": [
          {
            "election": null,
            "id": 97,
            "name": "Scarborough—Rouge Park"
          }
        ],
        "pollDivisionIds": [
          10141744
        ],
        "postalCode": "M1C0A9",
        "streetName": "BAZALGETTE",
        "streetDirectionId": null,
        "streetTypeId": "DR",
        "placeName": "SCARBOROUGH",
        "streetNameDisplayText": "BAZALGETTE DR, SCARBOROUGH"
      }
    ]
  },
  {
    "postal": "M1C1M3",
    "result": [
      {
        "electoralDistricts": [
          {
            "election": null,
            "id": 97,
            "name": "Scarborough—Rouge Park"
          }
        ],
        "pollDivisionIds": [
          10141744
        ],
        "postalCode": "M1C1M3",
        "streetName": "SCARBORO",
        "streetDirectionId": null,
        "streetTypeId": "AVE",
        "placeName": "SCARBOROUGH",
        "streetNameDisplayText": "SCARBORO AVE, SCARBOROUGH"
      }
    ]
  },
  {
    "postal": "M1C1W8",
    "result": [
      {
        "electoralDistricts": [
          {
            "election": null,
            "id": 97,
            "name": "Scarborough—Rouge Park"
          }
        ],
        "pollDivisionIds": [
          10141751
        ],
        "postalCode": "M1C1W8",
        "streetName": "PAULANDER",
        "streetDirectionId": null,
        "streetTypeId": "AVE",
        "placeName": "SCARBOROUGH",
        "streetNameDisplayText": "PAULANDER AVE, SCARBOROUGH"
      }
    ]
  },
  {
    "postal": "M1C9J1",
    "result": []
  },
  {
    "postal": "M1C8N5",
    "result": []
  },
  {
    "postal": "M1C5X1",
    "result": []
  },
  {
    "postal": "M1C6S2",
    "result": []
  },
  {
    "postal": "M1C2A2",
    "result": [
      {
        "electoralDistricts": [
          {
            "election": null,
            "id": 97,
            "name": "Scarborough—Rouge Park"
          }
        ],
        "pollDivisionIds": [
          10143252
        ],
        "postalCode": "M1C2A2",
        "streetName": "CENTENNIAL",
        "streetDirectionId": null,
        "streetTypeId": "RD",
        "placeName": "SCARBOROUGH",
        "streetNameDisplayText": "CENTENNIAL RD, SCARBOROUGH"
      }
    ]
  },
  {
    "postal": "M1C6A6",
    "result": []
  },
  {
    "postal": "M1C0S3",
    "result": []
  },
  {
    "postal": "M1C3E7",
    "result": [
      {
        "electoralDistricts": [
          {
            "election": null,
            "id": 97,
            "name": "Scarborough—Rouge Park"
          }
        ],
        "pollDivisionIds": [
          10141752
        ],
        "postalCode": "M1C3E7",
        "streetName": "WINTER GARDENS",
        "streetDirectionId": null,
        "streetTypeId": "TRAIL",
        "placeName": "SCARBOROUGH",
        "streetNameDisplayText": "WINTER GARDENS TRAIL, SCARBOROUGH"
      }
    ]
  },
  {
    "postal": "M1C5R7",
    "result": []
  },
  {
    "postal": "M1C3R6",
    "result": [
      {
        "electoralDistricts": [
          {
            "election": null,
            "id": 97,
            "name": "Scarborough—Rouge Park"
          }
        ],
        "pollDivisionIds": [
          10141744
        ],
        "postalCode": "M1C3R6",
        "streetName": "FISHERY",
        "streetDirectionId": null,
        "streetTypeId": "RD",
        "placeName": "SCARBOROUGH",
        "streetNameDisplayText": "FISHERY RD, SCARBOROUGH"
      }
    ]
  },
  {
    "postal": "M1C6K4",
    "result": []
  },
  {
    "postal": "M1C2W5",
    "result": [
      {
        "electoralDistricts": [
          {
            "election": null,
            "id": 97,
            "name": "Scarborough—Rouge Park"
          }
        ],
        "pollDivisionIds": [
          10141753
        ],
        "postalCode": "M1C2W5",
        "streetName": "EAST",
        "streetDirectionId": null,
        "streetTypeId": "AVE",
        "placeName": "SCARBOROUGH",
        "streetNameDisplayText": "EAST AVE, SCARBOROUGH"
      }
    ]
  },
  {
    "postal": "M1C8W4",
    "result": []
  },
  {
    "postal": "M1C9C2",
    "result": []
  },
  {
    "postal": "M1C2C0",
    "result": []
  },
  {
    "postal": "M1C0E1",
    "result": []
  },
  {
    "postal": "M1C1K9",
    "result": [
      {
        "electoralDistricts": [
          {
            "election": null,
            "id": 97,
            "name": "Scarborough—Rouge Park"
          }
        ],
        "pollDivisionIds": [
          10141745
        ],
        "postalCode": "M1C1K9",
        "streetName": "KINGSTON",
        "streetDirectionId": null,
        "streetTypeId": "RD",
        "placeName": "SCARBOROUGH",
        "streetNameDisplayText": "KINGSTON RD, SCARBOROUGH"
      }
    ]
  },
  {
    "postal": "M1C1G7",
    "result": [
      {
        "electoralDistricts": [
          {
            "election": null,
            "id": 97,
            "name": "Scarborough—Rouge Park"
          }
        ],
        "pollDivisionIds": [
          10141746
        ],
        "postalCode": "M1C1G7",
        "streetName": "BUSH",
        "streetDirectionId": null,
        "streetTypeId": "DR",
        "placeName": "SCARBOROUGH",
        "streetNameDisplayText": "BUSH DR, SCARBOROUGH"
      }
    ]
  },
  {
    "postal": "M1C4E9",
    "result": []
  },
  {
    "postal": "M1C9P0",
    "result": []
  },
  {
    "postal": "M1C5H3",
    "result": [
      {
        "electoralDistricts": [
          {
            "election": null,
            "id": 97,
            "name": "Scarborough—Rouge Park"
          }
        ],
        "pollDivisionIds": [
          10141745
        ],
        "postalCode": "M1C5H3",
        "streetName": "GOLDENE",
        "streetDirectionId": null,
        "streetTypeId": "WAY",
        "placeName": "SCARBOROUGH",
        "streetNameDisplayText": "GOLDENE WAY, SCARBOROUGH"
      }
    ]
  },
  {
    "postal": "M1C9X6",
    "result": []
  },
  {
    "postal": "M1C5N7",
    "result": []
  },
  {
    "postal": "M1C5A6",
    "result": [
      {
        "electoralDistricts": [
          {
            "election": null,
            "id": 97,
            "name": "Scarborough—Rouge Park"
          }
        ],
        "pollDivisionIds": [
          10143252
        ],
        "postalCode": "M1C5A6",
        "streetName": "NEWMAINS",
        "streetDirectionId": null,
        "streetTypeId": "CRT",
        "placeName": "SCARBOROUGH",
        "streetNameDisplayText": "NEWMAINS CRT, SCARBOROUGH"
      }
    ]
  },
  {
    "postal": "M1C4M0",
    "result": []
  },
  {
    "postal": "M1C3V6",
    "result": [
      {
        "electoralDistricts": [
          {
            "election": null,
            "id": 97,
            "name": "Scarborough—Rouge Park"
          }
        ],
        "pollDivisionIds": [
          10141744
        ],
        "postalCode": "M1C3V6",
        "streetName": "CALTHORPE",
        "streetDirectionId": null,
        "streetTypeId": "AVE",
        "placeName": "SCARBOROUGH",
        "streetNameDisplayText": "CALTHORPE AVE, SCARBOROUGH"
      }
    ]
  },
  {
    "postal": "M1C1L7",
    "result": [
      {
        "electoralDistricts": [
          {
            "election": null,
            "id": 97,
            "name": "Scarborough—Rouge Park"
          }
        ],
        "pollDivisionIds": [
          10141746
        ],
        "postalCode": "M1C1L7",
        "streetName": "DEEP DENE",
        "streetDirectionId": null,
        "streetTypeId": "DR",
        "placeName": "SCARBOROUGH",
        "streetNameDisplayText": "DEEP DENE DR, SCARBOROUGH"
      }
    ]
  },
  {
    "postal": "M1C2P9",
    "result": [
      {
        "electoralDistricts": [
          {
            "election": null,
            "id": 97,
            "name": "Scarborough—Rouge Park"
          }
        ],
        "pollDivisionIds": [
          10141753
        ],
        "postalCode": "M1C2P9",
        "streetName": "ISLAND",
        "streetDirectionId": null,
        "streetTypeId": "RD",
        "placeName": "SCARBOROUGH",
        "streetNameDisplayText": "ISLAND RD, SCARBOROUGH"
      }
    ]
  },
  {
    "postal": "M1C5T4",
    "result": []
  },
  {
    "postal": "M1C5Z1",
    "result": []
  },
  {
    "postal": "M1C2X0",
    "result": []
  },
  {
    "postal": "M1C6Z2",
    "result": []
  },
  {
    "postal": "M1C0E0",
    "result": []
  },
  {
    "postal": "M1C3Z5",
    "result": [
      {
        "electoralDistricts": [
          {
            "election": null,
            "id": 97,
            "name": "Scarborough—Rouge Park"
          }
        ],
        "pollDivisionIds": [
          10141744
        ],
        "postalCode": "M1C3Z5",
        "streetName": "SCARBELL",
        "streetDirectionId": null,
        "streetTypeId": "DR",
        "placeName": "SCARBOROUGH",
        "streetNameDisplayText": "SCARBELL DR, SCARBOROUGH"
      }
    ]
  },
  {
    "postal": "M1C8H3",
    "result": []
  },
  {
    "postal": "M1C7S6",
    "result": []
  },
  {
    "postal": "M1C4C1",
    "result": []
  },
  {
    "postal": "M1C3K2",
    "result": [
      {
        "electoralDistricts": [
          {
            "election": null,
            "id": 97,
            "name": "Scarborough—Rouge Park"
          }
        ],
        "pollDivisionIds": [
          10141752
        ],
        "postalCode": "M1C3K2",
        "streetName": "EAST",
        "streetDirectionId": null,
        "streetTypeId": "AVE",
        "placeName": "SCARBOROUGH",
        "streetNameDisplayText": "EAST AVE, SCARBOROUGH"
      }
    ]
  },
  {
    "postal": "M1C1Y5",
    "result": [
      {
        "electoralDistricts": [
          {
            "election": null,
            "id": 97,
            "name": "Scarborough—Rouge Park"
          }
        ],
        "pollDivisionIds": [
          10141751
        ],
        "postalCode": "M1C1Y5",
        "streetName": "PEPPER TREE",
        "streetDirectionId": null,
        "streetTypeId": "DR",
        "placeName": "SCARBOROUGH",
        "streetNameDisplayText": "PEPPER TREE DR, SCARBOROUGH"
      }
    ]
  },
  {
    "postal": "M1C6P6",
    "result": []
  },
  {
    "postal": "M1C3N9",
    "result": [
      {
        "electoralDistricts": [
          {
            "election": null,
            "id": 97,
            "name": "Scarborough—Rouge Park"
          }
        ],
        "pollDivisionIds": [
          10141753
        ],
        "postalCode": "M1C3N9",
        "streetName": "BLUE ANCHOR",
        "streetDirectionId": null,
        "streetTypeId": "TRAIL",
        "placeName": "SCARBOROUGH",
        "streetNameDisplayText": "BLUE ANCHOR TRAIL, SCARBOROUGH"
      }
    ]
  },
  {
    "postal": "M1C3W2",
    "result": [
      {
        "electoralDistricts": [
          {
            "election": null,
            "id": 97,
            "name": "Scarborough—Rouge Park"
          }
        ],
        "pollDivisionIds": [
          10141744
        ],
        "postalCode": "M1C3W2",
        "streetName": "CANMORE",
        "streetDirectionId": null,
        "streetTypeId": "BLVD",
        "placeName": "SCARBOROUGH",
        "streetNameDisplayText": "CANMORE BLVD, SCARBOROUGH"
      }
    ]
  },
  {
    "postal": "M1C6H8",
    "result": []
  },
  {
    "postal": "M1C9T3",
    "result": []
  },
  {
    "postal": "M1C5L9",
    "result": []
  },
  {
    "postal": "M1C7X7",
    "result": []
  },
  {
    "postal": "M1C3J5",
    "result": [
      {
        "electoralDistricts": [
          {
            "election": null,
            "id": 97,
            "name": "Scarborough—Rouge Park"
          }
        ],
        "pollDivisionIds": [
          10141752
        ],
        "postalCode": "M1C3J5",
        "streetName": "BARONIAL",
        "streetDirectionId": null,
        "streetTypeId": "CRT",
        "placeName": "SCARBOROUGH",
        "streetNameDisplayText": "BARONIAL CRT, SCARBOROUGH"
      }
    ]
  },
  {
    "postal": "M1C4J5",
    "result": [
      {
        "electoralDistricts": [
          {
            "election": null,
            "id": 97,
            "name": "Scarborough—Rouge Park"
          }
        ],
        "pollDivisionIds": [
          10141744
        ],
        "postalCode": "M1C4J5",
        "streetName": "PICTORIAL",
        "streetDirectionId": null,
        "streetTypeId": "ST",
        "placeName": "SCARBOROUGH",
        "streetNameDisplayText": "PICTORIAL ST, SCARBOROUGH"
      },
      {
        "electoralDistricts": [
          {
            "election": null,
            "id": 97,
            "name": "Scarborough—Rouge Park"
          }
        ],
        "pollDivisionIds": [
          10141744
        ],
        "postalCode": "M1C4J5",
        "streetName": "PONYMEADOW",
        "streetDirectionId": null,
        "streetTypeId": "TERR",
        "placeName": "SCARBOROUGH",
        "streetNameDisplayText": "PONYMEADOW TERR, SCARBOROUGH"
      }
    ]
  },
  {
    "postal": "M1C6J2",
    "result": []
  },
  {
    "postal": "M1C5V6",
    "result": []
  },
  {
    "postal": "M1C3N2",
    "result": [
      {
        "electoralDistricts": [
          {
            "election": null,
            "id": 97,
            "name": "Scarborough—Rouge Park"
          }
        ],
        "pollDivisionIds": [
          10141752
        ],
        "postalCode": "M1C3N2",
        "streetName": "WINTER GARDENS",
        "streetDirectionId": null,
        "streetTypeId": "TRAIL",
        "placeName": "SCARBOROUGH",
        "streetNameDisplayText": "WINTER GARDENS TRAIL, SCARBOROUGH"
      }
    ]
  },
  {
    "postal": "M1C3B1",
    "result": [
      {
        "electoralDistricts": [
          {
            "election": null,
            "id": 97,
            "name": "Scarborough—Rouge Park"
          }
        ],
        "pollDivisionIds": [
          10141753
        ],
        "postalCode": "M1C3B1",
        "streetName": "KIRKDENE",
        "streetDirectionId": null,
        "streetTypeId": "DR",
        "placeName": "SCARBOROUGH",
        "streetNameDisplayText": "KIRKDENE DR, SCARBOROUGH"
      }
    ]
  },
  {
    "postal": "M1C8B5",
    "result": []
  },
  {
    "postal": "M1C0K1",
    "result": []
  },
  {
    "postal": "M1C7M7",
    "result": []
  },
  {
    "postal": "M1C2M2",
    "result": [
      {
        "electoralDistricts": [
          {
            "election": null,
            "id": 97,
            "name": "Scarborough—Rouge Park"
          }
        ],
        "pollDivisionIds": [
          10141753
        ],
        "postalCode": "M1C2M2",
        "streetName": "RAVINE PARK",
        "streetDirectionId": null,
        "streetTypeId": "CRES",
        "placeName": "SCARBOROUGH",
        "streetNameDisplayText": "RAVINE PARK CRES, SCARBOROUGH"
      }
    ]
  },
  {
    "postal": "M1C9N3",
    "result": []
  },
  {
    "postal": "M1C4Y8",
    "result": [
      {
        "electoralDistricts": [
          {
            "election": null,
            "id": 97,
            "name": "Scarborough—Rouge Park"
          }
        ],
        "pollDivisionIds": [
          10141744
        ],
        "postalCode": "M1C4Y8",
        "streetName": "ELLESMERE",
        "streetDirectionId": null,
        "streetTypeId": "RD",
        "placeName": "SCARBOROUGH",
        "streetNameDisplayText": "ELLESMERE RD, SCARBOROUGH"
      }
    ]
  },
  {
    "postal": "M1C3V7",
    "result": [
      {
        "electoralDistricts": [
          {
            "election": null,
            "id": 97,
            "name": "Scarborough—Rouge Park"
          }
        ],
        "pollDivisionIds": [
          10141744
        ],
        "postalCode": "M1C3V7",
        "streetName": "CALVERLEY",
        "streetDirectionId": null,
        "streetTypeId": "TRAIL",
        "placeName": "SCARBOROUGH",
        "streetNameDisplayText": "CALVERLEY TRAIL, SCARBOROUGH"
      }
    ]
  },
  {
    "postal": "M1C8Z1",
    "result": []
  },
  {
    "postal": "M1C7B3",
    "result": []
  },
  {
    "postal": "M1C3A8",
    "result": [
      {
        "electoralDistricts": [
          {
            "election": null,
            "id": 97,
            "name": "Scarborough—Rouge Park"
          }
        ],
        "pollDivisionIds": [
          10141746
        ],
        "postalCode": "M1C3A8",
        "streetName": "MILITARY",
        "streetDirectionId": null,
        "streetTypeId": "TRAIL",
        "placeName": "SCARBOROUGH",
        "streetNameDisplayText": "MILITARY TRAIL, SCARBOROUGH"
      }
    ]
  },
  {
    "postal": "M1C7V5",
    "result": []
  },
  {
    "postal": "M1C2T2",
    "result": [
      {
        "electoralDistricts": [
          {
            "election": null,
            "id": 97,
            "name": "Scarborough—Rouge Park"
          }
        ],
        "pollDivisionIds": [
          10141751
        ],
        "postalCode": "M1C2T2",
        "streetName": "COCKBURN",
        "streetDirectionId": null,
        "streetTypeId": "DR",
        "placeName": "SCARBOROUGH",
        "streetNameDisplayText": "COCKBURN DR, SCARBOROUGH"
      }
    ]
  },
  {
    "postal": "M1C6L3",
    "result": []
  },
  {
    "postal": "M1C0L2",
    "result": []
  },
  {
    "postal": "M1C5Y8",
    "result": []
  },
  {
    "postal": "M1C0B8",
    "result": [
      {
        "electoralDistricts": [
          {
            "election": null,
            "id": 97,
            "name": "Scarborough—Rouge Park"
          }
        ],
        "pollDivisionIds": [
          10141745
        ],
        "postalCode": "M1C0B8",
        "streetName": "PYTHAGORAS",
        "streetDirectionId": null,
        "streetTypeId": "DR",
        "placeName": "SCARBOROUGH",
        "streetNameDisplayText": "PYTHAGORAS DR, SCARBOROUGH"
      }
    ]
  },
  {
    "postal": "M1C6R5",
    "result": []
  },
  {
    "postal": "M1C8W6",
    "result": []
  },
  {
    "postal": "M1C8G6",
    "result": []
  },
  {
    "postal": "M1C6X3",
    "result": []
  },
  {
    "postal": "M1C7R7",
    "result": []
  },
  {
    "postal": "M1C4B6",
    "result": [
      {
        "electoralDistricts": [
          {
            "election": null,
            "id": 97,
            "name": "Scarborough—Rouge Park"
          }
        ],
        "pollDivisionIds": [
          10141746
        ],
        "postalCode": "M1C4B6",
        "streetName": "MILROY",
        "streetDirectionId": null,
        "streetTypeId": "CRES",
        "placeName": "SCARBOROUGH",
        "streetNameDisplayText": "MILROY CRES, SCARBOROUGH"
      }
    ]
  },
  {
    "postal": "M1C3P9",
    "result": [
      {
        "electoralDistricts": [
          {
            "election": null,
            "id": 97,
            "name": "Scarborough—Rouge Park"
          }
        ],
        "pollDivisionIds": [
          10143252
        ],
        "postalCode": "M1C3P9",
        "streetName": "YULEWOOD",
        "streetDirectionId": null,
        "streetTypeId": "GATE",
        "placeName": "SCARBOROUGH",
        "streetNameDisplayText": "YULEWOOD GATE, SCARBOROUGH"
      }
    ]
  },
  {
    "postal": "M1C2T3",
    "result": [
      {
        "electoralDistricts": [
          {
            "election": null,
            "id": 97,
            "name": "Scarborough—Rouge Park"
          }
        ],
        "pollDivisionIds": [
          10143252
        ],
        "postalCode": "M1C2T3",
        "streetName": "D'ARCY MAGEE",
        "streetDirectionId": null,
        "streetTypeId": "CRES",
        "placeName": "SCARBOROUGH",
        "streetNameDisplayText": "D'ARCY MAGEE CRES, SCARBOROUGH"
      }
    ]
  },
  {
    "postal": "M1C1M4",
    "result": [
      {
        "electoralDistricts": [
          {
            "election": null,
            "id": 97,
            "name": "Scarborough—Rouge Park"
          }
        ],
        "pollDivisionIds": [
          10141744
        ],
        "postalCode": "M1C1M4",
        "streetName": "SCARBORO",
        "streetDirectionId": null,
        "streetTypeId": "AVE",
        "placeName": "SCARBOROUGH",
        "streetNameDisplayText": "SCARBORO AVE, SCARBOROUGH"
      }
    ]
  },
  {
    "postal": "M1C0H1",
    "result": []
  },
  {
    "postal": "M1C9W3",
    "result": []
  },
  {
    "postal": "M1C6P1",
    "result": []
  },
  {
    "postal": "M1C7G2",
    "result": []
  },
  {
    "postal": "M1C4J9",
    "result": [
      {
        "electoralDistricts": [
          {
            "election": null,
            "id": 97,
            "name": "Scarborough—Rouge Park"
          }
        ],
        "pollDivisionIds": [
          10141744
        ],
        "postalCode": "M1C4J9",
        "streetName": "HOUNDTRAIL",
        "streetDirectionId": null,
        "streetTypeId": "DR",
        "placeName": "SCARBOROUGH",
        "streetNameDisplayText": "HOUNDTRAIL DR, SCARBOROUGH"
      }
    ]
  },
  {
    "postal": "M1C9E4",
    "result": []
  },
  {
    "postal": "M1C8H0",
    "result": []
  },
  {
    "postal": "M1C4M7",
    "result": [
      {
        "electoralDistricts": [
          {
            "election": null,
            "id": 97,
            "name": "Scarborough—Rouge Park"
          }
        ],
        "pollDivisionIds": [
          10141754
        ],
        "postalCode": "M1C4M7",
        "streetName": "BLUEKING",
        "streetDirectionId": null,
        "streetTypeId": "CRES",
        "placeName": "SCARBOROUGH",
        "streetNameDisplayText": "BLUEKING CRES, SCARBOROUGH"
      }
    ]
  },
  {
    "postal": "M1C2G9",
    "result": [
      {
        "electoralDistricts": [
          {
            "election": null,
            "id": 97,
            "name": "Scarborough—Rouge Park"
          }
        ],
        "pollDivisionIds": [
          10141752
        ],
        "postalCode": "M1C2G9",
        "streetName": "CLAPPISON",
        "streetDirectionId": null,
        "streetTypeId": "BLVD",
        "placeName": "SCARBOROUGH",
        "streetNameDisplayText": "CLAPPISON BLVD, SCARBOROUGH"
      }
    ]
  },
  {
    "postal": "M1C8T2",
    "result": []
  },
  {
    "postal": "M1C7G7",
    "result": []
  },
  {
    "postal": "M1C4Z3",
    "result": [
      {
        "electoralDistricts": [
          {
            "election": null,
            "id": 97,
            "name": "Scarborough—Rouge Park"
          }
        ],
        "pollDivisionIds": [
          10141745
        ],
        "postalCode": "M1C4Z3",
        "streetName": "KINGSTON",
        "streetDirectionId": null,
        "streetTypeId": "RD",
        "placeName": "SCARBOROUGH",
        "streetNameDisplayText": "KINGSTON RD, SCARBOROUGH"
      }
    ]
  },
  {
    "postal": "M1C5B3",
    "result": [
      {
        "electoralDistricts": [
          {
            "election": null,
            "id": 97,
            "name": "Scarborough—Rouge Park"
          }
        ],
        "pollDivisionIds": [
          10141752
        ],
        "postalCode": "M1C5B3",
        "streetName": "ADENMORE",
        "streetDirectionId": null,
        "streetTypeId": "RD",
        "placeName": "SCARBOROUGH",
        "streetNameDisplayText": "ADENMORE RD, SCARBOROUGH"
      },
      {
        "electoralDistricts": [
          {
            "election": null,
            "id": 97,
            "name": "Scarborough—Rouge Park"
          }
        ],
        "pollDivisionIds": [
          10141752
        ],
        "postalCode": "M1C5B3",
        "streetName": "TRELLANOCK",
        "streetDirectionId": null,
        "streetTypeId": "AVE",
        "placeName": "SCARBOROUGH",
        "streetNameDisplayText": "TRELLANOCK AVE, SCARBOROUGH"
      }
    ]
  },
  {
    "postal": "M1C1S7",
    "result": [
      {
        "electoralDistricts": [
          {
            "election": null,
            "id": 97,
            "name": "Scarborough—Rouge Park"
          }
        ],
        "pollDivisionIds": [
          10141745
        ],
        "postalCode": "M1C1S7",
        "streetName": "MEADOWVALE",
        "streetDirectionId": null,
        "streetTypeId": "RD",
        "placeName": "SCARBOROUGH",
        "streetNameDisplayText": "MEADOWVALE RD, SCARBOROUGH"
      }
    ]
  },
  {
    "postal": "M1C2N7",
    "result": [
      {
        "electoralDistricts": [
          {
            "election": null,
            "id": 97,
            "name": "Scarborough—Rouge Park"
          }
        ],
        "pollDivisionIds": [
          10141753
        ],
        "postalCode": "M1C2N7",
        "streetName": "KIRKDENE",
        "streetDirectionId": null,
        "streetTypeId": "DR",
        "placeName": "SCARBOROUGH",
        "streetNameDisplayText": "KIRKDENE DR, SCARBOROUGH"
      }
    ]
  },
  {
    "postal": "M1C0H8",
    "result": []
  },
  {
    "postal": "M1C7Z4",
    "result": []
  },
  {
    "postal": "M1C7B1",
    "result": []
  },
  {
    "postal": "M1C7P8",
    "result": []
  },
  {
    "postal": "M1C7N0",
    "result": []
  },
  {
    "postal": "M1C3Y5",
    "result": [
      {
        "electoralDistricts": [
          {
            "election": null,
            "id": 97,
            "name": "Scarborough—Rouge Park"
          }
        ],
        "pollDivisionIds": [
          10141746
        ],
        "postalCode": "M1C3Y5",
        "streetName": "WINDRUSH",
        "streetDirectionId": null,
        "streetTypeId": "TRAIL",
        "placeName": "SCARBOROUGH",
        "streetNameDisplayText": "WINDRUSH TRAIL, SCARBOROUGH"
      }
    ]
  },
  {
    "postal": "M1C6K1",
    "result": []
  },
  {
    "postal": "M1C9X5",
    "result": []
  },
  {
    "postal": "M1C7S5",
    "result": []
  },
  {
    "postal": "M1C0A4",
    "result": [
      {
        "electoralDistricts": [
          {
            "election": null,
            "id": 97,
            "name": "Scarborough—Rouge Park"
          }
        ],
        "pollDivisionIds": [
          10141744
        ],
        "postalCode": "M1C0A4",
        "streetName": "COSENS",
        "streetDirectionId": null,
        "streetTypeId": "ST",
        "placeName": "SCARBOROUGH",
        "streetNameDisplayText": "COSENS ST, SCARBOROUGH"
      }
    ]
  },
  {
    "postal": "M1C4T5",
    "result": [
      {
        "electoralDistricts": [
          {
            "election": null,
            "id": 97,
            "name": "Scarborough—Rouge Park"
          }
        ],
        "pollDivisionIds": [
          10141745
        ],
        "postalCode": "M1C4T5",
        "streetName": "LAVERY",
        "streetDirectionId": null,
        "streetTypeId": "TRAIL",
        "placeName": "SCARBOROUGH",
        "streetNameDisplayText": "LAVERY TRAIL, SCARBOROUGH"
      }
    ]
  },
  {
    "postal": "M1C5K1",
    "result": [
      {
        "electoralDistricts": [
          {
            "election": null,
            "id": 97,
            "name": "Scarborough—Rouge Park"
          }
        ],
        "pollDivisionIds": [
          10141744
        ],
        "postalCode": "M1C5K1",
        "streetName": "STARFIRE",
        "streetDirectionId": null,
        "streetTypeId": "DR",
        "placeName": "SCARBOROUGH",
        "streetNameDisplayText": "STARFIRE DR, SCARBOROUGH"
      }
    ]
  },
  {
    "postal": "M1C0Z9",
    "result": []
  },
  {
    "postal": "M1C7T2",
    "result": []
  },
  {
    "postal": "M1C1L5",
    "result": [
      {
        "electoralDistricts": [
          {
            "election": null,
            "id": 97,
            "name": "Scarborough—Rouge Park"
          }
        ],
        "pollDivisionIds": [
          10141745
        ],
        "postalCode": "M1C1L5",
        "streetName": "KINGSTON",
        "streetDirectionId": null,
        "streetTypeId": "RD",
        "placeName": "SCARBOROUGH",
        "streetNameDisplayText": "KINGSTON RD, SCARBOROUGH"
      }
    ]
  },
  {
    "postal": "M1C3N5",
    "result": [
      {
        "electoralDistricts": [
          {
            "election": null,
            "id": 97,
            "name": "Scarborough—Rouge Park"
          }
        ],
        "pollDivisionIds": [
          10141752
        ],
        "postalCode": "M1C3N5",
        "streetName": "GOLDERS GREEN",
        "streetDirectionId": null,
        "streetTypeId": "AVE",
        "placeName": "SCARBOROUGH",
        "streetNameDisplayText": "GOLDERS GREEN AVE, SCARBOROUGH"
      }
    ]
  },
  {
    "postal": "M1C6H4",
    "result": []
  },
  {
    "postal": "M1C5A5",
    "result": [
      {
        "electoralDistricts": [
          {
            "election": null,
            "id": 97,
            "name": "Scarborough—Rouge Park"
          }
        ],
        "pollDivisionIds": [
          10141745
        ],
        "postalCode": "M1C5A5",
        "streetName": "DEVONRIDGE",
        "streetDirectionId": null,
        "streetTypeId": "CRES",
        "placeName": "SCARBOROUGH",
        "streetNameDisplayText": "DEVONRIDGE CRES, SCARBOROUGH"
      },
      {
        "electoralDistricts": [
          {
            "election": null,
            "id": 97,
            "name": "Scarborough—Rouge Park"
          }
        ],
        "pollDivisionIds": [
          10141745
        ],
        "postalCode": "M1C5A5",
        "streetName": "MAPLELEA",
        "streetDirectionId": null,
        "streetTypeId": "RD",
        "placeName": "SCARBOROUGH",
        "streetNameDisplayText": "MAPLELEA RD, SCARBOROUGH"
      }
    ]
  },
  {
    "postal": "M1C3R9",
    "result": [
      {
        "electoralDistricts": [
          {
            "election": null,
            "id": 97,
            "name": "Scarborough—Rouge Park"
          }
        ],
        "pollDivisionIds": [
          10141744
        ],
        "postalCode": "M1C3R9",
        "streetName": "GRANTOWN",
        "streetDirectionId": null,
        "streetTypeId": "AVE",
        "placeName": "SCARBOROUGH",
        "streetNameDisplayText": "GRANTOWN AVE, SCARBOROUGH"
      }
    ]
  },
  {
    "postal": "M1C7L8",
    "result": []
  },
  {
    "postal": "M1C6T6",
    "result": []
  },
  {
    "postal": "M1C7Y7",
    "result": []
  },
  {
    "postal": "M1C3M8",
    "result": [
      {
        "electoralDistricts": [
          {
            "election": null,
            "id": 97,
            "name": "Scarborough—Rouge Park"
          }
        ],
        "pollDivisionIds": [
          10141752
        ],
        "postalCode": "M1C3M8",
        "streetName": "WINTER GARDENS",
        "streetDirectionId": null,
        "streetTypeId": "TRAIL",
        "placeName": "SCARBOROUGH",
        "streetNameDisplayText": "WINTER GARDENS TRAIL, SCARBOROUGH"
      }
    ]
  },
  {
    "postal": "M1C2E0",
    "result": []
  },
  {
    "postal": "M1C4B5",
    "result": [
      {
        "electoralDistricts": [
          {
            "election": null,
            "id": 97,
            "name": "Scarborough—Rouge Park"
          }
        ],
        "pollDivisionIds": [
          10141744
        ],
        "postalCode": "M1C4B5",
        "streetName": "CANMORE",
        "streetDirectionId": null,
        "streetTypeId": "BLVD",
        "placeName": "SCARBOROUGH",
        "streetNameDisplayText": "CANMORE BLVD, SCARBOROUGH"
      }
    ]
  },
  {
    "postal": "M1C1J3",
    "result": [
      {
        "electoralDistricts": [
          {
            "election": null,
            "id": 97,
            "name": "Scarborough—Rouge Park"
          }
        ],
        "pollDivisionIds": [
          10141745
        ],
        "postalCode": "M1C1J3",
        "streetName": "ELLESMERE",
        "streetDirectionId": null,
        "streetTypeId": "RD",
        "placeName": "SCARBOROUGH",
        "streetNameDisplayText": "ELLESMERE RD, SCARBOROUGH"
      }
    ]
  },
  {
    "postal": "M1C5S6",
    "result": []
  },
  {
    "postal": "M1C8P7",
    "result": []
  },
  {
    "postal": "M1C7S7",
    "result": []
  },
  {
    "postal": "M1C4C2",
    "result": []
  },
  {
    "postal": "M1C5Y0",
    "result": []
  },
  {
    "postal": "M1C2V7",
    "result": [
      {
        "electoralDistricts": [
          {
            "election": null,
            "id": 97,
            "name": "Scarborough—Rouge Park"
          }
        ],
        "pollDivisionIds": [
          10141753
        ],
        "postalCode": "M1C2V7",
        "streetName": "ROUGE HIGHLANDS",
        "streetDirectionId": null,
        "streetTypeId": "DR",
        "placeName": "SCARBOROUGH",
        "streetNameDisplayText": "ROUGE HIGHLANDS DR, SCARBOROUGH"
      }
    ]
  },
  {
    "postal": "M1C8P5",
    "result": []
  },
  {
    "postal": "M1C5P5",
    "result": []
  },
  {
    "postal": "M1C5Z0",
    "result": []
  },
  {
    "postal": "M1C9B0",
    "result": []
  },
  {
    "postal": "M1C1L0",
    "result": []
  },
  {
    "postal": "M1C0B5",
    "result": [
      {
        "electoralDistricts": [
          {
            "election": null,
            "id": 97,
            "name": "Scarborough—Rouge Park"
          }
        ],
        "pollDivisionIds": [
          10141745
        ],
        "postalCode": "M1C0B5",
        "streetName": "ARCHIMEDES",
        "streetDirectionId": null,
        "streetTypeId": "CRT",
        "placeName": "SCARBOROUGH",
        "streetNameDisplayText": "ARCHIMEDES CRT, SCARBOROUGH"
      }
    ]
  },
  {
    "postal": "M1C3L2",
    "result": [
      {
        "electoralDistricts": [
          {
            "election": null,
            "id": 97,
            "name": "Scarborough—Rouge Park"
          }
        ],
        "pollDivisionIds": [
          10141745
        ],
        "postalCode": "M1C3L2",
        "streetName": "KINGSTON",
        "streetDirectionId": null,
        "streetTypeId": "RD",
        "placeName": "SCARBOROUGH",
        "streetNameDisplayText": "KINGSTON RD, SCARBOROUGH"
      }
    ]
  },
  {
    "postal": "M1C3B7",
    "result": [
      {
        "electoralDistricts": [
          {
            "election": null,
            "id": 97,
            "name": "Scarborough—Rouge Park"
          }
        ],
        "pollDivisionIds": [
          10141751
        ],
        "postalCode": "M1C3B7",
        "streetName": "FEAGAN",
        "streetDirectionId": null,
        "streetTypeId": "DR",
        "placeName": "SCARBOROUGH",
        "streetNameDisplayText": "FEAGAN DR, SCARBOROUGH"
      }
    ]
  },
  {
    "postal": "M1C8L1",
    "result": []
  },
  {
    "postal": "M1C5M4",
    "result": []
  },
  {
    "postal": "M1C4G9",
    "result": [
      {
        "electoralDistricts": [
          {
            "election": null,
            "id": 97,
            "name": "Scarborough—Rouge Park"
          }
        ],
        "pollDivisionIds": [
          10143252
        ],
        "postalCode": "M1C4G9",
        "streetName": "GOLD BROOK",
        "streetDirectionId": null,
        "streetTypeId": "GATE",
        "placeName": "SCARBOROUGH",
        "streetNameDisplayText": "GOLD BROOK GATE, SCARBOROUGH"
      }
    ]
  },
  {
    "postal": "M1C0P0",
    "result": []
  },
  {
    "postal": "M1C8G2",
    "result": []
  },
  {
    "postal": "M1C1V9",
    "result": [
      {
        "electoralDistricts": [
          {
            "election": null,
            "id": 97,
            "name": "Scarborough—Rouge Park"
          }
        ],
        "pollDivisionIds": [
          10141751
        ],
        "postalCode": "M1C1V9",
        "streetName": "HOLMCREST",
        "streetDirectionId": null,
        "streetTypeId": "TRAIL",
        "placeName": "SCARBOROUGH",
        "streetNameDisplayText": "HOLMCREST TRAIL, SCARBOROUGH"
      }
    ]
  },
  {
    "postal": "M1C8N8",
    "result": []
  },
  {
    "postal": "M1C6S8",
    "result": []
  },
  {
    "postal": "M1C8H2",
    "result": []
  },
  {
    "postal": "M1C5R8",
    "result": []
  },
  {
    "postal": "M1C5L4",
    "result": []
  },
  {
    "postal": "M1C9E1",
    "result": []
  },
  {
    "postal": "M1C1C4",
    "result": [
      {
        "electoralDistricts": [
          {
            "election": null,
            "id": 97,
            "name": "Scarborough—Rouge Park"
          }
        ],
        "pollDivisionIds": [
          10141744
        ],
        "postalCode": "M1C1C4",
        "streetName": "CONLINS",
        "streetDirectionId": null,
        "streetTypeId": "RD",
        "placeName": "SCARBOROUGH",
        "streetNameDisplayText": "CONLINS RD, SCARBOROUGH"
      }
    ]
  },
  {
    "postal": "M1C8W5",
    "result": []
  },
  {
    "postal": "M1C1Y4",
    "result": [
      {
        "electoralDistricts": [
          {
            "election": null,
            "id": 97,
            "name": "Scarborough—Rouge Park"
          }
        ],
        "pollDivisionIds": [
          10141751
        ],
        "postalCode": "M1C1Y4",
        "streetName": "DUNHILL",
        "streetDirectionId": null,
        "streetTypeId": "ST",
        "placeName": "SCARBOROUGH",
        "streetNameDisplayText": "DUNHILL ST, SCARBOROUGH"
      }
    ]
  },
  {
    "postal": "M1C1C0",
    "result": []
  },
  {
    "postal": "M1C2J2",
    "result": [
      {
        "electoralDistricts": [
          {
            "election": null,
            "id": 97,
            "name": "Scarborough—Rouge Park"
          }
        ],
        "pollDivisionIds": [
          10143252
        ],
        "postalCode": "M1C2J2",
        "streetName": "LAWSON",
        "streetDirectionId": null,
        "streetTypeId": "RD",
        "placeName": "SCARBOROUGH",
        "streetNameDisplayText": "LAWSON RD, SCARBOROUGH"
      }
    ]
  },
  {
    "postal": "M1C2J0",
    "result": []
  },
  {
    "postal": "M1C7A3",
    "result": []
  },
  {
    "postal": "M1C8M1",
    "result": []
  },
  {
    "postal": "M1C7T9",
    "result": []
  },
  {
    "postal": "M1C6C0",
    "result": []
  },
  {
    "postal": "M1C7X1",
    "result": []
  },
  {
    "postal": "M1C0G1",
    "result": []
  },
  {
    "postal": "M1C4X2",
    "result": [
      {
        "electoralDistricts": [
          {
            "election": null,
            "id": 97,
            "name": "Scarborough—Rouge Park"
          }
        ],
        "pollDivisionIds": [
          10141745
        ],
        "postalCode": "M1C4X2",
        "streetName": "DALMATIAN",
        "streetDirectionId": null,
        "streetTypeId": "CRES",
        "placeName": "SCARBOROUGH",
        "streetNameDisplayText": "DALMATIAN CRES, SCARBOROUGH"
      },
      {
        "electoralDistricts": [
          {
            "election": null,
            "id": 97,
            "name": "Scarborough—Rouge Park"
          }
        ],
        "pollDivisionIds": [
          10141745
        ],
        "postalCode": "M1C4X2",
        "streetName": "WINDING",
        "streetDirectionId": null,
        "streetTypeId": "CRT",
        "placeName": "SCARBOROUGH",
        "streetNameDisplayText": "WINDING CRT, SCARBOROUGH"
      }
    ]
  },
  {
    "postal": "M1C0N6",
    "result": []
  },
  {
    "postal": "M1C8E3",
    "result": []
  },
  {
    "postal": "M1C5S8",
    "result": []
  },
  {
    "postal": "M1C0R0",
    "result": []
  },
  {
    "postal": "M1C6J6",
    "result": []
  },
  {
    "postal": "M1C4B4",
    "result": [
      {
        "electoralDistricts": [
          {
            "election": null,
            "id": 97,
            "name": "Scarborough—Rouge Park"
          }
        ],
        "pollDivisionIds": [
          10143252
        ],
        "postalCode": "M1C4B4",
        "streetName": "GOLD BROOK",
        "streetDirectionId": null,
        "streetTypeId": "GATE",
        "placeName": "SCARBOROUGH",
        "streetNameDisplayText": "GOLD BROOK GATE, SCARBOROUGH"
      }
    ]
  },
  {
    "postal": "M1C7E3",
    "result": []
  },
  {
    "postal": "M1C3N6",
    "result": [
      {
        "electoralDistricts": [
          {
            "election": null,
            "id": 97,
            "name": "Scarborough—Rouge Park"
          }
        ],
        "pollDivisionIds": [
          10141752
        ],
        "postalCode": "M1C3N6",
        "streetName": "GRANDHALL",
        "streetDirectionId": null,
        "streetTypeId": "CRT",
        "placeName": "SCARBOROUGH",
        "streetNameDisplayText": "GRANDHALL CRT, SCARBOROUGH"
      }
    ]
  },
  {
    "postal": "M1C3X6",
    "result": [
      {
        "electoralDistricts": [
          {
            "election": null,
            "id": 97,
            "name": "Scarborough—Rouge Park"
          }
        ],
        "pollDivisionIds": [
          10143252
        ],
        "postalCode": "M1C3X6",
        "streetName": "LINDERWOOD",
        "streetDirectionId": null,
        "streetTypeId": "DR",
        "placeName": "SCARBOROUGH",
        "streetNameDisplayText": "LINDERWOOD DR, SCARBOROUGH"
      }
    ]
  },
  {
    "postal": "M1C8L0",
    "result": []
  },
  {
    "postal": "M1C8N1",
    "result": []
  },
  {
    "postal": "M1C4J0",
    "result": []
  },
  {
    "postal": "M1C0X7",
    "result": []
  },
  {
    "postal": "M1C6S4",
    "result": []
  },
  {
    "postal": "M1C0Z0",
    "result": []
  },
  {
    "postal": "M1C9X8",
    "result": []
  },
  {
    "postal": "M1C3H3",
    "result": [
      {
        "electoralDistricts": [
          {
            "election": null,
            "id": 97,
            "name": "Scarborough—Rouge Park"
          }
        ],
        "pollDivisionIds": [
          10141751
        ],
        "postalCode": "M1C3H3",
        "streetName": "GOLDBERRY",
        "streetDirectionId": null,
        "streetTypeId": "SQ",
        "placeName": "SCARBOROUGH",
        "streetNameDisplayText": "GOLDBERRY SQ, SCARBOROUGH"
      }
    ]
  },
  {
    "postal": "M1C7S2",
    "result": []
  },
  {
    "postal": "M1C3T3",
    "result": [
      {
        "electoralDistricts": [
          {
            "election": null,
            "id": 97,
            "name": "Scarborough—Rouge Park"
          }
        ],
        "pollDivisionIds": [
          10141744
        ],
        "postalCode": "M1C3T3",
        "streetName": "CANMORE",
        "streetDirectionId": null,
        "streetTypeId": "BLVD",
        "placeName": "SCARBOROUGH",
        "streetNameDisplayText": "CANMORE BLVD, SCARBOROUGH"
      }
    ]
  },
  {
    "postal": "M1C9P3",
    "result": []
  },
  {
    "postal": "M1C4H8",
    "result": [
      {
        "electoralDistricts": [
          {
            "election": null,
            "id": 97,
            "name": "Scarborough—Rouge Park"
          }
        ],
        "pollDivisionIds": [
          10141744
        ],
        "postalCode": "M1C4H8",
        "streetName": "PONYMEADOW",
        "streetDirectionId": null,
        "streetTypeId": "TERR",
        "placeName": "SCARBOROUGH",
        "streetNameDisplayText": "PONYMEADOW TERR, SCARBOROUGH"
      }
    ]
  },
  {
    "postal": "M1C6R1",
    "result": []
  },
  {
    "postal": "M1C1S0",
    "result": []
  },
  {
    "postal": "M1C3W8",
    "result": [
      {
        "electoralDistricts": [
          {
            "election": null,
            "id": 97,
            "name": "Scarborough—Rouge Park"
          }
        ],
        "pollDivisionIds": [
          10141744
        ],
        "postalCode": "M1C3W8",
        "streetName": "GOOD",
        "streetDirectionId": null,
        "streetTypeId": "RD",
        "placeName": "SCARBOROUGH",
        "streetNameDisplayText": "GOOD RD, SCARBOROUGH"
      }
    ]
  },
  {
    "postal": "M1C4S3",
    "result": [
      {
        "electoralDistricts": [
          {
            "election": null,
            "id": 97,
            "name": "Scarborough—Rouge Park"
          }
        ],
        "pollDivisionIds": [
          10141745
        ],
        "postalCode": "M1C4S3",
        "streetName": "ORLEANS",
        "streetDirectionId": null,
        "streetTypeId": "DR",
        "placeName": "SCARBOROUGH",
        "streetNameDisplayText": "ORLEANS DR, SCARBOROUGH"
      }
    ]
  },
  {
    "postal": "M1C1B6",
    "result": [
      {
        "electoralDistricts": [
          {
            "election": null,
            "id": 97,
            "name": "Scarborough—Rouge Park"
          }
        ],
        "pollDivisionIds": [
          10141746
        ],
        "postalCode": "M1C1B6",
        "streetName": "OLD KINGSTON",
        "streetDirectionId": null,
        "streetTypeId": "RD",
        "placeName": "SCARBOROUGH",
        "streetNameDisplayText": "OLD KINGSTON RD, SCARBOROUGH"
      }
    ]
  },
  {
    "postal": "M1C8R3",
    "result": []
  },
  {
    "postal": "M1C4V9",
    "result": [
      {
        "electoralDistricts": [
          {
            "election": null,
            "id": 97,
            "name": "Scarborough—Rouge Park"
          }
        ],
        "pollDivisionIds": [
          10141744
        ],
        "postalCode": "M1C4V9",
        "streetName": "GROVER",
        "streetDirectionId": null,
        "streetTypeId": "DR",
        "placeName": "SCARBOROUGH",
        "streetNameDisplayText": "GROVER DR, SCARBOROUGH"
      }
    ]
  },
  {
    "postal": "M1C9W4",
    "result": []
  },
  {
    "postal": "M1C3T4",
    "result": [
      {
        "electoralDistricts": [
          {
            "election": null,
            "id": 97,
            "name": "Scarborough—Rouge Park"
          }
        ],
        "pollDivisionIds": [
          10141744
        ],
        "postalCode": "M1C3T4",
        "streetName": "PARADE",
        "streetDirectionId": null,
        "streetTypeId": "SQ",
        "placeName": "SCARBOROUGH",
        "streetNameDisplayText": "PARADE SQ, SCARBOROUGH"
      }
    ]
  },
  {
    "postal": "M1C5C7",
    "result": [
      {
        "electoralDistricts": [
          {
            "election": null,
            "id": 97,
            "name": "Scarborough—Rouge Park"
          }
        ],
        "pollDivisionIds": [
          10141752
        ],
        "postalCode": "M1C5C7",
        "streetName": "LAWRENCE",
        "streetDirectionId": "E",
        "streetTypeId": "AVE",
        "placeName": "SCARBOROUGH",
        "streetNameDisplayText": "LAWRENCE AVE E, SCARBOROUGH"
      }
    ]
  },
  {
    "postal": "M1C3Y1",
    "result": [
      {
        "electoralDistricts": [
          {
            "election": null,
            "id": 97,
            "name": "Scarborough—Rouge Park"
          }
        ],
        "pollDivisionIds": [
          10141752
        ],
        "postalCode": "M1C3Y1",
        "streetName": "MABERLEY",
        "streetDirectionId": null,
        "streetTypeId": "CRES",
        "placeName": "SCARBOROUGH",
        "streetNameDisplayText": "MABERLEY CRES, SCARBOROUGH"
      }
    ]
  },
  {
    "postal": "M1C5V0",
    "result": []
  },
  {
    "postal": "M1C8G8",
    "result": []
  },
  {
    "postal": "M1C8B1",
    "result": []
  },
  {
    "postal": "M1C4P5",
    "result": [
      {
        "electoralDistricts": [
          {
            "election": null,
            "id": 97,
            "name": "Scarborough—Rouge Park"
          }
        ],
        "pollDivisionIds": [
          10141754
        ],
        "postalCode": "M1C4P5",
        "streetName": "STARSPRAY",
        "streetDirectionId": null,
        "streetTypeId": "BLVD",
        "placeName": "SCARBOROUGH",
        "streetNameDisplayText": "STARSPRAY BLVD, SCARBOROUGH"
      }
    ]
  },
  {
    "postal": "M1C7B2",
    "result": []
  },
  {
    "postal": "M1C0R2",
    "result": []
  },
  {
    "postal": "M1C4M4",
    "result": [
      {
        "electoralDistricts": [
          {
            "election": null,
            "id": 97,
            "name": "Scarborough—Rouge Park"
          }
        ],
        "pollDivisionIds": [
          10141754
        ],
        "postalCode": "M1C4M4",
        "streetName": "BIRDSILVER",
        "streetDirectionId": null,
        "streetTypeId": "GDNS",
        "placeName": "SCARBOROUGH",
        "streetNameDisplayText": "BIRDSILVER GDNS, SCARBOROUGH"
      },
      {
        "electoralDistricts": [
          {
            "election": null,
            "id": 97,
            "name": "Scarborough—Rouge Park"
          }
        ],
        "pollDivisionIds": [
          10141754
        ],
        "postalCode": "M1C4M4",
        "streetName": "CLEARLAKE",
        "streetDirectionId": null,
        "streetTypeId": "AVE",
        "placeName": "SCARBOROUGH",
        "streetNameDisplayText": "CLEARLAKE AVE, SCARBOROUGH"
      }
    ]
  },
  {
    "postal": "M1C7M4",
    "result": []
  },
  {
    "postal": "M1C9S7",
    "result": []
  },
  {
    "postal": "M1C5Z7",
    "result": []
  },
  {
    "postal": "M1C7J7",
    "result": []
  },
  {
    "postal": "M1C8R8",
    "result": []
  },
  {
    "postal": "M1C9X1",
    "result": []
  },
  {
    "postal": "M1C5M9",
    "result": []
  },
  {
    "postal": "M1C9B4",
    "result": []
  },
  {
    "postal": "M1C0L9",
    "result": []
  },
  {
    "postal": "M1C9G4",
    "result": []
  },
  {
    "postal": "M1C1J4",
    "result": [
      {
        "electoralDistricts": [
          {
            "election": null,
            "id": 97,
            "name": "Scarborough—Rouge Park"
          }
        ],
        "pollDivisionIds": [
          10141744
        ],
        "postalCode": "M1C1J4",
        "streetName": "WILLOWLEA",
        "streetDirectionId": null,
        "streetTypeId": "DR",
        "placeName": "SCARBOROUGH",
        "streetNameDisplayText": "WILLOWLEA DR, SCARBOROUGH"
      }
    ]
  },
  {
    "postal": "M1C0W6",
    "result": []
  }
]
