[
  {
    "postal": "M4L9J6",
    "result": []
  },
  {
    "postal": "M4L9Z5",
    "result": []
  },
  {
    "postal": "M4L7H8",
    "result": []
  },
  {
    "postal": "M4L0P6",
    "result": []
  },
  {
    "postal": "M4L0S7",
    "result": []
  },
  {
    "postal": "M4L8B9",
    "result": []
  },
  {
    "postal": "M4L2A6",
    "result": [
      {
        "electoralDistricts": [
          {
            "election": null,
            "id": 7,
            "name": "Beaches—East York"
          }
        ],
        "pollDivisionIds": [
          10137049
        ],
        "postalCode": "M4L2A6",
        "streetName": "GERRARD",
        "streetDirectionId": "E",
        "streetTypeId": "ST",
        "placeName": "TORONTO",
        "streetNameDisplayText": "GERRARD ST E, TORONTO"
      }
    ]
  },
  {
    "postal": "M4L7V2",
    "result": []
  },
  {
    "postal": "M4L9P4",
    "result": []
  },
  {
    "postal": "M4L6G0",
    "result": []
  },
  {
    "postal": "M4L2K0",
    "result": []
  },
  {
    "postal": "M4L7N6",
    "result": []
  },
  {
    "postal": "M4L5R3",
    "result": []
  },
  {
    "postal": "M4L7K0",
    "result": []
  },
  {
    "postal": "M4L3R2",
    "result": [
      {
        "electoralDistricts": [
          {
            "election": null,
            "id": 111,
            "name": "Toronto—St. Paul's"
          },
          {
            "election": null,
            "id": 7,
            "name": "Beaches—East York"
          }
        ],
        "pollDivisionIds": [
          10136028,
          10137054
        ],
        "postalCode": "M4L3R2",
        "streetName": "HASLETT",
        "streetDirectionId": null,
        "streetTypeId": "AVE",
        "placeName": "TORONTO",
        "streetNameDisplayText": "HASLETT AVE, TORONTO"
      }
    ]
  },
  {
    "postal": "M4L0J1",
    "result": []
  },
  {
    "postal": "M4L0B0",
    "result": []
  },
  {
    "postal": "M4L5Z2",
    "result": []
  },
  {
    "postal": "M4L7P3",
    "result": []
  },
  {
    "postal": "M4L2K3",
    "result": [
      {
        "electoralDistricts": [
          {
            "election": null,
            "id": 7,
            "name": "Beaches—East York"
          }
        ],
        "pollDivisionIds": [
          10137049
        ],
        "postalCode": "M4L2K3",
        "streetName": "CASCI",
        "streetDirectionId": null,
        "streetTypeId": "AVE",
        "placeName": "TORONTO",
        "streetNameDisplayText": "CASCI AVE, TORONTO"
      }
    ]
  },
  {
    "postal": "M4L7Y6",
    "result": []
  },
  {
    "postal": "M4L1L9",
    "result": [
      {
        "electoralDistricts": [
          {
            "election": null,
            "id": 110,
            "name": "Toronto—Danforth"
          }
        ],
        "pollDivisionIds": [
          10142524
        ],
        "postalCode": "M4L1L9",
        "streetName": "DUNDAS",
        "streetDirectionId": "E",
        "streetTypeId": "ST",
        "placeName": "TORONTO",
        "streetNameDisplayText": "DUNDAS ST E, TORONTO"
      }
    ]
  },
  {
    "postal": "M4L8T0",
    "result": []
  },
  {
    "postal": "M4L3K8",
    "result": [
      {
        "electoralDistricts": [
          {
            "election": null,
            "id": 7,
            "name": "Beaches—East York"
          }
        ],
        "pollDivisionIds": [
          10137049
        ],
        "postalCode": "M4L3K8",
        "streetName": "LADYKIRK",
        "streetDirectionId": null,
        "streetTypeId": "AVE",
        "placeName": "TORONTO",
        "streetNameDisplayText": "LADYKIRK AVE, TORONTO"
      }
    ]
  },
  {
    "postal": "M4L5W9",
    "result": []
  },
  {
    "postal": "M4L6T9",
    "result": []
  },
  {
    "postal": "M4L4H1",
    "result": []
  },
  {
    "postal": "M4L7A2",
    "result": []
  },
  {
    "postal": "M4L5G0",
    "result": []
  },
  {
    "postal": "M4L8V5",
    "result": []
  },
  {
    "postal": "M4L2Y8",
    "result": [
      {
        "electoralDistricts": [
          {
            "election": null,
            "id": 7,
            "name": "Beaches—East York"
          }
        ],
        "pollDivisionIds": [
          10137052
        ],
        "postalCode": "M4L2Y8",
        "streetName": "ASHDALE",
        "streetDirectionId": null,
        "streetTypeId": "AV",
        "placeName": "TORONTO",
        "streetNameDisplayText": "ASHDALE AV, TORONTO"
      },
      {
        "electoralDistricts": [
          {
            "election": null,
            "id": 110,
            "name": "Toronto—Danforth"
          }
        ],
        "pollDivisionIds": [
          10142518
        ],
        "postalCode": "M4L2Y8",
        "streetName": "ASHDALE",
        "streetDirectionId": null,
        "streetTypeId": "AVE",
        "placeName": "TORONTO",
        "streetNameDisplayText": "ASHDALE AVE, TORONTO"
      }
    ]
  },
  {
    "postal": "M4L2B6",
    "result": [
      {
        "electoralDistricts": [
          {
            "election": null,
            "id": 7,
            "name": "Beaches—East York"
          }
        ],
        "pollDivisionIds": [
          10137049
        ],
        "postalCode": "M4L2B6",
        "streetName": "GERRARD",
        "streetDirectionId": "E",
        "streetTypeId": "ST",
        "placeName": "TORONTO",
        "streetNameDisplayText": "GERRARD ST E, TORONTO"
      }
    ]
  },
  {
    "postal": "M4L4W8",
    "result": []
  },
  {
    "postal": "M4L8H7",
    "result": []
  },
  {
    "postal": "M4L5P1",
    "result": []
  },
  {
    "postal": "M4L2B8",
    "result": [
      {
        "electoralDistricts": [
          {
            "election": null,
            "id": 7,
            "name": "Beaches—East York"
          }
        ],
        "pollDivisionIds": [
          10137049
        ],
        "postalCode": "M4L2B8",
        "streetName": "GERRARD",
        "streetDirectionId": "E",
        "streetTypeId": "ST",
        "placeName": "TORONTO",
        "streetNameDisplayText": "GERRARD ST E, TORONTO"
      }
    ]
  },
  {
    "postal": "M4L0P2",
    "result": []
  },
  {
    "postal": "M4L9M1",
    "result": []
  },
  {
    "postal": "M4L3G0",
    "result": []
  },
  {
    "postal": "M4L9Z2",
    "result": []
  },
  {
    "postal": "M4L2A0",
    "result": []
  },
  {
    "postal": "M4L6Y0",
    "result": []
  },
  {
    "postal": "M4L2Z8",
    "result": [
      {
        "electoralDistricts": [
          {
            "election": null,
            "id": 110,
            "name": "Toronto—Danforth"
          }
        ],
        "pollDivisionIds": [
          10142524
        ],
        "postalCode": "M4L2Z8",
        "streetName": "RHODES",
        "streetDirectionId": null,
        "streetTypeId": "AVE",
        "placeName": "TORONTO",
        "streetNameDisplayText": "RHODES AVE, TORONTO"
      }
    ]
  },
  {
    "postal": "M4L7Y3",
    "result": []
  },
  {
    "postal": "M4L6Z5",
    "result": []
  },
  {
    "postal": "M4L6E0",
    "result": []
  },
  {
    "postal": "M4L9B7",
    "result": []
  },
  {
    "postal": "M4L9S5",
    "result": []
  },
  {
    "postal": "M4L3X3",
    "result": [
      {
        "electoralDistricts": [
          {
            "election": null,
            "id": 7,
            "name": "Beaches—East York"
          }
        ],
        "pollDivisionIds": [
          10137052
        ],
        "postalCode": "M4L3X3",
        "streetName": "FITZGERALD",
        "streetDirectionId": null,
        "streetTypeId": "MEWS",
        "placeName": "TORONTO",
        "streetNameDisplayText": "FITZGERALD MEWS, TORONTO"
      }
    ]
  },
  {
    "postal": "M4L7R5",
    "result": []
  },
  {
    "postal": "M4L2X3",
    "result": [
      {
        "electoralDistricts": [
          {
            "election": null,
            "id": 110,
            "name": "Toronto—Danforth"
          }
        ],
        "pollDivisionIds": [
          10142515
        ],
        "postalCode": "M4L2X3",
        "streetName": "WOODFIELD",
        "streetDirectionId": null,
        "streetTypeId": "RD",
        "placeName": "TORONTO",
        "streetNameDisplayText": "WOODFIELD RD, TORONTO"
      }
    ]
  },
  {
    "postal": "M4L8Z9",
    "result": []
  },
  {
    "postal": "M4L0N4",
    "result": []
  },
  {
    "postal": "M4L1K1",
    "result": [
      {
        "electoralDistricts": [
          {
            "election": null,
            "id": 7,
            "name": "Beaches—East York"
          }
        ],
        "pollDivisionIds": [
          10137056
        ],
        "postalCode": "M4L1K1",
        "streetName": "ASHLAND",
        "streetDirectionId": null,
        "streetTypeId": "AVE",
        "placeName": "TORONTO",
        "streetNameDisplayText": "ASHLAND AVE, TORONTO"
      }
    ]
  },
  {
    "postal": "M4L1S3",
    "result": [
      {
        "electoralDistricts": [
          {
            "election": null,
            "id": 7,
            "name": "Beaches—East York"
          }
        ],
        "pollDivisionIds": [
          10137058
        ],
        "postalCode": "M4L1S3",
        "streetName": "JUNIPER",
        "streetDirectionId": null,
        "streetTypeId": "AVE",
        "placeName": "TORONTO",
        "streetNameDisplayText": "JUNIPER AVE, TORONTO"
      }
    ]
  },
  {
    "postal": "M4L6M4",
    "result": []
  },
  {
    "postal": "M4L9A9",
    "result": []
  },
  {
    "postal": "M4L9Z9",
    "result": []
  },
  {
    "postal": "M4L6T4",
    "result": []
  },
  {
    "postal": "M4L0B2",
    "result": []
  },
  {
    "postal": "M4L2L9",
    "result": [
      {
        "electoralDistricts": [
          {
            "election": null,
            "id": 110,
            "name": "Toronto—Danforth"
          }
        ],
        "pollDivisionIds": [
          10142517
        ],
        "postalCode": "M4L2L9",
        "streetName": "HASTINGS",
        "streetDirectionId": null,
        "streetTypeId": "AVE",
        "placeName": "TORONTO",
        "streetNameDisplayText": "HASTINGS AVE, TORONTO"
      }
    ]
  },
  {
    "postal": "M4L8K9",
    "result": []
  },
  {
    "postal": "M4L2H9",
    "result": [
      {
        "electoralDistricts": [
          {
            "election": null,
            "id": 110,
            "name": "Toronto—Danforth"
          }
        ],
        "pollDivisionIds": [
          10142515
        ],
        "postalCode": "M4L2H9",
        "streetName": "WALPOLE",
        "streetDirectionId": null,
        "streetTypeId": "AVE",
        "placeName": "TORONTO",
        "streetNameDisplayText": "WALPOLE AVE, TORONTO"
      }
    ]
  },
  {
    "postal": "M4L3Z6",
    "result": []
  },
  {
    "postal": "M4L3B0",
    "result": []
  },
  {
    "postal": "M4L2H8",
    "result": [
      {
        "electoralDistricts": [
          {
            "election": null,
            "id": 110,
            "name": "Toronto—Danforth"
          }
        ],
        "pollDivisionIds": [
          10142517
        ],
        "postalCode": "M4L2H8",
        "streetName": "IVY",
        "streetDirectionId": null,
        "streetTypeId": "AVE",
        "placeName": "TORONTO",
        "streetNameDisplayText": "IVY AVE, TORONTO"
      }
    ]
  },
  {
    "postal": "M4L3X2",
    "result": [
      {
        "electoralDistricts": [
          {
            "election": null,
            "id": 7,
            "name": "Beaches—East York"
          }
        ],
        "pollDivisionIds": [
          10137053
        ],
        "postalCode": "M4L3X2",
        "streetName": "HARTFORD",
        "streetDirectionId": null,
        "streetTypeId": "AVE",
        "placeName": "TORONTO",
        "streetNameDisplayText": "HARTFORD AVE, TORONTO"
      }
    ]
  },
  {
    "postal": "M4L2E9",
    "result": [
      {
        "electoralDistricts": [
          {
            "election": null,
            "id": 110,
            "name": "Toronto—Danforth"
          }
        ],
        "pollDivisionIds": [
          10142517
        ],
        "postalCode": "M4L2E9",
        "streetName": "HARRIET",
        "streetDirectionId": null,
        "streetTypeId": "ST",
        "placeName": "TORONTO",
        "streetNameDisplayText": "HARRIET ST, TORONTO"
      }
    ]
  },
  {
    "postal": "M4L9P6",
    "result": []
  },
  {
    "postal": "M4L9E2",
    "result": []
  },
  {
    "postal": "M4L9H2",
    "result": []
  },
  {
    "postal": "M4L1S8",
    "result": [
      {
        "electoralDistricts": [
          {
            "election": null,
            "id": 7,
            "name": "Beaches—East York"
          }
        ],
        "pollDivisionIds": [
          10137053
        ],
        "postalCode": "M4L1S8",
        "streetName": "KINGSTON",
        "streetDirectionId": null,
        "streetTypeId": "RD",
        "placeName": "TORONTO",
        "streetNameDisplayText": "KINGSTON RD, TORONTO"
      }
    ]
  },
  {
    "postal": "M4L3M6",
    "result": [
      {
        "electoralDistricts": [
          {
            "election": null,
            "id": 7,
            "name": "Beaches—East York"
          }
        ],
        "pollDivisionIds": [
          10137056
        ],
        "postalCode": "M4L3M6",
        "streetName": "LARK",
        "streetDirectionId": null,
        "streetTypeId": "ST",
        "placeName": "TORONTO",
        "streetNameDisplayText": "LARK ST, TORONTO"
      }
    ]
  },
  {
    "postal": "M4L6Z8",
    "result": []
  },
  {
    "postal": "M4L4J2",
    "result": []
  },
  {
    "postal": "M4L9Y1",
    "result": []
  },
  {
    "postal": "M4L8V6",
    "result": []
  },
  {
    "postal": "M4L6B2",
    "result": []
  },
  {
    "postal": "M4L1P8",
    "result": [
      {
        "electoralDistricts": [
          {
            "election": null,
            "id": 7,
            "name": "Beaches—East York"
          }
        ],
        "pollDivisionIds": [
          10137054
        ],
        "postalCode": "M4L1P8",
        "streetName": "NORWAY",
        "streetDirectionId": null,
        "streetTypeId": "AVE",
        "placeName": "TORONTO",
        "streetNameDisplayText": "NORWAY AVE, TORONTO"
      }
    ]
  },
  {
    "postal": "M4L0V8",
    "result": []
  },
  {
    "postal": "M4L4Y0",
    "result": []
  },
  {
    "postal": "M4L2T4",
    "result": [
      {
        "electoralDistricts": [
          {
            "election": null,
            "id": 110,
            "name": "Toronto—Danforth"
          }
        ],
        "pollDivisionIds": [
          10142524,
          10142518
        ],
        "postalCode": "M4L2T4",
        "streetName": "HERTLE",
        "streetDirectionId": null,
        "streetTypeId": "AVE",
        "placeName": "TORONTO",
        "streetNameDisplayText": "HERTLE AVE, TORONTO"
      }
    ]
  },
  {
    "postal": "M4L2S3",
    "result": [
      {
        "electoralDistricts": [
          {
            "election": null,
            "id": 110,
            "name": "Toronto—Danforth"
          }
        ],
        "pollDivisionIds": [
          10142524
        ],
        "postalCode": "M4L2S3",
        "streetName": "BILLINGS",
        "streetDirectionId": null,
        "streetTypeId": "AVE",
        "placeName": "TORONTO",
        "streetNameDisplayText": "BILLINGS AVE, TORONTO"
      }
    ]
  },
  {
    "postal": "M4L0K0",
    "result": []
  },
  {
    "postal": "M4L5N1",
    "result": []
  },
  {
    "postal": "M4L7T0",
    "result": []
  },
  {
    "postal": "M4L9N2",
    "result": []
  },
  {
    "postal": "M4L5L1",
    "result": []
  },
  {
    "postal": "M4L7G5",
    "result": []
  },
  {
    "postal": "M4L6K2",
    "result": []
  },
  {
    "postal": "M4L6P9",
    "result": []
  },
  {
    "postal": "M4L0E6",
    "result": []
  },
  {
    "postal": "M4L8R9",
    "result": []
  },
  {
    "postal": "M4L3G9",
    "result": [
      {
        "electoralDistricts": [
          {
            "election": null,
            "id": 7,
            "name": "Beaches—East York"
          }
        ],
        "pollDivisionIds": [
          10137052
        ],
        "postalCode": "M4L3G9",
        "streetName": "EDGEWOOD",
        "streetDirectionId": null,
        "streetTypeId": "AVE",
        "placeName": "TORONTO",
        "streetNameDisplayText": "EDGEWOOD AVE, TORONTO"
      },
      {
        "electoralDistricts": [
          {
            "election": null,
            "id": 7,
            "name": "Beaches—East York"
          }
        ],
        "pollDivisionIds": [
          10137041
        ],
        "postalCode": "M4L3G9",
        "streetName": "STEPHENSON",
        "streetDirectionId": null,
        "streetTypeId": "AVE",
        "placeName": "TORONTO",
        "streetNameDisplayText": "STEPHENSON AVE, TORONTO"
      }
    ]
  },
  {
    "postal": "M4L0V7",
    "result": []
  },
  {
    "postal": "M4L2Z1",
    "result": [
      {
        "electoralDistricts": [
          {
            "election": null,
            "id": 110,
            "name": "Toronto—Danforth"
          }
        ],
        "pollDivisionIds": [
          10142518
        ],
        "postalCode": "M4L2Z1",
        "streetName": "ASHDALE",
        "streetDirectionId": null,
        "streetTypeId": "AVE",
        "placeName": "TORONTO",
        "streetNameDisplayText": "ASHDALE AVE, TORONTO"
      }
    ]
  },
  {
    "postal": "M4L7N1",
    "result": []
  },
  {
    "postal": "M4L3C6",
    "result": [
      {
        "electoralDistricts": [
          {
            "election": null,
            "id": 7,
            "name": "Beaches—East York"
          }
        ],
        "pollDivisionIds": [
          10137049
        ],
        "postalCode": "M4L3C6",
        "streetName": "GAINSBOROUGH",
        "streetDirectionId": null,
        "streetTypeId": "RD",
        "placeName": "TORONTO",
        "streetNameDisplayText": "GAINSBOROUGH RD, TORONTO"
      }
    ]
  },
  {
    "postal": "M4L4M1",
    "result": []
  },
  {
    "postal": "M4L9K2",
    "result": []
  },
  {
    "postal": "M4L9S6",
    "result": []
  },
  {
    "postal": "M4L4X1",
    "result": []
  },
  {
    "postal": "M4L8W2",
    "result": []
  },
  {
    "postal": "M4L7N2",
    "result": []
  },
  {
    "postal": "M4L8S3",
    "result": []
  },
  {
    "postal": "M4L4V0",
    "result": []
  },
  {
    "postal": "M4L6W4",
    "result": []
  },
  {
    "postal": "M4L5M1",
    "result": []
  },
  {
    "postal": "M4L0S4",
    "result": []
  },
  {
    "postal": "M4L5X6",
    "result": []
  },
  {
    "postal": "M4L8L5",
    "result": []
  },
  {
    "postal": "M4L5M8",
    "result": []
  },
  {
    "postal": "M4L2G3",
    "result": [
      {
        "electoralDistricts": [
          {
            "election": null,
            "id": 110,
            "name": "Toronto—Danforth"
          }
        ],
        "pollDivisionIds": [
          10142517
        ],
        "postalCode": "M4L2G3",
        "streetName": "BLOOMFIELD",
        "streetDirectionId": null,
        "streetTypeId": "AVE",
        "placeName": "TORONTO",
        "streetNameDisplayText": "BLOOMFIELD AVE, TORONTO"
      }
    ]
  },
  {
    "postal": "M4L8E4",
    "result": []
  },
  {
    "postal": "M4L7S9",
    "result": []
  },
  {
    "postal": "M4L1K3",
    "result": [
      {
        "electoralDistricts": [
          {
            "election": null,
            "id": 110,
            "name": "Toronto—Danforth"
          }
        ],
        "pollDivisionIds": [
          10142524
        ],
        "postalCode": "M4L1K3",
        "streetName": "KERR",
        "streetDirectionId": null,
        "streetTypeId": "RD",
        "placeName": "TORONTO",
        "streetNameDisplayText": "KERR RD, TORONTO"
      }
    ]
  },
  {
    "postal": "M4L4E1",
    "result": []
  },
  {
    "postal": "M4L4R2",
    "result": []
  },
  {
    "postal": "M4L6T0",
    "result": []
  },
  {
    "postal": "M4L3K5",
    "result": [
      {
        "electoralDistricts": [
          {
            "election": null,
            "id": 7,
            "name": "Beaches—East York"
          }
        ],
        "pollDivisionIds": [
          10137049
        ],
        "postalCode": "M4L3K5",
        "streetName": "NORMANDY",
        "streetDirectionId": null,
        "streetTypeId": "BLVD",
        "placeName": "TORONTO",
        "streetNameDisplayText": "NORMANDY BLVD, TORONTO"
      }
    ]
  },
  {
    "postal": "M4L3S3",
    "result": [
      {
        "electoralDistricts": [
          {
            "election": null,
            "id": 7,
            "name": "Beaches—East York"
          }
        ],
        "pollDivisionIds": [
          10137057
        ],
        "postalCode": "M4L3S3",
        "streetName": "KENILWORTH",
        "streetDirectionId": null,
        "streetTypeId": "AVE",
        "placeName": "TORONTO",
        "streetNameDisplayText": "KENILWORTH AVE, TORONTO"
      }
    ]
  },
  {
    "postal": "M4L3L4",
    "result": [
      {
        "electoralDistricts": [
          {
            "election": null,
            "id": 7,
            "name": "Beaches—East York"
          }
        ],
        "pollDivisionIds": [
          10137049
        ],
        "postalCode": "M4L3L4",
        "streetName": "KINGSMOUNT PARK",
        "streetDirectionId": null,
        "streetTypeId": "RD",
        "placeName": "TORONTO",
        "streetNameDisplayText": "KINGSMOUNT PARK RD, TORONTO"
      }
    ]
  },
  {
    "postal": "M4L9Y2",
    "result": []
  },
  {
    "postal": "M4L1E0",
    "result": []
  },
  {
    "postal": "M4L9A4",
    "result": []
  },
  {
    "postal": "M4L1L3",
    "result": [
      {
        "electoralDistricts": [
          {
            "election": null,
            "id": 110,
            "name": "Toronto—Danforth"
          }
        ],
        "pollDivisionIds": [
          10142524
        ],
        "postalCode": "M4L1L3",
        "streetName": "DUNDAS",
        "streetDirectionId": "E",
        "streetTypeId": "ST",
        "placeName": "TORONTO",
        "streetNameDisplayText": "DUNDAS ST E, TORONTO"
      }
    ]
  },
  {
    "postal": "M4L6N1",
    "result": []
  },
  {
    "postal": "M4L6G7",
    "result": []
  },
  {
    "postal": "M4L7W1",
    "result": []
  },
  {
    "postal": "M4L4M6",
    "result": []
  },
  {
    "postal": "M4L1K0",
    "result": []
  },
  {
    "postal": "M4L3E2",
    "result": [
      {
        "electoralDistricts": [
          {
            "election": null,
            "id": 7,
            "name": "Beaches—East York"
          }
        ],
        "pollDivisionIds": [
          10137056
        ],
        "postalCode": "M4L3E2",
        "streetName": "ORCHARD PARK",
        "streetDirectionId": null,
        "streetTypeId": "BLVD",
        "placeName": "TORONTO",
        "streetNameDisplayText": "ORCHARD PARK BLVD, TORONTO"
      }
    ]
  },
  {
    "postal": "M4L5H4",
    "result": []
  },
  {
    "postal": "M4L1K7",
    "result": [
      {
        "electoralDistricts": [
          {
            "election": null,
            "id": 110,
            "name": "Toronto—Danforth"
          }
        ],
        "pollDivisionIds": [
          10142521
        ],
        "postalCode": "M4L1K7",
        "streetName": "DUNDAS",
        "streetDirectionId": "E",
        "streetTypeId": "ST",
        "placeName": "TORONTO",
        "streetNameDisplayText": "DUNDAS ST E, TORONTO"
      }
    ]
  },
  {
    "postal": "M4L0H0",
    "result": []
  },
  {
    "postal": "M4L0J3",
    "result": []
  },
  {
    "postal": "M4L1X6",
    "result": [
      {
        "electoralDistricts": [
          {
            "election": null,
            "id": 7,
            "name": "Beaches—East York"
          }
        ],
        "pollDivisionIds": [
          10137052
        ],
        "postalCode": "M4L1X6",
        "streetName": "CAIRNS",
        "streetDirectionId": null,
        "streetTypeId": "AVE",
        "placeName": "TORONTO",
        "streetNameDisplayText": "CAIRNS AVE, TORONTO"
      }
    ]
  },
  {
    "postal": "M4L2Z6",
    "result": [
      {
        "electoralDistricts": [
          {
            "election": null,
            "id": 110,
            "name": "Toronto—Danforth"
          }
        ],
        "pollDivisionIds": [
          10142518
        ],
        "postalCode": "M4L2Z6",
        "streetName": "CRAVEN",
        "streetDirectionId": null,
        "streetTypeId": "RD",
        "placeName": "TORONTO",
        "streetNameDisplayText": "CRAVEN RD, TORONTO"
      }
    ]
  },
  {
    "postal": "M4L4R9",
    "result": []
  },
  {
    "postal": "M4L0W8",
    "result": []
  },
  {
    "postal": "M4L1L4",
    "result": [
      {
        "electoralDistricts": [
          {
            "election": null,
            "id": 110,
            "name": "Toronto—Danforth"
          }
        ],
        "pollDivisionIds": [
          10142524
        ],
        "postalCode": "M4L1L4",
        "streetName": "DUNDAS",
        "streetDirectionId": "E",
        "streetTypeId": "ST",
        "placeName": "TORONTO",
        "streetNameDisplayText": "DUNDAS ST E, TORONTO"
      }
    ]
  },
  {
    "postal": "M4L0C8",
    "result": []
  },
  {
    "postal": "M4L9X7",
    "result": []
  },
  {
    "postal": "M4L4T1",
    "result": []
  },
  {
    "postal": "M4L0M0",
    "result": []
  },
  {
    "postal": "M4L6A2",
    "result": []
  },
  {
    "postal": "M4L9S8",
    "result": []
  },
  {
    "postal": "M4L9T4",
    "result": []
  },
  {
    "postal": "M4L9Y4",
    "result": []
  },
  {
    "postal": "M4L6G5",
    "result": []
  },
  {
    "postal": "M4L6H9",
    "result": []
  },
  {
    "postal": "M4L2P3",
    "result": [
      {
        "electoralDistricts": [
          {
            "election": null,
            "id": 110,
            "name": "Toronto—Danforth"
          }
        ],
        "pollDivisionIds": [
          10142524
        ],
        "postalCode": "M4L2P3",
        "streetName": "GREENWOOD",
        "streetDirectionId": null,
        "streetTypeId": "AVE",
        "placeName": "TORONTO",
        "streetNameDisplayText": "GREENWOOD AVE, TORONTO"
      }
    ]
  },
  {
    "postal": "M4L1T6",
    "result": [
      {
        "electoralDistricts": [
          {
            "election": null,
            "id": 7,
            "name": "Beaches—East York"
          }
        ],
        "pollDivisionIds": [
          10137054
        ],
        "postalCode": "M4L1T6",
        "streetName": "KINGSTON",
        "streetDirectionId": null,
        "streetTypeId": "RD",
        "placeName": "TORONTO",
        "streetNameDisplayText": "KINGSTON RD, TORONTO"
      }
    ]
  },
  {
    "postal": "M4L4P6",
    "result": []
  },
  {
    "postal": "M4L3K1",
    "result": [
      {
        "electoralDistricts": [
          {
            "election": null,
            "id": 7,
            "name": "Beaches—East York"
          }
        ],
        "pollDivisionIds": [
          10137053
        ],
        "postalCode": "M4L3K1",
        "streetName": "NORMANDY",
        "streetDirectionId": null,
        "streetTypeId": "BLVD",
        "placeName": "TORONTO",
        "streetNameDisplayText": "NORMANDY BLVD, TORONTO"
      }
    ]
  },
  {
    "postal": "M4L6X4",
    "result": []
  },
  {
    "postal": "M4L4M8",
    "result": []
  },
  {
    "postal": "M4L2Y1",
    "result": [
      {
        "electoralDistricts": [
          {
            "election": null,
            "id": 110,
            "name": "Toronto—Danforth"
          }
        ],
        "pollDivisionIds": [
          10142515
        ],
        "postalCode": "M4L2Y1",
        "streetName": "HIAWATHA",
        "streetDirectionId": null,
        "streetTypeId": "RD",
        "placeName": "TORONTO",
        "streetNameDisplayText": "HIAWATHA RD, TORONTO"
      }
    ]
  },
  {
    "postal": "M4L6M1",
    "result": []
  },
  {
    "postal": "M4L5L8",
    "result": []
  },
  {
    "postal": "M4L3P6",
    "result": [
      {
        "electoralDistricts": [
          {
            "election": null,
            "id": 7,
            "name": "Beaches—East York"
          }
        ],
        "pollDivisionIds": [
          10137053
        ],
        "postalCode": "M4L3P6",
        "streetName": "WOODBINE",
        "streetDirectionId": null,
        "streetTypeId": "AVE",
        "placeName": "TORONTO",
        "streetNameDisplayText": "WOODBINE AVE, TORONTO"
      }
    ]
  },
  {
    "postal": "M4L9A5",
    "result": []
  },
  {
    "postal": "M4L7K1",
    "result": []
  },
  {
    "postal": "M4L3J4",
    "result": [
      {
        "electoralDistricts": [
          {
            "election": null,
            "id": 7,
            "name": "Beaches—East York"
          }
        ],
        "pollDivisionIds": [
          10137053
        ],
        "postalCode": "M4L3J4",
        "streetName": "BELLHAVEN",
        "streetDirectionId": null,
        "streetTypeId": "RD",
        "placeName": "TORONTO",
        "streetNameDisplayText": "BELLHAVEN RD, TORONTO"
      }
    ]
  },
  {
    "postal": "M4L5E7",
    "result": []
  },
  {
    "postal": "M4L3A7",
    "result": [
      {
        "electoralDistricts": [
          {
            "election": null,
            "id": 7,
            "name": "Beaches—East York"
          },
          {
            "election": null,
            "id": 110,
            "name": "Toronto—Danforth"
          }
        ],
        "pollDivisionIds": [
          10137056,
          10142524
        ],
        "postalCode": "M4L3A7",
        "streetName": "COXWELL",
        "streetDirectionId": null,
        "streetTypeId": "AVE",
        "placeName": "TORONTO",
        "streetNameDisplayText": "COXWELL AVE, TORONTO"
      }
    ]
  },
  {
    "postal": "M4L1B9",
    "result": [
      {
        "electoralDistricts": [
          {
            "election": null,
            "id": 7,
            "name": "Beaches—East York"
          }
        ],
        "pollDivisionIds": [
          10137057
        ],
        "postalCode": "M4L1B9",
        "streetName": "BULLER",
        "streetDirectionId": null,
        "streetTypeId": "AVE",
        "placeName": "TORONTO",
        "streetNameDisplayText": "BULLER AVE, TORONTO"
      }
    ]
  },
  {
    "postal": "M4L9E8",
    "result": []
  },
  {
    "postal": "M4L1C9",
    "result": [
      {
        "electoralDistricts": [
          {
            "election": null,
            "id": 110,
            "name": "Toronto—Danforth"
          }
        ],
        "pollDivisionIds": [
          10142524
        ],
        "postalCode": "M4L1C9",
        "streetName": "QUEEN",
        "streetDirectionId": "E",
        "streetTypeId": "ST",
        "placeName": "TORONTO",
        "streetNameDisplayText": "QUEEN ST E, TORONTO"
      }
    ]
  },
  {
    "postal": "M4L3B5",
    "result": [
      {
        "electoralDistricts": [
          {
            "election": null,
            "id": 7,
            "name": "Beaches—East York"
          }
        ],
        "pollDivisionIds": [
          10137049
        ],
        "postalCode": "M4L3B5",
        "streetName": "COXWELL",
        "streetDirectionId": null,
        "streetTypeId": "AVE",
        "placeName": "TORONTO",
        "streetNameDisplayText": "COXWELL AVE, TORONTO"
      }
    ]
  },
  {
    "postal": "M4L8R0",
    "result": []
  },
  {
    "postal": "M4L3P2",
    "result": [
      {
        "electoralDistricts": [
          {
            "election": null,
            "id": 7,
            "name": "Beaches—East York"
          }
        ],
        "pollDivisionIds": [
          10137053
        ],
        "postalCode": "M4L3P2",
        "streetName": "WOODBINE",
        "streetDirectionId": null,
        "streetTypeId": "AVE",
        "placeName": "TORONTO",
        "streetNameDisplayText": "WOODBINE AVE, TORONTO"
      }
    ]
  },
  {
    "postal": "M4L5V4",
    "result": []
  },
  {
    "postal": "M4L4H0",
    "result": []
  },
  {
    "postal": "M4L4S7",
    "result": []
  },
  {
    "postal": "M4L6C2",
    "result": []
  },
  {
    "postal": "M4L8W3",
    "result": []
  },
  {
    "postal": "M4L4M5",
    "result": []
  },
  {
    "postal": "M4L5T1",
    "result": []
  },
  {
    "postal": "M4L3B3",
    "result": [
      {
        "electoralDistricts": [
          {
            "election": null,
            "id": 7,
            "name": "Beaches—East York"
          }
        ],
        "pollDivisionIds": [
          10137052
        ],
        "postalCode": "M4L3B3",
        "streetName": "COXWELL",
        "streetDirectionId": null,
        "streetTypeId": "AVE",
        "placeName": "TORONTO",
        "streetNameDisplayText": "COXWELL AVE, TORONTO"
      }
    ]
  },
  {
    "postal": "M4L6C6",
    "result": []
  },
  {
    "postal": "M4L7N8",
    "result": []
  },
  {
    "postal": "M4L2Y3",
    "result": [
      {
        "electoralDistricts": [
          {
            "election": null,
            "id": 110,
            "name": "Toronto—Danforth"
          }
        ],
        "pollDivisionIds": [
          10142515
        ],
        "postalCode": "M4L2Y3",
        "streetName": "HIAWATHA",
        "streetDirectionId": null,
        "streetTypeId": "RD",
        "placeName": "TORONTO",
        "streetNameDisplayText": "HIAWATHA RD, TORONTO"
      }
    ]
  },
  {
    "postal": "M4L2R6",
    "result": [
      {
        "electoralDistricts": [
          {
            "election": null,
            "id": 110,
            "name": "Toronto—Danforth"
          }
        ],
        "pollDivisionIds": [
          10142515
        ],
        "postalCode": "M4L2R6",
        "streetName": "GREENWOOD",
        "streetDirectionId": null,
        "streetTypeId": "AVE",
        "placeName": "TORONTO",
        "streetNameDisplayText": "GREENWOOD AVE, TORONTO"
      }
    ]
  },
  {
    "postal": "M4L7N3",
    "result": []
  },
  {
    "postal": "M4L8J2",
    "result": []
  },
  {
    "postal": "M4L6A9",
    "result": []
  },
  {
    "postal": "M4L3V2",
    "result": [
      {
        "electoralDistricts": [
          {
            "election": null,
            "id": 7,
            "name": "Beaches—East York"
          }
        ],
        "pollDivisionIds": [
          10137058
        ],
        "postalCode": "M4L3V2",
        "streetName": "WHEELER",
        "streetDirectionId": null,
        "streetTypeId": "AVE",
        "placeName": "TORONTO",
        "streetNameDisplayText": "WHEELER AVE, TORONTO"
      }
    ]
  },
  {
    "postal": "M4L2N3",
    "result": [
      {
        "electoralDistricts": [
          {
            "election": null,
            "id": 110,
            "name": "Toronto—Danforth"
          }
        ],
        "pollDivisionIds": [
          10142527
        ],
        "postalCode": "M4L2N3",
        "streetName": "LAING",
        "streetDirectionId": null,
        "streetTypeId": "ST",
        "placeName": "TORONTO",
        "streetNameDisplayText": "LAING ST, TORONTO"
      }
    ]
  },
  {
    "postal": "M4L1S5",
    "result": [
      {
        "electoralDistricts": [
          {
            "election": null,
            "id": 7,
            "name": "Beaches—East York"
          }
        ],
        "pollDivisionIds": [
          10137056
        ],
        "postalCode": "M4L1S5",
        "streetName": "KINGSTON",
        "streetDirectionId": null,
        "streetTypeId": "RD",
        "placeName": "TORONTO",
        "streetNameDisplayText": "KINGSTON RD, TORONTO"
      }
    ]
  },
  {
    "postal": "M4L4T7",
    "result": []
  },
  {
    "postal": "M4L6Y7",
    "result": []
  },
  {
    "postal": "M4L0W7",
    "result": []
  },
  {
    "postal": "M4L2W9",
    "result": [
      {
        "electoralDistricts": [
          {
            "election": null,
            "id": 110,
            "name": "Toronto—Danforth"
          }
        ],
        "pollDivisionIds": [
          10142518,
          10142515
        ],
        "postalCode": "M4L2W9",
        "streetName": "WOODFIELD",
        "streetDirectionId": null,
        "streetTypeId": "RD",
        "placeName": "TORONTO",
        "streetNameDisplayText": "WOODFIELD RD, TORONTO"
      }
    ]
  },
  {
    "postal": "M4L8V0",
    "result": []
  },
  {
    "postal": "M4L0H4",
    "result": []
  },
  {
    "postal": "M4L2T1",
    "result": [
      {
        "electoralDistricts": [
          {
            "election": null,
            "id": 110,
            "name": "Toronto—Danforth"
          }
        ],
        "pollDivisionIds": [
          10142524
        ],
        "postalCode": "M4L2T1",
        "streetName": "HERTLE",
        "streetDirectionId": null,
        "streetTypeId": "AVE",
        "placeName": "TORONTO",
        "streetNameDisplayText": "HERTLE AVE, TORONTO"
      }
    ]
  },
  {
    "postal": "M4L1B1",
    "result": [
      {
        "electoralDistricts": [
          {
            "election": null,
            "id": 7,
            "name": "Beaches—East York"
          }
        ],
        "pollDivisionIds": [
          10137056
        ],
        "postalCode": "M4L1B1",
        "streetName": "EASTERN",
        "streetDirectionId": null,
        "streetTypeId": "AVE",
        "placeName": "TORONTO",
        "streetNameDisplayText": "EASTERN AVE, TORONTO"
      }
    ]
  },
  {
    "postal": "M4L8B6",
    "result": []
  },
  {
    "postal": "M4L6H1",
    "result": []
  },
  {
    "postal": "M4L8T8",
    "result": []
  },
  {
    "postal": "M4L0T4",
    "result": []
  },
  {
    "postal": "M4L2C4",
    "result": [
      {
        "electoralDistricts": [
          {
            "election": null,
            "id": 7,
            "name": "Beaches—East York"
          }
        ],
        "pollDivisionIds": [
          10137052
        ],
        "postalCode": "M4L2C4",
        "streetName": "EASTWOOD",
        "streetDirectionId": null,
        "streetTypeId": "RD",
        "placeName": "TORONTO",
        "streetNameDisplayText": "EASTWOOD RD, TORONTO"
      }
    ]
  },
  {
    "postal": "M4L8N3",
    "result": []
  },
  {
    "postal": "M4L4L8",
    "result": []
  },
  {
    "postal": "M4L2B5",
    "result": [
      {
        "electoralDistricts": [
          {
            "election": null,
            "id": 7,
            "name": "Beaches—East York"
          }
        ],
        "pollDivisionIds": [
          10137049
        ],
        "postalCode": "M4L2B5",
        "streetName": "GERRARD",
        "streetDirectionId": "E",
        "streetTypeId": "ST",
        "placeName": "TORONTO",
        "streetNameDisplayText": "GERRARD ST E, TORONTO"
      }
    ]
  },
  {
    "postal": "M4L3H1",
    "result": [
      {
        "electoralDistricts": [
          {
            "election": null,
            "id": 7,
            "name": "Beaches—East York"
          }
        ],
        "pollDivisionIds": [
          10137052
        ],
        "postalCode": "M4L3H1",
        "streetName": "EDGEWOOD",
        "streetDirectionId": null,
        "streetTypeId": "AVE",
        "placeName": "TORONTO",
        "streetNameDisplayText": "EDGEWOOD AVE, TORONTO"
      }
    ]
  },
  {
    "postal": "M4L4Y1",
    "result": []
  },
  {
    "postal": "M4L7E2",
    "result": []
  },
  {
    "postal": "M4L2P5",
    "result": [
      {
        "electoralDistricts": [
          {
            "election": null,
            "id": 110,
            "name": "Toronto—Danforth"
          }
        ],
        "pollDivisionIds": [
          10142524
        ],
        "postalCode": "M4L2P5",
        "streetName": "GREENWOOD",
        "streetDirectionId": null,
        "streetTypeId": "AVE",
        "placeName": "TORONTO",
        "streetNameDisplayText": "GREENWOOD AVE, TORONTO"
      }
    ]
  },
  {
    "postal": "M4L8R7",
    "result": []
  },
  {
    "postal": "M4L9P1",
    "result": []
  },
  {
    "postal": "M4L3B8",
    "result": [
      {
        "electoralDistricts": [
          {
            "election": null,
            "id": 7,
            "name": "Beaches—East York"
          }
        ],
        "pollDivisionIds": [
          10137049
        ],
        "postalCode": "M4L3B8",
        "streetName": "COXWELL",
        "streetDirectionId": null,
        "streetTypeId": "AVE",
        "placeName": "TORONTO",
        "streetNameDisplayText": "COXWELL AVE, TORONTO"
      }
    ]
  },
  {
    "postal": "M4L3P7",
    "result": [
      {
        "electoralDistricts": [
          {
            "election": null,
            "id": 7,
            "name": "Beaches—East York"
          }
        ],
        "pollDivisionIds": [
          10137054
        ],
        "postalCode": "M4L3P7",
        "streetName": "WOODBINE",
        "streetDirectionId": null,
        "streetTypeId": "AV",
        "placeName": "TORONTO",
        "streetNameDisplayText": "WOODBINE AV, TORONTO"
      },
      {
        "electoralDistricts": [
          {
            "election": null,
            "id": 7,
            "name": "Beaches—East York"
          }
        ],
        "pollDivisionIds": [
          10137054
        ],
        "postalCode": "M4L3P7",
        "streetName": "WOODBINE",
        "streetDirectionId": null,
        "streetTypeId": "AVE",
        "placeName": "TORONTO",
        "streetNameDisplayText": "WOODBINE AVE, TORONTO"
      }
    ]
  },
  {
    "postal": "M4L9B2",
    "result": []
  },
  {
    "postal": "M4L6Z3",
    "result": []
  },
  {
    "postal": "M4L4N5",
    "result": []
  },
  {
    "postal": "M4L8T3",
    "result": []
  },
  {
    "postal": "M4L1V2",
    "result": [
      {
        "electoralDistricts": [
          {
            "election": null,
            "id": 7,
            "name": "Beaches—East York"
          }
        ],
        "pollDivisionIds": [
          10137054
        ],
        "postalCode": "M4L1V2",
        "streetName": "KINGSTON",
        "streetDirectionId": null,
        "streetTypeId": "RD",
        "placeName": "TORONTO",
        "streetNameDisplayText": "KINGSTON RD, TORONTO"
      }
    ]
  },
  {
    "postal": "M4L1Y0",
    "result": []
  },
  {
    "postal": "M4L3G6",
    "result": [
      {
        "electoralDistricts": [
          {
            "election": null,
            "id": 7,
            "name": "Beaches—East York"
          }
        ],
        "pollDivisionIds": [
          10137049
        ],
        "postalCode": "M4L3G6",
        "streetName": "BEATON",
        "streetDirectionId": null,
        "streetTypeId": "AVE",
        "placeName": "TORONTO",
        "streetNameDisplayText": "BEATON AVE, TORONTO"
      }
    ]
  },
  {
    "postal": "M4L3H7",
    "result": [
      {
        "electoralDistricts": [
          {
            "election": null,
            "id": 7,
            "name": "Beaches—East York"
          }
        ],
        "pollDivisionIds": [
          10137052
        ],
        "postalCode": "M4L3H7",
        "streetName": "BOWMORE",
        "streetDirectionId": null,
        "streetTypeId": "RD",
        "placeName": "TORONTO",
        "streetNameDisplayText": "BOWMORE RD, TORONTO"
      }
    ]
  },
  {
    "postal": "M4L7X8",
    "result": []
  },
  {
    "postal": "M4L0C7",
    "result": []
  },
  {
    "postal": "M4L0W9",
    "result": []
  },
  {
    "postal": "M4L8E6",
    "result": []
  },
  {
    "postal": "M4L9Z8",
    "result": []
  },
  {
    "postal": "M4L3P4",
    "result": [
      {
        "electoralDistricts": [
          {
            "election": null,
            "id": 7,
            "name": "Beaches—East York"
          }
        ],
        "pollDivisionIds": [
          10137053
        ],
        "postalCode": "M4L3P4",
        "streetName": "WOODBINE",
        "streetDirectionId": null,
        "streetTypeId": "AVE",
        "placeName": "TORONTO",
        "streetNameDisplayText": "WOODBINE AVE, TORONTO"
      }
    ]
  },
  {
    "postal": "M4L6L8",
    "result": []
  },
  {
    "postal": "M4L2R4",
    "result": [
      {
        "electoralDistricts": [
          {
            "election": null,
            "id": 110,
            "name": "Toronto—Danforth"
          }
        ],
        "pollDivisionIds": [
          10142518
        ],
        "postalCode": "M4L2R4",
        "streetName": "GREENWOOD",
        "streetDirectionId": null,
        "streetTypeId": "AVE",
        "placeName": "TORONTO",
        "streetNameDisplayText": "GREENWOOD AVE, TORONTO"
      }
    ]
  },
  {
    "postal": "M4L2W1",
    "result": [
      {
        "electoralDistricts": [
          {
            "election": null,
            "id": 110,
            "name": "Toronto—Danforth"
          }
        ],
        "pollDivisionIds": [
          10142524
        ],
        "postalCode": "M4L2W1",
        "streetName": "WOODFIELD",
        "streetDirectionId": null,
        "streetTypeId": "RD",
        "placeName": "TORONTO",
        "streetNameDisplayText": "WOODFIELD RD, TORONTO"
      }
    ]
  },
  {
    "postal": "M4L9H8",
    "result": []
  },
  {
    "postal": "M4L8X9",
    "result": []
  },
  {
    "postal": "M4L7H4",
    "result": []
  },
  {
    "postal": "M4L3J1",
    "result": [
      {
        "electoralDistricts": [
          {
            "election": null,
            "id": 7,
            "name": "Beaches—East York"
          }
        ],
        "pollDivisionIds": [
          10137049
        ],
        "postalCode": "M4L3J1",
        "streetName": "BOWMORE",
        "streetDirectionId": null,
        "streetTypeId": "RD",
        "placeName": "TORONTO",
        "streetNameDisplayText": "BOWMORE RD, TORONTO"
      }
    ]
  },
  {
    "postal": "M4L1P4",
    "result": [
      {
        "electoralDistricts": [
          {
            "election": null,
            "id": 7,
            "name": "Beaches—East York"
          }
        ],
        "pollDivisionIds": [
          10137053
        ],
        "postalCode": "M4L1P4",
        "streetName": "COLUMBINE",
        "streetDirectionId": null,
        "streetTypeId": "AVE",
        "placeName": "TORONTO",
        "streetNameDisplayText": "COLUMBINE AVE, TORONTO"
      }
    ]
  },
  {
    "postal": "M4L2A3",
    "result": [
      {
        "electoralDistricts": [
          {
            "election": null,
            "id": 110,
            "name": "Toronto—Danforth"
          }
        ],
        "pollDivisionIds": [
          10142518
        ],
        "postalCode": "M4L2A3",
        "streetName": "GERRARD",
        "streetDirectionId": "E",
        "streetTypeId": "ST",
        "placeName": "TORONTO",
        "streetNameDisplayText": "GERRARD ST E, TORONTO"
      }
    ]
  },
  {
    "postal": "M4L0Z1",
    "result": []
  },
  {
    "postal": "M4L1C1",
    "result": [
      {
        "electoralDistricts": [
          {
            "election": null,
            "id": 7,
            "name": "Beaches—East York"
          }
        ],
        "pollDivisionIds": [
          10137057
        ],
        "postalCode": "M4L1C1",
        "streetName": "BULLER",
        "streetDirectionId": null,
        "streetTypeId": "AVE",
        "placeName": "TORONTO",
        "streetNameDisplayText": "BULLER AVE, TORONTO"
      }
    ]
  },
  {
    "postal": "M4L0H3",
    "result": []
  },
  {
    "postal": "M4L7B0",
    "result": []
  },
  {
    "postal": "M4L5K2",
    "result": []
  },
  {
    "postal": "M4L1E9",
    "result": [
      {
        "electoralDistricts": [
          {
            "election": null,
            "id": 110,
            "name": "Toronto—Danforth"
          }
        ],
        "pollDivisionIds": [
          10142524
        ],
        "postalCode": "M4L1E9",
        "streetName": "QUEEN",
        "streetDirectionId": "E",
        "streetTypeId": "ST",
        "placeName": "TORONTO",
        "streetNameDisplayText": "QUEEN ST E, TORONTO"
      }
    ]
  },
  {
    "postal": "M4L9W7",
    "result": []
  },
  {
    "postal": "M4L5W6",
    "result": []
  },
  {
    "postal": "M4L6S6",
    "result": []
  },
  {
    "postal": "M4L2P8",
    "result": [
      {
        "electoralDistricts": [
          {
            "election": null,
            "id": 110,
            "name": "Toronto—Danforth"
          }
        ],
        "pollDivisionIds": [
          10142524
        ],
        "postalCode": "M4L2P8",
        "streetName": "GREENWOOD",
        "streetDirectionId": null,
        "streetTypeId": "AVE",
        "placeName": "TORONTO",
        "streetNameDisplayText": "GREENWOOD AVE, TORONTO"
      }
    ]
  },
  {
    "postal": "M4L4P8",
    "result": []
  },
  {
    "postal": "M4L0V9",
    "result": []
  },
  {
    "postal": "M4L5Y2",
    "result": []
  },
  {
    "postal": "M4L7Z7",
    "result": []
  },
  {
    "postal": "M4L6Y8",
    "result": []
  },
  {
    "postal": "M4L2G7",
    "result": [
      {
        "electoralDistricts": [
          {
            "election": null,
            "id": 7,
            "name": "Beaches—East York"
          }
        ],
        "pollDivisionIds": [
          10137049
        ],
        "postalCode": "M4L2G7",
        "streetName": "NEWBOLD",
        "streetDirectionId": null,
        "streetTypeId": "AVE",
        "placeName": "TORONTO",
        "streetNameDisplayText": "NEWBOLD AVE, TORONTO"
      }
    ]
  },
  {
    "postal": "M4L8C1",
    "result": []
  },
  {
    "postal": "M4L5C5",
    "result": []
  },
  {
    "postal": "M4L2X8",
    "result": [
      {
        "electoralDistricts": [
          {
            "election": null,
            "id": 110,
            "name": "Toronto—Danforth"
          }
        ],
        "pollDivisionIds": [
          10142518
        ],
        "postalCode": "M4L2X8",
        "streetName": "HIAWATHA",
        "streetDirectionId": null,
        "streetTypeId": "RD",
        "placeName": "TORONTO",
        "streetNameDisplayText": "HIAWATHA RD, TORONTO"
      }
    ]
  },
  {
    "postal": "M4L1W5",
    "result": [
      {
        "electoralDistricts": [
          {
            "election": null,
            "id": 110,
            "name": "Toronto—Danforth"
          }
        ],
        "pollDivisionIds": [
          10142524
        ],
        "postalCode": "M4L1W5",
        "streetName": "ATHLETIC",
        "streetDirectionId": null,
        "streetTypeId": "AVE",
        "placeName": "TORONTO",
        "streetNameDisplayText": "ATHLETIC AVE, TORONTO"
      }
    ]
  },
  {
    "postal": "M4L7G0",
    "result": []
  },
  {
    "postal": "M4L8J8",
    "result": []
  },
  {
    "postal": "M4L3Y0",
    "result": []
  },
  {
    "postal": "M4L9T7",
    "result": []
  },
  {
    "postal": "M4L5P4",
    "result": []
  },
  {
    "postal": "M4L4B0",
    "result": []
  },
  {
    "postal": "M4L9N8",
    "result": []
  },
  {
    "postal": "M4L4A7",
    "result": []
  },
  {
    "postal": "M4L4H9",
    "result": []
  },
  {
    "postal": "M4L6X1",
    "result": []
  },
  {
    "postal": "M4L9Y7",
    "result": []
  },
  {
    "postal": "M4L2Y5",
    "result": [
      {
        "electoralDistricts": [
          {
            "election": null,
            "id": 110,
            "name": "Toronto—Danforth"
          }
        ],
        "pollDivisionIds": [
          10142524
        ],
        "postalCode": "M4L2Y5",
        "streetName": "WOODWARD",
        "streetDirectionId": null,
        "streetTypeId": "AV",
        "placeName": "TORONTO",
        "streetNameDisplayText": "WOODWARD AV, TORONTO"
      }
    ]
  },
  {
    "postal": "M4L8L7",
    "result": []
  },
  {
    "postal": "M4L2A8",
    "result": [
      {
        "electoralDistricts": [
          {
            "election": null,
            "id": 7,
            "name": "Beaches—East York"
          }
        ],
        "pollDivisionIds": [
          10137049
        ],
        "postalCode": "M4L2A8",
        "streetName": "GERRARD",
        "streetDirectionId": "E",
        "streetTypeId": "ST",
        "placeName": "TORONTO",
        "streetNameDisplayText": "GERRARD ST E, TORONTO"
      }
    ]
  },
  {
    "postal": "M4L2K9",
    "result": [
      {
        "electoralDistricts": [
          {
            "election": null,
            "id": 7,
            "name": "Beaches—East York"
          }
        ],
        "pollDivisionIds": [
          10137049
        ],
        "postalCode": "M4L2K9",
        "streetName": "WILDWOOD",
        "streetDirectionId": null,
        "streetTypeId": "CRES",
        "placeName": "TORONTO",
        "streetNameDisplayText": "WILDWOOD CRES, TORONTO"
      }
    ]
  },
  {
    "postal": "M4L3E5",
    "result": [
      {
        "electoralDistricts": [
          {
            "election": null,
            "id": 7,
            "name": "Beaches—East York"
          }
        ],
        "pollDivisionIds": [
          10137052
        ],
        "postalCode": "M4L3E5",
        "streetName": "MAUGHAN",
        "streetDirectionId": null,
        "streetTypeId": "CRES",
        "placeName": "TORONTO",
        "streetNameDisplayText": "MAUGHAN CRES, TORONTO"
      }
    ]
  },
  {
    "postal": "M4L8N6",
    "result": []
  },
  {
    "postal": "M4L8J4",
    "result": []
  },
  {
    "postal": "M4L4R7",
    "result": []
  },
  {
    "postal": "M4L9K1",
    "result": []
  },
  {
    "postal": "M4L8E1",
    "result": []
  },
  {
    "postal": "M4L0R1",
    "result": []
  },
  {
    "postal": "M4L4J3",
    "result": []
  },
  {
    "postal": "M4L7E7",
    "result": []
  },
  {
    "postal": "M4L0J0",
    "result": []
  },
  {
    "postal": "M4L7R8",
    "result": []
  },
  {
    "postal": "M4L9X0",
    "result": []
  },
  {
    "postal": "M4L7P6",
    "result": []
  },
  {
    "postal": "M4L0R7",
    "result": []
  },
  {
    "postal": "M4L5W1",
    "result": []
  },
  {
    "postal": "M4L0K4",
    "result": []
  },
  {
    "postal": "M4L7N9",
    "result": []
  },
  {
    "postal": "M4L1N0",
    "result": []
  },
  {
    "postal": "M4L6P3",
    "result": []
  },
  {
    "postal": "M4L5A1",
    "result": []
  },
  {
    "postal": "M4L9M9",
    "result": []
  },
  {
    "postal": "M4L7T6",
    "result": []
  },
  {
    "postal": "M4L3X0",
    "result": []
  },
  {
    "postal": "M4L2T0",
    "result": []
  },
  {
    "postal": "M4L5X9",
    "result": []
  },
  {
    "postal": "M4L2R3",
    "result": [
      {
        "electoralDistricts": [
          {
            "election": null,
            "id": 110,
            "name": "Toronto—Danforth"
          }
        ],
        "pollDivisionIds": [
          10142517
        ],
        "postalCode": "M4L2R3",
        "streetName": "GREENWOOD",
        "streetDirectionId": null,
        "streetTypeId": "AVE",
        "placeName": "TORONTO",
        "streetNameDisplayText": "GREENWOOD AVE, TORONTO"
      }
    ]
  },
  {
    "postal": "M4L5N2",
    "result": []
  },
  {
    "postal": "M4L4Y7",
    "result": []
  },
  {
    "postal": "M4L7M0",
    "result": []
  },
  {
    "postal": "M4L8P3",
    "result": []
  },
  {
    "postal": "M4L3N3",
    "result": [
      {
        "electoralDistricts": [
          {
            "election": null,
            "id": 7,
            "name": "Beaches—East York"
          }
        ],
        "pollDivisionIds": [
          10137053
        ],
        "postalCode": "M4L3N3",
        "streetName": "BROOKMOUNT",
        "streetDirectionId": null,
        "streetTypeId": "RD",
        "placeName": "TORONTO",
        "streetNameDisplayText": "BROOKMOUNT RD, TORONTO"
      }
    ]
  },
  {
    "postal": "M4L7S3",
    "result": []
  },
  {
    "postal": "M4L3V9",
    "result": []
  },
  {
    "postal": "M4L9N7",
    "result": []
  },
  {
    "postal": "M4L0G4",
    "result": []
  },
  {
    "postal": "M4L2E2",
    "result": [
      {
        "electoralDistricts": [
          {
            "election": null,
            "id": 7,
            "name": "Beaches—East York"
          }
        ],
        "pollDivisionIds": [
          10137052,
          10137053
        ],
        "postalCode": "M4L2E2",
        "streetName": "EASTWOOD",
        "streetDirectionId": null,
        "streetTypeId": "RD",
        "placeName": "TORONTO",
        "streetNameDisplayText": "EASTWOOD RD, TORONTO"
      }
    ]
  },
  {
    "postal": "M4L7W8",
    "result": []
  },
  {
    "postal": "M4L7M5",
    "result": []
  },
  {
    "postal": "M4L5W8",
    "result": []
  },
  {
    "postal": "M4L5E5",
    "result": []
  },
  {
    "postal": "M4L1P9",
    "result": [
      {
        "electoralDistricts": [
          {
            "election": null,
            "id": 7,
            "name": "Beaches—East York"
          }
        ],
        "pollDivisionIds": [
          10137054
        ],
        "postalCode": "M4L1P9",
        "streetName": "NORWAY",
        "streetDirectionId": null,
        "streetTypeId": "AVE",
        "placeName": "TORONTO",
        "streetNameDisplayText": "NORWAY AVE, TORONTO"
      }
    ]
  },
  {
    "postal": "M4L8V8",
    "result": []
  },
  {
    "postal": "M4L9G8",
    "result": []
  },
  {
    "postal": "M4L8H9",
    "result": []
  },
  {
    "postal": "M4L1Z1",
    "result": [
      {
        "electoralDistricts": [
          {
            "election": null,
            "id": 110,
            "name": "Toronto—Danforth"
          }
        ],
        "pollDivisionIds": [
          10142515
        ],
        "postalCode": "M4L1Z1",
        "streetName": "GERRARD",
        "streetDirectionId": "E",
        "streetTypeId": "ST",
        "placeName": "TORONTO",
        "streetNameDisplayText": "GERRARD ST E, TORONTO"
      }
    ]
  },
  {
    "postal": "M4L8M3",
    "result": []
  },
  {
    "postal": "M4L5H6",
    "result": []
  },
  {
    "postal": "M4L7W7",
    "result": []
  },
  {
    "postal": "M4L4L0",
    "result": []
  },
  {
    "postal": "M4L2N1",
    "result": [
      {
        "electoralDistricts": [
          {
            "election": null,
            "id": 110,
            "name": "Toronto—Danforth"
          }
        ],
        "pollDivisionIds": [
          10142517
        ],
        "postalCode": "M4L2N1",
        "streetName": "PRUST",
        "streetDirectionId": null,
        "streetTypeId": "AVE",
        "placeName": "TORONTO",
        "streetNameDisplayText": "PRUST AVE, TORONTO"
      }
    ]
  },
  {
    "postal": "M4L2H4",
    "result": [
      {
        "electoralDistricts": [
          {
            "election": null,
            "id": 7,
            "name": "Beaches—East York"
          }
        ],
        "pollDivisionIds": [
          10137049
        ],
        "postalCode": "M4L2H4",
        "streetName": "FAIRMOUNT",
        "streetDirectionId": null,
        "streetTypeId": "CRES",
        "placeName": "TORONTO",
        "streetNameDisplayText": "FAIRMOUNT CRES, TORONTO"
      }
    ]
  },
  {
    "postal": "M4L5C8",
    "result": []
  },
  {
    "postal": "M4L8B0",
    "result": []
  },
  {
    "postal": "M4L1T4",
    "result": [
      {
        "electoralDistricts": [
          {
            "election": null,
            "id": 7,
            "name": "Beaches—East York"
          }
        ],
        "pollDivisionIds": [
          10137053
        ],
        "postalCode": "M4L1T4",
        "streetName": "KINGSTON",
        "streetDirectionId": null,
        "streetTypeId": "RD",
        "placeName": "TORONTO",
        "streetNameDisplayText": "KINGSTON RD, TORONTO"
      }
    ]
  },
  {
    "postal": "M4L7N7",
    "result": []
  },
  {
    "postal": "M4L4L3",
    "result": []
  },
  {
    "postal": "M4L2N2",
    "result": [
      {
        "electoralDistricts": [
          {
            "election": null,
            "id": 110,
            "name": "Toronto—Danforth"
          }
        ],
        "pollDivisionIds": [
          10142527
        ],
        "postalCode": "M4L2N2",
        "streetName": "LAING",
        "streetDirectionId": null,
        "streetTypeId": "ST",
        "placeName": "TORONTO",
        "streetNameDisplayText": "LAING ST, TORONTO"
      }
    ]
  },
  {
    "postal": "M4L4N8",
    "result": [
      {
        "electoralDistricts": [
          {
            "election": null,
            "id": 110,
            "name": "Toronto—Danforth"
          }
        ],
        "pollDivisionIds": [
          10142524
        ],
        "postalCode": "M4L4N8",
        "streetName": "DUNDAS",
        "streetDirectionId": "E",
        "streetTypeId": "ST",
        "placeName": "TORONTO",
        "streetNameDisplayText": "DUNDAS ST E, TORONTO"
      }
    ]
  },
  {
    "postal": "M4L3M5",
    "result": [
      {
        "electoralDistricts": [
          {
            "election": null,
            "id": 7,
            "name": "Beaches—East York"
          }
        ],
        "pollDivisionIds": [
          10137056
        ],
        "postalCode": "M4L3M5",
        "streetName": "LARK",
        "streetDirectionId": null,
        "streetTypeId": "ST",
        "placeName": "TORONTO",
        "streetNameDisplayText": "LARK ST, TORONTO"
      }
    ]
  },
  {
    "postal": "M4L6H7",
    "result": []
  },
  {
    "postal": "M4L8Y8",
    "result": []
  },
  {
    "postal": "M4L5R9",
    "result": []
  },
  {
    "postal": "M4L8G3",
    "result": []
  },
  {
    "postal": "M4L4N7",
    "result": []
  },
  {
    "postal": "M4L0B9",
    "result": []
  },
  {
    "postal": "M4L9K7",
    "result": []
  },
  {
    "postal": "M4L9K9",
    "result": []
  },
  {
    "postal": "M4L3Z2",
    "result": [
      {
        "electoralDistricts": [
          {
            "election": null,
            "id": 7,
            "name": "Beaches—East York"
          }
        ],
        "pollDivisionIds": [
          10137056
        ],
        "postalCode": "M4L3Z2",
        "streetName": "QUEEN",
        "streetDirectionId": "E",
        "streetTypeId": "ST",
        "placeName": "TORONTO",
        "streetNameDisplayText": "QUEEN ST E, TORONTO"
      }
    ]
  },
  {
    "postal": "M4L6W7",
    "result": []
  },
  {
    "postal": "M4L0P1",
    "result": []
  },
  {
    "postal": "M4L3A0",
    "result": []
  },
  {
    "postal": "M4L8L9",
    "result": []
  },
  {
    "postal": "M4L6X0",
    "result": []
  },
  {
    "postal": "M4L3E9",
    "result": [
      {
        "electoralDistricts": [
          {
            "election": null,
            "id": 7,
            "name": "Beaches—East York"
          }
        ],
        "pollDivisionIds": [
          10137052
        ],
        "postalCode": "M4L3E9",
        "streetName": "HEMLOCK",
        "streetDirectionId": null,
        "streetTypeId": "AVE",
        "placeName": "TORONTO",
        "streetNameDisplayText": "HEMLOCK AVE, TORONTO"
      }
    ]
  },
  {
    "postal": "M4L0S5",
    "result": []
  },
  {
    "postal": "M4L1A2",
    "result": [
      {
        "electoralDistricts": [
          {
            "election": null,
            "id": 110,
            "name": "Toronto—Danforth"
          }
        ],
        "pollDivisionIds": [
          10142527
        ],
        "postalCode": "M4L1A2",
        "streetName": "EASTERN",
        "streetDirectionId": null,
        "streetTypeId": "AVE",
        "placeName": "TORONTO",
        "streetNameDisplayText": "EASTERN AVE, TORONTO"
      }
    ]
  },
  {
    "postal": "M4L5V8",
    "result": []
  },
  {
    "postal": "M4L8C5",
    "result": []
  },
  {
    "postal": "M4L6N0",
    "result": []
  },
  {
    "postal": "M4L9E6",
    "result": []
  },
  {
    "postal": "M4L5J7",
    "result": []
  },
  {
    "postal": "M4L2R2",
    "result": [
      {
        "electoralDistricts": [
          {
            "election": null,
            "id": 110,
            "name": "Toronto—Danforth"
          }
        ],
        "pollDivisionIds": [
          10142517
        ],
        "postalCode": "M4L2R2",
        "streetName": "GREENWOOD",
        "streetDirectionId": null,
        "streetTypeId": "AVE",
        "placeName": "TORONTO",
        "streetNameDisplayText": "GREENWOOD AVE, TORONTO"
      }
    ]
  },
  {
    "postal": "M4L0P5",
    "result": []
  },
  {
    "postal": "M4L5A7",
    "result": []
  },
  {
    "postal": "M4L1G1",
    "result": [
      {
        "electoralDistricts": [
          {
            "election": null,
            "id": 110,
            "name": "Toronto—Danforth"
          }
        ],
        "pollDivisionIds": [
          10142524
        ],
        "postalCode": "M4L1G1",
        "streetName": "QUEEN",
        "streetDirectionId": "E",
        "streetTypeId": "ST",
        "placeName": "TORONTO",
        "streetNameDisplayText": "QUEEN ST E, TORONTO"
      }
    ]
  },
  {
    "postal": "M4L9R6",
    "result": []
  },
  {
    "postal": "M4L4Z9",
    "result": []
  },
  {
    "postal": "M4L1V5",
    "result": [
      {
        "electoralDistricts": [
          {
            "election": null,
            "id": 7,
            "name": "Beaches—East York"
          }
        ],
        "pollDivisionIds": [
          10137058,
          10137069
        ],
        "postalCode": "M4L1V5",
        "streetName": "KINGSTON",
        "streetDirectionId": null,
        "streetTypeId": "RD",
        "placeName": "TORONTO",
        "streetNameDisplayText": "KINGSTON RD, TORONTO"
      }
    ]
  },
  {
    "postal": "M4L9Y5",
    "result": []
  },
  {
    "postal": "M4L1P2",
    "result": [
      {
        "electoralDistricts": [
          {
            "election": null,
            "id": 7,
            "name": "Beaches—East York"
          }
        ],
        "pollDivisionIds": [
          10137056
        ],
        "postalCode": "M4L1P2",
        "streetName": "COLUMBINE",
        "streetDirectionId": "E",
        "streetTypeId": "AVE",
        "placeName": "TORONTO",
        "streetNameDisplayText": "COLUMBINE AVE E, TORONTO"
      },
      {
        "electoralDistricts": [
          {
            "election": null,
            "id": 7,
            "name": "Beaches—East York"
          }
        ],
        "pollDivisionIds": [
          10137056
        ],
        "postalCode": "M4L1P2",
        "streetName": "COLUMBINE",
        "streetDirectionId": null,
        "streetTypeId": "AVE",
        "placeName": "TORONTO",
        "streetNameDisplayText": "COLUMBINE AVE, TORONTO"
      }
    ]
  },
  {
    "postal": "M4L5X0",
    "result": []
  },
  {
    "postal": "M4L7B8",
    "result": []
  },
  {
    "postal": "M4L0C6",
    "result": []
  },
  {
    "postal": "M4L6G1",
    "result": []
  },
  {
    "postal": "M4L3K3",
    "result": [
      {
        "electoralDistricts": [
          {
            "election": null,
            "id": 7,
            "name": "Beaches—East York"
          }
        ],
        "pollDivisionIds": [
          10137053
        ],
        "postalCode": "M4L3K3",
        "streetName": "NORMANDY",
        "streetDirectionId": null,
        "streetTypeId": "BLVD",
        "placeName": "TORONTO",
        "streetNameDisplayText": "NORMANDY BLVD, TORONTO"
      }
    ]
  },
  {
    "postal": "M4L9R0",
    "result": []
  },
  {
    "postal": "M4L4R8",
    "result": []
  },
  {
    "postal": "M4L5P9",
    "result": []
  },
  {
    "postal": "M4L8N4",
    "result": []
  },
  {
    "postal": "M4L8H4",
    "result": []
  },
  {
    "postal": "M4L4V1",
    "result": []
  },
  {
    "postal": "M4L1K5",
    "result": [
      {
        "electoralDistricts": [
          {
            "election": null,
            "id": 110,
            "name": "Toronto—Danforth"
          }
        ],
        "pollDivisionIds": [
          10142524
        ],
        "postalCode": "M4L1K5",
        "streetName": "KERR",
        "streetDirectionId": null,
        "streetTypeId": "RD",
        "placeName": "TORONTO",
        "streetNameDisplayText": "KERR RD, TORONTO"
      }
    ]
  },
  {
    "postal": "M4L1Z5",
    "result": [
      {
        "electoralDistricts": [
          {
            "election": null,
            "id": 110,
            "name": "Toronto—Danforth"
          }
        ],
        "pollDivisionIds": [
          10142518
        ],
        "postalCode": "M4L1Z5",
        "streetName": "GERRARD",
        "streetDirectionId": "E",
        "streetTypeId": "ST",
        "placeName": "TORONTO",
        "streetNameDisplayText": "GERRARD ST E, TORONTO"
      }
    ]
  },
  {
    "postal": "M4L9L9",
    "result": []
  },
  {
    "postal": "M4L5L2",
    "result": []
  },
  {
    "postal": "M4L0M2",
    "result": []
  },
  {
    "postal": "M4L1K8",
    "result": [
      {
        "electoralDistricts": [
          {
            "election": null,
            "id": 110,
            "name": "Toronto—Danforth"
          }
        ],
        "pollDivisionIds": [
          10142521
        ],
        "postalCode": "M4L1K8",
        "streetName": "DUNDAS",
        "streetDirectionId": "E",
        "streetTypeId": "ST",
        "placeName": "TORONTO",
        "streetNameDisplayText": "DUNDAS ST E, TORONTO"
      }
    ]
  },
  {
    "postal": "M4L3M7",
    "result": [
      {
        "electoralDistricts": [
          {
            "election": null,
            "id": 7,
            "name": "Beaches—East York"
          }
        ],
        "pollDivisionIds": [
          10137056
        ],
        "postalCode": "M4L3M7",
        "streetName": "LOCKWOOD",
        "streetDirectionId": null,
        "streetTypeId": "RD",
        "placeName": "TORONTO",
        "streetNameDisplayText": "LOCKWOOD RD, TORONTO"
      }
    ]
  },
  {
    "postal": "M4L1B2",
    "result": [
      {
        "electoralDistricts": [
          {
            "election": null,
            "id": 110,
            "name": "Toronto—Danforth"
          }
        ],
        "pollDivisionIds": [
          10142527
        ],
        "postalCode": "M4L1B2",
        "streetName": "SEARS",
        "streetDirectionId": null,
        "streetTypeId": "ST",
        "placeName": "TORONTO",
        "streetNameDisplayText": "SEARS ST, TORONTO"
      }
    ]
  },
  {
    "postal": "M4L0H9",
    "result": []
  },
  {
    "postal": "M4L8M4",
    "result": []
  },
  {
    "postal": "M4L2M5",
    "result": [
      {
        "electoralDistricts": [
          {
            "election": null,
            "id": 110,
            "name": "Toronto—Danforth"
          }
        ],
        "pollDivisionIds": [
          10142521
        ],
        "postalCode": "M4L2M5",
        "streetName": "ALTON",
        "streetDirectionId": null,
        "streetTypeId": "AVE",
        "placeName": "TORONTO",
        "streetNameDisplayText": "ALTON AVE, TORONTO"
      }
    ]
  },
  {
    "postal": "M4L0T9",
    "result": []
  },
  {
    "postal": "M4L3P1",
    "result": [
      {
        "electoralDistricts": [
          {
            "election": null,
            "id": 7,
            "name": "Beaches—East York"
          }
        ],
        "pollDivisionIds": [
          10137057,
          10137038
        ],
        "postalCode": "M4L3P1",
        "streetName": "WOODBINE",
        "streetDirectionId": null,
        "streetTypeId": "AV",
        "placeName": "TORONTO",
        "streetNameDisplayText": "WOODBINE AV, TORONTO"
      },
      {
        "electoralDistricts": [
          {
            "election": null,
            "id": 7,
            "name": "Beaches—East York"
          }
        ],
        "pollDivisionIds": [
          10137057
        ],
        "postalCode": "M4L3P1",
        "streetName": "WOODBINE",
        "streetDirectionId": null,
        "streetTypeId": "AVE",
        "placeName": "TORONTO",
        "streetNameDisplayText": "WOODBINE AVE, TORONTO"
      },
      {
        "electoralDistricts": [
          {
            "election": null,
            "id": 7,
            "name": "Beaches—East York"
          }
        ],
        "pollDivisionIds": [
          10137057
        ],
        "postalCode": "M4L3P1",
        "streetName": "WOODBINE",
        "streetDirectionId": null,
        "streetTypeId": "MEWS",
        "placeName": "TORONTO",
        "streetNameDisplayText": "WOODBINE MEWS, TORONTO"
      }
    ]
  },
  {
    "postal": "M4L1R6",
    "result": [
      {
        "electoralDistricts": [
          {
            "election": null,
            "id": 7,
            "name": "Beaches—East York"
          }
        ],
        "pollDivisionIds": [
          10137054
        ],
        "postalCode": "M4L1R6",
        "streetName": "RHYL",
        "streetDirectionId": null,
        "streetTypeId": "AVE",
        "placeName": "TORONTO",
        "streetNameDisplayText": "RHYL AVE, TORONTO"
      }
    ]
  },
  {
    "postal": "M4L9V5",
    "result": []
  },
  {
    "postal": "M4L9T0",
    "result": []
  },
  {
    "postal": "M4L0A9",
    "result": [
      {
        "electoralDistricts": [
          {
            "election": null,
            "id": 7,
            "name": "Beaches—East York"
          }
        ],
        "pollDivisionIds": [
          10137054
        ],
        "postalCode": "M4L0A9",
        "streetName": "HASLETT",
        "streetDirectionId": null,
        "streetTypeId": "AVE",
        "placeName": "TORONTO",
        "streetNameDisplayText": "HASLETT AVE, TORONTO"
      }
    ]
  },
  {
    "postal": "M4L1M3",
    "result": [
      {
        "electoralDistricts": [
          {
            "election": null,
            "id": 110,
            "name": "Toronto—Danforth"
          }
        ],
        "pollDivisionIds": [
          10142518
        ],
        "postalCode": "M4L1M3",
        "streetName": "DUNDAS",
        "streetDirectionId": "E",
        "streetTypeId": "ST",
        "placeName": "TORONTO",
        "streetNameDisplayText": "DUNDAS ST E, TORONTO"
      }
    ]
  },
  {
    "postal": "M4L1W8",
    "result": [
      {
        "electoralDistricts": [
          {
            "election": null,
            "id": 110,
            "name": "Toronto—Danforth"
          }
        ],
        "pollDivisionIds": [
          10142518,
          10142524
        ],
        "postalCode": "M4L1W8",
        "streetName": "RICHARD",
        "streetDirectionId": null,
        "streetTypeId": "AVE",
        "placeName": "TORONTO",
        "streetNameDisplayText": "RICHARD AVE, TORONTO"
      }
    ]
  },
  {
    "postal": "M4L9J1",
    "result": []
  },
  {
    "postal": "M4L8N5",
    "result": []
  },
  {
    "postal": "M4L5X1",
    "result": []
  },
  {
    "postal": "M4L6S2",
    "result": []
  },
  {
    "postal": "M4L2A2",
    "result": [
      {
        "electoralDistricts": [
          {
            "election": null,
            "id": 7,
            "name": "Beaches—East York"
          }
        ],
        "pollDivisionIds": [
          10137056
        ],
        "postalCode": "M4L2A2",
        "streetName": "WOODBINE",
        "streetDirectionId": null,
        "streetTypeId": "AVE",
        "placeName": "TORONTO",
        "streetNameDisplayText": "WOODBINE AVE, TORONTO"
      }
    ]
  },
  {
    "postal": "M4L6A6",
    "result": []
  },
  {
    "postal": "M4L0S3",
    "result": []
  },
  {
    "postal": "M4L3E7",
    "result": [
      {
        "electoralDistricts": [
          {
            "election": null,
            "id": 7,
            "name": "Beaches—East York"
          }
        ],
        "pollDivisionIds": [
          10137052
        ],
        "postalCode": "M4L3E7",
        "streetName": "MAUGHAN",
        "streetDirectionId": null,
        "streetTypeId": "CRES",
        "placeName": "TORONTO",
        "streetNameDisplayText": "MAUGHAN CRES, TORONTO"
      }
    ]
  },
  {
    "postal": "M4L5R7",
    "result": []
  },
  {
    "postal": "M4L3R6",
    "result": [
      {
        "electoralDistricts": [
          {
            "election": null,
            "id": 7,
            "name": "Beaches—East York"
          }
        ],
        "pollDivisionIds": [
          10137053
        ],
        "postalCode": "M4L3R6",
        "streetName": "ELMER",
        "streetDirectionId": null,
        "streetTypeId": "AVE",
        "placeName": "TORONTO",
        "streetNameDisplayText": "ELMER AVE, TORONTO"
      }
    ]
  },
  {
    "postal": "M4L6K4",
    "result": []
  },
  {
    "postal": "M4L2W5",
    "result": [
      {
        "electoralDistricts": [
          {
            "election": null,
            "id": 110,
            "name": "Toronto—Danforth"
          }
        ],
        "pollDivisionIds": [
          10142524
        ],
        "postalCode": "M4L2W5",
        "streetName": "WOODFIELD",
        "streetDirectionId": null,
        "streetTypeId": "RD",
        "placeName": "TORONTO",
        "streetNameDisplayText": "WOODFIELD RD, TORONTO"
      }
    ]
  },
  {
    "postal": "M4L8W4",
    "result": []
  },
  {
    "postal": "M4L9C2",
    "result": []
  },
  {
    "postal": "M4L2C0",
    "result": []
  },
  {
    "postal": "M4L0E1",
    "result": []
  },
  {
    "postal": "M4L1K9",
    "result": [
      {
        "electoralDistricts": [
          {
            "election": null,
            "id": 110,
            "name": "Toronto—Danforth"
          }
        ],
        "pollDivisionIds": [
          10143804
        ],
        "postalCode": "M4L1K9",
        "streetName": "DUNDAS",
        "streetDirectionId": "E",
        "streetTypeId": "ST",
        "placeName": "TORONTO",
        "streetNameDisplayText": "DUNDAS ST E, TORONTO"
      }
    ]
  },
  {
    "postal": "M4L1G7",
    "result": [
      {
        "electoralDistricts": [
          {
            "election": null,
            "id": 7,
            "name": "Beaches—East York"
          }
        ],
        "pollDivisionIds": [
          10137056
        ],
        "postalCode": "M4L1G7",
        "streetName": "QUEEN",
        "streetDirectionId": "E",
        "streetTypeId": "ST",
        "placeName": "TORONTO",
        "streetNameDisplayText": "QUEEN ST E, TORONTO"
      }
    ]
  },
  {
    "postal": "M4L4E9",
    "result": []
  },
  {
    "postal": "M4L9P0",
    "result": []
  },
  {
    "postal": "M4L5H3",
    "result": []
  },
  {
    "postal": "M4L9X6",
    "result": []
  },
  {
    "postal": "M4L5N7",
    "result": []
  },
  {
    "postal": "M4L5A6",
    "result": []
  },
  {
    "postal": "M4L4M0",
    "result": []
  },
  {
    "postal": "M4L3V6",
    "result": [
      {
        "electoralDistricts": [
          {
            "election": null,
            "id": 7,
            "name": "Beaches—East York"
          }
        ],
        "pollDivisionIds": [
          10137058
        ],
        "postalCode": "M4L3V6",
        "streetName": "WHEELER",
        "streetDirectionId": null,
        "streetTypeId": "AVE",
        "placeName": "TORONTO",
        "streetNameDisplayText": "WHEELER AVE, TORONTO"
      }
    ]
  },
  {
    "postal": "M4L1L7",
    "result": [
      {
        "electoralDistricts": [
          {
            "election": null,
            "id": 110,
            "name": "Toronto—Danforth"
          }
        ],
        "pollDivisionIds": [
          10142524
        ],
        "postalCode": "M4L1L7",
        "streetName": "DUNDAS",
        "streetDirectionId": "E",
        "streetTypeId": "ST",
        "placeName": "TORONTO",
        "streetNameDisplayText": "DUNDAS ST E, TORONTO"
      }
    ]
  },
  {
    "postal": "M4L2P9",
    "result": [
      {
        "electoralDistricts": [
          {
            "election": null,
            "id": 110,
            "name": "Toronto—Danforth"
          }
        ],
        "pollDivisionIds": [
          10142524
        ],
        "postalCode": "M4L2P9",
        "streetName": "GREENWOOD",
        "streetDirectionId": null,
        "streetTypeId": "AVE",
        "placeName": "TORONTO",
        "streetNameDisplayText": "GREENWOOD AVE, TORONTO"
      }
    ]
  },
  {
    "postal": "M4L5T4",
    "result": []
  },
  {
    "postal": "M4L5Z1",
    "result": []
  },
  {
    "postal": "M4L2X0",
    "result": []
  },
  {
    "postal": "M4L6Z2",
    "result": []
  },
  {
    "postal": "M4L0E0",
    "result": []
  },
  {
    "postal": "M4L3Z5",
    "result": [
      {
        "electoralDistricts": [
          {
            "election": null,
            "id": 110,
            "name": "Toronto—Danforth"
          }
        ],
        "pollDivisionIds": [
          10142524
        ],
        "postalCode": "M4L3Z5",
        "streetName": "CAM FELLA",
        "streetDirectionId": null,
        "streetTypeId": "LANE",
        "placeName": "TORONTO",
        "streetNameDisplayText": "CAM FELLA LANE, TORONTO"
      }
    ]
  },
  {
    "postal": "M4L8H3",
    "result": []
  },
  {
    "postal": "M4L7S6",
    "result": []
  },
  {
    "postal": "M4L4C1",
    "result": []
  },
  {
    "postal": "M4L3K2",
    "result": [
      {
        "electoralDistricts": [
          {
            "election": null,
            "id": 7,
            "name": "Beaches—East York"
          }
        ],
        "pollDivisionIds": [
          10137053
        ],
        "postalCode": "M4L3K2",
        "streetName": "NORMANDY",
        "streetDirectionId": null,
        "streetTypeId": "BLVD",
        "placeName": "TORONTO",
        "streetNameDisplayText": "NORMANDY BLVD, TORONTO"
      }
    ]
  },
  {
    "postal": "M4L1Y5",
    "result": [
      {
        "electoralDistricts": [
          {
            "election": null,
            "id": 110,
            "name": "Toronto—Danforth"
          }
        ],
        "pollDivisionIds": [
          10142521
        ],
        "postalCode": "M4L1Y5",
        "streetName": "GERRARD",
        "streetDirectionId": "E",
        "streetTypeId": "ST",
        "placeName": "TORONTO",
        "streetNameDisplayText": "GERRARD ST E, TORONTO"
      }
    ]
  },
  {
    "postal": "M4L6P6",
    "result": []
  },
  {
    "postal": "M4L3N9",
    "result": [
      {
        "electoralDistricts": [
          {
            "election": null,
            "id": 7,
            "name": "Beaches—East York"
          }
        ],
        "pollDivisionIds": [
          10137053
        ],
        "postalCode": "M4L3N9",
        "streetName": "RAINSFORD",
        "streetDirectionId": null,
        "streetTypeId": "RD",
        "placeName": "TORONTO",
        "streetNameDisplayText": "RAINSFORD RD, TORONTO"
      }
    ]
  },
  {
    "postal": "M4L3W2",
    "result": [
      {
        "electoralDistricts": [
          {
            "election": null,
            "id": 7,
            "name": "Beaches—East York"
          }
        ],
        "pollDivisionIds": [
          10137052
        ],
        "postalCode": "M4L3W2",
        "streetName": "HEMLOCK",
        "streetDirectionId": null,
        "streetTypeId": "AVE",
        "placeName": "TORONTO",
        "streetNameDisplayText": "HEMLOCK AVE, TORONTO"
      }
    ]
  },
  {
    "postal": "M4L6H8",
    "result": []
  },
  {
    "postal": "M4L9T3",
    "result": []
  },
  {
    "postal": "M4L5L9",
    "result": []
  },
  {
    "postal": "M4L7X7",
    "result": []
  },
  {
    "postal": "M4L3J5",
    "result": [
      {
        "electoralDistricts": [
          {
            "election": null,
            "id": 7,
            "name": "Beaches—East York"
          }
        ],
        "pollDivisionIds": [
          10137049
        ],
        "postalCode": "M4L3J5",
        "streetName": "BELLHAVEN",
        "streetDirectionId": null,
        "streetTypeId": "RD",
        "placeName": "TORONTO",
        "streetNameDisplayText": "BELLHAVEN RD, TORONTO"
      }
    ]
  },
  {
    "postal": "M4L4J5",
    "result": []
  },
  {
    "postal": "M4L6J2",
    "result": []
  },
  {
    "postal": "M4L5V6",
    "result": []
  },
  {
    "postal": "M4L3N2",
    "result": [
      {
        "electoralDistricts": [
          {
            "election": null,
            "id": 7,
            "name": "Beaches—East York"
          }
        ],
        "pollDivisionIds": [
          10137056
        ],
        "postalCode": "M4L3N2",
        "streetName": "BROOKMOUNT",
        "streetDirectionId": null,
        "streetTypeId": "RD",
        "placeName": "TORONTO",
        "streetNameDisplayText": "BROOKMOUNT RD, TORONTO"
      }
    ]
  },
  {
    "postal": "M4L3B1",
    "result": [
      {
        "electoralDistricts": [
          {
            "election": null,
            "id": 7,
            "name": "Beaches—East York"
          }
        ],
        "pollDivisionIds": [
          10137056
        ],
        "postalCode": "M4L3B1",
        "streetName": "COXWELL",
        "streetDirectionId": null,
        "streetTypeId": "AVE",
        "placeName": "TORONTO",
        "streetNameDisplayText": "COXWELL AVE, TORONTO"
      }
    ]
  },
  {
    "postal": "M4L8B5",
    "result": []
  },
  {
    "postal": "M4L0K1",
    "result": []
  },
  {
    "postal": "M4L7M7",
    "result": []
  },
  {
    "postal": "M4L2M2",
    "result": [
      {
        "electoralDistricts": [
          {
            "election": null,
            "id": 110,
            "name": "Toronto—Danforth"
          }
        ],
        "pollDivisionIds": [
          10143804
        ],
        "postalCode": "M4L2M2",
        "streetName": "ALTON",
        "streetDirectionId": null,
        "streetTypeId": "AVE",
        "placeName": "TORONTO",
        "streetNameDisplayText": "ALTON AVE, TORONTO"
      }
    ]
  },
  {
    "postal": "M4L9N3",
    "result": []
  },
  {
    "postal": "M4L4Y8",
    "result": []
  },
  {
    "postal": "M4L3V7",
    "result": [
      {
        "electoralDistricts": [
          {
            "election": null,
            "id": 7,
            "name": "Beaches—East York"
          }
        ],
        "pollDivisionIds": [
          10137058
        ],
        "postalCode": "M4L3V7",
        "streetName": "WHEELER",
        "streetDirectionId": null,
        "streetTypeId": "AVE",
        "placeName": "TORONTO",
        "streetNameDisplayText": "WHEELER AVE, TORONTO"
      }
    ]
  },
  {
    "postal": "M4L8Z1",
    "result": []
  },
  {
    "postal": "M4L7B3",
    "result": []
  },
  {
    "postal": "M4L3A8",
    "result": [
      {
        "electoralDistricts": [
          {
            "election": null,
            "id": 7,
            "name": "Beaches—East York"
          }
        ],
        "pollDivisionIds": [
          10137056
        ],
        "postalCode": "M4L3A8",
        "streetName": "COXWELL",
        "streetDirectionId": null,
        "streetTypeId": "AVE",
        "placeName": "TORONTO",
        "streetNameDisplayText": "COXWELL AVE, TORONTO"
      }
    ]
  },
  {
    "postal": "M4L7V5",
    "result": []
  },
  {
    "postal": "M4L2T2",
    "result": [
      {
        "electoralDistricts": [
          {
            "election": null,
            "id": 110,
            "name": "Toronto—Danforth"
          }
        ],
        "pollDivisionIds": [
          10142524
        ],
        "postalCode": "M4L2T2",
        "streetName": "HERTLE",
        "streetDirectionId": null,
        "streetTypeId": "AVE",
        "placeName": "TORONTO",
        "streetNameDisplayText": "HERTLE AVE, TORONTO"
      }
    ]
  },
  {
    "postal": "M4L6L3",
    "result": []
  },
  {
    "postal": "M4L0L2",
    "result": []
  },
  {
    "postal": "M4L5Y8",
    "result": []
  },
  {
    "postal": "M4L0B8",
    "result": []
  },
  {
    "postal": "M4L6R5",
    "result": []
  },
  {
    "postal": "M4L8W6",
    "result": []
  },
  {
    "postal": "M4L8G6",
    "result": []
  },
  {
    "postal": "M4L6X3",
    "result": []
  },
  {
    "postal": "M4L7R7",
    "result": []
  },
  {
    "postal": "M4L4B6",
    "result": []
  },
  {
    "postal": "M4L3P9",
    "result": [
      {
        "electoralDistricts": [
          {
            "election": null,
            "id": 7,
            "name": "Beaches—East York"
          }
        ],
        "pollDivisionIds": [
          10137053
        ],
        "postalCode": "M4L3P9",
        "streetName": "HERBERT",
        "streetDirectionId": null,
        "streetTypeId": "AVE",
        "placeName": "TORONTO",
        "streetNameDisplayText": "HERBERT AVE, TORONTO"
      }
    ]
  },
  {
    "postal": "M4L2T3",
    "result": [
      {
        "electoralDistricts": [
          {
            "election": null,
            "id": 110,
            "name": "Toronto—Danforth"
          }
        ],
        "pollDivisionIds": [
          10142518
        ],
        "postalCode": "M4L2T3",
        "streetName": "HERTLE",
        "streetDirectionId": null,
        "streetTypeId": "AVE",
        "placeName": "TORONTO",
        "streetNameDisplayText": "HERTLE AVE, TORONTO"
      }
    ]
  },
  {
    "postal": "M4L1M4",
    "result": [
      {
        "electoralDistricts": [
          {
            "election": null,
            "id": 110,
            "name": "Toronto—Danforth"
          }
        ],
        "pollDivisionIds": [
          10142524
        ],
        "postalCode": "M4L1M4",
        "streetName": "DUNDAS",
        "streetDirectionId": "E",
        "streetTypeId": "ST",
        "placeName": "TORONTO",
        "streetNameDisplayText": "DUNDAS ST E, TORONTO"
      }
    ]
  },
  {
    "postal": "M4L0H1",
    "result": []
  },
  {
    "postal": "M4L9W3",
    "result": []
  },
  {
    "postal": "M4L6P1",
    "result": []
  },
  {
    "postal": "M4L7G2",
    "result": []
  },
  {
    "postal": "M4L4J9",
    "result": []
  },
  {
    "postal": "M4L9E4",
    "result": []
  },
  {
    "postal": "M4L8H0",
    "result": []
  },
  {
    "postal": "M4L4M7",
    "result": []
  },
  {
    "postal": "M4L2G9",
    "result": [
      {
        "electoralDistricts": [
          {
            "election": null,
            "id": 7,
            "name": "Beaches—East York"
          }
        ],
        "pollDivisionIds": [
          10137049
        ],
        "postalCode": "M4L2G9",
        "streetName": "DUVERNET",
        "streetDirectionId": null,
        "streetTypeId": "AVE",
        "placeName": "TORONTO",
        "streetNameDisplayText": "DUVERNET AVE, TORONTO"
      }
    ]
  },
  {
    "postal": "M4L8T2",
    "result": []
  },
  {
    "postal": "M4L7G7",
    "result": []
  },
  {
    "postal": "M4L4Z3",
    "result": []
  },
  {
    "postal": "M4L5B3",
    "result": []
  },
  {
    "postal": "M4L1S7",
    "result": [
      {
        "electoralDistricts": [
          {
            "election": null,
            "id": 7,
            "name": "Beaches—East York"
          }
        ],
        "pollDivisionIds": [
          10137053
        ],
        "postalCode": "M4L1S7",
        "streetName": "KINGSTON",
        "streetDirectionId": null,
        "streetTypeId": "RD",
        "placeName": "TORONTO",
        "streetNameDisplayText": "KINGSTON RD, TORONTO"
      }
    ]
  },
  {
    "postal": "M4L2N7",
    "result": [
      {
        "electoralDistricts": [
          {
            "election": null,
            "id": 110,
            "name": "Toronto—Danforth"
          }
        ],
        "pollDivisionIds": [
          10142524
        ],
        "postalCode": "M4L2N7",
        "streetName": "HILTZ",
        "streetDirectionId": null,
        "streetTypeId": "AVE",
        "placeName": "TORONTO",
        "streetNameDisplayText": "HILTZ AVE, TORONTO"
      }
    ]
  },
  {
    "postal": "M4L0H8",
    "result": []
  },
  {
    "postal": "M4L7Z4",
    "result": []
  },
  {
    "postal": "M4L7B1",
    "result": []
  },
  {
    "postal": "M4L7P8",
    "result": []
  },
  {
    "postal": "M4L7N0",
    "result": []
  },
  {
    "postal": "M4L3Y5",
    "result": [
      {
        "electoralDistricts": [
          {
            "election": null,
            "id": 7,
            "name": "Beaches—East York"
          }
        ],
        "pollDivisionIds": [
          10137056
        ],
        "postalCode": "M4L3Y5",
        "streetName": "QUEEN",
        "streetDirectionId": "E",
        "streetTypeId": "ST",
        "placeName": "TORONTO",
        "streetNameDisplayText": "QUEEN ST E, TORONTO"
      }
    ]
  },
  {
    "postal": "M4L6K1",
    "result": []
  },
  {
    "postal": "M4L9X5",
    "result": []
  },
  {
    "postal": "M4L7S5",
    "result": []
  },
  {
    "postal": "M4L0A4",
    "result": [
      {
        "electoralDistricts": [
          {
            "election": null,
            "id": 7,
            "name": "Beaches—East York"
          }
        ],
        "pollDivisionIds": [
          10137057
        ],
        "postalCode": "M4L0A4",
        "streetName": "KIPPENDAVIE",
        "streetDirectionId": null,
        "streetTypeId": "AVE",
        "placeName": "TORONTO",
        "streetNameDisplayText": "KIPPENDAVIE AVE, TORONTO"
      }
    ]
  },
  {
    "postal": "M4L4T5",
    "result": []
  },
  {
    "postal": "M4L5K1",
    "result": []
  },
  {
    "postal": "M4L0Z9",
    "result": []
  },
  {
    "postal": "M4L7T2",
    "result": []
  },
  {
    "postal": "M4L1L5",
    "result": [
      {
        "electoralDistricts": [
          {
            "election": null,
            "id": 110,
            "name": "Toronto—Danforth"
          }
        ],
        "pollDivisionIds": [
          10142524
        ],
        "postalCode": "M4L1L5",
        "streetName": "DUNDAS",
        "streetDirectionId": "E",
        "streetTypeId": "ST",
        "placeName": "TORONTO",
        "streetNameDisplayText": "DUNDAS ST E, TORONTO"
      }
    ]
  },
  {
    "postal": "M4L3N5",
    "result": [
      {
        "electoralDistricts": [
          {
            "election": null,
            "id": 7,
            "name": "Beaches—East York"
          }
        ],
        "pollDivisionIds": [
          10137053
        ],
        "postalCode": "M4L3N5",
        "streetName": "RAINSFORD",
        "streetDirectionId": null,
        "streetTypeId": "RD",
        "placeName": "TORONTO",
        "streetNameDisplayText": "RAINSFORD RD, TORONTO"
      }
    ]
  },
  {
    "postal": "M4L6H4",
    "result": []
  },
  {
    "postal": "M4L5A5",
    "result": []
  },
  {
    "postal": "M4L3R9",
    "result": [
      {
        "electoralDistricts": [
          {
            "election": null,
            "id": 7,
            "name": "Beaches—East York"
          }
        ],
        "pollDivisionIds": [
          10137054
        ],
        "postalCode": "M4L3R9",
        "streetName": "ELMER",
        "streetDirectionId": null,
        "streetTypeId": "AVE",
        "placeName": "TORONTO",
        "streetNameDisplayText": "ELMER AVE, TORONTO"
      }
    ]
  },
  {
    "postal": "M4L7L8",
    "result": []
  },
  {
    "postal": "M4L6T6",
    "result": []
  },
  {
    "postal": "M4L7Y7",
    "result": []
  },
  {
    "postal": "M4L3M8",
    "result": [
      {
        "electoralDistricts": [
          {
            "election": null,
            "id": 7,
            "name": "Beaches—East York"
          }
        ],
        "pollDivisionIds": [
          10137056
        ],
        "postalCode": "M4L3M8",
        "streetName": "LOCKWOOD",
        "streetDirectionId": null,
        "streetTypeId": "RD",
        "placeName": "TORONTO",
        "streetNameDisplayText": "LOCKWOOD RD, TORONTO"
      }
    ]
  },
  {
    "postal": "M4L2E0",
    "result": []
  },
  {
    "postal": "M4L4B5",
    "result": []
  },
  {
    "postal": "M4L1J3",
    "result": [
      {
        "electoralDistricts": [
          {
            "election": null,
            "id": 7,
            "name": "Beaches—East York"
          }
        ],
        "pollDivisionIds": [
          10137058
        ],
        "postalCode": "M4L1J3",
        "streetName": "QUEEN",
        "streetDirectionId": "E",
        "streetTypeId": "ST",
        "placeName": "TORONTO",
        "streetNameDisplayText": "QUEEN ST E, TORONTO"
      }
    ]
  },
  {
    "postal": "M4L5S6",
    "result": []
  },
  {
    "postal": "M4L8P7",
    "result": []
  },
  {
    "postal": "M4L7S7",
    "result": []
  },
  {
    "postal": "M4L4C2",
    "result": []
  },
  {
    "postal": "M4L5Y0",
    "result": []
  },
  {
    "postal": "M4L2V7",
    "result": [
      {
        "electoralDistricts": [
          {
            "election": null,
            "id": 110,
            "name": "Toronto—Danforth"
          }
        ],
        "pollDivisionIds": [
          10142515
        ],
        "postalCode": "M4L2V7",
        "streetName": "HIGHFIELD",
        "streetDirectionId": null,
        "streetTypeId": "RD",
        "placeName": "TORONTO",
        "streetNameDisplayText": "HIGHFIELD RD, TORONTO"
      }
    ]
  },
  {
    "postal": "M4L8P5",
    "result": []
  },
  {
    "postal": "M4L5P5",
    "result": []
  },
  {
    "postal": "M4L5Z0",
    "result": []
  },
  {
    "postal": "M4L9B0",
    "result": []
  },
  {
    "postal": "M4L1L0",
    "result": []
  },
  {
    "postal": "M4L0B5",
    "result": [
      {
        "electoralDistricts": [
          {
            "election": null,
            "id": 110,
            "name": "Toronto—Danforth"
          }
        ],
        "pollDivisionIds": [
          10142518
        ],
        "postalCode": "M4L0B5",
        "streetName": "COXWELL",
        "streetDirectionId": null,
        "streetTypeId": "AVE",
        "placeName": "TORONTO",
        "streetNameDisplayText": "COXWELL AVE, TORONTO"
      }
    ]
  },
  {
    "postal": "M4L3L2",
    "result": [
      {
        "electoralDistricts": [
          {
            "election": null,
            "id": 7,
            "name": "Beaches—East York"
          }
        ],
        "pollDivisionIds": [
          10137053
        ],
        "postalCode": "M4L3L2",
        "streetName": "KINGSMOUNT PARK",
        "streetDirectionId": null,
        "streetTypeId": "RD",
        "placeName": "TORONTO",
        "streetNameDisplayText": "KINGSMOUNT PARK RD, TORONTO"
      }
    ]
  },
  {
    "postal": "M4L3B7",
    "result": [
      {
        "electoralDistricts": [
          {
            "election": null,
            "id": 110,
            "name": "Toronto—Danforth"
          }
        ],
        "pollDivisionIds": [
          10142515
        ],
        "postalCode": "M4L3B7",
        "streetName": "COXWELL",
        "streetDirectionId": null,
        "streetTypeId": "AVE",
        "placeName": "TORONTO",
        "streetNameDisplayText": "COXWELL AVE, TORONTO"
      }
    ]
  },
  {
    "postal": "M4L8L1",
    "result": []
  },
  {
    "postal": "M4L5M4",
    "result": []
  },
  {
    "postal": "M4L4G9",
    "result": []
  },
  {
    "postal": "M4L0P0",
    "result": []
  },
  {
    "postal": "M4L8G2",
    "result": []
  },
  {
    "postal": "M4L1V9",
    "result": [
      {
        "electoralDistricts": [
          {
            "election": null,
            "id": 7,
            "name": "Beaches—East York"
          }
        ],
        "pollDivisionIds": [
          10137049
        ],
        "postalCode": "M4L1V9",
        "streetName": "SAWDEN AVE",
        "streetDirectionId": null,
        "streetTypeId": "AVE",
        "placeName": "TORONTO",
        "streetNameDisplayText": "SAWDEN AVE AVE, TORONTO"
      },
      {
        "electoralDistricts": [
          {
            "election": null,
            "id": 110,
            "name": "Toronto—Danforth"
          }
        ],
        "pollDivisionIds": [
          10142521
        ],
        "postalCode": "M4L1V9",
        "streetName": "SAWDEN",
        "streetDirectionId": null,
        "streetTypeId": "AVE",
        "placeName": "TORONTO",
        "streetNameDisplayText": "SAWDEN AVE, TORONTO"
      }
    ]
  },
  {
    "postal": "M4L8N8",
    "result": []
  },
  {
    "postal": "M4L6S8",
    "result": [
      {
        "electoralDistricts": [
          {
            "election": null,
            "id": 7,
            "name": "Beaches—East York"
          }
        ],
        "pollDivisionIds": [
          10137056
        ],
        "postalCode": "M4L6S8",
        "streetName": "LAKE SHORE",
        "streetDirectionId": "E",
        "streetTypeId": "BLVD",
        "placeName": "TORONTO",
        "streetNameDisplayText": "LAKE SHORE BLVD E, TORONTO"
      }
    ]
  },
  {
    "postal": "M4L8H2",
    "result": []
  },
  {
    "postal": "M4L5R8",
    "result": []
  },
  {
    "postal": "M4L5L4",
    "result": []
  },
  {
    "postal": "M4L9E1",
    "result": []
  },
  {
    "postal": "M4L1C4",
    "result": [
      {
        "electoralDistricts": [
          {
            "election": null,
            "id": 110,
            "name": "Toronto—Danforth"
          }
        ],
        "pollDivisionIds": [
          10142527
        ],
        "postalCode": "M4L1C4",
        "streetName": "QUEEN",
        "streetDirectionId": "E",
        "streetTypeId": "ST",
        "placeName": "TORONTO",
        "streetNameDisplayText": "QUEEN ST E, TORONTO"
      }
    ]
  },
  {
    "postal": "M4L8W5",
    "result": []
  },
  {
    "postal": "M4L1Y4",
    "result": [
      {
        "electoralDistricts": [
          {
            "election": null,
            "id": 110,
            "name": "Toronto—Danforth"
          }
        ],
        "pollDivisionIds": [
          10142517
        ],
        "postalCode": "M4L1Y4",
        "streetName": "GERRARD",
        "streetDirectionId": "E",
        "streetTypeId": "ST",
        "placeName": "TORONTO",
        "streetNameDisplayText": "GERRARD ST E, TORONTO"
      }
    ]
  },
  {
    "postal": "M4L1C0",
    "result": []
  },
  {
    "postal": "M4L2J2",
    "result": [
      {
        "electoralDistricts": [
          {
            "election": null,
            "id": 110,
            "name": "Toronto—Danforth"
          }
        ],
        "pollDivisionIds": [
          10142515
        ],
        "postalCode": "M4L2J2",
        "streetName": "WALPOLE",
        "streetDirectionId": null,
        "streetTypeId": "AVE",
        "placeName": "TORONTO",
        "streetNameDisplayText": "WALPOLE AVE, TORONTO"
      }
    ]
  },
  {
    "postal": "M4L2J0",
    "result": []
  },
  {
    "postal": "M4L7A3",
    "result": []
  },
  {
    "postal": "M4L8M1",
    "result": []
  },
  {
    "postal": "M4L7T9",
    "result": []
  },
  {
    "postal": "M4L6C0",
    "result": []
  },
  {
    "postal": "M4L7X1",
    "result": []
  },
  {
    "postal": "M4L0G1",
    "result": []
  },
  {
    "postal": "M4L4X2",
    "result": []
  },
  {
    "postal": "M4L0N6",
    "result": []
  },
  {
    "postal": "M4L8E3",
    "result": []
  },
  {
    "postal": "M4L5S8",
    "result": []
  },
  {
    "postal": "M4L0R0",
    "result": []
  },
  {
    "postal": "M4L6J6",
    "result": []
  },
  {
    "postal": "M4L4B4",
    "result": []
  },
  {
    "postal": "M4L7E3",
    "result": []
  },
  {
    "postal": "M4L3N6",
    "result": [
      {
        "electoralDistricts": [
          {
            "election": null,
            "id": 7,
            "name": "Beaches—East York"
          }
        ],
        "pollDivisionIds": [
          10137053
        ],
        "postalCode": "M4L3N6",
        "streetName": "RAINSFORD",
        "streetDirectionId": null,
        "streetTypeId": "RD",
        "placeName": "TORONTO",
        "streetNameDisplayText": "RAINSFORD RD, TORONTO"
      }
    ]
  },
  {
    "postal": "M4L3X6",
    "result": [
      {
        "electoralDistricts": [
          {
            "election": null,
            "id": 7,
            "name": "Beaches—East York"
          }
        ],
        "pollDivisionIds": [
          10137056
        ],
        "postalCode": "M4L3X6",
        "streetName": "QUEEN",
        "streetDirectionId": "E",
        "streetTypeId": "ST",
        "placeName": "TORONTO",
        "streetNameDisplayText": "QUEEN ST E, TORONTO"
      }
    ]
  },
  {
    "postal": "M4L8L0",
    "result": []
  },
  {
    "postal": "M4L8N1",
    "result": []
  },
  {
    "postal": "M4L4J0",
    "result": []
  },
  {
    "postal": "M4L0X7",
    "result": []
  },
  {
    "postal": "M4L6S4",
    "result": []
  },
  {
    "postal": "M4L0Z0",
    "result": []
  },
  {
    "postal": "M4L9X8",
    "result": []
  },
  {
    "postal": "M4L3H3",
    "result": [
      {
        "electoralDistricts": [
          {
            "election": null,
            "id": 7,
            "name": "Beaches—East York"
          }
        ],
        "pollDivisionIds": [
          10137049
        ],
        "postalCode": "M4L3H3",
        "streetName": "EDGEWOOD",
        "streetDirectionId": null,
        "streetTypeId": "AVE",
        "placeName": "TORONTO",
        "streetNameDisplayText": "EDGEWOOD AVE, TORONTO"
      }
    ]
  },
  {
    "postal": "M4L7S2",
    "result": []
  },
  {
    "postal": "M4L3T3",
    "result": [
      {
        "electoralDistricts": [
          {
            "election": null,
            "id": 7,
            "name": "Beaches—East York"
          }
        ],
        "pollDivisionIds": [
          10137058,
          10137057
        ],
        "postalCode": "M4L3T3",
        "streetName": "WAVERLEY",
        "streetDirectionId": null,
        "streetTypeId": "RD",
        "placeName": "TORONTO",
        "streetNameDisplayText": "WAVERLEY RD, TORONTO"
      }
    ]
  },
  {
    "postal": "M4L9P3",
    "result": []
  },
  {
    "postal": "M4L4H8",
    "result": []
  },
  {
    "postal": "M4L6R1",
    "result": []
  },
  {
    "postal": "M4L1S0",
    "result": []
  },
  {
    "postal": "M4L3W8",
    "result": [
      {
        "electoralDistricts": [
          {
            "election": null,
            "id": 7,
            "name": "Beaches—East York"
          }
        ],
        "pollDivisionIds": [
          10137054
        ],
        "postalCode": "M4L3W8",
        "streetName": "KINGSTON",
        "streetDirectionId": null,
        "streetTypeId": "RD",
        "placeName": "TORONTO",
        "streetNameDisplayText": "KINGSTON RD, TORONTO"
      }
    ]
  },
  {
    "postal": "M4L4S3",
    "result": []
  },
  {
    "postal": "M4L1B6",
    "result": [
      {
        "electoralDistricts": [
          {
            "election": null,
            "id": 110,
            "name": "Toronto—Danforth"
          }
        ],
        "pollDivisionIds": [
          10142524
        ],
        "postalCode": "M4L1B6",
        "streetName": "MINTO",
        "streetDirectionId": null,
        "streetTypeId": "ST",
        "placeName": "TORONTO",
        "streetNameDisplayText": "MINTO ST, TORONTO"
      }
    ]
  },
  {
    "postal": "M4L8R3",
    "result": []
  },
  {
    "postal": "M4L4V9",
    "result": []
  },
  {
    "postal": "M4L9W4",
    "result": []
  },
  {
    "postal": "M4L3T4",
    "result": [
      {
        "electoralDistricts": [
          {
            "election": null,
            "id": 7,
            "name": "Beaches—East York"
          }
        ],
        "pollDivisionIds": [
          10137058
        ],
        "postalCode": "M4L3T4",
        "streetName": "WAVERLEY",
        "streetDirectionId": null,
        "streetTypeId": "RD",
        "placeName": "TORONTO",
        "streetNameDisplayText": "WAVERLEY RD, TORONTO"
      }
    ]
  },
  {
    "postal": "M4L5C7",
    "result": []
  },
  {
    "postal": "M4L3Y1",
    "result": [
      {
        "electoralDistricts": [
          {
            "election": null,
            "id": 7,
            "name": "Beaches—East York"
          }
        ],
        "pollDivisionIds": [
          10137056
        ],
        "postalCode": "M4L3Y1",
        "streetName": "SARAH ASHBRIDGE",
        "streetDirectionId": null,
        "streetTypeId": "AVE",
        "placeName": "TORONTO",
        "streetNameDisplayText": "SARAH ASHBRIDGE AVE, TORONTO"
      }
    ]
  },
  {
    "postal": "M4L5V0",
    "result": []
  },
  {
    "postal": "M4L8G8",
    "result": []
  },
  {
    "postal": "M4L8B1",
    "result": []
  },
  {
    "postal": "M4L4P5",
    "result": []
  },
  {
    "postal": "M4L7B2",
    "result": []
  },
  {
    "postal": "M4L0R2",
    "result": []
  },
  {
    "postal": "M4L4M4",
    "result": []
  },
  {
    "postal": "M4L7M4",
    "result": []
  },
  {
    "postal": "M4L9S7",
    "result": []
  },
  {
    "postal": "M4L5Z7",
    "result": []
  },
  {
    "postal": "M4L7J7",
    "result": []
  },
  {
    "postal": "M4L8R8",
    "result": []
  },
  {
    "postal": "M4L9X1",
    "result": []
  },
  {
    "postal": "M4L5M9",
    "result": []
  },
  {
    "postal": "M4L9B4",
    "result": []
  },
  {
    "postal": "M4L0L9",
    "result": []
  },
  {
    "postal": "M4L9G4",
    "result": []
  },
  {
    "postal": "M4L1J4",
    "result": [
      {
        "electoralDistricts": [
          {
            "election": null,
            "id": 7,
            "name": "Beaches—East York"
          }
        ],
        "pollDivisionIds": [
          10137058
        ],
        "postalCode": "M4L1J4",
        "streetName": "QUEEN",
        "streetDirectionId": "E",
        "streetTypeId": "ST",
        "placeName": "TORONTO",
        "streetNameDisplayText": "QUEEN ST E, TORONTO"
      }
    ]
  },
  {
    "postal": "M4L0W6",
    "result": []
  },
  {
    "postal": "M4L4C5",
    "result": []
  },
  {
    "postal": "M4L7E4",
    "result": []
  },
  {
    "postal": "M4L1R9",
    "result": [
      {
        "electoralDistricts": [
          {
            "election": null,
            "id": 7,
            "name": "Beaches—East York"
          }
        ],
        "pollDivisionIds": [
          10137054
        ],
        "postalCode": "M4L1R9",
        "streetName": "RHYL",
        "streetDirectionId": null,
        "streetTypeId": "AVE",
        "placeName": "TORONTO",
        "streetNameDisplayText": "RHYL AVE, TORONTO"
      }
    ]
  },
  {
    "postal": "M4L2P0",
    "result": []
  },
  {
    "postal": "M4L5S4",
    "result": []
  },
  {
    "postal": "M4L5K8",
    "result": []
  },
  {
    "postal": "M4L8K4",
    "result": []
  },
  {
    "postal": "M4L7C1",
    "result": []
  },
  {
    "postal": "M4L7K9",
    "result": []
  },
  {
    "postal": "M4L5J1",
    "result": []
  },
  {
    "postal": "M4L4P9",
    "result": []
  },
  {
    "postal": "M4L0N2",
    "result": []
  },
  {
    "postal": "M4L2G6",
    "result": [
      {
        "electoralDistricts": [
          {
            "election": null,
            "id": 7,
            "name": "Beaches—East York"
          }
        ],
        "pollDivisionIds": [
          10137049
        ],
        "postalCode": "M4L2G6",
        "streetName": "NEWBOLD",
        "streetDirectionId": null,
        "streetTypeId": "AVE",
        "placeName": "TORONTO",
        "streetNameDisplayText": "NEWBOLD AVE, TORONTO"
      }
    ]
  },
  {
    "postal": "M4L6P4",
    "result": []
  },
  {
    "postal": "M4L3J0",
    "result": []
  },
  {
    "postal": "M4L8X4",
    "result": []
  },
  {
    "postal": "M4L1Y3",
    "result": [
      {
        "electoralDistricts": [
          {
            "election": null,
            "id": 110,
            "name": "Toronto—Danforth"
          }
        ],
        "pollDivisionIds": [
          10142521
        ],
        "postalCode": "M4L1Y3",
        "streetName": "GERRARD",
        "streetDirectionId": "E",
        "streetTypeId": "ST",
        "placeName": "TORONTO",
        "streetNameDisplayText": "GERRARD ST E, TORONTO"
      }
    ]
  },
  {
    "postal": "M4L1A8",
    "result": [
      {
        "electoralDistricts": [
          {
            "election": null,
            "id": 110,
            "name": "Toronto—Danforth"
          }
        ],
        "pollDivisionIds": [
          10142524
        ],
        "postalCode": "M4L1A8",
        "streetName": "EASTERN",
        "streetDirectionId": null,
        "streetTypeId": "AVE",
        "placeName": "TORONTO",
        "streetNameDisplayText": "EASTERN AVE, TORONTO"
      }
    ]
  },
  {
    "postal": "M4L6Y5",
    "result": []
  },
  {
    "postal": "M4L0J6",
    "result": []
  },
  {
    "postal": "M4L2C9",
    "result": [
      {
        "electoralDistricts": [
          {
            "election": null,
            "id": 7,
            "name": "Beaches—East York"
          }
        ],
        "pollDivisionIds": [
          10137049
        ],
        "postalCode": "M4L2C9",
        "streetName": "EASTWOOD",
        "streetDirectionId": null,
        "streetTypeId": "RD",
        "placeName": "TORONTO",
        "streetNameDisplayText": "EASTWOOD RD, TORONTO"
      }
    ]
  },
  {
    "postal": "M4L8J6",
    "result": []
  },
  {
    "postal": "M4L8T4",
    "result": []
  },
  {
    "postal": "M4L1P7",
    "result": [
      {
        "electoralDistricts": [
          {
            "election": null,
            "id": 7,
            "name": "Beaches—East York"
          }
        ],
        "pollDivisionIds": [
          10137053
        ],
        "postalCode": "M4L1P7",
        "streetName": "NORWAY",
        "streetDirectionId": null,
        "streetTypeId": "AVE",
        "placeName": "TORONTO",
        "streetNameDisplayText": "NORWAY AVE, TORONTO"
      }
    ]
  },
  {
    "postal": "M4L9V9",
    "result": []
  },
  {
    "postal": "M4L0M1",
    "result": []
  },
  {
    "postal": "M4L6K5",
    "result": []
  },
  {
    "postal": "M4L2T5",
    "result": [
      {
        "electoralDistricts": [
          {
            "election": null,
            "id": 110,
            "name": "Toronto—Danforth"
          }
        ],
        "pollDivisionIds": [
          10142515
        ],
        "postalCode": "M4L2T5",
        "streetName": "GLENSIDE",
        "streetDirectionId": null,
        "streetTypeId": "AVE",
        "placeName": "TORONTO",
        "streetNameDisplayText": "GLENSIDE AVE, TORONTO"
      }
    ]
  },
  {
    "postal": "M4L7E9",
    "result": []
  },
  {
    "postal": "M4L5K5",
    "result": []
  },
  {
    "postal": "M4L3R5",
    "result": [
      {
        "electoralDistricts": [
          {
            "election": null,
            "id": 7,
            "name": "Beaches—East York"
          }
        ],
        "pollDivisionIds": [
          10137057
        ],
        "postalCode": "M4L3R5",
        "streetName": "KIPPENDAVIE",
        "streetDirectionId": null,
        "streetTypeId": "AVE",
        "placeName": "TORONTO",
        "streetNameDisplayText": "KIPPENDAVIE AVE, TORONTO"
      }
    ]
  },
  {
    "postal": "M4L5B1",
    "result": []
  },
  {
    "postal": "M4L2P1",
    "result": [
      {
        "electoralDistricts": [
          {
            "election": null,
            "id": 110,
            "name": "Toronto—Danforth"
          }
        ],
        "pollDivisionIds": [
          10142524
        ],
        "postalCode": "M4L2P1",
        "streetName": "KNOX",
        "streetDirectionId": null,
        "streetTypeId": "AVE",
        "placeName": "TORONTO",
        "streetNameDisplayText": "KNOX AVE, TORONTO"
      }
    ]
  },
  {
    "postal": "M4L7L0",
    "result": []
  },
  {
    "postal": "M4L3L6",
    "result": [
      {
        "electoralDistricts": [
          {
            "election": null,
            "id": 7,
            "name": "Beaches—East York"
          }
        ],
        "pollDivisionIds": [
          10137049
        ],
        "postalCode": "M4L3L6",
        "streetName": "KINGSMOUNT PARK",
        "streetDirectionId": null,
        "streetTypeId": "RD",
        "placeName": "TORONTO",
        "streetNameDisplayText": "KINGSMOUNT PARK RD, TORONTO"
      }
    ]
  },
  {
    "postal": "M4L2A4",
    "result": [
      {
        "electoralDistricts": [
          {
            "election": null,
            "id": 110,
            "name": "Toronto—Danforth"
          }
        ],
        "pollDivisionIds": [
          10142518
        ],
        "postalCode": "M4L2A4",
        "streetName": "GERRARD",
        "streetDirectionId": "E",
        "streetTypeId": "ST",
        "placeName": "TORONTO",
        "streetNameDisplayText": "GERRARD ST E, TORONTO"
      }
    ]
  },
  {
    "postal": "M4L8S0",
    "result": []
  },
  {
    "postal": "M4L3L5",
    "result": [
      {
        "electoralDistricts": [
          {
            "election": null,
            "id": 7,
            "name": "Beaches—East York"
          }
        ],
        "pollDivisionIds": [
          10137049
        ],
        "postalCode": "M4L3L5",
        "streetName": "KINGSMOUNT PARK",
        "streetDirectionId": null,
        "streetTypeId": "RD",
        "placeName": "TORONTO",
        "streetNameDisplayText": "KINGSMOUNT PARK RD, TORONTO"
      }
    ]
  },
  {
    "postal": "M4L2R5",
    "result": [
      {
        "electoralDistricts": [
          {
            "election": null,
            "id": 110,
            "name": "Toronto—Danforth"
          }
        ],
        "pollDivisionIds": [
          10142517
        ],
        "postalCode": "M4L2R5",
        "streetName": "GREENWOOD",
        "streetDirectionId": null,
        "streetTypeId": "AVE",
        "placeName": "TORONTO",
        "streetNameDisplayText": "GREENWOOD AVE, TORONTO"
      }
    ]
  },
  {
    "postal": "M4L9T6",
    "result": []
  },
  {
    "postal": "M4L8Z2",
    "result": []
  },
  {
    "postal": "M4L0E9",
    "result": []
  },
  {
    "postal": "M4L8C0",
    "result": []
  },
  {
    "postal": "M4L3K7",
    "result": [
      {
        "electoralDistricts": [
          {
            "election": null,
            "id": 7,
            "name": "Beaches—East York"
          }
        ],
        "pollDivisionIds": [
          10137049
        ],
        "postalCode": "M4L3K7",
        "streetName": "LADYKIRK",
        "streetDirectionId": null,
        "streetTypeId": "AVE",
        "placeName": "TORONTO",
        "streetNameDisplayText": "LADYKIRK AVE, TORONTO"
      }
    ]
  },
  {
    "postal": "M4L2H3",
    "result": [
      {
        "electoralDistricts": [
          {
            "election": null,
            "id": 7,
            "name": "Beaches—East York"
          }
        ],
        "pollDivisionIds": [
          10137053
        ],
        "postalCode": "M4L2H3",
        "streetName": "FAIRMOUNT",
        "streetDirectionId": null,
        "streetTypeId": "CRES",
        "placeName": "TORONTO",
        "streetNameDisplayText": "FAIRMOUNT CRES, TORONTO"
      }
    ]
  },
  {
    "postal": "M4L2Y6",
    "result": [
      {
        "electoralDistricts": [
          {
            "election": null,
            "id": 110,
            "name": "Toronto—Danforth"
          }
        ],
        "pollDivisionIds": [
          10142524
        ],
        "postalCode": "M4L2Y6",
        "streetName": "ASHDALE",
        "streetDirectionId": null,
        "streetTypeId": "AVE",
        "placeName": "TORONTO",
        "streetNameDisplayText": "ASHDALE AVE, TORONTO"
      }
    ]
  },
  {
    "postal": "M4L7M2",
    "result": []
  },
  {
    "postal": "M4L6E2",
    "result": []
  },
  {
    "postal": "M4L3R0",
    "result": []
  },
  {
    "postal": "M4L4J7",
    "result": []
  },
  {
    "postal": "M4L6N8",
    "result": []
  },
  {
    "postal": "M4L0J7",
    "result": []
  },
  {
    "postal": "M4L7P2",
    "result": []
  },
  {
    "postal": "M4L3T8",
    "result": [
      {
        "electoralDistricts": [
          {
            "election": null,
            "id": 7,
            "name": "Beaches—East York"
          }
        ],
        "pollDivisionIds": [
          10137058
        ],
        "postalCode": "M4L3T8",
        "streetName": "BELLEFAIR",
        "streetDirectionId": null,
        "streetTypeId": "AVE",
        "placeName": "TORONTO",
        "streetNameDisplayText": "BELLEFAIR AVE, TORONTO"
      }
    ]
  },
  {
    "postal": "M4L3S7",
    "result": [
      {
        "electoralDistricts": [
          {
            "election": null,
            "id": 7,
            "name": "Beaches—East York"
          }
        ],
        "pollDivisionIds": [
          10137058
        ],
        "postalCode": "M4L3S7",
        "streetName": "KENILWORTH",
        "streetDirectionId": null,
        "streetTypeId": "AVE",
        "placeName": "TORONTO",
        "streetNameDisplayText": "KENILWORTH AVE, TORONTO"
      }
    ]
  },
  {
    "postal": "M4L2S7",
    "result": [
      {
        "electoralDistricts": [
          {
            "election": null,
            "id": 110,
            "name": "Toronto—Danforth"
          }
        ],
        "pollDivisionIds": [
          10142524
        ],
        "postalCode": "M4L2S7",
        "streetName": "VANCOUVER",
        "streetDirectionId": null,
        "streetTypeId": "AVE",
        "placeName": "TORONTO",
        "streetNameDisplayText": "VANCOUVER AVE, TORONTO"
      }
    ]
  },
  {
    "postal": "M4L1S4",
    "result": [
      {
        "electoralDistricts": [
          {
            "election": null,
            "id": 7,
            "name": "Beaches—East York"
          }
        ],
        "pollDivisionIds": [
          10137056
        ],
        "postalCode": "M4L1S4",
        "streetName": "KINGSTON",
        "streetDirectionId": null,
        "streetTypeId": "RD",
        "placeName": "TORONTO",
        "streetNameDisplayText": "KINGSTON RD, TORONTO"
      }
    ]
  },
  {
    "postal": "M4L1L8",
    "result": [
      {
        "electoralDistricts": [
          {
            "election": null,
            "id": 110,
            "name": "Toronto—Danforth"
          }
        ],
        "pollDivisionIds": [
          10142518
        ],
        "postalCode": "M4L1L8",
        "streetName": "DUNDAS",
        "streetDirectionId": "E",
        "streetTypeId": "ST",
        "placeName": "TORONTO",
        "streetNameDisplayText": "DUNDAS ST E, TORONTO"
      }
    ]
  },
  {
    "postal": "M4L8E9",
    "result": []
  },
  {
    "postal": "M4L0T0",
    "result": []
  },
  {
    "postal": "M4L3G4",
    "result": [
      {
        "electoralDistricts": [
          {
            "election": null,
            "id": 7,
            "name": "Beaches—East York"
          }
        ],
        "pollDivisionIds": [
          10137049
        ],
        "postalCode": "M4L3G4",
        "streetName": "HIGHCROFT",
        "streetDirectionId": null,
        "streetTypeId": "RD",
        "placeName": "TORONTO",
        "streetNameDisplayText": "HIGHCROFT RD, TORONTO"
      }
    ]
  },
  {
    "postal": "M4L0V6",
    "result": []
  },
  {
    "postal": "M4L4W1",
    "result": []
  },
  {
    "postal": "M4L9G9",
    "result": []
  },
  {
    "postal": "M4L5W4",
    "result": []
  },
  {
    "postal": "M4L7M8",
    "result": []
  },
  {
    "postal": "M4L2C2",
    "result": [
      {
        "electoralDistricts": [
          {
            "election": null,
            "id": 7,
            "name": "Beaches—East York"
          }
        ],
        "pollDivisionIds": [
          10137049
        ],
        "postalCode": "M4L2C2",
        "streetName": "GERRARD",
        "streetDirectionId": "E",
        "streetTypeId": "ST",
        "placeName": "TORONTO",
        "streetNameDisplayText": "GERRARD ST E, TORONTO"
      }
    ]
  },
  {
    "postal": "M4L4Y2",
    "result": []
  },
  {
    "postal": "M4L9X9",
    "result": []
  },
  {
    "postal": "M4L3T0",
    "result": []
  },
  {
    "postal": "M4L4T8",
    "result": []
  },
  {
    "postal": "M4L9C4",
    "result": []
  },
  {
    "postal": "M4L8P2",
    "result": []
  },
  {
    "postal": "M4L0Y8",
    "result": []
  },
  {
    "postal": "M4L1G8",
    "result": [
      {
        "electoralDistricts": [
          {
            "election": null,
            "id": 7,
            "name": "Beaches—East York"
          }
        ],
        "pollDivisionIds": [
          10137056
        ],
        "postalCode": "M4L1G8",
        "streetName": "QUEEN",
        "streetDirectionId": "E",
        "streetTypeId": "ST",
        "placeName": "TORONTO",
        "streetNameDisplayText": "QUEEN ST E, TORONTO"
      }
    ]
  },
  {
    "postal": "M4L2T6",
    "result": [
      {
        "electoralDistricts": [
          {
            "election": null,
            "id": 110,
            "name": "Toronto—Danforth"
          }
        ],
        "pollDivisionIds": [
          10142515
        ],
        "postalCode": "M4L2T6",
        "streetName": "GLENSIDE",
        "streetDirectionId": null,
        "streetTypeId": "AVE",
        "placeName": "TORONTO",
        "streetNameDisplayText": "GLENSIDE AVE, TORONTO"
      }
    ]
  },
  {
    "postal": "M4L1N7",
    "result": [
      {
        "electoralDistricts": [
          {
            "election": null,
            "id": 7,
            "name": "Beaches—East York"
          }
        ],
        "pollDivisionIds": [
          10137053
        ],
        "postalCode": "M4L1N7",
        "streetName": "DIXON",
        "streetDirectionId": null,
        "streetTypeId": "AVE",
        "placeName": "TORONTO",
        "streetNameDisplayText": "DIXON AVE, TORONTO"
      }
    ]
  },
  {
    "postal": "M4L0L6",
    "result": []
  },
  {
    "postal": "M4L9V4",
    "result": []
  },
  {
    "postal": "M4L2V1",
    "result": [
      {
        "electoralDistricts": [
          {
            "election": null,
            "id": 110,
            "name": "Toronto—Danforth"
          }
        ],
        "pollDivisionIds": [
          10142518
        ],
        "postalCode": "M4L2V1",
        "streetName": "HIGHFIELD",
        "streetDirectionId": null,
        "streetTypeId": "RD",
        "placeName": "TORONTO",
        "streetNameDisplayText": "HIGHFIELD RD, TORONTO"
      }
    ]
  },
  {
    "postal": "M4L3L8",
    "result": [
      {
        "electoralDistricts": [
          {
            "election": null,
            "id": 7,
            "name": "Beaches—East York"
          }
        ],
        "pollDivisionIds": [
          10137049
        ],
        "postalCode": "M4L3L8",
        "streetName": "KINGSMOUNT PARK",
        "streetDirectionId": null,
        "streetTypeId": "RD",
        "placeName": "TORONTO",
        "streetNameDisplayText": "KINGSMOUNT PARK RD, TORONTO"
      }
    ]
  },
  {
    "postal": "M4L2R8",
    "result": [
      {
        "electoralDistricts": [
          {
            "election": null,
            "id": 110,
            "name": "Toronto—Danforth"
          }
        ],
        "pollDivisionIds": [
          10142517
        ],
        "postalCode": "M4L2R8",
        "streetName": "GREENWOOD",
        "streetDirectionId": null,
        "streetTypeId": "AVE",
        "placeName": "TORONTO",
        "streetNameDisplayText": "GREENWOOD AVE, TORONTO"
      }
    ]
  },
  {
    "postal": "M4L5C1",
    "result": []
  },
  {
    "postal": "M4L4W3",
    "result": []
  },
  {
    "postal": "M4L5X5",
    "result": []
  },
  {
    "postal": "M4L9W5",
    "result": []
  },
  {
    "postal": "M4L3C4",
    "result": [
      {
        "electoralDistricts": [
          {
            "election": null,
            "id": 7,
            "name": "Beaches—East York"
          }
        ],
        "pollDivisionIds": [
          10137049
        ],
        "postalCode": "M4L3C4",
        "streetName": "GAINSBOROUGH",
        "streetDirectionId": null,
        "streetTypeId": "RD",
        "placeName": "TORONTO",
        "streetNameDisplayText": "GAINSBOROUGH RD, TORONTO"
      }
    ]
  },
  {
    "postal": "M4L1N6",
    "result": [
      {
        "electoralDistricts": [
          {
            "election": null,
            "id": 7,
            "name": "Beaches—East York"
          }
        ],
        "pollDivisionIds": [
          10137053
        ],
        "postalCode": "M4L1N6",
        "streetName": "DIXON",
        "streetDirectionId": null,
        "streetTypeId": "AVE",
        "placeName": "TORONTO",
        "streetNameDisplayText": "DIXON AVE, TORONTO"
      }
    ]
  },
  {
    "postal": "M4L9S9",
    "result": []
  },
  {
    "postal": "M4L9M2",
    "result": []
  },
  {
    "postal": "M4L8Y4",
    "result": []
  },
  {
    "postal": "M4L7S4",
    "result": []
  },
  {
    "postal": "M4L0K6",
    "result": []
  },
  {
    "postal": "M4L1W3",
    "result": [
      {
        "electoralDistricts": [
          {
            "election": null,
            "id": 110,
            "name": "Toronto—Danforth"
          }
        ],
        "pollDivisionIds": [
          10142521
        ],
        "postalCode": "M4L1W3",
        "streetName": "STANTON",
        "streetDirectionId": null,
        "streetTypeId": "AVE",
        "placeName": "TORONTO",
        "streetNameDisplayText": "STANTON AVE, TORONTO"
      }
    ]
  },
  {
    "postal": "M4L7R2",
    "result": []
  },
  {
    "postal": "M4L2Y9",
    "result": [
      {
        "electoralDistricts": [
          {
            "election": null,
            "id": 110,
            "name": "Toronto—Danforth"
          }
        ],
        "pollDivisionIds": [
          10142518
        ],
        "postalCode": "M4L2Y9",
        "streetName": "ASHDALE",
        "streetDirectionId": null,
        "streetTypeId": "AVE",
        "placeName": "TORONTO",
        "streetNameDisplayText": "ASHDALE AVE, TORONTO"
      }
    ]
  },
  {
    "postal": "M4L7G4",
    "result": []
  },
  {
    "postal": "M4L7E5",
    "result": []
  },
  {
    "postal": "M4L9G2",
    "result": []
  },
  {
    "postal": "M4L7Y8",
    "result": []
  },
  {
    "postal": "M4L9V2",
    "result": []
  },
  {
    "postal": "M4L3T7",
    "result": [
      {
        "electoralDistricts": [
          {
            "election": null,
            "id": 7,
            "name": "Beaches—East York"
          }
        ],
        "pollDivisionIds": [
          10137058
        ],
        "postalCode": "M4L3T7",
        "streetName": "BELLEFAIR",
        "streetDirectionId": null,
        "streetTypeId": "AVE",
        "placeName": "TORONTO",
        "streetNameDisplayText": "BELLEFAIR AVE, TORONTO"
      }
    ]
  },
  {
    "postal": "M4L1H0",
    "result": []
  },
  {
    "postal": "M4L1M7",
    "result": [
      {
        "electoralDistricts": [
          {
            "election": null,
            "id": 7,
            "name": "Beaches—East York"
          }
        ],
        "pollDivisionIds": [
          10137056
        ],
        "postalCode": "M4L1M7",
        "streetName": "DUNDAS",
        "streetDirectionId": "E",
        "streetTypeId": "ST",
        "placeName": "TORONTO",
        "streetNameDisplayText": "DUNDAS ST E, TORONTO"
      }
    ]
  },
  {
    "postal": "M4L8V4",
    "result": []
  },
  {
    "postal": "M4L4M2",
    "result": []
  },
  {
    "postal": "M4L0X2",
    "result": []
  },
  {
    "postal": "M4L5Z4",
    "result": []
  },
  {
    "postal": "M4L6V4",
    "result": []
  },
  {
    "postal": "M4L8J3",
    "result": []
  },
  {
    "postal": "M4L8E5",
    "result": []
  },
  {
    "postal": "M4L2V5",
    "result": [
      {
        "electoralDistricts": [
          {
            "election": null,
            "id": 110,
            "name": "Toronto—Danforth"
          }
        ],
        "pollDivisionIds": [
          10142515
        ],
        "postalCode": "M4L2V5",
        "streetName": "HIGHFIELD",
        "streetDirectionId": null,
        "streetTypeId": "RD",
        "placeName": "TORONTO",
        "streetNameDisplayText": "HIGHFIELD RD, TORONTO"
      }
    ]
  },
  {
    "postal": "M4L7S1",
    "result": []
  },
  {
    "postal": "M4L6V3",
    "result": []
  },
  {
    "postal": "M4L2L8",
    "result": [
      {
        "electoralDistricts": [
          {
            "election": null,
            "id": 110,
            "name": "Toronto—Danforth"
          }
        ],
        "pollDivisionIds": [
          10142521
        ],
        "postalCode": "M4L2L8",
        "streetName": "HASTINGS",
        "streetDirectionId": null,
        "streetTypeId": "AVE",
        "placeName": "TORONTO",
        "streetNameDisplayText": "HASTINGS AVE, TORONTO"
      }
    ]
  },
  {
    "postal": "M4L9V0",
    "result": []
  },
  {
    "postal": "M4L3M4",
    "result": [
      {
        "electoralDistricts": [
          {
            "election": null,
            "id": 7,
            "name": "Beaches—East York"
          }
        ],
        "pollDivisionIds": [
          10137049
        ],
        "postalCode": "M4L3M4",
        "streetName": "GLENMORE",
        "streetDirectionId": null,
        "streetTypeId": "RD",
        "placeName": "TORONTO",
        "streetNameDisplayText": "GLENMORE RD, TORONTO"
      }
    ]
  },
  {
    "postal": "M4L5B2",
    "result": []
  },
  {
    "postal": "M4L3X5",
    "result": [
      {
        "electoralDistricts": [
          {
            "election": null,
            "id": 7,
            "name": "Beaches—East York"
          }
        ],
        "pollDivisionIds": [
          10137056
        ],
        "postalCode": "M4L3X5",
        "streetName": "JOSEPH DUGGAN",
        "streetDirectionId": null,
        "streetTypeId": "RD",
        "placeName": "TORONTO",
        "streetNameDisplayText": "JOSEPH DUGGAN RD, TORONTO"
      }
    ]
  },
  {
    "postal": "M4L9R7",
    "result": []
  },
  {
    "postal": "M4L2X2",
    "result": [
      {
        "electoralDistricts": [
          {
            "election": null,
            "id": 110,
            "name": "Toronto—Danforth"
          }
        ],
        "pollDivisionIds": [
          10142515
        ],
        "postalCode": "M4L2X2",
        "streetName": "WOODFIELD",
        "streetDirectionId": null,
        "streetTypeId": "RD",
        "placeName": "TORONTO",
        "streetNameDisplayText": "WOODFIELD RD, TORONTO"
      }
    ]
  },
  {
    "postal": "M4L8Z6",
    "result": []
  },
  {
    "postal": "M4L4R4",
    "result": []
  },
  {
    "postal": "M4L2R1",
    "result": [
      {
        "electoralDistricts": [
          {
            "election": null,
            "id": 110,
            "name": "Toronto—Danforth"
          }
        ],
        "pollDivisionIds": [
          10142521
        ],
        "postalCode": "M4L2R1",
        "streetName": "GREENWOOD",
        "streetDirectionId": null,
        "streetTypeId": "AVE",
        "placeName": "TORONTO",
        "streetNameDisplayText": "GREENWOOD AVE, TORONTO"
      }
    ]
  },
  {
    "postal": "M4L3R8",
    "result": [
      {
        "electoralDistricts": [
          {
            "election": null,
            "id": 7,
            "name": "Beaches—East York"
          }
        ],
        "pollDivisionIds": [
          10137054
        ],
        "postalCode": "M4L3R8",
        "streetName": "ELMER",
        "streetDirectionId": null,
        "streetTypeId": "AVE",
        "placeName": "TORONTO",
        "streetNameDisplayText": "ELMER AVE, TORONTO"
      }
    ]
  },
  {
    "postal": "M4L9A1",
    "result": []
  },
  {
    "postal": "M4L8L3",
    "result": []
  },
  {
    "postal": "M4L9K4",
    "result": []
  },
  {
    "postal": "M4L9S3",
    "result": []
  },
  {
    "postal": "M4L8N7",
    "result": []
  },
  {
    "postal": "M4L1C6",
    "result": [
      {
        "electoralDistricts": [
          {
            "election": null,
            "id": 110,
            "name": "Toronto—Danforth"
          }
        ],
        "pollDivisionIds": [
          10142527
        ],
        "postalCode": "M4L1C6",
        "streetName": "QUEEN",
        "streetDirectionId": "E",
        "streetTypeId": "ST",
        "placeName": "TORONTO",
        "streetNameDisplayText": "QUEEN ST E, TORONTO"
      }
    ]
  },
  {
    "postal": "M4L3Z8",
    "result": [
      {
        "electoralDistricts": [
          {
            "election": null,
            "id": 7,
            "name": "Beaches—East York"
          }
        ],
        "pollDivisionIds": [
          10137056
        ],
        "postalCode": "M4L3Z8",
        "streetName": "NORTHERN DANCER",
        "streetDirectionId": null,
        "streetTypeId": "BLVD",
        "placeName": "TORONTO",
        "streetNameDisplayText": "NORTHERN DANCER BLVD, TORONTO"
      }
    ]
  },
  {
    "postal": "M4L8G5",
    "result": []
  },
  {
    "postal": "M4L5R6",
    "result": []
  },
  {
    "postal": "M4L2W3",
    "result": [
      {
        "electoralDistricts": [
          {
            "election": null,
            "id": 110,
            "name": "Toronto—Danforth"
          }
        ],
        "pollDivisionIds": [
          10142524
        ],
        "postalCode": "M4L2W3",
        "streetName": "WOODFIELD",
        "streetDirectionId": null,
        "streetTypeId": "RD",
        "placeName": "TORONTO",
        "streetNameDisplayText": "WOODFIELD RD, TORONTO"
      }
    ]
  },
  {
    "postal": "M4L0A0",
    "result": []
  },
  {
    "postal": "M4L6P8",
    "result": []
  },
  {
    "postal": "M4L8N9",
    "result": []
  },
  {
    "postal": "M4L0S9",
    "result": []
  },
  {
    "postal": "M4L8G0",
    "result": []
  },
  {
    "postal": "M4L8C7",
    "result": []
  },
  {
    "postal": "M4L5X8",
    "result": []
  },
  {
    "postal": "M4L7E8",
    "result": []
  },
  {
    "postal": "M4L6X2",
    "result": []
  },
  {
    "postal": "M4L4C6",
    "result": []
  },
  {
    "postal": "M4L7H2",
    "result": []
  },
  {
    "postal": "M4L4R0",
    "result": []
  },
  {
    "postal": "M4L6J3",
    "result": []
  },
  {
    "postal": "M4L4B8",
    "result": []
  },
  {
    "postal": "M4L6H6",
    "result": []
  },
  {
    "postal": "M4L0S1",
    "result": []
  },
  {
    "postal": "M4L4E3",
    "result": []
  },
  {
    "postal": "M4L7K2",
    "result": []
  },
  {
    "postal": "M4L7T8",
    "result": []
  },
  {
    "postal": "M4L0J9",
    "result": []
  },
  {
    "postal": "M4L5J9",
    "result": []
  },
  {
    "postal": "M4L5S7",
    "result": []
  },
  {
    "postal": "M4L0G9",
    "result": []
  },
  {
    "postal": "M4L3J9",
    "result": [
      {
        "electoralDistricts": [
          {
            "election": null,
            "id": 7,
            "name": "Beaches—East York"
          }
        ],
        "pollDivisionIds": [
          10137049
        ],
        "postalCode": "M4L3J9",
        "streetName": "BELLHAVEN",
        "streetDirectionId": null,
        "streetTypeId": "RD",
        "placeName": "TORONTO",
        "streetNameDisplayText": "BELLHAVEN RD, TORONTO"
      }
    ]
  },
  {
    "postal": "M4L2Y0",
    "result": []
  },
  {
    "postal": "M4L8X5",
    "result": []
  },
  {
    "postal": "M4L2M7",
    "result": [
      {
        "electoralDistricts": [
          {
            "election": null,
            "id": 110,
            "name": "Toronto—Danforth"
          }
        ],
        "pollDivisionIds": [
          10142517
        ],
        "postalCode": "M4L2M7",
        "streetName": "PRUST",
        "streetDirectionId": null,
        "streetTypeId": "AVE",
        "placeName": "TORONTO",
        "streetNameDisplayText": "PRUST AVE, TORONTO"
      }
    ]
  },
  {
    "postal": "M4L9Z3",
    "result": []
  },
  {
    "postal": "M4L7W2",
    "result": []
  },
  {
    "postal": "M4L3W0",
    "result": []
  },
  {
    "postal": "M4L3M1",
    "result": [
      {
        "electoralDistricts": [
          {
            "election": null,
            "id": 7,
            "name": "Beaches—East York"
          }
        ],
        "pollDivisionIds": [
          10137053
        ],
        "postalCode": "M4L3M1",
        "streetName": "GLENMORE",
        "streetDirectionId": null,
        "streetTypeId": "RD",
        "placeName": "TORONTO",
        "streetNameDisplayText": "GLENMORE RD, TORONTO"
      }
    ]
  },
  {
    "postal": "M4L6A5",
    "result": []
  },
  {
    "postal": "M4L2M9",
    "result": [
      {
        "electoralDistricts": [
          {
            "election": null,
            "id": 110,
            "name": "Toronto—Danforth"
          }
        ],
        "pollDivisionIds": [
          10142517
        ],
        "postalCode": "M4L2M9",
        "streetName": "PRUST",
        "streetDirectionId": null,
        "streetTypeId": "AVE",
        "placeName": "TORONTO",
        "streetNameDisplayText": "PRUST AVE, TORONTO"
      }
    ]
  },
  {
    "postal": "M4L5C3",
    "result": []
  },
  {
    "postal": "M4L0Y6",
    "result": []
  },
  {
    "postal": "M4L9H7",
    "result": []
  },
  {
    "postal": "M4L3L0",
    "result": []
  },
  {
    "postal": "M4L5N9",
    "result": []
  },
  {
    "postal": "M4L5E3",
    "result": []
  },
  {
    "postal": "M4L7M9",
    "result": []
  },
  {
    "postal": "M4L8N2",
    "result": []
  },
  {
    "postal": "M4L9H3",
    "result": []
  },
  {
    "postal": "M4L2K8",
    "result": [
      {
        "electoralDistricts": [
          {
            "election": null,
            "id": 7,
            "name": "Beaches—East York"
          }
        ],
        "pollDivisionIds": [
          10137049
        ],
        "postalCode": "M4L2K8",
        "streetName": "WILDWOOD",
        "streetDirectionId": null,
        "streetTypeId": "CRES",
        "placeName": "TORONTO",
        "streetNameDisplayText": "WILDWOOD CRES, TORONTO"
      }
    ]
  },
  {
    "postal": "M4L9L0",
    "result": []
  },
  {
    "postal": "M4L6L9",
    "result": []
  },
  {
    "postal": "M4L6A8",
    "result": []
  },
  {
    "postal": "M4L2K6",
    "result": [
      {
        "electoralDistricts": [
          {
            "election": null,
            "id": 7,
            "name": "Beaches—East York"
          }
        ],
        "pollDivisionIds": [
          10137049
        ],
        "postalCode": "M4L2K6",
        "streetName": "HOLLYWOOD",
        "streetDirectionId": null,
        "streetTypeId": "CRES",
        "placeName": "TORONTO",
        "streetNameDisplayText": "HOLLYWOOD CRES, TORONTO"
      }
    ]
  },
  {
    "postal": "M4L2M0",
    "result": []
  },
  {
    "postal": "M4L5X7",
    "result": []
  },
  {
    "postal": "M4L0M7",
    "result": []
  },
  {
    "postal": "M4L7A6",
    "result": []
  },
  {
    "postal": "M4L3C5",
    "result": [
      {
        "electoralDistricts": [
          {
            "election": null,
            "id": 7,
            "name": "Beaches—East York"
          }
        ],
        "pollDivisionIds": [
          10137049
        ],
        "postalCode": "M4L3C5",
        "streetName": "GAINSBOROUGH",
        "streetDirectionId": null,
        "streetTypeId": "RD",
        "placeName": "TORONTO",
        "streetNameDisplayText": "GAINSBOROUGH RD, TORONTO"
      }
    ]
  },
  {
    "postal": "M4L2P2",
    "result": [
      {
        "electoralDistricts": [
          {
            "election": null,
            "id": 110,
            "name": "Toronto—Danforth"
          }
        ],
        "pollDivisionIds": [
          10142527
        ],
        "postalCode": "M4L2P2",
        "streetName": "KNOX",
        "streetDirectionId": null,
        "streetTypeId": "AVE",
        "placeName": "TORONTO",
        "streetNameDisplayText": "KNOX AVE, TORONTO"
      }
    ]
  },
  {
    "postal": "M4L9N4",
    "result": []
  },
  {
    "postal": "M4L3M9",
    "result": [
      {
        "electoralDistricts": [
          {
            "election": null,
            "id": 7,
            "name": "Beaches—East York"
          }
        ],
        "pollDivisionIds": [
          10137053
        ],
        "postalCode": "M4L3M9",
        "streetName": "BROOKMOUNT",
        "streetDirectionId": null,
        "streetTypeId": "RD",
        "placeName": "TORONTO",
        "streetNameDisplayText": "BROOKMOUNT RD, TORONTO"
      }
    ]
  },
  {
    "postal": "M4L8K6",
    "result": []
  },
  {
    "postal": "M4L1L2",
    "result": [
      {
        "electoralDistricts": [
          {
            "election": null,
            "id": 110,
            "name": "Toronto—Danforth"
          }
        ],
        "pollDivisionIds": [
          10143804
        ],
        "postalCode": "M4L1L2",
        "streetName": "DUNDAS",
        "streetDirectionId": "E",
        "streetTypeId": "ST",
        "placeName": "TORONTO",
        "streetNameDisplayText": "DUNDAS ST E, TORONTO"
      }
    ]
  },
  {
    "postal": "M4L2Z9",
    "result": [
      {
        "electoralDistricts": [
          {
            "election": null,
            "id": 110,
            "name": "Toronto—Danforth"
          }
        ],
        "pollDivisionIds": [
          10142524
        ],
        "postalCode": "M4L2Z9",
        "streetName": "RHODES",
        "streetDirectionId": null,
        "streetTypeId": "AVE",
        "placeName": "TORONTO",
        "streetNameDisplayText": "RHODES AVE, TORONTO"
      }
    ]
  },
  {
    "postal": "M4L2S2",
    "result": [
      {
        "electoralDistricts": [
          {
            "election": null,
            "id": 110,
            "name": "Toronto—Danforth"
          }
        ],
        "pollDivisionIds": [
          10142524
        ],
        "postalCode": "M4L2S2",
        "streetName": "BILLINGS",
        "streetDirectionId": null,
        "streetTypeId": "AVE",
        "placeName": "TORONTO",
        "streetNameDisplayText": "BILLINGS AVE, TORONTO"
      }
    ]
  },
  {
    "postal": "M4L2W2",
    "result": []
  },
  {
    "postal": "M4L2C3",
    "result": [
      {
        "electoralDistricts": [
          {
            "election": null,
            "id": 7,
            "name": "Beaches—East York"
          }
        ],
        "pollDivisionIds": [
          10137049
        ],
        "postalCode": "M4L2C3",
        "streetName": "EASTWOOD",
        "streetDirectionId": null,
        "streetTypeId": "RD",
        "placeName": "TORONTO",
        "streetNameDisplayText": "EASTWOOD RD, TORONTO"
      }
    ]
  },
  {
    "postal": "M4L6L7",
    "result": []
  },
  {
    "postal": "M4L3K0",
    "result": []
  },
  {
    "postal": "M4L3C1",
    "result": [
      {
        "electoralDistricts": [
          {
            "election": null,
            "id": 7,
            "name": "Beaches—East York"
          }
        ],
        "pollDivisionIds": [
          10137052
        ],
        "postalCode": "M4L3C1",
        "streetName": "GAINSBOROUGH",
        "streetDirectionId": null,
        "streetTypeId": "RD",
        "placeName": "TORONTO",
        "streetNameDisplayText": "GAINSBOROUGH RD, TORONTO"
      }
    ]
  },
  {
    "postal": "M4L6M9",
    "result": []
  },
  {
    "postal": "M4L4N9",
    "result": []
  },
  {
    "postal": "M4L3Y7",
    "result": [
      {
        "electoralDistricts": [
          {
            "election": null,
            "id": 7,
            "name": "Beaches—East York"
          }
        ],
        "pollDivisionIds": [
          10137056
        ],
        "postalCode": "M4L3Y7",
        "streetName": "WINNERS",
        "streetDirectionId": null,
        "streetTypeId": "CIR",
        "placeName": "TORONTO",
        "streetNameDisplayText": "WINNERS CIR, TORONTO"
      }
    ]
  },
  {
    "postal": "M4L2A9",
    "result": [
      {
        "electoralDistricts": [
          {
            "election": null,
            "id": 7,
            "name": "Beaches—East York"
          }
        ],
        "pollDivisionIds": [
          10137049
        ],
        "postalCode": "M4L2A9",
        "streetName": "GERRARD",
        "streetDirectionId": "E",
        "streetTypeId": "ST",
        "placeName": "TORONTO",
        "streetNameDisplayText": "GERRARD ST E, TORONTO"
      }
    ]
  },
  {
    "postal": "M4L6H5",
    "result": []
  },
  {
    "postal": "M4L8B4",
    "result": []
  },
  {
    "postal": "M4L4Z2",
    "result": []
  },
  {
    "postal": "M4L9J0",
    "result": []
  },
  {
    "postal": "M4L7V7",
    "result": []
  },
  {
    "postal": "M4L5T5",
    "result": []
  },
  {
    "postal": "M4L4W5",
    "result": []
  },
  {
    "postal": "M4L1T8",
    "result": [
      {
        "electoralDistricts": [
          {
            "election": null,
            "id": 7,
            "name": "Beaches—East York"
          }
        ],
        "pollDivisionIds": [
          10137054
        ],
        "postalCode": "M4L1T8",
        "streetName": "KINGSTON",
        "streetDirectionId": null,
        "streetTypeId": "RD",
        "placeName": "TORONTO",
        "streetNameDisplayText": "KINGSTON RD, TORONTO"
      }
    ]
  },
  {
    "postal": "M4L9G6",
    "result": []
  },
  {
    "postal": "M4L1H3",
    "result": [
      {
        "electoralDistricts": [
          {
            "election": null,
            "id": 7,
            "name": "Beaches—East York"
          }
        ],
        "pollDivisionIds": [
          10137057
        ],
        "postalCode": "M4L1H3",
        "streetName": "QUEEN",
        "streetDirectionId": "E",
        "streetTypeId": "ST",
        "placeName": "TORONTO",
        "streetNameDisplayText": "QUEEN ST E, TORONTO"
      }
    ]
  },
  {
    "postal": "M4L5R5",
    "result": []
  },
  {
    "postal": "M4L8A4",
    "result": []
  },
  {
    "postal": "M4L3T6",
    "result": [
      {
        "electoralDistricts": [
          {
            "election": null,
            "id": 7,
            "name": "Beaches—East York"
          }
        ],
        "pollDivisionIds": [
          10137054
        ],
        "postalCode": "M4L3T6",
        "streetName": "WAVERLEY",
        "streetDirectionId": null,
        "streetTypeId": "RD",
        "placeName": "TORONTO",
        "streetNameDisplayText": "WAVERLEY RD, TORONTO"
      }
    ]
  },
  {
    "postal": "M4L9W8",
    "result": []
  },
  {
    "postal": "M4L0N3",
    "result": []
  },
  {
    "postal": "M4L7V0",
    "result": []
  },
  {
    "postal": "M4L8T5",
    "result": []
  },
  {
    "postal": "M4L5N3",
    "result": []
  },
  {
    "postal": "M4L5G9",
    "result": []
  },
  {
    "postal": "M4L3X8",
    "result": [
      {
        "electoralDistricts": [
          {
            "election": null,
            "id": 110,
            "name": "Toronto—Danforth"
          }
        ],
        "pollDivisionIds": [
          10142524
        ],
        "postalCode": "M4L3X8",
        "streetName": "DOROTHY BULLEN",
        "streetDirectionId": null,
        "streetTypeId": "PL",
        "placeName": "TORONTO",
        "streetNameDisplayText": "DOROTHY BULLEN PL, TORONTO"
      }
    ]
  },
  {
    "postal": "M4L9R3",
    "result": []
  },
  {
    "postal": "M4L2S1",
    "result": [
      {
        "electoralDistricts": [
          {
            "election": null,
            "id": 110,
            "name": "Toronto—Danforth"
          }
        ],
        "pollDivisionIds": [
          10142524
        ],
        "postalCode": "M4L2S1",
        "streetName": "BILLINGS",
        "streetDirectionId": null,
        "streetTypeId": "AVE",
        "placeName": "TORONTO",
        "streetNameDisplayText": "BILLINGS AVE, TORONTO"
      }
    ]
  },
  {
    "postal": "M4L9J7",
    "result": []
  },
  {
    "postal": "M4L2J3",
    "result": [
      {
        "electoralDistricts": [
          {
            "election": null,
            "id": 110,
            "name": "Toronto—Danforth"
          }
        ],
        "pollDivisionIds": [
          10142515
        ],
        "postalCode": "M4L2J3",
        "streetName": "WALPOLE",
        "streetDirectionId": null,
        "streetTypeId": "AVE",
        "placeName": "TORONTO",
        "streetNameDisplayText": "WALPOLE AVE, TORONTO"
      }
    ]
  },
  {
    "postal": "M4L3B6",
    "result": [
      {
        "electoralDistricts": [
          {
            "election": null,
            "id": 110,
            "name": "Toronto—Danforth"
          }
        ],
        "pollDivisionIds": [
          10142518
        ],
        "postalCode": "M4L3B6",
        "streetName": "COXWELL",
        "streetDirectionId": null,
        "streetTypeId": "AVE",
        "placeName": "TORONTO",
        "streetNameDisplayText": "COXWELL AVE, TORONTO"
      }
    ]
  },
  {
    "postal": "M4L8J0",
    "result": []
  },
  {
    "postal": "M4L7R4",
    "result": []
  },
  {
    "postal": "M4L8K8",
    "result": []
  },
  {
    "postal": "M4L4P3",
    "result": []
  },
  {
    "postal": "M4L0A2",
    "result": [
      {
        "electoralDistricts": [
          {
            "election": null,
            "id": 110,
            "name": "Toronto—Danforth"
          }
        ],
        "pollDivisionIds": [
          10142527
        ],
        "postalCode": "M4L0A2",
        "streetName": "SEARS",
        "streetDirectionId": null,
        "streetTypeId": "ST",
        "placeName": "TORONTO",
        "streetNameDisplayText": "SEARS ST, TORONTO"
      }
    ]
  },
  {
    "postal": "M4L2G2",
    "result": [
      {
        "electoralDistricts": [
          {
            "election": null,
            "id": 110,
            "name": "Toronto—Danforth"
          }
        ],
        "pollDivisionIds": [
          10142517
        ],
        "postalCode": "M4L2G2",
        "streetName": "BLOOMFIELD",
        "streetDirectionId": null,
        "streetTypeId": "AVE",
        "placeName": "TORONTO",
        "streetNameDisplayText": "BLOOMFIELD AVE, TORONTO"
      }
    ]
  },
  {
    "postal": "M4L5Y9",
    "result": []
  },
  {
    "postal": "M4L7X0",
    "result": []
  },
  {
    "postal": "M4L7W3",
    "result": []
  },
  {
    "postal": "M4L7X5",
    "result": []
  },
  {
    "postal": "M4L5K6",
    "result": []
  },
  {
    "postal": "M4L5B6",
    "result": []
  },
  {
    "postal": "M4L7Z0",
    "result": []
  },
  {
    "postal": "M4L9H6",
    "result": []
  },
  {
    "postal": "M4L1B4",
    "result": [
      {
        "electoralDistricts": [
          {
            "election": null,
            "id": 110,
            "name": "Toronto—Danforth"
          }
        ],
        "pollDivisionIds": [
          10142524,
          10142527
        ],
        "postalCode": "M4L1B4",
        "streetName": "SEARS",
        "streetDirectionId": null,
        "streetTypeId": "ST",
        "placeName": "TORONTO",
        "streetNameDisplayText": "SEARS ST, TORONTO"
      }
    ]
  },
  {
    "postal": "M4L1A0",
    "result": []
  },
  {
    "postal": "M4L9A0",
    "result": []
  },
  {
    "postal": "M4L1M6",
    "result": [
      {
        "electoralDistricts": [
          {
            "election": null,
            "id": 110,
            "name": "Toronto—Danforth"
          }
        ],
        "pollDivisionIds": [
          10142518
        ],
        "postalCode": "M4L1M6",
        "streetName": "DUNDAS",
        "streetDirectionId": "E",
        "streetTypeId": "ST",
        "placeName": "TORONTO",
        "streetNameDisplayText": "DUNDAS ST E, TORONTO"
      }
    ]
  },
  {
    "postal": "M4L5H0",
    "result": []
  },
  {
    "postal": "M4L1K6",
    "result": [
      {
        "electoralDistricts": [
          {
            "election": null,
            "id": 110,
            "name": "Toronto—Danforth"
          }
        ],
        "pollDivisionIds": [
          10143804
        ],
        "postalCode": "M4L1K6",
        "streetName": "DUNDAS",
        "streetDirectionId": "E",
        "streetTypeId": "ST",
        "placeName": "TORONTO",
        "streetNameDisplayText": "DUNDAS ST E, TORONTO"
      }
    ]
  },
  {
    "postal": "M4L5E1",
    "result": []
  },
  {
    "postal": "M4L3T9",
    "result": [
      {
        "electoralDistricts": [
          {
            "election": null,
            "id": 7,
            "name": "Beaches—East York"
          }
        ],
        "pollDivisionIds": [
          10137054
        ],
        "postalCode": "M4L3T9",
        "streetName": "BELLEFAIR",
        "streetDirectionId": null,
        "streetTypeId": "AVE",
        "placeName": "TORONTO",
        "streetNameDisplayText": "BELLEFAIR AVE, TORONTO"
      }
    ]
  },
  {
    "postal": "M4L2M6",
    "result": [
      {
        "electoralDistricts": [
          {
            "election": null,
            "id": 110,
            "name": "Toronto—Danforth"
          }
        ],
        "pollDivisionIds": [
          10142521
        ],
        "postalCode": "M4L2M6",
        "streetName": "ALTON",
        "streetDirectionId": null,
        "streetTypeId": "AVE",
        "placeName": "TORONTO",
        "streetNameDisplayText": "ALTON AVE, TORONTO"
      }
    ]
  },
  {
    "postal": "M4L0G5",
    "result": []
  },
  {
    "postal": "M4L0Y2",
    "result": []
  },
  {
    "postal": "M4L2Y7",
    "result": [
      {
        "electoralDistricts": [
          {
            "election": null,
            "id": 110,
            "name": "Toronto—Danforth"
          }
        ],
        "pollDivisionIds": [
          10142524
        ],
        "postalCode": "M4L2Y7",
        "streetName": "ASHDALE",
        "streetDirectionId": null,
        "streetTypeId": "AVE",
        "placeName": "TORONTO",
        "streetNameDisplayText": "ASHDALE AVE, TORONTO"
      }
    ]
  },
  {
    "postal": "M4L2J7",
    "result": [
      {
        "electoralDistricts": [
          {
            "election": null,
            "id": 110,
            "name": "Toronto—Danforth"
          }
        ],
        "pollDivisionIds": [
          10142515
        ],
        "postalCode": "M4L2J7",
        "streetName": "FAIRFORD",
        "streetDirectionId": null,
        "streetTypeId": "AVE",
        "placeName": "TORONTO",
        "streetNameDisplayText": "FAIRFORD AVE, TORONTO"
      }
    ]
  },
  {
    "postal": "M4L4K7",
    "result": []
  },
  {
    "postal": "M4L7P9",
    "result": []
  },
  {
    "postal": "M4L8X0",
    "result": []
  },
  {
    "postal": "M4L3X1",
    "result": [
      {
        "electoralDistricts": [
          {
            "election": null,
            "id": 110,
            "name": "Toronto—Danforth"
          }
        ],
        "pollDivisionIds": [
          10142515
        ],
        "postalCode": "M4L3X1",
        "streetName": "GERRARD",
        "streetDirectionId": "E",
        "streetTypeId": "ST",
        "placeName": "TORONTO",
        "streetNameDisplayText": "GERRARD ST E, TORONTO"
      }
    ]
  },
  {
    "postal": "M4L1R5",
    "result": [
      {
        "electoralDistricts": [
          {
            "election": null,
            "id": 7,
            "name": "Beaches—East York"
          }
        ],
        "pollDivisionIds": [
          10137054
        ],
        "postalCode": "M4L1R5",
        "streetName": "NORWAY",
        "streetDirectionId": null,
        "streetTypeId": "AVE",
        "placeName": "TORONTO",
        "streetNameDisplayText": "NORWAY AVE, TORONTO"
      }
    ]
  },
  {
    "postal": "M4L6X6",
    "result": []
  },
  {
    "postal": "M4L0Y1",
    "result": []
  },
  {
    "postal": "M4L8G1",
    "result": []
  },
  {
    "postal": "M4L3J3",
    "result": [
      {
        "electoralDistricts": [
          {
            "election": null,
            "id": 7,
            "name": "Beaches—East York"
          }
        ],
        "pollDivisionIds": [
          10137049
        ],
        "postalCode": "M4L3J3",
        "streetName": "BOWMORE",
        "streetDirectionId": null,
        "streetTypeId": "RD",
        "placeName": "TORONTO",
        "streetNameDisplayText": "BOWMORE RD, TORONTO"
      }
    ]
  },
  {
    "postal": "M4L8C2",
    "result": []
  },
  {
    "postal": "M4L4X9",
    "result": []
  },
  {
    "postal": "M4L6G9",
    "result": []
  },
  {
    "postal": "M4L4M3",
    "result": []
  },
  {
    "postal": "M4L9P7",
    "result": []
  },
  {
    "postal": "M4L4E5",
    "result": []
  },
  {
    "postal": "M4L5K9",
    "result": []
  },
  {
    "postal": "M4L2V2",
    "result": [
      {
        "electoralDistricts": [
          {
            "election": null,
            "id": 110,
            "name": "Toronto—Danforth"
          }
        ],
        "pollDivisionIds": [
          10142518
        ],
        "postalCode": "M4L2V2",
        "streetName": "HIGHFIELD",
        "streetDirectionId": null,
        "streetTypeId": "RD",
        "placeName": "TORONTO",
        "streetNameDisplayText": "HIGHFIELD RD, TORONTO"
      }
    ]
  },
  {
    "postal": "M4L2N9",
    "result": [
      {
        "electoralDistricts": [
          {
            "election": null,
            "id": 110,
            "name": "Toronto—Danforth"
          }
        ],
        "pollDivisionIds": [
          10142527
        ],
        "postalCode": "M4L2N9",
        "streetName": "KNOX",
        "streetDirectionId": null,
        "streetTypeId": "AVE",
        "placeName": "TORONTO",
        "streetNameDisplayText": "KNOX AVE, TORONTO"
      }
    ]
  },
  {
    "postal": "M4L6L4",
    "result": []
  },
  {
    "postal": "M4L8E0",
    "result": []
  },
  {
    "postal": "M4L0N0",
    "result": []
  },
  {
    "postal": "M4L6R0",
    "result": []
  },
  {
    "postal": "M4L9C1",
    "result": []
  },
  {
    "postal": "M4L4H4",
    "result": []
  },
  {
    "postal": "M4L5W3",
    "result": []
  },
  {
    "postal": "M4L9N9",
    "result": []
  },
  {
    "postal": "M4L1V7",
    "result": [
      {
        "electoralDistricts": [
          {
            "election": null,
            "id": 7,
            "name": "Beaches—East York"
          }
        ],
        "pollDivisionIds": [
          10137054
        ],
        "postalCode": "M4L1V7",
        "streetName": "KINGSTON",
        "streetDirectionId": null,
        "streetTypeId": "RD",
        "placeName": "TORONTO",
        "streetNameDisplayText": "KINGSTON RD, TORONTO"
      }
    ]
  },
  {
    "postal": "M4L8J1",
    "result": []
  },
  {
    "postal": "M4L5V9",
    "result": []
  },
  {
    "postal": "M4L2S8",
    "result": [
      {
        "electoralDistricts": [
          {
            "election": null,
            "id": 110,
            "name": "Toronto—Danforth"
          }
        ],
        "pollDivisionIds": [
          10142524
        ],
        "postalCode": "M4L2S8",
        "streetName": "VANCOUVER",
        "streetDirectionId": null,
        "streetTypeId": "AVE",
        "placeName": "TORONTO",
        "streetNameDisplayText": "VANCOUVER AVE, TORONTO"
      }
    ]
  },
  {
    "postal": "M4L6P0",
    "result": []
  },
  {
    "postal": "M4L4J8",
    "result": []
  },
  {
    "postal": "M4L0N1",
    "result": []
  },
  {
    "postal": "M4L1Y7",
    "result": [
      {
        "electoralDistricts": [
          {
            "election": null,
            "id": 110,
            "name": "Toronto—Danforth"
          }
        ],
        "pollDivisionIds": [
          10142515
        ],
        "postalCode": "M4L1Y7",
        "streetName": "GERRARD",
        "streetDirectionId": "E",
        "streetTypeId": "ST",
        "placeName": "TORONTO",
        "streetNameDisplayText": "GERRARD ST E, TORONTO"
      }
    ]
  },
  {
    "postal": "M4L7W5",
    "result": []
  },
  {
    "postal": "M4L3Z1",
    "result": []
  },
  {
    "postal": "M4L7M6",
    "result": []
  },
  {
    "postal": "M4L1W7",
    "result": [
      {
        "electoralDistricts": [
          {
            "election": null,
            "id": 110,
            "name": "Toronto—Danforth"
          }
        ],
        "pollDivisionIds": [
          10142524
        ],
        "postalCode": "M4L1W7",
        "streetName": "ATHLETIC",
        "streetDirectionId": null,
        "streetTypeId": "AVE",
        "placeName": "TORONTO",
        "streetNameDisplayText": "ATHLETIC AVE, TORONTO"
      }
    ]
  },
  {
    "postal": "M4L1X1",
    "result": [
      {
        "electoralDistricts": [
          {
            "election": null,
            "id": 7,
            "name": "Beaches—East York"
          }
        ],
        "pollDivisionIds": [
          10137052
        ],
        "postalCode": "M4L1X1",
        "streetName": "ROBBINS",
        "streetDirectionId": null,
        "streetTypeId": "AVE",
        "placeName": "TORONTO",
        "streetNameDisplayText": "ROBBINS AVE, TORONTO"
      }
    ]
  },
  {
    "postal": "M4L0C1",
    "result": []
  },
  {
    "postal": "M4L4N3",
    "result": []
  },
  {
    "postal": "M4L4S8",
    "result": []
  },
  {
    "postal": "M4L1H6",
    "result": [
      {
        "electoralDistricts": [
          {
            "election": null,
            "id": 7,
            "name": "Beaches—East York"
          }
        ],
        "pollDivisionIds": [
          10137053
        ],
        "postalCode": "M4L1H6",
        "streetName": "QUEEN",
        "streetDirectionId": "E",
        "streetTypeId": "ST",
        "placeName": "TORONTO",
        "streetNameDisplayText": "QUEEN ST E, TORONTO"
      }
    ]
  },
  {
    "postal": "M4L2Z4",
    "result": [
      {
        "electoralDistricts": [
          {
            "election": null,
            "id": 7,
            "name": "Beaches—East York"
          },
          {
            "election": null,
            "id": 110,
            "name": "Toronto—Danforth"
          }
        ],
        "pollDivisionIds": [
          10137037,
          10142524
        ],
        "postalCode": "M4L2Z4",
        "streetName": "CRAVEN",
        "streetDirectionId": null,
        "streetTypeId": "RD",
        "placeName": "TORONTO",
        "streetNameDisplayText": "CRAVEN RD, TORONTO"
      }
    ]
  },
  {
    "postal": "M4L7K3",
    "result": []
  },
  {
    "postal": "M4L8A2",
    "result": []
  },
  {
    "postal": "M4L6J1",
    "result": []
  },
  {
    "postal": "M4L5Z6",
    "result": []
  },
  {
    "postal": "M4L3Z0",
    "result": []
  },
  {
    "postal": "M4L8M0",
    "result": []
  },
  {
    "postal": "M4L1Z6",
    "result": [
      {
        "electoralDistricts": [
          {
            "election": null,
            "id": 110,
            "name": "Toronto—Danforth"
          }
        ],
        "pollDivisionIds": [
          10142518,
          10142515
        ],
        "postalCode": "M4L1Z6",
        "streetName": "GERRARD",
        "streetDirectionId": "E",
        "streetTypeId": "ST",
        "placeName": "TORONTO",
        "streetNameDisplayText": "GERRARD ST E, TORONTO"
      }
    ]
  },
  {
    "postal": "M4L8K7",
    "result": []
  },
  {
    "postal": "M4L1N3",
    "result": [
      {
        "electoralDistricts": [
          {
            "election": null,
            "id": 7,
            "name": "Beaches—East York"
          }
        ],
        "pollDivisionIds": [
          10137056
        ],
        "postalCode": "M4L1N3",
        "streetName": "DIXON",
        "streetDirectionId": null,
        "streetTypeId": "AVE",
        "placeName": "TORONTO",
        "streetNameDisplayText": "DIXON AVE, TORONTO"
      }
    ]
  },
  {
    "postal": "M4L9S2",
    "result": []
  },
  {
    "postal": "M4L2K1",
    "result": [
      {
        "electoralDistricts": [
          {
            "election": null,
            "id": 110,
            "name": "Toronto—Danforth"
          }
        ],
        "pollDivisionIds": [
          10142515
        ],
        "postalCode": "M4L2K1",
        "streetName": "FAIRFORD",
        "streetDirectionId": null,
        "streetTypeId": "AVE",
        "placeName": "TORONTO",
        "streetNameDisplayText": "FAIRFORD AVE, TORONTO"
      }
    ]
  },
  {
    "postal": "M4L1E8",
    "result": [
      {
        "electoralDistricts": [
          {
            "election": null,
            "id": 109,
            "name": "Toronto Centre"
          },
          {
            "election": null,
            "id": 110,
            "name": "Toronto—Danforth"
          }
        ],
        "pollDivisionIds": [
          10135203,
          10135200,
          10142524
        ],
        "postalCode": "M4L1E8",
        "streetName": "QUEEN",
        "streetDirectionId": "E",
        "streetTypeId": "ST",
        "placeName": "TORONTO",
        "streetNameDisplayText": "QUEEN ST E, TORONTO"
      }
    ]
  },
  {
    "postal": "M4L9B8",
    "result": []
  },
  {
    "postal": "M4L7X4",
    "result": []
  },
  {
    "postal": "M4L1Z4",
    "result": [
      {
        "electoralDistricts": [
          {
            "election": null,
            "id": 110,
            "name": "Toronto—Danforth"
          }
        ],
        "pollDivisionIds": [
          10142515
        ],
        "postalCode": "M4L1Z4",
        "streetName": "GERRARD",
        "streetDirectionId": "E",
        "streetTypeId": "ST",
        "placeName": "TORONTO",
        "streetNameDisplayText": "GERRARD ST E, TORONTO"
      }
    ]
  },
  {
    "postal": "M4L2C7",
    "result": [
      {
        "electoralDistricts": [
          {
            "election": null,
            "id": 7,
            "name": "Beaches—East York"
          }
        ],
        "pollDivisionIds": [
          10137052
        ],
        "postalCode": "M4L2C7",
        "streetName": "EASTWOOD",
        "streetDirectionId": null,
        "streetTypeId": "RD",
        "placeName": "TORONTO",
        "streetNameDisplayText": "EASTWOOD RD, TORONTO"
      }
    ]
  },
  {
    "postal": "M4L2E7",
    "result": [
      {
        "electoralDistricts": [
          {
            "election": null,
            "id": 110,
            "name": "Toronto—Danforth"
          }
        ],
        "pollDivisionIds": [
          10142517
        ],
        "postalCode": "M4L2E7",
        "streetName": "SANDFORD",
        "streetDirectionId": null,
        "streetTypeId": "AVE",
        "placeName": "TORONTO",
        "streetNameDisplayText": "SANDFORD AVE, TORONTO"
      }
    ]
  },
  {
    "postal": "M4L3R1",
    "result": [
      {
        "electoralDistricts": [
          {
            "election": null,
            "id": 7,
            "name": "Beaches—East York"
          }
        ],
        "pollDivisionIds": [
          10137054
        ],
        "postalCode": "M4L3R1",
        "streetName": "HASLETT",
        "streetDirectionId": null,
        "streetTypeId": "AVE",
        "placeName": "TORONTO",
        "streetNameDisplayText": "HASLETT AVE, TORONTO"
      }
    ]
  },
  {
    "postal": "M4L4K4",
    "result": []
  },
  {
    "postal": "M4L9G3",
    "result": []
  },
  {
    "postal": "M4L6C9",
    "result": []
  },
  {
    "postal": "M4L9H5",
    "result": []
  },
  {
    "postal": "M4L1P5",
    "result": [
      {
        "electoralDistricts": [
          {
            "election": null,
            "id": 7,
            "name": "Beaches—East York"
          }
        ],
        "pollDivisionIds": [
          10137053
        ],
        "postalCode": "M4L1P5",
        "streetName": "COLUMBINE",
        "streetDirectionId": null,
        "streetTypeId": "AVE",
        "placeName": "TORONTO",
        "streetNameDisplayText": "COLUMBINE AVE, TORONTO"
      }
    ]
  },
  {
    "postal": "M4L2J5",
    "result": [
      {
        "electoralDistricts": [
          {
            "election": null,
            "id": 110,
            "name": "Toronto—Danforth"
          }
        ],
        "pollDivisionIds": [
          10142515
        ],
        "postalCode": "M4L2J5",
        "streetName": "FAIRFORD",
        "streetDirectionId": null,
        "streetTypeId": "AVE",
        "placeName": "TORONTO",
        "streetNameDisplayText": "FAIRFORD AVE, TORONTO"
      }
    ]
  },
  {
    "postal": "M4L4W6",
    "result": []
  },
  {
    "postal": "M4L8M8",
    "result": []
  },
  {
    "postal": "M4L6C5",
    "result": []
  },
  {
    "postal": "M4L9H0",
    "result": []
  },
  {
    "postal": "M4L1X8",
    "result": [
      {
        "electoralDistricts": [
          {
            "election": null,
            "id": 7,
            "name": "Beaches—East York"
          }
        ],
        "pollDivisionIds": [
          10137052
        ],
        "postalCode": "M4L1X8",
        "streetName": "EDGEWOOD",
        "streetDirectionId": null,
        "streetTypeId": "GROVE",
        "placeName": "TORONTO",
        "streetNameDisplayText": "EDGEWOOD GROVE, TORONTO"
      }
    ]
  },
  {
    "postal": "M4L3H4",
    "result": [
      {
        "electoralDistricts": [
          {
            "election": null,
            "id": 7,
            "name": "Beaches—East York"
          }
        ],
        "pollDivisionIds": [
          10137052
        ],
        "postalCode": "M4L3H4",
        "streetName": "EDGEWOOD",
        "streetDirectionId": null,
        "streetTypeId": "GDNS",
        "placeName": "TORONTO",
        "streetNameDisplayText": "EDGEWOOD GDNS, TORONTO"
      }
    ]
  },
  {
    "postal": "M4L4E7",
    "result": []
  },
  {
    "postal": "M4L8A0",
    "result": []
  },
  {
    "postal": "M4L1Z7",
    "result": [
      {
        "electoralDistricts": [
          {
            "election": null,
            "id": 110,
            "name": "Toronto—Danforth"
          }
        ],
        "pollDivisionIds": [
          10142518
        ],
        "postalCode": "M4L1Z7",
        "streetName": "GERRARD",
        "streetDirectionId": "E",
        "streetTypeId": "ST",
        "placeName": "TORONTO",
        "streetNameDisplayText": "GERRARD ST E, TORONTO"
      }
    ]
  },
  {
    "postal": "M4L7Z3",
    "result": []
  },
  {
    "postal": "M4L0L7",
    "result": []
  },
  {
    "postal": "M4L2C6",
    "result": [
      {
        "electoralDistricts": [
          {
            "election": null,
            "id": 7,
            "name": "Beaches—East York"
          }
        ],
        "pollDivisionIds": [
          10137052
        ],
        "postalCode": "M4L2C6",
        "streetName": "EASTWOOD",
        "streetDirectionId": null,
        "streetTypeId": "RD",
        "placeName": "TORONTO",
        "streetNameDisplayText": "EASTWOOD RD, TORONTO"
      }
    ]
  },
  {
    "postal": "M4L6M3",
    "result": []
  },
  {
    "postal": "M4L2J1",
    "result": [
      {
        "electoralDistricts": [
          {
            "election": null,
            "id": 110,
            "name": "Toronto—Danforth"
          }
        ],
        "pollDivisionIds": [
          10142515
        ],
        "postalCode": "M4L2J1",
        "streetName": "WALPOLE",
        "streetDirectionId": null,
        "streetTypeId": "AVE",
        "placeName": "TORONTO",
        "streetNameDisplayText": "WALPOLE AVE, TORONTO"
      }
    ]
  },
  {
    "postal": "M4L3E3",
    "result": [
      {
        "electoralDistricts": [
          {
            "election": null,
            "id": 7,
            "name": "Beaches—East York"
          }
        ],
        "pollDivisionIds": [
          10137056
        ],
        "postalCode": "M4L3E3",
        "streetName": "ORCHARD PARK",
        "streetDirectionId": null,
        "streetTypeId": "BLVD",
        "placeName": "TORONTO",
        "streetNameDisplayText": "ORCHARD PARK BLVD, TORONTO"
      }
    ]
  },
  {
    "postal": "M4L6Z9",
    "result": []
  },
  {
    "postal": "M4L3M3",
    "result": [
      {
        "electoralDistricts": [
          {
            "election": null,
            "id": 7,
            "name": "Beaches—East York"
          }
        ],
        "pollDivisionIds": [
          10137049
        ],
        "postalCode": "M4L3M3",
        "streetName": "GLENMORE",
        "streetDirectionId": null,
        "streetTypeId": "RD",
        "placeName": "TORONTO",
        "streetNameDisplayText": "GLENMORE RD, TORONTO"
      }
    ]
  },
  {
    "postal": "M4L9B1",
    "result": []
  },
  {
    "postal": "M4L9J5",
    "result": []
  },
  {
    "postal": "M4L4V8",
    "result": []
  },
  {
    "postal": "M4L6W2",
    "result": []
  },
  {
    "postal": "M4L0V5",
    "result": []
  },
  {
    "postal": "M4L0Z8",
    "result": []
  },
  {
    "postal": "M4L5G2",
    "result": []
  },
  {
    "postal": "M4L4N4",
    "result": []
  },
  {
    "postal": "M4L8G7",
    "result": []
  },
  {
    "postal": "M4L8W1",
    "result": []
  },
  {
    "postal": "M4L1S6",
    "result": [
      {
        "electoralDistricts": [
          {
            "election": null,
            "id": 7,
            "name": "Beaches—East York"
          }
        ],
        "pollDivisionIds": [
          10137056
        ],
        "postalCode": "M4L1S6",
        "streetName": "KINGSTON",
        "streetDirectionId": null,
        "streetTypeId": "RD",
        "placeName": "TORONTO",
        "streetNameDisplayText": "KINGSTON RD, TORONTO"
      }
    ]
  },
  {
    "postal": "M4L4E0",
    "result": []
  },
  {
    "postal": "M4L4L9",
    "result": []
  },
  {
    "postal": "M4L5Z9",
    "result": []
  },
  {
    "postal": "M4L5V3",
    "result": []
  },
  {
    "postal": "M4L4V2",
    "result": []
  },
  {
    "postal": "M4L7C0",
    "result": []
  },
  {
    "postal": "M4L6L0",
    "result": []
  },
  {
    "postal": "M4L1S9",
    "result": [
      {
        "electoralDistricts": [
          {
            "election": null,
            "id": 7,
            "name": "Beaches—East York"
          }
        ],
        "pollDivisionIds": [
          10137053
        ],
        "postalCode": "M4L1S9",
        "streetName": "KINGSTON",
        "streetDirectionId": null,
        "streetTypeId": "RD",
        "placeName": "TORONTO",
        "streetNameDisplayText": "KINGSTON RD, TORONTO"
      }
    ]
  },
  {
    "postal": "M4L7R6",
    "result": []
  },
  {
    "postal": "M4L7J0",
    "result": []
  },
  {
    "postal": "M4L5M0",
    "result": []
  },
  {
    "postal": "M4L2E5",
    "result": [
      {
        "electoralDistricts": [
          {
            "election": null,
            "id": 7,
            "name": "Beaches—East York"
          }
        ],
        "pollDivisionIds": [
          10137053
        ],
        "postalCode": "M4L2E5",
        "streetName": "EASTWOOD",
        "streetDirectionId": null,
        "streetTypeId": "RD",
        "placeName": "TORONTO",
        "streetNameDisplayText": "EASTWOOD RD, TORONTO"
      }
    ]
  },
  {
    "postal": "M4L7C7",
    "result": []
  },
  {
    "postal": "M4L5C0",
    "result": []
  },
  {
    "postal": "M4L8V9",
    "result": []
  },
  {
    "postal": "M4L7E0",
    "result": []
  },
  {
    "postal": "M4L6R4",
    "result": []
  },
  {
    "postal": "M4L3Z7",
    "result": [
      {
        "electoralDistricts": [
          {
            "election": null,
            "id": 7,
            "name": "Beaches—East York"
          }
        ],
        "pollDivisionIds": [
          10137056
        ],
        "postalCode": "M4L3Z7",
        "streetName": "WINNERS",
        "streetDirectionId": null,
        "streetTypeId": "CIR",
        "placeName": "TORONTO",
        "streetNameDisplayText": "WINNERS CIR, TORONTO"
      }
    ]
  },
  {
    "postal": "M4L1J9",
    "result": [
      {
        "electoralDistricts": [
          {
            "election": null,
            "id": 7,
            "name": "Beaches—East York"
          }
        ],
        "pollDivisionIds": [
          10137056
        ],
        "postalCode": "M4L1J9",
        "streetName": "ASHLAND",
        "streetDirectionId": null,
        "streetTypeId": "AVE",
        "placeName": "TORONTO",
        "streetNameDisplayText": "ASHLAND AVE, TORONTO"
      }
    ]
  },
  {
    "postal": "M4L7K6",
    "result": []
  },
  {
    "postal": "M4L7Y5",
    "result": []
  },
  {
    "postal": "M4L1B7",
    "result": [
      {
        "electoralDistricts": [
          {
            "election": null,
            "id": 7,
            "name": "Beaches—East York"
          }
        ],
        "pollDivisionIds": [
          10137057
        ],
        "postalCode": "M4L1B7",
        "streetName": "KEW BEACH",
        "streetDirectionId": null,
        "streetTypeId": "AVE",
        "placeName": "TORONTO",
        "streetNameDisplayText": "KEW BEACH AVE, TORONTO"
      }
    ]
  },
  {
    "postal": "M4L4S9",
    "result": []
  },
  {
    "postal": "M4L9R9",
    "result": []
  },
  {
    "postal": "M4L5K7",
    "result": []
  },
  {
    "postal": "M4L6P2",
    "result": []
  },
  {
    "postal": "M4L2C5",
    "result": [
      {
        "electoralDistricts": [
          {
            "election": null,
            "id": 7,
            "name": "Beaches—East York"
          }
        ],
        "pollDivisionIds": [
          10137049
        ],
        "postalCode": "M4L2C5",
        "streetName": "EASTWOOD",
        "streetDirectionId": null,
        "streetTypeId": "RD",
        "placeName": "TORONTO",
        "streetNameDisplayText": "EASTWOOD RD, TORONTO"
      }
    ]
  },
  {
    "postal": "M4L2N0",
    "result": []
  },
  {
    "postal": "M4L1G0",
    "result": []
  },
  {
    "postal": "M4L4K5",
    "result": []
  },
  {
    "postal": "M4L9B5",
    "result": []
  },
  {
    "postal": "M4L6T5",
    "result": []
  },
  {
    "postal": "M4L1N8",
    "result": [
      {
        "electoralDistricts": [
          {
            "election": null,
            "id": 7,
            "name": "Beaches—East York"
          }
        ],
        "pollDivisionIds": [
          10137053
        ],
        "postalCode": "M4L1N8",
        "streetName": "DIXON",
        "streetDirectionId": null,
        "streetTypeId": "AVE",
        "placeName": "TORONTO",
        "streetNameDisplayText": "DIXON AVE, TORONTO"
      }
    ]
  },
  {
    "postal": "M4L0C0",
    "result": []
  },
  {
    "postal": "M4L0R9",
    "result": []
  },
  {
    "postal": "M4L7L1",
    "result": []
  },
  {
    "postal": "M4L3Y8",
    "result": [
      {
        "electoralDistricts": [
          {
            "election": null,
            "id": 7,
            "name": "Beaches—East York"
          }
        ],
        "pollDivisionIds": [
          10137056
        ],
        "postalCode": "M4L3Y8",
        "streetName": "BOARDWALK",
        "streetDirectionId": null,
        "streetTypeId": "DR",
        "placeName": "TORONTO",
        "streetNameDisplayText": "BOARDWALK DR, TORONTO"
      }
    ]
  },
  {
    "postal": "M4L7X9",
    "result": []
  },
  {
    "postal": "M4L1A7",
    "result": []
  },
  {
    "postal": "M4L2T9",
    "result": [
      {
        "electoralDistricts": [
          {
            "election": null,
            "id": 110,
            "name": "Toronto—Danforth"
          }
        ],
        "pollDivisionIds": [
          10142518
        ],
        "postalCode": "M4L2T9",
        "streetName": "HIGHFIELD",
        "streetDirectionId": null,
        "streetTypeId": "RD",
        "placeName": "TORONTO",
        "streetNameDisplayText": "HIGHFIELD RD, TORONTO"
      }
    ]
  },
  {
    "postal": "M4L2E6",
    "result": [
      {
        "electoralDistricts": [
          {
            "election": null,
            "id": 110,
            "name": "Toronto—Danforth"
          }
        ],
        "pollDivisionIds": [
          10142517
        ],
        "postalCode": "M4L2E6",
        "streetName": "SANDFORD",
        "streetDirectionId": null,
        "streetTypeId": "AVE",
        "placeName": "TORONTO",
        "streetNameDisplayText": "SANDFORD AVE, TORONTO"
      }
    ]
  },
  {
    "postal": "M4L8Y1",
    "result": []
  },
  {
    "postal": "M4L0J5",
    "result": []
  },
  {
    "postal": "M4L4J1",
    "result": []
  },
  {
    "postal": "M4L1A5",
    "result": [
      {
        "electoralDistricts": [
          {
            "election": null,
            "id": 110,
            "name": "Toronto—Danforth"
          }
        ],
        "pollDivisionIds": [
          10142524
        ],
        "postalCode": "M4L1A5",
        "streetName": "EASTERN",
        "streetDirectionId": null,
        "streetTypeId": "AVE",
        "placeName": "TORONTO",
        "streetNameDisplayText": "EASTERN AVE, TORONTO"
      }
    ]
  },
  {
    "postal": "M4L6Z6",
    "result": []
  },
  {
    "postal": "M4L5K4",
    "result": []
  },
  {
    "postal": "M4L7R9",
    "result": []
  },
  {
    "postal": "M4L6G4",
    "result": []
  }
]
