[
  {
    "postal": "L9X9J6",
    "result": []
  },
  {
    "postal": "L9X9Z5",
    "result": []
  },
  {
    "postal": "L9X7H8",
    "result": []
  },
  {
    "postal": "L9X0P6",
    "result": [
      {
        "electoralDistricts": [
          {
            "election": null,
            "id": 5,
            "name": "Barrie—Springwater—Oro-Medonte"
          }
        ],
        "pollDivisionIds": [
          10136927
        ],
        "postalCode": "L9X0P6",
        "streetName": "IDLEWOOD",
        "streetDirectionId": null,
        "streetTypeId": "DR",
        "placeName": "MIDHURST",
        "streetNameDisplayText": "IDLEWOOD DR, MIDHURST"
      },
      {
        "electoralDistricts": [
          {
            "election": null,
            "id": 5,
            "name": "Barrie—Springwater—Oro-Medonte"
          }
        ],
        "pollDivisionIds": [
          10136927
        ],
        "postalCode": "L9X0P6",
        "streetName": "PARK",
        "streetDirectionId": null,
        "streetTypeId": "TRAIL",
        "placeName": "MIDHURST",
        "streetNameDisplayText": "PARK TRAIL, MIDHURST"
      },
      {
        "electoralDistricts": [
          {
            "election": null,
            "id": 5,
            "name": "Barrie—Springwater—Oro-Medonte"
          }
        ],
        "pollDivisionIds": [
          10136927
        ],
        "postalCode": "L9X0P6",
        "streetName": "WATTIE",
        "streetDirectionId": null,
        "streetTypeId": "RD",
        "placeName": "MIDHURST",
        "streetNameDisplayText": "WATTIE RD, MIDHURST"
      }
    ]
  },
  {
    "postal": "L9X0S7",
    "result": [
      {
        "electoralDistricts": [
          {
            "election": null,
            "id": 5,
            "name": "Barrie—Springwater—Oro-Medonte"
          }
        ],
        "pollDivisionIds": [
          10136924
        ],
        "postalCode": "L9X0S7",
        "streetName": "CURTIS",
        "streetDirectionId": null,
        "streetTypeId": "WAY",
        "placeName": "BARRIE",
        "streetNameDisplayText": "CURTIS WAY, BARRIE"
      },
      {
        "electoralDistricts": [
          {
            "election": null,
            "id": 5,
            "name": "Barrie—Springwater—Oro-Medonte"
          }
        ],
        "pollDivisionIds": [
          10136924
        ],
        "postalCode": "L9X0S7",
        "streetName": "CURTIS",
        "streetDirectionId": null,
        "streetTypeId": "WAY",
        "placeName": "SPRINGWATER",
        "streetNameDisplayText": "CURTIS WAY, SPRINGWATER"
      },
      {
        "electoralDistricts": [
          {
            "election": null,
            "id": 5,
            "name": "Barrie—Springwater—Oro-Medonte"
          }
        ],
        "pollDivisionIds": [
          10136924
        ],
        "postalCode": "L9X0S7",
        "streetName": "OLIVER'S MILL",
        "streetDirectionId": null,
        "streetTypeId": "RD",
        "placeName": "BARRIE",
        "streetNameDisplayText": "OLIVER'S MILL RD, BARRIE"
      },
      {
        "electoralDistricts": [
          {
            "election": null,
            "id": 5,
            "name": "Barrie—Springwater—Oro-Medonte"
          }
        ],
        "pollDivisionIds": [
          10136890,
          10136924
        ],
        "postalCode": "L9X0S7",
        "streetName": "OLIVERS' MILL",
        "streetDirectionId": null,
        "streetTypeId": "RD",
        "placeName": "SPRINGWATER",
        "streetNameDisplayText": "OLIVERS' MILL RD, SPRINGWATER"
      },
      {
        "electoralDistricts": [
          {
            "election": null,
            "id": 5,
            "name": "Barrie—Springwater—Oro-Medonte"
          }
        ],
        "pollDivisionIds": [
          10136924
        ],
        "postalCode": "L9X0S7",
        "streetName": "OLIVER'S MILL",
        "streetDirectionId": null,
        "streetTypeId": "RD",
        "placeName": "SPRINGWATER",
        "streetNameDisplayText": "OLIVER'S MILL RD, SPRINGWATER"
      },
      {
        "electoralDistricts": [
          {
            "election": null,
            "id": 5,
            "name": "Barrie—Springwater—Oro-Medonte"
          }
        ],
        "pollDivisionIds": [
          10136924
        ],
        "postalCode": "L9X0S7",
        "streetName": "TRAIL",
        "streetDirectionId": null,
        "streetTypeId": "BLVD",
        "placeName": "SPRINGWATER",
        "streetNameDisplayText": "TRAIL BLVD, SPRINGWATER"
      }
    ]
  },
  {
    "postal": "L9X8B9",
    "result": []
  },
  {
    "postal": "L9X2A6",
    "result": []
  },
  {
    "postal": "L9X7V2",
    "result": []
  },
  {
    "postal": "L9X9P4",
    "result": []
  },
  {
    "postal": "L9X6G0",
    "result": []
  },
  {
    "postal": "L9X2K0",
    "result": []
  },
  {
    "postal": "L9X7N6",
    "result": []
  },
  {
    "postal": "L9X5R3",
    "result": []
  },
  {
    "postal": "L9X7K0",
    "result": []
  },
  {
    "postal": "L9X3R2",
    "result": []
  },
  {
    "postal": "L9X0J1",
    "result": [
      {
        "electoralDistricts": [
          {
            "election": null,
            "id": 5,
            "name": "Barrie—Springwater—Oro-Medonte"
          }
        ],
        "pollDivisionIds": [
          10136925,
          10136893
        ],
        "postalCode": "L9X0J1",
        "streetName": "HERON",
        "streetDirectionId": null,
        "streetTypeId": "BLVD",
        "placeName": "MINESING",
        "streetNameDisplayText": "HERON BLVD, MINESING"
      }
    ]
  },
  {
    "postal": "L9X0B0",
    "result": []
  },
  {
    "postal": "L9X5Z2",
    "result": []
  },
  {
    "postal": "L9X7P3",
    "result": []
  },
  {
    "postal": "L9X2K3",
    "result": []
  },
  {
    "postal": "L9X7Y6",
    "result": []
  },
  {
    "postal": "L9X1L9",
    "result": [
      {
        "electoralDistricts": [
          {
            "election": null,
            "id": 5,
            "name": "Barrie—Springwater—Oro-Medonte"
          }
        ],
        "pollDivisionIds": [
          10136923
        ],
        "postalCode": "L9X1L9",
        "streetName": "GILL",
        "streetDirectionId": null,
        "streetTypeId": "RD",
        "placeName": "MIDHURST",
        "streetNameDisplayText": "GILL RD, MIDHURST"
      }
    ]
  },
  {
    "postal": "L9X8T0",
    "result": []
  },
  {
    "postal": "L9X3K8",
    "result": []
  },
  {
    "postal": "L9X5W9",
    "result": []
  },
  {
    "postal": "L9X6T9",
    "result": []
  },
  {
    "postal": "L9X4H1",
    "result": []
  },
  {
    "postal": "L9X7A2",
    "result": []
  },
  {
    "postal": "L9X5G0",
    "result": []
  },
  {
    "postal": "L9X8V5",
    "result": []
  },
  {
    "postal": "L9X2Y8",
    "result": []
  },
  {
    "postal": "L9X2B6",
    "result": []
  },
  {
    "postal": "L9X4W8",
    "result": []
  },
  {
    "postal": "L9X8H7",
    "result": []
  },
  {
    "postal": "L9X5P1",
    "result": []
  },
  {
    "postal": "L9X2B8",
    "result": []
  },
  {
    "postal": "L9X0P2",
    "result": [
      {
        "electoralDistricts": [
          {
            "election": null,
            "id": 5,
            "name": "Barrie—Springwater—Oro-Medonte"
          }
        ],
        "pollDivisionIds": [
          10136926
        ],
        "postalCode": "L9X0P2",
        "streetName": "MALTA",
        "streetDirectionId": null,
        "streetTypeId": "CRES",
        "placeName": "MIDHURST",
        "streetNameDisplayText": "MALTA CRES, MIDHURST"
      },
      {
        "electoralDistricts": [
          {
            "election": null,
            "id": 5,
            "name": "Barrie—Springwater—Oro-Medonte"
          }
        ],
        "pollDivisionIds": [
          10136926
        ],
        "postalCode": "L9X0P2",
        "streetName": "SANT",
        "streetDirectionId": null,
        "streetTypeId": "RD",
        "placeName": "MIDHURST",
        "streetNameDisplayText": "SANT RD, MIDHURST"
      },
      {
        "electoralDistricts": [
          {
            "election": null,
            "id": 5,
            "name": "Barrie—Springwater—Oro-Medonte"
          }
        ],
        "pollDivisionIds": [
          10136926
        ],
        "postalCode": "L9X0P2",
        "streetName": "SPENCE",
        "streetDirectionId": null,
        "streetTypeId": "AVE",
        "placeName": "MIDHURST",
        "streetNameDisplayText": "SPENCE AVE, MIDHURST"
      }
    ]
  },
  {
    "postal": "L9X9M1",
    "result": []
  },
  {
    "postal": "L9X3G0",
    "result": []
  },
  {
    "postal": "L9X9Z2",
    "result": []
  },
  {
    "postal": "L9X2A0",
    "result": []
  },
  {
    "postal": "L9X6Y0",
    "result": []
  },
  {
    "postal": "L9X2Z8",
    "result": []
  },
  {
    "postal": "L9X7Y3",
    "result": []
  },
  {
    "postal": "L9X6Z5",
    "result": []
  },
  {
    "postal": "L9X6E0",
    "result": []
  },
  {
    "postal": "L9X9B7",
    "result": []
  },
  {
    "postal": "L9X9S5",
    "result": []
  },
  {
    "postal": "L9X3X3",
    "result": []
  },
  {
    "postal": "L9X7R5",
    "result": []
  },
  {
    "postal": "L9X2X3",
    "result": []
  },
  {
    "postal": "L9X8Z9",
    "result": []
  },
  {
    "postal": "L9X0N4",
    "result": [
      {
        "electoralDistricts": [
          {
            "election": null,
            "id": 5,
            "name": "Barrie—Springwater—Oro-Medonte"
          }
        ],
        "pollDivisionIds": [
          10136926
        ],
        "postalCode": "L9X0N4",
        "streetName": "CAIRNS",
        "streetDirectionId": null,
        "streetTypeId": "BLVD",
        "placeName": "MIDHURST",
        "streetNameDisplayText": "CAIRNS BLVD, MIDHURST"
      },
      {
        "electoralDistricts": [
          {
            "election": null,
            "id": 5,
            "name": "Barrie—Springwater—Oro-Medonte"
          }
        ],
        "pollDivisionIds": [
          10136926
        ],
        "postalCode": "L9X0N4",
        "streetName": "HEATHERWOOD",
        "streetDirectionId": null,
        "streetTypeId": "DR",
        "placeName": "MIDHURST",
        "streetNameDisplayText": "HEATHERWOOD DR, MIDHURST"
      },
      {
        "electoralDistricts": [
          {
            "election": null,
            "id": 5,
            "name": "Barrie—Springwater—Oro-Medonte"
          }
        ],
        "pollDivisionIds": [
          10136926
        ],
        "postalCode": "L9X0N4",
        "streetName": "LILAC",
        "streetDirectionId": null,
        "streetTypeId": "LANE",
        "placeName": "MIDHURST",
        "streetNameDisplayText": "LILAC LANE, MIDHURST"
      },
      {
        "electoralDistricts": [
          {
            "election": null,
            "id": 5,
            "name": "Barrie—Springwater—Oro-Medonte"
          }
        ],
        "pollDivisionIds": [
          10136926
        ],
        "postalCode": "L9X0N4",
        "streetName": "STRATHMORE",
        "streetDirectionId": null,
        "streetTypeId": "PL",
        "placeName": "MIDHURST",
        "streetNameDisplayText": "STRATHMORE PL, MIDHURST"
      }
    ]
  },
  {
    "postal": "L9X1K1",
    "result": [
      {
        "electoralDistricts": [
          {
            "election": null,
            "id": 5,
            "name": "Barrie—Springwater—Oro-Medonte"
          }
        ],
        "pollDivisionIds": [
          10136925
        ],
        "postalCode": "L9X1K1",
        "streetName": "SNOW VALLEY",
        "streetDirectionId": null,
        "streetTypeId": "RD",
        "placeName": "MINESING",
        "streetNameDisplayText": "SNOW VALLEY RD, MINESING"
      }
    ]
  },
  {
    "postal": "L9X1S3",
    "result": [
      {
        "electoralDistricts": [
          {
            "election": null,
            "id": 5,
            "name": "Barrie—Springwater—Oro-Medonte"
          }
        ],
        "pollDivisionIds": [
          10136923
        ],
        "postalCode": "L9X1S3",
        "streetName": "WALT",
        "streetDirectionId": null,
        "streetTypeId": "RD",
        "placeName": "MIDHURST",
        "streetNameDisplayText": "WALT RD, MIDHURST"
      }
    ]
  },
  {
    "postal": "L9X6M4",
    "result": []
  },
  {
    "postal": "L9X9A9",
    "result": []
  },
  {
    "postal": "L9X9Z9",
    "result": []
  },
  {
    "postal": "L9X6T4",
    "result": []
  },
  {
    "postal": "L9X0B2",
    "result": []
  },
  {
    "postal": "L9X2L9",
    "result": []
  },
  {
    "postal": "L9X8K9",
    "result": []
  },
  {
    "postal": "L9X2H9",
    "result": []
  },
  {
    "postal": "L9X3Z6",
    "result": []
  },
  {
    "postal": "L9X3B0",
    "result": []
  },
  {
    "postal": "L9X2H8",
    "result": []
  },
  {
    "postal": "L9X3X2",
    "result": []
  },
  {
    "postal": "L9X2E9",
    "result": []
  },
  {
    "postal": "L9X9P6",
    "result": []
  },
  {
    "postal": "L9X9E2",
    "result": []
  },
  {
    "postal": "L9X9H2",
    "result": []
  },
  {
    "postal": "L9X1S8",
    "result": [
      {
        "electoralDistricts": [
          {
            "election": null,
            "id": 5,
            "name": "Barrie—Springwater—Oro-Medonte"
          }
        ],
        "pollDivisionIds": [
          10136924
        ],
        "postalCode": "L9X1S8",
        "streetName": "BARRIE HILL",
        "streetDirectionId": null,
        "streetTypeId": "RD",
        "placeName": "BARRIE",
        "streetNameDisplayText": "BARRIE HILL RD, BARRIE"
      },
      {
        "electoralDistricts": [
          {
            "election": null,
            "id": 5,
            "name": "Barrie—Springwater—Oro-Medonte"
          }
        ],
        "pollDivisionIds": [
          10136924
        ],
        "postalCode": "L9X1S8",
        "streetName": "BARRIE HILL",
        "streetDirectionId": null,
        "streetTypeId": "RD",
        "placeName": "SPRINGWATER",
        "streetNameDisplayText": "BARRIE HILL RD, SPRINGWATER"
      }
    ]
  },
  {
    "postal": "L9X3M6",
    "result": []
  },
  {
    "postal": "L9X6Z8",
    "result": []
  },
  {
    "postal": "L9X4J2",
    "result": []
  },
  {
    "postal": "L9X9Y1",
    "result": []
  },
  {
    "postal": "L9X8V6",
    "result": []
  },
  {
    "postal": "L9X6B2",
    "result": []
  },
  {
    "postal": "L9X1P8",
    "result": [
      {
        "electoralDistricts": [
          {
            "election": null,
            "id": 5,
            "name": "Barrie—Springwater—Oro-Medonte"
          }
        ],
        "pollDivisionIds": [
          10136927
        ],
        "postalCode": "L9X1P8",
        "streetName": "PARTRIDGE",
        "streetDirectionId": null,
        "streetTypeId": "RD",
        "placeName": "MIDHURST",
        "streetNameDisplayText": "PARTRIDGE RD, MIDHURST"
      }
    ]
  },
  {
    "postal": "L9X0V8",
    "result": [
      {
        "electoralDistricts": [
          {
            "election": null,
            "id": 5,
            "name": "Barrie—Springwater—Oro-Medonte"
          }
        ],
        "pollDivisionIds": [
          10136925
        ],
        "postalCode": "L9X0V8",
        "streetName": "GEORGE JOHNSTON R",
        "streetDirectionId": null,
        "streetTypeId": "RD",
        "placeName": "MINESING",
        "streetNameDisplayText": "GEORGE JOHNSTON R RD, MINESING"
      }
    ]
  },
  {
    "postal": "L9X4Y0",
    "result": []
  },
  {
    "postal": "L9X2T4",
    "result": []
  },
  {
    "postal": "L9X2S3",
    "result": []
  },
  {
    "postal": "L9X0K0",
    "result": []
  },
  {
    "postal": "L9X5N1",
    "result": []
  },
  {
    "postal": "L9X7T0",
    "result": []
  },
  {
    "postal": "L9X9N2",
    "result": []
  },
  {
    "postal": "L9X5L1",
    "result": []
  },
  {
    "postal": "L9X7G5",
    "result": []
  },
  {
    "postal": "L9X6K2",
    "result": []
  },
  {
    "postal": "L9X6P9",
    "result": []
  },
  {
    "postal": "L9X0E6",
    "result": [
      {
        "electoralDistricts": [
          {
            "election": null,
            "id": 5,
            "name": "Barrie—Springwater—Oro-Medonte"
          }
        ],
        "pollDivisionIds": [
          10136923
        ],
        "postalCode": "L9X0E6",
        "streetName": "26",
        "streetDirectionId": null,
        "streetTypeId": "HWY",
        "placeName": "MINESING",
        "streetNameDisplayText": "26 HWY, MINESING"
      }
    ]
  },
  {
    "postal": "L9X8R9",
    "result": []
  },
  {
    "postal": "L9X3G9",
    "result": []
  },
  {
    "postal": "L9X0V7",
    "result": []
  },
  {
    "postal": "L9X2Z1",
    "result": []
  },
  {
    "postal": "L9X7N1",
    "result": []
  },
  {
    "postal": "L9X3C6",
    "result": []
  },
  {
    "postal": "L9X4M1",
    "result": []
  },
  {
    "postal": "L9X9K2",
    "result": []
  },
  {
    "postal": "L9X9S6",
    "result": []
  },
  {
    "postal": "L9X4X1",
    "result": []
  },
  {
    "postal": "L9X8W2",
    "result": []
  },
  {
    "postal": "L9X7N2",
    "result": []
  },
  {
    "postal": "L9X8S3",
    "result": []
  },
  {
    "postal": "L9X4V0",
    "result": []
  },
  {
    "postal": "L9X6W4",
    "result": []
  },
  {
    "postal": "L9X5M1",
    "result": []
  },
  {
    "postal": "L9X0S4",
    "result": [
      {
        "electoralDistricts": [
          {
            "election": null,
            "id": 5,
            "name": "Barrie—Springwater—Oro-Medonte"
          }
        ],
        "pollDivisionIds": [
          10136924
        ],
        "postalCode": "L9X0S4",
        "streetName": "CAMERON",
        "streetDirectionId": null,
        "streetTypeId": "ST",
        "placeName": "BARRIE",
        "streetNameDisplayText": "CAMERON ST, BARRIE"
      },
      {
        "electoralDistricts": [
          {
            "election": null,
            "id": 5,
            "name": "Barrie—Springwater—Oro-Medonte"
          }
        ],
        "pollDivisionIds": [
          10136924,
          10136925
        ],
        "postalCode": "L9X0S4",
        "streetName": "CAMERON",
        "streetDirectionId": null,
        "streetTypeId": "ST",
        "placeName": "SPRINGWATER",
        "streetNameDisplayText": "CAMERON ST, SPRINGWATER"
      },
      {
        "electoralDistricts": [
          {
            "election": null,
            "id": 5,
            "name": "Barrie—Springwater—Oro-Medonte"
          }
        ],
        "pollDivisionIds": [
          10136925
        ],
        "postalCode": "L9X0S4",
        "streetName": "CAMERSON",
        "streetDirectionId": null,
        "streetTypeId": "ST",
        "placeName": "SPRINGWATER",
        "streetNameDisplayText": "CAMERSON ST, SPRINGWATER"
      },
      {
        "electoralDistricts": [
          {
            "election": null,
            "id": 5,
            "name": "Barrie—Springwater—Oro-Medonte"
          }
        ],
        "pollDivisionIds": [
          10136924
        ],
        "postalCode": "L9X0S4",
        "streetName": "TRAIL",
        "streetDirectionId": null,
        "streetTypeId": "BLVD",
        "placeName": "SPRINGWATER",
        "streetNameDisplayText": "TRAIL BLVD, SPRINGWATER"
      }
    ]
  },
  {
    "postal": "L9X5X6",
    "result": []
  },
  {
    "postal": "L9X8L5",
    "result": []
  },
  {
    "postal": "L9X5M8",
    "result": []
  },
  {
    "postal": "L9X2G3",
    "result": []
  },
  {
    "postal": "L9X8E4",
    "result": []
  },
  {
    "postal": "L9X7S9",
    "result": []
  },
  {
    "postal": "L9X1K3",
    "result": [
      {
        "electoralDistricts": [
          {
            "election": null,
            "id": 5,
            "name": "Barrie—Springwater—Oro-Medonte"
          }
        ],
        "pollDivisionIds": [
          10136925
        ],
        "postalCode": "L9X1K3",
        "streetName": "SNOW VALLEY",
        "streetDirectionId": null,
        "streetTypeId": "RD",
        "placeName": "MINESING",
        "streetNameDisplayText": "SNOW VALLEY RD, MINESING"
      }
    ]
  },
  {
    "postal": "L9X4E1",
    "result": []
  },
  {
    "postal": "L9X4R2",
    "result": []
  },
  {
    "postal": "L9X6T0",
    "result": []
  },
  {
    "postal": "L9X3K5",
    "result": []
  },
  {
    "postal": "L9X3S3",
    "result": []
  },
  {
    "postal": "L9X3L4",
    "result": []
  },
  {
    "postal": "L9X9Y2",
    "result": []
  },
  {
    "postal": "L9X1E0",
    "result": []
  },
  {
    "postal": "L9X9A4",
    "result": []
  },
  {
    "postal": "L9X1L3",
    "result": [
      {
        "electoralDistricts": [
          {
            "election": null,
            "id": 5,
            "name": "Barrie—Springwater—Oro-Medonte"
          }
        ],
        "pollDivisionIds": [
          10136926
        ],
        "postalCode": "L9X1L3",
        "streetName": "DORAN",
        "streetDirectionId": null,
        "streetTypeId": "RD",
        "placeName": "MIDHURST",
        "streetNameDisplayText": "DORAN RD, MIDHURST"
      }
    ]
  },
  {
    "postal": "L9X6N1",
    "result": []
  },
  {
    "postal": "L9X6G7",
    "result": []
  },
  {
    "postal": "L9X7W1",
    "result": []
  },
  {
    "postal": "L9X4M6",
    "result": []
  },
  {
    "postal": "L9X1K0",
    "result": []
  },
  {
    "postal": "L9X3E2",
    "result": []
  },
  {
    "postal": "L9X5H4",
    "result": []
  },
  {
    "postal": "L9X1K7",
    "result": [
      {
        "electoralDistricts": [
          {
            "election": null,
            "id": 5,
            "name": "Barrie—Springwater—Oro-Medonte"
          }
        ],
        "pollDivisionIds": [
          10136925
        ],
        "postalCode": "L9X1K7",
        "streetName": "VESPRA VALLEY",
        "streetDirectionId": null,
        "streetTypeId": "RD",
        "placeName": "MINESING",
        "streetNameDisplayText": "VESPRA VALLEY RD, MINESING"
      }
    ]
  },
  {
    "postal": "L9X0H0",
    "result": []
  },
  {
    "postal": "L9X0J3",
    "result": [
      {
        "electoralDistricts": [
          {
            "election": null,
            "id": 5,
            "name": "Barrie—Springwater—Oro-Medonte"
          }
        ],
        "pollDivisionIds": [
          10136924
        ],
        "postalCode": "L9X0J3",
        "streetName": "PORTAGE",
        "streetDirectionId": null,
        "streetTypeId": "TRAIL",
        "placeName": "MINESING",
        "streetNameDisplayText": "PORTAGE TRAIL, MINESING"
      }
    ]
  },
  {
    "postal": "L9X1X6",
    "result": [
      {
        "electoralDistricts": [
          {
            "election": null,
            "id": 5,
            "name": "Barrie—Springwater—Oro-Medonte"
          }
        ],
        "pollDivisionIds": [
          10136915
        ],
        "postalCode": "L9X1X6",
        "streetName": "BROWN",
        "streetDirectionId": null,
        "streetTypeId": "RD",
        "placeName": "BARRIE",
        "streetNameDisplayText": "BROWN RD, BARRIE"
      },
      {
        "electoralDistricts": [
          {
            "election": null,
            "id": 5,
            "name": "Barrie—Springwater—Oro-Medonte"
          }
        ],
        "pollDivisionIds": [
          10136915
        ],
        "postalCode": "L9X1X6",
        "streetName": "BROWN",
        "streetDirectionId": null,
        "streetTypeId": "RD",
        "placeName": "SPRINGWATER",
        "streetNameDisplayText": "BROWN RD, SPRINGWATER"
      }
    ]
  },
  {
    "postal": "L9X2Z6",
    "result": []
  },
  {
    "postal": "L9X4R9",
    "result": []
  },
  {
    "postal": "L9X0W8",
    "result": [
      {
        "electoralDistricts": [
          {
            "election": null,
            "id": 5,
            "name": "Barrie—Springwater—Oro-Medonte"
          }
        ],
        "pollDivisionIds": [
          10136923
        ],
        "postalCode": "L9X0W8",
        "streetName": "LUELLA",
        "streetDirectionId": null,
        "streetTypeId": "BLVD",
        "placeName": "MINESING",
        "streetNameDisplayText": "LUELLA BLVD, MINESING"
      }
    ]
  },
  {
    "postal": "L9X1L4",
    "result": [
      {
        "electoralDistricts": [
          {
            "election": null,
            "id": 5,
            "name": "Barrie—Springwater—Oro-Medonte"
          }
        ],
        "pollDivisionIds": [
          10136926
        ],
        "postalCode": "L9X1L4",
        "streetName": "DORAN",
        "streetDirectionId": null,
        "streetTypeId": "RD",
        "placeName": "MIDHURST",
        "streetNameDisplayText": "DORAN RD, MIDHURST"
      }
    ]
  },
  {
    "postal": "L9X0C8",
    "result": []
  },
  {
    "postal": "L9X9X7",
    "result": []
  },
  {
    "postal": "L9X4T1",
    "result": []
  },
  {
    "postal": "L9X0M0",
    "result": []
  },
  {
    "postal": "L9X6A2",
    "result": []
  },
  {
    "postal": "L9X9S8",
    "result": []
  },
  {
    "postal": "L9X9T4",
    "result": []
  },
  {
    "postal": "L9X9Y4",
    "result": []
  },
  {
    "postal": "L9X6G5",
    "result": []
  },
  {
    "postal": "L9X6H9",
    "result": []
  },
  {
    "postal": "L9X2P3",
    "result": []
  },
  {
    "postal": "L9X1T6",
    "result": [
      {
        "electoralDistricts": [
          {
            "election": null,
            "id": 5,
            "name": "Barrie—Springwater—Oro-Medonte"
          }
        ],
        "pollDivisionIds": [
          10136925
        ],
        "postalCode": "L9X1T6",
        "streetName": "DOBSON",
        "streetDirectionId": null,
        "streetTypeId": "RD",
        "placeName": "SPRINGWATER",
        "streetNameDisplayText": "DOBSON RD, SPRINGWATER"
      }
    ]
  },
  {
    "postal": "L9X4P6",
    "result": []
  },
  {
    "postal": "L9X3K1",
    "result": []
  },
  {
    "postal": "L9X6X4",
    "result": []
  },
  {
    "postal": "L9X4M8",
    "result": []
  },
  {
    "postal": "L9X2Y1",
    "result": []
  },
  {
    "postal": "L9X6M1",
    "result": []
  },
  {
    "postal": "L9X5L8",
    "result": []
  },
  {
    "postal": "L9X3P6",
    "result": []
  },
  {
    "postal": "L9X9A5",
    "result": []
  },
  {
    "postal": "L9X7K1",
    "result": []
  },
  {
    "postal": "L9X3J4",
    "result": []
  },
  {
    "postal": "L9X5E7",
    "result": []
  },
  {
    "postal": "L9X3A7",
    "result": []
  },
  {
    "postal": "L9X1B9",
    "result": [
      {
        "electoralDistricts": [
          {
            "election": null,
            "id": 5,
            "name": "Barrie—Springwater—Oro-Medonte"
          }
        ],
        "pollDivisionIds": [
          10136924
        ],
        "postalCode": "L9X1B9",
        "streetName": "FRALICK",
        "streetDirectionId": null,
        "streetTypeId": "RD",
        "placeName": "MINESING",
        "streetNameDisplayText": "FRALICK RD, MINESING"
      }
    ]
  },
  {
    "postal": "L9X9E8",
    "result": []
  },
  {
    "postal": "L9X1C9",
    "result": [
      {
        "electoralDistricts": [
          {
            "election": null,
            "id": 5,
            "name": "Barrie—Springwater—Oro-Medonte"
          }
        ],
        "pollDivisionIds": [
          10136924
        ],
        "postalCode": "L9X1C9",
        "streetName": "GLENGARRY LANDING",
        "streetDirectionId": "S",
        "streetTypeId": "RD",
        "placeName": "MINESING",
        "streetNameDisplayText": "GLENGARRY LANDING RD S, MINESING"
      }
    ]
  },
  {
    "postal": "L9X3B5",
    "result": []
  },
  {
    "postal": "L9X8R0",
    "result": []
  },
  {
    "postal": "L9X3P2",
    "result": []
  },
  {
    "postal": "L9X5V4",
    "result": []
  },
  {
    "postal": "L9X4H0",
    "result": []
  },
  {
    "postal": "L9X4S7",
    "result": []
  },
  {
    "postal": "L9X6C2",
    "result": []
  },
  {
    "postal": "L9X8W3",
    "result": []
  },
  {
    "postal": "L9X4M5",
    "result": []
  },
  {
    "postal": "L9X5T1",
    "result": []
  },
  {
    "postal": "L9X3B3",
    "result": []
  },
  {
    "postal": "L9X6C6",
    "result": []
  },
  {
    "postal": "L9X7N8",
    "result": []
  },
  {
    "postal": "L9X2Y3",
    "result": []
  },
  {
    "postal": "L9X2R6",
    "result": []
  },
  {
    "postal": "L9X7N3",
    "result": []
  },
  {
    "postal": "L9X8J2",
    "result": []
  },
  {
    "postal": "L9X6A9",
    "result": []
  },
  {
    "postal": "L9X3V2",
    "result": []
  },
  {
    "postal": "L9X2N3",
    "result": []
  },
  {
    "postal": "L9X1S5",
    "result": [
      {
        "electoralDistricts": [
          {
            "election": null,
            "id": 5,
            "name": "Barrie—Springwater—Oro-Medonte"
          }
        ],
        "pollDivisionIds": [
          10136927
        ],
        "postalCode": "L9X1S5",
        "streetName": "BAYFIELD",
        "streetDirectionId": "N",
        "streetTypeId": "ST",
        "placeName": "SPRINGWATER",
        "streetNameDisplayText": "BAYFIELD ST N, SPRINGWATER"
      }
    ]
  },
  {
    "postal": "L9X4T7",
    "result": []
  },
  {
    "postal": "L9X6Y7",
    "result": []
  },
  {
    "postal": "L9X0W7",
    "result": [
      {
        "electoralDistricts": [
          {
            "election": null,
            "id": 5,
            "name": "Barrie—Springwater—Oro-Medonte"
          }
        ],
        "pollDivisionIds": [
          10136923
        ],
        "postalCode": "L9X0W7",
        "streetName": "LUELLA",
        "streetDirectionId": null,
        "streetTypeId": "BLVD",
        "placeName": "MINESING",
        "streetNameDisplayText": "LUELLA BLVD, MINESING"
      }
    ]
  },
  {
    "postal": "L9X2W9",
    "result": []
  },
  {
    "postal": "L9X8V0",
    "result": []
  },
  {
    "postal": "L9X0H4",
    "result": [
      {
        "electoralDistricts": [
          {
            "election": null,
            "id": 5,
            "name": "Barrie—Springwater—Oro-Medonte"
          }
        ],
        "pollDivisionIds": [
          10136925
        ],
        "postalCode": "L9X0H4",
        "streetName": "ALPINE",
        "streetDirectionId": null,
        "streetTypeId": "TRAIL",
        "placeName": "MINESING",
        "streetNameDisplayText": "ALPINE TRAIL, MINESING"
      },
      {
        "electoralDistricts": [
          {
            "election": null,
            "id": 5,
            "name": "Barrie—Springwater—Oro-Medonte"
          }
        ],
        "pollDivisionIds": [
          10136925
        ],
        "postalCode": "L9X0H4",
        "streetName": "BARRIE HILL",
        "streetDirectionId": null,
        "streetTypeId": "LANE",
        "placeName": "MINESING",
        "streetNameDisplayText": "BARRIE HILL LANE, MINESING"
      },
      {
        "electoralDistricts": [
          {
            "election": null,
            "id": 5,
            "name": "Barrie—Springwater—Oro-Medonte"
          }
        ],
        "pollDivisionIds": [
          10136925
        ],
        "postalCode": "L9X0H4",
        "streetName": "COLLINS",
        "streetDirectionId": null,
        "streetTypeId": "LANE",
        "placeName": "MINESING",
        "streetNameDisplayText": "COLLINS LANE, MINESING"
      }
    ]
  },
  {
    "postal": "L9X2T1",
    "result": []
  },
  {
    "postal": "L9X1B1",
    "result": [
      {
        "electoralDistricts": [
          {
            "election": null,
            "id": 5,
            "name": "Barrie—Springwater—Oro-Medonte"
          }
        ],
        "pollDivisionIds": [
          10136922
        ],
        "postalCode": "L9X1B1",
        "streetName": "COUGHLIN",
        "streetDirectionId": null,
        "streetTypeId": "RD",
        "placeName": "MINESING",
        "streetNameDisplayText": "COUGHLIN RD, MINESING"
      }
    ]
  },
  {
    "postal": "L9X8B6",
    "result": []
  },
  {
    "postal": "L9X6H1",
    "result": []
  },
  {
    "postal": "L9X8T8",
    "result": []
  },
  {
    "postal": "L9X0T4",
    "result": [
      {
        "electoralDistricts": [
          {
            "election": null,
            "id": 5,
            "name": "Barrie—Springwater—Oro-Medonte"
          }
        ],
        "pollDivisionIds": [
          10136924
        ],
        "postalCode": "L9X0T4",
        "streetName": "BARRIE HILL",
        "streetDirectionId": null,
        "streetTypeId": "RD",
        "placeName": "SPRINGWATER",
        "streetNameDisplayText": "BARRIE HILL RD, SPRINGWATER"
      },
      {
        "electoralDistricts": [
          {
            "election": null,
            "id": 5,
            "name": "Barrie—Springwater—Oro-Medonte"
          }
        ],
        "pollDivisionIds": [
          10136924,
          10136894
        ],
        "postalCode": "L9X0T4",
        "streetName": "SUNNIDALE",
        "streetDirectionId": null,
        "streetTypeId": "RD",
        "placeName": "SPRINGWATER",
        "streetNameDisplayText": "SUNNIDALE RD, SPRINGWATER"
      }
    ]
  },
  {
    "postal": "L9X2C4",
    "result": []
  },
  {
    "postal": "L9X8N3",
    "result": []
  },
  {
    "postal": "L9X4L8",
    "result": []
  },
  {
    "postal": "L9X2B5",
    "result": []
  },
  {
    "postal": "L9X3H1",
    "result": []
  },
  {
    "postal": "L9X4Y1",
    "result": []
  },
  {
    "postal": "L9X7E2",
    "result": []
  },
  {
    "postal": "L9X2P5",
    "result": []
  },
  {
    "postal": "L9X8R7",
    "result": []
  },
  {
    "postal": "L9X9P1",
    "result": []
  },
  {
    "postal": "L9X3B8",
    "result": []
  },
  {
    "postal": "L9X3P7",
    "result": []
  },
  {
    "postal": "L9X9B2",
    "result": []
  },
  {
    "postal": "L9X6Z3",
    "result": []
  },
  {
    "postal": "L9X4N5",
    "result": []
  },
  {
    "postal": "L9X8T3",
    "result": []
  },
  {
    "postal": "L9X1V2",
    "result": [
      {
        "electoralDistricts": [
          {
            "election": null,
            "id": 5,
            "name": "Barrie—Springwater—Oro-Medonte"
          }
        ],
        "pollDivisionIds": [
          10136924
        ],
        "postalCode": "L9X1V2",
        "streetName": "GEORGE JOHNSTON",
        "streetDirectionId": null,
        "streetTypeId": "RD",
        "placeName": "BARRIE",
        "streetNameDisplayText": "GEORGE JOHNSTON RD, BARRIE"
      },
      {
        "electoralDistricts": [
          {
            "election": null,
            "id": 5,
            "name": "Barrie—Springwater—Oro-Medonte"
          }
        ],
        "pollDivisionIds": [
          10136924
        ],
        "postalCode": "L9X1V2",
        "streetName": "GEORGE JOHNSTON",
        "streetDirectionId": null,
        "streetTypeId": "RD",
        "placeName": "SPRINGWATER",
        "streetNameDisplayText": "GEORGE JOHNSTON RD, SPRINGWATER"
      }
    ]
  },
  {
    "postal": "L9X1Y0",
    "result": []
  },
  {
    "postal": "L9X3G6",
    "result": []
  },
  {
    "postal": "L9X3H7",
    "result": []
  },
  {
    "postal": "L9X7X8",
    "result": []
  },
  {
    "postal": "L9X0C7",
    "result": [
      {
        "electoralDistricts": [
          {
            "election": null,
            "id": 5,
            "name": "Barrie—Springwater—Oro-Medonte"
          }
        ],
        "pollDivisionIds": [
          10136923,
          10136924
        ],
        "postalCode": "L9X0C7",
        "streetName": "PINEHURST",
        "streetDirectionId": null,
        "streetTypeId": "LANE",
        "placeName": "MINESING",
        "streetNameDisplayText": "PINEHURST LANE, MINESING"
      }
    ]
  },
  {
    "postal": "L9X0W9",
    "result": [
      {
        "electoralDistricts": [
          {
            "election": null,
            "id": 5,
            "name": "Barrie—Springwater—Oro-Medonte"
          }
        ],
        "pollDivisionIds": [
          10136923
        ],
        "postalCode": "L9X0W9",
        "streetName": "LUELLA BLVD",
        "streetDirectionId": null,
        "streetTypeId": "BLVD",
        "placeName": "MINESING",
        "streetNameDisplayText": "LUELLA BLVD BLVD, MINESING"
      },
      {
        "electoralDistricts": [
          {
            "election": null,
            "id": 5,
            "name": "Barrie—Springwater—Oro-Medonte"
          }
        ],
        "pollDivisionIds": [
          10136923
        ],
        "postalCode": "L9X0W9",
        "streetName": "LUELLA",
        "streetDirectionId": null,
        "streetTypeId": "BLVD",
        "placeName": "MINESING",
        "streetNameDisplayText": "LUELLA BLVD, MINESING"
      }
    ]
  },
  {
    "postal": "L9X8E6",
    "result": []
  },
  {
    "postal": "L9X9Z8",
    "result": []
  },
  {
    "postal": "L9X3P4",
    "result": []
  },
  {
    "postal": "L9X6L8",
    "result": []
  },
  {
    "postal": "L9X2R4",
    "result": []
  },
  {
    "postal": "L9X2W1",
    "result": []
  },
  {
    "postal": "L9X9H8",
    "result": []
  },
  {
    "postal": "L9X8X9",
    "result": []
  },
  {
    "postal": "L9X7H4",
    "result": []
  },
  {
    "postal": "L9X3J1",
    "result": []
  },
  {
    "postal": "L9X1P4",
    "result": [
      {
        "electoralDistricts": [
          {
            "election": null,
            "id": 5,
            "name": "Barrie—Springwater—Oro-Medonte"
          }
        ],
        "pollDivisionIds": [
          10136923
        ],
        "postalCode": "L9X1P4",
        "streetName": "OLD SECOND",
        "streetDirectionId": "S",
        "streetTypeId": null,
        "placeName": "MIDHURST",
        "streetNameDisplayText": "OLD SECOND S, MIDHURST"
      }
    ]
  },
  {
    "postal": "L9X2A3",
    "result": []
  },
  {
    "postal": "L9X0Z1",
    "result": [
      {
        "electoralDistricts": [
          {
            "election": null,
            "id": 5,
            "name": "Barrie—Springwater—Oro-Medonte"
          }
        ],
        "pollDivisionIds": [
          10136923
        ],
        "postalCode": "L9X0Z1",
        "streetName": "HENDRIE",
        "streetDirectionId": null,
        "streetTypeId": "RD",
        "placeName": "MINESING",
        "streetNameDisplayText": "HENDRIE RD, MINESING"
      }
    ]
  },
  {
    "postal": "L9X1C1",
    "result": [
      {
        "electoralDistricts": [
          {
            "election": null,
            "id": 5,
            "name": "Barrie—Springwater—Oro-Medonte"
          }
        ],
        "pollDivisionIds": [
          10136924
        ],
        "postalCode": "L9X1C1",
        "streetName": "GEORGE JOHNSTON R",
        "streetDirectionId": null,
        "streetTypeId": "RD",
        "placeName": "MINESING",
        "streetNameDisplayText": "GEORGE JOHNSTON R RD, MINESING"
      },
      {
        "electoralDistricts": [
          {
            "election": null,
            "id": 5,
            "name": "Barrie—Springwater—Oro-Medonte"
          }
        ],
        "pollDivisionIds": [
          10136924
        ],
        "postalCode": "L9X1C1",
        "streetName": "GEORGE JOHNSTON",
        "streetDirectionId": null,
        "streetTypeId": "RD",
        "placeName": "MINESING",
        "streetNameDisplayText": "GEORGE JOHNSTON RD, MINESING"
      }
    ]
  },
  {
    "postal": "L9X0H3",
    "result": [
      {
        "electoralDistricts": [
          {
            "election": null,
            "id": 5,
            "name": "Barrie—Springwater—Oro-Medonte"
          }
        ],
        "pollDivisionIds": [
          10136925
        ],
        "postalCode": "L9X0H3",
        "streetName": "SNOW VALLEY",
        "streetDirectionId": null,
        "streetTypeId": "RD",
        "placeName": "MINESING",
        "streetNameDisplayText": "SNOW VALLEY RD, MINESING"
      }
    ]
  },
  {
    "postal": "L9X7B0",
    "result": []
  },
  {
    "postal": "L9X5K2",
    "result": []
  },
  {
    "postal": "L9X1E9",
    "result": [
      {
        "electoralDistricts": [
          {
            "election": null,
            "id": 5,
            "name": "Barrie—Springwater—Oro-Medonte"
          }
        ],
        "pollDivisionIds": [
          10136923
        ],
        "postalCode": "L9X1E9",
        "streetName": "HORSESHOE VALLEY",
        "streetDirectionId": "W",
        "streetTypeId": "RD",
        "placeName": "MINESING",
        "streetNameDisplayText": "HORSESHOE VALLEY RD W, MINESING"
      }
    ]
  },
  {
    "postal": "L9X9W7",
    "result": []
  },
  {
    "postal": "L9X5W6",
    "result": []
  },
  {
    "postal": "L9X6S6",
    "result": []
  },
  {
    "postal": "L9X2P8",
    "result": []
  },
  {
    "postal": "L9X4P8",
    "result": []
  },
  {
    "postal": "L9X0V9",
    "result": [
      {
        "electoralDistricts": [
          {
            "election": null,
            "id": 5,
            "name": "Barrie—Springwater—Oro-Medonte"
          }
        ],
        "pollDivisionIds": [
          10136923
        ],
        "postalCode": "L9X0V9",
        "streetName": "ALEXANDER",
        "streetDirectionId": null,
        "streetTypeId": "ST",
        "placeName": "MINESING",
        "streetNameDisplayText": "ALEXANDER ST, MINESING"
      }
    ]
  },
  {
    "postal": "L9X5Y2",
    "result": []
  },
  {
    "postal": "L9X7Z7",
    "result": []
  },
  {
    "postal": "L9X6Y8",
    "result": []
  },
  {
    "postal": "L9X2G7",
    "result": []
  },
  {
    "postal": "L9X8C1",
    "result": []
  },
  {
    "postal": "L9X5C5",
    "result": []
  },
  {
    "postal": "L9X2X8",
    "result": []
  },
  {
    "postal": "L9X1W5",
    "result": [
      {
        "electoralDistricts": [
          {
            "election": null,
            "id": 5,
            "name": "Barrie—Springwater—Oro-Medonte"
          }
        ],
        "pollDivisionIds": [
          10136924
        ],
        "postalCode": "L9X1W5",
        "streetName": "SUNNIDALE",
        "streetDirectionId": null,
        "streetTypeId": "RD",
        "placeName": "SPRINGWATER",
        "streetNameDisplayText": "SUNNIDALE RD, SPRINGWATER"
      }
    ]
  },
  {
    "postal": "L9X7G0",
    "result": []
  },
  {
    "postal": "L9X8J8",
    "result": []
  },
  {
    "postal": "L9X3Y0",
    "result": []
  },
  {
    "postal": "L9X9T7",
    "result": []
  },
  {
    "postal": "L9X5P4",
    "result": []
  },
  {
    "postal": "L9X4B0",
    "result": []
  },
  {
    "postal": "L9X9N8",
    "result": []
  },
  {
    "postal": "L9X4A7",
    "result": []
  },
  {
    "postal": "L9X4H9",
    "result": []
  },
  {
    "postal": "L9X6X1",
    "result": []
  },
  {
    "postal": "L9X9Y7",
    "result": []
  },
  {
    "postal": "L9X2Y5",
    "result": []
  },
  {
    "postal": "L9X8L7",
    "result": []
  },
  {
    "postal": "L9X2A8",
    "result": []
  },
  {
    "postal": "L9X2K9",
    "result": []
  },
  {
    "postal": "L9X3E5",
    "result": []
  },
  {
    "postal": "L9X8N6",
    "result": []
  },
  {
    "postal": "L9X8J4",
    "result": []
  },
  {
    "postal": "L9X4R7",
    "result": []
  },
  {
    "postal": "L9X9K1",
    "result": []
  },
  {
    "postal": "L9X8E1",
    "result": []
  },
  {
    "postal": "L9X0R1",
    "result": [
      {
        "electoralDistricts": [
          {
            "election": null,
            "id": 5,
            "name": "Barrie—Springwater—Oro-Medonte"
          }
        ],
        "pollDivisionIds": [
          10136926
        ],
        "postalCode": "L9X0R1",
        "streetName": "CARDINAL",
        "streetDirectionId": null,
        "streetTypeId": "CRES",
        "placeName": "MIDHURST",
        "streetNameDisplayText": "CARDINAL CRES, MIDHURST"
      },
      {
        "electoralDistricts": [
          {
            "election": null,
            "id": 5,
            "name": "Barrie—Springwater—Oro-Medonte"
          }
        ],
        "pollDivisionIds": [
          10136895
        ],
        "postalCode": "L9X0R1",
        "streetName": "CEDAR CREEK",
        "streetDirectionId": null,
        "streetTypeId": "DR",
        "placeName": "MIDHURST",
        "streetNameDisplayText": "CEDAR CREEK DR, MIDHURST"
      },
      {
        "electoralDistricts": [
          {
            "election": null,
            "id": 5,
            "name": "Barrie—Springwater—Oro-Medonte"
          }
        ],
        "pollDivisionIds": [
          10136926
        ],
        "postalCode": "L9X0R1",
        "streetName": "CEDAR CREEK",
        "streetDirectionId": null,
        "streetTypeId": "RD",
        "placeName": "MIDHURST",
        "streetNameDisplayText": "CEDAR CREEK RD, MIDHURST"
      }
    ]
  },
  {
    "postal": "L9X4J3",
    "result": []
  },
  {
    "postal": "L9X7E7",
    "result": []
  },
  {
    "postal": "L9X0J0",
    "result": []
  },
  {
    "postal": "L9X7R8",
    "result": []
  },
  {
    "postal": "L9X9X0",
    "result": []
  },
  {
    "postal": "L9X7P6",
    "result": []
  },
  {
    "postal": "L9X0R7",
    "result": [
      {
        "electoralDistricts": [
          {
            "election": null,
            "id": 5,
            "name": "Barrie—Springwater—Oro-Medonte"
          }
        ],
        "pollDivisionIds": [
          10136924
        ],
        "postalCode": "L9X0R7",
        "streetName": "COUNTY 90",
        "streetDirectionId": null,
        "streetTypeId": "RD",
        "placeName": "SPRINGWATER",
        "streetNameDisplayText": "COUNTY 90 RD, SPRINGWATER"
      }
    ]
  },
  {
    "postal": "L9X5W1",
    "result": []
  },
  {
    "postal": "L9X0K4",
    "result": [
      {
        "electoralDistricts": [
          {
            "election": null,
            "id": 5,
            "name": "Barrie—Springwater—Oro-Medonte"
          }
        ],
        "pollDivisionIds": [
          10136923
        ],
        "postalCode": "L9X0K4",
        "streetName": "GILL",
        "streetDirectionId": null,
        "streetTypeId": "RD",
        "placeName": "MIDHURST",
        "streetNameDisplayText": "GILL RD, MIDHURST"
      }
    ]
  },
  {
    "postal": "L9X7N9",
    "result": []
  },
  {
    "postal": "L9X1N0",
    "result": []
  },
  {
    "postal": "L9X6P3",
    "result": []
  },
  {
    "postal": "L9X5A1",
    "result": []
  },
  {
    "postal": "L9X9M9",
    "result": []
  },
  {
    "postal": "L9X7T6",
    "result": []
  },
  {
    "postal": "L9X3X0",
    "result": []
  },
  {
    "postal": "L9X2T0",
    "result": []
  },
  {
    "postal": "L9X5X9",
    "result": []
  },
  {
    "postal": "L9X2R3",
    "result": []
  },
  {
    "postal": "L9X5N2",
    "result": []
  },
  {
    "postal": "L9X4Y7",
    "result": []
  },
  {
    "postal": "L9X7M0",
    "result": []
  },
  {
    "postal": "L9X8P3",
    "result": []
  },
  {
    "postal": "L9X3N3",
    "result": []
  },
  {
    "postal": "L9X7S3",
    "result": []
  },
  {
    "postal": "L9X3V9",
    "result": []
  },
  {
    "postal": "L9X9N7",
    "result": []
  },
  {
    "postal": "L9X0G4",
    "result": [
      {
        "electoralDistricts": [
          {
            "election": null,
            "id": 5,
            "name": "Barrie—Springwater—Oro-Medonte"
          }
        ],
        "pollDivisionIds": [
          10136923
        ],
        "postalCode": "L9X0G4",
        "streetName": "26",
        "streetDirectionId": null,
        "streetTypeId": "HWY",
        "placeName": "MINESING",
        "streetNameDisplayText": "26 HWY, MINESING"
      },
      {
        "electoralDistricts": [
          {
            "election": null,
            "id": 5,
            "name": "Barrie—Springwater—Oro-Medonte"
          }
        ],
        "pollDivisionIds": [
          10136923
        ],
        "postalCode": "L9X0G4",
        "streetName": "HWY 26",
        "streetDirectionId": null,
        "streetTypeId": null,
        "placeName": "MINESING",
        "streetNameDisplayText": "HWY 26, MINESING"
      }
    ]
  },
  {
    "postal": "L9X2E2",
    "result": []
  },
  {
    "postal": "L9X7W8",
    "result": []
  },
  {
    "postal": "L9X7M5",
    "result": []
  },
  {
    "postal": "L9X5W8",
    "result": []
  },
  {
    "postal": "L9X5E5",
    "result": []
  },
  {
    "postal": "L9X1P9",
    "result": [
      {
        "electoralDistricts": [
          {
            "election": null,
            "id": 5,
            "name": "Barrie—Springwater—Oro-Medonte"
          }
        ],
        "pollDivisionIds": [
          10136923
        ],
        "postalCode": "L9X1P9",
        "streetName": "POOLES",
        "streetDirectionId": null,
        "streetTypeId": "RD",
        "placeName": "MIDHURST",
        "streetNameDisplayText": "POOLES RD, MIDHURST"
      }
    ]
  },
  {
    "postal": "L9X8V8",
    "result": []
  },
  {
    "postal": "L9X9G8",
    "result": []
  },
  {
    "postal": "L9X8H9",
    "result": []
  },
  {
    "postal": "L9X1Z1",
    "result": [
      {
        "electoralDistricts": [
          {
            "election": null,
            "id": 5,
            "name": "Barrie—Springwater—Oro-Medonte"
          }
        ],
        "pollDivisionIds": [
          10136915
        ],
        "postalCode": "L9X1Z1",
        "streetName": "PENETANGUISHENE",
        "streetDirectionId": null,
        "streetTypeId": "RD",
        "placeName": "BARRIE",
        "streetNameDisplayText": "PENETANGUISHENE RD, BARRIE"
      },
      {
        "electoralDistricts": [
          {
            "election": null,
            "id": 5,
            "name": "Barrie—Springwater—Oro-Medonte"
          }
        ],
        "pollDivisionIds": [
          10136915
        ],
        "postalCode": "L9X1Z1",
        "streetName": "PENETANGUISHENE",
        "streetDirectionId": null,
        "streetTypeId": "RD",
        "placeName": "SPRINGWATER",
        "streetNameDisplayText": "PENETANGUISHENE RD, SPRINGWATER"
      }
    ]
  },
  {
    "postal": "L9X8M3",
    "result": []
  },
  {
    "postal": "L9X5H6",
    "result": []
  },
  {
    "postal": "L9X7W7",
    "result": []
  },
  {
    "postal": "L9X4L0",
    "result": []
  },
  {
    "postal": "L9X2N1",
    "result": []
  },
  {
    "postal": "L9X2H4",
    "result": []
  },
  {
    "postal": "L9X5C8",
    "result": []
  },
  {
    "postal": "L9X8B0",
    "result": []
  },
  {
    "postal": "L9X1T4",
    "result": [
      {
        "electoralDistricts": [
          {
            "election": null,
            "id": 5,
            "name": "Barrie—Springwater—Oro-Medonte"
          }
        ],
        "pollDivisionIds": [
          10136924
        ],
        "postalCode": "L9X1T4",
        "streetName": "DOBSON",
        "streetDirectionId": null,
        "streetTypeId": "RD",
        "placeName": "SPRINGWATER",
        "streetNameDisplayText": "DOBSON RD, SPRINGWATER"
      }
    ]
  },
  {
    "postal": "L9X7N7",
    "result": []
  },
  {
    "postal": "L9X4L3",
    "result": []
  },
  {
    "postal": "L9X2N2",
    "result": []
  },
  {
    "postal": "L9X4N8",
    "result": []
  },
  {
    "postal": "L9X3M5",
    "result": []
  },
  {
    "postal": "L9X6H7",
    "result": []
  },
  {
    "postal": "L9X8Y8",
    "result": []
  },
  {
    "postal": "L9X5R9",
    "result": []
  },
  {
    "postal": "L9X8G3",
    "result": []
  },
  {
    "postal": "L9X4N7",
    "result": []
  },
  {
    "postal": "L9X0B9",
    "result": [
      {
        "electoralDistricts": [
          {
            "election": null,
            "id": 5,
            "name": "Barrie—Springwater—Oro-Medonte"
          }
        ],
        "pollDivisionIds": [
          10136924
        ],
        "postalCode": "L9X0B9",
        "streetName": "RICHARDSON",
        "streetDirectionId": null,
        "streetTypeId": "RD",
        "placeName": "MINESING",
        "streetNameDisplayText": "RICHARDSON RD, MINESING"
      }
    ]
  },
  {
    "postal": "L9X9K7",
    "result": []
  },
  {
    "postal": "L9X9K9",
    "result": []
  },
  {
    "postal": "L9X3Z2",
    "result": []
  },
  {
    "postal": "L9X6W7",
    "result": []
  },
  {
    "postal": "L9X0P1",
    "result": [
      {
        "electoralDistricts": [
          {
            "election": null,
            "id": 5,
            "name": "Barrie—Springwater—Oro-Medonte"
          }
        ],
        "pollDivisionIds": [
          10136926
        ],
        "postalCode": "L9X0P1",
        "streetName": "BAYFIELD",
        "streetDirectionId": "N",
        "streetTypeId": "ST",
        "placeName": "MIDHURST",
        "streetNameDisplayText": "BAYFIELD ST N, MIDHURST"
      }
    ]
  },
  {
    "postal": "L9X3A0",
    "result": []
  },
  {
    "postal": "L9X8L9",
    "result": []
  },
  {
    "postal": "L9X6X0",
    "result": []
  },
  {
    "postal": "L9X3E9",
    "result": []
  },
  {
    "postal": "L9X0S5",
    "result": [
      {
        "electoralDistricts": [
          {
            "election": null,
            "id": 5,
            "name": "Barrie—Springwater—Oro-Medonte"
          }
        ],
        "pollDivisionIds": [
          10136924
        ],
        "postalCode": "L9X0S5",
        "streetName": "CAMERON",
        "streetDirectionId": null,
        "streetTypeId": "ST",
        "placeName": "BARRIE",
        "streetNameDisplayText": "CAMERON ST, BARRIE"
      },
      {
        "electoralDistricts": [
          {
            "election": null,
            "id": 5,
            "name": "Barrie—Springwater—Oro-Medonte"
          }
        ],
        "pollDivisionIds": [
          10136924
        ],
        "postalCode": "L9X0S5",
        "streetName": "CAMERON",
        "streetDirectionId": null,
        "streetTypeId": "ST",
        "placeName": "SPRINGWATER",
        "streetNameDisplayText": "CAMERON ST, SPRINGWATER"
      },
      {
        "electoralDistricts": [
          {
            "election": null,
            "id": 5,
            "name": "Barrie—Springwater—Oro-Medonte"
          }
        ],
        "pollDivisionIds": [
          10136923,
          10136924,
          10136894,
          10136925
        ],
        "postalCode": "L9X0S5",
        "streetName": "MARKS",
        "streetDirectionId": null,
        "streetTypeId": "RD",
        "placeName": "SPRINGWATER",
        "streetNameDisplayText": "MARKS RD, SPRINGWATER"
      },
      {
        "electoralDistricts": [
          {
            "election": null,
            "id": 5,
            "name": "Barrie—Springwater—Oro-Medonte"
          }
        ],
        "pollDivisionIds": [
          10136924
        ],
        "postalCode": "L9X0S5",
        "streetName": "MOREAU",
        "streetDirectionId": null,
        "streetTypeId": "WAY",
        "placeName": "BARRIE",
        "streetNameDisplayText": "MOREAU WAY, BARRIE"
      },
      {
        "electoralDistricts": [
          {
            "election": null,
            "id": 5,
            "name": "Barrie—Springwater—Oro-Medonte"
          }
        ],
        "pollDivisionIds": [
          10136924
        ],
        "postalCode": "L9X0S5",
        "streetName": "MOREAU",
        "streetDirectionId": null,
        "streetTypeId": "WAY",
        "placeName": "SPRINGWATER",
        "streetNameDisplayText": "MOREAU WAY, SPRINGWATER"
      },
      {
        "electoralDistricts": [
          {
            "election": null,
            "id": 5,
            "name": "Barrie—Springwater—Oro-Medonte"
          }
        ],
        "pollDivisionIds": [
          10136924
        ],
        "postalCode": "L9X0S5",
        "streetName": "TRAIL",
        "streetDirectionId": null,
        "streetTypeId": "BLVD",
        "placeName": "BARRIE",
        "streetNameDisplayText": "TRAIL BLVD, BARRIE"
      },
      {
        "electoralDistricts": [
          {
            "election": null,
            "id": 5,
            "name": "Barrie—Springwater—Oro-Medonte"
          }
        ],
        "pollDivisionIds": [
          10136924
        ],
        "postalCode": "L9X0S5",
        "streetName": "TRAIL",
        "streetDirectionId": null,
        "streetTypeId": "BLVD",
        "placeName": "SPRINGWATER",
        "streetNameDisplayText": "TRAIL BLVD, SPRINGWATER"
      },
      {
        "electoralDistricts": [
          {
            "election": null,
            "id": 5,
            "name": "Barrie—Springwater—Oro-Medonte"
          }
        ],
        "pollDivisionIds": [
          10136924
        ],
        "postalCode": "L9X0S5",
        "streetName": "TRAVERS",
        "streetDirectionId": null,
        "streetTypeId": "GATE",
        "placeName": "BARRIE",
        "streetNameDisplayText": "TRAVERS GATE, BARRIE"
      }
    ]
  },
  {
    "postal": "L9X1A2",
    "result": [
      {
        "electoralDistricts": [
          {
            "election": null,
            "id": 5,
            "name": "Barrie—Springwater—Oro-Medonte"
          }
        ],
        "pollDivisionIds": [
          10136923
        ],
        "postalCode": "L9X1A2",
        "streetName": "NURSERY",
        "streetDirectionId": null,
        "streetTypeId": "RD",
        "placeName": "MINESING",
        "streetNameDisplayText": "NURSERY RD, MINESING"
      }
    ]
  },
  {
    "postal": "L9X5V8",
    "result": []
  },
  {
    "postal": "L9X8C5",
    "result": []
  },
  {
    "postal": "L9X6N0",
    "result": []
  },
  {
    "postal": "L9X9E6",
    "result": []
  },
  {
    "postal": "L9X5J7",
    "result": []
  },
  {
    "postal": "L9X2R2",
    "result": []
  },
  {
    "postal": "L9X0P5",
    "result": [
      {
        "electoralDistricts": [
          {
            "election": null,
            "id": 5,
            "name": "Barrie—Springwater—Oro-Medonte"
          }
        ],
        "pollDivisionIds": [
          10136927,
          10136926
        ],
        "postalCode": "L9X0P5",
        "streetName": "CEDAR CREEK",
        "streetDirectionId": null,
        "streetTypeId": "RD",
        "placeName": "MIDHURST",
        "streetNameDisplayText": "CEDAR CREEK RD, MIDHURST"
      },
      {
        "electoralDistricts": [
          {
            "election": null,
            "id": 5,
            "name": "Barrie—Springwater—Oro-Medonte"
          }
        ],
        "pollDivisionIds": [
          10136927
        ],
        "postalCode": "L9X0P5",
        "streetName": "FRID",
        "streetDirectionId": null,
        "streetTypeId": "BLVD",
        "placeName": "MIDHURST",
        "streetNameDisplayText": "FRID BLVD, MIDHURST"
      },
      {
        "electoralDistricts": [
          {
            "election": null,
            "id": 5,
            "name": "Barrie—Springwater—Oro-Medonte"
          }
        ],
        "pollDivisionIds": [
          10136927
        ],
        "postalCode": "L9X0P5",
        "streetName": "IDLEWOOD",
        "streetDirectionId": null,
        "streetTypeId": "DR",
        "placeName": "MIDHURST",
        "streetNameDisplayText": "IDLEWOOD DR, MIDHURST"
      },
      {
        "electoralDistricts": [
          {
            "election": null,
            "id": 5,
            "name": "Barrie—Springwater—Oro-Medonte"
          }
        ],
        "pollDivisionIds": [
          10136927
        ],
        "postalCode": "L9X0P5",
        "streetName": "POOLES",
        "streetDirectionId": null,
        "streetTypeId": "RD",
        "placeName": "MIDHURST",
        "streetNameDisplayText": "POOLES RD, MIDHURST"
      },
      {
        "electoralDistricts": [
          {
            "election": null,
            "id": 5,
            "name": "Barrie—Springwater—Oro-Medonte"
          }
        ],
        "pollDivisionIds": [
          10136927
        ],
        "postalCode": "L9X0P5",
        "streetName": "ROSEWOOD",
        "streetDirectionId": null,
        "streetTypeId": "AVE",
        "placeName": "MIDHURST",
        "streetNameDisplayText": "ROSEWOOD AVE, MIDHURST"
      },
      {
        "electoralDistricts": [
          {
            "election": null,
            "id": 5,
            "name": "Barrie—Springwater—Oro-Medonte"
          }
        ],
        "pollDivisionIds": [
          10136927,
          10136926
        ],
        "postalCode": "L9X0P5",
        "streetName": "ST VINCENT",
        "streetDirectionId": null,
        "streetTypeId": "ST",
        "placeName": "MIDHURST",
        "streetNameDisplayText": "ST VINCENT ST, MIDHURST"
      },
      {
        "electoralDistricts": [
          {
            "election": null,
            "id": 5,
            "name": "Barrie—Springwater—Oro-Medonte"
          }
        ],
        "pollDivisionIds": [
          10136927,
          10136926
        ],
        "postalCode": "L9X0P5",
        "streetName": "ST. VINCENT",
        "streetDirectionId": null,
        "streetTypeId": "ST",
        "placeName": "MIDHURST",
        "streetNameDisplayText": "ST. VINCENT ST, MIDHURST"
      }
    ]
  },
  {
    "postal": "L9X5A7",
    "result": []
  },
  {
    "postal": "L9X1G1",
    "result": [
      {
        "electoralDistricts": [
          {
            "election": null,
            "id": 5,
            "name": "Barrie—Springwater—Oro-Medonte"
          }
        ],
        "pollDivisionIds": [
          10136923
        ],
        "postalCode": "L9X1G1",
        "streetName": "HORSESHOE VALLEY",
        "streetDirectionId": "W",
        "streetTypeId": "RD",
        "placeName": "MINESING",
        "streetNameDisplayText": "HORSESHOE VALLEY RD W, MINESING"
      }
    ]
  },
  {
    "postal": "L9X9R6",
    "result": []
  },
  {
    "postal": "L9X4Z9",
    "result": []
  },
  {
    "postal": "L9X1V5",
    "result": [
      {
        "electoralDistricts": [
          {
            "election": null,
            "id": 5,
            "name": "Barrie—Springwater—Oro-Medonte"
          }
        ],
        "pollDivisionIds": [
          10136925
        ],
        "postalCode": "L9X1V5",
        "streetName": "SEADON",
        "streetDirectionId": null,
        "streetTypeId": "RD",
        "placeName": "SPRINGWATER",
        "streetNameDisplayText": "SEADON RD, SPRINGWATER"
      }
    ]
  },
  {
    "postal": "L9X9Y5",
    "result": []
  },
  {
    "postal": "L9X1P2",
    "result": [
      {
        "electoralDistricts": [
          {
            "election": null,
            "id": 5,
            "name": "Barrie—Springwater—Oro-Medonte"
          }
        ],
        "pollDivisionIds": [
          10136923
        ],
        "postalCode": "L9X1P2",
        "streetName": "OLD SECOND",
        "streetDirectionId": "S",
        "streetTypeId": null,
        "placeName": "MIDHURST",
        "streetNameDisplayText": "OLD SECOND S, MIDHURST"
      }
    ]
  },
  {
    "postal": "L9X5X0",
    "result": []
  },
  {
    "postal": "L9X7B8",
    "result": []
  },
  {
    "postal": "L9X0C6",
    "result": [
      {
        "electoralDistricts": [
          {
            "election": null,
            "id": 5,
            "name": "Barrie—Springwater—Oro-Medonte"
          }
        ],
        "pollDivisionIds": [
          10136923
        ],
        "postalCode": "L9X0C6",
        "streetName": "GHIBB",
        "streetDirectionId": null,
        "streetTypeId": "AVE",
        "placeName": "MINESING",
        "streetNameDisplayText": "GHIBB AVE, MINESING"
      },
      {
        "electoralDistricts": [
          {
            "election": null,
            "id": 5,
            "name": "Barrie—Springwater—Oro-Medonte"
          }
        ],
        "pollDivisionIds": [
          10136924,
          10136923
        ],
        "postalCode": "L9X0C6",
        "streetName": "LAWRENCE",
        "streetDirectionId": null,
        "streetTypeId": "AVE",
        "placeName": "MINESING",
        "streetNameDisplayText": "LAWRENCE AVE, MINESING"
      }
    ]
  },
  {
    "postal": "L9X6G1",
    "result": []
  },
  {
    "postal": "L9X3K3",
    "result": []
  },
  {
    "postal": "L9X9R0",
    "result": []
  },
  {
    "postal": "L9X4R8",
    "result": []
  },
  {
    "postal": "L9X5P9",
    "result": []
  },
  {
    "postal": "L9X8N4",
    "result": []
  },
  {
    "postal": "L9X8H4",
    "result": []
  },
  {
    "postal": "L9X4V1",
    "result": []
  },
  {
    "postal": "L9X1K5",
    "result": [
      {
        "electoralDistricts": [
          {
            "election": null,
            "id": 5,
            "name": "Barrie—Springwater—Oro-Medonte"
          }
        ],
        "pollDivisionIds": [
          10136925
        ],
        "postalCode": "L9X1K5",
        "streetName": "SNOW VALLEY",
        "streetDirectionId": null,
        "streetTypeId": "RD",
        "placeName": "MINESING",
        "streetNameDisplayText": "SNOW VALLEY RD, MINESING"
      }
    ]
  },
  {
    "postal": "L9X1Z5",
    "result": [
      {
        "electoralDistricts": [
          {
            "election": null,
            "id": 5,
            "name": "Barrie—Springwater—Oro-Medonte"
          }
        ],
        "pollDivisionIds": [
          10136924,
          10136915
        ],
        "postalCode": "L9X1Z5",
        "streetName": "PENETANGUISHENE",
        "streetDirectionId": null,
        "streetTypeId": "RD",
        "placeName": "SPRINGWATER",
        "streetNameDisplayText": "PENETANGUISHENE RD, SPRINGWATER"
      }
    ]
  },
  {
    "postal": "L9X9L9",
    "result": []
  },
  {
    "postal": "L9X5L2",
    "result": []
  },
  {
    "postal": "L9X0M2",
    "result": [
      {
        "electoralDistricts": [
          {
            "election": null,
            "id": 5,
            "name": "Barrie—Springwater—Oro-Medonte"
          }
        ],
        "pollDivisionIds": [
          10136926
        ],
        "postalCode": "L9X0M2",
        "streetName": "COUNTY 27",
        "streetDirectionId": null,
        "streetTypeId": "RD",
        "placeName": "MIDHURST",
        "streetNameDisplayText": "COUNTY 27 RD, MIDHURST"
      }
    ]
  },
  {
    "postal": "L9X1K8",
    "result": [
      {
        "electoralDistricts": [
          {
            "election": null,
            "id": 5,
            "name": "Barrie—Springwater—Oro-Medonte"
          }
        ],
        "pollDivisionIds": [
          10136924,
          10136925
        ],
        "postalCode": "L9X1K8",
        "streetName": "WILSON",
        "streetDirectionId": null,
        "streetTypeId": "DR",
        "placeName": "MINESING",
        "streetNameDisplayText": "WILSON DR, MINESING"
      }
    ]
  },
  {
    "postal": "L9X3M7",
    "result": []
  },
  {
    "postal": "L9X1B2",
    "result": [
      {
        "electoralDistricts": [
          {
            "election": null,
            "id": 5,
            "name": "Barrie—Springwater—Oro-Medonte"
          }
        ],
        "pollDivisionIds": [
          10136922
        ],
        "postalCode": "L9X1B2",
        "streetName": "CROSSLAND",
        "streetDirectionId": null,
        "streetTypeId": "RD",
        "placeName": "MINESING",
        "streetNameDisplayText": "CROSSLAND RD, MINESING"
      }
    ]
  },
  {
    "postal": "L9X0H9",
    "result": [
      {
        "electoralDistricts": [
          {
            "election": null,
            "id": 5,
            "name": "Barrie—Springwater—Oro-Medonte"
          }
        ],
        "pollDivisionIds": [
          10136925,
          10136924
        ],
        "postalCode": "L9X0H9",
        "streetName": "JOSEPHINE",
        "streetDirectionId": null,
        "streetTypeId": "CRT",
        "placeName": "MINESING",
        "streetNameDisplayText": "JOSEPHINE CRT, MINESING"
      },
      {
        "electoralDistricts": [
          {
            "election": null,
            "id": 5,
            "name": "Barrie—Springwater—Oro-Medonte"
          }
        ],
        "pollDivisionIds": [
          10136925
        ],
        "postalCode": "L9X0H9",
        "streetName": "ORCHARDVIEW",
        "streetDirectionId": null,
        "streetTypeId": "ST",
        "placeName": "MINESING",
        "streetNameDisplayText": "ORCHARDVIEW ST, MINESING"
      }
    ]
  },
  {
    "postal": "L9X8M4",
    "result": []
  },
  {
    "postal": "L9X2M5",
    "result": []
  },
  {
    "postal": "L9X0T9",
    "result": [
      {
        "electoralDistricts": [
          {
            "election": null,
            "id": 5,
            "name": "Barrie—Springwater—Oro-Medonte"
          }
        ],
        "pollDivisionIds": [
          10136925
        ],
        "postalCode": "L9X0T9",
        "streetName": "GLENHURON",
        "streetDirectionId": null,
        "streetTypeId": "DR",
        "placeName": "SPRINGWATER",
        "streetNameDisplayText": "GLENHURON DR, SPRINGWATER"
      }
    ]
  },
  {
    "postal": "L9X3P1",
    "result": []
  },
  {
    "postal": "L9X1R6",
    "result": [
      {
        "electoralDistricts": [
          {
            "election": null,
            "id": 5,
            "name": "Barrie—Springwater—Oro-Medonte"
          }
        ],
        "pollDivisionIds": [
          10136923
        ],
        "postalCode": "L9X1R6",
        "streetName": "RUSSELL",
        "streetDirectionId": null,
        "streetTypeId": "RD",
        "placeName": "MIDHURST",
        "streetNameDisplayText": "RUSSELL RD, MIDHURST"
      }
    ]
  },
  {
    "postal": "L9X9V5",
    "result": []
  },
  {
    "postal": "L9X9T0",
    "result": []
  },
  {
    "postal": "L9X0A9",
    "result": [
      {
        "electoralDistricts": [
          {
            "election": null,
            "id": 5,
            "name": "Barrie—Springwater—Oro-Medonte"
          }
        ],
        "pollDivisionIds": [
          10136922
        ],
        "postalCode": "L9X0A9",
        "streetName": "26",
        "streetDirectionId": null,
        "streetTypeId": "HWY",
        "placeName": "MINESING",
        "streetNameDisplayText": "26 HWY, MINESING"
      },
      {
        "electoralDistricts": [
          {
            "election": null,
            "id": 5,
            "name": "Barrie—Springwater—Oro-Medonte"
          }
        ],
        "pollDivisionIds": [
          10136922
        ],
        "postalCode": "L9X0A9",
        "streetName": "HWY 26",
        "streetDirectionId": null,
        "streetTypeId": null,
        "placeName": "MINESING",
        "streetNameDisplayText": "HWY 26, MINESING"
      }
    ]
  },
  {
    "postal": "L9X1M3",
    "result": [
      {
        "electoralDistricts": [
          {
            "election": null,
            "id": 5,
            "name": "Barrie—Springwater—Oro-Medonte"
          }
        ],
        "pollDivisionIds": [
          10136923
        ],
        "postalCode": "L9X1M3",
        "streetName": "GILL",
        "streetDirectionId": null,
        "streetTypeId": "RD",
        "placeName": "MIDHURST",
        "streetNameDisplayText": "GILL RD, MIDHURST"
      }
    ]
  },
  {
    "postal": "L9X1W8",
    "result": [
      {
        "electoralDistricts": [
          {
            "election": null,
            "id": 5,
            "name": "Barrie—Springwater—Oro-Medonte"
          }
        ],
        "pollDivisionIds": [
          10136915
        ],
        "postalCode": "L9X1W8",
        "streetName": "PENETANGUISHENE",
        "streetDirectionId": null,
        "streetTypeId": "RD",
        "placeName": "SPRINGWATER",
        "streetNameDisplayText": "PENETANGUISHENE RD, SPRINGWATER"
      }
    ]
  },
  {
    "postal": "L9X9J1",
    "result": []
  },
  {
    "postal": "L9X8N5",
    "result": []
  },
  {
    "postal": "L9X5X1",
    "result": []
  },
  {
    "postal": "L9X6S2",
    "result": []
  },
  {
    "postal": "L9X2A2",
    "result": []
  },
  {
    "postal": "L9X6A6",
    "result": []
  },
  {
    "postal": "L9X0S3",
    "result": [
      {
        "electoralDistricts": [
          {
            "election": null,
            "id": 5,
            "name": "Barrie—Springwater—Oro-Medonte"
          }
        ],
        "pollDivisionIds": [
          10136924
        ],
        "postalCode": "L9X0S3",
        "streetName": "CAMERON",
        "streetDirectionId": null,
        "streetTypeId": "ST",
        "placeName": "BARRIE",
        "streetNameDisplayText": "CAMERON ST, BARRIE"
      },
      {
        "electoralDistricts": [
          {
            "election": null,
            "id": 5,
            "name": "Barrie—Springwater—Oro-Medonte"
          }
        ],
        "pollDivisionIds": [
          10136924
        ],
        "postalCode": "L9X0S3",
        "streetName": "CAMERON",
        "streetDirectionId": null,
        "streetTypeId": "ST",
        "placeName": "SPRINGWATER",
        "streetNameDisplayText": "CAMERON ST, SPRINGWATER"
      },
      {
        "electoralDistricts": [
          {
            "election": null,
            "id": 5,
            "name": "Barrie—Springwater—Oro-Medonte"
          }
        ],
        "pollDivisionIds": [
          10136924
        ],
        "postalCode": "L9X0S3",
        "streetName": "CAMERON ST. SPRINGWATER",
        "streetDirectionId": null,
        "streetTypeId": "ST",
        "placeName": "SPRINGWATER",
        "streetNameDisplayText": "CAMERON ST. SPRINGWATER ST, SPRINGWATER"
      },
      {
        "electoralDistricts": [
          {
            "election": null,
            "id": 5,
            "name": "Barrie—Springwater—Oro-Medonte"
          }
        ],
        "pollDivisionIds": [
          10136924
        ],
        "postalCode": "L9X0S3",
        "streetName": "CURTIS",
        "streetDirectionId": null,
        "streetTypeId": "WAY",
        "placeName": "BARRIE",
        "streetNameDisplayText": "CURTIS WAY, BARRIE"
      },
      {
        "electoralDistricts": [
          {
            "election": null,
            "id": 5,
            "name": "Barrie—Springwater—Oro-Medonte"
          }
        ],
        "pollDivisionIds": [
          10136924
        ],
        "postalCode": "L9X0S3",
        "streetName": "CURTIS",
        "streetDirectionId": null,
        "streetTypeId": "WAY",
        "placeName": "SPRINGWATER",
        "streetNameDisplayText": "CURTIS WAY, SPRINGWATER"
      },
      {
        "electoralDistricts": [
          {
            "election": null,
            "id": 5,
            "name": "Barrie—Springwater—Oro-Medonte"
          }
        ],
        "pollDivisionIds": [
          10136924
        ],
        "postalCode": "L9X0S3",
        "streetName": "MARKS",
        "streetDirectionId": null,
        "streetTypeId": "RD",
        "placeName": "BARRIE",
        "streetNameDisplayText": "MARKS RD, BARRIE"
      },
      {
        "electoralDistricts": [
          {
            "election": null,
            "id": 5,
            "name": "Barrie—Springwater—Oro-Medonte"
          }
        ],
        "pollDivisionIds": [
          10136924,
          10136890,
          10136893
        ],
        "postalCode": "L9X0S3",
        "streetName": "MARKS",
        "streetDirectionId": null,
        "streetTypeId": "RD",
        "placeName": "SPRINGWATER",
        "streetNameDisplayText": "MARKS RD, SPRINGWATER"
      },
      {
        "electoralDistricts": [
          {
            "election": null,
            "id": 5,
            "name": "Barrie—Springwater—Oro-Medonte"
          }
        ],
        "pollDivisionIds": [
          10136924
        ],
        "postalCode": "L9X0S3",
        "streetName": "TRAIL",
        "streetDirectionId": null,
        "streetTypeId": "BLVD",
        "placeName": "SPRINGWATER",
        "streetNameDisplayText": "TRAIL BLVD, SPRINGWATER"
      }
    ]
  },
  {
    "postal": "L9X3E7",
    "result": []
  },
  {
    "postal": "L9X5R7",
    "result": []
  },
  {
    "postal": "L9X3R6",
    "result": []
  },
  {
    "postal": "L9X6K4",
    "result": []
  },
  {
    "postal": "L9X2W5",
    "result": []
  },
  {
    "postal": "L9X8W4",
    "result": []
  },
  {
    "postal": "L9X9C2",
    "result": []
  },
  {
    "postal": "L9X2C0",
    "result": []
  },
  {
    "postal": "L9X0E1",
    "result": [
      {
        "electoralDistricts": [
          {
            "election": null,
            "id": 5,
            "name": "Barrie—Springwater—Oro-Medonte"
          }
        ],
        "pollDivisionIds": [
          10136923
        ],
        "postalCode": "L9X0E1",
        "streetName": "26",
        "streetDirectionId": null,
        "streetTypeId": "HWY",
        "placeName": "MINESING",
        "streetNameDisplayText": "26 HWY, MINESING"
      },
      {
        "electoralDistricts": [
          {
            "election": null,
            "id": 5,
            "name": "Barrie—Springwater—Oro-Medonte"
          }
        ],
        "pollDivisionIds": [
          10136924
        ],
        "postalCode": "L9X0E1",
        "streetName": "HWY 26",
        "streetDirectionId": null,
        "streetTypeId": null,
        "placeName": "MINESING",
        "streetNameDisplayText": "HWY 26, MINESING"
      }
    ]
  },
  {
    "postal": "L9X1K9",
    "result": []
  },
  {
    "postal": "L9X1G7",
    "result": [
      {
        "electoralDistricts": [
          {
            "election": null,
            "id": 5,
            "name": "Barrie—Springwater—Oro-Medonte"
          }
        ],
        "pollDivisionIds": [
          10136922
        ],
        "postalCode": "L9X1G7",
        "streetName": "RAINBOW VALLEY",
        "streetDirectionId": "W",
        "streetTypeId": "RD",
        "placeName": "MINESING",
        "streetNameDisplayText": "RAINBOW VALLEY RD W, MINESING"
      }
    ]
  },
  {
    "postal": "L9X4E9",
    "result": []
  },
  {
    "postal": "L9X9P0",
    "result": []
  },
  {
    "postal": "L9X5H3",
    "result": []
  },
  {
    "postal": "L9X9X6",
    "result": []
  },
  {
    "postal": "L9X5N7",
    "result": []
  },
  {
    "postal": "L9X5A6",
    "result": []
  },
  {
    "postal": "L9X4M0",
    "result": []
  },
  {
    "postal": "L9X3V6",
    "result": []
  },
  {
    "postal": "L9X1L7",
    "result": [
      {
        "electoralDistricts": [
          {
            "election": null,
            "id": 5,
            "name": "Barrie—Springwater—Oro-Medonte"
          }
        ],
        "pollDivisionIds": [
          10136923
        ],
        "postalCode": "L9X1L7",
        "streetName": "DWYER",
        "streetDirectionId": null,
        "streetTypeId": "RD",
        "placeName": "MIDHURST",
        "streetNameDisplayText": "DWYER RD, MIDHURST"
      }
    ]
  },
  {
    "postal": "L9X2P9",
    "result": []
  },
  {
    "postal": "L9X5T4",
    "result": []
  },
  {
    "postal": "L9X5Z1",
    "result": []
  },
  {
    "postal": "L9X2X0",
    "result": []
  },
  {
    "postal": "L9X6Z2",
    "result": []
  },
  {
    "postal": "L9X0E0",
    "result": []
  },
  {
    "postal": "L9X3Z5",
    "result": []
  },
  {
    "postal": "L9X8H3",
    "result": []
  },
  {
    "postal": "L9X7S6",
    "result": []
  },
  {
    "postal": "L9X4C1",
    "result": []
  },
  {
    "postal": "L9X3K2",
    "result": []
  },
  {
    "postal": "L9X1Y5",
    "result": [
      {
        "electoralDistricts": [
          {
            "election": null,
            "id": 5,
            "name": "Barrie—Springwater—Oro-Medonte"
          }
        ],
        "pollDivisionIds": [
          10136923
        ],
        "postalCode": "L9X1Y5",
        "streetName": "OLD SECOND",
        "streetDirectionId": "S",
        "streetTypeId": null,
        "placeName": "BARRIE",
        "streetNameDisplayText": "OLD SECOND S, BARRIE"
      },
      {
        "electoralDistricts": [
          {
            "election": null,
            "id": 5,
            "name": "Barrie—Springwater—Oro-Medonte"
          }
        ],
        "pollDivisionIds": [
          10136924,
          10136923
        ],
        "postalCode": "L9X1Y5",
        "streetName": "OLD SECOND",
        "streetDirectionId": "S",
        "streetTypeId": null,
        "placeName": "SPRINGWATER",
        "streetNameDisplayText": "OLD SECOND S, SPRINGWATER"
      }
    ]
  },
  {
    "postal": "L9X6P6",
    "result": []
  },
  {
    "postal": "L9X3N9",
    "result": []
  },
  {
    "postal": "L9X3W2",
    "result": []
  },
  {
    "postal": "L9X6H8",
    "result": []
  },
  {
    "postal": "L9X9T3",
    "result": []
  },
  {
    "postal": "L9X5L9",
    "result": []
  },
  {
    "postal": "L9X7X7",
    "result": []
  },
  {
    "postal": "L9X3J5",
    "result": []
  },
  {
    "postal": "L9X4J5",
    "result": []
  },
  {
    "postal": "L9X6J2",
    "result": []
  },
  {
    "postal": "L9X5V6",
    "result": []
  },
  {
    "postal": "L9X3N2",
    "result": []
  },
  {
    "postal": "L9X3B1",
    "result": []
  },
  {
    "postal": "L9X8B5",
    "result": []
  },
  {
    "postal": "L9X0K1",
    "result": [
      {
        "electoralDistricts": [
          {
            "election": null,
            "id": 5,
            "name": "Barrie—Springwater—Oro-Medonte"
          }
        ],
        "pollDivisionIds": [
          10136923
        ],
        "postalCode": "L9X0K1",
        "streetName": "GALLAGHER",
        "streetDirectionId": null,
        "streetTypeId": "CRES",
        "placeName": "MIDHURST",
        "streetNameDisplayText": "GALLAGHER CRES, MIDHURST"
      },
      {
        "electoralDistricts": [
          {
            "election": null,
            "id": 5,
            "name": "Barrie—Springwater—Oro-Medonte"
          }
        ],
        "pollDivisionIds": [
          10136923
        ],
        "postalCode": "L9X0K1",
        "streetName": "OHARA",
        "streetDirectionId": null,
        "streetTypeId": "LANE",
        "placeName": "MIDHURST",
        "streetNameDisplayText": "OHARA LANE, MIDHURST"
      },
      {
        "electoralDistricts": [
          {
            "election": null,
            "id": 5,
            "name": "Barrie—Springwater—Oro-Medonte"
          }
        ],
        "pollDivisionIds": [
          10136894
        ],
        "postalCode": "L9X0K1",
        "streetName": "O'HARA LN",
        "streetDirectionId": null,
        "streetTypeId": null,
        "placeName": "MIDHURST",
        "streetNameDisplayText": "O'HARA LN, MIDHURST"
      }
    ]
  },
  {
    "postal": "L9X7M7",
    "result": []
  },
  {
    "postal": "L9X2M2",
    "result": []
  },
  {
    "postal": "L9X9N3",
    "result": []
  },
  {
    "postal": "L9X4Y8",
    "result": []
  },
  {
    "postal": "L9X3V7",
    "result": []
  },
  {
    "postal": "L9X8Z1",
    "result": []
  },
  {
    "postal": "L9X7B3",
    "result": []
  },
  {
    "postal": "L9X3A8",
    "result": []
  },
  {
    "postal": "L9X7V5",
    "result": []
  },
  {
    "postal": "L9X2T2",
    "result": []
  },
  {
    "postal": "L9X6L3",
    "result": []
  },
  {
    "postal": "L9X0L2",
    "result": [
      {
        "electoralDistricts": [
          {
            "election": null,
            "id": 5,
            "name": "Barrie—Springwater—Oro-Medonte"
          }
        ],
        "pollDivisionIds": [
          10136927,
          10136923
        ],
        "postalCode": "L9X0L2",
        "streetName": "GILL",
        "streetDirectionId": null,
        "streetTypeId": "RD",
        "placeName": "MIDHURST",
        "streetNameDisplayText": "GILL RD, MIDHURST"
      }
    ]
  },
  {
    "postal": "L9X5Y8",
    "result": []
  },
  {
    "postal": "L9X0B8",
    "result": [
      {
        "electoralDistricts": [
          {
            "election": null,
            "id": 5,
            "name": "Barrie—Springwater—Oro-Medonte"
          }
        ],
        "pollDivisionIds": [
          10136924
        ],
        "postalCode": "L9X0B8",
        "streetName": "26",
        "streetDirectionId": null,
        "streetTypeId": "HWY",
        "placeName": "MINESING",
        "streetNameDisplayText": "26 HWY, MINESING"
      },
      {
        "electoralDistricts": [
          {
            "election": null,
            "id": 5,
            "name": "Barrie—Springwater—Oro-Medonte"
          }
        ],
        "pollDivisionIds": [
          10136924
        ],
        "postalCode": "L9X0B8",
        "streetName": "HWY 26",
        "streetDirectionId": null,
        "streetTypeId": null,
        "placeName": "MINESING",
        "streetNameDisplayText": "HWY 26, MINESING"
      }
    ]
  },
  {
    "postal": "L9X6R5",
    "result": []
  },
  {
    "postal": "L9X8W6",
    "result": []
  },
  {
    "postal": "L9X8G6",
    "result": []
  },
  {
    "postal": "L9X6X3",
    "result": []
  },
  {
    "postal": "L9X7R7",
    "result": []
  },
  {
    "postal": "L9X4B6",
    "result": []
  },
  {
    "postal": "L9X3P9",
    "result": []
  },
  {
    "postal": "L9X2T3",
    "result": []
  },
  {
    "postal": "L9X1M4",
    "result": [
      {
        "electoralDistricts": [
          {
            "election": null,
            "id": 5,
            "name": "Barrie—Springwater—Oro-Medonte"
          }
        ],
        "pollDivisionIds": [
          10136927,
          10136923
        ],
        "postalCode": "L9X1M4",
        "streetName": "GILL",
        "streetDirectionId": null,
        "streetTypeId": "RD",
        "placeName": "MIDHURST",
        "streetNameDisplayText": "GILL RD, MIDHURST"
      }
    ]
  },
  {
    "postal": "L9X0H1",
    "result": [
      {
        "electoralDistricts": [
          {
            "election": null,
            "id": 5,
            "name": "Barrie—Springwater—Oro-Medonte"
          }
        ],
        "pollDivisionIds": [
          10136925
        ],
        "postalCode": "L9X0H1",
        "streetName": "BOOTHBY",
        "streetDirectionId": null,
        "streetTypeId": "CRES",
        "placeName": "MINESING",
        "streetNameDisplayText": "BOOTHBY CRES, MINESING"
      }
    ]
  },
  {
    "postal": "L9X9W3",
    "result": []
  },
  {
    "postal": "L9X6P1",
    "result": []
  },
  {
    "postal": "L9X7G2",
    "result": []
  },
  {
    "postal": "L9X4J9",
    "result": []
  },
  {
    "postal": "L9X9E4",
    "result": []
  },
  {
    "postal": "L9X8H0",
    "result": []
  },
  {
    "postal": "L9X4M7",
    "result": []
  },
  {
    "postal": "L9X2G9",
    "result": []
  },
  {
    "postal": "L9X8T2",
    "result": []
  },
  {
    "postal": "L9X7G7",
    "result": []
  },
  {
    "postal": "L9X4Z3",
    "result": []
  },
  {
    "postal": "L9X5B3",
    "result": []
  },
  {
    "postal": "L9X1S7",
    "result": [
      {
        "electoralDistricts": [
          {
            "election": null,
            "id": 5,
            "name": "Barrie—Springwater—Oro-Medonte"
          }
        ],
        "pollDivisionIds": [
          10136925
        ],
        "postalCode": "L9X1S7",
        "streetName": "ANNE",
        "streetDirectionId": "N",
        "streetTypeId": "ST",
        "placeName": "BARRIE",
        "streetNameDisplayText": "ANNE ST N, BARRIE"
      },
      {
        "electoralDistricts": [
          {
            "election": null,
            "id": 5,
            "name": "Barrie—Springwater—Oro-Medonte"
          }
        ],
        "pollDivisionIds": [
          10136925
        ],
        "postalCode": "L9X1S7",
        "streetName": "ANNE",
        "streetDirectionId": "N",
        "streetTypeId": "ST",
        "placeName": "SPRINGWATER",
        "streetNameDisplayText": "ANNE ST N, SPRINGWATER"
      }
    ]
  },
  {
    "postal": "L9X2N7",
    "result": []
  },
  {
    "postal": "L9X0H8",
    "result": [
      {
        "electoralDistricts": [
          {
            "election": null,
            "id": 5,
            "name": "Barrie—Springwater—Oro-Medonte"
          }
        ],
        "pollDivisionIds": [
          10136925
        ],
        "postalCode": "L9X0H8",
        "streetName": "BUDDS MILL",
        "streetDirectionId": null,
        "streetTypeId": "RD",
        "placeName": "MINESING",
        "streetNameDisplayText": "BUDDS MILL RD, MINESING"
      },
      {
        "electoralDistricts": [
          {
            "election": null,
            "id": 5,
            "name": "Barrie—Springwater—Oro-Medonte"
          }
        ],
        "pollDivisionIds": [
          10136925
        ],
        "postalCode": "L9X0H8",
        "streetName": "BUDD'S MILL",
        "streetDirectionId": null,
        "streetTypeId": "RD",
        "placeName": "MINESING",
        "streetNameDisplayText": "BUDD'S MILL RD, MINESING"
      }
    ]
  },
  {
    "postal": "L9X7Z4",
    "result": []
  },
  {
    "postal": "L9X7B1",
    "result": []
  },
  {
    "postal": "L9X7P8",
    "result": []
  },
  {
    "postal": "L9X7N0",
    "result": []
  },
  {
    "postal": "L9X3Y5",
    "result": []
  },
  {
    "postal": "L9X6K1",
    "result": []
  },
  {
    "postal": "L9X9X5",
    "result": []
  },
  {
    "postal": "L9X7S5",
    "result": []
  },
  {
    "postal": "L9X0A4",
    "result": [
      {
        "electoralDistricts": [
          {
            "election": null,
            "id": 5,
            "name": "Barrie—Springwater—Oro-Medonte"
          }
        ],
        "pollDivisionIds": [
          10136922
        ],
        "postalCode": "L9X0A4",
        "streetName": "CROSSLAND",
        "streetDirectionId": null,
        "streetTypeId": "RD",
        "placeName": "MINESING",
        "streetNameDisplayText": "CROSSLAND RD, MINESING"
      }
    ]
  },
  {
    "postal": "L9X4T5",
    "result": []
  },
  {
    "postal": "L9X5K1",
    "result": []
  },
  {
    "postal": "L9X0Z9",
    "result": [
      {
        "electoralDistricts": [
          {
            "election": null,
            "id": 5,
            "name": "Barrie—Springwater—Oro-Medonte"
          }
        ],
        "pollDivisionIds": [
          10136925
        ],
        "postalCode": "L9X0Z9",
        "streetName": "MAYER",
        "streetDirectionId": null,
        "streetTypeId": "RD",
        "placeName": "MINESING",
        "streetNameDisplayText": "MAYER RD, MINESING"
      }
    ]
  },
  {
    "postal": "L9X7T2",
    "result": []
  },
  {
    "postal": "L9X1L5",
    "result": [
      {
        "electoralDistricts": [
          {
            "election": null,
            "id": 5,
            "name": "Barrie—Springwater—Oro-Medonte"
          }
        ],
        "pollDivisionIds": [
          10136927
        ],
        "postalCode": "L9X1L5",
        "streetName": "DORAN",
        "streetDirectionId": null,
        "streetTypeId": "RD",
        "placeName": "MIDHURST",
        "streetNameDisplayText": "DORAN RD, MIDHURST"
      }
    ]
  },
  {
    "postal": "L9X3N5",
    "result": []
  },
  {
    "postal": "L9X6H4",
    "result": []
  },
  {
    "postal": "L9X5A5",
    "result": []
  },
  {
    "postal": "L9X3R9",
    "result": []
  },
  {
    "postal": "L9X7L8",
    "result": []
  },
  {
    "postal": "L9X6T6",
    "result": []
  },
  {
    "postal": "L9X7Y7",
    "result": []
  },
  {
    "postal": "L9X3M8",
    "result": []
  },
  {
    "postal": "L9X2E0",
    "result": []
  },
  {
    "postal": "L9X4B5",
    "result": []
  },
  {
    "postal": "L9X1J3",
    "result": [
      {
        "electoralDistricts": [
          {
            "election": null,
            "id": 5,
            "name": "Barrie—Springwater—Oro-Medonte"
          }
        ],
        "pollDivisionIds": [
          10136925
        ],
        "postalCode": "L9X1J3",
        "streetName": "ANNE",
        "streetDirectionId": "N",
        "streetTypeId": "ST",
        "placeName": "MINESING",
        "streetNameDisplayText": "ANNE ST N, MINESING"
      }
    ]
  },
  {
    "postal": "L9X5S6",
    "result": []
  },
  {
    "postal": "L9X8P7",
    "result": []
  },
  {
    "postal": "L9X7S7",
    "result": []
  },
  {
    "postal": "L9X4C2",
    "result": []
  },
  {
    "postal": "L9X5Y0",
    "result": []
  },
  {
    "postal": "L9X2V7",
    "result": []
  },
  {
    "postal": "L9X8P5",
    "result": []
  },
  {
    "postal": "L9X5P5",
    "result": []
  },
  {
    "postal": "L9X5Z0",
    "result": []
  },
  {
    "postal": "L9X9B0",
    "result": []
  },
  {
    "postal": "L9X1L0",
    "result": []
  },
  {
    "postal": "L9X0B5",
    "result": [
      {
        "electoralDistricts": [
          {
            "election": null,
            "id": 5,
            "name": "Barrie—Springwater—Oro-Medonte"
          }
        ],
        "pollDivisionIds": [
          10136924
        ],
        "postalCode": "L9X0B5",
        "streetName": "26",
        "streetDirectionId": null,
        "streetTypeId": "HWY",
        "placeName": "MINESING",
        "streetNameDisplayText": "26 HWY, MINESING"
      },
      {
        "electoralDistricts": [
          {
            "election": null,
            "id": 5,
            "name": "Barrie—Springwater—Oro-Medonte"
          }
        ],
        "pollDivisionIds": [
          10136924
        ],
        "postalCode": "L9X0B5",
        "streetName": "HWY 26",
        "streetDirectionId": null,
        "streetTypeId": null,
        "placeName": "MINESING",
        "streetNameDisplayText": "HWY 26, MINESING"
      }
    ]
  },
  {
    "postal": "L9X3L2",
    "result": []
  },
  {
    "postal": "L9X3B7",
    "result": []
  },
  {
    "postal": "L9X8L1",
    "result": []
  },
  {
    "postal": "L9X5M4",
    "result": []
  },
  {
    "postal": "L9X4G9",
    "result": []
  },
  {
    "postal": "L9X0P0",
    "result": []
  },
  {
    "postal": "L9X8G2",
    "result": []
  },
  {
    "postal": "L9X1V9",
    "result": [
      {
        "electoralDistricts": [
          {
            "election": null,
            "id": 5,
            "name": "Barrie—Springwater—Oro-Medonte"
          }
        ],
        "pollDivisionIds": [
          10136925
        ],
        "postalCode": "L9X1V9",
        "streetName": "SUNNIDALE",
        "streetDirectionId": null,
        "streetTypeId": "RD",
        "placeName": "SPRINGWATER",
        "streetNameDisplayText": "SUNNIDALE RD, SPRINGWATER"
      }
    ]
  },
  {
    "postal": "L9X8N8",
    "result": []
  },
  {
    "postal": "L9X6S8",
    "result": []
  },
  {
    "postal": "L9X8H2",
    "result": []
  },
  {
    "postal": "L9X5R8",
    "result": []
  },
  {
    "postal": "L9X5L4",
    "result": []
  },
  {
    "postal": "L9X9E1",
    "result": []
  },
  {
    "postal": "L9X1C4",
    "result": [
      {
        "electoralDistricts": [
          {
            "election": null,
            "id": 5,
            "name": "Barrie—Springwater—Oro-Medonte"
          }
        ],
        "pollDivisionIds": [
          10136925
        ],
        "postalCode": "L9X1C4",
        "streetName": "GEORGE JOHNSTON R",
        "streetDirectionId": null,
        "streetTypeId": "RD",
        "placeName": "MINESING",
        "streetNameDisplayText": "GEORGE JOHNSTON R RD, MINESING"
      },
      {
        "electoralDistricts": [
          {
            "election": null,
            "id": 5,
            "name": "Barrie—Springwater—Oro-Medonte"
          }
        ],
        "pollDivisionIds": [
          10136925
        ],
        "postalCode": "L9X1C4",
        "streetName": "GEORGE JOHNSTON",
        "streetDirectionId": null,
        "streetTypeId": "RD",
        "placeName": "MINESING",
        "streetNameDisplayText": "GEORGE JOHNSTON RD, MINESING"
      }
    ]
  },
  {
    "postal": "L9X8W5",
    "result": []
  },
  {
    "postal": "L9X1Y4",
    "result": [
      {
        "electoralDistricts": [
          {
            "election": null,
            "id": 5,
            "name": "Barrie—Springwater—Oro-Medonte"
          }
        ],
        "pollDivisionIds": [
          10136923
        ],
        "postalCode": "L9X1Y4",
        "streetName": "OLD SECOND",
        "streetDirectionId": "S",
        "streetTypeId": null,
        "placeName": "SPRINGWATER",
        "streetNameDisplayText": "OLD SECOND S, SPRINGWATER"
      }
    ]
  },
  {
    "postal": "L9X1C0",
    "result": []
  },
  {
    "postal": "L9X2J2",
    "result": []
  },
  {
    "postal": "L9X2J0",
    "result": []
  },
  {
    "postal": "L9X7A3",
    "result": []
  },
  {
    "postal": "L9X8M1",
    "result": []
  },
  {
    "postal": "L9X7T9",
    "result": []
  },
  {
    "postal": "L9X6C0",
    "result": []
  },
  {
    "postal": "L9X7X1",
    "result": []
  },
  {
    "postal": "L9X0G1",
    "result": [
      {
        "electoralDistricts": [
          {
            "election": null,
            "id": 5,
            "name": "Barrie—Springwater—Oro-Medonte"
          }
        ],
        "pollDivisionIds": [
          10136925
        ],
        "postalCode": "L9X0G1",
        "streetName": "26",
        "streetDirectionId": null,
        "streetTypeId": "HWY",
        "placeName": "MINESING",
        "streetNameDisplayText": "26 HWY, MINESING"
      },
      {
        "electoralDistricts": [
          {
            "election": null,
            "id": 5,
            "name": "Barrie—Springwater—Oro-Medonte"
          }
        ],
        "pollDivisionIds": [
          10136925
        ],
        "postalCode": "L9X0G1",
        "streetName": "HWY 26",
        "streetDirectionId": null,
        "streetTypeId": null,
        "placeName": "MINESING",
        "streetNameDisplayText": "HWY 26, MINESING"
      }
    ]
  },
  {
    "postal": "L9X4X2",
    "result": []
  },
  {
    "postal": "L9X0N6",
    "result": [
      {
        "electoralDistricts": [
          {
            "election": null,
            "id": 5,
            "name": "Barrie—Springwater—Oro-Medonte"
          }
        ],
        "pollDivisionIds": [
          10136926,
          10136925
        ],
        "postalCode": "L9X0N6",
        "streetName": "BAYFIELD",
        "streetDirectionId": "N",
        "streetTypeId": "ST",
        "placeName": "MIDHURST",
        "streetNameDisplayText": "BAYFIELD ST N, MIDHURST"
      }
    ]
  },
  {
    "postal": "L9X8E3",
    "result": []
  },
  {
    "postal": "L9X5S8",
    "result": []
  },
  {
    "postal": "L9X0R0",
    "result": []
  },
  {
    "postal": "L9X6J6",
    "result": []
  },
  {
    "postal": "L9X4B4",
    "result": []
  },
  {
    "postal": "L9X7E3",
    "result": []
  },
  {
    "postal": "L9X3N6",
    "result": []
  },
  {
    "postal": "L9X3X6",
    "result": []
  },
  {
    "postal": "L9X8L0",
    "result": []
  },
  {
    "postal": "L9X8N1",
    "result": []
  },
  {
    "postal": "L9X4J0",
    "result": []
  },
  {
    "postal": "L9X0X7",
    "result": [
      {
        "electoralDistricts": [
          {
            "election": null,
            "id": 5,
            "name": "Barrie—Springwater—Oro-Medonte"
          }
        ],
        "pollDivisionIds": [
          10136923
        ],
        "postalCode": "L9X0X7",
        "streetName": "WILSON",
        "streetDirectionId": null,
        "streetTypeId": "DR",
        "placeName": "MINESING",
        "streetNameDisplayText": "WILSON DR, MINESING"
      }
    ]
  },
  {
    "postal": "L9X6S4",
    "result": []
  },
  {
    "postal": "L9X0Z0",
    "result": []
  },
  {
    "postal": "L9X9X8",
    "result": []
  },
  {
    "postal": "L9X3H3",
    "result": []
  },
  {
    "postal": "L9X7S2",
    "result": []
  },
  {
    "postal": "L9X3T3",
    "result": []
  },
  {
    "postal": "L9X9P3",
    "result": []
  },
  {
    "postal": "L9X4H8",
    "result": []
  },
  {
    "postal": "L9X6R1",
    "result": []
  },
  {
    "postal": "L9X1S0",
    "result": []
  },
  {
    "postal": "L9X3W8",
    "result": []
  },
  {
    "postal": "L9X4S3",
    "result": []
  },
  {
    "postal": "L9X1B6",
    "result": [
      {
        "electoralDistricts": [
          {
            "election": null,
            "id": 5,
            "name": "Barrie—Springwater—Oro-Medonte"
          }
        ],
        "pollDivisionIds": [
          10136922
        ],
        "postalCode": "L9X1B6",
        "streetName": "CULHAM",
        "streetDirectionId": null,
        "streetTypeId": "RD",
        "placeName": "MINESING",
        "streetNameDisplayText": "CULHAM RD, MINESING"
      }
    ]
  },
  {
    "postal": "L9X8R3",
    "result": []
  },
  {
    "postal": "L9X4V9",
    "result": []
  },
  {
    "postal": "L9X9W4",
    "result": []
  },
  {
    "postal": "L9X3T4",
    "result": []
  },
  {
    "postal": "L9X5C7",
    "result": []
  },
  {
    "postal": "L9X3Y1",
    "result": []
  },
  {
    "postal": "L9X5V0",
    "result": []
  },
  {
    "postal": "L9X8G8",
    "result": []
  },
  {
    "postal": "L9X8B1",
    "result": []
  },
  {
    "postal": "L9X4P5",
    "result": []
  },
  {
    "postal": "L9X7B2",
    "result": []
  },
  {
    "postal": "L9X0R2",
    "result": [
      {
        "electoralDistricts": [
          {
            "election": null,
            "id": 5,
            "name": "Barrie—Springwater—Oro-Medonte"
          }
        ],
        "pollDivisionIds": [
          10136926
        ],
        "postalCode": "L9X0R2",
        "streetName": "MCCARTNEY",
        "streetDirectionId": null,
        "streetTypeId": "GATE",
        "placeName": "MIDHURST",
        "streetNameDisplayText": "MCCARTNEY GATE, MIDHURST"
      },
      {
        "electoralDistricts": [
          {
            "election": null,
            "id": 5,
            "name": "Barrie—Springwater—Oro-Medonte"
          }
        ],
        "pollDivisionIds": [
          10136927,
          10136926
        ],
        "postalCode": "L9X0R2",
        "streetName": "ST VINCENT",
        "streetDirectionId": null,
        "streetTypeId": "ST",
        "placeName": "MIDHURST",
        "streetNameDisplayText": "ST VINCENT ST, MIDHURST"
      },
      {
        "electoralDistricts": [
          {
            "election": null,
            "id": 5,
            "name": "Barrie—Springwater—Oro-Medonte"
          }
        ],
        "pollDivisionIds": [
          10136926,
          10136927
        ],
        "postalCode": "L9X0R2",
        "streetName": "ST. VINCENT",
        "streetDirectionId": null,
        "streetTypeId": "ST",
        "placeName": "MIDHURST",
        "streetNameDisplayText": "ST. VINCENT ST, MIDHURST"
      },
      {
        "electoralDistricts": [
          {
            "election": null,
            "id": 5,
            "name": "Barrie—Springwater—Oro-Medonte"
          }
        ],
        "pollDivisionIds": [
          10136926
        ],
        "postalCode": "L9X0R2",
        "streetName": "WILLOW BAY",
        "streetDirectionId": null,
        "streetTypeId": "DR",
        "placeName": "MIDHURST",
        "streetNameDisplayText": "WILLOW BAY DR, MIDHURST"
      },
      {
        "electoralDistricts": [
          {
            "election": null,
            "id": 5,
            "name": "Barrie—Springwater—Oro-Medonte"
          }
        ],
        "pollDivisionIds": [
          10136926
        ],
        "postalCode": "L9X0R2",
        "streetName": "WILLOW LANDING",
        "streetDirectionId": null,
        "streetTypeId": "RD",
        "placeName": "MIDHURST",
        "streetNameDisplayText": "WILLOW LANDING RD, MIDHURST"
      }
    ]
  },
  {
    "postal": "L9X4M4",
    "result": []
  },
  {
    "postal": "L9X7M4",
    "result": []
  },
  {
    "postal": "L9X9S7",
    "result": []
  },
  {
    "postal": "L9X5Z7",
    "result": []
  },
  {
    "postal": "L9X7J7",
    "result": []
  },
  {
    "postal": "L9X8R8",
    "result": []
  },
  {
    "postal": "L9X9X1",
    "result": []
  },
  {
    "postal": "L9X5M9",
    "result": []
  },
  {
    "postal": "L9X9B4",
    "result": []
  },
  {
    "postal": "L9X0L9",
    "result": []
  },
  {
    "postal": "L9X9G4",
    "result": []
  },
  {
    "postal": "L9X1J4",
    "result": []
  },
  {
    "postal": "L9X0W6",
    "result": [
      {
        "electoralDistricts": [
          {
            "election": null,
            "id": 5,
            "name": "Barrie—Springwater—Oro-Medonte"
          }
        ],
        "pollDivisionIds": [
          10136923
        ],
        "postalCode": "L9X0W6",
        "streetName": "PEACHER",
        "streetDirectionId": null,
        "streetTypeId": "ST",
        "placeName": "MINESING",
        "streetNameDisplayText": "PEACHER ST, MINESING"
      }
    ]
  }
]
