[
  {
    "postal": "M4C9J6",
    "result": []
  },
  {
    "postal": "M4C9Z5",
    "result": []
  },
  {
    "postal": "M4C7H8",
    "result": []
  },
  {
    "postal": "M4C0P6",
    "result": []
  },
  {
    "postal": "M4C0S7",
    "result": []
  },
  {
    "postal": "M4C8B9",
    "result": []
  },
  {
    "postal": "M4C2A6",
    "result": [
      {
        "electoralDistricts": [
          {
            "election": null,
            "id": 7,
            "name": "Beaches—East York"
          }
        ],
        "pollDivisionIds": [
          10137037
        ],
        "postalCode": "M4C2A6",
        "streetName": "EPSOM",
        "streetDirectionId": null,
        "streetTypeId": "AVE",
        "placeName": "EAST YORK",
        "streetNameDisplayText": "EPSOM AVE, EAST YORK"
      }
    ]
  },
  {
    "postal": "M4C7V2",
    "result": []
  },
  {
    "postal": "M4C9P4",
    "result": []
  },
  {
    "postal": "M4C6G0",
    "result": []
  },
  {
    "postal": "M4C2K0",
    "result": []
  },
  {
    "postal": "M4C7N6",
    "result": []
  },
  {
    "postal": "M4C5R3",
    "result": []
  },
  {
    "postal": "M4C7K0",
    "result": []
  },
  {
    "postal": "M4C3R2",
    "result": [
      {
        "electoralDistricts": [
          {
            "election": null,
            "id": 7,
            "name": "Beaches—East York"
          }
        ],
        "pollDivisionIds": [
          10137040
        ],
        "postalCode": "M4C3R2",
        "streetName": "GLEBEMOUNT",
        "streetDirectionId": null,
        "streetTypeId": "AVE",
        "placeName": "TORONTO",
        "streetNameDisplayText": "GLEBEMOUNT AVE, TORONTO"
      }
    ]
  },
  {
    "postal": "M4C0J1",
    "result": []
  },
  {
    "postal": "M4C0B0",
    "result": []
  },
  {
    "postal": "M4C5Z2",
    "result": []
  },
  {
    "postal": "M4C7P3",
    "result": []
  },
  {
    "postal": "M4C2K3",
    "result": [
      {
        "electoralDistricts": [
          {
            "election": null,
            "id": 7,
            "name": "Beaches—East York"
          }
        ],
        "pollDivisionIds": [
          10137037
        ],
        "postalCode": "M4C2K3",
        "streetName": "LUMSDEN",
        "streetDirectionId": null,
        "streetTypeId": "AVE",
        "placeName": "EAST YORK",
        "streetNameDisplayText": "LUMSDEN AVE, EAST YORK"
      }
    ]
  },
  {
    "postal": "M4C7Y6",
    "result": []
  },
  {
    "postal": "M4C1L9",
    "result": [
      {
        "electoralDistricts": [
          {
            "election": null,
            "id": 7,
            "name": "Beaches—East York"
          }
        ],
        "pollDivisionIds": [
          10137047
        ],
        "postalCode": "M4C1L9",
        "streetName": "DANFORTH",
        "streetDirectionId": null,
        "streetTypeId": "AVE",
        "placeName": "TORONTO",
        "streetNameDisplayText": "DANFORTH AVE, TORONTO"
      }
    ]
  },
  {
    "postal": "M4C8T0",
    "result": []
  },
  {
    "postal": "M4C3K8",
    "result": [
      {
        "electoralDistricts": [
          {
            "election": null,
            "id": 7,
            "name": "Beaches—East York"
          }
        ],
        "pollDivisionIds": [
          10137036
        ],
        "postalCode": "M4C3K8",
        "streetName": "KNIGHT",
        "streetDirectionId": null,
        "streetTypeId": "ST",
        "placeName": "EAST YORK",
        "streetNameDisplayText": "KNIGHT ST, EAST YORK"
      }
    ]
  },
  {
    "postal": "M4C5W9",
    "result": []
  },
  {
    "postal": "M4C6T9",
    "result": []
  },
  {
    "postal": "M4C4H1",
    "result": [
      {
        "electoralDistricts": [
          {
            "election": null,
            "id": 7,
            "name": "Beaches—East York"
          }
        ],
        "pollDivisionIds": [
          10137036,
          10137037
        ],
        "postalCode": "M4C4H1",
        "streetName": "WOODBINE",
        "streetDirectionId": null,
        "streetTypeId": "AV",
        "placeName": "EAST YORK",
        "streetNameDisplayText": "WOODBINE AV, EAST YORK"
      },
      {
        "electoralDistricts": [
          {
            "election": null,
            "id": 7,
            "name": "Beaches—East York"
          }
        ],
        "pollDivisionIds": [
          10137037
        ],
        "postalCode": "M4C4H1",
        "streetName": "WOODBINE",
        "streetDirectionId": null,
        "streetTypeId": "AVE",
        "placeName": "EAST YORK",
        "streetNameDisplayText": "WOODBINE AVE, EAST YORK"
      },
      {
        "electoralDistricts": [
          {
            "election": null,
            "id": 7,
            "name": "Beaches—East York"
          }
        ],
        "pollDivisionIds": [
          10137037
        ],
        "postalCode": "M4C4H1",
        "streetName": "WOODBINE AVENUE",
        "streetDirectionId": null,
        "streetTypeId": "AVE",
        "placeName": "EAST YORK",
        "streetNameDisplayText": "WOODBINE AVENUE AVE, EAST YORK"
      },
      {
        "electoralDistricts": [
          {
            "election": null,
            "id": 98,
            "name": "Scarborough Southwest"
          }
        ],
        "pollDivisionIds": [
          10141772
        ],
        "postalCode": "M4C4H1",
        "streetName": "WOODBINE",
        "streetDirectionId": null,
        "streetTypeId": null,
        "placeName": "TORONTO",
        "streetNameDisplayText": "WOODBINE, TORONTO"
      }
    ]
  },
  {
    "postal": "M4C7A2",
    "result": []
  },
  {
    "postal": "M4C5G0",
    "result": []
  },
  {
    "postal": "M4C8V5",
    "result": []
  },
  {
    "postal": "M4C2Y8",
    "result": [
      {
        "electoralDistricts": [
          {
            "election": null,
            "id": 7,
            "name": "Beaches—East York"
          }
        ],
        "pollDivisionIds": [
          10137036
        ],
        "postalCode": "M4C2Y8",
        "streetName": "PLAINS",
        "streetDirectionId": null,
        "streetTypeId": "RD",
        "placeName": "EAST YORK",
        "streetNameDisplayText": "PLAINS RD, EAST YORK"
      }
    ]
  },
  {
    "postal": "M4C2B6",
    "result": [
      {
        "electoralDistricts": [
          {
            "election": null,
            "id": 7,
            "name": "Beaches—East York"
          }
        ],
        "pollDivisionIds": [
          10137040
        ],
        "postalCode": "M4C2B6",
        "streetName": "QUEENSDALE",
        "streetDirectionId": null,
        "streetTypeId": "AVE",
        "placeName": "EAST YORK",
        "streetNameDisplayText": "QUEENSDALE AVE, EAST YORK"
      }
    ]
  },
  {
    "postal": "M4C4W8",
    "result": [
      {
        "electoralDistricts": [
          {
            "election": null,
            "id": 7,
            "name": "Beaches—East York"
          }
        ],
        "pollDivisionIds": [
          10137037
        ],
        "postalCode": "M4C4W8",
        "streetName": "CHISHOLM",
        "streetDirectionId": null,
        "streetTypeId": "AVE",
        "placeName": "EAST YORK",
        "streetNameDisplayText": "CHISHOLM AVE, EAST YORK"
      }
    ]
  },
  {
    "postal": "M4C8H7",
    "result": []
  },
  {
    "postal": "M4C5P1",
    "result": []
  },
  {
    "postal": "M4C2B8",
    "result": [
      {
        "electoralDistricts": [
          {
            "election": null,
            "id": 7,
            "name": "Beaches—East York"
          }
        ],
        "pollDivisionIds": [
          10137037
        ],
        "postalCode": "M4C2B8",
        "streetName": "ORLEY",
        "streetDirectionId": null,
        "streetTypeId": "AVE",
        "placeName": "EAST YORK",
        "streetNameDisplayText": "ORLEY AVE, EAST YORK"
      }
    ]
  },
  {
    "postal": "M4C0P2",
    "result": []
  },
  {
    "postal": "M4C9M1",
    "result": []
  },
  {
    "postal": "M4C3G0",
    "result": []
  },
  {
    "postal": "M4C9Z2",
    "result": []
  },
  {
    "postal": "M4C2A0",
    "result": []
  },
  {
    "postal": "M4C6Y0",
    "result": []
  },
  {
    "postal": "M4C2Z8",
    "result": [
      {
        "electoralDistricts": [
          {
            "election": null,
            "id": 7,
            "name": "Beaches—East York"
          }
        ],
        "pollDivisionIds": [
          10137033
        ],
        "postalCode": "M4C2Z8",
        "streetName": "O'CONNOR",
        "streetDirectionId": null,
        "streetTypeId": "DR",
        "placeName": "EAST YORK",
        "streetNameDisplayText": "O'CONNOR DR, EAST YORK"
      }
    ]
  },
  {
    "postal": "M4C7Y3",
    "result": []
  },
  {
    "postal": "M4C6Z5",
    "result": []
  },
  {
    "postal": "M4C6E0",
    "result": []
  },
  {
    "postal": "M4C9B7",
    "result": []
  },
  {
    "postal": "M4C9S5",
    "result": []
  },
  {
    "postal": "M4C3X3",
    "result": [
      {
        "electoralDistricts": [
          {
            "election": null,
            "id": 7,
            "name": "Beaches—East York"
          }
        ],
        "pollDivisionIds": [
          10137045
        ],
        "postalCode": "M4C3X3",
        "streetName": "EAST LYNN",
        "streetDirectionId": null,
        "streetTypeId": "AVE",
        "placeName": "TORONTO",
        "streetNameDisplayText": "EAST LYNN AVE, TORONTO"
      }
    ]
  },
  {
    "postal": "M4C7R5",
    "result": []
  },
  {
    "postal": "M4C2X3",
    "result": [
      {
        "electoralDistricts": [
          {
            "election": null,
            "id": 7,
            "name": "Beaches—East York"
          }
        ],
        "pollDivisionIds": [
          10137037
        ],
        "postalCode": "M4C2X3",
        "streetName": "WESTLAKE",
        "streetDirectionId": null,
        "streetTypeId": "CRES",
        "placeName": "EAST YORK",
        "streetNameDisplayText": "WESTLAKE CRES, EAST YORK"
      }
    ]
  },
  {
    "postal": "M4C8Z9",
    "result": []
  },
  {
    "postal": "M4C0N4",
    "result": []
  },
  {
    "postal": "M4C1K1",
    "result": [
      {
        "electoralDistricts": [
          {
            "election": null,
            "id": 7,
            "name": "Beaches—East York"
          }
        ],
        "pollDivisionIds": [
          10137041
        ],
        "postalCode": "M4C1K1",
        "streetName": "DANFORTH",
        "streetDirectionId": null,
        "streetTypeId": "AVE",
        "placeName": "TORONTO",
        "streetNameDisplayText": "DANFORTH AVE, TORONTO"
      }
    ]
  },
  {
    "postal": "M4C1S3",
    "result": [
      {
        "electoralDistricts": [
          {
            "election": null,
            "id": 7,
            "name": "Beaches—East York"
          }
        ],
        "pollDivisionIds": [
          10137040
        ],
        "postalCode": "M4C1S3",
        "streetName": "WOLVERLEIGH",
        "streetDirectionId": null,
        "streetTypeId": "BLVD",
        "placeName": "TORONTO",
        "streetNameDisplayText": "WOLVERLEIGH BLVD, TORONTO"
      },
      {
        "electoralDistricts": [
          {
            "election": null,
            "id": 7,
            "name": "Beaches—East York"
          }
        ],
        "pollDivisionIds": [
          10137040
        ],
        "postalCode": "M4C1S3",
        "streetName": "WOVERLEIGH",
        "streetDirectionId": null,
        "streetTypeId": "BLVD",
        "placeName": "TORONTO",
        "streetNameDisplayText": "WOVERLEIGH BLVD, TORONTO"
      }
    ]
  },
  {
    "postal": "M4C6M4",
    "result": []
  },
  {
    "postal": "M4C9A9",
    "result": []
  },
  {
    "postal": "M4C9Z9",
    "result": []
  },
  {
    "postal": "M4C6T4",
    "result": []
  },
  {
    "postal": "M4C0B2",
    "result": []
  },
  {
    "postal": "M4C2L9",
    "result": [
      {
        "electoralDistricts": [
          {
            "election": null,
            "id": 7,
            "name": "Beaches—East York"
          }
        ],
        "pollDivisionIds": [
          10137036
        ],
        "postalCode": "M4C2L9",
        "streetName": "DUNKIRK",
        "streetDirectionId": null,
        "streetTypeId": "RD",
        "placeName": "EAST YORK",
        "streetNameDisplayText": "DUNKIRK RD, EAST YORK"
      }
    ]
  },
  {
    "postal": "M4C8K9",
    "result": []
  },
  {
    "postal": "M4C2H9",
    "result": [
      {
        "electoralDistricts": [
          {
            "election": null,
            "id": 7,
            "name": "Beaches—East York"
          }
        ],
        "pollDivisionIds": [
          10137037
        ],
        "postalCode": "M4C2H9",
        "streetName": "CREWE",
        "streetDirectionId": null,
        "streetTypeId": "AVE",
        "placeName": "EAST YORK",
        "streetNameDisplayText": "CREWE AVE, EAST YORK"
      }
    ]
  },
  {
    "postal": "M4C3Z6",
    "result": [
      {
        "electoralDistricts": [
          {
            "election": null,
            "id": 7,
            "name": "Beaches—East York"
          }
        ],
        "pollDivisionIds": [
          10137036
        ],
        "postalCode": "M4C3Z6",
        "streetName": "WOODMOUNT",
        "streetDirectionId": null,
        "streetTypeId": "AVE",
        "placeName": "EAST YORK",
        "streetNameDisplayText": "WOODMOUNT AVE, EAST YORK"
      }
    ]
  },
  {
    "postal": "M4C3B0",
    "result": []
  },
  {
    "postal": "M4C2H8",
    "result": [
      {
        "electoralDistricts": [
          {
            "election": null,
            "id": 7,
            "name": "Beaches—East York"
          }
        ],
        "pollDivisionIds": [
          10137036
        ],
        "postalCode": "M4C2H8",
        "streetName": "FRATER",
        "streetDirectionId": null,
        "streetTypeId": "AVE",
        "placeName": "EAST YORK",
        "streetNameDisplayText": "FRATER AVE, EAST YORK"
      }
    ]
  },
  {
    "postal": "M4C3X2",
    "result": [
      {
        "electoralDistricts": [
          {
            "election": null,
            "id": 7,
            "name": "Beaches—East York"
          }
        ],
        "pollDivisionIds": [
          10137045
        ],
        "postalCode": "M4C3X2",
        "streetName": "EAST LYNN",
        "streetDirectionId": null,
        "streetTypeId": "AVE",
        "placeName": "TORONTO",
        "streetNameDisplayText": "EAST LYNN AVE, TORONTO"
      }
    ]
  },
  {
    "postal": "M4C2E9",
    "result": [
      {
        "electoralDistricts": [
          {
            "election": null,
            "id": 7,
            "name": "Beaches—East York"
          }
        ],
        "pollDivisionIds": [
          10137037
        ],
        "postalCode": "M4C2E9",
        "streetName": "SAMMON",
        "streetDirectionId": null,
        "streetTypeId": "AVE",
        "placeName": "EAST YORK",
        "streetNameDisplayText": "SAMMON AVE, EAST YORK"
      }
    ]
  },
  {
    "postal": "M4C9P6",
    "result": []
  },
  {
    "postal": "M4C9E2",
    "result": []
  },
  {
    "postal": "M4C9H2",
    "result": []
  },
  {
    "postal": "M4C1S8",
    "result": [
      {
        "electoralDistricts": [
          {
            "election": null,
            "id": 7,
            "name": "Beaches—East York"
          }
        ],
        "pollDivisionIds": [
          10137040
        ],
        "postalCode": "M4C1S8",
        "streetName": "WOLVERLEIGH",
        "streetDirectionId": null,
        "streetTypeId": "BLVD",
        "placeName": "TORONTO",
        "streetNameDisplayText": "WOLVERLEIGH BLVD, TORONTO"
      }
    ]
  },
  {
    "postal": "M4C3M6",
    "result": [
      {
        "electoralDistricts": [
          {
            "election": null,
            "id": 7,
            "name": "Beaches—East York"
          }
        ],
        "pollDivisionIds": [
          10137036
        ],
        "postalCode": "M4C3M6",
        "streetName": "MACHOCKIE",
        "streetDirectionId": null,
        "streetTypeId": "RD",
        "placeName": "EAST YORK",
        "streetNameDisplayText": "MACHOCKIE RD, EAST YORK"
      }
    ]
  },
  {
    "postal": "M4C6Z8",
    "result": []
  },
  {
    "postal": "M4C4J2",
    "result": [
      {
        "electoralDistricts": [
          {
            "election": null,
            "id": 7,
            "name": "Beaches—East York"
          }
        ],
        "pollDivisionIds": [
          10137037
        ],
        "postalCode": "M4C4J2",
        "streetName": "COLERIDGE",
        "streetDirectionId": null,
        "streetTypeId": "AVE",
        "placeName": "EAST YORK",
        "streetNameDisplayText": "COLERIDGE AVE, EAST YORK"
      }
    ]
  },
  {
    "postal": "M4C9Y1",
    "result": []
  },
  {
    "postal": "M4C8V6",
    "result": []
  },
  {
    "postal": "M4C6B2",
    "result": []
  },
  {
    "postal": "M4C1P8",
    "result": [
      {
        "electoralDistricts": [
          {
            "election": null,
            "id": 7,
            "name": "Beaches—East York"
          }
        ],
        "pollDivisionIds": [
          10137047
        ],
        "postalCode": "M4C1P8",
        "streetName": "COLEMAN",
        "streetDirectionId": null,
        "streetTypeId": "AVE",
        "placeName": "TORONTO",
        "streetNameDisplayText": "COLEMAN AVE, TORONTO"
      }
    ]
  },
  {
    "postal": "M4C0V8",
    "result": []
  },
  {
    "postal": "M4C4Y0",
    "result": []
  },
  {
    "postal": "M4C2T4",
    "result": [
      {
        "electoralDistricts": [
          {
            "election": null,
            "id": 7,
            "name": "Beaches—East York"
          }
        ],
        "pollDivisionIds": [
          10137036
        ],
        "postalCode": "M4C2T4",
        "streetName": "VIRGINIA",
        "streetDirectionId": null,
        "streetTypeId": "AVE",
        "placeName": "EAST YORK",
        "streetNameDisplayText": "VIRGINIA AVE, EAST YORK"
      }
    ]
  },
  {
    "postal": "M4C2S3",
    "result": [
      {
        "electoralDistricts": [
          {
            "election": null,
            "id": 7,
            "name": "Beaches—East York"
          }
        ],
        "pollDivisionIds": [
          10137037
        ],
        "postalCode": "M4C2S3",
        "streetName": "HAMSTEAD",
        "streetDirectionId": null,
        "streetTypeId": "AVE",
        "placeName": "EAST YORK",
        "streetNameDisplayText": "HAMSTEAD AVE, EAST YORK"
      }
    ]
  },
  {
    "postal": "M4C0K0",
    "result": []
  },
  {
    "postal": "M4C5N1",
    "result": [
      {
        "electoralDistricts": [
          {
            "election": null,
            "id": 7,
            "name": "Beaches—East York"
          }
        ],
        "pollDivisionIds": [
          10137042
        ],
        "postalCode": "M4C5N1",
        "streetName": "BARRINGTON",
        "streetDirectionId": null,
        "streetTypeId": "AVE",
        "placeName": "EAST YORK",
        "streetNameDisplayText": "BARRINGTON AVE, EAST YORK"
      }
    ]
  },
  {
    "postal": "M4C7T0",
    "result": []
  },
  {
    "postal": "M4C9N2",
    "result": []
  },
  {
    "postal": "M4C5L1",
    "result": [
      {
        "electoralDistricts": [
          {
            "election": null,
            "id": 7,
            "name": "Beaches—East York"
          }
        ],
        "pollDivisionIds": [
          10137037
        ],
        "postalCode": "M4C5L1",
        "streetName": "GLEDHILL",
        "streetDirectionId": null,
        "streetTypeId": "AVE",
        "placeName": "EAST YORK",
        "streetNameDisplayText": "GLEDHILL AVE, EAST YORK"
      }
    ]
  },
  {
    "postal": "M4C7G5",
    "result": []
  },
  {
    "postal": "M4C6K2",
    "result": []
  },
  {
    "postal": "M4C6P9",
    "result": []
  },
  {
    "postal": "M4C0E6",
    "result": []
  },
  {
    "postal": "M4C8R9",
    "result": []
  },
  {
    "postal": "M4C3G9",
    "result": [
      {
        "electoralDistricts": [
          {
            "election": null,
            "id": 7,
            "name": "Beaches—East York"
          }
        ],
        "pollDivisionIds": [
          10137036
        ],
        "postalCode": "M4C3G9",
        "streetName": "FAIRSIDE",
        "streetDirectionId": null,
        "streetTypeId": "AVE",
        "placeName": "EAST YORK",
        "streetNameDisplayText": "FAIRSIDE AVE, EAST YORK"
      }
    ]
  },
  {
    "postal": "M4C0V7",
    "result": []
  },
  {
    "postal": "M4C2Z1",
    "result": [
      {
        "electoralDistricts": [
          {
            "election": null,
            "id": 7,
            "name": "Beaches—East York"
          }
        ],
        "pollDivisionIds": [
          10137036
        ],
        "postalCode": "M4C2Z1",
        "streetName": "PLAINS",
        "streetDirectionId": null,
        "streetTypeId": "RD",
        "placeName": "EAST YORK",
        "streetNameDisplayText": "PLAINS RD, EAST YORK"
      },
      {
        "electoralDistricts": [
          {
            "election": null,
            "id": 7,
            "name": "Beaches—East York"
          }
        ],
        "pollDivisionIds": [
          10137036
        ],
        "postalCode": "M4C2Z1",
        "streetName": "WOODBINE",
        "streetDirectionId": null,
        "streetTypeId": "AVE",
        "placeName": "EAST YORK",
        "streetNameDisplayText": "WOODBINE AVE, EAST YORK"
      }
    ]
  },
  {
    "postal": "M4C7N1",
    "result": []
  },
  {
    "postal": "M4C3C6",
    "result": [
      {
        "electoralDistricts": [
          {
            "election": null,
            "id": 7,
            "name": "Beaches—East York"
          }
        ],
        "pollDivisionIds": [
          10137040
        ],
        "postalCode": "M4C3C6",
        "streetName": "COXWELL",
        "streetDirectionId": null,
        "streetTypeId": "AVE",
        "placeName": "TORONTO",
        "streetNameDisplayText": "COXWELL AVE, TORONTO"
      }
    ]
  },
  {
    "postal": "M4C4M1",
    "result": [
      {
        "electoralDistricts": [
          {
            "election": null,
            "id": 7,
            "name": "Beaches—East York"
          }
        ],
        "pollDivisionIds": [
          10137041
        ],
        "postalCode": "M4C4M1",
        "streetName": "OAK PARK",
        "streetDirectionId": null,
        "streetTypeId": "AVE",
        "placeName": "TORONTO",
        "streetNameDisplayText": "OAK PARK AVE, TORONTO"
      }
    ]
  },
  {
    "postal": "M4C9K2",
    "result": []
  },
  {
    "postal": "M4C9S6",
    "result": []
  },
  {
    "postal": "M4C4X1",
    "result": [
      {
        "electoralDistricts": [
          {
            "election": null,
            "id": 7,
            "name": "Beaches—East York"
          }
        ],
        "pollDivisionIds": [
          10137037
        ],
        "postalCode": "M4C4X1",
        "streetName": "CHISHOLM",
        "streetDirectionId": null,
        "streetTypeId": "AVE",
        "placeName": "EAST YORK",
        "streetNameDisplayText": "CHISHOLM AVE, EAST YORK"
      }
    ]
  },
  {
    "postal": "M4C8W2",
    "result": []
  },
  {
    "postal": "M4C7N2",
    "result": []
  },
  {
    "postal": "M4C8S3",
    "result": []
  },
  {
    "postal": "M4C4V0",
    "result": []
  },
  {
    "postal": "M4C6W4",
    "result": []
  },
  {
    "postal": "M4C5M1",
    "result": []
  },
  {
    "postal": "M4C0S4",
    "result": []
  },
  {
    "postal": "M4C5X6",
    "result": []
  },
  {
    "postal": "M4C8L5",
    "result": []
  },
  {
    "postal": "M4C5M8",
    "result": [
      {
        "electoralDistricts": [
          {
            "election": null,
            "id": 7,
            "name": "Beaches—East York"
          }
        ],
        "pollDivisionIds": [
          10137066
        ],
        "postalCode": "M4C5M8",
        "streetName": "DAWES",
        "streetDirectionId": "E",
        "streetTypeId": "RD",
        "placeName": "EAST YORK",
        "streetNameDisplayText": "DAWES RD E, EAST YORK"
      },
      {
        "electoralDistricts": [
          {
            "election": null,
            "id": 7,
            "name": "Beaches—East York"
          }
        ],
        "pollDivisionIds": [
          10137066
        ],
        "postalCode": "M4C5M8",
        "streetName": "DAWES",
        "streetDirectionId": null,
        "streetTypeId": "RD",
        "placeName": "EAST YORK",
        "streetNameDisplayText": "DAWES RD, EAST YORK"
      }
    ]
  },
  {
    "postal": "M4C2G3",
    "result": [
      {
        "electoralDistricts": [
          {
            "election": null,
            "id": 7,
            "name": "Beaches—East York"
          }
        ],
        "pollDivisionIds": [
          10137037
        ],
        "postalCode": "M4C2G3",
        "streetName": "WESTBROOK",
        "streetDirectionId": null,
        "streetTypeId": "AVE",
        "placeName": "EAST YORK",
        "streetNameDisplayText": "WESTBROOK AVE, EAST YORK"
      }
    ]
  },
  {
    "postal": "M4C8E4",
    "result": []
  },
  {
    "postal": "M4C7S9",
    "result": []
  },
  {
    "postal": "M4C1K3",
    "result": [
      {
        "electoralDistricts": [
          {
            "election": null,
            "id": 7,
            "name": "Beaches—East York"
          }
        ],
        "pollDivisionIds": [
          10137041
        ],
        "postalCode": "M4C1K3",
        "streetName": "DANFORTH",
        "streetDirectionId": null,
        "streetTypeId": "AVE",
        "placeName": "TORONTO",
        "streetNameDisplayText": "DANFORTH AVE, TORONTO"
      }
    ]
  },
  {
    "postal": "M4C4E1",
    "result": [
      {
        "electoralDistricts": [
          {
            "election": null,
            "id": 7,
            "name": "Beaches—East York"
          }
        ],
        "pollDivisionIds": [
          10137037
        ],
        "postalCode": "M4C4E1",
        "streetName": "WOODBINE",
        "streetDirectionId": null,
        "streetTypeId": "AVE",
        "placeName": "EAST YORK",
        "streetNameDisplayText": "WOODBINE AVE, EAST YORK"
      },
      {
        "electoralDistricts": [
          {
            "election": null,
            "id": 7,
            "name": "Beaches—East York"
          }
        ],
        "pollDivisionIds": [
          10137037
        ],
        "postalCode": "M4C4E1",
        "streetName": "WOODBINE AVENUE",
        "streetDirectionId": null,
        "streetTypeId": "AVE",
        "placeName": "EAST YORK",
        "streetNameDisplayText": "WOODBINE AVENUE AVE, EAST YORK"
      }
    ]
  },
  {
    "postal": "M4C4R2",
    "result": [
      {
        "electoralDistricts": [
          {
            "election": null,
            "id": 7,
            "name": "Beaches—East York"
          }
        ],
        "pollDivisionIds": [
          10137041
        ],
        "postalCode": "M4C4R2",
        "streetName": "WESTLAKE",
        "streetDirectionId": null,
        "streetTypeId": "AVE",
        "placeName": "TORONTO",
        "streetNameDisplayText": "WESTLAKE AVE, TORONTO"
      }
    ]
  },
  {
    "postal": "M4C6T0",
    "result": []
  },
  {
    "postal": "M4C3K5",
    "result": [
      {
        "electoralDistricts": [
          {
            "election": null,
            "id": 7,
            "name": "Beaches—East York"
          }
        ],
        "pollDivisionIds": [
          10137040
        ],
        "postalCode": "M4C3K5",
        "streetName": "WOODINGTON",
        "streetDirectionId": null,
        "streetTypeId": "AVE",
        "placeName": "EAST YORK",
        "streetNameDisplayText": "WOODINGTON AVE, EAST YORK"
      }
    ]
  },
  {
    "postal": "M4C3S3",
    "result": [
      {
        "electoralDistricts": [
          {
            "election": null,
            "id": 7,
            "name": "Beaches—East York"
          }
        ],
        "pollDivisionIds": [
          10137040
        ],
        "postalCode": "M4C3S3",
        "streetName": "GLEBEMOUNT",
        "streetDirectionId": null,
        "streetTypeId": "AVE",
        "placeName": "EAST YORK",
        "streetNameDisplayText": "GLEBEMOUNT AVE, EAST YORK"
      },
      {
        "electoralDistricts": [
          {
            "election": null,
            "id": 7,
            "name": "Beaches—East York"
          }
        ],
        "pollDivisionIds": [
          10137040
        ],
        "postalCode": "M4C3S3",
        "streetName": "GLEBEMOUNT",
        "streetDirectionId": null,
        "streetTypeId": "AVE",
        "placeName": "TORONTO",
        "streetNameDisplayText": "GLEBEMOUNT AVE, TORONTO"
      }
    ]
  },
  {
    "postal": "M4C3L4",
    "result": [
      {
        "electoralDistricts": [
          {
            "election": null,
            "id": 7,
            "name": "Beaches—East York"
          }
        ],
        "pollDivisionIds": [
          10137033
        ],
        "postalCode": "M4C3L4",
        "streetName": "RALSTON",
        "streetDirectionId": null,
        "streetTypeId": "AVE",
        "placeName": "EAST YORK",
        "streetNameDisplayText": "RALSTON AVE, EAST YORK"
      }
    ]
  },
  {
    "postal": "M4C9Y2",
    "result": []
  },
  {
    "postal": "M4C1E0",
    "result": []
  },
  {
    "postal": "M4C9A4",
    "result": []
  },
  {
    "postal": "M4C1L3",
    "result": [
      {
        "electoralDistricts": [
          {
            "election": null,
            "id": 7,
            "name": "Beaches—East York"
          }
        ],
        "pollDivisionIds": [
          10137042
        ],
        "postalCode": "M4C1L3",
        "streetName": "DANFORTH",
        "streetDirectionId": null,
        "streetTypeId": "AV",
        "placeName": "TORONTO",
        "streetNameDisplayText": "DANFORTH AV, TORONTO"
      },
      {
        "electoralDistricts": [
          {
            "election": null,
            "id": 7,
            "name": "Beaches—East York"
          }
        ],
        "pollDivisionIds": [
          10137042,
          10137041
        ],
        "postalCode": "M4C1L3",
        "streetName": "DANFORTH",
        "streetDirectionId": null,
        "streetTypeId": "AVE",
        "placeName": "TORONTO",
        "streetNameDisplayText": "DANFORTH AVE, TORONTO"
      }
    ]
  },
  {
    "postal": "M4C6N1",
    "result": []
  },
  {
    "postal": "M4C6G7",
    "result": []
  },
  {
    "postal": "M4C7W1",
    "result": []
  },
  {
    "postal": "M4C4M6",
    "result": [
      {
        "electoralDistricts": [
          {
            "election": null,
            "id": 7,
            "name": "Beaches—East York"
          }
        ],
        "pollDivisionIds": [
          10137037
        ],
        "postalCode": "M4C4M6",
        "streetName": "OAK PARK",
        "streetDirectionId": null,
        "streetTypeId": "AVE",
        "placeName": "EAST YORK",
        "streetNameDisplayText": "OAK PARK AVE, EAST YORK"
      }
    ]
  },
  {
    "postal": "M4C1K0",
    "result": []
  },
  {
    "postal": "M4C3E2",
    "result": [
      {
        "electoralDistricts": [
          {
            "election": null,
            "id": 110,
            "name": "Toronto—Danforth"
          }
        ],
        "pollDivisionIds": [
          10142507
        ],
        "postalCode": "M4C3E2",
        "streetName": "COXWELL",
        "streetDirectionId": null,
        "streetTypeId": "AVE",
        "placeName": "EAST YORK",
        "streetNameDisplayText": "COXWELL AVE, EAST YORK"
      }
    ]
  },
  {
    "postal": "M4C5H4",
    "result": [
      {
        "electoralDistricts": [
          {
            "election": null,
            "id": 7,
            "name": "Beaches—East York"
          }
        ],
        "pollDivisionIds": [
          10137047
        ],
        "postalCode": "M4C5H4",
        "streetName": "VICTORIA PARK",
        "streetDirectionId": null,
        "streetTypeId": "AVE",
        "placeName": "EAST YORK",
        "streetNameDisplayText": "VICTORIA PARK AVE, EAST YORK"
      }
    ]
  },
  {
    "postal": "M4C1K7",
    "result": [
      {
        "electoralDistricts": [
          {
            "election": null,
            "id": 7,
            "name": "Beaches—East York"
          }
        ],
        "pollDivisionIds": [
          10137041
        ],
        "postalCode": "M4C1K7",
        "streetName": "DANFORTH",
        "streetDirectionId": null,
        "streetTypeId": "AVE",
        "placeName": "TORONTO",
        "streetNameDisplayText": "DANFORTH AVE, TORONTO"
      }
    ]
  },
  {
    "postal": "M4C0H0",
    "result": []
  },
  {
    "postal": "M4C0J3",
    "result": []
  },
  {
    "postal": "M4C1X6",
    "result": [
      {
        "electoralDistricts": [
          {
            "election": null,
            "id": 7,
            "name": "Beaches—East York"
          }
        ],
        "pollDivisionIds": [
          10137040
        ],
        "postalCode": "M4C1X6",
        "streetName": "MILVERTON",
        "streetDirectionId": null,
        "streetTypeId": "BLVD",
        "placeName": "EAST YORK",
        "streetNameDisplayText": "MILVERTON BLVD, EAST YORK"
      },
      {
        "electoralDistricts": [
          {
            "election": null,
            "id": 7,
            "name": "Beaches—East York"
          }
        ],
        "pollDivisionIds": [
          10137040
        ],
        "postalCode": "M4C1X6",
        "streetName": "MILVERTON",
        "streetDirectionId": null,
        "streetTypeId": "BLVD",
        "placeName": "TORONTO",
        "streetNameDisplayText": "MILVERTON BLVD, TORONTO"
      }
    ]
  },
  {
    "postal": "M4C2Z6",
    "result": [
      {
        "electoralDistricts": [
          {
            "election": null,
            "id": 7,
            "name": "Beaches—East York"
          }
        ],
        "pollDivisionIds": [
          10137037
        ],
        "postalCode": "M4C2Z6",
        "streetName": "VENTNOR",
        "streetDirectionId": null,
        "streetTypeId": "AVE",
        "placeName": "EAST YORK",
        "streetNameDisplayText": "VENTNOR AVE, EAST YORK"
      }
    ]
  },
  {
    "postal": "M4C4R9",
    "result": [
      {
        "electoralDistricts": [
          {
            "election": null,
            "id": 7,
            "name": "Beaches—East York"
          }
        ],
        "pollDivisionIds": [
          10137037
        ],
        "postalCode": "M4C4R9",
        "streetName": "WESTLAKE",
        "streetDirectionId": null,
        "streetTypeId": "AVE",
        "placeName": "EAST YORK",
        "streetNameDisplayText": "WESTLAKE AVE, EAST YORK"
      }
    ]
  },
  {
    "postal": "M4C0W8",
    "result": []
  },
  {
    "postal": "M4C1L4",
    "result": [
      {
        "electoralDistricts": [
          {
            "election": null,
            "id": 7,
            "name": "Beaches—East York"
          }
        ],
        "pollDivisionIds": [
          10137047
        ],
        "postalCode": "M4C1L4",
        "streetName": "DANFORTH",
        "streetDirectionId": null,
        "streetTypeId": "AVE",
        "placeName": "TORONTO",
        "streetNameDisplayText": "DANFORTH AVE, TORONTO"
      }
    ]
  },
  {
    "postal": "M4C0C8",
    "result": []
  },
  {
    "postal": "M4C9X7",
    "result": []
  },
  {
    "postal": "M4C4T1",
    "result": [
      {
        "electoralDistricts": [
          {
            "election": null,
            "id": 7,
            "name": "Beaches—East York"
          }
        ],
        "pollDivisionIds": [
          10137037
        ],
        "postalCode": "M4C4T1",
        "streetName": "WESTLAKE",
        "streetDirectionId": null,
        "streetTypeId": "AVE",
        "placeName": "EAST YORK",
        "streetNameDisplayText": "WESTLAKE AVE, EAST YORK"
      }
    ]
  },
  {
    "postal": "M4C0M0",
    "result": []
  },
  {
    "postal": "M4C6A2",
    "result": []
  },
  {
    "postal": "M4C9S8",
    "result": []
  },
  {
    "postal": "M4C9T4",
    "result": []
  },
  {
    "postal": "M4C9Y4",
    "result": []
  },
  {
    "postal": "M4C6G5",
    "result": []
  },
  {
    "postal": "M4C6H9",
    "result": []
  },
  {
    "postal": "M4C2P3",
    "result": [
      {
        "electoralDistricts": [
          {
            "election": null,
            "id": 7,
            "name": "Beaches—East York"
          }
        ],
        "pollDivisionIds": [
          10137037
        ],
        "postalCode": "M4C2P3",
        "streetName": "BARKER",
        "streetDirectionId": null,
        "streetTypeId": "AVE",
        "placeName": "EAST YORK",
        "streetNameDisplayText": "BARKER AVE, EAST YORK"
      }
    ]
  },
  {
    "postal": "M4C1T6",
    "result": [
      {
        "electoralDistricts": [
          {
            "election": null,
            "id": 7,
            "name": "Beaches—East York"
          }
        ],
        "pollDivisionIds": [
          10137047
        ],
        "postalCode": "M4C1T6",
        "streetName": "BALFOUR",
        "streetDirectionId": null,
        "streetTypeId": "AVE",
        "placeName": "TORONTO",
        "streetNameDisplayText": "BALFOUR AVE, TORONTO"
      }
    ]
  },
  {
    "postal": "M4C4P6",
    "result": [
      {
        "electoralDistricts": [
          {
            "election": null,
            "id": 7,
            "name": "Beaches—East York"
          }
        ],
        "pollDivisionIds": [
          10137041
        ],
        "postalCode": "M4C4P6",
        "streetName": "WESTLAKE",
        "streetDirectionId": null,
        "streetTypeId": "AVE",
        "placeName": "TORONTO",
        "streetNameDisplayText": "WESTLAKE AVE, TORONTO"
      }
    ]
  },
  {
    "postal": "M4C3K1",
    "result": [
      {
        "electoralDistricts": [
          {
            "election": null,
            "id": 7,
            "name": "Beaches—East York"
          }
        ],
        "pollDivisionIds": [
          10137040
        ],
        "postalCode": "M4C3K1",
        "streetName": "WOODINGTON",
        "streetDirectionId": null,
        "streetTypeId": "AVE",
        "placeName": "TORONTO",
        "streetNameDisplayText": "WOODINGTON AVE, TORONTO"
      }
    ]
  },
  {
    "postal": "M4C6X4",
    "result": []
  },
  {
    "postal": "M4C4M8",
    "result": [
      {
        "electoralDistricts": [
          {
            "election": null,
            "id": 7,
            "name": "Beaches—East York"
          }
        ],
        "pollDivisionIds": [
          10137037
        ],
        "postalCode": "M4C4M8",
        "streetName": "OAK PARK",
        "streetDirectionId": null,
        "streetTypeId": "AVE",
        "placeName": "EAST YORK",
        "streetNameDisplayText": "OAK PARK AVE, EAST YORK"
      }
    ]
  },
  {
    "postal": "M4C2Y1",
    "result": [
      {
        "electoralDistricts": [
          {
            "election": null,
            "id": 7,
            "name": "Beaches—East York"
          }
        ],
        "pollDivisionIds": [
          10137036
        ],
        "postalCode": "M4C2Y1",
        "streetName": "PLAINS",
        "streetDirectionId": null,
        "streetTypeId": "RD",
        "placeName": "EAST YORK",
        "streetNameDisplayText": "PLAINS RD, EAST YORK"
      }
    ]
  },
  {
    "postal": "M4C6M1",
    "result": []
  },
  {
    "postal": "M4C5L8",
    "result": [
      {
        "electoralDistricts": [
          {
            "election": null,
            "id": 7,
            "name": "Beaches—East York"
          }
        ],
        "pollDivisionIds": [
          10137044
        ],
        "postalCode": "M4C5L8",
        "streetName": "CRESCENT",
        "streetDirectionId": null,
        "streetTypeId": "PL",
        "placeName": "EAST YORK",
        "streetNameDisplayText": "CRESCENT PL, EAST YORK"
      },
      {
        "electoralDistricts": [
          {
            "election": null,
            "id": 7,
            "name": "Beaches—East York"
          }
        ],
        "pollDivisionIds": [
          10137044
        ],
        "postalCode": "M4C5L8",
        "streetName": "CRESCENT PLACE",
        "streetDirectionId": "E",
        "streetTypeId": "PLACE",
        "placeName": "EAST YORK",
        "streetNameDisplayText": "CRESCENT PLACE PLACE E, EAST YORK"
      }
    ]
  },
  {
    "postal": "M4C3P6",
    "result": [
      {
        "electoralDistricts": [
          {
            "election": null,
            "id": 7,
            "name": "Beaches—East York"
          }
        ],
        "pollDivisionIds": [
          10137045
        ],
        "postalCode": "M4C3P6",
        "streetName": "ROSEHEATH",
        "streetDirectionId": null,
        "streetTypeId": "AVE",
        "placeName": "TORONTO",
        "streetNameDisplayText": "ROSEHEATH AVE, TORONTO"
      }
    ]
  },
  {
    "postal": "M4C9A5",
    "result": []
  },
  {
    "postal": "M4C7K1",
    "result": []
  },
  {
    "postal": "M4C3J4",
    "result": [
      {
        "electoralDistricts": [
          {
            "election": null,
            "id": 7,
            "name": "Beaches—East York"
          }
        ],
        "pollDivisionIds": [
          10137040
        ],
        "postalCode": "M4C3J4",
        "streetName": "WOODINGTON",
        "streetDirectionId": null,
        "streetTypeId": "AVE",
        "placeName": "TORONTO",
        "streetNameDisplayText": "WOODINGTON AVE, TORONTO"
      }
    ]
  },
  {
    "postal": "M4C5E7",
    "result": [
      {
        "electoralDistricts": [
          {
            "election": null,
            "id": 7,
            "name": "Beaches—East York"
          }
        ],
        "pollDivisionIds": [
          10137047
        ],
        "postalCode": "M4C5E7",
        "streetName": "SIBLEY",
        "streetDirectionId": null,
        "streetTypeId": "AVE",
        "placeName": "EAST YORK",
        "streetNameDisplayText": "SIBLEY AVE, EAST YORK"
      }
    ]
  },
  {
    "postal": "M4C3A7",
    "result": [
      {
        "electoralDistricts": [
          {
            "election": null,
            "id": 7,
            "name": "Beaches—East York"
          }
        ],
        "pollDivisionIds": [
          10137036
        ],
        "postalCode": "M4C3A7",
        "streetName": "O'CONNOR",
        "streetDirectionId": null,
        "streetTypeId": "DR",
        "placeName": "EAST YORK",
        "streetNameDisplayText": "O'CONNOR DR, EAST YORK"
      }
    ]
  },
  {
    "postal": "M4C1B9",
    "result": [
      {
        "electoralDistricts": [
          {
            "election": null,
            "id": 7,
            "name": "Beaches—East York"
          }
        ],
        "pollDivisionIds": [
          10137041
        ],
        "postalCode": "M4C1B9",
        "streetName": "OAKCREST",
        "streetDirectionId": null,
        "streetTypeId": "AVE",
        "placeName": "TORONTO",
        "streetNameDisplayText": "OAKCREST AVE, TORONTO"
      }
    ]
  },
  {
    "postal": "M4C9E8",
    "result": []
  },
  {
    "postal": "M4C1C9",
    "result": [
      {
        "electoralDistricts": [
          {
            "election": null,
            "id": 7,
            "name": "Beaches—East York"
          }
        ],
        "pollDivisionIds": [
          10137045
        ],
        "postalCode": "M4C1C9",
        "streetName": "MERRILL",
        "streetDirectionId": "E",
        "streetTypeId": "AVE",
        "placeName": "TORONTO",
        "streetNameDisplayText": "MERRILL AVE E, TORONTO"
      }
    ]
  },
  {
    "postal": "M4C3B5",
    "result": [
      {
        "electoralDistricts": [
          {
            "election": null,
            "id": 7,
            "name": "Beaches—East York"
          }
        ],
        "pollDivisionIds": [
          10137048
        ],
        "postalCode": "M4C3B5",
        "streetName": "COXWELL",
        "streetDirectionId": null,
        "streetTypeId": "AVE",
        "placeName": "TORONTO",
        "streetNameDisplayText": "COXWELL AVE, TORONTO"
      }
    ]
  },
  {
    "postal": "M4C8R0",
    "result": []
  },
  {
    "postal": "M4C3P2",
    "result": [
      {
        "electoralDistricts": [
          {
            "election": null,
            "id": 7,
            "name": "Beaches—East York"
          }
        ],
        "pollDivisionIds": [
          10137048
        ],
        "postalCode": "M4C3P2",
        "streetName": "ROSEHEATH",
        "streetDirectionId": null,
        "streetTypeId": "AVE",
        "placeName": "TORONTO",
        "streetNameDisplayText": "ROSEHEATH AVE, TORONTO"
      }
    ]
  },
  {
    "postal": "M4C5V4",
    "result": []
  },
  {
    "postal": "M4C4H0",
    "result": []
  },
  {
    "postal": "M4C4S7",
    "result": [
      {
        "electoralDistricts": [
          {
            "election": null,
            "id": 7,
            "name": "Beaches—East York"
          }
        ],
        "pollDivisionIds": [
          10137037
        ],
        "postalCode": "M4C4S7",
        "streetName": "WESTLAKE",
        "streetDirectionId": null,
        "streetTypeId": "AVE",
        "placeName": "EAST YORK",
        "streetNameDisplayText": "WESTLAKE AVE, EAST YORK"
      }
    ]
  },
  {
    "postal": "M4C6C2",
    "result": []
  },
  {
    "postal": "M4C8W3",
    "result": []
  },
  {
    "postal": "M4C4M5",
    "result": [
      {
        "electoralDistricts": [
          {
            "election": null,
            "id": 7,
            "name": "Beaches—East York"
          }
        ],
        "pollDivisionIds": [
          10137037
        ],
        "postalCode": "M4C4M5",
        "streetName": "OAK PARK",
        "streetDirectionId": null,
        "streetTypeId": "AVE",
        "placeName": "EAST YORK",
        "streetNameDisplayText": "OAK PARK AVE, EAST YORK"
      }
    ]
  },
  {
    "postal": "M4C5T1",
    "result": [
      {
        "electoralDistricts": [
          {
            "election": null,
            "id": 7,
            "name": "Beaches—East York"
          }
        ],
        "pollDivisionIds": [
          10137047
        ],
        "postalCode": "M4C5T1",
        "streetName": "ICE CREAM",
        "streetDirectionId": null,
        "streetTypeId": "LANE",
        "placeName": "TORONTO",
        "streetNameDisplayText": "ICE CREAM LANE, TORONTO"
      }
    ]
  },
  {
    "postal": "M4C3B3",
    "result": [
      {
        "electoralDistricts": [
          {
            "election": null,
            "id": 7,
            "name": "Beaches—East York"
          }
        ],
        "pollDivisionIds": [
          10137033
        ],
        "postalCode": "M4C3B3",
        "streetName": "TAYLOR",
        "streetDirectionId": null,
        "streetTypeId": "DR",
        "placeName": "EAST YORK",
        "streetNameDisplayText": "TAYLOR DR, EAST YORK"
      }
    ]
  },
  {
    "postal": "M4C6C6",
    "result": []
  },
  {
    "postal": "M4C7N8",
    "result": []
  },
  {
    "postal": "M4C2Y3",
    "result": [
      {
        "electoralDistricts": [
          {
            "election": null,
            "id": 7,
            "name": "Beaches—East York"
          }
        ],
        "pollDivisionIds": [
          10137036
        ],
        "postalCode": "M4C2Y3",
        "streetName": "PLAINS",
        "streetDirectionId": null,
        "streetTypeId": "RD",
        "placeName": "EAST YORK",
        "streetNameDisplayText": "PLAINS RD, EAST YORK"
      }
    ]
  },
  {
    "postal": "M4C2R6",
    "result": [
      {
        "electoralDistricts": [
          {
            "election": null,
            "id": 7,
            "name": "Beaches—East York"
          }
        ],
        "pollDivisionIds": [
          10137036
        ],
        "postalCode": "M4C2R6",
        "streetName": "HOLBORNE",
        "streetDirectionId": null,
        "streetTypeId": "AVE",
        "placeName": "EAST YORK",
        "streetNameDisplayText": "HOLBORNE AVE, EAST YORK"
      }
    ]
  },
  {
    "postal": "M4C7N3",
    "result": []
  },
  {
    "postal": "M4C8J2",
    "result": []
  },
  {
    "postal": "M4C6A9",
    "result": []
  },
  {
    "postal": "M4C3V2",
    "result": [
      {
        "electoralDistricts": [
          {
            "election": null,
            "id": 7,
            "name": "Beaches—East York"
          }
        ],
        "pollDivisionIds": [
          10137036
        ],
        "postalCode": "M4C3V2",
        "streetName": "GLEBEMOUNT",
        "streetDirectionId": null,
        "streetTypeId": "AVE",
        "placeName": "EAST YORK",
        "streetNameDisplayText": "GLEBEMOUNT AVE, EAST YORK"
      }
    ]
  },
  {
    "postal": "M4C2N3",
    "result": [
      {
        "electoralDistricts": [
          {
            "election": null,
            "id": 7,
            "name": "Beaches—East York"
          }
        ],
        "pollDivisionIds": [
          10137036
        ],
        "postalCode": "M4C2N3",
        "streetName": "BARKER",
        "streetDirectionId": null,
        "streetTypeId": "AVE",
        "placeName": "EAST YORK",
        "streetNameDisplayText": "BARKER AVE, EAST YORK"
      }
    ]
  },
  {
    "postal": "M4C1S5",
    "result": [
      {
        "electoralDistricts": [
          {
            "election": null,
            "id": 7,
            "name": "Beaches—East York"
          }
        ],
        "pollDivisionIds": [
          10137040
        ],
        "postalCode": "M4C1S5",
        "streetName": "WOLVERLEIGH",
        "streetDirectionId": null,
        "streetTypeId": "BLVD",
        "placeName": "TORONTO",
        "streetNameDisplayText": "WOLVERLEIGH BLVD, TORONTO"
      }
    ]
  },
  {
    "postal": "M4C4T7",
    "result": [
      {
        "electoralDistricts": [
          {
            "election": null,
            "id": 7,
            "name": "Beaches—East York"
          }
        ],
        "pollDivisionIds": [
          10137037
        ],
        "postalCode": "M4C4T7",
        "streetName": "WESTLAKE",
        "streetDirectionId": null,
        "streetTypeId": "AVE",
        "placeName": "EAST YORK",
        "streetNameDisplayText": "WESTLAKE AVE, EAST YORK"
      }
    ]
  },
  {
    "postal": "M4C6Y7",
    "result": []
  },
  {
    "postal": "M4C0W7",
    "result": []
  },
  {
    "postal": "M4C2W9",
    "result": [
      {
        "electoralDistricts": [
          {
            "election": null,
            "id": 7,
            "name": "Beaches—East York"
          }
        ],
        "pollDivisionIds": [
          10137037
        ],
        "postalCode": "M4C2W9",
        "streetName": "COSBURN",
        "streetDirectionId": null,
        "streetTypeId": "AVE",
        "placeName": "EAST YORK",
        "streetNameDisplayText": "COSBURN AVE, EAST YORK"
      }
    ]
  },
  {
    "postal": "M4C8V0",
    "result": []
  },
  {
    "postal": "M4C0H4",
    "result": []
  },
  {
    "postal": "M4C2T1",
    "result": [
      {
        "electoralDistricts": [
          {
            "election": null,
            "id": 7,
            "name": "Beaches—East York"
          }
        ],
        "pollDivisionIds": [
          10137036
        ],
        "postalCode": "M4C2T1",
        "streetName": "VIRGINIA",
        "streetDirectionId": null,
        "streetTypeId": "AVE",
        "placeName": "EAST YORK",
        "streetNameDisplayText": "VIRGINIA AVE, EAST YORK"
      }
    ]
  },
  {
    "postal": "M4C1B1",
    "result": [
      {
        "electoralDistricts": [
          {
            "election": null,
            "id": 7,
            "name": "Beaches—East York"
          }
        ],
        "pollDivisionIds": [
          10137048
        ],
        "postalCode": "M4C1B1",
        "streetName": "COPELAND",
        "streetDirectionId": null,
        "streetTypeId": "AVE",
        "placeName": "TORONTO",
        "streetNameDisplayText": "COPELAND AVE, TORONTO"
      }
    ]
  },
  {
    "postal": "M4C8B6",
    "result": []
  },
  {
    "postal": "M4C6H1",
    "result": []
  },
  {
    "postal": "M4C8T8",
    "result": []
  },
  {
    "postal": "M4C0T4",
    "result": []
  },
  {
    "postal": "M4C2C4",
    "result": [
      {
        "electoralDistricts": [
          {
            "election": null,
            "id": 7,
            "name": "Beaches—East York"
          }
        ],
        "pollDivisionIds": [
          10137043
        ],
        "postalCode": "M4C2C4",
        "streetName": "SECORD",
        "streetDirectionId": null,
        "streetTypeId": "AVE",
        "placeName": "EAST YORK",
        "streetNameDisplayText": "SECORD AVE, EAST YORK"
      }
    ]
  },
  {
    "postal": "M4C8N3",
    "result": []
  },
  {
    "postal": "M4C4L8",
    "result": [
      {
        "electoralDistricts": [
          {
            "election": null,
            "id": 7,
            "name": "Beaches—East York"
          }
        ],
        "pollDivisionIds": [
          10137041
        ],
        "postalCode": "M4C4L8",
        "streetName": "OAK PARK",
        "streetDirectionId": null,
        "streetTypeId": "AVE",
        "placeName": "TORONTO",
        "streetNameDisplayText": "OAK PARK AVE, TORONTO"
      }
    ]
  },
  {
    "postal": "M4C2B5",
    "result": [
      {
        "electoralDistricts": [
          {
            "election": null,
            "id": 7,
            "name": "Beaches—East York"
          }
        ],
        "pollDivisionIds": [
          10137057,
          10137040
        ],
        "postalCode": "M4C2B5",
        "streetName": "QUEENSDALE",
        "streetDirectionId": null,
        "streetTypeId": "AVE",
        "placeName": "EAST YORK",
        "streetNameDisplayText": "QUEENSDALE AVE, EAST YORK"
      }
    ]
  },
  {
    "postal": "M4C3H1",
    "result": [
      {
        "electoralDistricts": [
          {
            "election": null,
            "id": 7,
            "name": "Beaches—East York"
          }
        ],
        "pollDivisionIds": [
          10137036
        ],
        "postalCode": "M4C3H1",
        "streetName": "FAIRSIDE",
        "streetDirectionId": null,
        "streetTypeId": "AVE",
        "placeName": "EAST YORK",
        "streetNameDisplayText": "FAIRSIDE AVE, EAST YORK"
      }
    ]
  },
  {
    "postal": "M4C4Y1",
    "result": [
      {
        "electoralDistricts": [
          {
            "election": null,
            "id": 7,
            "name": "Beaches—East York"
          }
        ],
        "pollDivisionIds": [
          10137042
        ],
        "postalCode": "M4C4Y1",
        "streetName": "MAIN",
        "streetDirectionId": null,
        "streetTypeId": "ST",
        "placeName": "EAST YORK",
        "streetNameDisplayText": "MAIN ST, EAST YORK"
      }
    ]
  },
  {
    "postal": "M4C7E2",
    "result": []
  },
  {
    "postal": "M4C2P5",
    "result": [
      {
        "electoralDistricts": [
          {
            "election": null,
            "id": 7,
            "name": "Beaches—East York"
          }
        ],
        "pollDivisionIds": [
          10137037
        ],
        "postalCode": "M4C2P5",
        "streetName": "BARKER",
        "streetDirectionId": null,
        "streetTypeId": "AVE",
        "placeName": "EAST YORK",
        "streetNameDisplayText": "BARKER AVE, EAST YORK"
      }
    ]
  },
  {
    "postal": "M4C8R7",
    "result": []
  },
  {
    "postal": "M4C9P1",
    "result": []
  },
  {
    "postal": "M4C3B8",
    "result": [
      {
        "electoralDistricts": [
          {
            "election": null,
            "id": 7,
            "name": "Beaches—East York"
          }
        ],
        "pollDivisionIds": [
          10137045
        ],
        "postalCode": "M4C3B8",
        "streetName": "COXWELL",
        "streetDirectionId": null,
        "streetTypeId": "AVE",
        "placeName": "TORONTO",
        "streetNameDisplayText": "COXWELL AVE, TORONTO"
      }
    ]
  },
  {
    "postal": "M4C3P7",
    "result": [
      {
        "electoralDistricts": [
          {
            "election": null,
            "id": 7,
            "name": "Beaches—East York"
          }
        ],
        "pollDivisionIds": [
          10137036
        ],
        "postalCode": "M4C3P7",
        "streetName": "ROBLIN",
        "streetDirectionId": null,
        "streetTypeId": "AVE",
        "placeName": "EAST YORK",
        "streetNameDisplayText": "ROBLIN AVE, EAST YORK"
      }
    ]
  },
  {
    "postal": "M4C9B2",
    "result": []
  },
  {
    "postal": "M4C6Z3",
    "result": []
  },
  {
    "postal": "M4C4N5",
    "result": [
      {
        "electoralDistricts": [
          {
            "election": null,
            "id": 7,
            "name": "Beaches—East York"
          }
        ],
        "pollDivisionIds": [
          10137037
        ],
        "postalCode": "M4C4N5",
        "streetName": "OAK PARK",
        "streetDirectionId": null,
        "streetTypeId": "AVE",
        "placeName": "EAST YORK",
        "streetNameDisplayText": "OAK PARK AVE, EAST YORK"
      }
    ]
  },
  {
    "postal": "M4C8T3",
    "result": []
  },
  {
    "postal": "M4C1V2",
    "result": [
      {
        "electoralDistricts": [
          {
            "election": null,
            "id": 7,
            "name": "Beaches—East York"
          }
        ],
        "pollDivisionIds": [
          10137040
        ],
        "postalCode": "M4C1V2",
        "streetName": "GLEBEHOLME",
        "streetDirectionId": null,
        "streetTypeId": "BLVD",
        "placeName": "TORONTO",
        "streetNameDisplayText": "GLEBEHOLME BLVD, TORONTO"
      }
    ]
  },
  {
    "postal": "M4C1Y0",
    "result": []
  },
  {
    "postal": "M4C3G6",
    "result": [
      {
        "electoralDistricts": [
          {
            "election": null,
            "id": 7,
            "name": "Beaches—East York"
          }
        ],
        "pollDivisionIds": [
          10137033
        ],
        "postalCode": "M4C3G6",
        "streetName": "COXWELL",
        "streetDirectionId": null,
        "streetTypeId": "BLVD",
        "placeName": "EAST YORK",
        "streetNameDisplayText": "COXWELL BLVD, EAST YORK"
      }
    ]
  },
  {
    "postal": "M4C3H7",
    "result": [
      {
        "electoralDistricts": [
          {
            "election": null,
            "id": 7,
            "name": "Beaches—East York"
          }
        ],
        "pollDivisionIds": [
          10137048
        ],
        "postalCode": "M4C3H7",
        "streetName": "HILLINGDON",
        "streetDirectionId": null,
        "streetTypeId": "AVE",
        "placeName": "TORONTO",
        "streetNameDisplayText": "HILLINGDON AVE, TORONTO"
      }
    ]
  },
  {
    "postal": "M4C7X8",
    "result": []
  },
  {
    "postal": "M4C0C7",
    "result": []
  },
  {
    "postal": "M4C0W9",
    "result": []
  },
  {
    "postal": "M4C8E6",
    "result": []
  },
  {
    "postal": "M4C9Z8",
    "result": []
  },
  {
    "postal": "M4C3P4",
    "result": [
      {
        "electoralDistricts": [
          {
            "election": null,
            "id": 7,
            "name": "Beaches—East York"
          }
        ],
        "pollDivisionIds": [
          10137048
        ],
        "postalCode": "M4C3P4",
        "streetName": "ROSEHEATH",
        "streetDirectionId": null,
        "streetTypeId": "AVE",
        "placeName": "TORONTO",
        "streetNameDisplayText": "ROSEHEATH AVE, TORONTO"
      }
    ]
  },
  {
    "postal": "M4C6L8",
    "result": []
  },
  {
    "postal": "M4C2R4",
    "result": [
      {
        "electoralDistricts": [
          {
            "election": null,
            "id": 7,
            "name": "Beaches—East York"
          }
        ],
        "pollDivisionIds": [
          10137036
        ],
        "postalCode": "M4C2R4",
        "streetName": "HOLBORNE",
        "streetDirectionId": null,
        "streetTypeId": "AVE",
        "placeName": "EAST YORK",
        "streetNameDisplayText": "HOLBORNE AVE, EAST YORK"
      }
    ]
  },
  {
    "postal": "M4C2W1",
    "result": [
      {
        "electoralDistricts": [
          {
            "election": null,
            "id": 7,
            "name": "Beaches—East York"
          }
        ],
        "pollDivisionIds": [
          10137036
        ],
        "postalCode": "M4C2W1",
        "streetName": "COSBURN",
        "streetDirectionId": null,
        "streetTypeId": "AVE",
        "placeName": "EAST YORK",
        "streetNameDisplayText": "COSBURN AVE, EAST YORK"
      }
    ]
  },
  {
    "postal": "M4C9H8",
    "result": []
  },
  {
    "postal": "M4C8X9",
    "result": []
  },
  {
    "postal": "M4C7H4",
    "result": []
  },
  {
    "postal": "M4C3J1",
    "result": [
      {
        "electoralDistricts": [
          {
            "election": null,
            "id": 7,
            "name": "Beaches—East York"
          }
        ],
        "pollDivisionIds": [
          10137045
        ],
        "postalCode": "M4C3J1",
        "streetName": "HILLINGDON",
        "streetDirectionId": null,
        "streetTypeId": "AVE",
        "placeName": "TORONTO",
        "streetNameDisplayText": "HILLINGDON AVE, TORONTO"
      }
    ]
  },
  {
    "postal": "M4C1P4",
    "result": [
      {
        "electoralDistricts": [
          {
            "election": null,
            "id": 7,
            "name": "Beaches—East York"
          }
        ],
        "pollDivisionIds": [
          10137041
        ],
        "postalCode": "M4C1P4",
        "streetName": "HARRIS",
        "streetDirectionId": null,
        "streetTypeId": "AVE",
        "placeName": "TORONTO",
        "streetNameDisplayText": "HARRIS AVE, TORONTO"
      }
    ]
  },
  {
    "postal": "M4C2A3",
    "result": [
      {
        "electoralDistricts": [
          {
            "election": null,
            "id": 7,
            "name": "Beaches—East York"
          }
        ],
        "pollDivisionIds": [
          10137040
        ],
        "postalCode": "M4C2A3",
        "streetName": "SPRINGDALE",
        "streetDirectionId": null,
        "streetTypeId": "BLVD",
        "placeName": "EAST YORK",
        "streetNameDisplayText": "SPRINGDALE BLVD, EAST YORK"
      }
    ]
  },
  {
    "postal": "M4C0Z1",
    "result": []
  },
  {
    "postal": "M4C1C1",
    "result": [
      {
        "electoralDistricts": [
          {
            "election": null,
            "id": 7,
            "name": "Beaches—East York"
          }
        ],
        "pollDivisionIds": [
          10137041
        ],
        "postalCode": "M4C1C1",
        "streetName": "OAKCREST",
        "streetDirectionId": null,
        "streetTypeId": "AVE",
        "placeName": "TORONTO",
        "streetNameDisplayText": "OAKCREST AVE, TORONTO"
      }
    ]
  },
  {
    "postal": "M4C0H3",
    "result": []
  },
  {
    "postal": "M4C7B0",
    "result": []
  },
  {
    "postal": "M4C5K2",
    "result": [
      {
        "electoralDistricts": [
          {
            "election": null,
            "id": 7,
            "name": "Beaches—East York"
          }
        ],
        "pollDivisionIds": [
          10137041
        ],
        "postalCode": "M4C5K2",
        "streetName": "PATRICIA",
        "streetDirectionId": null,
        "streetTypeId": "DR",
        "placeName": "TORONTO",
        "streetNameDisplayText": "PATRICIA DR, TORONTO"
      }
    ]
  },
  {
    "postal": "M4C1E9",
    "result": [
      {
        "electoralDistricts": [
          {
            "election": null,
            "id": 7,
            "name": "Beaches—East York"
          }
        ],
        "pollDivisionIds": [
          10137041
        ],
        "postalCode": "M4C1E9",
        "streetName": "STEPHENSON",
        "streetDirectionId": null,
        "streetTypeId": "AVE",
        "placeName": "TORONTO",
        "streetNameDisplayText": "STEPHENSON AVE, TORONTO"
      }
    ]
  },
  {
    "postal": "M4C9W7",
    "result": []
  },
  {
    "postal": "M4C5W6",
    "result": []
  },
  {
    "postal": "M4C6S6",
    "result": []
  },
  {
    "postal": "M4C2P8",
    "result": [
      {
        "electoralDistricts": [
          {
            "election": null,
            "id": 7,
            "name": "Beaches—East York"
          }
        ],
        "pollDivisionIds": [
          10137036
        ],
        "postalCode": "M4C2P8",
        "streetName": "HOLBORNE",
        "streetDirectionId": null,
        "streetTypeId": "AVE",
        "placeName": "EAST YORK",
        "streetNameDisplayText": "HOLBORNE AVE, EAST YORK"
      }
    ]
  },
  {
    "postal": "M4C4P8",
    "result": [
      {
        "electoralDistricts": [
          {
            "election": null,
            "id": 7,
            "name": "Beaches—East York"
          }
        ],
        "pollDivisionIds": [
          10137041
        ],
        "postalCode": "M4C4P8",
        "streetName": "WESTLAKE",
        "streetDirectionId": null,
        "streetTypeId": "AVE",
        "placeName": "TORONTO",
        "streetNameDisplayText": "WESTLAKE AVE, TORONTO"
      }
    ]
  },
  {
    "postal": "M4C0V9",
    "result": []
  },
  {
    "postal": "M4C5Y2",
    "result": []
  },
  {
    "postal": "M4C7Z7",
    "result": []
  },
  {
    "postal": "M4C6Y8",
    "result": []
  },
  {
    "postal": "M4C2G7",
    "result": [
      {
        "electoralDistricts": [
          {
            "election": null,
            "id": 7,
            "name": "Beaches—East York"
          }
        ],
        "pollDivisionIds": [
          10137043
        ],
        "postalCode": "M4C2G7",
        "streetName": "GOODWOOD PARK",
        "streetDirectionId": null,
        "streetTypeId": "CRES",
        "placeName": "EAST YORK",
        "streetNameDisplayText": "GOODWOOD PARK CRES, EAST YORK"
      },
      {
        "electoralDistricts": [
          {
            "election": null,
            "id": 7,
            "name": "Beaches—East York"
          }
        ],
        "pollDivisionIds": [
          10137043
        ],
        "postalCode": "M4C2G7",
        "streetName": "GOODWOOD PARK",
        "streetDirectionId": null,
        "streetTypeId": "CRT",
        "placeName": "EAST YORK",
        "streetNameDisplayText": "GOODWOOD PARK CRT, EAST YORK"
      }
    ]
  },
  {
    "postal": "M4C8C1",
    "result": []
  },
  {
    "postal": "M4C5C5",
    "result": [
      {
        "electoralDistricts": [
          {
            "election": null,
            "id": 7,
            "name": "Beaches—East York"
          }
        ],
        "pollDivisionIds": [
          10137047
        ],
        "postalCode": "M4C5C5",
        "streetName": "TRENT",
        "streetDirectionId": null,
        "streetTypeId": "AVE",
        "placeName": "TORONTO",
        "streetNameDisplayText": "TRENT AVE, TORONTO"
      }
    ]
  },
  {
    "postal": "M4C2X8",
    "result": []
  },
  {
    "postal": "M4C1W5",
    "result": [
      {
        "electoralDistricts": [
          {
            "election": null,
            "id": 7,
            "name": "Beaches—East York"
          }
        ],
        "pollDivisionIds": [
          10137037
        ],
        "postalCode": "M4C1W5",
        "streetName": "GATWICK",
        "streetDirectionId": null,
        "streetTypeId": "AVE",
        "placeName": "EAST YORK",
        "streetNameDisplayText": "GATWICK AVE, EAST YORK"
      }
    ]
  },
  {
    "postal": "M4C7G0",
    "result": []
  },
  {
    "postal": "M4C8J8",
    "result": []
  },
  {
    "postal": "M4C3Y0",
    "result": []
  },
  {
    "postal": "M4C9T7",
    "result": []
  },
  {
    "postal": "M4C5P4",
    "result": [
      {
        "electoralDistricts": [
          {
            "election": null,
            "id": 7,
            "name": "Beaches—East York"
          }
        ],
        "pollDivisionIds": [
          10137048
        ],
        "postalCode": "M4C5P4",
        "streetName": "COATSWORTH",
        "streetDirectionId": null,
        "streetTypeId": "CRES",
        "placeName": "TORONTO",
        "streetNameDisplayText": "COATSWORTH CRES, TORONTO"
      }
    ]
  },
  {
    "postal": "M4C4B0",
    "result": []
  },
  {
    "postal": "M4C9N8",
    "result": []
  },
  {
    "postal": "M4C4A7",
    "result": [
      {
        "electoralDistricts": [
          {
            "election": null,
            "id": 7,
            "name": "Beaches—East York"
          }
        ],
        "pollDivisionIds": [
          10137045
        ],
        "postalCode": "M4C4A7",
        "streetName": "MOBERLY",
        "streetDirectionId": null,
        "streetTypeId": "AVE",
        "placeName": "TORONTO",
        "streetNameDisplayText": "MOBERLY AVE, TORONTO"
      }
    ]
  },
  {
    "postal": "M4C4H9",
    "result": [
      {
        "electoralDistricts": [
          {
            "election": null,
            "id": 7,
            "name": "Beaches—East York"
          }
        ],
        "pollDivisionIds": [
          10137037
        ],
        "postalCode": "M4C4H9",
        "streetName": "COLERIDGE",
        "streetDirectionId": null,
        "streetTypeId": "AVE",
        "placeName": "EAST YORK",
        "streetNameDisplayText": "COLERIDGE AVE, EAST YORK"
      }
    ]
  },
  {
    "postal": "M4C6X1",
    "result": []
  },
  {
    "postal": "M4C9Y7",
    "result": []
  },
  {
    "postal": "M4C2Y5",
    "result": [
      {
        "electoralDistricts": [
          {
            "election": null,
            "id": 7,
            "name": "Beaches—East York"
          }
        ],
        "pollDivisionIds": [
          10137036
        ],
        "postalCode": "M4C2Y5",
        "streetName": "PLAINS",
        "streetDirectionId": null,
        "streetTypeId": "RD",
        "placeName": "EAST YORK",
        "streetNameDisplayText": "PLAINS RD, EAST YORK"
      }
    ]
  },
  {
    "postal": "M4C8L7",
    "result": []
  },
  {
    "postal": "M4C2A8",
    "result": [
      {
        "electoralDistricts": [
          {
            "election": null,
            "id": 7,
            "name": "Beaches—East York"
          }
        ],
        "pollDivisionIds": [
          10137037
        ],
        "postalCode": "M4C2A8",
        "streetName": "EPSOM",
        "streetDirectionId": null,
        "streetTypeId": "AVE",
        "placeName": "EAST YORK",
        "streetNameDisplayText": "EPSOM AVE, EAST YORK"
      }
    ]
  },
  {
    "postal": "M4C2K9",
    "result": [
      {
        "electoralDistricts": [
          {
            "election": null,
            "id": 7,
            "name": "Beaches—East York"
          }
        ],
        "pollDivisionIds": [
          10137037
        ],
        "postalCode": "M4C2K9",
        "streetName": "LUMSDEN",
        "streetDirectionId": null,
        "streetTypeId": "AVE",
        "placeName": "EAST YORK",
        "streetNameDisplayText": "LUMSDEN AVE, EAST YORK"
      }
    ]
  },
  {
    "postal": "M4C3E5",
    "result": [
      {
        "electoralDistricts": [
          {
            "election": null,
            "id": 7,
            "name": "Beaches—East York"
          }
        ],
        "pollDivisionIds": [
          10137040
        ],
        "postalCode": "M4C3E5",
        "streetName": "COXWELL",
        "streetDirectionId": null,
        "streetTypeId": "AVE",
        "placeName": "EAST YORK",
        "streetNameDisplayText": "COXWELL AVE, EAST YORK"
      }
    ]
  },
  {
    "postal": "M4C8N6",
    "result": []
  },
  {
    "postal": "M4C8J4",
    "result": []
  },
  {
    "postal": "M4C4R7",
    "result": [
      {
        "electoralDistricts": [
          {
            "election": null,
            "id": 7,
            "name": "Beaches—East York"
          }
        ],
        "pollDivisionIds": [
          10137041
        ],
        "postalCode": "M4C4R7",
        "streetName": "WESTLAKE",
        "streetDirectionId": null,
        "streetTypeId": "AVE",
        "placeName": "TORONTO",
        "streetNameDisplayText": "WESTLAKE AVE, TORONTO"
      }
    ]
  },
  {
    "postal": "M4C9K1",
    "result": []
  },
  {
    "postal": "M4C8E1",
    "result": []
  },
  {
    "postal": "M4C0R1",
    "result": []
  },
  {
    "postal": "M4C4J3",
    "result": [
      {
        "electoralDistricts": [
          {
            "election": null,
            "id": 7,
            "name": "Beaches—East York"
          }
        ],
        "pollDivisionIds": [
          10137037
        ],
        "postalCode": "M4C4J3",
        "streetName": "RUMNEY",
        "streetDirectionId": null,
        "streetTypeId": "RD",
        "placeName": "EAST YORK",
        "streetNameDisplayText": "RUMNEY RD, EAST YORK"
      }
    ]
  },
  {
    "postal": "M4C7E7",
    "result": []
  },
  {
    "postal": "M4C0J0",
    "result": []
  },
  {
    "postal": "M4C7R8",
    "result": []
  },
  {
    "postal": "M4C9X0",
    "result": []
  },
  {
    "postal": "M4C7P6",
    "result": []
  },
  {
    "postal": "M4C0R7",
    "result": []
  },
  {
    "postal": "M4C5W1",
    "result": []
  },
  {
    "postal": "M4C0K4",
    "result": []
  },
  {
    "postal": "M4C7N9",
    "result": []
  },
  {
    "postal": "M4C1N0",
    "result": []
  },
  {
    "postal": "M4C6P3",
    "result": []
  },
  {
    "postal": "M4C5A1",
    "result": [
      {
        "electoralDistricts": [
          {
            "election": null,
            "id": 7,
            "name": "Beaches—East York"
          }
        ],
        "pollDivisionIds": [
          10137042
        ],
        "postalCode": "M4C5A1",
        "streetName": "EASTDALE",
        "streetDirectionId": null,
        "streetTypeId": "AVE",
        "placeName": "EAST YORK",
        "streetNameDisplayText": "EASTDALE AVE, EAST YORK"
      }
    ]
  },
  {
    "postal": "M4C9M9",
    "result": []
  },
  {
    "postal": "M4C7T6",
    "result": []
  },
  {
    "postal": "M4C3X0",
    "result": []
  },
  {
    "postal": "M4C2T0",
    "result": []
  },
  {
    "postal": "M4C5X9",
    "result": []
  },
  {
    "postal": "M4C2R3",
    "result": [
      {
        "electoralDistricts": [
          {
            "election": null,
            "id": 7,
            "name": "Beaches—East York"
          }
        ],
        "pollDivisionIds": [
          10137036
        ],
        "postalCode": "M4C2R3",
        "streetName": "HOLBORNE",
        "streetDirectionId": null,
        "streetTypeId": "AVE",
        "placeName": "EAST YORK",
        "streetNameDisplayText": "HOLBORNE AVE, EAST YORK"
      }
    ]
  },
  {
    "postal": "M4C5N2",
    "result": [
      {
        "electoralDistricts": [
          {
            "election": null,
            "id": 7,
            "name": "Beaches—East York"
          }
        ],
        "pollDivisionIds": [
          10137042
        ],
        "postalCode": "M4C5N2",
        "streetName": "LUMSDEN",
        "streetDirectionId": null,
        "streetTypeId": "AVE",
        "placeName": "EAST YORK",
        "streetNameDisplayText": "LUMSDEN AVE, EAST YORK"
      }
    ]
  },
  {
    "postal": "M4C4Y7",
    "result": [
      {
        "electoralDistricts": [
          {
            "election": null,
            "id": 7,
            "name": "Beaches—East York"
          }
        ],
        "pollDivisionIds": [
          10137042
        ],
        "postalCode": "M4C4Y7",
        "streetName": "BARRINGTON",
        "streetDirectionId": null,
        "streetTypeId": "AVE",
        "placeName": "TORONTO",
        "streetNameDisplayText": "BARRINGTON AVE, TORONTO"
      }
    ]
  },
  {
    "postal": "M4C7M0",
    "result": []
  },
  {
    "postal": "M4C8P3",
    "result": []
  },
  {
    "postal": "M4C3N3",
    "result": [
      {
        "electoralDistricts": [
          {
            "election": null,
            "id": 7,
            "name": "Beaches—East York"
          }
        ],
        "pollDivisionIds": [
          10137036
        ],
        "postalCode": "M4C3N3",
        "streetName": "BINSWOOD",
        "streetDirectionId": null,
        "streetTypeId": "AVE",
        "placeName": "EAST YORK",
        "streetNameDisplayText": "BINSWOOD AVE, EAST YORK"
      }
    ]
  },
  {
    "postal": "M4C7S3",
    "result": []
  },
  {
    "postal": "M4C3V9",
    "result": [
      {
        "electoralDistricts": [
          {
            "election": null,
            "id": 7,
            "name": "Beaches—East York"
          }
        ],
        "pollDivisionIds": [
          10137045
        ],
        "postalCode": "M4C3V9",
        "streetName": "WEST LYNN",
        "streetDirectionId": null,
        "streetTypeId": "AVE",
        "placeName": "TORONTO",
        "streetNameDisplayText": "WEST LYNN AVE, TORONTO"
      }
    ]
  },
  {
    "postal": "M4C9N7",
    "result": []
  },
  {
    "postal": "M4C0G4",
    "result": []
  },
  {
    "postal": "M4C2E2",
    "result": [
      {
        "electoralDistricts": [
          {
            "election": null,
            "id": 7,
            "name": "Beaches—East York"
          }
        ],
        "pollDivisionIds": [
          10137036
        ],
        "postalCode": "M4C2E2",
        "streetName": "SAMMON",
        "streetDirectionId": null,
        "streetTypeId": "AVE",
        "placeName": "EAST YORK",
        "streetNameDisplayText": "SAMMON AVE, EAST YORK"
      }
    ]
  },
  {
    "postal": "M4C7W8",
    "result": []
  },
  {
    "postal": "M4C7M5",
    "result": []
  },
  {
    "postal": "M4C5W8",
    "result": []
  },
  {
    "postal": "M4C5E5",
    "result": [
      {
        "electoralDistricts": [
          {
            "election": null,
            "id": 7,
            "name": "Beaches—East York"
          }
        ],
        "pollDivisionIds": [
          10137043
        ],
        "postalCode": "M4C5E5",
        "streetName": "AVONLEA",
        "streetDirectionId": null,
        "streetTypeId": "BLVD",
        "placeName": "EAST YORK",
        "streetNameDisplayText": "AVONLEA BLVD, EAST YORK"
      }
    ]
  },
  {
    "postal": "M4C1P9",
    "result": [
      {
        "electoralDistricts": [
          {
            "election": null,
            "id": 7,
            "name": "Beaches—East York"
          }
        ],
        "pollDivisionIds": [
          10137047
        ],
        "postalCode": "M4C1P9",
        "streetName": "COLEMAN",
        "streetDirectionId": null,
        "streetTypeId": "AVE",
        "placeName": "TORONTO",
        "streetNameDisplayText": "COLEMAN AVE, TORONTO"
      },
      {
        "electoralDistricts": [
          {
            "election": null,
            "id": 7,
            "name": "Beaches—East York"
          }
        ],
        "pollDivisionIds": [
          10137047
        ],
        "postalCode": "M4C1P9",
        "streetName": "DAWES",
        "streetDirectionId": null,
        "streetTypeId": "RD",
        "placeName": "TORONTO",
        "streetNameDisplayText": "DAWES RD, TORONTO"
      }
    ]
  },
  {
    "postal": "M4C8V8",
    "result": []
  },
  {
    "postal": "M4C9G8",
    "result": []
  },
  {
    "postal": "M4C8H9",
    "result": []
  },
  {
    "postal": "M4C1Z1",
    "result": [
      {
        "electoralDistricts": [
          {
            "election": null,
            "id": 7,
            "name": "Beaches—East York"
          }
        ],
        "pollDivisionIds": [
          10137043
        ],
        "postalCode": "M4C1Z1",
        "streetName": "ROSEVEAR",
        "streetDirectionId": null,
        "streetTypeId": "AVE",
        "placeName": "EAST YORK",
        "streetNameDisplayText": "ROSEVEAR AVE, EAST YORK"
      }
    ]
  },
  {
    "postal": "M4C8M3",
    "result": []
  },
  {
    "postal": "M4C5H6",
    "result": []
  },
  {
    "postal": "M4C7W7",
    "result": []
  },
  {
    "postal": "M4C4L0",
    "result": []
  },
  {
    "postal": "M4C2N1",
    "result": [
      {
        "electoralDistricts": [
          {
            "election": null,
            "id": 7,
            "name": "Beaches—East York"
          }
        ],
        "pollDivisionIds": [
          10137037
        ],
        "postalCode": "M4C2N1",
        "streetName": "WALLINGTON",
        "streetDirectionId": null,
        "streetTypeId": "AVE",
        "placeName": "EAST YORK",
        "streetNameDisplayText": "WALLINGTON AVE, EAST YORK"
      }
    ]
  },
  {
    "postal": "M4C2H4",
    "result": [
      {
        "electoralDistricts": [
          {
            "election": null,
            "id": 7,
            "name": "Beaches—East York"
          }
        ],
        "pollDivisionIds": [
          10137036
        ],
        "postalCode": "M4C2H4",
        "streetName": "FRATER",
        "streetDirectionId": null,
        "streetTypeId": "AVE",
        "placeName": "EAST YORK",
        "streetNameDisplayText": "FRATER AVE, EAST YORK"
      }
    ]
  },
  {
    "postal": "M4C5C8",
    "result": [
      {
        "electoralDistricts": [
          {
            "election": null,
            "id": 7,
            "name": "Beaches—East York"
          }
        ],
        "pollDivisionIds": [
          10137047
        ],
        "postalCode": "M4C5C8",
        "streetName": "KELVIN",
        "streetDirectionId": null,
        "streetTypeId": "AVE",
        "placeName": "TORONTO",
        "streetNameDisplayText": "KELVIN AVE, TORONTO"
      }
    ]
  },
  {
    "postal": "M4C8B0",
    "result": []
  },
  {
    "postal": "M4C1T4",
    "result": [
      {
        "electoralDistricts": [
          {
            "election": null,
            "id": 7,
            "name": "Beaches—East York"
          }
        ],
        "pollDivisionIds": [
          10137047
        ],
        "postalCode": "M4C1T4",
        "streetName": "BALFOUR",
        "streetDirectionId": null,
        "streetTypeId": "AVE",
        "placeName": "TORONTO",
        "streetNameDisplayText": "BALFOUR AVE, TORONTO"
      }
    ]
  },
  {
    "postal": "M4C7N7",
    "result": []
  },
  {
    "postal": "M4C4L3",
    "result": [
      {
        "electoralDistricts": [
          {
            "election": null,
            "id": 7,
            "name": "Beaches—East York"
          }
        ],
        "pollDivisionIds": [
          10137037
        ],
        "postalCode": "M4C4L3",
        "streetName": "GLEDHILL",
        "streetDirectionId": null,
        "streetTypeId": "AVE",
        "placeName": "EAST YORK",
        "streetNameDisplayText": "GLEDHILL AVE, EAST YORK"
      }
    ]
  },
  {
    "postal": "M4C2N2",
    "result": [
      {
        "electoralDistricts": [
          {
            "election": null,
            "id": 7,
            "name": "Beaches—East York"
          }
        ],
        "pollDivisionIds": [
          10137037
        ],
        "postalCode": "M4C2N2",
        "streetName": "WALLINGTON",
        "streetDirectionId": null,
        "streetTypeId": "AVE",
        "placeName": "EAST YORK",
        "streetNameDisplayText": "WALLINGTON AVE, EAST YORK"
      }
    ]
  },
  {
    "postal": "M4C4N8",
    "result": [
      {
        "electoralDistricts": [
          {
            "election": null,
            "id": 7,
            "name": "Beaches—East York"
          }
        ],
        "pollDivisionIds": [
          10137041
        ],
        "postalCode": "M4C4N8",
        "streetName": "MORTON",
        "streetDirectionId": null,
        "streetTypeId": "RD",
        "placeName": "TORONTO",
        "streetNameDisplayText": "MORTON RD, TORONTO"
      }
    ]
  },
  {
    "postal": "M4C3M5",
    "result": [
      {
        "electoralDistricts": [
          {
            "election": null,
            "id": 7,
            "name": "Beaches—East York"
          }
        ],
        "pollDivisionIds": [
          10137036
        ],
        "postalCode": "M4C3M5",
        "streetName": "MACHOCKIE",
        "streetDirectionId": null,
        "streetTypeId": "RD",
        "placeName": "EAST YORK",
        "streetNameDisplayText": "MACHOCKIE RD, EAST YORK"
      }
    ]
  },
  {
    "postal": "M4C6H7",
    "result": []
  },
  {
    "postal": "M4C8Y8",
    "result": []
  },
  {
    "postal": "M4C5R9",
    "result": [
      {
        "electoralDistricts": [
          {
            "election": null,
            "id": 7,
            "name": "Beaches—East York"
          }
        ],
        "pollDivisionIds": [
          10137047
        ],
        "postalCode": "M4C5R9",
        "streetName": "TRENT",
        "streetDirectionId": null,
        "streetTypeId": "AVE",
        "placeName": "TORONTO",
        "streetNameDisplayText": "TRENT AVE, TORONTO"
      }
    ]
  },
  {
    "postal": "M4C8G3",
    "result": []
  },
  {
    "postal": "M4C4N7",
    "result": [
      {
        "electoralDistricts": [
          {
            "election": null,
            "id": 7,
            "name": "Beaches—East York"
          }
        ],
        "pollDivisionIds": [
          10137041
        ],
        "postalCode": "M4C4N7",
        "streetName": "MORTON",
        "streetDirectionId": null,
        "streetTypeId": "RD",
        "placeName": "EAST YORK",
        "streetNameDisplayText": "MORTON RD, EAST YORK"
      },
      {
        "electoralDistricts": [
          {
            "election": null,
            "id": 7,
            "name": "Beaches—East York"
          }
        ],
        "pollDivisionIds": [
          10137041
        ],
        "postalCode": "M4C4N7",
        "streetName": "MORTON",
        "streetDirectionId": null,
        "streetTypeId": "RD",
        "placeName": "TORONTO",
        "streetNameDisplayText": "MORTON RD, TORONTO"
      }
    ]
  },
  {
    "postal": "M4C0B9",
    "result": []
  },
  {
    "postal": "M4C9K7",
    "result": []
  },
  {
    "postal": "M4C9K9",
    "result": []
  },
  {
    "postal": "M4C3Z2",
    "result": [
      {
        "electoralDistricts": [
          {
            "election": null,
            "id": 7,
            "name": "Beaches—East York"
          }
        ],
        "pollDivisionIds": [
          10137040
        ],
        "postalCode": "M4C3Z2",
        "streetName": "WOODMOUNT",
        "streetDirectionId": null,
        "streetTypeId": "AVE",
        "placeName": "EAST YORK",
        "streetNameDisplayText": "WOODMOUNT AVE, EAST YORK"
      }
    ]
  },
  {
    "postal": "M4C6W7",
    "result": []
  },
  {
    "postal": "M4C0P1",
    "result": []
  },
  {
    "postal": "M4C3A0",
    "result": []
  },
  {
    "postal": "M4C8L9",
    "result": []
  },
  {
    "postal": "M4C6X0",
    "result": []
  },
  {
    "postal": "M4C3E9",
    "result": []
  },
  {
    "postal": "M4C0S5",
    "result": []
  },
  {
    "postal": "M4C1A2",
    "result": []
  },
  {
    "postal": "M4C5V8",
    "result": []
  },
  {
    "postal": "M4C8C5",
    "result": []
  },
  {
    "postal": "M4C6N0",
    "result": []
  },
  {
    "postal": "M4C9E6",
    "result": []
  },
  {
    "postal": "M4C5J7",
    "result": [
      {
        "electoralDistricts": [
          {
            "election": null,
            "id": 7,
            "name": "Beaches—East York"
          }
        ],
        "pollDivisionIds": [
          10137037
        ],
        "postalCode": "M4C5J7",
        "streetName": "KING EDWARD",
        "streetDirectionId": null,
        "streetTypeId": "AVE",
        "placeName": "EAST YORK",
        "streetNameDisplayText": "KING EDWARD AVE, EAST YORK"
      }
    ]
  },
  {
    "postal": "M4C2R2",
    "result": [
      {
        "electoralDistricts": [
          {
            "election": null,
            "id": 7,
            "name": "Beaches—East York"
          }
        ],
        "pollDivisionIds": [
          10137036
        ],
        "postalCode": "M4C2R2",
        "streetName": "HOLBORNE",
        "streetDirectionId": null,
        "streetTypeId": "AVE",
        "placeName": "EAST YORK",
        "streetNameDisplayText": "HOLBORNE AVE, EAST YORK"
      }
    ]
  },
  {
    "postal": "M4C0P5",
    "result": []
  },
  {
    "postal": "M4C5A7",
    "result": [
      {
        "electoralDistricts": [
          {
            "election": null,
            "id": 7,
            "name": "Beaches—East York"
          }
        ],
        "pollDivisionIds": [
          10137047
        ],
        "postalCode": "M4C5A7",
        "streetName": "DAWES",
        "streetDirectionId": null,
        "streetTypeId": "RD",
        "placeName": "TORONTO",
        "streetNameDisplayText": "DAWES RD, TORONTO"
      }
    ]
  },
  {
    "postal": "M4C1G1",
    "result": [
      {
        "electoralDistricts": [
          {
            "election": null,
            "id": 7,
            "name": "Beaches—East York"
          }
        ],
        "pollDivisionIds": [
          10137041
        ],
        "postalCode": "M4C1G1",
        "streetName": "STEPHENSON",
        "streetDirectionId": null,
        "streetTypeId": "AVE",
        "placeName": "EAST YORK",
        "streetNameDisplayText": "STEPHENSON AVE, EAST YORK"
      },
      {
        "electoralDistricts": [
          {
            "election": null,
            "id": 7,
            "name": "Beaches—East York"
          }
        ],
        "pollDivisionIds": [
          10137041
        ],
        "postalCode": "M4C1G1",
        "streetName": "STEPHENSON",
        "streetDirectionId": null,
        "streetTypeId": "AVE",
        "placeName": "TORONTO",
        "streetNameDisplayText": "STEPHENSON AVE, TORONTO"
      }
    ]
  },
  {
    "postal": "M4C9R6",
    "result": []
  },
  {
    "postal": "M4C4Z9",
    "result": [
      {
        "electoralDistricts": [
          {
            "election": null,
            "id": 7,
            "name": "Beaches—East York"
          }
        ],
        "pollDivisionIds": [
          10137042
        ],
        "postalCode": "M4C4Z9",
        "streetName": "EASTDALE",
        "streetDirectionId": null,
        "streetTypeId": "AVE",
        "placeName": "EAST YORK",
        "streetNameDisplayText": "EASTDALE AVE, EAST YORK"
      }
    ]
  },
  {
    "postal": "M4C1V5",
    "result": [
      {
        "electoralDistricts": [
          {
            "election": null,
            "id": 7,
            "name": "Beaches—East York"
          }
        ],
        "pollDivisionIds": [
          10137040
        ],
        "postalCode": "M4C1V5",
        "streetName": "GLEBEHOLME",
        "streetDirectionId": null,
        "streetTypeId": "BLVD",
        "placeName": "TORONTO",
        "streetNameDisplayText": "GLEBEHOLME BLVD, TORONTO"
      }
    ]
  },
  {
    "postal": "M4C9Y5",
    "result": []
  },
  {
    "postal": "M4C1P2",
    "result": [
      {
        "electoralDistricts": [
          {
            "election": null,
            "id": 7,
            "name": "Beaches—East York"
          }
        ],
        "pollDivisionIds": [
          10137041
        ],
        "postalCode": "M4C1P2",
        "streetName": "STRATHMORE",
        "streetDirectionId": null,
        "streetTypeId": "BLVD",
        "placeName": "EAST YORK",
        "streetNameDisplayText": "STRATHMORE BLVD, EAST YORK"
      }
    ]
  },
  {
    "postal": "M4C5X0",
    "result": []
  },
  {
    "postal": "M4C7B8",
    "result": []
  },
  {
    "postal": "M4C0C6",
    "result": []
  },
  {
    "postal": "M4C6G1",
    "result": []
  },
  {
    "postal": "M4C3K3",
    "result": [
      {
        "electoralDistricts": [
          {
            "election": null,
            "id": 7,
            "name": "Beaches—East York"
          }
        ],
        "pollDivisionIds": [
          10137040
        ],
        "postalCode": "M4C3K3",
        "streetName": "WOODINGTON",
        "streetDirectionId": null,
        "streetTypeId": "AVE",
        "placeName": "EAST YORK",
        "streetNameDisplayText": "WOODINGTON AVE, EAST YORK"
      }
    ]
  },
  {
    "postal": "M4C9R0",
    "result": []
  },
  {
    "postal": "M4C4R8",
    "result": [
      {
        "electoralDistricts": [
          {
            "election": null,
            "id": 7,
            "name": "Beaches—East York"
          }
        ],
        "pollDivisionIds": [
          10137041
        ],
        "postalCode": "M4C4R8",
        "streetName": "WESTLAKE",
        "streetDirectionId": null,
        "streetTypeId": "AVE",
        "placeName": "EAST YORK",
        "streetNameDisplayText": "WESTLAKE AVE, EAST YORK"
      }
    ]
  },
  {
    "postal": "M4C5P9",
    "result": [
      {
        "electoralDistricts": [
          {
            "election": null,
            "id": 7,
            "name": "Beaches—East York"
          }
        ],
        "pollDivisionIds": [
          10137048
        ],
        "postalCode": "M4C5P9",
        "streetName": "COATSWORTH",
        "streetDirectionId": null,
        "streetTypeId": "CRES",
        "placeName": "TORONTO",
        "streetNameDisplayText": "COATSWORTH CRES, TORONTO"
      }
    ]
  },
  {
    "postal": "M4C8N4",
    "result": []
  },
  {
    "postal": "M4C8H4",
    "result": []
  },
  {
    "postal": "M4C4V1",
    "result": [
      {
        "electoralDistricts": [
          {
            "election": null,
            "id": 7,
            "name": "Beaches—East York"
          }
        ],
        "pollDivisionIds": [
          10137042
        ],
        "postalCode": "M4C4V1",
        "streetName": "CHISHOLM",
        "streetDirectionId": null,
        "streetTypeId": "AVE",
        "placeName": "TORONTO",
        "streetNameDisplayText": "CHISHOLM AVE, TORONTO"
      }
    ]
  },
  {
    "postal": "M4C1K5",
    "result": [
      {
        "electoralDistricts": [
          {
            "election": null,
            "id": 7,
            "name": "Beaches—East York"
          }
        ],
        "pollDivisionIds": [
          10137041
        ],
        "postalCode": "M4C1K5",
        "streetName": "DANFORTH",
        "streetDirectionId": null,
        "streetTypeId": "AVE",
        "placeName": "TORONTO",
        "streetNameDisplayText": "DANFORTH AVE, TORONTO"
      }
    ]
  },
  {
    "postal": "M4C1Z5",
    "result": [
      {
        "electoralDistricts": [
          {
            "election": null,
            "id": 7,
            "name": "Beaches—East York"
          }
        ],
        "pollDivisionIds": [
          10137043
        ],
        "postalCode": "M4C1Z5",
        "streetName": "ROSEVEAR",
        "streetDirectionId": null,
        "streetTypeId": "AVE",
        "placeName": "EAST YORK",
        "streetNameDisplayText": "ROSEVEAR AVE, EAST YORK"
      }
    ]
  },
  {
    "postal": "M4C9L9",
    "result": []
  },
  {
    "postal": "M4C5L2",
    "result": [
      {
        "electoralDistricts": [
          {
            "election": null,
            "id": 7,
            "name": "Beaches—East York"
          }
        ],
        "pollDivisionIds": [
          10137037
        ],
        "postalCode": "M4C5L2",
        "streetName": "GLEDHILL",
        "streetDirectionId": null,
        "streetTypeId": "AVE",
        "placeName": "EAST YORK",
        "streetNameDisplayText": "GLEDHILL AVE, EAST YORK"
      }
    ]
  },
  {
    "postal": "M4C0M2",
    "result": []
  },
  {
    "postal": "M4C1K8",
    "result": [
      {
        "electoralDistricts": [
          {
            "election": null,
            "id": 7,
            "name": "Beaches—East York"
          }
        ],
        "pollDivisionIds": [
          10137041
        ],
        "postalCode": "M4C1K8",
        "streetName": "DANFORTH",
        "streetDirectionId": null,
        "streetTypeId": "AVE",
        "placeName": "TORONTO",
        "streetNameDisplayText": "DANFORTH AVE, TORONTO"
      }
    ]
  },
  {
    "postal": "M4C3M7",
    "result": [
      {
        "electoralDistricts": [
          {
            "election": null,
            "id": 7,
            "name": "Beaches—East York"
          }
        ],
        "pollDivisionIds": [
          10137048
        ],
        "postalCode": "M4C3M7",
        "streetName": "BASTEDO",
        "streetDirectionId": null,
        "streetTypeId": "AVE",
        "placeName": "TORONTO",
        "streetNameDisplayText": "BASTEDO AVE, TORONTO"
      }
    ]
  },
  {
    "postal": "M4C1B2",
    "result": [
      {
        "electoralDistricts": [
          {
            "election": null,
            "id": 7,
            "name": "Beaches—East York"
          }
        ],
        "pollDivisionIds": [
          10137045
        ],
        "postalCode": "M4C1B2",
        "streetName": "ALDERGROVE",
        "streetDirectionId": null,
        "streetTypeId": "AVE",
        "placeName": "TORONTO",
        "streetNameDisplayText": "ALDERGROVE AVE, TORONTO"
      }
    ]
  },
  {
    "postal": "M4C0H9",
    "result": []
  },
  {
    "postal": "M4C8M4",
    "result": []
  },
  {
    "postal": "M4C2M5",
    "result": [
      {
        "electoralDistricts": [
          {
            "election": null,
            "id": 7,
            "name": "Beaches—East York"
          }
        ],
        "pollDivisionIds": [
          10137036
        ],
        "postalCode": "M4C2M5",
        "streetName": "DUNKIRK",
        "streetDirectionId": null,
        "streetTypeId": "RD",
        "placeName": "EAST YORK",
        "streetNameDisplayText": "DUNKIRK RD, EAST YORK"
      }
    ]
  },
  {
    "postal": "M4C0T9",
    "result": []
  },
  {
    "postal": "M4C3P1",
    "result": [
      {
        "electoralDistricts": [
          {
            "election": null,
            "id": 7,
            "name": "Beaches—East York"
          }
        ],
        "pollDivisionIds": [
          10137036
        ],
        "postalCode": "M4C3P1",
        "streetName": "BINSWOOD",
        "streetDirectionId": null,
        "streetTypeId": "AVE",
        "placeName": "EAST YORK",
        "streetNameDisplayText": "BINSWOOD AVE, EAST YORK"
      }
    ]
  },
  {
    "postal": "M4C1R6",
    "result": [
      {
        "electoralDistricts": [
          {
            "election": null,
            "id": 7,
            "name": "Beaches—East York"
          }
        ],
        "pollDivisionIds": [
          10137047
        ],
        "postalCode": "M4C1R6",
        "streetName": "WEYMOUTH",
        "streetDirectionId": null,
        "streetTypeId": "AVE",
        "placeName": "EAST YORK",
        "streetNameDisplayText": "WEYMOUTH AVE, EAST YORK"
      }
    ]
  },
  {
    "postal": "M4C9V5",
    "result": []
  },
  {
    "postal": "M4C9T0",
    "result": []
  },
  {
    "postal": "M4C0A9",
    "result": []
  },
  {
    "postal": "M4C1M3",
    "result": [
      {
        "electoralDistricts": [
          {
            "election": null,
            "id": 7,
            "name": "Beaches—East York"
          }
        ],
        "pollDivisionIds": [
          10137047
        ],
        "postalCode": "M4C1M3",
        "streetName": "DANFORTH",
        "streetDirectionId": null,
        "streetTypeId": "AVE",
        "placeName": "TORONTO",
        "streetNameDisplayText": "DANFORTH AVE, TORONTO"
      }
    ]
  },
  {
    "postal": "M4C1W8",
    "result": [
      {
        "electoralDistricts": [
          {
            "election": null,
            "id": 7,
            "name": "Beaches—East York"
          }
        ],
        "pollDivisionIds": [
          10137047
        ],
        "postalCode": "M4C1W8",
        "streetName": "DENTONIA PARK",
        "streetDirectionId": null,
        "streetTypeId": "AVE",
        "placeName": "EAST YORK",
        "streetNameDisplayText": "DENTONIA PARK AVE, EAST YORK"
      }
    ]
  },
  {
    "postal": "M4C9J1",
    "result": []
  },
  {
    "postal": "M4C8N5",
    "result": []
  },
  {
    "postal": "M4C5X1",
    "result": []
  },
  {
    "postal": "M4C6S2",
    "result": []
  },
  {
    "postal": "M4C2A2",
    "result": [
      {
        "electoralDistricts": [
          {
            "election": null,
            "id": 7,
            "name": "Beaches—East York"
          }
        ],
        "pollDivisionIds": [
          10137040
        ],
        "postalCode": "M4C2A2",
        "streetName": "SPRINGDALE",
        "streetDirectionId": null,
        "streetTypeId": "BLVD",
        "placeName": "EAST YORK",
        "streetNameDisplayText": "SPRINGDALE BLVD, EAST YORK"
      }
    ]
  },
  {
    "postal": "M4C6A6",
    "result": []
  },
  {
    "postal": "M4C0S3",
    "result": []
  },
  {
    "postal": "M4C3E7",
    "result": [
      {
        "electoralDistricts": [
          {
            "election": null,
            "id": 7,
            "name": "Beaches—East York"
          }
        ],
        "pollDivisionIds": [
          10137065
        ],
        "postalCode": "M4C3E7",
        "streetName": "COXWELL",
        "streetDirectionId": null,
        "streetTypeId": "AVE",
        "placeName": "EAST YORK",
        "streetNameDisplayText": "COXWELL AVE, EAST YORK"
      }
    ]
  },
  {
    "postal": "M4C5R7",
    "result": [
      {
        "electoralDistricts": [
          {
            "election": null,
            "id": 7,
            "name": "Beaches—East York"
          }
        ],
        "pollDivisionIds": [
          10137037
        ],
        "postalCode": "M4C5R7",
        "streetName": "WOODBINE",
        "streetDirectionId": null,
        "streetTypeId": "AV",
        "placeName": "EAST YORK",
        "streetNameDisplayText": "WOODBINE AV, EAST YORK"
      },
      {
        "electoralDistricts": [
          {
            "election": null,
            "id": 7,
            "name": "Beaches—East York"
          }
        ],
        "pollDivisionIds": [
          10137036
        ],
        "postalCode": "M4C5R7",
        "streetName": "WOODBINE",
        "streetDirectionId": null,
        "streetTypeId": "AVE",
        "placeName": "EAST YORK",
        "streetNameDisplayText": "WOODBINE AVE, EAST YORK"
      }
    ]
  },
  {
    "postal": "M4C3R6",
    "result": [
      {
        "electoralDistricts": [
          {
            "election": null,
            "id": 7,
            "name": "Beaches—East York"
          }
        ],
        "pollDivisionIds": [
          10137040
        ],
        "postalCode": "M4C3R6",
        "streetName": "GLEBEMOUNT",
        "streetDirectionId": null,
        "streetTypeId": "AVE",
        "placeName": "TORONTO",
        "streetNameDisplayText": "GLEBEMOUNT AVE, TORONTO"
      }
    ]
  },
  {
    "postal": "M4C6K4",
    "result": []
  },
  {
    "postal": "M4C2W5",
    "result": [
      {
        "electoralDistricts": [
          {
            "election": null,
            "id": 7,
            "name": "Beaches—East York"
          }
        ],
        "pollDivisionIds": [
          10137037
        ],
        "postalCode": "M4C2W5",
        "streetName": "COSBURN",
        "streetDirectionId": null,
        "streetTypeId": "AVE",
        "placeName": "EAST YORK",
        "streetNameDisplayText": "COSBURN AVE, EAST YORK"
      }
    ]
  },
  {
    "postal": "M4C8W4",
    "result": []
  },
  {
    "postal": "M4C9C2",
    "result": []
  },
  {
    "postal": "M4C2C0",
    "result": []
  },
  {
    "postal": "M4C0E1",
    "result": []
  },
  {
    "postal": "M4C1K9",
    "result": [
      {
        "electoralDistricts": [
          {
            "election": null,
            "id": 7,
            "name": "Beaches—East York"
          }
        ],
        "pollDivisionIds": [
          10137041
        ],
        "postalCode": "M4C1K9",
        "streetName": "DANFORTH",
        "streetDirectionId": null,
        "streetTypeId": "AV",
        "placeName": "EAST YORK",
        "streetNameDisplayText": "DANFORTH AV, EAST YORK"
      },
      {
        "electoralDistricts": [
          {
            "election": null,
            "id": 7,
            "name": "Beaches—East York"
          }
        ],
        "pollDivisionIds": [
          10137041
        ],
        "postalCode": "M4C1K9",
        "streetName": "DANFORTH",
        "streetDirectionId": null,
        "streetTypeId": "AV",
        "placeName": "TORONTO",
        "streetNameDisplayText": "DANFORTH AV, TORONTO"
      },
      {
        "electoralDistricts": [
          {
            "election": null,
            "id": 7,
            "name": "Beaches—East York"
          }
        ],
        "pollDivisionIds": [
          10137041
        ],
        "postalCode": "M4C1K9",
        "streetName": "DANFORTH",
        "streetDirectionId": null,
        "streetTypeId": "AVE",
        "placeName": "TORONTO",
        "streetNameDisplayText": "DANFORTH AVE, TORONTO"
      }
    ]
  },
  {
    "postal": "M4C1G7",
    "result": [
      {
        "electoralDistricts": [
          {
            "election": null,
            "id": 7,
            "name": "Beaches—East York"
          }
        ],
        "pollDivisionIds": [
          10137045
        ],
        "postalCode": "M4C1G7",
        "streetName": "WOODROW",
        "streetDirectionId": null,
        "streetTypeId": "AVE",
        "placeName": "TORONTO",
        "streetNameDisplayText": "WOODROW AVE, TORONTO"
      }
    ]
  },
  {
    "postal": "M4C4E9",
    "result": [
      {
        "electoralDistricts": [
          {
            "election": null,
            "id": 7,
            "name": "Beaches—East York"
          }
        ],
        "pollDivisionIds": [
          10137037
        ],
        "postalCode": "M4C4E9",
        "streetName": "WOODBINE",
        "streetDirectionId": null,
        "streetTypeId": "AVE",
        "placeName": "EAST YORK",
        "streetNameDisplayText": "WOODBINE AVE, EAST YORK"
      }
    ]
  },
  {
    "postal": "M4C9P0",
    "result": []
  },
  {
    "postal": "M4C5H3",
    "result": []
  },
  {
    "postal": "M4C9X6",
    "result": []
  },
  {
    "postal": "M4C5N7",
    "result": [
      {
        "electoralDistricts": [
          {
            "election": null,
            "id": 7,
            "name": "Beaches—East York"
          }
        ],
        "pollDivisionIds": [
          10137033
        ],
        "postalCode": "M4C5N7",
        "streetName": "TRIMONTIUM",
        "streetDirectionId": null,
        "streetTypeId": "CRES",
        "placeName": "EAST YORK",
        "streetNameDisplayText": "TRIMONTIUM CRES, EAST YORK"
      }
    ]
  },
  {
    "postal": "M4C5A6",
    "result": [
      {
        "electoralDistricts": [
          {
            "election": null,
            "id": 7,
            "name": "Beaches—East York"
          }
        ],
        "pollDivisionIds": [
          10137043
        ],
        "postalCode": "M4C5A6",
        "streetName": "NEWMAN",
        "streetDirectionId": null,
        "streetTypeId": "AVE",
        "placeName": "EAST YORK",
        "streetNameDisplayText": "NEWMAN AVE, EAST YORK"
      }
    ]
  },
  {
    "postal": "M4C4M0",
    "result": []
  },
  {
    "postal": "M4C3V6",
    "result": [
      {
        "electoralDistricts": [
          {
            "election": null,
            "id": 7,
            "name": "Beaches—East York"
          }
        ],
        "pollDivisionIds": [
          10137036
        ],
        "postalCode": "M4C3V6",
        "streetName": "GLEBEMOUNT",
        "streetDirectionId": null,
        "streetTypeId": "AVE",
        "placeName": "EAST YORK",
        "streetNameDisplayText": "GLEBEMOUNT AVE, EAST YORK"
      }
    ]
  },
  {
    "postal": "M4C1L7",
    "result": [
      {
        "electoralDistricts": [
          {
            "election": null,
            "id": 7,
            "name": "Beaches—East York"
          }
        ],
        "pollDivisionIds": [
          10137042
        ],
        "postalCode": "M4C1L7",
        "streetName": "DANFORTH",
        "streetDirectionId": null,
        "streetTypeId": "AV",
        "placeName": "TORONTO",
        "streetNameDisplayText": "DANFORTH AV, TORONTO"
      },
      {
        "electoralDistricts": [
          {
            "election": null,
            "id": 7,
            "name": "Beaches—East York"
          }
        ],
        "pollDivisionIds": [
          10137047
        ],
        "postalCode": "M4C1L7",
        "streetName": "DANFORTH",
        "streetDirectionId": null,
        "streetTypeId": "AVE",
        "placeName": "TORONTO",
        "streetNameDisplayText": "DANFORTH AVE, TORONTO"
      }
    ]
  },
  {
    "postal": "M4C2P9",
    "result": [
      {
        "electoralDistricts": [
          {
            "election": null,
            "id": 7,
            "name": "Beaches—East York"
          }
        ],
        "pollDivisionIds": [
          10137036
        ],
        "postalCode": "M4C2P9",
        "streetName": "A HOLBORNE",
        "streetDirectionId": null,
        "streetTypeId": "AVE",
        "placeName": "EAST YORK",
        "streetNameDisplayText": "A HOLBORNE AVE, EAST YORK"
      },
      {
        "electoralDistricts": [
          {
            "election": null,
            "id": 7,
            "name": "Beaches—East York"
          }
        ],
        "pollDivisionIds": [
          10137036
        ],
        "postalCode": "M4C2P9",
        "streetName": "HOLBORNE",
        "streetDirectionId": null,
        "streetTypeId": "AVE",
        "placeName": "EAST YORK",
        "streetNameDisplayText": "HOLBORNE AVE, EAST YORK"
      }
    ]
  },
  {
    "postal": "M4C5T4",
    "result": []
  },
  {
    "postal": "M4C5Z1",
    "result": []
  },
  {
    "postal": "M4C2X0",
    "result": []
  },
  {
    "postal": "M4C6Z2",
    "result": []
  },
  {
    "postal": "M4C0E0",
    "result": []
  },
  {
    "postal": "M4C3Z5",
    "result": [
      {
        "electoralDistricts": [
          {
            "election": null,
            "id": 7,
            "name": "Beaches—East York"
          }
        ],
        "pollDivisionIds": [
          10137036
        ],
        "postalCode": "M4C3Z5",
        "streetName": "WOODMOUNT",
        "streetDirectionId": null,
        "streetTypeId": "AVE",
        "placeName": "EAST YORK",
        "streetNameDisplayText": "WOODMOUNT AVE, EAST YORK"
      }
    ]
  },
  {
    "postal": "M4C8H3",
    "result": []
  },
  {
    "postal": "M4C7S6",
    "result": []
  },
  {
    "postal": "M4C4C1",
    "result": [
      {
        "electoralDistricts": [
          {
            "election": null,
            "id": 7,
            "name": "Beaches—East York"
          }
        ],
        "pollDivisionIds": [
          10137040
        ],
        "postalCode": "M4C4C1",
        "streetName": "WOODBINE",
        "streetDirectionId": null,
        "streetTypeId": "AVE",
        "placeName": "EAST YORK",
        "streetNameDisplayText": "WOODBINE AVE, EAST YORK"
      }
    ]
  },
  {
    "postal": "M4C3K2",
    "result": [
      {
        "electoralDistricts": [
          {
            "election": null,
            "id": 7,
            "name": "Beaches—East York"
          }
        ],
        "pollDivisionIds": [
          10137040
        ],
        "postalCode": "M4C3K2",
        "streetName": "WOODINGTON",
        "streetDirectionId": null,
        "streetTypeId": "AVE",
        "placeName": "EAST YORK",
        "streetNameDisplayText": "WOODINGTON AVE, EAST YORK"
      }
    ]
  },
  {
    "postal": "M4C1Y5",
    "result": [
      {
        "electoralDistricts": [
          {
            "election": null,
            "id": 7,
            "name": "Beaches—East York"
          }
        ],
        "pollDivisionIds": [
          10137037
        ],
        "postalCode": "M4C1Y5",
        "streetName": "DONCASTER",
        "streetDirectionId": null,
        "streetTypeId": "AVE",
        "placeName": "EAST YORK",
        "streetNameDisplayText": "DONCASTER AVE, EAST YORK"
      }
    ]
  },
  {
    "postal": "M4C6P6",
    "result": []
  },
  {
    "postal": "M4C3N9",
    "result": [
      {
        "electoralDistricts": [
          {
            "election": null,
            "id": 7,
            "name": "Beaches—East York"
          }
        ],
        "pollDivisionIds": [
          10137036
        ],
        "postalCode": "M4C3N9",
        "streetName": "BINSWOOD",
        "streetDirectionId": null,
        "streetTypeId": "AVE",
        "placeName": "EAST YORK",
        "streetNameDisplayText": "BINSWOOD AVE, EAST YORK"
      }
    ]
  },
  {
    "postal": "M4C3W2",
    "result": [
      {
        "electoralDistricts": [
          {
            "election": null,
            "id": 7,
            "name": "Beaches—East York"
          }
        ],
        "pollDivisionIds": [
          10137045
        ],
        "postalCode": "M4C3W2",
        "streetName": "WEST LYNN",
        "streetDirectionId": null,
        "streetTypeId": "AVE",
        "placeName": "TORONTO",
        "streetNameDisplayText": "WEST LYNN AVE, TORONTO"
      }
    ]
  },
  {
    "postal": "M4C6H8",
    "result": []
  },
  {
    "postal": "M4C9T3",
    "result": []
  },
  {
    "postal": "M4C5L9",
    "result": [
      {
        "electoralDistricts": [
          {
            "election": null,
            "id": 7,
            "name": "Beaches—East York"
          }
        ],
        "pollDivisionIds": [
          10137044
        ],
        "postalCode": "M4C5L9",
        "streetName": "CRESCENT",
        "streetDirectionId": null,
        "streetTypeId": "PL",
        "placeName": "EAST YORK",
        "streetNameDisplayText": "CRESCENT PL, EAST YORK"
      }
    ]
  },
  {
    "postal": "M4C7X7",
    "result": []
  },
  {
    "postal": "M4C3J5",
    "result": [
      {
        "electoralDistricts": [
          {
            "election": null,
            "id": 7,
            "name": "Beaches—East York"
          }
        ],
        "pollDivisionIds": [
          10137040
        ],
        "postalCode": "M4C3J5",
        "streetName": "WOODINGTON",
        "streetDirectionId": null,
        "streetTypeId": "AVE",
        "placeName": "TORONTO",
        "streetNameDisplayText": "WOODINGTON AVE, TORONTO"
      }
    ]
  },
  {
    "postal": "M4C4J5",
    "result": [
      {
        "electoralDistricts": [
          {
            "election": null,
            "id": 7,
            "name": "Beaches—East York"
          }
        ],
        "pollDivisionIds": [
          10137041
        ],
        "postalCode": "M4C4J5",
        "streetName": "CEDARVALE",
        "streetDirectionId": null,
        "streetTypeId": "AVE",
        "placeName": "TORONTO",
        "streetNameDisplayText": "CEDARVALE AVE, TORONTO"
      }
    ]
  },
  {
    "postal": "M4C6J2",
    "result": []
  },
  {
    "postal": "M4C5V6",
    "result": []
  },
  {
    "postal": "M4C3N2",
    "result": [
      {
        "electoralDistricts": [
          {
            "election": null,
            "id": 7,
            "name": "Beaches—East York"
          }
        ],
        "pollDivisionIds": [
          10137045
        ],
        "postalCode": "M4C3N2",
        "streetName": "BASTEDO",
        "streetDirectionId": null,
        "streetTypeId": "AVE",
        "placeName": "TORONTO",
        "streetNameDisplayText": "BASTEDO AVE, TORONTO"
      }
    ]
  },
  {
    "postal": "M4C3B1",
    "result": [
      {
        "electoralDistricts": [
          {
            "election": null,
            "id": 110,
            "name": "Toronto—Danforth"
          }
        ],
        "pollDivisionIds": [
          10142500
        ],
        "postalCode": "M4C3B1",
        "streetName": "BARBARA",
        "streetDirectionId": null,
        "streetTypeId": "CRES",
        "placeName": "EAST YORK",
        "streetNameDisplayText": "BARBARA CRES, EAST YORK"
      }
    ]
  },
  {
    "postal": "M4C8B5",
    "result": []
  },
  {
    "postal": "M4C0K1",
    "result": []
  },
  {
    "postal": "M4C7M7",
    "result": []
  },
  {
    "postal": "M4C2M2",
    "result": [
      {
        "electoralDistricts": [
          {
            "election": null,
            "id": 7,
            "name": "Beaches—East York"
          }
        ],
        "pollDivisionIds": [
          10137036
        ],
        "postalCode": "M4C2M2",
        "streetName": "DUNKIRK",
        "streetDirectionId": null,
        "streetTypeId": "RD",
        "placeName": "EAST YORK",
        "streetNameDisplayText": "DUNKIRK RD, EAST YORK"
      }
    ]
  },
  {
    "postal": "M4C9N3",
    "result": []
  },
  {
    "postal": "M4C4Y8",
    "result": [
      {
        "electoralDistricts": [
          {
            "election": null,
            "id": 7,
            "name": "Beaches—East York"
          }
        ],
        "pollDivisionIds": [
          10137042
        ],
        "postalCode": "M4C4Y8",
        "streetName": "BARRINGTON",
        "streetDirectionId": null,
        "streetTypeId": "AVE",
        "placeName": "TORONTO",
        "streetNameDisplayText": "BARRINGTON AVE, TORONTO"
      }
    ]
  },
  {
    "postal": "M4C3V7",
    "result": [
      {
        "electoralDistricts": [
          {
            "election": null,
            "id": 7,
            "name": "Beaches—East York"
          }
        ],
        "pollDivisionIds": [
          10137048
        ],
        "postalCode": "M4C3V7",
        "streetName": "W LYNN",
        "streetDirectionId": null,
        "streetTypeId": "AVE",
        "placeName": "TORONTO",
        "streetNameDisplayText": "W LYNN AVE, TORONTO"
      },
      {
        "electoralDistricts": [
          {
            "election": null,
            "id": 7,
            "name": "Beaches—East York"
          }
        ],
        "pollDivisionIds": [
          10137048
        ],
        "postalCode": "M4C3V7",
        "streetName": "WEST LYNN",
        "streetDirectionId": null,
        "streetTypeId": "AVE",
        "placeName": "TORONTO",
        "streetNameDisplayText": "WEST LYNN AVE, TORONTO"
      }
    ]
  },
  {
    "postal": "M4C8Z1",
    "result": []
  },
  {
    "postal": "M4C7B3",
    "result": []
  },
  {
    "postal": "M4C3A8",
    "result": [
      {
        "electoralDistricts": [
          {
            "election": null,
            "id": 7,
            "name": "Beaches—East York"
          }
        ],
        "pollDivisionIds": [
          10137036
        ],
        "postalCode": "M4C3A8",
        "streetName": "O'CONNER",
        "streetDirectionId": null,
        "streetTypeId": "DR",
        "placeName": "EAST YORK",
        "streetNameDisplayText": "O'CONNER DR, EAST YORK"
      },
      {
        "electoralDistricts": [
          {
            "election": null,
            "id": 7,
            "name": "Beaches—East York"
          }
        ],
        "pollDivisionIds": [
          10137036
        ],
        "postalCode": "M4C3A8",
        "streetName": "O'CONNOR",
        "streetDirectionId": null,
        "streetTypeId": "DR",
        "placeName": "EAST YORK",
        "streetNameDisplayText": "O'CONNOR DR, EAST YORK"
      }
    ]
  },
  {
    "postal": "M4C7V5",
    "result": []
  },
  {
    "postal": "M4C2T2",
    "result": [
      {
        "electoralDistricts": [
          {
            "election": null,
            "id": 7,
            "name": "Beaches—East York"
          }
        ],
        "pollDivisionIds": [
          10137036
        ],
        "postalCode": "M4C2T2",
        "streetName": "VIRGINIA",
        "streetDirectionId": null,
        "streetTypeId": "AVE",
        "placeName": "EAST YORK",
        "streetNameDisplayText": "VIRGINIA AVE, EAST YORK"
      }
    ]
  },
  {
    "postal": "M4C6L3",
    "result": []
  },
  {
    "postal": "M4C0L2",
    "result": []
  },
  {
    "postal": "M4C5Y8",
    "result": []
  },
  {
    "postal": "M4C0B8",
    "result": []
  },
  {
    "postal": "M4C6R5",
    "result": []
  },
  {
    "postal": "M4C8W6",
    "result": []
  },
  {
    "postal": "M4C8G6",
    "result": []
  },
  {
    "postal": "M4C6X3",
    "result": []
  },
  {
    "postal": "M4C7R7",
    "result": []
  },
  {
    "postal": "M4C4B6",
    "result": [
      {
        "electoralDistricts": [
          {
            "election": null,
            "id": 7,
            "name": "Beaches—East York"
          }
        ],
        "pollDivisionIds": [
          10137041
        ],
        "postalCode": "M4C4B6",
        "streetName": "WOODBINE",
        "streetDirectionId": null,
        "streetTypeId": "AVE",
        "placeName": "TORONTO",
        "streetNameDisplayText": "WOODBINE AVE, TORONTO"
      }
    ]
  },
  {
    "postal": "M4C3P9",
    "result": [
      {
        "electoralDistricts": [
          {
            "election": null,
            "id": 7,
            "name": "Beaches—East York"
          }
        ],
        "pollDivisionIds": [
          10137036
        ],
        "postalCode": "M4C3P9",
        "streetName": "ROBLIN",
        "streetDirectionId": null,
        "streetTypeId": "AVE",
        "placeName": "EAST YORK",
        "streetNameDisplayText": "ROBLIN AVE, EAST YORK"
      }
    ]
  },
  {
    "postal": "M4C2T3",
    "result": [
      {
        "electoralDistricts": [
          {
            "election": null,
            "id": 7,
            "name": "Beaches—East York"
          }
        ],
        "pollDivisionIds": [
          10137036
        ],
        "postalCode": "M4C2T3",
        "streetName": "VIRGINIA",
        "streetDirectionId": null,
        "streetTypeId": "AVE",
        "placeName": "EAST YORK",
        "streetNameDisplayText": "VIRGINIA AVE, EAST YORK"
      }
    ]
  },
  {
    "postal": "M4C1M4",
    "result": [
      {
        "electoralDistricts": [
          {
            "election": null,
            "id": 7,
            "name": "Beaches—East York"
          }
        ],
        "pollDivisionIds": [
          10137047
        ],
        "postalCode": "M4C1M4",
        "streetName": "DANFORTH",
        "streetDirectionId": null,
        "streetTypeId": "AVE",
        "placeName": "TORONTO",
        "streetNameDisplayText": "DANFORTH AVE, TORONTO"
      }
    ]
  },
  {
    "postal": "M4C0H1",
    "result": []
  },
  {
    "postal": "M4C9W3",
    "result": []
  },
  {
    "postal": "M4C6P1",
    "result": []
  },
  {
    "postal": "M4C7G2",
    "result": []
  },
  {
    "postal": "M4C4J9",
    "result": [
      {
        "electoralDistricts": [
          {
            "election": null,
            "id": 7,
            "name": "Beaches—East York"
          }
        ],
        "pollDivisionIds": [
          10137041
        ],
        "postalCode": "M4C4J9",
        "streetName": "CEDARVALE",
        "streetDirectionId": null,
        "streetTypeId": "AVE",
        "placeName": "EAST YORK",
        "streetNameDisplayText": "CEDARVALE AVE, EAST YORK"
      }
    ]
  },
  {
    "postal": "M4C9E4",
    "result": []
  },
  {
    "postal": "M4C8H0",
    "result": []
  },
  {
    "postal": "M4C4M7",
    "result": [
      {
        "electoralDistricts": [
          {
            "election": null,
            "id": 7,
            "name": "Beaches—East York"
          }
        ],
        "pollDivisionIds": [
          10137037
        ],
        "postalCode": "M4C4M7",
        "streetName": "OAK PARK",
        "streetDirectionId": null,
        "streetTypeId": "AVE",
        "placeName": "EAST YORK",
        "streetNameDisplayText": "OAK PARK AVE, EAST YORK"
      }
    ]
  },
  {
    "postal": "M4C2G9",
    "result": [
      {
        "electoralDistricts": [
          {
            "election": null,
            "id": 7,
            "name": "Beaches—East York"
          }
        ],
        "pollDivisionIds": [
          10137043
        ],
        "postalCode": "M4C2G9",
        "streetName": "GOODWOOD PARK",
        "streetDirectionId": null,
        "streetTypeId": "CRT",
        "placeName": "EAST YORK",
        "streetNameDisplayText": "GOODWOOD PARK CRT, EAST YORK"
      }
    ]
  },
  {
    "postal": "M4C8T2",
    "result": []
  },
  {
    "postal": "M4C7G7",
    "result": []
  },
  {
    "postal": "M4C4Z3",
    "result": [
      {
        "electoralDistricts": [
          {
            "election": null,
            "id": 7,
            "name": "Beaches—East York"
          }
        ],
        "pollDivisionIds": [
          10137042
        ],
        "postalCode": "M4C4Z3",
        "streetName": "PALMER",
        "streetDirectionId": null,
        "streetTypeId": "AVE",
        "placeName": "EAST YORK",
        "streetNameDisplayText": "PALMER AVE, EAST YORK"
      }
    ]
  },
  {
    "postal": "M4C5B3",
    "result": [
      {
        "electoralDistricts": [
          {
            "election": null,
            "id": 7,
            "name": "Beaches—East York"
          }
        ],
        "pollDivisionIds": [
          10137047
        ],
        "postalCode": "M4C5B3",
        "streetName": "DAWES",
        "streetDirectionId": null,
        "streetTypeId": "RD",
        "placeName": "TORONTO",
        "streetNameDisplayText": "DAWES RD, TORONTO"
      }
    ]
  },
  {
    "postal": "M4C1S7",
    "result": [
      {
        "electoralDistricts": [
          {
            "election": null,
            "id": 7,
            "name": "Beaches—East York"
          }
        ],
        "pollDivisionIds": [
          10137040
        ],
        "postalCode": "M4C1S7",
        "streetName": "WOLVERLEIGH",
        "streetDirectionId": null,
        "streetTypeId": "BLVD",
        "placeName": "TORONTO",
        "streetNameDisplayText": "WOLVERLEIGH BLVD, TORONTO"
      },
      {
        "electoralDistricts": [
          {
            "election": null,
            "id": 7,
            "name": "Beaches—East York"
          }
        ],
        "pollDivisionIds": [
          10137040
        ],
        "postalCode": "M4C1S7",
        "streetName": "WOVERLEIGH",
        "streetDirectionId": null,
        "streetTypeId": "BLVD",
        "placeName": "TORONTO",
        "streetNameDisplayText": "WOVERLEIGH BLVD, TORONTO"
      }
    ]
  },
  {
    "postal": "M4C2N7",
    "result": [
      {
        "electoralDistricts": [
          {
            "election": null,
            "id": 7,
            "name": "Beaches—East York"
          }
        ],
        "pollDivisionIds": [
          10137036
        ],
        "postalCode": "M4C2N7",
        "streetName": "BARKER",
        "streetDirectionId": null,
        "streetTypeId": "AVE",
        "placeName": "EAST YORK",
        "streetNameDisplayText": "BARKER AVE, EAST YORK"
      }
    ]
  },
  {
    "postal": "M4C0H8",
    "result": []
  },
  {
    "postal": "M4C7Z4",
    "result": []
  },
  {
    "postal": "M4C7B1",
    "result": []
  },
  {
    "postal": "M4C7P8",
    "result": []
  },
  {
    "postal": "M4C7N0",
    "result": []
  },
  {
    "postal": "M4C3Y5",
    "result": [
      {
        "electoralDistricts": [
          {
            "election": null,
            "id": 7,
            "name": "Beaches—East York"
          }
        ],
        "pollDivisionIds": [
          10137040
        ],
        "postalCode": "M4C3Y5",
        "streetName": "WOODMOUNT",
        "streetDirectionId": null,
        "streetTypeId": "AVE",
        "placeName": "EAST YORK",
        "streetNameDisplayText": "WOODMOUNT AVE, EAST YORK"
      }
    ]
  },
  {
    "postal": "M4C6K1",
    "result": []
  },
  {
    "postal": "M4C9X5",
    "result": []
  },
  {
    "postal": "M4C7S5",
    "result": []
  },
  {
    "postal": "M4C0A4",
    "result": [
      {
        "electoralDistricts": [
          {
            "election": null,
            "id": 7,
            "name": "Beaches—East York"
          }
        ],
        "pollDivisionIds": [
          10137047
        ],
        "postalCode": "M4C0A4",
        "streetName": "DENTONIA PARK",
        "streetDirectionId": null,
        "streetTypeId": "AVE",
        "placeName": "EAST YORK",
        "streetNameDisplayText": "DENTONIA PARK AVE, EAST YORK"
      }
    ]
  },
  {
    "postal": "M4C4T5",
    "result": [
      {
        "electoralDistricts": [
          {
            "election": null,
            "id": 7,
            "name": "Beaches—East York"
          }
        ],
        "pollDivisionIds": [
          10137037
        ],
        "postalCode": "M4C4T5",
        "streetName": "WESTLAKE",
        "streetDirectionId": null,
        "streetTypeId": "AVE",
        "placeName": "EAST YORK",
        "streetNameDisplayText": "WESTLAKE AVE, EAST YORK"
      }
    ]
  },
  {
    "postal": "M4C5K1",
    "result": [
      {
        "electoralDistricts": [
          {
            "election": null,
            "id": 7,
            "name": "Beaches—East York"
          }
        ],
        "pollDivisionIds": [
          10137037
        ],
        "postalCode": "M4C5K1",
        "streetName": "KING EDWARD",
        "streetDirectionId": null,
        "streetTypeId": "AVE",
        "placeName": "EAST YORK",
        "streetNameDisplayText": "KING EDWARD AVE, EAST YORK"
      },
      {
        "electoralDistricts": [
          {
            "election": null,
            "id": 7,
            "name": "Beaches—East York"
          }
        ],
        "pollDivisionIds": [
          10137037
        ],
        "postalCode": "M4C5K1",
        "streetName": "KING EDWARD",
        "streetDirectionId": "E",
        "streetTypeId": "ST",
        "placeName": "EAST YORK",
        "streetNameDisplayText": "KING EDWARD ST E, EAST YORK"
      }
    ]
  },
  {
    "postal": "M4C0Z9",
    "result": []
  },
  {
    "postal": "M4C7T2",
    "result": []
  },
  {
    "postal": "M4C1L5",
    "result": [
      {
        "electoralDistricts": [
          {
            "election": null,
            "id": 7,
            "name": "Beaches—East York"
          }
        ],
        "pollDivisionIds": [
          10137046
        ],
        "postalCode": "M4C1L5",
        "streetName": "DANFORTH",
        "streetDirectionId": null,
        "streetTypeId": "AVE",
        "placeName": "TORONTO",
        "streetNameDisplayText": "DANFORTH AVE, TORONTO"
      }
    ]
  },
  {
    "postal": "M4C3N5",
    "result": [
      {
        "electoralDistricts": [
          {
            "election": null,
            "id": 7,
            "name": "Beaches—East York"
          }
        ],
        "pollDivisionIds": [
          10137036
        ],
        "postalCode": "M4C3N5",
        "streetName": "BINSWOOD",
        "streetDirectionId": null,
        "streetTypeId": "AVE",
        "placeName": "EAST YORK",
        "streetNameDisplayText": "BINSWOOD AVE, EAST YORK"
      }
    ]
  },
  {
    "postal": "M4C6H4",
    "result": []
  },
  {
    "postal": "M4C5A5",
    "result": [
      {
        "electoralDistricts": [
          {
            "election": null,
            "id": 7,
            "name": "Beaches—East York"
          }
        ],
        "pollDivisionIds": [
          10137043
        ],
        "postalCode": "M4C5A5",
        "streetName": "NEWMAN",
        "streetDirectionId": null,
        "streetTypeId": "AVE",
        "placeName": "EAST YORK",
        "streetNameDisplayText": "NEWMAN AVE, EAST YORK"
      }
    ]
  },
  {
    "postal": "M4C3R9",
    "result": [
      {
        "electoralDistricts": [
          {
            "election": null,
            "id": 7,
            "name": "Beaches—East York"
          }
        ],
        "pollDivisionIds": [
          10137040
        ],
        "postalCode": "M4C3R9",
        "streetName": "GLEBEMOUNT",
        "streetDirectionId": null,
        "streetTypeId": "AVE",
        "placeName": "TORONTO",
        "streetNameDisplayText": "GLEBEMOUNT AVE, TORONTO"
      }
    ]
  },
  {
    "postal": "M4C7L8",
    "result": []
  },
  {
    "postal": "M4C6T6",
    "result": []
  },
  {
    "postal": "M4C7Y7",
    "result": []
  },
  {
    "postal": "M4C3M8",
    "result": [
      {
        "electoralDistricts": [
          {
            "election": null,
            "id": 7,
            "name": "Beaches—East York"
          }
        ],
        "pollDivisionIds": [
          10137048
        ],
        "postalCode": "M4C3M8",
        "streetName": "BASTEDO",
        "streetDirectionId": null,
        "streetTypeId": "AVE",
        "placeName": "TORONTO",
        "streetNameDisplayText": "BASTEDO AVE, TORONTO"
      }
    ]
  },
  {
    "postal": "M4C2E0",
    "result": []
  },
  {
    "postal": "M4C4B5",
    "result": [
      {
        "electoralDistricts": [
          {
            "election": null,
            "id": 7,
            "name": "Beaches—East York"
          }
        ],
        "pollDivisionIds": [
          10137045
        ],
        "postalCode": "M4C4B5",
        "streetName": "WOODBINE",
        "streetDirectionId": null,
        "streetTypeId": "AVE",
        "placeName": "TORONTO",
        "streetNameDisplayText": "WOODBINE AVE, TORONTO"
      }
    ]
  },
  {
    "postal": "M4C1J3",
    "result": [
      {
        "electoralDistricts": [
          {
            "election": null,
            "id": 7,
            "name": "Beaches—East York"
          }
        ],
        "pollDivisionIds": [
          10137040,
          10137045
        ],
        "postalCode": "M4C1J3",
        "streetName": "DANFORTH",
        "streetDirectionId": null,
        "streetTypeId": "AVE",
        "placeName": "TORONTO",
        "streetNameDisplayText": "DANFORTH AVE, TORONTO"
      }
    ]
  },
  {
    "postal": "M4C5S6",
    "result": [
      {
        "electoralDistricts": [
          {
            "election": null,
            "id": 7,
            "name": "Beaches—East York"
          }
        ],
        "pollDivisionIds": [
          10137042
        ],
        "postalCode": "M4C5S6",
        "streetName": "DONCASTER",
        "streetDirectionId": null,
        "streetTypeId": "AVE",
        "placeName": "EAST YORK",
        "streetNameDisplayText": "DONCASTER AVE, EAST YORK"
      }
    ]
  },
  {
    "postal": "M4C8P7",
    "result": []
  },
  {
    "postal": "M4C7S7",
    "result": []
  },
  {
    "postal": "M4C4C2",
    "result": [
      {
        "electoralDistricts": [
          {
            "election": null,
            "id": 7,
            "name": "Beaches—East York"
          }
        ],
        "pollDivisionIds": [
          10137041
        ],
        "postalCode": "M4C4C2",
        "streetName": "WOODBINE",
        "streetDirectionId": null,
        "streetTypeId": "AV",
        "placeName": "EAST YORK",
        "streetNameDisplayText": "WOODBINE AV, EAST YORK"
      },
      {
        "electoralDistricts": [
          {
            "election": null,
            "id": 7,
            "name": "Beaches—East York"
          }
        ],
        "pollDivisionIds": [
          10137041
        ],
        "postalCode": "M4C4C2",
        "streetName": "WOODBINE",
        "streetDirectionId": null,
        "streetTypeId": "AVE",
        "placeName": "EAST YORK",
        "streetNameDisplayText": "WOODBINE AVE, EAST YORK"
      }
    ]
  },
  {
    "postal": "M4C5Y0",
    "result": []
  },
  {
    "postal": "M4C2V7",
    "result": [
      {
        "electoralDistricts": [
          {
            "election": null,
            "id": 7,
            "name": "Beaches—East York"
          }
        ],
        "pollDivisionIds": [
          10137036
        ],
        "postalCode": "M4C2V7",
        "streetName": "COSBURN",
        "streetDirectionId": null,
        "streetTypeId": "AVE",
        "placeName": "EAST YORK",
        "streetNameDisplayText": "COSBURN AVE, EAST YORK"
      }
    ]
  },
  {
    "postal": "M4C8P5",
    "result": []
  },
  {
    "postal": "M4C5P5",
    "result": [
      {
        "electoralDistricts": [
          {
            "election": null,
            "id": 7,
            "name": "Beaches—East York"
          }
        ],
        "pollDivisionIds": [
          10137048
        ],
        "postalCode": "M4C5P5",
        "streetName": "COATSWORTH",
        "streetDirectionId": null,
        "streetTypeId": "CRES",
        "placeName": "TORONTO",
        "streetNameDisplayText": "COATSWORTH CRES, TORONTO"
      }
    ]
  },
  {
    "postal": "M4C5Z0",
    "result": []
  },
  {
    "postal": "M4C9B0",
    "result": []
  },
  {
    "postal": "M4C1L0",
    "result": []
  },
  {
    "postal": "M4C0B5",
    "result": []
  },
  {
    "postal": "M4C3L2",
    "result": [
      {
        "electoralDistricts": [
          {
            "election": null,
            "id": 7,
            "name": "Beaches—East York"
          }
        ],
        "pollDivisionIds": [
          10137036
        ],
        "postalCode": "M4C3L2",
        "streetName": "HUTTON",
        "streetDirectionId": null,
        "streetTypeId": "AVE",
        "placeName": "EAST YORK",
        "streetNameDisplayText": "HUTTON AVE, EAST YORK"
      }
    ]
  },
  {
    "postal": "M4C3B7",
    "result": [
      {
        "electoralDistricts": [
          {
            "election": null,
            "id": 110,
            "name": "Toronto—Danforth"
          }
        ],
        "pollDivisionIds": [
          10142507
        ],
        "postalCode": "M4C3B7",
        "streetName": "COXWELL",
        "streetDirectionId": null,
        "streetTypeId": "AVE",
        "placeName": "TORONTO",
        "streetNameDisplayText": "COXWELL AVE, TORONTO"
      }
    ]
  },
  {
    "postal": "M4C8L1",
    "result": []
  },
  {
    "postal": "M4C5M4",
    "result": [
      {
        "electoralDistricts": [
          {
            "election": null,
            "id": 7,
            "name": "Beaches—East York"
          }
        ],
        "pollDivisionIds": [
          10137042
        ],
        "postalCode": "M4C5M4",
        "streetName": "SECORD",
        "streetDirectionId": null,
        "streetTypeId": "AVE",
        "placeName": "EAST YORK",
        "streetNameDisplayText": "SECORD AVE, EAST YORK"
      }
    ]
  },
  {
    "postal": "M4C4G9",
    "result": [
      {
        "electoralDistricts": [
          {
            "election": null,
            "id": 7,
            "name": "Beaches—East York"
          }
        ],
        "pollDivisionIds": [
          10137036
        ],
        "postalCode": "M4C4G9",
        "streetName": "WOODBINE",
        "streetDirectionId": null,
        "streetTypeId": "AVE",
        "placeName": "EAST YORK",
        "streetNameDisplayText": "WOODBINE AVE, EAST YORK"
      }
    ]
  },
  {
    "postal": "M4C0P0",
    "result": []
  },
  {
    "postal": "M4C8G2",
    "result": []
  },
  {
    "postal": "M4C1V9",
    "result": [
      {
        "electoralDistricts": [
          {
            "election": null,
            "id": 7,
            "name": "Beaches—East York"
          }
        ],
        "pollDivisionIds": [
          10137041
        ],
        "postalCode": "M4C1V9",
        "streetName": "NEWMARKET AVE",
        "streetDirectionId": null,
        "streetTypeId": "AVE",
        "placeName": "TORONTO",
        "streetNameDisplayText": "NEWMARKET AVE AVE, TORONTO"
      },
      {
        "electoralDistricts": [
          {
            "election": null,
            "id": 7,
            "name": "Beaches—East York"
          }
        ],
        "pollDivisionIds": [
          10137041
        ],
        "postalCode": "M4C1V9",
        "streetName": "NEWMARKET",
        "streetDirectionId": null,
        "streetTypeId": "AVE",
        "placeName": "TORONTO",
        "streetNameDisplayText": "NEWMARKET AVE, TORONTO"
      }
    ]
  },
  {
    "postal": "M4C8N8",
    "result": []
  },
  {
    "postal": "M4C6S8",
    "result": []
  },
  {
    "postal": "M4C8H2",
    "result": []
  },
  {
    "postal": "M4C5R8",
    "result": []
  },
  {
    "postal": "M4C5L4",
    "result": [
      {
        "electoralDistricts": [
          {
            "election": null,
            "id": 7,
            "name": "Beaches—East York"
          }
        ],
        "pollDivisionIds": [
          10137044
        ],
        "postalCode": "M4C5L4",
        "streetName": "1 MASSEY",
        "streetDirectionId": null,
        "streetTypeId": "SQ",
        "placeName": "EAST YORK",
        "streetNameDisplayText": "1 MASSEY SQ, EAST YORK"
      },
      {
        "electoralDistricts": [
          {
            "election": null,
            "id": 7,
            "name": "Beaches—East York"
          }
        ],
        "pollDivisionIds": [
          10137044
        ],
        "postalCode": "M4C5L4",
        "streetName": "MASSEY",
        "streetDirectionId": null,
        "streetTypeId": "SQ",
        "placeName": "EAST YORK",
        "streetNameDisplayText": "MASSEY SQ, EAST YORK"
      }
    ]
  },
  {
    "postal": "M4C9E1",
    "result": []
  },
  {
    "postal": "M4C1C4",
    "result": [
      {
        "electoralDistricts": [
          {
            "election": null,
            "id": 7,
            "name": "Beaches—East York"
          }
        ],
        "pollDivisionIds": [
          10137048
        ],
        "postalCode": "M4C1C4",
        "streetName": "MERRILL",
        "streetDirectionId": "W",
        "streetTypeId": "AVE",
        "placeName": "TORONTO",
        "streetNameDisplayText": "MERRILL AVE W, TORONTO"
      }
    ]
  },
  {
    "postal": "M4C8W5",
    "result": []
  },
  {
    "postal": "M4C1Y4",
    "result": [
      {
        "electoralDistricts": [
          {
            "election": null,
            "id": 7,
            "name": "Beaches—East York"
          }
        ],
        "pollDivisionIds": [
          10137037
        ],
        "postalCode": "M4C1Y4",
        "streetName": "DONCASTER",
        "streetDirectionId": null,
        "streetTypeId": "AVE",
        "placeName": "EAST YORK",
        "streetNameDisplayText": "DONCASTER AVE, EAST YORK"
      }
    ]
  },
  {
    "postal": "M4C1C0",
    "result": []
  },
  {
    "postal": "M4C2J2",
    "result": [
      {
        "electoralDistricts": [
          {
            "election": null,
            "id": 7,
            "name": "Beaches—East York"
          }
        ],
        "pollDivisionIds": [
          10137037
        ],
        "postalCode": "M4C2J2",
        "streetName": "CREWE",
        "streetDirectionId": null,
        "streetTypeId": "AVE",
        "placeName": "EAST YORK",
        "streetNameDisplayText": "CREWE AVE, EAST YORK"
      }
    ]
  },
  {
    "postal": "M4C2J0",
    "result": []
  },
  {
    "postal": "M4C7A3",
    "result": []
  },
  {
    "postal": "M4C8M1",
    "result": []
  },
  {
    "postal": "M4C7T9",
    "result": []
  },
  {
    "postal": "M4C6C0",
    "result": []
  },
  {
    "postal": "M4C7X1",
    "result": []
  },
  {
    "postal": "M4C0G1",
    "result": []
  },
  {
    "postal": "M4C4X2",
    "result": [
      {
        "electoralDistricts": [
          {
            "election": null,
            "id": 7,
            "name": "Beaches—East York"
          }
        ],
        "pollDivisionIds": [
          10137046
        ],
        "postalCode": "M4C4X2",
        "streetName": "MAIN",
        "streetDirectionId": null,
        "streetTypeId": "ST",
        "placeName": "TORONTO",
        "streetNameDisplayText": "MAIN ST, TORONTO"
      }
    ]
  },
  {
    "postal": "M4C0N6",
    "result": []
  },
  {
    "postal": "M4C8E3",
    "result": []
  },
  {
    "postal": "M4C5S8",
    "result": []
  },
  {
    "postal": "M4C0R0",
    "result": []
  },
  {
    "postal": "M4C6J6",
    "result": []
  },
  {
    "postal": "M4C4B4",
    "result": [
      {
        "electoralDistricts": [
          {
            "election": null,
            "id": 7,
            "name": "Beaches—East York"
          }
        ],
        "pollDivisionIds": [
          10137036
        ],
        "postalCode": "M4C4B4",
        "streetName": "REDNOR",
        "streetDirectionId": null,
        "streetTypeId": "RD",
        "placeName": "EAST YORK",
        "streetNameDisplayText": "REDNOR RD, EAST YORK"
      }
    ]
  },
  {
    "postal": "M4C7E3",
    "result": []
  },
  {
    "postal": "M4C3N6",
    "result": [
      {
        "electoralDistricts": [
          {
            "election": null,
            "id": 7,
            "name": "Beaches—East York"
          }
        ],
        "pollDivisionIds": [
          10137036
        ],
        "postalCode": "M4C3N6",
        "streetName": "BINSWOOD",
        "streetDirectionId": null,
        "streetTypeId": "AVE",
        "placeName": "EAST YORK",
        "streetNameDisplayText": "BINSWOOD AVE, EAST YORK"
      }
    ]
  },
  {
    "postal": "M4C3X6",
    "result": [
      {
        "electoralDistricts": [
          {
            "election": null,
            "id": 7,
            "name": "Beaches—East York"
          }
        ],
        "pollDivisionIds": [
          10137040
        ],
        "postalCode": "M4C3X6",
        "streetName": "WOODMOUNT",
        "streetDirectionId": null,
        "streetTypeId": "AVE",
        "placeName": "TORONTO",
        "streetNameDisplayText": "WOODMOUNT AVE, TORONTO"
      }
    ]
  },
  {
    "postal": "M4C8L0",
    "result": []
  },
  {
    "postal": "M4C8N1",
    "result": []
  },
  {
    "postal": "M4C4J0",
    "result": []
  },
  {
    "postal": "M4C0X7",
    "result": []
  },
  {
    "postal": "M4C6S4",
    "result": []
  },
  {
    "postal": "M4C0Z0",
    "result": []
  },
  {
    "postal": "M4C9X8",
    "result": []
  },
  {
    "postal": "M4C3H3",
    "result": [
      {
        "electoralDistricts": [
          {
            "election": null,
            "id": 7,
            "name": "Beaches—East York"
          }
        ],
        "pollDivisionIds": [
          10137036
        ],
        "postalCode": "M4C3H3",
        "streetName": "FAIRSIDE",
        "streetDirectionId": null,
        "streetTypeId": "AVE",
        "placeName": "EAST YORK",
        "streetNameDisplayText": "FAIRSIDE AVE, EAST YORK"
      }
    ]
  },
  {
    "postal": "M4C7S2",
    "result": []
  },
  {
    "postal": "M4C3T3",
    "result": [
      {
        "electoralDistricts": [
          {
            "election": null,
            "id": 7,
            "name": "Beaches—East York"
          }
        ],
        "pollDivisionIds": [
          10137036
        ],
        "postalCode": "M4C3T3",
        "streetName": "GLEBEMOUNT",
        "streetDirectionId": null,
        "streetTypeId": "AVE",
        "placeName": "EAST YORK",
        "streetNameDisplayText": "GLEBEMOUNT AVE, EAST YORK"
      }
    ]
  },
  {
    "postal": "M4C9P3",
    "result": []
  },
  {
    "postal": "M4C4H8",
    "result": [
      {
        "electoralDistricts": [
          {
            "election": null,
            "id": 7,
            "name": "Beaches—East York"
          }
        ],
        "pollDivisionIds": [
          10137037
        ],
        "postalCode": "M4C4H8",
        "streetName": "COLERIDGE",
        "streetDirectionId": null,
        "streetTypeId": "AVE",
        "placeName": "EAST YORK",
        "streetNameDisplayText": "COLERIDGE AVE, EAST YORK"
      }
    ]
  },
  {
    "postal": "M4C6R1",
    "result": []
  },
  {
    "postal": "M4C1S0",
    "result": []
  },
  {
    "postal": "M4C3W8",
    "result": [
      {
        "electoralDistricts": [
          {
            "election": null,
            "id": 7,
            "name": "Beaches—East York"
          }
        ],
        "pollDivisionIds": [
          10137036
        ],
        "postalCode": "M4C3W8",
        "streetName": "NORLONG",
        "streetDirectionId": null,
        "streetTypeId": "BLVD",
        "placeName": "EAST YORK",
        "streetNameDisplayText": "NORLONG BLVD, EAST YORK"
      }
    ]
  },
  {
    "postal": "M4C4S3",
    "result": [
      {
        "electoralDistricts": [
          {
            "election": null,
            "id": 7,
            "name": "Beaches—East York"
          }
        ],
        "pollDivisionIds": [
          10137037
        ],
        "postalCode": "M4C4S3",
        "streetName": "WESTLAKE",
        "streetDirectionId": null,
        "streetTypeId": "AVE",
        "placeName": "EAST YORK",
        "streetNameDisplayText": "WESTLAKE AVE, EAST YORK"
      }
    ]
  },
  {
    "postal": "M4C1B6",
    "result": [
      {
        "electoralDistricts": [
          {
            "election": null,
            "id": 7,
            "name": "Beaches—East York"
          }
        ],
        "pollDivisionIds": [
          10137041
        ],
        "postalCode": "M4C1B6",
        "streetName": "OAKCREST",
        "streetDirectionId": null,
        "streetTypeId": "AVE",
        "placeName": "TORONTO",
        "streetNameDisplayText": "OAKCREST AVE, TORONTO"
      }
    ]
  },
  {
    "postal": "M4C8R3",
    "result": []
  },
  {
    "postal": "M4C4V9",
    "result": [
      {
        "electoralDistricts": [
          {
            "election": null,
            "id": 7,
            "name": "Beaches—East York"
          }
        ],
        "pollDivisionIds": [
          10137042
        ],
        "postalCode": "M4C4V9",
        "streetName": "CHISHOLM",
        "streetDirectionId": null,
        "streetTypeId": "AVE",
        "placeName": "EAST YORK",
        "streetNameDisplayText": "CHISHOLM AVE, EAST YORK"
      }
    ]
  },
  {
    "postal": "M4C9W4",
    "result": []
  },
  {
    "postal": "M4C3T4",
    "result": [
      {
        "electoralDistricts": [
          {
            "election": null,
            "id": 7,
            "name": "Beaches—East York"
          }
        ],
        "pollDivisionIds": [
          10137036
        ],
        "postalCode": "M4C3T4",
        "streetName": "GLEBEMOUNT",
        "streetDirectionId": null,
        "streetTypeId": "AVE",
        "placeName": "EAST YORK",
        "streetNameDisplayText": "GLEBEMOUNT AVE, EAST YORK"
      }
    ]
  },
  {
    "postal": "M4C5C7",
    "result": [
      {
        "electoralDistricts": [
          {
            "election": null,
            "id": 7,
            "name": "Beaches—East York"
          }
        ],
        "pollDivisionIds": [
          10137047
        ],
        "postalCode": "M4C5C7",
        "streetName": "KELVIN",
        "streetDirectionId": null,
        "streetTypeId": "AVE",
        "placeName": "TORONTO",
        "streetNameDisplayText": "KELVIN AVE, TORONTO"
      }
    ]
  },
  {
    "postal": "M4C3Y1",
    "result": [
      {
        "electoralDistricts": [
          {
            "election": null,
            "id": 7,
            "name": "Beaches—East York"
          }
        ],
        "pollDivisionIds": [
          10137040
        ],
        "postalCode": "M4C3Y1",
        "streetName": "WOODMOUNT",
        "streetDirectionId": null,
        "streetTypeId": "AVE",
        "placeName": "TORONTO",
        "streetNameDisplayText": "WOODMOUNT AVE, TORONTO"
      }
    ]
  },
  {
    "postal": "M4C5V0",
    "result": []
  },
  {
    "postal": "M4C8G8",
    "result": []
  },
  {
    "postal": "M4C8B1",
    "result": []
  },
  {
    "postal": "M4C4P5",
    "result": [
      {
        "electoralDistricts": [
          {
            "election": null,
            "id": 7,
            "name": "Beaches—East York"
          }
        ],
        "pollDivisionIds": [
          10137061
        ],
        "postalCode": "M4C4P5",
        "streetName": "HALDON",
        "streetDirectionId": null,
        "streetTypeId": "AVE",
        "placeName": "EAST YORK",
        "streetNameDisplayText": "HALDON AVE, EAST YORK"
      }
    ]
  },
  {
    "postal": "M4C7B2",
    "result": []
  },
  {
    "postal": "M4C0R2",
    "result": []
  },
  {
    "postal": "M4C4M4",
    "result": [
      {
        "electoralDistricts": [
          {
            "election": null,
            "id": 7,
            "name": "Beaches—East York"
          }
        ],
        "pollDivisionIds": [
          10137041
        ],
        "postalCode": "M4C4M4",
        "streetName": "OAK PARK",
        "streetDirectionId": null,
        "streetTypeId": "AVE",
        "placeName": "EAST YORK",
        "streetNameDisplayText": "OAK PARK AVE, EAST YORK"
      }
    ]
  },
  {
    "postal": "M4C7M4",
    "result": []
  },
  {
    "postal": "M4C9S7",
    "result": []
  },
  {
    "postal": "M4C5Z7",
    "result": []
  },
  {
    "postal": "M4C7J7",
    "result": []
  },
  {
    "postal": "M4C8R8",
    "result": []
  },
  {
    "postal": "M4C9X1",
    "result": []
  },
  {
    "postal": "M4C5M9",
    "result": [
      {
        "electoralDistricts": [
          {
            "election": null,
            "id": 7,
            "name": "Beaches—East York"
          }
        ],
        "pollDivisionIds": [
          10137044
        ],
        "postalCode": "M4C5M9",
        "streetName": "MASSEY",
        "streetDirectionId": null,
        "streetTypeId": "SQ",
        "placeName": "EAST YORK",
        "streetNameDisplayText": "MASSEY SQ, EAST YORK"
      }
    ]
  },
  {
    "postal": "M4C9B4",
    "result": []
  },
  {
    "postal": "M4C0L9",
    "result": []
  },
  {
    "postal": "M4C9G4",
    "result": []
  },
  {
    "postal": "M4C1J4",
    "result": [
      {
        "electoralDistricts": [
          {
            "election": null,
            "id": 7,
            "name": "Beaches—East York"
          }
        ],
        "pollDivisionIds": [
          10137040
        ],
        "postalCode": "M4C1J4",
        "streetName": "DANFORTH",
        "streetDirectionId": null,
        "streetTypeId": "AVE",
        "placeName": "TORONTO",
        "streetNameDisplayText": "DANFORTH AVE, TORONTO"
      }
    ]
  },
  {
    "postal": "M4C0W6",
    "result": []
  }
]
