[
  {
    "postal": "M6S9J6",
    "result": []
  },
  {
    "postal": "M6S9Z5",
    "result": []
  },
  {
    "postal": "M6S7H8",
    "result": []
  },
  {
    "postal": "M6S0P6",
    "result": []
  },
  {
    "postal": "M6S0S7",
    "result": []
  },
  {
    "postal": "M6S8B9",
    "result": []
  },
  {
    "postal": "M6S2A6",
    "result": [
      {
        "electoralDistricts": [
          {
            "election": null,
            "id": 83,
            "name": "Parkdale—High Park"
          }
        ],
        "pollDivisionIds": [
          10126425
        ],
        "postalCode": "M6S2A6",
        "streetName": "LANGMUIR",
        "streetDirectionId": null,
        "streetTypeId": "CRES",
        "placeName": "YORK",
        "streetNameDisplayText": "LANGMUIR CRES, YORK"
      }
    ]
  },
  {
    "postal": "M6S7V2",
    "result": []
  },
  {
    "postal": "M6S9P4",
    "result": []
  },
  {
    "postal": "M6S6G0",
    "result": []
  },
  {
    "postal": "M6S2K0",
    "result": []
  },
  {
    "postal": "M6S7N6",
    "result": []
  },
  {
    "postal": "M6S5R3",
    "result": []
  },
  {
    "postal": "M6S7K0",
    "result": []
  },
  {
    "postal": "M6S3R2",
    "result": [
      {
        "electoralDistricts": [
          {
            "election": null,
            "id": 83,
            "name": "Parkdale—High Park"
          }
        ],
        "pollDivisionIds": [
          10126430
        ],
        "postalCode": "M6S3R2",
        "streetName": "WILLARD",
        "streetDirectionId": null,
        "streetTypeId": "AVE",
        "placeName": "TORONTO",
        "streetNameDisplayText": "WILLARD AVE, TORONTO"
      }
    ]
  },
  {
    "postal": "M6S0J1",
    "result": []
  },
  {
    "postal": "M6S0B0",
    "result": []
  },
  {
    "postal": "M6S5Z2",
    "result": []
  },
  {
    "postal": "M6S7P3",
    "result": []
  },
  {
    "postal": "M6S2K3",
    "result": [
      {
        "electoralDistricts": [
          {
            "election": null,
            "id": 83,
            "name": "Parkdale—High Park"
          }
        ],
        "pollDivisionIds": [
          10126426
        ],
        "postalCode": "M6S2K3",
        "streetName": "ST JOHNS",
        "streetDirectionId": null,
        "streetTypeId": "RD",
        "placeName": "YORK",
        "streetNameDisplayText": "ST JOHNS RD, YORK"
      },
      {
        "electoralDistricts": [
          {
            "election": null,
            "id": 83,
            "name": "Parkdale—High Park"
          }
        ],
        "pollDivisionIds": [
          10126426
        ],
        "postalCode": "M6S2K3",
        "streetName": "ST. JOHN'S",
        "streetDirectionId": null,
        "streetTypeId": "RD",
        "placeName": "YORK",
        "streetNameDisplayText": "ST. JOHN'S RD, YORK"
      }
    ]
  },
  {
    "postal": "M6S7Y6",
    "result": []
  },
  {
    "postal": "M6S1L9",
    "result": [
      {
        "electoralDistricts": [
          {
            "election": null,
            "id": 83,
            "name": "Parkdale—High Park"
          }
        ],
        "pollDivisionIds": [
          10126436
        ],
        "postalCode": "M6S1L9",
        "streetName": "MOSSOM",
        "streetDirectionId": null,
        "streetTypeId": "RD",
        "placeName": "TORONTO",
        "streetNameDisplayText": "MOSSOM RD, TORONTO"
      }
    ]
  },
  {
    "postal": "M6S8T0",
    "result": []
  },
  {
    "postal": "M6S3K8",
    "result": [
      {
        "electoralDistricts": [
          {
            "election": null,
            "id": 83,
            "name": "Parkdale—High Park"
          }
        ],
        "pollDivisionIds": [
          10126437
        ],
        "postalCode": "M6S3K8",
        "streetName": "WINDERMERE",
        "streetDirectionId": null,
        "streetTypeId": "AVE",
        "placeName": "TORONTO",
        "streetNameDisplayText": "WINDERMERE AVE, TORONTO"
      }
    ]
  },
  {
    "postal": "M6S5W9",
    "result": []
  },
  {
    "postal": "M6S6T9",
    "result": []
  },
  {
    "postal": "M6S4H1",
    "result": [
      {
        "electoralDistricts": [
          {
            "election": null,
            "id": 83,
            "name": "Parkdale—High Park"
          }
        ],
        "pollDivisionIds": [
          10126430
        ],
        "postalCode": "M6S4H1",
        "streetName": "RIVERCREST",
        "streetDirectionId": null,
        "streetTypeId": "RD",
        "placeName": "TORONTO",
        "streetNameDisplayText": "RIVERCREST RD, TORONTO"
      },
      {
        "electoralDistricts": [
          {
            "election": null,
            "id": 83,
            "name": "Parkdale—High Park"
          }
        ],
        "pollDivisionIds": [
          10126430
        ],
        "postalCode": "M6S4H1",
        "streetName": "RIVERCREST",
        "streetDirectionId": null,
        "streetTypeId": "RD",
        "placeName": "YORK",
        "streetNameDisplayText": "RIVERCREST RD, YORK"
      }
    ]
  },
  {
    "postal": "M6S7A2",
    "result": []
  },
  {
    "postal": "M6S5G0",
    "result": []
  },
  {
    "postal": "M6S8V5",
    "result": []
  },
  {
    "postal": "M6S2Y8",
    "result": [
      {
        "electoralDistricts": [
          {
            "election": null,
            "id": 83,
            "name": "Parkdale—High Park"
          }
        ],
        "pollDivisionIds": [
          10126431
        ],
        "postalCode": "M6S2Y8",
        "streetName": "RUNNYMEDE",
        "streetDirectionId": null,
        "streetTypeId": "RD",
        "placeName": "TORONTO",
        "streetNameDisplayText": "RUNNYMEDE RD, TORONTO"
      }
    ]
  },
  {
    "postal": "M6S2B6",
    "result": [
      {
        "electoralDistricts": [
          {
            "election": null,
            "id": 83,
            "name": "Parkdale—High Park"
          }
        ],
        "pollDivisionIds": [
          10126425
        ],
        "postalCode": "M6S2B6",
        "streetName": "VALLEYVIEW",
        "streetDirectionId": null,
        "streetTypeId": "GDNS",
        "placeName": "YORK",
        "streetNameDisplayText": "VALLEYVIEW GDNS, YORK"
      }
    ]
  },
  {
    "postal": "M6S4W8",
    "result": [
      {
        "electoralDistricts": [
          {
            "election": null,
            "id": 83,
            "name": "Parkdale—High Park"
          }
        ],
        "pollDivisionIds": [
          10126430
        ],
        "postalCode": "M6S4W8",
        "streetName": "JANE",
        "streetDirectionId": null,
        "streetTypeId": "ST",
        "placeName": "TORONTO",
        "streetNameDisplayText": "JANE ST, TORONTO"
      }
    ]
  },
  {
    "postal": "M6S8H7",
    "result": []
  },
  {
    "postal": "M6S5P1",
    "result": []
  },
  {
    "postal": "M6S2B8",
    "result": [
      {
        "electoralDistricts": [
          {
            "election": null,
            "id": 83,
            "name": "Parkdale—High Park"
          }
        ],
        "pollDivisionIds": [
          10126425
        ],
        "postalCode": "M6S2B8",
        "streetName": "BABY POINT",
        "streetDirectionId": null,
        "streetTypeId": "CRES",
        "placeName": "YORK",
        "streetNameDisplayText": "BABY POINT CRES, YORK"
      }
    ]
  },
  {
    "postal": "M6S0P2",
    "result": []
  },
  {
    "postal": "M6S9M1",
    "result": []
  },
  {
    "postal": "M6S3G0",
    "result": []
  },
  {
    "postal": "M6S9Z2",
    "result": []
  },
  {
    "postal": "M6S2A0",
    "result": []
  },
  {
    "postal": "M6S6Y0",
    "result": []
  },
  {
    "postal": "M6S2Z8",
    "result": [
      {
        "electoralDistricts": [
          {
            "election": null,
            "id": 83,
            "name": "Parkdale—High Park"
          }
        ],
        "pollDivisionIds": [
          10126426
        ],
        "postalCode": "M6S2Z8",
        "streetName": "RUNNYMEDE",
        "streetDirectionId": null,
        "streetTypeId": "RD",
        "placeName": "TORONTO",
        "streetNameDisplayText": "RUNNYMEDE RD, TORONTO"
      }
    ]
  },
  {
    "postal": "M6S7Y3",
    "result": []
  },
  {
    "postal": "M6S6Z5",
    "result": []
  },
  {
    "postal": "M6S6E0",
    "result": []
  },
  {
    "postal": "M6S9B7",
    "result": []
  },
  {
    "postal": "M6S9S5",
    "result": []
  },
  {
    "postal": "M6S3X3",
    "result": [
      {
        "electoralDistricts": [
          {
            "election": null,
            "id": 83,
            "name": "Parkdale—High Park"
          }
        ],
        "pollDivisionIds": [
          10126437
        ],
        "postalCode": "M6S3X3",
        "streetName": "ARMADALE",
        "streetDirectionId": null,
        "streetTypeId": "AVE",
        "placeName": "TORONTO",
        "streetNameDisplayText": "ARMADALE AVE, TORONTO"
      }
    ]
  },
  {
    "postal": "M6S7R5",
    "result": []
  },
  {
    "postal": "M6S2X3",
    "result": [
      {
        "electoralDistricts": [
          {
            "election": null,
            "id": 83,
            "name": "Parkdale—High Park"
          }
        ],
        "pollDivisionIds": [
          10126438
        ],
        "postalCode": "M6S2X3",
        "streetName": "ELLIS",
        "streetDirectionId": null,
        "streetTypeId": "AVE",
        "placeName": "TORONTO",
        "streetNameDisplayText": "ELLIS AVE, TORONTO"
      }
    ]
  },
  {
    "postal": "M6S8Z9",
    "result": []
  },
  {
    "postal": "M6S0N4",
    "result": []
  },
  {
    "postal": "M6S1K1",
    "result": [
      {
        "electoralDistricts": [
          {
            "election": null,
            "id": 83,
            "name": "Parkdale—High Park"
          }
        ],
        "pollDivisionIds": [
          10126436
        ],
        "postalCode": "M6S1K1",
        "streetName": "VERBENA",
        "streetDirectionId": null,
        "streetTypeId": "AVE",
        "placeName": "TORONTO",
        "streetNameDisplayText": "VERBENA AVE, TORONTO"
      }
    ]
  },
  {
    "postal": "M6S1S3",
    "result": [
      {
        "electoralDistricts": [
          {
            "election": null,
            "id": 83,
            "name": "Parkdale—High Park"
          }
        ],
        "pollDivisionIds": [
          10126430
        ],
        "postalCode": "M6S1S3",
        "streetName": "FOLKES",
        "streetDirectionId": null,
        "streetTypeId": "ST",
        "placeName": "YORK",
        "streetNameDisplayText": "FOLKES ST, YORK"
      }
    ]
  },
  {
    "postal": "M6S6M4",
    "result": []
  },
  {
    "postal": "M6S9A9",
    "result": []
  },
  {
    "postal": "M6S9Z9",
    "result": []
  },
  {
    "postal": "M6S6T4",
    "result": []
  },
  {
    "postal": "M6S0B2",
    "result": []
  },
  {
    "postal": "M6S2L9",
    "result": [
      {
        "electoralDistricts": [
          {
            "election": null,
            "id": 83,
            "name": "Parkdale—High Park"
          }
        ],
        "pollDivisionIds": [
          10126425
        ],
        "postalCode": "M6S2L9",
        "streetName": "ST JOHNS",
        "streetDirectionId": null,
        "streetTypeId": "RD",
        "placeName": "YORK",
        "streetNameDisplayText": "ST JOHNS RD, YORK"
      }
    ]
  },
  {
    "postal": "M6S8K9",
    "result": []
  },
  {
    "postal": "M6S2H9",
    "result": [
      {
        "electoralDistricts": [
          {
            "election": null,
            "id": 83,
            "name": "Parkdale—High Park"
          }
        ],
        "pollDivisionIds": [
          10126422
        ],
        "postalCode": "M6S2H9",
        "streetName": "ST MARKS",
        "streetDirectionId": null,
        "streetTypeId": "RD",
        "placeName": "YORK",
        "streetNameDisplayText": "ST MARKS RD, YORK"
      }
    ]
  },
  {
    "postal": "M6S3Z6",
    "result": [
      {
        "electoralDistricts": [
          {
            "election": null,
            "id": 83,
            "name": "Parkdale—High Park"
          }
        ],
        "pollDivisionIds": [
          10126425
        ],
        "postalCode": "M6S3Z6",
        "streetName": "JANE",
        "streetDirectionId": null,
        "streetTypeId": "ST",
        "placeName": "TORONTO",
        "streetNameDisplayText": "JANE ST, TORONTO"
      }
    ]
  },
  {
    "postal": "M6S3B0",
    "result": []
  },
  {
    "postal": "M6S2H8",
    "result": [
      {
        "electoralDistricts": [
          {
            "election": null,
            "id": 83,
            "name": "Parkdale—High Park"
          }
        ],
        "pollDivisionIds": [
          10126425
        ],
        "postalCode": "M6S2H8",
        "streetName": "ST MARKS",
        "streetDirectionId": null,
        "streetTypeId": "RD",
        "placeName": "YORK",
        "streetNameDisplayText": "ST MARKS RD, YORK"
      }
    ]
  },
  {
    "postal": "M6S3X2",
    "result": [
      {
        "electoralDistricts": [
          {
            "election": null,
            "id": 83,
            "name": "Parkdale—High Park"
          }
        ],
        "pollDivisionIds": [
          10126436
        ],
        "postalCode": "M6S3X2",
        "streetName": "ARMADALE",
        "streetDirectionId": null,
        "streetTypeId": "AVE",
        "placeName": "TORONTO",
        "streetNameDisplayText": "ARMADALE AVE, TORONTO"
      }
    ]
  },
  {
    "postal": "M6S2E9",
    "result": [
      {
        "electoralDistricts": [
          {
            "election": null,
            "id": 83,
            "name": "Parkdale—High Park"
          }
        ],
        "pollDivisionIds": [
          10126425
        ],
        "postalCode": "M6S2E9",
        "streetName": "BABY POINT",
        "streetDirectionId": null,
        "streetTypeId": "RD",
        "placeName": "YORK",
        "streetNameDisplayText": "BABY POINT RD, YORK"
      }
    ]
  },
  {
    "postal": "M6S9P6",
    "result": []
  },
  {
    "postal": "M6S9E2",
    "result": []
  },
  {
    "postal": "M6S9H2",
    "result": []
  },
  {
    "postal": "M6S1S8",
    "result": [
      {
        "electoralDistricts": [
          {
            "election": null,
            "id": 83,
            "name": "Parkdale—High Park"
          }
        ],
        "pollDivisionIds": [
          10126430
        ],
        "postalCode": "M6S1S8",
        "streetName": "WEATHERELL",
        "streetDirectionId": null,
        "streetTypeId": "ST",
        "placeName": "TORONTO",
        "streetNameDisplayText": "WEATHERELL ST, TORONTO"
      }
    ]
  },
  {
    "postal": "M6S3M6",
    "result": [
      {
        "electoralDistricts": [
          {
            "election": null,
            "id": 83,
            "name": "Parkdale—High Park"
          }
        ],
        "pollDivisionIds": [
          10126426
        ],
        "postalCode": "M6S3M6",
        "streetName": "WINDERMERE",
        "streetDirectionId": null,
        "streetTypeId": "AVE",
        "placeName": "YORK",
        "streetNameDisplayText": "WINDERMERE AVE, YORK"
      }
    ]
  },
  {
    "postal": "M6S6Z8",
    "result": []
  },
  {
    "postal": "M6S4J2",
    "result": [
      {
        "electoralDistricts": [
          {
            "election": null,
            "id": 83,
            "name": "Parkdale—High Park"
          }
        ],
        "pollDivisionIds": [
          10126436
        ],
        "postalCode": "M6S4J2",
        "streetName": "BRULE",
        "streetDirectionId": null,
        "streetTypeId": "GDNS",
        "placeName": "TORONTO",
        "streetNameDisplayText": "BRULE GDNS, TORONTO"
      }
    ]
  },
  {
    "postal": "M6S9Y1",
    "result": []
  },
  {
    "postal": "M6S8V6",
    "result": []
  },
  {
    "postal": "M6S6B2",
    "result": []
  },
  {
    "postal": "M6S1P8",
    "result": []
  },
  {
    "postal": "M6S0V8",
    "result": []
  },
  {
    "postal": "M6S4Y0",
    "result": []
  },
  {
    "postal": "M6S2T4",
    "result": [
      {
        "electoralDistricts": [
          {
            "election": null,
            "id": 83,
            "name": "Parkdale—High Park"
          }
        ],
        "pollDivisionIds": [
          10126422
        ],
        "postalCode": "M6S2T4",
        "streetName": "DUNDAS",
        "streetDirectionId": "W",
        "streetTypeId": "ST",
        "placeName": "YORK",
        "streetNameDisplayText": "DUNDAS ST W, YORK"
      }
    ]
  },
  {
    "postal": "M6S2S3",
    "result": []
  },
  {
    "postal": "M6S0K0",
    "result": []
  },
  {
    "postal": "M6S5N1",
    "result": []
  },
  {
    "postal": "M6S7T0",
    "result": []
  },
  {
    "postal": "M6S9N2",
    "result": []
  },
  {
    "postal": "M6S5L1",
    "result": []
  },
  {
    "postal": "M6S7G5",
    "result": []
  },
  {
    "postal": "M6S6K2",
    "result": []
  },
  {
    "postal": "M6S6P9",
    "result": []
  },
  {
    "postal": "M6S0E6",
    "result": []
  },
  {
    "postal": "M6S8R9",
    "result": []
  },
  {
    "postal": "M6S3G9",
    "result": [
      {
        "electoralDistricts": [
          {
            "election": null,
            "id": 83,
            "name": "Parkdale—High Park"
          }
        ],
        "pollDivisionIds": [
          10126426
        ],
        "postalCode": "M6S3G9",
        "streetName": "DURIE",
        "streetDirectionId": null,
        "streetTypeId": "ST",
        "placeName": "TORONTO",
        "streetNameDisplayText": "DURIE ST, TORONTO"
      }
    ]
  },
  {
    "postal": "M6S0V7",
    "result": []
  },
  {
    "postal": "M6S2Z1",
    "result": [
      {
        "electoralDistricts": [
          {
            "election": null,
            "id": 83,
            "name": "Parkdale—High Park"
          }
        ],
        "pollDivisionIds": [
          10126427,
          10126431
        ],
        "postalCode": "M6S2Z1",
        "streetName": "RUNNYMEDE",
        "streetDirectionId": null,
        "streetTypeId": "RD",
        "placeName": "TORONTO",
        "streetNameDisplayText": "RUNNYMEDE RD, TORONTO"
      }
    ]
  },
  {
    "postal": "M6S7N1",
    "result": []
  },
  {
    "postal": "M6S3C6",
    "result": [
      {
        "electoralDistricts": [
          {
            "election": null,
            "id": 83,
            "name": "Parkdale—High Park"
          }
        ],
        "pollDivisionIds": [
          10126437
        ],
        "postalCode": "M6S3C6",
        "streetName": "RENNIE",
        "streetDirectionId": null,
        "streetTypeId": "TERR",
        "placeName": "TORONTO",
        "streetNameDisplayText": "RENNIE TERR, TORONTO"
      }
    ]
  },
  {
    "postal": "M6S4M1",
    "result": [
      {
        "electoralDistricts": [
          {
            "election": null,
            "id": 83,
            "name": "Parkdale—High Park"
          }
        ],
        "pollDivisionIds": [
          10126422
        ],
        "postalCode": "M6S4M1",
        "streetName": "GOOCH",
        "streetDirectionId": null,
        "streetTypeId": "AVE",
        "placeName": "YORK",
        "streetNameDisplayText": "GOOCH AVE, YORK"
      }
    ]
  },
  {
    "postal": "M6S9K2",
    "result": []
  },
  {
    "postal": "M6S9S6",
    "result": []
  },
  {
    "postal": "M6S4X1",
    "result": []
  },
  {
    "postal": "M6S8W2",
    "result": []
  },
  {
    "postal": "M6S7N2",
    "result": []
  },
  {
    "postal": "M6S8S3",
    "result": []
  },
  {
    "postal": "M6S4V0",
    "result": []
  },
  {
    "postal": "M6S6W4",
    "result": []
  },
  {
    "postal": "M6S5M1",
    "result": []
  },
  {
    "postal": "M6S0S4",
    "result": []
  },
  {
    "postal": "M6S5X6",
    "result": []
  },
  {
    "postal": "M6S8L5",
    "result": []
  },
  {
    "postal": "M6S5M8",
    "result": []
  },
  {
    "postal": "M6S2G3",
    "result": [
      {
        "electoralDistricts": [
          {
            "election": null,
            "id": 83,
            "name": "Parkdale—High Park"
          }
        ],
        "pollDivisionIds": [
          10126425
        ],
        "postalCode": "M6S2G3",
        "streetName": "BABY POINT",
        "streetDirectionId": null,
        "streetTypeId": "RD",
        "placeName": "YORK",
        "streetNameDisplayText": "BABY POINT RD, YORK"
      }
    ]
  },
  {
    "postal": "M6S8E4",
    "result": []
  },
  {
    "postal": "M6S7S9",
    "result": []
  },
  {
    "postal": "M6S1K3",
    "result": [
      {
        "electoralDistricts": [
          {
            "election": null,
            "id": 83,
            "name": "Parkdale—High Park"
          }
        ],
        "pollDivisionIds": [
          10126437,
          10126446
        ],
        "postalCode": "M6S1K3",
        "streetName": "MAYFIELD",
        "streetDirectionId": null,
        "streetTypeId": "AVE",
        "placeName": "TORONTO",
        "streetNameDisplayText": "MAYFIELD AVE, TORONTO"
      }
    ]
  },
  {
    "postal": "M6S4E1",
    "result": [
      {
        "electoralDistricts": [
          {
            "election": null,
            "id": 83,
            "name": "Parkdale—High Park"
          }
        ],
        "pollDivisionIds": [
          10126422
        ],
        "postalCode": "M6S4E1",
        "streetName": "WATSON",
        "streetDirectionId": null,
        "streetTypeId": "AVE",
        "placeName": "YORK",
        "streetNameDisplayText": "WATSON AVE, YORK"
      }
    ]
  },
  {
    "postal": "M6S4R2",
    "result": [
      {
        "electoralDistricts": [
          {
            "election": null,
            "id": 83,
            "name": "Parkdale—High Park"
          }
        ],
        "pollDivisionIds": [
          10126422
        ],
        "postalCode": "M6S4R2",
        "streetName": "BRALORNE",
        "streetDirectionId": null,
        "streetTypeId": "CRES",
        "placeName": "YORK",
        "streetNameDisplayText": "BRALORNE CRES, YORK"
      }
    ]
  },
  {
    "postal": "M6S6T0",
    "result": []
  },
  {
    "postal": "M6S3K5",
    "result": [
      {
        "electoralDistricts": [
          {
            "election": null,
            "id": 83,
            "name": "Parkdale—High Park"
          }
        ],
        "pollDivisionIds": [
          10126437
        ],
        "postalCode": "M6S3K5",
        "streetName": "WINDERMERE",
        "streetDirectionId": null,
        "streetTypeId": "AVE",
        "placeName": "TORONTO",
        "streetNameDisplayText": "WINDERMERE AVE, TORONTO"
      }
    ]
  },
  {
    "postal": "M6S3S3",
    "result": [
      {
        "electoralDistricts": [
          {
            "election": null,
            "id": 83,
            "name": "Parkdale—High Park"
          }
        ],
        "pollDivisionIds": [
          10126426
        ],
        "postalCode": "M6S3S3",
        "streetName": "WILLARD",
        "streetDirectionId": null,
        "streetTypeId": "AVE",
        "placeName": "YORK",
        "streetNameDisplayText": "WILLARD AVE, YORK"
      }
    ]
  },
  {
    "postal": "M6S3L4",
    "result": []
  },
  {
    "postal": "M6S9Y2",
    "result": []
  },
  {
    "postal": "M6S1E0",
    "result": []
  },
  {
    "postal": "M6S9A4",
    "result": []
  },
  {
    "postal": "M6S1L3",
    "result": [
      {
        "electoralDistricts": [
          {
            "election": null,
            "id": 83,
            "name": "Parkdale—High Park"
          }
        ],
        "pollDivisionIds": [
          10126437
        ],
        "postalCode": "M6S1L3",
        "streetName": "OSTEND",
        "streetDirectionId": null,
        "streetTypeId": "AVE",
        "placeName": "TORONTO",
        "streetNameDisplayText": "OSTEND AVE, TORONTO"
      }
    ]
  },
  {
    "postal": "M6S6N1",
    "result": []
  },
  {
    "postal": "M6S6G7",
    "result": []
  },
  {
    "postal": "M6S7W1",
    "result": []
  },
  {
    "postal": "M6S4M6",
    "result": [
      {
        "electoralDistricts": [
          {
            "election": null,
            "id": 83,
            "name": "Parkdale—High Park"
          }
        ],
        "pollDivisionIds": [
          10126422
        ],
        "postalCode": "M6S4M6",
        "streetName": "SKYLARK",
        "streetDirectionId": null,
        "streetTypeId": "RD",
        "placeName": "YORK",
        "streetNameDisplayText": "SKYLARK RD, YORK"
      }
    ]
  },
  {
    "postal": "M6S1K0",
    "result": []
  },
  {
    "postal": "M6S3E2",
    "result": [
      {
        "electoralDistricts": [
          {
            "election": null,
            "id": 83,
            "name": "Parkdale—High Park"
          }
        ],
        "pollDivisionIds": [
          10126438
        ],
        "postalCode": "M6S3E2",
        "streetName": "COE HILL",
        "streetDirectionId": null,
        "streetTypeId": "DR",
        "placeName": "TORONTO",
        "streetNameDisplayText": "COE HILL DR, TORONTO"
      }
    ]
  },
  {
    "postal": "M6S5H4",
    "result": []
  },
  {
    "postal": "M6S1K7",
    "result": [
      {
        "electoralDistricts": [
          {
            "election": null,
            "id": 83,
            "name": "Parkdale—High Park"
          }
        ],
        "pollDivisionIds": [
          10126436
        ],
        "postalCode": "M6S1K7",
        "streetName": "MAYFIELD",
        "streetDirectionId": null,
        "streetTypeId": "AVE",
        "placeName": "TORONTO",
        "streetNameDisplayText": "MAYFIELD AVE, TORONTO"
      }
    ]
  },
  {
    "postal": "M6S0H0",
    "result": []
  },
  {
    "postal": "M6S0J3",
    "result": []
  },
  {
    "postal": "M6S1X6",
    "result": [
      {
        "electoralDistricts": [
          {
            "election": null,
            "id": 83,
            "name": "Parkdale—High Park"
          }
        ],
        "pollDivisionIds": [
          10126425
        ],
        "postalCode": "M6S1X6",
        "streetName": "LESSARD",
        "streetDirectionId": null,
        "streetTypeId": "AVE",
        "placeName": "YORK",
        "streetNameDisplayText": "LESSARD AVE, YORK"
      }
    ]
  },
  {
    "postal": "M6S2Z6",
    "result": [
      {
        "electoralDistricts": [
          {
            "election": null,
            "id": 83,
            "name": "Parkdale—High Park"
          }
        ],
        "pollDivisionIds": [
          10126428
        ],
        "postalCode": "M6S2Z6",
        "streetName": "RUNNYMEDE",
        "streetDirectionId": null,
        "streetTypeId": "RD",
        "placeName": "TORONTO",
        "streetNameDisplayText": "RUNNYMEDE RD, TORONTO"
      }
    ]
  },
  {
    "postal": "M6S4R9",
    "result": [
      {
        "electoralDistricts": [
          {
            "election": null,
            "id": 83,
            "name": "Parkdale—High Park"
          }
        ],
        "pollDivisionIds": [
          10126422
        ],
        "postalCode": "M6S4R9",
        "streetName": "HUMBERHILL",
        "streetDirectionId": null,
        "streetTypeId": "AVE",
        "placeName": "YORK",
        "streetNameDisplayText": "HUMBERHILL AVE, YORK"
      }
    ]
  },
  {
    "postal": "M6S0W8",
    "result": []
  },
  {
    "postal": "M6S1L4",
    "result": [
      {
        "electoralDistricts": [
          {
            "election": null,
            "id": 83,
            "name": "Parkdale—High Park"
          }
        ],
        "pollDivisionIds": [
          10126437
        ],
        "postalCode": "M6S1L4",
        "streetName": "OSTEND",
        "streetDirectionId": null,
        "streetTypeId": "AVE",
        "placeName": "TORONTO",
        "streetNameDisplayText": "OSTEND AVE, TORONTO"
      }
    ]
  },
  {
    "postal": "M6S0C8",
    "result": []
  },
  {
    "postal": "M6S9X7",
    "result": []
  },
  {
    "postal": "M6S4T1",
    "result": []
  },
  {
    "postal": "M6S0M0",
    "result": []
  },
  {
    "postal": "M6S6A2",
    "result": []
  },
  {
    "postal": "M6S9S8",
    "result": []
  },
  {
    "postal": "M6S9T4",
    "result": []
  },
  {
    "postal": "M6S9Y4",
    "result": []
  },
  {
    "postal": "M6S6G5",
    "result": []
  },
  {
    "postal": "M6S6H9",
    "result": []
  },
  {
    "postal": "M6S2P3",
    "result": [
      {
        "electoralDistricts": [
          {
            "election": null,
            "id": 83,
            "name": "Parkdale—High Park"
          }
        ],
        "pollDivisionIds": [
          10126423
        ],
        "postalCode": "M6S2P3",
        "streetName": "JILLSON",
        "streetDirectionId": null,
        "streetTypeId": "AVE",
        "placeName": "YORK",
        "streetNameDisplayText": "JILLSON AVE, YORK"
      }
    ]
  },
  {
    "postal": "M6S1T6",
    "result": [
      {
        "electoralDistricts": [
          {
            "election": null,
            "id": 83,
            "name": "Parkdale—High Park"
          }
        ],
        "pollDivisionIds": [
          10126430
        ],
        "postalCode": "M6S1T6",
        "streetName": "NELLES",
        "streetDirectionId": null,
        "streetTypeId": "AVE",
        "placeName": "TORONTO",
        "streetNameDisplayText": "NELLES AVE, TORONTO"
      }
    ]
  },
  {
    "postal": "M6S4P6",
    "result": []
  },
  {
    "postal": "M6S3K1",
    "result": [
      {
        "electoralDistricts": [
          {
            "election": null,
            "id": 83,
            "name": "Parkdale—High Park"
          }
        ],
        "pollDivisionIds": [
          10126437
        ],
        "postalCode": "M6S3K1",
        "streetName": "WINDERMERE",
        "streetDirectionId": null,
        "streetTypeId": "AVE",
        "placeName": "TORONTO",
        "streetNameDisplayText": "WINDERMERE AVE, TORONTO"
      }
    ]
  },
  {
    "postal": "M6S6X4",
    "result": []
  },
  {
    "postal": "M6S4M8",
    "result": [
      {
        "electoralDistricts": [
          {
            "election": null,
            "id": 83,
            "name": "Parkdale—High Park"
          }
        ],
        "pollDivisionIds": [
          10126422
        ],
        "postalCode": "M6S4M8",
        "streetName": "IRMAC",
        "streetDirectionId": null,
        "streetTypeId": "CRT",
        "placeName": "YORK",
        "streetNameDisplayText": "IRMAC CRT, YORK"
      }
    ]
  },
  {
    "postal": "M6S2Y1",
    "result": [
      {
        "electoralDistricts": [
          {
            "election": null,
            "id": 83,
            "name": "Parkdale—High Park"
          }
        ],
        "pollDivisionIds": [
          10126437
        ],
        "postalCode": "M6S2Y1",
        "streetName": "RUNNYMEDE",
        "streetDirectionId": null,
        "streetTypeId": "RD",
        "placeName": "TORONTO",
        "streetNameDisplayText": "RUNNYMEDE RD, TORONTO"
      }
    ]
  },
  {
    "postal": "M6S6M1",
    "result": []
  },
  {
    "postal": "M6S5L8",
    "result": []
  },
  {
    "postal": "M6S3P6",
    "result": [
      {
        "electoralDistricts": [
          {
            "election": null,
            "id": 83,
            "name": "Parkdale—High Park"
          }
        ],
        "pollDivisionIds": [
          10126438
        ],
        "postalCode": "M6S3P6",
        "streetName": "WORTHINGTON",
        "streetDirectionId": null,
        "streetTypeId": "CRES",
        "placeName": "TORONTO",
        "streetNameDisplayText": "WORTHINGTON CRES, TORONTO"
      }
    ]
  },
  {
    "postal": "M6S9A5",
    "result": []
  },
  {
    "postal": "M6S7K1",
    "result": []
  },
  {
    "postal": "M6S3J4",
    "result": [
      {
        "electoralDistricts": [
          {
            "election": null,
            "id": 83,
            "name": "Parkdale—High Park"
          }
        ],
        "pollDivisionIds": [
          10126438
        ],
        "postalCode": "M6S3J4",
        "streetName": "WINDERMERE",
        "streetDirectionId": null,
        "streetTypeId": "AVE",
        "placeName": "TORONTO",
        "streetNameDisplayText": "WINDERMERE AVE, TORONTO"
      }
    ]
  },
  {
    "postal": "M6S5E7",
    "result": []
  },
  {
    "postal": "M6S3A7",
    "result": [
      {
        "electoralDistricts": [
          {
            "election": null,
            "id": 83,
            "name": "Parkdale—High Park"
          }
        ],
        "pollDivisionIds": [
          10126427
        ],
        "postalCode": "M6S3A7",
        "streetName": "MAPLEVIEW",
        "streetDirectionId": null,
        "streetTypeId": "AVE",
        "placeName": "TORONTO",
        "streetNameDisplayText": "MAPLEVIEW AVE, TORONTO"
      }
    ]
  },
  {
    "postal": "M6S1B9",
    "result": [
      {
        "electoralDistricts": [
          {
            "election": null,
            "id": 83,
            "name": "Parkdale—High Park"
          }
        ],
        "pollDivisionIds": [
          10126437
        ],
        "postalCode": "M6S1B9",
        "streetName": "WALLER",
        "streetDirectionId": null,
        "streetTypeId": "AVE",
        "placeName": "TORONTO",
        "streetNameDisplayText": "WALLER AVE, TORONTO"
      }
    ]
  },
  {
    "postal": "M6S9E8",
    "result": []
  },
  {
    "postal": "M6S1C9",
    "result": [
      {
        "electoralDistricts": [
          {
            "election": null,
            "id": 83,
            "name": "Parkdale—High Park"
          }
        ],
        "pollDivisionIds": [
          10126437
        ],
        "postalCode": "M6S1C9",
        "streetName": "MORNINGSIDE",
        "streetDirectionId": null,
        "streetTypeId": "AVE",
        "placeName": "TORONTO",
        "streetNameDisplayText": "MORNINGSIDE AVE, TORONTO"
      }
    ]
  },
  {
    "postal": "M6S3B5",
    "result": [
      {
        "electoralDistricts": [
          {
            "election": null,
            "id": 83,
            "name": "Parkdale—High Park"
          }
        ],
        "pollDivisionIds": [
          10126431
        ],
        "postalCode": "M6S3B5",
        "streetName": "BERESFORD",
        "streetDirectionId": null,
        "streetTypeId": "AVE",
        "placeName": "TORONTO",
        "streetNameDisplayText": "BERESFORD AVE, TORONTO"
      }
    ]
  },
  {
    "postal": "M6S8R0",
    "result": []
  },
  {
    "postal": "M6S3P2",
    "result": [
      {
        "electoralDistricts": [
          {
            "election": null,
            "id": 83,
            "name": "Parkdale—High Park"
          }
        ],
        "pollDivisionIds": [
          10126438
        ],
        "postalCode": "M6S3P2",
        "streetName": "RIPLEY",
        "streetDirectionId": null,
        "streetTypeId": "AVE",
        "placeName": "TORONTO",
        "streetNameDisplayText": "RIPLEY AVE, TORONTO"
      }
    ]
  },
  {
    "postal": "M6S5V4",
    "result": []
  },
  {
    "postal": "M6S4H0",
    "result": []
  },
  {
    "postal": "M6S4S7",
    "result": [
      {
        "electoralDistricts": [
          {
            "election": null,
            "id": 83,
            "name": "Parkdale—High Park"
          }
        ],
        "pollDivisionIds": [
          10126425
        ],
        "postalCode": "M6S4S7",
        "streetName": "L'ESTRANGE",
        "streetDirectionId": null,
        "streetTypeId": "PL",
        "placeName": "YORK",
        "streetNameDisplayText": "L'ESTRANGE PL, YORK"
      }
    ]
  },
  {
    "postal": "M6S6C2",
    "result": []
  },
  {
    "postal": "M6S8W3",
    "result": []
  },
  {
    "postal": "M6S4M5",
    "result": [
      {
        "electoralDistricts": [
          {
            "election": null,
            "id": 83,
            "name": "Parkdale—High Park"
          }
        ],
        "pollDivisionIds": [
          10126422
        ],
        "postalCode": "M6S4M5",
        "streetName": "SKYLARK",
        "streetDirectionId": null,
        "streetTypeId": "RD",
        "placeName": "YORK",
        "streetNameDisplayText": "SKYLARK RD, YORK"
      }
    ]
  },
  {
    "postal": "M6S5T1",
    "result": []
  },
  {
    "postal": "M6S3B3",
    "result": [
      {
        "electoralDistricts": [
          {
            "election": null,
            "id": 83,
            "name": "Parkdale—High Park"
          }
        ],
        "pollDivisionIds": [
          10126431
        ],
        "postalCode": "M6S3B3",
        "streetName": "BERESFORD",
        "streetDirectionId": null,
        "streetTypeId": "AVE",
        "placeName": "TORONTO",
        "streetNameDisplayText": "BERESFORD AVE, TORONTO"
      }
    ]
  },
  {
    "postal": "M6S6C6",
    "result": []
  },
  {
    "postal": "M6S7N8",
    "result": []
  },
  {
    "postal": "M6S2Y3",
    "result": [
      {
        "electoralDistricts": [
          {
            "election": null,
            "id": 83,
            "name": "Parkdale—High Park"
          }
        ],
        "pollDivisionIds": [
          10126437
        ],
        "postalCode": "M6S2Y3",
        "streetName": "RUNNYMEDE",
        "streetDirectionId": null,
        "streetTypeId": "RD",
        "placeName": "TORONTO",
        "streetNameDisplayText": "RUNNYMEDE RD, TORONTO"
      }
    ]
  },
  {
    "postal": "M6S2R6",
    "result": [
      {
        "electoralDistricts": [
          {
            "election": null,
            "id": 83,
            "name": "Parkdale—High Park"
          }
        ],
        "pollDivisionIds": [
          10126422
        ],
        "postalCode": "M6S2R6",
        "streetName": "OLD DUNDAS",
        "streetDirectionId": null,
        "streetTypeId": "ST",
        "placeName": "YORK",
        "streetNameDisplayText": "OLD DUNDAS ST, YORK"
      }
    ]
  },
  {
    "postal": "M6S7N3",
    "result": []
  },
  {
    "postal": "M6S8J2",
    "result": []
  },
  {
    "postal": "M6S6A9",
    "result": []
  },
  {
    "postal": "M6S3V2",
    "result": [
      {
        "electoralDistricts": [
          {
            "election": null,
            "id": 83,
            "name": "Parkdale—High Park"
          }
        ],
        "pollDivisionIds": [
          10126436
        ],
        "postalCode": "M6S3V2",
        "streetName": "SOUTH KINGSWAY",
        "streetDirectionId": null,
        "streetTypeId": null,
        "placeName": "TORONTO",
        "streetNameDisplayText": "SOUTH KINGSWAY, TORONTO"
      }
    ]
  },
  {
    "postal": "M6S2N3",
    "result": [
      {
        "electoralDistricts": [
          {
            "election": null,
            "id": 83,
            "name": "Parkdale—High Park"
          }
        ],
        "pollDivisionIds": [
          10126422
        ],
        "postalCode": "M6S2N3",
        "streetName": "VAN STASSEN",
        "streetDirectionId": null,
        "streetTypeId": "BLVD",
        "placeName": "YORK",
        "streetNameDisplayText": "VAN STASSEN BLVD, YORK"
      }
    ]
  },
  {
    "postal": "M6S1S5",
    "result": [
      {
        "electoralDistricts": [
          {
            "election": null,
            "id": 83,
            "name": "Parkdale—High Park"
          }
        ],
        "pollDivisionIds": [
          10126430
        ],
        "postalCode": "M6S1S5",
        "streetName": "FOLKES",
        "streetDirectionId": null,
        "streetTypeId": "ST",
        "placeName": "YORK",
        "streetNameDisplayText": "FOLKES ST, YORK"
      }
    ]
  },
  {
    "postal": "M6S4T7",
    "result": []
  },
  {
    "postal": "M6S6Y7",
    "result": []
  },
  {
    "postal": "M6S0W7",
    "result": []
  },
  {
    "postal": "M6S2W9",
    "result": [
      {
        "electoralDistricts": [
          {
            "election": null,
            "id": 83,
            "name": "Parkdale—High Park"
          }
        ],
        "pollDivisionIds": [
          10126437
        ],
        "postalCode": "M6S2W9",
        "streetName": "THE PALISADES",
        "streetDirectionId": null,
        "streetTypeId": null,
        "placeName": "TORONTO",
        "streetNameDisplayText": "THE PALISADES, TORONTO"
      }
    ]
  },
  {
    "postal": "M6S8V0",
    "result": []
  },
  {
    "postal": "M6S0H4",
    "result": []
  },
  {
    "postal": "M6S2T1",
    "result": [
      {
        "electoralDistricts": [
          {
            "election": null,
            "id": 83,
            "name": "Parkdale—High Park"
          }
        ],
        "pollDivisionIds": [
          10126422
        ],
        "postalCode": "M6S2T1",
        "streetName": "DUNDAS",
        "streetDirectionId": "W",
        "streetTypeId": "ST",
        "placeName": "YORK",
        "streetNameDisplayText": "DUNDAS ST W, YORK"
      }
    ]
  },
  {
    "postal": "M6S1B1",
    "result": [
      {
        "electoralDistricts": [
          {
            "election": null,
            "id": 83,
            "name": "Parkdale—High Park"
          }
        ],
        "pollDivisionIds": [
          10126438
        ],
        "postalCode": "M6S1B1",
        "streetName": "ORMSKIRK",
        "streetDirectionId": null,
        "streetTypeId": "CRT",
        "placeName": "TORONTO",
        "streetNameDisplayText": "ORMSKIRK CRT, TORONTO"
      }
    ]
  },
  {
    "postal": "M6S8B6",
    "result": []
  },
  {
    "postal": "M6S6H1",
    "result": []
  },
  {
    "postal": "M6S8T8",
    "result": []
  },
  {
    "postal": "M6S0T4",
    "result": []
  },
  {
    "postal": "M6S2C4",
    "result": [
      {
        "electoralDistricts": [
          {
            "election": null,
            "id": 83,
            "name": "Parkdale—High Park"
          }
        ],
        "pollDivisionIds": [
          10126426
        ],
        "postalCode": "M6S2C4",
        "streetName": "ANNETTE",
        "streetDirectionId": null,
        "streetTypeId": "ST",
        "placeName": "TORONTO",
        "streetNameDisplayText": "ANNETTE ST, TORONTO"
      }
    ]
  },
  {
    "postal": "M6S8N3",
    "result": []
  },
  {
    "postal": "M6S4L8",
    "result": [
      {
        "electoralDistricts": [
          {
            "election": null,
            "id": 83,
            "name": "Parkdale—High Park"
          }
        ],
        "pollDivisionIds": [
          10126422
        ],
        "postalCode": "M6S4L8",
        "streetName": "GOOCH",
        "streetDirectionId": null,
        "streetTypeId": "AVE",
        "placeName": "YORK",
        "streetNameDisplayText": "GOOCH AVE, YORK"
      }
    ]
  },
  {
    "postal": "M6S2B5",
    "result": [
      {
        "electoralDistricts": [
          {
            "election": null,
            "id": 83,
            "name": "Parkdale—High Park"
          }
        ],
        "pollDivisionIds": [
          10126425
        ],
        "postalCode": "M6S2B5",
        "streetName": "VALLEYVIEW",
        "streetDirectionId": null,
        "streetTypeId": "GDNS",
        "placeName": "YORK",
        "streetNameDisplayText": "VALLEYVIEW GDNS, YORK"
      }
    ]
  },
  {
    "postal": "M6S3H1",
    "result": [
      {
        "electoralDistricts": [
          {
            "election": null,
            "id": 83,
            "name": "Parkdale—High Park"
          }
        ],
        "pollDivisionIds": [
          10126426
        ],
        "postalCode": "M6S3H1",
        "streetName": "DURIE",
        "streetDirectionId": null,
        "streetTypeId": "ST",
        "placeName": "YORK",
        "streetNameDisplayText": "DURIE ST, YORK"
      }
    ]
  },
  {
    "postal": "M6S4Y1",
    "result": []
  },
  {
    "postal": "M6S7E2",
    "result": []
  },
  {
    "postal": "M6S2P5",
    "result": [
      {
        "electoralDistricts": [
          {
            "election": null,
            "id": 83,
            "name": "Parkdale—High Park"
          }
        ],
        "pollDivisionIds": [
          10126422
        ],
        "postalCode": "M6S2P5",
        "streetName": "PAGE",
        "streetDirectionId": null,
        "streetTypeId": "AVE",
        "placeName": "YORK",
        "streetNameDisplayText": "PAGE AVE, YORK"
      }
    ]
  },
  {
    "postal": "M6S8R7",
    "result": []
  },
  {
    "postal": "M6S9P1",
    "result": []
  },
  {
    "postal": "M6S3B8",
    "result": [
      {
        "electoralDistricts": [
          {
            "election": null,
            "id": 83,
            "name": "Parkdale—High Park"
          }
        ],
        "pollDivisionIds": [
          10126427
        ],
        "postalCode": "M6S3B8",
        "streetName": "BERESFORD",
        "streetDirectionId": null,
        "streetTypeId": "AVE",
        "placeName": "TORONTO",
        "streetNameDisplayText": "BERESFORD AVE, TORONTO"
      }
    ]
  },
  {
    "postal": "M6S3P7",
    "result": [
      {
        "electoralDistricts": [
          {
            "election": null,
            "id": 83,
            "name": "Parkdale—High Park"
          }
        ],
        "pollDivisionIds": [
          10126437
        ],
        "postalCode": "M6S3P7",
        "streetName": "WILLARD",
        "streetDirectionId": null,
        "streetTypeId": "AVE",
        "placeName": "TORONTO",
        "streetNameDisplayText": "WILLARD AVE, TORONTO"
      }
    ]
  },
  {
    "postal": "M6S9B2",
    "result": []
  },
  {
    "postal": "M6S6Z3",
    "result": []
  },
  {
    "postal": "M6S4N5",
    "result": [
      {
        "electoralDistricts": [
          {
            "election": null,
            "id": 83,
            "name": "Parkdale—High Park"
          }
        ],
        "pollDivisionIds": [
          10126422
        ],
        "postalCode": "M6S4N5",
        "streetName": "VARSITY",
        "streetDirectionId": null,
        "streetTypeId": "RD",
        "placeName": "YORK",
        "streetNameDisplayText": "VARSITY RD, YORK"
      }
    ]
  },
  {
    "postal": "M6S8T3",
    "result": []
  },
  {
    "postal": "M6S1V2",
    "result": [
      {
        "electoralDistricts": [
          {
            "election": null,
            "id": 83,
            "name": "Parkdale—High Park"
          }
        ],
        "pollDivisionIds": [
          10126431
        ],
        "postalCode": "M6S1V2",
        "streetName": "COLBECK",
        "streetDirectionId": null,
        "streetTypeId": "ST",
        "placeName": "TORONTO",
        "streetNameDisplayText": "COLBECK ST, TORONTO"
      }
    ]
  },
  {
    "postal": "M6S1Y0",
    "result": []
  },
  {
    "postal": "M6S3G6",
    "result": [
      {
        "electoralDistricts": [
          {
            "election": null,
            "id": 83,
            "name": "Parkdale—High Park"
          }
        ],
        "pollDivisionIds": [
          10126427
        ],
        "postalCode": "M6S3G6",
        "streetName": "DURIE",
        "streetDirectionId": null,
        "streetTypeId": "ST",
        "placeName": "TORONTO",
        "streetNameDisplayText": "DURIE ST, TORONTO"
      }
    ]
  },
  {
    "postal": "M6S3H7",
    "result": [
      {
        "electoralDistricts": [
          {
            "election": null,
            "id": 83,
            "name": "Parkdale—High Park"
          }
        ],
        "pollDivisionIds": [
          10126437
        ],
        "postalCode": "M6S3H7",
        "streetName": "LAVINIA",
        "streetDirectionId": null,
        "streetTypeId": "AVE",
        "placeName": "TORONTO",
        "streetNameDisplayText": "LAVINIA AVE, TORONTO"
      }
    ]
  },
  {
    "postal": "M6S7X8",
    "result": []
  },
  {
    "postal": "M6S0C7",
    "result": []
  },
  {
    "postal": "M6S0W9",
    "result": []
  },
  {
    "postal": "M6S8E6",
    "result": []
  },
  {
    "postal": "M6S9Z8",
    "result": []
  },
  {
    "postal": "M6S3P4",
    "result": [
      {
        "electoralDistricts": [
          {
            "election": null,
            "id": 83,
            "name": "Parkdale—High Park"
          }
        ],
        "pollDivisionIds": [
          10126438
        ],
        "postalCode": "M6S3P4",
        "streetName": "WORTHINGTON",
        "streetDirectionId": null,
        "streetTypeId": "CRES",
        "placeName": "TORONTO",
        "streetNameDisplayText": "WORTHINGTON CRES, TORONTO"
      }
    ]
  },
  {
    "postal": "M6S6L8",
    "result": []
  },
  {
    "postal": "M6S2R4",
    "result": [
      {
        "electoralDistricts": [
          {
            "election": null,
            "id": 83,
            "name": "Parkdale—High Park"
          }
        ],
        "pollDivisionIds": [
          10126422
        ],
        "postalCode": "M6S2R4",
        "streetName": "OLD DUNDAS",
        "streetDirectionId": null,
        "streetTypeId": "ST",
        "placeName": "YORK",
        "streetNameDisplayText": "OLD DUNDAS ST, YORK"
      }
    ]
  },
  {
    "postal": "M6S2W1",
    "result": [
      {
        "electoralDistricts": [
          {
            "election": null,
            "id": 83,
            "name": "Parkdale—High Park"
          }
        ],
        "pollDivisionIds": [
          10126437
        ],
        "postalCode": "M6S2W1",
        "streetName": "DACRE",
        "streetDirectionId": null,
        "streetTypeId": "CRES",
        "placeName": "TORONTO",
        "streetNameDisplayText": "DACRE CRES, TORONTO"
      }
    ]
  },
  {
    "postal": "M6S9H8",
    "result": []
  },
  {
    "postal": "M6S8X9",
    "result": []
  },
  {
    "postal": "M6S7H4",
    "result": []
  },
  {
    "postal": "M6S3J1",
    "result": [
      {
        "electoralDistricts": [
          {
            "election": null,
            "id": 83,
            "name": "Parkdale—High Park"
          }
        ],
        "pollDivisionIds": [
          10126452
        ],
        "postalCode": "M6S3J1",
        "streetName": "WINDERMERE",
        "streetDirectionId": null,
        "streetTypeId": "AVE",
        "placeName": "TORONTO",
        "streetNameDisplayText": "WINDERMERE AVE, TORONTO"
      }
    ]
  },
  {
    "postal": "M6S1P4",
    "result": []
  },
  {
    "postal": "M6S2A3",
    "result": [
      {
        "electoralDistricts": [
          {
            "election": null,
            "id": 83,
            "name": "Parkdale—High Park"
          }
        ],
        "pollDivisionIds": [
          10126427
        ],
        "postalCode": "M6S2A3",
        "streetName": "MACGREGOR",
        "streetDirectionId": null,
        "streetTypeId": "AVE",
        "placeName": "TORONTO",
        "streetNameDisplayText": "MACGREGOR AVE, TORONTO"
      }
    ]
  },
  {
    "postal": "M6S0Z1",
    "result": []
  },
  {
    "postal": "M6S1C1",
    "result": [
      {
        "electoralDistricts": [
          {
            "election": null,
            "id": 83,
            "name": "Parkdale—High Park"
          }
        ],
        "pollDivisionIds": [
          10126438
        ],
        "postalCode": "M6S1C1",
        "streetName": "MORNINGSIDE",
        "streetDirectionId": null,
        "streetTypeId": "AVE",
        "placeName": "TORONTO",
        "streetNameDisplayText": "MORNINGSIDE AVE, TORONTO"
      }
    ]
  },
  {
    "postal": "M6S0H3",
    "result": []
  },
  {
    "postal": "M6S7B0",
    "result": []
  },
  {
    "postal": "M6S5K2",
    "result": []
  },
  {
    "postal": "M6S1E9",
    "result": [
      {
        "electoralDistricts": [
          {
            "election": null,
            "id": 83,
            "name": "Parkdale—High Park"
          }
        ],
        "pollDivisionIds": [
          10126437
        ],
        "postalCode": "M6S1E9",
        "streetName": "WILLARD",
        "streetDirectionId": null,
        "streetTypeId": "GDNS",
        "placeName": "TORONTO",
        "streetNameDisplayText": "WILLARD GDNS, TORONTO"
      }
    ]
  },
  {
    "postal": "M6S9W7",
    "result": []
  },
  {
    "postal": "M6S5W6",
    "result": []
  },
  {
    "postal": "M6S6S6",
    "result": []
  },
  {
    "postal": "M6S2P8",
    "result": [
      {
        "electoralDistricts": [
          {
            "election": null,
            "id": 83,
            "name": "Parkdale—High Park"
          }
        ],
        "pollDivisionIds": [
          10126422
        ],
        "postalCode": "M6S2P8",
        "streetName": "CROSBY",
        "streetDirectionId": null,
        "streetTypeId": "AVE",
        "placeName": "YORK",
        "streetNameDisplayText": "CROSBY AVE, YORK"
      }
    ]
  },
  {
    "postal": "M6S4P8",
    "result": [
      {
        "electoralDistricts": [
          {
            "election": null,
            "id": 83,
            "name": "Parkdale—High Park"
          }
        ],
        "pollDivisionIds": [
          10126422
        ],
        "postalCode": "M6S4P8",
        "streetName": "SUN VALLEY",
        "streetDirectionId": null,
        "streetTypeId": "DR",
        "placeName": "YORK",
        "streetNameDisplayText": "SUN VALLEY DR, YORK"
      }
    ]
  },
  {
    "postal": "M6S0V9",
    "result": []
  },
  {
    "postal": "M6S5Y2",
    "result": []
  },
  {
    "postal": "M6S7Z7",
    "result": []
  },
  {
    "postal": "M6S6Y8",
    "result": []
  },
  {
    "postal": "M6S2G7",
    "result": [
      {
        "electoralDistricts": [
          {
            "election": null,
            "id": 83,
            "name": "Parkdale—High Park"
          }
        ],
        "pollDivisionIds": [
          10126425
        ],
        "postalCode": "M6S2G7",
        "streetName": "BABY POINT",
        "streetDirectionId": null,
        "streetTypeId": "RD",
        "placeName": "YORK",
        "streetNameDisplayText": "BABY POINT RD, YORK"
      }
    ]
  },
  {
    "postal": "M6S8C1",
    "result": []
  },
  {
    "postal": "M6S5C5",
    "result": []
  },
  {
    "postal": "M6S2X8",
    "result": [
      {
        "electoralDistricts": [
          {
            "election": null,
            "id": 83,
            "name": "Parkdale—High Park"
          }
        ],
        "pollDivisionIds": [
          10126437
        ],
        "postalCode": "M6S2X8",
        "streetName": "KENNEDY",
        "streetDirectionId": null,
        "streetTypeId": "AVE",
        "placeName": "TORONTO",
        "streetNameDisplayText": "KENNEDY AVE, TORONTO"
      }
    ]
  },
  {
    "postal": "M6S1W5",
    "result": [
      {
        "electoralDistricts": [
          {
            "election": null,
            "id": 83,
            "name": "Parkdale—High Park"
          }
        ],
        "pollDivisionIds": [
          10126430
        ],
        "postalCode": "M6S1W5",
        "streetName": "HUMBERVIEW",
        "streetDirectionId": null,
        "streetTypeId": "RD",
        "placeName": "YORK",
        "streetNameDisplayText": "HUMBERVIEW RD, YORK"
      }
    ]
  },
  {
    "postal": "M6S7G0",
    "result": []
  },
  {
    "postal": "M6S8J8",
    "result": []
  },
  {
    "postal": "M6S3Y0",
    "result": []
  },
  {
    "postal": "M6S9T7",
    "result": []
  },
  {
    "postal": "M6S5P4",
    "result": []
  },
  {
    "postal": "M6S4B0",
    "result": []
  },
  {
    "postal": "M6S9N8",
    "result": []
  },
  {
    "postal": "M6S4A7",
    "result": [
      {
        "electoralDistricts": [
          {
            "election": null,
            "id": 83,
            "name": "Parkdale—High Park"
          }
        ],
        "pollDivisionIds": [
          10126438
        ],
        "postalCode": "M6S4A7",
        "streetName": "RIVERSIDE",
        "streetDirectionId": null,
        "streetTypeId": "DR",
        "placeName": "TORONTO",
        "streetNameDisplayText": "RIVERSIDE DR, TORONTO"
      }
    ]
  },
  {
    "postal": "M6S4H9",
    "result": [
      {
        "electoralDistricts": [
          {
            "election": null,
            "id": 83,
            "name": "Parkdale—High Park"
          }
        ],
        "pollDivisionIds": [
          10126436
        ],
        "postalCode": "M6S4H9",
        "streetName": "BRULE",
        "streetDirectionId": null,
        "streetTypeId": "CRES",
        "placeName": "TORONTO",
        "streetNameDisplayText": "BRULE CRES, TORONTO"
      }
    ]
  },
  {
    "postal": "M6S6X1",
    "result": []
  },
  {
    "postal": "M6S9Y7",
    "result": []
  },
  {
    "postal": "M6S2Y5",
    "result": [
      {
        "electoralDistricts": [
          {
            "election": null,
            "id": 83,
            "name": "Parkdale—High Park"
          }
        ],
        "pollDivisionIds": [
          10126431
        ],
        "postalCode": "M6S2Y5",
        "streetName": "RUNNYMEDE",
        "streetDirectionId": null,
        "streetTypeId": "RD",
        "placeName": "TORONTO",
        "streetNameDisplayText": "RUNNYMEDE RD, TORONTO"
      }
    ]
  },
  {
    "postal": "M6S8L7",
    "result": []
  },
  {
    "postal": "M6S2A8",
    "result": [
      {
        "electoralDistricts": [
          {
            "election": null,
            "id": 83,
            "name": "Parkdale—High Park"
          }
        ],
        "pollDivisionIds": [
          10126425
        ],
        "postalCode": "M6S2A8",
        "streetName": "LANGMUIR",
        "streetDirectionId": null,
        "streetTypeId": "CRES",
        "placeName": "YORK",
        "streetNameDisplayText": "LANGMUIR CRES, YORK"
      }
    ]
  },
  {
    "postal": "M6S2K9",
    "result": [
      {
        "electoralDistricts": [
          {
            "election": null,
            "id": 83,
            "name": "Parkdale—High Park"
          }
        ],
        "pollDivisionIds": [
          10126426
        ],
        "postalCode": "M6S2K9",
        "streetName": "ST JOHNS",
        "streetDirectionId": null,
        "streetTypeId": "RD",
        "placeName": "YORK",
        "streetNameDisplayText": "ST JOHNS RD, YORK"
      }
    ]
  },
  {
    "postal": "M6S3E5",
    "result": [
      {
        "electoralDistricts": [
          {
            "election": null,
            "id": 83,
            "name": "Parkdale—High Park"
          }
        ],
        "pollDivisionIds": [
          10126437
        ],
        "postalCode": "M6S3E5",
        "streetName": "DURIE",
        "streetDirectionId": null,
        "streetTypeId": "ST",
        "placeName": "TORONTO",
        "streetNameDisplayText": "DURIE ST, TORONTO"
      }
    ]
  },
  {
    "postal": "M6S8N6",
    "result": []
  },
  {
    "postal": "M6S8J4",
    "result": []
  },
  {
    "postal": "M6S4R7",
    "result": [
      {
        "electoralDistricts": [
          {
            "election": null,
            "id": 83,
            "name": "Parkdale—High Park"
          }
        ],
        "pollDivisionIds": [
          10126422
        ],
        "postalCode": "M6S4R7",
        "streetName": "PASADENA",
        "streetDirectionId": null,
        "streetTypeId": "GDNS",
        "placeName": "YORK",
        "streetNameDisplayText": "PASADENA GDNS, YORK"
      }
    ]
  },
  {
    "postal": "M6S9K1",
    "result": []
  },
  {
    "postal": "M6S8E1",
    "result": []
  },
  {
    "postal": "M6S0R1",
    "result": []
  },
  {
    "postal": "M6S4J3",
    "result": [
      {
        "electoralDistricts": [
          {
            "election": null,
            "id": 83,
            "name": "Parkdale—High Park"
          }
        ],
        "pollDivisionIds": [
          10126436
        ],
        "postalCode": "M6S4J3",
        "streetName": "BRULE",
        "streetDirectionId": null,
        "streetTypeId": "GDNS",
        "placeName": "TORONTO",
        "streetNameDisplayText": "BRULE GDNS, TORONTO"
      }
    ]
  },
  {
    "postal": "M6S7E7",
    "result": []
  },
  {
    "postal": "M6S0J0",
    "result": []
  },
  {
    "postal": "M6S7R8",
    "result": []
  },
  {
    "postal": "M6S9X0",
    "result": []
  },
  {
    "postal": "M6S7P6",
    "result": []
  },
  {
    "postal": "M6S0R7",
    "result": []
  },
  {
    "postal": "M6S5W1",
    "result": []
  },
  {
    "postal": "M6S0K4",
    "result": []
  },
  {
    "postal": "M6S7N9",
    "result": []
  },
  {
    "postal": "M6S1N0",
    "result": []
  },
  {
    "postal": "M6S6P3",
    "result": []
  },
  {
    "postal": "M6S5A1",
    "result": []
  },
  {
    "postal": "M6S9M9",
    "result": []
  },
  {
    "postal": "M6S7T6",
    "result": []
  },
  {
    "postal": "M6S3X0",
    "result": []
  },
  {
    "postal": "M6S2T0",
    "result": []
  },
  {
    "postal": "M6S5X9",
    "result": []
  },
  {
    "postal": "M6S2R3",
    "result": [
      {
        "electoralDistricts": [
          {
            "election": null,
            "id": 83,
            "name": "Parkdale—High Park"
          }
        ],
        "pollDivisionIds": [
          10126422
        ],
        "postalCode": "M6S2R3",
        "streetName": "JULIANA",
        "streetDirectionId": null,
        "streetTypeId": "CRT",
        "placeName": "YORK",
        "streetNameDisplayText": "JULIANA CRT, YORK"
      }
    ]
  },
  {
    "postal": "M6S5N2",
    "result": []
  },
  {
    "postal": "M6S4Y7",
    "result": []
  },
  {
    "postal": "M6S7M0",
    "result": []
  },
  {
    "postal": "M6S8P3",
    "result": []
  },
  {
    "postal": "M6S3N3",
    "result": [
      {
        "electoralDistricts": [
          {
            "election": null,
            "id": 83,
            "name": "Parkdale—High Park"
          }
        ],
        "pollDivisionIds": [
          10126438
        ],
        "postalCode": "M6S3N3",
        "streetName": "SOUTHPORT",
        "streetDirectionId": null,
        "streetTypeId": "ST",
        "placeName": "TORONTO",
        "streetNameDisplayText": "SOUTHPORT ST, TORONTO"
      }
    ]
  },
  {
    "postal": "M6S7S3",
    "result": []
  },
  {
    "postal": "M6S3V9",
    "result": [
      {
        "electoralDistricts": [
          {
            "election": null,
            "id": 83,
            "name": "Parkdale—High Park"
          }
        ],
        "pollDivisionIds": [
          10126427
        ],
        "postalCode": "M6S3V9",
        "streetName": "EVANS",
        "streetDirectionId": null,
        "streetTypeId": "AVE",
        "placeName": "TORONTO",
        "streetNameDisplayText": "EVANS AVE, TORONTO"
      }
    ]
  },
  {
    "postal": "M6S9N7",
    "result": []
  },
  {
    "postal": "M6S0G4",
    "result": []
  },
  {
    "postal": "M6S2E2",
    "result": [
      {
        "electoralDistricts": [
          {
            "election": null,
            "id": 83,
            "name": "Parkdale—High Park"
          }
        ],
        "pollDivisionIds": [
          10126425
        ],
        "postalCode": "M6S2E2",
        "streetName": "ANNETTE",
        "streetDirectionId": null,
        "streetTypeId": "ST",
        "placeName": "TORONTO",
        "streetNameDisplayText": "ANNETTE ST, TORONTO"
      }
    ]
  },
  {
    "postal": "M6S7W8",
    "result": []
  },
  {
    "postal": "M6S7M5",
    "result": []
  },
  {
    "postal": "M6S5W8",
    "result": []
  },
  {
    "postal": "M6S5E5",
    "result": []
  },
  {
    "postal": "M6S1P9",
    "result": [
      {
        "electoralDistricts": [
          {
            "election": null,
            "id": 83,
            "name": "Parkdale—High Park"
          }
        ],
        "pollDivisionIds": [
          10126430
        ],
        "postalCode": "M6S1P9",
        "streetName": "BLOOR",
        "streetDirectionId": "W",
        "streetTypeId": "ST",
        "placeName": "TORONTO",
        "streetNameDisplayText": "BLOOR ST W, TORONTO"
      }
    ]
  },
  {
    "postal": "M6S8V8",
    "result": []
  },
  {
    "postal": "M6S9G8",
    "result": []
  },
  {
    "postal": "M6S8H9",
    "result": []
  },
  {
    "postal": "M6S1Z1",
    "result": [
      {
        "electoralDistricts": [
          {
            "election": null,
            "id": 83,
            "name": "Parkdale—High Park"
          }
        ],
        "pollDivisionIds": [
          10126431
        ],
        "postalCode": "M6S1Z1",
        "streetName": "ARDAGH",
        "streetDirectionId": null,
        "streetTypeId": "ST",
        "placeName": "TORONTO",
        "streetNameDisplayText": "ARDAGH ST, TORONTO"
      }
    ]
  },
  {
    "postal": "M6S8M3",
    "result": []
  },
  {
    "postal": "M6S5H6",
    "result": []
  },
  {
    "postal": "M6S7W7",
    "result": []
  },
  {
    "postal": "M6S4L0",
    "result": []
  },
  {
    "postal": "M6S2N1",
    "result": [
      {
        "electoralDistricts": [
          {
            "election": null,
            "id": 83,
            "name": "Parkdale—High Park"
          }
        ],
        "pollDivisionIds": [
          10126422
        ],
        "postalCode": "M6S2N1",
        "streetName": "BRADLEY",
        "streetDirectionId": null,
        "streetTypeId": "AVE",
        "placeName": "YORK",
        "streetNameDisplayText": "BRADLEY AVE, YORK"
      }
    ]
  },
  {
    "postal": "M6S2H4",
    "result": [
      {
        "electoralDistricts": [
          {
            "election": null,
            "id": 83,
            "name": "Parkdale—High Park"
          }
        ],
        "pollDivisionIds": [
          10126426
        ],
        "postalCode": "M6S2H4",
        "streetName": "HANLEY",
        "streetDirectionId": null,
        "streetTypeId": "ST",
        "placeName": "YORK",
        "streetNameDisplayText": "HANLEY ST, YORK"
      }
    ]
  },
  {
    "postal": "M6S5C8",
    "result": []
  },
  {
    "postal": "M6S8B0",
    "result": []
  },
  {
    "postal": "M6S1T4",
    "result": [
      {
        "electoralDistricts": [
          {
            "election": null,
            "id": 83,
            "name": "Parkdale—High Park"
          }
        ],
        "pollDivisionIds": [
          10126430
        ],
        "postalCode": "M6S1T4",
        "streetName": "GRASSMERE",
        "streetDirectionId": null,
        "streetTypeId": "RD",
        "placeName": "TORONTO",
        "streetNameDisplayText": "GRASSMERE RD, TORONTO"
      }
    ]
  },
  {
    "postal": "M6S7N7",
    "result": []
  },
  {
    "postal": "M6S4L3",
    "result": [
      {
        "electoralDistricts": [
          {
            "election": null,
            "id": 83,
            "name": "Parkdale—High Park"
          }
        ],
        "pollDivisionIds": [
          10126422
        ],
        "postalCode": "M6S4L3",
        "streetName": "HUMBERCREST",
        "streetDirectionId": null,
        "streetTypeId": "BLVD",
        "placeName": "YORK",
        "streetNameDisplayText": "HUMBERCREST BLVD, YORK"
      }
    ]
  },
  {
    "postal": "M6S2N2",
    "result": [
      {
        "electoralDistricts": [
          {
            "election": null,
            "id": 83,
            "name": "Parkdale—High Park"
          }
        ],
        "pollDivisionIds": [
          10126422
        ],
        "postalCode": "M6S2N2",
        "streetName": "VAN STASSEN",
        "streetDirectionId": null,
        "streetTypeId": "BLVD",
        "placeName": "TORONTO",
        "streetNameDisplayText": "VAN STASSEN BLVD, TORONTO"
      },
      {
        "electoralDistricts": [
          {
            "election": null,
            "id": 83,
            "name": "Parkdale—High Park"
          }
        ],
        "pollDivisionIds": [
          10126422
        ],
        "postalCode": "M6S2N2",
        "streetName": "VAN STASSEN",
        "streetDirectionId": null,
        "streetTypeId": "BLVD",
        "placeName": "YORK",
        "streetNameDisplayText": "VAN STASSEN BLVD, YORK"
      }
    ]
  },
  {
    "postal": "M6S4N8",
    "result": [
      {
        "electoralDistricts": [
          {
            "election": null,
            "id": 83,
            "name": "Parkdale—High Park"
          }
        ],
        "pollDivisionIds": [
          10126422
        ],
        "postalCode": "M6S4N8",
        "streetName": "VARSITY",
        "streetDirectionId": null,
        "streetTypeId": "RD",
        "placeName": "YORK",
        "streetNameDisplayText": "VARSITY RD, YORK"
      }
    ]
  },
  {
    "postal": "M6S3M5",
    "result": [
      {
        "electoralDistricts": [
          {
            "election": null,
            "id": 83,
            "name": "Parkdale—High Park"
          }
        ],
        "pollDivisionIds": [
          10126426
        ],
        "postalCode": "M6S3M5",
        "streetName": "WINDERMERE",
        "streetDirectionId": null,
        "streetTypeId": "AVE",
        "placeName": "YORK",
        "streetNameDisplayText": "WINDERMERE AVE, YORK"
      }
    ]
  },
  {
    "postal": "M6S6H7",
    "result": []
  },
  {
    "postal": "M6S8Y8",
    "result": []
  },
  {
    "postal": "M6S5R9",
    "result": []
  },
  {
    "postal": "M6S8G3",
    "result": []
  },
  {
    "postal": "M6S4N7",
    "result": [
      {
        "electoralDistricts": [
          {
            "election": null,
            "id": 83,
            "name": "Parkdale—High Park"
          }
        ],
        "pollDivisionIds": [
          10126422
        ],
        "postalCode": "M6S4N7",
        "streetName": "VARSITY",
        "streetDirectionId": null,
        "streetTypeId": "RD",
        "placeName": "YORK",
        "streetNameDisplayText": "VARSITY RD, YORK"
      }
    ]
  },
  {
    "postal": "M6S0B9",
    "result": []
  },
  {
    "postal": "M6S9K7",
    "result": []
  },
  {
    "postal": "M6S9K9",
    "result": []
  },
  {
    "postal": "M6S3Z2",
    "result": [
      {
        "electoralDistricts": [
          {
            "election": null,
            "id": 83,
            "name": "Parkdale—High Park"
          }
        ],
        "pollDivisionIds": [
          10126425
        ],
        "postalCode": "M6S3Z2",
        "streetName": "JANE",
        "streetDirectionId": null,
        "streetTypeId": "ST",
        "placeName": "TORONTO",
        "streetNameDisplayText": "JANE ST, TORONTO"
      }
    ]
  },
  {
    "postal": "M6S6W7",
    "result": []
  },
  {
    "postal": "M6S0P1",
    "result": []
  },
  {
    "postal": "M6S3A0",
    "result": []
  },
  {
    "postal": "M6S8L9",
    "result": []
  },
  {
    "postal": "M6S6X0",
    "result": []
  },
  {
    "postal": "M6S3E9",
    "result": [
      {
        "electoralDistricts": [
          {
            "election": null,
            "id": 83,
            "name": "Parkdale—High Park"
          }
        ],
        "pollDivisionIds": [
          10126437
        ],
        "postalCode": "M6S3E9",
        "streetName": "DURIE",
        "streetDirectionId": null,
        "streetTypeId": "ST",
        "placeName": "TORONTO",
        "streetNameDisplayText": "DURIE ST, TORONTO"
      }
    ]
  },
  {
    "postal": "M6S0S5",
    "result": []
  },
  {
    "postal": "M6S1A2",
    "result": [
      {
        "electoralDistricts": [
          {
            "election": null,
            "id": 83,
            "name": "Parkdale—High Park"
          }
        ],
        "pollDivisionIds": [
          10126438,
          10126476
        ],
        "postalCode": "M6S1A2",
        "streetName": "LAKE SHORE",
        "streetDirectionId": "W",
        "streetTypeId": "BLVD",
        "placeName": "TORONTO",
        "streetNameDisplayText": "LAKE SHORE BLVD W, TORONTO"
      }
    ]
  },
  {
    "postal": "M6S5V8",
    "result": []
  },
  {
    "postal": "M6S8C5",
    "result": []
  },
  {
    "postal": "M6S6N0",
    "result": []
  },
  {
    "postal": "M6S9E6",
    "result": []
  },
  {
    "postal": "M6S5J7",
    "result": []
  },
  {
    "postal": "M6S2R2",
    "result": [
      {
        "electoralDistricts": [
          {
            "election": null,
            "id": 83,
            "name": "Parkdale—High Park"
          }
        ],
        "pollDivisionIds": [
          10126422
        ],
        "postalCode": "M6S2R2",
        "streetName": "JULIANA",
        "streetDirectionId": null,
        "streetTypeId": "CRT",
        "placeName": "YORK",
        "streetNameDisplayText": "JULIANA CRT, YORK"
      }
    ]
  },
  {
    "postal": "M6S0P5",
    "result": []
  },
  {
    "postal": "M6S5A7",
    "result": [
      {
        "electoralDistricts": [
          {
            "election": null,
            "id": 83,
            "name": "Parkdale—High Park"
          }
        ],
        "pollDivisionIds": [
          10126475
        ],
        "postalCode": "M6S5A7",
        "streetName": "THE QUEENSWAY",
        "streetDirectionId": null,
        "streetTypeId": null,
        "placeName": "TORONTO",
        "streetNameDisplayText": "THE QUEENSWAY, TORONTO"
      }
    ]
  },
  {
    "postal": "M6S1G1",
    "result": [
      {
        "electoralDistricts": [
          {
            "election": null,
            "id": 83,
            "name": "Parkdale—High Park"
          }
        ],
        "pollDivisionIds": [
          10126437
        ],
        "postalCode": "M6S1G1",
        "streetName": "WILLARD",
        "streetDirectionId": null,
        "streetTypeId": "GDNS",
        "placeName": "TORONTO",
        "streetNameDisplayText": "WILLARD GDNS, TORONTO"
      }
    ]
  },
  {
    "postal": "M6S9R6",
    "result": []
  },
  {
    "postal": "M6S4Z9",
    "result": []
  },
  {
    "postal": "M6S1V5",
    "result": [
      {
        "electoralDistricts": [
          {
            "election": null,
            "id": 83,
            "name": "Parkdale—High Park"
          }
        ],
        "pollDivisionIds": [
          10126431
        ],
        "postalCode": "M6S1V5",
        "streetName": "COLBECK",
        "streetDirectionId": null,
        "streetTypeId": "ST",
        "placeName": "TORONTO",
        "streetNameDisplayText": "COLBECK ST, TORONTO"
      }
    ]
  },
  {
    "postal": "M6S9Y5",
    "result": []
  },
  {
    "postal": "M6S1P2",
    "result": [
      {
        "electoralDistricts": [
          {
            "election": null,
            "id": 83,
            "name": "Parkdale—High Park"
          }
        ],
        "pollDivisionIds": [
          10126431
        ],
        "postalCode": "M6S1P2",
        "streetName": "BLOOR",
        "streetDirectionId": "W",
        "streetTypeId": "ST",
        "placeName": "TORONTO",
        "streetNameDisplayText": "BLOOR ST W, TORONTO"
      }
    ]
  },
  {
    "postal": "M6S5X0",
    "result": []
  },
  {
    "postal": "M6S7B8",
    "result": []
  },
  {
    "postal": "M6S0C6",
    "result": []
  },
  {
    "postal": "M6S6G1",
    "result": []
  },
  {
    "postal": "M6S3K3",
    "result": [
      {
        "electoralDistricts": [
          {
            "election": null,
            "id": 83,
            "name": "Parkdale—High Park"
          }
        ],
        "pollDivisionIds": [
          10126437
        ],
        "postalCode": "M6S3K3",
        "streetName": "WINDERMERE",
        "streetDirectionId": null,
        "streetTypeId": "AVE",
        "placeName": "TORONTO",
        "streetNameDisplayText": "WINDERMERE AVE, TORONTO"
      }
    ]
  },
  {
    "postal": "M6S9R0",
    "result": []
  },
  {
    "postal": "M6S4R8",
    "result": [
      {
        "electoralDistricts": [
          {
            "election": null,
            "id": 83,
            "name": "Parkdale—High Park"
          }
        ],
        "pollDivisionIds": [
          10126422
        ],
        "postalCode": "M6S4R8",
        "streetName": "HUMBERHILL",
        "streetDirectionId": null,
        "streetTypeId": "AVE",
        "placeName": "YORK",
        "streetNameDisplayText": "HUMBERHILL AVE, YORK"
      }
    ]
  },
  {
    "postal": "M6S5P9",
    "result": []
  },
  {
    "postal": "M6S8N4",
    "result": []
  },
  {
    "postal": "M6S8H4",
    "result": []
  },
  {
    "postal": "M6S4V1",
    "result": [
      {
        "electoralDistricts": [
          {
            "election": null,
            "id": 83,
            "name": "Parkdale—High Park"
          }
        ],
        "pollDivisionIds": [
          10126425
        ],
        "postalCode": "M6S4V1",
        "streetName": "HUMBERCREST",
        "streetDirectionId": null,
        "streetTypeId": "BLVD",
        "placeName": "YORK",
        "streetNameDisplayText": "HUMBERCREST BLVD, YORK"
      }
    ]
  },
  {
    "postal": "M6S1K5",
    "result": [
      {
        "electoralDistricts": [
          {
            "election": null,
            "id": 83,
            "name": "Parkdale—High Park"
          }
        ],
        "pollDivisionIds": [
          10126437
        ],
        "postalCode": "M6S1K5",
        "streetName": "MAYFIELD",
        "streetDirectionId": null,
        "streetTypeId": "AVE",
        "placeName": "TORONTO",
        "streetNameDisplayText": "MAYFIELD AVE, TORONTO"
      }
    ]
  },
  {
    "postal": "M6S1Z5",
    "result": [
      {
        "electoralDistricts": [
          {
            "election": null,
            "id": 83,
            "name": "Parkdale—High Park"
          }
        ],
        "pollDivisionIds": [
          10126425
        ],
        "postalCode": "M6S1Z5",
        "streetName": "METHUEN",
        "streetDirectionId": null,
        "streetTypeId": "AVE",
        "placeName": "TORONTO",
        "streetNameDisplayText": "METHUEN AVE, TORONTO"
      }
    ]
  },
  {
    "postal": "M6S9L9",
    "result": []
  },
  {
    "postal": "M6S5L2",
    "result": []
  },
  {
    "postal": "M6S0M2",
    "result": []
  },
  {
    "postal": "M6S1K8",
    "result": [
      {
        "electoralDistricts": [
          {
            "election": null,
            "id": 83,
            "name": "Parkdale—High Park"
          }
        ],
        "pollDivisionIds": [
          10126436
        ],
        "postalCode": "M6S1K8",
        "streetName": "MAYFIELD",
        "streetDirectionId": null,
        "streetTypeId": "AVE",
        "placeName": "TORONTO",
        "streetNameDisplayText": "MAYFIELD AVE, TORONTO"
      }
    ]
  },
  {
    "postal": "M6S3M7",
    "result": [
      {
        "electoralDistricts": [
          {
            "election": null,
            "id": 83,
            "name": "Parkdale—High Park"
          }
        ],
        "pollDivisionIds": [
          10126423
        ],
        "postalCode": "M6S3M7",
        "streetName": "WINDERMERE",
        "streetDirectionId": null,
        "streetTypeId": "AVE",
        "placeName": "YORK",
        "streetNameDisplayText": "WINDERMERE AVE, YORK"
      }
    ]
  },
  {
    "postal": "M6S1B2",
    "result": [
      {
        "electoralDistricts": [
          {
            "election": null,
            "id": 83,
            "name": "Parkdale—High Park"
          }
        ],
        "pollDivisionIds": [
          10126438
        ],
        "postalCode": "M6S1B2",
        "streetName": "ORMSKIRK",
        "streetDirectionId": null,
        "streetTypeId": "CRT",
        "placeName": "TORONTO",
        "streetNameDisplayText": "ORMSKIRK CRT, TORONTO"
      }
    ]
  },
  {
    "postal": "M6S0H9",
    "result": []
  },
  {
    "postal": "M6S8M4",
    "result": []
  },
  {
    "postal": "M6S2M5",
    "result": [
      {
        "electoralDistricts": [
          {
            "election": null,
            "id": 83,
            "name": "Parkdale—High Park"
          }
        ],
        "pollDivisionIds": [
          10126422
        ],
        "postalCode": "M6S2M5",
        "streetName": "MAGWOOD",
        "streetDirectionId": null,
        "streetTypeId": "CRT",
        "placeName": "YORK",
        "streetNameDisplayText": "MAGWOOD CRT, YORK"
      }
    ]
  },
  {
    "postal": "M6S0T9",
    "result": []
  },
  {
    "postal": "M6S3P1",
    "result": [
      {
        "electoralDistricts": [
          {
            "election": null,
            "id": 83,
            "name": "Parkdale—High Park"
          }
        ],
        "pollDivisionIds": [
          10126438
        ],
        "postalCode": "M6S3P1",
        "streetName": "RIPLEY",
        "streetDirectionId": null,
        "streetTypeId": "AVE",
        "placeName": "TORONTO",
        "streetNameDisplayText": "RIPLEY AVE, TORONTO"
      }
    ]
  },
  {
    "postal": "M6S1R6",
    "result": [
      {
        "electoralDistricts": [
          {
            "election": null,
            "id": 83,
            "name": "Parkdale—High Park"
          }
        ],
        "pollDivisionIds": [
          10126436
        ],
        "postalCode": "M6S1R6",
        "streetName": "BLOOR",
        "streetDirectionId": "W",
        "streetTypeId": "ST",
        "placeName": "TORONTO",
        "streetNameDisplayText": "BLOOR ST W, TORONTO"
      }
    ]
  },
  {
    "postal": "M6S9V5",
    "result": []
  },
  {
    "postal": "M6S9T0",
    "result": []
  },
  {
    "postal": "M6S0A9",
    "result": []
  },
  {
    "postal": "M6S1M3",
    "result": [
      {
        "electoralDistricts": [
          {
            "election": null,
            "id": 83,
            "name": "Parkdale—High Park"
          }
        ],
        "pollDivisionIds": [
          10126436
        ],
        "postalCode": "M6S1M3",
        "streetName": "BRULE",
        "streetDirectionId": null,
        "streetTypeId": "TERR",
        "placeName": "TORONTO",
        "streetNameDisplayText": "BRULE TERR, TORONTO"
      }
    ]
  },
  {
    "postal": "M6S1W8",
    "result": [
      {
        "electoralDistricts": [
          {
            "election": null,
            "id": 83,
            "name": "Parkdale—High Park"
          }
        ],
        "pollDivisionIds": [
          10126425
        ],
        "postalCode": "M6S1W8",
        "streetName": "HUMBERVIEW",
        "streetDirectionId": null,
        "streetTypeId": "RD",
        "placeName": "YORK",
        "streetNameDisplayText": "HUMBERVIEW RD, YORK"
      }
    ]
  },
  {
    "postal": "M6S9J1",
    "result": []
  },
  {
    "postal": "M6S8N5",
    "result": []
  },
  {
    "postal": "M6S5X1",
    "result": []
  },
  {
    "postal": "M6S6S2",
    "result": []
  },
  {
    "postal": "M6S2A2",
    "result": [
      {
        "electoralDistricts": [
          {
            "election": null,
            "id": 83,
            "name": "Parkdale—High Park"
          }
        ],
        "pollDivisionIds": [
          10126427
        ],
        "postalCode": "M6S2A2",
        "streetName": "MACGREGOR",
        "streetDirectionId": null,
        "streetTypeId": "AVE",
        "placeName": "TORONTO",
        "streetNameDisplayText": "MACGREGOR AVE, TORONTO"
      }
    ]
  },
  {
    "postal": "M6S6A6",
    "result": []
  },
  {
    "postal": "M6S0S3",
    "result": []
  },
  {
    "postal": "M6S3E7",
    "result": [
      {
        "electoralDistricts": [
          {
            "election": null,
            "id": 83,
            "name": "Parkdale—High Park"
          }
        ],
        "pollDivisionIds": [
          10126437
        ],
        "postalCode": "M6S3E7",
        "streetName": "DURIE",
        "streetDirectionId": null,
        "streetTypeId": "ST",
        "placeName": "TORONTO",
        "streetNameDisplayText": "DURIE ST, TORONTO"
      }
    ]
  },
  {
    "postal": "M6S5R7",
    "result": []
  },
  {
    "postal": "M6S3R6",
    "result": [
      {
        "electoralDistricts": [
          {
            "election": null,
            "id": 83,
            "name": "Parkdale—High Park"
          }
        ],
        "pollDivisionIds": [
          10126427
        ],
        "postalCode": "M6S3R6",
        "streetName": "WILLARD",
        "streetDirectionId": null,
        "streetTypeId": "AVE",
        "placeName": "TORONTO",
        "streetNameDisplayText": "WILLARD AVE, TORONTO"
      }
    ]
  },
  {
    "postal": "M6S6K4",
    "result": []
  },
  {
    "postal": "M6S2W5",
    "result": [
      {
        "electoralDistricts": [
          {
            "election": null,
            "id": 83,
            "name": "Parkdale—High Park"
          }
        ],
        "pollDivisionIds": [
          10126438
        ],
        "postalCode": "M6S2W5",
        "streetName": "GRENADIER",
        "streetDirectionId": null,
        "streetTypeId": "HTS",
        "placeName": "TORONTO",
        "streetNameDisplayText": "GRENADIER HTS, TORONTO"
      }
    ]
  },
  {
    "postal": "M6S8W4",
    "result": []
  },
  {
    "postal": "M6S9C2",
    "result": []
  },
  {
    "postal": "M6S2C0",
    "result": []
  },
  {
    "postal": "M6S0E1",
    "result": []
  },
  {
    "postal": "M6S1K9",
    "result": [
      {
        "electoralDistricts": [
          {
            "election": null,
            "id": 83,
            "name": "Parkdale—High Park"
          }
        ],
        "pollDivisionIds": [
          10126437
        ],
        "postalCode": "M6S1K9",
        "streetName": "OLYMPUS",
        "streetDirectionId": null,
        "streetTypeId": "AVE",
        "placeName": "TORONTO",
        "streetNameDisplayText": "OLYMPUS AVE, TORONTO"
      }
    ]
  },
  {
    "postal": "M6S1G7",
    "result": [
      {
        "electoralDistricts": [
          {
            "election": null,
            "id": 83,
            "name": "Parkdale—High Park"
          }
        ],
        "pollDivisionIds": [
          10126436
        ],
        "postalCode": "M6S1G7",
        "streetName": "RIVERSIDE",
        "streetDirectionId": null,
        "streetTypeId": "TRAIL",
        "placeName": "TORONTO",
        "streetNameDisplayText": "RIVERSIDE TRAIL, TORONTO"
      }
    ]
  },
  {
    "postal": "M6S4E9",
    "result": [
      {
        "electoralDistricts": [
          {
            "election": null,
            "id": 83,
            "name": "Parkdale—High Park"
          }
        ],
        "pollDivisionIds": [
          10126430
        ],
        "postalCode": "M6S4E9",
        "streetName": "HALFORD",
        "streetDirectionId": null,
        "streetTypeId": "AVE",
        "placeName": "YORK",
        "streetNameDisplayText": "HALFORD AVE, YORK"
      }
    ]
  },
  {
    "postal": "M6S9P0",
    "result": []
  },
  {
    "postal": "M6S5H3",
    "result": []
  },
  {
    "postal": "M6S9X6",
    "result": []
  },
  {
    "postal": "M6S5N7",
    "result": []
  },
  {
    "postal": "M6S5A6",
    "result": [
      {
        "electoralDistricts": [
          {
            "election": null,
            "id": 83,
            "name": "Parkdale—High Park"
          }
        ],
        "pollDivisionIds": [
          10126436,
          10126430
        ],
        "postalCode": "M6S5A6",
        "streetName": "BLOOR",
        "streetDirectionId": "W",
        "streetTypeId": "ST",
        "placeName": "TORONTO",
        "streetNameDisplayText": "BLOOR ST W, TORONTO"
      }
    ]
  },
  {
    "postal": "M6S4M0",
    "result": []
  },
  {
    "postal": "M6S3V6",
    "result": [
      {
        "electoralDistricts": [
          {
            "election": null,
            "id": 83,
            "name": "Parkdale—High Park"
          }
        ],
        "pollDivisionIds": [
          10126431
        ],
        "postalCode": "M6S3V6",
        "streetName": "EVANS",
        "streetDirectionId": null,
        "streetTypeId": "AVE",
        "placeName": "TORONTO",
        "streetNameDisplayText": "EVANS AVE, TORONTO"
      }
    ]
  },
  {
    "postal": "M6S1L7",
    "result": [
      {
        "electoralDistricts": [
          {
            "election": null,
            "id": 83,
            "name": "Parkdale—High Park"
          }
        ],
        "pollDivisionIds": [
          10126436
        ],
        "postalCode": "M6S1L7",
        "streetName": "LARKIN",
        "streetDirectionId": null,
        "streetTypeId": "AVE",
        "placeName": "TORONTO",
        "streetNameDisplayText": "LARKIN AVE, TORONTO"
      }
    ]
  },
  {
    "postal": "M6S2P9",
    "result": [
      {
        "electoralDistricts": [
          {
            "election": null,
            "id": 83,
            "name": "Parkdale—High Park"
          }
        ],
        "pollDivisionIds": [
          10126422
        ],
        "postalCode": "M6S2P9",
        "streetName": "CROSBY",
        "streetDirectionId": null,
        "streetTypeId": "AVE",
        "placeName": "YORK",
        "streetNameDisplayText": "CROSBY AVE, YORK"
      }
    ]
  },
  {
    "postal": "M6S5T4",
    "result": []
  },
  {
    "postal": "M6S5Z1",
    "result": []
  },
  {
    "postal": "M6S2X0",
    "result": []
  },
  {
    "postal": "M6S6Z2",
    "result": []
  },
  {
    "postal": "M6S0E0",
    "result": []
  },
  {
    "postal": "M6S3Z5",
    "result": [
      {
        "electoralDistricts": [
          {
            "election": null,
            "id": 83,
            "name": "Parkdale—High Park"
          }
        ],
        "pollDivisionIds": [
          10126425
        ],
        "postalCode": "M6S3Z5",
        "streetName": "JANE",
        "streetDirectionId": null,
        "streetTypeId": "ST",
        "placeName": "TORONTO",
        "streetNameDisplayText": "JANE ST, TORONTO"
      },
      {
        "electoralDistricts": [
          {
            "election": null,
            "id": 83,
            "name": "Parkdale—High Park"
          }
        ],
        "pollDivisionIds": [
          10126425
        ],
        "postalCode": "M6S3Z5",
        "streetName": "JANE",
        "streetDirectionId": null,
        "streetTypeId": "ST",
        "placeName": "YORK",
        "streetNameDisplayText": "JANE ST, YORK"
      }
    ]
  },
  {
    "postal": "M6S8H3",
    "result": []
  },
  {
    "postal": "M6S7S6",
    "result": []
  },
  {
    "postal": "M6S4C1",
    "result": [
      {
        "electoralDistricts": [
          {
            "election": null,
            "id": 83,
            "name": "Parkdale—High Park"
          }
        ],
        "pollDivisionIds": [
          10126430
        ],
        "postalCode": "M6S4C1",
        "streetName": "HUMBER",
        "streetDirectionId": null,
        "streetTypeId": "TRAIL",
        "placeName": "YORK",
        "streetNameDisplayText": "HUMBER TRAIL, YORK"
      }
    ]
  },
  {
    "postal": "M6S3K2",
    "result": [
      {
        "electoralDistricts": [
          {
            "election": null,
            "id": 83,
            "name": "Parkdale—High Park"
          }
        ],
        "pollDivisionIds": [
          10126437
        ],
        "postalCode": "M6S3K2",
        "streetName": "WINDERMERE",
        "streetDirectionId": null,
        "streetTypeId": "AVE",
        "placeName": "TORONTO",
        "streetNameDisplayText": "WINDERMERE AVE, TORONTO"
      }
    ]
  },
  {
    "postal": "M6S1Y5",
    "result": [
      {
        "electoralDistricts": [
          {
            "election": null,
            "id": 83,
            "name": "Parkdale—High Park"
          }
        ],
        "pollDivisionIds": [
          10126427
        ],
        "postalCode": "M6S1Y5",
        "streetName": "ARDAGH",
        "streetDirectionId": null,
        "streetTypeId": "ST",
        "placeName": "TORONTO",
        "streetNameDisplayText": "ARDAGH ST, TORONTO"
      }
    ]
  },
  {
    "postal": "M6S6P6",
    "result": []
  },
  {
    "postal": "M6S3N9",
    "result": [
      {
        "electoralDistricts": [
          {
            "election": null,
            "id": 83,
            "name": "Parkdale—High Park"
          }
        ],
        "pollDivisionIds": [
          10126438
        ],
        "postalCode": "M6S3N9",
        "streetName": "RIPLEY",
        "streetDirectionId": null,
        "streetTypeId": "AVE",
        "placeName": "TORONTO",
        "streetNameDisplayText": "RIPLEY AVE, TORONTO"
      }
    ]
  },
  {
    "postal": "M6S3W2",
    "result": [
      {
        "electoralDistricts": [
          {
            "election": null,
            "id": 83,
            "name": "Parkdale—High Park"
          }
        ],
        "pollDivisionIds": [
          10126426
        ],
        "postalCode": "M6S3W2",
        "streetName": "PRISCILLA",
        "streetDirectionId": null,
        "streetTypeId": "AVE",
        "placeName": "YORK",
        "streetNameDisplayText": "PRISCILLA AVE, YORK"
      }
    ]
  },
  {
    "postal": "M6S6H8",
    "result": []
  },
  {
    "postal": "M6S9T3",
    "result": []
  },
  {
    "postal": "M6S5L9",
    "result": []
  },
  {
    "postal": "M6S7X7",
    "result": []
  },
  {
    "postal": "M6S3J5",
    "result": [
      {
        "electoralDistricts": [
          {
            "election": null,
            "id": 83,
            "name": "Parkdale—High Park"
          }
        ],
        "pollDivisionIds": [
          10126438
        ],
        "postalCode": "M6S3J5",
        "streetName": "WINDERMERE",
        "streetDirectionId": null,
        "streetTypeId": "AVE",
        "placeName": "TORONTO",
        "streetNameDisplayText": "WINDERMERE AVE, TORONTO"
      }
    ]
  },
  {
    "postal": "M6S4J5",
    "result": [
      {
        "electoralDistricts": [
          {
            "election": null,
            "id": 83,
            "name": "Parkdale—High Park"
          }
        ],
        "pollDivisionIds": [
          10126436
        ],
        "postalCode": "M6S4J5",
        "streetName": "BRULE",
        "streetDirectionId": null,
        "streetTypeId": "GDNS",
        "placeName": "TORONTO",
        "streetNameDisplayText": "BRULE GDNS, TORONTO"
      }
    ]
  },
  {
    "postal": "M6S6J2",
    "result": []
  },
  {
    "postal": "M6S5V6",
    "result": []
  },
  {
    "postal": "M6S3N2",
    "result": []
  },
  {
    "postal": "M6S3B1",
    "result": [
      {
        "electoralDistricts": [
          {
            "election": null,
            "id": 83,
            "name": "Parkdale—High Park"
          }
        ],
        "pollDivisionIds": [
          10126437
        ],
        "postalCode": "M6S3B1",
        "streetName": "BERESFORD",
        "streetDirectionId": null,
        "streetTypeId": "AVE",
        "placeName": "TORONTO",
        "streetNameDisplayText": "BERESFORD AVE, TORONTO"
      }
    ]
  },
  {
    "postal": "M6S8B5",
    "result": []
  },
  {
    "postal": "M6S0K1",
    "result": []
  },
  {
    "postal": "M6S7M7",
    "result": []
  },
  {
    "postal": "M6S2M2",
    "result": [
      {
        "electoralDistricts": [
          {
            "election": null,
            "id": 83,
            "name": "Parkdale—High Park"
          }
        ],
        "pollDivisionIds": [
          10126423
        ],
        "postalCode": "M6S2M2",
        "streetName": "REXFORD",
        "streetDirectionId": null,
        "streetTypeId": "RD",
        "placeName": "YORK",
        "streetNameDisplayText": "REXFORD RD, YORK"
      }
    ]
  },
  {
    "postal": "M6S9N3",
    "result": []
  },
  {
    "postal": "M6S4Y8",
    "result": [
      {
        "electoralDistricts": [
          {
            "election": null,
            "id": 83,
            "name": "Parkdale—High Park"
          }
        ],
        "pollDivisionIds": [
          10126438
        ],
        "postalCode": "M6S4Y8",
        "streetName": "SOUTHPORT",
        "streetDirectionId": null,
        "streetTypeId": "ST",
        "placeName": "TORONTO",
        "streetNameDisplayText": "SOUTHPORT ST, TORONTO"
      }
    ]
  },
  {
    "postal": "M6S3V7",
    "result": [
      {
        "electoralDistricts": [
          {
            "election": null,
            "id": 83,
            "name": "Parkdale—High Park"
          }
        ],
        "pollDivisionIds": [
          10126431
        ],
        "postalCode": "M6S3V7",
        "streetName": "EVANS",
        "streetDirectionId": null,
        "streetTypeId": "AVE",
        "placeName": "TORONTO",
        "streetNameDisplayText": "EVANS AVE, TORONTO"
      }
    ]
  },
  {
    "postal": "M6S8Z1",
    "result": []
  },
  {
    "postal": "M6S7B3",
    "result": []
  },
  {
    "postal": "M6S3A8",
    "result": [
      {
        "electoralDistricts": [
          {
            "election": null,
            "id": 83,
            "name": "Parkdale—High Park"
          }
        ],
        "pollDivisionIds": [
          10126437
        ],
        "postalCode": "M6S3A8",
        "streetName": "BERESFORD",
        "streetDirectionId": null,
        "streetTypeId": "AVE",
        "placeName": "TORONTO",
        "streetNameDisplayText": "BERESFORD AVE, TORONTO"
      }
    ]
  },
  {
    "postal": "M6S7V5",
    "result": []
  },
  {
    "postal": "M6S2T2",
    "result": [
      {
        "electoralDistricts": [
          {
            "election": null,
            "id": 83,
            "name": "Parkdale—High Park"
          }
        ],
        "pollDivisionIds": [
          10126422
        ],
        "postalCode": "M6S2T2",
        "streetName": "DUNDAS",
        "streetDirectionId": "W",
        "streetTypeId": "ST",
        "placeName": "YORK",
        "streetNameDisplayText": "DUNDAS ST W, YORK"
      }
    ]
  },
  {
    "postal": "M6S6L3",
    "result": []
  },
  {
    "postal": "M6S0L2",
    "result": []
  },
  {
    "postal": "M6S5Y8",
    "result": []
  },
  {
    "postal": "M6S0B8",
    "result": []
  },
  {
    "postal": "M6S6R5",
    "result": []
  },
  {
    "postal": "M6S8W6",
    "result": []
  },
  {
    "postal": "M6S8G6",
    "result": []
  },
  {
    "postal": "M6S6X3",
    "result": []
  },
  {
    "postal": "M6S7R7",
    "result": []
  },
  {
    "postal": "M6S4B6",
    "result": [
      {
        "electoralDistricts": [
          {
            "election": null,
            "id": 83,
            "name": "Parkdale—High Park"
          }
        ],
        "pollDivisionIds": [
          10126430
        ],
        "postalCode": "M6S4B6",
        "streetName": "RIVERSIDE",
        "streetDirectionId": null,
        "streetTypeId": "DR",
        "placeName": "YORK",
        "streetNameDisplayText": "RIVERSIDE DR, YORK"
      }
    ]
  },
  {
    "postal": "M6S3P9",
    "result": [
      {
        "electoralDistricts": [
          {
            "election": null,
            "id": 83,
            "name": "Parkdale—High Park"
          }
        ],
        "pollDivisionIds": [
          10126437
        ],
        "postalCode": "M6S3P9",
        "streetName": "WILLARD",
        "streetDirectionId": null,
        "streetTypeId": "AVE",
        "placeName": "TORONTO",
        "streetNameDisplayText": "WILLARD AVE, TORONTO"
      }
    ]
  },
  {
    "postal": "M6S2T3",
    "result": [
      {
        "electoralDistricts": [
          {
            "election": null,
            "id": 83,
            "name": "Parkdale—High Park"
          }
        ],
        "pollDivisionIds": [
          10126422
        ],
        "postalCode": "M6S2T3",
        "streetName": "DUNDAS",
        "streetDirectionId": "W",
        "streetTypeId": "ST",
        "placeName": "YORK",
        "streetNameDisplayText": "DUNDAS ST W, YORK"
      }
    ]
  },
  {
    "postal": "M6S1M4",
    "result": [
      {
        "electoralDistricts": [
          {
            "election": null,
            "id": 83,
            "name": "Parkdale—High Park"
          }
        ],
        "pollDivisionIds": [
          10126437
        ],
        "postalCode": "M6S1M4",
        "streetName": "BLOOR",
        "streetDirectionId": "W",
        "streetTypeId": "ST",
        "placeName": "TORONTO",
        "streetNameDisplayText": "BLOOR ST W, TORONTO"
      }
    ]
  },
  {
    "postal": "M6S0H1",
    "result": []
  },
  {
    "postal": "M6S9W3",
    "result": []
  },
  {
    "postal": "M6S6P1",
    "result": []
  },
  {
    "postal": "M6S7G2",
    "result": []
  },
  {
    "postal": "M6S4J9",
    "result": [
      {
        "electoralDistricts": [
          {
            "election": null,
            "id": 83,
            "name": "Parkdale—High Park"
          }
        ],
        "pollDivisionIds": [
          10126430
        ],
        "postalCode": "M6S4J9",
        "streetName": "OLD MILL",
        "streetDirectionId": null,
        "streetTypeId": "DR",
        "placeName": "YORK",
        "streetNameDisplayText": "OLD MILL DR, YORK"
      }
    ]
  },
  {
    "postal": "M6S9E4",
    "result": []
  },
  {
    "postal": "M6S8H0",
    "result": []
  },
  {
    "postal": "M6S4M7",
    "result": [
      {
        "electoralDistricts": [
          {
            "election": null,
            "id": 83,
            "name": "Parkdale—High Park"
          }
        ],
        "pollDivisionIds": [
          10126422
        ],
        "postalCode": "M6S4M7",
        "streetName": "IRMAC",
        "streetDirectionId": null,
        "streetTypeId": "CRT",
        "placeName": "YORK",
        "streetNameDisplayText": "IRMAC CRT, YORK"
      }
    ]
  },
  {
    "postal": "M6S2G9",
    "result": [
      {
        "electoralDistricts": [
          {
            "election": null,
            "id": 83,
            "name": "Parkdale—High Park"
          }
        ],
        "pollDivisionIds": [
          10126426
        ],
        "postalCode": "M6S2G9",
        "streetName": "MONTYE",
        "streetDirectionId": null,
        "streetTypeId": "AVE",
        "placeName": "YORK",
        "streetNameDisplayText": "MONTYE AVE, YORK"
      }
    ]
  },
  {
    "postal": "M6S8T2",
    "result": []
  },
  {
    "postal": "M6S7G7",
    "result": []
  },
  {
    "postal": "M6S4Z3",
    "result": [
      {
        "electoralDistricts": [
          {
            "election": null,
            "id": 83,
            "name": "Parkdale—High Park"
          }
        ],
        "pollDivisionIds": [
          10126425
        ],
        "postalCode": "M6S4Z3",
        "streetName": "LANGMUIR",
        "streetDirectionId": null,
        "streetTypeId": "GDNS",
        "placeName": "YORK",
        "streetNameDisplayText": "LANGMUIR GDNS, YORK"
      }
    ]
  },
  {
    "postal": "M6S5B3",
    "result": [
      {
        "electoralDistricts": [
          {
            "election": null,
            "id": 83,
            "name": "Parkdale—High Park"
          }
        ],
        "pollDivisionIds": [
          10126452
        ],
        "postalCode": "M6S5B3",
        "streetName": "THE QUEENSWAY",
        "streetDirectionId": null,
        "streetTypeId": null,
        "placeName": "TORONTO",
        "streetNameDisplayText": "THE QUEENSWAY, TORONTO"
      }
    ]
  },
  {
    "postal": "M6S1S7",
    "result": [
      {
        "electoralDistricts": [
          {
            "election": null,
            "id": 83,
            "name": "Parkdale—High Park"
          }
        ],
        "pollDivisionIds": [
          10126430
        ],
        "postalCode": "M6S1S7",
        "streetName": "WEATHERELL",
        "streetDirectionId": null,
        "streetTypeId": "ST",
        "placeName": "TORONTO",
        "streetNameDisplayText": "WEATHERELL ST, TORONTO"
      }
    ]
  },
  {
    "postal": "M6S2N7",
    "result": [
      {
        "electoralDistricts": [
          {
            "election": null,
            "id": 83,
            "name": "Parkdale—High Park"
          }
        ],
        "pollDivisionIds": [
          10126422
        ],
        "postalCode": "M6S2N7",
        "streetName": "KENTUCKY",
        "streetDirectionId": null,
        "streetTypeId": "AVE",
        "placeName": "YORK",
        "streetNameDisplayText": "KENTUCKY AVE, YORK"
      }
    ]
  },
  {
    "postal": "M6S0H8",
    "result": []
  },
  {
    "postal": "M6S7Z4",
    "result": []
  },
  {
    "postal": "M6S7B1",
    "result": []
  },
  {
    "postal": "M6S7P8",
    "result": []
  },
  {
    "postal": "M6S7N0",
    "result": []
  },
  {
    "postal": "M6S3Y5",
    "result": [
      {
        "electoralDistricts": [
          {
            "election": null,
            "id": 83,
            "name": "Parkdale—High Park"
          }
        ],
        "pollDivisionIds": [
          10126430
        ],
        "postalCode": "M6S3Y5",
        "streetName": "JANE",
        "streetDirectionId": null,
        "streetTypeId": "ST",
        "placeName": "TORONTO",
        "streetNameDisplayText": "JANE ST, TORONTO"
      }
    ]
  },
  {
    "postal": "M6S6K1",
    "result": []
  },
  {
    "postal": "M6S9X5",
    "result": []
  },
  {
    "postal": "M6S7S5",
    "result": []
  },
  {
    "postal": "M6S0A4",
    "result": []
  },
  {
    "postal": "M6S4T5",
    "result": []
  },
  {
    "postal": "M6S5K1",
    "result": []
  },
  {
    "postal": "M6S0Z9",
    "result": []
  },
  {
    "postal": "M6S7T2",
    "result": []
  },
  {
    "postal": "M6S1L5",
    "result": [
      {
        "electoralDistricts": [
          {
            "election": null,
            "id": 83,
            "name": "Parkdale—High Park"
          }
        ],
        "pollDivisionIds": [
          10126437
        ],
        "postalCode": "M6S1L5",
        "streetName": "OSTEND",
        "streetDirectionId": null,
        "streetTypeId": "AVE",
        "placeName": "TORONTO",
        "streetNameDisplayText": "OSTEND AVE, TORONTO"
      }
    ]
  },
  {
    "postal": "M6S3N5",
    "result": [
      {
        "electoralDistricts": [
          {
            "election": null,
            "id": 83,
            "name": "Parkdale—High Park"
          }
        ],
        "pollDivisionIds": [
          10126438
        ],
        "postalCode": "M6S3N5",
        "streetName": "SOUTHPORT",
        "streetDirectionId": null,
        "streetTypeId": "ST",
        "placeName": "TORONTO",
        "streetNameDisplayText": "SOUTHPORT ST, TORONTO"
      }
    ]
  },
  {
    "postal": "M6S6H4",
    "result": []
  },
  {
    "postal": "M6S5A5",
    "result": [
      {
        "electoralDistricts": [
          {
            "election": null,
            "id": 83,
            "name": "Parkdale—High Park"
          }
        ],
        "pollDivisionIds": [
          10126485
        ],
        "postalCode": "M6S5A5",
        "streetName": "BLOOR",
        "streetDirectionId": "W",
        "streetTypeId": "ST",
        "placeName": "TORONTO",
        "streetNameDisplayText": "BLOOR ST W, TORONTO"
      }
    ]
  },
  {
    "postal": "M6S3R9",
    "result": [
      {
        "electoralDistricts": [
          {
            "election": null,
            "id": 83,
            "name": "Parkdale—High Park"
          }
        ],
        "pollDivisionIds": [
          10126425
        ],
        "postalCode": "M6S3R9",
        "streetName": "WILLARD",
        "streetDirectionId": null,
        "streetTypeId": "AVE",
        "placeName": "YORK",
        "streetNameDisplayText": "WILLARD AVE, YORK"
      }
    ]
  },
  {
    "postal": "M6S7L8",
    "result": []
  },
  {
    "postal": "M6S6T6",
    "result": []
  },
  {
    "postal": "M6S7Y7",
    "result": []
  },
  {
    "postal": "M6S3M8",
    "result": [
      {
        "electoralDistricts": [
          {
            "election": null,
            "id": 83,
            "name": "Parkdale—High Park"
          }
        ],
        "pollDivisionIds": [
          10126423
        ],
        "postalCode": "M6S3M8",
        "streetName": "WINDERMERE",
        "streetDirectionId": null,
        "streetTypeId": "AVE",
        "placeName": "YORK",
        "streetNameDisplayText": "WINDERMERE AVE, YORK"
      }
    ]
  },
  {
    "postal": "M6S2E0",
    "result": []
  },
  {
    "postal": "M6S4B5",
    "result": [
      {
        "electoralDistricts": [
          {
            "election": null,
            "id": 83,
            "name": "Parkdale—High Park"
          }
        ],
        "pollDivisionIds": [
          10126430
        ],
        "postalCode": "M6S4B5",
        "streetName": "RIVERSIDE",
        "streetDirectionId": null,
        "streetTypeId": "DR",
        "placeName": "YORK",
        "streetNameDisplayText": "RIVERSIDE DR, YORK"
      }
    ]
  },
  {
    "postal": "M6S1J3",
    "result": [
      {
        "electoralDistricts": [
          {
            "election": null,
            "id": 83,
            "name": "Parkdale—High Park"
          }
        ],
        "pollDivisionIds": [
          10126437
        ],
        "postalCode": "M6S1J3",
        "streetName": "DEFOREST",
        "streetDirectionId": null,
        "streetTypeId": "RD",
        "placeName": "TORONTO",
        "streetNameDisplayText": "DEFOREST RD, TORONTO"
      }
    ]
  },
  {
    "postal": "M6S5S6",
    "result": []
  },
  {
    "postal": "M6S8P7",
    "result": []
  },
  {
    "postal": "M6S7S7",
    "result": []
  },
  {
    "postal": "M6S4C2",
    "result": [
      {
        "electoralDistricts": [
          {
            "election": null,
            "id": 83,
            "name": "Parkdale—High Park"
          }
        ],
        "pollDivisionIds": [
          10126430
        ],
        "postalCode": "M6S4C2",
        "streetName": "HUMBER",
        "streetDirectionId": null,
        "streetTypeId": "TRAIL",
        "placeName": "YORK",
        "streetNameDisplayText": "HUMBER TRAIL, YORK"
      }
    ]
  },
  {
    "postal": "M6S5Y0",
    "result": []
  },
  {
    "postal": "M6S2V7",
    "result": [
      {
        "electoralDistricts": [
          {
            "election": null,
            "id": 83,
            "name": "Parkdale—High Park"
          }
        ],
        "pollDivisionIds": [
          10126437
        ],
        "postalCode": "M6S2V7",
        "streetName": "ELLIS PARK",
        "streetDirectionId": null,
        "streetTypeId": "RD",
        "placeName": "TORONTO",
        "streetNameDisplayText": "ELLIS PARK RD, TORONTO"
      }
    ]
  },
  {
    "postal": "M6S8P5",
    "result": []
  },
  {
    "postal": "M6S5P5",
    "result": []
  },
  {
    "postal": "M6S5Z0",
    "result": []
  },
  {
    "postal": "M6S9B0",
    "result": []
  },
  {
    "postal": "M6S1L0",
    "result": []
  },
  {
    "postal": "M6S0B5",
    "result": []
  },
  {
    "postal": "M6S3L2",
    "result": [
      {
        "electoralDistricts": [
          {
            "election": null,
            "id": 83,
            "name": "Parkdale—High Park"
          }
        ],
        "pollDivisionIds": [
          10126437
        ],
        "postalCode": "M6S3L2",
        "streetName": "WINDERMERE",
        "streetDirectionId": null,
        "streetTypeId": "AVE",
        "placeName": "TORONTO",
        "streetNameDisplayText": "WINDERMERE AVE, TORONTO"
      }
    ]
  },
  {
    "postal": "M6S3B7",
    "result": [
      {
        "electoralDistricts": [
          {
            "election": null,
            "id": 83,
            "name": "Parkdale—High Park"
          }
        ],
        "pollDivisionIds": [
          10126427
        ],
        "postalCode": "M6S3B7",
        "streetName": "BERESFORD",
        "streetDirectionId": null,
        "streetTypeId": "AVE",
        "placeName": "TORONTO",
        "streetNameDisplayText": "BERESFORD AVE, TORONTO"
      }
    ]
  },
  {
    "postal": "M6S8L1",
    "result": []
  },
  {
    "postal": "M6S5M4",
    "result": []
  },
  {
    "postal": "M6S4G9",
    "result": [
      {
        "electoralDistricts": [
          {
            "election": null,
            "id": 83,
            "name": "Parkdale—High Park"
          }
        ],
        "pollDivisionIds": [
          10126422
        ],
        "postalCode": "M6S4G9",
        "streetName": "BROOKSIDE",
        "streetDirectionId": null,
        "streetTypeId": "AVE",
        "placeName": "YORK",
        "streetNameDisplayText": "BROOKSIDE AVE, YORK"
      }
    ]
  },
  {
    "postal": "M6S0P0",
    "result": []
  },
  {
    "postal": "M6S8G2",
    "result": []
  },
  {
    "postal": "M6S1V9",
    "result": [
      {
        "electoralDistricts": [
          {
            "election": null,
            "id": 83,
            "name": "Parkdale—High Park"
          }
        ],
        "pollDivisionIds": [
          10126431
        ],
        "postalCode": "M6S1V9",
        "streetName": "COLBECK",
        "streetDirectionId": null,
        "streetTypeId": "ST",
        "placeName": "TORONTO",
        "streetNameDisplayText": "COLBECK ST, TORONTO"
      }
    ]
  },
  {
    "postal": "M6S8N8",
    "result": []
  },
  {
    "postal": "M6S6S8",
    "result": []
  },
  {
    "postal": "M6S8H2",
    "result": []
  },
  {
    "postal": "M6S5R8",
    "result": []
  },
  {
    "postal": "M6S5L4",
    "result": []
  },
  {
    "postal": "M6S9E1",
    "result": []
  },
  {
    "postal": "M6S1C4",
    "result": [
      {
        "electoralDistricts": [
          {
            "election": null,
            "id": 83,
            "name": "Parkdale—High Park"
          }
        ],
        "pollDivisionIds": [
          10126437
        ],
        "postalCode": "M6S1C4",
        "streetName": "MORNINGSIDE",
        "streetDirectionId": null,
        "streetTypeId": "AV",
        "placeName": "TORONTO",
        "streetNameDisplayText": "MORNINGSIDE AV, TORONTO"
      },
      {
        "electoralDistricts": [
          {
            "election": null,
            "id": 83,
            "name": "Parkdale—High Park"
          }
        ],
        "pollDivisionIds": [
          10126437
        ],
        "postalCode": "M6S1C4",
        "streetName": "MORNINGSIDE",
        "streetDirectionId": null,
        "streetTypeId": "AVE",
        "placeName": "TORONTO",
        "streetNameDisplayText": "MORNINGSIDE AVE, TORONTO"
      }
    ]
  },
  {
    "postal": "M6S8W5",
    "result": []
  },
  {
    "postal": "M6S1Y4",
    "result": [
      {
        "electoralDistricts": [
          {
            "election": null,
            "id": 83,
            "name": "Parkdale—High Park"
          }
        ],
        "pollDivisionIds": [
          10126431
        ],
        "postalCode": "M6S1Y4",
        "streetName": "ARDAGH",
        "streetDirectionId": null,
        "streetTypeId": "ST",
        "placeName": "TORONTO",
        "streetNameDisplayText": "ARDAGH ST, TORONTO"
      }
    ]
  },
  {
    "postal": "M6S1C0",
    "result": []
  },
  {
    "postal": "M6S2J2",
    "result": [
      {
        "electoralDistricts": [
          {
            "election": null,
            "id": 83,
            "name": "Parkdale—High Park"
          }
        ],
        "pollDivisionIds": [
          10126422
        ],
        "postalCode": "M6S2J2",
        "streetName": "ST MARKS",
        "streetDirectionId": null,
        "streetTypeId": "RD",
        "placeName": "YORK",
        "streetNameDisplayText": "ST MARKS RD, YORK"
      }
    ]
  },
  {
    "postal": "M6S2J0",
    "result": []
  },
  {
    "postal": "M6S7A3",
    "result": []
  },
  {
    "postal": "M6S8M1",
    "result": []
  },
  {
    "postal": "M6S7T9",
    "result": []
  },
  {
    "postal": "M6S6C0",
    "result": []
  },
  {
    "postal": "M6S7X1",
    "result": []
  },
  {
    "postal": "M6S0G1",
    "result": []
  },
  {
    "postal": "M6S4X2",
    "result": []
  },
  {
    "postal": "M6S0N6",
    "result": []
  },
  {
    "postal": "M6S8E3",
    "result": []
  },
  {
    "postal": "M6S5S8",
    "result": []
  },
  {
    "postal": "M6S0R0",
    "result": []
  },
  {
    "postal": "M6S6J6",
    "result": []
  },
  {
    "postal": "M6S4B4",
    "result": []
  },
  {
    "postal": "M6S7E3",
    "result": []
  },
  {
    "postal": "M6S3N6",
    "result": [
      {
        "electoralDistricts": [
          {
            "election": null,
            "id": 83,
            "name": "Parkdale—High Park"
          }
        ],
        "pollDivisionIds": [
          10126438
        ],
        "postalCode": "M6S3N6",
        "streetName": "SOUTHPORT",
        "streetDirectionId": null,
        "streetTypeId": "ST",
        "placeName": "TORONTO",
        "streetNameDisplayText": "SOUTHPORT ST, TORONTO"
      }
    ]
  },
  {
    "postal": "M6S3X6",
    "result": [
      {
        "electoralDistricts": [
          {
            "election": null,
            "id": 83,
            "name": "Parkdale—High Park"
          }
        ],
        "pollDivisionIds": [
          10126430
        ],
        "postalCode": "M6S3X6",
        "streetName": "ARMADALE",
        "streetDirectionId": null,
        "streetTypeId": "AVE",
        "placeName": "TORONTO",
        "streetNameDisplayText": "ARMADALE AVE, TORONTO"
      }
    ]
  },
  {
    "postal": "M6S8L0",
    "result": []
  },
  {
    "postal": "M6S8N1",
    "result": []
  },
  {
    "postal": "M6S4J0",
    "result": []
  },
  {
    "postal": "M6S0X7",
    "result": []
  },
  {
    "postal": "M6S6S4",
    "result": []
  },
  {
    "postal": "M6S0Z0",
    "result": []
  },
  {
    "postal": "M6S9X8",
    "result": []
  },
  {
    "postal": "M6S3H3",
    "result": [
      {
        "electoralDistricts": [
          {
            "election": null,
            "id": 83,
            "name": "Parkdale—High Park"
          }
        ],
        "pollDivisionIds": [
          10126423
        ],
        "postalCode": "M6S3H3",
        "streetName": "DURIE",
        "streetDirectionId": null,
        "streetTypeId": "ST",
        "placeName": "YORK",
        "streetNameDisplayText": "DURIE ST, YORK"
      }
    ]
  },
  {
    "postal": "M6S7S2",
    "result": []
  },
  {
    "postal": "M6S3T3",
    "result": [
      {
        "electoralDistricts": [
          {
            "election": null,
            "id": 83,
            "name": "Parkdale—High Park"
          }
        ],
        "pollDivisionIds": [
          10126438
        ],
        "postalCode": "M6S3T3",
        "streetName": "SOUTH KINGSWAY",
        "streetDirectionId": null,
        "streetTypeId": null,
        "placeName": "TORONTO",
        "streetNameDisplayText": "SOUTH KINGSWAY, TORONTO"
      }
    ]
  },
  {
    "postal": "M6S9P3",
    "result": []
  },
  {
    "postal": "M6S4H8",
    "result": [
      {
        "electoralDistricts": [
          {
            "election": null,
            "id": 83,
            "name": "Parkdale—High Park"
          }
        ],
        "pollDivisionIds": [
          10126436
        ],
        "postalCode": "M6S4H8",
        "streetName": "BRULE",
        "streetDirectionId": null,
        "streetTypeId": "CRES",
        "placeName": "TORONTO",
        "streetNameDisplayText": "BRULE CRES, TORONTO"
      }
    ]
  },
  {
    "postal": "M6S6R1",
    "result": []
  },
  {
    "postal": "M6S1S0",
    "result": []
  },
  {
    "postal": "M6S3W8",
    "result": [
      {
        "electoralDistricts": [
          {
            "election": null,
            "id": 83,
            "name": "Parkdale—High Park"
          }
        ],
        "pollDivisionIds": [
          10126436
        ],
        "postalCode": "M6S3W8",
        "streetName": "ARMADALE",
        "streetDirectionId": null,
        "streetTypeId": "AVE",
        "placeName": "TORONTO",
        "streetNameDisplayText": "ARMADALE AVE, TORONTO"
      }
    ]
  },
  {
    "postal": "M6S4S3",
    "result": [
      {
        "electoralDistricts": [
          {
            "election": null,
            "id": 83,
            "name": "Parkdale—High Park"
          }
        ],
        "pollDivisionIds": [
          10126422
        ],
        "postalCode": "M6S4S3",
        "streetName": "WARREN",
        "streetDirectionId": null,
        "streetTypeId": "CRES",
        "placeName": "YORK",
        "streetNameDisplayText": "WARREN CRES, YORK"
      }
    ]
  },
  {
    "postal": "M6S1B6",
    "result": [
      {
        "electoralDistricts": [
          {
            "election": null,
            "id": 83,
            "name": "Parkdale—High Park"
          }
        ],
        "pollDivisionIds": [
          10126438
        ],
        "postalCode": "M6S1B6",
        "streetName": "RIVERSIDE",
        "streetDirectionId": null,
        "streetTypeId": "CRES",
        "placeName": "TORONTO",
        "streetNameDisplayText": "RIVERSIDE CRES, TORONTO"
      }
    ]
  },
  {
    "postal": "M6S8R3",
    "result": []
  },
  {
    "postal": "M6S4V9",
    "result": [
      {
        "electoralDistricts": [
          {
            "election": null,
            "id": 83,
            "name": "Parkdale—High Park"
          }
        ],
        "pollDivisionIds": [
          10126430
        ],
        "postalCode": "M6S4V9",
        "streetName": "HUMBERVIEW",
        "streetDirectionId": null,
        "streetTypeId": "RD",
        "placeName": "TORONTO",
        "streetNameDisplayText": "HUMBERVIEW RD, TORONTO"
      }
    ]
  },
  {
    "postal": "M6S9W4",
    "result": []
  },
  {
    "postal": "M6S3T4",
    "result": [
      {
        "electoralDistricts": [
          {
            "election": null,
            "id": 83,
            "name": "Parkdale—High Park"
          }
        ],
        "pollDivisionIds": [
          10126438
        ],
        "postalCode": "M6S3T4",
        "streetName": "SOUTH KINGSWAY",
        "streetDirectionId": null,
        "streetTypeId": null,
        "placeName": "TORONTO",
        "streetNameDisplayText": "SOUTH KINGSWAY, TORONTO"
      }
    ]
  },
  {
    "postal": "M6S5C7",
    "result": []
  },
  {
    "postal": "M6S3Y1",
    "result": [
      {
        "electoralDistricts": [
          {
            "election": null,
            "id": 83,
            "name": "Parkdale—High Park"
          }
        ],
        "pollDivisionIds": [
          10126427
        ],
        "postalCode": "M6S3Y1",
        "streetName": "ARMADALE",
        "streetDirectionId": null,
        "streetTypeId": "AVE",
        "placeName": "TORONTO",
        "streetNameDisplayText": "ARMADALE AVE, TORONTO"
      }
    ]
  },
  {
    "postal": "M6S5V0",
    "result": []
  },
  {
    "postal": "M6S8G8",
    "result": []
  },
  {
    "postal": "M6S8B1",
    "result": []
  },
  {
    "postal": "M6S4P5",
    "result": [
      {
        "electoralDistricts": [
          {
            "election": null,
            "id": 83,
            "name": "Parkdale—High Park"
          }
        ],
        "pollDivisionIds": [
          10126422
        ],
        "postalCode": "M6S4P5",
        "streetName": "VARSITY",
        "streetDirectionId": null,
        "streetTypeId": "RD",
        "placeName": "YORK",
        "streetNameDisplayText": "VARSITY RD, YORK"
      }
    ]
  },
  {
    "postal": "M6S7B2",
    "result": []
  },
  {
    "postal": "M6S0R2",
    "result": []
  },
  {
    "postal": "M6S4M4",
    "result": [
      {
        "electoralDistricts": [
          {
            "election": null,
            "id": 83,
            "name": "Parkdale—High Park"
          }
        ],
        "pollDivisionIds": [
          10126422
        ],
        "postalCode": "M6S4M4",
        "streetName": "SKYLARK",
        "streetDirectionId": null,
        "streetTypeId": "RD",
        "placeName": "YORK",
        "streetNameDisplayText": "SKYLARK RD, YORK"
      }
    ]
  },
  {
    "postal": "M6S7M4",
    "result": []
  },
  {
    "postal": "M6S9S7",
    "result": []
  },
  {
    "postal": "M6S5Z7",
    "result": []
  },
  {
    "postal": "M6S7J7",
    "result": []
  },
  {
    "postal": "M6S8R8",
    "result": []
  },
  {
    "postal": "M6S9X1",
    "result": []
  },
  {
    "postal": "M6S5M9",
    "result": []
  },
  {
    "postal": "M6S9B4",
    "result": []
  },
  {
    "postal": "M6S0L9",
    "result": []
  },
  {
    "postal": "M6S9G4",
    "result": []
  },
  {
    "postal": "M6S1J4",
    "result": [
      {
        "electoralDistricts": [
          {
            "election": null,
            "id": 83,
            "name": "Parkdale—High Park"
          }
        ],
        "pollDivisionIds": [
          10126437
        ],
        "postalCode": "M6S1J4",
        "streetName": "DEFOREST",
        "streetDirectionId": null,
        "streetTypeId": "RD",
        "placeName": "TORONTO",
        "streetNameDisplayText": "DEFOREST RD, TORONTO"
      }
    ]
  },
  {
    "postal": "M6S0W6",
    "result": []
  }
]
