[
  {
    "postal": "N7L9J6",
    "result": []
  },
  {
    "postal": "N7L9Z5",
    "result": []
  },
  {
    "postal": "N7L7H8",
    "result": []
  },
  {
    "postal": "N7L0P6",
    "result": []
  },
  {
    "postal": "N7L0S7",
    "result": []
  },
  {
    "postal": "N7L8B9",
    "result": []
  },
  {
    "postal": "N7L2A6",
    "result": [
      {
        "electoralDistricts": [
          {
            "election": null,
            "id": 18,
            "name": "Chatham-Kent—Leamington"
          }
        ],
        "pollDivisionIds": [
          10137541
        ],
        "postalCode": "N7L2A6",
        "streetName": "FOREST",
        "streetDirectionId": null,
        "streetTypeId": "ST",
        "placeName": "CHATHAM",
        "streetNameDisplayText": "FOREST ST, CHATHAM"
      }
    ]
  },
  {
    "postal": "N7L7V2",
    "result": []
  },
  {
    "postal": "N7L9P4",
    "result": []
  },
  {
    "postal": "N7L6G0",
    "result": []
  },
  {
    "postal": "N7L2K0",
    "result": []
  },
  {
    "postal": "N7L7N6",
    "result": []
  },
  {
    "postal": "N7L5R3",
    "result": [
      {
        "electoralDistricts": [
          {
            "election": null,
            "id": 18,
            "name": "Chatham-Kent—Leamington"
          }
        ],
        "pollDivisionIds": [
          10137542
        ],
        "postalCode": "N7L5R3",
        "streetName": "WALKER",
        "streetDirectionId": null,
        "streetTypeId": "RD",
        "placeName": "CHATHAM",
        "streetNameDisplayText": "WALKER RD, CHATHAM"
      }
    ]
  },
  {
    "postal": "N7L7K0",
    "result": []
  },
  {
    "postal": "N7L3R2",
    "result": [
      {
        "electoralDistricts": [
          {
            "election": null,
            "id": 18,
            "name": "Chatham-Kent—Leamington"
          }
        ],
        "pollDivisionIds": [
          10137530
        ],
        "postalCode": "N7L3R2",
        "streetName": "WOODS",
        "streetDirectionId": null,
        "streetTypeId": "ST",
        "placeName": "CHATHAM",
        "streetNameDisplayText": "WOODS ST, CHATHAM"
      }
    ]
  },
  {
    "postal": "N7L0J1",
    "result": []
  },
  {
    "postal": "N7L0B0",
    "result": []
  },
  {
    "postal": "N7L5Z2",
    "result": []
  },
  {
    "postal": "N7L7P3",
    "result": []
  },
  {
    "postal": "N7L2K3",
    "result": [
      {
        "electoralDistricts": [
          {
            "election": null,
            "id": 18,
            "name": "Chatham-Kent—Leamington"
          }
        ],
        "pollDivisionIds": [
          10137536
        ],
        "postalCode": "N7L2K3",
        "streetName": "MCFARLANE",
        "streetDirectionId": null,
        "streetTypeId": "AVE",
        "placeName": "CHATHAM",
        "streetNameDisplayText": "MCFARLANE AVE, CHATHAM"
      }
    ]
  },
  {
    "postal": "N7L7Y6",
    "result": []
  },
  {
    "postal": "N7L1L9",
    "result": [
      {
        "electoralDistricts": [
          {
            "election": null,
            "id": 18,
            "name": "Chatham-Kent—Leamington"
          }
        ],
        "pollDivisionIds": [
          10137530
        ],
        "postalCode": "N7L1L9",
        "streetName": "SUSSEX",
        "streetDirectionId": null,
        "streetTypeId": "ST",
        "placeName": "CHATHAM",
        "streetNameDisplayText": "SUSSEX ST, CHATHAM"
      }
    ]
  },
  {
    "postal": "N7L8T0",
    "result": []
  },
  {
    "postal": "N7L3K8",
    "result": [
      {
        "electoralDistricts": [
          {
            "election": null,
            "id": 18,
            "name": "Chatham-Kent—Leamington"
          }
        ],
        "pollDivisionIds": [
          10137536
        ],
        "postalCode": "N7L3K8",
        "streetName": "ST CLAIR",
        "streetDirectionId": null,
        "streetTypeId": "ST",
        "placeName": "CHATHAM",
        "streetNameDisplayText": "ST CLAIR ST, CHATHAM"
      }
    ]
  },
  {
    "postal": "N7L5W9",
    "result": []
  },
  {
    "postal": "N7L6T9",
    "result": []
  },
  {
    "postal": "N7L4H1",
    "result": [
      {
        "electoralDistricts": [
          {
            "election": null,
            "id": 18,
            "name": "Chatham-Kent—Leamington"
          }
        ],
        "pollDivisionIds": [
          10137543
        ],
        "postalCode": "N7L4H1",
        "streetName": "VANIER",
        "streetDirectionId": null,
        "streetTypeId": "DR",
        "placeName": "CHATHAM",
        "streetNameDisplayText": "VANIER DR, CHATHAM"
      }
    ]
  },
  {
    "postal": "N7L7A2",
    "result": []
  },
  {
    "postal": "N7L5G0",
    "result": []
  },
  {
    "postal": "N7L8V5",
    "result": []
  },
  {
    "postal": "N7L2Y8",
    "result": [
      {
        "electoralDistricts": [
          {
            "election": null,
            "id": 18,
            "name": "Chatham-Kent—Leamington"
          }
        ],
        "pollDivisionIds": [
          10137541
        ],
        "postalCode": "N7L2Y8",
        "streetName": "THAMES",
        "streetDirectionId": null,
        "streetTypeId": "ST",
        "placeName": "CHATHAM",
        "streetNameDisplayText": "THAMES ST, CHATHAM"
      }
    ]
  },
  {
    "postal": "N7L2B6",
    "result": [
      {
        "electoralDistricts": [
          {
            "election": null,
            "id": 18,
            "name": "Chatham-Kent—Leamington"
          }
        ],
        "pollDivisionIds": [
          10137541
        ],
        "postalCode": "N7L2B6",
        "streetName": "AMELIA",
        "streetDirectionId": null,
        "streetTypeId": "ST",
        "placeName": "CHATHAM",
        "streetNameDisplayText": "AMELIA ST, CHATHAM"
      }
    ]
  },
  {
    "postal": "N7L4W8",
    "result": [
      {
        "electoralDistricts": [
          {
            "election": null,
            "id": 18,
            "name": "Chatham-Kent—Leamington"
          }
        ],
        "pollDivisionIds": [
          10137543
        ],
        "postalCode": "N7L4W8",
        "streetName": "VALLEY",
        "streetDirectionId": null,
        "streetTypeId": "RD",
        "placeName": "CHATHAM",
        "streetNameDisplayText": "VALLEY RD, CHATHAM"
      }
    ]
  },
  {
    "postal": "N7L8H7",
    "result": []
  },
  {
    "postal": "N7L5P1",
    "result": [
      {
        "electoralDistricts": [
          {
            "election": null,
            "id": 18,
            "name": "Chatham-Kent—Leamington"
          }
        ],
        "pollDivisionIds": [
          10137543
        ],
        "postalCode": "N7L5P1",
        "streetName": "VISCOUNT",
        "streetDirectionId": null,
        "streetTypeId": "RD",
        "placeName": "CHATHAM",
        "streetNameDisplayText": "VISCOUNT RD, CHATHAM"
      }
    ]
  },
  {
    "postal": "N7L2B8",
    "result": [
      {
        "electoralDistricts": [
          {
            "election": null,
            "id": 18,
            "name": "Chatham-Kent—Leamington"
          }
        ],
        "pollDivisionIds": [
          10137541
        ],
        "postalCode": "N7L2B8",
        "streetName": "AMELIA",
        "streetDirectionId": null,
        "streetTypeId": "ST",
        "placeName": "CHATHAM",
        "streetNameDisplayText": "AMELIA ST, CHATHAM"
      }
    ]
  },
  {
    "postal": "N7L0P2",
    "result": []
  },
  {
    "postal": "N7L9M1",
    "result": []
  },
  {
    "postal": "N7L3G0",
    "result": []
  },
  {
    "postal": "N7L9Z2",
    "result": []
  },
  {
    "postal": "N7L2A0",
    "result": []
  },
  {
    "postal": "N7L6Y0",
    "result": []
  },
  {
    "postal": "N7L2Z8",
    "result": [
      {
        "electoralDistricts": [
          {
            "election": null,
            "id": 18,
            "name": "Chatham-Kent—Leamington"
          }
        ],
        "pollDivisionIds": [
          10137541
        ],
        "postalCode": "N7L2Z8",
        "streetName": "VICTORIA",
        "streetDirectionId": null,
        "streetTypeId": "AVE",
        "placeName": "CHATHAM",
        "streetNameDisplayText": "VICTORIA AVE, CHATHAM"
      }
    ]
  },
  {
    "postal": "N7L7Y3",
    "result": []
  },
  {
    "postal": "N7L6Z5",
    "result": []
  },
  {
    "postal": "N7L6E0",
    "result": []
  },
  {
    "postal": "N7L9B7",
    "result": []
  },
  {
    "postal": "N7L9S5",
    "result": []
  },
  {
    "postal": "N7L3X3",
    "result": [
      {
        "electoralDistricts": [
          {
            "election": null,
            "id": 18,
            "name": "Chatham-Kent—Leamington"
          }
        ],
        "pollDivisionIds": [
          10137539
        ],
        "postalCode": "N7L3X3",
        "streetName": "GLENWOOD",
        "streetDirectionId": null,
        "streetTypeId": "DR",
        "placeName": "CHATHAM",
        "streetNameDisplayText": "GLENWOOD DR, CHATHAM"
      }
    ]
  },
  {
    "postal": "N7L7R5",
    "result": []
  },
  {
    "postal": "N7L2X3",
    "result": [
      {
        "electoralDistricts": [
          {
            "election": null,
            "id": 18,
            "name": "Chatham-Kent—Leamington"
          }
        ],
        "pollDivisionIds": [
          10137541
        ],
        "postalCode": "N7L2X3",
        "streetName": "FAIRCOURT",
        "streetDirectionId": null,
        "streetTypeId": "AVE",
        "placeName": "CHATHAM",
        "streetNameDisplayText": "FAIRCOURT AVE, CHATHAM"
      }
    ]
  },
  {
    "postal": "N7L8Z9",
    "result": []
  },
  {
    "postal": "N7L0N4",
    "result": []
  },
  {
    "postal": "N7L1K1",
    "result": [
      {
        "electoralDistricts": [
          {
            "election": null,
            "id": 18,
            "name": "Chatham-Kent—Leamington"
          }
        ],
        "pollDivisionIds": [
          10137541
        ],
        "postalCode": "N7L1K1",
        "streetName": "POPLAR",
        "streetDirectionId": null,
        "streetTypeId": "ST",
        "placeName": "CHATHAM",
        "streetNameDisplayText": "POPLAR ST, CHATHAM"
      }
    ]
  },
  {
    "postal": "N7L1S3",
    "result": [
      {
        "electoralDistricts": [
          {
            "election": null,
            "id": 18,
            "name": "Chatham-Kent—Leamington"
          }
        ],
        "pollDivisionIds": [
          10137541
        ],
        "postalCode": "N7L1S3",
        "streetName": "THAMES",
        "streetDirectionId": null,
        "streetTypeId": "ST",
        "placeName": "CHATHAM",
        "streetNameDisplayText": "THAMES ST, CHATHAM"
      }
    ]
  },
  {
    "postal": "N7L6M4",
    "result": []
  },
  {
    "postal": "N7L9A9",
    "result": []
  },
  {
    "postal": "N7L9Z9",
    "result": []
  },
  {
    "postal": "N7L6T4",
    "result": []
  },
  {
    "postal": "N7L0B2",
    "result": [
      {
        "electoralDistricts": [
          {
            "election": null,
            "id": 18,
            "name": "Chatham-Kent—Leamington"
          }
        ],
        "pollDivisionIds": [
          10137529
        ],
        "postalCode": "N7L0B2",
        "streetName": "DALE",
        "streetDirectionId": null,
        "streetTypeId": "DR",
        "placeName": "CHATHAM",
        "streetNameDisplayText": "DALE DR, CHATHAM"
      }
    ]
  },
  {
    "postal": "N7L2L9",
    "result": [
      {
        "electoralDistricts": [
          {
            "election": null,
            "id": 18,
            "name": "Chatham-Kent—Leamington"
          }
        ],
        "pollDivisionIds": [
          10137536
        ],
        "postalCode": "N7L2L9",
        "streetName": "ELLIS",
        "streetDirectionId": null,
        "streetTypeId": "ST",
        "placeName": "CHATHAM",
        "streetNameDisplayText": "ELLIS ST, CHATHAM"
      }
    ]
  },
  {
    "postal": "N7L8K9",
    "result": []
  },
  {
    "postal": "N7L2H9",
    "result": [
      {
        "electoralDistricts": [
          {
            "election": null,
            "id": 18,
            "name": "Chatham-Kent—Leamington"
          }
        ],
        "pollDivisionIds": [
          10137530
        ],
        "postalCode": "N7L2H9",
        "streetName": "PARRY",
        "streetDirectionId": null,
        "streetTypeId": "DR",
        "placeName": "CHATHAM",
        "streetNameDisplayText": "PARRY DR, CHATHAM"
      }
    ]
  },
  {
    "postal": "N7L3Z6",
    "result": [
      {
        "electoralDistricts": [
          {
            "election": null,
            "id": 18,
            "name": "Chatham-Kent—Leamington"
          }
        ],
        "pollDivisionIds": [
          10137534
        ],
        "postalCode": "N7L3Z6",
        "streetName": "LARK",
        "streetDirectionId": null,
        "streetTypeId": "ST",
        "placeName": "CHATHAM",
        "streetNameDisplayText": "LARK ST, CHATHAM"
      }
    ]
  },
  {
    "postal": "N7L3B0",
    "result": []
  },
  {
    "postal": "N7L2H8",
    "result": [
      {
        "electoralDistricts": [
          {
            "election": null,
            "id": 18,
            "name": "Chatham-Kent—Leamington"
          }
        ],
        "pollDivisionIds": [
          10137530
        ],
        "postalCode": "N7L2H8",
        "streetName": "PARRY",
        "streetDirectionId": null,
        "streetTypeId": "DR",
        "placeName": "CHATHAM",
        "streetNameDisplayText": "PARRY DR, CHATHAM"
      }
    ]
  },
  {
    "postal": "N7L3X2",
    "result": [
      {
        "electoralDistricts": [
          {
            "election": null,
            "id": 18,
            "name": "Chatham-Kent—Leamington"
          }
        ],
        "pollDivisionIds": [
          10137539
        ],
        "postalCode": "N7L3X2",
        "streetName": "GLENWOOD",
        "streetDirectionId": null,
        "streetTypeId": "DR",
        "placeName": "CHATHAM",
        "streetNameDisplayText": "GLENWOOD DR, CHATHAM"
      }
    ]
  },
  {
    "postal": "N7L2E9",
    "result": [
      {
        "electoralDistricts": [
          {
            "election": null,
            "id": 18,
            "name": "Chatham-Kent—Leamington"
          }
        ],
        "pollDivisionIds": [
          10137541
        ],
        "postalCode": "N7L2E9",
        "streetName": "MCNAUGHTON",
        "streetDirectionId": "E",
        "streetTypeId": "AVE",
        "placeName": "CHATHAM",
        "streetNameDisplayText": "MCNAUGHTON AVE E, CHATHAM"
      }
    ]
  },
  {
    "postal": "N7L9P6",
    "result": []
  },
  {
    "postal": "N7L9E2",
    "result": []
  },
  {
    "postal": "N7L9H2",
    "result": []
  },
  {
    "postal": "N7L1S8",
    "result": [
      {
        "electoralDistricts": [
          {
            "election": null,
            "id": 18,
            "name": "Chatham-Kent—Leamington"
          }
        ],
        "pollDivisionIds": [
          10137541
        ],
        "postalCode": "N7L1S8",
        "streetName": "DOVER",
        "streetDirectionId": null,
        "streetTypeId": "ST",
        "placeName": "CHATHAM",
        "streetNameDisplayText": "DOVER ST, CHATHAM"
      }
    ]
  },
  {
    "postal": "N7L3M6",
    "result": [
      {
        "electoralDistricts": [
          {
            "election": null,
            "id": 18,
            "name": "Chatham-Kent—Leamington"
          }
        ],
        "pollDivisionIds": [
          10137541
        ],
        "postalCode": "N7L3M6",
        "streetName": "SHELDON",
        "streetDirectionId": null,
        "streetTypeId": "AVE",
        "placeName": "CHATHAM",
        "streetNameDisplayText": "SHELDON AVE, CHATHAM"
      }
    ]
  },
  {
    "postal": "N7L6Z8",
    "result": []
  },
  {
    "postal": "N7L4J2",
    "result": [
      {
        "electoralDistricts": [
          {
            "election": null,
            "id": 18,
            "name": "Chatham-Kent—Leamington"
          }
        ],
        "pollDivisionIds": [
          10143125
        ],
        "postalCode": "N7L4J2",
        "streetName": "TRILLIUM VILLAGE",
        "streetDirectionId": null,
        "streetTypeId": null,
        "placeName": "CHATHAM",
        "streetNameDisplayText": "TRILLIUM VILLAGE, CHATHAM"
      }
    ]
  },
  {
    "postal": "N7L9Y1",
    "result": []
  },
  {
    "postal": "N7L8V6",
    "result": []
  },
  {
    "postal": "N7L6B2",
    "result": []
  },
  {
    "postal": "N7L1P8",
    "result": [
      {
        "electoralDistricts": [
          {
            "election": null,
            "id": 18,
            "name": "Chatham-Kent—Leamington"
          }
        ],
        "pollDivisionIds": [
          10137540
        ],
        "postalCode": "N7L1P8",
        "streetName": "LAMSON",
        "streetDirectionId": null,
        "streetTypeId": "CRES",
        "placeName": "CHATHAM",
        "streetNameDisplayText": "LAMSON CRES, CHATHAM"
      }
    ]
  },
  {
    "postal": "N7L0V8",
    "result": []
  },
  {
    "postal": "N7L4Y0",
    "result": []
  },
  {
    "postal": "N7L2T4",
    "result": [
      {
        "electoralDistricts": [
          {
            "election": null,
            "id": 18,
            "name": "Chatham-Kent—Leamington"
          }
        ],
        "pollDivisionIds": [
          10137542
        ],
        "postalCode": "N7L2T4",
        "streetName": "TAYLOR",
        "streetDirectionId": null,
        "streetTypeId": "AVE",
        "placeName": "CHATHAM",
        "streetNameDisplayText": "TAYLOR AVE, CHATHAM"
      }
    ]
  },
  {
    "postal": "N7L2S3",
    "result": [
      {
        "electoralDistricts": [
          {
            "election": null,
            "id": 18,
            "name": "Chatham-Kent—Leamington"
          }
        ],
        "pollDivisionIds": [
          10137542
        ],
        "postalCode": "N7L2S3",
        "streetName": "WOODLAND",
        "streetDirectionId": null,
        "streetTypeId": "AVE",
        "placeName": "CHATHAM",
        "streetNameDisplayText": "WOODLAND AVE, CHATHAM"
      }
    ]
  },
  {
    "postal": "N7L0K0",
    "result": []
  },
  {
    "postal": "N7L5N1",
    "result": [
      {
        "electoralDistricts": [
          {
            "election": null,
            "id": 18,
            "name": "Chatham-Kent—Leamington"
          }
        ],
        "pollDivisionIds": [
          10137542
        ],
        "postalCode": "N7L5N1",
        "streetName": "FIELDSTONE",
        "streetDirectionId": null,
        "streetTypeId": "PL",
        "placeName": "CHATHAM",
        "streetNameDisplayText": "FIELDSTONE PL, CHATHAM"
      },
      {
        "electoralDistricts": [
          {
            "election": null,
            "id": 18,
            "name": "Chatham-Kent—Leamington"
          }
        ],
        "pollDivisionIds": [
          10137542
        ],
        "postalCode": "N7L5N1",
        "streetName": "TAYLOR",
        "streetDirectionId": null,
        "streetTypeId": "TRAIL",
        "placeName": "CHATHAM",
        "streetNameDisplayText": "TAYLOR TRAIL, CHATHAM"
      }
    ]
  },
  {
    "postal": "N7L7T0",
    "result": []
  },
  {
    "postal": "N7L9N2",
    "result": []
  },
  {
    "postal": "N7L5L1",
    "result": [
      {
        "electoralDistricts": [
          {
            "election": null,
            "id": 18,
            "name": "Chatham-Kent—Leamington"
          }
        ],
        "pollDivisionIds": [
          10137543
        ],
        "postalCode": "N7L5L1",
        "streetName": "VALLEY",
        "streetDirectionId": null,
        "streetTypeId": "RD",
        "placeName": "CHATHAM",
        "streetNameDisplayText": "VALLEY RD, CHATHAM"
      }
    ]
  },
  {
    "postal": "N7L7G5",
    "result": []
  },
  {
    "postal": "N7L6K2",
    "result": []
  },
  {
    "postal": "N7L6P9",
    "result": []
  },
  {
    "postal": "N7L0E6",
    "result": []
  },
  {
    "postal": "N7L8R9",
    "result": []
  },
  {
    "postal": "N7L3G9",
    "result": [
      {
        "electoralDistricts": [
          {
            "election": null,
            "id": 18,
            "name": "Chatham-Kent—Leamington"
          }
        ],
        "pollDivisionIds": [
          10137541
        ],
        "postalCode": "N7L3G9",
        "streetName": "JOSEPH",
        "streetDirectionId": null,
        "streetTypeId": "ST",
        "placeName": "CHATHAM",
        "streetNameDisplayText": "JOSEPH ST, CHATHAM"
      }
    ]
  },
  {
    "postal": "N7L0V7",
    "result": []
  },
  {
    "postal": "N7L2Z1",
    "result": [
      {
        "electoralDistricts": [
          {
            "election": null,
            "id": 18,
            "name": "Chatham-Kent—Leamington"
          }
        ],
        "pollDivisionIds": [
          10137541
        ],
        "postalCode": "N7L2Z1",
        "streetName": "THAMES",
        "streetDirectionId": null,
        "streetTypeId": "ST",
        "placeName": "CHATHAM",
        "streetNameDisplayText": "THAMES ST, CHATHAM"
      }
    ]
  },
  {
    "postal": "N7L7N1",
    "result": []
  },
  {
    "postal": "N7L3C6",
    "result": [
      {
        "electoralDistricts": [
          {
            "election": null,
            "id": 18,
            "name": "Chatham-Kent—Leamington"
          }
        ],
        "pollDivisionIds": [
          10137541
        ],
        "postalCode": "N7L3C6",
        "streetName": "KENT",
        "streetDirectionId": null,
        "streetTypeId": "ST",
        "placeName": "CHATHAM",
        "streetNameDisplayText": "KENT ST, CHATHAM"
      }
    ]
  },
  {
    "postal": "N7L4M1",
    "result": [
      {
        "electoralDistricts": [
          {
            "election": null,
            "id": 18,
            "name": "Chatham-Kent—Leamington"
          }
        ],
        "pollDivisionIds": [
          10137530
        ],
        "postalCode": "N7L4M1",
        "streetName": "OXLEY",
        "streetDirectionId": null,
        "streetTypeId": "DR",
        "placeName": "CHATHAM",
        "streetNameDisplayText": "OXLEY DR, CHATHAM"
      }
    ]
  },
  {
    "postal": "N7L9K2",
    "result": []
  },
  {
    "postal": "N7L9S6",
    "result": []
  },
  {
    "postal": "N7L4X1",
    "result": [
      {
        "electoralDistricts": [
          {
            "election": null,
            "id": 18,
            "name": "Chatham-Kent—Leamington"
          }
        ],
        "pollDivisionIds": [
          10143126
        ],
        "postalCode": "N7L4X1",
        "streetName": "REGENCY",
        "streetDirectionId": null,
        "streetTypeId": "DR",
        "placeName": "CHATHAM",
        "streetNameDisplayText": "REGENCY DR, CHATHAM"
      }
    ]
  },
  {
    "postal": "N7L8W2",
    "result": []
  },
  {
    "postal": "N7L7N2",
    "result": []
  },
  {
    "postal": "N7L8S3",
    "result": []
  },
  {
    "postal": "N7L4V0",
    "result": []
  },
  {
    "postal": "N7L6W4",
    "result": []
  },
  {
    "postal": "N7L5M1",
    "result": [
      {
        "electoralDistricts": [
          {
            "election": null,
            "id": 18,
            "name": "Chatham-Kent—Leamington"
          }
        ],
        "pollDivisionIds": [
          10137536
        ],
        "postalCode": "N7L5M1",
        "streetName": "ASPEN",
        "streetDirectionId": null,
        "streetTypeId": "CLOSE",
        "placeName": "CHATHAM",
        "streetNameDisplayText": "ASPEN CLOSE, CHATHAM"
      },
      {
        "electoralDistricts": [
          {
            "election": null,
            "id": 18,
            "name": "Chatham-Kent—Leamington"
          }
        ],
        "pollDivisionIds": [
          10137536
        ],
        "postalCode": "N7L5M1",
        "streetName": "PAXTON",
        "streetDirectionId": null,
        "streetTypeId": "DR",
        "placeName": "CHATHAM",
        "streetNameDisplayText": "PAXTON DR, CHATHAM"
      }
    ]
  },
  {
    "postal": "N7L0S4",
    "result": []
  },
  {
    "postal": "N7L5X6",
    "result": []
  },
  {
    "postal": "N7L8L5",
    "result": []
  },
  {
    "postal": "N7L5M8",
    "result": [
      {
        "electoralDistricts": [
          {
            "election": null,
            "id": 18,
            "name": "Chatham-Kent—Leamington"
          }
        ],
        "pollDivisionIds": [
          10137542
        ],
        "postalCode": "N7L5M8",
        "streetName": "MEMORY",
        "streetDirectionId": null,
        "streetTypeId": "LANE",
        "placeName": "CHATHAM",
        "streetNameDisplayText": "MEMORY LANE, CHATHAM"
      }
    ]
  },
  {
    "postal": "N7L2G3",
    "result": [
      {
        "electoralDistricts": [
          {
            "election": null,
            "id": 18,
            "name": "Chatham-Kent—Leamington"
          }
        ],
        "pollDivisionIds": [
          10137539
        ],
        "postalCode": "N7L2G3",
        "streetName": "MCNAUGHTON",
        "streetDirectionId": "E",
        "streetTypeId": "AVE",
        "placeName": "CHATHAM",
        "streetNameDisplayText": "MCNAUGHTON AVE E, CHATHAM"
      }
    ]
  },
  {
    "postal": "N7L8E4",
    "result": []
  },
  {
    "postal": "N7L7S9",
    "result": []
  },
  {
    "postal": "N7L1K3",
    "result": [
      {
        "electoralDistricts": [
          {
            "election": null,
            "id": 18,
            "name": "Chatham-Kent—Leamington"
          }
        ],
        "pollDivisionIds": [
          10137540
        ],
        "postalCode": "N7L1K3",
        "streetName": "POPLAR",
        "streetDirectionId": null,
        "streetTypeId": "ST",
        "placeName": "CHATHAM",
        "streetNameDisplayText": "POPLAR ST, CHATHAM"
      }
    ]
  },
  {
    "postal": "N7L4E1",
    "result": [
      {
        "electoralDistricts": [
          {
            "election": null,
            "id": 18,
            "name": "Chatham-Kent—Leamington"
          }
        ],
        "pollDivisionIds": [
          10137536
        ],
        "postalCode": "N7L4E1",
        "streetName": "TIMMINS",
        "streetDirectionId": null,
        "streetTypeId": "CRES",
        "placeName": "CHATHAM",
        "streetNameDisplayText": "TIMMINS CRES, CHATHAM"
      }
    ]
  },
  {
    "postal": "N7L4R2",
    "result": [
      {
        "electoralDistricts": [
          {
            "election": null,
            "id": 18,
            "name": "Chatham-Kent—Leamington"
          }
        ],
        "pollDivisionIds": [
          10137532
        ],
        "postalCode": "N7L4R2",
        "streetName": "ACADEMY",
        "streetDirectionId": null,
        "streetTypeId": "CRES",
        "placeName": "CHATHAM",
        "streetNameDisplayText": "ACADEMY CRES, CHATHAM"
      },
      {
        "electoralDistricts": [
          {
            "election": null,
            "id": 18,
            "name": "Chatham-Kent—Leamington"
          }
        ],
        "pollDivisionIds": [
          10137540
        ],
        "postalCode": "N7L4R2",
        "streetName": "GRAND",
        "streetDirectionId": "E",
        "streetTypeId": "AVE",
        "placeName": "CHATHAM",
        "streetNameDisplayText": "GRAND AVE E, CHATHAM"
      }
    ]
  },
  {
    "postal": "N7L6T0",
    "result": []
  },
  {
    "postal": "N7L3K5",
    "result": [
      {
        "electoralDistricts": [
          {
            "election": null,
            "id": 18,
            "name": "Chatham-Kent—Leamington"
          }
        ],
        "pollDivisionIds": [
          10137536
        ],
        "postalCode": "N7L3K5",
        "streetName": "ST CLAIR",
        "streetDirectionId": null,
        "streetTypeId": "ST",
        "placeName": "CHATHAM",
        "streetNameDisplayText": "ST CLAIR ST, CHATHAM"
      }
    ]
  },
  {
    "postal": "N7L3S3",
    "result": [
      {
        "electoralDistricts": [
          {
            "election": null,
            "id": 18,
            "name": "Chatham-Kent—Leamington"
          }
        ],
        "pollDivisionIds": [
          10137530
        ],
        "postalCode": "N7L3S3",
        "streetName": "ROMNEY",
        "streetDirectionId": null,
        "streetTypeId": "RD",
        "placeName": "CHATHAM",
        "streetNameDisplayText": "ROMNEY RD, CHATHAM"
      }
    ]
  },
  {
    "postal": "N7L3L4",
    "result": [
      {
        "electoralDistricts": [
          {
            "election": null,
            "id": 18,
            "name": "Chatham-Kent—Leamington"
          }
        ],
        "pollDivisionIds": [
          10137536
        ],
        "postalCode": "N7L3L4",
        "streetName": "ST CLAIR",
        "streetDirectionId": null,
        "streetTypeId": "ST",
        "placeName": "CHATHAM",
        "streetNameDisplayText": "ST CLAIR ST, CHATHAM"
      }
    ]
  },
  {
    "postal": "N7L9Y2",
    "result": []
  },
  {
    "postal": "N7L1E0",
    "result": []
  },
  {
    "postal": "N7L9A4",
    "result": []
  },
  {
    "postal": "N7L1L3",
    "result": [
      {
        "electoralDistricts": [
          {
            "election": null,
            "id": 18,
            "name": "Chatham-Kent—Leamington"
          }
        ],
        "pollDivisionIds": [
          10137530
        ],
        "postalCode": "N7L1L3",
        "streetName": "CROYDON",
        "streetDirectionId": null,
        "streetTypeId": "ST",
        "placeName": "CHATHAM",
        "streetNameDisplayText": "CROYDON ST, CHATHAM"
      }
    ]
  },
  {
    "postal": "N7L6N1",
    "result": []
  },
  {
    "postal": "N7L6G7",
    "result": []
  },
  {
    "postal": "N7L7W1",
    "result": []
  },
  {
    "postal": "N7L4M6",
    "result": [
      {
        "electoralDistricts": [
          {
            "election": null,
            "id": 18,
            "name": "Chatham-Kent—Leamington"
          }
        ],
        "pollDivisionIds": [
          10143125
        ],
        "postalCode": "N7L4M6",
        "streetName": "TRILLIUM VILLAGE",
        "streetDirectionId": null,
        "streetTypeId": null,
        "placeName": "CHATHAM",
        "streetNameDisplayText": "TRILLIUM VILLAGE, CHATHAM"
      }
    ]
  },
  {
    "postal": "N7L1K0",
    "result": []
  },
  {
    "postal": "N7L3E2",
    "result": [
      {
        "electoralDistricts": [
          {
            "election": null,
            "id": 18,
            "name": "Chatham-Kent—Leamington"
          }
        ],
        "pollDivisionIds": [
          10137541
        ],
        "postalCode": "N7L3E2",
        "streetName": "HILLYARD",
        "streetDirectionId": null,
        "streetTypeId": "ST",
        "placeName": "CHATHAM",
        "streetNameDisplayText": "HILLYARD ST, CHATHAM"
      }
    ]
  },
  {
    "postal": "N7L5H4",
    "result": [
      {
        "electoralDistricts": [
          {
            "election": null,
            "id": 18,
            "name": "Chatham-Kent—Leamington"
          }
        ],
        "pollDivisionIds": [
          10137539
        ],
        "postalCode": "N7L5H4",
        "streetName": "WILTSHIRE",
        "streetDirectionId": null,
        "streetTypeId": "DR",
        "placeName": "CHATHAM",
        "streetNameDisplayText": "WILTSHIRE DR, CHATHAM"
      }
    ]
  },
  {
    "postal": "N7L1K7",
    "result": [
      {
        "electoralDistricts": [
          {
            "election": null,
            "id": 18,
            "name": "Chatham-Kent—Leamington"
          }
        ],
        "pollDivisionIds": [
          10137541
        ],
        "postalCode": "N7L1K7",
        "streetName": "WILSON",
        "streetDirectionId": null,
        "streetTypeId": "AVE",
        "placeName": "CHATHAM",
        "streetNameDisplayText": "WILSON AVE, CHATHAM"
      }
    ]
  },
  {
    "postal": "N7L0H0",
    "result": []
  },
  {
    "postal": "N7L0J3",
    "result": []
  },
  {
    "postal": "N7L1X6",
    "result": [
      {
        "electoralDistricts": [
          {
            "election": null,
            "id": 18,
            "name": "Chatham-Kent—Leamington"
          },
          {
            "election": null,
            "id": 50,
            "name": "Lambton—Kent—Middlesex"
          }
        ],
        "pollDivisionIds": [
          10137542,
          10143353
        ],
        "postalCode": "N7L1X6",
        "streetName": "GRAND",
        "streetDirectionId": "E",
        "streetTypeId": "AVE",
        "placeName": "CHATHAM",
        "streetNameDisplayText": "GRAND AVE E, CHATHAM"
      }
    ]
  },
  {
    "postal": "N7L2Z6",
    "result": [
      {
        "electoralDistricts": [
          {
            "election": null,
            "id": 18,
            "name": "Chatham-Kent—Leamington"
          }
        ],
        "pollDivisionIds": [
          10137541
        ],
        "postalCode": "N7L2Z6",
        "streetName": "VICTORIA",
        "streetDirectionId": null,
        "streetTypeId": "AVE",
        "placeName": "CHATHAM",
        "streetNameDisplayText": "VICTORIA AVE, CHATHAM"
      }
    ]
  },
  {
    "postal": "N7L4R9",
    "result": [
      {
        "electoralDistricts": [
          {
            "election": null,
            "id": 18,
            "name": "Chatham-Kent—Leamington"
          }
        ],
        "pollDivisionIds": [
          10137530
        ],
        "postalCode": "N7L4R9",
        "streetName": "DANA",
        "streetDirectionId": null,
        "streetTypeId": "PL",
        "placeName": "CHATHAM",
        "streetNameDisplayText": "DANA PL, CHATHAM"
      }
    ]
  },
  {
    "postal": "N7L0W8",
    "result": []
  },
  {
    "postal": "N7L1L4",
    "result": [
      {
        "electoralDistricts": [
          {
            "election": null,
            "id": 18,
            "name": "Chatham-Kent—Leamington"
          }
        ],
        "pollDivisionIds": [
          10137530
        ],
        "postalCode": "N7L1L4",
        "streetName": "CROYDON",
        "streetDirectionId": null,
        "streetTypeId": "ST",
        "placeName": "CHATHAM",
        "streetNameDisplayText": "CROYDON ST, CHATHAM"
      }
    ]
  },
  {
    "postal": "N7L0C8",
    "result": [
      {
        "electoralDistricts": [
          {
            "election": null,
            "id": 18,
            "name": "Chatham-Kent—Leamington"
          }
        ],
        "pollDivisionIds": [
          10143126
        ],
        "postalCode": "N7L0C8",
        "streetName": "GIVEN",
        "streetDirectionId": null,
        "streetTypeId": "RD",
        "placeName": "CHATHAM",
        "streetNameDisplayText": "GIVEN RD, CHATHAM"
      }
    ]
  },
  {
    "postal": "N7L9X7",
    "result": []
  },
  {
    "postal": "N7L4T1",
    "result": [
      {
        "electoralDistricts": [
          {
            "election": null,
            "id": 18,
            "name": "Chatham-Kent—Leamington"
          }
        ],
        "pollDivisionIds": [
          10137532
        ],
        "postalCode": "N7L4T1",
        "streetName": "GRAND",
        "streetDirectionId": "W",
        "streetTypeId": "AVE",
        "placeName": "CHATHAM",
        "streetNameDisplayText": "GRAND AVE W, CHATHAM"
      }
    ]
  },
  {
    "postal": "N7L0M0",
    "result": []
  },
  {
    "postal": "N7L6A2",
    "result": []
  },
  {
    "postal": "N7L9S8",
    "result": []
  },
  {
    "postal": "N7L9T4",
    "result": []
  },
  {
    "postal": "N7L9Y4",
    "result": []
  },
  {
    "postal": "N7L6G5",
    "result": []
  },
  {
    "postal": "N7L6H9",
    "result": []
  },
  {
    "postal": "N7L2P3",
    "result": [
      {
        "electoralDistricts": [
          {
            "election": null,
            "id": 18,
            "name": "Chatham-Kent—Leamington"
          }
        ],
        "pollDivisionIds": [
          10137539
        ],
        "postalCode": "N7L2P3",
        "streetName": "ARDLEIGH",
        "streetDirectionId": null,
        "streetTypeId": "DR",
        "placeName": "CHATHAM",
        "streetNameDisplayText": "ARDLEIGH DR, CHATHAM"
      }
    ]
  },
  {
    "postal": "N7L1T6",
    "result": [
      {
        "electoralDistricts": [
          {
            "election": null,
            "id": 18,
            "name": "Chatham-Kent—Leamington"
          }
        ],
        "pollDivisionIds": [
          10137540
        ],
        "postalCode": "N7L1T6",
        "streetName": "BARTHE",
        "streetDirectionId": null,
        "streetTypeId": "ST",
        "placeName": "CHATHAM",
        "streetNameDisplayText": "BARTHE ST, CHATHAM"
      }
    ]
  },
  {
    "postal": "N7L4P6",
    "result": [
      {
        "electoralDistricts": [
          {
            "election": null,
            "id": 18,
            "name": "Chatham-Kent—Leamington"
          }
        ],
        "pollDivisionIds": [
          10137542
        ],
        "postalCode": "N7L4P6",
        "streetName": "VANIER",
        "streetDirectionId": null,
        "streetTypeId": "DR",
        "placeName": "CHATHAM",
        "streetNameDisplayText": "VANIER DR, CHATHAM"
      }
    ]
  },
  {
    "postal": "N7L3K1",
    "result": [
      {
        "electoralDistricts": [
          {
            "election": null,
            "id": 18,
            "name": "Chatham-Kent—Leamington"
          }
        ],
        "pollDivisionIds": [
          10137541
        ],
        "postalCode": "N7L3K1",
        "streetName": "ST CLAIR",
        "streetDirectionId": null,
        "streetTypeId": "ST",
        "placeName": "CHATHAM",
        "streetNameDisplayText": "ST CLAIR ST, CHATHAM"
      }
    ]
  },
  {
    "postal": "N7L6X4",
    "result": []
  },
  {
    "postal": "N7L4M8",
    "result": [
      {
        "electoralDistricts": [
          {
            "election": null,
            "id": 18,
            "name": "Chatham-Kent—Leamington"
          }
        ],
        "pollDivisionIds": [
          10137530
        ],
        "postalCode": "N7L4M8",
        "streetName": "WILLOWDALE",
        "streetDirectionId": null,
        "streetTypeId": "PL",
        "placeName": "CHATHAM",
        "streetNameDisplayText": "WILLOWDALE PL, CHATHAM"
      }
    ]
  },
  {
    "postal": "N7L2Y1",
    "result": [
      {
        "electoralDistricts": [
          {
            "election": null,
            "id": 18,
            "name": "Chatham-Kent—Leamington"
          }
        ],
        "pollDivisionIds": [
          10137541
        ],
        "postalCode": "N7L2Y1",
        "streetName": "ELIZABETH",
        "streetDirectionId": null,
        "streetTypeId": "ST",
        "placeName": "CHATHAM",
        "streetNameDisplayText": "ELIZABETH ST, CHATHAM"
      }
    ]
  },
  {
    "postal": "N7L6M1",
    "result": []
  },
  {
    "postal": "N7L5L8",
    "result": [
      {
        "electoralDistricts": [
          {
            "election": null,
            "id": 18,
            "name": "Chatham-Kent—Leamington"
          }
        ],
        "pollDivisionIds": [
          10137539
        ],
        "postalCode": "N7L5L8",
        "streetName": "MCNAUGHTON",
        "streetDirectionId": "E",
        "streetTypeId": "AVE",
        "placeName": "CHATHAM",
        "streetNameDisplayText": "MCNAUGHTON AVE E, CHATHAM"
      }
    ]
  },
  {
    "postal": "N7L3P6",
    "result": [
      {
        "electoralDistricts": [
          {
            "election": null,
            "id": 18,
            "name": "Chatham-Kent—Leamington"
          }
        ],
        "pollDivisionIds": [
          10137530
        ],
        "postalCode": "N7L3P6",
        "streetName": "SANDYS",
        "streetDirectionId": null,
        "streetTypeId": "ST",
        "placeName": "CHATHAM",
        "streetNameDisplayText": "SANDYS ST, CHATHAM"
      }
    ]
  },
  {
    "postal": "N7L9A5",
    "result": []
  },
  {
    "postal": "N7L7K1",
    "result": []
  },
  {
    "postal": "N7L3J4",
    "result": [
      {
        "electoralDistricts": [
          {
            "election": null,
            "id": 18,
            "name": "Chatham-Kent—Leamington"
          }
        ],
        "pollDivisionIds": [
          10137541
        ],
        "postalCode": "N7L3J4",
        "streetName": "ST CLAIR",
        "streetDirectionId": null,
        "streetTypeId": "ST",
        "placeName": "CHATHAM",
        "streetNameDisplayText": "ST CLAIR ST, CHATHAM"
      },
      {
        "electoralDistricts": [
          {
            "election": null,
            "id": 18,
            "name": "Chatham-Kent—Leamington"
          }
        ],
        "pollDivisionIds": [
          10137541
        ],
        "postalCode": "N7L3J4",
        "streetName": "ST. CLAIR",
        "streetDirectionId": null,
        "streetTypeId": "ST",
        "placeName": "CHATHAM",
        "streetNameDisplayText": "ST. CLAIR ST, CHATHAM"
      }
    ]
  },
  {
    "postal": "N7L5E7",
    "result": [
      {
        "electoralDistricts": [
          {
            "election": null,
            "id": 18,
            "name": "Chatham-Kent—Leamington"
          }
        ],
        "pollDivisionIds": [
          10137536
        ],
        "postalCode": "N7L5E7",
        "streetName": "NORWAY MAPLE",
        "streetDirectionId": null,
        "streetTypeId": "DR",
        "placeName": "CHATHAM",
        "streetNameDisplayText": "NORWAY MAPLE DR, CHATHAM"
      }
    ]
  },
  {
    "postal": "N7L3A7",
    "result": [
      {
        "electoralDistricts": [
          {
            "election": null,
            "id": 18,
            "name": "Chatham-Kent—Leamington"
          }
        ],
        "pollDivisionIds": [
          10137541
        ],
        "postalCode": "N7L3A7",
        "streetName": "VICTORIA",
        "streetDirectionId": null,
        "streetTypeId": "AVE",
        "placeName": "CHATHAM",
        "streetNameDisplayText": "VICTORIA AVE, CHATHAM"
      }
    ]
  },
  {
    "postal": "N7L1B9",
    "result": [
      {
        "electoralDistricts": [
          {
            "election": null,
            "id": 18,
            "name": "Chatham-Kent—Leamington"
          }
        ],
        "pollDivisionIds": [
          10137540
        ],
        "postalCode": "N7L1B9",
        "streetName": "GRAND",
        "streetDirectionId": "W",
        "streetTypeId": "AVE",
        "placeName": "CHATHAM",
        "streetNameDisplayText": "GRAND AVE W, CHATHAM"
      }
    ]
  },
  {
    "postal": "N7L9E8",
    "result": []
  },
  {
    "postal": "N7L1C9",
    "result": [
      {
        "electoralDistricts": [
          {
            "election": null,
            "id": 18,
            "name": "Chatham-Kent—Leamington"
          }
        ],
        "pollDivisionIds": [
          10137534
        ],
        "postalCode": "N7L1C9",
        "streetName": "BALDOON",
        "streetDirectionId": null,
        "streetTypeId": "RD",
        "placeName": "CHATHAM",
        "streetNameDisplayText": "BALDOON RD, CHATHAM"
      },
      {
        "electoralDistricts": [
          {
            "election": null,
            "id": 18,
            "name": "Chatham-Kent—Leamington"
          }
        ],
        "pollDivisionIds": [
          10137534
        ],
        "postalCode": "N7L1C9",
        "streetName": "BALDOON",
        "streetDirectionId": null,
        "streetTypeId": "RD",
        "placeName": "CHATHAM-KENT",
        "streetNameDisplayText": "BALDOON RD, CHATHAM-KENT"
      }
    ]
  },
  {
    "postal": "N7L3B5",
    "result": [
      {
        "electoralDistricts": [
          {
            "election": null,
            "id": 18,
            "name": "Chatham-Kent—Leamington"
          }
        ],
        "pollDivisionIds": [
          10137539
        ],
        "postalCode": "N7L3B5",
        "streetName": "VICTORIA",
        "streetDirectionId": null,
        "streetTypeId": "AVE",
        "placeName": "CHATHAM",
        "streetNameDisplayText": "VICTORIA AVE, CHATHAM"
      }
    ]
  },
  {
    "postal": "N7L8R0",
    "result": []
  },
  {
    "postal": "N7L3P2",
    "result": [
      {
        "electoralDistricts": [
          {
            "election": null,
            "id": 18,
            "name": "Chatham-Kent—Leamington"
          }
        ],
        "pollDivisionIds": [
          10137522
        ],
        "postalCode": "N7L3P2",
        "streetName": "STEWART",
        "streetDirectionId": null,
        "streetTypeId": "AVE",
        "placeName": "CHATHAM",
        "streetNameDisplayText": "STEWART AVE, CHATHAM"
      },
      {
        "electoralDistricts": [
          {
            "election": null,
            "id": 18,
            "name": "Chatham-Kent—Leamington"
          }
        ],
        "pollDivisionIds": [
          10137540
        ],
        "postalCode": "N7L3P2",
        "streetName": "STEWART",
        "streetDirectionId": null,
        "streetTypeId": "ST",
        "placeName": "CHATHAM",
        "streetNameDisplayText": "STEWART ST, CHATHAM"
      }
    ]
  },
  {
    "postal": "N7L5V4",
    "result": []
  },
  {
    "postal": "N7L4H0",
    "result": []
  },
  {
    "postal": "N7L4S7",
    "result": [
      {
        "electoralDistricts": [
          {
            "election": null,
            "id": 18,
            "name": "Chatham-Kent—Leamington"
          }
        ],
        "pollDivisionIds": [
          10137530
        ],
        "postalCode": "N7L4S7",
        "streetName": "OXLEY",
        "streetDirectionId": null,
        "streetTypeId": "DR",
        "placeName": "CHATHAM",
        "streetNameDisplayText": "OXLEY DR, CHATHAM"
      }
    ]
  },
  {
    "postal": "N7L6C2",
    "result": []
  },
  {
    "postal": "N7L8W3",
    "result": []
  },
  {
    "postal": "N7L4M5",
    "result": [
      {
        "electoralDistricts": [
          {
            "election": null,
            "id": 50,
            "name": "Lambton—Kent—Middlesex"
          }
        ],
        "pollDivisionIds": [
          10143353
        ],
        "postalCode": "N7L4M5",
        "streetName": "GRAND",
        "streetDirectionId": "E",
        "streetTypeId": "AVE",
        "placeName": "CHATHAM",
        "streetNameDisplayText": "GRAND AVE E, CHATHAM"
      },
      {
        "electoralDistricts": [
          {
            "election": null,
            "id": 18,
            "name": "Chatham-Kent—Leamington"
          }
        ],
        "pollDivisionIds": [
          10137540,
          49104
        ],
        "postalCode": "N7L4M5",
        "streetName": "GRAND",
        "streetDirectionId": "W",
        "streetTypeId": "AVE",
        "placeName": "CHATHAM",
        "streetNameDisplayText": "GRAND AVE W, CHATHAM"
      }
    ]
  },
  {
    "postal": "N7L5T1",
    "result": []
  },
  {
    "postal": "N7L3B3",
    "result": [
      {
        "electoralDistricts": [
          {
            "election": null,
            "id": 18,
            "name": "Chatham-Kent—Leamington"
          }
        ],
        "pollDivisionIds": [
          10137539
        ],
        "postalCode": "N7L3B3",
        "streetName": "VICTORIA",
        "streetDirectionId": null,
        "streetTypeId": "AVE",
        "placeName": "CHATHAM",
        "streetNameDisplayText": "VICTORIA AVE, CHATHAM"
      }
    ]
  },
  {
    "postal": "N7L6C6",
    "result": []
  },
  {
    "postal": "N7L7N8",
    "result": []
  },
  {
    "postal": "N7L2Y3",
    "result": [
      {
        "electoralDistricts": [
          {
            "election": null,
            "id": 18,
            "name": "Chatham-Kent—Leamington"
          }
        ],
        "pollDivisionIds": [
          10137541
        ],
        "postalCode": "N7L2Y3",
        "streetName": "ELIZABETH",
        "streetDirectionId": null,
        "streetTypeId": "ST",
        "placeName": "CHATHAM",
        "streetNameDisplayText": "ELIZABETH ST, CHATHAM"
      }
    ]
  },
  {
    "postal": "N7L2R6",
    "result": [
      {
        "electoralDistricts": [
          {
            "election": null,
            "id": 18,
            "name": "Chatham-Kent—Leamington"
          }
        ],
        "pollDivisionIds": [
          10137542
        ],
        "postalCode": "N7L2R6",
        "streetName": "GILMORE",
        "streetDirectionId": null,
        "streetTypeId": "AVE",
        "placeName": "CHATHAM",
        "streetNameDisplayText": "GILMORE AVE, CHATHAM"
      }
    ]
  },
  {
    "postal": "N7L7N3",
    "result": []
  },
  {
    "postal": "N7L8J2",
    "result": []
  },
  {
    "postal": "N7L6A9",
    "result": []
  },
  {
    "postal": "N7L3V2",
    "result": [
      {
        "electoralDistricts": [
          {
            "election": null,
            "id": 18,
            "name": "Chatham-Kent—Leamington"
          }
        ],
        "pollDivisionIds": [
          10137534
        ],
        "postalCode": "N7L3V2",
        "streetName": "FINCH",
        "streetDirectionId": null,
        "streetTypeId": "PL",
        "placeName": "CHATHAM",
        "streetNameDisplayText": "FINCH PL, CHATHAM"
      }
    ]
  },
  {
    "postal": "N7L2N3",
    "result": [
      {
        "electoralDistricts": [
          {
            "election": null,
            "id": 18,
            "name": "Chatham-Kent—Leamington"
          }
        ],
        "pollDivisionIds": [
          10137542
        ],
        "postalCode": "N7L2N3",
        "streetName": "CARLO",
        "streetDirectionId": null,
        "streetTypeId": "ST",
        "placeName": "CHATHAM",
        "streetNameDisplayText": "CARLO ST, CHATHAM"
      }
    ]
  },
  {
    "postal": "N7L1S5",
    "result": [
      {
        "electoralDistricts": [
          {
            "election": null,
            "id": 18,
            "name": "Chatham-Kent—Leamington"
          }
        ],
        "pollDivisionIds": [
          10137540
        ],
        "postalCode": "N7L1S5",
        "streetName": "DOVER",
        "streetDirectionId": null,
        "streetTypeId": "ST",
        "placeName": "CHATHAM",
        "streetNameDisplayText": "DOVER ST, CHATHAM"
      }
    ]
  },
  {
    "postal": "N7L4T7",
    "result": [
      {
        "electoralDistricts": [
          {
            "election": null,
            "id": 18,
            "name": "Chatham-Kent—Leamington"
          }
        ],
        "pollDivisionIds": [
          10137530
        ],
        "postalCode": "N7L4T7",
        "streetName": "ARGYLE",
        "streetDirectionId": null,
        "streetTypeId": "CRES",
        "placeName": "CHATHAM",
        "streetNameDisplayText": "ARGYLE CRES, CHATHAM"
      }
    ]
  },
  {
    "postal": "N7L6Y7",
    "result": []
  },
  {
    "postal": "N7L0W7",
    "result": []
  },
  {
    "postal": "N7L2W9",
    "result": [
      {
        "electoralDistricts": [
          {
            "election": null,
            "id": 18,
            "name": "Chatham-Kent—Leamington"
          }
        ],
        "pollDivisionIds": [
          10137542
        ],
        "postalCode": "N7L2W9",
        "streetName": "DELAWARE",
        "streetDirectionId": null,
        "streetTypeId": "AVE",
        "placeName": "CHATHAM",
        "streetNameDisplayText": "DELAWARE AVE, CHATHAM"
      }
    ]
  },
  {
    "postal": "N7L8V0",
    "result": []
  },
  {
    "postal": "N7L0H4",
    "result": []
  },
  {
    "postal": "N7L2T1",
    "result": [
      {
        "electoralDistricts": [
          {
            "election": null,
            "id": 18,
            "name": "Chatham-Kent—Leamington"
          }
        ],
        "pollDivisionIds": [
          10137542
        ],
        "postalCode": "N7L2T1",
        "streetName": "VANIER",
        "streetDirectionId": null,
        "streetTypeId": "DR",
        "placeName": "CHATHAM",
        "streetNameDisplayText": "VANIER DR, CHATHAM"
      }
    ]
  },
  {
    "postal": "N7L1B1",
    "result": []
  },
  {
    "postal": "N7L8B6",
    "result": []
  },
  {
    "postal": "N7L6H1",
    "result": []
  },
  {
    "postal": "N7L8T8",
    "result": []
  },
  {
    "postal": "N7L0T4",
    "result": []
  },
  {
    "postal": "N7L2C4",
    "result": [
      {
        "electoralDistricts": [
          {
            "election": null,
            "id": 18,
            "name": "Chatham-Kent—Leamington"
          }
        ],
        "pollDivisionIds": [
          10137541
        ],
        "postalCode": "N7L2C4",
        "streetName": "GLADSTONE",
        "streetDirectionId": null,
        "streetTypeId": "AVE",
        "placeName": "CHATHAM",
        "streetNameDisplayText": "GLADSTONE AVE, CHATHAM"
      }
    ]
  },
  {
    "postal": "N7L8N3",
    "result": []
  },
  {
    "postal": "N7L4L8",
    "result": [
      {
        "electoralDistricts": [
          {
            "election": null,
            "id": 18,
            "name": "Chatham-Kent—Leamington"
          }
        ],
        "pollDivisionIds": [
          10137530
        ],
        "postalCode": "N7L4L8",
        "streetName": "BALDOON",
        "streetDirectionId": null,
        "streetTypeId": "RD",
        "placeName": "CHATHAM",
        "streetNameDisplayText": "BALDOON RD, CHATHAM"
      }
    ]
  },
  {
    "postal": "N7L2B5",
    "result": [
      {
        "electoralDistricts": [
          {
            "election": null,
            "id": 18,
            "name": "Chatham-Kent—Leamington"
          }
        ],
        "pollDivisionIds": [
          10137541
        ],
        "postalCode": "N7L2B5",
        "streetName": "AMELIA",
        "streetDirectionId": null,
        "streetTypeId": "ST",
        "placeName": "CHATHAM",
        "streetNameDisplayText": "AMELIA ST, CHATHAM"
      }
    ]
  },
  {
    "postal": "N7L3H1",
    "result": [
      {
        "electoralDistricts": [
          {
            "election": null,
            "id": 18,
            "name": "Chatham-Kent—Leamington"
          }
        ],
        "pollDivisionIds": [
          10137541
        ],
        "postalCode": "N7L3H1",
        "streetName": "JOSEPH",
        "streetDirectionId": null,
        "streetTypeId": "ST",
        "placeName": "CHATHAM",
        "streetNameDisplayText": "JOSEPH ST, CHATHAM"
      }
    ]
  },
  {
    "postal": "N7L4Y1",
    "result": [
      {
        "electoralDistricts": [
          {
            "election": null,
            "id": 18,
            "name": "Chatham-Kent—Leamington"
          }
        ],
        "pollDivisionIds": [
          10137543,
          10137564
        ],
        "postalCode": "N7L4Y1",
        "streetName": "GOLDPARK",
        "streetDirectionId": null,
        "streetTypeId": "RD",
        "placeName": "CHATHAM",
        "streetNameDisplayText": "GOLDPARK RD, CHATHAM"
      }
    ]
  },
  {
    "postal": "N7L7E2",
    "result": []
  },
  {
    "postal": "N7L2P5",
    "result": [
      {
        "electoralDistricts": [
          {
            "election": null,
            "id": 18,
            "name": "Chatham-Kent—Leamington"
          }
        ],
        "pollDivisionIds": [
          10137539
        ],
        "postalCode": "N7L2P5",
        "streetName": "ARDLEIGH",
        "streetDirectionId": null,
        "streetTypeId": "DR",
        "placeName": "CHATHAM",
        "streetNameDisplayText": "ARDLEIGH DR, CHATHAM"
      }
    ]
  },
  {
    "postal": "N7L8R7",
    "result": []
  },
  {
    "postal": "N7L9P1",
    "result": []
  },
  {
    "postal": "N7L3B8",
    "result": [
      {
        "electoralDistricts": [
          {
            "election": null,
            "id": 18,
            "name": "Chatham-Kent—Leamington"
          }
        ],
        "pollDivisionIds": [
          10137539
        ],
        "postalCode": "N7L3B8",
        "streetName": "VICTORIA",
        "streetDirectionId": null,
        "streetTypeId": "AVE",
        "placeName": "CHATHAM",
        "streetNameDisplayText": "VICTORIA AVE, CHATHAM"
      }
    ]
  },
  {
    "postal": "N7L3P7",
    "result": [
      {
        "electoralDistricts": [
          {
            "election": null,
            "id": 18,
            "name": "Chatham-Kent—Leamington"
          }
        ],
        "pollDivisionIds": [
          10137540
        ],
        "postalCode": "N7L3P7",
        "streetName": "SANDYS",
        "streetDirectionId": null,
        "streetTypeId": "ST",
        "placeName": "CHATHAM",
        "streetNameDisplayText": "SANDYS ST, CHATHAM"
      }
    ]
  },
  {
    "postal": "N7L9B2",
    "result": []
  },
  {
    "postal": "N7L6Z3",
    "result": []
  },
  {
    "postal": "N7L4N5",
    "result": [
      {
        "electoralDistricts": [
          {
            "election": null,
            "id": 18,
            "name": "Chatham-Kent—Leamington"
          }
        ],
        "pollDivisionIds": [
          10137530,
          10137536
        ],
        "postalCode": "N7L4N5",
        "streetName": "BALMORAL",
        "streetDirectionId": null,
        "streetTypeId": "RD",
        "placeName": "CHATHAM",
        "streetNameDisplayText": "BALMORAL RD, CHATHAM"
      }
    ]
  },
  {
    "postal": "N7L8T3",
    "result": []
  },
  {
    "postal": "N7L1V2",
    "result": [
      {
        "electoralDistricts": [
          {
            "election": null,
            "id": 18,
            "name": "Chatham-Kent—Leamington"
          }
        ],
        "pollDivisionIds": [
          10137541
        ],
        "postalCode": "N7L1V2",
        "streetName": "THOMAS",
        "streetDirectionId": null,
        "streetTypeId": "ST",
        "placeName": "CHATHAM",
        "streetNameDisplayText": "THOMAS ST, CHATHAM"
      }
    ]
  },
  {
    "postal": "N7L1Y0",
    "result": []
  },
  {
    "postal": "N7L3G6",
    "result": [
      {
        "electoralDistricts": [
          {
            "election": null,
            "id": 18,
            "name": "Chatham-Kent—Leamington"
          }
        ],
        "pollDivisionIds": [
          10137541
        ],
        "postalCode": "N7L3G6",
        "streetName": "JOSEPH",
        "streetDirectionId": null,
        "streetTypeId": "ST",
        "placeName": "CHATHAM",
        "streetNameDisplayText": "JOSEPH ST, CHATHAM"
      }
    ]
  },
  {
    "postal": "N7L3H7",
    "result": []
  },
  {
    "postal": "N7L7X8",
    "result": []
  },
  {
    "postal": "N7L0C7",
    "result": [
      {
        "electoralDistricts": [
          {
            "election": null,
            "id": 18,
            "name": "Chatham-Kent—Leamington"
          }
        ],
        "pollDivisionIds": [
          10143126,
          10137543
        ],
        "postalCode": "N7L0C7",
        "streetName": "GIVEN",
        "streetDirectionId": null,
        "streetTypeId": "RD",
        "placeName": "CHATHAM",
        "streetNameDisplayText": "GIVEN RD, CHATHAM"
      }
    ]
  },
  {
    "postal": "N7L0W9",
    "result": []
  },
  {
    "postal": "N7L8E6",
    "result": []
  },
  {
    "postal": "N7L9Z8",
    "result": []
  },
  {
    "postal": "N7L3P4",
    "result": []
  },
  {
    "postal": "N7L6L8",
    "result": []
  },
  {
    "postal": "N7L2R4",
    "result": [
      {
        "electoralDistricts": [
          {
            "election": null,
            "id": 18,
            "name": "Chatham-Kent—Leamington"
          }
        ],
        "pollDivisionIds": [
          10137539
        ],
        "postalCode": "N7L2R4",
        "streetName": "GREGORY",
        "streetDirectionId": "E",
        "streetTypeId": "DR",
        "placeName": "CHATHAM",
        "streetNameDisplayText": "GREGORY DR E, CHATHAM"
      }
    ]
  },
  {
    "postal": "N7L2W1",
    "result": [
      {
        "electoralDistricts": [
          {
            "election": null,
            "id": 18,
            "name": "Chatham-Kent—Leamington"
          }
        ],
        "pollDivisionIds": [
          10137541
        ],
        "postalCode": "N7L2W1",
        "streetName": "VAN ALLEN",
        "streetDirectionId": null,
        "streetTypeId": "AVE",
        "placeName": "CHATHAM",
        "streetNameDisplayText": "VAN ALLEN AVE, CHATHAM"
      }
    ]
  },
  {
    "postal": "N7L9H8",
    "result": []
  },
  {
    "postal": "N7L8X9",
    "result": []
  },
  {
    "postal": "N7L7H4",
    "result": []
  },
  {
    "postal": "N7L3J1",
    "result": []
  },
  {
    "postal": "N7L1P4",
    "result": [
      {
        "electoralDistricts": [
          {
            "election": null,
            "id": 18,
            "name": "Chatham-Kent—Leamington"
          }
        ],
        "pollDivisionIds": [
          10137541
        ],
        "postalCode": "N7L1P4",
        "streetName": "BROCK",
        "streetDirectionId": null,
        "streetTypeId": "ST",
        "placeName": "CHATHAM",
        "streetNameDisplayText": "BROCK ST, CHATHAM"
      }
    ]
  },
  {
    "postal": "N7L2A3",
    "result": [
      {
        "electoralDistricts": [
          {
            "election": null,
            "id": 18,
            "name": "Chatham-Kent—Leamington"
          }
        ],
        "pollDivisionIds": [
          10137541
        ],
        "postalCode": "N7L2A3",
        "streetName": "FOREST",
        "streetDirectionId": null,
        "streetTypeId": "ST",
        "placeName": "CHATHAM",
        "streetNameDisplayText": "FOREST ST, CHATHAM"
      }
    ]
  },
  {
    "postal": "N7L0Z1",
    "result": []
  },
  {
    "postal": "N7L1C1",
    "result": [
      {
        "electoralDistricts": [
          {
            "election": null,
            "id": 18,
            "name": "Chatham-Kent—Leamington"
          }
        ],
        "pollDivisionIds": [
          10137530,
          10137540
        ],
        "postalCode": "N7L1C1",
        "streetName": "GRAND",
        "streetDirectionId": "W",
        "streetTypeId": "AVE",
        "placeName": "CHATHAM",
        "streetNameDisplayText": "GRAND AVE W, CHATHAM"
      }
    ]
  },
  {
    "postal": "N7L0H3",
    "result": []
  },
  {
    "postal": "N7L7B0",
    "result": []
  },
  {
    "postal": "N7L5K2",
    "result": [
      {
        "electoralDistricts": [
          {
            "election": null,
            "id": 18,
            "name": "Chatham-Kent—Leamington"
          }
        ],
        "pollDivisionIds": [
          10137539
        ],
        "postalCode": "N7L5K2",
        "streetName": "NORTHERN PINE",
        "streetDirectionId": null,
        "streetTypeId": "PL",
        "placeName": "CHATHAM",
        "streetNameDisplayText": "NORTHERN PINE PL, CHATHAM"
      },
      {
        "electoralDistricts": [
          {
            "election": null,
            "id": 18,
            "name": "Chatham-Kent—Leamington"
          }
        ],
        "pollDivisionIds": [
          10137539
        ],
        "postalCode": "N7L5K2",
        "streetName": "WHITE BIRCH",
        "streetDirectionId": null,
        "streetTypeId": "TRAIL",
        "placeName": "CHATHAM",
        "streetNameDisplayText": "WHITE BIRCH TRAIL, CHATHAM"
      }
    ]
  },
  {
    "postal": "N7L1E9",
    "result": [
      {
        "electoralDistricts": [
          {
            "election": null,
            "id": 18,
            "name": "Chatham-Kent—Leamington"
          }
        ],
        "pollDivisionIds": [
          10137534
        ],
        "postalCode": "N7L1E9",
        "streetName": "PARTRIDGE",
        "streetDirectionId": null,
        "streetTypeId": "CRES",
        "placeName": "CHATHAM",
        "streetNameDisplayText": "PARTRIDGE CRES, CHATHAM"
      }
    ]
  },
  {
    "postal": "N7L9W7",
    "result": []
  },
  {
    "postal": "N7L5W6",
    "result": []
  },
  {
    "postal": "N7L6S6",
    "result": []
  },
  {
    "postal": "N7L2P8",
    "result": [
      {
        "electoralDistricts": [
          {
            "election": null,
            "id": 18,
            "name": "Chatham-Kent—Leamington"
          }
        ],
        "pollDivisionIds": [
          10137539
        ],
        "postalCode": "N7L2P8",
        "streetName": "CRERAR",
        "streetDirectionId": null,
        "streetTypeId": "DR",
        "placeName": "CHATHAM",
        "streetNameDisplayText": "CRERAR DR, CHATHAM"
      }
    ]
  },
  {
    "postal": "N7L4P8",
    "result": [
      {
        "electoralDistricts": [
          {
            "election": null,
            "id": 18,
            "name": "Chatham-Kent—Leamington"
          }
        ],
        "pollDivisionIds": [
          10137531,
          10137532
        ],
        "postalCode": "N7L4P8",
        "streetName": "CAMPUS",
        "streetDirectionId": null,
        "streetTypeId": "PKY",
        "placeName": "CHATHAM",
        "streetNameDisplayText": "CAMPUS PKY, CHATHAM"
      }
    ]
  },
  {
    "postal": "N7L0V9",
    "result": []
  },
  {
    "postal": "N7L5Y2",
    "result": []
  },
  {
    "postal": "N7L7Z7",
    "result": []
  },
  {
    "postal": "N7L6Y8",
    "result": []
  },
  {
    "postal": "N7L2G7",
    "result": [
      {
        "electoralDistricts": [
          {
            "election": null,
            "id": 18,
            "name": "Chatham-Kent—Leamington"
          }
        ],
        "pollDivisionIds": [
          10137542
        ],
        "postalCode": "N7L2G7",
        "streetName": "MCNAUGHTON",
        "streetDirectionId": "E",
        "streetTypeId": "AVE",
        "placeName": "CHATHAM",
        "streetNameDisplayText": "MCNAUGHTON AVE E, CHATHAM"
      }
    ]
  },
  {
    "postal": "N7L8C1",
    "result": []
  },
  {
    "postal": "N7L5C5",
    "result": [
      {
        "electoralDistricts": [
          {
            "election": null,
            "id": 18,
            "name": "Chatham-Kent—Leamington"
          }
        ],
        "pollDivisionIds": [
          10137543
        ],
        "postalCode": "N7L5C5",
        "streetName": "COUNTRY",
        "streetDirectionId": null,
        "streetTypeId": "LANE",
        "placeName": "CHATHAM",
        "streetNameDisplayText": "COUNTRY LANE, CHATHAM"
      }
    ]
  },
  {
    "postal": "N7L2X8",
    "result": [
      {
        "electoralDistricts": [
          {
            "election": null,
            "id": 18,
            "name": "Chatham-Kent—Leamington"
          }
        ],
        "pollDivisionIds": [
          10137541
        ],
        "postalCode": "N7L2X8",
        "streetName": "ARNOLD",
        "streetDirectionId": null,
        "streetTypeId": "ST",
        "placeName": "CHATHAM",
        "streetNameDisplayText": "ARNOLD ST, CHATHAM"
      }
    ]
  },
  {
    "postal": "N7L1W5",
    "result": [
      {
        "electoralDistricts": [
          {
            "election": null,
            "id": 18,
            "name": "Chatham-Kent—Leamington"
          }
        ],
        "pollDivisionIds": [
          10137541
        ],
        "postalCode": "N7L1W5",
        "streetName": "GRAND",
        "streetDirectionId": "E",
        "streetTypeId": "AVE",
        "placeName": "CHATHAM",
        "streetNameDisplayText": "GRAND AVE E, CHATHAM"
      }
    ]
  },
  {
    "postal": "N7L7G0",
    "result": []
  },
  {
    "postal": "N7L8J8",
    "result": []
  },
  {
    "postal": "N7L3Y0",
    "result": []
  },
  {
    "postal": "N7L9T7",
    "result": []
  },
  {
    "postal": "N7L5P4",
    "result": [
      {
        "electoralDistricts": [
          {
            "election": null,
            "id": 18,
            "name": "Chatham-Kent—Leamington"
          }
        ],
        "pollDivisionIds": [
          10137529
        ],
        "postalCode": "N7L5P4",
        "streetName": "HOME",
        "streetDirectionId": null,
        "streetTypeId": "PL",
        "placeName": "CHATHAM",
        "streetNameDisplayText": "HOME PL, CHATHAM"
      }
    ]
  },
  {
    "postal": "N7L4B0",
    "result": []
  },
  {
    "postal": "N7L9N8",
    "result": []
  },
  {
    "postal": "N7L4A7",
    "result": [
      {
        "electoralDistricts": [
          {
            "election": null,
            "id": 18,
            "name": "Chatham-Kent—Leamington"
          }
        ],
        "pollDivisionIds": [
          10137534
        ],
        "postalCode": "N7L4A7",
        "streetName": "JAY",
        "streetDirectionId": null,
        "streetTypeId": "PL",
        "placeName": "CHATHAM",
        "streetNameDisplayText": "JAY PL, CHATHAM"
      }
    ]
  },
  {
    "postal": "N7L4H9",
    "result": [
      {
        "electoralDistricts": [
          {
            "election": null,
            "id": 18,
            "name": "Chatham-Kent—Leamington"
          }
        ],
        "pollDivisionIds": [
          10137530
        ],
        "postalCode": "N7L4H9",
        "streetName": "GLENGARRY",
        "streetDirectionId": null,
        "streetTypeId": "CRES",
        "placeName": "CHATHAM",
        "streetNameDisplayText": "GLENGARRY CRES, CHATHAM"
      }
    ]
  },
  {
    "postal": "N7L6X1",
    "result": []
  },
  {
    "postal": "N7L9Y7",
    "result": []
  },
  {
    "postal": "N7L2Y5",
    "result": [
      {
        "electoralDistricts": [
          {
            "election": null,
            "id": 18,
            "name": "Chatham-Kent—Leamington"
          }
        ],
        "pollDivisionIds": [
          10137541
        ],
        "postalCode": "N7L2Y5",
        "streetName": "ELIZABETH",
        "streetDirectionId": null,
        "streetTypeId": "ST",
        "placeName": "CHATHAM",
        "streetNameDisplayText": "ELIZABETH ST, CHATHAM"
      }
    ]
  },
  {
    "postal": "N7L8L7",
    "result": []
  },
  {
    "postal": "N7L2A8",
    "result": [
      {
        "electoralDistricts": [
          {
            "election": null,
            "id": 18,
            "name": "Chatham-Kent—Leamington"
          }
        ],
        "pollDivisionIds": [
          10137542
        ],
        "postalCode": "N7L2A8",
        "streetName": "FOREST",
        "streetDirectionId": null,
        "streetTypeId": "ST",
        "placeName": "CHATHAM",
        "streetNameDisplayText": "FOREST ST, CHATHAM"
      }
    ]
  },
  {
    "postal": "N7L2K9",
    "result": [
      {
        "electoralDistricts": [
          {
            "election": null,
            "id": 18,
            "name": "Chatham-Kent—Leamington"
          }
        ],
        "pollDivisionIds": [
          10137536
        ],
        "postalCode": "N7L2K9",
        "streetName": "OXLEY",
        "streetDirectionId": null,
        "streetTypeId": "DR",
        "placeName": "CHATHAM",
        "streetNameDisplayText": "OXLEY DR, CHATHAM"
      }
    ]
  },
  {
    "postal": "N7L3E5",
    "result": [
      {
        "electoralDistricts": [
          {
            "election": null,
            "id": 18,
            "name": "Chatham-Kent—Leamington"
          }
        ],
        "pollDivisionIds": [
          10137541
        ],
        "postalCode": "N7L3E5",
        "streetName": "LLYDICAN",
        "streetDirectionId": null,
        "streetTypeId": "AVE",
        "placeName": "CHATHAM",
        "streetNameDisplayText": "LLYDICAN AVE, CHATHAM"
      }
    ]
  },
  {
    "postal": "N7L8N6",
    "result": []
  },
  {
    "postal": "N7L8J4",
    "result": []
  },
  {
    "postal": "N7L4R7",
    "result": []
  },
  {
    "postal": "N7L9K1",
    "result": []
  },
  {
    "postal": "N7L8E1",
    "result": []
  },
  {
    "postal": "N7L0R1",
    "result": []
  },
  {
    "postal": "N7L4J3",
    "result": [
      {
        "electoralDistricts": [
          {
            "election": null,
            "id": 18,
            "name": "Chatham-Kent—Leamington"
          }
        ],
        "pollDivisionIds": [
          10137543
        ],
        "postalCode": "N7L4J3",
        "streetName": "MCNAUGHTON",
        "streetDirectionId": "E",
        "streetTypeId": "AVE",
        "placeName": "CHATHAM",
        "streetNameDisplayText": "MCNAUGHTON AVE E, CHATHAM"
      },
      {
        "electoralDistricts": [
          {
            "election": null,
            "id": 18,
            "name": "Chatham-Kent—Leamington"
          }
        ],
        "pollDivisionIds": [
          10137534
        ],
        "postalCode": "N7L4J3",
        "streetName": "MCNAUGHTON",
        "streetDirectionId": "W",
        "streetTypeId": "AVE",
        "placeName": "CHATHAM",
        "streetNameDisplayText": "MCNAUGHTON AVE W, CHATHAM"
      }
    ]
  },
  {
    "postal": "N7L7E7",
    "result": []
  },
  {
    "postal": "N7L0J0",
    "result": []
  },
  {
    "postal": "N7L7R8",
    "result": []
  },
  {
    "postal": "N7L9X0",
    "result": []
  },
  {
    "postal": "N7L7P6",
    "result": []
  },
  {
    "postal": "N7L0R7",
    "result": []
  },
  {
    "postal": "N7L5W1",
    "result": []
  },
  {
    "postal": "N7L0K4",
    "result": []
  },
  {
    "postal": "N7L7N9",
    "result": []
  },
  {
    "postal": "N7L1N0",
    "result": []
  },
  {
    "postal": "N7L6P3",
    "result": []
  },
  {
    "postal": "N7L5A1",
    "result": [
      {
        "electoralDistricts": [
          {
            "election": null,
            "id": 18,
            "name": "Chatham-Kent—Leamington"
          }
        ],
        "pollDivisionIds": [
          10137540
        ],
        "postalCode": "N7L5A1",
        "streetName": "SISKIND",
        "streetDirectionId": null,
        "streetTypeId": "CRT",
        "placeName": "CHATHAM",
        "streetNameDisplayText": "SISKIND CRT, CHATHAM"
      }
    ]
  },
  {
    "postal": "N7L9M9",
    "result": []
  },
  {
    "postal": "N7L7T6",
    "result": []
  },
  {
    "postal": "N7L3X0",
    "result": []
  },
  {
    "postal": "N7L2T0",
    "result": []
  },
  {
    "postal": "N7L5X9",
    "result": []
  },
  {
    "postal": "N7L2R3",
    "result": [
      {
        "electoralDistricts": [
          {
            "election": null,
            "id": 18,
            "name": "Chatham-Kent—Leamington"
          }
        ],
        "pollDivisionIds": [
          10137539
        ],
        "postalCode": "N7L2R3",
        "streetName": "GREGORY",
        "streetDirectionId": "E",
        "streetTypeId": "DR",
        "placeName": "CHATHAM",
        "streetNameDisplayText": "GREGORY DR E, CHATHAM"
      }
    ]
  },
  {
    "postal": "N7L5N2",
    "result": [
      {
        "electoralDistricts": [
          {
            "election": null,
            "id": 18,
            "name": "Chatham-Kent—Leamington"
          }
        ],
        "pollDivisionIds": [
          10137542
        ],
        "postalCode": "N7L5N2",
        "streetName": "GREENFIELD",
        "streetDirectionId": null,
        "streetTypeId": "LANE",
        "placeName": "CHATHAM",
        "streetNameDisplayText": "GREENFIELD LANE, CHATHAM"
      },
      {
        "electoralDistricts": [
          {
            "election": null,
            "id": 18,
            "name": "Chatham-Kent—Leamington"
          }
        ],
        "pollDivisionIds": [
          10137542
        ],
        "postalCode": "N7L5N2",
        "streetName": "TAYLOR",
        "streetDirectionId": null,
        "streetTypeId": "TRAIL",
        "placeName": "CHATHAM",
        "streetNameDisplayText": "TAYLOR TRAIL, CHATHAM"
      }
    ]
  },
  {
    "postal": "N7L4Y7",
    "result": [
      {
        "electoralDistricts": [
          {
            "election": null,
            "id": 18,
            "name": "Chatham-Kent—Leamington"
          }
        ],
        "pollDivisionIds": [
          10143126
        ],
        "postalCode": "N7L4Y7",
        "streetName": "JAMES",
        "streetDirectionId": null,
        "streetTypeId": "CRT",
        "placeName": "CHATHAM",
        "streetNameDisplayText": "JAMES CRT, CHATHAM"
      }
    ]
  },
  {
    "postal": "N7L7M0",
    "result": []
  },
  {
    "postal": "N7L8P3",
    "result": []
  },
  {
    "postal": "N7L3N3",
    "result": [
      {
        "electoralDistricts": [
          {
            "election": null,
            "id": 18,
            "name": "Chatham-Kent—Leamington"
          }
        ],
        "pollDivisionIds": [
          10137540
        ],
        "postalCode": "N7L3N3",
        "streetName": "HAZEL",
        "streetDirectionId": null,
        "streetTypeId": "ST",
        "placeName": "CHATHAM",
        "streetNameDisplayText": "HAZEL ST, CHATHAM"
      }
    ]
  },
  {
    "postal": "N7L7S3",
    "result": []
  },
  {
    "postal": "N7L3V9",
    "result": [
      {
        "electoralDistricts": [
          {
            "election": null,
            "id": 18,
            "name": "Chatham-Kent—Leamington"
          }
        ],
        "pollDivisionIds": [
          10137532
        ],
        "postalCode": "N7L3V9",
        "streetName": "KEIL",
        "streetDirectionId": "N",
        "streetTypeId": "DR",
        "placeName": "CHATHAM",
        "streetNameDisplayText": "KEIL DR N, CHATHAM"
      }
    ]
  },
  {
    "postal": "N7L9N7",
    "result": []
  },
  {
    "postal": "N7L0G4",
    "result": [
      {
        "electoralDistricts": [
          {
            "election": null,
            "id": 18,
            "name": "Chatham-Kent—Leamington"
          }
        ],
        "pollDivisionIds": [
          10137529
        ],
        "postalCode": "N7L0G4",
        "streetName": "SUMMERSET",
        "streetDirectionId": null,
        "streetTypeId": "PL",
        "placeName": "CHATHAM",
        "streetNameDisplayText": "SUMMERSET PL, CHATHAM"
      },
      {
        "electoralDistricts": [
          {
            "election": null,
            "id": 18,
            "name": "Chatham-Kent—Leamington"
          }
        ],
        "pollDivisionIds": [
          10137517
        ],
        "postalCode": "N7L0G4",
        "streetName": "SUMMERSET PLACE",
        "streetDirectionId": null,
        "streetTypeId": "PL",
        "placeName": "CHATHAM",
        "streetNameDisplayText": "SUMMERSET PLACE PL, CHATHAM"
      }
    ]
  },
  {
    "postal": "N7L2E2",
    "result": [
      {
        "electoralDistricts": [
          {
            "election": null,
            "id": 18,
            "name": "Chatham-Kent—Leamington"
          }
        ],
        "pollDivisionIds": [
          10137541
        ],
        "postalCode": "N7L2E2",
        "streetName": "ANNE MARIE",
        "streetDirectionId": null,
        "streetTypeId": "DR",
        "placeName": "CHATHAM",
        "streetNameDisplayText": "ANNE MARIE DR, CHATHAM"
      }
    ]
  },
  {
    "postal": "N7L7W8",
    "result": []
  },
  {
    "postal": "N7L7M5",
    "result": []
  },
  {
    "postal": "N7L5W8",
    "result": []
  },
  {
    "postal": "N7L5E5",
    "result": [
      {
        "electoralDistricts": [
          {
            "election": null,
            "id": 18,
            "name": "Chatham-Kent—Leamington"
          }
        ],
        "pollDivisionIds": [
          10137536
        ],
        "postalCode": "N7L5E5",
        "streetName": "HEDGE MAPLE",
        "streetDirectionId": null,
        "streetTypeId": "PATH",
        "placeName": "CHATHAM",
        "streetNameDisplayText": "HEDGE MAPLE PATH, CHATHAM"
      },
      {
        "electoralDistricts": [
          {
            "election": null,
            "id": 18,
            "name": "Chatham-Kent—Leamington"
          }
        ],
        "pollDivisionIds": [
          10137536
        ],
        "postalCode": "N7L5E5",
        "streetName": "NORWAY MAPLE",
        "streetDirectionId": null,
        "streetTypeId": "DR",
        "placeName": "CHATHAM",
        "streetNameDisplayText": "NORWAY MAPLE DR, CHATHAM"
      },
      {
        "electoralDistricts": [
          {
            "election": null,
            "id": 18,
            "name": "Chatham-Kent—Leamington"
          }
        ],
        "pollDivisionIds": [
          10137536
        ],
        "postalCode": "N7L5E5",
        "streetName": "NORWAY MAPLE DR.",
        "streetDirectionId": null,
        "streetTypeId": "DR",
        "placeName": "CHATHAM",
        "streetNameDisplayText": "NORWAY MAPLE DR. DR, CHATHAM"
      }
    ]
  },
  {
    "postal": "N7L1P9",
    "result": [
      {
        "electoralDistricts": [
          {
            "election": null,
            "id": 18,
            "name": "Chatham-Kent—Leamington"
          }
        ],
        "pollDivisionIds": [
          10137540
        ],
        "postalCode": "N7L1P9",
        "streetName": "LAMSON",
        "streetDirectionId": null,
        "streetTypeId": "CRES",
        "placeName": "CHATHAM",
        "streetNameDisplayText": "LAMSON CRES, CHATHAM"
      }
    ]
  },
  {
    "postal": "N7L8V8",
    "result": []
  },
  {
    "postal": "N7L9G8",
    "result": []
  },
  {
    "postal": "N7L8H9",
    "result": []
  },
  {
    "postal": "N7L1Z1",
    "result": [
      {
        "electoralDistricts": [
          {
            "election": null,
            "id": 18,
            "name": "Chatham-Kent—Leamington"
          }
        ],
        "pollDivisionIds": [
          10137541
        ],
        "postalCode": "N7L1Z1",
        "streetName": "SELKIRK",
        "streetDirectionId": null,
        "streetTypeId": "ST",
        "placeName": "CHATHAM",
        "streetNameDisplayText": "SELKIRK ST, CHATHAM"
      }
    ]
  },
  {
    "postal": "N7L8M3",
    "result": []
  },
  {
    "postal": "N7L5H6",
    "result": [
      {
        "electoralDistricts": [
          {
            "election": null,
            "id": 18,
            "name": "Chatham-Kent—Leamington"
          }
        ],
        "pollDivisionIds": [
          10137532
        ],
        "postalCode": "N7L5H6",
        "streetName": "GRAND",
        "streetDirectionId": "W",
        "streetTypeId": "AVE",
        "placeName": "CHATHAM",
        "streetNameDisplayText": "GRAND AVE W, CHATHAM"
      }
    ]
  },
  {
    "postal": "N7L7W7",
    "result": []
  },
  {
    "postal": "N7L4L0",
    "result": []
  },
  {
    "postal": "N7L2N1",
    "result": [
      {
        "electoralDistricts": [
          {
            "election": null,
            "id": 18,
            "name": "Chatham-Kent—Leamington"
          }
        ],
        "pollDivisionIds": [
          10137536
        ],
        "postalCode": "N7L2N1",
        "streetName": "MARYKNOLL",
        "streetDirectionId": null,
        "streetTypeId": "RD",
        "placeName": "CHATHAM",
        "streetNameDisplayText": "MARYKNOLL RD, CHATHAM"
      }
    ]
  },
  {
    "postal": "N7L2H4",
    "result": [
      {
        "electoralDistricts": [
          {
            "election": null,
            "id": 18,
            "name": "Chatham-Kent—Leamington"
          }
        ],
        "pollDivisionIds": [
          10137530
        ],
        "postalCode": "N7L2H4",
        "streetName": "ALPINE",
        "streetDirectionId": null,
        "streetTypeId": "AVE",
        "placeName": "CHATHAM",
        "streetNameDisplayText": "ALPINE AVE, CHATHAM"
      }
    ]
  },
  {
    "postal": "N7L5C8",
    "result": [
      {
        "electoralDistricts": [
          {
            "election": null,
            "id": 18,
            "name": "Chatham-Kent—Leamington"
          }
        ],
        "pollDivisionIds": [
          10137536
        ],
        "postalCode": "N7L5C8",
        "streetName": "NORWAY MAPLE",
        "streetDirectionId": null,
        "streetTypeId": "DR",
        "placeName": "CHATHAM",
        "streetNameDisplayText": "NORWAY MAPLE DR, CHATHAM"
      }
    ]
  },
  {
    "postal": "N7L8B0",
    "result": []
  },
  {
    "postal": "N7L1T4",
    "result": [
      {
        "electoralDistricts": [
          {
            "election": null,
            "id": 18,
            "name": "Chatham-Kent—Leamington"
          }
        ],
        "pollDivisionIds": [
          10137541
        ],
        "postalCode": "N7L1T4",
        "streetName": "BARTHE",
        "streetDirectionId": null,
        "streetTypeId": "ST",
        "placeName": "CHATHAM",
        "streetNameDisplayText": "BARTHE ST, CHATHAM"
      }
    ]
  },
  {
    "postal": "N7L7N7",
    "result": []
  },
  {
    "postal": "N7L4L3",
    "result": [
      {
        "electoralDistricts": [
          {
            "election": null,
            "id": 18,
            "name": "Chatham-Kent—Leamington"
          }
        ],
        "pollDivisionIds": [
          10137532
        ],
        "postalCode": "N7L4L3",
        "streetName": "GRAND",
        "streetDirectionId": "W",
        "streetTypeId": "AVE",
        "placeName": "CHATHAM",
        "streetNameDisplayText": "GRAND AVE W, CHATHAM"
      }
    ]
  },
  {
    "postal": "N7L2N2",
    "result": [
      {
        "electoralDistricts": [
          {
            "election": null,
            "id": 18,
            "name": "Chatham-Kent—Leamington"
          }
        ],
        "pollDivisionIds": [
          10137542
        ],
        "postalCode": "N7L2N2",
        "streetName": "CARLO",
        "streetDirectionId": null,
        "streetTypeId": "ST",
        "placeName": "CHATHAM",
        "streetNameDisplayText": "CARLO ST, CHATHAM"
      }
    ]
  },
  {
    "postal": "N7L4N8",
    "result": [
      {
        "electoralDistricts": [
          {
            "election": null,
            "id": 18,
            "name": "Chatham-Kent—Leamington"
          }
        ],
        "pollDivisionIds": [
          10137530
        ],
        "postalCode": "N7L4N8",
        "streetName": "SPRING",
        "streetDirectionId": null,
        "streetTypeId": "PL",
        "placeName": "CHATHAM",
        "streetNameDisplayText": "SPRING PL, CHATHAM"
      }
    ]
  },
  {
    "postal": "N7L3M5",
    "result": [
      {
        "electoralDistricts": [
          {
            "election": null,
            "id": 18,
            "name": "Chatham-Kent—Leamington"
          }
        ],
        "pollDivisionIds": [
          10137540
        ],
        "postalCode": "N7L3M5",
        "streetName": "SHELDON",
        "streetDirectionId": null,
        "streetTypeId": "AVE",
        "placeName": "CHATHAM",
        "streetNameDisplayText": "SHELDON AVE, CHATHAM"
      }
    ]
  },
  {
    "postal": "N7L6H7",
    "result": []
  },
  {
    "postal": "N7L8Y8",
    "result": []
  },
  {
    "postal": "N7L5R9",
    "result": [
      {
        "electoralDistricts": [
          {
            "election": null,
            "id": 18,
            "name": "Chatham-Kent—Leamington"
          }
        ],
        "pollDivisionIds": [
          10137536
        ],
        "postalCode": "N7L5R9",
        "streetName": "OAK GROVE",
        "streetDirectionId": null,
        "streetTypeId": "LANE",
        "placeName": "CHATHAM",
        "streetNameDisplayText": "OAK GROVE LANE, CHATHAM"
      },
      {
        "electoralDistricts": [
          {
            "election": null,
            "id": 18,
            "name": "Chatham-Kent—Leamington"
          }
        ],
        "pollDivisionIds": [
          10137536
        ],
        "postalCode": "N7L5R9",
        "streetName": "OAKGROVE",
        "streetDirectionId": null,
        "streetTypeId": "LANE",
        "placeName": "CHATHAM",
        "streetNameDisplayText": "OAKGROVE LANE, CHATHAM"
      }
    ]
  },
  {
    "postal": "N7L8G3",
    "result": []
  },
  {
    "postal": "N7L4N7",
    "result": [
      {
        "electoralDistricts": [
          {
            "election": null,
            "id": 18,
            "name": "Chatham-Kent—Leamington"
          }
        ],
        "pollDivisionIds": [
          10137536
        ],
        "postalCode": "N7L4N7",
        "streetName": "PRIMROSE",
        "streetDirectionId": null,
        "streetTypeId": "LANE",
        "placeName": "CHATHAM",
        "streetNameDisplayText": "PRIMROSE LANE, CHATHAM"
      }
    ]
  },
  {
    "postal": "N7L0B9",
    "result": [
      {
        "electoralDistricts": [
          {
            "election": null,
            "id": 18,
            "name": "Chatham-Kent—Leamington"
          }
        ],
        "pollDivisionIds": [
          10137529
        ],
        "postalCode": "N7L0B9",
        "streetName": "TWILIGHT",
        "streetDirectionId": null,
        "streetTypeId": "TRAIL",
        "placeName": "CHATHAM",
        "streetNameDisplayText": "TWILIGHT TRAIL, CHATHAM"
      }
    ]
  },
  {
    "postal": "N7L9K7",
    "result": []
  },
  {
    "postal": "N7L9K9",
    "result": []
  },
  {
    "postal": "N7L3Z2",
    "result": [
      {
        "electoralDistricts": [
          {
            "election": null,
            "id": 18,
            "name": "Chatham-Kent—Leamington"
          }
        ],
        "pollDivisionIds": [
          10137542,
          10137543
        ],
        "postalCode": "N7L3Z2",
        "streetName": "GRAND",
        "streetDirectionId": "E",
        "streetTypeId": "AVE",
        "placeName": "CHATHAM",
        "streetNameDisplayText": "GRAND AVE E, CHATHAM"
      }
    ]
  },
  {
    "postal": "N7L6W7",
    "result": []
  },
  {
    "postal": "N7L0P1",
    "result": []
  },
  {
    "postal": "N7L3A0",
    "result": []
  },
  {
    "postal": "N7L8L9",
    "result": []
  },
  {
    "postal": "N7L6X0",
    "result": []
  },
  {
    "postal": "N7L3E9",
    "result": [
      {
        "electoralDistricts": [
          {
            "election": null,
            "id": 18,
            "name": "Chatham-Kent—Leamington"
          }
        ],
        "pollDivisionIds": [
          10137541
        ],
        "postalCode": "N7L3E9",
        "streetName": "LLYDICAN",
        "streetDirectionId": null,
        "streetTypeId": "AVE",
        "placeName": "CHATHAM",
        "streetNameDisplayText": "LLYDICAN AVE, CHATHAM"
      },
      {
        "electoralDistricts": [
          {
            "election": null,
            "id": 18,
            "name": "Chatham-Kent—Leamington"
          }
        ],
        "pollDivisionIds": [
          10137541
        ],
        "postalCode": "N7L3E9",
        "streetName": "LLYDICAN EXTENSION",
        "streetDirectionId": null,
        "streetTypeId": "AVE",
        "placeName": "CHATHAM",
        "streetNameDisplayText": "LLYDICAN EXTENSION AVE, CHATHAM"
      }
    ]
  },
  {
    "postal": "N7L0S5",
    "result": []
  },
  {
    "postal": "N7L1A2",
    "result": []
  },
  {
    "postal": "N7L5V8",
    "result": []
  },
  {
    "postal": "N7L8C5",
    "result": []
  },
  {
    "postal": "N7L6N0",
    "result": []
  },
  {
    "postal": "N7L9E6",
    "result": []
  },
  {
    "postal": "N7L5J7",
    "result": [
      {
        "electoralDistricts": [
          {
            "election": null,
            "id": 18,
            "name": "Chatham-Kent—Leamington"
          }
        ],
        "pollDivisionIds": [
          10137537
        ],
        "postalCode": "N7L5J7",
        "streetName": "REGENCY",
        "streetDirectionId": null,
        "streetTypeId": "DR",
        "placeName": "CHATHAM",
        "streetNameDisplayText": "REGENCY DR, CHATHAM"
      },
      {
        "electoralDistricts": [
          {
            "election": null,
            "id": 18,
            "name": "Chatham-Kent—Leamington"
          }
        ],
        "pollDivisionIds": [
          10137553
        ],
        "postalCode": "N7L5J7",
        "streetName": "RIVER",
        "streetDirectionId": null,
        "streetTypeId": "LINE",
        "placeName": "CHATHAM-KENT",
        "streetNameDisplayText": "RIVER LINE, CHATHAM-KENT"
      }
    ]
  },
  {
    "postal": "N7L2R2",
    "result": [
      {
        "electoralDistricts": [
          {
            "election": null,
            "id": 18,
            "name": "Chatham-Kent—Leamington"
          }
        ],
        "pollDivisionIds": [
          10137539
        ],
        "postalCode": "N7L2R2",
        "streetName": "GREGORY",
        "streetDirectionId": "E",
        "streetTypeId": "DR",
        "placeName": "CHATHAM",
        "streetNameDisplayText": "GREGORY DR E, CHATHAM"
      }
    ]
  },
  {
    "postal": "N7L0P5",
    "result": []
  },
  {
    "postal": "N7L5A7",
    "result": [
      {
        "electoralDistricts": [
          {
            "election": null,
            "id": 18,
            "name": "Chatham-Kent—Leamington"
          }
        ],
        "pollDivisionIds": [
          10137536
        ],
        "postalCode": "N7L5A7",
        "streetName": "BETH",
        "streetDirectionId": null,
        "streetTypeId": "CRES",
        "placeName": "CHATHAM",
        "streetNameDisplayText": "BETH CRES, CHATHAM"
      }
    ]
  },
  {
    "postal": "N7L1G1",
    "result": [
      {
        "electoralDistricts": [
          {
            "election": null,
            "id": 18,
            "name": "Chatham-Kent—Leamington"
          }
        ],
        "pollDivisionIds": [
          10137534
        ],
        "postalCode": "N7L1G1",
        "streetName": "QUAIL",
        "streetDirectionId": null,
        "streetTypeId": "PL",
        "placeName": "CHATHAM",
        "streetNameDisplayText": "QUAIL PL, CHATHAM"
      }
    ]
  },
  {
    "postal": "N7L9R6",
    "result": []
  },
  {
    "postal": "N7L4Z9",
    "result": [
      {
        "electoralDistricts": [
          {
            "election": null,
            "id": 18,
            "name": "Chatham-Kent—Leamington"
          }
        ],
        "pollDivisionIds": [
          10137540
        ],
        "postalCode": "N7L4Z9",
        "streetName": "SISKIND",
        "streetDirectionId": null,
        "streetTypeId": "CRT",
        "placeName": "CHATHAM",
        "streetNameDisplayText": "SISKIND CRT, CHATHAM"
      }
    ]
  },
  {
    "postal": "N7L1V5",
    "result": []
  },
  {
    "postal": "N7L9Y5",
    "result": []
  },
  {
    "postal": "N7L1P2",
    "result": [
      {
        "electoralDistricts": [
          {
            "election": null,
            "id": 18,
            "name": "Chatham-Kent—Leamington"
          }
        ],
        "pollDivisionIds": [
          10137530
        ],
        "postalCode": "N7L1P2",
        "streetName": "ALDEN",
        "streetDirectionId": null,
        "streetTypeId": "ST",
        "placeName": "CHATHAM",
        "streetNameDisplayText": "ALDEN ST, CHATHAM"
      }
    ]
  },
  {
    "postal": "N7L5X0",
    "result": []
  },
  {
    "postal": "N7L7B8",
    "result": []
  },
  {
    "postal": "N7L0C6",
    "result": []
  },
  {
    "postal": "N7L6G1",
    "result": []
  },
  {
    "postal": "N7L3K3",
    "result": [
      {
        "electoralDistricts": [
          {
            "election": null,
            "id": 18,
            "name": "Chatham-Kent—Leamington"
          }
        ],
        "pollDivisionIds": [
          10137541
        ],
        "postalCode": "N7L3K3",
        "streetName": "ST CLAIR",
        "streetDirectionId": null,
        "streetTypeId": "ST",
        "placeName": "CHATHAM",
        "streetNameDisplayText": "ST CLAIR ST, CHATHAM"
      }
    ]
  },
  {
    "postal": "N7L9R0",
    "result": []
  },
  {
    "postal": "N7L4R8",
    "result": []
  },
  {
    "postal": "N7L5P9",
    "result": [
      {
        "electoralDistricts": [
          {
            "election": null,
            "id": 18,
            "name": "Chatham-Kent—Leamington"
          }
        ],
        "pollDivisionIds": [
          10137542
        ],
        "postalCode": "N7L5P9",
        "streetName": "CARTIER",
        "streetDirectionId": null,
        "streetTypeId": "PL",
        "placeName": "CHATHAM",
        "streetNameDisplayText": "CARTIER PL, CHATHAM"
      },
      {
        "electoralDistricts": [
          {
            "election": null,
            "id": 18,
            "name": "Chatham-Kent—Leamington"
          }
        ],
        "pollDivisionIds": [
          10137542
        ],
        "postalCode": "N7L5P9",
        "streetName": "FROBISHER",
        "streetDirectionId": null,
        "streetTypeId": "CRT",
        "placeName": "CHATHAM",
        "streetNameDisplayText": "FROBISHER CRT, CHATHAM"
      },
      {
        "electoralDistricts": [
          {
            "election": null,
            "id": 18,
            "name": "Chatham-Kent—Leamington"
          }
        ],
        "pollDivisionIds": [
          10137542
        ],
        "postalCode": "N7L5P9",
        "streetName": "LANDINGS",
        "streetDirectionId": null,
        "streetTypeId": "PASS",
        "placeName": "CHATHAM",
        "streetNameDisplayText": "LANDINGS PASS, CHATHAM"
      }
    ]
  },
  {
    "postal": "N7L8N4",
    "result": []
  },
  {
    "postal": "N7L8H4",
    "result": []
  },
  {
    "postal": "N7L4V1",
    "result": [
      {
        "electoralDistricts": [
          {
            "election": null,
            "id": 18,
            "name": "Chatham-Kent—Leamington"
          }
        ],
        "pollDivisionIds": [
          10137543
        ],
        "postalCode": "N7L4V1",
        "streetName": "TASAN",
        "streetDirectionId": null,
        "streetTypeId": "CRES",
        "placeName": "CHATHAM",
        "streetNameDisplayText": "TASAN CRES, CHATHAM"
      }
    ]
  },
  {
    "postal": "N7L1K5",
    "result": [
      {
        "electoralDistricts": [
          {
            "election": null,
            "id": 18,
            "name": "Chatham-Kent—Leamington"
          }
        ],
        "pollDivisionIds": [
          10137540
        ],
        "postalCode": "N7L1K5",
        "streetName": "FIELDER",
        "streetDirectionId": null,
        "streetTypeId": "AVE",
        "placeName": "CHATHAM",
        "streetNameDisplayText": "FIELDER AVE, CHATHAM"
      }
    ]
  },
  {
    "postal": "N7L1Z5",
    "result": [
      {
        "electoralDistricts": [
          {
            "election": null,
            "id": 18,
            "name": "Chatham-Kent—Leamington"
          }
        ],
        "pollDivisionIds": [
          10137542
        ],
        "postalCode": "N7L1Z5",
        "streetName": "SELKIRK",
        "streetDirectionId": null,
        "streetTypeId": "ST",
        "placeName": "CHATHAM",
        "streetNameDisplayText": "SELKIRK ST, CHATHAM"
      }
    ]
  },
  {
    "postal": "N7L9L9",
    "result": []
  },
  {
    "postal": "N7L5L2",
    "result": [
      {
        "electoralDistricts": [
          {
            "election": null,
            "id": 18,
            "name": "Chatham-Kent—Leamington"
          }
        ],
        "pollDivisionIds": [
          10137543
        ],
        "postalCode": "N7L5L2",
        "streetName": "VALLEY",
        "streetDirectionId": null,
        "streetTypeId": "RD",
        "placeName": "CHATHAM",
        "streetNameDisplayText": "VALLEY RD, CHATHAM"
      },
      {
        "electoralDistricts": [
          {
            "election": null,
            "id": 18,
            "name": "Chatham-Kent—Leamington"
          }
        ],
        "pollDivisionIds": [
          10137543
        ],
        "postalCode": "N7L5L2",
        "streetName": "WINDFIELD",
        "streetDirectionId": null,
        "streetTypeId": "CRES",
        "placeName": "CHATHAM",
        "streetNameDisplayText": "WINDFIELD CRES, CHATHAM"
      }
    ]
  },
  {
    "postal": "N7L0M2",
    "result": []
  },
  {
    "postal": "N7L1K8",
    "result": [
      {
        "electoralDistricts": [
          {
            "election": null,
            "id": 18,
            "name": "Chatham-Kent—Leamington"
          }
        ],
        "pollDivisionIds": [
          10137541
        ],
        "postalCode": "N7L1K8",
        "streetName": "WILSON",
        "streetDirectionId": null,
        "streetTypeId": "AVE",
        "placeName": "CHATHAM",
        "streetNameDisplayText": "WILSON AVE, CHATHAM"
      }
    ]
  },
  {
    "postal": "N7L3M7",
    "result": [
      {
        "electoralDistricts": [
          {
            "election": null,
            "id": 18,
            "name": "Chatham-Kent—Leamington"
          }
        ],
        "pollDivisionIds": [
          10137540
        ],
        "postalCode": "N7L3M7",
        "streetName": "SHELDON",
        "streetDirectionId": null,
        "streetTypeId": "AVE",
        "placeName": "CHATHAM",
        "streetNameDisplayText": "SHELDON AVE, CHATHAM"
      }
    ]
  },
  {
    "postal": "N7L1B2",
    "result": [
      {
        "electoralDistricts": [
          {
            "election": null,
            "id": 18,
            "name": "Chatham-Kent—Leamington"
          }
        ],
        "pollDivisionIds": [
          10137540
        ],
        "postalCode": "N7L1B2",
        "streetName": "EMMA",
        "streetDirectionId": null,
        "streetTypeId": "ST",
        "placeName": "CHATHAM",
        "streetNameDisplayText": "EMMA ST, CHATHAM"
      }
    ]
  },
  {
    "postal": "N7L0H9",
    "result": []
  },
  {
    "postal": "N7L8M4",
    "result": []
  },
  {
    "postal": "N7L2M5",
    "result": [
      {
        "electoralDistricts": [
          {
            "election": null,
            "id": 18,
            "name": "Chatham-Kent—Leamington"
          }
        ],
        "pollDivisionIds": [
          10137536
        ],
        "postalCode": "N7L2M5",
        "streetName": "LANCEFIELD",
        "streetDirectionId": null,
        "streetTypeId": "PL",
        "placeName": "CHATHAM",
        "streetNameDisplayText": "LANCEFIELD PL, CHATHAM"
      }
    ]
  },
  {
    "postal": "N7L0T9",
    "result": []
  },
  {
    "postal": "N7L3P1",
    "result": []
  },
  {
    "postal": "N7L1R6",
    "result": [
      {
        "electoralDistricts": [
          {
            "election": null,
            "id": 18,
            "name": "Chatham-Kent—Leamington"
          }
        ],
        "pollDivisionIds": [
          10137530
        ],
        "postalCode": "N7L1R6",
        "streetName": "MCNAUGHTON",
        "streetDirectionId": "W",
        "streetTypeId": "AVE",
        "placeName": "CHATHAM",
        "streetNameDisplayText": "MCNAUGHTON AVE W, CHATHAM"
      }
    ]
  },
  {
    "postal": "N7L9V5",
    "result": []
  },
  {
    "postal": "N7L9T0",
    "result": []
  },
  {
    "postal": "N7L0A9",
    "result": [
      {
        "electoralDistricts": [
          {
            "election": null,
            "id": 18,
            "name": "Chatham-Kent—Leamington"
          }
        ],
        "pollDivisionIds": [
          10137530
        ],
        "postalCode": "N7L0A9",
        "streetName": "VALENCIA",
        "streetDirectionId": null,
        "streetTypeId": "DR",
        "placeName": "CHATHAM",
        "streetNameDisplayText": "VALENCIA DR, CHATHAM"
      }
    ]
  },
  {
    "postal": "N7L1M3",
    "result": [
      {
        "electoralDistricts": [
          {
            "election": null,
            "id": 18,
            "name": "Chatham-Kent—Leamington"
          }
        ],
        "pollDivisionIds": [
          10137530
        ],
        "postalCode": "N7L1M3",
        "streetName": "SUSSEX",
        "streetDirectionId": null,
        "streetTypeId": "ST",
        "placeName": "CHATHAM",
        "streetNameDisplayText": "SUSSEX ST, CHATHAM"
      }
    ]
  },
  {
    "postal": "N7L1W8",
    "result": [
      {
        "electoralDistricts": [
          {
            "election": null,
            "id": 18,
            "name": "Chatham-Kent—Leamington"
          }
        ],
        "pollDivisionIds": [
          10137542
        ],
        "postalCode": "N7L1W8",
        "streetName": "GRAND",
        "streetDirectionId": "E",
        "streetTypeId": "AVE",
        "placeName": "CHATHAM",
        "streetNameDisplayText": "GRAND AVE E, CHATHAM"
      }
    ]
  },
  {
    "postal": "N7L9J1",
    "result": []
  },
  {
    "postal": "N7L8N5",
    "result": []
  },
  {
    "postal": "N7L5X1",
    "result": []
  },
  {
    "postal": "N7L6S2",
    "result": []
  },
  {
    "postal": "N7L2A2",
    "result": [
      {
        "electoralDistricts": [
          {
            "election": null,
            "id": 18,
            "name": "Chatham-Kent—Leamington"
          }
        ],
        "pollDivisionIds": [
          10137541
        ],
        "postalCode": "N7L2A2",
        "streetName": "FOREST",
        "streetDirectionId": null,
        "streetTypeId": "ST",
        "placeName": "CHATHAM",
        "streetNameDisplayText": "FOREST ST, CHATHAM"
      }
    ]
  },
  {
    "postal": "N7L6A6",
    "result": []
  },
  {
    "postal": "N7L0S3",
    "result": []
  },
  {
    "postal": "N7L3E7",
    "result": [
      {
        "electoralDistricts": [
          {
            "election": null,
            "id": 18,
            "name": "Chatham-Kent—Leamington"
          }
        ],
        "pollDivisionIds": [
          10137541
        ],
        "postalCode": "N7L3E7",
        "streetName": "LLYDICAN",
        "streetDirectionId": null,
        "streetTypeId": "AVE",
        "placeName": "CHATHAM",
        "streetNameDisplayText": "LLYDICAN AVE, CHATHAM"
      },
      {
        "electoralDistricts": [
          {
            "election": null,
            "id": 18,
            "name": "Chatham-Kent—Leamington"
          }
        ],
        "pollDivisionIds": [
          10137541
        ],
        "postalCode": "N7L3E7",
        "streetName": "LLYDICAN EXTENSION",
        "streetDirectionId": null,
        "streetTypeId": "AVE",
        "placeName": "CHATHAM",
        "streetNameDisplayText": "LLYDICAN EXTENSION AVE, CHATHAM"
      }
    ]
  },
  {
    "postal": "N7L5R7",
    "result": [
      {
        "electoralDistricts": [
          {
            "election": null,
            "id": 18,
            "name": "Chatham-Kent—Leamington"
          }
        ],
        "pollDivisionIds": [
          10137529
        ],
        "postalCode": "N7L5R7",
        "streetName": "IVY",
        "streetDirectionId": null,
        "streetTypeId": "PLACE",
        "placeName": "CHATHAM",
        "streetNameDisplayText": "IVY PLACE, CHATHAM"
      }
    ]
  },
  {
    "postal": "N7L3R6",
    "result": [
      {
        "electoralDistricts": [
          {
            "election": null,
            "id": 18,
            "name": "Chatham-Kent—Leamington"
          }
        ],
        "pollDivisionIds": [
          10137530
        ],
        "postalCode": "N7L3R6",
        "streetName": "SEMENYN",
        "streetDirectionId": null,
        "streetTypeId": "AVE",
        "placeName": "CHATHAM",
        "streetNameDisplayText": "SEMENYN AVE, CHATHAM"
      }
    ]
  },
  {
    "postal": "N7L6K4",
    "result": []
  },
  {
    "postal": "N7L2W5",
    "result": [
      {
        "electoralDistricts": [
          {
            "election": null,
            "id": 18,
            "name": "Chatham-Kent—Leamington"
          }
        ],
        "pollDivisionIds": [
          10137541
        ],
        "postalCode": "N7L2W5",
        "streetName": "DELAWARE",
        "streetDirectionId": null,
        "streetTypeId": "AVE",
        "placeName": "CHATHAM",
        "streetNameDisplayText": "DELAWARE AVE, CHATHAM"
      }
    ]
  },
  {
    "postal": "N7L8W4",
    "result": []
  },
  {
    "postal": "N7L9C2",
    "result": []
  },
  {
    "postal": "N7L2C0",
    "result": []
  },
  {
    "postal": "N7L0E1",
    "result": [
      {
        "electoralDistricts": [
          {
            "election": null,
            "id": 18,
            "name": "Chatham-Kent—Leamington"
          }
        ],
        "pollDivisionIds": [
          10143126,
          10137539
        ],
        "postalCode": "N7L0E1",
        "streetName": "GREGORY",
        "streetDirectionId": "E",
        "streetTypeId": "DR",
        "placeName": "CHATHAM",
        "streetNameDisplayText": "GREGORY DR E, CHATHAM"
      }
    ]
  },
  {
    "postal": "N7L1K9",
    "result": [
      {
        "electoralDistricts": [
          {
            "election": null,
            "id": 18,
            "name": "Chatham-Kent—Leamington"
          }
        ],
        "pollDivisionIds": [
          10137540
        ],
        "postalCode": "N7L1K9",
        "streetName": "WILSON",
        "streetDirectionId": null,
        "streetTypeId": "AVE",
        "placeName": "CHATHAM",
        "streetNameDisplayText": "WILSON AVE, CHATHAM"
      }
    ]
  },
  {
    "postal": "N7L1G7",
    "result": [
      {
        "electoralDistricts": [
          {
            "election": null,
            "id": 18,
            "name": "Chatham-Kent—Leamington"
          }
        ],
        "pollDivisionIds": [
          10137534
        ],
        "postalCode": "N7L1G7",
        "streetName": "LARK",
        "streetDirectionId": null,
        "streetTypeId": "ST",
        "placeName": "CHATHAM",
        "streetNameDisplayText": "LARK ST, CHATHAM"
      }
    ]
  },
  {
    "postal": "N7L4E9",
    "result": [
      {
        "electoralDistricts": [
          {
            "election": null,
            "id": 18,
            "name": "Chatham-Kent—Leamington"
          }
        ],
        "pollDivisionIds": [
          10143126
        ],
        "postalCode": "N7L4E9",
        "streetName": "REGENCY",
        "streetDirectionId": null,
        "streetTypeId": "DR",
        "placeName": "CHATHAM",
        "streetNameDisplayText": "REGENCY DR, CHATHAM"
      }
    ]
  },
  {
    "postal": "N7L9P0",
    "result": []
  },
  {
    "postal": "N7L5H3",
    "result": [
      {
        "electoralDistricts": [
          {
            "election": null,
            "id": 18,
            "name": "Chatham-Kent—Leamington"
          }
        ],
        "pollDivisionIds": [
          10137537
        ],
        "postalCode": "N7L5H3",
        "streetName": "DUNKIRK",
        "streetDirectionId": null,
        "streetTypeId": "DR",
        "placeName": "CHATHAM",
        "streetNameDisplayText": "DUNKIRK DR, CHATHAM"
      }
    ]
  },
  {
    "postal": "N7L9X6",
    "result": []
  },
  {
    "postal": "N7L5N7",
    "result": [
      {
        "electoralDistricts": [
          {
            "election": null,
            "id": 18,
            "name": "Chatham-Kent—Leamington"
          }
        ],
        "pollDivisionIds": [
          10137529
        ],
        "postalCode": "N7L5N7",
        "streetName": "GARDEN",
        "streetDirectionId": null,
        "streetTypeId": "PATH",
        "placeName": "CHATHAM",
        "streetNameDisplayText": "GARDEN PATH, CHATHAM"
      },
      {
        "electoralDistricts": [
          {
            "election": null,
            "id": 18,
            "name": "Chatham-Kent—Leamington"
          }
        ],
        "pollDivisionIds": [
          10137529
        ],
        "postalCode": "N7L5N7",
        "streetName": "IRIS",
        "streetDirectionId": null,
        "streetTypeId": "CRT",
        "placeName": "CHATHAM",
        "streetNameDisplayText": "IRIS CRT, CHATHAM"
      }
    ]
  },
  {
    "postal": "N7L5A6",
    "result": []
  },
  {
    "postal": "N7L4M0",
    "result": []
  },
  {
    "postal": "N7L3V6",
    "result": [
      {
        "electoralDistricts": [
          {
            "election": null,
            "id": 18,
            "name": "Chatham-Kent—Leamington"
          }
        ],
        "pollDivisionIds": [
          10137534
        ],
        "postalCode": "N7L3V6",
        "streetName": "CRANE",
        "streetDirectionId": null,
        "streetTypeId": "DR",
        "placeName": "CHATHAM",
        "streetNameDisplayText": "CRANE DR, CHATHAM"
      }
    ]
  },
  {
    "postal": "N7L1L7",
    "result": [
      {
        "electoralDistricts": [
          {
            "election": null,
            "id": 18,
            "name": "Chatham-Kent—Leamington"
          }
        ],
        "pollDivisionIds": [
          10137530
        ],
        "postalCode": "N7L1L7",
        "streetName": "LOUELLA",
        "streetDirectionId": null,
        "streetTypeId": "CRES",
        "placeName": "CHATHAM",
        "streetNameDisplayText": "LOUELLA CRES, CHATHAM"
      }
    ]
  },
  {
    "postal": "N7L2P9",
    "result": [
      {
        "electoralDistricts": [
          {
            "election": null,
            "id": 18,
            "name": "Chatham-Kent—Leamington"
          }
        ],
        "pollDivisionIds": [
          10137539
        ],
        "postalCode": "N7L2P9",
        "streetName": "LAWSON",
        "streetDirectionId": null,
        "streetTypeId": "DR",
        "placeName": "CHATHAM",
        "streetNameDisplayText": "LAWSON DR, CHATHAM"
      }
    ]
  },
  {
    "postal": "N7L5T4",
    "result": []
  },
  {
    "postal": "N7L5Z1",
    "result": []
  },
  {
    "postal": "N7L2X0",
    "result": []
  },
  {
    "postal": "N7L6Z2",
    "result": []
  },
  {
    "postal": "N7L0E0",
    "result": []
  },
  {
    "postal": "N7L3Z5",
    "result": [
      {
        "electoralDistricts": [
          {
            "election": null,
            "id": 18,
            "name": "Chatham-Kent—Leamington"
          }
        ],
        "pollDivisionIds": [
          10137534
        ],
        "postalCode": "N7L3Z5",
        "streetName": "LARK",
        "streetDirectionId": null,
        "streetTypeId": "ST",
        "placeName": "CHATHAM",
        "streetNameDisplayText": "LARK ST, CHATHAM"
      }
    ]
  },
  {
    "postal": "N7L8H3",
    "result": []
  },
  {
    "postal": "N7L7S6",
    "result": []
  },
  {
    "postal": "N7L4C1",
    "result": [
      {
        "electoralDistricts": [
          {
            "election": null,
            "id": 18,
            "name": "Chatham-Kent—Leamington"
          }
        ],
        "pollDivisionIds": [
          10137542,
          10137543
        ],
        "postalCode": "N7L4C1",
        "streetName": "MICHENER",
        "streetDirectionId": null,
        "streetTypeId": "RD",
        "placeName": "CHATHAM",
        "streetNameDisplayText": "MICHENER RD, CHATHAM"
      }
    ]
  },
  {
    "postal": "N7L3K2",
    "result": [
      {
        "electoralDistricts": [
          {
            "election": null,
            "id": 18,
            "name": "Chatham-Kent—Leamington"
          }
        ],
        "pollDivisionIds": [
          10137541
        ],
        "postalCode": "N7L3K2",
        "streetName": "ST CLAIR",
        "streetDirectionId": null,
        "streetTypeId": "ST",
        "placeName": "CHATHAM",
        "streetNameDisplayText": "ST CLAIR ST, CHATHAM"
      }
    ]
  },
  {
    "postal": "N7L1Y5",
    "result": [
      {
        "electoralDistricts": [
          {
            "election": null,
            "id": 18,
            "name": "Chatham-Kent—Leamington"
          }
        ],
        "pollDivisionIds": [
          10137541
        ],
        "postalCode": "N7L1Y5",
        "streetName": "SELKIRK",
        "streetDirectionId": null,
        "streetTypeId": "ST",
        "placeName": "CHATHAM",
        "streetNameDisplayText": "SELKIRK ST, CHATHAM"
      }
    ]
  },
  {
    "postal": "N7L6P6",
    "result": []
  },
  {
    "postal": "N7L3N9",
    "result": [
      {
        "electoralDistricts": [
          {
            "election": null,
            "id": 18,
            "name": "Chatham-Kent—Leamington"
          }
        ],
        "pollDivisionIds": [
          10137540
        ],
        "postalCode": "N7L3N9",
        "streetName": "LOUISE",
        "streetDirectionId": null,
        "streetTypeId": "ST",
        "placeName": "CHATHAM",
        "streetNameDisplayText": "LOUISE ST, CHATHAM"
      }
    ]
  },
  {
    "postal": "N7L3W2",
    "result": [
      {
        "electoralDistricts": [
          {
            "election": null,
            "id": 18,
            "name": "Chatham-Kent—Leamington"
          }
        ],
        "pollDivisionIds": [
          10137542
        ],
        "postalCode": "N7L3W2",
        "streetName": "GIVEN",
        "streetDirectionId": null,
        "streetTypeId": "RD",
        "placeName": "CHATHAM",
        "streetNameDisplayText": "GIVEN RD, CHATHAM"
      }
    ]
  },
  {
    "postal": "N7L6H8",
    "result": []
  },
  {
    "postal": "N7L9T3",
    "result": []
  },
  {
    "postal": "N7L5L9",
    "result": [
      {
        "electoralDistricts": [
          {
            "election": null,
            "id": 18,
            "name": "Chatham-Kent—Leamington"
          }
        ],
        "pollDivisionIds": [
          10137536
        ],
        "postalCode": "N7L5L9",
        "streetName": "ORANGEWOOD",
        "streetDirectionId": null,
        "streetTypeId": "BLVD",
        "placeName": "CHATHAM",
        "streetNameDisplayText": "ORANGEWOOD BLVD, CHATHAM"
      },
      {
        "electoralDistricts": [
          {
            "election": null,
            "id": 18,
            "name": "Chatham-Kent—Leamington"
          }
        ],
        "pollDivisionIds": [
          10137536
        ],
        "postalCode": "N7L5L9",
        "streetName": "PAXTON",
        "streetDirectionId": null,
        "streetTypeId": "DR",
        "placeName": "CHATHAM",
        "streetNameDisplayText": "PAXTON DR, CHATHAM"
      },
      {
        "electoralDistricts": [
          {
            "election": null,
            "id": 18,
            "name": "Chatham-Kent—Leamington"
          }
        ],
        "pollDivisionIds": [
          10137536
        ],
        "postalCode": "N7L5L9",
        "streetName": "SAGE",
        "streetDirectionId": null,
        "streetTypeId": "CLOSE",
        "placeName": "CHATHAM",
        "streetNameDisplayText": "SAGE CLOSE, CHATHAM"
      }
    ]
  },
  {
    "postal": "N7L7X7",
    "result": []
  },
  {
    "postal": "N7L3J5",
    "result": [
      {
        "electoralDistricts": [
          {
            "election": null,
            "id": 18,
            "name": "Chatham-Kent—Leamington"
          }
        ],
        "pollDivisionIds": [
          10137541
        ],
        "postalCode": "N7L3J5",
        "streetName": "ST CLAIR",
        "streetDirectionId": null,
        "streetTypeId": "ST",
        "placeName": "CHATHAM",
        "streetNameDisplayText": "ST CLAIR ST, CHATHAM"
      }
    ]
  },
  {
    "postal": "N7L4J5",
    "result": [
      {
        "electoralDistricts": [
          {
            "election": null,
            "id": 18,
            "name": "Chatham-Kent—Leamington"
          }
        ],
        "pollDivisionIds": [
          10137543,
          10137542
        ],
        "postalCode": "N7L4J5",
        "streetName": "DONALDA",
        "streetDirectionId": null,
        "streetTypeId": "DR",
        "placeName": "CHATHAM",
        "streetNameDisplayText": "DONALDA DR, CHATHAM"
      }
    ]
  },
  {
    "postal": "N7L6J2",
    "result": []
  },
  {
    "postal": "N7L5V6",
    "result": []
  },
  {
    "postal": "N7L3N2",
    "result": [
      {
        "electoralDistricts": [
          {
            "election": null,
            "id": 18,
            "name": "Chatham-Kent—Leamington"
          }
        ],
        "pollDivisionIds": [
          10137540
        ],
        "postalCode": "N7L3N2",
        "streetName": "HAZEL",
        "streetDirectionId": null,
        "streetTypeId": "ST",
        "placeName": "CHATHAM",
        "streetNameDisplayText": "HAZEL ST, CHATHAM"
      }
    ]
  },
  {
    "postal": "N7L3B1",
    "result": [
      {
        "electoralDistricts": [
          {
            "election": null,
            "id": 18,
            "name": "Chatham-Kent—Leamington"
          }
        ],
        "pollDivisionIds": [
          10137541
        ],
        "postalCode": "N7L3B1",
        "streetName": "VICTORIA",
        "streetDirectionId": null,
        "streetTypeId": "AVE",
        "placeName": "CHATHAM",
        "streetNameDisplayText": "VICTORIA AVE, CHATHAM"
      }
    ]
  },
  {
    "postal": "N7L8B5",
    "result": []
  },
  {
    "postal": "N7L0K1",
    "result": []
  },
  {
    "postal": "N7L7M7",
    "result": []
  },
  {
    "postal": "N7L2M2",
    "result": [
      {
        "electoralDistricts": [
          {
            "election": null,
            "id": 18,
            "name": "Chatham-Kent—Leamington"
          }
        ],
        "pollDivisionIds": [
          10137536
        ],
        "postalCode": "N7L2M2",
        "streetName": "LANCEFIELD",
        "streetDirectionId": null,
        "streetTypeId": "PL",
        "placeName": "CHATHAM",
        "streetNameDisplayText": "LANCEFIELD PL, CHATHAM"
      },
      {
        "electoralDistricts": [
          {
            "election": null,
            "id": 18,
            "name": "Chatham-Kent—Leamington"
          }
        ],
        "pollDivisionIds": [
          10137536
        ],
        "postalCode": "N7L2M2",
        "streetName": "LANCEFIELD PL.",
        "streetDirectionId": null,
        "streetTypeId": "PL",
        "placeName": "CHATHAM",
        "streetNameDisplayText": "LANCEFIELD PL. PL, CHATHAM"
      }
    ]
  },
  {
    "postal": "N7L9N3",
    "result": []
  },
  {
    "postal": "N7L4Y8",
    "result": [
      {
        "electoralDistricts": [
          {
            "election": null,
            "id": 18,
            "name": "Chatham-Kent—Leamington"
          }
        ],
        "pollDivisionIds": [
          10137537
        ],
        "postalCode": "N7L4Y8",
        "streetName": "JAMES",
        "streetDirectionId": null,
        "streetTypeId": "CRT",
        "placeName": "CHATHAM",
        "streetNameDisplayText": "JAMES CRT, CHATHAM"
      }
    ]
  },
  {
    "postal": "N7L3V7",
    "result": [
      {
        "electoralDistricts": [
          {
            "election": null,
            "id": 18,
            "name": "Chatham-Kent—Leamington"
          }
        ],
        "pollDivisionIds": [
          10137534
        ],
        "postalCode": "N7L3V7",
        "streetName": "CRANE",
        "streetDirectionId": null,
        "streetTypeId": "DR",
        "placeName": "CHATHAM",
        "streetNameDisplayText": "CRANE DR, CHATHAM"
      }
    ]
  },
  {
    "postal": "N7L8Z1",
    "result": []
  },
  {
    "postal": "N7L7B3",
    "result": []
  },
  {
    "postal": "N7L3A8",
    "result": [
      {
        "electoralDistricts": [
          {
            "election": null,
            "id": 18,
            "name": "Chatham-Kent—Leamington"
          }
        ],
        "pollDivisionIds": [
          10137541
        ],
        "postalCode": "N7L3A8",
        "streetName": "VICTORIA",
        "streetDirectionId": null,
        "streetTypeId": "AVE",
        "placeName": "CHATHAM",
        "streetNameDisplayText": "VICTORIA AVE, CHATHAM"
      }
    ]
  },
  {
    "postal": "N7L7V5",
    "result": []
  },
  {
    "postal": "N7L2T2",
    "result": [
      {
        "electoralDistricts": [
          {
            "election": null,
            "id": 18,
            "name": "Chatham-Kent—Leamington"
          }
        ],
        "pollDivisionIds": [
          10137543
        ],
        "postalCode": "N7L2T2",
        "streetName": "VANIER",
        "streetDirectionId": null,
        "streetTypeId": "DR",
        "placeName": "CHATHAM",
        "streetNameDisplayText": "VANIER DR, CHATHAM"
      }
    ]
  },
  {
    "postal": "N7L6L3",
    "result": []
  },
  {
    "postal": "N7L0L2",
    "result": []
  },
  {
    "postal": "N7L5Y8",
    "result": []
  },
  {
    "postal": "N7L0B8",
    "result": [
      {
        "electoralDistricts": [
          {
            "election": null,
            "id": 18,
            "name": "Chatham-Kent—Leamington"
          }
        ],
        "pollDivisionIds": [
          10137529
        ],
        "postalCode": "N7L0B8",
        "streetName": "KEIL",
        "streetDirectionId": "N",
        "streetTypeId": "TRAIL",
        "placeName": "CHATHAM",
        "streetNameDisplayText": "KEIL TRAIL N, CHATHAM"
      }
    ]
  },
  {
    "postal": "N7L6R5",
    "result": []
  },
  {
    "postal": "N7L8W6",
    "result": []
  },
  {
    "postal": "N7L8G6",
    "result": []
  },
  {
    "postal": "N7L6X3",
    "result": []
  },
  {
    "postal": "N7L7R7",
    "result": []
  },
  {
    "postal": "N7L4B6",
    "result": [
      {
        "electoralDistricts": [
          {
            "election": null,
            "id": 18,
            "name": "Chatham-Kent—Leamington"
          }
        ],
        "pollDivisionIds": [
          10137542
        ],
        "postalCode": "N7L4B6",
        "streetName": "PEIRONE",
        "streetDirectionId": null,
        "streetTypeId": "CRES",
        "placeName": "CHATHAM",
        "streetNameDisplayText": "PEIRONE CRES, CHATHAM"
      }
    ]
  },
  {
    "postal": "N7L3P9",
    "result": [
      {
        "electoralDistricts": [
          {
            "election": null,
            "id": 18,
            "name": "Chatham-Kent—Leamington"
          }
        ],
        "pollDivisionIds": [
          10137530
        ],
        "postalCode": "N7L3P9",
        "streetName": "WOODS ST",
        "streetDirectionId": null,
        "streetTypeId": "ST",
        "placeName": "CHATHAM",
        "streetNameDisplayText": "WOODS ST ST, CHATHAM"
      },
      {
        "electoralDistricts": [
          {
            "election": null,
            "id": 18,
            "name": "Chatham-Kent—Leamington"
          }
        ],
        "pollDivisionIds": [
          10137530
        ],
        "postalCode": "N7L3P9",
        "streetName": "WOODS",
        "streetDirectionId": null,
        "streetTypeId": "ST",
        "placeName": "CHATHAM",
        "streetNameDisplayText": "WOODS ST, CHATHAM"
      }
    ]
  },
  {
    "postal": "N7L2T3",
    "result": [
      {
        "electoralDistricts": [
          {
            "election": null,
            "id": 18,
            "name": "Chatham-Kent—Leamington"
          }
        ],
        "pollDivisionIds": [
          10137542
        ],
        "postalCode": "N7L2T3",
        "streetName": "VANIER",
        "streetDirectionId": null,
        "streetTypeId": "DR",
        "placeName": "CHATHAM",
        "streetNameDisplayText": "VANIER DR, CHATHAM"
      }
    ]
  },
  {
    "postal": "N7L1M4",
    "result": [
      {
        "electoralDistricts": [
          {
            "election": null,
            "id": 18,
            "name": "Chatham-Kent—Leamington"
          }
        ],
        "pollDivisionIds": [
          10137530
        ],
        "postalCode": "N7L1M4",
        "streetName": "COUTURE",
        "streetDirectionId": null,
        "streetTypeId": "DR",
        "placeName": "CHATHAM",
        "streetNameDisplayText": "COUTURE DR, CHATHAM"
      }
    ]
  },
  {
    "postal": "N7L0H1",
    "result": []
  },
  {
    "postal": "N7L9W3",
    "result": []
  },
  {
    "postal": "N7L6P1",
    "result": []
  },
  {
    "postal": "N7L7G2",
    "result": []
  },
  {
    "postal": "N7L4J9",
    "result": [
      {
        "electoralDistricts": [
          {
            "election": null,
            "id": 18,
            "name": "Chatham-Kent—Leamington"
          }
        ],
        "pollDivisionIds": [
          10137543
        ],
        "postalCode": "N7L4J9",
        "streetName": "MICHENER",
        "streetDirectionId": null,
        "streetTypeId": "RD",
        "placeName": "CHATHAM",
        "streetNameDisplayText": "MICHENER RD, CHATHAM"
      }
    ]
  },
  {
    "postal": "N7L9E4",
    "result": []
  },
  {
    "postal": "N7L8H0",
    "result": []
  },
  {
    "postal": "N7L4M7",
    "result": [
      {
        "electoralDistricts": [
          {
            "election": null,
            "id": 18,
            "name": "Chatham-Kent—Leamington"
          }
        ],
        "pollDivisionIds": [
          10137543
        ],
        "postalCode": "N7L4M7",
        "streetName": "MICHENER",
        "streetDirectionId": null,
        "streetTypeId": "RD",
        "placeName": "CHATHAM",
        "streetNameDisplayText": "MICHENER RD, CHATHAM"
      }
    ]
  },
  {
    "postal": "N7L2G9",
    "result": [
      {
        "electoralDistricts": [
          {
            "election": null,
            "id": 18,
            "name": "Chatham-Kent—Leamington"
          }
        ],
        "pollDivisionIds": [
          10137542,
          10137543
        ],
        "postalCode": "N7L2G9",
        "streetName": "MCNAUGHTON",
        "streetDirectionId": "E",
        "streetTypeId": "AVE",
        "placeName": "CHATHAM",
        "streetNameDisplayText": "MCNAUGHTON AVE E, CHATHAM"
      }
    ]
  },
  {
    "postal": "N7L8T2",
    "result": []
  },
  {
    "postal": "N7L7G7",
    "result": []
  },
  {
    "postal": "N7L4Z3",
    "result": [
      {
        "electoralDistricts": [
          {
            "election": null,
            "id": 18,
            "name": "Chatham-Kent—Leamington"
          }
        ],
        "pollDivisionIds": [
          10137537
        ],
        "postalCode": "N7L4Z3",
        "streetName": "DUNKIRK",
        "streetDirectionId": null,
        "streetTypeId": "DR",
        "placeName": "CHATHAM",
        "streetNameDisplayText": "DUNKIRK DR, CHATHAM"
      }
    ]
  },
  {
    "postal": "N7L5B3",
    "result": [
      {
        "electoralDistricts": [
          {
            "election": null,
            "id": 18,
            "name": "Chatham-Kent—Leamington"
          }
        ],
        "pollDivisionIds": [
          10137543
        ],
        "postalCode": "N7L5B3",
        "streetName": "VALLEY",
        "streetDirectionId": null,
        "streetTypeId": "RD",
        "placeName": "CHATHAM",
        "streetNameDisplayText": "VALLEY RD, CHATHAM"
      }
    ]
  },
  {
    "postal": "N7L1S7",
    "result": [
      {
        "electoralDistricts": [
          {
            "election": null,
            "id": 18,
            "name": "Chatham-Kent—Leamington"
          }
        ],
        "pollDivisionIds": [
          10137541
        ],
        "postalCode": "N7L1S7",
        "streetName": "DOVER",
        "streetDirectionId": null,
        "streetTypeId": "ST",
        "placeName": "CHATHAM",
        "streetNameDisplayText": "DOVER ST, CHATHAM"
      }
    ]
  },
  {
    "postal": "N7L2N7",
    "result": [
      {
        "electoralDistricts": [
          {
            "election": null,
            "id": 18,
            "name": "Chatham-Kent—Leamington"
          }
        ],
        "pollDivisionIds": [
          10137539
        ],
        "postalCode": "N7L2N7",
        "streetName": "WILTSHIRE",
        "streetDirectionId": null,
        "streetTypeId": "DR",
        "placeName": "CHATHAM",
        "streetNameDisplayText": "WILTSHIRE DR, CHATHAM"
      }
    ]
  },
  {
    "postal": "N7L0H8",
    "result": []
  },
  {
    "postal": "N7L7Z4",
    "result": []
  },
  {
    "postal": "N7L7B1",
    "result": []
  },
  {
    "postal": "N7L7P8",
    "result": []
  },
  {
    "postal": "N7L7N0",
    "result": []
  },
  {
    "postal": "N7L3Y5",
    "result": [
      {
        "electoralDistricts": [
          {
            "election": null,
            "id": 18,
            "name": "Chatham-Kent—Leamington"
          }
        ],
        "pollDivisionIds": [
          10137530
        ],
        "postalCode": "N7L3Y5",
        "streetName": "JULIETTE",
        "streetDirectionId": null,
        "streetTypeId": "AVE",
        "placeName": "CHATHAM",
        "streetNameDisplayText": "JULIETTE AVE, CHATHAM"
      }
    ]
  },
  {
    "postal": "N7L6K1",
    "result": []
  },
  {
    "postal": "N7L9X5",
    "result": []
  },
  {
    "postal": "N7L7S5",
    "result": []
  },
  {
    "postal": "N7L0A4",
    "result": [
      {
        "electoralDistricts": [
          {
            "election": null,
            "id": 18,
            "name": "Chatham-Kent—Leamington"
          }
        ],
        "pollDivisionIds": [
          10137542
        ],
        "postalCode": "N7L0A4",
        "streetName": "HUDSON",
        "streetDirectionId": null,
        "streetTypeId": "DR",
        "placeName": "CHATHAM",
        "streetNameDisplayText": "HUDSON DR, CHATHAM"
      },
      {
        "electoralDistricts": [
          {
            "election": null,
            "id": 18,
            "name": "Chatham-Kent—Leamington"
          }
        ],
        "pollDivisionIds": [
          10137542
        ],
        "postalCode": "N7L0A4",
        "streetName": "LANDINGS",
        "streetDirectionId": null,
        "streetTypeId": "PASS",
        "placeName": "CHATHAM",
        "streetNameDisplayText": "LANDINGS PASS, CHATHAM"
      }
    ]
  },
  {
    "postal": "N7L4T5",
    "result": [
      {
        "electoralDistricts": [
          {
            "election": null,
            "id": 18,
            "name": "Chatham-Kent—Leamington"
          }
        ],
        "pollDivisionIds": [
          10137541
        ],
        "postalCode": "N7L4T5",
        "streetName": "COVERDALE",
        "streetDirectionId": null,
        "streetTypeId": "ST",
        "placeName": "CHATHAM",
        "streetNameDisplayText": "COVERDALE ST, CHATHAM"
      }
    ]
  },
  {
    "postal": "N7L5K1",
    "result": [
      {
        "electoralDistricts": [
          {
            "election": null,
            "id": 18,
            "name": "Chatham-Kent—Leamington"
          }
        ],
        "pollDivisionIds": [
          10137541
        ],
        "postalCode": "N7L5K1",
        "streetName": "VAN ALLEN",
        "streetDirectionId": null,
        "streetTypeId": "AVE",
        "placeName": "CHATHAM",
        "streetNameDisplayText": "VAN ALLEN AVE, CHATHAM"
      }
    ]
  },
  {
    "postal": "N7L0Z9",
    "result": []
  },
  {
    "postal": "N7L7T2",
    "result": []
  },
  {
    "postal": "N7L1L5",
    "result": [
      {
        "electoralDistricts": [
          {
            "election": null,
            "id": 18,
            "name": "Chatham-Kent—Leamington"
          }
        ],
        "pollDivisionIds": [
          10137530
        ],
        "postalCode": "N7L1L5",
        "streetName": "CROYDON",
        "streetDirectionId": null,
        "streetTypeId": "ST",
        "placeName": "CHATHAM",
        "streetNameDisplayText": "CROYDON ST, CHATHAM"
      }
    ]
  },
  {
    "postal": "N7L3N5",
    "result": [
      {
        "electoralDistricts": [
          {
            "election": null,
            "id": 18,
            "name": "Chatham-Kent—Leamington"
          }
        ],
        "pollDivisionIds": [
          10137540
        ],
        "postalCode": "N7L3N5",
        "streetName": "INGRAM",
        "streetDirectionId": null,
        "streetTypeId": "ST",
        "placeName": "CHATHAM",
        "streetNameDisplayText": "INGRAM ST, CHATHAM"
      }
    ]
  },
  {
    "postal": "N7L6H4",
    "result": []
  },
  {
    "postal": "N7L5A5",
    "result": [
      {
        "electoralDistricts": [
          {
            "election": null,
            "id": 18,
            "name": "Chatham-Kent—Leamington"
          }
        ],
        "pollDivisionIds": [
          10137537
        ],
        "postalCode": "N7L5A5",
        "streetName": "DUNKIRK",
        "streetDirectionId": null,
        "streetTypeId": "DR",
        "placeName": "CHATHAM",
        "streetNameDisplayText": "DUNKIRK DR, CHATHAM"
      }
    ]
  },
  {
    "postal": "N7L3R9",
    "result": [
      {
        "electoralDistricts": [
          {
            "election": null,
            "id": 18,
            "name": "Chatham-Kent—Leamington"
          }
        ],
        "pollDivisionIds": [
          10137530
        ],
        "postalCode": "N7L3R9",
        "streetName": "SEMENYN",
        "streetDirectionId": null,
        "streetTypeId": "AVE",
        "placeName": "CHATHAM",
        "streetNameDisplayText": "SEMENYN AVE, CHATHAM"
      }
    ]
  },
  {
    "postal": "N7L7L8",
    "result": []
  },
  {
    "postal": "N7L6T6",
    "result": []
  },
  {
    "postal": "N7L7Y7",
    "result": []
  },
  {
    "postal": "N7L3M8",
    "result": [
      {
        "electoralDistricts": [
          {
            "election": null,
            "id": 18,
            "name": "Chatham-Kent—Leamington"
          }
        ],
        "pollDivisionIds": [
          10137541
        ],
        "postalCode": "N7L3M8",
        "streetName": "SHELDON",
        "streetDirectionId": null,
        "streetTypeId": "AVE",
        "placeName": "CHATHAM",
        "streetNameDisplayText": "SHELDON AVE, CHATHAM"
      }
    ]
  },
  {
    "postal": "N7L2E0",
    "result": []
  },
  {
    "postal": "N7L4B5",
    "result": [
      {
        "electoralDistricts": [
          {
            "election": null,
            "id": 18,
            "name": "Chatham-Kent—Leamington"
          }
        ],
        "pollDivisionIds": [
          10137543,
          10137527
        ],
        "postalCode": "N7L4B5",
        "streetName": "ABERDEEN",
        "streetDirectionId": null,
        "streetTypeId": "ST",
        "placeName": "CHATHAM",
        "streetNameDisplayText": "ABERDEEN ST, CHATHAM"
      }
    ]
  },
  {
    "postal": "N7L1J3",
    "result": [
      {
        "electoralDistricts": [
          {
            "election": null,
            "id": 18,
            "name": "Chatham-Kent—Leamington"
          }
        ],
        "pollDivisionIds": [
          10137541
        ],
        "postalCode": "N7L1J3",
        "streetName": "MCKEOUGH",
        "streetDirectionId": null,
        "streetTypeId": "AVE",
        "placeName": "CHATHAM",
        "streetNameDisplayText": "MCKEOUGH AVE, CHATHAM"
      }
    ]
  },
  {
    "postal": "N7L5S6",
    "result": []
  },
  {
    "postal": "N7L8P7",
    "result": []
  },
  {
    "postal": "N7L7S7",
    "result": []
  },
  {
    "postal": "N7L4C2",
    "result": [
      {
        "electoralDistricts": [
          {
            "election": null,
            "id": 18,
            "name": "Chatham-Kent—Leamington"
          }
        ],
        "pollDivisionIds": [
          10137530
        ],
        "postalCode": "N7L4C2",
        "streetName": "NORTHLAND",
        "streetDirectionId": null,
        "streetTypeId": "DR",
        "placeName": "CHATHAM",
        "streetNameDisplayText": "NORTHLAND DR, CHATHAM"
      }
    ]
  },
  {
    "postal": "N7L5Y0",
    "result": []
  },
  {
    "postal": "N7L2V7",
    "result": [
      {
        "electoralDistricts": [
          {
            "election": null,
            "id": 18,
            "name": "Chatham-Kent—Leamington"
          }
        ],
        "pollDivisionIds": [
          10137542
        ],
        "postalCode": "N7L2V7",
        "streetName": "VAN ALLEN",
        "streetDirectionId": null,
        "streetTypeId": "AVE",
        "placeName": "CHATHAM",
        "streetNameDisplayText": "VAN ALLEN AVE, CHATHAM"
      }
    ]
  },
  {
    "postal": "N7L8P5",
    "result": []
  },
  {
    "postal": "N7L5P5",
    "result": [
      {
        "electoralDistricts": [
          {
            "election": null,
            "id": 18,
            "name": "Chatham-Kent—Leamington"
          }
        ],
        "pollDivisionIds": [
          10137529
        ],
        "postalCode": "N7L5P5",
        "streetName": "VILLA",
        "streetDirectionId": null,
        "streetTypeId": "CRT",
        "placeName": "CHATHAM",
        "streetNameDisplayText": "VILLA CRT, CHATHAM"
      }
    ]
  },
  {
    "postal": "N7L5Z0",
    "result": []
  },
  {
    "postal": "N7L9B0",
    "result": []
  },
  {
    "postal": "N7L1L0",
    "result": []
  },
  {
    "postal": "N7L0B5",
    "result": [
      {
        "electoralDistricts": [
          {
            "election": null,
            "id": 18,
            "name": "Chatham-Kent—Leamington"
          }
        ],
        "pollDivisionIds": [
          10137534
        ],
        "postalCode": "N7L0B5",
        "streetName": "COURTHOUSE",
        "streetDirectionId": null,
        "streetTypeId": "LANE",
        "placeName": "CHATHAM",
        "streetNameDisplayText": "COURTHOUSE LANE, CHATHAM"
      }
    ]
  },
  {
    "postal": "N7L3L2",
    "result": [
      {
        "electoralDistricts": [
          {
            "election": null,
            "id": 18,
            "name": "Chatham-Kent—Leamington"
          }
        ],
        "pollDivisionIds": [
          10137539
        ],
        "postalCode": "N7L3L2",
        "streetName": "ST CLAIR",
        "streetDirectionId": null,
        "streetTypeId": "ST",
        "placeName": "CHATHAM",
        "streetNameDisplayText": "ST CLAIR ST, CHATHAM"
      }
    ]
  },
  {
    "postal": "N7L3B7",
    "result": [
      {
        "electoralDistricts": [
          {
            "election": null,
            "id": 18,
            "name": "Chatham-Kent—Leamington"
          }
        ],
        "pollDivisionIds": [
          10137539
        ],
        "postalCode": "N7L3B7",
        "streetName": "VICTORIA",
        "streetDirectionId": null,
        "streetTypeId": "AVE",
        "placeName": "CHATHAM",
        "streetNameDisplayText": "VICTORIA AVE, CHATHAM"
      }
    ]
  },
  {
    "postal": "N7L8L1",
    "result": []
  },
  {
    "postal": "N7L5M4",
    "result": [
      {
        "electoralDistricts": [
          {
            "election": null,
            "id": 18,
            "name": "Chatham-Kent—Leamington"
          }
        ],
        "pollDivisionIds": [
          10137539
        ],
        "postalCode": "N7L5M4",
        "streetName": "HENRY O'",
        "streetDirectionId": null,
        "streetTypeId": "WAY",
        "placeName": "CHATHAM",
        "streetNameDisplayText": "HENRY O' WAY, CHATHAM"
      },
      {
        "electoralDistricts": [
          {
            "election": null,
            "id": 18,
            "name": "Chatham-Kent—Leamington"
          }
        ],
        "pollDivisionIds": [
          10137539
        ],
        "postalCode": "N7L5M4",
        "streetName": "HENRY O'WAY",
        "streetDirectionId": null,
        "streetTypeId": "WAY",
        "placeName": "CHATHAM",
        "streetNameDisplayText": "HENRY O'WAY WAY, CHATHAM"
      },
      {
        "electoralDistricts": [
          {
            "election": null,
            "id": 18,
            "name": "Chatham-Kent—Leamington"
          }
        ],
        "pollDivisionIds": [
          10137539
        ],
        "postalCode": "N7L5M4",
        "streetName": "HENRY O'WAY",
        "streetDirectionId": null,
        "streetTypeId": null,
        "placeName": "CHATHAM",
        "streetNameDisplayText": "HENRY O'WAY, CHATHAM"
      }
    ]
  },
  {
    "postal": "N7L4G9",
    "result": [
      {
        "electoralDistricts": [
          {
            "election": null,
            "id": 18,
            "name": "Chatham-Kent—Leamington"
          }
        ],
        "pollDivisionIds": [
          10137543
        ],
        "postalCode": "N7L4G9",
        "streetName": "VANIER",
        "streetDirectionId": null,
        "streetTypeId": "DR",
        "placeName": "CHATHAM",
        "streetNameDisplayText": "VANIER DR, CHATHAM"
      }
    ]
  },
  {
    "postal": "N7L0P0",
    "result": []
  },
  {
    "postal": "N7L8G2",
    "result": []
  },
  {
    "postal": "N7L1V9",
    "result": [
      {
        "electoralDistricts": [
          {
            "election": null,
            "id": 18,
            "name": "Chatham-Kent—Leamington"
          }
        ],
        "pollDivisionIds": [
          10137541
        ],
        "postalCode": "N7L1V9",
        "streetName": "GRAND",
        "streetDirectionId": "E",
        "streetTypeId": "AVE",
        "placeName": "CHATHAM",
        "streetNameDisplayText": "GRAND AVE E, CHATHAM"
      }
    ]
  },
  {
    "postal": "N7L8N8",
    "result": []
  },
  {
    "postal": "N7L6S8",
    "result": []
  },
  {
    "postal": "N7L8H2",
    "result": []
  },
  {
    "postal": "N7L5R8",
    "result": [
      {
        "electoralDistricts": [
          {
            "election": null,
            "id": 18,
            "name": "Chatham-Kent—Leamington"
          }
        ],
        "pollDivisionIds": [
          10137529
        ],
        "postalCode": "N7L5R8",
        "streetName": "ENCLAVE",
        "streetDirectionId": null,
        "streetTypeId": "PLACE",
        "placeName": "CHATHAM",
        "streetNameDisplayText": "ENCLAVE PLACE, CHATHAM"
      },
      {
        "electoralDistricts": [
          {
            "election": null,
            "id": 18,
            "name": "Chatham-Kent—Leamington"
          }
        ],
        "pollDivisionIds": [
          10137529
        ],
        "postalCode": "N7L5R8",
        "streetName": "MORNING GLORY",
        "streetDirectionId": null,
        "streetTypeId": "LANE",
        "placeName": "CHATHAM",
        "streetNameDisplayText": "MORNING GLORY LANE, CHATHAM"
      }
    ]
  },
  {
    "postal": "N7L5L4",
    "result": [
      {
        "electoralDistricts": [
          {
            "election": null,
            "id": 18,
            "name": "Chatham-Kent—Leamington"
          }
        ],
        "pollDivisionIds": [
          10137543
        ],
        "postalCode": "N7L5L4",
        "streetName": "BLOSSOM",
        "streetDirectionId": null,
        "streetTypeId": "PL",
        "placeName": "CHATHAM",
        "streetNameDisplayText": "BLOSSOM PL, CHATHAM"
      },
      {
        "electoralDistricts": [
          {
            "election": null,
            "id": 18,
            "name": "Chatham-Kent—Leamington"
          }
        ],
        "pollDivisionIds": [
          10137543
        ],
        "postalCode": "N7L5L4",
        "streetName": "VALLEY",
        "streetDirectionId": null,
        "streetTypeId": "RD",
        "placeName": "CHATHAM",
        "streetNameDisplayText": "VALLEY RD, CHATHAM"
      }
    ]
  },
  {
    "postal": "N7L9E1",
    "result": []
  },
  {
    "postal": "N7L1C4",
    "result": [
      {
        "electoralDistricts": [
          {
            "election": null,
            "id": 18,
            "name": "Chatham-Kent—Leamington"
          }
        ],
        "pollDivisionIds": [
          10137530
        ],
        "postalCode": "N7L1C4",
        "streetName": "GRAND",
        "streetDirectionId": "W",
        "streetTypeId": "AVE",
        "placeName": "CHATHAM",
        "streetNameDisplayText": "GRAND AVE W, CHATHAM"
      }
    ]
  },
  {
    "postal": "N7L8W5",
    "result": []
  },
  {
    "postal": "N7L1Y4",
    "result": [
      {
        "electoralDistricts": [
          {
            "election": null,
            "id": 18,
            "name": "Chatham-Kent—Leamington"
          }
        ],
        "pollDivisionIds": [
          10137541
        ],
        "postalCode": "N7L1Y4",
        "streetName": "SELKIRK",
        "streetDirectionId": null,
        "streetTypeId": "ST",
        "placeName": "CHATHAM",
        "streetNameDisplayText": "SELKIRK ST, CHATHAM"
      }
    ]
  },
  {
    "postal": "N7L1C0",
    "result": []
  },
  {
    "postal": "N7L2J2",
    "result": [
      {
        "electoralDistricts": [
          {
            "election": null,
            "id": 18,
            "name": "Chatham-Kent—Leamington"
          }
        ],
        "pollDivisionIds": [
          10137530
        ],
        "postalCode": "N7L2J2",
        "streetName": "PARRY",
        "streetDirectionId": null,
        "streetTypeId": "DR",
        "placeName": "CHATHAM",
        "streetNameDisplayText": "PARRY DR, CHATHAM"
      }
    ]
  },
  {
    "postal": "N7L2J0",
    "result": []
  },
  {
    "postal": "N7L7A3",
    "result": []
  },
  {
    "postal": "N7L8M1",
    "result": []
  },
  {
    "postal": "N7L7T9",
    "result": []
  },
  {
    "postal": "N7L6C0",
    "result": []
  },
  {
    "postal": "N7L7X1",
    "result": []
  },
  {
    "postal": "N7L0G1",
    "result": [
      {
        "electoralDistricts": [
          {
            "election": null,
            "id": 50,
            "name": "Lambton—Kent—Middlesex"
          }
        ],
        "pollDivisionIds": [
          10143353
        ],
        "postalCode": "N7L0G1",
        "streetName": "PRINCE ALBERT",
        "streetDirectionId": null,
        "streetTypeId": "RD",
        "placeName": "CHATHAM",
        "streetNameDisplayText": "PRINCE ALBERT RD, CHATHAM"
      }
    ]
  },
  {
    "postal": "N7L4X2",
    "result": [
      {
        "electoralDistricts": [
          {
            "election": null,
            "id": 18,
            "name": "Chatham-Kent—Leamington"
          }
        ],
        "pollDivisionIds": [
          10137532
        ],
        "postalCode": "N7L4X2",
        "streetName": "CAMPUS",
        "streetDirectionId": null,
        "streetTypeId": "PKY",
        "placeName": "CHATHAM",
        "streetNameDisplayText": "CAMPUS PKY, CHATHAM"
      }
    ]
  },
  {
    "postal": "N7L0N6",
    "result": []
  },
  {
    "postal": "N7L8E3",
    "result": []
  },
  {
    "postal": "N7L5S8",
    "result": []
  },
  {
    "postal": "N7L0R0",
    "result": []
  },
  {
    "postal": "N7L6J6",
    "result": []
  },
  {
    "postal": "N7L4B4",
    "result": [
      {
        "electoralDistricts": [
          {
            "election": null,
            "id": 18,
            "name": "Chatham-Kent—Leamington"
          }
        ],
        "pollDivisionIds": [
          10137542
        ],
        "postalCode": "N7L4B4",
        "streetName": "ABERDEEN",
        "streetDirectionId": null,
        "streetTypeId": "ST",
        "placeName": "CHATHAM",
        "streetNameDisplayText": "ABERDEEN ST, CHATHAM"
      }
    ]
  },
  {
    "postal": "N7L7E3",
    "result": []
  },
  {
    "postal": "N7L3N6",
    "result": [
      {
        "electoralDistricts": [
          {
            "election": null,
            "id": 18,
            "name": "Chatham-Kent—Leamington"
          }
        ],
        "pollDivisionIds": [
          10137540
        ],
        "postalCode": "N7L3N6",
        "streetName": "INGRAM",
        "streetDirectionId": null,
        "streetTypeId": "ST",
        "placeName": "CHATHAM",
        "streetNameDisplayText": "INGRAM ST, CHATHAM"
      }
    ]
  },
  {
    "postal": "N7L3X6",
    "result": [
      {
        "electoralDistricts": [
          {
            "election": null,
            "id": 18,
            "name": "Chatham-Kent—Leamington"
          }
        ],
        "pollDivisionIds": [
          10137539
        ],
        "postalCode": "N7L3X6",
        "streetName": "GLENWOOD",
        "streetDirectionId": null,
        "streetTypeId": "DR",
        "placeName": "CHATHAM",
        "streetNameDisplayText": "GLENWOOD DR, CHATHAM"
      }
    ]
  },
  {
    "postal": "N7L8L0",
    "result": []
  },
  {
    "postal": "N7L8N1",
    "result": []
  },
  {
    "postal": "N7L4J0",
    "result": []
  },
  {
    "postal": "N7L0X7",
    "result": []
  },
  {
    "postal": "N7L6S4",
    "result": []
  },
  {
    "postal": "N7L0Z0",
    "result": []
  },
  {
    "postal": "N7L9X8",
    "result": []
  },
  {
    "postal": "N7L3H3",
    "result": [
      {
        "electoralDistricts": [
          {
            "election": null,
            "id": 18,
            "name": "Chatham-Kent—Leamington"
          }
        ],
        "pollDivisionIds": [
          10137541
        ],
        "postalCode": "N7L3H3",
        "streetName": "JOSEPH",
        "streetDirectionId": null,
        "streetTypeId": "ST",
        "placeName": "CHATHAM",
        "streetNameDisplayText": "JOSEPH ST, CHATHAM"
      }
    ]
  },
  {
    "postal": "N7L7S2",
    "result": []
  },
  {
    "postal": "N7L3T3",
    "result": [
      {
        "electoralDistricts": [
          {
            "election": null,
            "id": 18,
            "name": "Chatham-Kent—Leamington"
          }
        ],
        "pollDivisionIds": [
          10137530
        ],
        "postalCode": "N7L3T3",
        "streetName": "CHURCHILL",
        "streetDirectionId": null,
        "streetTypeId": "ST",
        "placeName": "CHATHAM",
        "streetNameDisplayText": "CHURCHILL ST, CHATHAM"
      },
      {
        "electoralDistricts": [
          {
            "election": null,
            "id": 18,
            "name": "Chatham-Kent—Leamington"
          }
        ],
        "pollDivisionIds": [
          10137546
        ],
        "postalCode": "N7L3T3",
        "streetName": "WELLINGTON",
        "streetDirectionId": "E",
        "streetTypeId": "ST",
        "placeName": "WHEATLEY",
        "streetNameDisplayText": "WELLINGTON ST E, WHEATLEY"
      }
    ]
  },
  {
    "postal": "N7L9P3",
    "result": []
  },
  {
    "postal": "N7L4H8",
    "result": [
      {
        "electoralDistricts": [
          {
            "election": null,
            "id": 18,
            "name": "Chatham-Kent—Leamington"
          }
        ],
        "pollDivisionIds": [
          10137530
        ],
        "postalCode": "N7L4H8",
        "streetName": "KIRKCALDY",
        "streetDirectionId": null,
        "streetTypeId": "PL",
        "placeName": "CHATHAM",
        "streetNameDisplayText": "KIRKCALDY PL, CHATHAM"
      }
    ]
  },
  {
    "postal": "N7L6R1",
    "result": []
  },
  {
    "postal": "N7L1S0",
    "result": []
  },
  {
    "postal": "N7L3W8",
    "result": [
      {
        "electoralDistricts": [
          {
            "election": null,
            "id": 18,
            "name": "Chatham-Kent—Leamington"
          }
        ],
        "pollDivisionIds": [
          10137539
        ],
        "postalCode": "N7L3W8",
        "streetName": "OWEN",
        "streetDirectionId": null,
        "streetTypeId": "AVE",
        "placeName": "CHATHAM",
        "streetNameDisplayText": "OWEN AVE, CHATHAM"
      }
    ]
  },
  {
    "postal": "N7L4S3",
    "result": []
  },
  {
    "postal": "N7L1B6",
    "result": [
      {
        "electoralDistricts": [
          {
            "election": null,
            "id": 18,
            "name": "Chatham-Kent—Leamington"
          }
        ],
        "pollDivisionIds": [
          10137540
        ],
        "postalCode": "N7L1B6",
        "streetName": "GRAND",
        "streetDirectionId": "W",
        "streetTypeId": "AVE",
        "placeName": "CHATHAM",
        "streetNameDisplayText": "GRAND AVE W, CHATHAM"
      }
    ]
  },
  {
    "postal": "N7L8R3",
    "result": []
  },
  {
    "postal": "N7L4V9",
    "result": [
      {
        "electoralDistricts": [
          {
            "election": null,
            "id": 18,
            "name": "Chatham-Kent—Leamington"
          }
        ],
        "pollDivisionIds": [
          10137530
        ],
        "postalCode": "N7L4V9",
        "streetName": "BALDOON",
        "streetDirectionId": null,
        "streetTypeId": "RD",
        "placeName": "CHATHAM",
        "streetNameDisplayText": "BALDOON RD, CHATHAM"
      }
    ]
  },
  {
    "postal": "N7L9W4",
    "result": []
  },
  {
    "postal": "N7L3T4",
    "result": [
      {
        "electoralDistricts": [
          {
            "election": null,
            "id": 18,
            "name": "Chatham-Kent—Leamington"
          }
        ],
        "pollDivisionIds": [
          10137530
        ],
        "postalCode": "N7L3T4",
        "streetName": "CHURCHILL",
        "streetDirectionId": null,
        "streetTypeId": "ST",
        "placeName": "CHATHAM",
        "streetNameDisplayText": "CHURCHILL ST, CHATHAM"
      }
    ]
  },
  {
    "postal": "N7L5C7",
    "result": [
      {
        "electoralDistricts": [
          {
            "election": null,
            "id": 18,
            "name": "Chatham-Kent—Leamington"
          }
        ],
        "pollDivisionIds": [
          10137543
        ],
        "postalCode": "N7L5C7",
        "streetName": "FARMHOUSE",
        "streetDirectionId": null,
        "streetTypeId": "PL",
        "placeName": "CHATHAM",
        "streetNameDisplayText": "FARMHOUSE PL, CHATHAM"
      },
      {
        "electoralDistricts": [
          {
            "election": null,
            "id": 18,
            "name": "Chatham-Kent—Leamington"
          }
        ],
        "pollDivisionIds": [
          10137543
        ],
        "postalCode": "N7L5C7",
        "streetName": "HARVEST",
        "streetDirectionId": null,
        "streetTypeId": "CRES",
        "placeName": "CHATHAM",
        "streetNameDisplayText": "HARVEST CRES, CHATHAM"
      }
    ]
  },
  {
    "postal": "N7L3Y1",
    "result": [
      {
        "electoralDistricts": [
          {
            "election": null,
            "id": 18,
            "name": "Chatham-Kent—Leamington"
          }
        ],
        "pollDivisionIds": [
          10137536
        ],
        "postalCode": "N7L3Y1",
        "streetName": "MELROSE",
        "streetDirectionId": null,
        "streetTypeId": "DR",
        "placeName": "CHATHAM",
        "streetNameDisplayText": "MELROSE DR, CHATHAM"
      }
    ]
  },
  {
    "postal": "N7L5V0",
    "result": []
  },
  {
    "postal": "N7L8G8",
    "result": []
  },
  {
    "postal": "N7L8B1",
    "result": []
  },
  {
    "postal": "N7L4P5",
    "result": [
      {
        "electoralDistricts": [
          {
            "election": null,
            "id": 18,
            "name": "Chatham-Kent—Leamington"
          }
        ],
        "pollDivisionIds": [
          10137543
        ],
        "postalCode": "N7L4P5",
        "streetName": "WEBB",
        "streetDirectionId": null,
        "streetTypeId": "ST",
        "placeName": "CHATHAM",
        "streetNameDisplayText": "WEBB ST, CHATHAM"
      }
    ]
  },
  {
    "postal": "N7L7B2",
    "result": []
  },
  {
    "postal": "N7L0R2",
    "result": []
  },
  {
    "postal": "N7L4M4",
    "result": [
      {
        "electoralDistricts": [
          {
            "election": null,
            "id": 18,
            "name": "Chatham-Kent—Leamington"
          }
        ],
        "pollDivisionIds": [
          10137536,
          10137530
        ],
        "postalCode": "N7L4M4",
        "streetName": "PARRY",
        "streetDirectionId": null,
        "streetTypeId": "DR",
        "placeName": "CHATHAM",
        "streetNameDisplayText": "PARRY DR, CHATHAM"
      }
    ]
  },
  {
    "postal": "N7L7M4",
    "result": []
  },
  {
    "postal": "N7L9S7",
    "result": []
  },
  {
    "postal": "N7L5Z7",
    "result": []
  },
  {
    "postal": "N7L7J7",
    "result": []
  },
  {
    "postal": "N7L8R8",
    "result": []
  },
  {
    "postal": "N7L9X1",
    "result": []
  },
  {
    "postal": "N7L5M9",
    "result": [
      {
        "electoralDistricts": [
          {
            "election": null,
            "id": 18,
            "name": "Chatham-Kent—Leamington"
          }
        ],
        "pollDivisionIds": [
          10137536
        ],
        "postalCode": "N7L5M9",
        "streetName": "ST CLAIR",
        "streetDirectionId": null,
        "streetTypeId": "ST",
        "placeName": "CHATHAM",
        "streetNameDisplayText": "ST CLAIR ST, CHATHAM"
      }
    ]
  },
  {
    "postal": "N7L9B4",
    "result": []
  },
  {
    "postal": "N7L0L9",
    "result": []
  },
  {
    "postal": "N7L9G4",
    "result": []
  },
  {
    "postal": "N7L1J4",
    "result": [
      {
        "electoralDistricts": [
          {
            "election": null,
            "id": 18,
            "name": "Chatham-Kent—Leamington"
          }
        ],
        "pollDivisionIds": [
          10137541
        ],
        "postalCode": "N7L1J4",
        "streetName": "MCKEOUGH",
        "streetDirectionId": null,
        "streetTypeId": "AVE",
        "placeName": "CHATHAM",
        "streetNameDisplayText": "MCKEOUGH AVE, CHATHAM"
      }
    ]
  },
  {
    "postal": "N7L0W6",
    "result": []
  }
]
