[
  {
    "postal": "M1V9J6",
    "result": []
  },
  {
    "postal": "M1V9Z5",
    "result": []
  },
  {
    "postal": "M1V7H8",
    "result": []
  },
  {
    "postal": "M1V0P6",
    "result": []
  },
  {
    "postal": "M1V0S7",
    "result": []
  },
  {
    "postal": "M1V8B9",
    "result": []
  },
  {
    "postal": "M1V2A6",
    "result": [
      {
        "electoralDistricts": [
          {
            "election": null,
            "id": 96,
            "name": "Scarborough North"
          }
        ],
        "pollDivisionIds": [
          10141701
        ],
        "postalCode": "M1V2A6",
        "streetName": "SHADY HOLLOW",
        "streetDirectionId": null,
        "streetTypeId": "DR",
        "placeName": "SCARBOROUGH",
        "streetNameDisplayText": "SHADY HOLLOW DR, SCARBOROUGH"
      }
    ]
  },
  {
    "postal": "M1V7V2",
    "result": []
  },
  {
    "postal": "M1V9P4",
    "result": []
  },
  {
    "postal": "M1V6G0",
    "result": []
  },
  {
    "postal": "M1V2K0",
    "result": []
  },
  {
    "postal": "M1V7N6",
    "result": []
  },
  {
    "postal": "M1V5R3",
    "result": []
  },
  {
    "postal": "M1V7K0",
    "result": []
  },
  {
    "postal": "M1V3R2",
    "result": [
      {
        "electoralDistricts": [
          {
            "election": null,
            "id": 96,
            "name": "Scarborough North"
          }
        ],
        "pollDivisionIds": [
          10141706
        ],
        "postalCode": "M1V3R2",
        "streetName": "LYSANDER",
        "streetDirectionId": null,
        "streetTypeId": "CRT",
        "placeName": "SCARBOROUGH",
        "streetNameDisplayText": "LYSANDER CRT, SCARBOROUGH"
      }
    ]
  },
  {
    "postal": "M1V0J1",
    "result": []
  },
  {
    "postal": "M1V0B0",
    "result": []
  },
  {
    "postal": "M1V5Z2",
    "result": []
  },
  {
    "postal": "M1V7P3",
    "result": []
  },
  {
    "postal": "M1V2K3",
    "result": [
      {
        "electoralDistricts": [
          {
            "election": null,
            "id": 96,
            "name": "Scarborough North"
          }
        ],
        "pollDivisionIds": [
          10141696
        ],
        "postalCode": "M1V2K3",
        "streetName": "PORT ROYAL",
        "streetDirectionId": null,
        "streetTypeId": "TRAIL",
        "placeName": "SCARBOROUGH",
        "streetNameDisplayText": "PORT ROYAL TRAIL, SCARBOROUGH"
      }
    ]
  },
  {
    "postal": "M1V7Y6",
    "result": []
  },
  {
    "postal": "M1V1L9",
    "result": [
      {
        "electoralDistricts": [
          {
            "election": null,
            "id": 96,
            "name": "Scarborough North"
          }
        ],
        "pollDivisionIds": [
          10141703
        ],
        "postalCode": "M1V1L9",
        "streetName": "CLEADON",
        "streetDirectionId": null,
        "streetTypeId": "RD",
        "placeName": "SCARBOROUGH",
        "streetNameDisplayText": "CLEADON RD, SCARBOROUGH"
      }
    ]
  },
  {
    "postal": "M1V8T0",
    "result": []
  },
  {
    "postal": "M1V3K8",
    "result": [
      {
        "electoralDistricts": [
          {
            "election": null,
            "id": 93,
            "name": "Scarborough—Agincourt"
          }
        ],
        "pollDivisionIds": [
          10141518
        ],
        "postalCode": "M1V3K8",
        "streetName": "TREERUN",
        "streetDirectionId": null,
        "streetTypeId": "AVE",
        "placeName": "SCARBOROUGH",
        "streetNameDisplayText": "TREERUN AVE, SCARBOROUGH"
      }
    ]
  },
  {
    "postal": "M1V5W9",
    "result": []
  },
  {
    "postal": "M1V6T9",
    "result": []
  },
  {
    "postal": "M1V4H1",
    "result": [
      {
        "electoralDistricts": [
          {
            "election": null,
            "id": 96,
            "name": "Scarborough North"
          }
        ],
        "pollDivisionIds": [
          10141698
        ],
        "postalCode": "M1V4H1",
        "streetName": "BARROWCLIFF",
        "streetDirectionId": null,
        "streetTypeId": "DR",
        "placeName": "SCARBOROUGH",
        "streetNameDisplayText": "BARROWCLIFF DR, SCARBOROUGH"
      },
      {
        "electoralDistricts": [
          {
            "election": null,
            "id": 96,
            "name": "Scarborough North"
          }
        ],
        "pollDivisionIds": [
          10141698
        ],
        "postalCode": "M1V4H1",
        "streetName": "GOLDHAWK",
        "streetDirectionId": null,
        "streetTypeId": "TRAIL",
        "placeName": "SCARBOROUGH",
        "streetNameDisplayText": "GOLDHAWK TRAIL, SCARBOROUGH"
      }
    ]
  },
  {
    "postal": "M1V7A2",
    "result": []
  },
  {
    "postal": "M1V5G0",
    "result": []
  },
  {
    "postal": "M1V8V5",
    "result": []
  },
  {
    "postal": "M1V2Y8",
    "result": [
      {
        "electoralDistricts": [
          {
            "election": null,
            "id": 93,
            "name": "Scarborough—Agincourt"
          }
        ],
        "pollDivisionIds": [
          10141518
        ],
        "postalCode": "M1V2Y8",
        "streetName": "HOLMBUSH",
        "streetDirectionId": null,
        "streetTypeId": "CRES",
        "placeName": "SCARBOROUGH",
        "streetNameDisplayText": "HOLMBUSH CRES, SCARBOROUGH"
      }
    ]
  },
  {
    "postal": "M1V2B6",
    "result": [
      {
        "electoralDistricts": [
          {
            "election": null,
            "id": 96,
            "name": "Scarborough North"
          }
        ],
        "pollDivisionIds": [
          10141700
        ],
        "postalCode": "M1V2B6",
        "streetName": "WHISTLING HILLS",
        "streetDirectionId": null,
        "streetTypeId": "DR",
        "placeName": "SCARBOROUGH",
        "streetNameDisplayText": "WHISTLING HILLS DR, SCARBOROUGH"
      }
    ]
  },
  {
    "postal": "M1V4W8",
    "result": []
  },
  {
    "postal": "M1V8H7",
    "result": []
  },
  {
    "postal": "M1V5P1",
    "result": []
  },
  {
    "postal": "M1V2B8",
    "result": [
      {
        "electoralDistricts": [
          {
            "election": null,
            "id": 96,
            "name": "Scarborough North"
          }
        ],
        "pollDivisionIds": [
          10141700
        ],
        "postalCode": "M1V2B8",
        "streetName": "PEPPERMILL",
        "streetDirectionId": null,
        "streetTypeId": "PL",
        "placeName": "SCARBOROUGH",
        "streetNameDisplayText": "PEPPERMILL PL, SCARBOROUGH"
      }
    ]
  },
  {
    "postal": "M1V0P2",
    "result": []
  },
  {
    "postal": "M1V9M1",
    "result": []
  },
  {
    "postal": "M1V3G0",
    "result": []
  },
  {
    "postal": "M1V9Z2",
    "result": []
  },
  {
    "postal": "M1V2A0",
    "result": []
  },
  {
    "postal": "M1V6Y0",
    "result": []
  },
  {
    "postal": "M1V2Z8",
    "result": [
      {
        "electoralDistricts": [
          {
            "election": null,
            "id": 93,
            "name": "Scarborough—Agincourt"
          }
        ],
        "pollDivisionIds": [
          10141518
        ],
        "postalCode": "M1V2Z8",
        "streetName": "NEW FOREST",
        "streetDirectionId": null,
        "streetTypeId": "SQ",
        "placeName": "SCARBOROUGH",
        "streetNameDisplayText": "NEW FOREST SQ, SCARBOROUGH"
      }
    ]
  },
  {
    "postal": "M1V7Y3",
    "result": []
  },
  {
    "postal": "M1V6Z5",
    "result": []
  },
  {
    "postal": "M1V6E0",
    "result": []
  },
  {
    "postal": "M1V9B7",
    "result": []
  },
  {
    "postal": "M1V9S5",
    "result": []
  },
  {
    "postal": "M1V3X3",
    "result": []
  },
  {
    "postal": "M1V7R5",
    "result": []
  },
  {
    "postal": "M1V2X3",
    "result": [
      {
        "electoralDistricts": [
          {
            "election": null,
            "id": 96,
            "name": "Scarborough North"
          }
        ],
        "pollDivisionIds": [
          10141701
        ],
        "postalCode": "M1V2X3",
        "streetName": "SHADY HOLLOW",
        "streetDirectionId": null,
        "streetTypeId": "DR",
        "placeName": "SCARBOROUGH",
        "streetNameDisplayText": "SHADY HOLLOW DR, SCARBOROUGH"
      }
    ]
  },
  {
    "postal": "M1V8Z9",
    "result": []
  },
  {
    "postal": "M1V0N4",
    "result": []
  },
  {
    "postal": "M1V1K1",
    "result": [
      {
        "electoralDistricts": [
          {
            "election": null,
            "id": 96,
            "name": "Scarborough North"
          }
        ],
        "pollDivisionIds": [
          10141704
        ],
        "postalCode": "M1V1K1",
        "streetName": "ALEXMUIR",
        "streetDirectionId": null,
        "streetTypeId": "BLVD",
        "placeName": "SCARBOROUGH",
        "streetNameDisplayText": "ALEXMUIR BLVD, SCARBOROUGH"
      }
    ]
  },
  {
    "postal": "M1V1S3",
    "result": [
      {
        "electoralDistricts": [
          {
            "election": null,
            "id": 93,
            "name": "Scarborough—Agincourt"
          }
        ],
        "pollDivisionIds": [
          10141525
        ],
        "postalCode": "M1V1S3",
        "streetName": "KENNEDY",
        "streetDirectionId": null,
        "streetTypeId": "RD",
        "placeName": "SCARBOROUGH",
        "streetNameDisplayText": "KENNEDY RD, SCARBOROUGH"
      }
    ]
  },
  {
    "postal": "M1V6M4",
    "result": []
  },
  {
    "postal": "M1V9A9",
    "result": []
  },
  {
    "postal": "M1V9Z9",
    "result": []
  },
  {
    "postal": "M1V6T4",
    "result": []
  },
  {
    "postal": "M1V0B2",
    "result": []
  },
  {
    "postal": "M1V2L9",
    "result": [
      {
        "electoralDistricts": [
          {
            "election": null,
            "id": 96,
            "name": "Scarborough North"
          }
        ],
        "pollDivisionIds": [
          10141701
        ],
        "postalCode": "M1V2L9",
        "streetName": "SHADY HOLLOW",
        "streetDirectionId": null,
        "streetTypeId": "DR",
        "placeName": "SCARBOROUGH",
        "streetNameDisplayText": "SHADY HOLLOW DR, SCARBOROUGH"
      }
    ]
  },
  {
    "postal": "M1V8K9",
    "result": []
  },
  {
    "postal": "M1V2H9",
    "result": [
      {
        "electoralDistricts": [
          {
            "election": null,
            "id": 96,
            "name": "Scarborough North"
          }
        ],
        "pollDivisionIds": [
          10141696
        ],
        "postalCode": "M1V2H9",
        "streetName": "COPTHORNE",
        "streetDirectionId": null,
        "streetTypeId": "AVE",
        "placeName": "SCARBOROUGH",
        "streetNameDisplayText": "COPTHORNE AVE, SCARBOROUGH"
      }
    ]
  },
  {
    "postal": "M1V3Z6",
    "result": [
      {
        "electoralDistricts": [
          {
            "election": null,
            "id": 96,
            "name": "Scarborough North"
          }
        ],
        "pollDivisionIds": [
          10141701
        ],
        "postalCode": "M1V3Z6",
        "streetName": "MCNICOLL",
        "streetDirectionId": null,
        "streetTypeId": "AVE",
        "placeName": "SCARBOROUGH",
        "streetNameDisplayText": "MCNICOLL AVE, SCARBOROUGH"
      }
    ]
  },
  {
    "postal": "M1V3B0",
    "result": []
  },
  {
    "postal": "M1V2H8",
    "result": [
      {
        "electoralDistricts": [
          {
            "election": null,
            "id": 96,
            "name": "Scarborough North"
          }
        ],
        "pollDivisionIds": [
          10141695
        ],
        "postalCode": "M1V2H8",
        "streetName": "TRURO",
        "streetDirectionId": null,
        "streetTypeId": "CRES",
        "placeName": "SCARBOROUGH",
        "streetNameDisplayText": "TRURO CRES, SCARBOROUGH"
      }
    ]
  },
  {
    "postal": "M1V3X2",
    "result": []
  },
  {
    "postal": "M1V2E9",
    "result": [
      {
        "electoralDistricts": [
          {
            "election": null,
            "id": 96,
            "name": "Scarborough North"
          }
        ],
        "pollDivisionIds": [
          10141697
        ],
        "postalCode": "M1V2E9",
        "streetName": "CAMPANIA",
        "streetDirectionId": null,
        "streetTypeId": "CRES",
        "placeName": "SCARBOROUGH",
        "streetNameDisplayText": "CAMPANIA CRES, SCARBOROUGH"
      }
    ]
  },
  {
    "postal": "M1V9P6",
    "result": []
  },
  {
    "postal": "M1V9E2",
    "result": []
  },
  {
    "postal": "M1V9H2",
    "result": []
  },
  {
    "postal": "M1V1S8",
    "result": [
      {
        "electoralDistricts": [
          {
            "election": null,
            "id": 93,
            "name": "Scarborough—Agincourt"
          }
        ],
        "pollDivisionIds": [
          10141525
        ],
        "postalCode": "M1V1S8",
        "streetName": "KENNEDY",
        "streetDirectionId": null,
        "streetTypeId": "RD",
        "placeName": "SCARBOROUGH",
        "streetNameDisplayText": "KENNEDY RD, SCARBOROUGH"
      }
    ]
  },
  {
    "postal": "M1V3M6",
    "result": [
      {
        "electoralDistricts": [
          {
            "election": null,
            "id": 93,
            "name": "Scarborough—Agincourt"
          }
        ],
        "pollDivisionIds": [
          10141518
        ],
        "postalCode": "M1V3M6",
        "streetName": "SUNBIRD",
        "streetDirectionId": null,
        "streetTypeId": "CRES",
        "placeName": "SCARBOROUGH",
        "streetNameDisplayText": "SUNBIRD CRES, SCARBOROUGH"
      }
    ]
  },
  {
    "postal": "M1V6Z8",
    "result": []
  },
  {
    "postal": "M1V4J2",
    "result": [
      {
        "electoralDistricts": [
          {
            "election": null,
            "id": 96,
            "name": "Scarborough North"
          }
        ],
        "pollDivisionIds": [
          10141698
        ],
        "postalCode": "M1V4J2",
        "streetName": "ROXANNE",
        "streetDirectionId": null,
        "streetTypeId": "CRES",
        "placeName": "SCARBOROUGH",
        "streetNameDisplayText": "ROXANNE CRES, SCARBOROUGH"
      }
    ]
  },
  {
    "postal": "M1V9Y1",
    "result": []
  },
  {
    "postal": "M1V8V6",
    "result": []
  },
  {
    "postal": "M1V6B2",
    "result": []
  },
  {
    "postal": "M1V1P8",
    "result": [
      {
        "electoralDistricts": [
          {
            "election": null,
            "id": 96,
            "name": "Scarborough North"
          }
        ],
        "pollDivisionIds": [
          10141706
        ],
        "postalCode": "M1V1P8",
        "streetName": "WHITE HEATHER",
        "streetDirectionId": null,
        "streetTypeId": "BLVD",
        "placeName": "SCARBOROUGH",
        "streetNameDisplayText": "WHITE HEATHER BLVD, SCARBOROUGH"
      }
    ]
  },
  {
    "postal": "M1V0V8",
    "result": []
  },
  {
    "postal": "M1V4Y0",
    "result": []
  },
  {
    "postal": "M1V2T4",
    "result": [
      {
        "electoralDistricts": [
          {
            "election": null,
            "id": 96,
            "name": "Scarborough North"
          }
        ],
        "pollDivisionIds": [
          10141697
        ],
        "postalCode": "M1V2T4",
        "streetName": "PORT ROYAL",
        "streetDirectionId": null,
        "streetTypeId": "TRAIL",
        "placeName": "SCARBOROUGH",
        "streetNameDisplayText": "PORT ROYAL TRAIL, SCARBOROUGH"
      }
    ]
  },
  {
    "postal": "M1V2S3",
    "result": [
      {
        "electoralDistricts": [
          {
            "election": null,
            "id": 93,
            "name": "Scarborough—Agincourt"
          }
        ],
        "pollDivisionIds": [
          10141518
        ],
        "postalCode": "M1V2S3",
        "streetName": "CHAPEL PARK",
        "streetDirectionId": null,
        "streetTypeId": "SQ",
        "placeName": "SCARBOROUGH",
        "streetNameDisplayText": "CHAPEL PARK SQ, SCARBOROUGH"
      }
    ]
  },
  {
    "postal": "M1V0K0",
    "result": []
  },
  {
    "postal": "M1V5N1",
    "result": [
      {
        "electoralDistricts": [
          {
            "election": null,
            "id": 93,
            "name": "Scarborough—Agincourt"
          }
        ],
        "pollDivisionIds": [
          10141519
        ],
        "postalCode": "M1V5N1",
        "streetName": "SILVER STAR",
        "streetDirectionId": null,
        "streetTypeId": "BLVD",
        "placeName": "SCARBOROUGH",
        "streetNameDisplayText": "SILVER STAR BLVD, SCARBOROUGH"
      }
    ]
  },
  {
    "postal": "M1V7T0",
    "result": []
  },
  {
    "postal": "M1V9N2",
    "result": []
  },
  {
    "postal": "M1V5L1",
    "result": []
  },
  {
    "postal": "M1V7G5",
    "result": []
  },
  {
    "postal": "M1V6K2",
    "result": []
  },
  {
    "postal": "M1V6P9",
    "result": []
  },
  {
    "postal": "M1V0E6",
    "result": [
      {
        "electoralDistricts": [
          {
            "election": null,
            "id": 96,
            "name": "Scarborough North"
          }
        ],
        "pollDivisionIds": [
          10143245
        ],
        "postalCode": "M1V0E6",
        "streetName": "ALVIN CURLING",
        "streetDirectionId": null,
        "streetTypeId": "CRES",
        "placeName": "SCARBOROUGH",
        "streetNameDisplayText": "ALVIN CURLING CRES, SCARBOROUGH"
      },
      {
        "electoralDistricts": [
          {
            "election": null,
            "id": 96,
            "name": "Scarborough North"
          }
        ],
        "pollDivisionIds": [
          10143245
        ],
        "postalCode": "M1V0E6",
        "streetName": "PORCELAIN",
        "streetDirectionId": null,
        "streetTypeId": "TERR",
        "placeName": "SCARBOROUGH",
        "streetNameDisplayText": "PORCELAIN TERR, SCARBOROUGH"
      },
      {
        "electoralDistricts": [
          {
            "election": null,
            "id": 96,
            "name": "Scarborough North"
          }
        ],
        "pollDivisionIds": [
          10143245
        ],
        "postalCode": "M1V0E6",
        "streetName": "SERENITY",
        "streetDirectionId": null,
        "streetTypeId": "CRT",
        "placeName": "SCARBOROUGH",
        "streetNameDisplayText": "SERENITY CRT, SCARBOROUGH"
      }
    ]
  },
  {
    "postal": "M1V8R9",
    "result": []
  },
  {
    "postal": "M1V3G9",
    "result": [
      {
        "electoralDistricts": [
          {
            "election": null,
            "id": 93,
            "name": "Scarborough—Agincourt"
          }
        ],
        "pollDivisionIds": [
          10141518
        ],
        "postalCode": "M1V3G9",
        "streetName": "CANONGATE",
        "streetDirectionId": null,
        "streetTypeId": "TRAIL",
        "placeName": "SCARBOROUGH",
        "streetNameDisplayText": "CANONGATE TRAIL, SCARBOROUGH"
      }
    ]
  },
  {
    "postal": "M1V0V7",
    "result": []
  },
  {
    "postal": "M1V2Z1",
    "result": [
      {
        "electoralDistricts": [
          {
            "election": null,
            "id": 96,
            "name": "Scarborough North"
          }
        ],
        "pollDivisionIds": [
          10141706
        ],
        "postalCode": "M1V2Z1",
        "streetName": "MIDDLEFIELD",
        "streetDirectionId": null,
        "streetTypeId": "RD",
        "placeName": "SCARBOROUGH",
        "streetNameDisplayText": "MIDDLEFIELD RD, SCARBOROUGH"
      }
    ]
  },
  {
    "postal": "M1V7N1",
    "result": []
  },
  {
    "postal": "M1V3C6",
    "result": [
      {
        "electoralDistricts": [
          {
            "election": null,
            "id": 96,
            "name": "Scarborough North"
          }
        ],
        "pollDivisionIds": [
          10141700
        ],
        "postalCode": "M1V3C6",
        "streetName": "HILLFARM",
        "streetDirectionId": null,
        "streetTypeId": "DR",
        "placeName": "SCARBOROUGH",
        "streetNameDisplayText": "HILLFARM DR, SCARBOROUGH"
      }
    ]
  },
  {
    "postal": "M1V4M1",
    "result": [
      {
        "electoralDistricts": [
          {
            "election": null,
            "id": 96,
            "name": "Scarborough North"
          }
        ],
        "pollDivisionIds": [
          10143245
        ],
        "postalCode": "M1V4M1",
        "streetName": "ALANBULL",
        "streetDirectionId": null,
        "streetTypeId": "SQ",
        "placeName": "SCARBOROUGH",
        "streetNameDisplayText": "ALANBULL SQ, SCARBOROUGH"
      }
    ]
  },
  {
    "postal": "M1V9K2",
    "result": []
  },
  {
    "postal": "M1V9S6",
    "result": []
  },
  {
    "postal": "M1V4X1",
    "result": [
      {
        "electoralDistricts": [
          {
            "election": null,
            "id": 96,
            "name": "Scarborough North"
          }
        ],
        "pollDivisionIds": [
          10141700
        ],
        "postalCode": "M1V4X1",
        "streetName": "MIDDLEFIELD",
        "streetDirectionId": null,
        "streetTypeId": "RD",
        "placeName": "SCARBOROUGH",
        "streetNameDisplayText": "MIDDLEFIELD RD, SCARBOROUGH"
      }
    ]
  },
  {
    "postal": "M1V8W2",
    "result": []
  },
  {
    "postal": "M1V7N2",
    "result": []
  },
  {
    "postal": "M1V8S3",
    "result": []
  },
  {
    "postal": "M1V4V0",
    "result": []
  },
  {
    "postal": "M1V6W4",
    "result": []
  },
  {
    "postal": "M1V5M1",
    "result": [
      {
        "electoralDistricts": [
          {
            "election": null,
            "id": 96,
            "name": "Scarborough North"
          }
        ],
        "pollDivisionIds": [
          10141695
        ],
        "postalCode": "M1V5M1",
        "streetName": "SCOVILLE",
        "streetDirectionId": null,
        "streetTypeId": "SQ",
        "placeName": "SCARBOROUGH",
        "streetNameDisplayText": "SCOVILLE SQ, SCARBOROUGH"
      }
    ]
  },
  {
    "postal": "M1V0S4",
    "result": []
  },
  {
    "postal": "M1V5X6",
    "result": []
  },
  {
    "postal": "M1V8L5",
    "result": []
  },
  {
    "postal": "M1V5M8",
    "result": []
  },
  {
    "postal": "M1V2G3",
    "result": [
      {
        "electoralDistricts": [
          {
            "election": null,
            "id": 96,
            "name": "Scarborough North"
          }
        ],
        "pollDivisionIds": [
          10141696
        ],
        "postalCode": "M1V2G3",
        "streetName": "PORT ROYAL",
        "streetDirectionId": null,
        "streetTypeId": "TRAIL",
        "placeName": "SCARBOROUGH",
        "streetNameDisplayText": "PORT ROYAL TRAIL, SCARBOROUGH"
      }
    ]
  },
  {
    "postal": "M1V8E4",
    "result": []
  },
  {
    "postal": "M1V7S9",
    "result": []
  },
  {
    "postal": "M1V1K3",
    "result": [
      {
        "electoralDistricts": [
          {
            "election": null,
            "id": 93,
            "name": "Scarborough—Agincourt"
          }
        ],
        "pollDivisionIds": [
          10141525
        ],
        "postalCode": "M1V1K3",
        "streetName": "WAYSIDE",
        "streetDirectionId": null,
        "streetTypeId": "AVE",
        "placeName": "SCARBOROUGH",
        "streetNameDisplayText": "WAYSIDE AVE, SCARBOROUGH"
      }
    ]
  },
  {
    "postal": "M1V4E1",
    "result": []
  },
  {
    "postal": "M1V4R2",
    "result": [
      {
        "electoralDistricts": [
          {
            "election": null,
            "id": 96,
            "name": "Scarborough North"
          }
        ],
        "pollDivisionIds": [
          10141695
        ],
        "postalCode": "M1V4R2",
        "streetName": "PORT ROYAL",
        "streetDirectionId": null,
        "streetTypeId": "TRAIL",
        "placeName": "SCARBOROUGH",
        "streetNameDisplayText": "PORT ROYAL TRAIL, SCARBOROUGH"
      },
      {
        "electoralDistricts": [
          {
            "election": null,
            "id": 96,
            "name": "Scarborough North"
          }
        ],
        "pollDivisionIds": [
          10141695
        ],
        "postalCode": "M1V4R2",
        "streetName": "SCOVILLE",
        "streetDirectionId": null,
        "streetTypeId": "SQ",
        "placeName": "SCARBOROUGH",
        "streetNameDisplayText": "SCOVILLE SQ, SCARBOROUGH"
      }
    ]
  },
  {
    "postal": "M1V6T0",
    "result": []
  },
  {
    "postal": "M1V3K5",
    "result": []
  },
  {
    "postal": "M1V3S3",
    "result": [
      {
        "electoralDistricts": [
          {
            "election": null,
            "id": 96,
            "name": "Scarborough North"
          }
        ],
        "pollDivisionIds": [
          10143245
        ],
        "postalCode": "M1V3S3",
        "streetName": "HUTCHCROFT",
        "streetDirectionId": null,
        "streetTypeId": "AVE",
        "placeName": "SCARBOROUGH",
        "streetNameDisplayText": "HUTCHCROFT AVE, SCARBOROUGH"
      }
    ]
  },
  {
    "postal": "M1V3L4",
    "result": [
      {
        "electoralDistricts": [
          {
            "election": null,
            "id": 93,
            "name": "Scarborough—Agincourt"
          }
        ],
        "pollDivisionIds": [
          10141525
        ],
        "postalCode": "M1V3L4",
        "streetName": "SILVER STAR",
        "streetDirectionId": null,
        "streetTypeId": "BLVD",
        "placeName": "SCARBOROUGH",
        "streetNameDisplayText": "SILVER STAR BLVD, SCARBOROUGH"
      }
    ]
  },
  {
    "postal": "M1V9Y2",
    "result": []
  },
  {
    "postal": "M1V1E0",
    "result": []
  },
  {
    "postal": "M1V9A4",
    "result": []
  },
  {
    "postal": "M1V1L3",
    "result": [
      {
        "electoralDistricts": [
          {
            "election": null,
            "id": 96,
            "name": "Scarborough North"
          }
        ],
        "pollDivisionIds": [
          10141703
        ],
        "postalCode": "M1V1L3",
        "streetName": "VALDOR",
        "streetDirectionId": null,
        "streetTypeId": "DR",
        "placeName": "SCARBOROUGH",
        "streetNameDisplayText": "VALDOR DR, SCARBOROUGH"
      }
    ]
  },
  {
    "postal": "M1V6N1",
    "result": []
  },
  {
    "postal": "M1V6G7",
    "result": []
  },
  {
    "postal": "M1V7W1",
    "result": []
  },
  {
    "postal": "M1V4M6",
    "result": [
      {
        "electoralDistricts": [
          {
            "election": null,
            "id": 96,
            "name": "Scarborough North"
          }
        ],
        "pollDivisionIds": [
          10143245
        ],
        "postalCode": "M1V4M6",
        "streetName": "WHARTON",
        "streetDirectionId": null,
        "streetTypeId": "SQ",
        "placeName": "SCARBOROUGH",
        "streetNameDisplayText": "WHARTON SQ, SCARBOROUGH"
      }
    ]
  },
  {
    "postal": "M1V1K0",
    "result": []
  },
  {
    "postal": "M1V3E2",
    "result": [
      {
        "electoralDistricts": [
          {
            "election": null,
            "id": 96,
            "name": "Scarborough North"
          }
        ],
        "pollDivisionIds": [
          10141701
        ],
        "postalCode": "M1V3E2",
        "streetName": "BOXDENE",
        "streetDirectionId": null,
        "streetTypeId": "AVE",
        "placeName": "SCARBOROUGH",
        "streetNameDisplayText": "BOXDENE AVE, SCARBOROUGH"
      }
    ]
  },
  {
    "postal": "M1V5H4",
    "result": [
      {
        "electoralDistricts": [
          {
            "election": null,
            "id": 93,
            "name": "Scarborough—Agincourt"
          }
        ],
        "pollDivisionIds": [
          10141525
        ],
        "postalCode": "M1V5H4",
        "streetName": "SILVER STAR",
        "streetDirectionId": null,
        "streetTypeId": "BLVD",
        "placeName": "SCARBOROUGH",
        "streetNameDisplayText": "SILVER STAR BLVD, SCARBOROUGH"
      },
      {
        "electoralDistricts": [
          {
            "election": null,
            "id": 93,
            "name": "Scarborough—Agincourt"
          }
        ],
        "pollDivisionIds": [
          10141525
        ],
        "postalCode": "M1V5H4",
        "streetName": "SILVERSTAR",
        "streetDirectionId": null,
        "streetTypeId": "BLVD",
        "placeName": "SCARBOROUGH",
        "streetNameDisplayText": "SILVERSTAR BLVD, SCARBOROUGH"
      }
    ]
  },
  {
    "postal": "M1V1K7",
    "result": [
      {
        "electoralDistricts": [
          {
            "election": null,
            "id": 96,
            "name": "Scarborough North"
          }
        ],
        "pollDivisionIds": [
          10141704
        ],
        "postalCode": "M1V1K7",
        "streetName": "BLUE EAGLE",
        "streetDirectionId": null,
        "streetTypeId": "TRAIL",
        "placeName": "SCARBOROUGH",
        "streetNameDisplayText": "BLUE EAGLE TRAIL, SCARBOROUGH"
      }
    ]
  },
  {
    "postal": "M1V0H0",
    "result": []
  },
  {
    "postal": "M1V0J3",
    "result": []
  },
  {
    "postal": "M1V1X6",
    "result": [
      {
        "electoralDistricts": [
          {
            "election": null,
            "id": 96,
            "name": "Scarborough North"
          }
        ],
        "pollDivisionIds": [
          10141698
        ],
        "postalCode": "M1V1X6",
        "streetName": "GOLDHAWK",
        "streetDirectionId": null,
        "streetTypeId": "TRAIL",
        "placeName": "SCARBOROUGH",
        "streetNameDisplayText": "GOLDHAWK TRAIL, SCARBOROUGH"
      }
    ]
  },
  {
    "postal": "M1V2Z6",
    "result": [
      {
        "electoralDistricts": [
          {
            "election": null,
            "id": 93,
            "name": "Scarborough—Agincourt"
          }
        ],
        "pollDivisionIds": [
          10141518
        ],
        "postalCode": "M1V2Z6",
        "streetName": "NEW FOREST",
        "streetDirectionId": null,
        "streetTypeId": "SQ",
        "placeName": "SCARBOROUGH",
        "streetNameDisplayText": "NEW FOREST SQ, SCARBOROUGH"
      }
    ]
  },
  {
    "postal": "M1V4R9",
    "result": [
      {
        "electoralDistricts": [
          {
            "election": null,
            "id": 96,
            "name": "Scarborough North"
          }
        ],
        "pollDivisionIds": [
          10141695
        ],
        "postalCode": "M1V4R9",
        "streetName": "HIGHBRIDGE",
        "streetDirectionId": null,
        "streetTypeId": "PL",
        "placeName": "SCARBOROUGH",
        "streetNameDisplayText": "HIGHBRIDGE PL, SCARBOROUGH"
      }
    ]
  },
  {
    "postal": "M1V0W8",
    "result": []
  },
  {
    "postal": "M1V1L4",
    "result": [
      {
        "electoralDistricts": [
          {
            "election": null,
            "id": 96,
            "name": "Scarborough North"
          }
        ],
        "pollDivisionIds": [
          10141703
        ],
        "postalCode": "M1V1L4",
        "streetName": "EVANSVILLE",
        "streetDirectionId": null,
        "streetTypeId": "RD",
        "placeName": "SCARBOROUGH",
        "streetNameDisplayText": "EVANSVILLE RD, SCARBOROUGH"
      }
    ]
  },
  {
    "postal": "M1V0C8",
    "result": [
      {
        "electoralDistricts": [
          {
            "election": null,
            "id": 93,
            "name": "Scarborough—Agincourt"
          }
        ],
        "pollDivisionIds": [
          10141525
        ],
        "postalCode": "M1V0C8",
        "streetName": "MIDLAND",
        "streetDirectionId": null,
        "streetTypeId": "AVE",
        "placeName": "SCARBOROUGH",
        "streetNameDisplayText": "MIDLAND AVE, SCARBOROUGH"
      }
    ]
  },
  {
    "postal": "M1V9X7",
    "result": []
  },
  {
    "postal": "M1V4T1",
    "result": [
      {
        "electoralDistricts": [
          {
            "election": null,
            "id": 93,
            "name": "Scarborough—Agincourt"
          }
        ],
        "pollDivisionIds": [
          10141519
        ],
        "postalCode": "M1V4T1",
        "streetName": "PASSMORE",
        "streetDirectionId": null,
        "streetTypeId": "AVE",
        "placeName": "SCARBOROUGH",
        "streetNameDisplayText": "PASSMORE AVE, SCARBOROUGH"
      }
    ]
  },
  {
    "postal": "M1V0M0",
    "result": []
  },
  {
    "postal": "M1V6A2",
    "result": []
  },
  {
    "postal": "M1V9S8",
    "result": []
  },
  {
    "postal": "M1V9T4",
    "result": []
  },
  {
    "postal": "M1V9Y4",
    "result": []
  },
  {
    "postal": "M1V6G5",
    "result": []
  },
  {
    "postal": "M1V6H9",
    "result": []
  },
  {
    "postal": "M1V2P3",
    "result": [
      {
        "electoralDistricts": [
          {
            "election": null,
            "id": 96,
            "name": "Scarborough North"
          }
        ],
        "pollDivisionIds": [
          10141706
        ],
        "postalCode": "M1V2P3",
        "streetName": "SILBURY",
        "streetDirectionId": null,
        "streetTypeId": "DR",
        "placeName": "SCARBOROUGH",
        "streetNameDisplayText": "SILBURY DR, SCARBOROUGH"
      }
    ]
  },
  {
    "postal": "M1V1T6",
    "result": [
      {
        "electoralDistricts": [
          {
            "election": null,
            "id": 96,
            "name": "Scarborough North"
          }
        ],
        "pollDivisionIds": [
          10141703
        ],
        "postalCode": "M1V1T6",
        "streetName": "SOUTH SHIELDS",
        "streetDirectionId": null,
        "streetTypeId": "AVE",
        "placeName": "SCARBOROUGH",
        "streetNameDisplayText": "SOUTH SHIELDS AVE, SCARBOROUGH"
      }
    ]
  },
  {
    "postal": "M1V4P6",
    "result": [
      {
        "electoralDistricts": [
          {
            "election": null,
            "id": 96,
            "name": "Scarborough North"
          }
        ],
        "pollDivisionIds": [
          10141695
        ],
        "postalCode": "M1V4P6",
        "streetName": "HAMBLETON",
        "streetDirectionId": null,
        "streetTypeId": "CRT",
        "placeName": "SCARBOROUGH",
        "streetNameDisplayText": "HAMBLETON CRT, SCARBOROUGH"
      }
    ]
  },
  {
    "postal": "M1V3K1",
    "result": [
      {
        "electoralDistricts": [
          {
            "election": null,
            "id": 96,
            "name": "Scarborough North"
          }
        ],
        "pollDivisionIds": [
          10141700
        ],
        "postalCode": "M1V3K1",
        "streetName": "SAINTSBURY",
        "streetDirectionId": null,
        "streetTypeId": "SQ",
        "placeName": "SCARBOROUGH",
        "streetNameDisplayText": "SAINTSBURY SQ, SCARBOROUGH"
      }
    ]
  },
  {
    "postal": "M1V6X4",
    "result": []
  },
  {
    "postal": "M1V4M8",
    "result": [
      {
        "electoralDistricts": [
          {
            "election": null,
            "id": 96,
            "name": "Scarborough North"
          }
        ],
        "pollDivisionIds": [
          10143245
        ],
        "postalCode": "M1V4M8",
        "streetName": "WHARTON",
        "streetDirectionId": null,
        "streetTypeId": "SQ",
        "placeName": "SCARBOROUGH",
        "streetNameDisplayText": "WHARTON SQ, SCARBOROUGH"
      }
    ]
  },
  {
    "postal": "M1V2Y1",
    "result": [
      {
        "electoralDistricts": [
          {
            "election": null,
            "id": 96,
            "name": "Scarborough North"
          }
        ],
        "pollDivisionIds": [
          10141701
        ],
        "postalCode": "M1V2Y1",
        "streetName": "PONYMILL",
        "streetDirectionId": null,
        "streetTypeId": "DR",
        "placeName": "SCARBOROUGH",
        "streetNameDisplayText": "PONYMILL DR, SCARBOROUGH"
      }
    ]
  },
  {
    "postal": "M1V6M1",
    "result": []
  },
  {
    "postal": "M1V5L8",
    "result": [
      {
        "electoralDistricts": [
          {
            "election": null,
            "id": 96,
            "name": "Scarborough North"
          }
        ],
        "pollDivisionIds": [
          10141701
        ],
        "postalCode": "M1V5L8",
        "streetName": "DYNAMIC",
        "streetDirectionId": null,
        "streetTypeId": "DR",
        "placeName": "SCARBOROUGH",
        "streetNameDisplayText": "DYNAMIC DR, SCARBOROUGH"
      }
    ]
  },
  {
    "postal": "M1V3P6",
    "result": [
      {
        "electoralDistricts": [
          {
            "election": null,
            "id": 96,
            "name": "Scarborough North"
          }
        ],
        "pollDivisionIds": [
          10141698
        ],
        "postalCode": "M1V3P6",
        "streetName": "WILDERNESS",
        "streetDirectionId": null,
        "streetTypeId": "DR",
        "placeName": "SCARBOROUGH",
        "streetNameDisplayText": "WILDERNESS DR, SCARBOROUGH"
      }
    ]
  },
  {
    "postal": "M1V9A5",
    "result": []
  },
  {
    "postal": "M1V7K1",
    "result": []
  },
  {
    "postal": "M1V3J4",
    "result": [
      {
        "electoralDistricts": [
          {
            "election": null,
            "id": 93,
            "name": "Scarborough—Agincourt"
          }
        ],
        "pollDivisionIds": [
          10141518
        ],
        "postalCode": "M1V3J4",
        "streetName": "SANWOOD",
        "streetDirectionId": null,
        "streetTypeId": "BLVD",
        "placeName": "SCARBOROUGH",
        "streetNameDisplayText": "SANWOOD BLVD, SCARBOROUGH"
      }
    ]
  },
  {
    "postal": "M1V5E7",
    "result": []
  },
  {
    "postal": "M1V3A7",
    "result": [
      {
        "electoralDistricts": [
          {
            "election": null,
            "id": 93,
            "name": "Scarborough—Agincourt"
          }
        ],
        "pollDivisionIds": [
          10141525
        ],
        "postalCode": "M1V3A7",
        "streetName": "PERTHSHIRE",
        "streetDirectionId": null,
        "streetTypeId": "ST",
        "placeName": "SCARBOROUGH",
        "streetNameDisplayText": "PERTHSHIRE ST, SCARBOROUGH"
      }
    ]
  },
  {
    "postal": "M1V1B9",
    "result": [
      {
        "electoralDistricts": [
          {
            "election": null,
            "id": 96,
            "name": "Scarborough North"
          }
        ],
        "pollDivisionIds": [
          10143246
        ],
        "postalCode": "M1V1B9",
        "streetName": "BRIMWOOD",
        "streetDirectionId": null,
        "streetTypeId": "BLVD",
        "placeName": "SCARBOROUGH",
        "streetNameDisplayText": "BRIMWOOD BLVD, SCARBOROUGH"
      }
    ]
  },
  {
    "postal": "M1V9E8",
    "result": []
  },
  {
    "postal": "M1V1C9",
    "result": [
      {
        "electoralDistricts": [
          {
            "election": null,
            "id": 96,
            "name": "Scarborough North"
          }
        ],
        "pollDivisionIds": [
          10143246
        ],
        "postalCode": "M1V1C9",
        "streetName": "AMANDA",
        "streetDirectionId": null,
        "streetTypeId": "DR",
        "placeName": "SCARBOROUGH",
        "streetNameDisplayText": "AMANDA DR, SCARBOROUGH"
      }
    ]
  },
  {
    "postal": "M1V3B5",
    "result": [
      {
        "electoralDistricts": [
          {
            "election": null,
            "id": 96,
            "name": "Scarborough North"
          }
        ],
        "pollDivisionIds": [
          10141706
        ],
        "postalCode": "M1V3B5",
        "streetName": "RICHMOND PARK",
        "streetDirectionId": null,
        "streetTypeId": "BLVD",
        "placeName": "SCARBOROUGH",
        "streetNameDisplayText": "RICHMOND PARK BLVD, SCARBOROUGH"
      }
    ]
  },
  {
    "postal": "M1V8R0",
    "result": []
  },
  {
    "postal": "M1V3P2",
    "result": [
      {
        "electoralDistricts": [
          {
            "election": null,
            "id": 96,
            "name": "Scarborough North"
          }
        ],
        "pollDivisionIds": [
          10141698
        ],
        "postalCode": "M1V3P2",
        "streetName": "ENCHANTED HILLS",
        "streetDirectionId": null,
        "streetTypeId": "CRES",
        "placeName": "SCARBOROUGH",
        "streetNameDisplayText": "ENCHANTED HILLS CRES, SCARBOROUGH"
      }
    ]
  },
  {
    "postal": "M1V5V4",
    "result": []
  },
  {
    "postal": "M1V4H0",
    "result": []
  },
  {
    "postal": "M1V4S7",
    "result": [
      {
        "electoralDistricts": [
          {
            "election": null,
            "id": 93,
            "name": "Scarborough—Agincourt"
          }
        ],
        "pollDivisionIds": [
          10141519
        ],
        "postalCode": "M1V4S7",
        "streetName": "MIDLAND",
        "streetDirectionId": null,
        "streetTypeId": "AVE",
        "placeName": "SCARBOROUGH",
        "streetNameDisplayText": "MIDLAND AVE, SCARBOROUGH"
      }
    ]
  },
  {
    "postal": "M1V6C2",
    "result": []
  },
  {
    "postal": "M1V8W3",
    "result": []
  },
  {
    "postal": "M1V4M5",
    "result": [
      {
        "electoralDistricts": [
          {
            "election": null,
            "id": 96,
            "name": "Scarborough North"
          }
        ],
        "pollDivisionIds": [
          10143245
        ],
        "postalCode": "M1V4M5",
        "streetName": "ALANBULL",
        "streetDirectionId": null,
        "streetTypeId": "SQ",
        "placeName": "SCARBOROUGH",
        "streetNameDisplayText": "ALANBULL SQ, SCARBOROUGH"
      }
    ]
  },
  {
    "postal": "M1V5T1",
    "result": []
  },
  {
    "postal": "M1V3B3",
    "result": [
      {
        "electoralDistricts": [
          {
            "election": null,
            "id": 96,
            "name": "Scarborough North"
          }
        ],
        "pollDivisionIds": [
          10141706
        ],
        "postalCode": "M1V3B3",
        "streetName": "REDHEAD",
        "streetDirectionId": null,
        "streetTypeId": "CRES",
        "placeName": "SCARBOROUGH",
        "streetNameDisplayText": "REDHEAD CRES, SCARBOROUGH"
      }
    ]
  },
  {
    "postal": "M1V6C6",
    "result": []
  },
  {
    "postal": "M1V7N8",
    "result": []
  },
  {
    "postal": "M1V2Y3",
    "result": [
      {
        "electoralDistricts": [
          {
            "election": null,
            "id": 96,
            "name": "Scarborough North"
          }
        ],
        "pollDivisionIds": [
          10141701
        ],
        "postalCode": "M1V2Y3",
        "streetName": "INGLETON",
        "streetDirectionId": null,
        "streetTypeId": "BLVD",
        "placeName": "SCARBOROUGH",
        "streetNameDisplayText": "INGLETON BLVD, SCARBOROUGH"
      }
    ]
  },
  {
    "postal": "M1V2R6",
    "result": [
      {
        "electoralDistricts": [
          {
            "election": null,
            "id": 93,
            "name": "Scarborough—Agincourt"
          }
        ],
        "pollDivisionIds": [
          10141519
        ],
        "postalCode": "M1V2R6",
        "streetName": "PASSMORE",
        "streetDirectionId": null,
        "streetTypeId": "AVE",
        "placeName": "SCARBOROUGH",
        "streetNameDisplayText": "PASSMORE AVE, SCARBOROUGH"
      }
    ]
  },
  {
    "postal": "M1V7N3",
    "result": []
  },
  {
    "postal": "M1V8J2",
    "result": []
  },
  {
    "postal": "M1V6A9",
    "result": []
  },
  {
    "postal": "M1V3V2",
    "result": []
  },
  {
    "postal": "M1V2N3",
    "result": []
  },
  {
    "postal": "M1V1S5",
    "result": [
      {
        "electoralDistricts": [
          {
            "election": null,
            "id": 96,
            "name": "Scarborough North"
          }
        ],
        "pollDivisionIds": [
          10141703
        ],
        "postalCode": "M1V1S5",
        "streetName": "ALEXMUIR",
        "streetDirectionId": null,
        "streetTypeId": "BLVD",
        "placeName": "SCARBOROUGH",
        "streetNameDisplayText": "ALEXMUIR BLVD, SCARBOROUGH"
      }
    ]
  },
  {
    "postal": "M1V4T7",
    "result": [
      {
        "electoralDistricts": [
          {
            "election": null,
            "id": 93,
            "name": "Scarborough—Agincourt"
          }
        ],
        "pollDivisionIds": [
          10141519
        ],
        "postalCode": "M1V4T7",
        "streetName": "PASSMORE",
        "streetDirectionId": null,
        "streetTypeId": "AVE",
        "placeName": "SCARBOROUGH",
        "streetNameDisplayText": "PASSMORE AVE, SCARBOROUGH"
      }
    ]
  },
  {
    "postal": "M1V6Y7",
    "result": []
  },
  {
    "postal": "M1V0W7",
    "result": []
  },
  {
    "postal": "M1V2W9",
    "result": [
      {
        "electoralDistricts": [
          {
            "election": null,
            "id": 96,
            "name": "Scarborough North"
          }
        ],
        "pollDivisionIds": [
          10141701
        ],
        "postalCode": "M1V2W9",
        "streetName": "MARESFIELD",
        "streetDirectionId": null,
        "streetTypeId": "DR",
        "placeName": "SCARBOROUGH",
        "streetNameDisplayText": "MARESFIELD DR, SCARBOROUGH"
      }
    ]
  },
  {
    "postal": "M1V8V0",
    "result": []
  },
  {
    "postal": "M1V0H4",
    "result": []
  },
  {
    "postal": "M1V2T1",
    "result": [
      {
        "electoralDistricts": [
          {
            "election": null,
            "id": 93,
            "name": "Scarborough—Agincourt"
          }
        ],
        "pollDivisionIds": [
          10141518
        ],
        "postalCode": "M1V2T1",
        "streetName": "KELVIN GROVE",
        "streetDirectionId": null,
        "streetTypeId": "AVE",
        "placeName": "SCARBOROUGH",
        "streetNameDisplayText": "KELVIN GROVE AVE, SCARBOROUGH"
      }
    ]
  },
  {
    "postal": "M1V1B1",
    "result": [
      {
        "electoralDistricts": [
          {
            "election": null,
            "id": 96,
            "name": "Scarborough North"
          }
        ],
        "pollDivisionIds": [
          10143246
        ],
        "postalCode": "M1V1B1",
        "streetName": "BRIDLEY",
        "streetDirectionId": null,
        "streetTypeId": "DR",
        "placeName": "SCARBOROUGH",
        "streetNameDisplayText": "BRIDLEY DR, SCARBOROUGH"
      }
    ]
  },
  {
    "postal": "M1V8B6",
    "result": []
  },
  {
    "postal": "M1V6H1",
    "result": []
  },
  {
    "postal": "M1V8T8",
    "result": []
  },
  {
    "postal": "M1V0T4",
    "result": []
  },
  {
    "postal": "M1V2C4",
    "result": [
      {
        "electoralDistricts": [
          {
            "election": null,
            "id": 96,
            "name": "Scarborough North"
          }
        ],
        "pollDivisionIds": [
          10141696
        ],
        "postalCode": "M1V2C4",
        "streetName": "O'HALLORAN",
        "streetDirectionId": null,
        "streetTypeId": "CRES",
        "placeName": "SCARBOROUGH",
        "streetNameDisplayText": "O'HALLORAN CRES, SCARBOROUGH"
      }
    ]
  },
  {
    "postal": "M1V8N3",
    "result": []
  },
  {
    "postal": "M1V4L8",
    "result": [
      {
        "electoralDistricts": [
          {
            "election": null,
            "id": 96,
            "name": "Scarborough North"
          }
        ],
        "pollDivisionIds": [
          10143245
        ],
        "postalCode": "M1V4L8",
        "streetName": "DANILACK",
        "streetDirectionId": null,
        "streetTypeId": "CRT",
        "placeName": "SCARBOROUGH",
        "streetNameDisplayText": "DANILACK CRT, SCARBOROUGH"
      }
    ]
  },
  {
    "postal": "M1V2B5",
    "result": [
      {
        "electoralDistricts": [
          {
            "election": null,
            "id": 96,
            "name": "Scarborough North"
          }
        ],
        "pollDivisionIds": [
          10141700
        ],
        "postalCode": "M1V2B5",
        "streetName": "WHISTLING HILLS",
        "streetDirectionId": null,
        "streetTypeId": "DR",
        "placeName": "SCARBOROUGH",
        "streetNameDisplayText": "WHISTLING HILLS DR, SCARBOROUGH"
      }
    ]
  },
  {
    "postal": "M1V3H1",
    "result": [
      {
        "electoralDistricts": [
          {
            "election": null,
            "id": 93,
            "name": "Scarborough—Agincourt"
          }
        ],
        "pollDivisionIds": [
          10141518
        ],
        "postalCode": "M1V3H1",
        "streetName": "OCKWELL MANOR",
        "streetDirectionId": null,
        "streetTypeId": "DR",
        "placeName": "SCARBOROUGH",
        "streetNameDisplayText": "OCKWELL MANOR DR, SCARBOROUGH"
      }
    ]
  },
  {
    "postal": "M1V4Y1",
    "result": [
      {
        "electoralDistricts": [
          {
            "election": null,
            "id": 93,
            "name": "Scarborough—Agincourt"
          }
        ],
        "pollDivisionIds": [
          10141525,
          10141519
        ],
        "postalCode": "M1V4Y1",
        "streetName": "KENNEDY",
        "streetDirectionId": null,
        "streetTypeId": "RD",
        "placeName": "SCARBOROUGH",
        "streetNameDisplayText": "KENNEDY RD, SCARBOROUGH"
      }
    ]
  },
  {
    "postal": "M1V7E2",
    "result": []
  },
  {
    "postal": "M1V2P5",
    "result": [
      {
        "electoralDistricts": [
          {
            "election": null,
            "id": 96,
            "name": "Scarborough North"
          }
        ],
        "pollDivisionIds": [
          10141706
        ],
        "postalCode": "M1V2P5",
        "streetName": "WHITLEY CASTLE",
        "streetDirectionId": null,
        "streetTypeId": "CRES",
        "placeName": "SCARBOROUGH",
        "streetNameDisplayText": "WHITLEY CASTLE CRES, SCARBOROUGH"
      }
    ]
  },
  {
    "postal": "M1V8R7",
    "result": []
  },
  {
    "postal": "M1V9P1",
    "result": []
  },
  {
    "postal": "M1V3B8",
    "result": [
      {
        "electoralDistricts": [
          {
            "election": null,
            "id": 93,
            "name": "Scarborough—Agincourt"
          }
        ],
        "pollDivisionIds": [
          10141525
        ],
        "postalCode": "M1V3B8",
        "streetName": "TROJAN",
        "streetDirectionId": null,
        "streetTypeId": "GATE",
        "placeName": "SCARBOROUGH",
        "streetNameDisplayText": "TROJAN GATE, SCARBOROUGH"
      }
    ]
  },
  {
    "postal": "M1V3P7",
    "result": []
  },
  {
    "postal": "M1V9B2",
    "result": []
  },
  {
    "postal": "M1V6Z3",
    "result": []
  },
  {
    "postal": "M1V4N5",
    "result": [
      {
        "electoralDistricts": [
          {
            "election": null,
            "id": 96,
            "name": "Scarborough North"
          }
        ],
        "pollDivisionIds": [
          10143245
        ],
        "postalCode": "M1V4N5",
        "streetName": "WHARTON",
        "streetDirectionId": null,
        "streetTypeId": "SQ",
        "placeName": "SCARBOROUGH",
        "streetNameDisplayText": "WHARTON SQ, SCARBOROUGH"
      }
    ]
  },
  {
    "postal": "M1V8T3",
    "result": []
  },
  {
    "postal": "M1V1V2",
    "result": [
      {
        "electoralDistricts": [
          {
            "election": null,
            "id": 96,
            "name": "Scarborough North"
          }
        ],
        "pollDivisionIds": [
          10143246
        ],
        "postalCode": "M1V1V2",
        "streetName": "SANDHURST",
        "streetDirectionId": null,
        "streetTypeId": "CIR",
        "placeName": "SCARBOROUGH",
        "streetNameDisplayText": "SANDHURST CIR, SCARBOROUGH"
      }
    ]
  },
  {
    "postal": "M1V1Y0",
    "result": []
  },
  {
    "postal": "M1V3G6",
    "result": [
      {
        "electoralDistricts": [
          {
            "election": null,
            "id": 96,
            "name": "Scarborough North"
          }
        ],
        "pollDivisionIds": [
          10141697
        ],
        "postalCode": "M1V3G6",
        "streetName": "BELLROCK",
        "streetDirectionId": null,
        "streetTypeId": "DR",
        "placeName": "SCARBOROUGH",
        "streetNameDisplayText": "BELLROCK DR, SCARBOROUGH"
      }
    ]
  },
  {
    "postal": "M1V3H7",
    "result": [
      {
        "electoralDistricts": [
          {
            "election": null,
            "id": 96,
            "name": "Scarborough North"
          }
        ],
        "pollDivisionIds": [
          10141701
        ],
        "postalCode": "M1V3H7",
        "streetName": "INGLETON",
        "streetDirectionId": null,
        "streetTypeId": "BLVD",
        "placeName": "SCARBOROUGH",
        "streetNameDisplayText": "INGLETON BLVD, SCARBOROUGH"
      }
    ]
  },
  {
    "postal": "M1V7X8",
    "result": []
  },
  {
    "postal": "M1V0C7",
    "result": []
  },
  {
    "postal": "M1V0W9",
    "result": []
  },
  {
    "postal": "M1V8E6",
    "result": []
  },
  {
    "postal": "M1V9Z8",
    "result": []
  },
  {
    "postal": "M1V3P4",
    "result": [
      {
        "electoralDistricts": [
          {
            "election": null,
            "id": 96,
            "name": "Scarborough North"
          }
        ],
        "pollDivisionIds": [
          10141698
        ],
        "postalCode": "M1V3P4",
        "streetName": "WILDERNESS",
        "streetDirectionId": null,
        "streetTypeId": "DR",
        "placeName": "SCARBOROUGH",
        "streetNameDisplayText": "WILDERNESS DR, SCARBOROUGH"
      }
    ]
  },
  {
    "postal": "M1V6L8",
    "result": []
  },
  {
    "postal": "M1V2R4",
    "result": []
  },
  {
    "postal": "M1V2W1",
    "result": [
      {
        "electoralDistricts": [
          {
            "election": null,
            "id": 96,
            "name": "Scarborough North"
          }
        ],
        "pollDivisionIds": [
          10141697
        ],
        "postalCode": "M1V2W1",
        "streetName": "CAPTAIN HALL",
        "streetDirectionId": null,
        "streetTypeId": "CRT",
        "placeName": "SCARBOROUGH",
        "streetNameDisplayText": "CAPTAIN HALL CRT, SCARBOROUGH"
      }
    ]
  },
  {
    "postal": "M1V9H8",
    "result": []
  },
  {
    "postal": "M1V8X9",
    "result": []
  },
  {
    "postal": "M1V7H4",
    "result": []
  },
  {
    "postal": "M1V3J1",
    "result": []
  },
  {
    "postal": "M1V1P4",
    "result": [
      {
        "electoralDistricts": [
          {
            "election": null,
            "id": 96,
            "name": "Scarborough North"
          }
        ],
        "pollDivisionIds": [
          10141706
        ],
        "postalCode": "M1V1P4",
        "streetName": "LADY SARAH",
        "streetDirectionId": null,
        "streetTypeId": "CRES",
        "placeName": "SCARBOROUGH",
        "streetNameDisplayText": "LADY SARAH CRES, SCARBOROUGH"
      }
    ]
  },
  {
    "postal": "M1V2A3",
    "result": [
      {
        "electoralDistricts": [
          {
            "election": null,
            "id": 96,
            "name": "Scarborough North"
          }
        ],
        "pollDivisionIds": [
          10141701
        ],
        "postalCode": "M1V2A3",
        "streetName": "INGLETON BLVD",
        "streetDirectionId": null,
        "streetTypeId": "BLVD",
        "placeName": "SCARBOROUGH",
        "streetNameDisplayText": "INGLETON BLVD BLVD, SCARBOROUGH"
      },
      {
        "electoralDistricts": [
          {
            "election": null,
            "id": 96,
            "name": "Scarborough North"
          }
        ],
        "pollDivisionIds": [
          10141701
        ],
        "postalCode": "M1V2A3",
        "streetName": "INGLETON",
        "streetDirectionId": null,
        "streetTypeId": "BLVD",
        "placeName": "SCARBOROUGH",
        "streetNameDisplayText": "INGLETON BLVD, SCARBOROUGH"
      }
    ]
  },
  {
    "postal": "M1V0Z1",
    "result": []
  },
  {
    "postal": "M1V1C1",
    "result": [
      {
        "electoralDistricts": [
          {
            "election": null,
            "id": 96,
            "name": "Scarborough North"
          }
        ],
        "pollDivisionIds": [
          10143246
        ],
        "postalCode": "M1V1C1",
        "streetName": "BRIMWOOD",
        "streetDirectionId": null,
        "streetTypeId": "BLVD",
        "placeName": "SCARBOROUGH",
        "streetNameDisplayText": "BRIMWOOD BLVD, SCARBOROUGH"
      }
    ]
  },
  {
    "postal": "M1V0H3",
    "result": []
  },
  {
    "postal": "M1V7B0",
    "result": []
  },
  {
    "postal": "M1V5K2",
    "result": []
  },
  {
    "postal": "M1V1E9",
    "result": [
      {
        "electoralDistricts": [
          {
            "election": null,
            "id": 93,
            "name": "Scarborough—Agincourt"
          }
        ],
        "pollDivisionIds": [
          10141525
        ],
        "postalCode": "M1V1E9",
        "streetName": "REVLIS",
        "streetDirectionId": null,
        "streetTypeId": "CRES",
        "placeName": "SCARBOROUGH",
        "streetNameDisplayText": "REVLIS CRES, SCARBOROUGH"
      }
    ]
  },
  {
    "postal": "M1V9W7",
    "result": []
  },
  {
    "postal": "M1V5W6",
    "result": []
  },
  {
    "postal": "M1V6S6",
    "result": []
  },
  {
    "postal": "M1V2P8",
    "result": [
      {
        "electoralDistricts": [
          {
            "election": null,
            "id": 96,
            "name": "Scarborough North"
          }
        ],
        "pollDivisionIds": [
          10141706
        ],
        "postalCode": "M1V2P8",
        "streetName": "WHITE HEATHER",
        "streetDirectionId": null,
        "streetTypeId": "BLVD",
        "placeName": "SCARBOROUGH",
        "streetNameDisplayText": "WHITE HEATHER BLVD, SCARBOROUGH"
      }
    ]
  },
  {
    "postal": "M1V4P8",
    "result": [
      {
        "electoralDistricts": [
          {
            "election": null,
            "id": 96,
            "name": "Scarborough North"
          }
        ],
        "pollDivisionIds": [
          10141695
        ],
        "postalCode": "M1V4P8",
        "streetName": "BEMERTON",
        "streetDirectionId": null,
        "streetTypeId": "CRT",
        "placeName": "SCARBOROUGH",
        "streetNameDisplayText": "BEMERTON CRT, SCARBOROUGH"
      }
    ]
  },
  {
    "postal": "M1V0V9",
    "result": []
  },
  {
    "postal": "M1V5Y2",
    "result": []
  },
  {
    "postal": "M1V7Z7",
    "result": []
  },
  {
    "postal": "M1V6Y8",
    "result": []
  },
  {
    "postal": "M1V2G7",
    "result": [
      {
        "electoralDistricts": [
          {
            "election": null,
            "id": 96,
            "name": "Scarborough North"
          }
        ],
        "pollDivisionIds": [
          10141696
        ],
        "postalCode": "M1V2G7",
        "streetName": "PORT ROYAL",
        "streetDirectionId": null,
        "streetTypeId": "TRAIL",
        "placeName": "SCARBOROUGH",
        "streetNameDisplayText": "PORT ROYAL TRAIL, SCARBOROUGH"
      }
    ]
  },
  {
    "postal": "M1V8C1",
    "result": []
  },
  {
    "postal": "M1V5C5",
    "result": [
      {
        "electoralDistricts": [
          {
            "election": null,
            "id": 96,
            "name": "Scarborough North"
          }
        ],
        "pollDivisionIds": [
          10141720
        ],
        "postalCode": "M1V5C5",
        "streetName": "ALTON TOWERS",
        "streetDirectionId": null,
        "streetTypeId": "CIR",
        "placeName": "SCARBOROUGH",
        "streetNameDisplayText": "ALTON TOWERS CIR, SCARBOROUGH"
      }
    ]
  },
  {
    "postal": "M1V2X8",
    "result": [
      {
        "electoralDistricts": [
          {
            "election": null,
            "id": 96,
            "name": "Scarborough North"
          }
        ],
        "pollDivisionIds": [
          10141696
        ],
        "postalCode": "M1V2X8",
        "streetName": "PORT ROYAL",
        "streetDirectionId": null,
        "streetTypeId": "TRAIL",
        "placeName": "SCARBOROUGH",
        "streetNameDisplayText": "PORT ROYAL TRAIL, SCARBOROUGH"
      }
    ]
  },
  {
    "postal": "M1V1W5",
    "result": [
      {
        "electoralDistricts": [
          {
            "election": null,
            "id": 96,
            "name": "Scarborough North"
          }
        ],
        "pollDivisionIds": [
          10143245
        ],
        "postalCode": "M1V1W5",
        "streetName": "GOLDHAWK",
        "streetDirectionId": null,
        "streetTypeId": "TRAIL",
        "placeName": "SCARBOROUGH",
        "streetNameDisplayText": "GOLDHAWK TRAIL, SCARBOROUGH"
      }
    ]
  },
  {
    "postal": "M1V7G0",
    "result": []
  },
  {
    "postal": "M1V8J8",
    "result": []
  },
  {
    "postal": "M1V3Y0",
    "result": []
  },
  {
    "postal": "M1V9T7",
    "result": []
  },
  {
    "postal": "M1V5P4",
    "result": [
      {
        "electoralDistricts": [
          {
            "election": null,
            "id": 93,
            "name": "Scarborough—Agincourt"
          }
        ],
        "pollDivisionIds": [
          10141553
        ],
        "postalCode": "M1V5P4",
        "streetName": "MCNICOLL",
        "streetDirectionId": null,
        "streetTypeId": "AVE",
        "placeName": "SCARBOROUGH",
        "streetNameDisplayText": "MCNICOLL AVE, SCARBOROUGH"
      }
    ]
  },
  {
    "postal": "M1V4B0",
    "result": []
  },
  {
    "postal": "M1V9N8",
    "result": []
  },
  {
    "postal": "M1V4A7",
    "result": [
      {
        "electoralDistricts": [
          {
            "election": null,
            "id": 96,
            "name": "Scarborough North"
          }
        ],
        "pollDivisionIds": [
          10141700
        ],
        "postalCode": "M1V4A7",
        "streetName": "SELECT",
        "streetDirectionId": null,
        "streetTypeId": "AVE",
        "placeName": "SCARBOROUGH",
        "streetNameDisplayText": "SELECT AVE, SCARBOROUGH"
      }
    ]
  },
  {
    "postal": "M1V4H9",
    "result": [
      {
        "electoralDistricts": [
          {
            "election": null,
            "id": 96,
            "name": "Scarborough North"
          }
        ],
        "pollDivisionIds": [
          10141698
        ],
        "postalCode": "M1V4H9",
        "streetName": "FLATWOODS",
        "streetDirectionId": null,
        "streetTypeId": "DR",
        "placeName": "SCARBOROUGH",
        "streetNameDisplayText": "FLATWOODS DR, SCARBOROUGH"
      },
      {
        "electoralDistricts": [
          {
            "election": null,
            "id": 96,
            "name": "Scarborough North"
          }
        ],
        "pollDivisionIds": [
          10141698
        ],
        "postalCode": "M1V4H9",
        "streetName": "ROXANNE",
        "streetDirectionId": null,
        "streetTypeId": "CRES",
        "placeName": "SCARBOROUGH",
        "streetNameDisplayText": "ROXANNE CRES, SCARBOROUGH"
      }
    ]
  },
  {
    "postal": "M1V6X1",
    "result": []
  },
  {
    "postal": "M1V9Y7",
    "result": []
  },
  {
    "postal": "M1V2Y5",
    "result": [
      {
        "electoralDistricts": [
          {
            "election": null,
            "id": 93,
            "name": "Scarborough—Agincourt"
          }
        ],
        "pollDivisionIds": [
          10141518
        ],
        "postalCode": "M1V2Y5",
        "streetName": "ELMFIELD",
        "streetDirectionId": null,
        "streetTypeId": "CRES",
        "placeName": "SCARBOROUGH",
        "streetNameDisplayText": "ELMFIELD CRES, SCARBOROUGH"
      }
    ]
  },
  {
    "postal": "M1V8L7",
    "result": []
  },
  {
    "postal": "M1V2A8",
    "result": [
      {
        "electoralDistricts": [
          {
            "election": null,
            "id": 96,
            "name": "Scarborough North"
          }
        ],
        "pollDivisionIds": [
          10141701
        ],
        "postalCode": "M1V2A8",
        "streetName": "PEBBLEWOOD",
        "streetDirectionId": null,
        "streetTypeId": "AVE",
        "placeName": "SCARBOROUGH",
        "streetNameDisplayText": "PEBBLEWOOD AVE, SCARBOROUGH"
      }
    ]
  },
  {
    "postal": "M1V2K9",
    "result": [
      {
        "electoralDistricts": [
          {
            "election": null,
            "id": 96,
            "name": "Scarborough North"
          }
        ],
        "pollDivisionIds": [
          10141695
        ],
        "postalCode": "M1V2K9",
        "streetName": "PORT ROYAL",
        "streetDirectionId": null,
        "streetTypeId": "TRAIL",
        "placeName": "SCARBOROUGH",
        "streetNameDisplayText": "PORT ROYAL TRAIL, SCARBOROUGH"
      }
    ]
  },
  {
    "postal": "M1V3E5",
    "result": [
      {
        "electoralDistricts": [
          {
            "election": null,
            "id": 96,
            "name": "Scarborough North"
          }
        ],
        "pollDivisionIds": [
          10141701,
          10141700
        ],
        "postalCode": "M1V3E5",
        "streetName": "MAJOR OAK",
        "streetDirectionId": null,
        "streetTypeId": "TERR",
        "placeName": "SCARBOROUGH",
        "streetNameDisplayText": "MAJOR OAK TERR, SCARBOROUGH"
      }
    ]
  },
  {
    "postal": "M1V8N6",
    "result": []
  },
  {
    "postal": "M1V8J4",
    "result": []
  },
  {
    "postal": "M1V4R7",
    "result": [
      {
        "electoralDistricts": [
          {
            "election": null,
            "id": 96,
            "name": "Scarborough North"
          }
        ],
        "pollDivisionIds": [
          10141695
        ],
        "postalCode": "M1V4R7",
        "streetName": "HIGHBRIDGE",
        "streetDirectionId": null,
        "streetTypeId": "PL",
        "placeName": "SCARBOROUGH",
        "streetNameDisplayText": "HIGHBRIDGE PL, SCARBOROUGH"
      },
      {
        "electoralDistricts": [
          {
            "election": null,
            "id": 96,
            "name": "Scarborough North"
          }
        ],
        "pollDivisionIds": [
          10141695
        ],
        "postalCode": "M1V4R7",
        "streetName": "PORT ROYAL",
        "streetDirectionId": null,
        "streetTypeId": "TRAIL",
        "placeName": "SCARBOROUGH",
        "streetNameDisplayText": "PORT ROYAL TRAIL, SCARBOROUGH"
      }
    ]
  },
  {
    "postal": "M1V9K1",
    "result": []
  },
  {
    "postal": "M1V8E1",
    "result": []
  },
  {
    "postal": "M1V0R1",
    "result": []
  },
  {
    "postal": "M1V4J3",
    "result": [
      {
        "electoralDistricts": [
          {
            "election": null,
            "id": 96,
            "name": "Scarborough North"
          }
        ],
        "pollDivisionIds": [
          10141698
        ],
        "postalCode": "M1V4J3",
        "streetName": "ROXANNE",
        "streetDirectionId": null,
        "streetTypeId": "CRES",
        "placeName": "SCARBOROUGH",
        "streetNameDisplayText": "ROXANNE CRES, SCARBOROUGH"
      }
    ]
  },
  {
    "postal": "M1V7E7",
    "result": []
  },
  {
    "postal": "M1V0J0",
    "result": []
  },
  {
    "postal": "M1V7R8",
    "result": []
  },
  {
    "postal": "M1V9X0",
    "result": []
  },
  {
    "postal": "M1V7P6",
    "result": []
  },
  {
    "postal": "M1V0R7",
    "result": []
  },
  {
    "postal": "M1V5W1",
    "result": []
  },
  {
    "postal": "M1V0K4",
    "result": []
  },
  {
    "postal": "M1V7N9",
    "result": []
  },
  {
    "postal": "M1V1N0",
    "result": []
  },
  {
    "postal": "M1V6P3",
    "result": []
  },
  {
    "postal": "M1V5A1",
    "result": [
      {
        "electoralDistricts": [
          {
            "election": null,
            "id": 96,
            "name": "Scarborough North"
          }
        ],
        "pollDivisionIds": [
          10141700
        ],
        "postalCode": "M1V5A1",
        "streetName": "ALTON TOWERS",
        "streetDirectionId": null,
        "streetTypeId": "CIR",
        "placeName": "SCARBOROUGH",
        "streetNameDisplayText": "ALTON TOWERS CIR, SCARBOROUGH"
      }
    ]
  },
  {
    "postal": "M1V9M9",
    "result": []
  },
  {
    "postal": "M1V7T6",
    "result": []
  },
  {
    "postal": "M1V3X0",
    "result": []
  },
  {
    "postal": "M1V2T0",
    "result": []
  },
  {
    "postal": "M1V5X9",
    "result": []
  },
  {
    "postal": "M1V2R3",
    "result": [
      {
        "electoralDistricts": [
          {
            "election": null,
            "id": 93,
            "name": "Scarborough—Agincourt"
          }
        ],
        "pollDivisionIds": [
          10141525
        ],
        "postalCode": "M1V2R3",
        "streetName": "MILLIKEN",
        "streetDirectionId": null,
        "streetTypeId": "BLVD",
        "placeName": "SCARBOROUGH",
        "streetNameDisplayText": "MILLIKEN BLVD, SCARBOROUGH"
      }
    ]
  },
  {
    "postal": "M1V5N2",
    "result": [
      {
        "electoralDistricts": [
          {
            "election": null,
            "id": 96,
            "name": "Scarborough North"
          }
        ],
        "pollDivisionIds": [
          10141706
        ],
        "postalCode": "M1V5N2",
        "streetName": "TIFFIELD",
        "streetDirectionId": null,
        "streetTypeId": "RD",
        "placeName": "SCARBOROUGH",
        "streetNameDisplayText": "TIFFIELD RD, SCARBOROUGH"
      }
    ]
  },
  {
    "postal": "M1V4Y7",
    "result": []
  },
  {
    "postal": "M1V7M0",
    "result": []
  },
  {
    "postal": "M1V8P3",
    "result": []
  },
  {
    "postal": "M1V3N3",
    "result": [
      {
        "electoralDistricts": [
          {
            "election": null,
            "id": 96,
            "name": "Scarborough North"
          }
        ],
        "pollDivisionIds": [
          10141703
        ],
        "postalCode": "M1V3N3",
        "streetName": "DANJOHN",
        "streetDirectionId": null,
        "streetTypeId": "CRES",
        "placeName": "SCARBOROUGH",
        "streetNameDisplayText": "DANJOHN CRES, SCARBOROUGH"
      }
    ]
  },
  {
    "postal": "M1V7S3",
    "result": []
  },
  {
    "postal": "M1V3V9",
    "result": []
  },
  {
    "postal": "M1V9N7",
    "result": []
  },
  {
    "postal": "M1V0G4",
    "result": []
  },
  {
    "postal": "M1V2E2",
    "result": [
      {
        "electoralDistricts": [
          {
            "election": null,
            "id": 96,
            "name": "Scarborough North"
          }
        ],
        "pollDivisionIds": [
          10141696
        ],
        "postalCode": "M1V2E2",
        "streetName": "MOOREHOUSE",
        "streetDirectionId": null,
        "streetTypeId": "DR",
        "placeName": "SCARBOROUGH",
        "streetNameDisplayText": "MOOREHOUSE DR, SCARBOROUGH"
      }
    ]
  },
  {
    "postal": "M1V7W8",
    "result": []
  },
  {
    "postal": "M1V7M5",
    "result": []
  },
  {
    "postal": "M1V5W8",
    "result": []
  },
  {
    "postal": "M1V5E5",
    "result": [
      {
        "electoralDistricts": [
          {
            "election": null,
            "id": 93,
            "name": "Scarborough—Agincourt"
          }
        ],
        "pollDivisionIds": [
          10141525
        ],
        "postalCode": "M1V5E5",
        "streetName": "SILVER STAR",
        "streetDirectionId": null,
        "streetTypeId": "BLVD",
        "placeName": "SCARBOROUGH",
        "streetNameDisplayText": "SILVER STAR BLVD, SCARBOROUGH"
      }
    ]
  },
  {
    "postal": "M1V1P9",
    "result": [
      {
        "electoralDistricts": [
          {
            "election": null,
            "id": 96,
            "name": "Scarborough North"
          }
        ],
        "pollDivisionIds": [
          10141706
        ],
        "postalCode": "M1V1P9",
        "streetName": "WHITE HEATHER",
        "streetDirectionId": null,
        "streetTypeId": "BLVD",
        "placeName": "SCARBOROUGH",
        "streetNameDisplayText": "WHITE HEATHER BLVD, SCARBOROUGH"
      }
    ]
  },
  {
    "postal": "M1V8V8",
    "result": []
  },
  {
    "postal": "M1V9G8",
    "result": []
  },
  {
    "postal": "M1V8H9",
    "result": []
  },
  {
    "postal": "M1V1Z1",
    "result": [
      {
        "electoralDistricts": [
          {
            "election": null,
            "id": 96,
            "name": "Scarborough North"
          }
        ],
        "pollDivisionIds": [
          10143245
        ],
        "postalCode": "M1V1Z1",
        "streetName": "BARNWELL",
        "streetDirectionId": null,
        "streetTypeId": "DR",
        "placeName": "SCARBOROUGH",
        "streetNameDisplayText": "BARNWELL DR, SCARBOROUGH"
      }
    ]
  },
  {
    "postal": "M1V8M3",
    "result": []
  },
  {
    "postal": "M1V5H6",
    "result": [
      {
        "electoralDistricts": [
          {
            "election": null,
            "id": 93,
            "name": "Scarborough—Agincourt"
          }
        ],
        "pollDivisionIds": [
          10141525
        ],
        "postalCode": "M1V5H6",
        "streetName": "MILLIKEN",
        "streetDirectionId": null,
        "streetTypeId": "BLVD",
        "placeName": "SCARBOROUGH",
        "streetNameDisplayText": "MILLIKEN BLVD, SCARBOROUGH"
      }
    ]
  },
  {
    "postal": "M1V7W7",
    "result": []
  },
  {
    "postal": "M1V4L0",
    "result": []
  },
  {
    "postal": "M1V2N1",
    "result": []
  },
  {
    "postal": "M1V2H4",
    "result": [
      {
        "electoralDistricts": [
          {
            "election": null,
            "id": 96,
            "name": "Scarborough North"
          }
        ],
        "pollDivisionIds": [
          10141697
        ],
        "postalCode": "M1V2H4",
        "streetName": "PORT ROYAL",
        "streetDirectionId": null,
        "streetTypeId": "TRAIL",
        "placeName": "SCARBOROUGH",
        "streetNameDisplayText": "PORT ROYAL TRAIL, SCARBOROUGH"
      }
    ]
  },
  {
    "postal": "M1V5C8",
    "result": [
      {
        "electoralDistricts": [
          {
            "election": null,
            "id": 96,
            "name": "Scarborough North"
          }
        ],
        "pollDivisionIds": [
          10141701
        ],
        "postalCode": "M1V5C8",
        "streetName": "DYNAMIC",
        "streetDirectionId": null,
        "streetTypeId": "DR",
        "placeName": "SCARBOROUGH",
        "streetNameDisplayText": "DYNAMIC DR, SCARBOROUGH"
      }
    ]
  },
  {
    "postal": "M1V8B0",
    "result": []
  },
  {
    "postal": "M1V1T4",
    "result": [
      {
        "electoralDistricts": [
          {
            "election": null,
            "id": 96,
            "name": "Scarborough North"
          }
        ],
        "pollDivisionIds": [
          10143246
        ],
        "postalCode": "M1V1T4",
        "streetName": "BRIMLEY",
        "streetDirectionId": null,
        "streetTypeId": "RD",
        "placeName": "SCARBOROUGH",
        "streetNameDisplayText": "BRIMLEY RD, SCARBOROUGH"
      }
    ]
  },
  {
    "postal": "M1V7N7",
    "result": []
  },
  {
    "postal": "M1V4L3",
    "result": [
      {
        "electoralDistricts": [
          {
            "election": null,
            "id": 96,
            "name": "Scarborough North"
          }
        ],
        "pollDivisionIds": [
          10143245
        ],
        "postalCode": "M1V4L3",
        "streetName": "ALTON TOWERS",
        "streetDirectionId": null,
        "streetTypeId": "CIR",
        "placeName": "SCARBOROUGH",
        "streetNameDisplayText": "ALTON TOWERS CIR, SCARBOROUGH"
      }
    ]
  },
  {
    "postal": "M1V2N2",
    "result": [
      {
        "electoralDistricts": [
          {
            "election": null,
            "id": 96,
            "name": "Scarborough North"
          }
        ],
        "pollDivisionIds": [
          10141706
        ],
        "postalCode": "M1V2N2",
        "streetName": "DYNAMIC",
        "streetDirectionId": null,
        "streetTypeId": "DR",
        "placeName": "SCARBOROUGH",
        "streetNameDisplayText": "DYNAMIC DR, SCARBOROUGH"
      }
    ]
  },
  {
    "postal": "M1V4N8",
    "result": [
      {
        "electoralDistricts": [
          {
            "election": null,
            "id": 96,
            "name": "Scarborough North"
          }
        ],
        "pollDivisionIds": [
          10143245
        ],
        "postalCode": "M1V4N8",
        "streetName": "BRIDPORT",
        "streetDirectionId": null,
        "streetTypeId": "CRES",
        "placeName": "SCARBOROUGH",
        "streetNameDisplayText": "BRIDPORT CRES, SCARBOROUGH"
      }
    ]
  },
  {
    "postal": "M1V3M5",
    "result": [
      {
        "electoralDistricts": [
          {
            "election": null,
            "id": 96,
            "name": "Scarborough North"
          }
        ],
        "pollDivisionIds": [
          10141706
        ],
        "postalCode": "M1V3M5",
        "streetName": "LANSBURY",
        "streetDirectionId": null,
        "streetTypeId": "DR",
        "placeName": "SCARBOROUGH",
        "streetNameDisplayText": "LANSBURY DR, SCARBOROUGH"
      }
    ]
  },
  {
    "postal": "M1V6H7",
    "result": []
  },
  {
    "postal": "M1V8Y8",
    "result": []
  },
  {
    "postal": "M1V5R9",
    "result": []
  },
  {
    "postal": "M1V8G3",
    "result": []
  },
  {
    "postal": "M1V4N7",
    "result": [
      {
        "electoralDistricts": [
          {
            "election": null,
            "id": 96,
            "name": "Scarborough North"
          }
        ],
        "pollDivisionIds": [
          10143245
        ],
        "postalCode": "M1V4N7",
        "streetName": "BRIDPORT",
        "streetDirectionId": null,
        "streetTypeId": "CRES",
        "placeName": "SCARBOROUGH",
        "streetNameDisplayText": "BRIDPORT CRES, SCARBOROUGH"
      }
    ]
  },
  {
    "postal": "M1V0B9",
    "result": []
  },
  {
    "postal": "M1V9K7",
    "result": []
  },
  {
    "postal": "M1V9K9",
    "result": []
  },
  {
    "postal": "M1V3Z2",
    "result": [
      {
        "electoralDistricts": [
          {
            "election": null,
            "id": 96,
            "name": "Scarborough North"
          }
        ],
        "pollDivisionIds": [
          10141701
        ],
        "postalCode": "M1V3Z2",
        "streetName": "MAYBROOK",
        "streetDirectionId": null,
        "streetTypeId": "DR",
        "placeName": "SCARBOROUGH",
        "streetNameDisplayText": "MAYBROOK DR, SCARBOROUGH"
      }
    ]
  },
  {
    "postal": "M1V6W7",
    "result": []
  },
  {
    "postal": "M1V0P1",
    "result": []
  },
  {
    "postal": "M1V3A0",
    "result": []
  },
  {
    "postal": "M1V8L9",
    "result": []
  },
  {
    "postal": "M1V6X0",
    "result": []
  },
  {
    "postal": "M1V3E9",
    "result": [
      {
        "electoralDistricts": [
          {
            "election": null,
            "id": 96,
            "name": "Scarborough North"
          }
        ],
        "pollDivisionIds": [
          10141700
        ],
        "postalCode": "M1V3E9",
        "streetName": "INGLETON",
        "streetDirectionId": null,
        "streetTypeId": "BLVD",
        "placeName": "SCARBOROUGH",
        "streetNameDisplayText": "INGLETON BLVD, SCARBOROUGH"
      }
    ]
  },
  {
    "postal": "M1V0S5",
    "result": []
  },
  {
    "postal": "M1V1A2",
    "result": [
      {
        "electoralDistricts": [
          {
            "election": null,
            "id": 96,
            "name": "Scarborough North"
          }
        ],
        "pollDivisionIds": [
          10143246
        ],
        "postalCode": "M1V1A2",
        "streetName": "MACKLINGATE",
        "streetDirectionId": null,
        "streetTypeId": "CRT",
        "placeName": "SCARBOROUGH",
        "streetNameDisplayText": "MACKLINGATE CRT, SCARBOROUGH"
      }
    ]
  },
  {
    "postal": "M1V5V8",
    "result": []
  },
  {
    "postal": "M1V8C5",
    "result": []
  },
  {
    "postal": "M1V6N0",
    "result": []
  },
  {
    "postal": "M1V9E6",
    "result": []
  },
  {
    "postal": "M1V5J7",
    "result": [
      {
        "electoralDistricts": [
          {
            "election": null,
            "id": 96,
            "name": "Scarborough North"
          }
        ],
        "pollDivisionIds": [
          10141701
        ],
        "postalCode": "M1V5J7",
        "streetName": "MAYBROOK",
        "streetDirectionId": null,
        "streetTypeId": "DR",
        "placeName": "SCARBOROUGH",
        "streetNameDisplayText": "MAYBROOK DR, SCARBOROUGH"
      }
    ]
  },
  {
    "postal": "M1V2R2",
    "result": [
      {
        "electoralDistricts": [
          {
            "election": null,
            "id": 96,
            "name": "Scarborough North"
          }
        ],
        "pollDivisionIds": [
          10141701
        ],
        "postalCode": "M1V2R2",
        "streetName": "MIDDLEFIELD",
        "streetDirectionId": null,
        "streetTypeId": "RD",
        "placeName": "SCARBOROUGH",
        "streetNameDisplayText": "MIDDLEFIELD RD, SCARBOROUGH"
      }
    ]
  },
  {
    "postal": "M1V0P5",
    "result": []
  },
  {
    "postal": "M1V5A7",
    "result": []
  },
  {
    "postal": "M1V1G1",
    "result": [
      {
        "electoralDistricts": [
          {
            "election": null,
            "id": 93,
            "name": "Scarborough—Agincourt"
          }
        ],
        "pollDivisionIds": [
          10141525
        ],
        "postalCode": "M1V1G1",
        "streetName": "DANCY",
        "streetDirectionId": null,
        "streetTypeId": "AVE",
        "placeName": "SCARBOROUGH",
        "streetNameDisplayText": "DANCY AVE, SCARBOROUGH"
      }
    ]
  },
  {
    "postal": "M1V9R6",
    "result": []
  },
  {
    "postal": "M1V4Z9",
    "result": []
  },
  {
    "postal": "M1V1V5",
    "result": [
      {
        "electoralDistricts": [
          {
            "election": null,
            "id": 96,
            "name": "Scarborough North"
          }
        ],
        "pollDivisionIds": [
          10141706
        ],
        "postalCode": "M1V1V5",
        "streetName": "SANDHURST",
        "streetDirectionId": null,
        "streetTypeId": "CIR",
        "placeName": "SCARBOROUGH",
        "streetNameDisplayText": "SANDHURST CIR, SCARBOROUGH"
      }
    ]
  },
  {
    "postal": "M1V9Y5",
    "result": []
  },
  {
    "postal": "M1V1P2",
    "result": [
      {
        "electoralDistricts": [
          {
            "election": null,
            "id": 96,
            "name": "Scarborough North"
          }
        ],
        "pollDivisionIds": [
          10141706
        ],
        "postalCode": "M1V1P2",
        "streetName": "ASHRIDGE",
        "streetDirectionId": null,
        "streetTypeId": "DR",
        "placeName": "SCARBOROUGH",
        "streetNameDisplayText": "ASHRIDGE DR, SCARBOROUGH"
      }
    ]
  },
  {
    "postal": "M1V5X0",
    "result": []
  },
  {
    "postal": "M1V7B8",
    "result": []
  },
  {
    "postal": "M1V0C6",
    "result": []
  },
  {
    "postal": "M1V6G1",
    "result": []
  },
  {
    "postal": "M1V3K3",
    "result": [
      {
        "electoralDistricts": [
          {
            "election": null,
            "id": 96,
            "name": "Scarborough North"
          }
        ],
        "pollDivisionIds": [
          10141700
        ],
        "postalCode": "M1V3K3",
        "streetName": "SEAMIST",
        "streetDirectionId": null,
        "streetTypeId": "CRES",
        "placeName": "SCARBOROUGH",
        "streetNameDisplayText": "SEAMIST CRES, SCARBOROUGH"
      }
    ]
  },
  {
    "postal": "M1V9R0",
    "result": []
  },
  {
    "postal": "M1V4R8",
    "result": [
      {
        "electoralDistricts": [
          {
            "election": null,
            "id": 96,
            "name": "Scarborough North"
          }
        ],
        "pollDivisionIds": [
          10141695
        ],
        "postalCode": "M1V4R8",
        "streetName": "HIGHBRIDGE",
        "streetDirectionId": null,
        "streetTypeId": "PL",
        "placeName": "SCARBOROUGH",
        "streetNameDisplayText": "HIGHBRIDGE PL, SCARBOROUGH"
      }
    ]
  },
  {
    "postal": "M1V5P9",
    "result": []
  },
  {
    "postal": "M1V8N4",
    "result": []
  },
  {
    "postal": "M1V8H4",
    "result": []
  },
  {
    "postal": "M1V4V1",
    "result": [
      {
        "electoralDistricts": [
          {
            "election": null,
            "id": 93,
            "name": "Scarborough—Agincourt"
          }
        ],
        "pollDivisionIds": [
          10141519
        ],
        "postalCode": "M1V4V1",
        "streetName": "PASSMORE",
        "streetDirectionId": null,
        "streetTypeId": "AVE",
        "placeName": "SCARBOROUGH",
        "streetNameDisplayText": "PASSMORE AVE, SCARBOROUGH"
      }
    ]
  },
  {
    "postal": "M1V1K5",
    "result": [
      {
        "electoralDistricts": [
          {
            "election": null,
            "id": 96,
            "name": "Scarborough North"
          }
        ],
        "pollDivisionIds": [
          10141704
        ],
        "postalCode": "M1V1K5",
        "streetName": "BUSHMILLS",
        "streetDirectionId": null,
        "streetTypeId": "SQ",
        "placeName": "SCARBOROUGH",
        "streetNameDisplayText": "BUSHMILLS SQ, SCARBOROUGH"
      }
    ]
  },
  {
    "postal": "M1V1Z5",
    "result": [
      {
        "electoralDistricts": [
          {
            "election": null,
            "id": 96,
            "name": "Scarborough North"
          }
        ],
        "pollDivisionIds": [
          10141701
        ],
        "postalCode": "M1V1Z5",
        "streetName": "MCNICOLL",
        "streetDirectionId": null,
        "streetTypeId": "AVE",
        "placeName": "SCARBOROUGH",
        "streetNameDisplayText": "MCNICOLL AVE, SCARBOROUGH"
      }
    ]
  },
  {
    "postal": "M1V9L9",
    "result": []
  },
  {
    "postal": "M1V5L2",
    "result": [
      {
        "electoralDistricts": [
          {
            "election": null,
            "id": 96,
            "name": "Scarborough North"
          }
        ],
        "pollDivisionIds": [
          10141729
        ],
        "postalCode": "M1V5L2",
        "streetName": "MCNICOLL",
        "streetDirectionId": null,
        "streetTypeId": "AVE",
        "placeName": "SCARBOROUGH",
        "streetNameDisplayText": "MCNICOLL AVE, SCARBOROUGH"
      }
    ]
  },
  {
    "postal": "M1V0M2",
    "result": []
  },
  {
    "postal": "M1V1K8",
    "result": [
      {
        "electoralDistricts": [
          {
            "election": null,
            "id": 96,
            "name": "Scarborough North"
          }
        ],
        "pollDivisionIds": [
          10141704
        ],
        "postalCode": "M1V1K8",
        "streetName": "SOUTH SHIELDS",
        "streetDirectionId": null,
        "streetTypeId": "AVE",
        "placeName": "SCARBOROUGH",
        "streetNameDisplayText": "SOUTH SHIELDS AVE, SCARBOROUGH"
      }
    ]
  },
  {
    "postal": "M1V3M7",
    "result": [
      {
        "electoralDistricts": [
          {
            "election": null,
            "id": 96,
            "name": "Scarborough North"
          }
        ],
        "pollDivisionIds": [
          10141700
        ],
        "postalCode": "M1V3M7",
        "streetName": "INGLETON",
        "streetDirectionId": null,
        "streetTypeId": "BLVD",
        "placeName": "SCARBOROUGH",
        "streetNameDisplayText": "INGLETON BLVD, SCARBOROUGH"
      }
    ]
  },
  {
    "postal": "M1V1B2",
    "result": [
      {
        "electoralDistricts": [
          {
            "election": null,
            "id": 96,
            "name": "Scarborough North"
          }
        ],
        "pollDivisionIds": [
          10143246
        ],
        "postalCode": "M1V1B2",
        "streetName": "BRIDLEY",
        "streetDirectionId": null,
        "streetTypeId": "DR",
        "placeName": "SCARBOROUGH",
        "streetNameDisplayText": "BRIDLEY DR, SCARBOROUGH"
      }
    ]
  },
  {
    "postal": "M1V0H9",
    "result": []
  },
  {
    "postal": "M1V8M4",
    "result": []
  },
  {
    "postal": "M1V2M5",
    "result": [
      {
        "electoralDistricts": [
          {
            "election": null,
            "id": 93,
            "name": "Scarborough—Agincourt"
          }
        ],
        "pollDivisionIds": [
          10141518,
          10141519
        ],
        "postalCode": "M1V2M5",
        "streetName": "LAPWORTH",
        "streetDirectionId": null,
        "streetTypeId": "CRES",
        "placeName": "SCARBOROUGH",
        "streetNameDisplayText": "LAPWORTH CRES, SCARBOROUGH"
      }
    ]
  },
  {
    "postal": "M1V0T9",
    "result": []
  },
  {
    "postal": "M1V3P1",
    "result": [
      {
        "electoralDistricts": [
          {
            "election": null,
            "id": 96,
            "name": "Scarborough North"
          }
        ],
        "pollDivisionIds": [
          10141698
        ],
        "postalCode": "M1V3P1",
        "streetName": "ENCHANTED HILLS",
        "streetDirectionId": null,
        "streetTypeId": "CRES",
        "placeName": "SCARBOROUGH",
        "streetNameDisplayText": "ENCHANTED HILLS CRES, SCARBOROUGH"
      }
    ]
  },
  {
    "postal": "M1V1R6",
    "result": [
      {
        "electoralDistricts": [
          {
            "election": null,
            "id": 96,
            "name": "Scarborough North"
          }
        ],
        "pollDivisionIds": [
          10141703
        ],
        "postalCode": "M1V1R6",
        "streetName": "ALEXMUIR",
        "streetDirectionId": null,
        "streetTypeId": "BLVD",
        "placeName": "SCARBOROUGH",
        "streetNameDisplayText": "ALEXMUIR BLVD, SCARBOROUGH"
      }
    ]
  },
  {
    "postal": "M1V9V5",
    "result": []
  },
  {
    "postal": "M1V9T0",
    "result": []
  },
  {
    "postal": "M1V0A9",
    "result": []
  },
  {
    "postal": "M1V1M3",
    "result": [
      {
        "electoralDistricts": [
          {
            "election": null,
            "id": 96,
            "name": "Scarborough North"
          }
        ],
        "pollDivisionIds": [
          10141703
        ],
        "postalCode": "M1V1M3",
        "streetName": "HAVEN HILL",
        "streetDirectionId": null,
        "streetTypeId": "SQ",
        "placeName": "SCARBOROUGH",
        "streetNameDisplayText": "HAVEN HILL SQ, SCARBOROUGH"
      }
    ]
  },
  {
    "postal": "M1V1W8",
    "result": [
      {
        "electoralDistricts": [
          {
            "election": null,
            "id": 96,
            "name": "Scarborough North"
          }
        ],
        "pollDivisionIds": [
          10143245
        ],
        "postalCode": "M1V1W8",
        "streetName": "GOLDHAWK",
        "streetDirectionId": null,
        "streetTypeId": "TRAIL",
        "placeName": "SCARBOROUGH",
        "streetNameDisplayText": "GOLDHAWK TRAIL, SCARBOROUGH"
      }
    ]
  },
  {
    "postal": "M1V9J1",
    "result": []
  },
  {
    "postal": "M1V8N5",
    "result": []
  },
  {
    "postal": "M1V5X1",
    "result": []
  },
  {
    "postal": "M1V6S2",
    "result": []
  },
  {
    "postal": "M1V2A2",
    "result": [
      {
        "electoralDistricts": [
          {
            "election": null,
            "id": 96,
            "name": "Scarborough North"
          }
        ],
        "pollDivisionIds": [
          10141700
        ],
        "postalCode": "M1V2A2",
        "streetName": "INGLETON",
        "streetDirectionId": null,
        "streetTypeId": "BLVD",
        "placeName": "SCARBOROUGH",
        "streetNameDisplayText": "INGLETON BLVD, SCARBOROUGH"
      }
    ]
  },
  {
    "postal": "M1V6A6",
    "result": []
  },
  {
    "postal": "M1V0S3",
    "result": []
  },
  {
    "postal": "M1V3E7",
    "result": [
      {
        "electoralDistricts": [
          {
            "election": null,
            "id": 96,
            "name": "Scarborough North"
          }
        ],
        "pollDivisionIds": [
          10141701
        ],
        "postalCode": "M1V3E7",
        "streetName": "PRESIDENTS",
        "streetDirectionId": null,
        "streetTypeId": "CRT",
        "placeName": "SCARBOROUGH",
        "streetNameDisplayText": "PRESIDENTS CRT, SCARBOROUGH"
      }
    ]
  },
  {
    "postal": "M1V5R7",
    "result": []
  },
  {
    "postal": "M1V3R6",
    "result": [
      {
        "electoralDistricts": [
          {
            "election": null,
            "id": 96,
            "name": "Scarborough North"
          }
        ],
        "pollDivisionIds": [
          10143245
        ],
        "postalCode": "M1V3R6",
        "streetName": "GOLDHAWK",
        "streetDirectionId": null,
        "streetTypeId": "TRAIL",
        "placeName": "SCARBOROUGH",
        "streetNameDisplayText": "GOLDHAWK TRAIL, SCARBOROUGH"
      }
    ]
  },
  {
    "postal": "M1V6K4",
    "result": []
  },
  {
    "postal": "M1V2W5",
    "result": [
      {
        "electoralDistricts": [
          {
            "election": null,
            "id": 96,
            "name": "Scarborough North"
          }
        ],
        "pollDivisionIds": [
          10141706
        ],
        "postalCode": "M1V2W5",
        "streetName": "PATH HILL",
        "streetDirectionId": null,
        "streetTypeId": "PL",
        "placeName": "SCARBOROUGH",
        "streetNameDisplayText": "PATH HILL PL, SCARBOROUGH"
      },
      {
        "electoralDistricts": [
          {
            "election": null,
            "id": 96,
            "name": "Scarborough North"
          }
        ],
        "pollDivisionIds": [
          10141706
        ],
        "postalCode": "M1V2W5",
        "streetName": "PATH HILL",
        "streetDirectionId": null,
        "streetTypeId": "PL",
        "placeName": "TORONTO",
        "streetNameDisplayText": "PATH HILL PL, TORONTO"
      }
    ]
  },
  {
    "postal": "M1V8W4",
    "result": []
  },
  {
    "postal": "M1V9C2",
    "result": []
  },
  {
    "postal": "M1V2C0",
    "result": []
  },
  {
    "postal": "M1V0E1",
    "result": []
  },
  {
    "postal": "M1V1K9",
    "result": [
      {
        "electoralDistricts": [
          {
            "election": null,
            "id": 96,
            "name": "Scarborough North"
          }
        ],
        "pollDivisionIds": [
          10141703
        ],
        "postalCode": "M1V1K9",
        "streetName": "ALEXMUIR",
        "streetDirectionId": null,
        "streetTypeId": "BLVD",
        "placeName": "SCARBOROUGH",
        "streetNameDisplayText": "ALEXMUIR BLVD, SCARBOROUGH"
      }
    ]
  },
  {
    "postal": "M1V1G7",
    "result": [
      {
        "electoralDistricts": [
          {
            "election": null,
            "id": 93,
            "name": "Scarborough—Agincourt"
          }
        ],
        "pollDivisionIds": [
          10141525
        ],
        "postalCode": "M1V1G7",
        "streetName": "SILVER SPRINGS",
        "streetDirectionId": null,
        "streetTypeId": "BLVD",
        "placeName": "SCARBOROUGH",
        "streetNameDisplayText": "SILVER SPRINGS BLVD, SCARBOROUGH"
      }
    ]
  },
  {
    "postal": "M1V4E9",
    "result": [
      {
        "electoralDistricts": [
          {
            "election": null,
            "id": 96,
            "name": "Scarborough North"
          }
        ],
        "pollDivisionIds": [
          10141698
        ],
        "postalCode": "M1V4E9",
        "streetName": "PENMARRIC",
        "streetDirectionId": null,
        "streetTypeId": "PL",
        "placeName": "SCARBOROUGH",
        "streetNameDisplayText": "PENMARRIC PL, SCARBOROUGH"
      }
    ]
  },
  {
    "postal": "M1V9P0",
    "result": []
  },
  {
    "postal": "M1V5H3",
    "result": [
      {
        "electoralDistricts": [
          {
            "election": null,
            "id": 96,
            "name": "Scarborough North"
          }
        ],
        "pollDivisionIds": [
          10141717
        ],
        "postalCode": "M1V5H3",
        "streetName": "ALTON TOWERS",
        "streetDirectionId": null,
        "streetTypeId": "CIR",
        "placeName": "SCARBOROUGH",
        "streetNameDisplayText": "ALTON TOWERS CIR, SCARBOROUGH"
      },
      {
        "electoralDistricts": [
          {
            "election": null,
            "id": 96,
            "name": "Scarborough North"
          }
        ],
        "pollDivisionIds": [
          10141717
        ],
        "postalCode": "M1V5H3",
        "streetName": "ALTON TOWERS",
        "streetDirectionId": null,
        "streetTypeId": "CIR",
        "placeName": "TORONTO",
        "streetNameDisplayText": "ALTON TOWERS CIR, TORONTO"
      }
    ]
  },
  {
    "postal": "M1V9X6",
    "result": []
  },
  {
    "postal": "M1V5N7",
    "result": [
      {
        "electoralDistricts": [
          {
            "election": null,
            "id": 93,
            "name": "Scarborough—Agincourt"
          }
        ],
        "pollDivisionIds": [
          10141519,
          10141518
        ],
        "postalCode": "M1V5N7",
        "streetName": "SANWOOD",
        "streetDirectionId": null,
        "streetTypeId": "BLVD",
        "placeName": "SCARBOROUGH",
        "streetNameDisplayText": "SANWOOD BLVD, SCARBOROUGH"
      }
    ]
  },
  {
    "postal": "M1V5A6",
    "result": []
  },
  {
    "postal": "M1V4M0",
    "result": []
  },
  {
    "postal": "M1V3V6",
    "result": [
      {
        "electoralDistricts": [
          {
            "election": null,
            "id": 96,
            "name": "Scarborough North"
          }
        ],
        "pollDivisionIds": [
          10141698
        ],
        "postalCode": "M1V3V6",
        "streetName": "RAYNES",
        "streetDirectionId": null,
        "streetTypeId": "CRES",
        "placeName": "SCARBOROUGH",
        "streetNameDisplayText": "RAYNES CRES, SCARBOROUGH"
      }
    ]
  },
  {
    "postal": "M1V1L7",
    "result": [
      {
        "electoralDistricts": [
          {
            "election": null,
            "id": 96,
            "name": "Scarborough North"
          }
        ],
        "pollDivisionIds": [
          10141703
        ],
        "postalCode": "M1V1L7",
        "streetName": "KENNALEY",
        "streetDirectionId": null,
        "streetTypeId": "CRES",
        "placeName": "SCARBOROUGH",
        "streetNameDisplayText": "KENNALEY CRES, SCARBOROUGH"
      }
    ]
  },
  {
    "postal": "M1V2P9",
    "result": [
      {
        "electoralDistricts": [
          {
            "election": null,
            "id": 96,
            "name": "Scarborough North"
          }
        ],
        "pollDivisionIds": [
          10141701
        ],
        "postalCode": "M1V2P9",
        "streetName": "MIDDLEFIELD",
        "streetDirectionId": null,
        "streetTypeId": "RD",
        "placeName": "SCARBOROUGH",
        "streetNameDisplayText": "MIDDLEFIELD RD, SCARBOROUGH"
      }
    ]
  },
  {
    "postal": "M1V5T4",
    "result": []
  },
  {
    "postal": "M1V5Z1",
    "result": []
  },
  {
    "postal": "M1V2X0",
    "result": []
  },
  {
    "postal": "M1V6Z2",
    "result": []
  },
  {
    "postal": "M1V0E0",
    "result": []
  },
  {
    "postal": "M1V3Z5",
    "result": [
      {
        "electoralDistricts": [
          {
            "election": null,
            "id": 96,
            "name": "Scarborough North"
          }
        ],
        "pollDivisionIds": [
          10141706
        ],
        "postalCode": "M1V3Z5",
        "streetName": "DYNAMIC",
        "streetDirectionId": null,
        "streetTypeId": "DR",
        "placeName": "SCARBOROUGH",
        "streetNameDisplayText": "DYNAMIC DR, SCARBOROUGH"
      }
    ]
  },
  {
    "postal": "M1V8H3",
    "result": []
  },
  {
    "postal": "M1V7S6",
    "result": []
  },
  {
    "postal": "M1V4C1",
    "result": [
      {
        "electoralDistricts": [
          {
            "election": null,
            "id": 96,
            "name": "Scarborough North"
          }
        ],
        "pollDivisionIds": [
          10141706
        ],
        "postalCode": "M1V4C1",
        "streetName": "NASHDENE",
        "streetDirectionId": null,
        "streetTypeId": "RD",
        "placeName": "SCARBOROUGH",
        "streetNameDisplayText": "NASHDENE RD, SCARBOROUGH"
      }
    ]
  },
  {
    "postal": "M1V3K2",
    "result": [
      {
        "electoralDistricts": [
          {
            "election": null,
            "id": 96,
            "name": "Scarborough North"
          }
        ],
        "pollDivisionIds": [
          10141700
        ],
        "postalCode": "M1V3K2",
        "streetName": "SAINTSBURY",
        "streetDirectionId": null,
        "streetTypeId": "SQ",
        "placeName": "SCARBOROUGH",
        "streetNameDisplayText": "SAINTSBURY SQ, SCARBOROUGH"
      }
    ]
  },
  {
    "postal": "M1V1Y5",
    "result": [
      {
        "electoralDistricts": [
          {
            "election": null,
            "id": 96,
            "name": "Scarborough North"
          }
        ],
        "pollDivisionIds": [
          10143245
        ],
        "postalCode": "M1V1Y5",
        "streetName": "PHALEN",
        "streetDirectionId": null,
        "streetTypeId": "CRES",
        "placeName": "SCARBOROUGH",
        "streetNameDisplayText": "PHALEN CRES, SCARBOROUGH"
      }
    ]
  },
  {
    "postal": "M1V6P6",
    "result": []
  },
  {
    "postal": "M1V3N9",
    "result": [
      {
        "electoralDistricts": [
          {
            "election": null,
            "id": 96,
            "name": "Scarborough North"
          }
        ],
        "pollDivisionIds": [
          10141698
        ],
        "postalCode": "M1V3N9",
        "streetName": "ENCHANTED HILLS",
        "streetDirectionId": null,
        "streetTypeId": "CRES",
        "placeName": "SCARBOROUGH",
        "streetNameDisplayText": "ENCHANTED HILLS CRES, SCARBOROUGH"
      }
    ]
  },
  {
    "postal": "M1V3W2",
    "result": [
      {
        "electoralDistricts": [
          {
            "election": null,
            "id": 96,
            "name": "Scarborough North"
          }
        ],
        "pollDivisionIds": [
          10141698
        ],
        "postalCode": "M1V3W2",
        "streetName": "GOLDHAWK",
        "streetDirectionId": null,
        "streetTypeId": "TRAIL",
        "placeName": "SCARBOROUGH",
        "streetNameDisplayText": "GOLDHAWK TRAIL, SCARBOROUGH"
      }
    ]
  },
  {
    "postal": "M1V6H8",
    "result": []
  },
  {
    "postal": "M1V9T3",
    "result": []
  },
  {
    "postal": "M1V5L9",
    "result": [
      {
        "electoralDistricts": [
          {
            "election": null,
            "id": 96,
            "name": "Scarborough North"
          }
        ],
        "pollDivisionIds": [
          10141695
        ],
        "postalCode": "M1V5L9",
        "streetName": "SCOVILLE",
        "streetDirectionId": null,
        "streetTypeId": "SQ",
        "placeName": "SCARBOROUGH",
        "streetNameDisplayText": "SCOVILLE SQ, SCARBOROUGH"
      }
    ]
  },
  {
    "postal": "M1V7X7",
    "result": []
  },
  {
    "postal": "M1V3J5",
    "result": [
      {
        "electoralDistricts": [
          {
            "election": null,
            "id": 96,
            "name": "Scarborough North"
          }
        ],
        "pollDivisionIds": [
          10141706
        ],
        "postalCode": "M1V3J5",
        "streetName": "RICHMOND PARK",
        "streetDirectionId": null,
        "streetTypeId": "BLVD",
        "placeName": "SCARBOROUGH",
        "streetNameDisplayText": "RICHMOND PARK BLVD, SCARBOROUGH"
      }
    ]
  },
  {
    "postal": "M1V4J5",
    "result": [
      {
        "electoralDistricts": [
          {
            "election": null,
            "id": 96,
            "name": "Scarborough North"
          }
        ],
        "pollDivisionIds": [
          10141698
        ],
        "postalCode": "M1V4J5",
        "streetName": "ROXANNE",
        "streetDirectionId": null,
        "streetTypeId": "CRES",
        "placeName": "SCARBOROUGH",
        "streetNameDisplayText": "ROXANNE CRES, SCARBOROUGH"
      }
    ]
  },
  {
    "postal": "M1V6J2",
    "result": []
  },
  {
    "postal": "M1V5V6",
    "result": []
  },
  {
    "postal": "M1V3N2",
    "result": [
      {
        "electoralDistricts": [
          {
            "election": null,
            "id": 96,
            "name": "Scarborough North"
          }
        ],
        "pollDivisionIds": [
          10141703
        ],
        "postalCode": "M1V3N2",
        "streetName": "DANJOHN",
        "streetDirectionId": null,
        "streetTypeId": "CRES",
        "placeName": "SCARBOROUGH",
        "streetNameDisplayText": "DANJOHN CRES, SCARBOROUGH"
      }
    ]
  },
  {
    "postal": "M1V3B1",
    "result": [
      {
        "electoralDistricts": [
          {
            "election": null,
            "id": 93,
            "name": "Scarborough—Agincourt"
          }
        ],
        "pollDivisionIds": [
          10141525
        ],
        "postalCode": "M1V3B1",
        "streetName": "ROYAL ALBERT",
        "streetDirectionId": null,
        "streetTypeId": "CRES",
        "placeName": "SCARBOROUGH",
        "streetNameDisplayText": "ROYAL ALBERT CRES, SCARBOROUGH"
      }
    ]
  },
  {
    "postal": "M1V8B5",
    "result": []
  },
  {
    "postal": "M1V0K1",
    "result": []
  },
  {
    "postal": "M1V7M7",
    "result": []
  },
  {
    "postal": "M1V2M2",
    "result": [
      {
        "electoralDistricts": [
          {
            "election": null,
            "id": 93,
            "name": "Scarborough—Agincourt"
          }
        ],
        "pollDivisionIds": [
          10141519
        ],
        "postalCode": "M1V2M2",
        "streetName": "MORBANK",
        "streetDirectionId": null,
        "streetTypeId": "DR",
        "placeName": "SCARBOROUGH",
        "streetNameDisplayText": "MORBANK DR, SCARBOROUGH"
      }
    ]
  },
  {
    "postal": "M1V9N3",
    "result": []
  },
  {
    "postal": "M1V4Y8",
    "result": [
      {
        "electoralDistricts": [
          {
            "election": null,
            "id": 93,
            "name": "Scarborough—Agincourt"
          }
        ],
        "pollDivisionIds": [
          10141525
        ],
        "postalCode": "M1V4Y8",
        "streetName": "PERTHSHIRE",
        "streetDirectionId": null,
        "streetTypeId": "ST",
        "placeName": "SCARBOROUGH",
        "streetNameDisplayText": "PERTHSHIRE ST, SCARBOROUGH"
      }
    ]
  },
  {
    "postal": "M1V3V7",
    "result": [
      {
        "electoralDistricts": [
          {
            "election": null,
            "id": 96,
            "name": "Scarborough North"
          }
        ],
        "pollDivisionIds": [
          10141698
        ],
        "postalCode": "M1V3V7",
        "streetName": "RAYNES",
        "streetDirectionId": null,
        "streetTypeId": "CRES",
        "placeName": "SCARBOROUGH",
        "streetNameDisplayText": "RAYNES CRES, SCARBOROUGH"
      }
    ]
  },
  {
    "postal": "M1V8Z1",
    "result": []
  },
  {
    "postal": "M1V7B3",
    "result": []
  },
  {
    "postal": "M1V3A8",
    "result": [
      {
        "electoralDistricts": [
          {
            "election": null,
            "id": 93,
            "name": "Scarborough—Agincourt"
          }
        ],
        "pollDivisionIds": [
          10141525
        ],
        "postalCode": "M1V3A8",
        "streetName": "PERTHSHIRE",
        "streetDirectionId": null,
        "streetTypeId": "ST",
        "placeName": "SCARBOROUGH",
        "streetNameDisplayText": "PERTHSHIRE ST, SCARBOROUGH"
      }
    ]
  },
  {
    "postal": "M1V7V5",
    "result": []
  },
  {
    "postal": "M1V2T2",
    "result": [
      {
        "electoralDistricts": [
          {
            "election": null,
            "id": 93,
            "name": "Scarborough—Agincourt"
          }
        ],
        "pollDivisionIds": [
          10141518
        ],
        "postalCode": "M1V2T2",
        "streetName": "KELVIN GROVE",
        "streetDirectionId": null,
        "streetTypeId": "AVE",
        "placeName": "SCARBOROUGH",
        "streetNameDisplayText": "KELVIN GROVE AVE, SCARBOROUGH"
      }
    ]
  },
  {
    "postal": "M1V6L3",
    "result": []
  },
  {
    "postal": "M1V0L2",
    "result": []
  },
  {
    "postal": "M1V5Y8",
    "result": []
  },
  {
    "postal": "M1V0B8",
    "result": [
      {
        "electoralDistricts": [
          {
            "election": null,
            "id": 93,
            "name": "Scarborough—Agincourt"
          }
        ],
        "pollDivisionIds": [
          10141525
        ],
        "postalCode": "M1V0B8",
        "streetName": "MIDLAND",
        "streetDirectionId": null,
        "streetTypeId": "AVE",
        "placeName": "SCARBOROUGH",
        "streetNameDisplayText": "MIDLAND AVE, SCARBOROUGH"
      }
    ]
  },
  {
    "postal": "M1V6R5",
    "result": []
  },
  {
    "postal": "M1V8W6",
    "result": []
  },
  {
    "postal": "M1V8G6",
    "result": []
  },
  {
    "postal": "M1V6X3",
    "result": []
  },
  {
    "postal": "M1V7R7",
    "result": []
  },
  {
    "postal": "M1V4B6",
    "result": [
      {
        "electoralDistricts": [
          {
            "election": null,
            "id": 96,
            "name": "Scarborough North"
          }
        ],
        "pollDivisionIds": [
          10141701
        ],
        "postalCode": "M1V4B6",
        "streetName": "MAYBROOK",
        "streetDirectionId": null,
        "streetTypeId": "DR",
        "placeName": "SCARBOROUGH",
        "streetNameDisplayText": "MAYBROOK DR, SCARBOROUGH"
      }
    ]
  },
  {
    "postal": "M1V3P9",
    "result": []
  },
  {
    "postal": "M1V2T3",
    "result": [
      {
        "electoralDistricts": [
          {
            "election": null,
            "id": 96,
            "name": "Scarborough North"
          }
        ],
        "pollDivisionIds": [
          10141706
        ],
        "postalCode": "M1V2T3",
        "streetName": "NASHDENE",
        "streetDirectionId": null,
        "streetTypeId": "RD",
        "placeName": "SCARBOROUGH",
        "streetNameDisplayText": "NASHDENE RD, SCARBOROUGH"
      }
    ]
  },
  {
    "postal": "M1V1M4",
    "result": [
      {
        "electoralDistricts": [
          {
            "election": null,
            "id": 96,
            "name": "Scarborough North"
          }
        ],
        "pollDivisionIds": [
          10141703
        ],
        "postalCode": "M1V1M4",
        "streetName": "HAVEN HILL",
        "streetDirectionId": null,
        "streetTypeId": "SQ",
        "placeName": "SCARBOROUGH",
        "streetNameDisplayText": "HAVEN HILL SQ, SCARBOROUGH"
      }
    ]
  },
  {
    "postal": "M1V0H1",
    "result": []
  },
  {
    "postal": "M1V9W3",
    "result": []
  },
  {
    "postal": "M1V6P1",
    "result": []
  },
  {
    "postal": "M1V7G2",
    "result": []
  },
  {
    "postal": "M1V4J9",
    "result": [
      {
        "electoralDistricts": [
          {
            "election": null,
            "id": 96,
            "name": "Scarborough North"
          }
        ],
        "pollDivisionIds": [
          10141698
        ],
        "postalCode": "M1V4J9",
        "streetName": "EAGLEDANCE",
        "streetDirectionId": null,
        "streetTypeId": "DR",
        "placeName": "SCARBOROUGH",
        "streetNameDisplayText": "EAGLEDANCE DR, SCARBOROUGH"
      },
      {
        "electoralDistricts": [
          {
            "election": null,
            "id": 96,
            "name": "Scarborough North"
          }
        ],
        "pollDivisionIds": [
          10141698
        ],
        "postalCode": "M1V4J9",
        "streetName": "GOLDHAWK",
        "streetDirectionId": null,
        "streetTypeId": "TRAIL",
        "placeName": "SCARBOROUGH",
        "streetNameDisplayText": "GOLDHAWK TRAIL, SCARBOROUGH"
      }
    ]
  },
  {
    "postal": "M1V9E4",
    "result": []
  },
  {
    "postal": "M1V8H0",
    "result": []
  },
  {
    "postal": "M1V4M7",
    "result": [
      {
        "electoralDistricts": [
          {
            "election": null,
            "id": 96,
            "name": "Scarborough North"
          }
        ],
        "pollDivisionIds": [
          10143245
        ],
        "postalCode": "M1V4M7",
        "streetName": "WHARTON",
        "streetDirectionId": null,
        "streetTypeId": "SQ",
        "placeName": "SCARBOROUGH",
        "streetNameDisplayText": "WHARTON SQ, SCARBOROUGH"
      }
    ]
  },
  {
    "postal": "M1V2G9",
    "result": [
      {
        "electoralDistricts": [
          {
            "election": null,
            "id": 96,
            "name": "Scarborough North"
          }
        ],
        "pollDivisionIds": [
          10141697
        ],
        "postalCode": "M1V2G9",
        "streetName": "PORT ROYAL",
        "streetDirectionId": null,
        "streetTypeId": "TRAIL",
        "placeName": "SCARBOROUGH",
        "streetNameDisplayText": "PORT ROYAL TRAIL, SCARBOROUGH"
      }
    ]
  },
  {
    "postal": "M1V8T2",
    "result": []
  },
  {
    "postal": "M1V7G7",
    "result": []
  },
  {
    "postal": "M1V4Z3",
    "result": [
      {
        "electoralDistricts": [
          {
            "election": null,
            "id": 96,
            "name": "Scarborough North"
          }
        ],
        "pollDivisionIds": [
          10141695
        ],
        "postalCode": "M1V4Z3",
        "streetName": "STEELES",
        "streetDirectionId": "E",
        "streetTypeId": "AVE",
        "placeName": "SCARBOROUGH",
        "streetNameDisplayText": "STEELES AVE E, SCARBOROUGH"
      }
    ]
  },
  {
    "postal": "M1V5B3",
    "result": [
      {
        "electoralDistricts": [
          {
            "election": null,
            "id": 96,
            "name": "Scarborough North"
          }
        ],
        "pollDivisionIds": [
          10141706
        ],
        "postalCode": "M1V5B3",
        "streetName": "MCNICOLL",
        "streetDirectionId": null,
        "streetTypeId": "AVE",
        "placeName": "SCARBOROUGH",
        "streetNameDisplayText": "MCNICOLL AVE, SCARBOROUGH"
      }
    ]
  },
  {
    "postal": "M1V1S7",
    "result": []
  },
  {
    "postal": "M1V2N7",
    "result": [
      {
        "electoralDistricts": [
          {
            "election": null,
            "id": 96,
            "name": "Scarborough North"
          }
        ],
        "pollDivisionIds": [
          10141706
        ],
        "postalCode": "M1V2N7",
        "streetName": "BETHANY LEIGH",
        "streetDirectionId": null,
        "streetTypeId": "DR",
        "placeName": "SCARBOROUGH",
        "streetNameDisplayText": "BETHANY LEIGH DR, SCARBOROUGH"
      }
    ]
  },
  {
    "postal": "M1V0H8",
    "result": []
  },
  {
    "postal": "M1V7Z4",
    "result": []
  },
  {
    "postal": "M1V7B1",
    "result": []
  },
  {
    "postal": "M1V7P8",
    "result": []
  },
  {
    "postal": "M1V7N0",
    "result": []
  },
  {
    "postal": "M1V3Y5",
    "result": []
  },
  {
    "postal": "M1V6K1",
    "result": []
  },
  {
    "postal": "M1V9X5",
    "result": []
  },
  {
    "postal": "M1V7S5",
    "result": []
  },
  {
    "postal": "M1V0A4",
    "result": [
      {
        "electoralDistricts": [
          {
            "election": null,
            "id": 93,
            "name": "Scarborough—Agincourt"
          }
        ],
        "pollDivisionIds": [
          10141518
        ],
        "postalCode": "M1V0A4",
        "streetName": "TOM WELLS",
        "streetDirectionId": null,
        "streetTypeId": "CRES",
        "placeName": "SCARBOROUGH",
        "streetNameDisplayText": "TOM WELLS CRES, SCARBOROUGH"
      }
    ]
  },
  {
    "postal": "M1V4T5",
    "result": [
      {
        "electoralDistricts": [
          {
            "election": null,
            "id": 93,
            "name": "Scarborough—Agincourt"
          }
        ],
        "pollDivisionIds": [
          10141519
        ],
        "postalCode": "M1V4T5",
        "streetName": "PASSMORE",
        "streetDirectionId": null,
        "streetTypeId": "AVE",
        "placeName": "SCARBOROUGH",
        "streetNameDisplayText": "PASSMORE AVE, SCARBOROUGH"
      }
    ]
  },
  {
    "postal": "M1V5K1",
    "result": [
      {
        "electoralDistricts": [
          {
            "election": null,
            "id": 96,
            "name": "Scarborough North"
          }
        ],
        "pollDivisionIds": [
          10141695
        ],
        "postalCode": "M1V5K1",
        "streetName": "STEELES",
        "streetDirectionId": "E",
        "streetTypeId": "AVE",
        "placeName": "SCARBOROUGH",
        "streetNameDisplayText": "STEELES AVE E, SCARBOROUGH"
      }
    ]
  },
  {
    "postal": "M1V0Z9",
    "result": []
  },
  {
    "postal": "M1V7T2",
    "result": []
  },
  {
    "postal": "M1V1L5",
    "result": [
      {
        "electoralDistricts": [
          {
            "election": null,
            "id": 96,
            "name": "Scarborough North"
          }
        ],
        "pollDivisionIds": [
          10141703
        ],
        "postalCode": "M1V1L5",
        "streetName": "EVANSVILLE",
        "streetDirectionId": null,
        "streetTypeId": "RD",
        "placeName": "SCARBOROUGH",
        "streetNameDisplayText": "EVANSVILLE RD, SCARBOROUGH"
      }
    ]
  },
  {
    "postal": "M1V3N5",
    "result": [
      {
        "electoralDistricts": [
          {
            "election": null,
            "id": 96,
            "name": "Scarborough North"
          }
        ],
        "pollDivisionIds": [
          10141703
        ],
        "postalCode": "M1V3N5",
        "streetName": "DANJOHN",
        "streetDirectionId": null,
        "streetTypeId": "CRES",
        "placeName": "SCARBOROUGH",
        "streetNameDisplayText": "DANJOHN CRES, SCARBOROUGH"
      }
    ]
  },
  {
    "postal": "M1V6H4",
    "result": []
  },
  {
    "postal": "M1V5A5",
    "result": [
      {
        "electoralDistricts": [
          {
            "election": null,
            "id": 96,
            "name": "Scarborough North"
          }
        ],
        "pollDivisionIds": [
          10141701
        ],
        "postalCode": "M1V5A5",
        "streetName": "DYNAMIC",
        "streetDirectionId": null,
        "streetTypeId": "DR",
        "placeName": "SCARBOROUGH",
        "streetNameDisplayText": "DYNAMIC DR, SCARBOROUGH"
      }
    ]
  },
  {
    "postal": "M1V3R9",
    "result": [
      {
        "electoralDistricts": [
          {
            "election": null,
            "id": 96,
            "name": "Scarborough North"
          }
        ],
        "pollDivisionIds": [
          10141706
        ],
        "postalCode": "M1V3R9",
        "streetName": "LANSBURY",
        "streetDirectionId": null,
        "streetTypeId": "DR",
        "placeName": "SCARBOROUGH",
        "streetNameDisplayText": "LANSBURY DR, SCARBOROUGH"
      }
    ]
  },
  {
    "postal": "M1V7L8",
    "result": []
  },
  {
    "postal": "M1V6T6",
    "result": []
  },
  {
    "postal": "M1V7Y7",
    "result": []
  },
  {
    "postal": "M1V3M8",
    "result": [
      {
        "electoralDistricts": [
          {
            "election": null,
            "id": 93,
            "name": "Scarborough—Agincourt"
          }
        ],
        "pollDivisionIds": [
          10141518
        ],
        "postalCode": "M1V3M8",
        "streetName": "SANWOOD",
        "streetDirectionId": null,
        "streetTypeId": "BLVD",
        "placeName": "SCARBOROUGH",
        "streetNameDisplayText": "SANWOOD BLVD, SCARBOROUGH"
      }
    ]
  },
  {
    "postal": "M1V2E0",
    "result": []
  },
  {
    "postal": "M1V4B5",
    "result": [
      {
        "electoralDistricts": [
          {
            "election": null,
            "id": 96,
            "name": "Scarborough North"
          }
        ],
        "pollDivisionIds": [
          10141700,
          10141701
        ],
        "postalCode": "M1V4B5",
        "streetName": "PASSMORE",
        "streetDirectionId": null,
        "streetTypeId": "AVE",
        "placeName": "SCARBOROUGH",
        "streetNameDisplayText": "PASSMORE AVE, SCARBOROUGH"
      }
    ]
  },
  {
    "postal": "M1V1J3",
    "result": [
      {
        "electoralDistricts": [
          {
            "election": null,
            "id": 96,
            "name": "Scarborough North"
          }
        ],
        "pollDivisionIds": [
          10141704
        ],
        "postalCode": "M1V1J3",
        "streetName": "BLUE EAGLE",
        "streetDirectionId": null,
        "streetTypeId": "TRAIL",
        "placeName": "SCARBOROUGH",
        "streetNameDisplayText": "BLUE EAGLE TRAIL, SCARBOROUGH"
      }
    ]
  },
  {
    "postal": "M1V5S6",
    "result": []
  },
  {
    "postal": "M1V8P7",
    "result": []
  },
  {
    "postal": "M1V7S7",
    "result": []
  },
  {
    "postal": "M1V4C2",
    "result": [
      {
        "electoralDistricts": [
          {
            "election": null,
            "id": 96,
            "name": "Scarborough North"
          }
        ],
        "pollDivisionIds": [
          10141706
        ],
        "postalCode": "M1V4C2",
        "streetName": "NASHDENE",
        "streetDirectionId": null,
        "streetTypeId": "RD",
        "placeName": "SCARBOROUGH",
        "streetNameDisplayText": "NASHDENE RD, SCARBOROUGH"
      }
    ]
  },
  {
    "postal": "M1V5Y0",
    "result": []
  },
  {
    "postal": "M1V2V7",
    "result": [
      {
        "electoralDistricts": [
          {
            "election": null,
            "id": 96,
            "name": "Scarborough North"
          }
        ],
        "pollDivisionIds": [
          10141706
        ],
        "postalCode": "M1V2V7",
        "streetName": "BETHANY LEIGH",
        "streetDirectionId": null,
        "streetTypeId": "DR",
        "placeName": "SCARBOROUGH",
        "streetNameDisplayText": "BETHANY LEIGH DR, SCARBOROUGH"
      }
    ]
  },
  {
    "postal": "M1V8P5",
    "result": []
  },
  {
    "postal": "M1V5P5",
    "result": [
      {
        "electoralDistricts": [
          {
            "election": null,
            "id": 96,
            "name": "Scarborough North"
          }
        ],
        "pollDivisionIds": [
          10141698
        ],
        "postalCode": "M1V5P5",
        "streetName": "MCCOWAN",
        "streetDirectionId": null,
        "streetTypeId": "RD",
        "placeName": "SCARBOROUGH",
        "streetNameDisplayText": "MCCOWAN RD, SCARBOROUGH"
      }
    ]
  },
  {
    "postal": "M1V5Z0",
    "result": []
  },
  {
    "postal": "M1V9B0",
    "result": []
  },
  {
    "postal": "M1V1L0",
    "result": []
  },
  {
    "postal": "M1V0B5",
    "result": [
      {
        "electoralDistricts": [
          {
            "election": null,
            "id": 93,
            "name": "Scarborough—Agincourt"
          }
        ],
        "pollDivisionIds": [
          10141543
        ],
        "postalCode": "M1V0B5",
        "streetName": "MCNICOLL",
        "streetDirectionId": null,
        "streetTypeId": "AVE",
        "placeName": "SCARBOROUGH",
        "streetNameDisplayText": "MCNICOLL AVE, SCARBOROUGH"
      }
    ]
  },
  {
    "postal": "M1V3L2",
    "result": [
      {
        "electoralDistricts": [
          {
            "election": null,
            "id": 96,
            "name": "Scarborough North"
          }
        ],
        "pollDivisionIds": [
          10141706
        ],
        "postalCode": "M1V3L2",
        "streetName": "BRIMSTONE",
        "streetDirectionId": null,
        "streetTypeId": "CRES",
        "placeName": "SCARBOROUGH",
        "streetNameDisplayText": "BRIMSTONE CRES, SCARBOROUGH"
      }
    ]
  },
  {
    "postal": "M1V3B7",
    "result": [
      {
        "electoralDistricts": [
          {
            "election": null,
            "id": 93,
            "name": "Scarborough—Agincourt"
          }
        ],
        "pollDivisionIds": [
          10141518
        ],
        "postalCode": "M1V3B7",
        "streetName": "CANONGATE",
        "streetDirectionId": null,
        "streetTypeId": "TRAIL",
        "placeName": "SCARBOROUGH",
        "streetNameDisplayText": "CANONGATE TRAIL, SCARBOROUGH"
      }
    ]
  },
  {
    "postal": "M1V8L1",
    "result": []
  },
  {
    "postal": "M1V5M4",
    "result": [
      {
        "electoralDistricts": [
          {
            "election": null,
            "id": 93,
            "name": "Scarborough—Agincourt"
          }
        ],
        "pollDivisionIds": [
          10141542
        ],
        "postalCode": "M1V5M4",
        "streetName": "KENNEDY",
        "streetDirectionId": null,
        "streetTypeId": "RD",
        "placeName": "SCARBOROUGH",
        "streetNameDisplayText": "KENNEDY RD, SCARBOROUGH"
      }
    ]
  },
  {
    "postal": "M1V4G9",
    "result": [
      {
        "electoralDistricts": [
          {
            "election": null,
            "id": 96,
            "name": "Scarborough North"
          }
        ],
        "pollDivisionIds": [
          10141698
        ],
        "postalCode": "M1V4G9",
        "streetName": "BARROWCLIFF",
        "streetDirectionId": null,
        "streetTypeId": "DR",
        "placeName": "SCARBOROUGH",
        "streetNameDisplayText": "BARROWCLIFF DR, SCARBOROUGH"
      }
    ]
  },
  {
    "postal": "M1V0P0",
    "result": []
  },
  {
    "postal": "M1V8G2",
    "result": []
  },
  {
    "postal": "M1V1V9",
    "result": [
      {
        "electoralDistricts": [
          {
            "election": null,
            "id": 96,
            "name": "Scarborough North"
          }
        ],
        "pollDivisionIds": [
          10141704
        ],
        "postalCode": "M1V1V9",
        "streetName": "BLUE EAGLE",
        "streetDirectionId": null,
        "streetTypeId": "TRAIL",
        "placeName": "SCARBOROUGH",
        "streetNameDisplayText": "BLUE EAGLE TRAIL, SCARBOROUGH"
      }
    ]
  },
  {
    "postal": "M1V8N8",
    "result": []
  },
  {
    "postal": "M1V6S8",
    "result": []
  },
  {
    "postal": "M1V8H2",
    "result": []
  },
  {
    "postal": "M1V5R8",
    "result": []
  },
  {
    "postal": "M1V5L4",
    "result": [
      {
        "electoralDistricts": [
          {
            "election": null,
            "id": 96,
            "name": "Scarborough North"
          }
        ],
        "pollDivisionIds": [
          10141729
        ],
        "postalCode": "M1V5L4",
        "streetName": "MCNICOLL",
        "streetDirectionId": null,
        "streetTypeId": "AVE",
        "placeName": "SCARBOROUGH",
        "streetNameDisplayText": "MCNICOLL AVE, SCARBOROUGH"
      }
    ]
  },
  {
    "postal": "M1V9E1",
    "result": []
  },
  {
    "postal": "M1V1C4",
    "result": [
      {
        "electoralDistricts": [
          {
            "election": null,
            "id": 96,
            "name": "Scarborough North"
          }
        ],
        "pollDivisionIds": [
          10143246
        ],
        "postalCode": "M1V1C4",
        "streetName": "BRIMWOOD",
        "streetDirectionId": null,
        "streetTypeId": "BLVD",
        "placeName": "SCARBOROUGH",
        "streetNameDisplayText": "BRIMWOOD BLVD, SCARBOROUGH"
      }
    ]
  },
  {
    "postal": "M1V8W5",
    "result": []
  },
  {
    "postal": "M1V1Y4",
    "result": [
      {
        "electoralDistricts": [
          {
            "election": null,
            "id": 96,
            "name": "Scarborough North"
          }
        ],
        "pollDivisionIds": [
          10143245
        ],
        "postalCode": "M1V1Y4",
        "streetName": "SADLEE COVE",
        "streetDirectionId": null,
        "streetTypeId": "CRES",
        "placeName": "SCARBOROUGH",
        "streetNameDisplayText": "SADLEE COVE CRES, SCARBOROUGH"
      }
    ]
  },
  {
    "postal": "M1V1C0",
    "result": []
  },
  {
    "postal": "M1V2J2",
    "result": [
      {
        "electoralDistricts": [
          {
            "election": null,
            "id": 96,
            "name": "Scarborough North"
          }
        ],
        "pollDivisionIds": [
          10141696
        ],
        "postalCode": "M1V2J2",
        "streetName": "WITHYCOMBE",
        "streetDirectionId": null,
        "streetTypeId": "CRES",
        "placeName": "SCARBOROUGH",
        "streetNameDisplayText": "WITHYCOMBE CRES, SCARBOROUGH"
      }
    ]
  },
  {
    "postal": "M1V2J0",
    "result": []
  },
  {
    "postal": "M1V7A3",
    "result": []
  },
  {
    "postal": "M1V8M1",
    "result": []
  },
  {
    "postal": "M1V7T9",
    "result": []
  },
  {
    "postal": "M1V6C0",
    "result": []
  },
  {
    "postal": "M1V7X1",
    "result": []
  },
  {
    "postal": "M1V0G1",
    "result": []
  },
  {
    "postal": "M1V4X2",
    "result": []
  },
  {
    "postal": "M1V0N6",
    "result": []
  },
  {
    "postal": "M1V8E3",
    "result": []
  },
  {
    "postal": "M1V5S8",
    "result": []
  },
  {
    "postal": "M1V0R0",
    "result": []
  },
  {
    "postal": "M1V6J6",
    "result": []
  },
  {
    "postal": "M1V4B4",
    "result": [
      {
        "electoralDistricts": [
          {
            "election": null,
            "id": 96,
            "name": "Scarborough North"
          }
        ],
        "pollDivisionIds": [
          10141700
        ],
        "postalCode": "M1V4B4",
        "streetName": "PASSMORE",
        "streetDirectionId": null,
        "streetTypeId": "AVE",
        "placeName": "SCARBOROUGH",
        "streetNameDisplayText": "PASSMORE AVE, SCARBOROUGH"
      }
    ]
  },
  {
    "postal": "M1V7E3",
    "result": []
  },
  {
    "postal": "M1V3N6",
    "result": [
      {
        "electoralDistricts": [
          {
            "election": null,
            "id": 96,
            "name": "Scarborough North"
          }
        ],
        "pollDivisionIds": [
          10141703
        ],
        "postalCode": "M1V3N6",
        "streetName": "MYRNA",
        "streetDirectionId": null,
        "streetTypeId": "LANE",
        "placeName": "SCARBOROUGH",
        "streetNameDisplayText": "MYRNA LANE, SCARBOROUGH"
      }
    ]
  },
  {
    "postal": "M1V3X6",
    "result": []
  },
  {
    "postal": "M1V8L0",
    "result": []
  },
  {
    "postal": "M1V8N1",
    "result": []
  },
  {
    "postal": "M1V4J0",
    "result": []
  },
  {
    "postal": "M1V0X7",
    "result": []
  },
  {
    "postal": "M1V6S4",
    "result": []
  },
  {
    "postal": "M1V0Z0",
    "result": []
  },
  {
    "postal": "M1V9X8",
    "result": []
  },
  {
    "postal": "M1V3H3",
    "result": []
  },
  {
    "postal": "M1V7S2",
    "result": []
  },
  {
    "postal": "M1V3T3",
    "result": [
      {
        "electoralDistricts": [
          {
            "election": null,
            "id": 96,
            "name": "Scarborough North"
          }
        ],
        "pollDivisionIds": [
          10141700
        ],
        "postalCode": "M1V3T3",
        "streetName": "ALTON TOWERS",
        "streetDirectionId": null,
        "streetTypeId": "CIR",
        "placeName": "SCARBOROUGH",
        "streetNameDisplayText": "ALTON TOWERS CIR, SCARBOROUGH"
      }
    ]
  },
  {
    "postal": "M1V9P3",
    "result": []
  },
  {
    "postal": "M1V4H8",
    "result": [
      {
        "electoralDistricts": [
          {
            "election": null,
            "id": 96,
            "name": "Scarborough North"
          }
        ],
        "pollDivisionIds": [
          10141698
        ],
        "postalCode": "M1V4H8",
        "streetName": "FLATWOODS",
        "streetDirectionId": null,
        "streetTypeId": "DR",
        "placeName": "SCARBOROUGH",
        "streetNameDisplayText": "FLATWOODS DR, SCARBOROUGH"
      }
    ]
  },
  {
    "postal": "M1V6R1",
    "result": []
  },
  {
    "postal": "M1V1S0",
    "result": []
  },
  {
    "postal": "M1V3W8",
    "result": [
      {
        "electoralDistricts": [
          {
            "election": null,
            "id": 96,
            "name": "Scarborough North"
          }
        ],
        "pollDivisionIds": [
          10141698
        ],
        "postalCode": "M1V3W8",
        "streetName": "GOLDHAWK",
        "streetDirectionId": null,
        "streetTypeId": "TRAIL",
        "placeName": "SCARBOROUGH",
        "streetNameDisplayText": "GOLDHAWK TRAIL, SCARBOROUGH"
      }
    ]
  },
  {
    "postal": "M1V4S3",
    "result": [
      {
        "electoralDistricts": [
          {
            "election": null,
            "id": 93,
            "name": "Scarborough—Agincourt"
          }
        ],
        "pollDivisionIds": [
          10141519
        ],
        "postalCode": "M1V4S3",
        "streetName": "REDLEA",
        "streetDirectionId": null,
        "streetTypeId": "AVE",
        "placeName": "SCARBOROUGH",
        "streetNameDisplayText": "REDLEA AVE, SCARBOROUGH"
      }
    ]
  },
  {
    "postal": "M1V1B6",
    "result": [
      {
        "electoralDistricts": [
          {
            "election": null,
            "id": 96,
            "name": "Scarborough North"
          }
        ],
        "pollDivisionIds": [
          10143246
        ],
        "postalCode": "M1V1B6",
        "streetName": "WELLPARK",
        "streetDirectionId": null,
        "streetTypeId": "BLVD",
        "placeName": "SCARBOROUGH",
        "streetNameDisplayText": "WELLPARK BLVD, SCARBOROUGH"
      }
    ]
  },
  {
    "postal": "M1V8R3",
    "result": []
  },
  {
    "postal": "M1V4V9",
    "result": [
      {
        "electoralDistricts": [
          {
            "election": null,
            "id": 93,
            "name": "Scarborough—Agincourt"
          }
        ],
        "pollDivisionIds": [
          10141525
        ],
        "postalCode": "M1V4V9",
        "streetName": "SILVER STAR",
        "streetDirectionId": null,
        "streetTypeId": "BLVD",
        "placeName": "SCARBOROUGH",
        "streetNameDisplayText": "SILVER STAR BLVD, SCARBOROUGH"
      }
    ]
  },
  {
    "postal": "M1V9W4",
    "result": []
  },
  {
    "postal": "M1V3T4",
    "result": [
      {
        "electoralDistricts": [
          {
            "election": null,
            "id": 93,
            "name": "Scarborough—Agincourt"
          }
        ],
        "pollDivisionIds": [
          10141518
        ],
        "postalCode": "M1V3T4",
        "streetName": "CANONGATE",
        "streetDirectionId": null,
        "streetTypeId": "TRAIL",
        "placeName": "SCARBOROUGH",
        "streetNameDisplayText": "CANONGATE TRAIL, SCARBOROUGH"
      }
    ]
  },
  {
    "postal": "M1V5C7",
    "result": [
      {
        "electoralDistricts": [
          {
            "election": null,
            "id": 96,
            "name": "Scarborough North"
          }
        ],
        "pollDivisionIds": [
          10141701
        ],
        "postalCode": "M1V5C7",
        "streetName": "DYNAMIC",
        "streetDirectionId": null,
        "streetTypeId": "DR",
        "placeName": "SCARBOROUGH",
        "streetNameDisplayText": "DYNAMIC DR, SCARBOROUGH"
      }
    ]
  },
  {
    "postal": "M1V3Y1",
    "result": [
      {
        "electoralDistricts": [
          {
            "election": null,
            "id": 96,
            "name": "Scarborough North"
          }
        ],
        "pollDivisionIds": [
          10141698
        ],
        "postalCode": "M1V3Y1",
        "streetName": "STRAWBERRY HILLS",
        "streetDirectionId": null,
        "streetTypeId": "DR",
        "placeName": "SCARBOROUGH",
        "streetNameDisplayText": "STRAWBERRY HILLS DR, SCARBOROUGH"
      }
    ]
  },
  {
    "postal": "M1V5V0",
    "result": []
  },
  {
    "postal": "M1V8G8",
    "result": []
  },
  {
    "postal": "M1V8B1",
    "result": []
  },
  {
    "postal": "M1V4P5",
    "result": [
      {
        "electoralDistricts": [
          {
            "election": null,
            "id": 96,
            "name": "Scarborough North"
          }
        ],
        "pollDivisionIds": [
          10141695
        ],
        "postalCode": "M1V4P5",
        "streetName": "HAMBLETON",
        "streetDirectionId": null,
        "streetTypeId": "CRT",
        "placeName": "SCARBOROUGH",
        "streetNameDisplayText": "HAMBLETON CRT, SCARBOROUGH"
      }
    ]
  },
  {
    "postal": "M1V7B2",
    "result": []
  },
  {
    "postal": "M1V0R2",
    "result": []
  },
  {
    "postal": "M1V4M4",
    "result": [
      {
        "electoralDistricts": [
          {
            "election": null,
            "id": 96,
            "name": "Scarborough North"
          }
        ],
        "pollDivisionIds": [
          10143245
        ],
        "postalCode": "M1V4M4",
        "streetName": "ALANBULL",
        "streetDirectionId": null,
        "streetTypeId": "SQ",
        "placeName": "SCARBOROUGH",
        "streetNameDisplayText": "ALANBULL SQ, SCARBOROUGH"
      }
    ]
  },
  {
    "postal": "M1V7M4",
    "result": []
  },
  {
    "postal": "M1V9S7",
    "result": []
  },
  {
    "postal": "M1V5Z7",
    "result": []
  },
  {
    "postal": "M1V7J7",
    "result": []
  },
  {
    "postal": "M1V8R8",
    "result": []
  },
  {
    "postal": "M1V9X1",
    "result": []
  },
  {
    "postal": "M1V5M9",
    "result": [
      {
        "electoralDistricts": [
          {
            "election": null,
            "id": 96,
            "name": "Scarborough North"
          }
        ],
        "pollDivisionIds": [
          10141706
        ],
        "postalCode": "M1V5M9",
        "streetName": "MCNICOLL",
        "streetDirectionId": null,
        "streetTypeId": "AVE",
        "placeName": "SCARBOROUGH",
        "streetNameDisplayText": "MCNICOLL AVE, SCARBOROUGH"
      }
    ]
  },
  {
    "postal": "M1V9B4",
    "result": []
  },
  {
    "postal": "M1V0L9",
    "result": []
  },
  {
    "postal": "M1V9G4",
    "result": []
  },
  {
    "postal": "M1V1J4",
    "result": [
      {
        "electoralDistricts": [
          {
            "election": null,
            "id": 96,
            "name": "Scarborough North"
          }
        ],
        "pollDivisionIds": [
          10141704
        ],
        "postalCode": "M1V1J4",
        "streetName": "BUSHMILLS",
        "streetDirectionId": null,
        "streetTypeId": "SQ",
        "placeName": "SCARBOROUGH",
        "streetNameDisplayText": "BUSHMILLS SQ, SCARBOROUGH"
      }
    ]
  },
  {
    "postal": "M1V0W6",
    "result": []
  }
]
