[
  {
    "postal": "N8S9J6",
    "result": []
  },
  {
    "postal": "N8S9Z5",
    "result": []
  },
  {
    "postal": "N8S7H8",
    "result": []
  },
  {
    "postal": "N8S0P6",
    "result": []
  },
  {
    "postal": "N8S0S7",
    "result": []
  },
  {
    "postal": "N8S8B9",
    "result": []
  },
  {
    "postal": "N8S2A6",
    "result": [
      {
        "electoralDistricts": [
          {
            "election": null,
            "id": 118,
            "name": "Windsor—Tecumseh"
          }
        ],
        "pollDivisionIds": [
          10142720
        ],
        "postalCode": "N8S2A6",
        "streetName": "EDGAR",
        "streetDirectionId": null,
        "streetTypeId": "ST",
        "placeName": "WINDSOR",
        "streetNameDisplayText": "EDGAR ST, WINDSOR"
      }
    ]
  },
  {
    "postal": "N8S7V2",
    "result": []
  },
  {
    "postal": "N8S9P4",
    "result": []
  },
  {
    "postal": "N8S6G0",
    "result": []
  },
  {
    "postal": "N8S2K0",
    "result": []
  },
  {
    "postal": "N8S7N6",
    "result": []
  },
  {
    "postal": "N8S5R3",
    "result": []
  },
  {
    "postal": "N8S7K0",
    "result": []
  },
  {
    "postal": "N8S3R2",
    "result": [
      {
        "electoralDistricts": [
          {
            "election": null,
            "id": 118,
            "name": "Windsor—Tecumseh"
          }
        ],
        "pollDivisionIds": [
          10142726
        ],
        "postalCode": "N8S3R2",
        "streetName": "LAPORTE",
        "streetDirectionId": null,
        "streetTypeId": "AVE",
        "placeName": "WINDSOR",
        "streetNameDisplayText": "LAPORTE AVE, WINDSOR"
      }
    ]
  },
  {
    "postal": "N8S0J1",
    "result": []
  },
  {
    "postal": "N8S0B0",
    "result": []
  },
  {
    "postal": "N8S5Z2",
    "result": []
  },
  {
    "postal": "N8S7P3",
    "result": []
  },
  {
    "postal": "N8S2K3",
    "result": [
      {
        "electoralDistricts": [
          {
            "election": null,
            "id": 118,
            "name": "Windsor—Tecumseh"
          }
        ],
        "pollDivisionIds": [
          10142720
        ],
        "postalCode": "N8S2K3",
        "streetName": "ST LOUIS",
        "streetDirectionId": null,
        "streetTypeId": "AVE",
        "placeName": "WINDSOR",
        "streetNameDisplayText": "ST LOUIS AVE, WINDSOR"
      }
    ]
  },
  {
    "postal": "N8S7Y6",
    "result": []
  },
  {
    "postal": "N8S1L9",
    "result": [
      {
        "electoralDistricts": [
          {
            "election": null,
            "id": 118,
            "name": "Windsor—Tecumseh"
          }
        ],
        "pollDivisionIds": [
          10142718
        ],
        "postalCode": "N8S1L9",
        "streetName": "WYANDOTTE",
        "streetDirectionId": "E",
        "streetTypeId": "ST",
        "placeName": "WINDSOR",
        "streetNameDisplayText": "WYANDOTTE ST E, WINDSOR"
      }
    ]
  },
  {
    "postal": "N8S8T0",
    "result": []
  },
  {
    "postal": "N8S3K8",
    "result": [
      {
        "electoralDistricts": [
          {
            "election": null,
            "id": 118,
            "name": "Windsor—Tecumseh"
          }
        ],
        "pollDivisionIds": [
          10142726
        ],
        "postalCode": "N8S3K8",
        "streetName": "ST PAUL",
        "streetDirectionId": null,
        "streetTypeId": "AVE",
        "placeName": "WINDSOR",
        "streetNameDisplayText": "ST PAUL AVE, WINDSOR"
      }
    ]
  },
  {
    "postal": "N8S5W9",
    "result": []
  },
  {
    "postal": "N8S6T9",
    "result": []
  },
  {
    "postal": "N8S4H1",
    "result": [
      {
        "electoralDistricts": [
          {
            "election": null,
            "id": 118,
            "name": "Windsor—Tecumseh"
          }
        ],
        "pollDivisionIds": [
          10142728
        ],
        "postalCode": "N8S4H1",
        "streetName": "COPPERFIELD",
        "streetDirectionId": null,
        "streetTypeId": "PL",
        "placeName": "WINDSOR",
        "streetNameDisplayText": "COPPERFIELD PL, WINDSOR"
      }
    ]
  },
  {
    "postal": "N8S7A2",
    "result": []
  },
  {
    "postal": "N8S5G0",
    "result": []
  },
  {
    "postal": "N8S8V5",
    "result": []
  },
  {
    "postal": "N8S2Y8",
    "result": [
      {
        "electoralDistricts": [
          {
            "election": null,
            "id": 118,
            "name": "Windsor—Tecumseh"
          }
        ],
        "pollDivisionIds": [
          10142725
        ],
        "postalCode": "N8S2Y8",
        "streetName": "VIRGINIA",
        "streetDirectionId": null,
        "streetTypeId": "AVE",
        "placeName": "WINDSOR",
        "streetNameDisplayText": "VIRGINIA AVE, WINDSOR"
      }
    ]
  },
  {
    "postal": "N8S2B6",
    "result": [
      {
        "electoralDistricts": [
          {
            "election": null,
            "id": 118,
            "name": "Windsor—Tecumseh"
          }
        ],
        "pollDivisionIds": [
          10142727
        ],
        "postalCode": "N8S2B6",
        "streetName": "LITTLE RIVER",
        "streetDirectionId": null,
        "streetTypeId": "RD",
        "placeName": "WINDSOR",
        "streetNameDisplayText": "LITTLE RIVER RD, WINDSOR"
      }
    ]
  },
  {
    "postal": "N8S4W8",
    "result": []
  },
  {
    "postal": "N8S8H7",
    "result": []
  },
  {
    "postal": "N8S5P1",
    "result": []
  },
  {
    "postal": "N8S2B8",
    "result": [
      {
        "electoralDistricts": [
          {
            "election": null,
            "id": 118,
            "name": "Windsor—Tecumseh"
          }
        ],
        "pollDivisionIds": [
          10142725
        ],
        "postalCode": "N8S2B8",
        "streetName": "MCHUGH",
        "streetDirectionId": null,
        "streetTypeId": "ST",
        "placeName": "WINDSOR",
        "streetNameDisplayText": "MCHUGH ST, WINDSOR"
      }
    ]
  },
  {
    "postal": "N8S0P2",
    "result": []
  },
  {
    "postal": "N8S9M1",
    "result": []
  },
  {
    "postal": "N8S3G0",
    "result": []
  },
  {
    "postal": "N8S9Z2",
    "result": []
  },
  {
    "postal": "N8S2A0",
    "result": []
  },
  {
    "postal": "N8S6Y0",
    "result": []
  },
  {
    "postal": "N8S2Z8",
    "result": [
      {
        "electoralDistricts": [
          {
            "election": null,
            "id": 119,
            "name": "Windsor West"
          },
          {
            "election": null,
            "id": 118,
            "name": "Windsor—Tecumseh"
          }
        ],
        "pollDivisionIds": [
          10142785,
          10142724
        ],
        "postalCode": "N8S2Z8",
        "streetName": "EDWARD",
        "streetDirectionId": null,
        "streetTypeId": "AVE",
        "placeName": "WINDSOR",
        "streetNameDisplayText": "EDWARD AVE, WINDSOR"
      }
    ]
  },
  {
    "postal": "N8S7Y3",
    "result": []
  },
  {
    "postal": "N8S6Z5",
    "result": []
  },
  {
    "postal": "N8S6E0",
    "result": []
  },
  {
    "postal": "N8S9B7",
    "result": []
  },
  {
    "postal": "N8S9S5",
    "result": []
  },
  {
    "postal": "N8S3X3",
    "result": [
      {
        "electoralDistricts": [
          {
            "election": null,
            "id": 118,
            "name": "Windsor—Tecumseh"
          }
        ],
        "pollDivisionIds": [
          10142727
        ],
        "postalCode": "N8S3X3",
        "streetName": "CHRISTOPHER",
        "streetDirectionId": null,
        "streetTypeId": "DR",
        "placeName": "WINDSOR",
        "streetNameDisplayText": "CHRISTOPHER DR, WINDSOR"
      }
    ]
  },
  {
    "postal": "N8S7R5",
    "result": []
  },
  {
    "postal": "N8S2X3",
    "result": [
      {
        "electoralDistricts": [
          {
            "election": null,
            "id": 118,
            "name": "Windsor—Tecumseh"
          }
        ],
        "pollDivisionIds": [
          10142725
        ],
        "postalCode": "N8S2X3",
        "streetName": "COVENTRY",
        "streetDirectionId": null,
        "streetTypeId": "CRT",
        "placeName": "WINDSOR",
        "streetNameDisplayText": "COVENTRY CRT, WINDSOR"
      }
    ]
  },
  {
    "postal": "N8S8Z9",
    "result": []
  },
  {
    "postal": "N8S0N4",
    "result": []
  },
  {
    "postal": "N8S1K1",
    "result": [
      {
        "electoralDistricts": [
          {
            "election": null,
            "id": 118,
            "name": "Windsor—Tecumseh"
          }
        ],
        "pollDivisionIds": [
          10142726
        ],
        "postalCode": "N8S1K1",
        "streetName": "CEDARVIEW",
        "streetDirectionId": null,
        "streetTypeId": "ST",
        "placeName": "WINDSOR",
        "streetNameDisplayText": "CEDARVIEW ST, WINDSOR"
      }
    ]
  },
  {
    "postal": "N8S1S3",
    "result": [
      {
        "electoralDistricts": [
          {
            "election": null,
            "id": 118,
            "name": "Windsor—Tecumseh"
          }
        ],
        "pollDivisionIds": [
          10142724
        ],
        "postalCode": "N8S1S3",
        "streetName": "WYANDOTTE",
        "streetDirectionId": "E",
        "streetTypeId": "ST",
        "placeName": "WINDSOR",
        "streetNameDisplayText": "WYANDOTTE ST E, WINDSOR"
      }
    ]
  },
  {
    "postal": "N8S6M4",
    "result": []
  },
  {
    "postal": "N8S9A9",
    "result": []
  },
  {
    "postal": "N8S9Z9",
    "result": []
  },
  {
    "postal": "N8S6T4",
    "result": []
  },
  {
    "postal": "N8S0B2",
    "result": []
  },
  {
    "postal": "N8S2L9",
    "result": [
      {
        "electoralDistricts": [
          {
            "election": null,
            "id": 118,
            "name": "Windsor—Tecumseh"
          }
        ],
        "pollDivisionIds": [
          10142720
        ],
        "postalCode": "N8S2L9",
        "streetName": "REEDMERE",
        "streetDirectionId": null,
        "streetTypeId": "RD",
        "placeName": "WINDSOR",
        "streetNameDisplayText": "REEDMERE RD, WINDSOR"
      }
    ]
  },
  {
    "postal": "N8S8K9",
    "result": []
  },
  {
    "postal": "N8S2H9",
    "result": [
      {
        "electoralDistricts": [
          {
            "election": null,
            "id": 118,
            "name": "Windsor—Tecumseh"
          }
        ],
        "pollDivisionIds": [
          10142718
        ],
        "postalCode": "N8S2H9",
        "streetName": "PRADO",
        "streetDirectionId": null,
        "streetTypeId": "PL",
        "placeName": "WINDSOR",
        "streetNameDisplayText": "PRADO PL, WINDSOR"
      }
    ]
  },
  {
    "postal": "N8S3Z6",
    "result": [
      {
        "electoralDistricts": [
          {
            "election": null,
            "id": 118,
            "name": "Windsor—Tecumseh"
          }
        ],
        "pollDivisionIds": [
          10142727
        ],
        "postalCode": "N8S3Z6",
        "streetName": "RHOLAINE",
        "streetDirectionId": null,
        "streetTypeId": "DR",
        "placeName": "WINDSOR",
        "streetNameDisplayText": "RHOLAINE DR, WINDSOR"
      }
    ]
  },
  {
    "postal": "N8S3B0",
    "result": []
  },
  {
    "postal": "N8S2H8",
    "result": [
      {
        "electoralDistricts": [
          {
            "election": null,
            "id": 118,
            "name": "Windsor—Tecumseh"
          }
        ],
        "pollDivisionIds": [
          10142718
        ],
        "postalCode": "N8S2H8",
        "streetName": "PRADO",
        "streetDirectionId": null,
        "streetTypeId": "PL",
        "placeName": "WINDSOR",
        "streetNameDisplayText": "PRADO PL, WINDSOR"
      }
    ]
  },
  {
    "postal": "N8S3X2",
    "result": [
      {
        "electoralDistricts": [
          {
            "election": null,
            "id": 118,
            "name": "Windsor—Tecumseh"
          }
        ],
        "pollDivisionIds": [
          10142726
        ],
        "postalCode": "N8S3X2",
        "streetName": "CHRISTOPHER",
        "streetDirectionId": null,
        "streetTypeId": "DR",
        "placeName": "WINDSOR",
        "streetNameDisplayText": "CHRISTOPHER DR, WINDSOR"
      }
    ]
  },
  {
    "postal": "N8S2E9",
    "result": [
      {
        "electoralDistricts": [
          {
            "election": null,
            "id": 118,
            "name": "Windsor—Tecumseh"
          }
        ],
        "pollDivisionIds": [
          10142718
        ],
        "postalCode": "N8S2E9",
        "streetName": "FORD",
        "streetDirectionId": null,
        "streetTypeId": "BLVD",
        "placeName": "WINDSOR",
        "streetNameDisplayText": "FORD BLVD, WINDSOR"
      }
    ]
  },
  {
    "postal": "N8S9P6",
    "result": []
  },
  {
    "postal": "N8S9E2",
    "result": []
  },
  {
    "postal": "N8S9H2",
    "result": []
  },
  {
    "postal": "N8S1S8",
    "result": [
      {
        "electoralDistricts": [
          {
            "election": null,
            "id": 118,
            "name": "Windsor—Tecumseh"
          }
        ],
        "pollDivisionIds": [
          10142726
        ],
        "postalCode": "N8S1S8",
        "streetName": "WYANDOTTE",
        "streetDirectionId": "E",
        "streetTypeId": "ST",
        "placeName": "WINDSOR",
        "streetNameDisplayText": "WYANDOTTE ST E, WINDSOR"
      }
    ]
  },
  {
    "postal": "N8S3M6",
    "result": [
      {
        "electoralDistricts": [
          {
            "election": null,
            "id": 118,
            "name": "Windsor—Tecumseh"
          }
        ],
        "pollDivisionIds": [
          10142727
        ],
        "postalCode": "N8S3M6",
        "streetName": "LAUZON",
        "streetDirectionId": null,
        "streetTypeId": "RD",
        "placeName": "WINDSOR",
        "streetNameDisplayText": "LAUZON RD, WINDSOR"
      }
    ]
  },
  {
    "postal": "N8S6Z8",
    "result": []
  },
  {
    "postal": "N8S4J2",
    "result": [
      {
        "electoralDistricts": [
          {
            "election": null,
            "id": 118,
            "name": "Windsor—Tecumseh"
          }
        ],
        "pollDivisionIds": [
          10142728
        ],
        "postalCode": "N8S4J2",
        "streetName": "FOXHILL",
        "streetDirectionId": null,
        "streetTypeId": "CRT",
        "placeName": "WINDSOR",
        "streetNameDisplayText": "FOXHILL CRT, WINDSOR"
      }
    ]
  },
  {
    "postal": "N8S9Y1",
    "result": []
  },
  {
    "postal": "N8S8V6",
    "result": []
  },
  {
    "postal": "N8S6B2",
    "result": []
  },
  {
    "postal": "N8S1P8",
    "result": [
      {
        "electoralDistricts": [
          {
            "election": null,
            "id": 118,
            "name": "Windsor—Tecumseh"
          }
        ],
        "pollDivisionIds": [
          10142724
        ],
        "postalCode": "N8S1P8",
        "streetName": "WYANDOTTE",
        "streetDirectionId": "E",
        "streetTypeId": "ST",
        "placeName": "WINDSOR",
        "streetNameDisplayText": "WYANDOTTE ST E, WINDSOR"
      }
    ]
  },
  {
    "postal": "N8S0V8",
    "result": []
  },
  {
    "postal": "N8S4Y0",
    "result": []
  },
  {
    "postal": "N8S2T4",
    "result": [
      {
        "electoralDistricts": [
          {
            "election": null,
            "id": 118,
            "name": "Windsor—Tecumseh"
          }
        ],
        "pollDivisionIds": [
          10142724
        ],
        "postalCode": "N8S2T4",
        "streetName": "HOMEDALE",
        "streetDirectionId": null,
        "streetTypeId": "BLVD",
        "placeName": "WINDSOR",
        "streetNameDisplayText": "HOMEDALE BLVD, WINDSOR"
      }
    ]
  },
  {
    "postal": "N8S2S3",
    "result": [
      {
        "electoralDistricts": [
          {
            "election": null,
            "id": 118,
            "name": "Windsor—Tecumseh"
          }
        ],
        "pollDivisionIds": [
          10142720
        ],
        "postalCode": "N8S2S3",
        "streetName": "GARDEN COURT",
        "streetDirectionId": null,
        "streetTypeId": "DR",
        "placeName": "WINDSOR",
        "streetNameDisplayText": "GARDEN COURT DR, WINDSOR"
      }
    ]
  },
  {
    "postal": "N8S0K0",
    "result": []
  },
  {
    "postal": "N8S5N1",
    "result": []
  },
  {
    "postal": "N8S7T0",
    "result": []
  },
  {
    "postal": "N8S9N2",
    "result": []
  },
  {
    "postal": "N8S5L1",
    "result": []
  },
  {
    "postal": "N8S7G5",
    "result": []
  },
  {
    "postal": "N8S6K2",
    "result": []
  },
  {
    "postal": "N8S6P9",
    "result": []
  },
  {
    "postal": "N8S0E6",
    "result": []
  },
  {
    "postal": "N8S8R9",
    "result": []
  },
  {
    "postal": "N8S3G9",
    "result": [
      {
        "electoralDistricts": [
          {
            "election": null,
            "id": 118,
            "name": "Windsor—Tecumseh"
          }
        ],
        "pollDivisionIds": [
          10142726
        ],
        "postalCode": "N8S3G9",
        "streetName": "EASTLAWN",
        "streetDirectionId": null,
        "streetTypeId": "AVE",
        "placeName": "WINDSOR",
        "streetNameDisplayText": "EASTLAWN AVE, WINDSOR"
      }
    ]
  },
  {
    "postal": "N8S0V7",
    "result": []
  },
  {
    "postal": "N8S2Z1",
    "result": [
      {
        "electoralDistricts": [
          {
            "election": null,
            "id": 118,
            "name": "Windsor—Tecumseh"
          }
        ],
        "pollDivisionIds": [
          10142725
        ],
        "postalCode": "N8S2Z1",
        "streetName": "VIRGINIA",
        "streetDirectionId": null,
        "streetTypeId": "AVE",
        "placeName": "WINDSOR",
        "streetNameDisplayText": "VIRGINIA AVE, WINDSOR"
      }
    ]
  },
  {
    "postal": "N8S7N1",
    "result": []
  },
  {
    "postal": "N8S3C6",
    "result": [
      {
        "electoralDistricts": [
          {
            "election": null,
            "id": 118,
            "name": "Windsor—Tecumseh"
          }
        ],
        "pollDivisionIds": [
          10142726
        ],
        "postalCode": "N8S3C6",
        "streetName": "FAIRVIEW",
        "streetDirectionId": null,
        "streetTypeId": "BLVD",
        "placeName": "WINDSOR",
        "streetNameDisplayText": "FAIRVIEW BLVD, WINDSOR"
      }
    ]
  },
  {
    "postal": "N8S4M1",
    "result": [
      {
        "electoralDistricts": [
          {
            "election": null,
            "id": 118,
            "name": "Windsor—Tecumseh"
          }
        ],
        "pollDivisionIds": [
          10142728
        ],
        "postalCode": "N8S4M1",
        "streetName": "DARLINGTON",
        "streetDirectionId": null,
        "streetTypeId": "CRT",
        "placeName": "WINDSOR",
        "streetNameDisplayText": "DARLINGTON CRT, WINDSOR"
      }
    ]
  },
  {
    "postal": "N8S9K2",
    "result": []
  },
  {
    "postal": "N8S9S6",
    "result": []
  },
  {
    "postal": "N8S4X1",
    "result": []
  },
  {
    "postal": "N8S8W2",
    "result": []
  },
  {
    "postal": "N8S7N2",
    "result": []
  },
  {
    "postal": "N8S8S3",
    "result": []
  },
  {
    "postal": "N8S4V0",
    "result": []
  },
  {
    "postal": "N8S6W4",
    "result": []
  },
  {
    "postal": "N8S5M1",
    "result": []
  },
  {
    "postal": "N8S0S4",
    "result": []
  },
  {
    "postal": "N8S5X6",
    "result": []
  },
  {
    "postal": "N8S8L5",
    "result": []
  },
  {
    "postal": "N8S5M8",
    "result": []
  },
  {
    "postal": "N8S2G3",
    "result": [
      {
        "electoralDistricts": [
          {
            "election": null,
            "id": 118,
            "name": "Windsor—Tecumseh"
          }
        ],
        "pollDivisionIds": [
          10142718
        ],
        "postalCode": "N8S2G3",
        "streetName": "THOMPSON",
        "streetDirectionId": null,
        "streetTypeId": "BLVD",
        "placeName": "WINDSOR",
        "streetNameDisplayText": "THOMPSON BLVD, WINDSOR"
      }
    ]
  },
  {
    "postal": "N8S8E4",
    "result": []
  },
  {
    "postal": "N8S7S9",
    "result": []
  },
  {
    "postal": "N8S1K3",
    "result": [
      {
        "electoralDistricts": [
          {
            "election": null,
            "id": 118,
            "name": "Windsor—Tecumseh"
          }
        ],
        "pollDivisionIds": [
          10142726
        ],
        "postalCode": "N8S1K3",
        "streetName": "CEDARVIEW",
        "streetDirectionId": null,
        "streetTypeId": "ST",
        "placeName": "WINDSOR",
        "streetNameDisplayText": "CEDARVIEW ST, WINDSOR"
      }
    ]
  },
  {
    "postal": "N8S4E1",
    "result": [
      {
        "electoralDistricts": [
          {
            "election": null,
            "id": 118,
            "name": "Windsor—Tecumseh"
          }
        ],
        "pollDivisionIds": [
          10142728
        ],
        "postalCode": "N8S4E1",
        "streetName": "ABBEY",
        "streetDirectionId": null,
        "streetTypeId": "CRT",
        "placeName": "WINDSOR",
        "streetNameDisplayText": "ABBEY CRT, WINDSOR"
      }
    ]
  },
  {
    "postal": "N8S4R2",
    "result": [
      {
        "electoralDistricts": [
          {
            "election": null,
            "id": 118,
            "name": "Windsor—Tecumseh"
          }
        ],
        "pollDivisionIds": [
          10142724
        ],
        "postalCode": "N8S4R2",
        "streetName": "EDGAR",
        "streetDirectionId": null,
        "streetTypeId": "ST",
        "placeName": "WINDSOR",
        "streetNameDisplayText": "EDGAR ST, WINDSOR"
      }
    ]
  },
  {
    "postal": "N8S6T0",
    "result": []
  },
  {
    "postal": "N8S3K5",
    "result": [
      {
        "electoralDistricts": [
          {
            "election": null,
            "id": 118,
            "name": "Windsor—Tecumseh"
          }
        ],
        "pollDivisionIds": [
          10142725
        ],
        "postalCode": "N8S3K5",
        "streetName": "MATTHEW BRADY",
        "streetDirectionId": null,
        "streetTypeId": "BLVD",
        "placeName": "WINDSOR",
        "streetNameDisplayText": "MATTHEW BRADY BLVD, WINDSOR"
      }
    ]
  },
  {
    "postal": "N8S3S3",
    "result": [
      {
        "electoralDistricts": [
          {
            "election": null,
            "id": 118,
            "name": "Windsor—Tecumseh"
          }
        ],
        "pollDivisionIds": [
          10142726
        ],
        "postalCode": "N8S3S3",
        "streetName": "WATSON",
        "streetDirectionId": null,
        "streetTypeId": "AVE",
        "placeName": "WINDSOR",
        "streetNameDisplayText": "WATSON AVE, WINDSOR"
      }
    ]
  },
  {
    "postal": "N8S3L4",
    "result": [
      {
        "electoralDistricts": [
          {
            "election": null,
            "id": 118,
            "name": "Windsor—Tecumseh"
          }
        ],
        "pollDivisionIds": [
          10142726
        ],
        "postalCode": "N8S3L4",
        "streetName": "ST PAUL",
        "streetDirectionId": null,
        "streetTypeId": "AVE",
        "placeName": "WINDSOR",
        "streetNameDisplayText": "ST PAUL AVE, WINDSOR"
      },
      {
        "electoralDistricts": [
          {
            "election": null,
            "id": 118,
            "name": "Windsor—Tecumseh"
          }
        ],
        "pollDivisionIds": [
          10142726
        ],
        "postalCode": "N8S3L4",
        "streetName": "ST. PAUL",
        "streetDirectionId": null,
        "streetTypeId": "AVE",
        "placeName": "WINDSOR",
        "streetNameDisplayText": "ST. PAUL AVE, WINDSOR"
      }
    ]
  },
  {
    "postal": "N8S9Y2",
    "result": []
  },
  {
    "postal": "N8S1E0",
    "result": []
  },
  {
    "postal": "N8S9A4",
    "result": []
  },
  {
    "postal": "N8S1L3",
    "result": [
      {
        "electoralDistricts": [
          {
            "election": null,
            "id": 118,
            "name": "Windsor—Tecumseh"
          }
        ],
        "pollDivisionIds": [
          10142718
        ],
        "postalCode": "N8S1L3",
        "streetName": "WYANDOTTE",
        "streetDirectionId": "E",
        "streetTypeId": "ST",
        "placeName": "WINDSOR",
        "streetNameDisplayText": "WYANDOTTE ST E, WINDSOR"
      }
    ]
  },
  {
    "postal": "N8S6N1",
    "result": []
  },
  {
    "postal": "N8S6G7",
    "result": []
  },
  {
    "postal": "N8S7W1",
    "result": []
  },
  {
    "postal": "N8S4M6",
    "result": [
      {
        "electoralDistricts": [
          {
            "election": null,
            "id": 118,
            "name": "Windsor—Tecumseh"
          }
        ],
        "pollDivisionIds": [
          10142728
        ],
        "postalCode": "N8S4M6",
        "streetName": "DARLINGTON",
        "streetDirectionId": null,
        "streetTypeId": "CRES",
        "placeName": "WINDSOR",
        "streetNameDisplayText": "DARLINGTON CRES, WINDSOR"
      }
    ]
  },
  {
    "postal": "N8S1K0",
    "result": []
  },
  {
    "postal": "N8S3E2",
    "result": [
      {
        "electoralDistricts": [
          {
            "election": null,
            "id": 118,
            "name": "Windsor—Tecumseh"
          }
        ],
        "pollDivisionIds": [
          10142724
        ],
        "postalCode": "N8S3E2",
        "streetName": "FAIRVIEW",
        "streetDirectionId": null,
        "streetTypeId": "BLVD",
        "placeName": "WINDSOR",
        "streetNameDisplayText": "FAIRVIEW BLVD, WINDSOR"
      }
    ]
  },
  {
    "postal": "N8S5H4",
    "result": []
  },
  {
    "postal": "N8S1K7",
    "result": [
      {
        "electoralDistricts": [
          {
            "election": null,
            "id": 118,
            "name": "Windsor—Tecumseh"
          }
        ],
        "pollDivisionIds": [
          10142726
        ],
        "postalCode": "N8S1K7",
        "streetName": "CEDARVIEW",
        "streetDirectionId": null,
        "streetTypeId": "ST",
        "placeName": "WINDSOR",
        "streetNameDisplayText": "CEDARVIEW ST, WINDSOR"
      }
    ]
  },
  {
    "postal": "N8S0H0",
    "result": []
  },
  {
    "postal": "N8S0J3",
    "result": []
  },
  {
    "postal": "N8S1X6",
    "result": [
      {
        "electoralDistricts": [
          {
            "election": null,
            "id": 118,
            "name": "Windsor—Tecumseh"
          }
        ],
        "pollDivisionIds": [
          10142724
        ],
        "postalCode": "N8S1X6",
        "streetName": "ST ROSE",
        "streetDirectionId": null,
        "streetTypeId": "AVE",
        "placeName": "WINDSOR",
        "streetNameDisplayText": "ST ROSE AVE, WINDSOR"
      }
    ]
  },
  {
    "postal": "N8S2Z6",
    "result": [
      {
        "electoralDistricts": [
          {
            "election": null,
            "id": 118,
            "name": "Windsor—Tecumseh"
          }
        ],
        "pollDivisionIds": [
          10142724
        ],
        "postalCode": "N8S2Z6",
        "streetName": "EDWARD",
        "streetDirectionId": null,
        "streetTypeId": "AVE",
        "placeName": "WINDSOR",
        "streetNameDisplayText": "EDWARD AVE, WINDSOR"
      }
    ]
  },
  {
    "postal": "N8S4R9",
    "result": [
      {
        "electoralDistricts": [
          {
            "election": null,
            "id": 118,
            "name": "Windsor—Tecumseh"
          }
        ],
        "pollDivisionIds": [
          10142725
        ],
        "postalCode": "N8S4R9",
        "streetName": "ISABELLE",
        "streetDirectionId": null,
        "streetTypeId": "PL",
        "placeName": "WINDSOR",
        "streetNameDisplayText": "ISABELLE PL, WINDSOR"
      }
    ]
  },
  {
    "postal": "N8S0W8",
    "result": []
  },
  {
    "postal": "N8S1L4",
    "result": [
      {
        "electoralDistricts": [
          {
            "election": null,
            "id": 118,
            "name": "Windsor—Tecumseh"
          }
        ],
        "pollDivisionIds": [
          10142718
        ],
        "postalCode": "N8S1L4",
        "streetName": "WYANDOTTE",
        "streetDirectionId": "E",
        "streetTypeId": "ST",
        "placeName": "WINDSOR",
        "streetNameDisplayText": "WYANDOTTE ST E, WINDSOR"
      }
    ]
  },
  {
    "postal": "N8S0C8",
    "result": []
  },
  {
    "postal": "N8S9X7",
    "result": []
  },
  {
    "postal": "N8S4T1",
    "result": [
      {
        "electoralDistricts": [
          {
            "election": null,
            "id": 118,
            "name": "Windsor—Tecumseh"
          }
        ],
        "pollDivisionIds": [
          10142725
        ],
        "postalCode": "N8S4T1",
        "streetName": "LAUZON",
        "streetDirectionId": null,
        "streetTypeId": "RD",
        "placeName": "WINDSOR",
        "streetNameDisplayText": "LAUZON RD, WINDSOR"
      }
    ]
  },
  {
    "postal": "N8S0M0",
    "result": []
  },
  {
    "postal": "N8S6A2",
    "result": []
  },
  {
    "postal": "N8S9S8",
    "result": []
  },
  {
    "postal": "N8S9T4",
    "result": []
  },
  {
    "postal": "N8S9Y4",
    "result": []
  },
  {
    "postal": "N8S6G5",
    "result": []
  },
  {
    "postal": "N8S6H9",
    "result": []
  },
  {
    "postal": "N8S2P3",
    "result": [
      {
        "electoralDistricts": [
          {
            "election": null,
            "id": 118,
            "name": "Windsor—Tecumseh"
          }
        ],
        "pollDivisionIds": [
          10142720
        ],
        "postalCode": "N8S2P3",
        "streetName": "GLIDDEN",
        "streetDirectionId": null,
        "streetTypeId": "AVE",
        "placeName": "WINDSOR",
        "streetNameDisplayText": "GLIDDEN AVE, WINDSOR"
      }
    ]
  },
  {
    "postal": "N8S1T6",
    "result": [
      {
        "electoralDistricts": [
          {
            "election": null,
            "id": 118,
            "name": "Windsor—Tecumseh"
          }
        ],
        "pollDivisionIds": [
          10142726
        ],
        "postalCode": "N8S1T6",
        "streetName": "WYANDOTTE",
        "streetDirectionId": "E",
        "streetTypeId": "ST",
        "placeName": "WINDSOR",
        "streetNameDisplayText": "WYANDOTTE ST E, WINDSOR"
      }
    ]
  },
  {
    "postal": "N8S4P6",
    "result": [
      {
        "electoralDistricts": [
          {
            "election": null,
            "id": 118,
            "name": "Windsor—Tecumseh"
          }
        ],
        "pollDivisionIds": [
          10142760
        ],
        "postalCode": "N8S4P6",
        "streetName": "LAUZON",
        "streetDirectionId": null,
        "streetTypeId": "RD",
        "placeName": "WINDSOR",
        "streetNameDisplayText": "LAUZON RD, WINDSOR"
      }
    ]
  },
  {
    "postal": "N8S3K1",
    "result": [
      {
        "electoralDistricts": [
          {
            "election": null,
            "id": 118,
            "name": "Windsor—Tecumseh"
          }
        ],
        "pollDivisionIds": [
          10142727
        ],
        "postalCode": "N8S3K1",
        "streetName": "MATTHEW BRADY",
        "streetDirectionId": null,
        "streetTypeId": "BLVD",
        "placeName": "WINDSOR",
        "streetNameDisplayText": "MATTHEW BRADY BLVD, WINDSOR"
      }
    ]
  },
  {
    "postal": "N8S6X4",
    "result": []
  },
  {
    "postal": "N8S4M8",
    "result": [
      {
        "electoralDistricts": [
          {
            "election": null,
            "id": 118,
            "name": "Windsor—Tecumseh"
          }
        ],
        "pollDivisionIds": [
          10142728
        ],
        "postalCode": "N8S4M8",
        "streetName": "ENFIELD",
        "streetDirectionId": null,
        "streetTypeId": "PL",
        "placeName": "WINDSOR",
        "streetNameDisplayText": "ENFIELD PL, WINDSOR"
      }
    ]
  },
  {
    "postal": "N8S2Y1",
    "result": [
      {
        "electoralDistricts": [
          {
            "election": null,
            "id": 118,
            "name": "Windsor—Tecumseh"
          }
        ],
        "pollDivisionIds": [
          10142725
        ],
        "postalCode": "N8S2Y1",
        "streetName": "PARKVIEW",
        "streetDirectionId": null,
        "streetTypeId": "AVE",
        "placeName": "WINDSOR",
        "streetNameDisplayText": "PARKVIEW AVE, WINDSOR"
      }
    ]
  },
  {
    "postal": "N8S6M1",
    "result": []
  },
  {
    "postal": "N8S5L8",
    "result": []
  },
  {
    "postal": "N8S3P6",
    "result": [
      {
        "electoralDistricts": [
          {
            "election": null,
            "id": 118,
            "name": "Windsor—Tecumseh"
          }
        ],
        "pollDivisionIds": [
          10142727
        ],
        "postalCode": "N8S3P6",
        "streetName": "FRANK",
        "streetDirectionId": null,
        "streetTypeId": "AVE",
        "placeName": "WINDSOR",
        "streetNameDisplayText": "FRANK AVE, WINDSOR"
      }
    ]
  },
  {
    "postal": "N8S9A5",
    "result": []
  },
  {
    "postal": "N8S7K1",
    "result": []
  },
  {
    "postal": "N8S3J4",
    "result": [
      {
        "electoralDistricts": [
          {
            "election": null,
            "id": 118,
            "name": "Windsor—Tecumseh"
          }
        ],
        "pollDivisionIds": [
          10142726
        ],
        "postalCode": "N8S3J4",
        "streetName": "MATTHEW BRADY",
        "streetDirectionId": null,
        "streetTypeId": "BLVD",
        "placeName": "WINDSOR",
        "streetNameDisplayText": "MATTHEW BRADY BLVD, WINDSOR"
      }
    ]
  },
  {
    "postal": "N8S5E7",
    "result": []
  },
  {
    "postal": "N8S3A7",
    "result": [
      {
        "electoralDistricts": [
          {
            "election": null,
            "id": 118,
            "name": "Windsor—Tecumseh"
          }
        ],
        "pollDivisionIds": [
          10142724
        ],
        "postalCode": "N8S3A7",
        "streetName": "ISABELLE",
        "streetDirectionId": null,
        "streetTypeId": "PL",
        "placeName": "WINDSOR",
        "streetNameDisplayText": "ISABELLE PL, WINDSOR"
      }
    ]
  },
  {
    "postal": "N8S1B9",
    "result": [
      {
        "electoralDistricts": [
          {
            "election": null,
            "id": 118,
            "name": "Windsor—Tecumseh"
          }
        ],
        "pollDivisionIds": [
          10142720,
          10142724
        ],
        "postalCode": "N8S1B9",
        "streetName": "RIVERSIDE",
        "streetDirectionId": "E",
        "streetTypeId": "DR",
        "placeName": "WINDSOR",
        "streetNameDisplayText": "RIVERSIDE DR E, WINDSOR"
      }
    ]
  },
  {
    "postal": "N8S9E8",
    "result": []
  },
  {
    "postal": "N8S1C9",
    "result": [
      {
        "electoralDistricts": [
          {
            "election": null,
            "id": 118,
            "name": "Windsor—Tecumseh"
          }
        ],
        "pollDivisionIds": [
          10142726
        ],
        "postalCode": "N8S1C9",
        "streetName": "RIVERSIDE",
        "streetDirectionId": "E",
        "streetTypeId": "DR",
        "placeName": "WINDSOR",
        "streetNameDisplayText": "RIVERSIDE DR E, WINDSOR"
      }
    ]
  },
  {
    "postal": "N8S3B5",
    "result": [
      {
        "electoralDistricts": [
          {
            "election": null,
            "id": 118,
            "name": "Windsor—Tecumseh"
          }
        ],
        "pollDivisionIds": [
          10142724
        ],
        "postalCode": "N8S3B5",
        "streetName": "BELLEPERCHE",
        "streetDirectionId": null,
        "streetTypeId": "PL",
        "placeName": "WINDSOR",
        "streetNameDisplayText": "BELLEPERCHE PL, WINDSOR"
      }
    ]
  },
  {
    "postal": "N8S8R0",
    "result": []
  },
  {
    "postal": "N8S3P2",
    "result": [
      {
        "electoralDistricts": [
          {
            "election": null,
            "id": 118,
            "name": "Windsor—Tecumseh"
          }
        ],
        "pollDivisionIds": [
          10142726
        ],
        "postalCode": "N8S3P2",
        "streetName": "FRANK",
        "streetDirectionId": null,
        "streetTypeId": "AVE",
        "placeName": "WINDSOR",
        "streetNameDisplayText": "FRANK AVE, WINDSOR"
      }
    ]
  },
  {
    "postal": "N8S5V4",
    "result": []
  },
  {
    "postal": "N8S4H0",
    "result": []
  },
  {
    "postal": "N8S4S7",
    "result": [
      {
        "electoralDistricts": [
          {
            "election": null,
            "id": 118,
            "name": "Windsor—Tecumseh"
          }
        ],
        "pollDivisionIds": [
          10142725
        ],
        "postalCode": "N8S4S7",
        "streetName": "MELROSE",
        "streetDirectionId": null,
        "streetTypeId": "AVE",
        "placeName": "WINDSOR",
        "streetNameDisplayText": "MELROSE AVE, WINDSOR"
      }
    ]
  },
  {
    "postal": "N8S6C2",
    "result": []
  },
  {
    "postal": "N8S8W3",
    "result": []
  },
  {
    "postal": "N8S4M5",
    "result": [
      {
        "electoralDistricts": [
          {
            "election": null,
            "id": 118,
            "name": "Windsor—Tecumseh"
          }
        ],
        "pollDivisionIds": [
          10142728
        ],
        "postalCode": "N8S4M5",
        "streetName": "DARLINGTON",
        "streetDirectionId": null,
        "streetTypeId": "CRES",
        "placeName": "WINDSOR",
        "streetNameDisplayText": "DARLINGTON CRES, WINDSOR"
      }
    ]
  },
  {
    "postal": "N8S5T1",
    "result": []
  },
  {
    "postal": "N8S3B3",
    "result": [
      {
        "electoralDistricts": [
          {
            "election": null,
            "id": 118,
            "name": "Windsor—Tecumseh"
          }
        ],
        "pollDivisionIds": [
          10142725
        ],
        "postalCode": "N8S3B3",
        "streetName": "ISABELLE",
        "streetDirectionId": null,
        "streetTypeId": "PL",
        "placeName": "WINDSOR",
        "streetNameDisplayText": "ISABELLE PL, WINDSOR"
      }
    ]
  },
  {
    "postal": "N8S6C6",
    "result": []
  },
  {
    "postal": "N8S7N8",
    "result": []
  },
  {
    "postal": "N8S2Y3",
    "result": [
      {
        "electoralDistricts": [
          {
            "election": null,
            "id": 118,
            "name": "Windsor—Tecumseh"
          }
        ],
        "pollDivisionIds": [
          10142724
        ],
        "postalCode": "N8S2Y3",
        "streetName": "VIRGINIA",
        "streetDirectionId": null,
        "streetTypeId": "AVE",
        "placeName": "WINDSOR",
        "streetNameDisplayText": "VIRGINIA AVE, WINDSOR"
      }
    ]
  },
  {
    "postal": "N8S2R6",
    "result": [
      {
        "electoralDistricts": [
          {
            "election": null,
            "id": 118,
            "name": "Windsor—Tecumseh"
          }
        ],
        "pollDivisionIds": [
          10142720
        ],
        "postalCode": "N8S2R6",
        "streetName": "PATRICE",
        "streetDirectionId": null,
        "streetTypeId": "DR",
        "placeName": "WINDSOR",
        "streetNameDisplayText": "PATRICE DR, WINDSOR"
      }
    ]
  },
  {
    "postal": "N8S7N3",
    "result": []
  },
  {
    "postal": "N8S8J2",
    "result": []
  },
  {
    "postal": "N8S6A9",
    "result": []
  },
  {
    "postal": "N8S3V2",
    "result": [
      {
        "electoralDistricts": [
          {
            "election": null,
            "id": 118,
            "name": "Windsor—Tecumseh"
          }
        ],
        "pollDivisionIds": [
          10142726
        ],
        "postalCode": "N8S3V2",
        "streetName": "DIEPPE",
        "streetDirectionId": null,
        "streetTypeId": "ST",
        "placeName": "WINDSOR",
        "streetNameDisplayText": "DIEPPE ST, WINDSOR"
      }
    ]
  },
  {
    "postal": "N8S2N3",
    "result": [
      {
        "electoralDistricts": [
          {
            "election": null,
            "id": 118,
            "name": "Windsor—Tecumseh"
          }
        ],
        "pollDivisionIds": [
          10142720
        ],
        "postalCode": "N8S2N3",
        "streetName": "ESDRAS",
        "streetDirectionId": null,
        "streetTypeId": "PL",
        "placeName": "WINDSOR",
        "streetNameDisplayText": "ESDRAS PL, WINDSOR"
      }
    ]
  },
  {
    "postal": "N8S1S5",
    "result": [
      {
        "electoralDistricts": [
          {
            "election": null,
            "id": 118,
            "name": "Windsor—Tecumseh"
          }
        ],
        "pollDivisionIds": [
          10142726
        ],
        "postalCode": "N8S1S5",
        "streetName": "WYANDOTTE",
        "streetDirectionId": "E",
        "streetTypeId": "ST",
        "placeName": "WINDSOR",
        "streetNameDisplayText": "WYANDOTTE ST E, WINDSOR"
      }
    ]
  },
  {
    "postal": "N8S4T7",
    "result": [
      {
        "electoralDistricts": [
          {
            "election": null,
            "id": 118,
            "name": "Windsor—Tecumseh"
          }
        ],
        "pollDivisionIds": [
          10142725
        ],
        "postalCode": "N8S4T7",
        "streetName": "ST PAUL",
        "streetDirectionId": null,
        "streetTypeId": "AVE",
        "placeName": "WINDSOR",
        "streetNameDisplayText": "ST PAUL AVE, WINDSOR"
      },
      {
        "electoralDistricts": [
          {
            "election": null,
            "id": 118,
            "name": "Windsor—Tecumseh"
          }
        ],
        "pollDivisionIds": [
          10142725
        ],
        "postalCode": "N8S4T7",
        "streetName": "ST. PAUL",
        "streetDirectionId": null,
        "streetTypeId": "AVE",
        "placeName": "WINDSOR",
        "streetNameDisplayText": "ST. PAUL AVE, WINDSOR"
      }
    ]
  },
  {
    "postal": "N8S6Y7",
    "result": []
  },
  {
    "postal": "N8S0W7",
    "result": []
  },
  {
    "postal": "N8S2W9",
    "result": [
      {
        "electoralDistricts": [
          {
            "election": null,
            "id": 118,
            "name": "Windsor—Tecumseh"
          }
        ],
        "pollDivisionIds": [
          10142725
        ],
        "postalCode": "N8S2W9",
        "streetName": "COVENTRY",
        "streetDirectionId": null,
        "streetTypeId": "CRT",
        "placeName": "WINDSOR",
        "streetNameDisplayText": "COVENTRY CRT, WINDSOR"
      }
    ]
  },
  {
    "postal": "N8S8V0",
    "result": []
  },
  {
    "postal": "N8S0H4",
    "result": []
  },
  {
    "postal": "N8S2T1",
    "result": [
      {
        "electoralDistricts": [
          {
            "election": null,
            "id": 118,
            "name": "Windsor—Tecumseh"
          }
        ],
        "pollDivisionIds": [
          10142724
        ],
        "postalCode": "N8S2T1",
        "streetName": "HOMEDALE",
        "streetDirectionId": null,
        "streetTypeId": "BLVD",
        "placeName": "WINDSOR",
        "streetNameDisplayText": "HOMEDALE BLVD, WINDSOR"
      }
    ]
  },
  {
    "postal": "N8S1B1",
    "result": [
      {
        "electoralDistricts": [
          {
            "election": null,
            "id": 118,
            "name": "Windsor—Tecumseh"
          }
        ],
        "pollDivisionIds": [
          10142720
        ],
        "postalCode": "N8S1B1",
        "streetName": "RIVERSIDE",
        "streetDirectionId": "E",
        "streetTypeId": "DR",
        "placeName": "WINDSOR",
        "streetNameDisplayText": "RIVERSIDE DR E, WINDSOR"
      }
    ]
  },
  {
    "postal": "N8S8B6",
    "result": []
  },
  {
    "postal": "N8S6H1",
    "result": []
  },
  {
    "postal": "N8S8T8",
    "result": []
  },
  {
    "postal": "N8S0T4",
    "result": []
  },
  {
    "postal": "N8S2C4",
    "result": [
      {
        "electoralDistricts": [
          {
            "election": null,
            "id": 118,
            "name": "Windsor—Tecumseh"
          }
        ],
        "pollDivisionIds": [
          10142718
        ],
        "postalCode": "N8S2C4",
        "streetName": "WESTMINSTER",
        "streetDirectionId": null,
        "streetTypeId": "BLVD",
        "placeName": "WINDSOR",
        "streetNameDisplayText": "WESTMINSTER BLVD, WINDSOR"
      }
    ]
  },
  {
    "postal": "N8S8N3",
    "result": []
  },
  {
    "postal": "N8S4L8",
    "result": [
      {
        "electoralDistricts": [
          {
            "election": null,
            "id": 118,
            "name": "Windsor—Tecumseh"
          }
        ],
        "pollDivisionIds": [
          10142718
        ],
        "postalCode": "N8S4L8",
        "streetName": "RIVERSIDE",
        "streetDirectionId": "E",
        "streetTypeId": "DR",
        "placeName": "WINDSOR",
        "streetNameDisplayText": "RIVERSIDE DR E, WINDSOR"
      }
    ]
  },
  {
    "postal": "N8S2B5",
    "result": [
      {
        "electoralDistricts": [
          {
            "election": null,
            "id": 118,
            "name": "Windsor—Tecumseh"
          }
        ],
        "pollDivisionIds": [
          10142727
        ],
        "postalCode": "N8S2B5",
        "streetName": "LITTLE RIVER",
        "streetDirectionId": null,
        "streetTypeId": "RD",
        "placeName": "WINDSOR",
        "streetNameDisplayText": "LITTLE RIVER RD, WINDSOR"
      }
    ]
  },
  {
    "postal": "N8S3H1",
    "result": [
      {
        "electoralDistricts": [
          {
            "election": null,
            "id": 118,
            "name": "Windsor—Tecumseh"
          }
        ],
        "pollDivisionIds": [
          10142726
        ],
        "postalCode": "N8S3H1",
        "streetName": "EASTLAWN",
        "streetDirectionId": null,
        "streetTypeId": "AVE",
        "placeName": "WINDSOR",
        "streetNameDisplayText": "EASTLAWN AVE, WINDSOR"
      }
    ]
  },
  {
    "postal": "N8S4Y1",
    "result": []
  },
  {
    "postal": "N8S7E2",
    "result": []
  },
  {
    "postal": "N8S2P5",
    "result": [
      {
        "electoralDistricts": [
          {
            "election": null,
            "id": 118,
            "name": "Windsor—Tecumseh"
          }
        ],
        "pollDivisionIds": [
          10142720
        ],
        "postalCode": "N8S2P5",
        "streetName": "JEFFERSON",
        "streetDirectionId": null,
        "streetTypeId": "BLVD",
        "placeName": "WINDSOR",
        "streetNameDisplayText": "JEFFERSON BLVD, WINDSOR"
      }
    ]
  },
  {
    "postal": "N8S8R7",
    "result": []
  },
  {
    "postal": "N8S9P1",
    "result": []
  },
  {
    "postal": "N8S3B8",
    "result": [
      {
        "electoralDistricts": [
          {
            "election": null,
            "id": 118,
            "name": "Windsor—Tecumseh"
          }
        ],
        "pollDivisionIds": [
          10142724
        ],
        "postalCode": "N8S3B8",
        "streetName": "BELLEPERCHE",
        "streetDirectionId": null,
        "streetTypeId": "PL",
        "placeName": "WINDSOR",
        "streetNameDisplayText": "BELLEPERCHE PL, WINDSOR"
      }
    ]
  },
  {
    "postal": "N8S3P7",
    "result": [
      {
        "electoralDistricts": [
          {
            "election": null,
            "id": 118,
            "name": "Windsor—Tecumseh"
          }
        ],
        "pollDivisionIds": [
          10142727
        ],
        "postalCode": "N8S3P7",
        "streetName": "FRANK",
        "streetDirectionId": null,
        "streetTypeId": "AVE",
        "placeName": "WINDSOR",
        "streetNameDisplayText": "FRANK AVE, WINDSOR"
      }
    ]
  },
  {
    "postal": "N8S9B2",
    "result": []
  },
  {
    "postal": "N8S6Z3",
    "result": []
  },
  {
    "postal": "N8S4N5",
    "result": [
      {
        "electoralDistricts": [
          {
            "election": null,
            "id": 118,
            "name": "Windsor—Tecumseh"
          }
        ],
        "pollDivisionIds": [
          10142728
        ],
        "postalCode": "N8S4N5",
        "streetName": "GATESIDE",
        "streetDirectionId": null,
        "streetTypeId": "PL",
        "placeName": "WINDSOR",
        "streetNameDisplayText": "GATESIDE PL, WINDSOR"
      }
    ]
  },
  {
    "postal": "N8S8T3",
    "result": []
  },
  {
    "postal": "N8S1V2",
    "result": [
      {
        "electoralDistricts": [
          {
            "election": null,
            "id": 118,
            "name": "Windsor—Tecumseh"
          }
        ],
        "pollDivisionIds": [
          10142738,
          10142727
        ],
        "postalCode": "N8S1V2",
        "streetName": "WYANDOTTE",
        "streetDirectionId": "E",
        "streetTypeId": "ST",
        "placeName": "WINDSOR",
        "streetNameDisplayText": "WYANDOTTE ST E, WINDSOR"
      }
    ]
  },
  {
    "postal": "N8S1Y0",
    "result": []
  },
  {
    "postal": "N8S3G6",
    "result": [
      {
        "electoralDistricts": [
          {
            "election": null,
            "id": 118,
            "name": "Windsor—Tecumseh"
          }
        ],
        "pollDivisionIds": [
          10142725
        ],
        "postalCode": "N8S3G6",
        "streetName": "BELLE ISLE VIEW",
        "streetDirectionId": null,
        "streetTypeId": "BLVD",
        "placeName": "WINDSOR",
        "streetNameDisplayText": "BELLE ISLE VIEW BLVD, WINDSOR"
      },
      {
        "electoralDistricts": [
          {
            "election": null,
            "id": 118,
            "name": "Windsor—Tecumseh"
          }
        ],
        "pollDivisionIds": [
          10142710
        ],
        "postalCode": "N8S3G6",
        "streetName": "BELLE ISLE",
        "streetDirectionId": null,
        "streetTypeId": "VIEW",
        "placeName": "WINDSOR",
        "streetNameDisplayText": "BELLE ISLE VIEW, WINDSOR"
      }
    ]
  },
  {
    "postal": "N8S3H7",
    "result": [
      {
        "electoralDistricts": [
          {
            "election": null,
            "id": 118,
            "name": "Windsor—Tecumseh"
          }
        ],
        "pollDivisionIds": [
          10142726
        ],
        "postalCode": "N8S3H7",
        "streetName": "EASTLAWN",
        "streetDirectionId": null,
        "streetTypeId": "AVE",
        "placeName": "WINDSOR",
        "streetNameDisplayText": "EASTLAWN AVE, WINDSOR"
      }
    ]
  },
  {
    "postal": "N8S7X8",
    "result": []
  },
  {
    "postal": "N8S0C7",
    "result": []
  },
  {
    "postal": "N8S0W9",
    "result": []
  },
  {
    "postal": "N8S8E6",
    "result": []
  },
  {
    "postal": "N8S9Z8",
    "result": []
  },
  {
    "postal": "N8S3P4",
    "result": [
      {
        "electoralDistricts": [
          {
            "election": null,
            "id": 118,
            "name": "Windsor—Tecumseh"
          }
        ],
        "pollDivisionIds": [
          10142727
        ],
        "postalCode": "N8S3P4",
        "streetName": "FRANK",
        "streetDirectionId": null,
        "streetTypeId": "AVE",
        "placeName": "WINDSOR",
        "streetNameDisplayText": "FRANK AVE, WINDSOR"
      }
    ]
  },
  {
    "postal": "N8S6L8",
    "result": []
  },
  {
    "postal": "N8S2R4",
    "result": [
      {
        "electoralDistricts": [
          {
            "election": null,
            "id": 118,
            "name": "Windsor—Tecumseh"
          }
        ],
        "pollDivisionIds": [
          10142720
        ],
        "postalCode": "N8S2R4",
        "streetName": "JEFFERSON",
        "streetDirectionId": null,
        "streetTypeId": "BLVD",
        "placeName": "WINDSOR",
        "streetNameDisplayText": "JEFFERSON BLVD, WINDSOR"
      }
    ]
  },
  {
    "postal": "N8S2W1",
    "result": [
      {
        "electoralDistricts": [
          {
            "election": null,
            "id": 118,
            "name": "Windsor—Tecumseh"
          }
        ],
        "pollDivisionIds": [
          10142724
        ],
        "postalCode": "N8S2W1",
        "streetName": "JANISSE",
        "streetDirectionId": null,
        "streetTypeId": "DR",
        "placeName": "WINDSOR",
        "streetNameDisplayText": "JANISSE DR, WINDSOR"
      }
    ]
  },
  {
    "postal": "N8S9H8",
    "result": []
  },
  {
    "postal": "N8S8X9",
    "result": []
  },
  {
    "postal": "N8S7H4",
    "result": []
  },
  {
    "postal": "N8S3J1",
    "result": [
      {
        "electoralDistricts": [
          {
            "election": null,
            "id": 118,
            "name": "Windsor—Tecumseh"
          }
        ],
        "pollDivisionIds": [
          10142725
        ],
        "postalCode": "N8S3J1",
        "streetName": "EASTLAWN",
        "streetDirectionId": null,
        "streetTypeId": "AVE",
        "placeName": "WINDSOR",
        "streetNameDisplayText": "EASTLAWN AVE, WINDSOR"
      }
    ]
  },
  {
    "postal": "N8S1P4",
    "result": [
      {
        "electoralDistricts": [
          {
            "election": null,
            "id": 118,
            "name": "Windsor—Tecumseh"
          }
        ],
        "pollDivisionIds": [
          10142724
        ],
        "postalCode": "N8S1P4",
        "streetName": "WYANDOTTE",
        "streetDirectionId": "E",
        "streetTypeId": "ST",
        "placeName": "WINDSOR",
        "streetNameDisplayText": "WYANDOTTE ST E, WINDSOR"
      }
    ]
  },
  {
    "postal": "N8S2A3",
    "result": []
  },
  {
    "postal": "N8S0Z1",
    "result": []
  },
  {
    "postal": "N8S1C1",
    "result": [
      {
        "electoralDistricts": [
          {
            "election": null,
            "id": 118,
            "name": "Windsor—Tecumseh"
          }
        ],
        "pollDivisionIds": [
          10142724,
          10142720
        ],
        "postalCode": "N8S1C1",
        "streetName": "RIVERSIDE",
        "streetDirectionId": "E",
        "streetTypeId": "DR",
        "placeName": "WINDSOR",
        "streetNameDisplayText": "RIVERSIDE DR E, WINDSOR"
      }
    ]
  },
  {
    "postal": "N8S0H3",
    "result": []
  },
  {
    "postal": "N8S7B0",
    "result": []
  },
  {
    "postal": "N8S5K2",
    "result": []
  },
  {
    "postal": "N8S1E9",
    "result": [
      {
        "electoralDistricts": [
          {
            "election": null,
            "id": 118,
            "name": "Windsor—Tecumseh"
          }
        ],
        "pollDivisionIds": [
          10142726
        ],
        "postalCode": "N8S1E9",
        "streetName": "RIVERSIDE",
        "streetDirectionId": "E",
        "streetTypeId": "DR",
        "placeName": "WINDSOR",
        "streetNameDisplayText": "RIVERSIDE DR E, WINDSOR"
      }
    ]
  },
  {
    "postal": "N8S9W7",
    "result": []
  },
  {
    "postal": "N8S5W6",
    "result": []
  },
  {
    "postal": "N8S6S6",
    "result": []
  },
  {
    "postal": "N8S2P8",
    "result": [
      {
        "electoralDistricts": [
          {
            "election": null,
            "id": 118,
            "name": "Windsor—Tecumseh"
          }
        ],
        "pollDivisionIds": [
          10142720
        ],
        "postalCode": "N8S2P8",
        "streetName": "JEFFERSON",
        "streetDirectionId": null,
        "streetTypeId": "BLVD",
        "placeName": "WINDSOR",
        "streetNameDisplayText": "JEFFERSON BLVD, WINDSOR"
      }
    ]
  },
  {
    "postal": "N8S4P8",
    "result": [
      {
        "electoralDistricts": [
          {
            "election": null,
            "id": 118,
            "name": "Windsor—Tecumseh"
          }
        ],
        "pollDivisionIds": [
          10142725,
          10142728
        ],
        "postalCode": "N8S4P8",
        "streetName": "ADAIR",
        "streetDirectionId": null,
        "streetTypeId": "CRT",
        "placeName": "WINDSOR",
        "streetNameDisplayText": "ADAIR CRT, WINDSOR"
      }
    ]
  },
  {
    "postal": "N8S0V9",
    "result": []
  },
  {
    "postal": "N8S5Y2",
    "result": []
  },
  {
    "postal": "N8S7Z7",
    "result": []
  },
  {
    "postal": "N8S6Y8",
    "result": []
  },
  {
    "postal": "N8S2G7",
    "result": [
      {
        "electoralDistricts": [
          {
            "election": null,
            "id": 118,
            "name": "Windsor—Tecumseh"
          }
        ],
        "pollDivisionIds": [
          10142718
        ],
        "postalCode": "N8S2G7",
        "streetName": "THOMPSON",
        "streetDirectionId": null,
        "streetTypeId": "BLVD",
        "placeName": "WINDSOR",
        "streetNameDisplayText": "THOMPSON BLVD, WINDSOR"
      }
    ]
  },
  {
    "postal": "N8S8C1",
    "result": []
  },
  {
    "postal": "N8S5C5",
    "result": []
  },
  {
    "postal": "N8S2X8",
    "result": [
      {
        "electoralDistricts": [
          {
            "election": null,
            "id": 118,
            "name": "Windsor—Tecumseh"
          }
        ],
        "pollDivisionIds": [
          10142725
        ],
        "postalCode": "N8S2X8",
        "streetName": "PARKVIEW",
        "streetDirectionId": null,
        "streetTypeId": "AVE",
        "placeName": "WINDSOR",
        "streetNameDisplayText": "PARKVIEW AVE, WINDSOR"
      }
    ]
  },
  {
    "postal": "N8S1W5",
    "result": [
      {
        "electoralDistricts": [
          {
            "election": null,
            "id": 118,
            "name": "Windsor—Tecumseh"
          }
        ],
        "pollDivisionIds": [
          10142727
        ],
        "postalCode": "N8S1W5",
        "streetName": "MENARD",
        "streetDirectionId": null,
        "streetTypeId": "ST",
        "placeName": "WINDSOR",
        "streetNameDisplayText": "MENARD ST, WINDSOR"
      }
    ]
  },
  {
    "postal": "N8S7G0",
    "result": []
  },
  {
    "postal": "N8S8J8",
    "result": []
  },
  {
    "postal": "N8S3Y0",
    "result": []
  },
  {
    "postal": "N8S9T7",
    "result": []
  },
  {
    "postal": "N8S5P4",
    "result": []
  },
  {
    "postal": "N8S4B0",
    "result": []
  },
  {
    "postal": "N8S9N8",
    "result": []
  },
  {
    "postal": "N8S4A7",
    "result": [
      {
        "electoralDistricts": [
          {
            "election": null,
            "id": 118,
            "name": "Windsor—Tecumseh"
          }
        ],
        "pollDivisionIds": [
          10142727
        ],
        "postalCode": "N8S4A7",
        "streetName": "GREENDALE",
        "streetDirectionId": null,
        "streetTypeId": "DR",
        "placeName": "WINDSOR",
        "streetNameDisplayText": "GREENDALE DR, WINDSOR"
      }
    ]
  },
  {
    "postal": "N8S4H9",
    "result": [
      {
        "electoralDistricts": [
          {
            "election": null,
            "id": 118,
            "name": "Windsor—Tecumseh"
          }
        ],
        "pollDivisionIds": [
          10142728
        ],
        "postalCode": "N8S4H9",
        "streetName": "FOXHILL",
        "streetDirectionId": null,
        "streetTypeId": "PL",
        "placeName": "WINDSOR",
        "streetNameDisplayText": "FOXHILL PL, WINDSOR"
      }
    ]
  },
  {
    "postal": "N8S6X1",
    "result": []
  },
  {
    "postal": "N8S9Y7",
    "result": []
  },
  {
    "postal": "N8S2Y5",
    "result": [
      {
        "electoralDistricts": [
          {
            "election": null,
            "id": 118,
            "name": "Windsor—Tecumseh"
          }
        ],
        "pollDivisionIds": [
          10142724
        ],
        "postalCode": "N8S2Y5",
        "streetName": "VIRGINIA",
        "streetDirectionId": null,
        "streetTypeId": "AVE",
        "placeName": "WINDSOR",
        "streetNameDisplayText": "VIRGINIA AVE, WINDSOR"
      }
    ]
  },
  {
    "postal": "N8S8L7",
    "result": []
  },
  {
    "postal": "N8S2A8",
    "result": [
      {
        "electoralDistricts": [
          {
            "election": null,
            "id": 118,
            "name": "Windsor—Tecumseh"
          }
        ],
        "pollDivisionIds": [
          10142725
        ],
        "postalCode": "N8S2A8",
        "streetName": "EDGAR",
        "streetDirectionId": null,
        "streetTypeId": "ST",
        "placeName": "WINDSOR",
        "streetNameDisplayText": "EDGAR ST, WINDSOR"
      }
    ]
  },
  {
    "postal": "N8S2K9",
    "result": [
      {
        "electoralDistricts": [
          {
            "election": null,
            "id": 118,
            "name": "Windsor—Tecumseh"
          }
        ],
        "pollDivisionIds": [
          10142720
        ],
        "postalCode": "N8S2K9",
        "streetName": "ST LOUIS",
        "streetDirectionId": null,
        "streetTypeId": "AVE",
        "placeName": "WINDSOR",
        "streetNameDisplayText": "ST LOUIS AVE, WINDSOR"
      }
    ]
  },
  {
    "postal": "N8S3E5",
    "result": [
      {
        "electoralDistricts": [
          {
            "election": null,
            "id": 118,
            "name": "Windsor—Tecumseh"
          }
        ],
        "pollDivisionIds": [
          10142724
        ],
        "postalCode": "N8S3E5",
        "streetName": "FAIRVIEW",
        "streetDirectionId": null,
        "streetTypeId": "BLVD",
        "placeName": "WINDSOR",
        "streetNameDisplayText": "FAIRVIEW BLVD, WINDSOR"
      }
    ]
  },
  {
    "postal": "N8S8N6",
    "result": []
  },
  {
    "postal": "N8S8J4",
    "result": []
  },
  {
    "postal": "N8S4R7",
    "result": [
      {
        "electoralDistricts": [
          {
            "election": null,
            "id": 118,
            "name": "Windsor—Tecumseh"
          }
        ],
        "pollDivisionIds": [
          10142727
        ],
        "postalCode": "N8S4R7",
        "streetName": "KINGSTON",
        "streetDirectionId": null,
        "streetTypeId": "CRES",
        "placeName": "WINDSOR",
        "streetNameDisplayText": "KINGSTON CRES, WINDSOR"
      }
    ]
  },
  {
    "postal": "N8S9K1",
    "result": []
  },
  {
    "postal": "N8S8E1",
    "result": []
  },
  {
    "postal": "N8S0R1",
    "result": []
  },
  {
    "postal": "N8S4J3",
    "result": [
      {
        "electoralDistricts": [
          {
            "election": null,
            "id": 118,
            "name": "Windsor—Tecumseh"
          }
        ],
        "pollDivisionIds": [
          10142728
        ],
        "postalCode": "N8S4J3",
        "streetName": "FOXHILL",
        "streetDirectionId": null,
        "streetTypeId": "CRT",
        "placeName": "WINDSOR",
        "streetNameDisplayText": "FOXHILL CRT, WINDSOR"
      }
    ]
  },
  {
    "postal": "N8S7E7",
    "result": []
  },
  {
    "postal": "N8S0J0",
    "result": []
  },
  {
    "postal": "N8S7R8",
    "result": []
  },
  {
    "postal": "N8S9X0",
    "result": []
  },
  {
    "postal": "N8S7P6",
    "result": []
  },
  {
    "postal": "N8S0R7",
    "result": []
  },
  {
    "postal": "N8S5W1",
    "result": []
  },
  {
    "postal": "N8S0K4",
    "result": []
  },
  {
    "postal": "N8S7N9",
    "result": []
  },
  {
    "postal": "N8S1N0",
    "result": []
  },
  {
    "postal": "N8S6P3",
    "result": []
  },
  {
    "postal": "N8S5A1",
    "result": []
  },
  {
    "postal": "N8S9M9",
    "result": []
  },
  {
    "postal": "N8S7T6",
    "result": []
  },
  {
    "postal": "N8S3X0",
    "result": []
  },
  {
    "postal": "N8S2T0",
    "result": []
  },
  {
    "postal": "N8S5X9",
    "result": []
  },
  {
    "postal": "N8S2R3",
    "result": [
      {
        "electoralDistricts": [
          {
            "election": null,
            "id": 118,
            "name": "Windsor—Tecumseh"
          }
        ],
        "pollDivisionIds": [
          10142720
        ],
        "postalCode": "N8S2R3",
        "streetName": "JEFFERSON",
        "streetDirectionId": null,
        "streetTypeId": "BLVD",
        "placeName": "WINDSOR",
        "streetNameDisplayText": "JEFFERSON BLVD, WINDSOR"
      }
    ]
  },
  {
    "postal": "N8S5N2",
    "result": []
  },
  {
    "postal": "N8S4Y7",
    "result": []
  },
  {
    "postal": "N8S7M0",
    "result": []
  },
  {
    "postal": "N8S8P3",
    "result": []
  },
  {
    "postal": "N8S3N3",
    "result": []
  },
  {
    "postal": "N8S7S3",
    "result": []
  },
  {
    "postal": "N8S3V9",
    "result": [
      {
        "electoralDistricts": [
          {
            "election": null,
            "id": 118,
            "name": "Windsor—Tecumseh"
          }
        ],
        "pollDivisionIds": [
          10142726
        ],
        "postalCode": "N8S3V9",
        "streetName": "ISACK",
        "streetDirectionId": null,
        "streetTypeId": "DR",
        "placeName": "WINDSOR",
        "streetNameDisplayText": "ISACK DR, WINDSOR"
      }
    ]
  },
  {
    "postal": "N8S9N7",
    "result": []
  },
  {
    "postal": "N8S0G4",
    "result": []
  },
  {
    "postal": "N8S2E2",
    "result": [
      {
        "electoralDistricts": [
          {
            "election": null,
            "id": 118,
            "name": "Windsor—Tecumseh"
          }
        ],
        "pollDivisionIds": [
          10142718
        ],
        "postalCode": "N8S2E2",
        "streetName": "BUCKINGHAM",
        "streetDirectionId": null,
        "streetTypeId": "RD",
        "placeName": "WINDSOR",
        "streetNameDisplayText": "BUCKINGHAM RD, WINDSOR"
      }
    ]
  },
  {
    "postal": "N8S7W8",
    "result": []
  },
  {
    "postal": "N8S7M5",
    "result": []
  },
  {
    "postal": "N8S5W8",
    "result": []
  },
  {
    "postal": "N8S5E5",
    "result": []
  },
  {
    "postal": "N8S1P9",
    "result": [
      {
        "electoralDistricts": [
          {
            "election": null,
            "id": 118,
            "name": "Windsor—Tecumseh"
          }
        ],
        "pollDivisionIds": [
          10142724
        ],
        "postalCode": "N8S1P9",
        "streetName": "WYANDOTTE",
        "streetDirectionId": "E",
        "streetTypeId": "ST",
        "placeName": "WINDSOR",
        "streetNameDisplayText": "WYANDOTTE ST E, WINDSOR"
      }
    ]
  },
  {
    "postal": "N8S8V8",
    "result": []
  },
  {
    "postal": "N8S9G8",
    "result": []
  },
  {
    "postal": "N8S8H9",
    "result": []
  },
  {
    "postal": "N8S1Z1",
    "result": [
      {
        "electoralDistricts": [
          {
            "election": null,
            "id": 118,
            "name": "Windsor—Tecumseh"
          }
        ],
        "pollDivisionIds": [
          10142726
        ],
        "postalCode": "N8S1Z1",
        "streetName": "ST ROSE",
        "streetDirectionId": null,
        "streetTypeId": "AVE",
        "placeName": "WINDSOR",
        "streetNameDisplayText": "ST ROSE AVE, WINDSOR"
      }
    ]
  },
  {
    "postal": "N8S8M3",
    "result": []
  },
  {
    "postal": "N8S5H6",
    "result": []
  },
  {
    "postal": "N8S7W7",
    "result": []
  },
  {
    "postal": "N8S4L0",
    "result": []
  },
  {
    "postal": "N8S2N1",
    "result": [
      {
        "electoralDistricts": [
          {
            "election": null,
            "id": 118,
            "name": "Windsor—Tecumseh"
          }
        ],
        "pollDivisionIds": [
          10142720
        ],
        "postalCode": "N8S2N1",
        "streetName": "ESDRAS",
        "streetDirectionId": null,
        "streetTypeId": "PL",
        "placeName": "WINDSOR",
        "streetNameDisplayText": "ESDRAS PL, WINDSOR"
      }
    ]
  },
  {
    "postal": "N8S2H4",
    "result": [
      {
        "electoralDistricts": [
          {
            "election": null,
            "id": 118,
            "name": "Windsor—Tecumseh"
          }
        ],
        "pollDivisionIds": [
          10142720
        ],
        "postalCode": "N8S2H4",
        "streetName": "PRADO",
        "streetDirectionId": null,
        "streetTypeId": "PL",
        "placeName": "WINDSOR",
        "streetNameDisplayText": "PRADO PL, WINDSOR"
      }
    ]
  },
  {
    "postal": "N8S5C8",
    "result": []
  },
  {
    "postal": "N8S8B0",
    "result": []
  },
  {
    "postal": "N8S1T4",
    "result": [
      {
        "electoralDistricts": [
          {
            "election": null,
            "id": 118,
            "name": "Windsor—Tecumseh"
          }
        ],
        "pollDivisionIds": [
          10142727
        ],
        "postalCode": "N8S1T4",
        "streetName": "WYANDOTTE",
        "streetDirectionId": "E",
        "streetTypeId": "ST",
        "placeName": "WINDSOR",
        "streetNameDisplayText": "WYANDOTTE ST E, WINDSOR"
      }
    ]
  },
  {
    "postal": "N8S7N7",
    "result": []
  },
  {
    "postal": "N8S4L3",
    "result": [
      {
        "electoralDistricts": [
          {
            "election": null,
            "id": 118,
            "name": "Windsor—Tecumseh"
          }
        ],
        "pollDivisionIds": [
          10142728
        ],
        "postalCode": "N8S4L3",
        "streetName": "BLENCARN",
        "streetDirectionId": null,
        "streetTypeId": "CRT",
        "placeName": "WINDSOR",
        "streetNameDisplayText": "BLENCARN CRT, WINDSOR"
      }
    ]
  },
  {
    "postal": "N8S2N2",
    "result": [
      {
        "electoralDistricts": [
          {
            "election": null,
            "id": 118,
            "name": "Windsor—Tecumseh"
          }
        ],
        "pollDivisionIds": [
          10142720
        ],
        "postalCode": "N8S2N2",
        "streetName": "ESDRAS",
        "streetDirectionId": null,
        "streetTypeId": "PL",
        "placeName": "WINDSOR",
        "streetNameDisplayText": "ESDRAS PL, WINDSOR"
      }
    ]
  },
  {
    "postal": "N8S4N8",
    "result": [
      {
        "electoralDistricts": [
          {
            "election": null,
            "id": 118,
            "name": "Windsor—Tecumseh"
          }
        ],
        "pollDivisionIds": [
          10142728
        ],
        "postalCode": "N8S4N8",
        "streetName": "GATESIDE",
        "streetDirectionId": null,
        "streetTypeId": "CRT",
        "placeName": "WINDSOR",
        "streetNameDisplayText": "GATESIDE CRT, WINDSOR"
      }
    ]
  },
  {
    "postal": "N8S3M5",
    "result": [
      {
        "electoralDistricts": [
          {
            "election": null,
            "id": 118,
            "name": "Windsor—Tecumseh"
          }
        ],
        "pollDivisionIds": [
          10142727
        ],
        "postalCode": "N8S3M5",
        "streetName": "LAUZON",
        "streetDirectionId": null,
        "streetTypeId": "RD",
        "placeName": "WINDSOR",
        "streetNameDisplayText": "LAUZON RD, WINDSOR"
      }
    ]
  },
  {
    "postal": "N8S6H7",
    "result": []
  },
  {
    "postal": "N8S8Y8",
    "result": []
  },
  {
    "postal": "N8S5R9",
    "result": []
  },
  {
    "postal": "N8S8G3",
    "result": []
  },
  {
    "postal": "N8S4N7",
    "result": [
      {
        "electoralDistricts": [
          {
            "election": null,
            "id": 118,
            "name": "Windsor—Tecumseh"
          }
        ],
        "pollDivisionIds": [
          10142728
        ],
        "postalCode": "N8S4N7",
        "streetName": "GATESIDE",
        "streetDirectionId": null,
        "streetTypeId": "PL",
        "placeName": "WINDSOR",
        "streetNameDisplayText": "GATESIDE PL, WINDSOR"
      }
    ]
  },
  {
    "postal": "N8S0B9",
    "result": []
  },
  {
    "postal": "N8S9K7",
    "result": []
  },
  {
    "postal": "N8S9K9",
    "result": []
  },
  {
    "postal": "N8S3Z2",
    "result": [
      {
        "electoralDistricts": [
          {
            "election": null,
            "id": 118,
            "name": "Windsor—Tecumseh"
          }
        ],
        "pollDivisionIds": [
          10142727
        ],
        "postalCode": "N8S3Z2",
        "streetName": "WESTCHESTER",
        "streetDirectionId": null,
        "streetTypeId": "DR",
        "placeName": "WINDSOR",
        "streetNameDisplayText": "WESTCHESTER DR, WINDSOR"
      }
    ]
  },
  {
    "postal": "N8S6W7",
    "result": []
  },
  {
    "postal": "N8S0P1",
    "result": []
  },
  {
    "postal": "N8S3A0",
    "result": []
  },
  {
    "postal": "N8S8L9",
    "result": []
  },
  {
    "postal": "N8S6X0",
    "result": []
  },
  {
    "postal": "N8S3E9",
    "result": [
      {
        "electoralDistricts": [
          {
            "election": null,
            "id": 118,
            "name": "Windsor—Tecumseh"
          }
        ],
        "pollDivisionIds": [
          10142725
        ],
        "postalCode": "N8S3E9",
        "streetName": "FAIRVIEW",
        "streetDirectionId": null,
        "streetTypeId": "BLVD",
        "placeName": "WINDSOR",
        "streetNameDisplayText": "FAIRVIEW BLVD, WINDSOR"
      }
    ]
  },
  {
    "postal": "N8S0S5",
    "result": []
  },
  {
    "postal": "N8S1A2",
    "result": [
      {
        "electoralDistricts": [
          {
            "election": null,
            "id": 118,
            "name": "Windsor—Tecumseh"
          }
        ],
        "pollDivisionIds": [
          10142718
        ],
        "postalCode": "N8S1A2",
        "streetName": "RIVERSIDE",
        "streetDirectionId": "E",
        "streetTypeId": "DR",
        "placeName": "WINDSOR",
        "streetNameDisplayText": "RIVERSIDE DR E, WINDSOR"
      }
    ]
  },
  {
    "postal": "N8S5V8",
    "result": []
  },
  {
    "postal": "N8S8C5",
    "result": []
  },
  {
    "postal": "N8S6N0",
    "result": []
  },
  {
    "postal": "N8S9E6",
    "result": []
  },
  {
    "postal": "N8S5J7",
    "result": []
  },
  {
    "postal": "N8S2R2",
    "result": [
      {
        "electoralDistricts": [
          {
            "election": null,
            "id": 118,
            "name": "Windsor—Tecumseh"
          }
        ],
        "pollDivisionIds": [
          10142720
        ],
        "postalCode": "N8S2R2",
        "streetName": "JEFFERSON",
        "streetDirectionId": null,
        "streetTypeId": "BLVD",
        "placeName": "WINDSOR",
        "streetNameDisplayText": "JEFFERSON BLVD, WINDSOR"
      }
    ]
  },
  {
    "postal": "N8S0P5",
    "result": []
  },
  {
    "postal": "N8S5A7",
    "result": []
  },
  {
    "postal": "N8S1G1",
    "result": [
      {
        "electoralDistricts": [
          {
            "election": null,
            "id": 118,
            "name": "Windsor—Tecumseh"
          }
        ],
        "pollDivisionIds": [
          10142726
        ],
        "postalCode": "N8S1G1",
        "streetName": "RIVERSIDE",
        "streetDirectionId": "E",
        "streetTypeId": "DR",
        "placeName": "WINDSOR",
        "streetNameDisplayText": "RIVERSIDE DR E, WINDSOR"
      }
    ]
  },
  {
    "postal": "N8S9R6",
    "result": []
  },
  {
    "postal": "N8S4Z9",
    "result": []
  },
  {
    "postal": "N8S1V5",
    "result": [
      {
        "electoralDistricts": [
          {
            "election": null,
            "id": 118,
            "name": "Windsor—Tecumseh"
          }
        ],
        "pollDivisionIds": [
          10142727
        ],
        "postalCode": "N8S1V5",
        "streetName": "WYANDOTTE",
        "streetDirectionId": "E",
        "streetTypeId": "ST",
        "placeName": "WINDSOR",
        "streetNameDisplayText": "WYANDOTTE ST E, WINDSOR"
      }
    ]
  },
  {
    "postal": "N8S9Y5",
    "result": []
  },
  {
    "postal": "N8S1P2",
    "result": [
      {
        "electoralDistricts": [
          {
            "election": null,
            "id": 118,
            "name": "Windsor—Tecumseh"
          }
        ],
        "pollDivisionIds": [
          10142724
        ],
        "postalCode": "N8S1P2",
        "streetName": "WYANDOTTE",
        "streetDirectionId": "E",
        "streetTypeId": "ST",
        "placeName": "WINDSOR",
        "streetNameDisplayText": "WYANDOTTE ST E, WINDSOR"
      }
    ]
  },
  {
    "postal": "N8S5X0",
    "result": []
  },
  {
    "postal": "N8S7B8",
    "result": []
  },
  {
    "postal": "N8S0C6",
    "result": []
  },
  {
    "postal": "N8S6G1",
    "result": []
  },
  {
    "postal": "N8S3K3",
    "result": [
      {
        "electoralDistricts": [
          {
            "election": null,
            "id": 118,
            "name": "Windsor—Tecumseh"
          }
        ],
        "pollDivisionIds": [
          10142720
        ],
        "postalCode": "N8S3K3",
        "streetName": "GARDEN COURT",
        "streetDirectionId": null,
        "streetTypeId": "DR",
        "placeName": "WINDSOR",
        "streetNameDisplayText": "GARDEN COURT DR, WINDSOR"
      }
    ]
  },
  {
    "postal": "N8S9R0",
    "result": []
  },
  {
    "postal": "N8S4R8",
    "result": [
      {
        "electoralDistricts": [
          {
            "election": null,
            "id": 118,
            "name": "Windsor—Tecumseh"
          }
        ],
        "pollDivisionIds": [
          10142727
        ],
        "postalCode": "N8S4R8",
        "streetName": "KINGSTON",
        "streetDirectionId": null,
        "streetTypeId": "CRES",
        "placeName": "WINDSOR",
        "streetNameDisplayText": "KINGSTON CRES, WINDSOR"
      }
    ]
  },
  {
    "postal": "N8S5P9",
    "result": []
  },
  {
    "postal": "N8S8N4",
    "result": []
  },
  {
    "postal": "N8S8H4",
    "result": []
  },
  {
    "postal": "N8S4V1",
    "result": []
  },
  {
    "postal": "N8S1K5",
    "result": [
      {
        "electoralDistricts": [
          {
            "election": null,
            "id": 118,
            "name": "Windsor—Tecumseh"
          }
        ],
        "pollDivisionIds": [
          10142726
        ],
        "postalCode": "N8S1K5",
        "streetName": "CEDARVIEW",
        "streetDirectionId": null,
        "streetTypeId": "ST",
        "placeName": "WINDSOR",
        "streetNameDisplayText": "CEDARVIEW ST, WINDSOR"
      }
    ]
  },
  {
    "postal": "N8S1Z5",
    "result": [
      {
        "electoralDistricts": [
          {
            "election": null,
            "id": 118,
            "name": "Windsor—Tecumseh"
          }
        ],
        "pollDivisionIds": [
          10142727
        ],
        "postalCode": "N8S1Z5",
        "streetName": "ST ROSE",
        "streetDirectionId": null,
        "streetTypeId": "AVE",
        "placeName": "WINDSOR",
        "streetNameDisplayText": "ST ROSE AVE, WINDSOR"
      }
    ]
  },
  {
    "postal": "N8S9L9",
    "result": []
  },
  {
    "postal": "N8S5L2",
    "result": []
  },
  {
    "postal": "N8S0M2",
    "result": []
  },
  {
    "postal": "N8S1K8",
    "result": [
      {
        "electoralDistricts": [
          {
            "election": null,
            "id": 118,
            "name": "Windsor—Tecumseh"
          }
        ],
        "pollDivisionIds": [
          10142726
        ],
        "postalCode": "N8S1K8",
        "streetName": "CEDARVIEW",
        "streetDirectionId": null,
        "streetTypeId": "ST",
        "placeName": "WINDSOR",
        "streetNameDisplayText": "CEDARVIEW ST, WINDSOR"
      }
    ]
  },
  {
    "postal": "N8S3M7",
    "result": [
      {
        "electoralDistricts": [
          {
            "election": null,
            "id": 118,
            "name": "Windsor—Tecumseh"
          }
        ],
        "pollDivisionIds": [
          10142727
        ],
        "postalCode": "N8S3M7",
        "streetName": "LAUZON",
        "streetDirectionId": null,
        "streetTypeId": "RD",
        "placeName": "WINDSOR",
        "streetNameDisplayText": "LAUZON RD, WINDSOR"
      }
    ]
  },
  {
    "postal": "N8S1B2",
    "result": [
      {
        "electoralDistricts": [
          {
            "election": null,
            "id": 118,
            "name": "Windsor—Tecumseh"
          }
        ],
        "pollDivisionIds": [
          10142720
        ],
        "postalCode": "N8S1B2",
        "streetName": "RIVERSIDE",
        "streetDirectionId": "E",
        "streetTypeId": "DR",
        "placeName": "WINDSOR",
        "streetNameDisplayText": "RIVERSIDE DR E, WINDSOR"
      }
    ]
  },
  {
    "postal": "N8S0H9",
    "result": []
  },
  {
    "postal": "N8S8M4",
    "result": []
  },
  {
    "postal": "N8S2M5",
    "result": [
      {
        "electoralDistricts": [
          {
            "election": null,
            "id": 118,
            "name": "Windsor—Tecumseh"
          }
        ],
        "pollDivisionIds": [
          10142720
        ],
        "postalCode": "N8S2M5",
        "streetName": "ESDRAS",
        "streetDirectionId": null,
        "streetTypeId": "PL",
        "placeName": "WINDSOR",
        "streetNameDisplayText": "ESDRAS PL, WINDSOR"
      }
    ]
  },
  {
    "postal": "N8S0T9",
    "result": []
  },
  {
    "postal": "N8S3P1",
    "result": [
      {
        "electoralDistricts": [
          {
            "election": null,
            "id": 118,
            "name": "Windsor—Tecumseh"
          }
        ],
        "pollDivisionIds": [
          10142726
        ],
        "postalCode": "N8S3P1",
        "streetName": "FRANK",
        "streetDirectionId": null,
        "streetTypeId": "AVE",
        "placeName": "WINDSOR",
        "streetNameDisplayText": "FRANK AVE, WINDSOR"
      }
    ]
  },
  {
    "postal": "N8S1R6",
    "result": [
      {
        "electoralDistricts": [
          {
            "election": null,
            "id": 118,
            "name": "Windsor—Tecumseh"
          }
        ],
        "pollDivisionIds": [
          10142724
        ],
        "postalCode": "N8S1R6",
        "streetName": "WYANDOTTE",
        "streetDirectionId": "E",
        "streetTypeId": "ST",
        "placeName": "WINDSOR",
        "streetNameDisplayText": "WYANDOTTE ST E, WINDSOR"
      }
    ]
  },
  {
    "postal": "N8S9V5",
    "result": []
  },
  {
    "postal": "N8S9T0",
    "result": []
  },
  {
    "postal": "N8S0A9",
    "result": []
  },
  {
    "postal": "N8S1M3",
    "result": [
      {
        "electoralDistricts": [
          {
            "election": null,
            "id": 118,
            "name": "Windsor—Tecumseh"
          }
        ],
        "pollDivisionIds": [
          10142720
        ],
        "postalCode": "N8S1M3",
        "streetName": "WYANDOTTE",
        "streetDirectionId": "E",
        "streetTypeId": "ST",
        "placeName": "WINDSOR",
        "streetNameDisplayText": "WYANDOTTE ST E, WINDSOR"
      }
    ]
  },
  {
    "postal": "N8S1W8",
    "result": [
      {
        "electoralDistricts": [
          {
            "election": null,
            "id": 118,
            "name": "Windsor—Tecumseh"
          }
        ],
        "pollDivisionIds": [
          10142727
        ],
        "postalCode": "N8S1W8",
        "streetName": "JEROME",
        "streetDirectionId": null,
        "streetTypeId": "ST",
        "placeName": "WINDSOR",
        "streetNameDisplayText": "JEROME ST, WINDSOR"
      }
    ]
  },
  {
    "postal": "N8S9J1",
    "result": []
  },
  {
    "postal": "N8S8N5",
    "result": []
  },
  {
    "postal": "N8S5X1",
    "result": []
  },
  {
    "postal": "N8S6S2",
    "result": []
  },
  {
    "postal": "N8S2A2",
    "result": [
      {
        "electoralDistricts": [
          {
            "election": null,
            "id": 118,
            "name": "Windsor—Tecumseh"
          }
        ],
        "pollDivisionIds": [
          10142724
        ],
        "postalCode": "N8S2A2",
        "streetName": "RAYMOND",
        "streetDirectionId": null,
        "streetTypeId": "AVE",
        "placeName": "WINDSOR",
        "streetNameDisplayText": "RAYMOND AVE, WINDSOR"
      }
    ]
  },
  {
    "postal": "N8S6A6",
    "result": []
  },
  {
    "postal": "N8S0S3",
    "result": []
  },
  {
    "postal": "N8S3E7",
    "result": [
      {
        "electoralDistricts": [
          {
            "election": null,
            "id": 118,
            "name": "Windsor—Tecumseh"
          }
        ],
        "pollDivisionIds": [
          10142725
        ],
        "postalCode": "N8S3E7",
        "streetName": "FAIRVIEW",
        "streetDirectionId": null,
        "streetTypeId": "BLVD",
        "placeName": "WINDSOR",
        "streetNameDisplayText": "FAIRVIEW BLVD, WINDSOR"
      }
    ]
  },
  {
    "postal": "N8S5R7",
    "result": []
  },
  {
    "postal": "N8S3R6",
    "result": [
      {
        "electoralDistricts": [
          {
            "election": null,
            "id": 118,
            "name": "Windsor—Tecumseh"
          }
        ],
        "pollDivisionIds": [
          10142727
        ],
        "postalCode": "N8S3R6",
        "streetName": "LAPORTE",
        "streetDirectionId": null,
        "streetTypeId": "AVE",
        "placeName": "WINDSOR",
        "streetNameDisplayText": "LAPORTE AVE, WINDSOR"
      }
    ]
  },
  {
    "postal": "N8S6K4",
    "result": []
  },
  {
    "postal": "N8S2W5",
    "result": [
      {
        "electoralDistricts": [
          {
            "election": null,
            "id": 118,
            "name": "Windsor—Tecumseh"
          }
        ],
        "pollDivisionIds": [
          10142725
        ],
        "postalCode": "N8S2W5",
        "streetName": "JANISSE",
        "streetDirectionId": null,
        "streetTypeId": "DR",
        "placeName": "WINDSOR",
        "streetNameDisplayText": "JANISSE DR, WINDSOR"
      }
    ]
  },
  {
    "postal": "N8S8W4",
    "result": []
  },
  {
    "postal": "N8S9C2",
    "result": []
  },
  {
    "postal": "N8S2C0",
    "result": []
  },
  {
    "postal": "N8S0E1",
    "result": []
  },
  {
    "postal": "N8S1K9",
    "result": [
      {
        "electoralDistricts": [
          {
            "election": null,
            "id": 118,
            "name": "Windsor—Tecumseh"
          }
        ],
        "pollDivisionIds": [
          10142726
        ],
        "postalCode": "N8S1K9",
        "streetName": "CEDARVIEW",
        "streetDirectionId": null,
        "streetTypeId": "ST",
        "placeName": "WINDSOR",
        "streetNameDisplayText": "CEDARVIEW ST, WINDSOR"
      }
    ]
  },
  {
    "postal": "N8S1G7",
    "result": [
      {
        "electoralDistricts": [
          {
            "election": null,
            "id": 118,
            "name": "Windsor—Tecumseh"
          }
        ],
        "pollDivisionIds": [
          10142759
        ],
        "postalCode": "N8S1G7",
        "streetName": "RIVERSIDE",
        "streetDirectionId": "E",
        "streetTypeId": "DR",
        "placeName": "WINDSOR",
        "streetNameDisplayText": "RIVERSIDE DR E, WINDSOR"
      }
    ]
  },
  {
    "postal": "N8S4E9",
    "result": [
      {
        "electoralDistricts": [
          {
            "election": null,
            "id": 118,
            "name": "Windsor—Tecumseh"
          }
        ],
        "pollDivisionIds": [
          10142728
        ],
        "postalCode": "N8S4E9",
        "streetName": "ABBEY",
        "streetDirectionId": null,
        "streetTypeId": "CRT",
        "placeName": "WINDSOR",
        "streetNameDisplayText": "ABBEY CRT, WINDSOR"
      }
    ]
  },
  {
    "postal": "N8S9P0",
    "result": []
  },
  {
    "postal": "N8S5H3",
    "result": []
  },
  {
    "postal": "N8S9X6",
    "result": []
  },
  {
    "postal": "N8S5N7",
    "result": []
  },
  {
    "postal": "N8S5A6",
    "result": []
  },
  {
    "postal": "N8S4M0",
    "result": []
  },
  {
    "postal": "N8S3V6",
    "result": [
      {
        "electoralDistricts": [
          {
            "election": null,
            "id": 118,
            "name": "Windsor—Tecumseh"
          }
        ],
        "pollDivisionIds": [
          10142726
        ],
        "postalCode": "N8S3V6",
        "streetName": "GENEVIEVE",
        "streetDirectionId": null,
        "streetTypeId": "AVE",
        "placeName": "WINDSOR",
        "streetNameDisplayText": "GENEVIEVE AVE, WINDSOR"
      }
    ]
  },
  {
    "postal": "N8S1L7",
    "result": []
  },
  {
    "postal": "N8S2P9",
    "result": [
      {
        "electoralDistricts": [
          {
            "election": null,
            "id": 118,
            "name": "Windsor—Tecumseh"
          }
        ],
        "pollDivisionIds": [
          10142720
        ],
        "postalCode": "N8S2P9",
        "streetName": "JEFFERSON",
        "streetDirectionId": null,
        "streetTypeId": "BLVD",
        "placeName": "WINDSOR",
        "streetNameDisplayText": "JEFFERSON BLVD, WINDSOR"
      }
    ]
  },
  {
    "postal": "N8S5T4",
    "result": []
  },
  {
    "postal": "N8S5Z1",
    "result": []
  },
  {
    "postal": "N8S2X0",
    "result": []
  },
  {
    "postal": "N8S6Z2",
    "result": []
  },
  {
    "postal": "N8S0E0",
    "result": []
  },
  {
    "postal": "N8S3Z5",
    "result": [
      {
        "electoralDistricts": [
          {
            "election": null,
            "id": 118,
            "name": "Windsor—Tecumseh"
          }
        ],
        "pollDivisionIds": [
          10142727
        ],
        "postalCode": "N8S3Z5",
        "streetName": "RHOLAINE",
        "streetDirectionId": null,
        "streetTypeId": "DR",
        "placeName": "WINDSOR",
        "streetNameDisplayText": "RHOLAINE DR, WINDSOR"
      }
    ]
  },
  {
    "postal": "N8S8H3",
    "result": []
  },
  {
    "postal": "N8S7S6",
    "result": []
  },
  {
    "postal": "N8S4C1",
    "result": [
      {
        "electoralDistricts": [
          {
            "election": null,
            "id": 118,
            "name": "Windsor—Tecumseh"
          }
        ],
        "pollDivisionIds": [
          10142727
        ],
        "postalCode": "N8S4C1",
        "streetName": "RIVERDALE",
        "streetDirectionId": null,
        "streetTypeId": "AVE",
        "placeName": "WINDSOR",
        "streetNameDisplayText": "RIVERDALE AVE, WINDSOR"
      }
    ]
  },
  {
    "postal": "N8S3K2",
    "result": [
      {
        "electoralDistricts": [
          {
            "election": null,
            "id": 118,
            "name": "Windsor—Tecumseh"
          }
        ],
        "pollDivisionIds": [
          10142725
        ],
        "postalCode": "N8S3K2",
        "streetName": "MATTHEW BRADY",
        "streetDirectionId": null,
        "streetTypeId": "BLVD",
        "placeName": "WINDSOR",
        "streetNameDisplayText": "MATTHEW BRADY BLVD, WINDSOR"
      }
    ]
  },
  {
    "postal": "N8S1Y5",
    "result": [
      {
        "electoralDistricts": [
          {
            "election": null,
            "id": 118,
            "name": "Windsor—Tecumseh"
          }
        ],
        "pollDivisionIds": [
          10142724
        ],
        "postalCode": "N8S1Y5",
        "streetName": "ST ROSE",
        "streetDirectionId": null,
        "streetTypeId": "AVE",
        "placeName": "WINDSOR",
        "streetNameDisplayText": "ST ROSE AVE, WINDSOR"
      }
    ]
  },
  {
    "postal": "N8S6P6",
    "result": []
  },
  {
    "postal": "N8S3N9",
    "result": [
      {
        "electoralDistricts": [
          {
            "election": null,
            "id": 118,
            "name": "Windsor—Tecumseh"
          }
        ],
        "pollDivisionIds": [
          10142726
        ],
        "postalCode": "N8S3N9",
        "streetName": "FRANK",
        "streetDirectionId": null,
        "streetTypeId": "AVE",
        "placeName": "WINDSOR",
        "streetNameDisplayText": "FRANK AVE, WINDSOR"
      }
    ]
  },
  {
    "postal": "N8S3W2",
    "result": [
      {
        "electoralDistricts": [
          {
            "election": null,
            "id": 118,
            "name": "Windsor—Tecumseh"
          }
        ],
        "pollDivisionIds": [
          10142726
        ],
        "postalCode": "N8S3W2",
        "streetName": "ISACK",
        "streetDirectionId": null,
        "streetTypeId": "DR",
        "placeName": "WINDSOR",
        "streetNameDisplayText": "ISACK DR, WINDSOR"
      }
    ]
  },
  {
    "postal": "N8S6H8",
    "result": []
  },
  {
    "postal": "N8S9T3",
    "result": []
  },
  {
    "postal": "N8S5L9",
    "result": []
  },
  {
    "postal": "N8S7X7",
    "result": []
  },
  {
    "postal": "N8S3J5",
    "result": [
      {
        "electoralDistricts": [
          {
            "election": null,
            "id": 118,
            "name": "Windsor—Tecumseh"
          }
        ],
        "pollDivisionIds": [
          10142726
        ],
        "postalCode": "N8S3J5",
        "streetName": "MATTHEW BRADY",
        "streetDirectionId": null,
        "streetTypeId": "BLVD",
        "placeName": "WINDSOR",
        "streetNameDisplayText": "MATTHEW BRADY BLVD, WINDSOR"
      }
    ]
  },
  {
    "postal": "N8S4J5",
    "result": [
      {
        "electoralDistricts": [
          {
            "election": null,
            "id": 118,
            "name": "Windsor—Tecumseh"
          }
        ],
        "pollDivisionIds": [
          10142725
        ],
        "postalCode": "N8S4J5",
        "streetName": "ISABELLE",
        "streetDirectionId": null,
        "streetTypeId": "PL",
        "placeName": "WINDSOR",
        "streetNameDisplayText": "ISABELLE PL, WINDSOR"
      }
    ]
  },
  {
    "postal": "N8S6J2",
    "result": []
  },
  {
    "postal": "N8S5V6",
    "result": []
  },
  {
    "postal": "N8S3N2",
    "result": [
      {
        "electoralDistricts": [
          {
            "election": null,
            "id": 118,
            "name": "Windsor—Tecumseh"
          }
        ],
        "pollDivisionIds": [
          10142725
        ],
        "postalCode": "N8S3N2",
        "streetName": "LAUZON",
        "streetDirectionId": null,
        "streetTypeId": "RD",
        "placeName": "WINDSOR",
        "streetNameDisplayText": "LAUZON RD, WINDSOR"
      }
    ]
  },
  {
    "postal": "N8S3B1",
    "result": [
      {
        "electoralDistricts": [
          {
            "election": null,
            "id": 118,
            "name": "Windsor—Tecumseh"
          }
        ],
        "pollDivisionIds": [
          10142724
        ],
        "postalCode": "N8S3B1",
        "streetName": "ISABELLE",
        "streetDirectionId": null,
        "streetTypeId": "PL",
        "placeName": "WINDSOR",
        "streetNameDisplayText": "ISABELLE PL, WINDSOR"
      }
    ]
  },
  {
    "postal": "N8S8B5",
    "result": []
  },
  {
    "postal": "N8S0K1",
    "result": []
  },
  {
    "postal": "N8S7M7",
    "result": []
  },
  {
    "postal": "N8S2M2",
    "result": [
      {
        "electoralDistricts": [
          {
            "election": null,
            "id": 118,
            "name": "Windsor—Tecumseh"
          }
        ],
        "pollDivisionIds": [
          10142720
        ],
        "postalCode": "N8S2M2",
        "streetName": "REEDMERE",
        "streetDirectionId": null,
        "streetTypeId": "RD",
        "placeName": "WINDSOR",
        "streetNameDisplayText": "REEDMERE RD, WINDSOR"
      }
    ]
  },
  {
    "postal": "N8S9N3",
    "result": []
  },
  {
    "postal": "N8S4Y8",
    "result": []
  },
  {
    "postal": "N8S3V7",
    "result": [
      {
        "electoralDistricts": [
          {
            "election": null,
            "id": 118,
            "name": "Windsor—Tecumseh"
          }
        ],
        "pollDivisionIds": [
          10142726
        ],
        "postalCode": "N8S3V7",
        "streetName": "GENEVIEVE",
        "streetDirectionId": null,
        "streetTypeId": "AVE",
        "placeName": "WINDSOR",
        "streetNameDisplayText": "GENEVIEVE AVE, WINDSOR"
      }
    ]
  },
  {
    "postal": "N8S8Z1",
    "result": []
  },
  {
    "postal": "N8S7B3",
    "result": []
  },
  {
    "postal": "N8S3A8",
    "result": [
      {
        "electoralDistricts": [
          {
            "election": null,
            "id": 118,
            "name": "Windsor—Tecumseh"
          }
        ],
        "pollDivisionIds": [
          10142724
        ],
        "postalCode": "N8S3A8",
        "streetName": "ISABELLE",
        "streetDirectionId": null,
        "streetTypeId": "PL",
        "placeName": "WINDSOR",
        "streetNameDisplayText": "ISABELLE PL, WINDSOR"
      }
    ]
  },
  {
    "postal": "N8S7V5",
    "result": []
  },
  {
    "postal": "N8S2T2",
    "result": [
      {
        "electoralDistricts": [
          {
            "election": null,
            "id": 118,
            "name": "Windsor—Tecumseh"
          }
        ],
        "pollDivisionIds": [
          10142724
        ],
        "postalCode": "N8S2T2",
        "streetName": "HOMEDALE",
        "streetDirectionId": null,
        "streetTypeId": "BLVD",
        "placeName": "WINDSOR",
        "streetNameDisplayText": "HOMEDALE BLVD, WINDSOR"
      }
    ]
  },
  {
    "postal": "N8S6L3",
    "result": []
  },
  {
    "postal": "N8S0L2",
    "result": []
  },
  {
    "postal": "N8S5Y8",
    "result": []
  },
  {
    "postal": "N8S0B8",
    "result": []
  },
  {
    "postal": "N8S6R5",
    "result": []
  },
  {
    "postal": "N8S8W6",
    "result": []
  },
  {
    "postal": "N8S8G6",
    "result": []
  },
  {
    "postal": "N8S6X3",
    "result": []
  },
  {
    "postal": "N8S7R7",
    "result": []
  },
  {
    "postal": "N8S4B6",
    "result": [
      {
        "electoralDistricts": [
          {
            "election": null,
            "id": 118,
            "name": "Windsor—Tecumseh"
          }
        ],
        "pollDivisionIds": [
          10142730
        ],
        "postalCode": "N8S4B6",
        "streetName": "RIVERDALE",
        "streetDirectionId": null,
        "streetTypeId": "AVE",
        "placeName": "WINDSOR",
        "streetNameDisplayText": "RIVERDALE AVE, WINDSOR"
      }
    ]
  },
  {
    "postal": "N8S3P9",
    "result": [
      {
        "electoralDistricts": [
          {
            "election": null,
            "id": 118,
            "name": "Windsor—Tecumseh"
          }
        ],
        "pollDivisionIds": [
          10142726
        ],
        "postalCode": "N8S3P9",
        "streetName": "LAPORTE",
        "streetDirectionId": null,
        "streetTypeId": "AVE",
        "placeName": "WINDSOR",
        "streetNameDisplayText": "LAPORTE AVE, WINDSOR"
      }
    ]
  },
  {
    "postal": "N8S2T3",
    "result": [
      {
        "electoralDistricts": [
          {
            "election": null,
            "id": 118,
            "name": "Windsor—Tecumseh"
          }
        ],
        "pollDivisionIds": [
          10142724
        ],
        "postalCode": "N8S2T3",
        "streetName": "HOMEDALE",
        "streetDirectionId": null,
        "streetTypeId": "BLVD",
        "placeName": "WINDSOR",
        "streetNameDisplayText": "HOMEDALE BLVD, WINDSOR"
      }
    ]
  },
  {
    "postal": "N8S1M4",
    "result": [
      {
        "electoralDistricts": [
          {
            "election": null,
            "id": 118,
            "name": "Windsor—Tecumseh"
          }
        ],
        "pollDivisionIds": [
          10142720
        ],
        "postalCode": "N8S1M4",
        "streetName": "WYANDOTTE",
        "streetDirectionId": "E",
        "streetTypeId": "ST",
        "placeName": "WINDSOR",
        "streetNameDisplayText": "WYANDOTTE ST E, WINDSOR"
      }
    ]
  },
  {
    "postal": "N8S0H1",
    "result": []
  },
  {
    "postal": "N8S9W3",
    "result": []
  },
  {
    "postal": "N8S6P1",
    "result": []
  },
  {
    "postal": "N8S7G2",
    "result": []
  },
  {
    "postal": "N8S4J9",
    "result": [
      {
        "electoralDistricts": [
          {
            "election": null,
            "id": 118,
            "name": "Windsor—Tecumseh"
          }
        ],
        "pollDivisionIds": [
          10142728
        ],
        "postalCode": "N8S4J9",
        "streetName": "ARNCLIFFE",
        "streetDirectionId": null,
        "streetTypeId": "CRT",
        "placeName": "WINDSOR",
        "streetNameDisplayText": "ARNCLIFFE CRT, WINDSOR"
      }
    ]
  },
  {
    "postal": "N8S9E4",
    "result": []
  },
  {
    "postal": "N8S8H0",
    "result": []
  },
  {
    "postal": "N8S4M7",
    "result": [
      {
        "electoralDistricts": [
          {
            "election": null,
            "id": 118,
            "name": "Windsor—Tecumseh"
          }
        ],
        "pollDivisionIds": [
          10142728
        ],
        "postalCode": "N8S4M7",
        "streetName": "EAST MOOR",
        "streetDirectionId": null,
        "streetTypeId": "CRT",
        "placeName": "WINDSOR",
        "streetNameDisplayText": "EAST MOOR CRT, WINDSOR"
      }
    ]
  },
  {
    "postal": "N8S2G9",
    "result": [
      {
        "electoralDistricts": [
          {
            "election": null,
            "id": 118,
            "name": "Windsor—Tecumseh"
          }
        ],
        "pollDivisionIds": [
          10142718
        ],
        "postalCode": "N8S2G9",
        "streetName": "PRADO",
        "streetDirectionId": null,
        "streetTypeId": "PL",
        "placeName": "WINDSOR",
        "streetNameDisplayText": "PRADO PL, WINDSOR"
      }
    ]
  },
  {
    "postal": "N8S8T2",
    "result": []
  },
  {
    "postal": "N8S7G7",
    "result": []
  },
  {
    "postal": "N8S4Z3",
    "result": []
  },
  {
    "postal": "N8S5B3",
    "result": []
  },
  {
    "postal": "N8S1S7",
    "result": []
  },
  {
    "postal": "N8S2N7",
    "result": [
      {
        "electoralDistricts": [
          {
            "election": null,
            "id": 118,
            "name": "Windsor—Tecumseh"
          }
        ],
        "pollDivisionIds": [
          10142720
        ],
        "postalCode": "N8S2N7",
        "streetName": "GLIDDEN",
        "streetDirectionId": null,
        "streetTypeId": "AVE",
        "placeName": "WINDSOR",
        "streetNameDisplayText": "GLIDDEN AVE, WINDSOR"
      }
    ]
  },
  {
    "postal": "N8S0H8",
    "result": []
  },
  {
    "postal": "N8S7Z4",
    "result": []
  },
  {
    "postal": "N8S7B1",
    "result": []
  },
  {
    "postal": "N8S7P8",
    "result": []
  },
  {
    "postal": "N8S7N0",
    "result": []
  },
  {
    "postal": "N8S3Y5",
    "result": [
      {
        "electoralDistricts": [
          {
            "election": null,
            "id": 118,
            "name": "Windsor—Tecumseh"
          }
        ],
        "pollDivisionIds": [
          10142727
        ],
        "postalCode": "N8S3Y5",
        "streetName": "WESTCHESTER",
        "streetDirectionId": null,
        "streetTypeId": "DR",
        "placeName": "WINDSOR",
        "streetNameDisplayText": "WESTCHESTER DR, WINDSOR"
      }
    ]
  },
  {
    "postal": "N8S6K1",
    "result": []
  },
  {
    "postal": "N8S9X5",
    "result": []
  },
  {
    "postal": "N8S7S5",
    "result": []
  },
  {
    "postal": "N8S0A4",
    "result": [
      {
        "electoralDistricts": [
          {
            "election": null,
            "id": 118,
            "name": "Windsor—Tecumseh"
          }
        ],
        "pollDivisionIds": [
          10142727,
          10142713
        ],
        "postalCode": "N8S0A4",
        "streetName": "WYANDOTTE",
        "streetDirectionId": "E",
        "streetTypeId": "ST",
        "placeName": "WINDSOR",
        "streetNameDisplayText": "WYANDOTTE ST E, WINDSOR"
      }
    ]
  },
  {
    "postal": "N8S4T5",
    "result": [
      {
        "electoralDistricts": [
          {
            "election": null,
            "id": 118,
            "name": "Windsor—Tecumseh"
          }
        ],
        "pollDivisionIds": [
          10142726
        ],
        "postalCode": "N8S4T5",
        "streetName": "MENARD",
        "streetDirectionId": null,
        "streetTypeId": "ST",
        "placeName": "WINDSOR",
        "streetNameDisplayText": "MENARD ST, WINDSOR"
      }
    ]
  },
  {
    "postal": "N8S5K1",
    "result": []
  },
  {
    "postal": "N8S0Z9",
    "result": []
  },
  {
    "postal": "N8S7T2",
    "result": []
  },
  {
    "postal": "N8S1L5",
    "result": [
      {
        "electoralDistricts": [
          {
            "election": null,
            "id": 119,
            "name": "Windsor West"
          },
          {
            "election": null,
            "id": 118,
            "name": "Windsor—Tecumseh"
          }
        ],
        "pollDivisionIds": [
          10142799,
          10142718
        ],
        "postalCode": "N8S1L5",
        "streetName": "WYANDOTTE",
        "streetDirectionId": "E",
        "streetTypeId": "ST",
        "placeName": "WINDSOR",
        "streetNameDisplayText": "WYANDOTTE ST E, WINDSOR"
      }
    ]
  },
  {
    "postal": "N8S3N5",
    "result": []
  },
  {
    "postal": "N8S6H4",
    "result": []
  },
  {
    "postal": "N8S5A5",
    "result": []
  },
  {
    "postal": "N8S3R9",
    "result": [
      {
        "electoralDistricts": [
          {
            "election": null,
            "id": 118,
            "name": "Windsor—Tecumseh"
          }
        ],
        "pollDivisionIds": [
          10142726
        ],
        "postalCode": "N8S3R9",
        "streetName": "WATSON",
        "streetDirectionId": null,
        "streetTypeId": "AVE",
        "placeName": "WINDSOR",
        "streetNameDisplayText": "WATSON AVE, WINDSOR"
      }
    ]
  },
  {
    "postal": "N8S7L8",
    "result": []
  },
  {
    "postal": "N8S6T6",
    "result": []
  },
  {
    "postal": "N8S7Y7",
    "result": []
  },
  {
    "postal": "N8S3M8",
    "result": [
      {
        "electoralDistricts": [
          {
            "election": null,
            "id": 118,
            "name": "Windsor—Tecumseh"
          }
        ],
        "pollDivisionIds": [
          10142727
        ],
        "postalCode": "N8S3M8",
        "streetName": "LAUZON",
        "streetDirectionId": null,
        "streetTypeId": "RD",
        "placeName": "WINDSOR",
        "streetNameDisplayText": "LAUZON RD, WINDSOR"
      }
    ]
  },
  {
    "postal": "N8S2E0",
    "result": []
  },
  {
    "postal": "N8S4B5",
    "result": [
      {
        "electoralDistricts": [
          {
            "election": null,
            "id": 118,
            "name": "Windsor—Tecumseh"
          }
        ],
        "pollDivisionIds": [
          10142727
        ],
        "postalCode": "N8S4B5",
        "streetName": "GREENDALE",
        "streetDirectionId": null,
        "streetTypeId": "DR",
        "placeName": "WINDSOR",
        "streetNameDisplayText": "GREENDALE DR, WINDSOR"
      }
    ]
  },
  {
    "postal": "N8S1J3",
    "result": [
      {
        "electoralDistricts": [
          {
            "election": null,
            "id": 118,
            "name": "Windsor—Tecumseh"
          }
        ],
        "pollDivisionIds": [
          10142726
        ],
        "postalCode": "N8S1J3",
        "streetName": "CLAIRVIEW",
        "streetDirectionId": null,
        "streetTypeId": "AVE",
        "placeName": "WINDSOR",
        "streetNameDisplayText": "CLAIRVIEW AVE, WINDSOR"
      }
    ]
  },
  {
    "postal": "N8S5S6",
    "result": []
  },
  {
    "postal": "N8S8P7",
    "result": []
  },
  {
    "postal": "N8S7S7",
    "result": []
  },
  {
    "postal": "N8S4C2",
    "result": [
      {
        "electoralDistricts": [
          {
            "election": null,
            "id": 118,
            "name": "Windsor—Tecumseh"
          }
        ],
        "pollDivisionIds": [
          10142727
        ],
        "postalCode": "N8S4C2",
        "streetName": "RIVERDALE",
        "streetDirectionId": null,
        "streetTypeId": "AVE",
        "placeName": "WINDSOR",
        "streetNameDisplayText": "RIVERDALE AVE, WINDSOR"
      }
    ]
  },
  {
    "postal": "N8S5Y0",
    "result": []
  },
  {
    "postal": "N8S2V7",
    "result": [
      {
        "electoralDistricts": [
          {
            "election": null,
            "id": 118,
            "name": "Windsor—Tecumseh"
          }
        ],
        "pollDivisionIds": [
          10142724
        ],
        "postalCode": "N8S2V7",
        "streetName": "JANISSE",
        "streetDirectionId": null,
        "streetTypeId": "DR",
        "placeName": "WINDSOR",
        "streetNameDisplayText": "JANISSE DR, WINDSOR"
      }
    ]
  },
  {
    "postal": "N8S8P5",
    "result": []
  },
  {
    "postal": "N8S5P5",
    "result": []
  },
  {
    "postal": "N8S5Z0",
    "result": []
  },
  {
    "postal": "N8S9B0",
    "result": []
  },
  {
    "postal": "N8S1L0",
    "result": []
  },
  {
    "postal": "N8S0B5",
    "result": []
  },
  {
    "postal": "N8S3L2",
    "result": [
      {
        "electoralDistricts": [
          {
            "election": null,
            "id": 118,
            "name": "Windsor—Tecumseh"
          }
        ],
        "pollDivisionIds": [
          10142726
        ],
        "postalCode": "N8S3L2",
        "streetName": "ST PAUL",
        "streetDirectionId": null,
        "streetTypeId": "AVE",
        "placeName": "WINDSOR",
        "streetNameDisplayText": "ST PAUL AVE, WINDSOR"
      },
      {
        "electoralDistricts": [
          {
            "election": null,
            "id": 118,
            "name": "Windsor—Tecumseh"
          }
        ],
        "pollDivisionIds": [
          10142726
        ],
        "postalCode": "N8S3L2",
        "streetName": "ST. PAUL",
        "streetDirectionId": null,
        "streetTypeId": "AVE",
        "placeName": "WINDSOR",
        "streetNameDisplayText": "ST. PAUL AVE, WINDSOR"
      }
    ]
  },
  {
    "postal": "N8S3B7",
    "result": [
      {
        "electoralDistricts": [
          {
            "election": null,
            "id": 118,
            "name": "Windsor—Tecumseh"
          }
        ],
        "pollDivisionIds": [
          10142724
        ],
        "postalCode": "N8S3B7",
        "streetName": "BELLEPERCHE",
        "streetDirectionId": null,
        "streetTypeId": "PL",
        "placeName": "WINDSOR",
        "streetNameDisplayText": "BELLEPERCHE PL, WINDSOR"
      }
    ]
  },
  {
    "postal": "N8S8L1",
    "result": []
  },
  {
    "postal": "N8S5M4",
    "result": []
  },
  {
    "postal": "N8S4G9",
    "result": [
      {
        "electoralDistricts": [
          {
            "election": null,
            "id": 118,
            "name": "Windsor—Tecumseh"
          }
        ],
        "pollDivisionIds": [
          10142728
        ],
        "postalCode": "N8S4G9",
        "streetName": "COPPERFIELD",
        "streetDirectionId": null,
        "streetTypeId": "PL",
        "placeName": "WINDSOR",
        "streetNameDisplayText": "COPPERFIELD PL, WINDSOR"
      }
    ]
  },
  {
    "postal": "N8S0P0",
    "result": []
  },
  {
    "postal": "N8S8G2",
    "result": []
  },
  {
    "postal": "N8S1V9",
    "result": [
      {
        "electoralDistricts": [
          {
            "election": null,
            "id": 118,
            "name": "Windsor—Tecumseh"
          }
        ],
        "pollDivisionIds": [
          10142726
        ],
        "postalCode": "N8S1V9",
        "streetName": "MENARD",
        "streetDirectionId": null,
        "streetTypeId": "ST",
        "placeName": "WINDSOR",
        "streetNameDisplayText": "MENARD ST, WINDSOR"
      }
    ]
  },
  {
    "postal": "N8S8N8",
    "result": []
  },
  {
    "postal": "N8S6S8",
    "result": []
  },
  {
    "postal": "N8S8H2",
    "result": []
  },
  {
    "postal": "N8S5R8",
    "result": []
  },
  {
    "postal": "N8S5L4",
    "result": []
  },
  {
    "postal": "N8S9E1",
    "result": []
  },
  {
    "postal": "N8S1C4",
    "result": [
      {
        "electoralDistricts": [
          {
            "election": null,
            "id": 118,
            "name": "Windsor—Tecumseh"
          }
        ],
        "pollDivisionIds": [
          10142724
        ],
        "postalCode": "N8S1C4",
        "streetName": "RIVERSIDE",
        "streetDirectionId": "E",
        "streetTypeId": "DR",
        "placeName": "WINDSOR",
        "streetNameDisplayText": "RIVERSIDE DR E, WINDSOR"
      }
    ]
  },
  {
    "postal": "N8S8W5",
    "result": []
  },
  {
    "postal": "N8S1Y4",
    "result": [
      {
        "electoralDistricts": [
          {
            "election": null,
            "id": 118,
            "name": "Windsor—Tecumseh"
          }
        ],
        "pollDivisionIds": [
          10142725
        ],
        "postalCode": "N8S1Y4",
        "streetName": "ST ROSE",
        "streetDirectionId": null,
        "streetTypeId": "AVE",
        "placeName": "WINDSOR",
        "streetNameDisplayText": "ST ROSE AVE, WINDSOR"
      }
    ]
  },
  {
    "postal": "N8S1C0",
    "result": []
  },
  {
    "postal": "N8S2J2",
    "result": [
      {
        "electoralDistricts": [
          {
            "election": null,
            "id": 118,
            "name": "Windsor—Tecumseh"
          }
        ],
        "pollDivisionIds": [
          10142720
        ],
        "postalCode": "N8S2J2",
        "streetName": "VILLAIRE",
        "streetDirectionId": null,
        "streetTypeId": "AVE",
        "placeName": "WINDSOR",
        "streetNameDisplayText": "VILLAIRE AVE, WINDSOR"
      }
    ]
  },
  {
    "postal": "N8S2J0",
    "result": []
  },
  {
    "postal": "N8S7A3",
    "result": []
  },
  {
    "postal": "N8S8M1",
    "result": []
  },
  {
    "postal": "N8S7T9",
    "result": []
  },
  {
    "postal": "N8S6C0",
    "result": []
  },
  {
    "postal": "N8S7X1",
    "result": []
  },
  {
    "postal": "N8S0G1",
    "result": []
  },
  {
    "postal": "N8S4X2",
    "result": []
  },
  {
    "postal": "N8S0N6",
    "result": []
  },
  {
    "postal": "N8S8E3",
    "result": []
  },
  {
    "postal": "N8S5S8",
    "result": []
  },
  {
    "postal": "N8S0R0",
    "result": []
  },
  {
    "postal": "N8S6J6",
    "result": []
  },
  {
    "postal": "N8S4B4",
    "result": [
      {
        "electoralDistricts": [
          {
            "election": null,
            "id": 118,
            "name": "Windsor—Tecumseh"
          }
        ],
        "pollDivisionIds": [
          10142727
        ],
        "postalCode": "N8S4B4",
        "streetName": "GREENDALE",
        "streetDirectionId": null,
        "streetTypeId": "DR",
        "placeName": "WINDSOR",
        "streetNameDisplayText": "GREENDALE DR, WINDSOR"
      }
    ]
  },
  {
    "postal": "N8S7E3",
    "result": []
  },
  {
    "postal": "N8S3N6",
    "result": [
      {
        "electoralDistricts": [
          {
            "election": null,
            "id": 118,
            "name": "Windsor—Tecumseh"
          }
        ],
        "pollDivisionIds": [
          10142727
        ],
        "postalCode": "N8S3N6",
        "streetName": "RIVERDALE",
        "streetDirectionId": null,
        "streetTypeId": "AVE",
        "placeName": "WINDSOR",
        "streetNameDisplayText": "RIVERDALE AVE, WINDSOR"
      }
    ]
  },
  {
    "postal": "N8S3X6",
    "result": [
      {
        "electoralDistricts": [
          {
            "election": null,
            "id": 118,
            "name": "Windsor—Tecumseh"
          }
        ],
        "pollDivisionIds": [
          10142727
        ],
        "postalCode": "N8S3X6",
        "streetName": "SMEETON",
        "streetDirectionId": null,
        "streetTypeId": "DR",
        "placeName": "WINDSOR",
        "streetNameDisplayText": "SMEETON DR, WINDSOR"
      }
    ]
  },
  {
    "postal": "N8S8L0",
    "result": []
  },
  {
    "postal": "N8S8N1",
    "result": []
  },
  {
    "postal": "N8S4J0",
    "result": []
  },
  {
    "postal": "N8S0X7",
    "result": []
  },
  {
    "postal": "N8S6S4",
    "result": []
  },
  {
    "postal": "N8S0Z0",
    "result": []
  },
  {
    "postal": "N8S9X8",
    "result": []
  },
  {
    "postal": "N8S3H3",
    "result": [
      {
        "electoralDistricts": [
          {
            "election": null,
            "id": 118,
            "name": "Windsor—Tecumseh"
          }
        ],
        "pollDivisionIds": [
          10142726
        ],
        "postalCode": "N8S3H3",
        "streetName": "EASTLAWN",
        "streetDirectionId": null,
        "streetTypeId": "AVE",
        "placeName": "WINDSOR",
        "streetNameDisplayText": "EASTLAWN AVE, WINDSOR"
      }
    ]
  },
  {
    "postal": "N8S7S2",
    "result": []
  },
  {
    "postal": "N8S3T3",
    "result": [
      {
        "electoralDistricts": [
          {
            "election": null,
            "id": 118,
            "name": "Windsor—Tecumseh"
          }
        ],
        "pollDivisionIds": [
          10142727
        ],
        "postalCode": "N8S3T3",
        "streetName": "WATSON",
        "streetDirectionId": null,
        "streetTypeId": "AVE",
        "placeName": "WINDSOR",
        "streetNameDisplayText": "WATSON AVE, WINDSOR"
      }
    ]
  },
  {
    "postal": "N8S9P3",
    "result": []
  },
  {
    "postal": "N8S4H8",
    "result": [
      {
        "electoralDistricts": [
          {
            "election": null,
            "id": 118,
            "name": "Windsor—Tecumseh"
          }
        ],
        "pollDivisionIds": [
          10142728
        ],
        "postalCode": "N8S4H8",
        "streetName": "FOXHILL",
        "streetDirectionId": null,
        "streetTypeId": "PL",
        "placeName": "WINDSOR",
        "streetNameDisplayText": "FOXHILL PL, WINDSOR"
      }
    ]
  },
  {
    "postal": "N8S6R1",
    "result": []
  },
  {
    "postal": "N8S1S0",
    "result": []
  },
  {
    "postal": "N8S3W8",
    "result": [
      {
        "electoralDistricts": [
          {
            "election": null,
            "id": 118,
            "name": "Windsor—Tecumseh"
          }
        ],
        "pollDivisionIds": [
          10142726
        ],
        "postalCode": "N8S3W8",
        "streetName": "BETTY",
        "streetDirectionId": null,
        "streetTypeId": "DR",
        "placeName": "WINDSOR",
        "streetNameDisplayText": "BETTY DR, WINDSOR"
      }
    ]
  },
  {
    "postal": "N8S4S3",
    "result": [
      {
        "electoralDistricts": [
          {
            "election": null,
            "id": 118,
            "name": "Windsor—Tecumseh"
          }
        ],
        "pollDivisionIds": [
          10142725
        ],
        "postalCode": "N8S4S3",
        "streetName": "TRANBY",
        "streetDirectionId": null,
        "streetTypeId": "AVE",
        "placeName": "WINDSOR",
        "streetNameDisplayText": "TRANBY AVE, WINDSOR"
      }
    ]
  },
  {
    "postal": "N8S1B6",
    "result": [
      {
        "electoralDistricts": [
          {
            "election": null,
            "id": 118,
            "name": "Windsor—Tecumseh"
          }
        ],
        "pollDivisionIds": [
          10142720
        ],
        "postalCode": "N8S1B6",
        "streetName": "RIVERSIDE",
        "streetDirectionId": "E",
        "streetTypeId": "DR",
        "placeName": "WINDSOR",
        "streetNameDisplayText": "RIVERSIDE DR E, WINDSOR"
      }
    ]
  },
  {
    "postal": "N8S8R3",
    "result": []
  },
  {
    "postal": "N8S4V9",
    "result": []
  },
  {
    "postal": "N8S9W4",
    "result": []
  },
  {
    "postal": "N8S3T4",
    "result": [
      {
        "electoralDistricts": [
          {
            "election": null,
            "id": 118,
            "name": "Windsor—Tecumseh"
          }
        ],
        "pollDivisionIds": [
          10142727
        ],
        "postalCode": "N8S3T4",
        "streetName": "WATSON",
        "streetDirectionId": null,
        "streetTypeId": "AVE",
        "placeName": "WINDSOR",
        "streetNameDisplayText": "WATSON AVE, WINDSOR"
      }
    ]
  },
  {
    "postal": "N8S5C7",
    "result": []
  },
  {
    "postal": "N8S3Y1",
    "result": [
      {
        "electoralDistricts": [
          {
            "election": null,
            "id": 118,
            "name": "Windsor—Tecumseh"
          }
        ],
        "pollDivisionIds": [
          10142726
        ],
        "postalCode": "N8S3Y1",
        "streetName": "CARLING",
        "streetDirectionId": null,
        "streetTypeId": "CRES",
        "placeName": "WINDSOR",
        "streetNameDisplayText": "CARLING CRES, WINDSOR"
      }
    ]
  },
  {
    "postal": "N8S5V0",
    "result": []
  },
  {
    "postal": "N8S8G8",
    "result": []
  },
  {
    "postal": "N8S8B1",
    "result": []
  },
  {
    "postal": "N8S4P5",
    "result": [
      {
        "electoralDistricts": [
          {
            "election": null,
            "id": 118,
            "name": "Windsor—Tecumseh"
          }
        ],
        "pollDivisionIds": [
          10142726
        ],
        "postalCode": "N8S4P5",
        "streetName": "CLAIRVIEW",
        "streetDirectionId": null,
        "streetTypeId": "AVE",
        "placeName": "WINDSOR",
        "streetNameDisplayText": "CLAIRVIEW AVE, WINDSOR"
      }
    ]
  },
  {
    "postal": "N8S7B2",
    "result": []
  },
  {
    "postal": "N8S0R2",
    "result": []
  },
  {
    "postal": "N8S4M4",
    "result": [
      {
        "electoralDistricts": [
          {
            "election": null,
            "id": 118,
            "name": "Windsor—Tecumseh"
          },
          {
            "election": null,
            "id": 119,
            "name": "Windsor West"
          }
        ],
        "pollDivisionIds": [
          10142728,
          10142807
        ],
        "postalCode": "N8S4M4",
        "streetName": "DENBY",
        "streetDirectionId": null,
        "streetTypeId": "CRT",
        "placeName": "WINDSOR",
        "streetNameDisplayText": "DENBY CRT, WINDSOR"
      }
    ]
  },
  {
    "postal": "N8S7M4",
    "result": []
  },
  {
    "postal": "N8S9S7",
    "result": []
  },
  {
    "postal": "N8S5Z7",
    "result": []
  },
  {
    "postal": "N8S7J7",
    "result": []
  },
  {
    "postal": "N8S8R8",
    "result": []
  },
  {
    "postal": "N8S9X1",
    "result": []
  },
  {
    "postal": "N8S5M9",
    "result": []
  },
  {
    "postal": "N8S9B4",
    "result": []
  },
  {
    "postal": "N8S0L9",
    "result": []
  },
  {
    "postal": "N8S9G4",
    "result": []
  },
  {
    "postal": "N8S1J4",
    "result": [
      {
        "electoralDistricts": [
          {
            "election": null,
            "id": 118,
            "name": "Windsor—Tecumseh"
          }
        ],
        "pollDivisionIds": [
          10142726
        ],
        "postalCode": "N8S1J4",
        "streetName": "CLAIRVIEW",
        "streetDirectionId": null,
        "streetTypeId": "AVE",
        "placeName": "WINDSOR",
        "streetNameDisplayText": "CLAIRVIEW AVE, WINDSOR"
      }
    ]
  },
  {
    "postal": "N8S0W6",
    "result": []
  }
]
