[
  {
    "postal": "L9A9J6",
    "result": []
  },
  {
    "postal": "L9A9Z5",
    "result": []
  },
  {
    "postal": "L9A7H8",
    "result": []
  },
  {
    "postal": "L9A0P6",
    "result": []
  },
  {
    "postal": "L9A0S7",
    "result": []
  },
  {
    "postal": "L9A8B9",
    "result": []
  },
  {
    "postal": "L9A2A6",
    "result": [
      {
        "electoralDistricts": [
          {
            "election": null,
            "id": 38,
            "name": "Hamilton Mountain"
          }
        ],
        "pollDivisionIds": [
          10138683
        ],
        "postalCode": "L9A2A6",
        "streetName": "ALDERNEY",
        "streetDirectionId": null,
        "streetTypeId": "AVE",
        "placeName": "HAMILTON",
        "streetNameDisplayText": "ALDERNEY AVE, HAMILTON"
      }
    ]
  },
  {
    "postal": "L9A7V2",
    "result": []
  },
  {
    "postal": "L9A9P4",
    "result": []
  },
  {
    "postal": "L9A6G0",
    "result": []
  },
  {
    "postal": "L9A2K0",
    "result": []
  },
  {
    "postal": "L9A7N6",
    "result": []
  },
  {
    "postal": "L9A5R3",
    "result": []
  },
  {
    "postal": "L9A7K0",
    "result": []
  },
  {
    "postal": "L9A3R2",
    "result": [
      {
        "electoralDistricts": [
          {
            "election": null,
            "id": 38,
            "name": "Hamilton Mountain"
          }
        ],
        "pollDivisionIds": [
          10138682
        ],
        "postalCode": "L9A3R2",
        "streetName": "UPPER WELLINGTON",
        "streetDirectionId": null,
        "streetTypeId": "ST",
        "placeName": "HAMILTON",
        "streetNameDisplayText": "UPPER WELLINGTON ST, HAMILTON"
      },
      {
        "electoralDistricts": [
          {
            "election": null,
            "id": 38,
            "name": "Hamilton Mountain"
          }
        ],
        "pollDivisionIds": [
          10138682
        ],
        "postalCode": "L9A3R2",
        "streetName": "UPPER WENTWORTH",
        "streetDirectionId": null,
        "streetTypeId": "ST",
        "placeName": "HAMILTON",
        "streetNameDisplayText": "UPPER WENTWORTH ST, HAMILTON"
      }
    ]
  },
  {
    "postal": "L9A0J1",
    "result": []
  },
  {
    "postal": "L9A0B0",
    "result": []
  },
  {
    "postal": "L9A5Z2",
    "result": []
  },
  {
    "postal": "L9A7P3",
    "result": []
  },
  {
    "postal": "L9A2K3",
    "result": [
      {
        "electoralDistricts": [
          {
            "election": null,
            "id": 38,
            "name": "Hamilton Mountain"
          }
        ],
        "pollDivisionIds": [
          10138684
        ],
        "postalCode": "L9A2K3",
        "streetName": "LUSCOMBE",
        "streetDirectionId": null,
        "streetTypeId": "ST",
        "placeName": "HAMILTON",
        "streetNameDisplayText": "LUSCOMBE ST, HAMILTON"
      }
    ]
  },
  {
    "postal": "L9A7Y6",
    "result": []
  },
  {
    "postal": "L9A1L9",
    "result": [
      {
        "electoralDistricts": [
          {
            "election": null,
            "id": 38,
            "name": "Hamilton Mountain"
          }
        ],
        "pollDivisionIds": [
          10138682
        ],
        "postalCode": "L9A1L9",
        "streetName": "QUEENSDALE",
        "streetDirectionId": "E",
        "streetTypeId": "AVE",
        "placeName": "HAMILTON",
        "streetNameDisplayText": "QUEENSDALE AVE E, HAMILTON"
      }
    ]
  },
  {
    "postal": "L9A8T0",
    "result": []
  },
  {
    "postal": "L9A3K8",
    "result": [
      {
        "electoralDistricts": [
          {
            "election": null,
            "id": 38,
            "name": "Hamilton Mountain"
          }
        ],
        "pollDivisionIds": [
          10138680
        ],
        "postalCode": "L9A3K8",
        "streetName": "DODSON",
        "streetDirectionId": null,
        "streetTypeId": "ST",
        "placeName": "HAMILTON",
        "streetNameDisplayText": "DODSON ST, HAMILTON"
      }
    ]
  },
  {
    "postal": "L9A5W9",
    "result": []
  },
  {
    "postal": "L9A6T9",
    "result": []
  },
  {
    "postal": "L9A4H1",
    "result": [
      {
        "electoralDistricts": [
          {
            "election": null,
            "id": 38,
            "name": "Hamilton Mountain"
          }
        ],
        "pollDivisionIds": [
          10138683
        ],
        "postalCode": "L9A4H1",
        "streetName": "EAST 15TH",
        "streetDirectionId": null,
        "streetTypeId": "ST",
        "placeName": "HAMILTON",
        "streetNameDisplayText": "EAST 15TH ST, HAMILTON"
      }
    ]
  },
  {
    "postal": "L9A7A2",
    "result": []
  },
  {
    "postal": "L9A5G0",
    "result": []
  },
  {
    "postal": "L9A8V5",
    "result": []
  },
  {
    "postal": "L9A2Y8",
    "result": [
      {
        "electoralDistricts": [
          {
            "election": null,
            "id": 38,
            "name": "Hamilton Mountain"
          }
        ],
        "pollDivisionIds": [
          10138680
        ],
        "postalCode": "L9A2Y8",
        "streetName": "TERRACE",
        "streetDirectionId": null,
        "streetTypeId": "DR",
        "placeName": "HAMILTON",
        "streetNameDisplayText": "TERRACE DR, HAMILTON"
      }
    ]
  },
  {
    "postal": "L9A2B6",
    "result": [
      {
        "electoralDistricts": [
          {
            "election": null,
            "id": 38,
            "name": "Hamilton Mountain"
          }
        ],
        "pollDivisionIds": [
          10138680
        ],
        "postalCode": "L9A2B6",
        "streetName": "SOUTH BEND",
        "streetDirectionId": "E",
        "streetTypeId": "RD",
        "placeName": "HAMILTON",
        "streetNameDisplayText": "SOUTH BEND RD E, HAMILTON"
      }
    ]
  },
  {
    "postal": "L9A4W8",
    "result": [
      {
        "electoralDistricts": [
          {
            "election": null,
            "id": 38,
            "name": "Hamilton Mountain"
          }
        ],
        "pollDivisionIds": [
          10138680
        ],
        "postalCode": "L9A4W8",
        "streetName": "SOUTH BEND",
        "streetDirectionId": "E",
        "streetTypeId": "RD",
        "placeName": "HAMILTON",
        "streetNameDisplayText": "SOUTH BEND RD E, HAMILTON"
      }
    ]
  },
  {
    "postal": "L9A8H7",
    "result": []
  },
  {
    "postal": "L9A5P1",
    "result": []
  },
  {
    "postal": "L9A2B8",
    "result": [
      {
        "electoralDistricts": [
          {
            "election": null,
            "id": 38,
            "name": "Hamilton Mountain"
          }
        ],
        "pollDivisionIds": [
          10138683
        ],
        "postalCode": "L9A2B8",
        "streetName": "SOUTH BEND",
        "streetDirectionId": "E",
        "streetTypeId": "RD",
        "placeName": "HAMILTON",
        "streetNameDisplayText": "SOUTH BEND RD E, HAMILTON"
      }
    ]
  },
  {
    "postal": "L9A0P2",
    "result": []
  },
  {
    "postal": "L9A9M1",
    "result": []
  },
  {
    "postal": "L9A3G0",
    "result": []
  },
  {
    "postal": "L9A9Z2",
    "result": []
  },
  {
    "postal": "L9A2A0",
    "result": []
  },
  {
    "postal": "L9A6Y0",
    "result": []
  },
  {
    "postal": "L9A2Z8",
    "result": []
  },
  {
    "postal": "L9A7Y3",
    "result": []
  },
  {
    "postal": "L9A6Z5",
    "result": []
  },
  {
    "postal": "L9A6E0",
    "result": []
  },
  {
    "postal": "L9A9B7",
    "result": []
  },
  {
    "postal": "L9A9S5",
    "result": []
  },
  {
    "postal": "L9A3X3",
    "result": [
      {
        "electoralDistricts": [
          {
            "election": null,
            "id": 38,
            "name": "Hamilton Mountain"
          }
        ],
        "pollDivisionIds": [
          10138682
        ],
        "postalCode": "L9A3X3",
        "streetName": "EAST 12TH",
        "streetDirectionId": null,
        "streetTypeId": "ST",
        "placeName": "HAMILTON",
        "streetNameDisplayText": "EAST 12TH ST, HAMILTON"
      }
    ]
  },
  {
    "postal": "L9A7R5",
    "result": []
  },
  {
    "postal": "L9A2X3",
    "result": [
      {
        "electoralDistricts": [
          {
            "election": null,
            "id": 38,
            "name": "Hamilton Mountain"
          }
        ],
        "pollDivisionIds": [
          10138684
        ],
        "postalCode": "L9A2X3",
        "streetName": "RIDGE",
        "streetDirectionId": null,
        "streetTypeId": "ST",
        "placeName": "HAMILTON",
        "streetNameDisplayText": "RIDGE ST, HAMILTON"
      }
    ]
  },
  {
    "postal": "L9A8Z9",
    "result": []
  },
  {
    "postal": "L9A0N4",
    "result": []
  },
  {
    "postal": "L9A1K1",
    "result": [
      {
        "electoralDistricts": [
          {
            "election": null,
            "id": 38,
            "name": "Hamilton Mountain"
          }
        ],
        "pollDivisionIds": [
          10138681
        ],
        "postalCode": "L9A1K1",
        "streetName": "QUEENSDALE",
        "streetDirectionId": "E",
        "streetTypeId": "AVE",
        "placeName": "HAMILTON",
        "streetNameDisplayText": "QUEENSDALE AVE E, HAMILTON"
      }
    ]
  },
  {
    "postal": "L9A1S3",
    "result": [
      {
        "electoralDistricts": [
          {
            "election": null,
            "id": 38,
            "name": "Hamilton Mountain"
          }
        ],
        "pollDivisionIds": [
          10138681
        ],
        "postalCode": "L9A1S3",
        "streetName": "FENNELL",
        "streetDirectionId": "E",
        "streetTypeId": "AVE",
        "placeName": "HAMILTON",
        "streetNameDisplayText": "FENNELL AVE E, HAMILTON"
      }
    ]
  },
  {
    "postal": "L9A6M4",
    "result": []
  },
  {
    "postal": "L9A9A9",
    "result": []
  },
  {
    "postal": "L9A9Z9",
    "result": []
  },
  {
    "postal": "L9A6T4",
    "result": []
  },
  {
    "postal": "L9A0B2",
    "result": [
      {
        "electoralDistricts": [
          {
            "election": null,
            "id": 38,
            "name": "Hamilton Mountain"
          }
        ],
        "pollDivisionIds": [
          10138688
        ],
        "postalCode": "L9A0B2",
        "streetName": "NEWPORT",
        "streetDirectionId": null,
        "streetTypeId": "CRES",
        "placeName": "HAMILTON",
        "streetNameDisplayText": "NEWPORT CRES, HAMILTON"
      }
    ]
  },
  {
    "postal": "L9A2L9",
    "result": [
      {
        "electoralDistricts": [
          {
            "election": null,
            "id": 38,
            "name": "Hamilton Mountain"
          }
        ],
        "pollDivisionIds": [
          10138703,
          10138689
        ],
        "postalCode": "L9A2L9",
        "streetName": "TANAGER",
        "streetDirectionId": null,
        "streetTypeId": "CRT",
        "placeName": "HAMILTON",
        "streetNameDisplayText": "TANAGER CRT, HAMILTON"
      }
    ]
  },
  {
    "postal": "L9A8K9",
    "result": []
  },
  {
    "postal": "L9A2H9",
    "result": [
      {
        "electoralDistricts": [
          {
            "election": null,
            "id": 38,
            "name": "Hamilton Mountain"
          }
        ],
        "pollDivisionIds": [
          10138689
        ],
        "postalCode": "L9A2H9",
        "streetName": "MOHAWK",
        "streetDirectionId": "E",
        "streetTypeId": "RD",
        "placeName": "HAMILTON",
        "streetNameDisplayText": "MOHAWK RD E, HAMILTON"
      }
    ]
  },
  {
    "postal": "L9A3Z6",
    "result": [
      {
        "electoralDistricts": [
          {
            "election": null,
            "id": 38,
            "name": "Hamilton Mountain"
          }
        ],
        "pollDivisionIds": [
          10138682
        ],
        "postalCode": "L9A3Z6",
        "streetName": "EAST 13TH",
        "streetDirectionId": null,
        "streetTypeId": "ST",
        "placeName": "HAMILTON",
        "streetNameDisplayText": "EAST 13TH ST, HAMILTON"
      }
    ]
  },
  {
    "postal": "L9A3B0",
    "result": []
  },
  {
    "postal": "L9A2H8",
    "result": [
      {
        "electoralDistricts": [
          {
            "election": null,
            "id": 38,
            "name": "Hamilton Mountain"
          }
        ],
        "pollDivisionIds": [
          10138689
        ],
        "postalCode": "L9A2H8",
        "streetName": "MOHAWK",
        "streetDirectionId": "E",
        "streetTypeId": "RD",
        "placeName": "HAMILTON",
        "streetNameDisplayText": "MOHAWK RD E, HAMILTON"
      }
    ]
  },
  {
    "postal": "L9A3X2",
    "result": [
      {
        "electoralDistricts": [
          {
            "election": null,
            "id": 38,
            "name": "Hamilton Mountain"
          }
        ],
        "pollDivisionIds": [
          10138682
        ],
        "postalCode": "L9A3X2",
        "streetName": "EAST 12TH",
        "streetDirectionId": null,
        "streetTypeId": "ST",
        "placeName": "HAMILTON",
        "streetNameDisplayText": "EAST 12TH ST, HAMILTON"
      }
    ]
  },
  {
    "postal": "L9A2E9",
    "result": [
      {
        "electoralDistricts": [
          {
            "election": null,
            "id": 38,
            "name": "Hamilton Mountain"
          }
        ],
        "pollDivisionIds": [
          10138683
        ],
        "postalCode": "L9A2E9",
        "streetName": "DUNCOMBE",
        "streetDirectionId": null,
        "streetTypeId": "DR",
        "placeName": "HAMILTON",
        "streetNameDisplayText": "DUNCOMBE DR, HAMILTON"
      }
    ]
  },
  {
    "postal": "L9A9P6",
    "result": []
  },
  {
    "postal": "L9A9E2",
    "result": []
  },
  {
    "postal": "L9A9H2",
    "result": []
  },
  {
    "postal": "L9A1S8",
    "result": [
      {
        "electoralDistricts": [
          {
            "election": null,
            "id": 38,
            "name": "Hamilton Mountain"
          }
        ],
        "pollDivisionIds": [
          10138682
        ],
        "postalCode": "L9A1S8",
        "streetName": "FENNELL",
        "streetDirectionId": "E",
        "streetTypeId": "AVE",
        "placeName": "HAMILTON",
        "streetNameDisplayText": "FENNELL AVE E, HAMILTON"
      }
    ]
  },
  {
    "postal": "L9A3M6",
    "result": [
      {
        "electoralDistricts": [
          {
            "election": null,
            "id": 38,
            "name": "Hamilton Mountain"
          }
        ],
        "pollDivisionIds": [
          10138681
        ],
        "postalCode": "L9A3M6",
        "streetName": "EAST 9TH",
        "streetDirectionId": null,
        "streetTypeId": "ST",
        "placeName": "HAMILTON",
        "streetNameDisplayText": "EAST 9TH ST, HAMILTON"
      }
    ]
  },
  {
    "postal": "L9A6Z8",
    "result": []
  },
  {
    "postal": "L9A4J2",
    "result": [
      {
        "electoralDistricts": [
          {
            "election": null,
            "id": 38,
            "name": "Hamilton Mountain"
          }
        ],
        "pollDivisionIds": [
          10138682
        ],
        "postalCode": "L9A4J2",
        "streetName": "EAST 16TH",
        "streetDirectionId": null,
        "streetTypeId": "ST",
        "placeName": "HAMILTON",
        "streetNameDisplayText": "EAST 16TH ST, HAMILTON"
      }
    ]
  },
  {
    "postal": "L9A9Y1",
    "result": []
  },
  {
    "postal": "L9A8V6",
    "result": []
  },
  {
    "postal": "L9A6B2",
    "result": []
  },
  {
    "postal": "L9A1P8",
    "result": [
      {
        "electoralDistricts": [
          {
            "election": null,
            "id": 38,
            "name": "Hamilton Mountain"
          }
        ],
        "pollDivisionIds": [
          10138682
        ],
        "postalCode": "L9A1P8",
        "streetName": "BRUCEDALE",
        "streetDirectionId": "E",
        "streetTypeId": "AVE",
        "placeName": "HAMILTON",
        "streetNameDisplayText": "BRUCEDALE AVE E, HAMILTON"
      }
    ]
  },
  {
    "postal": "L9A0V8",
    "result": []
  },
  {
    "postal": "L9A4Y0",
    "result": []
  },
  {
    "postal": "L9A2T4",
    "result": [
      {
        "electoralDistricts": [
          {
            "election": null,
            "id": 38,
            "name": "Hamilton Mountain"
          }
        ],
        "pollDivisionIds": [
          10138681
        ],
        "postalCode": "L9A2T4",
        "streetName": "MILLEN",
        "streetDirectionId": null,
        "streetTypeId": "AVE",
        "placeName": "HAMILTON",
        "streetNameDisplayText": "MILLEN AVE, HAMILTON"
      }
    ]
  },
  {
    "postal": "L9A2S3",
    "result": [
      {
        "electoralDistricts": [
          {
            "election": null,
            "id": 38,
            "name": "Hamilton Mountain"
          }
        ],
        "pollDivisionIds": [
          10138684
        ],
        "postalCode": "L9A2S3",
        "streetName": "LIMERIDGE",
        "streetDirectionId": "E",
        "streetTypeId": "RD",
        "placeName": "HAMILTON",
        "streetNameDisplayText": "LIMERIDGE RD E, HAMILTON"
      }
    ]
  },
  {
    "postal": "L9A0K0",
    "result": []
  },
  {
    "postal": "L9A5N1",
    "result": []
  },
  {
    "postal": "L9A7T0",
    "result": []
  },
  {
    "postal": "L9A9N2",
    "result": []
  },
  {
    "postal": "L9A5L1",
    "result": []
  },
  {
    "postal": "L9A7G5",
    "result": []
  },
  {
    "postal": "L9A6K2",
    "result": []
  },
  {
    "postal": "L9A6P9",
    "result": []
  },
  {
    "postal": "L9A0E6",
    "result": []
  },
  {
    "postal": "L9A8R9",
    "result": []
  },
  {
    "postal": "L9A3G9",
    "result": [
      {
        "electoralDistricts": [
          {
            "election": null,
            "id": 38,
            "name": "Hamilton Mountain"
          }
        ],
        "pollDivisionIds": [
          10138681
        ],
        "postalCode": "L9A3G9",
        "streetName": "HOOVER",
        "streetDirectionId": null,
        "streetTypeId": "CRES",
        "placeName": "HAMILTON",
        "streetNameDisplayText": "HOOVER CRES, HAMILTON"
      }
    ]
  },
  {
    "postal": "L9A0V7",
    "result": []
  },
  {
    "postal": "L9A2Z1",
    "result": [
      {
        "electoralDistricts": [
          {
            "election": null,
            "id": 38,
            "name": "Hamilton Mountain"
          }
        ],
        "pollDivisionIds": [
          10138680
        ],
        "postalCode": "L9A2Z1",
        "streetName": "TERRACE",
        "streetDirectionId": null,
        "streetTypeId": "DR",
        "placeName": "HAMILTON",
        "streetNameDisplayText": "TERRACE DR, HAMILTON"
      }
    ]
  },
  {
    "postal": "L9A7N1",
    "result": []
  },
  {
    "postal": "L9A3C6",
    "result": [
      {
        "electoralDistricts": [
          {
            "election": null,
            "id": 38,
            "name": "Hamilton Mountain"
          }
        ],
        "pollDivisionIds": [
          10138681
        ],
        "postalCode": "L9A3C6",
        "streetName": "WARREN",
        "streetDirectionId": null,
        "streetTypeId": "AVE",
        "placeName": "HAMILTON",
        "streetNameDisplayText": "WARREN AVE, HAMILTON"
      }
    ]
  },
  {
    "postal": "L9A4M1",
    "result": [
      {
        "electoralDistricts": [
          {
            "election": null,
            "id": 38,
            "name": "Hamilton Mountain"
          }
        ],
        "pollDivisionIds": [
          10138682
        ],
        "postalCode": "L9A4M1",
        "streetName": "EAST 17TH",
        "streetDirectionId": null,
        "streetTypeId": "ST",
        "placeName": "HAMILTON",
        "streetNameDisplayText": "EAST 17TH ST, HAMILTON"
      }
    ]
  },
  {
    "postal": "L9A9K2",
    "result": []
  },
  {
    "postal": "L9A9S6",
    "result": []
  },
  {
    "postal": "L9A4X1",
    "result": [
      {
        "electoralDistricts": [
          {
            "election": null,
            "id": 38,
            "name": "Hamilton Mountain"
          }
        ],
        "pollDivisionIds": [
          10138684
        ],
        "postalCode": "L9A4X1",
        "streetName": "HUNTSVILLE",
        "streetDirectionId": null,
        "streetTypeId": "ST",
        "placeName": "HAMILTON",
        "streetNameDisplayText": "HUNTSVILLE ST, HAMILTON"
      }
    ]
  },
  {
    "postal": "L9A8W2",
    "result": []
  },
  {
    "postal": "L9A7N2",
    "result": []
  },
  {
    "postal": "L9A8S3",
    "result": []
  },
  {
    "postal": "L9A4V0",
    "result": []
  },
  {
    "postal": "L9A6W4",
    "result": []
  },
  {
    "postal": "L9A5M1",
    "result": []
  },
  {
    "postal": "L9A0S4",
    "result": []
  },
  {
    "postal": "L9A5X6",
    "result": []
  },
  {
    "postal": "L9A8L5",
    "result": []
  },
  {
    "postal": "L9A5M8",
    "result": []
  },
  {
    "postal": "L9A2G3",
    "result": [
      {
        "electoralDistricts": [
          {
            "election": null,
            "id": 38,
            "name": "Hamilton Mountain"
          }
        ],
        "pollDivisionIds": [
          10138683
        ],
        "postalCode": "L9A2G3",
        "streetName": "DUNCOMBE",
        "streetDirectionId": null,
        "streetTypeId": "DR",
        "placeName": "HAMILTON",
        "streetNameDisplayText": "DUNCOMBE DR, HAMILTON"
      }
    ]
  },
  {
    "postal": "L9A8E4",
    "result": []
  },
  {
    "postal": "L9A7S9",
    "result": []
  },
  {
    "postal": "L9A1K3",
    "result": [
      {
        "electoralDistricts": [
          {
            "election": null,
            "id": 38,
            "name": "Hamilton Mountain"
          }
        ],
        "pollDivisionIds": [
          10138681
        ],
        "postalCode": "L9A1K3",
        "streetName": "QUEENSDALE",
        "streetDirectionId": "E",
        "streetTypeId": "AVE",
        "placeName": "HAMILTON",
        "streetNameDisplayText": "QUEENSDALE AVE E, HAMILTON"
      }
    ]
  },
  {
    "postal": "L9A4E1",
    "result": [
      {
        "electoralDistricts": [
          {
            "election": null,
            "id": 38,
            "name": "Hamilton Mountain"
          }
        ],
        "pollDivisionIds": [
          10138683
        ],
        "postalCode": "L9A4E1",
        "streetName": "SEVEN OAKS",
        "streetDirectionId": null,
        "streetTypeId": "DR",
        "placeName": "HAMILTON",
        "streetNameDisplayText": "SEVEN OAKS DR, HAMILTON"
      }
    ]
  },
  {
    "postal": "L9A4R2",
    "result": [
      {
        "electoralDistricts": [
          {
            "election": null,
            "id": 38,
            "name": "Hamilton Mountain"
          }
        ],
        "pollDivisionIds": [
          10138689
        ],
        "postalCode": "L9A4R2",
        "streetName": "CLONMORE",
        "streetDirectionId": null,
        "streetTypeId": "AVE",
        "placeName": "HAMILTON",
        "streetNameDisplayText": "CLONMORE AVE, HAMILTON"
      }
    ]
  },
  {
    "postal": "L9A6T0",
    "result": []
  },
  {
    "postal": "L9A3K5",
    "result": [
      {
        "electoralDistricts": [
          {
            "election": null,
            "id": 38,
            "name": "Hamilton Mountain"
          }
        ],
        "pollDivisionIds": [
          10138681
        ],
        "postalCode": "L9A3K5",
        "streetName": "SOUTHILL",
        "streetDirectionId": null,
        "streetTypeId": "DR",
        "placeName": "HAMILTON",
        "streetNameDisplayText": "SOUTHILL DR, HAMILTON"
      }
    ]
  },
  {
    "postal": "L9A3S3",
    "result": [
      {
        "electoralDistricts": [
          {
            "election": null,
            "id": 38,
            "name": "Hamilton Mountain"
          }
        ],
        "pollDivisionIds": [
          10138684
        ],
        "postalCode": "L9A3S3",
        "streetName": "UPPER WELLINGTON",
        "streetDirectionId": null,
        "streetTypeId": "ST",
        "placeName": "HAMILTON",
        "streetNameDisplayText": "UPPER WELLINGTON ST, HAMILTON"
      }
    ]
  },
  {
    "postal": "L9A3L4",
    "result": [
      {
        "electoralDistricts": [
          {
            "election": null,
            "id": 38,
            "name": "Hamilton Mountain"
          }
        ],
        "pollDivisionIds": [
          10138681
        ],
        "postalCode": "L9A3L4",
        "streetName": "HIGHCLIFFE",
        "streetDirectionId": null,
        "streetTypeId": "AVE",
        "placeName": "HAMILTON",
        "streetNameDisplayText": "HIGHCLIFFE AVE, HAMILTON"
      }
    ]
  },
  {
    "postal": "L9A9Y2",
    "result": []
  },
  {
    "postal": "L9A1E0",
    "result": []
  },
  {
    "postal": "L9A9A4",
    "result": []
  },
  {
    "postal": "L9A1L3",
    "result": [
      {
        "electoralDistricts": [
          {
            "election": null,
            "id": 38,
            "name": "Hamilton Mountain"
          }
        ],
        "pollDivisionIds": [
          10138682
        ],
        "postalCode": "L9A1L3",
        "streetName": "QUEENSDALE",
        "streetDirectionId": "E",
        "streetTypeId": "AVE",
        "placeName": "HAMILTON",
        "streetNameDisplayText": "QUEENSDALE AVE E, HAMILTON"
      }
    ]
  },
  {
    "postal": "L9A6N1",
    "result": []
  },
  {
    "postal": "L9A6G7",
    "result": []
  },
  {
    "postal": "L9A7W1",
    "result": []
  },
  {
    "postal": "L9A4M6",
    "result": [
      {
        "electoralDistricts": [
          {
            "election": null,
            "id": 38,
            "name": "Hamilton Mountain"
          }
        ],
        "pollDivisionIds": [
          10138682
        ],
        "postalCode": "L9A4M6",
        "streetName": "EAST 17TH",
        "streetDirectionId": null,
        "streetTypeId": "ST",
        "placeName": "HAMILTON",
        "streetNameDisplayText": "EAST 17TH ST, HAMILTON"
      }
    ]
  },
  {
    "postal": "L9A1K0",
    "result": []
  },
  {
    "postal": "L9A3E2",
    "result": [
      {
        "electoralDistricts": [
          {
            "election": null,
            "id": 38,
            "name": "Hamilton Mountain"
          }
        ],
        "pollDivisionIds": [
          10138680
        ],
        "postalCode": "L9A3E2",
        "streetName": "WARREN",
        "streetDirectionId": null,
        "streetTypeId": "AVE",
        "placeName": "HAMILTON",
        "streetNameDisplayText": "WARREN AVE, HAMILTON"
      }
    ]
  },
  {
    "postal": "L9A5H4",
    "result": [
      {
        "electoralDistricts": [
          {
            "election": null,
            "id": 38,
            "name": "Hamilton Mountain"
          }
        ],
        "pollDivisionIds": [
          10138690
        ],
        "postalCode": "L9A5H4",
        "streetName": "UPPER WENTWORTH",
        "streetDirectionId": null,
        "streetTypeId": "ST",
        "placeName": "HAMILTON",
        "streetNameDisplayText": "UPPER WENTWORTH ST, HAMILTON"
      }
    ]
  },
  {
    "postal": "L9A1K7",
    "result": [
      {
        "electoralDistricts": [
          {
            "election": null,
            "id": 38,
            "name": "Hamilton Mountain"
          }
        ],
        "pollDivisionIds": [
          10138681
        ],
        "postalCode": "L9A1K7",
        "streetName": "QUEENSDALE",
        "streetDirectionId": "E",
        "streetTypeId": "AVE",
        "placeName": "HAMILTON",
        "streetNameDisplayText": "QUEENSDALE AVE E, HAMILTON"
      }
    ]
  },
  {
    "postal": "L9A0H0",
    "result": []
  },
  {
    "postal": "L9A0J3",
    "result": []
  },
  {
    "postal": "L9A1X6",
    "result": [
      {
        "electoralDistricts": [
          {
            "election": null,
            "id": 38,
            "name": "Hamilton Mountain"
          }
        ],
        "pollDivisionIds": [
          10138683
        ],
        "postalCode": "L9A1X6",
        "streetName": "HOWE",
        "streetDirectionId": null,
        "streetTypeId": "AVE",
        "placeName": "HAMILTON",
        "streetNameDisplayText": "HOWE AVE, HAMILTON"
      }
    ]
  },
  {
    "postal": "L9A2Z6",
    "result": [
      {
        "electoralDistricts": [
          {
            "election": null,
            "id": 38,
            "name": "Hamilton Mountain"
          }
        ],
        "pollDivisionIds": [
          10138681
        ],
        "postalCode": "L9A2Z6",
        "streetName": "EAST 5TH",
        "streetDirectionId": null,
        "streetTypeId": "ST",
        "placeName": "HAMILTON",
        "streetNameDisplayText": "EAST 5TH ST, HAMILTON"
      }
    ]
  },
  {
    "postal": "L9A4R9",
    "result": [
      {
        "electoralDistricts": [
          {
            "election": null,
            "id": 38,
            "name": "Hamilton Mountain"
          }
        ],
        "pollDivisionIds": [
          10138682
        ],
        "postalCode": "L9A4R9",
        "streetName": "EAST 19TH",
        "streetDirectionId": null,
        "streetTypeId": "ST",
        "placeName": "HAMILTON",
        "streetNameDisplayText": "EAST 19TH ST, HAMILTON"
      }
    ]
  },
  {
    "postal": "L9A0W8",
    "result": []
  },
  {
    "postal": "L9A1L4",
    "result": [
      {
        "electoralDistricts": [
          {
            "election": null,
            "id": 38,
            "name": "Hamilton Mountain"
          }
        ],
        "pollDivisionIds": [
          10138682
        ],
        "postalCode": "L9A1L4",
        "streetName": "QUEENSDALE",
        "streetDirectionId": "E",
        "streetTypeId": "AVE",
        "placeName": "HAMILTON",
        "streetNameDisplayText": "QUEENSDALE AVE E, HAMILTON"
      }
    ]
  },
  {
    "postal": "L9A0C8",
    "result": []
  },
  {
    "postal": "L9A9X7",
    "result": []
  },
  {
    "postal": "L9A4T1",
    "result": [
      {
        "electoralDistricts": [
          {
            "election": null,
            "id": 38,
            "name": "Hamilton Mountain"
          }
        ],
        "pollDivisionIds": [
          10138683
        ],
        "postalCode": "L9A4T1",
        "streetName": "JELLICOE",
        "streetDirectionId": null,
        "streetTypeId": "CRT",
        "placeName": "HAMILTON",
        "streetNameDisplayText": "JELLICOE CRT, HAMILTON"
      }
    ]
  },
  {
    "postal": "L9A0M0",
    "result": []
  },
  {
    "postal": "L9A6A2",
    "result": []
  },
  {
    "postal": "L9A9S8",
    "result": []
  },
  {
    "postal": "L9A9T4",
    "result": []
  },
  {
    "postal": "L9A9Y4",
    "result": []
  },
  {
    "postal": "L9A6G5",
    "result": []
  },
  {
    "postal": "L9A6H9",
    "result": []
  },
  {
    "postal": "L9A2P3",
    "result": [
      {
        "electoralDistricts": [
          {
            "election": null,
            "id": 38,
            "name": "Hamilton Mountain"
          }
        ],
        "pollDivisionIds": [
          10138689
        ],
        "postalCode": "L9A2P3",
        "streetName": "BOBOLINK",
        "streetDirectionId": null,
        "streetTypeId": "RD",
        "placeName": "HAMILTON",
        "streetNameDisplayText": "BOBOLINK RD, HAMILTON"
      }
    ]
  },
  {
    "postal": "L9A1T6",
    "result": [
      {
        "electoralDistricts": [
          {
            "election": null,
            "id": 38,
            "name": "Hamilton Mountain"
          }
        ],
        "pollDivisionIds": [
          10138683
        ],
        "postalCode": "L9A1T6",
        "streetName": "FENNELL",
        "streetDirectionId": "E",
        "streetTypeId": "AVE",
        "placeName": "HAMILTON",
        "streetNameDisplayText": "FENNELL AVE E, HAMILTON"
      }
    ]
  },
  {
    "postal": "L9A4P6",
    "result": [
      {
        "electoralDistricts": [
          {
            "election": null,
            "id": 38,
            "name": "Hamilton Mountain"
          }
        ],
        "pollDivisionIds": [
          10138682
        ],
        "postalCode": "L9A4P6",
        "streetName": "EAST 18TH",
        "streetDirectionId": null,
        "streetTypeId": "ST",
        "placeName": "HAMILTON",
        "streetNameDisplayText": "EAST 18TH ST, HAMILTON"
      }
    ]
  },
  {
    "postal": "L9A3K1",
    "result": [
      {
        "electoralDistricts": [
          {
            "election": null,
            "id": 38,
            "name": "Hamilton Mountain"
          }
        ],
        "pollDivisionIds": [
          10138684
        ],
        "postalCode": "L9A3K1",
        "streetName": "DESCHENE",
        "streetDirectionId": null,
        "streetTypeId": "AVE",
        "placeName": "HAMILTON",
        "streetNameDisplayText": "DESCHENE AVE, HAMILTON"
      }
    ]
  },
  {
    "postal": "L9A6X4",
    "result": []
  },
  {
    "postal": "L9A4M8",
    "result": [
      {
        "electoralDistricts": [
          {
            "election": null,
            "id": 38,
            "name": "Hamilton Mountain"
          }
        ],
        "pollDivisionIds": [
          10138683
        ],
        "postalCode": "L9A4M8",
        "streetName": "EAST 17TH",
        "streetDirectionId": null,
        "streetTypeId": "ST",
        "placeName": "HAMILTON",
        "streetNameDisplayText": "EAST 17TH ST, HAMILTON"
      }
    ]
  },
  {
    "postal": "L9A2Y1",
    "result": [
      {
        "electoralDistricts": [
          {
            "election": null,
            "id": 38,
            "name": "Hamilton Mountain"
          }
        ],
        "pollDivisionIds": [
          10138681
        ],
        "postalCode": "L9A2Y1",
        "streetName": "ELCHO",
        "streetDirectionId": null,
        "streetTypeId": "ST",
        "placeName": "HAMILTON",
        "streetNameDisplayText": "ELCHO ST, HAMILTON"
      }
    ]
  },
  {
    "postal": "L9A6M1",
    "result": []
  },
  {
    "postal": "L9A5L8",
    "result": []
  },
  {
    "postal": "L9A3P6",
    "result": [
      {
        "electoralDistricts": [
          {
            "election": null,
            "id": 38,
            "name": "Hamilton Mountain"
          }
        ],
        "pollDivisionIds": [
          10138682
        ],
        "postalCode": "L9A3P6",
        "streetName": "UPPER WELLINGTON",
        "streetDirectionId": null,
        "streetTypeId": "ST",
        "placeName": "HAMILTON",
        "streetNameDisplayText": "UPPER WELLINGTON ST, HAMILTON"
      }
    ]
  },
  {
    "postal": "L9A9A5",
    "result": []
  },
  {
    "postal": "L9A7K1",
    "result": []
  },
  {
    "postal": "L9A3J4",
    "result": [
      {
        "electoralDistricts": [
          {
            "election": null,
            "id": 38,
            "name": "Hamilton Mountain"
          }
        ],
        "pollDivisionIds": [
          10138684
        ],
        "postalCode": "L9A3J4",
        "streetName": "MAITLAND",
        "streetDirectionId": null,
        "streetTypeId": "AVE",
        "placeName": "HAMILTON",
        "streetNameDisplayText": "MAITLAND AVE, HAMILTON"
      }
    ]
  },
  {
    "postal": "L9A5E7",
    "result": [
      {
        "electoralDistricts": [
          {
            "election": null,
            "id": 38,
            "name": "Hamilton Mountain"
          }
        ],
        "pollDivisionIds": [
          10138681
        ],
        "postalCode": "L9A5E7",
        "streetName": "HARBOURVIEW",
        "streetDirectionId": null,
        "streetTypeId": "LANE",
        "placeName": "HAMILTON",
        "streetNameDisplayText": "HARBOURVIEW LANE, HAMILTON"
      }
    ]
  },
  {
    "postal": "L9A3A7",
    "result": [
      {
        "electoralDistricts": [
          {
            "election": null,
            "id": 38,
            "name": "Hamilton Mountain"
          }
        ],
        "pollDivisionIds": [
          10138684
        ],
        "postalCode": "L9A3A7",
        "streetName": "GREENINGDON",
        "streetDirectionId": null,
        "streetTypeId": "DR",
        "placeName": "HAMILTON",
        "streetNameDisplayText": "GREENINGDON DR, HAMILTON"
      }
    ]
  },
  {
    "postal": "L9A1B9",
    "result": [
      {
        "electoralDistricts": [
          {
            "election": null,
            "id": 38,
            "name": "Hamilton Mountain"
          }
        ],
        "pollDivisionIds": [
          10138682
        ],
        "postalCode": "L9A1B9",
        "streetName": "CONCESSION",
        "streetDirectionId": null,
        "streetTypeId": "ST",
        "placeName": "HAMILTON",
        "streetNameDisplayText": "CONCESSION ST, HAMILTON"
      }
    ]
  },
  {
    "postal": "L9A9E8",
    "result": []
  },
  {
    "postal": "L9A1C9",
    "result": [
      {
        "electoralDistricts": [
          {
            "election": null,
            "id": 38,
            "name": "Hamilton Mountain"
          }
        ],
        "pollDivisionIds": [
          10138681
        ],
        "postalCode": "L9A1C9",
        "streetName": "WYCLIFFE",
        "streetDirectionId": null,
        "streetTypeId": "AVE",
        "placeName": "HAMILTON",
        "streetNameDisplayText": "WYCLIFFE AVE, HAMILTON"
      }
    ]
  },
  {
    "postal": "L9A3B5",
    "result": [
      {
        "electoralDistricts": [
          {
            "election": null,
            "id": 38,
            "name": "Hamilton Mountain"
          }
        ],
        "pollDivisionIds": [
          10138684
        ],
        "postalCode": "L9A3B5",
        "streetName": "PURDY",
        "streetDirectionId": null,
        "streetTypeId": "CRES",
        "placeName": "HAMILTON",
        "streetNameDisplayText": "PURDY CRES, HAMILTON"
      }
    ]
  },
  {
    "postal": "L9A8R0",
    "result": []
  },
  {
    "postal": "L9A3P2",
    "result": [
      {
        "electoralDistricts": [
          {
            "election": null,
            "id": 38,
            "name": "Hamilton Mountain"
          }
        ],
        "pollDivisionIds": [
          10138682
        ],
        "postalCode": "L9A3P2",
        "streetName": "UPPER WELLINGTON",
        "streetDirectionId": null,
        "streetTypeId": "ST",
        "placeName": "HAMILTON",
        "streetNameDisplayText": "UPPER WELLINGTON ST, HAMILTON"
      }
    ]
  },
  {
    "postal": "L9A5V4",
    "result": []
  },
  {
    "postal": "L9A4H0",
    "result": []
  },
  {
    "postal": "L9A4S7",
    "result": [
      {
        "electoralDistricts": [
          {
            "election": null,
            "id": 38,
            "name": "Hamilton Mountain"
          }
        ],
        "pollDivisionIds": [
          10138682
        ],
        "postalCode": "L9A4S7",
        "streetName": "EAST 19TH",
        "streetDirectionId": null,
        "streetTypeId": "ST",
        "placeName": "HAMILTON",
        "streetNameDisplayText": "EAST 19TH ST, HAMILTON"
      }
    ]
  },
  {
    "postal": "L9A6C2",
    "result": []
  },
  {
    "postal": "L9A8W3",
    "result": []
  },
  {
    "postal": "L9A4M5",
    "result": [
      {
        "electoralDistricts": [
          {
            "election": null,
            "id": 38,
            "name": "Hamilton Mountain"
          }
        ],
        "pollDivisionIds": [
          10138682
        ],
        "postalCode": "L9A4M5",
        "streetName": "EAST 17TH",
        "streetDirectionId": null,
        "streetTypeId": "ST",
        "placeName": "HAMILTON",
        "streetNameDisplayText": "EAST 17TH ST, HAMILTON"
      }
    ]
  },
  {
    "postal": "L9A5T1",
    "result": []
  },
  {
    "postal": "L9A3B3",
    "result": [
      {
        "electoralDistricts": [
          {
            "election": null,
            "id": 38,
            "name": "Hamilton Mountain"
          }
        ],
        "pollDivisionIds": [
          10138684
        ],
        "postalCode": "L9A3B3",
        "streetName": "PURDY",
        "streetDirectionId": null,
        "streetTypeId": "CRES",
        "placeName": "HAMILTON",
        "streetNameDisplayText": "PURDY CRES, HAMILTON"
      }
    ]
  },
  {
    "postal": "L9A6C6",
    "result": []
  },
  {
    "postal": "L9A7N8",
    "result": []
  },
  {
    "postal": "L9A2Y3",
    "result": [
      {
        "electoralDistricts": [
          {
            "election": null,
            "id": 38,
            "name": "Hamilton Mountain"
          }
        ],
        "pollDivisionIds": [
          10138681
        ],
        "postalCode": "L9A2Y3",
        "streetName": "EAST 4TH",
        "streetDirectionId": null,
        "streetTypeId": "ST",
        "placeName": "HAMILTON",
        "streetNameDisplayText": "EAST 4TH ST, HAMILTON"
      }
    ]
  },
  {
    "postal": "L9A2R6",
    "result": [
      {
        "electoralDistricts": [
          {
            "election": null,
            "id": 38,
            "name": "Hamilton Mountain"
          }
        ],
        "pollDivisionIds": [
          10138684
        ],
        "postalCode": "L9A2R6",
        "streetName": "BRYNA",
        "streetDirectionId": null,
        "streetTypeId": "AVE",
        "placeName": "HAMILTON",
        "streetNameDisplayText": "BRYNA AVE, HAMILTON"
      }
    ]
  },
  {
    "postal": "L9A7N3",
    "result": []
  },
  {
    "postal": "L9A8J2",
    "result": []
  },
  {
    "postal": "L9A6A9",
    "result": []
  },
  {
    "postal": "L9A3V2",
    "result": [
      {
        "electoralDistricts": [
          {
            "election": null,
            "id": 38,
            "name": "Hamilton Mountain"
          }
        ],
        "pollDivisionIds": [
          10138683
        ],
        "postalCode": "L9A3V2",
        "streetName": "DAVID",
        "streetDirectionId": null,
        "streetTypeId": "AVE",
        "placeName": "HAMILTON",
        "streetNameDisplayText": "DAVID AVE, HAMILTON"
      }
    ]
  },
  {
    "postal": "L9A2N3",
    "result": [
      {
        "electoralDistricts": [
          {
            "election": null,
            "id": 38,
            "name": "Hamilton Mountain"
          }
        ],
        "pollDivisionIds": [
          10138684
        ],
        "postalCode": "L9A2N3",
        "streetName": "HESTER",
        "streetDirectionId": null,
        "streetTypeId": "ST",
        "placeName": "HAMILTON",
        "streetNameDisplayText": "HESTER ST, HAMILTON"
      }
    ]
  },
  {
    "postal": "L9A1S5",
    "result": [
      {
        "electoralDistricts": [
          {
            "election": null,
            "id": 38,
            "name": "Hamilton Mountain"
          }
        ],
        "pollDivisionIds": [
          10138681
        ],
        "postalCode": "L9A1S5",
        "streetName": "FENNELL",
        "streetDirectionId": "E",
        "streetTypeId": "AVE",
        "placeName": "HAMILTON",
        "streetNameDisplayText": "FENNELL AVE E, HAMILTON"
      }
    ]
  },
  {
    "postal": "L9A4T7",
    "result": [
      {
        "electoralDistricts": [
          {
            "election": null,
            "id": 38,
            "name": "Hamilton Mountain"
          }
        ],
        "pollDivisionIds": [
          10138682
        ],
        "postalCode": "L9A4T7",
        "streetName": "UPPER WENTWORTH",
        "streetDirectionId": null,
        "streetTypeId": "ST",
        "placeName": "HAMILTON",
        "streetNameDisplayText": "UPPER WENTWORTH ST, HAMILTON"
      }
    ]
  },
  {
    "postal": "L9A6Y7",
    "result": []
  },
  {
    "postal": "L9A0W7",
    "result": []
  },
  {
    "postal": "L9A2W9",
    "result": [
      {
        "electoralDistricts": [
          {
            "election": null,
            "id": 38,
            "name": "Hamilton Mountain"
          }
        ],
        "pollDivisionIds": [
          10138680
        ],
        "postalCode": "L9A2W9",
        "streetName": "HOWARD",
        "streetDirectionId": null,
        "streetTypeId": "AVE",
        "placeName": "HAMILTON",
        "streetNameDisplayText": "HOWARD AVE, HAMILTON"
      }
    ]
  },
  {
    "postal": "L9A8V0",
    "result": []
  },
  {
    "postal": "L9A0H4",
    "result": []
  },
  {
    "postal": "L9A2T1",
    "result": [
      {
        "electoralDistricts": [
          {
            "election": null,
            "id": 38,
            "name": "Hamilton Mountain"
          }
        ],
        "pollDivisionIds": [
          10138686
        ],
        "postalCode": "L9A2T1",
        "streetName": "CHIPMAN",
        "streetDirectionId": null,
        "streetTypeId": "AVE",
        "placeName": "HAMILTON",
        "streetNameDisplayText": "CHIPMAN AVE, HAMILTON"
      }
    ]
  },
  {
    "postal": "L9A1B1",
    "result": [
      {
        "electoralDistricts": [
          {
            "election": null,
            "id": 38,
            "name": "Hamilton Mountain"
          }
        ],
        "pollDivisionIds": [
          10138681
        ],
        "postalCode": "L9A1B1",
        "streetName": "CONCESSION",
        "streetDirectionId": null,
        "streetTypeId": "ST",
        "placeName": "HAMILTON",
        "streetNameDisplayText": "CONCESSION ST, HAMILTON"
      }
    ]
  },
  {
    "postal": "L9A8B6",
    "result": []
  },
  {
    "postal": "L9A6H1",
    "result": []
  },
  {
    "postal": "L9A8T8",
    "result": []
  },
  {
    "postal": "L9A0T4",
    "result": []
  },
  {
    "postal": "L9A2C4",
    "result": [
      {
        "electoralDistricts": [
          {
            "election": null,
            "id": 38,
            "name": "Hamilton Mountain"
          }
        ],
        "pollDivisionIds": [
          10138683
        ],
        "postalCode": "L9A2C4",
        "streetName": "SOUTH BEND",
        "streetDirectionId": "E",
        "streetTypeId": "RD",
        "placeName": "HAMILTON",
        "streetNameDisplayText": "SOUTH BEND RD E, HAMILTON"
      }
    ]
  },
  {
    "postal": "L9A8N3",
    "result": []
  },
  {
    "postal": "L9A4L8",
    "result": [
      {
        "electoralDistricts": [
          {
            "election": null,
            "id": 38,
            "name": "Hamilton Mountain"
          }
        ],
        "pollDivisionIds": [
          10138682
        ],
        "postalCode": "L9A4L8",
        "streetName": "BELWOOD",
        "streetDirectionId": null,
        "streetTypeId": "AVE",
        "placeName": "HAMILTON",
        "streetNameDisplayText": "BELWOOD AVE, HAMILTON"
      }
    ]
  },
  {
    "postal": "L9A2B5",
    "result": [
      {
        "electoralDistricts": [
          {
            "election": null,
            "id": 38,
            "name": "Hamilton Mountain"
          }
        ],
        "pollDivisionIds": [
          10138680
        ],
        "postalCode": "L9A2B5",
        "streetName": "SOUTH BEND",
        "streetDirectionId": "E",
        "streetTypeId": "RD",
        "placeName": "HAMILTON",
        "streetNameDisplayText": "SOUTH BEND RD E, HAMILTON"
      }
    ]
  },
  {
    "postal": "L9A3H1",
    "result": [
      {
        "electoralDistricts": [
          {
            "election": null,
            "id": 38,
            "name": "Hamilton Mountain"
          }
        ],
        "pollDivisionIds": [
          10138681
        ],
        "postalCode": "L9A3H1",
        "streetName": "HOOVER",
        "streetDirectionId": null,
        "streetTypeId": "CRES",
        "placeName": "HAMILTON",
        "streetNameDisplayText": "HOOVER CRES, HAMILTON"
      }
    ]
  },
  {
    "postal": "L9A4Y1",
    "result": [
      {
        "electoralDistricts": [
          {
            "election": null,
            "id": 38,
            "name": "Hamilton Mountain"
          }
        ],
        "pollDivisionIds": [
          10138689
        ],
        "postalCode": "L9A4Y1",
        "streetName": "SKYLARK",
        "streetDirectionId": null,
        "streetTypeId": "DR",
        "placeName": "HAMILTON",
        "streetNameDisplayText": "SKYLARK DR, HAMILTON"
      }
    ]
  },
  {
    "postal": "L9A7E2",
    "result": []
  },
  {
    "postal": "L9A2P5",
    "result": [
      {
        "electoralDistricts": [
          {
            "election": null,
            "id": 38,
            "name": "Hamilton Mountain"
          }
        ],
        "pollDivisionIds": [
          10138689
        ],
        "postalCode": "L9A2P5",
        "streetName": "BOBOLINK",
        "streetDirectionId": null,
        "streetTypeId": "RD",
        "placeName": "HAMILTON",
        "streetNameDisplayText": "BOBOLINK RD, HAMILTON"
      }
    ]
  },
  {
    "postal": "L9A8R7",
    "result": []
  },
  {
    "postal": "L9A9P1",
    "result": []
  },
  {
    "postal": "L9A3B8",
    "result": [
      {
        "electoralDistricts": [
          {
            "election": null,
            "id": 38,
            "name": "Hamilton Mountain"
          }
        ],
        "pollDivisionIds": [
          10138681
        ],
        "postalCode": "L9A3B8",
        "streetName": "BELVIDERE",
        "streetDirectionId": null,
        "streetTypeId": "AVE",
        "placeName": "HAMILTON",
        "streetNameDisplayText": "BELVIDERE AVE, HAMILTON"
      }
    ]
  },
  {
    "postal": "L9A3P7",
    "result": [
      {
        "electoralDistricts": [
          {
            "election": null,
            "id": 38,
            "name": "Hamilton Mountain"
          }
        ],
        "pollDivisionIds": [
          10138682
        ],
        "postalCode": "L9A3P7",
        "streetName": "UPPER WELLINGTON",
        "streetDirectionId": null,
        "streetTypeId": "ST",
        "placeName": "HAMILTON",
        "streetNameDisplayText": "UPPER WELLINGTON ST, HAMILTON"
      }
    ]
  },
  {
    "postal": "L9A9B2",
    "result": []
  },
  {
    "postal": "L9A6Z3",
    "result": []
  },
  {
    "postal": "L9A4N5",
    "result": [
      {
        "electoralDistricts": [
          {
            "election": null,
            "id": 38,
            "name": "Hamilton Mountain"
          }
        ],
        "pollDivisionIds": [
          10138689
        ],
        "postalCode": "L9A4N5",
        "streetName": "CARRINGTON",
        "streetDirectionId": null,
        "streetTypeId": "CRT",
        "placeName": "HAMILTON",
        "streetNameDisplayText": "CARRINGTON CRT, HAMILTON"
      }
    ]
  },
  {
    "postal": "L9A8T3",
    "result": []
  },
  {
    "postal": "L9A1V2",
    "result": [
      {
        "electoralDistricts": [
          {
            "election": null,
            "id": 38,
            "name": "Hamilton Mountain"
          }
        ],
        "pollDivisionIds": [
          10138682
        ],
        "postalCode": "L9A1V2",
        "streetName": "FENNELL",
        "streetDirectionId": "E",
        "streetTypeId": "AVE",
        "placeName": "HAMILTON",
        "streetNameDisplayText": "FENNELL AVE E, HAMILTON"
      }
    ]
  },
  {
    "postal": "L9A1Y0",
    "result": []
  },
  {
    "postal": "L9A3G6",
    "result": [
      {
        "electoralDistricts": [
          {
            "election": null,
            "id": 38,
            "name": "Hamilton Mountain"
          }
        ],
        "pollDivisionIds": [
          10138681
        ],
        "postalCode": "L9A3G6",
        "streetName": "BRUCE PARK",
        "streetDirectionId": null,
        "streetTypeId": "DR",
        "placeName": "HAMILTON",
        "streetNameDisplayText": "BRUCE PARK DR, HAMILTON"
      }
    ]
  },
  {
    "postal": "L9A3H7",
    "result": [
      {
        "electoralDistricts": [
          {
            "election": null,
            "id": 38,
            "name": "Hamilton Mountain"
          }
        ],
        "pollDivisionIds": [
          10138680
        ],
        "postalCode": "L9A3H7",
        "streetName": "DANA",
        "streetDirectionId": null,
        "streetTypeId": "DR",
        "placeName": "HAMILTON",
        "streetNameDisplayText": "DANA DR, HAMILTON"
      }
    ]
  },
  {
    "postal": "L9A7X8",
    "result": []
  },
  {
    "postal": "L9A0C7",
    "result": []
  },
  {
    "postal": "L9A0W9",
    "result": []
  },
  {
    "postal": "L9A8E6",
    "result": []
  },
  {
    "postal": "L9A9Z8",
    "result": []
  },
  {
    "postal": "L9A3P4",
    "result": [
      {
        "electoralDistricts": [
          {
            "election": null,
            "id": 38,
            "name": "Hamilton Mountain"
          }
        ],
        "pollDivisionIds": [
          10138681
        ],
        "postalCode": "L9A3P4",
        "streetName": "UPPER WELLINGTON",
        "streetDirectionId": null,
        "streetTypeId": "ST",
        "placeName": "HAMILTON",
        "streetNameDisplayText": "UPPER WELLINGTON ST, HAMILTON"
      }
    ]
  },
  {
    "postal": "L9A6L8",
    "result": []
  },
  {
    "postal": "L9A2R4",
    "result": [
      {
        "electoralDistricts": [
          {
            "election": null,
            "id": 38,
            "name": "Hamilton Mountain"
          }
        ],
        "pollDivisionIds": [
          10138689
        ],
        "postalCode": "L9A2R4",
        "streetName": "JAY",
        "streetDirectionId": null,
        "streetTypeId": "ST",
        "placeName": "HAMILTON",
        "streetNameDisplayText": "JAY ST, HAMILTON"
      }
    ]
  },
  {
    "postal": "L9A2W1",
    "result": [
      {
        "electoralDistricts": [
          {
            "election": null,
            "id": 38,
            "name": "Hamilton Mountain"
          }
        ],
        "pollDivisionIds": [
          10138681
        ],
        "postalCode": "L9A2W1",
        "streetName": "PRINCE GEORGE",
        "streetDirectionId": null,
        "streetTypeId": "AVE",
        "placeName": "HAMILTON",
        "streetNameDisplayText": "PRINCE GEORGE AVE, HAMILTON"
      }
    ]
  },
  {
    "postal": "L9A9H8",
    "result": []
  },
  {
    "postal": "L9A8X9",
    "result": []
  },
  {
    "postal": "L9A7H4",
    "result": []
  },
  {
    "postal": "L9A3J1",
    "result": [
      {
        "electoralDistricts": [
          {
            "election": null,
            "id": 38,
            "name": "Hamilton Mountain"
          }
        ],
        "pollDivisionIds": [
          10138684
        ],
        "postalCode": "L9A3J1",
        "streetName": "CORONET",
        "streetDirectionId": null,
        "streetTypeId": "CRT",
        "placeName": "HAMILTON",
        "streetNameDisplayText": "CORONET CRT, HAMILTON"
      }
    ]
  },
  {
    "postal": "L9A1P4",
    "result": [
      {
        "electoralDistricts": [
          {
            "election": null,
            "id": 38,
            "name": "Hamilton Mountain"
          }
        ],
        "pollDivisionIds": [
          10138682
        ],
        "postalCode": "L9A1P4",
        "streetName": "BRUCEDALE",
        "streetDirectionId": "E",
        "streetTypeId": "AVE",
        "placeName": "HAMILTON",
        "streetNameDisplayText": "BRUCEDALE AVE E, HAMILTON"
      }
    ]
  },
  {
    "postal": "L9A2A3",
    "result": [
      {
        "electoralDistricts": [
          {
            "election": null,
            "id": 38,
            "name": "Hamilton Mountain"
          }
        ],
        "pollDivisionIds": [
          10138680
        ],
        "postalCode": "L9A2A3",
        "streetName": "DEAN",
        "streetDirectionId": null,
        "streetTypeId": "AVE",
        "placeName": "HAMILTON",
        "streetNameDisplayText": "DEAN AVE, HAMILTON"
      }
    ]
  },
  {
    "postal": "L9A0Z1",
    "result": []
  },
  {
    "postal": "L9A1C1",
    "result": [
      {
        "electoralDistricts": [
          {
            "election": null,
            "id": 38,
            "name": "Hamilton Mountain"
          }
        ],
        "pollDivisionIds": [
          10138682
        ],
        "postalCode": "L9A1C1",
        "streetName": "CONCESSION",
        "streetDirectionId": null,
        "streetTypeId": "ST",
        "placeName": "HAMILTON",
        "streetNameDisplayText": "CONCESSION ST, HAMILTON"
      }
    ]
  },
  {
    "postal": "L9A0H3",
    "result": []
  },
  {
    "postal": "L9A7B0",
    "result": []
  },
  {
    "postal": "L9A5K2",
    "result": [
      {
        "electoralDistricts": [
          {
            "election": null,
            "id": 38,
            "name": "Hamilton Mountain"
          }
        ],
        "pollDivisionIds": [
          10138686
        ],
        "postalCode": "L9A5K2",
        "streetName": "PINERIDGE",
        "streetDirectionId": null,
        "streetTypeId": "DR",
        "placeName": "HAMILTON",
        "streetNameDisplayText": "PINERIDGE DR, HAMILTON"
      },
      {
        "electoralDistricts": [
          {
            "election": null,
            "id": 38,
            "name": "Hamilton Mountain"
          }
        ],
        "pollDivisionIds": [
          10138686
        ],
        "postalCode": "L9A5K2",
        "streetName": "PINEWAY",
        "streetDirectionId": null,
        "streetTypeId": "AVE",
        "placeName": "HAMILTON",
        "streetNameDisplayText": "PINEWAY AVE, HAMILTON"
      }
    ]
  },
  {
    "postal": "L9A1E9",
    "result": [
      {
        "electoralDistricts": [
          {
            "election": null,
            "id": 38,
            "name": "Hamilton Mountain"
          }
        ],
        "pollDivisionIds": [
          10138681
        ],
        "postalCode": "L9A1E9",
        "streetName": "ROSEDENE",
        "streetDirectionId": null,
        "streetTypeId": "AVE",
        "placeName": "HAMILTON",
        "streetNameDisplayText": "ROSEDENE AVE, HAMILTON"
      }
    ]
  },
  {
    "postal": "L9A9W7",
    "result": []
  },
  {
    "postal": "L9A5W6",
    "result": []
  },
  {
    "postal": "L9A6S6",
    "result": []
  },
  {
    "postal": "L9A2P8",
    "result": [
      {
        "electoralDistricts": [
          {
            "election": null,
            "id": 38,
            "name": "Hamilton Mountain"
          }
        ],
        "pollDivisionIds": [
          10138684
        ],
        "postalCode": "L9A2P8",
        "streetName": "WASHINGTON",
        "streetDirectionId": null,
        "streetTypeId": "ST",
        "placeName": "HAMILTON",
        "streetNameDisplayText": "WASHINGTON ST, HAMILTON"
      }
    ]
  },
  {
    "postal": "L9A4P8",
    "result": [
      {
        "electoralDistricts": [
          {
            "election": null,
            "id": 38,
            "name": "Hamilton Mountain"
          }
        ],
        "pollDivisionIds": [
          10138683
        ],
        "postalCode": "L9A4P8",
        "streetName": "EAST 18TH",
        "streetDirectionId": null,
        "streetTypeId": "ST",
        "placeName": "HAMILTON",
        "streetNameDisplayText": "EAST 18TH ST, HAMILTON"
      }
    ]
  },
  {
    "postal": "L9A0V9",
    "result": []
  },
  {
    "postal": "L9A5Y2",
    "result": []
  },
  {
    "postal": "L9A7Z7",
    "result": []
  },
  {
    "postal": "L9A6Y8",
    "result": []
  },
  {
    "postal": "L9A2G7",
    "result": [
      {
        "electoralDistricts": [
          {
            "election": null,
            "id": 38,
            "name": "Hamilton Mountain"
          }
        ],
        "pollDivisionIds": [
          10138684
        ],
        "postalCode": "L9A2G7",
        "streetName": "MOHAWK",
        "streetDirectionId": "E",
        "streetTypeId": "RD",
        "placeName": "HAMILTON",
        "streetNameDisplayText": "MOHAWK RD E, HAMILTON"
      }
    ]
  },
  {
    "postal": "L9A8C1",
    "result": []
  },
  {
    "postal": "L9A5C5",
    "result": [
      {
        "electoralDistricts": [
          {
            "election": null,
            "id": 38,
            "name": "Hamilton Mountain"
          }
        ],
        "pollDivisionIds": [
          10138689
        ],
        "postalCode": "L9A5C5",
        "streetName": "UPPER WENTWORTH",
        "streetDirectionId": null,
        "streetTypeId": "ST",
        "placeName": "HAMILTON",
        "streetNameDisplayText": "UPPER WENTWORTH ST, HAMILTON"
      }
    ]
  },
  {
    "postal": "L9A2X8",
    "result": [
      {
        "electoralDistricts": [
          {
            "election": null,
            "id": 38,
            "name": "Hamilton Mountain"
          }
        ],
        "pollDivisionIds": [
          10138681
        ],
        "postalCode": "L9A2X8",
        "streetName": "ELCHO",
        "streetDirectionId": null,
        "streetTypeId": "ST",
        "placeName": "HAMILTON",
        "streetNameDisplayText": "ELCHO ST, HAMILTON"
      }
    ]
  },
  {
    "postal": "L9A1W5",
    "result": [
      {
        "electoralDistricts": [
          {
            "election": null,
            "id": 38,
            "name": "Hamilton Mountain"
          }
        ],
        "pollDivisionIds": [
          10138681
        ],
        "postalCode": "L9A1W5",
        "streetName": "ANDREW",
        "streetDirectionId": null,
        "streetTypeId": "CRT",
        "placeName": "HAMILTON",
        "streetNameDisplayText": "ANDREW CRT, HAMILTON"
      }
    ]
  },
  {
    "postal": "L9A7G0",
    "result": []
  },
  {
    "postal": "L9A8J8",
    "result": []
  },
  {
    "postal": "L9A3Y0",
    "result": []
  },
  {
    "postal": "L9A9T7",
    "result": []
  },
  {
    "postal": "L9A5P4",
    "result": []
  },
  {
    "postal": "L9A4B0",
    "result": []
  },
  {
    "postal": "L9A9N8",
    "result": []
  },
  {
    "postal": "L9A4A7",
    "result": [
      {
        "electoralDistricts": [
          {
            "election": null,
            "id": 38,
            "name": "Hamilton Mountain"
          }
        ],
        "pollDivisionIds": [
          10138683
        ],
        "postalCode": "L9A4A7",
        "streetName": "DELEVAN",
        "streetDirectionId": null,
        "streetTypeId": "CRES",
        "placeName": "HAMILTON",
        "streetNameDisplayText": "DELEVAN CRES, HAMILTON"
      }
    ]
  },
  {
    "postal": "L9A4H9",
    "result": [
      {
        "electoralDistricts": [
          {
            "election": null,
            "id": 38,
            "name": "Hamilton Mountain"
          }
        ],
        "pollDivisionIds": [
          10138682
        ],
        "postalCode": "L9A4H9",
        "streetName": "EAST 16TH",
        "streetDirectionId": null,
        "streetTypeId": "ST",
        "placeName": "HAMILTON",
        "streetNameDisplayText": "EAST 16TH ST, HAMILTON"
      }
    ]
  },
  {
    "postal": "L9A6X1",
    "result": []
  },
  {
    "postal": "L9A9Y7",
    "result": []
  },
  {
    "postal": "L9A2Y5",
    "result": [
      {
        "electoralDistricts": [
          {
            "election": null,
            "id": 38,
            "name": "Hamilton Mountain"
          }
        ],
        "pollDivisionIds": [
          10138681
        ],
        "postalCode": "L9A2Y5",
        "streetName": "TERRACE",
        "streetDirectionId": null,
        "streetTypeId": "DR",
        "placeName": "HAMILTON",
        "streetNameDisplayText": "TERRACE DR, HAMILTON"
      }
    ]
  },
  {
    "postal": "L9A8L7",
    "result": []
  },
  {
    "postal": "L9A2A8",
    "result": [
      {
        "electoralDistricts": [
          {
            "election": null,
            "id": 38,
            "name": "Hamilton Mountain"
          }
        ],
        "pollDivisionIds": [
          10138680
        ],
        "postalCode": "L9A2A8",
        "streetName": "SOUTH BEND",
        "streetDirectionId": "E",
        "streetTypeId": "RD",
        "placeName": "HAMILTON",
        "streetNameDisplayText": "SOUTH BEND RD E, HAMILTON"
      }
    ]
  },
  {
    "postal": "L9A2K9",
    "result": [
      {
        "electoralDistricts": [
          {
            "election": null,
            "id": 38,
            "name": "Hamilton Mountain"
          }
        ],
        "pollDivisionIds": [
          10138689
        ],
        "postalCode": "L9A2K9",
        "streetName": "MEADOWLARK",
        "streetDirectionId": null,
        "streetTypeId": "DR",
        "placeName": "HAMILTON",
        "streetNameDisplayText": "MEADOWLARK DR, HAMILTON"
      }
    ]
  },
  {
    "postal": "L9A3E5",
    "result": [
      {
        "electoralDistricts": [
          {
            "election": null,
            "id": 38,
            "name": "Hamilton Mountain"
          }
        ],
        "pollDivisionIds": [
          10138684
        ],
        "postalCode": "L9A3E5",
        "streetName": "MANNING",
        "streetDirectionId": null,
        "streetTypeId": "CRT",
        "placeName": "HAMILTON",
        "streetNameDisplayText": "MANNING CRT, HAMILTON"
      }
    ]
  },
  {
    "postal": "L9A8N6",
    "result": []
  },
  {
    "postal": "L9A8J4",
    "result": []
  },
  {
    "postal": "L9A4R7",
    "result": [
      {
        "electoralDistricts": [
          {
            "election": null,
            "id": 38,
            "name": "Hamilton Mountain"
          }
        ],
        "pollDivisionIds": [
          10138689
        ],
        "postalCode": "L9A4R7",
        "streetName": "BLACKTHORNE",
        "streetDirectionId": null,
        "streetTypeId": "AVE",
        "placeName": "HAMILTON",
        "streetNameDisplayText": "BLACKTHORNE AVE, HAMILTON"
      }
    ]
  },
  {
    "postal": "L9A9K1",
    "result": []
  },
  {
    "postal": "L9A8E1",
    "result": []
  },
  {
    "postal": "L9A0R1",
    "result": []
  },
  {
    "postal": "L9A4J3",
    "result": [
      {
        "electoralDistricts": [
          {
            "election": null,
            "id": 38,
            "name": "Hamilton Mountain"
          }
        ],
        "pollDivisionIds": [
          10138682
        ],
        "postalCode": "L9A4J3",
        "streetName": "EAST 16",
        "streetDirectionId": null,
        "streetTypeId": "ST",
        "placeName": "HAMILTON",
        "streetNameDisplayText": "EAST 16 ST, HAMILTON"
      },
      {
        "electoralDistricts": [
          {
            "election": null,
            "id": 38,
            "name": "Hamilton Mountain"
          }
        ],
        "pollDivisionIds": [
          10138682
        ],
        "postalCode": "L9A4J3",
        "streetName": "EAST 16TH",
        "streetDirectionId": null,
        "streetTypeId": "ST",
        "placeName": "HAMILTON",
        "streetNameDisplayText": "EAST 16TH ST, HAMILTON"
      }
    ]
  },
  {
    "postal": "L9A7E7",
    "result": []
  },
  {
    "postal": "L9A0J0",
    "result": []
  },
  {
    "postal": "L9A7R8",
    "result": []
  },
  {
    "postal": "L9A9X0",
    "result": []
  },
  {
    "postal": "L9A7P6",
    "result": []
  },
  {
    "postal": "L9A0R7",
    "result": []
  },
  {
    "postal": "L9A5W1",
    "result": []
  },
  {
    "postal": "L9A0K4",
    "result": []
  },
  {
    "postal": "L9A7N9",
    "result": []
  },
  {
    "postal": "L9A1N0",
    "result": []
  },
  {
    "postal": "L9A6P3",
    "result": []
  },
  {
    "postal": "L9A5A1",
    "result": [
      {
        "electoralDistricts": [
          {
            "election": null,
            "id": 38,
            "name": "Hamilton Mountain"
          }
        ],
        "pollDivisionIds": [
          10138689
        ],
        "postalCode": "L9A5A1",
        "streetName": "PINEWARBLER",
        "streetDirectionId": null,
        "streetTypeId": "CRT",
        "placeName": "HAMILTON",
        "streetNameDisplayText": "PINEWARBLER CRT, HAMILTON"
      }
    ]
  },
  {
    "postal": "L9A9M9",
    "result": []
  },
  {
    "postal": "L9A7T6",
    "result": []
  },
  {
    "postal": "L9A3X0",
    "result": []
  },
  {
    "postal": "L9A2T0",
    "result": []
  },
  {
    "postal": "L9A5X9",
    "result": []
  },
  {
    "postal": "L9A2R3",
    "result": [
      {
        "electoralDistricts": [
          {
            "election": null,
            "id": 38,
            "name": "Hamilton Mountain"
          }
        ],
        "pollDivisionIds": [
          10138684
        ],
        "postalCode": "L9A2R3",
        "streetName": "WASHINGTON",
        "streetDirectionId": null,
        "streetTypeId": "ST",
        "placeName": "HAMILTON",
        "streetNameDisplayText": "WASHINGTON ST, HAMILTON"
      }
    ]
  },
  {
    "postal": "L9A5N2",
    "result": []
  },
  {
    "postal": "L9A4Y7",
    "result": [
      {
        "electoralDistricts": [
          {
            "election": null,
            "id": 38,
            "name": "Hamilton Mountain"
          }
        ],
        "pollDivisionIds": [
          10138681
        ],
        "postalCode": "L9A4Y7",
        "streetName": "EAST 8TH",
        "streetDirectionId": null,
        "streetTypeId": "ST",
        "placeName": "HAMILTON",
        "streetNameDisplayText": "EAST 8TH ST, HAMILTON"
      }
    ]
  },
  {
    "postal": "L9A7M0",
    "result": []
  },
  {
    "postal": "L9A8P3",
    "result": []
  },
  {
    "postal": "L9A3N3",
    "result": [
      {
        "electoralDistricts": [
          {
            "election": null,
            "id": 38,
            "name": "Hamilton Mountain"
          }
        ],
        "pollDivisionIds": [
          10138681
        ],
        "postalCode": "L9A3N3",
        "streetName": "WELBOURN",
        "streetDirectionId": null,
        "streetTypeId": "DR",
        "placeName": "HAMILTON",
        "streetNameDisplayText": "WELBOURN DR, HAMILTON"
      }
    ]
  },
  {
    "postal": "L9A7S3",
    "result": []
  },
  {
    "postal": "L9A3V9",
    "result": [
      {
        "electoralDistricts": [
          {
            "election": null,
            "id": 38,
            "name": "Hamilton Mountain"
          }
        ],
        "pollDivisionIds": [
          10138682
        ],
        "postalCode": "L9A3V9",
        "streetName": "SALEM",
        "streetDirectionId": null,
        "streetTypeId": "AVE",
        "placeName": "HAMILTON",
        "streetNameDisplayText": "SALEM AVE, HAMILTON"
      }
    ]
  },
  {
    "postal": "L9A9N7",
    "result": []
  },
  {
    "postal": "L9A0G4",
    "result": []
  },
  {
    "postal": "L9A2E2",
    "result": [
      {
        "electoralDistricts": [
          {
            "election": null,
            "id": 38,
            "name": "Hamilton Mountain"
          }
        ],
        "pollDivisionIds": [
          10138683
        ],
        "postalCode": "L9A2E2",
        "streetName": "BROMLEY",
        "streetDirectionId": null,
        "streetTypeId": "RD",
        "placeName": "HAMILTON",
        "streetNameDisplayText": "BROMLEY RD, HAMILTON"
      }
    ]
  },
  {
    "postal": "L9A7W8",
    "result": []
  },
  {
    "postal": "L9A7M5",
    "result": []
  },
  {
    "postal": "L9A5W8",
    "result": []
  },
  {
    "postal": "L9A5E5",
    "result": [
      {
        "electoralDistricts": [
          {
            "election": null,
            "id": 38,
            "name": "Hamilton Mountain"
          }
        ],
        "pollDivisionIds": [
          10138688
        ],
        "postalCode": "L9A5E5",
        "streetName": "CRERAR",
        "streetDirectionId": null,
        "streetTypeId": "DR",
        "placeName": "HAMILTON",
        "streetNameDisplayText": "CRERAR DR, HAMILTON"
      },
      {
        "electoralDistricts": [
          {
            "election": null,
            "id": 38,
            "name": "Hamilton Mountain"
          }
        ],
        "pollDivisionIds": [
          10138688
        ],
        "postalCode": "L9A5E5",
        "streetName": "MARISA",
        "streetDirectionId": null,
        "streetTypeId": "CRT",
        "placeName": "HAMILTON",
        "streetNameDisplayText": "MARISA CRT, HAMILTON"
      }
    ]
  },
  {
    "postal": "L9A1P9",
    "result": [
      {
        "electoralDistricts": [
          {
            "election": null,
            "id": 38,
            "name": "Hamilton Mountain"
          }
        ],
        "pollDivisionIds": [
          10138682
        ],
        "postalCode": "L9A1P9",
        "streetName": "BRUCEDALE",
        "streetDirectionId": "E",
        "streetTypeId": "AVE",
        "placeName": "HAMILTON",
        "streetNameDisplayText": "BRUCEDALE AVE E, HAMILTON"
      }
    ]
  },
  {
    "postal": "L9A8V8",
    "result": []
  },
  {
    "postal": "L9A9G8",
    "result": []
  },
  {
    "postal": "L9A8H9",
    "result": []
  },
  {
    "postal": "L9A1Z1",
    "result": [
      {
        "electoralDistricts": [
          {
            "election": null,
            "id": 38,
            "name": "Hamilton Mountain"
          }
        ],
        "pollDivisionIds": [
          10138681
        ],
        "postalCode": "L9A1Z1",
        "streetName": "MCELROY",
        "streetDirectionId": "E",
        "streetTypeId": "RD",
        "placeName": "HAMILTON",
        "streetNameDisplayText": "MCELROY RD E, HAMILTON"
      }
    ]
  },
  {
    "postal": "L9A8M3",
    "result": []
  },
  {
    "postal": "L9A5H6",
    "result": [
      {
        "electoralDistricts": [
          {
            "election": null,
            "id": 38,
            "name": "Hamilton Mountain"
          }
        ],
        "pollDivisionIds": [
          10138680
        ],
        "postalCode": "L9A5H6",
        "streetName": "WINGATE",
        "streetDirectionId": null,
        "streetTypeId": "PL",
        "placeName": "HAMILTON",
        "streetNameDisplayText": "WINGATE PL, HAMILTON"
      }
    ]
  },
  {
    "postal": "L9A7W7",
    "result": []
  },
  {
    "postal": "L9A4L0",
    "result": []
  },
  {
    "postal": "L9A2N1",
    "result": [
      {
        "electoralDistricts": [
          {
            "election": null,
            "id": 38,
            "name": "Hamilton Mountain"
          }
        ],
        "pollDivisionIds": [
          10138689
        ],
        "postalCode": "L9A2N1",
        "streetName": "MILLWOOD",
        "streetDirectionId": null,
        "streetTypeId": "PL",
        "placeName": "HAMILTON",
        "streetNameDisplayText": "MILLWOOD PL, HAMILTON"
      }
    ]
  },
  {
    "postal": "L9A2H4",
    "result": [
      {
        "electoralDistricts": [
          {
            "election": null,
            "id": 38,
            "name": "Hamilton Mountain"
          }
        ],
        "pollDivisionIds": [
          10138680
        ],
        "postalCode": "L9A2H4",
        "streetName": "MOHAWK",
        "streetDirectionId": "E",
        "streetTypeId": "RD",
        "placeName": "HAMILTON",
        "streetNameDisplayText": "MOHAWK RD E, HAMILTON"
      }
    ]
  },
  {
    "postal": "L9A5C8",
    "result": [
      {
        "electoralDistricts": [
          {
            "election": null,
            "id": 38,
            "name": "Hamilton Mountain"
          }
        ],
        "pollDivisionIds": [
          10138684
        ],
        "postalCode": "L9A5C8",
        "streetName": "UPPER WELLINGTON",
        "streetDirectionId": null,
        "streetTypeId": "ST",
        "placeName": "HAMILTON",
        "streetNameDisplayText": "UPPER WELLINGTON ST, HAMILTON"
      }
    ]
  },
  {
    "postal": "L9A8B0",
    "result": []
  },
  {
    "postal": "L9A1T4",
    "result": [
      {
        "electoralDistricts": [
          {
            "election": null,
            "id": 38,
            "name": "Hamilton Mountain"
          }
        ],
        "pollDivisionIds": [
          10138682
        ],
        "postalCode": "L9A1T4",
        "streetName": "FENNELL",
        "streetDirectionId": "E",
        "streetTypeId": "AVE",
        "placeName": "HAMILTON",
        "streetNameDisplayText": "FENNELL AVE E, HAMILTON"
      }
    ]
  },
  {
    "postal": "L9A7N7",
    "result": []
  },
  {
    "postal": "L9A4L3",
    "result": [
      {
        "electoralDistricts": [
          {
            "election": null,
            "id": 38,
            "name": "Hamilton Mountain"
          }
        ],
        "pollDivisionIds": [
          10138683
        ],
        "postalCode": "L9A4L3",
        "streetName": "EAST 16TH",
        "streetDirectionId": null,
        "streetTypeId": "ST",
        "placeName": "HAMILTON",
        "streetNameDisplayText": "EAST 16TH ST, HAMILTON"
      }
    ]
  },
  {
    "postal": "L9A2N2",
    "result": [
      {
        "electoralDistricts": [
          {
            "election": null,
            "id": 38,
            "name": "Hamilton Mountain"
          }
        ],
        "pollDivisionIds": [
          10138684
        ],
        "postalCode": "L9A2N2",
        "streetName": "HESTER",
        "streetDirectionId": null,
        "streetTypeId": "ST",
        "placeName": "HAMILTON",
        "streetNameDisplayText": "HESTER ST, HAMILTON"
      }
    ]
  },
  {
    "postal": "L9A4N8",
    "result": [
      {
        "electoralDistricts": [
          {
            "election": null,
            "id": 38,
            "name": "Hamilton Mountain"
          }
        ],
        "pollDivisionIds": [
          10138682
        ],
        "postalCode": "L9A4N8",
        "streetName": "EAST 18TH",
        "streetDirectionId": null,
        "streetTypeId": "ST",
        "placeName": "HAMILTON",
        "streetNameDisplayText": "EAST 18TH ST, HAMILTON"
      }
    ]
  },
  {
    "postal": "L9A3M5",
    "result": [
      {
        "electoralDistricts": [
          {
            "election": null,
            "id": 38,
            "name": "Hamilton Mountain"
          }
        ],
        "pollDivisionIds": [
          10138681
        ],
        "postalCode": "L9A3M5",
        "streetName": "VOLA",
        "streetDirectionId": null,
        "streetTypeId": "CRT",
        "placeName": "HAMILTON",
        "streetNameDisplayText": "VOLA CRT, HAMILTON"
      }
    ]
  },
  {
    "postal": "L9A6H7",
    "result": []
  },
  {
    "postal": "L9A8Y8",
    "result": []
  },
  {
    "postal": "L9A5R9",
    "result": []
  },
  {
    "postal": "L9A8G3",
    "result": []
  },
  {
    "postal": "L9A4N7",
    "result": [
      {
        "electoralDistricts": [
          {
            "election": null,
            "id": 38,
            "name": "Hamilton Mountain"
          }
        ],
        "pollDivisionIds": [
          10138682
        ],
        "postalCode": "L9A4N7",
        "streetName": "EAST 18TH",
        "streetDirectionId": null,
        "streetTypeId": "ST",
        "placeName": "HAMILTON",
        "streetNameDisplayText": "EAST 18TH ST, HAMILTON"
      }
    ]
  },
  {
    "postal": "L9A0B9",
    "result": [
      {
        "electoralDistricts": [
          {
            "election": null,
            "id": 38,
            "name": "Hamilton Mountain"
          }
        ],
        "pollDivisionIds": [
          10138689
        ],
        "postalCode": "L9A0B9",
        "streetName": "EDUCATION",
        "streetDirectionId": null,
        "streetTypeId": "CRT",
        "placeName": "HAMILTON",
        "streetNameDisplayText": "EDUCATION CRT, HAMILTON"
      }
    ]
  },
  {
    "postal": "L9A9K7",
    "result": []
  },
  {
    "postal": "L9A9K9",
    "result": []
  },
  {
    "postal": "L9A3Z2",
    "result": [
      {
        "electoralDistricts": [
          {
            "election": null,
            "id": 38,
            "name": "Hamilton Mountain"
          }
        ],
        "pollDivisionIds": [
          10138682
        ],
        "postalCode": "L9A3Z2",
        "streetName": "EAST 13TH",
        "streetDirectionId": null,
        "streetTypeId": "ST",
        "placeName": "HAMILTON",
        "streetNameDisplayText": "EAST 13TH ST, HAMILTON"
      }
    ]
  },
  {
    "postal": "L9A6W7",
    "result": []
  },
  {
    "postal": "L9A0P1",
    "result": []
  },
  {
    "postal": "L9A3A0",
    "result": []
  },
  {
    "postal": "L9A8L9",
    "result": []
  },
  {
    "postal": "L9A6X0",
    "result": []
  },
  {
    "postal": "L9A3E9",
    "result": [
      {
        "electoralDistricts": [
          {
            "election": null,
            "id": 38,
            "name": "Hamilton Mountain"
          }
        ],
        "pollDivisionIds": [
          10138684
        ],
        "postalCode": "L9A3E9",
        "streetName": "MANNING",
        "streetDirectionId": null,
        "streetTypeId": "AVE",
        "placeName": "HAMILTON",
        "streetNameDisplayText": "MANNING AVE, HAMILTON"
      }
    ]
  },
  {
    "postal": "L9A0S5",
    "result": []
  },
  {
    "postal": "L9A1A2",
    "result": [
      {
        "electoralDistricts": [
          {
            "election": null,
            "id": 38,
            "name": "Hamilton Mountain"
          }
        ],
        "pollDivisionIds": [
          10138682
        ],
        "postalCode": "L9A1A2",
        "streetName": "MOUNTAIN PARK",
        "streetDirectionId": null,
        "streetTypeId": "AVE",
        "placeName": "HAMILTON",
        "streetNameDisplayText": "MOUNTAIN PARK AVE, HAMILTON"
      }
    ]
  },
  {
    "postal": "L9A5V8",
    "result": []
  },
  {
    "postal": "L9A8C5",
    "result": []
  },
  {
    "postal": "L9A6N0",
    "result": []
  },
  {
    "postal": "L9A9E6",
    "result": []
  },
  {
    "postal": "L9A5J7",
    "result": [
      {
        "electoralDistricts": [
          {
            "election": null,
            "id": 38,
            "name": "Hamilton Mountain"
          }
        ],
        "pollDivisionIds": [
          10138686
        ],
        "postalCode": "L9A5J7",
        "streetName": "BENJAMIN",
        "streetDirectionId": null,
        "streetTypeId": "DR",
        "placeName": "HAMILTON",
        "streetNameDisplayText": "BENJAMIN DR, HAMILTON"
      },
      {
        "electoralDistricts": [
          {
            "election": null,
            "id": 38,
            "name": "Hamilton Mountain"
          }
        ],
        "pollDivisionIds": [
          10138686
        ],
        "postalCode": "L9A5J7",
        "streetName": "BRIDGETTE",
        "streetDirectionId": null,
        "streetTypeId": "DR",
        "placeName": "HAMILTON",
        "streetNameDisplayText": "BRIDGETTE DR, HAMILTON"
      }
    ]
  },
  {
    "postal": "L9A2R2",
    "result": [
      {
        "electoralDistricts": [
          {
            "election": null,
            "id": 38,
            "name": "Hamilton Mountain"
          }
        ],
        "pollDivisionIds": [
          10138684
        ],
        "postalCode": "L9A2R2",
        "streetName": "WASHINGTON",
        "streetDirectionId": null,
        "streetTypeId": "ST",
        "placeName": "HAMILTON",
        "streetNameDisplayText": "WASHINGTON ST, HAMILTON"
      }
    ]
  },
  {
    "postal": "L9A0P5",
    "result": []
  },
  {
    "postal": "L9A5A7",
    "result": []
  },
  {
    "postal": "L9A1G1",
    "result": [
      {
        "electoralDistricts": [
          {
            "election": null,
            "id": 38,
            "name": "Hamilton Mountain"
          }
        ],
        "pollDivisionIds": [
          10138681
        ],
        "postalCode": "L9A1G1",
        "streetName": "ROSEDENE",
        "streetDirectionId": null,
        "streetTypeId": "AVE",
        "placeName": "HAMILTON",
        "streetNameDisplayText": "ROSEDENE AVE, HAMILTON"
      }
    ]
  },
  {
    "postal": "L9A9R6",
    "result": []
  },
  {
    "postal": "L9A4Z9",
    "result": [
      {
        "electoralDistricts": [
          {
            "election": null,
            "id": 38,
            "name": "Hamilton Mountain"
          }
        ],
        "pollDivisionIds": [
          10138689
        ],
        "postalCode": "L9A4Z9",
        "streetName": "PINEWARBLER",
        "streetDirectionId": null,
        "streetTypeId": "DR",
        "placeName": "HAMILTON",
        "streetNameDisplayText": "PINEWARBLER DR, HAMILTON"
      }
    ]
  },
  {
    "postal": "L9A1V5",
    "result": [
      {
        "electoralDistricts": [
          {
            "election": null,
            "id": 38,
            "name": "Hamilton Mountain"
          }
        ],
        "pollDivisionIds": [
          10138683
        ],
        "postalCode": "L9A1V5",
        "streetName": "INCHLEE",
        "streetDirectionId": null,
        "streetTypeId": "DR",
        "placeName": "HAMILTON",
        "streetNameDisplayText": "INCHLEE DR, HAMILTON"
      }
    ]
  },
  {
    "postal": "L9A9Y5",
    "result": []
  },
  {
    "postal": "L9A1P2",
    "result": [
      {
        "electoralDistricts": [
          {
            "election": null,
            "id": 38,
            "name": "Hamilton Mountain"
          }
        ],
        "pollDivisionIds": [
          10138681
        ],
        "postalCode": "L9A1P2",
        "streetName": "BRUCEDALE",
        "streetDirectionId": "E",
        "streetTypeId": "AVE",
        "placeName": "HAMILTON",
        "streetNameDisplayText": "BRUCEDALE AVE E, HAMILTON"
      }
    ]
  },
  {
    "postal": "L9A5X0",
    "result": []
  },
  {
    "postal": "L9A7B8",
    "result": []
  },
  {
    "postal": "L9A0C6",
    "result": []
  },
  {
    "postal": "L9A6G1",
    "result": []
  },
  {
    "postal": "L9A3K3",
    "result": [
      {
        "electoralDistricts": [
          {
            "election": null,
            "id": 38,
            "name": "Hamilton Mountain"
          }
        ],
        "pollDivisionIds": [
          10138684
        ],
        "postalCode": "L9A3K3",
        "streetName": "DESCHENE",
        "streetDirectionId": null,
        "streetTypeId": "AVE",
        "placeName": "HAMILTON",
        "streetNameDisplayText": "DESCHENE AVE, HAMILTON"
      }
    ]
  },
  {
    "postal": "L9A9R0",
    "result": []
  },
  {
    "postal": "L9A4R8",
    "result": [
      {
        "electoralDistricts": [
          {
            "election": null,
            "id": 38,
            "name": "Hamilton Mountain"
          }
        ],
        "pollDivisionIds": [
          10138689
        ],
        "postalCode": "L9A4R8",
        "streetName": "BLACKTHORNE",
        "streetDirectionId": null,
        "streetTypeId": "AVE",
        "placeName": "HAMILTON",
        "streetNameDisplayText": "BLACKTHORNE AVE, HAMILTON"
      }
    ]
  },
  {
    "postal": "L9A5P9",
    "result": []
  },
  {
    "postal": "L9A8N4",
    "result": []
  },
  {
    "postal": "L9A8H4",
    "result": []
  },
  {
    "postal": "L9A4V1",
    "result": [
      {
        "electoralDistricts": [
          {
            "election": null,
            "id": 38,
            "name": "Hamilton Mountain"
          }
        ],
        "pollDivisionIds": [
          10138691
        ],
        "postalCode": "L9A4V1",
        "streetName": "UPPER WENTWORTH",
        "streetDirectionId": null,
        "streetTypeId": "ST",
        "placeName": "HAMILTON",
        "streetNameDisplayText": "UPPER WENTWORTH ST, HAMILTON"
      }
    ]
  },
  {
    "postal": "L9A1K5",
    "result": [
      {
        "electoralDistricts": [
          {
            "election": null,
            "id": 38,
            "name": "Hamilton Mountain"
          }
        ],
        "pollDivisionIds": [
          10138681
        ],
        "postalCode": "L9A1K5",
        "streetName": "QUEENSDALE",
        "streetDirectionId": "E",
        "streetTypeId": "AVE",
        "placeName": "HAMILTON",
        "streetNameDisplayText": "QUEENSDALE AVE E, HAMILTON"
      }
    ]
  },
  {
    "postal": "L9A1Z5",
    "result": [
      {
        "electoralDistricts": [
          {
            "election": null,
            "id": 38,
            "name": "Hamilton Mountain"
          }
        ],
        "pollDivisionIds": [
          10138683
        ],
        "postalCode": "L9A1Z5",
        "streetName": "CALLIE",
        "streetDirectionId": null,
        "streetTypeId": "RD",
        "placeName": "HAMILTON",
        "streetNameDisplayText": "CALLIE RD, HAMILTON"
      }
    ]
  },
  {
    "postal": "L9A9L9",
    "result": []
  },
  {
    "postal": "L9A5L2",
    "result": []
  },
  {
    "postal": "L9A0M2",
    "result": []
  },
  {
    "postal": "L9A1K8",
    "result": [
      {
        "electoralDistricts": [
          {
            "election": null,
            "id": 38,
            "name": "Hamilton Mountain"
          }
        ],
        "pollDivisionIds": [
          10138681
        ],
        "postalCode": "L9A1K8",
        "streetName": "QUEENSDALE",
        "streetDirectionId": "E",
        "streetTypeId": "AVE",
        "placeName": "HAMILTON",
        "streetNameDisplayText": "QUEENSDALE AVE E, HAMILTON"
      }
    ]
  },
  {
    "postal": "L9A3M7",
    "result": [
      {
        "electoralDistricts": [
          {
            "election": null,
            "id": 38,
            "name": "Hamilton Mountain"
          }
        ],
        "pollDivisionIds": [
          10138681
        ],
        "postalCode": "L9A3M7",
        "streetName": "EAST 9TH",
        "streetDirectionId": null,
        "streetTypeId": "ST",
        "placeName": "HAMILTON",
        "streetNameDisplayText": "EAST 9TH ST, HAMILTON"
      }
    ]
  },
  {
    "postal": "L9A1B2",
    "result": [
      {
        "electoralDistricts": [
          {
            "election": null,
            "id": 38,
            "name": "Hamilton Mountain"
          }
        ],
        "pollDivisionIds": [
          10138681
        ],
        "postalCode": "L9A1B2",
        "streetName": "CONCESSION",
        "streetDirectionId": null,
        "streetTypeId": "ST",
        "placeName": "HAMILTON",
        "streetNameDisplayText": "CONCESSION ST, HAMILTON"
      }
    ]
  },
  {
    "postal": "L9A0H9",
    "result": []
  },
  {
    "postal": "L9A8M4",
    "result": []
  },
  {
    "postal": "L9A2M5",
    "result": [
      {
        "electoralDistricts": [
          {
            "election": null,
            "id": 38,
            "name": "Hamilton Mountain"
          }
        ],
        "pollDivisionIds": [
          10138689
        ],
        "postalCode": "L9A2M5",
        "streetName": "SWALLOW",
        "streetDirectionId": null,
        "streetTypeId": "CRES",
        "placeName": "HAMILTON",
        "streetNameDisplayText": "SWALLOW CRES, HAMILTON"
      }
    ]
  },
  {
    "postal": "L9A0T9",
    "result": []
  },
  {
    "postal": "L9A3P1",
    "result": [
      {
        "electoralDistricts": [
          {
            "election": null,
            "id": 38,
            "name": "Hamilton Mountain"
          }
        ],
        "pollDivisionIds": [
          10138681
        ],
        "postalCode": "L9A3P1",
        "streetName": "UPPER WELLINGTON",
        "streetDirectionId": null,
        "streetTypeId": "ST",
        "placeName": "HAMILTON",
        "streetNameDisplayText": "UPPER WELLINGTON ST, HAMILTON"
      }
    ]
  },
  {
    "postal": "L9A1R6",
    "result": [
      {
        "electoralDistricts": [
          {
            "election": null,
            "id": 38,
            "name": "Hamilton Mountain"
          }
        ],
        "pollDivisionIds": [
          10138681
        ],
        "postalCode": "L9A1R6",
        "streetName": "FENNELL",
        "streetDirectionId": "E",
        "streetTypeId": "AVE",
        "placeName": "HAMILTON",
        "streetNameDisplayText": "FENNELL AVE E, HAMILTON"
      }
    ]
  },
  {
    "postal": "L9A9V5",
    "result": []
  },
  {
    "postal": "L9A9T0",
    "result": []
  },
  {
    "postal": "L9A0A9",
    "result": []
  },
  {
    "postal": "L9A1M3",
    "result": [
      {
        "electoralDistricts": [
          {
            "election": null,
            "id": 38,
            "name": "Hamilton Mountain"
          }
        ],
        "pollDivisionIds": [
          10138681
        ],
        "postalCode": "L9A1M3",
        "streetName": "EMPRESS",
        "streetDirectionId": null,
        "streetTypeId": "AVE",
        "placeName": "HAMILTON",
        "streetNameDisplayText": "EMPRESS AVE, HAMILTON"
      }
    ]
  },
  {
    "postal": "L9A1W8",
    "result": [
      {
        "electoralDistricts": [
          {
            "election": null,
            "id": 38,
            "name": "Hamilton Mountain"
          }
        ],
        "pollDivisionIds": [
          10138683
        ],
        "postalCode": "L9A1W8",
        "streetName": "HOWE",
        "streetDirectionId": null,
        "streetTypeId": "AVE",
        "placeName": "HAMILTON",
        "streetNameDisplayText": "HOWE AVE, HAMILTON"
      }
    ]
  },
  {
    "postal": "L9A9J1",
    "result": []
  },
  {
    "postal": "L9A8N5",
    "result": []
  },
  {
    "postal": "L9A5X1",
    "result": []
  },
  {
    "postal": "L9A6S2",
    "result": []
  },
  {
    "postal": "L9A2A2",
    "result": [
      {
        "electoralDistricts": [
          {
            "election": null,
            "id": 38,
            "name": "Hamilton Mountain"
          }
        ],
        "pollDivisionIds": [
          10138683
        ],
        "postalCode": "L9A2A2",
        "streetName": "CALLIE",
        "streetDirectionId": null,
        "streetTypeId": "RD",
        "placeName": "HAMILTON",
        "streetNameDisplayText": "CALLIE RD, HAMILTON"
      }
    ]
  },
  {
    "postal": "L9A6A6",
    "result": []
  },
  {
    "postal": "L9A0S3",
    "result": []
  },
  {
    "postal": "L9A3E7",
    "result": [
      {
        "electoralDistricts": [
          {
            "election": null,
            "id": 38,
            "name": "Hamilton Mountain"
          }
        ],
        "pollDivisionIds": [
          10138684
        ],
        "postalCode": "L9A3E7",
        "streetName": "MANNING",
        "streetDirectionId": null,
        "streetTypeId": "AVE",
        "placeName": "HAMILTON",
        "streetNameDisplayText": "MANNING AVE, HAMILTON"
      }
    ]
  },
  {
    "postal": "L9A5R7",
    "result": []
  },
  {
    "postal": "L9A3R6",
    "result": [
      {
        "electoralDistricts": [
          {
            "election": null,
            "id": 38,
            "name": "Hamilton Mountain"
          }
        ],
        "pollDivisionIds": [
          10138680
        ],
        "postalCode": "L9A3R6",
        "streetName": "UPPER WELLINGTON",
        "streetDirectionId": null,
        "streetTypeId": "ST",
        "placeName": "HAMILTON",
        "streetNameDisplayText": "UPPER WELLINGTON ST, HAMILTON"
      }
    ]
  },
  {
    "postal": "L9A6K4",
    "result": []
  },
  {
    "postal": "L9A2W5",
    "result": [
      {
        "electoralDistricts": [
          {
            "election": null,
            "id": 38,
            "name": "Hamilton Mountain"
          }
        ],
        "pollDivisionIds": [
          10138680
        ],
        "postalCode": "L9A2W5",
        "streetName": "HOWARD",
        "streetDirectionId": null,
        "streetTypeId": "AVE",
        "placeName": "HAMILTON",
        "streetNameDisplayText": "HOWARD AVE, HAMILTON"
      }
    ]
  },
  {
    "postal": "L9A8W4",
    "result": []
  },
  {
    "postal": "L9A9C2",
    "result": []
  },
  {
    "postal": "L9A2C0",
    "result": []
  },
  {
    "postal": "L9A0E1",
    "result": []
  },
  {
    "postal": "L9A1K9",
    "result": [
      {
        "electoralDistricts": [
          {
            "election": null,
            "id": 38,
            "name": "Hamilton Mountain"
          }
        ],
        "pollDivisionIds": [
          10138681
        ],
        "postalCode": "L9A1K9",
        "streetName": "QUEENSDALE",
        "streetDirectionId": "E",
        "streetTypeId": "AVE",
        "placeName": "HAMILTON",
        "streetNameDisplayText": "QUEENSDALE AVE E, HAMILTON"
      }
    ]
  },
  {
    "postal": "L9A1G7",
    "result": [
      {
        "electoralDistricts": [
          {
            "election": null,
            "id": 38,
            "name": "Hamilton Mountain"
          }
        ],
        "pollDivisionIds": [
          10138681
        ],
        "postalCode": "L9A1G7",
        "streetName": "INVERNESS",
        "streetDirectionId": "E",
        "streetTypeId": "AVE",
        "placeName": "HAMILTON",
        "streetNameDisplayText": "INVERNESS AVE E, HAMILTON"
      }
    ]
  },
  {
    "postal": "L9A4E9",
    "result": [
      {
        "electoralDistricts": [
          {
            "election": null,
            "id": 38,
            "name": "Hamilton Mountain"
          }
        ],
        "pollDivisionIds": [
          10138682
        ],
        "postalCode": "L9A4E9",
        "streetName": "EAST 15TH",
        "streetDirectionId": null,
        "streetTypeId": "ST",
        "placeName": "HAMILTON",
        "streetNameDisplayText": "EAST 15TH ST, HAMILTON"
      }
    ]
  },
  {
    "postal": "L9A9P0",
    "result": []
  },
  {
    "postal": "L9A5H3",
    "result": [
      {
        "electoralDistricts": [
          {
            "election": null,
            "id": 38,
            "name": "Hamilton Mountain"
          }
        ],
        "pollDivisionIds": [
          10138713
        ],
        "postalCode": "L9A5H3",
        "streetName": "UPPER WELLINGTON",
        "streetDirectionId": null,
        "streetTypeId": "ST",
        "placeName": "HAMILTON",
        "streetNameDisplayText": "UPPER WELLINGTON ST, HAMILTON"
      }
    ]
  },
  {
    "postal": "L9A9X6",
    "result": []
  },
  {
    "postal": "L9A5N7",
    "result": []
  },
  {
    "postal": "L9A5A6",
    "result": [
      {
        "electoralDistricts": [
          {
            "election": null,
            "id": 38,
            "name": "Hamilton Mountain"
          }
        ],
        "pollDivisionIds": [
          10138689
        ],
        "postalCode": "L9A5A6",
        "streetName": "UPPER WELLINGTON",
        "streetDirectionId": null,
        "streetTypeId": "ST",
        "placeName": "HAMILTON",
        "streetNameDisplayText": "UPPER WELLINGTON ST, HAMILTON"
      }
    ]
  },
  {
    "postal": "L9A4M0",
    "result": []
  },
  {
    "postal": "L9A3V6",
    "result": [
      {
        "electoralDistricts": [
          {
            "election": null,
            "id": 38,
            "name": "Hamilton Mountain"
          }
        ],
        "pollDivisionIds": [
          10138683
        ],
        "postalCode": "L9A3V6",
        "streetName": "DAVID",
        "streetDirectionId": null,
        "streetTypeId": "AVE",
        "placeName": "HAMILTON",
        "streetNameDisplayText": "DAVID AVE, HAMILTON"
      }
    ]
  },
  {
    "postal": "L9A1L7",
    "result": [
      {
        "electoralDistricts": [
          {
            "election": null,
            "id": 38,
            "name": "Hamilton Mountain"
          }
        ],
        "pollDivisionIds": [
          10138682
        ],
        "postalCode": "L9A1L7",
        "streetName": "QUEENSDALE",
        "streetDirectionId": "E",
        "streetTypeId": "AV",
        "placeName": "HAMILTON",
        "streetNameDisplayText": "QUEENSDALE AV E, HAMILTON"
      },
      {
        "electoralDistricts": [
          {
            "election": null,
            "id": 38,
            "name": "Hamilton Mountain"
          }
        ],
        "pollDivisionIds": [
          10138682
        ],
        "postalCode": "L9A1L7",
        "streetName": "QUEENSDALE",
        "streetDirectionId": "E",
        "streetTypeId": "AVE",
        "placeName": "HAMILTON",
        "streetNameDisplayText": "QUEENSDALE AVE E, HAMILTON"
      }
    ]
  },
  {
    "postal": "L9A2P9",
    "result": [
      {
        "electoralDistricts": [
          {
            "election": null,
            "id": 38,
            "name": "Hamilton Mountain"
          }
        ],
        "pollDivisionIds": [
          10138684
        ],
        "postalCode": "L9A2P9",
        "streetName": "WASHINGTON",
        "streetDirectionId": null,
        "streetTypeId": "ST",
        "placeName": "HAMILTON",
        "streetNameDisplayText": "WASHINGTON ST, HAMILTON"
      }
    ]
  },
  {
    "postal": "L9A5T4",
    "result": []
  },
  {
    "postal": "L9A5Z1",
    "result": []
  },
  {
    "postal": "L9A2X0",
    "result": []
  },
  {
    "postal": "L9A6Z2",
    "result": []
  },
  {
    "postal": "L9A0E0",
    "result": []
  },
  {
    "postal": "L9A3Z5",
    "result": [
      {
        "electoralDistricts": [
          {
            "election": null,
            "id": 38,
            "name": "Hamilton Mountain"
          }
        ],
        "pollDivisionIds": [
          10138682
        ],
        "postalCode": "L9A3Z5",
        "streetName": "EAST 13TH",
        "streetDirectionId": null,
        "streetTypeId": "ST",
        "placeName": "HAMILTON",
        "streetNameDisplayText": "EAST 13TH ST, HAMILTON"
      }
    ]
  },
  {
    "postal": "L9A8H3",
    "result": []
  },
  {
    "postal": "L9A7S6",
    "result": []
  },
  {
    "postal": "L9A4C1",
    "result": [
      {
        "electoralDistricts": [
          {
            "election": null,
            "id": 38,
            "name": "Hamilton Mountain"
          }
        ],
        "pollDivisionIds": [
          10138683
        ],
        "postalCode": "L9A4C1",
        "streetName": "EAST 14TH",
        "streetDirectionId": null,
        "streetTypeId": "ST",
        "placeName": "HAMILTON",
        "streetNameDisplayText": "EAST 14TH ST, HAMILTON"
      }
    ]
  },
  {
    "postal": "L9A3K2",
    "result": [
      {
        "electoralDistricts": [
          {
            "election": null,
            "id": 38,
            "name": "Hamilton Mountain"
          }
        ],
        "pollDivisionIds": [
          10138684
        ],
        "postalCode": "L9A3K2",
        "streetName": "DESCHENE",
        "streetDirectionId": null,
        "streetTypeId": "AVE",
        "placeName": "HAMILTON",
        "streetNameDisplayText": "DESCHENE AVE, HAMILTON"
      },
      {
        "electoralDistricts": [
          {
            "election": null,
            "id": 38,
            "name": "Hamilton Mountain"
          }
        ],
        "pollDivisionIds": [
          10138682
        ],
        "postalCode": "L9A3K2",
        "streetName": "EAST 12TH",
        "streetDirectionId": null,
        "streetTypeId": "ST",
        "placeName": "HAMILTON ONT",
        "streetNameDisplayText": "EAST 12TH ST, HAMILTON ONT"
      }
    ]
  },
  {
    "postal": "L9A1Y5",
    "result": [
      {
        "electoralDistricts": [
          {
            "election": null,
            "id": 38,
            "name": "Hamilton Mountain"
          }
        ],
        "pollDivisionIds": [
          10138681
        ],
        "postalCode": "L9A1Y5",
        "streetName": "MCELROY",
        "streetDirectionId": "E",
        "streetTypeId": "RD",
        "placeName": "HAMILTON",
        "streetNameDisplayText": "MCELROY RD E, HAMILTON"
      }
    ]
  },
  {
    "postal": "L9A6P6",
    "result": []
  },
  {
    "postal": "L9A3N9",
    "result": [
      {
        "electoralDistricts": [
          {
            "election": null,
            "id": 38,
            "name": "Hamilton Mountain"
          }
        ],
        "pollDivisionIds": [
          10138680
        ],
        "postalCode": "L9A3N9",
        "streetName": "DOROTHY",
        "streetDirectionId": null,
        "streetTypeId": "ST",
        "placeName": "HAMILTON",
        "streetNameDisplayText": "DOROTHY ST, HAMILTON"
      }
    ]
  },
  {
    "postal": "L9A3W2",
    "result": [
      {
        "electoralDistricts": [
          {
            "election": null,
            "id": 38,
            "name": "Hamilton Mountain"
          }
        ],
        "pollDivisionIds": [
          10138682
        ],
        "postalCode": "L9A3W2",
        "streetName": "SALEM",
        "streetDirectionId": null,
        "streetTypeId": "AVE",
        "placeName": "HAMILTON",
        "streetNameDisplayText": "SALEM AVE, HAMILTON"
      }
    ]
  },
  {
    "postal": "L9A6H8",
    "result": []
  },
  {
    "postal": "L9A9T3",
    "result": []
  },
  {
    "postal": "L9A5L9",
    "result": []
  },
  {
    "postal": "L9A7X7",
    "result": []
  },
  {
    "postal": "L9A3J5",
    "result": [
      {
        "electoralDistricts": [
          {
            "election": null,
            "id": 38,
            "name": "Hamilton Mountain"
          }
        ],
        "pollDivisionIds": [
          10138681
        ],
        "postalCode": "L9A3J5",
        "streetName": "KNYVET",
        "streetDirectionId": null,
        "streetTypeId": "AVE",
        "placeName": "HAMILTON",
        "streetNameDisplayText": "KNYVET AVE, HAMILTON"
      }
    ]
  },
  {
    "postal": "L9A4J5",
    "result": [
      {
        "electoralDistricts": [
          {
            "election": null,
            "id": 38,
            "name": "Hamilton Mountain"
          }
        ],
        "pollDivisionIds": [
          10138682
        ],
        "postalCode": "L9A4J5",
        "streetName": "EAST 16TH",
        "streetDirectionId": null,
        "streetTypeId": "ST",
        "placeName": "HAMILTON",
        "streetNameDisplayText": "EAST 16TH ST, HAMILTON"
      }
    ]
  },
  {
    "postal": "L9A6J2",
    "result": []
  },
  {
    "postal": "L9A5V6",
    "result": []
  },
  {
    "postal": "L9A3N2",
    "result": [
      {
        "electoralDistricts": [
          {
            "election": null,
            "id": 38,
            "name": "Hamilton Mountain"
          }
        ],
        "pollDivisionIds": [
          10138681
        ],
        "postalCode": "L9A3N2",
        "streetName": "WELBOURN",
        "streetDirectionId": null,
        "streetTypeId": "DR",
        "placeName": "HAMILTON",
        "streetNameDisplayText": "WELBOURN DR, HAMILTON"
      }
    ]
  },
  {
    "postal": "L9A3B1",
    "result": [
      {
        "electoralDistricts": [
          {
            "election": null,
            "id": 38,
            "name": "Hamilton Mountain"
          }
        ],
        "pollDivisionIds": [
          10138684
        ],
        "postalCode": "L9A3B1",
        "streetName": "RONALDSHAY",
        "streetDirectionId": null,
        "streetTypeId": "AVE",
        "placeName": "HAMILTON",
        "streetNameDisplayText": "RONALDSHAY AVE, HAMILTON"
      }
    ]
  },
  {
    "postal": "L9A8B5",
    "result": []
  },
  {
    "postal": "L9A0K1",
    "result": []
  },
  {
    "postal": "L9A7M7",
    "result": []
  },
  {
    "postal": "L9A2M2",
    "result": [
      {
        "electoralDistricts": [
          {
            "election": null,
            "id": 38,
            "name": "Hamilton Mountain"
          }
        ],
        "pollDivisionIds": [
          10138689
        ],
        "postalCode": "L9A2M2",
        "streetName": "TANAGER",
        "streetDirectionId": null,
        "streetTypeId": "AVE",
        "placeName": "HAMILTON",
        "streetNameDisplayText": "TANAGER AVE, HAMILTON"
      }
    ]
  },
  {
    "postal": "L9A9N3",
    "result": []
  },
  {
    "postal": "L9A4Y8",
    "result": [
      {
        "electoralDistricts": [
          {
            "election": null,
            "id": 38,
            "name": "Hamilton Mountain"
          }
        ],
        "pollDivisionIds": [
          10138689
        ],
        "postalCode": "L9A4Y8",
        "streetName": "HERON",
        "streetDirectionId": null,
        "streetTypeId": "PL",
        "placeName": "HAMILTON",
        "streetNameDisplayText": "HERON PL, HAMILTON"
      }
    ]
  },
  {
    "postal": "L9A3V7",
    "result": [
      {
        "electoralDistricts": [
          {
            "election": null,
            "id": 38,
            "name": "Hamilton Mountain"
          }
        ],
        "pollDivisionIds": [
          10138683
        ],
        "postalCode": "L9A3V7",
        "streetName": "DAVID",
        "streetDirectionId": null,
        "streetTypeId": "AVE",
        "placeName": "HAMILTON",
        "streetNameDisplayText": "DAVID AVE, HAMILTON"
      }
    ]
  },
  {
    "postal": "L9A8Z1",
    "result": []
  },
  {
    "postal": "L9A7B3",
    "result": []
  },
  {
    "postal": "L9A3A8",
    "result": [
      {
        "electoralDistricts": [
          {
            "election": null,
            "id": 38,
            "name": "Hamilton Mountain"
          }
        ],
        "pollDivisionIds": [
          10138684
        ],
        "postalCode": "L9A3A8",
        "streetName": "GREENINGDON",
        "streetDirectionId": null,
        "streetTypeId": "DR",
        "placeName": "HAMILTON",
        "streetNameDisplayText": "GREENINGDON DR, HAMILTON"
      }
    ]
  },
  {
    "postal": "L9A7V5",
    "result": []
  },
  {
    "postal": "L9A2T2",
    "result": [
      {
        "electoralDistricts": [
          {
            "election": null,
            "id": 38,
            "name": "Hamilton Mountain"
          }
        ],
        "pollDivisionIds": [
          10138681
        ],
        "postalCode": "L9A2T2",
        "streetName": "WAVELL",
        "streetDirectionId": null,
        "streetTypeId": "AVE",
        "placeName": "HAMILTON",
        "streetNameDisplayText": "WAVELL AVE, HAMILTON"
      }
    ]
  },
  {
    "postal": "L9A6L3",
    "result": []
  },
  {
    "postal": "L9A0L2",
    "result": []
  },
  {
    "postal": "L9A5Y8",
    "result": []
  },
  {
    "postal": "L9A0B8",
    "result": []
  },
  {
    "postal": "L9A6R5",
    "result": []
  },
  {
    "postal": "L9A8W6",
    "result": []
  },
  {
    "postal": "L9A8G6",
    "result": []
  },
  {
    "postal": "L9A6X3",
    "result": []
  },
  {
    "postal": "L9A7R7",
    "result": []
  },
  {
    "postal": "L9A4B6",
    "result": [
      {
        "electoralDistricts": [
          {
            "election": null,
            "id": 38,
            "name": "Hamilton Mountain"
          }
        ],
        "pollDivisionIds": [
          10138682
        ],
        "postalCode": "L9A4B6",
        "streetName": "EAST 14TH",
        "streetDirectionId": null,
        "streetTypeId": "ST",
        "placeName": "HAMILTON",
        "streetNameDisplayText": "EAST 14TH ST, HAMILTON"
      }
    ]
  },
  {
    "postal": "L9A3P9",
    "result": [
      {
        "electoralDistricts": [
          {
            "election": null,
            "id": 38,
            "name": "Hamilton Mountain"
          }
        ],
        "pollDivisionIds": [
          10138681
        ],
        "postalCode": "L9A3P9",
        "streetName": "UPPER WELLINGTON",
        "streetDirectionId": null,
        "streetTypeId": "ST",
        "placeName": "HAMILTON",
        "streetNameDisplayText": "UPPER WELLINGTON ST, HAMILTON"
      }
    ]
  },
  {
    "postal": "L9A2T3",
    "result": [
      {
        "electoralDistricts": [
          {
            "election": null,
            "id": 38,
            "name": "Hamilton Mountain"
          }
        ],
        "pollDivisionIds": [
          10138681
        ],
        "postalCode": "L9A2T3",
        "streetName": "WAVELL",
        "streetDirectionId": null,
        "streetTypeId": "AVE",
        "placeName": "HAMILTON",
        "streetNameDisplayText": "WAVELL AVE, HAMILTON"
      }
    ]
  },
  {
    "postal": "L9A1M4",
    "result": [
      {
        "electoralDistricts": [
          {
            "election": null,
            "id": 38,
            "name": "Hamilton Mountain"
          }
        ],
        "pollDivisionIds": [
          10138681
        ],
        "postalCode": "L9A1M4",
        "streetName": "EMPRESS",
        "streetDirectionId": null,
        "streetTypeId": "AVE",
        "placeName": "HAMILTON",
        "streetNameDisplayText": "EMPRESS AVE, HAMILTON"
      }
    ]
  },
  {
    "postal": "L9A0H1",
    "result": []
  },
  {
    "postal": "L9A9W3",
    "result": []
  },
  {
    "postal": "L9A6P1",
    "result": []
  },
  {
    "postal": "L9A7G2",
    "result": []
  },
  {
    "postal": "L9A4J9",
    "result": [
      {
        "electoralDistricts": [
          {
            "election": null,
            "id": 38,
            "name": "Hamilton Mountain"
          }
        ],
        "pollDivisionIds": [
          10138683
        ],
        "postalCode": "L9A4J9",
        "streetName": "EAST 16TH",
        "streetDirectionId": null,
        "streetTypeId": "ST",
        "placeName": "HAMILTON",
        "streetNameDisplayText": "EAST 16TH ST, HAMILTON"
      }
    ]
  },
  {
    "postal": "L9A9E4",
    "result": []
  },
  {
    "postal": "L9A8H0",
    "result": []
  },
  {
    "postal": "L9A4M7",
    "result": [
      {
        "electoralDistricts": [
          {
            "election": null,
            "id": 38,
            "name": "Hamilton Mountain"
          }
        ],
        "pollDivisionIds": [
          10138682
        ],
        "postalCode": "L9A4M7",
        "streetName": "EAST 17TH",
        "streetDirectionId": null,
        "streetTypeId": "ST",
        "placeName": "HAMILTON",
        "streetNameDisplayText": "EAST 17TH ST, HAMILTON"
      }
    ]
  },
  {
    "postal": "L9A2G9",
    "result": [
      {
        "electoralDistricts": [
          {
            "election": null,
            "id": 38,
            "name": "Hamilton Mountain"
          }
        ],
        "pollDivisionIds": [
          10138684
        ],
        "postalCode": "L9A2G9",
        "streetName": "MOHAWK",
        "streetDirectionId": "E",
        "streetTypeId": "RD",
        "placeName": "HAMILTON",
        "streetNameDisplayText": "MOHAWK RD E, HAMILTON"
      }
    ]
  },
  {
    "postal": "L9A8T2",
    "result": []
  },
  {
    "postal": "L9A7G7",
    "result": []
  },
  {
    "postal": "L9A4Z3",
    "result": [
      {
        "electoralDistricts": [
          {
            "election": null,
            "id": 38,
            "name": "Hamilton Mountain"
          }
        ],
        "pollDivisionIds": [
          10138689
        ],
        "postalCode": "L9A4Z3",
        "streetName": "SKYLARK",
        "streetDirectionId": null,
        "streetTypeId": "DR",
        "placeName": "HAMILTON",
        "streetNameDisplayText": "SKYLARK DR, HAMILTON"
      }
    ]
  },
  {
    "postal": "L9A5B3",
    "result": []
  },
  {
    "postal": "L9A1S7",
    "result": [
      {
        "electoralDistricts": [
          {
            "election": null,
            "id": 38,
            "name": "Hamilton Mountain"
          }
        ],
        "pollDivisionIds": [
          10138681
        ],
        "postalCode": "L9A1S7",
        "streetName": "FENNELL",
        "streetDirectionId": "E",
        "streetTypeId": "AVE",
        "placeName": "HAMILTON",
        "streetNameDisplayText": "FENNELL AVE E, HAMILTON"
      }
    ]
  },
  {
    "postal": "L9A2N7",
    "result": [
      {
        "electoralDistricts": [
          {
            "election": null,
            "id": 38,
            "name": "Hamilton Mountain"
          }
        ],
        "pollDivisionIds": [
          10138684
        ],
        "postalCode": "L9A2N7",
        "streetName": "HESTER",
        "streetDirectionId": null,
        "streetTypeId": "ST",
        "placeName": "HAMILTON",
        "streetNameDisplayText": "HESTER ST, HAMILTON"
      }
    ]
  },
  {
    "postal": "L9A0H8",
    "result": []
  },
  {
    "postal": "L9A7Z4",
    "result": []
  },
  {
    "postal": "L9A7B1",
    "result": []
  },
  {
    "postal": "L9A7P8",
    "result": []
  },
  {
    "postal": "L9A7N0",
    "result": []
  },
  {
    "postal": "L9A3Y5",
    "result": [
      {
        "electoralDistricts": [
          {
            "election": null,
            "id": 38,
            "name": "Hamilton Mountain"
          }
        ],
        "pollDivisionIds": [
          10138683
        ],
        "postalCode": "L9A3Y5",
        "streetName": "VICEROY",
        "streetDirectionId": null,
        "streetTypeId": "CRT",
        "placeName": "HAMILTON",
        "streetNameDisplayText": "VICEROY CRT, HAMILTON"
      }
    ]
  },
  {
    "postal": "L9A6K1",
    "result": []
  },
  {
    "postal": "L9A9X5",
    "result": []
  },
  {
    "postal": "L9A7S5",
    "result": []
  },
  {
    "postal": "L9A0A4",
    "result": [
      {
        "electoralDistricts": [
          {
            "election": null,
            "id": 38,
            "name": "Hamilton Mountain"
          }
        ],
        "pollDivisionIds": [
          10138686
        ],
        "postalCode": "L9A0A4",
        "streetName": "BENEDICT",
        "streetDirectionId": null,
        "streetTypeId": "PLACE",
        "placeName": "HAMILTON",
        "streetNameDisplayText": "BENEDICT PLACE, HAMILTON"
      }
    ]
  },
  {
    "postal": "L9A4T5",
    "result": [
      {
        "electoralDistricts": [
          {
            "election": null,
            "id": 38,
            "name": "Hamilton Mountain"
          }
        ],
        "pollDivisionIds": [
          10138682
        ],
        "postalCode": "L9A4T5",
        "streetName": "UPPER WENTWORTH",
        "streetDirectionId": null,
        "streetTypeId": "ST",
        "placeName": "HAMILTON",
        "streetNameDisplayText": "UPPER WENTWORTH ST, HAMILTON"
      }
    ]
  },
  {
    "postal": "L9A5K1",
    "result": [
      {
        "electoralDistricts": [
          {
            "election": null,
            "id": 38,
            "name": "Hamilton Mountain"
          }
        ],
        "pollDivisionIds": [
          10138686
        ],
        "postalCode": "L9A5K1",
        "streetName": "BENJAMIN",
        "streetDirectionId": null,
        "streetTypeId": "DR",
        "placeName": "HAMILTON",
        "streetNameDisplayText": "BENJAMIN DR, HAMILTON"
      },
      {
        "electoralDistricts": [
          {
            "election": null,
            "id": 38,
            "name": "Hamilton Mountain"
          }
        ],
        "pollDivisionIds": [
          10138686
        ],
        "postalCode": "L9A5K1",
        "streetName": "THEODORE",
        "streetDirectionId": null,
        "streetTypeId": "DR",
        "placeName": "HAMILTON",
        "streetNameDisplayText": "THEODORE DR, HAMILTON"
      }
    ]
  },
  {
    "postal": "L9A0Z9",
    "result": []
  },
  {
    "postal": "L9A7T2",
    "result": []
  },
  {
    "postal": "L9A1L5",
    "result": [
      {
        "electoralDistricts": [
          {
            "election": null,
            "id": 38,
            "name": "Hamilton Mountain"
          }
        ],
        "pollDivisionIds": [
          10138682
        ],
        "postalCode": "L9A1L5",
        "streetName": "QUEENSDALE",
        "streetDirectionId": "E",
        "streetTypeId": "AVE",
        "placeName": "HAMILTON",
        "streetNameDisplayText": "QUEENSDALE AVE E, HAMILTON"
      }
    ]
  },
  {
    "postal": "L9A3N5",
    "result": [
      {
        "electoralDistricts": [
          {
            "election": null,
            "id": 38,
            "name": "Hamilton Mountain"
          }
        ],
        "pollDivisionIds": [
          10138681
        ],
        "postalCode": "L9A3N5",
        "streetName": "WELBOURN",
        "streetDirectionId": null,
        "streetTypeId": "DR",
        "placeName": "HAMILTON",
        "streetNameDisplayText": "WELBOURN DR, HAMILTON"
      }
    ]
  },
  {
    "postal": "L9A6H4",
    "result": []
  },
  {
    "postal": "L9A5A5",
    "result": []
  },
  {
    "postal": "L9A3R9",
    "result": [
      {
        "electoralDistricts": [
          {
            "election": null,
            "id": 38,
            "name": "Hamilton Mountain"
          }
        ],
        "pollDivisionIds": [
          10138680
        ],
        "postalCode": "L9A3R9",
        "streetName": "UPPER WELLINGTON",
        "streetDirectionId": null,
        "streetTypeId": "ST",
        "placeName": "HAMILTON",
        "streetNameDisplayText": "UPPER WELLINGTON ST, HAMILTON"
      }
    ]
  },
  {
    "postal": "L9A7L8",
    "result": []
  },
  {
    "postal": "L9A6T6",
    "result": []
  },
  {
    "postal": "L9A7Y7",
    "result": []
  },
  {
    "postal": "L9A3M8",
    "result": [
      {
        "electoralDistricts": [
          {
            "election": null,
            "id": 38,
            "name": "Hamilton Mountain"
          }
        ],
        "pollDivisionIds": [
          10138681
        ],
        "postalCode": "L9A3M8",
        "streetName": "EAST 9TH",
        "streetDirectionId": null,
        "streetTypeId": "ST",
        "placeName": "HAMILTON",
        "streetNameDisplayText": "EAST 9TH ST, HAMILTON"
      }
    ]
  },
  {
    "postal": "L9A2E0",
    "result": []
  },
  {
    "postal": "L9A4B5",
    "result": [
      {
        "electoralDistricts": [
          {
            "election": null,
            "id": 38,
            "name": "Hamilton Mountain"
          }
        ],
        "pollDivisionIds": [
          10138682
        ],
        "postalCode": "L9A4B5",
        "streetName": "EAST 14TH",
        "streetDirectionId": null,
        "streetTypeId": "ST",
        "placeName": "HAMILTON",
        "streetNameDisplayText": "EAST 14TH ST, HAMILTON"
      }
    ]
  },
  {
    "postal": "L9A1J3",
    "result": [
      {
        "electoralDistricts": [
          {
            "election": null,
            "id": 38,
            "name": "Hamilton Mountain"
          }
        ],
        "pollDivisionIds": [
          10138682
        ],
        "postalCode": "L9A1J3",
        "streetName": "INVERNESS",
        "streetDirectionId": "E",
        "streetTypeId": "AVE",
        "placeName": "HAMILTON",
        "streetNameDisplayText": "INVERNESS AVE E, HAMILTON"
      }
    ]
  },
  {
    "postal": "L9A5S6",
    "result": []
  },
  {
    "postal": "L9A8P7",
    "result": []
  },
  {
    "postal": "L9A7S7",
    "result": []
  },
  {
    "postal": "L9A4C2",
    "result": [
      {
        "electoralDistricts": [
          {
            "election": null,
            "id": 38,
            "name": "Hamilton Mountain"
          }
        ],
        "pollDivisionIds": [
          10138683
        ],
        "postalCode": "L9A4C2",
        "streetName": "EAST 14TH",
        "streetDirectionId": null,
        "streetTypeId": "ST",
        "placeName": "HAMILTON",
        "streetNameDisplayText": "EAST 14TH ST, HAMILTON"
      }
    ]
  },
  {
    "postal": "L9A5Y0",
    "result": []
  },
  {
    "postal": "L9A2V7",
    "result": [
      {
        "electoralDistricts": [
          {
            "election": null,
            "id": 38,
            "name": "Hamilton Mountain"
          }
        ],
        "pollDivisionIds": [
          10138681
        ],
        "postalCode": "L9A2V7",
        "streetName": "BUCHANAN",
        "streetDirectionId": null,
        "streetTypeId": "ST",
        "placeName": "HAMILTON",
        "streetNameDisplayText": "BUCHANAN ST, HAMILTON"
      }
    ]
  },
  {
    "postal": "L9A8P5",
    "result": []
  },
  {
    "postal": "L9A5P5",
    "result": []
  },
  {
    "postal": "L9A5Z0",
    "result": []
  },
  {
    "postal": "L9A9B0",
    "result": []
  },
  {
    "postal": "L9A1L0",
    "result": []
  },
  {
    "postal": "L9A0B5",
    "result": [
      {
        "electoralDistricts": [
          {
            "election": null,
            "id": 38,
            "name": "Hamilton Mountain"
          }
        ],
        "pollDivisionIds": [
          10138686
        ],
        "postalCode": "L9A0B5",
        "streetName": "DESOTO",
        "streetDirectionId": null,
        "streetTypeId": "DR",
        "placeName": "HAMILTON",
        "streetNameDisplayText": "DESOTO DR, HAMILTON"
      },
      {
        "electoralDistricts": [
          {
            "election": null,
            "id": 38,
            "name": "Hamilton Mountain"
          }
        ],
        "pollDivisionIds": [
          10138686
        ],
        "postalCode": "L9A0B5",
        "streetName": "RALFANA",
        "streetDirectionId": null,
        "streetTypeId": "CRES",
        "placeName": "HAMILTON",
        "streetNameDisplayText": "RALFANA CRES, HAMILTON"
      },
      {
        "electoralDistricts": [
          {
            "election": null,
            "id": 38,
            "name": "Hamilton Mountain"
          }
        ],
        "pollDivisionIds": [
          10138686
        ],
        "postalCode": "L9A0B5",
        "streetName": "RALFANA",
        "streetDirectionId": null,
        "streetTypeId": "CRT",
        "placeName": "HAMILTON",
        "streetNameDisplayText": "RALFANA CRT, HAMILTON"
      }
    ]
  },
  {
    "postal": "L9A3L2",
    "result": [
      {
        "electoralDistricts": [
          {
            "election": null,
            "id": 38,
            "name": "Hamilton Mountain"
          }
        ],
        "pollDivisionIds": [
          10138680
        ],
        "postalCode": "L9A3L2",
        "streetName": "DODSON",
        "streetDirectionId": null,
        "streetTypeId": "ST",
        "placeName": "HAMILTON",
        "streetNameDisplayText": "DODSON ST, HAMILTON"
      }
    ]
  },
  {
    "postal": "L9A3B7",
    "result": [
      {
        "electoralDistricts": [
          {
            "election": null,
            "id": 38,
            "name": "Hamilton Mountain"
          }
        ],
        "pollDivisionIds": [
          10138681
        ],
        "postalCode": "L9A3B7",
        "streetName": "BELVIDERE",
        "streetDirectionId": null,
        "streetTypeId": "AV",
        "placeName": "HAMILTON",
        "streetNameDisplayText": "BELVIDERE AV, HAMILTON"
      },
      {
        "electoralDistricts": [
          {
            "election": null,
            "id": 38,
            "name": "Hamilton Mountain"
          }
        ],
        "pollDivisionIds": [
          10138681
        ],
        "postalCode": "L9A3B7",
        "streetName": "BELVIDERE",
        "streetDirectionId": null,
        "streetTypeId": "AVE",
        "placeName": "HAMILTON",
        "streetNameDisplayText": "BELVIDERE AVE, HAMILTON"
      }
    ]
  },
  {
    "postal": "L9A8L1",
    "result": []
  },
  {
    "postal": "L9A5M4",
    "result": []
  },
  {
    "postal": "L9A4G9",
    "result": [
      {
        "electoralDistricts": [
          {
            "election": null,
            "id": 38,
            "name": "Hamilton Mountain"
          }
        ],
        "pollDivisionIds": [
          10138683
        ],
        "postalCode": "L9A4G9",
        "streetName": "EAST 15TH",
        "streetDirectionId": null,
        "streetTypeId": "ST",
        "placeName": "HAMILTON",
        "streetNameDisplayText": "EAST 15TH ST, HAMILTON"
      }
    ]
  },
  {
    "postal": "L9A0P0",
    "result": []
  },
  {
    "postal": "L9A8G2",
    "result": []
  },
  {
    "postal": "L9A1V9",
    "result": [
      {
        "electoralDistricts": [
          {
            "election": null,
            "id": 38,
            "name": "Hamilton Mountain"
          }
        ],
        "pollDivisionIds": [
          10138683
        ],
        "postalCode": "L9A1V9",
        "streetName": "INCHLEE",
        "streetDirectionId": null,
        "streetTypeId": "DR",
        "placeName": "HAMILTON",
        "streetNameDisplayText": "INCHLEE DR, HAMILTON"
      }
    ]
  },
  {
    "postal": "L9A8N8",
    "result": []
  },
  {
    "postal": "L9A6S8",
    "result": []
  },
  {
    "postal": "L9A8H2",
    "result": []
  },
  {
    "postal": "L9A5R8",
    "result": []
  },
  {
    "postal": "L9A5L4",
    "result": []
  },
  {
    "postal": "L9A9E1",
    "result": []
  },
  {
    "postal": "L9A1C4",
    "result": [
      {
        "electoralDistricts": [
          {
            "election": null,
            "id": 38,
            "name": "Hamilton Mountain"
          }
        ],
        "pollDivisionIds": [
          10143886,
          10138682
        ],
        "postalCode": "L9A1C4",
        "streetName": "CONCESSION",
        "streetDirectionId": null,
        "streetTypeId": "ST",
        "placeName": "HAMILTON",
        "streetNameDisplayText": "CONCESSION ST, HAMILTON"
      }
    ]
  },
  {
    "postal": "L9A8W5",
    "result": []
  },
  {
    "postal": "L9A1Y4",
    "result": [
      {
        "electoralDistricts": [
          {
            "election": null,
            "id": 38,
            "name": "Hamilton Mountain"
          }
        ],
        "pollDivisionIds": [
          10138683
        ],
        "postalCode": "L9A1Y4",
        "streetName": "VICKERS",
        "streetDirectionId": null,
        "streetTypeId": "RD",
        "placeName": "HAMILTON",
        "streetNameDisplayText": "VICKERS RD, HAMILTON"
      }
    ]
  },
  {
    "postal": "L9A1C0",
    "result": []
  },
  {
    "postal": "L9A2J2",
    "result": [
      {
        "electoralDistricts": [
          {
            "election": null,
            "id": 38,
            "name": "Hamilton Mountain"
          }
        ],
        "pollDivisionIds": [
          10138683
        ],
        "postalCode": "L9A2J2",
        "streetName": "MOHAWK",
        "streetDirectionId": "E",
        "streetTypeId": "RD",
        "placeName": "HAMILTON",
        "streetNameDisplayText": "MOHAWK RD E, HAMILTON"
      }
    ]
  },
  {
    "postal": "L9A2J0",
    "result": []
  },
  {
    "postal": "L9A7A3",
    "result": []
  },
  {
    "postal": "L9A8M1",
    "result": []
  },
  {
    "postal": "L9A7T9",
    "result": []
  },
  {
    "postal": "L9A6C0",
    "result": []
  },
  {
    "postal": "L9A7X1",
    "result": []
  },
  {
    "postal": "L9A0G1",
    "result": []
  },
  {
    "postal": "L9A4X2",
    "result": [
      {
        "electoralDistricts": [
          {
            "election": null,
            "id": 38,
            "name": "Hamilton Mountain"
          }
        ],
        "pollDivisionIds": [
          10138681
        ],
        "postalCode": "L9A4X2",
        "streetName": "INVERNESS",
        "streetDirectionId": "E",
        "streetTypeId": "AVE",
        "placeName": "HAMILTON",
        "streetNameDisplayText": "INVERNESS AVE E, HAMILTON"
      }
    ]
  },
  {
    "postal": "L9A0N6",
    "result": []
  },
  {
    "postal": "L9A8E3",
    "result": []
  },
  {
    "postal": "L9A5S8",
    "result": []
  },
  {
    "postal": "L9A0R0",
    "result": []
  },
  {
    "postal": "L9A6J6",
    "result": []
  },
  {
    "postal": "L9A4B4",
    "result": [
      {
        "electoralDistricts": [
          {
            "election": null,
            "id": 38,
            "name": "Hamilton Mountain"
          }
        ],
        "pollDivisionIds": [
          10138682
        ],
        "postalCode": "L9A4B4",
        "streetName": "EAST 14TH",
        "streetDirectionId": null,
        "streetTypeId": "ST",
        "placeName": "HAMILTON",
        "streetNameDisplayText": "EAST 14TH ST, HAMILTON"
      },
      {
        "electoralDistricts": [
          {
            "election": null,
            "id": 38,
            "name": "Hamilton Mountain"
          }
        ],
        "pollDivisionIds": [
          10138682
        ],
        "postalCode": "L9A4B4",
        "streetName": "EAST 14TH",
        "streetDirectionId": null,
        "streetTypeId": "ST",
        "placeName": "HAMILTON ONT",
        "streetNameDisplayText": "EAST 14TH ST, HAMILTON ONT"
      }
    ]
  },
  {
    "postal": "L9A7E3",
    "result": []
  },
  {
    "postal": "L9A3N6",
    "result": [
      {
        "electoralDistricts": [
          {
            "election": null,
            "id": 38,
            "name": "Hamilton Mountain"
          }
        ],
        "pollDivisionIds": [
          10138680
        ],
        "postalCode": "L9A3N6",
        "streetName": "WELBOURN",
        "streetDirectionId": null,
        "streetTypeId": "DR",
        "placeName": "HAMILTON",
        "streetNameDisplayText": "WELBOURN DR, HAMILTON"
      }
    ]
  },
  {
    "postal": "L9A3X6",
    "result": [
      {
        "electoralDistricts": [
          {
            "election": null,
            "id": 38,
            "name": "Hamilton Mountain"
          }
        ],
        "pollDivisionIds": [
          10138682
        ],
        "postalCode": "L9A3X6",
        "streetName": "EAST 12TH",
        "streetDirectionId": null,
        "streetTypeId": "ST",
        "placeName": "HAMILTON",
        "streetNameDisplayText": "EAST 12TH ST, HAMILTON"
      }
    ]
  },
  {
    "postal": "L9A8L0",
    "result": []
  },
  {
    "postal": "L9A8N1",
    "result": []
  },
  {
    "postal": "L9A4J0",
    "result": []
  },
  {
    "postal": "L9A0X7",
    "result": []
  },
  {
    "postal": "L9A6S4",
    "result": []
  },
  {
    "postal": "L9A0Z0",
    "result": []
  },
  {
    "postal": "L9A9X8",
    "result": []
  },
  {
    "postal": "L9A3H3",
    "result": [
      {
        "electoralDistricts": [
          {
            "election": null,
            "id": 38,
            "name": "Hamilton Mountain"
          }
        ],
        "pollDivisionIds": [
          10138681
        ],
        "postalCode": "L9A3H3",
        "streetName": "HOOVER",
        "streetDirectionId": null,
        "streetTypeId": "CRES",
        "placeName": "HAMILTON",
        "streetNameDisplayText": "HOOVER CRES, HAMILTON"
      }
    ]
  },
  {
    "postal": "L9A7S2",
    "result": []
  },
  {
    "postal": "L9A3T3",
    "result": [
      {
        "electoralDistricts": [
          {
            "election": null,
            "id": 38,
            "name": "Hamilton Mountain"
          }
        ],
        "pollDivisionIds": [
          10138682
        ],
        "postalCode": "L9A3T3",
        "streetName": "EAST 11TH",
        "streetDirectionId": null,
        "streetTypeId": "ST",
        "placeName": "HAMILTON",
        "streetNameDisplayText": "EAST 11TH ST, HAMILTON"
      }
    ]
  },
  {
    "postal": "L9A9P3",
    "result": []
  },
  {
    "postal": "L9A4H8",
    "result": [
      {
        "electoralDistricts": [
          {
            "election": null,
            "id": 38,
            "name": "Hamilton Mountain"
          }
        ],
        "pollDivisionIds": [
          10138689
        ],
        "postalCode": "L9A4H8",
        "streetName": "CARDINAL",
        "streetDirectionId": null,
        "streetTypeId": "DR",
        "placeName": "HAMILTON",
        "streetNameDisplayText": "CARDINAL DR, HAMILTON"
      }
    ]
  },
  {
    "postal": "L9A6R1",
    "result": []
  },
  {
    "postal": "L9A1S0",
    "result": []
  },
  {
    "postal": "L9A3W8",
    "result": [
      {
        "electoralDistricts": [
          {
            "election": null,
            "id": 38,
            "name": "Hamilton Mountain"
          }
        ],
        "pollDivisionIds": [
          10138689
        ],
        "postalCode": "L9A3W8",
        "streetName": "GOLDFINCH",
        "streetDirectionId": null,
        "streetTypeId": "RD",
        "placeName": "HAMILTON",
        "streetNameDisplayText": "GOLDFINCH RD, HAMILTON"
      }
    ]
  },
  {
    "postal": "L9A4S3",
    "result": [
      {
        "electoralDistricts": [
          {
            "election": null,
            "id": 38,
            "name": "Hamilton Mountain"
          }
        ],
        "pollDivisionIds": [
          10138682
        ],
        "postalCode": "L9A4S3",
        "streetName": "EAST 19TH",
        "streetDirectionId": null,
        "streetTypeId": "ST",
        "placeName": "HAMILTON",
        "streetNameDisplayText": "EAST 19TH ST, HAMILTON"
      }
    ]
  },
  {
    "postal": "L9A1B6",
    "result": [
      {
        "electoralDistricts": [
          {
            "election": null,
            "id": 38,
            "name": "Hamilton Mountain"
          }
        ],
        "pollDivisionIds": [
          10138682
        ],
        "postalCode": "L9A1B6",
        "streetName": "CONCESSION",
        "streetDirectionId": null,
        "streetTypeId": "ST",
        "placeName": "HAMILTON",
        "streetNameDisplayText": "CONCESSION ST, HAMILTON"
      }
    ]
  },
  {
    "postal": "L9A8R3",
    "result": []
  },
  {
    "postal": "L9A4V9",
    "result": [
      {
        "electoralDistricts": [
          {
            "election": null,
            "id": 38,
            "name": "Hamilton Mountain"
          }
        ],
        "pollDivisionIds": [
          10138689
        ],
        "postalCode": "L9A4V9",
        "streetName": "UPPER WENTWORTH",
        "streetDirectionId": null,
        "streetTypeId": "ST",
        "placeName": "HAMILTON",
        "streetNameDisplayText": "UPPER WENTWORTH ST, HAMILTON"
      }
    ]
  },
  {
    "postal": "L9A9W4",
    "result": []
  },
  {
    "postal": "L9A3T4",
    "result": [
      {
        "electoralDistricts": [
          {
            "election": null,
            "id": 38,
            "name": "Hamilton Mountain"
          }
        ],
        "pollDivisionIds": [
          10138682
        ],
        "postalCode": "L9A3T4",
        "streetName": "EAST 11TH",
        "streetDirectionId": null,
        "streetTypeId": "ST",
        "placeName": "HAMILTON",
        "streetNameDisplayText": "EAST 11TH ST, HAMILTON"
      }
    ]
  },
  {
    "postal": "L9A5C7",
    "result": [
      {
        "electoralDistricts": [
          {
            "election": null,
            "id": 38,
            "name": "Hamilton Mountain"
          }
        ],
        "pollDivisionIds": [
          10138684
        ],
        "postalCode": "L9A5C7",
        "streetName": "UPPER WELLINGTON",
        "streetDirectionId": null,
        "streetTypeId": "ST",
        "placeName": "HAMILTON",
        "streetNameDisplayText": "UPPER WELLINGTON ST, HAMILTON"
      }
    ]
  },
  {
    "postal": "L9A3Y1",
    "result": [
      {
        "electoralDistricts": [
          {
            "election": null,
            "id": 38,
            "name": "Hamilton Mountain"
          }
        ],
        "pollDivisionIds": [
          10138683
        ],
        "postalCode": "L9A3Y1",
        "streetName": "EAST 12TH",
        "streetDirectionId": null,
        "streetTypeId": "ST",
        "placeName": "HAMILTON",
        "streetNameDisplayText": "EAST 12TH ST, HAMILTON"
      }
    ]
  },
  {
    "postal": "L9A5V0",
    "result": []
  },
  {
    "postal": "L9A8G8",
    "result": []
  },
  {
    "postal": "L9A8B1",
    "result": []
  },
  {
    "postal": "L9A4P5",
    "result": [
      {
        "electoralDistricts": [
          {
            "election": null,
            "id": 38,
            "name": "Hamilton Mountain"
          }
        ],
        "pollDivisionIds": [
          10138682
        ],
        "postalCode": "L9A4P5",
        "streetName": "EAST 18TH",
        "streetDirectionId": null,
        "streetTypeId": "ST",
        "placeName": "HAMILTON",
        "streetNameDisplayText": "EAST 18TH ST, HAMILTON"
      }
    ]
  },
  {
    "postal": "L9A7B2",
    "result": []
  },
  {
    "postal": "L9A0R2",
    "result": []
  },
  {
    "postal": "L9A4M4",
    "result": [
      {
        "electoralDistricts": [
          {
            "election": null,
            "id": 38,
            "name": "Hamilton Mountain"
          }
        ],
        "pollDivisionIds": [
          10138682
        ],
        "postalCode": "L9A4M4",
        "streetName": "EAST 17TH",
        "streetDirectionId": null,
        "streetTypeId": "ST",
        "placeName": "HAMILTON",
        "streetNameDisplayText": "EAST 17TH ST, HAMILTON"
      }
    ]
  },
  {
    "postal": "L9A7M4",
    "result": []
  },
  {
    "postal": "L9A9S7",
    "result": []
  },
  {
    "postal": "L9A5Z7",
    "result": []
  },
  {
    "postal": "L9A7J7",
    "result": []
  },
  {
    "postal": "L9A8R8",
    "result": []
  },
  {
    "postal": "L9A9X1",
    "result": []
  },
  {
    "postal": "L9A5M9",
    "result": []
  },
  {
    "postal": "L9A9B4",
    "result": []
  },
  {
    "postal": "L9A0L9",
    "result": []
  },
  {
    "postal": "L9A9G4",
    "result": []
  },
  {
    "postal": "L9A1J4",
    "result": [
      {
        "electoralDistricts": [
          {
            "election": null,
            "id": 38,
            "name": "Hamilton Mountain"
          }
        ],
        "pollDivisionIds": [
          10138682
        ],
        "postalCode": "L9A1J4",
        "streetName": "INVERNESS",
        "streetDirectionId": "E",
        "streetTypeId": "AVE",
        "placeName": "HAMILTON",
        "streetNameDisplayText": "INVERNESS AVE E, HAMILTON"
      }
    ]
  },
  {
    "postal": "L9A0W6",
    "result": []
  }
]
