[
  {
    "postal": "P0E1E0",
    "result": [
      {
        "electoralDistricts": [
          {
            "election": null,
            "id": 84,
            "name": "Parry Sound—Muskoka"
          }
        ],
        "pollDivisionIds": [
          10143224
        ],
        "postalCode": "P0E1E0",
        "streetName": "2160 ISLAND",
        "streetDirectionId": null,
        "streetTypeId": "RD",
        "placeName": "HONEY HARBOUR",
        "streetNameDisplayText": "2160 ISLAND RD, HONEY HARBOUR"
      },
      {
        "electoralDistricts": [
          {
            "election": null,
            "id": 84,
            "name": "Parry Sound—Muskoka"
          }
        ],
        "pollDivisionIds": [
          10143224
        ],
        "postalCode": "P0E1E0",
        "streetName": "980",
        "streetDirectionId": null,
        "streetTypeId": "ISLAND",
        "placeName": "HONEY HARBOUR",
        "streetNameDisplayText": "980 ISLAND, HONEY HARBOUR"
      },
      {
        "electoralDistricts": [
          {
            "election": null,
            "id": 84,
            "name": "Parry Sound—Muskoka"
          }
        ],
        "pollDivisionIds": [
          10143224
        ],
        "postalCode": "P0E1E0",
        "streetName": "BAXTER LOOP",
        "streetDirectionId": "W",
        "streetTypeId": "RD",
        "placeName": "HONEY HARBOUR",
        "streetNameDisplayText": "BAXTER LOOP RD W, HONEY HARBOUR"
      },
      {
        "electoralDistricts": [
          {
            "election": null,
            "id": 84,
            "name": "Parry Sound—Muskoka"
          }
        ],
        "pollDivisionIds": [
          10143224
        ],
        "postalCode": "P0E1E0",
        "streetName": "BAXTER LOOP",
        "streetDirectionId": null,
        "streetTypeId": "RD",
        "placeName": "HONEY HARBOUR",
        "streetNameDisplayText": "BAXTER LOOP RD, HONEY HARBOUR"
      },
      {
        "electoralDistricts": [
          {
            "election": null,
            "id": 84,
            "name": "Parry Sound—Muskoka"
          }
        ],
        "pollDivisionIds": [
          10143224
        ],
        "postalCode": "P0E1E0",
        "streetName": "BEAUSOLEIL ISLAND",
        "streetDirectionId": null,
        "streetTypeId": "ISLAND",
        "placeName": "HONEY HARBOUR",
        "streetNameDisplayText": "BEAUSOLEIL ISLAND ISLAND, HONEY HARBOUR"
      },
      {
        "electoralDistricts": [
          {
            "election": null,
            "id": 84,
            "name": "Parry Sound—Muskoka"
          }
        ],
        "pollDivisionIds": [
          10143224
        ],
        "postalCode": "P0E1E0",
        "streetName": "BLUE WATER",
        "streetDirectionId": null,
        "streetTypeId": "RD",
        "placeName": "HONEY HARBOUR",
        "streetNameDisplayText": "BLUE WATER RD, HONEY HARBOUR"
      },
      {
        "electoralDistricts": [
          {
            "election": null,
            "id": 84,
            "name": "Parry Sound—Muskoka"
          }
        ],
        "pollDivisionIds": [
          10143224
        ],
        "postalCode": "P0E1E0",
        "streetName": "BOX 328",
        "streetDirectionId": null,
        "streetTypeId": null,
        "placeName": "HONEY HARBOUR",
        "streetNameDisplayText": "BOX 328, HONEY HARBOUR"
      },
      {
        "electoralDistricts": [
          {
            "election": null,
            "id": 84,
            "name": "Parry Sound—Muskoka"
          }
        ],
        "pollDivisionIds": [
          10143224
        ],
        "postalCode": "P0E1E0",
        "streetName": "BRANDYS ISLAND",
        "streetDirectionId": null,
        "streetTypeId": "RD",
        "placeName": "HONEY HARBOUR",
        "streetNameDisplayText": "BRANDYS ISLAND RD, HONEY HARBOUR"
      },
      {
        "electoralDistricts": [
          {
            "election": null,
            "id": 84,
            "name": "Parry Sound—Muskoka"
          }
        ],
        "pollDivisionIds": [
          10143224
        ],
        "postalCode": "P0E1E0",
        "streetName": "BRANDY'S ISLAND",
        "streetDirectionId": null,
        "streetTypeId": "RD",
        "placeName": "HONEY HARBOUR",
        "streetNameDisplayText": "BRANDY'S ISLAND RD, HONEY HARBOUR"
      },
      {
        "electoralDistricts": [
          {
            "election": null,
            "id": 84,
            "name": "Parry Sound—Muskoka"
          }
        ],
        "pollDivisionIds": [
          10143224
        ],
        "postalCode": "P0E1E0",
        "streetName": "CORBIERE",
        "streetDirectionId": null,
        "streetTypeId": "LANE",
        "placeName": "HONEY HARBOUR",
        "streetNameDisplayText": "CORBIERE LANE, HONEY HARBOUR"
      },
      {
        "electoralDistricts": [
          {
            "election": null,
            "id": 84,
            "name": "Parry Sound—Muskoka"
          }
        ],
        "pollDivisionIds": [
          10143224
        ],
        "postalCode": "P0E1E0",
        "streetName": "DEER 980",
        "streetDirectionId": null,
        "streetTypeId": "ISLAND",
        "placeName": "HONEY HARBOUR",
        "streetNameDisplayText": "DEER 980 ISLAND, HONEY HARBOUR"
      },
      {
        "electoralDistricts": [
          {
            "election": null,
            "id": 84,
            "name": "Parry Sound—Muskoka"
          }
        ],
        "pollDivisionIds": [
          10143224
        ],
        "postalCode": "P0E1E0",
        "streetName": "ELLERY",
        "streetDirectionId": null,
        "streetTypeId": "RD",
        "placeName": "HONEY HARBOUR",
        "streetNameDisplayText": "ELLERY RD, HONEY HARBOUR"
      },
      {
        "electoralDistricts": [
          {
            "election": null,
            "id": 84,
            "name": "Parry Sound—Muskoka"
          }
        ],
        "pollDivisionIds": [
          10143224
        ],
        "postalCode": "P0E1E0",
        "streetName": "FRANKS",
        "streetDirectionId": null,
        "streetTypeId": "LANE",
        "placeName": "HONEY HARBOUR",
        "streetNameDisplayText": "FRANKS LANE, HONEY HARBOUR"
      },
      {
        "electoralDistricts": [
          {
            "election": null,
            "id": 84,
            "name": "Parry Sound—Muskoka"
          }
        ],
        "pollDivisionIds": [
          10143224
        ],
        "postalCode": "P0E1E0",
        "streetName": "GEORGIAN BAY",
        "streetDirectionId": null,
        "streetTypeId": "BAY",
        "placeName": "PORT SEVERN",
        "streetNameDisplayText": "GEORGIAN BAY BAY, PORT SEVERN"
      },
      {
        "electoralDistricts": [
          {
            "election": null,
            "id": 84,
            "name": "Parry Sound—Muskoka"
          }
        ],
        "pollDivisionIds": [
          10143224
        ],
        "postalCode": "P0E1E0",
        "streetName": "GEORGIAN BAY",
        "streetDirectionId": null,
        "streetTypeId": "RD",
        "placeName": "HONEY HARBOUR",
        "streetNameDisplayText": "GEORGIAN BAY RD, HONEY HARBOUR"
      },
      {
        "electoralDistricts": [
          {
            "election": null,
            "id": 84,
            "name": "Parry Sound—Muskoka"
          }
        ],
        "pollDivisionIds": [
          10140975,
          10143224
        ],
        "postalCode": "P0E1E0",
        "streetName": "GEORGIAN BAY SHORE",
        "streetDirectionId": null,
        "streetTypeId": "BAY",
        "placeName": "HONEY HARBOUR",
        "streetNameDisplayText": "GEORGIAN BAY SHORE BAY, HONEY HARBOUR"
      },
      {
        "electoralDistricts": [
          {
            "election": null,
            "id": 84,
            "name": "Parry Sound—Muskoka"
          }
        ],
        "pollDivisionIds": [
          10140975
        ],
        "postalCode": "P0E1E0",
        "streetName": "GEORGIAN BAY SHORE",
        "streetDirectionId": null,
        "streetTypeId": "BAY",
        "placeName": "MACTIER",
        "streetNameDisplayText": "GEORGIAN BAY SHORE BAY, MACTIER"
      },
      {
        "electoralDistricts": [
          {
            "election": null,
            "id": 84,
            "name": "Parry Sound—Muskoka"
          }
        ],
        "pollDivisionIds": [
          10143224
        ],
        "postalCode": "P0E1E0",
        "streetName": "GEORGIAN BAY SHORE",
        "streetDirectionId": null,
        "streetTypeId": "BAY",
        "placeName": "PORT SEVERN",
        "streetNameDisplayText": "GEORGIAN BAY SHORE BAY, PORT SEVERN"
      },
      {
        "electoralDistricts": [
          {
            "election": null,
            "id": 35,
            "name": "Haliburton—Kawartha Lakes—Brock"
          }
        ],
        "pollDivisionIds": [
          10138507
        ],
        "postalCode": "P0E1E0",
        "streetName": "GETAWAY",
        "streetDirectionId": null,
        "streetTypeId": "LANE",
        "placeName": "DORSET",
        "streetNameDisplayText": "GETAWAY LANE, DORSET"
      },
      {
        "electoralDistricts": [
          {
            "election": null,
            "id": 84,
            "name": "Parry Sound—Muskoka"
          }
        ],
        "pollDivisionIds": [
          10143224
        ],
        "postalCode": "P0E1E0",
        "streetName": "GIDLEY TURNPIKE",
        "streetDirectionId": null,
        "streetTypeId": null,
        "placeName": "HONEY HARBOUR",
        "streetNameDisplayText": "GIDLEY TURNPIKE, HONEY HARBOUR"
      },
      {
        "electoralDistricts": [
          {
            "election": null,
            "id": 84,
            "name": "Parry Sound—Muskoka"
          }
        ],
        "pollDivisionIds": [
          10143224
        ],
        "postalCode": "P0E1E0",
        "streetName": "GRISE",
        "streetDirectionId": null,
        "streetTypeId": "RD",
        "placeName": "HONEY HARBOUR",
        "streetNameDisplayText": "GRISE RD, HONEY HARBOUR"
      },
      {
        "electoralDistricts": [
          {
            "election": null,
            "id": 84,
            "name": "Parry Sound—Muskoka"
          }
        ],
        "pollDivisionIds": [
          10143224
        ],
        "postalCode": "P0E1E0",
        "streetName": "GUNBY",
        "streetDirectionId": null,
        "streetTypeId": "LANE",
        "placeName": "HONEY HARBOUR",
        "streetNameDisplayText": "GUNBY LANE, HONEY HARBOUR"
      },
      {
        "electoralDistricts": [
          {
            "election": null,
            "id": 84,
            "name": "Parry Sound—Muskoka"
          }
        ],
        "pollDivisionIds": [
          10143224
        ],
        "postalCode": "P0E1E0",
        "streetName": "HARMONY",
        "streetDirectionId": null,
        "streetTypeId": "RD",
        "placeName": "PORT SEVERN",
        "streetNameDisplayText": "HARMONY RD, PORT SEVERN"
      },
      {
        "electoralDistricts": [
          {
            "election": null,
            "id": 84,
            "name": "Parry Sound—Muskoka"
          }
        ],
        "pollDivisionIds": [
          10143224
        ],
        "postalCode": "P0E1E0",
        "streetName": "HONEY HARBOUR",
        "streetDirectionId": null,
        "streetTypeId": "RD",
        "placeName": "HONEY HARBOUR",
        "streetNameDisplayText": "HONEY HARBOUR RD, HONEY HARBOUR"
      },
      {
        "electoralDistricts": [
          {
            "election": null,
            "id": 84,
            "name": "Parry Sound—Muskoka"
          }
        ],
        "pollDivisionIds": [
          10143224
        ],
        "postalCode": "P0E1E0",
        "streetName": "IS 1040 GEORGIAN BAY",
        "streetDirectionId": null,
        "streetTypeId": "BAY",
        "placeName": "HONEY HARBOUR",
        "streetNameDisplayText": "IS 1040 GEORGIAN BAY BAY, HONEY HARBOUR"
      },
      {
        "electoralDistricts": [
          {
            "election": null,
            "id": 84,
            "name": "Parry Sound—Muskoka"
          }
        ],
        "pollDivisionIds": [
          10143224
        ],
        "postalCode": "P0E1E0",
        "streetName": "IS 1040 GEORGIAN",
        "streetDirectionId": null,
        "streetTypeId": null,
        "placeName": "HONEY HARBOUR",
        "streetNameDisplayText": "IS 1040 GEORGIAN, HONEY HARBOUR"
      },
      {
        "electoralDistricts": [
          {
            "election": null,
            "id": 84,
            "name": "Parry Sound—Muskoka"
          }
        ],
        "pollDivisionIds": [
          10143224
        ],
        "postalCode": "P0E1E0",
        "streetName": "IS 1050 GEORGIAN BAY",
        "streetDirectionId": null,
        "streetTypeId": "BAY",
        "placeName": "HONEY HARBOUR",
        "streetNameDisplayText": "IS 1050 GEORGIAN BAY BAY, HONEY HARBOUR"
      },
      {
        "electoralDistricts": [
          {
            "election": null,
            "id": 84,
            "name": "Parry Sound—Muskoka"
          }
        ],
        "pollDivisionIds": [
          10143224
        ],
        "postalCode": "P0E1E0",
        "streetName": "IS 2160 GEORGIAN",
        "streetDirectionId": null,
        "streetTypeId": "BAY",
        "placeName": "HONEY HARBOUR",
        "streetNameDisplayText": "IS 2160 GEORGIAN BAY, HONEY HARBOUR"
      },
      {
        "electoralDistricts": [
          {
            "election": null,
            "id": 84,
            "name": "Parry Sound—Muskoka"
          }
        ],
        "pollDivisionIds": [
          10143224
        ],
        "postalCode": "P0E1E0",
        "streetName": "IS 2190",
        "streetDirectionId": null,
        "streetTypeId": null,
        "placeName": "HONEY HARBOUR",
        "streetNameDisplayText": "IS 2190, HONEY HARBOUR"
      },
      {
        "electoralDistricts": [
          {
            "election": null,
            "id": 84,
            "name": "Parry Sound—Muskoka"
          }
        ],
        "pollDivisionIds": [
          10143224
        ],
        "postalCode": "P0E1E0",
        "streetName": "IS 380 GEORGIAN",
        "streetDirectionId": null,
        "streetTypeId": "BAY",
        "placeName": "PORT SEVERN",
        "streetNameDisplayText": "IS 380 GEORGIAN BAY, PORT SEVERN"
      },
      {
        "electoralDistricts": [
          {
            "election": null,
            "id": 84,
            "name": "Parry Sound—Muskoka"
          }
        ],
        "pollDivisionIds": [
          10143224
        ],
        "postalCode": "P0E1E0",
        "streetName": "IS 390 GEORGIAN",
        "streetDirectionId": null,
        "streetTypeId": "BAY",
        "placeName": "PORT SEVERN",
        "streetNameDisplayText": "IS 390 GEORGIAN BAY, PORT SEVERN"
      },
      {
        "electoralDistricts": [
          {
            "election": null,
            "id": 84,
            "name": "Parry Sound—Muskoka"
          }
        ],
        "pollDivisionIds": [
          10143224
        ],
        "postalCode": "P0E1E0",
        "streetName": "IS 570 2-B",
        "streetDirectionId": null,
        "streetTypeId": null,
        "placeName": "GEORGIAN BAY",
        "streetNameDisplayText": "IS 570 2-B, GEORGIAN BAY"
      },
      {
        "electoralDistricts": [
          {
            "election": null,
            "id": 84,
            "name": "Parry Sound—Muskoka"
          }
        ],
        "pollDivisionIds": [
          10143224
        ],
        "postalCode": "P0E1E0",
        "streetName": "IS 630 GEORGIAN BAY",
        "streetDirectionId": null,
        "streetTypeId": "BAY",
        "placeName": "HONEY HARBOUR",
        "streetNameDisplayText": "IS 630 GEORGIAN BAY BAY, HONEY HARBOUR"
      },
      {
        "electoralDistricts": [
          {
            "election": null,
            "id": 84,
            "name": "Parry Sound—Muskoka"
          }
        ],
        "pollDivisionIds": [
          10143224
        ],
        "postalCode": "P0E1E0",
        "streetName": "IS 630 GEORGIAN",
        "streetDirectionId": null,
        "streetTypeId": null,
        "placeName": "GEORGIAN BAY",
        "streetNameDisplayText": "IS 630 GEORGIAN, GEORGIAN BAY"
      },
      {
        "electoralDistricts": [
          {
            "election": null,
            "id": 84,
            "name": "Parry Sound—Muskoka"
          }
        ],
        "pollDivisionIds": [
          10143224
        ],
        "postalCode": "P0E1E0",
        "streetName": "ISLAND 1810",
        "streetDirectionId": null,
        "streetTypeId": "ISLAND",
        "placeName": "HONEY HARBOUR",
        "streetNameDisplayText": "ISLAND 1810 ISLAND, HONEY HARBOUR"
      },
      {
        "electoralDistricts": [
          {
            "election": null,
            "id": 84,
            "name": "Parry Sound—Muskoka"
          }
        ],
        "pollDivisionIds": [
          10143224
        ],
        "postalCode": "P0E1E0",
        "streetName": "ISLAND 570",
        "streetDirectionId": null,
        "streetTypeId": "ISLAND",
        "placeName": "HONEY HARBOUR",
        "streetNameDisplayText": "ISLAND 570 ISLAND, HONEY HARBOUR"
      },
      {
        "electoralDistricts": [
          {
            "election": null,
            "id": 84,
            "name": "Parry Sound—Muskoka"
          }
        ],
        "pollDivisionIds": [
          10143224
        ],
        "postalCode": "P0E1E0",
        "streetName": "KINGS FARM",
        "streetDirectionId": null,
        "streetTypeId": "RD",
        "placeName": "HONEY HARBOUR",
        "streetNameDisplayText": "KINGS FARM RD, HONEY HARBOUR"
      },
      {
        "electoralDistricts": [
          {
            "election": null,
            "id": 84,
            "name": "Parry Sound—Muskoka"
          }
        ],
        "pollDivisionIds": [
          10143224
        ],
        "postalCode": "P0E1E0",
        "streetName": "KINGSWOOD",
        "streetDirectionId": null,
        "streetTypeId": "RD",
        "placeName": "HONEY HARBOUR",
        "streetNameDisplayText": "KINGSWOOD RD, HONEY HARBOUR"
      },
      {
        "electoralDistricts": [
          {
            "election": null,
            "id": 84,
            "name": "Parry Sound—Muskoka"
          }
        ],
        "pollDivisionIds": [
          10143224
        ],
        "postalCode": "P0E1E0",
        "streetName": "LAMOUREUX",
        "streetDirectionId": null,
        "streetTypeId": "LANE",
        "placeName": "HONEY HARBOUR",
        "streetNameDisplayText": "LAMOUREUX LANE, HONEY HARBOUR"
      },
      {
        "electoralDistricts": [
          {
            "election": null,
            "id": 84,
            "name": "Parry Sound—Muskoka"
          }
        ],
        "pollDivisionIds": [
          10143224
        ],
        "postalCode": "P0E1E0",
        "streetName": "LAVALLEY",
        "streetDirectionId": null,
        "streetTypeId": "WAY",
        "placeName": "HONEY HARBOUR",
        "streetNameDisplayText": "LAVALLEY WAY, HONEY HARBOUR"
      },
      {
        "electoralDistricts": [
          {
            "election": null,
            "id": 84,
            "name": "Parry Sound—Muskoka"
          }
        ],
        "pollDivisionIds": [
          10143224
        ],
        "postalCode": "P0E1E0",
        "streetName": "LILY POND",
        "streetDirectionId": null,
        "streetTypeId": "RD",
        "placeName": "HONEY HARBOUR",
        "streetNameDisplayText": "LILY POND RD, HONEY HARBOUR"
      },
      {
        "electoralDistricts": [
          {
            "election": null,
            "id": 84,
            "name": "Parry Sound—Muskoka"
          }
        ],
        "pollDivisionIds": [
          10143224
        ],
        "postalCode": "P0E1E0",
        "streetName": "LINTON",
        "streetDirectionId": null,
        "streetTypeId": "RD",
        "placeName": "HONEY HARBOUR",
        "streetNameDisplayText": "LINTON RD, HONEY HARBOUR"
      },
      {
        "electoralDistricts": [
          {
            "election": null,
            "id": 84,
            "name": "Parry Sound—Muskoka"
          }
        ],
        "pollDivisionIds": [
          10143224
        ],
        "postalCode": "P0E1E0",
        "streetName": "METIS",
        "streetDirectionId": null,
        "streetTypeId": "RD",
        "placeName": "HONEY HARBOUR",
        "streetNameDisplayText": "METIS RD, HONEY HARBOUR"
      },
      {
        "electoralDistricts": [
          {
            "election": null,
            "id": 84,
            "name": "Parry Sound—Muskoka"
          }
        ],
        "pollDivisionIds": [
          10143224
        ],
        "postalCode": "P0E1E0",
        "streetName": "NORTH SOUTH",
        "streetDirectionId": null,
        "streetTypeId": "RD",
        "placeName": "HONEY HARBOUR",
        "streetNameDisplayText": "NORTH SOUTH RD, HONEY HARBOUR"
      },
      {
        "electoralDistricts": [
          {
            "election": null,
            "id": 84,
            "name": "Parry Sound—Muskoka"
          }
        ],
        "pollDivisionIds": [
          10143224
        ],
        "postalCode": "P0E1E0",
        "streetName": "PICNIC ISLAND",
        "streetDirectionId": null,
        "streetTypeId": "RD",
        "placeName": "HONEY HARBOUR",
        "streetNameDisplayText": "PICNIC ISLAND RD, HONEY HARBOUR"
      },
      {
        "electoralDistricts": [
          {
            "election": null,
            "id": 84,
            "name": "Parry Sound—Muskoka"
          }
        ],
        "pollDivisionIds": [
          10143224
        ],
        "postalCode": "P0E1E0",
        "streetName": "PRISQUE",
        "streetDirectionId": null,
        "streetTypeId": "RD",
        "placeName": "HONEY HARBOUR",
        "streetNameDisplayText": "PRISQUE RD, HONEY HARBOUR"
      },
      {
        "electoralDistricts": [
          {
            "election": null,
            "id": 84,
            "name": "Parry Sound—Muskoka"
          }
        ],
        "pollDivisionIds": [
          10143224
        ],
        "postalCode": "P0E1E0",
        "streetName": "REDWING",
        "streetDirectionId": null,
        "streetTypeId": "LANE",
        "placeName": "HONEY HARBOUR",
        "streetNameDisplayText": "REDWING LANE, HONEY HARBOUR"
      },
      {
        "electoralDistricts": [
          {
            "election": null,
            "id": 35,
            "name": "Haliburton—Kawartha Lakes—Brock"
          }
        ],
        "pollDivisionIds": [
          10138507
        ],
        "postalCode": "P0E1E0",
        "streetName": "RIMROCK",
        "streetDirectionId": null,
        "streetTypeId": "DR",
        "placeName": "DORSET",
        "streetNameDisplayText": "RIMROCK DR, DORSET"
      },
      {
        "electoralDistricts": [
          {
            "election": null,
            "id": 84,
            "name": "Parry Sound—Muskoka"
          }
        ],
        "pollDivisionIds": [
          10143224
        ],
        "postalCode": "P0E1E0",
        "streetName": "ROBERT'S IS",
        "streetDirectionId": null,
        "streetTypeId": null,
        "placeName": "HONEY HARBOUR",
        "streetNameDisplayText": "ROBERT'S IS, HONEY HARBOUR"
      },
      {
        "electoralDistricts": [
          {
            "election": null,
            "id": 84,
            "name": "Parry Sound—Muskoka"
          }
        ],
        "pollDivisionIds": [
          10143224
        ],
        "postalCode": "P0E1E0",
        "streetName": "SOUTH BAY",
        "streetDirectionId": null,
        "streetTypeId": "RD",
        "placeName": "BALA",
        "streetNameDisplayText": "SOUTH BAY RD, BALA"
      },
      {
        "electoralDistricts": [
          {
            "election": null,
            "id": 84,
            "name": "Parry Sound—Muskoka"
          }
        ],
        "pollDivisionIds": [
          10143224
        ],
        "postalCode": "P0E1E0",
        "streetName": "SOUTH BAY",
        "streetDirectionId": null,
        "streetTypeId": "RD",
        "placeName": "HONEY HARBOUR",
        "streetNameDisplayText": "SOUTH BAY RD, HONEY HARBOUR"
      },
      {
        "electoralDistricts": [
          {
            "election": null,
            "id": 84,
            "name": "Parry Sound—Muskoka"
          }
        ],
        "pollDivisionIds": [
          10143224
        ],
        "postalCode": "P0E1E0",
        "streetName": "SOUTH BAY",
        "streetDirectionId": null,
        "streetTypeId": "RD",
        "placeName": "PORT SEVERN",
        "streetNameDisplayText": "SOUTH BAY RD, PORT SEVERN"
      },
      {
        "electoralDistricts": [
          {
            "election": null,
            "id": 84,
            "name": "Parry Sound—Muskoka"
          }
        ],
        "pollDivisionIds": [
          10143224
        ],
        "postalCode": "P0E1E0",
        "streetName": "WOLVERINE BEACH",
        "streetDirectionId": null,
        "streetTypeId": "RD",
        "placeName": "HONEY HARBOUR",
        "streetNameDisplayText": "WOLVERINE BEACH RD, HONEY HARBOUR"
      },
      {
        "electoralDistricts": [
          {
            "election": null,
            "id": 84,
            "name": "Parry Sound—Muskoka"
          }
        ],
        "pollDivisionIds": [
          10143224
        ],
        "postalCode": "P0E1E0",
        "streetName": "WOLVERINE",
        "streetDirectionId": null,
        "streetTypeId": "BEACH",
        "placeName": "HONEY HARBOUR",
        "streetNameDisplayText": "WOLVERINE BEACH, HONEY HARBOUR"
      }
    ]
  },
  {
    "postal": "P0E1G0",
    "result": [
      {
        "electoralDistricts": [
          {
            "election": null,
            "id": 84,
            "name": "Parry Sound—Muskoka"
          }
        ],
        "pollDivisionIds": [
          10143220
        ],
        "postalCode": "P0E1G0",
        "streetName": "1041-2 1700 ROAD",
        "streetDirectionId": null,
        "streetTypeId": "RD",
        "placeName": "KILWORTHY",
        "streetNameDisplayText": "1041-2 1700 ROAD RD, KILWORTHY"
      },
      {
        "electoralDistricts": [
          {
            "election": null,
            "id": 84,
            "name": "Parry Sound—Muskoka"
          }
        ],
        "pollDivisionIds": [
          10143220
        ],
        "postalCode": "P0E1G0",
        "streetName": "1041-2 ROAD 1700 KAHSHE",
        "streetDirectionId": null,
        "streetTypeId": "RD",
        "placeName": "KILWORTHY",
        "streetNameDisplayText": "1041-2 ROAD 1700 KAHSHE RD, KILWORTHY"
      },
      {
        "electoralDistricts": [
          {
            "election": null,
            "id": 84,
            "name": "Parry Sound—Muskoka"
          }
        ],
        "pollDivisionIds": [
          10141017,
          10141014
        ],
        "postalCode": "P0E1G0",
        "streetName": "11",
        "streetDirectionId": "N",
        "streetTypeId": "HWY",
        "placeName": "KILWORTHY",
        "streetNameDisplayText": "11 HWY N, KILWORTHY"
      },
      {
        "electoralDistricts": [
          {
            "election": null,
            "id": 84,
            "name": "Parry Sound—Muskoka"
          }
        ],
        "pollDivisionIds": [
          10141014,
          10141017
        ],
        "postalCode": "P0E1G0",
        "streetName": "11",
        "streetDirectionId": "S",
        "streetTypeId": "HWY",
        "placeName": "KILWORTHY",
        "streetNameDisplayText": "11 HWY S, KILWORTHY"
      },
      {
        "electoralDistricts": [
          {
            "election": null,
            "id": 84,
            "name": "Parry Sound—Muskoka"
          }
        ],
        "pollDivisionIds": [
          10141014
        ],
        "postalCode": "P0E1G0",
        "streetName": "11",
        "streetDirectionId": null,
        "streetTypeId": "HWY",
        "placeName": "GRAVENHURST",
        "streetNameDisplayText": "11 HWY, GRAVENHURST"
      },
      {
        "electoralDistricts": [
          {
            "election": null,
            "id": 84,
            "name": "Parry Sound—Muskoka"
          }
        ],
        "pollDivisionIds": [
          10141014,
          10141017
        ],
        "postalCode": "P0E1G0",
        "streetName": "11",
        "streetDirectionId": null,
        "streetTypeId": "HWY",
        "placeName": "KILWORTHY",
        "streetNameDisplayText": "11 HWY, KILWORTHY"
      },
      {
        "electoralDistricts": [
          {
            "election": null,
            "id": 84,
            "name": "Parry Sound—Muskoka"
          }
        ],
        "pollDivisionIds": [
          10141017
        ],
        "postalCode": "P0E1G0",
        "streetName": "11",
        "streetDirectionId": null,
        "streetTypeId": "HWY",
        "placeName": "SEVERN BRIDGE",
        "streetNameDisplayText": "11 HWY, SEVERN BRIDGE"
      },
      {
        "electoralDistricts": [
          {
            "election": null,
            "id": 84,
            "name": "Parry Sound—Muskoka"
          }
        ],
        "pollDivisionIds": [
          10141017
        ],
        "postalCode": "P0E1G0",
        "streetName": "11",
        "streetDirectionId": "S",
        "streetTypeId": null,
        "placeName": "SEVERN BRIDGE",
        "streetNameDisplayText": "11 S, SEVERN BRIDGE"
      },
      {
        "electoralDistricts": [
          {
            "election": null,
            "id": 84,
            "name": "Parry Sound—Muskoka"
          }
        ],
        "pollDivisionIds": [
          10141014
        ],
        "postalCode": "P0E1G0",
        "streetName": "1100",
        "streetDirectionId": null,
        "streetTypeId": "RD",
        "placeName": "KILWORTHY",
        "streetNameDisplayText": "1100 RD, KILWORTHY"
      },
      {
        "electoralDistricts": [
          {
            "election": null,
            "id": 84,
            "name": "Parry Sound—Muskoka"
          }
        ],
        "pollDivisionIds": [
          10141014
        ],
        "postalCode": "P0E1G0",
        "streetName": "1700",
        "streetDirectionId": null,
        "streetTypeId": "RD",
        "placeName": "KILWORTHY",
        "streetNameDisplayText": "1700 RD, KILWORTHY"
      },
      {
        "electoralDistricts": [
          {
            "election": null,
            "id": 84,
            "name": "Parry Sound—Muskoka"
          }
        ],
        "pollDivisionIds": [
          10141014
        ],
        "postalCode": "P0E1G0",
        "streetName": "2000",
        "streetDirectionId": null,
        "streetTypeId": "RD",
        "placeName": "KILWORTHY",
        "streetNameDisplayText": "2000 RD, KILWORTHY"
      },
      {
        "electoralDistricts": [
          {
            "election": null,
            "id": 84,
            "name": "Parry Sound—Muskoka"
          }
        ],
        "pollDivisionIds": [
          10141014
        ],
        "postalCode": "P0E1G0",
        "streetName": "AMELIA",
        "streetDirectionId": null,
        "streetTypeId": "CRES",
        "placeName": "KILWORTHY",
        "streetNameDisplayText": "AMELIA CRES, KILWORTHY"
      },
      {
        "electoralDistricts": [
          {
            "election": null,
            "id": 84,
            "name": "Parry Sound—Muskoka"
          }
        ],
        "pollDivisionIds": [
          10141014
        ],
        "postalCode": "P0E1G0",
        "streetName": "ARTHUR SCHULZ",
        "streetDirectionId": null,
        "streetTypeId": "RD",
        "placeName": "KILWORTHY",
        "streetNameDisplayText": "ARTHUR SCHULZ RD, KILWORTHY"
      },
      {
        "electoralDistricts": [
          {
            "election": null,
            "id": 84,
            "name": "Parry Sound—Muskoka"
          }
        ],
        "pollDivisionIds": [
          10141017
        ],
        "postalCode": "P0E1G0",
        "streetName": "BAGLEY",
        "streetDirectionId": null,
        "streetTypeId": "RD",
        "placeName": "SEVERN BRIDGE",
        "streetNameDisplayText": "BAGLEY RD, SEVERN BRIDGE"
      },
      {
        "electoralDistricts": [
          {
            "election": null,
            "id": 84,
            "name": "Parry Sound—Muskoka"
          }
        ],
        "pollDivisionIds": [
          10141014
        ],
        "postalCode": "P0E1G0",
        "streetName": "BALFORWOODS RD",
        "streetDirectionId": null,
        "streetTypeId": "RD",
        "placeName": "KILWORTHY",
        "streetNameDisplayText": "BALFORWOODS RD RD, KILWORTHY"
      },
      {
        "electoralDistricts": [
          {
            "election": null,
            "id": 84,
            "name": "Parry Sound—Muskoka"
          }
        ],
        "pollDivisionIds": [
          10141014
        ],
        "postalCode": "P0E1G0",
        "streetName": "BALFOUR WOODS",
        "streetDirectionId": null,
        "streetTypeId": "DR",
        "placeName": "GRAVENHURST",
        "streetNameDisplayText": "BALFOUR WOODS DR, GRAVENHURST"
      },
      {
        "electoralDistricts": [
          {
            "election": null,
            "id": 84,
            "name": "Parry Sound—Muskoka"
          }
        ],
        "pollDivisionIds": [
          10141014
        ],
        "postalCode": "P0E1G0",
        "streetName": "BALFOUR WOODS",
        "streetDirectionId": null,
        "streetTypeId": "DR",
        "placeName": "KILWORTHY",
        "streetNameDisplayText": "BALFOUR WOODS DR, KILWORTHY"
      },
      {
        "electoralDistricts": [
          {
            "election": null,
            "id": 84,
            "name": "Parry Sound—Muskoka"
          }
        ],
        "pollDivisionIds": [
          10141014
        ],
        "postalCode": "P0E1G0",
        "streetName": "BALFOUR WOODS",
        "streetDirectionId": null,
        "streetTypeId": "RD",
        "placeName": "KILWORTHY",
        "streetNameDisplayText": "BALFOUR WOODS RD, KILWORTHY"
      },
      {
        "electoralDistricts": [
          {
            "election": null,
            "id": 84,
            "name": "Parry Sound—Muskoka"
          }
        ],
        "pollDivisionIds": [
          10141014
        ],
        "postalCode": "P0E1G0",
        "streetName": "BANK",
        "streetDirectionId": "W",
        "streetTypeId": "DR",
        "placeName": "KILWORTHY",
        "streetNameDisplayText": "BANK DR W, KILWORTHY"
      },
      {
        "electoralDistricts": [
          {
            "election": null,
            "id": 84,
            "name": "Parry Sound—Muskoka"
          }
        ],
        "pollDivisionIds": [
          10141014
        ],
        "postalCode": "P0E1G0",
        "streetName": "BAY",
        "streetDirectionId": "S",
        "streetTypeId": "RD",
        "placeName": "KILWORTHY",
        "streetNameDisplayText": "BAY RD S, KILWORTHY"
      },
      {
        "electoralDistricts": [
          {
            "election": null,
            "id": 84,
            "name": "Parry Sound—Muskoka"
          }
        ],
        "pollDivisionIds": [
          10141014
        ],
        "postalCode": "P0E1G0",
        "streetName": "BEAVER RIDGE",
        "streetDirectionId": null,
        "streetTypeId": "RD",
        "placeName": "GRAVENHURST",
        "streetNameDisplayText": "BEAVER RIDGE RD, GRAVENHURST"
      },
      {
        "electoralDistricts": [
          {
            "election": null,
            "id": 84,
            "name": "Parry Sound—Muskoka"
          }
        ],
        "pollDivisionIds": [
          10141014
        ],
        "postalCode": "P0E1G0",
        "streetName": "BEIERS",
        "streetDirectionId": null,
        "streetTypeId": "RD",
        "placeName": "GRAVENHURST",
        "streetNameDisplayText": "BEIERS RD, GRAVENHURST"
      },
      {
        "electoralDistricts": [
          {
            "election": null,
            "id": 84,
            "name": "Parry Sound—Muskoka"
          }
        ],
        "pollDivisionIds": [
          10141014
        ],
        "postalCode": "P0E1G0",
        "streetName": "BEIERS",
        "streetDirectionId": null,
        "streetTypeId": "RD",
        "placeName": "KILWORTHY",
        "streetNameDisplayText": "BEIERS RD, KILWORTHY"
      },
      {
        "electoralDistricts": [
          {
            "election": null,
            "id": 84,
            "name": "Parry Sound—Muskoka"
          }
        ],
        "pollDivisionIds": [
          10141016
        ],
        "postalCode": "P0E1G0",
        "streetName": "BENZINGER",
        "streetDirectionId": null,
        "streetTypeId": "RD",
        "placeName": "KILWORTHY",
        "streetNameDisplayText": "BENZINGER RD, KILWORTHY"
      },
      {
        "electoralDistricts": [
          {
            "election": null,
            "id": 84,
            "name": "Parry Sound—Muskoka"
          }
        ],
        "pollDivisionIds": [
          10141014
        ],
        "postalCode": "P0E1G0",
        "streetName": "BIG PINE",
        "streetDirectionId": null,
        "streetTypeId": "ACRES",
        "placeName": "KILWORTHY",
        "streetNameDisplayText": "BIG PINE ACRES, KILWORTHY"
      },
      {
        "electoralDistricts": [
          {
            "election": null,
            "id": 84,
            "name": "Parry Sound—Muskoka"
          }
        ],
        "pollDivisionIds": [
          10141014
        ],
        "postalCode": "P0E1G0",
        "streetName": "BOYD",
        "streetDirectionId": null,
        "streetTypeId": "ISLAND",
        "placeName": "KILWORTHY",
        "streetNameDisplayText": "BOYD ISLAND, KILWORTHY"
      },
      {
        "electoralDistricts": [
          {
            "election": null,
            "id": 84,
            "name": "Parry Sound—Muskoka"
          }
        ],
        "pollDivisionIds": [
          10141014
        ],
        "postalCode": "P0E1G0",
        "streetName": "CARDINAL",
        "streetDirectionId": null,
        "streetTypeId": "CRES",
        "placeName": "KILWORTHY",
        "streetNameDisplayText": "CARDINAL CRES, KILWORTHY"
      },
      {
        "electoralDistricts": [
          {
            "election": null,
            "id": 84,
            "name": "Parry Sound—Muskoka"
          }
        ],
        "pollDivisionIds": [
          10141017
        ],
        "postalCode": "P0E1G0",
        "streetName": "CLEAR",
        "streetDirectionId": null,
        "streetTypeId": "RD",
        "placeName": "KILWORTHY",
        "streetNameDisplayText": "CLEAR RD, KILWORTHY"
      },
      {
        "electoralDistricts": [
          {
            "election": null,
            "id": 84,
            "name": "Parry Sound—Muskoka"
          }
        ],
        "pollDivisionIds": [
          10141017
        ],
        "postalCode": "P0E1G0",
        "streetName": "CLIPSHAM",
        "streetDirectionId": null,
        "streetTypeId": "RD",
        "placeName": "KILWORTHY",
        "streetNameDisplayText": "CLIPSHAM RD, KILWORTHY"
      },
      {
        "electoralDistricts": [
          {
            "election": null,
            "id": 84,
            "name": "Parry Sound—Muskoka"
          }
        ],
        "pollDivisionIds": [
          10141017
        ],
        "postalCode": "P0E1G0",
        "streetName": "COOPERS FALLS",
        "streetDirectionId": null,
        "streetTypeId": "RD",
        "placeName": "KILWORTHY",
        "streetNameDisplayText": "COOPERS FALLS RD, KILWORTHY"
      },
      {
        "electoralDistricts": [
          {
            "election": null,
            "id": 84,
            "name": "Parry Sound—Muskoka"
          }
        ],
        "pollDivisionIds": [
          10141014
        ],
        "postalCode": "P0E1G0",
        "streetName": "COVE",
        "streetDirectionId": null,
        "streetTypeId": "RD",
        "placeName": "KILWORTHY",
        "streetNameDisplayText": "COVE RD, KILWORTHY"
      },
      {
        "electoralDistricts": [
          {
            "election": null,
            "id": 84,
            "name": "Parry Sound—Muskoka"
          }
        ],
        "pollDivisionIds": [
          10141014
        ],
        "postalCode": "P0E1G0",
        "streetName": "CYRIL GILL",
        "streetDirectionId": null,
        "streetTypeId": "DR",
        "placeName": "KILWORTHY",
        "streetNameDisplayText": "CYRIL GILL DR, KILWORTHY"
      },
      {
        "electoralDistricts": [
          {
            "election": null,
            "id": 84,
            "name": "Parry Sound—Muskoka"
          }
        ],
        "pollDivisionIds": [
          10141016
        ],
        "postalCode": "P0E1G0",
        "streetName": "DEEP BAY",
        "streetDirectionId": null,
        "streetTypeId": "RD",
        "placeName": "KILWORTHY",
        "streetNameDisplayText": "DEEP BAY RD, KILWORTHY"
      },
      {
        "electoralDistricts": [
          {
            "election": null,
            "id": 84,
            "name": "Parry Sound—Muskoka"
          }
        ],
        "pollDivisionIds": [
          10141014
        ],
        "postalCode": "P0E1G0",
        "streetName": "DELMONTE",
        "streetDirectionId": null,
        "streetTypeId": "RD",
        "placeName": "KILWORTHY",
        "streetNameDisplayText": "DELMONTE RD, KILWORTHY"
      },
      {
        "electoralDistricts": [
          {
            "election": null,
            "id": 84,
            "name": "Parry Sound—Muskoka"
          }
        ],
        "pollDivisionIds": [
          10141014
        ],
        "postalCode": "P0E1G0",
        "streetName": "DOVE",
        "streetDirectionId": null,
        "streetTypeId": "DR",
        "placeName": "KILWORTHY",
        "streetNameDisplayText": "DOVE DR, KILWORTHY"
      },
      {
        "electoralDistricts": [
          {
            "election": null,
            "id": 84,
            "name": "Parry Sound—Muskoka"
          }
        ],
        "pollDivisionIds": [
          10141017
        ],
        "postalCode": "P0E1G0",
        "streetName": "DUGGAN",
        "streetDirectionId": null,
        "streetTypeId": "TRAIL",
        "placeName": "KILWORTHY",
        "streetNameDisplayText": "DUGGAN TRAIL, KILWORTHY"
      },
      {
        "electoralDistricts": [
          {
            "election": null,
            "id": 84,
            "name": "Parry Sound—Muskoka"
          }
        ],
        "pollDivisionIds": [
          10141017
        ],
        "postalCode": "P0E1G0",
        "streetName": "ELDERBERRY",
        "streetDirectionId": null,
        "streetTypeId": "LANE",
        "placeName": "KILWORTHY",
        "streetNameDisplayText": "ELDERBERRY LANE, KILWORTHY"
      },
      {
        "electoralDistricts": [
          {
            "election": null,
            "id": 84,
            "name": "Parry Sound—Muskoka"
          }
        ],
        "pollDivisionIds": [
          10141014
        ],
        "postalCode": "P0E1G0",
        "streetName": "ERINS",
        "streetDirectionId": null,
        "streetTypeId": "WAY",
        "placeName": "KILWORTHY",
        "streetNameDisplayText": "ERINS WAY, KILWORTHY"
      },
      {
        "electoralDistricts": [
          {
            "election": null,
            "id": 84,
            "name": "Parry Sound—Muskoka"
          }
        ],
        "pollDivisionIds": [
          10141014
        ],
        "postalCode": "P0E1G0",
        "streetName": "ERIN'S",
        "streetDirectionId": null,
        "streetTypeId": "WAY",
        "placeName": "KILWORTHY",
        "streetNameDisplayText": "ERIN'S WAY, KILWORTHY"
      },
      {
        "electoralDistricts": [
          {
            "election": null,
            "id": 84,
            "name": "Parry Sound—Muskoka"
          }
        ],
        "pollDivisionIds": [
          10141014
        ],
        "postalCode": "P0E1G0",
        "streetName": "EVANSWOOD",
        "streetDirectionId": null,
        "streetTypeId": "DR",
        "placeName": "KILWORTHY",
        "streetNameDisplayText": "EVANSWOOD DR, KILWORTHY"
      },
      {
        "electoralDistricts": [
          {
            "election": null,
            "id": 84,
            "name": "Parry Sound—Muskoka"
          }
        ],
        "pollDivisionIds": [
          10141014
        ],
        "postalCode": "P0E1G0",
        "streetName": "FERN",
        "streetDirectionId": null,
        "streetTypeId": "RD",
        "placeName": "KILWORTHY",
        "streetNameDisplayText": "FERN RD, KILWORTHY"
      },
      {
        "electoralDistricts": [
          {
            "election": null,
            "id": 84,
            "name": "Parry Sound—Muskoka"
          }
        ],
        "pollDivisionIds": [
          10141016
        ],
        "postalCode": "P0E1G0",
        "streetName": "FIRE ROUTE 20G",
        "streetDirectionId": null,
        "streetTypeId": null,
        "placeName": "KILWORTHY",
        "streetNameDisplayText": "FIRE ROUTE 20G, KILWORTHY"
      },
      {
        "electoralDistricts": [
          {
            "election": null,
            "id": 84,
            "name": "Parry Sound—Muskoka"
          }
        ],
        "pollDivisionIds": [
          10141016
        ],
        "postalCode": "P0E1G0",
        "streetName": "FIRE",
        "streetDirectionId": null,
        "streetTypeId": "RTE",
        "placeName": "KILWORTHY",
        "streetNameDisplayText": "FIRE RTE, KILWORTHY"
      },
      {
        "electoralDistricts": [
          {
            "election": null,
            "id": 84,
            "name": "Parry Sound—Muskoka"
          }
        ],
        "pollDivisionIds": [
          10141014
        ],
        "postalCode": "P0E1G0",
        "streetName": "FISH HOOK",
        "streetDirectionId": null,
        "streetTypeId": "LANE",
        "placeName": "GRAVENHURST",
        "streetNameDisplayText": "FISH HOOK LANE, GRAVENHURST"
      },
      {
        "electoralDistricts": [
          {
            "election": null,
            "id": 84,
            "name": "Parry Sound—Muskoka"
          }
        ],
        "pollDivisionIds": [
          10141014
        ],
        "postalCode": "P0E1G0",
        "streetName": "FISH HOOK",
        "streetDirectionId": null,
        "streetTypeId": "LANE",
        "placeName": "KILWORTHY",
        "streetNameDisplayText": "FISH HOOK LANE, KILWORTHY"
      },
      {
        "electoralDistricts": [
          {
            "election": null,
            "id": 84,
            "name": "Parry Sound—Muskoka"
          }
        ],
        "pollDivisionIds": [
          10141014
        ],
        "postalCode": "P0E1G0",
        "streetName": "FLANAGAN",
        "streetDirectionId": null,
        "streetTypeId": "TRAIL",
        "placeName": "KILWORTHY",
        "streetNameDisplayText": "FLANAGAN TRAIL, KILWORTHY"
      },
      {
        "electoralDistricts": [
          {
            "election": null,
            "id": 84,
            "name": "Parry Sound—Muskoka"
          }
        ],
        "pollDivisionIds": [
          10141014
        ],
        "postalCode": "P0E1G0",
        "streetName": "FLEMING",
        "streetDirectionId": null,
        "streetTypeId": "DR",
        "placeName": "KILWORTHY",
        "streetNameDisplayText": "FLEMING DR, KILWORTHY"
      },
      {
        "electoralDistricts": [
          {
            "election": null,
            "id": 84,
            "name": "Parry Sound—Muskoka"
          }
        ],
        "pollDivisionIds": [
          10143236
        ],
        "postalCode": "P0E1G0",
        "streetName": "FOUR WHEEL",
        "streetDirectionId": null,
        "streetTypeId": "DR",
        "placeName": "GRAVENHURST",
        "streetNameDisplayText": "FOUR WHEEL DR, GRAVENHURST"
      },
      {
        "electoralDistricts": [
          {
            "election": null,
            "id": 84,
            "name": "Parry Sound—Muskoka"
          }
        ],
        "pollDivisionIds": [
          10141014
        ],
        "postalCode": "P0E1G0",
        "streetName": "GOLDFINCH",
        "streetDirectionId": null,
        "streetTypeId": "CRT",
        "placeName": "KILWORTHY",
        "streetNameDisplayText": "GOLDFINCH CRT, KILWORTHY"
      },
      {
        "electoralDistricts": [
          {
            "election": null,
            "id": 84,
            "name": "Parry Sound—Muskoka"
          }
        ],
        "pollDivisionIds": [
          10143236
        ],
        "postalCode": "P0E1G0",
        "streetName": "HALEWAY A",
        "streetDirectionId": null,
        "streetTypeId": "DR",
        "placeName": "GRAVENHURST",
        "streetNameDisplayText": "HALEWAY A DR, GRAVENHURST"
      },
      {
        "electoralDistricts": [
          {
            "election": null,
            "id": 84,
            "name": "Parry Sound—Muskoka"
          }
        ],
        "pollDivisionIds": [
          10143236
        ],
        "postalCode": "P0E1G0",
        "streetName": "HALEWAY A",
        "streetDirectionId": null,
        "streetTypeId": "DR",
        "placeName": "KILWORTHY",
        "streetNameDisplayText": "HALEWAY A DR, KILWORTHY"
      },
      {
        "electoralDistricts": [
          {
            "election": null,
            "id": 84,
            "name": "Parry Sound—Muskoka"
          }
        ],
        "pollDivisionIds": [
          10143236
        ],
        "postalCode": "P0E1G0",
        "streetName": "HALEWAY B",
        "streetDirectionId": null,
        "streetTypeId": "DR",
        "placeName": "GRAVENHURST",
        "streetNameDisplayText": "HALEWAY B DR, GRAVENHURST"
      },
      {
        "electoralDistricts": [
          {
            "election": null,
            "id": 84,
            "name": "Parry Sound—Muskoka"
          }
        ],
        "pollDivisionIds": [
          10143236
        ],
        "postalCode": "P0E1G0",
        "streetName": "HALEWAY B",
        "streetDirectionId": null,
        "streetTypeId": "DR",
        "placeName": "KILWORTHY",
        "streetNameDisplayText": "HALEWAY B DR, KILWORTHY"
      },
      {
        "electoralDistricts": [
          {
            "election": null,
            "id": 84,
            "name": "Parry Sound—Muskoka"
          }
        ],
        "pollDivisionIds": [
          10141017
        ],
        "postalCode": "P0E1G0",
        "streetName": "HARTLEY",
        "streetDirectionId": null,
        "streetTypeId": "RD",
        "placeName": "SEVERN BRIDGE",
        "streetNameDisplayText": "HARTLEY RD, SEVERN BRIDGE"
      },
      {
        "electoralDistricts": [
          {
            "election": null,
            "id": 84,
            "name": "Parry Sound—Muskoka"
          }
        ],
        "pollDivisionIds": [
          10141014
        ],
        "postalCode": "P0E1G0",
        "streetName": "HASTINGS",
        "streetDirectionId": null,
        "streetTypeId": "DR",
        "placeName": "KILWORTHY",
        "streetNameDisplayText": "HASTINGS DR, KILWORTHY"
      },
      {
        "electoralDistricts": [
          {
            "election": null,
            "id": 84,
            "name": "Parry Sound—Muskoka"
          }
        ],
        "pollDivisionIds": [
          10141014
        ],
        "postalCode": "P0E1G0",
        "streetName": "HEINTZMAN",
        "streetDirectionId": null,
        "streetTypeId": "GATE",
        "placeName": "KILWORTHY",
        "streetNameDisplayText": "HEINTZMAN GATE, KILWORTHY"
      },
      {
        "electoralDistricts": [
          {
            "election": null,
            "id": 84,
            "name": "Parry Sound—Muskoka"
          }
        ],
        "pollDivisionIds": [
          10141014
        ],
        "postalCode": "P0E1G0",
        "streetName": "HIGHWAY 11  S",
        "streetDirectionId": "S",
        "streetTypeId": null,
        "placeName": "KILWORTHY",
        "streetNameDisplayText": "HIGHWAY 11  S S, KILWORTHY"
      },
      {
        "electoralDistricts": [
          {
            "election": null,
            "id": 84,
            "name": "Parry Sound—Muskoka"
          }
        ],
        "pollDivisionIds": [
          10141017
        ],
        "postalCode": "P0E1G0",
        "streetName": "HILLSDALE",
        "streetDirectionId": null,
        "streetTypeId": "RD",
        "placeName": "KILWORTHY",
        "streetNameDisplayText": "HILLSDALE RD, KILWORTHY"
      },
      {
        "electoralDistricts": [
          {
            "election": null,
            "id": 84,
            "name": "Parry Sound—Muskoka"
          }
        ],
        "pollDivisionIds": [
          10141017
        ],
        "postalCode": "P0E1G0",
        "streetName": "HOUSEYS RAPIDS",
        "streetDirectionId": null,
        "streetTypeId": "RD",
        "placeName": "KILWORTHY",
        "streetNameDisplayText": "HOUSEYS RAPIDS RD, KILWORTHY"
      },
      {
        "electoralDistricts": [
          {
            "election": null,
            "id": 84,
            "name": "Parry Sound—Muskoka"
          }
        ],
        "pollDivisionIds": [
          10141014,
          10141017
        ],
        "postalCode": "P0E1G0",
        "streetName": "HWY 11",
        "streetDirectionId": "N",
        "streetTypeId": null,
        "placeName": "KILWORTHY",
        "streetNameDisplayText": "HWY 11 N, KILWORTHY"
      },
      {
        "electoralDistricts": [
          {
            "election": null,
            "id": 84,
            "name": "Parry Sound—Muskoka"
          }
        ],
        "pollDivisionIds": [
          10141015
        ],
        "postalCode": "P0E1G0",
        "streetName": "HWY 11 S BOX 64",
        "streetDirectionId": "S",
        "streetTypeId": null,
        "placeName": "KILWORTHY",
        "streetNameDisplayText": "HWY 11 S BOX 64 S, KILWORTHY"
      },
      {
        "electoralDistricts": [
          {
            "election": null,
            "id": 84,
            "name": "Parry Sound—Muskoka"
          }
        ],
        "pollDivisionIds": [
          10141017,
          10141014
        ],
        "postalCode": "P0E1G0",
        "streetName": "HWY 11",
        "streetDirectionId": "S",
        "streetTypeId": null,
        "placeName": "KILWORTHY",
        "streetNameDisplayText": "HWY 11 S, KILWORTHY"
      },
      {
        "electoralDistricts": [
          {
            "election": null,
            "id": 84,
            "name": "Parry Sound—Muskoka"
          }
        ],
        "pollDivisionIds": [
          10141014
        ],
        "postalCode": "P0E1G0",
        "streetName": "HWY 11",
        "streetDirectionId": null,
        "streetTypeId": null,
        "placeName": "KILWORTHY",
        "streetNameDisplayText": "HWY 11, KILWORTHY"
      },
      {
        "electoralDistricts": [
          {
            "election": null,
            "id": 84,
            "name": "Parry Sound—Muskoka"
          }
        ],
        "pollDivisionIds": [
          10143236
        ],
        "postalCode": "P0E1G0",
        "streetName": "JIM WOOD",
        "streetDirectionId": null,
        "streetTypeId": "LANE",
        "placeName": "KILWORTHY",
        "streetNameDisplayText": "JIM WOOD LANE, KILWORTHY"
      },
      {
        "electoralDistricts": [
          {
            "election": null,
            "id": 84,
            "name": "Parry Sound—Muskoka"
          }
        ],
        "pollDivisionIds": [
          10141014
        ],
        "postalCode": "P0E1G0",
        "streetName": "JOY",
        "streetDirectionId": null,
        "streetTypeId": "RD",
        "placeName": "KILWORTHY",
        "streetNameDisplayText": "JOY RD, KILWORTHY"
      },
      {
        "electoralDistricts": [
          {
            "election": null,
            "id": 84,
            "name": "Parry Sound—Muskoka"
          }
        ],
        "pollDivisionIds": [
          10141014
        ],
        "postalCode": "P0E1G0",
        "streetName": "KAHSHE LAKE",
        "streetDirectionId": "N",
        "streetTypeId": "RD",
        "placeName": "KILWORTHY",
        "streetNameDisplayText": "KAHSHE LAKE RD N, KILWORTHY"
      },
      {
        "electoralDistricts": [
          {
            "election": null,
            "id": 84,
            "name": "Parry Sound—Muskoka"
          }
        ],
        "pollDivisionIds": [
          10141014
        ],
        "postalCode": "P0E1G0",
        "streetName": "KAHSHE LAKE",
        "streetDirectionId": "S",
        "streetTypeId": "RD",
        "placeName": "KILWORTHY",
        "streetNameDisplayText": "KAHSHE LAKE RD S, KILWORTHY"
      },
      {
        "electoralDistricts": [
          {
            "election": null,
            "id": 84,
            "name": "Parry Sound—Muskoka"
          }
        ],
        "pollDivisionIds": [
          10141015
        ],
        "postalCode": "P0E1G0",
        "streetName": "KAHSHE LAKE RD.",
        "streetDirectionId": "N",
        "streetTypeId": "RD",
        "placeName": "KILWORTHY",
        "streetNameDisplayText": "KAHSHE LAKE RD. RD N, KILWORTHY"
      },
      {
        "electoralDistricts": [
          {
            "election": null,
            "id": 84,
            "name": "Parry Sound—Muskoka"
          }
        ],
        "pollDivisionIds": [
          10141014,
          10143220
        ],
        "postalCode": "P0E1G0",
        "streetName": "KAHSHE LAKE",
        "streetDirectionId": null,
        "streetTypeId": null,
        "placeName": "KILWORTHY",
        "streetNameDisplayText": "KAHSHE LAKE, KILWORTHY"
      },
      {
        "electoralDistricts": [
          {
            "election": null,
            "id": 84,
            "name": "Parry Sound—Muskoka"
          }
        ],
        "pollDivisionIds": [
          10141014
        ],
        "postalCode": "P0E1G0",
        "streetName": "KAHSHE LK",
        "streetDirectionId": "N",
        "streetTypeId": "RD",
        "placeName": "KILWORTHY",
        "streetNameDisplayText": "KAHSHE LK RD N, KILWORTHY"
      },
      {
        "electoralDistricts": [
          {
            "election": null,
            "id": 84,
            "name": "Parry Sound—Muskoka"
          }
        ],
        "pollDivisionIds": [
          10143694,
          10141014
        ],
        "postalCode": "P0E1G0",
        "streetName": "KILWORTHY",
        "streetDirectionId": null,
        "streetTypeId": "RD",
        "placeName": "KILWORTHY",
        "streetNameDisplayText": "KILWORTHY RD, KILWORTHY"
      },
      {
        "electoralDistricts": [
          {
            "election": null,
            "id": 84,
            "name": "Parry Sound—Muskoka"
          }
        ],
        "pollDivisionIds": [
          10141017
        ],
        "postalCode": "P0E1G0",
        "streetName": "LAIDLAW",
        "streetDirectionId": null,
        "streetTypeId": "AVE",
        "placeName": "KILWORTHY",
        "streetNameDisplayText": "LAIDLAW AVE, KILWORTHY"
      },
      {
        "electoralDistricts": [
          {
            "election": null,
            "id": 84,
            "name": "Parry Sound—Muskoka"
          }
        ],
        "pollDivisionIds": [
          10141017
        ],
        "postalCode": "P0E1G0",
        "streetName": "LAWRENCE",
        "streetDirectionId": null,
        "streetTypeId": "DR",
        "placeName": "KILWORTHY",
        "streetNameDisplayText": "LAWRENCE DR, KILWORTHY"
      },
      {
        "electoralDistricts": [
          {
            "election": null,
            "id": 84,
            "name": "Parry Sound—Muskoka"
          }
        ],
        "pollDivisionIds": [
          10141014
        ],
        "postalCode": "P0E1G0",
        "streetName": "LIONS HEAD",
        "streetDirectionId": "W",
        "streetTypeId": "RD",
        "placeName": "KILWORTHY",
        "streetNameDisplayText": "LIONS HEAD RD W, KILWORTHY"
      },
      {
        "electoralDistricts": [
          {
            "election": null,
            "id": 84,
            "name": "Parry Sound—Muskoka"
          }
        ],
        "pollDivisionIds": [
          10143236,
          10141014
        ],
        "postalCode": "P0E1G0",
        "streetName": "LITTLE LAKE",
        "streetDirectionId": null,
        "streetTypeId": "RD",
        "placeName": "KILWORTHY",
        "streetNameDisplayText": "LITTLE LAKE RD, KILWORTHY"
      },
      {
        "electoralDistricts": [
          {
            "election": null,
            "id": 84,
            "name": "Parry Sound—Muskoka"
          }
        ],
        "pollDivisionIds": [
          10141014
        ],
        "postalCode": "P0E1G0",
        "streetName": "LONG POINT",
        "streetDirectionId": null,
        "streetTypeId": "DR",
        "placeName": "GRAVENHURST",
        "streetNameDisplayText": "LONG POINT DR, GRAVENHURST"
      },
      {
        "electoralDistricts": [
          {
            "election": null,
            "id": 84,
            "name": "Parry Sound—Muskoka"
          }
        ],
        "pollDivisionIds": [
          10141014
        ],
        "postalCode": "P0E1G0",
        "streetName": "LONG POINT",
        "streetDirectionId": null,
        "streetTypeId": "DR",
        "placeName": "KILWORTHY",
        "streetNameDisplayText": "LONG POINT DR, KILWORTHY"
      },
      {
        "electoralDistricts": [
          {
            "election": null,
            "id": 84,
            "name": "Parry Sound—Muskoka"
          }
        ],
        "pollDivisionIds": [
          10141014
        ],
        "postalCode": "P0E1G0",
        "streetName": "LORENZ",
        "streetDirectionId": null,
        "streetTypeId": "RD",
        "placeName": "KILWORTHY",
        "streetNameDisplayText": "LORENZ RD, KILWORTHY"
      },
      {
        "electoralDistricts": [
          {
            "election": null,
            "id": 84,
            "name": "Parry Sound—Muskoka"
          }
        ],
        "pollDivisionIds": [
          10141014
        ],
        "postalCode": "P0E1G0",
        "streetName": "MCCORMICK",
        "streetDirectionId": null,
        "streetTypeId": "RD",
        "placeName": "KILWORTHY",
        "streetNameDisplayText": "MCCORMICK RD, KILWORTHY"
      },
      {
        "electoralDistricts": [
          {
            "election": null,
            "id": 84,
            "name": "Parry Sound—Muskoka"
          }
        ],
        "pollDivisionIds": [
          10141014
        ],
        "postalCode": "P0E1G0",
        "streetName": "MCDONALD",
        "streetDirectionId": null,
        "streetTypeId": "RD",
        "placeName": "KILWORTHY",
        "streetNameDisplayText": "MCDONALD RD, KILWORTHY"
      },
      {
        "electoralDistricts": [
          {
            "election": null,
            "id": 84,
            "name": "Parry Sound—Muskoka"
          }
        ],
        "pollDivisionIds": [
          10141014
        ],
        "postalCode": "P0E1G0",
        "streetName": "MORRISON LAKE",
        "streetDirectionId": "N",
        "streetTypeId": "RD",
        "placeName": "GRAVENHURST",
        "streetNameDisplayText": "MORRISON LAKE RD N, GRAVENHURST"
      },
      {
        "electoralDistricts": [
          {
            "election": null,
            "id": 84,
            "name": "Parry Sound—Muskoka"
          }
        ],
        "pollDivisionIds": [
          10141014
        ],
        "postalCode": "P0E1G0",
        "streetName": "MORRISON LAKE",
        "streetDirectionId": "N",
        "streetTypeId": "RD",
        "placeName": "KILWORTHY",
        "streetNameDisplayText": "MORRISON LAKE RD N, KILWORTHY"
      },
      {
        "electoralDistricts": [
          {
            "election": null,
            "id": 84,
            "name": "Parry Sound—Muskoka"
          }
        ],
        "pollDivisionIds": [
          10141014
        ],
        "postalCode": "P0E1G0",
        "streetName": "MORRISON LAKE",
        "streetDirectionId": "S",
        "streetTypeId": "RD",
        "placeName": "GRAVENHURST",
        "streetNameDisplayText": "MORRISON LAKE RD S, GRAVENHURST"
      },
      {
        "electoralDistricts": [
          {
            "election": null,
            "id": 84,
            "name": "Parry Sound—Muskoka"
          }
        ],
        "pollDivisionIds": [
          10141014
        ],
        "postalCode": "P0E1G0",
        "streetName": "MORRISON LAKE",
        "streetDirectionId": "S",
        "streetTypeId": "RD",
        "placeName": "KILWORTHY",
        "streetNameDisplayText": "MORRISON LAKE RD S, KILWORTHY"
      },
      {
        "electoralDistricts": [
          {
            "election": null,
            "id": 84,
            "name": "Parry Sound—Muskoka"
          }
        ],
        "pollDivisionIds": [
          10141014
        ],
        "postalCode": "P0E1G0",
        "streetName": "MULDREW LAKE",
        "streetDirectionId": "S",
        "streetTypeId": "RD",
        "placeName": "KILWORTHY",
        "streetNameDisplayText": "MULDREW LAKE RD S, KILWORTHY"
      },
      {
        "electoralDistricts": [
          {
            "election": null,
            "id": 84,
            "name": "Parry Sound—Muskoka"
          }
        ],
        "pollDivisionIds": [
          10143220,
          10141014
        ],
        "postalCode": "P0E1G0",
        "streetName": "NAGAYA",
        "streetDirectionId": null,
        "streetTypeId": "DR",
        "placeName": "KILWORTHY",
        "streetNameDisplayText": "NAGAYA DR, KILWORTHY"
      },
      {
        "electoralDistricts": [
          {
            "election": null,
            "id": 84,
            "name": "Parry Sound—Muskoka"
          }
        ],
        "pollDivisionIds": [
          10141014
        ],
        "postalCode": "P0E1G0",
        "streetName": "NAGAYA",
        "streetDirectionId": null,
        "streetTypeId": "RD",
        "placeName": "KILWORTHY",
        "streetNameDisplayText": "NAGAYA RD, KILWORTHY"
      },
      {
        "electoralDistricts": [
          {
            "election": null,
            "id": 84,
            "name": "Parry Sound—Muskoka"
          }
        ],
        "pollDivisionIds": [
          10141014,
          10143236
        ],
        "postalCode": "P0E1G0",
        "streetName": "NORTH KAHSHE LAKE",
        "streetDirectionId": null,
        "streetTypeId": "RD",
        "placeName": "KILWORTHY",
        "streetNameDisplayText": "NORTH KAHSHE LAKE RD, KILWORTHY"
      },
      {
        "electoralDistricts": [
          {
            "election": null,
            "id": 84,
            "name": "Parry Sound—Muskoka"
          }
        ],
        "pollDivisionIds": [
          10141014
        ],
        "postalCode": "P0E1G0",
        "streetName": "NORTH MORRISON LAKE",
        "streetDirectionId": "N",
        "streetTypeId": "RD",
        "placeName": "KILWORTHY",
        "streetNameDisplayText": "NORTH MORRISON LAKE RD N, KILWORTHY"
      },
      {
        "electoralDistricts": [
          {
            "election": null,
            "id": 84,
            "name": "Parry Sound—Muskoka"
          }
        ],
        "pollDivisionIds": [
          10141014
        ],
        "postalCode": "P0E1G0",
        "streetName": "NORTH SUNNY CREST",
        "streetDirectionId": "N",
        "streetTypeId": "RD",
        "placeName": "KILWORTHY",
        "streetNameDisplayText": "NORTH SUNNY CREST RD N, KILWORTHY"
      },
      {
        "electoralDistricts": [
          {
            "election": null,
            "id": 84,
            "name": "Parry Sound—Muskoka"
          }
        ],
        "pollDivisionIds": [
          10141014
        ],
        "postalCode": "P0E1G0",
        "streetName": "OAK",
        "streetDirectionId": null,
        "streetTypeId": "RD",
        "placeName": "KILWORTHY",
        "streetNameDisplayText": "OAK RD, KILWORTHY"
      },
      {
        "electoralDistricts": [
          {
            "election": null,
            "id": 84,
            "name": "Parry Sound—Muskoka"
          }
        ],
        "pollDivisionIds": [
          10140976
        ],
        "postalCode": "P0E1G0",
        "streetName": "OLD STONE",
        "streetDirectionId": "E",
        "streetTypeId": "RD",
        "placeName": "KILWORTHY",
        "streetNameDisplayText": "OLD STONE RD E, KILWORTHY"
      },
      {
        "electoralDistricts": [
          {
            "election": null,
            "id": 84,
            "name": "Parry Sound—Muskoka"
          }
        ],
        "pollDivisionIds": [
          10141014
        ],
        "postalCode": "P0E1G0",
        "streetName": "PICARD",
        "streetDirectionId": null,
        "streetTypeId": "LANE",
        "placeName": "KILWORTHY",
        "streetNameDisplayText": "PICARD LANE, KILWORTHY"
      },
      {
        "electoralDistricts": [
          {
            "election": null,
            "id": 84,
            "name": "Parry Sound—Muskoka"
          }
        ],
        "pollDivisionIds": [
          10141014
        ],
        "postalCode": "P0E1G0",
        "streetName": "POST OFFICE",
        "streetDirectionId": null,
        "streetTypeId": "RD",
        "placeName": "KILWORTHY",
        "streetNameDisplayText": "POST OFFICE RD, KILWORTHY"
      },
      {
        "electoralDistricts": [
          {
            "election": null,
            "id": 84,
            "name": "Parry Sound—Muskoka"
          }
        ],
        "pollDivisionIds": [
          10141014
        ],
        "postalCode": "P0E1G0",
        "streetName": "PRIAULX",
        "streetDirectionId": null,
        "streetTypeId": "RD",
        "placeName": "KILWORTHY",
        "streetNameDisplayText": "PRIAULX RD, KILWORTHY"
      },
      {
        "electoralDistricts": [
          {
            "election": null,
            "id": 84,
            "name": "Parry Sound—Muskoka"
          }
        ],
        "pollDivisionIds": [
          10141016
        ],
        "postalCode": "P0E1G0",
        "streetName": "RADFORD",
        "streetDirectionId": null,
        "streetTypeId": "RD",
        "placeName": "KILWORTHY",
        "streetNameDisplayText": "RADFORD RD, KILWORTHY"
      },
      {
        "electoralDistricts": [
          {
            "election": null,
            "id": 84,
            "name": "Parry Sound—Muskoka"
          }
        ],
        "pollDivisionIds": [
          10141017
        ],
        "postalCode": "P0E1G0",
        "streetName": "RAINBOW",
        "streetDirectionId": null,
        "streetTypeId": "CIR",
        "placeName": "KILWORTHY",
        "streetNameDisplayText": "RAINBOW CIR, KILWORTHY"
      },
      {
        "electoralDistricts": [
          {
            "election": null,
            "id": 84,
            "name": "Parry Sound—Muskoka"
          }
        ],
        "pollDivisionIds": [
          10141014
        ],
        "postalCode": "P0E1G0",
        "streetName": "REG SCHELL",
        "streetDirectionId": null,
        "streetTypeId": "RD",
        "placeName": "KILWORTHY",
        "streetNameDisplayText": "REG SCHELL RD, KILWORTHY"
      },
      {
        "electoralDistricts": [
          {
            "election": null,
            "id": 84,
            "name": "Parry Sound—Muskoka"
          }
        ],
        "pollDivisionIds": [
          10141017
        ],
        "postalCode": "P0E1G0",
        "streetName": "RIVER LANE",
        "streetDirectionId": null,
        "streetTypeId": "PVT",
        "placeName": "KILWORTHY",
        "streetNameDisplayText": "RIVER LANE PVT, KILWORTHY"
      },
      {
        "electoralDistricts": [
          {
            "election": null,
            "id": 84,
            "name": "Parry Sound—Muskoka"
          }
        ],
        "pollDivisionIds": [
          10141017
        ],
        "postalCode": "P0E1G0",
        "streetName": "RIVER",
        "streetDirectionId": null,
        "streetTypeId": "LANE",
        "placeName": "KILWORTHY",
        "streetNameDisplayText": "RIVER LANE, KILWORTHY"
      },
      {
        "electoralDistricts": [
          {
            "election": null,
            "id": 84,
            "name": "Parry Sound—Muskoka"
          }
        ],
        "pollDivisionIds": [
          10141014
        ],
        "postalCode": "P0E1G0",
        "streetName": "RIVERSIDE",
        "streetDirectionId": null,
        "streetTypeId": "TRAIL",
        "placeName": "KILWORTHY",
        "streetNameDisplayText": "RIVERSIDE TRAIL, KILWORTHY"
      },
      {
        "electoralDistricts": [
          {
            "election": null,
            "id": 84,
            "name": "Parry Sound—Muskoka"
          }
        ],
        "pollDivisionIds": [
          10141017
        ],
        "postalCode": "P0E1G0",
        "streetName": "ROCKCASTLE",
        "streetDirectionId": null,
        "streetTypeId": "RD",
        "placeName": "SEVERN BRIDGE",
        "streetNameDisplayText": "ROCKCASTLE RD, SEVERN BRIDGE"
      },
      {
        "electoralDistricts": [
          {
            "election": null,
            "id": 84,
            "name": "Parry Sound—Muskoka"
          }
        ],
        "pollDivisionIds": [
          10141017
        ],
        "postalCode": "P0E1G0",
        "streetName": "ROCKWOOD",
        "streetDirectionId": null,
        "streetTypeId": "RD",
        "placeName": "SEVERN BRIDGE",
        "streetNameDisplayText": "ROCKWOOD RD, SEVERN BRIDGE"
      },
      {
        "electoralDistricts": [
          {
            "election": null,
            "id": 84,
            "name": "Parry Sound—Muskoka"
          }
        ],
        "pollDivisionIds": [
          10141014
        ],
        "postalCode": "P0E1G0",
        "streetName": "S KAHSHE LAKE",
        "streetDirectionId": "S",
        "streetTypeId": "RD",
        "placeName": "KILWORTHY",
        "streetNameDisplayText": "S KAHSHE LAKE RD S, KILWORTHY"
      },
      {
        "electoralDistricts": [
          {
            "election": null,
            "id": 84,
            "name": "Parry Sound—Muskoka"
          }
        ],
        "pollDivisionIds": [
          10141014
        ],
        "postalCode": "P0E1G0",
        "streetName": "S KAHSHE LAKE RD. RR2",
        "streetDirectionId": "S",
        "streetTypeId": "RD",
        "placeName": "KILWORTHY",
        "streetNameDisplayText": "S KAHSHE LAKE RD. RR2 RD S, KILWORTHY"
      },
      {
        "electoralDistricts": [
          {
            "election": null,
            "id": 84,
            "name": "Parry Sound—Muskoka"
          }
        ],
        "pollDivisionIds": [
          10141016
        ],
        "postalCode": "P0E1G0",
        "streetName": "SAM COOK",
        "streetDirectionId": null,
        "streetTypeId": "RD",
        "placeName": "KILWORTHY",
        "streetNameDisplayText": "SAM COOK RD, KILWORTHY"
      },
      {
        "electoralDistricts": [
          {
            "election": null,
            "id": 84,
            "name": "Parry Sound—Muskoka"
          }
        ],
        "pollDivisionIds": [
          10141017
        ],
        "postalCode": "P0E1G0",
        "streetName": "SANDERSON",
        "streetDirectionId": null,
        "streetTypeId": "RD",
        "placeName": "KILWORTHY",
        "streetNameDisplayText": "SANDERSON RD, KILWORTHY"
      },
      {
        "electoralDistricts": [
          {
            "election": null,
            "id": 84,
            "name": "Parry Sound—Muskoka"
          }
        ],
        "pollDivisionIds": [
          10141017
        ],
        "postalCode": "P0E1G0",
        "streetName": "SEVERN RIVER",
        "streetDirectionId": "E",
        "streetTypeId": "RD",
        "placeName": "WASHAGO",
        "streetNameDisplayText": "SEVERN RIVER RD E, WASHAGO"
      },
      {
        "electoralDistricts": [
          {
            "election": null,
            "id": 84,
            "name": "Parry Sound—Muskoka"
          }
        ],
        "pollDivisionIds": [
          10141017
        ],
        "postalCode": "P0E1G0",
        "streetName": "SEVERN RIVER",
        "streetDirectionId": null,
        "streetTypeId": "RD",
        "placeName": "SEVERN BRIDGE",
        "streetNameDisplayText": "SEVERN RIVER RD, SEVERN BRIDGE"
      },
      {
        "electoralDistricts": [
          {
            "election": null,
            "id": 84,
            "name": "Parry Sound—Muskoka"
          }
        ],
        "pollDivisionIds": [
          10141017
        ],
        "postalCode": "P0E1G0",
        "streetName": "SEVERN RIVER",
        "streetDirectionId": null,
        "streetTypeId": "RD",
        "placeName": "WASHAGO",
        "streetNameDisplayText": "SEVERN RIVER RD, WASHAGO"
      },
      {
        "electoralDistricts": [
          {
            "election": null,
            "id": 84,
            "name": "Parry Sound—Muskoka"
          }
        ],
        "pollDivisionIds": [
          10143236
        ],
        "postalCode": "P0E1G0",
        "streetName": "SMITH",
        "streetDirectionId": null,
        "streetTypeId": "RD",
        "placeName": "KILWORTHY",
        "streetNameDisplayText": "SMITH RD, KILWORTHY"
      },
      {
        "electoralDistricts": [
          {
            "election": null,
            "id": 84,
            "name": "Parry Sound—Muskoka"
          }
        ],
        "pollDivisionIds": [
          10141014
        ],
        "postalCode": "P0E1G0",
        "streetName": "SOPHERS LANDING",
        "streetDirectionId": null,
        "streetTypeId": "RD",
        "placeName": "KILWORTHY",
        "streetNameDisplayText": "SOPHERS LANDING RD, KILWORTHY"
      },
      {
        "electoralDistricts": [
          {
            "election": null,
            "id": 84,
            "name": "Parry Sound—Muskoka"
          }
        ],
        "pollDivisionIds": [
          10141014
        ],
        "postalCode": "P0E1G0",
        "streetName": "SOPHER'S LANDING",
        "streetDirectionId": null,
        "streetTypeId": "RD",
        "placeName": "KILWORTHY",
        "streetNameDisplayText": "SOPHER'S LANDING RD, KILWORTHY"
      },
      {
        "electoralDistricts": [
          {
            "election": null,
            "id": 84,
            "name": "Parry Sound—Muskoka"
          }
        ],
        "pollDivisionIds": [
          10141014
        ],
        "postalCode": "P0E1G0",
        "streetName": "SOUTH BAY",
        "streetDirectionId": null,
        "streetTypeId": "RD",
        "placeName": "KILWORTHY",
        "streetNameDisplayText": "SOUTH BAY RD, KILWORTHY"
      },
      {
        "electoralDistricts": [
          {
            "election": null,
            "id": 84,
            "name": "Parry Sound—Muskoka"
          }
        ],
        "pollDivisionIds": [
          10143220,
          10141014
        ],
        "postalCode": "P0E1G0",
        "streetName": "SOUTH KAHSHE LAKE",
        "streetDirectionId": "S",
        "streetTypeId": "RD",
        "placeName": "KILWORTHY",
        "streetNameDisplayText": "SOUTH KAHSHE LAKE RD S, KILWORTHY"
      },
      {
        "electoralDistricts": [
          {
            "election": null,
            "id": 84,
            "name": "Parry Sound—Muskoka"
          }
        ],
        "pollDivisionIds": [
          10141014
        ],
        "postalCode": "P0E1G0",
        "streetName": "SOUTH MULDREW LAKE",
        "streetDirectionId": "S",
        "streetTypeId": "RD",
        "placeName": "KILWORTHY",
        "streetNameDisplayText": "SOUTH MULDREW LAKE RD S, KILWORTHY"
      },
      {
        "electoralDistricts": [
          {
            "election": null,
            "id": 84,
            "name": "Parry Sound—Muskoka"
          }
        ],
        "pollDivisionIds": [
          10143236,
          10141014,
          10141017
        ],
        "postalCode": "P0E1G0",
        "streetName": "SOUTHWOOD",
        "streetDirectionId": null,
        "streetTypeId": "RD",
        "placeName": "KILWORTHY",
        "streetNameDisplayText": "SOUTHWOOD RD, KILWORTHY"
      },
      {
        "electoralDistricts": [
          {
            "election": null,
            "id": 84,
            "name": "Parry Sound—Muskoka"
          }
        ],
        "pollDivisionIds": [
          10141017
        ],
        "postalCode": "P0E1G0",
        "streetName": "SOUTHWOOD",
        "streetDirectionId": null,
        "streetTypeId": "RD",
        "placeName": "SEVERN BRIDGE",
        "streetNameDisplayText": "SOUTHWOOD RD, SEVERN BRIDGE"
      },
      {
        "electoralDistricts": [
          {
            "election": null,
            "id": 84,
            "name": "Parry Sound—Muskoka"
          }
        ],
        "pollDivisionIds": [
          10143220,
          10141017
        ],
        "postalCode": "P0E1G0",
        "streetName": "SPARROW LAKE D",
        "streetDirectionId": null,
        "streetTypeId": "RTE",
        "placeName": "KILWORTHY",
        "streetNameDisplayText": "SPARROW LAKE D RTE, KILWORTHY"
      },
      {
        "electoralDistricts": [
          {
            "election": null,
            "id": 84,
            "name": "Parry Sound—Muskoka"
          }
        ],
        "pollDivisionIds": [
          10141017
        ],
        "postalCode": "P0E1G0",
        "streetName": "SPARROW LAKE 'D'",
        "streetDirectionId": null,
        "streetTypeId": "RTE",
        "placeName": "KILWORTHY",
        "streetNameDisplayText": "SPARROW LAKE 'D' RTE, KILWORTHY"
      },
      {
        "electoralDistricts": [
          {
            "election": null,
            "id": 84,
            "name": "Parry Sound—Muskoka"
          }
        ],
        "pollDivisionIds": [
          10141017
        ],
        "postalCode": "P0E1G0",
        "streetName": "SPARROW LAKE ROUTE 'D'",
        "streetDirectionId": null,
        "streetTypeId": "RTE",
        "placeName": "KILWORTHY",
        "streetNameDisplayText": "SPARROW LAKE ROUTE 'D' RTE, KILWORTHY"
      },
      {
        "electoralDistricts": [
          {
            "election": null,
            "id": 84,
            "name": "Parry Sound—Muskoka"
          }
        ],
        "pollDivisionIds": [
          10141017
        ],
        "postalCode": "P0E1G0",
        "streetName": "SPARROW LAKE ROUTE D",
        "streetDirectionId": null,
        "streetTypeId": null,
        "placeName": "KILWORTHY",
        "streetNameDisplayText": "SPARROW LAKE ROUTE D, KILWORTHY"
      },
      {
        "electoralDistricts": [
          {
            "election": null,
            "id": 84,
            "name": "Parry Sound—Muskoka"
          }
        ],
        "pollDivisionIds": [
          10141014
        ],
        "postalCode": "P0E1G0",
        "streetName": "SPARROW LK RTE D",
        "streetDirectionId": null,
        "streetTypeId": "RTE",
        "placeName": "KILWORTHY",
        "streetNameDisplayText": "SPARROW LK RTE D RTE, KILWORTHY"
      },
      {
        "electoralDistricts": [
          {
            "election": null,
            "id": 84,
            "name": "Parry Sound—Muskoka"
          }
        ],
        "pollDivisionIds": [
          10141014
        ],
        "postalCode": "P0E1G0",
        "streetName": "STARLING",
        "streetDirectionId": null,
        "streetTypeId": "BLVD",
        "placeName": "KILWORTHY",
        "streetNameDisplayText": "STARLING BLVD, KILWORTHY"
      },
      {
        "electoralDistricts": [
          {
            "election": null,
            "id": 84,
            "name": "Parry Sound—Muskoka"
          }
        ],
        "pollDivisionIds": [
          10141014
        ],
        "postalCode": "P0E1G0",
        "streetName": "SUNNY CREST",
        "streetDirectionId": "N",
        "streetTypeId": "RD",
        "placeName": "KILWORTHY",
        "streetNameDisplayText": "SUNNY CREST RD N, KILWORTHY"
      },
      {
        "electoralDistricts": [
          {
            "election": null,
            "id": 84,
            "name": "Parry Sound—Muskoka"
          }
        ],
        "pollDivisionIds": [
          10141014
        ],
        "postalCode": "P0E1G0",
        "streetName": "SUNNY CREST",
        "streetDirectionId": "S",
        "streetTypeId": "RD",
        "placeName": "KILWORTHY",
        "streetNameDisplayText": "SUNNY CREST RD S, KILWORTHY"
      },
      {
        "electoralDistricts": [
          {
            "election": null,
            "id": 84,
            "name": "Parry Sound—Muskoka"
          }
        ],
        "pollDivisionIds": [
          10141014
        ],
        "postalCode": "P0E1G0",
        "streetName": "TOWER",
        "streetDirectionId": null,
        "streetTypeId": "CRES",
        "placeName": "KILWORTHY",
        "streetNameDisplayText": "TOWER CRES, KILWORTHY"
      },
      {
        "electoralDistricts": [
          {
            "election": null,
            "id": 84,
            "name": "Parry Sound—Muskoka"
          }
        ],
        "pollDivisionIds": [
          10141014
        ],
        "postalCode": "P0E1G0",
        "streetName": "TRYON",
        "streetDirectionId": null,
        "streetTypeId": "DR",
        "placeName": "KILWORTHY",
        "streetNameDisplayText": "TRYON DR, KILWORTHY"
      },
      {
        "electoralDistricts": [
          {
            "election": null,
            "id": 84,
            "name": "Parry Sound—Muskoka"
          }
        ],
        "pollDivisionIds": [
          10143236
        ],
        "postalCode": "P0E1G0",
        "streetName": "TYRON",
        "streetDirectionId": null,
        "streetTypeId": "RD",
        "placeName": "KILWORTHY",
        "streetNameDisplayText": "TYRON RD, KILWORTHY"
      },
      {
        "electoralDistricts": [
          {
            "election": null,
            "id": 84,
            "name": "Parry Sound—Muskoka"
          }
        ],
        "pollDivisionIds": [
          10141017
        ],
        "postalCode": "P0E1G0",
        "streetName": "VALLEY",
        "streetDirectionId": null,
        "streetTypeId": "DR",
        "placeName": "SEVERN BRIDGE",
        "streetNameDisplayText": "VALLEY DR, SEVERN BRIDGE"
      },
      {
        "electoralDistricts": [
          {
            "election": null,
            "id": 84,
            "name": "Parry Sound—Muskoka"
          }
        ],
        "pollDivisionIds": [
          10141014
        ],
        "postalCode": "P0E1G0",
        "streetName": "WEST MORRISON TWP",
        "streetDirectionId": "W",
        "streetTypeId": null,
        "placeName": "KILWORTHY",
        "streetNameDisplayText": "WEST MORRISON TWP W, KILWORTHY"
      },
      {
        "electoralDistricts": [
          {
            "election": null,
            "id": 84,
            "name": "Parry Sound—Muskoka"
          }
        ],
        "pollDivisionIds": [
          10141014
        ],
        "postalCode": "P0E1G0",
        "streetName": "WESTBANK",
        "streetDirectionId": null,
        "streetTypeId": "DR",
        "placeName": "KILWORTHY",
        "streetNameDisplayText": "WESTBANK DR, KILWORTHY"
      },
      {
        "electoralDistricts": [
          {
            "election": null,
            "id": 84,
            "name": "Parry Sound—Muskoka"
          }
        ],
        "pollDivisionIds": [
          10141016
        ],
        "postalCode": "P0E1G0",
        "streetName": "WHITE EAGLE",
        "streetDirectionId": null,
        "streetTypeId": "RD",
        "placeName": "KILWORTHY",
        "streetNameDisplayText": "WHITE EAGLE RD, KILWORTHY"
      },
      {
        "electoralDistricts": [
          {
            "election": null,
            "id": 84,
            "name": "Parry Sound—Muskoka"
          }
        ],
        "pollDivisionIds": [
          10141014
        ],
        "postalCode": "P0E1G0",
        "streetName": "WIGWAM LODGE",
        "streetDirectionId": null,
        "streetTypeId": "RD",
        "placeName": "KILWORTHY",
        "streetNameDisplayText": "WIGWAM LODGE RD, KILWORTHY"
      },
      {
        "electoralDistricts": [
          {
            "election": null,
            "id": 84,
            "name": "Parry Sound—Muskoka"
          }
        ],
        "pollDivisionIds": [
          10141016
        ],
        "postalCode": "P0E1G0",
        "streetName": "WITBECK",
        "streetDirectionId": null,
        "streetTypeId": "RD",
        "placeName": "KILWORTHY",
        "streetNameDisplayText": "WITBECK RD, KILWORTHY"
      },
      {
        "electoralDistricts": [
          {
            "election": null,
            "id": 84,
            "name": "Parry Sound—Muskoka"
          }
        ],
        "pollDivisionIds": [
          10143236
        ],
        "postalCode": "P0E1G0",
        "streetName": "WOODLAND",
        "streetDirectionId": null,
        "streetTypeId": "DR",
        "placeName": "GRAVENHURST",
        "streetNameDisplayText": "WOODLAND DR, GRAVENHURST"
      },
      {
        "electoralDistricts": [
          {
            "election": null,
            "id": 84,
            "name": "Parry Sound—Muskoka"
          }
        ],
        "pollDivisionIds": [
          10143236
        ],
        "postalCode": "P0E1G0",
        "streetName": "WOODLAND",
        "streetDirectionId": null,
        "streetTypeId": "DR",
        "placeName": "KILWORTHY",
        "streetNameDisplayText": "WOODLAND DR, KILWORTHY"
      }
    ]
  },
  {
    "postal": "P0E1N0",
    "result": [
      {
        "electoralDistricts": [
          {
            "election": null,
            "id": 84,
            "name": "Parry Sound—Muskoka"
          }
        ],
        "pollDivisionIds": [
          10141017
        ],
        "postalCode": "P0E1N0",
        "streetName": "11",
        "streetDirectionId": "N",
        "streetTypeId": "HWY",
        "placeName": "SEVERN BRIDGE",
        "streetNameDisplayText": "11 HWY N, SEVERN BRIDGE"
      },
      {
        "electoralDistricts": [
          {
            "election": null,
            "id": 84,
            "name": "Parry Sound—Muskoka"
          }
        ],
        "pollDivisionIds": [
          10141017
        ],
        "postalCode": "P0E1N0",
        "streetName": "11",
        "streetDirectionId": null,
        "streetTypeId": "HWY",
        "placeName": "SEVERN BRIDGE",
        "streetNameDisplayText": "11 HWY, SEVERN BRIDGE"
      },
      {
        "electoralDistricts": [
          {
            "election": null,
            "id": 100,
            "name": "Simcoe North"
          }
        ],
        "pollDivisionIds": [
          10141911
        ],
        "postalCode": "P0E1N0",
        "streetName": "11",
        "streetDirectionId": null,
        "streetTypeId": "HWY",
        "placeName": "WASHAGO",
        "streetNameDisplayText": "11 HWY, WASHAGO"
      },
      {
        "electoralDistricts": [
          {
            "election": null,
            "id": 84,
            "name": "Parry Sound—Muskoka"
          }
        ],
        "pollDivisionIds": [
          10141017
        ],
        "postalCode": "P0E1N0",
        "streetName": "ALANA",
        "streetDirectionId": null,
        "streetTypeId": "BLVD",
        "placeName": "SEVERN BRIDGE",
        "streetNameDisplayText": "ALANA BLVD, SEVERN BRIDGE"
      },
      {
        "electoralDistricts": [
          {
            "election": null,
            "id": 84,
            "name": "Parry Sound—Muskoka"
          }
        ],
        "pollDivisionIds": [
          10141017
        ],
        "postalCode": "P0E1N0",
        "streetName": "ART CRISP",
        "streetDirectionId": null,
        "streetTypeId": "RD",
        "placeName": "SEVERN BRIDGE",
        "streetNameDisplayText": "ART CRISP RD, SEVERN BRIDGE"
      },
      {
        "electoralDistricts": [
          {
            "election": null,
            "id": 84,
            "name": "Parry Sound—Muskoka"
          }
        ],
        "pollDivisionIds": [
          10141017
        ],
        "postalCode": "P0E1N0",
        "streetName": "BAGLEY",
        "streetDirectionId": null,
        "streetTypeId": "RD",
        "placeName": "SEVERN BRIDGE",
        "streetNameDisplayText": "BAGLEY RD, SEVERN BRIDGE"
      },
      {
        "electoralDistricts": [
          {
            "election": null,
            "id": 100,
            "name": "Simcoe North"
          }
        ],
        "pollDivisionIds": [
          10141893
        ],
        "postalCode": "P0E1N0",
        "streetName": "BALDY",
        "streetDirectionId": null,
        "streetTypeId": "LANE",
        "placeName": "SEVERN BRIDGE",
        "streetNameDisplayText": "BALDY LANE, SEVERN BRIDGE"
      },
      {
        "electoralDistricts": [
          {
            "election": null,
            "id": 84,
            "name": "Parry Sound—Muskoka"
          }
        ],
        "pollDivisionIds": [
          10141017
        ],
        "postalCode": "P0E1N0",
        "streetName": "BASE LINE",
        "streetDirectionId": null,
        "streetTypeId": "RD",
        "placeName": "SEVERN BRIDGE",
        "streetNameDisplayText": "BASE LINE RD, SEVERN BRIDGE"
      },
      {
        "electoralDistricts": [
          {
            "election": null,
            "id": 84,
            "name": "Parry Sound—Muskoka"
          }
        ],
        "pollDivisionIds": [
          10141017
        ],
        "postalCode": "P0E1N0",
        "streetName": "BASELINE",
        "streetDirectionId": null,
        "streetTypeId": "RD",
        "placeName": "SEVERN BRIDGE",
        "streetNameDisplayText": "BASELINE RD, SEVERN BRIDGE"
      },
      {
        "electoralDistricts": [
          {
            "election": null,
            "id": 84,
            "name": "Parry Sound—Muskoka"
          }
        ],
        "pollDivisionIds": [
          10141017
        ],
        "postalCode": "P0E1N0",
        "streetName": "BEA-DALE",
        "streetDirectionId": null,
        "streetTypeId": "LANE",
        "placeName": "SEVERN BRIDGE",
        "streetNameDisplayText": "BEA-DALE LANE, SEVERN BRIDGE"
      },
      {
        "electoralDistricts": [
          {
            "election": null,
            "id": 100,
            "name": "Simcoe North"
          }
        ],
        "pollDivisionIds": [
          10141893
        ],
        "postalCode": "P0E1N0",
        "streetName": "BENNETT",
        "streetDirectionId": null,
        "streetTypeId": "AVE",
        "placeName": "SEVERN BRIDGE",
        "streetNameDisplayText": "BENNETT AVE, SEVERN BRIDGE"
      },
      {
        "electoralDistricts": [
          {
            "election": null,
            "id": 100,
            "name": "Simcoe North"
          }
        ],
        "pollDivisionIds": [
          10141911
        ],
        "postalCode": "P0E1N0",
        "streetName": "BRADY",
        "streetDirectionId": null,
        "streetTypeId": "DR",
        "placeName": "SEVERN BRIDGE",
        "streetNameDisplayText": "BRADY DR, SEVERN BRIDGE"
      },
      {
        "electoralDistricts": [
          {
            "election": null,
            "id": 100,
            "name": "Simcoe North"
          }
        ],
        "pollDivisionIds": [
          10141893
        ],
        "postalCode": "P0E1N0",
        "streetName": "BUCK LAKE",
        "streetDirectionId": null,
        "streetTypeId": "BEND",
        "placeName": "SEVERN BRIDGE",
        "streetNameDisplayText": "BUCK LAKE BEND, SEVERN BRIDGE"
      },
      {
        "electoralDistricts": [
          {
            "election": null,
            "id": 100,
            "name": "Simcoe North"
          }
        ],
        "pollDivisionIds": [
          10141893
        ],
        "postalCode": "P0E1N0",
        "streetName": "CAMBRIAN",
        "streetDirectionId": null,
        "streetTypeId": "RD",
        "placeName": "SEVERN BRIDGE",
        "streetNameDisplayText": "CAMBRIAN RD, SEVERN BRIDGE"
      },
      {
        "electoralDistricts": [
          {
            "election": null,
            "id": 84,
            "name": "Parry Sound—Muskoka"
          }
        ],
        "pollDivisionIds": [
          10141017
        ],
        "postalCode": "P0E1N0",
        "streetName": "CANNING",
        "streetDirectionId": null,
        "streetTypeId": "RD",
        "placeName": "SEVERN BRIDGE",
        "streetNameDisplayText": "CANNING RD, SEVERN BRIDGE"
      },
      {
        "electoralDistricts": [
          {
            "election": null,
            "id": 84,
            "name": "Parry Sound—Muskoka"
          }
        ],
        "pollDivisionIds": [
          10141017
        ],
        "postalCode": "P0E1N0",
        "streetName": "CATHERINE BAGLEY",
        "streetDirectionId": null,
        "streetTypeId": "LANE",
        "placeName": "SEVERN BRIDGE",
        "streetNameDisplayText": "CATHERINE BAGLEY LANE, SEVERN BRIDGE"
      },
      {
        "electoralDistricts": [
          {
            "election": null,
            "id": 84,
            "name": "Parry Sound—Muskoka"
          }
        ],
        "pollDivisionIds": [
          10141017
        ],
        "postalCode": "P0E1N0",
        "streetName": "CATHERINE BAGLEY",
        "streetDirectionId": null,
        "streetTypeId": "RD",
        "placeName": "SEVERN BRIDGE",
        "streetNameDisplayText": "CATHERINE BAGLEY RD, SEVERN BRIDGE"
      },
      {
        "electoralDistricts": [
          {
            "election": null,
            "id": 100,
            "name": "Simcoe North"
          }
        ],
        "pollDivisionIds": [
          10141893
        ],
        "postalCode": "P0E1N0",
        "streetName": "CECIL",
        "streetDirectionId": null,
        "streetTypeId": "RD",
        "placeName": "SEVERN BRIDGE",
        "streetNameDisplayText": "CECIL RD, SEVERN BRIDGE"
      },
      {
        "electoralDistricts": [
          {
            "election": null,
            "id": 100,
            "name": "Simcoe North"
          },
          {
            "election": null,
            "id": 84,
            "name": "Parry Sound—Muskoka"
          }
        ],
        "pollDivisionIds": [
          10141911,
          10141017
        ],
        "postalCode": "P0E1N0",
        "streetName": "COOPERS FALLS",
        "streetDirectionId": null,
        "streetTypeId": "RD",
        "placeName": "SEVERN BRIDGE",
        "streetNameDisplayText": "COOPERS FALLS RD, SEVERN BRIDGE"
      },
      {
        "electoralDistricts": [
          {
            "election": null,
            "id": 100,
            "name": "Simcoe North"
          }
        ],
        "pollDivisionIds": [
          10144029
        ],
        "postalCode": "P0E1N0",
        "streetName": "COUNTY RD 169",
        "streetDirectionId": null,
        "streetTypeId": null,
        "placeName": "ORILLIA",
        "streetNameDisplayText": "COUNTY RD 169, ORILLIA"
      },
      {
        "electoralDistricts": [
          {
            "election": null,
            "id": 84,
            "name": "Parry Sound—Muskoka"
          }
        ],
        "pollDivisionIds": [
          10141017
        ],
        "postalCode": "P0E1N0",
        "streetName": "COWBELL",
        "streetDirectionId": null,
        "streetTypeId": "LANE",
        "placeName": "SEVERN BRIDGE",
        "streetNameDisplayText": "COWBELL LANE, SEVERN BRIDGE"
      },
      {
        "electoralDistricts": [
          {
            "election": null,
            "id": 84,
            "name": "Parry Sound—Muskoka"
          }
        ],
        "pollDivisionIds": [
          10141017
        ],
        "postalCode": "P0E1N0",
        "streetName": "COX",
        "streetDirectionId": null,
        "streetTypeId": "RD",
        "placeName": "SEVERN BRIDGE",
        "streetNameDisplayText": "COX RD, SEVERN BRIDGE"
      },
      {
        "electoralDistricts": [
          {
            "election": null,
            "id": 84,
            "name": "Parry Sound—Muskoka"
          }
        ],
        "pollDivisionIds": [
          10141017
        ],
        "postalCode": "P0E1N0",
        "streetName": "DAVIS",
        "streetDirectionId": null,
        "streetTypeId": "DR",
        "placeName": "SEVERN BRIDGE",
        "streetNameDisplayText": "DAVIS DR, SEVERN BRIDGE"
      },
      {
        "electoralDistricts": [
          {
            "election": null,
            "id": 100,
            "name": "Simcoe North"
          }
        ],
        "pollDivisionIds": [
          10141893
        ],
        "postalCode": "P0E1N0",
        "streetName": "DEEP BAY",
        "streetDirectionId": null,
        "streetTypeId": "BLVD",
        "placeName": "SEVERN BRIDGE",
        "streetNameDisplayText": "DEEP BAY BLVD, SEVERN BRIDGE"
      },
      {
        "electoralDistricts": [
          {
            "election": null,
            "id": 100,
            "name": "Simcoe North"
          }
        ],
        "pollDivisionIds": [
          10141893
        ],
        "postalCode": "P0E1N0",
        "streetName": "DELTA",
        "streetDirectionId": null,
        "streetTypeId": "RD",
        "placeName": "SEVERN BRIDGE",
        "streetNameDisplayText": "DELTA RD, SEVERN BRIDGE"
      },
      {
        "electoralDistricts": [
          {
            "election": null,
            "id": 84,
            "name": "Parry Sound—Muskoka"
          }
        ],
        "pollDivisionIds": [
          10141017
        ],
        "postalCode": "P0E1N0",
        "streetName": "EAST SEVERN RIVER",
        "streetDirectionId": "E",
        "streetTypeId": "RD",
        "placeName": "SEVERN BRIDGE",
        "streetNameDisplayText": "EAST SEVERN RIVER RD E, SEVERN BRIDGE"
      },
      {
        "electoralDistricts": [
          {
            "election": null,
            "id": 84,
            "name": "Parry Sound—Muskoka"
          }
        ],
        "pollDivisionIds": [
          10141017
        ],
        "postalCode": "P0E1N0",
        "streetName": "FOUR SEASONS",
        "streetDirectionId": null,
        "streetTypeId": "RD",
        "placeName": "SEVERN BRIDGE",
        "streetNameDisplayText": "FOUR SEASONS RD, SEVERN BRIDGE"
      },
      {
        "electoralDistricts": [
          {
            "election": null,
            "id": 84,
            "name": "Parry Sound—Muskoka"
          }
        ],
        "pollDivisionIds": [
          10141017
        ],
        "postalCode": "P0E1N0",
        "streetName": "GODFREY",
        "streetDirectionId": null,
        "streetTypeId": "RD",
        "placeName": "SEVERN BRIDGE",
        "streetNameDisplayText": "GODFREY RD, SEVERN BRIDGE"
      },
      {
        "electoralDistricts": [
          {
            "election": null,
            "id": 84,
            "name": "Parry Sound—Muskoka"
          }
        ],
        "pollDivisionIds": [
          10141017
        ],
        "postalCode": "P0E1N0",
        "streetName": "GRAHAM",
        "streetDirectionId": null,
        "streetTypeId": "RD",
        "placeName": "SEVERN BRIDGE",
        "streetNameDisplayText": "GRAHAM RD, SEVERN BRIDGE"
      },
      {
        "electoralDistricts": [
          {
            "election": null,
            "id": 100,
            "name": "Simcoe North"
          }
        ],
        "pollDivisionIds": [
          10141893
        ],
        "postalCode": "P0E1N0",
        "streetName": "GRANDVIEW LODGE",
        "streetDirectionId": null,
        "streetTypeId": "RD",
        "placeName": "SEVERN BRIDGE",
        "streetNameDisplayText": "GRANDVIEW LODGE RD, SEVERN BRIDGE"
      },
      {
        "electoralDistricts": [
          {
            "election": null,
            "id": 100,
            "name": "Simcoe North"
          }
        ],
        "pollDivisionIds": [
          10141893
        ],
        "postalCode": "P0E1N0",
        "streetName": "GRANGE",
        "streetDirectionId": null,
        "streetTypeId": "AVE",
        "placeName": "SEVERN BRIDGE",
        "streetNameDisplayText": "GRANGE AVE, SEVERN BRIDGE"
      },
      {
        "electoralDistricts": [
          {
            "election": null,
            "id": 100,
            "name": "Simcoe North"
          }
        ],
        "pollDivisionIds": [
          10141893
        ],
        "postalCode": "P0E1N0",
        "streetName": "GREENWOOD",
        "streetDirectionId": null,
        "streetTypeId": "LANE",
        "placeName": "SEVERN BRIDGE",
        "streetNameDisplayText": "GREENWOOD LANE, SEVERN BRIDGE"
      },
      {
        "electoralDistricts": [
          {
            "election": null,
            "id": 100,
            "name": "Simcoe North"
          }
        ],
        "pollDivisionIds": [
          10141893
        ],
        "postalCode": "P0E1N0",
        "streetName": "HAERTEL",
        "streetDirectionId": null,
        "streetTypeId": "LANE",
        "placeName": "SEVERN BRIDGE",
        "streetNameDisplayText": "HAERTEL LANE, SEVERN BRIDGE"
      },
      {
        "electoralDistricts": [
          {
            "election": null,
            "id": 100,
            "name": "Simcoe North"
          }
        ],
        "pollDivisionIds": [
          10141893
        ],
        "postalCode": "P0E1N0",
        "streetName": "HAMLET",
        "streetDirectionId": null,
        "streetTypeId": "TRAIL",
        "placeName": "SEVERN BRIDGE",
        "streetNameDisplayText": "HAMLET TRAIL, SEVERN BRIDGE"
      },
      {
        "electoralDistricts": [
          {
            "election": null,
            "id": 84,
            "name": "Parry Sound—Muskoka"
          }
        ],
        "pollDivisionIds": [
          10141017
        ],
        "postalCode": "P0E1N0",
        "streetName": "HARTLEY",
        "streetDirectionId": null,
        "streetTypeId": "RD",
        "placeName": "SEVERN BRIDGE",
        "streetNameDisplayText": "HARTLEY RD, SEVERN BRIDGE"
      },
      {
        "electoralDistricts": [
          {
            "election": null,
            "id": 100,
            "name": "Simcoe North"
          }
        ],
        "pollDivisionIds": [
          10141875
        ],
        "postalCode": "P0E1N0",
        "streetName": "HIGHWAY 11",
        "streetDirectionId": "S",
        "streetTypeId": null,
        "placeName": "SEVERN BRIDGE",
        "streetNameDisplayText": "HIGHWAY 11 S, SEVERN BRIDGE"
      },
      {
        "electoralDistricts": [
          {
            "election": null,
            "id": 100,
            "name": "Simcoe North"
          }
        ],
        "pollDivisionIds": [
          10141893
        ],
        "postalCode": "P0E1N0",
        "streetName": "HORD",
        "streetDirectionId": null,
        "streetTypeId": "WAY",
        "placeName": "SEVERN BRIDGE",
        "streetNameDisplayText": "HORD WAY, SEVERN BRIDGE"
      },
      {
        "electoralDistricts": [
          {
            "election": null,
            "id": 84,
            "name": "Parry Sound—Muskoka"
          }
        ],
        "pollDivisionIds": [
          10141017
        ],
        "postalCode": "P0E1N0",
        "streetName": "HOUSEYS RAPIDS",
        "streetDirectionId": null,
        "streetTypeId": "RD",
        "placeName": "WASHAGO",
        "streetNameDisplayText": "HOUSEYS RAPIDS RD, WASHAGO"
      },
      {
        "electoralDistricts": [
          {
            "election": null,
            "id": 100,
            "name": "Simcoe North"
          }
        ],
        "pollDivisionIds": [
          10141893
        ],
        "postalCode": "P0E1N0",
        "streetName": "IRON BRIDGE",
        "streetDirectionId": null,
        "streetTypeId": "LANE",
        "placeName": "SEVERN BRIDGE",
        "streetNameDisplayText": "IRON BRIDGE LANE, SEVERN BRIDGE"
      },
      {
        "electoralDistricts": [
          {
            "election": null,
            "id": 84,
            "name": "Parry Sound—Muskoka"
          }
        ],
        "pollDivisionIds": [
          10141017
        ],
        "postalCode": "P0E1N0",
        "streetName": "JOSEPH",
        "streetDirectionId": null,
        "streetTypeId": "PL",
        "placeName": "SEVERN BRIDGE",
        "streetNameDisplayText": "JOSEPH PL, SEVERN BRIDGE"
      },
      {
        "electoralDistricts": [
          {
            "election": null,
            "id": 84,
            "name": "Parry Sound—Muskoka"
          }
        ],
        "pollDivisionIds": [
          10141017
        ],
        "postalCode": "P0E1N0",
        "streetName": "JOSEPH",
        "streetDirectionId": null,
        "streetTypeId": "PLACE",
        "placeName": "SEVERN BRIDGE",
        "streetNameDisplayText": "JOSEPH PLACE, SEVERN BRIDGE"
      },
      {
        "electoralDistricts": [
          {
            "election": null,
            "id": 100,
            "name": "Simcoe North"
          }
        ],
        "pollDivisionIds": [
          10141893
        ],
        "postalCode": "P0E1N0",
        "streetName": "LAUDERDALE POINT",
        "streetDirectionId": null,
        "streetTypeId": "CRES",
        "placeName": "SEVERN BRIDGE",
        "streetNameDisplayText": "LAUDERDALE POINT CRES, SEVERN BRIDGE"
      },
      {
        "electoralDistricts": [
          {
            "election": null,
            "id": 84,
            "name": "Parry Sound—Muskoka"
          }
        ],
        "pollDivisionIds": [
          10140958
        ],
        "postalCode": "P0E1N0",
        "streetName": "MANSON LAKE",
        "streetDirectionId": null,
        "streetTypeId": null,
        "placeName": "DUNCHURCH",
        "streetNameDisplayText": "MANSON LAKE, DUNCHURCH"
      },
      {
        "electoralDistricts": [
          {
            "election": null,
            "id": 84,
            "name": "Parry Sound—Muskoka"
          }
        ],
        "pollDivisionIds": [
          10141017
        ],
        "postalCode": "P0E1N0",
        "streetName": "MANSON",
        "streetDirectionId": null,
        "streetTypeId": "LANE",
        "placeName": "SEVERN BRIDGE",
        "streetNameDisplayText": "MANSON LANE, SEVERN BRIDGE"
      },
      {
        "electoralDistricts": [
          {
            "election": null,
            "id": 100,
            "name": "Simcoe North"
          }
        ],
        "pollDivisionIds": [
          10141893
        ],
        "postalCode": "P0E1N0",
        "streetName": "MCDEVITT",
        "streetDirectionId": null,
        "streetTypeId": "TRAIL",
        "placeName": "SEVERN BRIDGE",
        "streetNameDisplayText": "MCDEVITT TRAIL, SEVERN BRIDGE"
      },
      {
        "electoralDistricts": [
          {
            "election": null,
            "id": 100,
            "name": "Simcoe North"
          }
        ],
        "pollDivisionIds": [
          10141893
        ],
        "postalCode": "P0E1N0",
        "streetName": "MCDONALD",
        "streetDirectionId": null,
        "streetTypeId": "BLVD",
        "placeName": "SEVERN BRIDGE",
        "streetNameDisplayText": "MCDONALD BLVD, SEVERN BRIDGE"
      },
      {
        "electoralDistricts": [
          {
            "election": null,
            "id": 100,
            "name": "Simcoe North"
          }
        ],
        "pollDivisionIds": [
          10141893
        ],
        "postalCode": "P0E1N0",
        "streetName": "MCLEOD",
        "streetDirectionId": null,
        "streetTypeId": "DR",
        "placeName": "SEVERN BRIDGE",
        "streetNameDisplayText": "MCLEOD DR, SEVERN BRIDGE"
      },
      {
        "electoralDistricts": [
          {
            "election": null,
            "id": 84,
            "name": "Parry Sound—Muskoka"
          }
        ],
        "pollDivisionIds": [
          10141017
        ],
        "postalCode": "P0E1N0",
        "streetName": "MITCHELL",
        "streetDirectionId": null,
        "streetTypeId": "RD",
        "placeName": "SEVERN BRIDGE",
        "streetNameDisplayText": "MITCHELL RD, SEVERN BRIDGE"
      },
      {
        "electoralDistricts": [
          {
            "election": null,
            "id": 100,
            "name": "Simcoe North"
          }
        ],
        "pollDivisionIds": [
          10141893
        ],
        "postalCode": "P0E1N0",
        "streetName": "MUCKLE VALLEY",
        "streetDirectionId": null,
        "streetTypeId": "RD",
        "placeName": "SEVERN BRIDGE",
        "streetNameDisplayText": "MUCKLE VALLEY RD, SEVERN BRIDGE"
      },
      {
        "electoralDistricts": [
          {
            "election": null,
            "id": 100,
            "name": "Simcoe North"
          }
        ],
        "pollDivisionIds": [
          10141893
        ],
        "postalCode": "P0E1N0",
        "streetName": "ORIMAT",
        "streetDirectionId": null,
        "streetTypeId": "RD",
        "placeName": "SEVERN BRIDGE",
        "streetNameDisplayText": "ORIMAT RD, SEVERN BRIDGE"
      },
      {
        "electoralDistricts": [
          {
            "election": null,
            "id": 100,
            "name": "Simcoe North"
          }
        ],
        "pollDivisionIds": [
          10141893
        ],
        "postalCode": "P0E1N0",
        "streetName": "OTTO ROEHL",
        "streetDirectionId": null,
        "streetTypeId": "LANE",
        "placeName": "SEVERN BRIDGE",
        "streetNameDisplayText": "OTTO ROEHL LANE, SEVERN BRIDGE"
      },
      {
        "electoralDistricts": [
          {
            "election": null,
            "id": 84,
            "name": "Parry Sound—Muskoka"
          }
        ],
        "pollDivisionIds": [
          10141017
        ],
        "postalCode": "P0E1N0",
        "streetName": "PASTURE",
        "streetDirectionId": null,
        "streetTypeId": "LANE",
        "placeName": "SEVERN BRIDGE",
        "streetNameDisplayText": "PASTURE LANE, SEVERN BRIDGE"
      },
      {
        "electoralDistricts": [
          {
            "election": null,
            "id": 100,
            "name": "Simcoe North"
          }
        ],
        "pollDivisionIds": [
          10141893
        ],
        "postalCode": "P0E1N0",
        "streetName": "PENINSULA POINT",
        "streetDirectionId": null,
        "streetTypeId": "RD",
        "placeName": "SEVERN BRIDGE",
        "streetNameDisplayText": "PENINSULA POINT RD, SEVERN BRIDGE"
      },
      {
        "electoralDistricts": [
          {
            "election": null,
            "id": 100,
            "name": "Simcoe North"
          }
        ],
        "pollDivisionIds": [
          10141893
        ],
        "postalCode": "P0E1N0",
        "streetName": "PENINSULA PT",
        "streetDirectionId": null,
        "streetTypeId": "RD",
        "placeName": "SEVERN BRIDGE",
        "streetNameDisplayText": "PENINSULA PT RD, SEVERN BRIDGE"
      },
      {
        "electoralDistricts": [
          {
            "election": null,
            "id": 100,
            "name": "Simcoe North"
          }
        ],
        "pollDivisionIds": [
          10141893
        ],
        "postalCode": "P0E1N0",
        "streetName": "PENTON",
        "streetDirectionId": null,
        "streetTypeId": "PKY",
        "placeName": "SEVERN BRIDGE",
        "streetNameDisplayText": "PENTON PKY, SEVERN BRIDGE"
      },
      {
        "electoralDistricts": [
          {
            "election": null,
            "id": 100,
            "name": "Simcoe North"
          }
        ],
        "pollDivisionIds": [
          10141893
        ],
        "postalCode": "P0E1N0",
        "streetName": "PINEGROVE",
        "streetDirectionId": null,
        "streetTypeId": "LANE",
        "placeName": "SEVERN BRIDGE",
        "streetNameDisplayText": "PINEGROVE LANE, SEVERN BRIDGE"
      },
      {
        "electoralDistricts": [
          {
            "election": null,
            "id": 100,
            "name": "Simcoe North"
          }
        ],
        "pollDivisionIds": [
          10141893
        ],
        "postalCode": "P0E1N0",
        "streetName": "PORT STANTON",
        "streetDirectionId": null,
        "streetTypeId": "PKY",
        "placeName": "SEVERN BRIDGE",
        "streetNameDisplayText": "PORT STANTON PKY, SEVERN BRIDGE"
      },
      {
        "electoralDistricts": [
          {
            "election": null,
            "id": 100,
            "name": "Simcoe North"
          }
        ],
        "pollDivisionIds": [
          10141893
        ],
        "postalCode": "P0E1N0",
        "streetName": "RAGGED RAPIDS",
        "streetDirectionId": null,
        "streetTypeId": "TRAIL",
        "placeName": "SEVERN BRIDGE",
        "streetNameDisplayText": "RAGGED RAPIDS TRAIL, SEVERN BRIDGE"
      },
      {
        "electoralDistricts": [
          {
            "election": null,
            "id": 100,
            "name": "Simcoe North"
          }
        ],
        "pollDivisionIds": [
          10141893
        ],
        "postalCode": "P0E1N0",
        "streetName": "RAPIDS",
        "streetDirectionId": null,
        "streetTypeId": "RUN",
        "placeName": "SEVERN BRIDGE",
        "streetNameDisplayText": "RAPIDS RUN, SEVERN BRIDGE"
      },
      {
        "electoralDistricts": [
          {
            "election": null,
            "id": 84,
            "name": "Parry Sound—Muskoka"
          }
        ],
        "pollDivisionIds": [
          10141017
        ],
        "postalCode": "P0E1N0",
        "streetName": "RENEE",
        "streetDirectionId": null,
        "streetTypeId": "DR",
        "placeName": "SEVERN BRIDGE",
        "streetNameDisplayText": "RENEE DR, SEVERN BRIDGE"
      },
      {
        "electoralDistricts": [
          {
            "election": null,
            "id": 100,
            "name": "Simcoe North"
          }
        ],
        "pollDivisionIds": [
          10141893
        ],
        "postalCode": "P0E1N0",
        "streetName": "RIVERVIEW",
        "streetDirectionId": null,
        "streetTypeId": "DR",
        "placeName": "SEVERN BRIDGE",
        "streetNameDisplayText": "RIVERVIEW DR, SEVERN BRIDGE"
      },
      {
        "electoralDistricts": [
          {
            "election": null,
            "id": 84,
            "name": "Parry Sound—Muskoka"
          }
        ],
        "pollDivisionIds": [
          10141017
        ],
        "postalCode": "P0E1N0",
        "streetName": "ROCKCASTLE",
        "streetDirectionId": null,
        "streetTypeId": "RD",
        "placeName": "SEVERN BRIDGE",
        "streetNameDisplayText": "ROCKCASTLE RD, SEVERN BRIDGE"
      },
      {
        "electoralDistricts": [
          {
            "election": null,
            "id": 84,
            "name": "Parry Sound—Muskoka"
          }
        ],
        "pollDivisionIds": [
          10141017
        ],
        "postalCode": "P0E1N0",
        "streetName": "SEVERN RIVER",
        "streetDirectionId": "E",
        "streetTypeId": "RD",
        "placeName": "SEVERN BRIDGE",
        "streetNameDisplayText": "SEVERN RIVER RD E, SEVERN BRIDGE"
      },
      {
        "electoralDistricts": [
          {
            "election": null,
            "id": 84,
            "name": "Parry Sound—Muskoka"
          }
        ],
        "pollDivisionIds": [
          10141017
        ],
        "postalCode": "P0E1N0",
        "streetName": "SEVERN RIVER",
        "streetDirectionId": null,
        "streetTypeId": "RD",
        "placeName": "SEVERN BRIDGE",
        "streetNameDisplayText": "SEVERN RIVER RD, SEVERN BRIDGE"
      },
      {
        "electoralDistricts": [
          {
            "election": null,
            "id": 100,
            "name": "Simcoe North"
          }
        ],
        "pollDivisionIds": [
          10141911
        ],
        "postalCode": "P0E1N0",
        "streetName": "SEVERN",
        "streetDirectionId": null,
        "streetTypeId": "ST",
        "placeName": "SEVERN BRIDGE",
        "streetNameDisplayText": "SEVERN ST, SEVERN BRIDGE"
      },
      {
        "electoralDistricts": [
          {
            "election": null,
            "id": 84,
            "name": "Parry Sound—Muskoka"
          }
        ],
        "pollDivisionIds": [
          10141017
        ],
        "postalCode": "P0E1N0",
        "streetName": "SHALLOW BAY",
        "streetDirectionId": null,
        "streetTypeId": "RD",
        "placeName": "SEVERN BRIDGE",
        "streetNameDisplayText": "SHALLOW BAY RD, SEVERN BRIDGE"
      },
      {
        "electoralDistricts": [
          {
            "election": null,
            "id": 84,
            "name": "Parry Sound—Muskoka"
          }
        ],
        "pollDivisionIds": [
          10141017
        ],
        "postalCode": "P0E1N0",
        "streetName": "SHAMROCK MARINA",
        "streetDirectionId": null,
        "streetTypeId": "RD",
        "placeName": "SEVERN BRIDGE",
        "streetNameDisplayText": "SHAMROCK MARINA RD, SEVERN BRIDGE"
      },
      {
        "electoralDistricts": [
          {
            "election": null,
            "id": 84,
            "name": "Parry Sound—Muskoka"
          }
        ],
        "pollDivisionIds": [
          10141017
        ],
        "postalCode": "P0E1N0",
        "streetName": "SHAMROCK",
        "streetDirectionId": null,
        "streetTypeId": "RD",
        "placeName": "SEVERN BRIDGE",
        "streetNameDisplayText": "SHAMROCK RD, SEVERN BRIDGE"
      },
      {
        "electoralDistricts": [
          {
            "election": null,
            "id": 100,
            "name": "Simcoe North"
          }
        ],
        "pollDivisionIds": [
          10141893
        ],
        "postalCode": "P0E1N0",
        "streetName": "SOUTH SPARROW LAKE",
        "streetDirectionId": null,
        "streetTypeId": "RD",
        "placeName": "SEVERN BRIDGE",
        "streetNameDisplayText": "SOUTH SPARROW LAKE RD, SEVERN BRIDGE"
      },
      {
        "electoralDistricts": [
          {
            "election": null,
            "id": 84,
            "name": "Parry Sound—Muskoka"
          }
        ],
        "pollDivisionIds": [
          10143236
        ],
        "postalCode": "P0E1N0",
        "streetName": "SOUTHWOOD",
        "streetDirectionId": null,
        "streetTypeId": "RD",
        "placeName": "GRAVENHURST",
        "streetNameDisplayText": "SOUTHWOOD RD, GRAVENHURST"
      },
      {
        "electoralDistricts": [
          {
            "election": null,
            "id": 84,
            "name": "Parry Sound—Muskoka"
          }
        ],
        "pollDivisionIds": [
          10141017
        ],
        "postalCode": "P0E1N0",
        "streetName": "SOUTHWOOD",
        "streetDirectionId": null,
        "streetTypeId": "RD",
        "placeName": "SEVERN BRIDGE",
        "streetNameDisplayText": "SOUTHWOOD RD, SEVERN BRIDGE"
      },
      {
        "electoralDistricts": [
          {
            "election": null,
            "id": 100,
            "name": "Simcoe North"
          }
        ],
        "pollDivisionIds": [
          10141893
        ],
        "postalCode": "P0E1N0",
        "streetName": "STANTON HOUSE",
        "streetDirectionId": null,
        "streetTypeId": "LANE",
        "placeName": "SEVERN BRIDGE",
        "streetNameDisplayText": "STANTON HOUSE LANE, SEVERN BRIDGE"
      },
      {
        "electoralDistricts": [
          {
            "election": null,
            "id": 84,
            "name": "Parry Sound—Muskoka"
          }
        ],
        "pollDivisionIds": [
          10141015
        ],
        "postalCode": "P0E1N0",
        "streetName": "SUTHERLAND",
        "streetDirectionId": null,
        "streetTypeId": "PT",
        "placeName": "SEVERN BRIDGE",
        "streetNameDisplayText": "SUTHERLAND PT, SEVERN BRIDGE"
      },
      {
        "electoralDistricts": [
          {
            "election": null,
            "id": 84,
            "name": "Parry Sound—Muskoka"
          }
        ],
        "pollDivisionIds": [
          10141017
        ],
        "postalCode": "P0E1N0",
        "streetName": "SUTHERLAND",
        "streetDirectionId": null,
        "streetTypeId": "WAY",
        "placeName": "SEVERN BRIDGE",
        "streetNameDisplayText": "SUTHERLAND WAY, SEVERN BRIDGE"
      },
      {
        "electoralDistricts": [
          {
            "election": null,
            "id": 84,
            "name": "Parry Sound—Muskoka"
          }
        ],
        "pollDivisionIds": [
          10141017
        ],
        "postalCode": "P0E1N0",
        "streetName": "TALBOT",
        "streetDirectionId": null,
        "streetTypeId": "TRAIL",
        "placeName": "SEVERN BRIDGE",
        "streetNameDisplayText": "TALBOT TRAIL, SEVERN BRIDGE"
      },
      {
        "electoralDistricts": [
          {
            "election": null,
            "id": 100,
            "name": "Simcoe North"
          }
        ],
        "pollDivisionIds": [
          10141893
        ],
        "postalCode": "P0E1N0",
        "streetName": "TORPITT",
        "streetDirectionId": null,
        "streetTypeId": "RD",
        "placeName": "SEVERN BRIDGE",
        "streetNameDisplayText": "TORPITT RD, SEVERN BRIDGE"
      },
      {
        "electoralDistricts": [
          {
            "election": null,
            "id": 100,
            "name": "Simcoe North"
          }
        ],
        "pollDivisionIds": [
          10141893
        ],
        "postalCode": "P0E1N0",
        "streetName": "UNITED CHURCH CAMP",
        "streetDirectionId": null,
        "streetTypeId": "LANE",
        "placeName": "SEVERN BRIDGE",
        "streetNameDisplayText": "UNITED CHURCH CAMP LANE, SEVERN BRIDGE"
      },
      {
        "electoralDistricts": [
          {
            "election": null,
            "id": 84,
            "name": "Parry Sound—Muskoka"
          }
        ],
        "pollDivisionIds": [
          10141017
        ],
        "postalCode": "P0E1N0",
        "streetName": "VALLEY",
        "streetDirectionId": null,
        "streetTypeId": "DR",
        "placeName": "SEVERN BRIDGE",
        "streetNameDisplayText": "VALLEY DR, SEVERN BRIDGE"
      },
      {
        "electoralDistricts": [
          {
            "election": null,
            "id": 100,
            "name": "Simcoe North"
          }
        ],
        "pollDivisionIds": [
          10141893
        ],
        "postalCode": "P0E1N0",
        "streetName": "WALTERS",
        "streetDirectionId": null,
        "streetTypeId": "LANE",
        "placeName": "SEVERN BRIDGE",
        "streetNameDisplayText": "WALTERS LANE, SEVERN BRIDGE"
      },
      {
        "electoralDistricts": [
          {
            "election": null,
            "id": 100,
            "name": "Simcoe North"
          }
        ],
        "pollDivisionIds": [
          10141893
        ],
        "postalCode": "P0E1N0",
        "streetName": "WELSH BAY",
        "streetDirectionId": null,
        "streetTypeId": "LANE",
        "placeName": "SEVERN BRIDGE",
        "streetNameDisplayText": "WELSH BAY LANE, SEVERN BRIDGE"
      },
      {
        "electoralDistricts": [
          {
            "election": null,
            "id": 84,
            "name": "Parry Sound—Muskoka"
          }
        ],
        "pollDivisionIds": [
          10141017
        ],
        "postalCode": "P0E1N0",
        "streetName": "WENONA LODGE",
        "streetDirectionId": null,
        "streetTypeId": "RD",
        "placeName": "SEVERN BRIDGE",
        "streetNameDisplayText": "WENONA LODGE RD, SEVERN BRIDGE"
      },
      {
        "electoralDistricts": [
          {
            "election": null,
            "id": 100,
            "name": "Simcoe North"
          }
        ],
        "pollDivisionIds": [
          10141880
        ],
        "postalCode": "P0E1N0",
        "streetName": "WEST CANAL",
        "streetDirectionId": "W",
        "streetTypeId": "RD",
        "placeName": "SEVERN BRIDGE",
        "streetNameDisplayText": "WEST CANAL RD W, SEVERN BRIDGE"
      },
      {
        "electoralDistricts": [
          {
            "election": null,
            "id": 100,
            "name": "Simcoe North"
          }
        ],
        "pollDivisionIds": [
          10141893
        ],
        "postalCode": "P0E1N0",
        "streetName": "WILD ECHO LODGE",
        "streetDirectionId": null,
        "streetTypeId": "LANE",
        "placeName": "SEVERN BRIDGE",
        "streetNameDisplayText": "WILD ECHO LODGE LANE, SEVERN BRIDGE"
      }
    ]
  }
]
