[
  {
    "postal": "P0G1A0",
    "result": [
      {
        "electoralDistricts": [
          {
            "election": null,
            "id": 84,
            "name": "Parry Sound—Muskoka"
          }
        ],
        "pollDivisionIds": [
          10143218
        ],
        "postalCode": "P0G1A0",
        "streetName": "522",
        "streetDirectionId": null,
        "streetTypeId": "HWY",
        "placeName": "BRITT",
        "streetNameDisplayText": "522 HWY, BRITT"
      },
      {
        "electoralDistricts": [
          {
            "election": null,
            "id": 84,
            "name": "Parry Sound—Muskoka"
          }
        ],
        "pollDivisionIds": [
          10141020
        ],
        "postalCode": "P0G1A0",
        "streetName": "529",
        "streetDirectionId": null,
        "streetTypeId": "HWY",
        "placeName": "BRITT",
        "streetNameDisplayText": "529 HWY, BRITT"
      },
      {
        "electoralDistricts": [
          {
            "election": null,
            "id": 84,
            "name": "Parry Sound—Muskoka"
          }
        ],
        "pollDivisionIds": [
          10140954,
          10143218
        ],
        "postalCode": "P0G1A0",
        "streetName": "69",
        "streetDirectionId": null,
        "streetTypeId": "HWY",
        "placeName": "BRITT",
        "streetNameDisplayText": "69 HWY, BRITT"
      },
      {
        "electoralDistricts": [
          {
            "election": null,
            "id": 84,
            "name": "Parry Sound—Muskoka"
          }
        ],
        "pollDivisionIds": [
          10143221
        ],
        "postalCode": "P0G1A0",
        "streetName": "69",
        "streetDirectionId": null,
        "streetTypeId": "HWY",
        "placeName": "NOBEL",
        "streetNameDisplayText": "69 HWY, NOBEL"
      },
      {
        "electoralDistricts": [
          {
            "election": null,
            "id": 84,
            "name": "Parry Sound—Muskoka"
          }
        ],
        "pollDivisionIds": [
          10140952
        ],
        "postalCode": "P0G1A0",
        "streetName": "ACCESS",
        "streetDirectionId": null,
        "streetTypeId": "RD",
        "placeName": "BRITT",
        "streetNameDisplayText": "ACCESS RD, BRITT"
      },
      {
        "electoralDistricts": [
          {
            "election": null,
            "id": 84,
            "name": "Parry Sound—Muskoka"
          }
        ],
        "pollDivisionIds": [
          10143238
        ],
        "postalCode": "P0G1A0",
        "streetName": "BEKANON",
        "streetDirectionId": null,
        "streetTypeId": "RD",
        "placeName": "PICKEREL",
        "streetNameDisplayText": "BEKANON RD, PICKEREL"
      },
      {
        "electoralDistricts": [
          {
            "election": null,
            "id": 84,
            "name": "Parry Sound—Muskoka"
          }
        ],
        "pollDivisionIds": [
          10140952
        ],
        "postalCode": "P0G1A0",
        "streetName": "BIRCHWOOD",
        "streetDirectionId": null,
        "streetTypeId": "TRAIL",
        "placeName": "LORING",
        "streetNameDisplayText": "BIRCHWOOD TRAIL, LORING"
      },
      {
        "electoralDistricts": [
          {
            "election": null,
            "id": 71,
            "name": "Nickel Belt"
          }
        ],
        "pollDivisionIds": [
          10143209
        ],
        "postalCode": "P0G1A0",
        "streetName": "COMP 1 SITE 1",
        "streetDirectionId": null,
        "streetTypeId": null,
        "placeName": "BRITT",
        "streetNameDisplayText": "COMP 1 SITE 1, BRITT"
      },
      {
        "electoralDistricts": [
          {
            "election": null,
            "id": 84,
            "name": "Parry Sound—Muskoka"
          }
        ],
        "pollDivisionIds": [
          10143217
        ],
        "postalCode": "P0G1A0",
        "streetName": "DOLLARS",
        "streetDirectionId": null,
        "streetTypeId": null,
        "placeName": "BRITT",
        "streetNameDisplayText": "DOLLARS, BRITT"
      },
      {
        "electoralDistricts": [
          {
            "election": null,
            "id": 84,
            "name": "Parry Sound—Muskoka"
          }
        ],
        "pollDivisionIds": [
          10140952
        ],
        "postalCode": "P0G1A0",
        "streetName": "DON RYAN",
        "streetDirectionId": null,
        "streetTypeId": "RD",
        "placeName": "BRITT",
        "streetNameDisplayText": "DON RYAN RD, BRITT"
      },
      {
        "electoralDistricts": [
          {
            "election": null,
            "id": 84,
            "name": "Parry Sound—Muskoka"
          }
        ],
        "pollDivisionIds": [
          10143218
        ],
        "postalCode": "P0G1A0",
        "streetName": "EASTSIDE",
        "streetDirectionId": null,
        "streetTypeId": "DR",
        "placeName": "BRITT",
        "streetNameDisplayText": "EASTSIDE DR, BRITT"
      },
      {
        "electoralDistricts": [
          {
            "election": null,
            "id": 84,
            "name": "Parry Sound—Muskoka"
          }
        ],
        "pollDivisionIds": [
          10143218
        ],
        "postalCode": "P0G1A0",
        "streetName": "EASTSIDE",
        "streetDirectionId": null,
        "streetTypeId": "DR",
        "placeName": "POINTE-AU-BARIL-STATION",
        "streetNameDisplayText": "EASTSIDE DR, POINTE-AU-BARIL-STATION"
      },
      {
        "electoralDistricts": [
          {
            "election": null,
            "id": 84,
            "name": "Parry Sound—Muskoka"
          }
        ],
        "pollDivisionIds": [
          10143218
        ],
        "postalCode": "P0G1A0",
        "streetName": "FARM",
        "streetDirectionId": null,
        "streetTypeId": "LANE",
        "placeName": "BRITT",
        "streetNameDisplayText": "FARM LANE, BRITT"
      },
      {
        "electoralDistricts": [
          {
            "election": null,
            "id": 84,
            "name": "Parry Sound—Muskoka"
          }
        ],
        "pollDivisionIds": [
          10143238
        ],
        "postalCode": "P0G1A0",
        "streetName": "HENVEY",
        "streetDirectionId": null,
        "streetTypeId": "RD",
        "placeName": "HENVEY INLET 2",
        "streetNameDisplayText": "HENVEY RD, HENVEY INLET 2"
      },
      {
        "electoralDistricts": [
          {
            "election": null,
            "id": 84,
            "name": "Parry Sound—Muskoka"
          }
        ],
        "pollDivisionIds": [
          10141020
        ],
        "postalCode": "P0G1A0",
        "streetName": "HIGH",
        "streetDirectionId": null,
        "streetTypeId": "RD",
        "placeName": "BRITT",
        "streetNameDisplayText": "HIGH RD, BRITT"
      },
      {
        "electoralDistricts": [
          {
            "election": null,
            "id": 84,
            "name": "Parry Sound—Muskoka"
          }
        ],
        "pollDivisionIds": [
          10140952
        ],
        "postalCode": "P0G1A0",
        "streetName": "HOLE IN THE WALL",
        "streetDirectionId": null,
        "streetTypeId": "RD",
        "placeName": "BRITT",
        "streetNameDisplayText": "HOLE IN THE WALL RD, BRITT"
      },
      {
        "electoralDistricts": [
          {
            "election": null,
            "id": 84,
            "name": "Parry Sound—Muskoka"
          }
        ],
        "pollDivisionIds": [
          10140954
        ],
        "postalCode": "P0G1A0",
        "streetName": "HWY 526",
        "streetDirectionId": null,
        "streetTypeId": null,
        "placeName": "BRITT",
        "streetNameDisplayText": "HWY 526, BRITT"
      },
      {
        "electoralDistricts": [
          {
            "election": null,
            "id": 84,
            "name": "Parry Sound—Muskoka"
          }
        ],
        "pollDivisionIds": [
          10140954
        ],
        "postalCode": "P0G1A0",
        "streetName": "HWY 69",
        "streetDirectionId": null,
        "streetTypeId": "HWY",
        "placeName": "BRITT",
        "streetNameDisplayText": "HWY 69 HWY, BRITT"
      },
      {
        "electoralDistricts": [
          {
            "election": null,
            "id": 84,
            "name": "Parry Sound—Muskoka"
          }
        ],
        "pollDivisionIds": [
          10143218,
          10143694
        ],
        "postalCode": "P0G1A0",
        "streetName": "JANE",
        "streetDirectionId": null,
        "streetTypeId": "ST",
        "placeName": "BRITT",
        "streetNameDisplayText": "JANE ST, BRITT"
      },
      {
        "electoralDistricts": [
          {
            "election": null,
            "id": 84,
            "name": "Parry Sound—Muskoka"
          }
        ],
        "pollDivisionIds": [
          10140952
        ],
        "postalCode": "P0G1A0",
        "streetName": "KAWIGAMOG LAKE",
        "streetDirectionId": null,
        "streetTypeId": "RD",
        "placeName": "BRITT",
        "streetNameDisplayText": "KAWIGAMOG LAKE RD, BRITT"
      },
      {
        "electoralDistricts": [
          {
            "election": null,
            "id": 84,
            "name": "Parry Sound—Muskoka"
          }
        ],
        "pollDivisionIds": [
          10140952
        ],
        "postalCode": "P0G1A0",
        "streetName": "KAWIGAMOG",
        "streetDirectionId": null,
        "streetTypeId": null,
        "placeName": "BRITT",
        "streetNameDisplayText": "KAWIGAMOG, BRITT"
      },
      {
        "electoralDistricts": [
          {
            "election": null,
            "id": 84,
            "name": "Parry Sound—Muskoka"
          }
        ],
        "pollDivisionIds": [
          10140952
        ],
        "postalCode": "P0G1A0",
        "streetName": "LAING",
        "streetDirectionId": "E",
        "streetTypeId": "RD",
        "placeName": "BRITT",
        "streetNameDisplayText": "LAING RD E, BRITT"
      },
      {
        "electoralDistricts": [
          {
            "election": null,
            "id": 84,
            "name": "Parry Sound—Muskoka"
          }
        ],
        "pollDivisionIds": [
          10140952
        ],
        "postalCode": "P0G1A0",
        "streetName": "LAING",
        "streetDirectionId": null,
        "streetTypeId": "RD",
        "placeName": "BRITT",
        "streetNameDisplayText": "LAING RD, BRITT"
      },
      {
        "electoralDistricts": [
          {
            "election": null,
            "id": 84,
            "name": "Parry Sound—Muskoka"
          }
        ],
        "pollDivisionIds": [
          10140952
        ],
        "postalCode": "P0G1A0",
        "streetName": "LOSTCHANNEL",
        "streetDirectionId": null,
        "streetTypeId": "RD",
        "placeName": "BRITT",
        "streetNameDisplayText": "LOSTCHANNEL RD, BRITT"
      },
      {
        "electoralDistricts": [
          {
            "election": null,
            "id": 84,
            "name": "Parry Sound—Muskoka"
          }
        ],
        "pollDivisionIds": [
          10141020
        ],
        "postalCode": "P0G1A0",
        "streetName": "MAGNETAWAN 1",
        "streetDirectionId": null,
        "streetTypeId": null,
        "placeName": "BRITT",
        "streetNameDisplayText": "MAGNETAWAN 1, BRITT"
      },
      {
        "electoralDistricts": [
          {
            "election": null,
            "id": 84,
            "name": "Parry Sound—Muskoka"
          }
        ],
        "pollDivisionIds": [
          10143218
        ],
        "postalCode": "P0G1A0",
        "streetName": "MAGNETAWAN RIVER",
        "streetDirectionId": null,
        "streetTypeId": "RD",
        "placeName": "BRITT",
        "streetNameDisplayText": "MAGNETAWAN RIVER RD, BRITT"
      },
      {
        "electoralDistricts": [
          {
            "election": null,
            "id": 84,
            "name": "Parry Sound—Muskoka"
          }
        ],
        "pollDivisionIds": [
          10141020
        ],
        "postalCode": "P0G1A0",
        "streetName": "MUKWA MIIKAAN",
        "streetDirectionId": null,
        "streetTypeId": "RD",
        "placeName": "MAGNETAWAN 1",
        "streetNameDisplayText": "MUKWA MIIKAAN RD, MAGNETAWAN 1"
      },
      {
        "electoralDistricts": [
          {
            "election": null,
            "id": 84,
            "name": "Parry Sound—Muskoka"
          }
        ],
        "pollDivisionIds": [
          10143218
        ],
        "postalCode": "P0G1A0",
        "streetName": "OLD LEGION",
        "streetDirectionId": null,
        "streetTypeId": "LANE",
        "placeName": "BRITT",
        "streetNameDisplayText": "OLD LEGION LANE, BRITT"
      },
      {
        "electoralDistricts": [
          {
            "election": null,
            "id": 84,
            "name": "Parry Sound—Muskoka"
          }
        ],
        "pollDivisionIds": [
          10143218
        ],
        "postalCode": "P0G1A0",
        "streetName": "OLD LEGION",
        "streetDirectionId": null,
        "streetTypeId": "LANE",
        "placeName": "POINTE-AU-BARIL-STATION",
        "streetNameDisplayText": "OLD LEGION LANE, POINTE-AU-BARIL-STATION"
      },
      {
        "electoralDistricts": [
          {
            "election": null,
            "id": 84,
            "name": "Parry Sound—Muskoka"
          }
        ],
        "pollDivisionIds": [
          10143218
        ],
        "postalCode": "P0G1A0",
        "streetName": "OLD STILL RIVER",
        "streetDirectionId": null,
        "streetTypeId": "RD",
        "placeName": "BRITT",
        "streetNameDisplayText": "OLD STILL RIVER RD, BRITT"
      },
      {
        "electoralDistricts": [
          {
            "election": null,
            "id": 84,
            "name": "Parry Sound—Muskoka"
          }
        ],
        "pollDivisionIds": [
          10143217
        ],
        "postalCode": "P0G1A0",
        "streetName": "OSPREY",
        "streetDirectionId": null,
        "streetTypeId": "RD",
        "placeName": "BRITT",
        "streetNameDisplayText": "OSPREY RD, BRITT"
      },
      {
        "electoralDistricts": [
          {
            "election": null,
            "id": 84,
            "name": "Parry Sound—Muskoka"
          }
        ],
        "pollDivisionIds": [
          10143218
        ],
        "postalCode": "P0G1A0",
        "streetName": "PATRICK",
        "streetDirectionId": null,
        "streetTypeId": "PLACE",
        "placeName": "BRITT",
        "streetNameDisplayText": "PATRICK PLACE, BRITT"
      },
      {
        "electoralDistricts": [
          {
            "election": null,
            "id": 84,
            "name": "Parry Sound—Muskoka"
          }
        ],
        "pollDivisionIds": [
          10140952
        ],
        "postalCode": "P0G1A0",
        "streetName": "RANGER BAY",
        "streetDirectionId": null,
        "streetTypeId": "RD",
        "placeName": "BRITT",
        "streetNameDisplayText": "RANGER BAY RD, BRITT"
      },
      {
        "electoralDistricts": [
          {
            "election": null,
            "id": 84,
            "name": "Parry Sound—Muskoka"
          }
        ],
        "pollDivisionIds": [
          10143218
        ],
        "postalCode": "P0G1A0",
        "streetName": "RICHARD",
        "streetDirectionId": null,
        "streetTypeId": "RD",
        "placeName": "BRITT",
        "streetNameDisplayText": "RICHARD RD, BRITT"
      },
      {
        "electoralDistricts": [
          {
            "election": null,
            "id": 84,
            "name": "Parry Sound—Muskoka"
          }
        ],
        "pollDivisionIds": [
          10143218
        ],
        "postalCode": "P0G1A0",
        "streetName": "RIVER",
        "streetDirectionId": null,
        "streetTypeId": "RD",
        "placeName": "BRITT",
        "streetNameDisplayText": "RIVER RD, BRITT"
      },
      {
        "electoralDistricts": [
          {
            "election": null,
            "id": 84,
            "name": "Parry Sound—Muskoka"
          }
        ],
        "pollDivisionIds": [
          10143218
        ],
        "postalCode": "P0G1A0",
        "streetName": "RIVERSIDE",
        "streetDirectionId": null,
        "streetTypeId": "DR",
        "placeName": "BRITT",
        "streetNameDisplayText": "RIVERSIDE DR, BRITT"
      },
      {
        "electoralDistricts": [
          {
            "election": null,
            "id": 84,
            "name": "Parry Sound—Muskoka"
          }
        ],
        "pollDivisionIds": [
          10143218
        ],
        "postalCode": "P0G1A0",
        "streetName": "RIVERSIDE",
        "streetDirectionId": null,
        "streetTypeId": "DR",
        "placeName": "POINTE-AU-BARIL-STATION",
        "streetNameDisplayText": "RIVERSIDE DR, POINTE-AU-BARIL-STATION"
      },
      {
        "electoralDistricts": [
          {
            "election": null,
            "id": 84,
            "name": "Parry Sound—Muskoka"
          }
        ],
        "pollDivisionIds": [
          10143218
        ],
        "postalCode": "P0G1A0",
        "streetName": "RIVERVIEW",
        "streetDirectionId": null,
        "streetTypeId": "RD",
        "placeName": "BRITT",
        "streetNameDisplayText": "RIVERVIEW RD, BRITT"
      },
      {
        "electoralDistricts": [
          {
            "election": null,
            "id": 84,
            "name": "Parry Sound—Muskoka"
          }
        ],
        "pollDivisionIds": [
          10143217
        ],
        "postalCode": "P0G1A0",
        "streetName": "SMITH BAY",
        "streetDirectionId": null,
        "streetTypeId": "RD",
        "placeName": "BRITT",
        "streetNameDisplayText": "SMITH BAY RD, BRITT"
      },
      {
        "electoralDistricts": [
          {
            "election": null,
            "id": 84,
            "name": "Parry Sound—Muskoka"
          }
        ],
        "pollDivisionIds": [
          10141020
        ],
        "postalCode": "P0G1A0",
        "streetName": "SPIRIT",
        "streetDirectionId": null,
        "streetTypeId": "RD",
        "placeName": "BRITT",
        "streetNameDisplayText": "SPIRIT RD, BRITT"
      },
      {
        "electoralDistricts": [
          {
            "election": null,
            "id": 84,
            "name": "Parry Sound—Muskoka"
          }
        ],
        "pollDivisionIds": [
          10143218
        ],
        "postalCode": "P0G1A0",
        "streetName": "STATION",
        "streetDirectionId": null,
        "streetTypeId": "LANE",
        "placeName": "BRITT",
        "streetNameDisplayText": "STATION LANE, BRITT"
      },
      {
        "electoralDistricts": [
          {
            "election": null,
            "id": 84,
            "name": "Parry Sound—Muskoka"
          }
        ],
        "pollDivisionIds": [
          10140952
        ],
        "postalCode": "P0G1A0",
        "streetName": "STUMPY BAY",
        "streetDirectionId": null,
        "streetTypeId": "RD",
        "placeName": "BRITT",
        "streetNameDisplayText": "STUMPY BAY RD, BRITT"
      },
      {
        "electoralDistricts": [
          {
            "election": null,
            "id": 84,
            "name": "Parry Sound—Muskoka"
          }
        ],
        "pollDivisionIds": [
          10141020
        ],
        "postalCode": "P0G1A0",
        "streetName": "SUBDIVISION",
        "streetDirectionId": null,
        "streetTypeId": "RD",
        "placeName": "BRITT",
        "streetNameDisplayText": "SUBDIVISION RD, BRITT"
      },
      {
        "electoralDistricts": [
          {
            "election": null,
            "id": 84,
            "name": "Parry Sound—Muskoka"
          }
        ],
        "pollDivisionIds": [
          10143218
        ],
        "postalCode": "P0G1A0",
        "streetName": "TRAMWAY",
        "streetDirectionId": null,
        "streetTypeId": "AVE",
        "placeName": "BRITT",
        "streetNameDisplayText": "TRAMWAY AVE, BRITT"
      },
      {
        "electoralDistricts": [
          {
            "election": null,
            "id": 84,
            "name": "Parry Sound—Muskoka"
          }
        ],
        "pollDivisionIds": [
          10143218
        ],
        "postalCode": "P0G1A0",
        "streetName": "TRAPPERS",
        "streetDirectionId": null,
        "streetTypeId": "TRAIL",
        "placeName": "BRITT",
        "streetNameDisplayText": "TRAPPERS TRAIL, BRITT"
      },
      {
        "electoralDistricts": [
          {
            "election": null,
            "id": 84,
            "name": "Parry Sound—Muskoka"
          }
        ],
        "pollDivisionIds": [
          10141020
        ],
        "postalCode": "P0G1A0",
        "streetName": "VILLAGE",
        "streetDirectionId": null,
        "streetTypeId": "RD",
        "placeName": "BRITT",
        "streetNameDisplayText": "VILLAGE RD, BRITT"
      },
      {
        "electoralDistricts": [
          {
            "election": null,
            "id": 84,
            "name": "Parry Sound—Muskoka"
          }
        ],
        "pollDivisionIds": [
          10140952
        ],
        "postalCode": "P0G1A0",
        "streetName": "YOUNGS",
        "streetDirectionId": null,
        "streetTypeId": "RD",
        "placeName": "BRITT",
        "streetNameDisplayText": "YOUNGS RD, BRITT"
      }
    ]
  },
  {
    "postal": "P0G1B0",
    "result": [
      {
        "electoralDistricts": [
          {
            "election": null,
            "id": 84,
            "name": "Parry Sound—Muskoka"
          }
        ],
        "pollDivisionIds": [
          10143218
        ],
        "postalCode": "P0G1B0",
        "streetName": "FRONT",
        "streetDirectionId": null,
        "streetTypeId": "ST",
        "placeName": "BYNG INLET",
        "streetNameDisplayText": "FRONT ST, BYNG INLET"
      },
      {
        "electoralDistricts": [
          {
            "election": null,
            "id": 84,
            "name": "Parry Sound—Muskoka"
          }
        ],
        "pollDivisionIds": [
          10143218
        ],
        "postalCode": "P0G1B0",
        "streetName": "HOLLAND",
        "streetDirectionId": null,
        "streetTypeId": "AVE",
        "placeName": "BYNG INLET",
        "streetNameDisplayText": "HOLLAND AVE, BYNG INLET"
      },
      {
        "electoralDistricts": [
          {
            "election": null,
            "id": 84,
            "name": "Parry Sound—Muskoka"
          }
        ],
        "pollDivisionIds": [
          10143218
        ],
        "postalCode": "P0G1B0",
        "streetName": "KLONDYKE",
        "streetDirectionId": null,
        "streetTypeId": "AVE",
        "placeName": "BYNG INLET",
        "streetNameDisplayText": "KLONDYKE AVE, BYNG INLET"
      },
      {
        "electoralDistricts": [
          {
            "election": null,
            "id": 84,
            "name": "Parry Sound—Muskoka"
          }
        ],
        "pollDivisionIds": [
          10143218
        ],
        "postalCode": "P0G1B0",
        "streetName": "ROSEDALE",
        "streetDirectionId": null,
        "streetTypeId": "AVE",
        "placeName": "BYNG INLET",
        "streetNameDisplayText": "ROSEDALE AVE, BYNG INLET"
      },
      {
        "electoralDistricts": [
          {
            "election": null,
            "id": 84,
            "name": "Parry Sound—Muskoka"
          }
        ],
        "pollDivisionIds": [
          10143218
        ],
        "postalCode": "P0G1B0",
        "streetName": "ROSEDALE",
        "streetDirectionId": null,
        "streetTypeId": "RD",
        "placeName": "BYNG INLET",
        "streetNameDisplayText": "ROSEDALE RD, BYNG INLET"
      },
      {
        "electoralDistricts": [
          {
            "election": null,
            "id": 84,
            "name": "Parry Sound—Muskoka"
          }
        ],
        "pollDivisionIds": [
          10143218
        ],
        "postalCode": "P0G1B0",
        "streetName": "SHACKTOWN",
        "streetDirectionId": null,
        "streetTypeId": "RD",
        "placeName": "BYNG INLET",
        "streetNameDisplayText": "SHACKTOWN RD, BYNG INLET"
      },
      {
        "electoralDistricts": [
          {
            "election": null,
            "id": 84,
            "name": "Parry Sound—Muskoka"
          }
        ],
        "pollDivisionIds": [
          10143218,
          10143227
        ],
        "postalCode": "P0G1B0",
        "streetName": "STATION",
        "streetDirectionId": null,
        "streetTypeId": "RD",
        "placeName": "BYNG INLET",
        "streetNameDisplayText": "STATION RD, BYNG INLET"
      },
      {
        "electoralDistricts": [
          {
            "election": null,
            "id": 84,
            "name": "Parry Sound—Muskoka"
          }
        ],
        "pollDivisionIds": [
          10143227
        ],
        "postalCode": "P0G1B0",
        "streetName": "STATION",
        "streetDirectionId": null,
        "streetTypeId": "RD",
        "placeName": "EMSDALE",
        "streetNameDisplayText": "STATION RD, EMSDALE"
      },
      {
        "electoralDistricts": [
          {
            "election": null,
            "id": 84,
            "name": "Parry Sound—Muskoka"
          }
        ],
        "pollDivisionIds": [
          10143218
        ],
        "postalCode": "P0G1B0",
        "streetName": "TANSY",
        "streetDirectionId": null,
        "streetTypeId": "LANE",
        "placeName": "BYNG INLET",
        "streetNameDisplayText": "TANSY LANE, BYNG INLET"
      },
      {
        "electoralDistricts": [
          {
            "election": null,
            "id": 84,
            "name": "Parry Sound—Muskoka"
          }
        ],
        "pollDivisionIds": [
          10143218
        ],
        "postalCode": "P0G1B0",
        "streetName": "TEXACO",
        "streetDirectionId": null,
        "streetTypeId": "DR",
        "placeName": "BYNG INLET",
        "streetNameDisplayText": "TEXACO DR, BYNG INLET"
      },
      {
        "electoralDistricts": [
          {
            "election": null,
            "id": 84,
            "name": "Parry Sound—Muskoka"
          }
        ],
        "pollDivisionIds": [
          10143218
        ],
        "postalCode": "P0G1B0",
        "streetName": "THOMAS",
        "streetDirectionId": null,
        "streetTypeId": "LANE",
        "placeName": "BYNG INLET",
        "streetNameDisplayText": "THOMAS LANE, BYNG INLET"
      },
      {
        "electoralDistricts": [
          {
            "election": null,
            "id": 84,
            "name": "Parry Sound—Muskoka"
          }
        ],
        "pollDivisionIds": [
          10143218
        ],
        "postalCode": "P0G1B0",
        "streetName": "TRAMWAY",
        "streetDirectionId": null,
        "streetTypeId": "AVE",
        "placeName": "BYNG INLET",
        "streetNameDisplayText": "TRAMWAY AVE, BYNG INLET"
      },
      {
        "electoralDistricts": [
          {
            "election": null,
            "id": 84,
            "name": "Parry Sound—Muskoka"
          }
        ],
        "pollDivisionIds": [
          10143218
        ],
        "postalCode": "P0G1B0",
        "streetName": "UNIT",
        "streetDirectionId": null,
        "streetTypeId": "ST",
        "placeName": "BYNG INLET",
        "streetNameDisplayText": "UNIT ST, BYNG INLET"
      }
    ]
  },
  {
    "postal": "P0G1C0",
    "result": [
      {
        "electoralDistricts": [
          {
            "election": null,
            "id": 84,
            "name": "Parry Sound—Muskoka"
          }
        ],
        "pollDivisionIds": [
          10140959,
          10140958
        ],
        "postalCode": "P0G1C0",
        "streetName": "124",
        "streetDirectionId": null,
        "streetTypeId": "HWY",
        "placeName": "MCKELLAR",
        "streetNameDisplayText": "124 HWY, MCKELLAR"
      },
      {
        "electoralDistricts": [
          {
            "election": null,
            "id": 84,
            "name": "Parry Sound—Muskoka"
          }
        ],
        "pollDivisionIds": [
          10140958,
          10140959
        ],
        "postalCode": "P0G1C0",
        "streetName": "124",
        "streetDirectionId": null,
        "streetTypeId": "HWY",
        "placeName": "PARRY SOUND",
        "streetNameDisplayText": "124 HWY, PARRY SOUND"
      },
      {
        "electoralDistricts": [
          {
            "election": null,
            "id": 84,
            "name": "Parry Sound—Muskoka"
          }
        ],
        "pollDivisionIds": [
          10140958
        ],
        "postalCode": "P0G1C0",
        "streetName": "124",
        "streetDirectionId": null,
        "streetTypeId": null,
        "placeName": "MCKELLAR",
        "streetNameDisplayText": "124, MCKELLAR"
      },
      {
        "electoralDistricts": [
          {
            "election": null,
            "id": 84,
            "name": "Parry Sound—Muskoka"
          }
        ],
        "pollDivisionIds": [
          10140959
        ],
        "postalCode": "P0G1C0",
        "streetName": "ARMSTRONG",
        "streetDirectionId": null,
        "streetTypeId": "ST",
        "placeName": "MCKELLAR",
        "streetNameDisplayText": "ARMSTRONG ST, MCKELLAR"
      },
      {
        "electoralDistricts": [
          {
            "election": null,
            "id": 84,
            "name": "Parry Sound—Muskoka"
          }
        ],
        "pollDivisionIds": [
          10140958
        ],
        "postalCode": "P0G1C0",
        "streetName": "BALSAM",
        "streetDirectionId": null,
        "streetTypeId": "RD",
        "placeName": "MCKELLAR",
        "streetNameDisplayText": "BALSAM RD, MCKELLAR"
      },
      {
        "electoralDistricts": [
          {
            "election": null,
            "id": 84,
            "name": "Parry Sound—Muskoka"
          }
        ],
        "pollDivisionIds": [
          10140959
        ],
        "postalCode": "P0G1C0",
        "streetName": "BROWNLEY",
        "streetDirectionId": null,
        "streetTypeId": "RD",
        "placeName": "PARRY SOUND",
        "streetNameDisplayText": "BROWNLEY RD, PARRY SOUND"
      },
      {
        "electoralDistricts": [
          {
            "election": null,
            "id": 84,
            "name": "Parry Sound—Muskoka"
          }
        ],
        "pollDivisionIds": [
          10140959
        ],
        "postalCode": "P0G1C0",
        "streetName": "CATHERINE",
        "streetDirectionId": null,
        "streetTypeId": "ST",
        "placeName": "MCKELLAR",
        "streetNameDisplayText": "CATHERINE ST, MCKELLAR"
      },
      {
        "electoralDistricts": [
          {
            "election": null,
            "id": 84,
            "name": "Parry Sound—Muskoka"
          }
        ],
        "pollDivisionIds": [
          10140959,
          10140958
        ],
        "postalCode": "P0G1C0",
        "streetName": "CENTRE",
        "streetDirectionId": null,
        "streetTypeId": "RD",
        "placeName": "MCKELLAR",
        "streetNameDisplayText": "CENTRE RD, MCKELLAR"
      },
      {
        "electoralDistricts": [
          {
            "election": null,
            "id": 84,
            "name": "Parry Sound—Muskoka"
          }
        ],
        "pollDivisionIds": [
          10140959
        ],
        "postalCode": "P0G1C0",
        "streetName": "DEERFIELD",
        "streetDirectionId": null,
        "streetTypeId": "RD",
        "placeName": "MCKELLAR",
        "streetNameDisplayText": "DEERFIELD RD, MCKELLAR"
      },
      {
        "electoralDistricts": [
          {
            "election": null,
            "id": 84,
            "name": "Parry Sound—Muskoka"
          }
        ],
        "pollDivisionIds": [
          10140958
        ],
        "postalCode": "P0G1C0",
        "streetName": "FIRE ROUTE 100",
        "streetDirectionId": null,
        "streetTypeId": "RTE",
        "placeName": "MCKELLAR",
        "streetNameDisplayText": "FIRE ROUTE 100 RTE, MCKELLAR"
      },
      {
        "electoralDistricts": [
          {
            "election": null,
            "id": 84,
            "name": "Parry Sound—Muskoka"
          }
        ],
        "pollDivisionIds": [
          10140958
        ],
        "postalCode": "P0G1C0",
        "streetName": "FIRE ROUTE 101",
        "streetDirectionId": null,
        "streetTypeId": null,
        "placeName": "MCKELLAR",
        "streetNameDisplayText": "FIRE ROUTE 101, MCKELLAR"
      },
      {
        "electoralDistricts": [
          {
            "election": null,
            "id": 84,
            "name": "Parry Sound—Muskoka"
          }
        ],
        "pollDivisionIds": [
          10140958
        ],
        "postalCode": "P0G1C0",
        "streetName": "FIRE ROUTE 101",
        "streetDirectionId": null,
        "streetTypeId": null,
        "placeName": "PARRY SOUND",
        "streetNameDisplayText": "FIRE ROUTE 101, PARRY SOUND"
      },
      {
        "electoralDistricts": [
          {
            "election": null,
            "id": 84,
            "name": "Parry Sound—Muskoka"
          }
        ],
        "pollDivisionIds": [
          10140958
        ],
        "postalCode": "P0G1C0",
        "streetName": "FIRE ROUTE 102",
        "streetDirectionId": null,
        "streetTypeId": "RTE",
        "placeName": "MCKELLAR",
        "streetNameDisplayText": "FIRE ROUTE 102 RTE, MCKELLAR"
      },
      {
        "electoralDistricts": [
          {
            "election": null,
            "id": 84,
            "name": "Parry Sound—Muskoka"
          }
        ],
        "pollDivisionIds": [
          10140958
        ],
        "postalCode": "P0G1C0",
        "streetName": "FIRE ROUTE 103",
        "streetDirectionId": null,
        "streetTypeId": null,
        "placeName": "MCKELLAR",
        "streetNameDisplayText": "FIRE ROUTE 103, MCKELLAR"
      },
      {
        "electoralDistricts": [
          {
            "election": null,
            "id": 84,
            "name": "Parry Sound—Muskoka"
          }
        ],
        "pollDivisionIds": [
          10140959
        ],
        "postalCode": "P0G1C0",
        "streetName": "FIRE ROUTE 152",
        "streetDirectionId": null,
        "streetTypeId": null,
        "placeName": "MCKELLAR",
        "streetNameDisplayText": "FIRE ROUTE 152, MCKELLAR"
      },
      {
        "electoralDistricts": [
          {
            "election": null,
            "id": 84,
            "name": "Parry Sound—Muskoka"
          }
        ],
        "pollDivisionIds": [
          10140959
        ],
        "postalCode": "P0G1C0",
        "streetName": "FIRE ROUTE 152A",
        "streetDirectionId": null,
        "streetTypeId": "RTE",
        "placeName": "MCKELLAR",
        "streetNameDisplayText": "FIRE ROUTE 152A RTE, MCKELLAR"
      },
      {
        "electoralDistricts": [
          {
            "election": null,
            "id": 84,
            "name": "Parry Sound—Muskoka"
          }
        ],
        "pollDivisionIds": [
          10140959
        ],
        "postalCode": "P0G1C0",
        "streetName": "FIRE ROUTE 152B",
        "streetDirectionId": null,
        "streetTypeId": "RTE",
        "placeName": "MCKELLAR",
        "streetNameDisplayText": "FIRE ROUTE 152B RTE, MCKELLAR"
      },
      {
        "electoralDistricts": [
          {
            "election": null,
            "id": 84,
            "name": "Parry Sound—Muskoka"
          }
        ],
        "pollDivisionIds": [
          10140958
        ],
        "postalCode": "P0G1C0",
        "streetName": "FIRE ROUTE 154",
        "streetDirectionId": null,
        "streetTypeId": null,
        "placeName": "MCKELLAR",
        "streetNameDisplayText": "FIRE ROUTE 154, MCKELLAR"
      },
      {
        "electoralDistricts": [
          {
            "election": null,
            "id": 84,
            "name": "Parry Sound—Muskoka"
          }
        ],
        "pollDivisionIds": [
          10140959
        ],
        "postalCode": "P0G1C0",
        "streetName": "FIRE ROUTE 155",
        "streetDirectionId": null,
        "streetTypeId": "RTE",
        "placeName": "MCKELLAR",
        "streetNameDisplayText": "FIRE ROUTE 155 RTE, MCKELLAR"
      },
      {
        "electoralDistricts": [
          {
            "election": null,
            "id": 84,
            "name": "Parry Sound—Muskoka"
          }
        ],
        "pollDivisionIds": [
          10140959
        ],
        "postalCode": "P0G1C0",
        "streetName": "FIRE ROUTE 161",
        "streetDirectionId": null,
        "streetTypeId": null,
        "placeName": "MCKELLAR",
        "streetNameDisplayText": "FIRE ROUTE 161, MCKELLAR"
      },
      {
        "electoralDistricts": [
          {
            "election": null,
            "id": 84,
            "name": "Parry Sound—Muskoka"
          }
        ],
        "pollDivisionIds": [
          10140959
        ],
        "postalCode": "P0G1C0",
        "streetName": "FIRE RT 152",
        "streetDirectionId": null,
        "streetTypeId": null,
        "placeName": "MCKELLAR",
        "streetNameDisplayText": "FIRE RT 152, MCKELLAR"
      },
      {
        "electoralDistricts": [
          {
            "election": null,
            "id": 84,
            "name": "Parry Sound—Muskoka"
          }
        ],
        "pollDivisionIds": [
          10140959
        ],
        "postalCode": "P0G1C0",
        "streetName": "FOX FARM",
        "streetDirectionId": null,
        "streetTypeId": "RD",
        "placeName": "MCKELLAR",
        "streetNameDisplayText": "FOX FARM RD, MCKELLAR"
      },
      {
        "electoralDistricts": [
          {
            "election": null,
            "id": 84,
            "name": "Parry Sound—Muskoka"
          }
        ],
        "pollDivisionIds": [
          10140958
        ],
        "postalCode": "P0G1C0",
        "streetName": "FRONTENAC",
        "streetDirectionId": null,
        "streetTypeId": "DR",
        "placeName": "MCKELLAR",
        "streetNameDisplayText": "FRONTENAC DR, MCKELLAR"
      },
      {
        "electoralDistricts": [
          {
            "election": null,
            "id": 84,
            "name": "Parry Sound—Muskoka"
          }
        ],
        "pollDivisionIds": [
          10140959
        ],
        "postalCode": "P0G1C0",
        "streetName": "GLENWOOD",
        "streetDirectionId": null,
        "streetTypeId": "RD",
        "placeName": "MCKELLAR",
        "streetNameDisplayText": "GLENWOOD RD, MCKELLAR"
      },
      {
        "electoralDistricts": [
          {
            "election": null,
            "id": 84,
            "name": "Parry Sound—Muskoka"
          }
        ],
        "pollDivisionIds": [
          10140958
        ],
        "postalCode": "P0G1C0",
        "streetName": "GREY OWL",
        "streetDirectionId": null,
        "streetTypeId": "RD",
        "placeName": "DUNCHURCH",
        "streetNameDisplayText": "GREY OWL RD, DUNCHURCH"
      },
      {
        "electoralDistricts": [
          {
            "election": null,
            "id": 84,
            "name": "Parry Sound—Muskoka"
          }
        ],
        "pollDivisionIds": [
          10140958
        ],
        "postalCode": "P0G1C0",
        "streetName": "GREY OWL",
        "streetDirectionId": null,
        "streetTypeId": "RD",
        "placeName": "MCKELLAR",
        "streetNameDisplayText": "GREY OWL RD, MCKELLAR"
      },
      {
        "electoralDistricts": [
          {
            "election": null,
            "id": 84,
            "name": "Parry Sound—Muskoka"
          }
        ],
        "pollDivisionIds": [
          10140958
        ],
        "postalCode": "P0G1C0",
        "streetName": "HARRIET",
        "streetDirectionId": null,
        "streetTypeId": "ST",
        "placeName": "MCKELLAR",
        "streetNameDisplayText": "HARRIET ST, MCKELLAR"
      },
      {
        "electoralDistricts": [
          {
            "election": null,
            "id": 84,
            "name": "Parry Sound—Muskoka"
          }
        ],
        "pollDivisionIds": [
          10140959
        ],
        "postalCode": "P0G1C0",
        "streetName": "HENRY",
        "streetDirectionId": null,
        "streetTypeId": "ST",
        "placeName": "MCKELLAR",
        "streetNameDisplayText": "HENRY ST, MCKELLAR"
      },
      {
        "electoralDistricts": [
          {
            "election": null,
            "id": 84,
            "name": "Parry Sound—Muskoka"
          }
        ],
        "pollDivisionIds": [
          10140959
        ],
        "postalCode": "P0G1C0",
        "streetName": "INN",
        "streetDirectionId": null,
        "streetTypeId": "RD",
        "placeName": "MCKELLAR",
        "streetNameDisplayText": "INN RD, MCKELLAR"
      },
      {
        "electoralDistricts": [
          {
            "election": null,
            "id": 84,
            "name": "Parry Sound—Muskoka"
          }
        ],
        "pollDivisionIds": [
          10140958
        ],
        "postalCode": "P0G1C0",
        "streetName": "KODIAK",
        "streetDirectionId": null,
        "streetTypeId": "RD",
        "placeName": "MCKELLAR",
        "streetNameDisplayText": "KODIAK RD, MCKELLAR"
      },
      {
        "electoralDistricts": [
          {
            "election": null,
            "id": 84,
            "name": "Parry Sound—Muskoka"
          }
        ],
        "pollDivisionIds": [
          10140959
        ],
        "postalCode": "P0G1C0",
        "streetName": "LAKESHORE",
        "streetDirectionId": null,
        "streetTypeId": "RD",
        "placeName": "MCKELLAR",
        "streetNameDisplayText": "LAKESHORE RD, MCKELLAR"
      },
      {
        "electoralDistricts": [
          {
            "election": null,
            "id": 84,
            "name": "Parry Sound—Muskoka"
          }
        ],
        "pollDivisionIds": [
          10140959
        ],
        "postalCode": "P0G1C0",
        "streetName": "LAKESIDE",
        "streetDirectionId": null,
        "streetTypeId": "DR",
        "placeName": "MCKELLAR",
        "streetNameDisplayText": "LAKESIDE DR, MCKELLAR"
      },
      {
        "electoralDistricts": [
          {
            "election": null,
            "id": 84,
            "name": "Parry Sound—Muskoka"
          }
        ],
        "pollDivisionIds": [
          10140959
        ],
        "postalCode": "P0G1C0",
        "streetName": "LITTLE BEAR",
        "streetDirectionId": null,
        "streetTypeId": "RD",
        "placeName": "MCKELLAR",
        "streetNameDisplayText": "LITTLE BEAR RD, MCKELLAR"
      },
      {
        "electoralDistricts": [
          {
            "election": null,
            "id": 84,
            "name": "Parry Sound—Muskoka"
          }
        ],
        "pollDivisionIds": [
          10140959
        ],
        "postalCode": "P0G1C0",
        "streetName": "LOUISA",
        "streetDirectionId": null,
        "streetTypeId": "ST",
        "placeName": "MCKELLAR",
        "streetNameDisplayText": "LOUISA ST, MCKELLAR"
      },
      {
        "electoralDistricts": [
          {
            "election": null,
            "id": 84,
            "name": "Parry Sound—Muskoka"
          }
        ],
        "pollDivisionIds": [
          10140958
        ],
        "postalCode": "P0G1C0",
        "streetName": "MARTHA",
        "streetDirectionId": null,
        "streetTypeId": "DR",
        "placeName": "MCKELLAR",
        "streetNameDisplayText": "MARTHA DR, MCKELLAR"
      },
      {
        "electoralDistricts": [
          {
            "election": null,
            "id": 84,
            "name": "Parry Sound—Muskoka"
          }
        ],
        "pollDivisionIds": [
          10140959
        ],
        "postalCode": "P0G1C0",
        "streetName": "MARY",
        "streetDirectionId": null,
        "streetTypeId": "ST",
        "placeName": "MCKELLAR",
        "streetNameDisplayText": "MARY ST, MCKELLAR"
      },
      {
        "electoralDistricts": [
          {
            "election": null,
            "id": 84,
            "name": "Parry Sound—Muskoka"
          }
        ],
        "pollDivisionIds": [
          10140958
        ],
        "postalCode": "P0G1C0",
        "streetName": "MCKELLAR LAKE",
        "streetDirectionId": null,
        "streetTypeId": "RD",
        "placeName": "MCKELLAR",
        "streetNameDisplayText": "MCKELLAR LAKE RD, MCKELLAR"
      },
      {
        "electoralDistricts": [
          {
            "election": null,
            "id": 84,
            "name": "Parry Sound—Muskoka"
          }
        ],
        "pollDivisionIds": [
          10140958
        ],
        "postalCode": "P0G1C0",
        "streetName": "MCKOWEN",
        "streetDirectionId": null,
        "streetTypeId": "RD",
        "placeName": "MCKELLAR",
        "streetNameDisplayText": "MCKOWEN RD, MCKELLAR"
      },
      {
        "electoralDistricts": [
          {
            "election": null,
            "id": 84,
            "name": "Parry Sound—Muskoka"
          }
        ],
        "pollDivisionIds": [
          10140958
        ],
        "postalCode": "P0G1C0",
        "streetName": "MORE",
        "streetDirectionId": null,
        "streetTypeId": "AVE",
        "placeName": "MCKELLAR",
        "streetNameDisplayText": "MORE AVE, MCKELLAR"
      },
      {
        "electoralDistricts": [
          {
            "election": null,
            "id": 84,
            "name": "Parry Sound—Muskoka"
          }
        ],
        "pollDivisionIds": [
          10140959
        ],
        "postalCode": "P0G1C0",
        "streetName": "PATTERSON",
        "streetDirectionId": null,
        "streetTypeId": "LANE",
        "placeName": "MCKELLAR",
        "streetNameDisplayText": "PATTERSON LANE, MCKELLAR"
      },
      {
        "electoralDistricts": [
          {
            "election": null,
            "id": 84,
            "name": "Parry Sound—Muskoka"
          }
        ],
        "pollDivisionIds": [
          10140959
        ],
        "postalCode": "P0G1C0",
        "streetName": "PENINSULA SHORES",
        "streetDirectionId": null,
        "streetTypeId": "RD",
        "placeName": "MCKELLAR",
        "streetNameDisplayText": "PENINSULA SHORES RD, MCKELLAR"
      },
      {
        "electoralDistricts": [
          {
            "election": null,
            "id": 84,
            "name": "Parry Sound—Muskoka"
          }
        ],
        "pollDivisionIds": [
          10140959
        ],
        "postalCode": "P0G1C0",
        "streetName": "PENINSULA SHRS",
        "streetDirectionId": null,
        "streetTypeId": "RD",
        "placeName": "MCKELLAR",
        "streetNameDisplayText": "PENINSULA SHRS RD, MCKELLAR"
      },
      {
        "electoralDistricts": [
          {
            "election": null,
            "id": 84,
            "name": "Parry Sound—Muskoka"
          }
        ],
        "pollDivisionIds": [
          10140959
        ],
        "postalCode": "P0G1C0",
        "streetName": "RED FOX",
        "streetDirectionId": null,
        "streetTypeId": "LANE",
        "placeName": "MCKELLAR",
        "streetNameDisplayText": "RED FOX LANE, MCKELLAR"
      },
      {
        "electoralDistricts": [
          {
            "election": null,
            "id": 84,
            "name": "Parry Sound—Muskoka"
          }
        ],
        "pollDivisionIds": [
          10140959
        ],
        "postalCode": "P0G1C0",
        "streetName": "REIN'S",
        "streetDirectionId": null,
        "streetTypeId": "WAY",
        "placeName": "PARRY SOUND",
        "streetNameDisplayText": "REIN'S WAY, PARRY SOUND"
      },
      {
        "electoralDistricts": [
          {
            "election": null,
            "id": 84,
            "name": "Parry Sound—Muskoka"
          }
        ],
        "pollDivisionIds": [
          10140958
        ],
        "postalCode": "P0G1C0",
        "streetName": "SHARON PARK",
        "streetDirectionId": null,
        "streetTypeId": "DR",
        "placeName": "MCKELLAR",
        "streetNameDisplayText": "SHARON PARK DR, MCKELLAR"
      },
      {
        "electoralDistricts": [
          {
            "election": null,
            "id": 84,
            "name": "Parry Sound—Muskoka"
          }
        ],
        "pollDivisionIds": [
          10140958
        ],
        "postalCode": "P0G1C0",
        "streetName": "SPRING HILL",
        "streetDirectionId": null,
        "streetTypeId": "RD",
        "placeName": "MCKELLAR",
        "streetNameDisplayText": "SPRING HILL RD, MCKELLAR"
      },
      {
        "electoralDistricts": [
          {
            "election": null,
            "id": 84,
            "name": "Parry Sound—Muskoka"
          }
        ],
        "pollDivisionIds": [
          10140958
        ],
        "postalCode": "P0G1C0",
        "streetName": "SQUAW LAKE",
        "streetDirectionId": null,
        "streetTypeId": "RD",
        "placeName": "MCKELLAR",
        "streetNameDisplayText": "SQUAW LAKE RD, MCKELLAR"
      },
      {
        "electoralDistricts": [
          {
            "election": null,
            "id": 84,
            "name": "Parry Sound—Muskoka"
          }
        ],
        "pollDivisionIds": [
          10140958
        ],
        "postalCode": "P0G1C0",
        "streetName": "WEST",
        "streetDirectionId": null,
        "streetTypeId": "RD",
        "placeName": "MCKELLAR",
        "streetNameDisplayText": "WEST RD, MCKELLAR"
      },
      {
        "electoralDistricts": [
          {
            "election": null,
            "id": 84,
            "name": "Parry Sound—Muskoka"
          }
        ],
        "pollDivisionIds": [
          10140964,
          10140959
        ],
        "postalCode": "P0G1C0",
        "streetName": "WILLIAM",
        "streetDirectionId": null,
        "streetTypeId": "ST",
        "placeName": "MCKELLAR",
        "streetNameDisplayText": "WILLIAM ST, MCKELLAR"
      }
    ]
  },
  {
    "postal": "P0G1G0",
    "result": [
      {
        "electoralDistricts": [
          {
            "election": null,
            "id": 84,
            "name": "Parry Sound—Muskoka"
          }
        ],
        "pollDivisionIds": [
          10141017
        ],
        "postalCode": "P0G1G0",
        "streetName": "11",
        "streetDirectionId": null,
        "streetTypeId": "HWY",
        "placeName": "KILWORTHY",
        "streetNameDisplayText": "11 HWY, KILWORTHY"
      },
      {
        "electoralDistricts": [
          {
            "election": null,
            "id": 84,
            "name": "Parry Sound—Muskoka"
          }
        ],
        "pollDivisionIds": [
          10143221
        ],
        "postalCode": "P0G1G0",
        "streetName": "3",
        "streetDirectionId": null,
        "streetTypeId": "CONC",
        "placeName": "NOBEL",
        "streetNameDisplayText": "3 CONC, NOBEL"
      },
      {
        "electoralDistricts": [
          {
            "election": null,
            "id": 84,
            "name": "Parry Sound—Muskoka"
          }
        ],
        "pollDivisionIds": [
          10143221
        ],
        "postalCode": "P0G1G0",
        "streetName": "3RD CONCESSION",
        "streetDirectionId": null,
        "streetTypeId": "RD",
        "placeName": "NOBEL",
        "streetNameDisplayText": "3RD CONCESSION RD, NOBEL"
      },
      {
        "electoralDistricts": [
          {
            "election": null,
            "id": 84,
            "name": "Parry Sound—Muskoka"
          }
        ],
        "pollDivisionIds": [
          10140962,
          10143221
        ],
        "postalCode": "P0G1G0",
        "streetName": "559",
        "streetDirectionId": "W",
        "streetTypeId": "HWY",
        "placeName": "NOBEL",
        "streetNameDisplayText": "559 HWY W, NOBEL"
      },
      {
        "electoralDistricts": [
          {
            "election": null,
            "id": 84,
            "name": "Parry Sound—Muskoka"
          }
        ],
        "pollDivisionIds": [
          10143221,
          10140962
        ],
        "postalCode": "P0G1G0",
        "streetName": "559",
        "streetDirectionId": null,
        "streetTypeId": "HWY",
        "placeName": "NOBEL",
        "streetNameDisplayText": "559 HWY, NOBEL"
      },
      {
        "electoralDistricts": [
          {
            "election": null,
            "id": 84,
            "name": "Parry Sound—Muskoka"
          }
        ],
        "pollDivisionIds": [
          10140962,
          10143221,
          10140954
        ],
        "postalCode": "P0G1G0",
        "streetName": "69",
        "streetDirectionId": null,
        "streetTypeId": "HWY",
        "placeName": "NOBEL",
        "streetNameDisplayText": "69 HWY, NOBEL"
      },
      {
        "electoralDistricts": [
          {
            "election": null,
            "id": 84,
            "name": "Parry Sound—Muskoka"
          }
        ],
        "pollDivisionIds": [
          10143221
        ],
        "postalCode": "P0G1G0",
        "streetName": "69",
        "streetDirectionId": null,
        "streetTypeId": "HWY",
        "placeName": "THE ARCHIPELAGO",
        "streetNameDisplayText": "69 HWY, THE ARCHIPELAGO"
      },
      {
        "electoralDistricts": [
          {
            "election": null,
            "id": 84,
            "name": "Parry Sound—Muskoka"
          }
        ],
        "pollDivisionIds": [
          10140954
        ],
        "postalCode": "P0G1G0",
        "streetName": "A60",
        "streetDirectionId": null,
        "streetTypeId": "ISLAND",
        "placeName": "NOBEL",
        "streetNameDisplayText": "A60 ISLAND, NOBEL"
      },
      {
        "electoralDistricts": [
          {
            "election": null,
            "id": 84,
            "name": "Parry Sound—Muskoka"
          }
        ],
        "pollDivisionIds": [
          10140954
        ],
        "postalCode": "P0G1G0",
        "streetName": "A65",
        "streetDirectionId": null,
        "streetTypeId": "ISLAND",
        "placeName": "NOBEL",
        "streetNameDisplayText": "A65 ISLAND, NOBEL"
      },
      {
        "electoralDistricts": [
          {
            "election": null,
            "id": 84,
            "name": "Parry Sound—Muskoka"
          }
        ],
        "pollDivisionIds": [
          10141021
        ],
        "postalCode": "P0G1G0",
        "streetName": "ABETUNG",
        "streetDirectionId": null,
        "streetTypeId": "ST",
        "placeName": "NOBEL",
        "streetNameDisplayText": "ABETUNG ST, NOBEL"
      },
      {
        "electoralDistricts": [
          {
            "election": null,
            "id": 84,
            "name": "Parry Sound—Muskoka"
          }
        ],
        "pollDivisionIds": [
          10140962
        ],
        "postalCode": "P0G1G0",
        "streetName": "ADAM BROWN",
        "streetDirectionId": null,
        "streetTypeId": "RD",
        "placeName": "NOBEL",
        "streetNameDisplayText": "ADAM BROWN RD, NOBEL"
      },
      {
        "electoralDistricts": [
          {
            "election": null,
            "id": 84,
            "name": "Parry Sound—Muskoka"
          }
        ],
        "pollDivisionIds": [
          10140962
        ],
        "postalCode": "P0G1G0",
        "streetName": "ALVES",
        "streetDirectionId": null,
        "streetTypeId": "RD",
        "placeName": "NOBEL",
        "streetNameDisplayText": "ALVES RD, NOBEL"
      },
      {
        "electoralDistricts": [
          {
            "election": null,
            "id": 84,
            "name": "Parry Sound—Muskoka"
          }
        ],
        "pollDivisionIds": [
          10140963
        ],
        "postalCode": "P0G1G0",
        "streetName": "ARMSTRONG",
        "streetDirectionId": null,
        "streetTypeId": "AVE",
        "placeName": "NOBEL",
        "streetNameDisplayText": "ARMSTRONG AVE, NOBEL"
      },
      {
        "electoralDistricts": [
          {
            "election": null,
            "id": 84,
            "name": "Parry Sound—Muskoka"
          }
        ],
        "pollDivisionIds": [
          10140962
        ],
        "postalCode": "P0G1G0",
        "streetName": "BACK BAY",
        "streetDirectionId": null,
        "streetTypeId": "RD",
        "placeName": "NOBEL",
        "streetNameDisplayText": "BACK BAY RD, NOBEL"
      },
      {
        "electoralDistricts": [
          {
            "election": null,
            "id": 84,
            "name": "Parry Sound—Muskoka"
          }
        ],
        "pollDivisionIds": [
          10140954
        ],
        "postalCode": "P0G1G0",
        "streetName": "BAH-SAH-GIM",
        "streetDirectionId": null,
        "streetTypeId": "RD",
        "placeName": "NOBEL",
        "streetNameDisplayText": "BAH-SAH-GIM RD, NOBEL"
      },
      {
        "electoralDistricts": [
          {
            "election": null,
            "id": 84,
            "name": "Parry Sound—Muskoka"
          }
        ],
        "pollDivisionIds": [
          10140962
        ],
        "postalCode": "P0G1G0",
        "streetName": "BANTING",
        "streetDirectionId": null,
        "streetTypeId": "LANE",
        "placeName": "NOBEL",
        "streetNameDisplayText": "BANTING LANE, NOBEL"
      },
      {
        "electoralDistricts": [
          {
            "election": null,
            "id": 84,
            "name": "Parry Sound—Muskoka"
          }
        ],
        "pollDivisionIds": [
          10140962
        ],
        "postalCode": "P0G1G0",
        "streetName": "BAYVIEW",
        "streetDirectionId": null,
        "streetTypeId": "DR",
        "placeName": "NOBEL",
        "streetNameDisplayText": "BAYVIEW DR, NOBEL"
      },
      {
        "electoralDistricts": [
          {
            "election": null,
            "id": 84,
            "name": "Parry Sound—Muskoka"
          }
        ],
        "pollDivisionIds": [
          10140962
        ],
        "postalCode": "P0G1G0",
        "streetName": "BEACON POINT",
        "streetDirectionId": null,
        "streetTypeId": "DR",
        "placeName": "NOBEL",
        "streetNameDisplayText": "BEACON POINT DR, NOBEL"
      },
      {
        "electoralDistricts": [
          {
            "election": null,
            "id": 84,
            "name": "Parry Sound—Muskoka"
          }
        ],
        "pollDivisionIds": [
          10140962
        ],
        "postalCode": "P0G1G0",
        "streetName": "BEECH",
        "streetDirectionId": null,
        "streetTypeId": "AVE",
        "placeName": "NOBEL",
        "streetNameDisplayText": "BEECH AVE, NOBEL"
      },
      {
        "electoralDistricts": [
          {
            "election": null,
            "id": 84,
            "name": "Parry Sound—Muskoka"
          }
        ],
        "pollDivisionIds": [
          10140963
        ],
        "postalCode": "P0G1G0",
        "streetName": "BIG SOUND",
        "streetDirectionId": null,
        "streetTypeId": "RD",
        "placeName": "NOBEL",
        "streetNameDisplayText": "BIG SOUND RD, NOBEL"
      },
      {
        "electoralDistricts": [
          {
            "election": null,
            "id": 84,
            "name": "Parry Sound—Muskoka"
          }
        ],
        "pollDivisionIds": [
          10140963
        ],
        "postalCode": "P0G1G0",
        "streetName": "BIG SOUND",
        "streetDirectionId": null,
        "streetTypeId": "RD",
        "placeName": "PARRY SOUND",
        "streetNameDisplayText": "BIG SOUND RD, PARRY SOUND"
      },
      {
        "electoralDistricts": [
          {
            "election": null,
            "id": 84,
            "name": "Parry Sound—Muskoka"
          }
        ],
        "pollDivisionIds": [
          10140962
        ],
        "postalCode": "P0G1G0",
        "streetName": "BLAIRS LANDING",
        "streetDirectionId": null,
        "streetTypeId": "RD",
        "placeName": "NOBEL",
        "streetNameDisplayText": "BLAIRS LANDING RD, NOBEL"
      },
      {
        "electoralDistricts": [
          {
            "election": null,
            "id": 84,
            "name": "Parry Sound—Muskoka"
          }
        ],
        "pollDivisionIds": [
          10140962
        ],
        "postalCode": "P0G1G0",
        "streetName": "BLAIR'S LANDING",
        "streetDirectionId": null,
        "streetTypeId": "RD",
        "placeName": "NOBEL",
        "streetNameDisplayText": "BLAIR'S LANDING RD, NOBEL"
      },
      {
        "electoralDistricts": [
          {
            "election": null,
            "id": 84,
            "name": "Parry Sound—Muskoka"
          }
        ],
        "pollDivisionIds": [
          10140962
        ],
        "postalCode": "P0G1G0",
        "streetName": "BLIND BAY COTTAGE",
        "streetDirectionId": null,
        "streetTypeId": "RD",
        "placeName": "NOBEL",
        "streetNameDisplayText": "BLIND BAY COTTAGE RD, NOBEL"
      },
      {
        "electoralDistricts": [
          {
            "election": null,
            "id": 84,
            "name": "Parry Sound—Muskoka"
          }
        ],
        "pollDivisionIds": [
          10140962
        ],
        "postalCode": "P0G1G0",
        "streetName": "BLIND BAY COTTAGER'S",
        "streetDirectionId": null,
        "streetTypeId": "RD",
        "placeName": "NOBEL",
        "streetNameDisplayText": "BLIND BAY COTTAGER'S RD, NOBEL"
      },
      {
        "electoralDistricts": [
          {
            "election": null,
            "id": 84,
            "name": "Parry Sound—Muskoka"
          }
        ],
        "pollDivisionIds": [
          10140962
        ],
        "postalCode": "P0G1G0",
        "streetName": "BLIND BAY",
        "streetDirectionId": null,
        "streetTypeId": "RD",
        "placeName": "NOBEL",
        "streetNameDisplayText": "BLIND BAY RD, NOBEL"
      },
      {
        "electoralDistricts": [
          {
            "election": null,
            "id": 84,
            "name": "Parry Sound—Muskoka"
          }
        ],
        "pollDivisionIds": [
          10143221
        ],
        "postalCode": "P0G1G0",
        "streetName": "BROOKS LANDING",
        "streetDirectionId": null,
        "streetTypeId": "RD",
        "placeName": "NOBEL",
        "streetNameDisplayText": "BROOKS LANDING RD, NOBEL"
      },
      {
        "electoralDistricts": [
          {
            "election": null,
            "id": 84,
            "name": "Parry Sound—Muskoka"
          }
        ],
        "pollDivisionIds": [
          10140962
        ],
        "postalCode": "P0G1G0",
        "streetName": "CALOW",
        "streetDirectionId": null,
        "streetTypeId": "RD",
        "placeName": "NOBEL",
        "streetNameDisplayText": "CALOW RD, NOBEL"
      },
      {
        "electoralDistricts": [
          {
            "election": null,
            "id": 84,
            "name": "Parry Sound—Muskoka"
          }
        ],
        "pollDivisionIds": [
          10140962
        ],
        "postalCode": "P0G1G0",
        "streetName": "CANOE CHANNEL",
        "streetDirectionId": "W",
        "streetTypeId": "TRAIL",
        "placeName": "NOBEL",
        "streetNameDisplayText": "CANOE CHANNEL TRAIL W, NOBEL"
      },
      {
        "electoralDistricts": [
          {
            "election": null,
            "id": 84,
            "name": "Parry Sound—Muskoka"
          }
        ],
        "pollDivisionIds": [
          10140962
        ],
        "postalCode": "P0G1G0",
        "streetName": "CARLING BAY",
        "streetDirectionId": "E",
        "streetTypeId": "RD",
        "placeName": "NOBEL",
        "streetNameDisplayText": "CARLING BAY RD E, NOBEL"
      },
      {
        "electoralDistricts": [
          {
            "election": null,
            "id": 84,
            "name": "Parry Sound—Muskoka"
          }
        ],
        "pollDivisionIds": [
          10140962
        ],
        "postalCode": "P0G1G0",
        "streetName": "CARLING BAY",
        "streetDirectionId": "W",
        "streetTypeId": "RD",
        "placeName": "NOBEL",
        "streetNameDisplayText": "CARLING BAY RD W, NOBEL"
      },
      {
        "electoralDistricts": [
          {
            "election": null,
            "id": 84,
            "name": "Parry Sound—Muskoka"
          }
        ],
        "pollDivisionIds": [
          10143221
        ],
        "postalCode": "P0G1G0",
        "streetName": "CARLING STATION",
        "streetDirectionId": null,
        "streetTypeId": "RD",
        "placeName": "NOBEL",
        "streetNameDisplayText": "CARLING STATION RD, NOBEL"
      },
      {
        "electoralDistricts": [
          {
            "election": null,
            "id": 84,
            "name": "Parry Sound—Muskoka"
          }
        ],
        "pollDivisionIds": [
          10140962
        ],
        "postalCode": "P0G1G0",
        "streetName": "CARRIE",
        "streetDirectionId": null,
        "streetTypeId": "LANE",
        "placeName": "NOBEL",
        "streetNameDisplayText": "CARRIE LANE, NOBEL"
      },
      {
        "electoralDistricts": [
          {
            "election": null,
            "id": 84,
            "name": "Parry Sound—Muskoka"
          }
        ],
        "pollDivisionIds": [
          10143221
        ],
        "postalCode": "P0G1G0",
        "streetName": "CHRISTENSON",
        "streetDirectionId": null,
        "streetTypeId": "TRAIL",
        "placeName": "NOBEL",
        "streetNameDisplayText": "CHRISTENSON TRAIL, NOBEL"
      },
      {
        "electoralDistricts": [
          {
            "election": null,
            "id": 84,
            "name": "Parry Sound—Muskoka"
          }
        ],
        "pollDivisionIds": [
          10143221
        ],
        "postalCode": "P0G1G0",
        "streetName": "CHRISTIE",
        "streetDirectionId": null,
        "streetTypeId": "RD",
        "placeName": "NOBEL",
        "streetNameDisplayText": "CHRISTIE RD, NOBEL"
      },
      {
        "electoralDistricts": [
          {
            "election": null,
            "id": 84,
            "name": "Parry Sound—Muskoka"
          }
        ],
        "pollDivisionIds": [
          10141021
        ],
        "postalCode": "P0G1G0",
        "streetName": "CHURCH",
        "streetDirectionId": null,
        "streetTypeId": "ST",
        "placeName": "NOBEL",
        "streetNameDisplayText": "CHURCH ST, NOBEL"
      },
      {
        "electoralDistricts": [
          {
            "election": null,
            "id": 84,
            "name": "Parry Sound—Muskoka"
          }
        ],
        "pollDivisionIds": [
          10140962
        ],
        "postalCode": "P0G1G0",
        "streetName": "COLLINS BAY",
        "streetDirectionId": null,
        "streetTypeId": "RD",
        "placeName": "NOBEL",
        "streetNameDisplayText": "COLLINS BAY RD, NOBEL"
      },
      {
        "electoralDistricts": [
          {
            "election": null,
            "id": 84,
            "name": "Parry Sound—Muskoka"
          }
        ],
        "pollDivisionIds": [
          10140962
        ],
        "postalCode": "P0G1G0",
        "streetName": "CONSERVATION",
        "streetDirectionId": null,
        "streetTypeId": "DR",
        "placeName": "NOBEL",
        "streetNameDisplayText": "CONSERVATION DR, NOBEL"
      },
      {
        "electoralDistricts": [
          {
            "election": null,
            "id": 84,
            "name": "Parry Sound—Muskoka"
          }
        ],
        "pollDivisionIds": [
          10140963
        ],
        "postalCode": "P0G1G0",
        "streetName": "CRAWFORD",
        "streetDirectionId": null,
        "streetTypeId": "RD",
        "placeName": "NOBEL",
        "streetNameDisplayText": "CRAWFORD RD, NOBEL"
      },
      {
        "electoralDistricts": [
          {
            "election": null,
            "id": 84,
            "name": "Parry Sound—Muskoka"
          }
        ],
        "pollDivisionIds": [
          10140963
        ],
        "postalCode": "P0G1G0",
        "streetName": "CRAWFORD",
        "streetDirectionId": null,
        "streetTypeId": "ST",
        "placeName": "NOBEL",
        "streetNameDisplayText": "CRAWFORD ST, NOBEL"
      },
      {
        "electoralDistricts": [
          {
            "election": null,
            "id": 84,
            "name": "Parry Sound—Muskoka"
          }
        ],
        "pollDivisionIds": [
          10140962
        ],
        "postalCode": "P0G1G0",
        "streetName": "CURRAN",
        "streetDirectionId": null,
        "streetTypeId": "TRAIL",
        "placeName": "NOBEL",
        "streetNameDisplayText": "CURRAN TRAIL, NOBEL"
      },
      {
        "electoralDistricts": [
          {
            "election": null,
            "id": 84,
            "name": "Parry Sound—Muskoka"
          }
        ],
        "pollDivisionIds": [
          10140962
        ],
        "postalCode": "P0G1G0",
        "streetName": "DAVELLEN HERITAGE",
        "streetDirectionId": null,
        "streetTypeId": "DR",
        "placeName": "NOBEL",
        "streetNameDisplayText": "DAVELLEN HERITAGE DR, NOBEL"
      },
      {
        "electoralDistricts": [
          {
            "election": null,
            "id": 84,
            "name": "Parry Sound—Muskoka"
          }
        ],
        "pollDivisionIds": [
          10140962
        ],
        "postalCode": "P0G1G0",
        "streetName": "DEAN",
        "streetDirectionId": null,
        "streetTypeId": "RD",
        "placeName": "NOBEL",
        "streetNameDisplayText": "DEAN RD, NOBEL"
      },
      {
        "electoralDistricts": [
          {
            "election": null,
            "id": 84,
            "name": "Parry Sound—Muskoka"
          }
        ],
        "pollDivisionIds": [
          10140962
        ],
        "postalCode": "P0G1G0",
        "streetName": "DEEP BAY",
        "streetDirectionId": null,
        "streetTypeId": "DR",
        "placeName": "NOBEL",
        "streetNameDisplayText": "DEEP BAY DR, NOBEL"
      },
      {
        "electoralDistricts": [
          {
            "election": null,
            "id": 84,
            "name": "Parry Sound—Muskoka"
          }
        ],
        "pollDivisionIds": [
          10140962
        ],
        "postalCode": "P0G1G0",
        "streetName": "DENT BAY",
        "streetDirectionId": null,
        "streetTypeId": "DR",
        "placeName": "NOBEL",
        "streetNameDisplayText": "DENT BAY DR, NOBEL"
      },
      {
        "electoralDistricts": [
          {
            "election": null,
            "id": 84,
            "name": "Parry Sound—Muskoka"
          }
        ],
        "pollDivisionIds": [
          10140962
        ],
        "postalCode": "P0G1G0",
        "streetName": "DENT ROCK",
        "streetDirectionId": null,
        "streetTypeId": "CRES",
        "placeName": "NOBEL",
        "streetNameDisplayText": "DENT ROCK CRES, NOBEL"
      },
      {
        "electoralDistricts": [
          {
            "election": null,
            "id": 84,
            "name": "Parry Sound—Muskoka"
          }
        ],
        "pollDivisionIds": [
          10143221
        ],
        "postalCode": "P0G1G0",
        "streetName": "DILLON",
        "streetDirectionId": null,
        "streetTypeId": "RD",
        "placeName": "NOBEL",
        "streetNameDisplayText": "DILLON RD, NOBEL"
      },
      {
        "electoralDistricts": [
          {
            "election": null,
            "id": 84,
            "name": "Parry Sound—Muskoka"
          }
        ],
        "pollDivisionIds": [
          10140962
        ],
        "postalCode": "P0G1G0",
        "streetName": "DONNA",
        "streetDirectionId": null,
        "streetTypeId": "DR",
        "placeName": "NOBEL",
        "streetNameDisplayText": "DONNA DR, NOBEL"
      },
      {
        "electoralDistricts": [
          {
            "election": null,
            "id": 84,
            "name": "Parry Sound—Muskoka"
          }
        ],
        "pollDivisionIds": [
          10140962
        ],
        "postalCode": "P0G1G0",
        "streetName": "ECHO POINT",
        "streetDirectionId": null,
        "streetTypeId": "RD",
        "placeName": "NOBEL",
        "streetNameDisplayText": "ECHO POINT RD, NOBEL"
      },
      {
        "electoralDistricts": [
          {
            "election": null,
            "id": 84,
            "name": "Parry Sound—Muskoka"
          }
        ],
        "pollDivisionIds": [
          10140962
        ],
        "postalCode": "P0G1G0",
        "streetName": "FIRE RT",
        "streetDirectionId": null,
        "streetTypeId": null,
        "placeName": "NOBEL",
        "streetNameDisplayText": "FIRE RT, NOBEL"
      },
      {
        "electoralDistricts": [
          {
            "election": null,
            "id": 86,
            "name": "Peterborough—Kawartha"
          }
        ],
        "pollDivisionIds": [
          10141051
        ],
        "postalCode": "P0G1G0",
        "streetName": "FIRE RTE 28",
        "streetDirectionId": null,
        "streetTypeId": "RTE",
        "placeName": "NOBEL",
        "streetNameDisplayText": "FIRE RTE 28 RTE, NOBEL"
      },
      {
        "electoralDistricts": [
          {
            "election": null,
            "id": 84,
            "name": "Parry Sound—Muskoka"
          }
        ],
        "pollDivisionIds": [
          10143221
        ],
        "postalCode": "P0G1G0",
        "streetName": "FORSYTHS",
        "streetDirectionId": null,
        "streetTypeId": "RD",
        "placeName": "NOBEL",
        "streetNameDisplayText": "FORSYTHS RD, NOBEL"
      },
      {
        "electoralDistricts": [
          {
            "election": null,
            "id": 84,
            "name": "Parry Sound—Muskoka"
          }
        ],
        "pollDivisionIds": [
          10140962
        ],
        "postalCode": "P0G1G0",
        "streetName": "FRED DUBIE",
        "streetDirectionId": "E",
        "streetTypeId": "RD",
        "placeName": "NOBEL",
        "streetNameDisplayText": "FRED DUBIE RD E, NOBEL"
      },
      {
        "electoralDistricts": [
          {
            "election": null,
            "id": 84,
            "name": "Parry Sound—Muskoka"
          }
        ],
        "pollDivisionIds": [
          10140962
        ],
        "postalCode": "P0G1G0",
        "streetName": "FRED DUBIE",
        "streetDirectionId": null,
        "streetTypeId": "RD",
        "placeName": "NOBEL",
        "streetNameDisplayText": "FRED DUBIE RD, NOBEL"
      },
      {
        "electoralDistricts": [
          {
            "election": null,
            "id": 84,
            "name": "Parry Sound—Muskoka"
          }
        ],
        "pollDivisionIds": [
          10140954
        ],
        "postalCode": "P0G1G0",
        "streetName": "GINN-BEACH",
        "streetDirectionId": null,
        "streetTypeId": "DR",
        "placeName": "NOBEL",
        "streetNameDisplayText": "GINN-BEACH DR, NOBEL"
      },
      {
        "electoralDistricts": [
          {
            "election": null,
            "id": 84,
            "name": "Parry Sound—Muskoka"
          }
        ],
        "pollDivisionIds": [
          10140963
        ],
        "postalCode": "P0G1G0",
        "streetName": "GLENROCK",
        "streetDirectionId": null,
        "streetTypeId": "RD",
        "placeName": "NOBEL",
        "streetNameDisplayText": "GLENROCK RD, NOBEL"
      },
      {
        "electoralDistricts": [
          {
            "election": null,
            "id": 84,
            "name": "Parry Sound—Muskoka"
          }
        ],
        "pollDivisionIds": [
          10140962
        ],
        "postalCode": "P0G1G0",
        "streetName": "GOWAR BAY",
        "streetDirectionId": null,
        "streetTypeId": "RD",
        "placeName": "NOBEL",
        "streetNameDisplayText": "GOWAR BAY RD, NOBEL"
      },
      {
        "electoralDistricts": [
          {
            "election": null,
            "id": 84,
            "name": "Parry Sound—Muskoka"
          }
        ],
        "pollDivisionIds": [
          10140962
        ],
        "postalCode": "P0G1G0",
        "streetName": "GRACE",
        "streetDirectionId": null,
        "streetTypeId": "LANE",
        "placeName": "NOBEL",
        "streetNameDisplayText": "GRACE LANE, NOBEL"
      },
      {
        "electoralDistricts": [
          {
            "election": null,
            "id": 84,
            "name": "Parry Sound—Muskoka"
          }
        ],
        "pollDivisionIds": [
          10143221
        ],
        "postalCode": "P0G1G0",
        "streetName": "HAGGART BAY",
        "streetDirectionId": null,
        "streetTypeId": "RD",
        "placeName": "NOBEL",
        "streetNameDisplayText": "HAGGART BAY RD, NOBEL"
      },
      {
        "electoralDistricts": [
          {
            "election": null,
            "id": 84,
            "name": "Parry Sound—Muskoka"
          }
        ],
        "pollDivisionIds": [
          10140963
        ],
        "postalCode": "P0G1G0",
        "streetName": "HAMMEL",
        "streetDirectionId": null,
        "streetTypeId": "AVE",
        "placeName": "NOBEL",
        "streetNameDisplayText": "HAMMEL AVE, NOBEL"
      },
      {
        "electoralDistricts": [
          {
            "election": null,
            "id": 84,
            "name": "Parry Sound—Muskoka"
          }
        ],
        "pollDivisionIds": [
          10143221
        ],
        "postalCode": "P0G1G0",
        "streetName": "HARES",
        "streetDirectionId": null,
        "streetTypeId": "RD",
        "placeName": "NOBEL",
        "streetNameDisplayText": "HARES RD, NOBEL"
      },
      {
        "electoralDistricts": [
          {
            "election": null,
            "id": 84,
            "name": "Parry Sound—Muskoka"
          }
        ],
        "pollDivisionIds": [
          10140962
        ],
        "postalCode": "P0G1G0",
        "streetName": "HARRISON LANDING",
        "streetDirectionId": null,
        "streetTypeId": "RD",
        "placeName": "NOBEL",
        "streetNameDisplayText": "HARRISON LANDING RD, NOBEL"
      },
      {
        "electoralDistricts": [
          {
            "election": null,
            "id": 84,
            "name": "Parry Sound—Muskoka"
          }
        ],
        "pollDivisionIds": [
          10143221
        ],
        "postalCode": "P0G1G0",
        "streetName": "HI LIN",
        "streetDirectionId": null,
        "streetTypeId": "RD",
        "placeName": "NOBEL",
        "streetNameDisplayText": "HI LIN RD, NOBEL"
      },
      {
        "electoralDistricts": [
          {
            "election": null,
            "id": 84,
            "name": "Parry Sound—Muskoka"
          }
        ],
        "pollDivisionIds": [
          10143221
        ],
        "postalCode": "P0G1G0",
        "streetName": "HI-LIN",
        "streetDirectionId": null,
        "streetTypeId": "RD",
        "placeName": "NOBEL",
        "streetNameDisplayText": "HI-LIN RD, NOBEL"
      },
      {
        "electoralDistricts": [
          {
            "election": null,
            "id": 84,
            "name": "Parry Sound—Muskoka"
          }
        ],
        "pollDivisionIds": [
          10140962
        ],
        "postalCode": "P0G1G0",
        "streetName": "HILLSIDE",
        "streetDirectionId": null,
        "streetTypeId": "DR",
        "placeName": "NOBEL",
        "streetNameDisplayText": "HILLSIDE DR, NOBEL"
      },
      {
        "electoralDistricts": [
          {
            "election": null,
            "id": 84,
            "name": "Parry Sound—Muskoka"
          }
        ],
        "pollDivisionIds": [
          10143221
        ],
        "postalCode": "P0G1G0",
        "streetName": "HOLLYS",
        "streetDirectionId": null,
        "streetTypeId": "LANE",
        "placeName": "NOBEL",
        "streetNameDisplayText": "HOLLYS LANE, NOBEL"
      },
      {
        "electoralDistricts": [
          {
            "election": null,
            "id": 84,
            "name": "Parry Sound—Muskoka"
          }
        ],
        "pollDivisionIds": [
          10143221
        ],
        "postalCode": "P0G1G0",
        "streetName": "HUMMINGBIRD HILL",
        "streetDirectionId": null,
        "streetTypeId": "RD",
        "placeName": "NOBEL",
        "streetNameDisplayText": "HUMMINGBIRD HILL RD, NOBEL"
      },
      {
        "electoralDistricts": [
          {
            "election": null,
            "id": 84,
            "name": "Parry Sound—Muskoka"
          }
        ],
        "pollDivisionIds": [
          10140962
        ],
        "postalCode": "P0G1G0",
        "streetName": "INDIAN GROVE",
        "streetDirectionId": null,
        "streetTypeId": "DR",
        "placeName": "NOBEL",
        "streetNameDisplayText": "INDIAN GROVE DR, NOBEL"
      },
      {
        "electoralDistricts": [
          {
            "election": null,
            "id": 84,
            "name": "Parry Sound—Muskoka"
          }
        ],
        "pollDivisionIds": [
          10140962
        ],
        "postalCode": "P0G1G0",
        "streetName": "INVERLOCHY",
        "streetDirectionId": "E",
        "streetTypeId": "RD",
        "placeName": "NOBEL",
        "streetNameDisplayText": "INVERLOCHY RD E, NOBEL"
      },
      {
        "electoralDistricts": [
          {
            "election": null,
            "id": 84,
            "name": "Parry Sound—Muskoka"
          }
        ],
        "pollDivisionIds": [
          10140962
        ],
        "postalCode": "P0G1G0",
        "streetName": "INVERLOCHY",
        "streetDirectionId": null,
        "streetTypeId": "RD",
        "placeName": "NOBEL",
        "streetNameDisplayText": "INVERLOCHY RD, NOBEL"
      },
      {
        "electoralDistricts": [
          {
            "election": null,
            "id": 84,
            "name": "Parry Sound—Muskoka"
          }
        ],
        "pollDivisionIds": [
          10140962
        ],
        "postalCode": "P0G1G0",
        "streetName": "IRELAND POINT",
        "streetDirectionId": null,
        "streetTypeId": "RD",
        "placeName": "NOBEL",
        "streetNameDisplayText": "IRELAND POINT RD, NOBEL"
      },
      {
        "electoralDistricts": [
          {
            "election": null,
            "id": 84,
            "name": "Parry Sound—Muskoka"
          }
        ],
        "pollDivisionIds": [
          10140962
        ],
        "postalCode": "P0G1G0",
        "streetName": "IROQUOIS",
        "streetDirectionId": null,
        "streetTypeId": "DR",
        "placeName": "NOBEL",
        "streetNameDisplayText": "IROQUOIS DR, NOBEL"
      },
      {
        "electoralDistricts": [
          {
            "election": null,
            "id": 84,
            "name": "Parry Sound—Muskoka"
          }
        ],
        "pollDivisionIds": [
          10143221
        ],
        "postalCode": "P0G1G0",
        "streetName": "IROQUOIS",
        "streetDirectionId": null,
        "streetTypeId": "RD",
        "placeName": "NOBEL",
        "streetNameDisplayText": "IROQUOIS RD, NOBEL"
      },
      {
        "electoralDistricts": [
          {
            "election": null,
            "id": 84,
            "name": "Parry Sound—Muskoka"
          }
        ],
        "pollDivisionIds": [
          10140962
        ],
        "postalCode": "P0G1G0",
        "streetName": "ISLAND 223C",
        "streetDirectionId": null,
        "streetTypeId": null,
        "placeName": "NOBEL",
        "streetNameDisplayText": "ISLAND 223C, NOBEL"
      },
      {
        "electoralDistricts": [
          {
            "election": null,
            "id": 84,
            "name": "Parry Sound—Muskoka"
          }
        ],
        "pollDivisionIds": [
          10140962
        ],
        "postalCode": "P0G1G0",
        "streetName": "ISLAND VIEW",
        "streetDirectionId": null,
        "streetTypeId": "DR",
        "placeName": "NOBEL",
        "streetNameDisplayText": "ISLAND VIEW DR, NOBEL"
      },
      {
        "electoralDistricts": [
          {
            "election": null,
            "id": 84,
            "name": "Parry Sound—Muskoka"
          }
        ],
        "pollDivisionIds": [
          10140962
        ],
        "postalCode": "P0G1G0",
        "streetName": "ISLANDVIEW",
        "streetDirectionId": null,
        "streetTypeId": "DR",
        "placeName": "NOBEL",
        "streetNameDisplayText": "ISLANDVIEW DR, NOBEL"
      },
      {
        "electoralDistricts": [
          {
            "election": null,
            "id": 84,
            "name": "Parry Sound—Muskoka"
          }
        ],
        "pollDivisionIds": [
          10140962
        ],
        "postalCode": "P0G1G0",
        "streetName": "JACKNIFE",
        "streetDirectionId": null,
        "streetTypeId": "RD",
        "placeName": "NOBEL",
        "streetNameDisplayText": "JACKNIFE RD, NOBEL"
      },
      {
        "electoralDistricts": [
          {
            "election": null,
            "id": 84,
            "name": "Parry Sound—Muskoka"
          }
        ],
        "pollDivisionIds": [
          10141021
        ],
        "postalCode": "P0G1G0",
        "streetName": "JACOB",
        "streetDirectionId": null,
        "streetTypeId": "ST",
        "placeName": "NOBEL",
        "streetNameDisplayText": "JACOB ST, NOBEL"
      },
      {
        "electoralDistricts": [
          {
            "election": null,
            "id": 84,
            "name": "Parry Sound—Muskoka"
          }
        ],
        "pollDivisionIds": [
          10143221
        ],
        "postalCode": "P0G1G0",
        "streetName": "JAMES RIDER",
        "streetDirectionId": null,
        "streetTypeId": "RD",
        "placeName": "NOBEL",
        "streetNameDisplayText": "JAMES RIDER RD, NOBEL"
      },
      {
        "electoralDistricts": [
          {
            "election": null,
            "id": 84,
            "name": "Parry Sound—Muskoka"
          }
        ],
        "pollDivisionIds": [
          10143221
        ],
        "postalCode": "P0G1G0",
        "streetName": "JAMES RYDER",
        "streetDirectionId": null,
        "streetTypeId": "RD",
        "placeName": "NOBEL",
        "streetNameDisplayText": "JAMES RYDER RD, NOBEL"
      },
      {
        "electoralDistricts": [
          {
            "election": null,
            "id": 84,
            "name": "Parry Sound—Muskoka"
          }
        ],
        "pollDivisionIds": [
          10143221
        ],
        "postalCode": "P0G1G0",
        "streetName": "JANET",
        "streetDirectionId": null,
        "streetTypeId": "LANE",
        "placeName": "NOBEL",
        "streetNameDisplayText": "JANET LANE, NOBEL"
      },
      {
        "electoralDistricts": [
          {
            "election": null,
            "id": 84,
            "name": "Parry Sound—Muskoka"
          }
        ],
        "pollDivisionIds": [
          10143221
        ],
        "postalCode": "P0G1G0",
        "streetName": "JOLLIFFE",
        "streetDirectionId": null,
        "streetTypeId": "LANE",
        "placeName": "NOBEL",
        "streetNameDisplayText": "JOLLIFFE LANE, NOBEL"
      },
      {
        "electoralDistricts": [
          {
            "election": null,
            "id": 84,
            "name": "Parry Sound—Muskoka"
          }
        ],
        "pollDivisionIds": [
          10140962
        ],
        "postalCode": "P0G1G0",
        "streetName": "KEYHOLE",
        "streetDirectionId": null,
        "streetTypeId": "RD",
        "placeName": "NOBEL",
        "streetNameDisplayText": "KEYHOLE RD, NOBEL"
      },
      {
        "electoralDistricts": [
          {
            "election": null,
            "id": 84,
            "name": "Parry Sound—Muskoka"
          }
        ],
        "pollDivisionIds": [
          10140962
        ],
        "postalCode": "P0G1G0",
        "streetName": "KILLBEAR PARK",
        "streetDirectionId": null,
        "streetTypeId": "RD",
        "placeName": "NOBEL",
        "streetNameDisplayText": "KILLBEAR PARK RD, NOBEL"
      },
      {
        "electoralDistricts": [
          {
            "election": null,
            "id": 84,
            "name": "Parry Sound—Muskoka"
          }
        ],
        "pollDivisionIds": [
          10140962
        ],
        "postalCode": "P0G1G0",
        "streetName": "KOLISNEKS",
        "streetDirectionId": null,
        "streetTypeId": "RD",
        "placeName": "NOBEL",
        "streetNameDisplayText": "KOLISNEKS RD, NOBEL"
      },
      {
        "electoralDistricts": [
          {
            "election": null,
            "id": 84,
            "name": "Parry Sound—Muskoka"
          }
        ],
        "pollDivisionIds": [
          10140954
        ],
        "postalCode": "P0G1G0",
        "streetName": "LAGOON",
        "streetDirectionId": null,
        "streetTypeId": "DR",
        "placeName": "NOBEL",
        "streetNameDisplayText": "LAGOON DR, NOBEL"
      },
      {
        "electoralDistricts": [
          {
            "election": null,
            "id": 84,
            "name": "Parry Sound—Muskoka"
          }
        ],
        "pollDivisionIds": [
          10140954
        ],
        "postalCode": "P0G1G0",
        "streetName": "LEASIDE",
        "streetDirectionId": null,
        "streetTypeId": "DR",
        "placeName": "NOBEL",
        "streetNameDisplayText": "LEASIDE DR, NOBEL"
      },
      {
        "electoralDistricts": [
          {
            "election": null,
            "id": 84,
            "name": "Parry Sound—Muskoka"
          }
        ],
        "pollDivisionIds": [
          10140962
        ],
        "postalCode": "P0G1G0",
        "streetName": "LINDA",
        "streetDirectionId": "E",
        "streetTypeId": "LANE",
        "placeName": "NOBEL",
        "streetNameDisplayText": "LINDA LANE E, NOBEL"
      },
      {
        "electoralDistricts": [
          {
            "election": null,
            "id": 84,
            "name": "Parry Sound—Muskoka"
          }
        ],
        "pollDivisionIds": [
          10140962
        ],
        "postalCode": "P0G1G0",
        "streetName": "LINDA",
        "streetDirectionId": "W",
        "streetTypeId": "LANE",
        "placeName": "NOBEL",
        "streetNameDisplayText": "LINDA LANE W, NOBEL"
      },
      {
        "electoralDistricts": [
          {
            "election": null,
            "id": 84,
            "name": "Parry Sound—Muskoka"
          }
        ],
        "pollDivisionIds": [
          10140963
        ],
        "postalCode": "P0G1G0",
        "streetName": "LITTLE MILL",
        "streetDirectionId": null,
        "streetTypeId": "RD",
        "placeName": "NOBEL",
        "streetNameDisplayText": "LITTLE MILL RD, NOBEL"
      },
      {
        "electoralDistricts": [
          {
            "election": null,
            "id": 84,
            "name": "Parry Sound—Muskoka"
          }
        ],
        "pollDivisionIds": [
          10140962
        ],
        "postalCode": "P0G1G0",
        "streetName": "LITTLES",
        "streetDirectionId": null,
        "streetTypeId": "LANE",
        "placeName": "NOBEL",
        "streetNameDisplayText": "LITTLES LANE, NOBEL"
      },
      {
        "electoralDistricts": [
          {
            "election": null,
            "id": 84,
            "name": "Parry Sound—Muskoka"
          }
        ],
        "pollDivisionIds": [
          10140962
        ],
        "postalCode": "P0G1G0",
        "streetName": "LITTLE'S",
        "streetDirectionId": null,
        "streetTypeId": "LANE",
        "placeName": "NOBEL",
        "streetNameDisplayText": "LITTLE'S LANE, NOBEL"
      },
      {
        "electoralDistricts": [
          {
            "election": null,
            "id": 84,
            "name": "Parry Sound—Muskoka"
          }
        ],
        "pollDivisionIds": [
          10140962
        ],
        "postalCode": "P0G1G0",
        "streetName": "LONG BAY",
        "streetDirectionId": null,
        "streetTypeId": "RD",
        "placeName": "NOBEL",
        "streetNameDisplayText": "LONG BAY RD, NOBEL"
      },
      {
        "electoralDistricts": [
          {
            "election": null,
            "id": 84,
            "name": "Parry Sound—Muskoka"
          }
        ],
        "pollDivisionIds": [
          10140954
        ],
        "postalCode": "P0G1G0",
        "streetName": "LOOKOUT",
        "streetDirectionId": null,
        "streetTypeId": "LANE",
        "placeName": "NOBEL",
        "streetNameDisplayText": "LOOKOUT LANE, NOBEL"
      },
      {
        "electoralDistricts": [
          {
            "election": null,
            "id": 84,
            "name": "Parry Sound—Muskoka"
          }
        ],
        "pollDivisionIds": [
          10140962
        ],
        "postalCode": "P0G1G0",
        "streetName": "MATTHEW BAY",
        "streetDirectionId": null,
        "streetTypeId": "DR",
        "placeName": "NOBEL",
        "streetNameDisplayText": "MATTHEW BAY DR, NOBEL"
      },
      {
        "electoralDistricts": [
          {
            "election": null,
            "id": 84,
            "name": "Parry Sound—Muskoka"
          }
        ],
        "pollDivisionIds": [
          10140962
        ],
        "postalCode": "P0G1G0",
        "streetName": "MAURY'S",
        "streetDirectionId": null,
        "streetTypeId": "RUN",
        "placeName": "NOBEL",
        "streetNameDisplayText": "MAURY'S RUN, NOBEL"
      },
      {
        "electoralDistricts": [
          {
            "election": null,
            "id": 84,
            "name": "Parry Sound—Muskoka"
          }
        ],
        "pollDivisionIds": [
          10140962
        ],
        "postalCode": "P0G1G0",
        "streetName": "MILL",
        "streetDirectionId": null,
        "streetTypeId": "RD",
        "placeName": "NOBEL",
        "streetNameDisplayText": "MILL RD, NOBEL"
      },
      {
        "electoralDistricts": [
          {
            "election": null,
            "id": 84,
            "name": "Parry Sound—Muskoka"
          }
        ],
        "pollDivisionIds": [
          10143221
        ],
        "postalCode": "P0G1G0",
        "streetName": "MINISTER'S",
        "streetDirectionId": null,
        "streetTypeId": "LANE",
        "placeName": "NOBEL",
        "streetNameDisplayText": "MINISTER'S LANE, NOBEL"
      },
      {
        "electoralDistricts": [
          {
            "election": null,
            "id": 84,
            "name": "Parry Sound—Muskoka"
          }
        ],
        "pollDivisionIds": [
          10140954
        ],
        "postalCode": "P0G1G0",
        "streetName": "MOONLIGHT",
        "streetDirectionId": null,
        "streetTypeId": "CRT",
        "placeName": "NOBEL",
        "streetNameDisplayText": "MOONLIGHT CRT, NOBEL"
      },
      {
        "electoralDistricts": [
          {
            "election": null,
            "id": 84,
            "name": "Parry Sound—Muskoka"
          }
        ],
        "pollDivisionIds": [
          10140962
        ],
        "postalCode": "P0G1G0",
        "streetName": "MORRISON",
        "streetDirectionId": null,
        "streetTypeId": "LANE",
        "placeName": "NOBEL",
        "streetNameDisplayText": "MORRISON LANE, NOBEL"
      },
      {
        "electoralDistricts": [
          {
            "election": null,
            "id": 84,
            "name": "Parry Sound—Muskoka"
          }
        ],
        "pollDivisionIds": [
          10140963
        ],
        "postalCode": "P0G1G0",
        "streetName": "NOBEL",
        "streetDirectionId": null,
        "streetTypeId": "RD",
        "placeName": "MCDOUGALL",
        "streetNameDisplayText": "NOBEL RD, MCDOUGALL"
      },
      {
        "electoralDistricts": [
          {
            "election": null,
            "id": 84,
            "name": "Parry Sound—Muskoka"
          }
        ],
        "pollDivisionIds": [
          10140963
        ],
        "postalCode": "P0G1G0",
        "streetName": "NOBEL",
        "streetDirectionId": null,
        "streetTypeId": "RD",
        "placeName": "NOBEL",
        "streetNameDisplayText": "NOBEL RD, NOBEL"
      },
      {
        "electoralDistricts": [
          {
            "election": null,
            "id": 84,
            "name": "Parry Sound—Muskoka"
          }
        ],
        "pollDivisionIds": [
          10140963
        ],
        "postalCode": "P0G1G0",
        "streetName": "NOBEL",
        "streetDirectionId": null,
        "streetTypeId": "RD",
        "placeName": "PARRY SOUND",
        "streetNameDisplayText": "NOBEL RD, PARRY SOUND"
      },
      {
        "electoralDistricts": [
          {
            "election": null,
            "id": 84,
            "name": "Parry Sound—Muskoka"
          }
        ],
        "pollDivisionIds": [
          10140962
        ],
        "postalCode": "P0G1G0",
        "streetName": "OLD CARLING",
        "streetDirectionId": null,
        "streetTypeId": "RD",
        "placeName": "NOBEL",
        "streetNameDisplayText": "OLD CARLING RD, NOBEL"
      },
      {
        "electoralDistricts": [
          {
            "election": null,
            "id": 84,
            "name": "Parry Sound—Muskoka"
          }
        ],
        "pollDivisionIds": [
          10140962
        ],
        "postalCode": "P0G1G0",
        "streetName": "OLD KILLBEAR",
        "streetDirectionId": null,
        "streetTypeId": "RD",
        "placeName": "NOBEL",
        "streetNameDisplayText": "OLD KILLBEAR RD, NOBEL"
      },
      {
        "electoralDistricts": [
          {
            "election": null,
            "id": 84,
            "name": "Parry Sound—Muskoka"
          }
        ],
        "pollDivisionIds": [
          10140962
        ],
        "postalCode": "P0G1G0",
        "streetName": "OPHIR CHANNEL",
        "streetDirectionId": null,
        "streetTypeId": "RD",
        "placeName": "NOBEL",
        "streetNameDisplayText": "OPHIR CHANNEL RD, NOBEL"
      },
      {
        "electoralDistricts": [
          {
            "election": null,
            "id": 84,
            "name": "Parry Sound—Muskoka"
          }
        ],
        "pollDivisionIds": [
          10143221
        ],
        "postalCode": "P0G1G0",
        "streetName": "OREDON",
        "streetDirectionId": null,
        "streetTypeId": "RD",
        "placeName": "NOBEL",
        "streetNameDisplayText": "OREDON RD, NOBEL"
      },
      {
        "electoralDistricts": [
          {
            "election": null,
            "id": 84,
            "name": "Parry Sound—Muskoka"
          }
        ],
        "pollDivisionIds": [
          10143221
        ],
        "postalCode": "P0G1G0",
        "streetName": "OREDON",
        "streetDirectionId": null,
        "streetTypeId": "TRAIL",
        "placeName": "NOBEL",
        "streetNameDisplayText": "OREDON TRAIL, NOBEL"
      },
      {
        "electoralDistricts": [
          {
            "election": null,
            "id": 84,
            "name": "Parry Sound—Muskoka"
          }
        ],
        "pollDivisionIds": [
          10140962
        ],
        "postalCode": "P0G1G0",
        "streetName": "OWENS COVE",
        "streetDirectionId": null,
        "streetTypeId": "RD",
        "placeName": "NOBEL",
        "streetNameDisplayText": "OWENS COVE RD, NOBEL"
      },
      {
        "electoralDistricts": [
          {
            "election": null,
            "id": 84,
            "name": "Parry Sound—Muskoka"
          }
        ],
        "pollDivisionIds": [
          10143221
        ],
        "postalCode": "P0G1G0",
        "streetName": "PALMERS",
        "streetDirectionId": null,
        "streetTypeId": "RD",
        "placeName": "NOBEL",
        "streetNameDisplayText": "PALMERS RD, NOBEL"
      },
      {
        "electoralDistricts": [
          {
            "election": null,
            "id": 84,
            "name": "Parry Sound—Muskoka"
          }
        ],
        "pollDivisionIds": [
          10143221
        ],
        "postalCode": "P0G1G0",
        "streetName": "PARKER",
        "streetDirectionId": null,
        "streetTypeId": "LANE",
        "placeName": "NOBEL",
        "streetNameDisplayText": "PARKER LANE, NOBEL"
      },
      {
        "electoralDistricts": [
          {
            "election": null,
            "id": 84,
            "name": "Parry Sound—Muskoka"
          }
        ],
        "pollDivisionIds": [
          10140963
        ],
        "postalCode": "P0G1G0",
        "streetName": "PARKWAY",
        "streetDirectionId": null,
        "streetTypeId": "AVE",
        "placeName": "NOBEL",
        "streetNameDisplayText": "PARKWAY AVE, NOBEL"
      },
      {
        "electoralDistricts": [
          {
            "election": null,
            "id": 84,
            "name": "Parry Sound—Muskoka"
          }
        ],
        "pollDivisionIds": [
          10140963,
          10140962
        ],
        "postalCode": "P0G1G0",
        "streetName": "PARKWAY",
        "streetDirectionId": null,
        "streetTypeId": "DR",
        "placeName": "NOBEL",
        "streetNameDisplayText": "PARKWAY DR, NOBEL"
      },
      {
        "electoralDistricts": [
          {
            "election": null,
            "id": 84,
            "name": "Parry Sound—Muskoka"
          }
        ],
        "pollDivisionIds": [
          10140962
        ],
        "postalCode": "P0G1G0",
        "streetName": "PARTRIDGE BAY",
        "streetDirectionId": null,
        "streetTypeId": "DR",
        "placeName": "NOBEL",
        "streetNameDisplayText": "PARTRIDGE BAY DR, NOBEL"
      },
      {
        "electoralDistricts": [
          {
            "election": null,
            "id": 84,
            "name": "Parry Sound—Muskoka"
          }
        ],
        "pollDivisionIds": [
          10140954
        ],
        "postalCode": "P0G1G0",
        "streetName": "PATTISON",
        "streetDirectionId": null,
        "streetTypeId": "LANE",
        "placeName": "NOBEL",
        "streetNameDisplayText": "PATTISON LANE, NOBEL"
      },
      {
        "electoralDistricts": [
          {
            "election": null,
            "id": 84,
            "name": "Parry Sound—Muskoka"
          },
          {
            "election": null,
            "id": 45,
            "name": "King—Vaughan"
          }
        ],
        "pollDivisionIds": [
          10140962,
          10102975
        ],
        "postalCode": "P0G1G0",
        "streetName": "PENGALLY BAY",
        "streetDirectionId": null,
        "streetTypeId": "RD",
        "placeName": "NOBEL",
        "streetNameDisplayText": "PENGALLY BAY RD, NOBEL"
      },
      {
        "electoralDistricts": [
          {
            "election": null,
            "id": 84,
            "name": "Parry Sound—Muskoka"
          }
        ],
        "pollDivisionIds": [
          10140962
        ],
        "postalCode": "P0G1G0",
        "streetName": "PHILLIP",
        "streetDirectionId": null,
        "streetTypeId": "DR",
        "placeName": "NOBEL",
        "streetNameDisplayText": "PHILLIP DR, NOBEL"
      },
      {
        "electoralDistricts": [
          {
            "election": null,
            "id": 84,
            "name": "Parry Sound—Muskoka"
          }
        ],
        "pollDivisionIds": [
          10140962
        ],
        "postalCode": "P0G1G0",
        "streetName": "PICNIC",
        "streetDirectionId": null,
        "streetTypeId": "LANE",
        "placeName": "NOBEL",
        "streetNameDisplayText": "PICNIC LANE, NOBEL"
      },
      {
        "electoralDistricts": [
          {
            "election": null,
            "id": 84,
            "name": "Parry Sound—Muskoka"
          }
        ],
        "pollDivisionIds": [
          10140962
        ],
        "postalCode": "P0G1G0",
        "streetName": "PINE VALLEY",
        "streetDirectionId": null,
        "streetTypeId": "DR",
        "placeName": "NOBEL",
        "streetNameDisplayText": "PINE VALLEY DR, NOBEL"
      },
      {
        "electoralDistricts": [
          {
            "election": null,
            "id": 84,
            "name": "Parry Sound—Muskoka"
          }
        ],
        "pollDivisionIds": [
          10143221
        ],
        "postalCode": "P0G1G0",
        "streetName": "POACHERS",
        "streetDirectionId": "N",
        "streetTypeId": "PT",
        "placeName": "NOBEL",
        "streetNameDisplayText": "POACHERS PT N, NOBEL"
      },
      {
        "electoralDistricts": [
          {
            "election": null,
            "id": 84,
            "name": "Parry Sound—Muskoka"
          }
        ],
        "pollDivisionIds": [
          10143221
        ],
        "postalCode": "P0G1G0",
        "streetName": "RED OAK",
        "streetDirectionId": null,
        "streetTypeId": "RD",
        "placeName": "NOBEL",
        "streetNameDisplayText": "RED OAK RD, NOBEL"
      },
      {
        "electoralDistricts": [
          {
            "election": null,
            "id": 84,
            "name": "Parry Sound—Muskoka"
          }
        ],
        "pollDivisionIds": [
          10140962
        ],
        "postalCode": "P0G1G0",
        "streetName": "REMY BAY",
        "streetDirectionId": null,
        "streetTypeId": "RD",
        "placeName": "NOBEL",
        "streetNameDisplayText": "REMY BAY RD, NOBEL"
      },
      {
        "electoralDistricts": [
          {
            "election": null,
            "id": 84,
            "name": "Parry Sound—Muskoka"
          }
        ],
        "pollDivisionIds": [
          10140962
        ],
        "postalCode": "P0G1G0",
        "streetName": "RICHARDS LAKE",
        "streetDirectionId": null,
        "streetTypeId": "RD",
        "placeName": "NOBEL",
        "streetNameDisplayText": "RICHARDS LAKE RD, NOBEL"
      },
      {
        "electoralDistricts": [
          {
            "election": null,
            "id": 84,
            "name": "Parry Sound—Muskoka"
          }
        ],
        "pollDivisionIds": [
          10143221
        ],
        "postalCode": "P0G1G0",
        "streetName": "RICHMONDS",
        "streetDirectionId": null,
        "streetTypeId": "RD",
        "placeName": "NOBEL",
        "streetNameDisplayText": "RICHMONDS RD, NOBEL"
      },
      {
        "electoralDistricts": [
          {
            "election": null,
            "id": 84,
            "name": "Parry Sound—Muskoka"
          }
        ],
        "pollDivisionIds": [
          10140954
        ],
        "postalCode": "P0G1G0",
        "streetName": "RICHWOOD",
        "streetDirectionId": null,
        "streetTypeId": "DR",
        "placeName": "NOBEL",
        "streetNameDisplayText": "RICHWOOD DR, NOBEL"
      },
      {
        "electoralDistricts": [
          {
            "election": null,
            "id": 84,
            "name": "Parry Sound—Muskoka"
          }
        ],
        "pollDivisionIds": [
          10140962
        ],
        "postalCode": "P0G1G0",
        "streetName": "RIDGEWAY",
        "streetDirectionId": null,
        "streetTypeId": "DR",
        "placeName": "NOBEL",
        "streetNameDisplayText": "RIDGEWAY DR, NOBEL"
      },
      {
        "electoralDistricts": [
          {
            "election": null,
            "id": 84,
            "name": "Parry Sound—Muskoka"
          }
        ],
        "pollDivisionIds": [
          10140954
        ],
        "postalCode": "P0G1G0",
        "streetName": "ROCK ISLAND LAKE",
        "streetDirectionId": null,
        "streetTypeId": "RD",
        "placeName": "NOBEL",
        "streetNameDisplayText": "ROCK ISLAND LAKE RD, NOBEL"
      },
      {
        "electoralDistricts": [
          {
            "election": null,
            "id": 84,
            "name": "Parry Sound—Muskoka"
          }
        ],
        "pollDivisionIds": [
          10140954
        ],
        "postalCode": "P0G1G0",
        "streetName": "ROCK",
        "streetDirectionId": null,
        "streetTypeId": "ISLAND",
        "placeName": "NOBEL",
        "streetNameDisplayText": "ROCK ISLAND, NOBEL"
      },
      {
        "electoralDistricts": [
          {
            "election": null,
            "id": 84,
            "name": "Parry Sound—Muskoka"
          }
        ],
        "pollDivisionIds": [
          10140962
        ],
        "postalCode": "P0G1G0",
        "streetName": "ROCKCLIFFE",
        "streetDirectionId": "N",
        "streetTypeId": "DR",
        "placeName": "NOBEL",
        "streetNameDisplayText": "ROCKCLIFFE DR N, NOBEL"
      },
      {
        "electoralDistricts": [
          {
            "election": null,
            "id": 84,
            "name": "Parry Sound—Muskoka"
          }
        ],
        "pollDivisionIds": [
          10140962
        ],
        "postalCode": "P0G1G0",
        "streetName": "ROCKCLIFFE",
        "streetDirectionId": "S",
        "streetTypeId": "DR",
        "placeName": "NOBEL",
        "streetNameDisplayText": "ROCKCLIFFE DR S, NOBEL"
      },
      {
        "electoralDistricts": [
          {
            "election": null,
            "id": 84,
            "name": "Parry Sound—Muskoka"
          }
        ],
        "pollDivisionIds": [
          10140962
        ],
        "postalCode": "P0G1G0",
        "streetName": "ROCKCLIFFE",
        "streetDirectionId": null,
        "streetTypeId": "DR",
        "placeName": "NOBEL",
        "streetNameDisplayText": "ROCKCLIFFE DR, NOBEL"
      },
      {
        "electoralDistricts": [
          {
            "election": null,
            "id": 84,
            "name": "Parry Sound—Muskoka"
          }
        ],
        "pollDivisionIds": [
          10143221
        ],
        "postalCode": "P0G1G0",
        "streetName": "SAND BAY",
        "streetDirectionId": null,
        "streetTypeId": "RD",
        "placeName": "NOBEL",
        "streetNameDisplayText": "SAND BAY RD, NOBEL"
      },
      {
        "electoralDistricts": [
          {
            "election": null,
            "id": 84,
            "name": "Parry Sound—Muskoka"
          }
        ],
        "pollDivisionIds": [
          10140962
        ],
        "postalCode": "P0G1G0",
        "streetName": "SAWDUST BAY",
        "streetDirectionId": "N",
        "streetTypeId": "RD",
        "placeName": "NOBEL",
        "streetNameDisplayText": "SAWDUST BAY RD N, NOBEL"
      },
      {
        "electoralDistricts": [
          {
            "election": null,
            "id": 84,
            "name": "Parry Sound—Muskoka"
          }
        ],
        "pollDivisionIds": [
          10140962
        ],
        "postalCode": "P0G1G0",
        "streetName": "SAWDUST BAY",
        "streetDirectionId": "S",
        "streetTypeId": "RD",
        "placeName": "NOBEL",
        "streetNameDisplayText": "SAWDUST BAY RD S, NOBEL"
      },
      {
        "electoralDistricts": [
          {
            "election": null,
            "id": 84,
            "name": "Parry Sound—Muskoka"
          }
        ],
        "pollDivisionIds": [
          10141021
        ],
        "postalCode": "P0G1G0",
        "streetName": "SHAWANAGA 17",
        "streetDirectionId": null,
        "streetTypeId": null,
        "placeName": "NOBEL",
        "streetNameDisplayText": "SHAWANAGA 17, NOBEL"
      },
      {
        "electoralDistricts": [
          {
            "election": null,
            "id": 84,
            "name": "Parry Sound—Muskoka"
          }
        ],
        "pollDivisionIds": [
          10140954
        ],
        "postalCode": "P0G1G0",
        "streetName": "SHAWANAGA LANDING",
        "streetDirectionId": null,
        "streetTypeId": "RD",
        "placeName": "NOBEL",
        "streetNameDisplayText": "SHAWANAGA LANDING RD, NOBEL"
      },
      {
        "electoralDistricts": [
          {
            "election": null,
            "id": 84,
            "name": "Parry Sound—Muskoka"
          }
        ],
        "pollDivisionIds": [
          10143221
        ],
        "postalCode": "P0G1G0",
        "streetName": "SHAWANAGA",
        "streetDirectionId": "N",
        "streetTypeId": "RD",
        "placeName": "NOBEL",
        "streetNameDisplayText": "SHAWANAGA RD N, NOBEL"
      },
      {
        "electoralDistricts": [
          {
            "election": null,
            "id": 84,
            "name": "Parry Sound—Muskoka"
          }
        ],
        "pollDivisionIds": [
          10143221
        ],
        "postalCode": "P0G1G0",
        "streetName": "SHAWANAGA",
        "streetDirectionId": "S",
        "streetTypeId": "RD",
        "placeName": "NOBEL",
        "streetNameDisplayText": "SHAWANAGA RD S, NOBEL"
      },
      {
        "electoralDistricts": [
          {
            "election": null,
            "id": 84,
            "name": "Parry Sound—Muskoka"
          }
        ],
        "pollDivisionIds": [
          10143221
        ],
        "postalCode": "P0G1G0",
        "streetName": "SHEBESHEKONG ESTATES",
        "streetDirectionId": "N",
        "streetTypeId": "RD",
        "placeName": "NOBEL",
        "streetNameDisplayText": "SHEBESHEKONG ESTATES RD N, NOBEL"
      },
      {
        "electoralDistricts": [
          {
            "election": null,
            "id": 84,
            "name": "Parry Sound—Muskoka"
          }
        ],
        "pollDivisionIds": [
          10143221
        ],
        "postalCode": "P0G1G0",
        "streetName": "SHEBESHEKONG ESTATES",
        "streetDirectionId": "S",
        "streetTypeId": "RD",
        "placeName": "NOBEL",
        "streetNameDisplayText": "SHEBESHEKONG ESTATES RD S, NOBEL"
      },
      {
        "electoralDistricts": [
          {
            "election": null,
            "id": 84,
            "name": "Parry Sound—Muskoka"
          }
        ],
        "pollDivisionIds": [
          10143221
        ],
        "postalCode": "P0G1G0",
        "streetName": "SHEBESHEKONG ESTATES",
        "streetDirectionId": null,
        "streetTypeId": "RD",
        "placeName": "NOBEL",
        "streetNameDisplayText": "SHEBESHEKONG ESTATES RD, NOBEL"
      },
      {
        "electoralDistricts": [
          {
            "election": null,
            "id": 84,
            "name": "Parry Sound—Muskoka"
          }
        ],
        "pollDivisionIds": [
          10143221
        ],
        "postalCode": "P0G1G0",
        "streetName": "SHEBESHEKONG",
        "streetDirectionId": "E",
        "streetTypeId": "RD",
        "placeName": "NOBEL",
        "streetNameDisplayText": "SHEBESHEKONG RD E, NOBEL"
      },
      {
        "electoralDistricts": [
          {
            "election": null,
            "id": 84,
            "name": "Parry Sound—Muskoka"
          }
        ],
        "pollDivisionIds": [
          10143221,
          10141021
        ],
        "postalCode": "P0G1G0",
        "streetName": "SHEBESHEKONG",
        "streetDirectionId": "N",
        "streetTypeId": "RD",
        "placeName": "NOBEL",
        "streetNameDisplayText": "SHEBESHEKONG RD N, NOBEL"
      },
      {
        "electoralDistricts": [
          {
            "election": null,
            "id": 84,
            "name": "Parry Sound—Muskoka"
          }
        ],
        "pollDivisionIds": [
          10143221
        ],
        "postalCode": "P0G1G0",
        "streetName": "SHEBESHEKONG",
        "streetDirectionId": "S",
        "streetTypeId": "RD",
        "placeName": "NOBEL",
        "streetNameDisplayText": "SHEBESHEKONG RD S, NOBEL"
      },
      {
        "electoralDistricts": [
          {
            "election": null,
            "id": 84,
            "name": "Parry Sound—Muskoka"
          }
        ],
        "pollDivisionIds": [
          10143221
        ],
        "postalCode": "P0G1G0",
        "streetName": "SHEBESHEKONG",
        "streetDirectionId": null,
        "streetTypeId": "RD",
        "placeName": "NOBEL",
        "streetNameDisplayText": "SHEBESHEKONG RD, NOBEL"
      },
      {
        "electoralDistricts": [
          {
            "election": null,
            "id": 84,
            "name": "Parry Sound—Muskoka"
          }
        ],
        "pollDivisionIds": [
          10143221
        ],
        "postalCode": "P0G1G0",
        "streetName": "SILVER BIRCH",
        "streetDirectionId": null,
        "streetTypeId": "RD",
        "placeName": "NOBEL",
        "streetNameDisplayText": "SILVER BIRCH RD, NOBEL"
      },
      {
        "electoralDistricts": [
          {
            "election": null,
            "id": 84,
            "name": "Parry Sound—Muskoka"
          }
        ],
        "pollDivisionIds": [
          10140954
        ],
        "postalCode": "P0G1G0",
        "streetName": "SKERRYVORE COMMUNITY",
        "streetDirectionId": null,
        "streetTypeId": "RD",
        "placeName": "NOBEL",
        "streetNameDisplayText": "SKERRYVORE COMMUNITY RD, NOBEL"
      },
      {
        "electoralDistricts": [
          {
            "election": null,
            "id": 84,
            "name": "Parry Sound—Muskoka"
          }
        ],
        "pollDivisionIds": [
          10143221,
          10140962
        ],
        "postalCode": "P0G1G0",
        "streetName": "SNUG HARBOUR",
        "streetDirectionId": null,
        "streetTypeId": "RD",
        "placeName": "NOBEL",
        "streetNameDisplayText": "SNUG HARBOUR RD, NOBEL"
      },
      {
        "electoralDistricts": [
          {
            "election": null,
            "id": 84,
            "name": "Parry Sound—Muskoka"
          }
        ],
        "pollDivisionIds": [
          10140962
        ],
        "postalCode": "P0G1G0",
        "streetName": "SNUG HAVEN",
        "streetDirectionId": null,
        "streetTypeId": "RD",
        "placeName": "NOBEL",
        "streetNameDisplayText": "SNUG HAVEN RD, NOBEL"
      },
      {
        "electoralDistricts": [
          {
            "election": null,
            "id": 84,
            "name": "Parry Sound—Muskoka"
          }
        ],
        "pollDivisionIds": [
          10140962
        ],
        "postalCode": "P0G1G0",
        "streetName": "SUNDANCE",
        "streetDirectionId": null,
        "streetTypeId": "TRAIL",
        "placeName": "NOBEL",
        "streetNameDisplayText": "SUNDANCE TRAIL, NOBEL"
      },
      {
        "electoralDistricts": [
          {
            "election": null,
            "id": 84,
            "name": "Parry Sound—Muskoka"
          }
        ],
        "pollDivisionIds": [
          10140954
        ],
        "postalCode": "P0G1G0",
        "streetName": "TAMARACK",
        "streetDirectionId": null,
        "streetTypeId": "DR",
        "placeName": "NOBEL",
        "streetNameDisplayText": "TAMARACK DR, NOBEL"
      },
      {
        "electoralDistricts": [
          {
            "election": null,
            "id": 84,
            "name": "Parry Sound—Muskoka"
          }
        ],
        "pollDivisionIds": [
          10143221
        ],
        "postalCode": "P0G1G0",
        "streetName": "TOM COOPERS",
        "streetDirectionId": null,
        "streetTypeId": "RD",
        "placeName": "NOBEL",
        "streetNameDisplayText": "TOM COOPERS RD, NOBEL"
      },
      {
        "electoralDistricts": [
          {
            "election": null,
            "id": 84,
            "name": "Parry Sound—Muskoka"
          }
        ],
        "pollDivisionIds": [
          10143221
        ],
        "postalCode": "P0G1G0",
        "streetName": "TOM COOPER'S",
        "streetDirectionId": null,
        "streetTypeId": "RD",
        "placeName": "NOBEL",
        "streetNameDisplayText": "TOM COOPER'S RD, NOBEL"
      },
      {
        "electoralDistricts": [
          {
            "election": null,
            "id": 84,
            "name": "Parry Sound—Muskoka"
          }
        ],
        "pollDivisionIds": [
          10141021
        ],
        "postalCode": "P0G1G0",
        "streetName": "TUCKERS",
        "streetDirectionId": null,
        "streetTypeId": "RD",
        "placeName": "NOBEL",
        "streetNameDisplayText": "TUCKERS RD, NOBEL"
      },
      {
        "electoralDistricts": [
          {
            "election": null,
            "id": 84,
            "name": "Parry Sound—Muskoka"
          }
        ],
        "pollDivisionIds": [
          10141021
        ],
        "postalCode": "P0G1G0",
        "streetName": "VILLAGE",
        "streetDirectionId": null,
        "streetTypeId": "RD",
        "placeName": "NOBEL",
        "streetNameDisplayText": "VILLAGE RD, NOBEL"
      },
      {
        "electoralDistricts": [
          {
            "election": null,
            "id": 84,
            "name": "Parry Sound—Muskoka"
          }
        ],
        "pollDivisionIds": [
          10141021
        ],
        "postalCode": "P0G1G0",
        "streetName": "VILLAGE",
        "streetDirectionId": null,
        "streetTypeId": "RD",
        "placeName": "SHAWANAGA 17",
        "streetNameDisplayText": "VILLAGE RD, SHAWANAGA 17"
      },
      {
        "electoralDistricts": [
          {
            "election": null,
            "id": 84,
            "name": "Parry Sound—Muskoka"
          }
        ],
        "pollDivisionIds": [
          10140962
        ],
        "postalCode": "P0G1G0",
        "streetName": "WALTON'S POOL",
        "streetDirectionId": null,
        "streetTypeId": "RD",
        "placeName": "NOBEL",
        "streetNameDisplayText": "WALTON'S POOL RD, NOBEL"
      },
      {
        "electoralDistricts": [
          {
            "election": null,
            "id": 84,
            "name": "Parry Sound—Muskoka"
          }
        ],
        "pollDivisionIds": [
          10140962
        ],
        "postalCode": "P0G1G0",
        "streetName": "WARDS",
        "streetDirectionId": null,
        "streetTypeId": "LANE",
        "placeName": "NOBEL",
        "streetNameDisplayText": "WARDS LANE, NOBEL"
      },
      {
        "electoralDistricts": [
          {
            "election": null,
            "id": 84,
            "name": "Parry Sound—Muskoka"
          }
        ],
        "pollDivisionIds": [
          10140962
        ],
        "postalCode": "P0G1G0",
        "streetName": "WATER ACC ZONE G",
        "streetDirectionId": null,
        "streetTypeId": null,
        "placeName": "NOBEL",
        "streetNameDisplayText": "WATER ACC ZONE G, NOBEL"
      },
      {
        "electoralDistricts": [
          {
            "election": null,
            "id": 84,
            "name": "Parry Sound—Muskoka"
          }
        ],
        "pollDivisionIds": [
          10140962
        ],
        "postalCode": "P0G1G0",
        "streetName": "WATER ACC ZONE L",
        "streetDirectionId": null,
        "streetTypeId": null,
        "placeName": "NOBEL",
        "streetNameDisplayText": "WATER ACC ZONE L, NOBEL"
      },
      {
        "electoralDistricts": [
          {
            "election": null,
            "id": 84,
            "name": "Parry Sound—Muskoka"
          }
        ],
        "pollDivisionIds": [
          10140962
        ],
        "postalCode": "P0G1G0",
        "streetName": "WATER ACCESS ZONE L",
        "streetDirectionId": null,
        "streetTypeId": null,
        "placeName": "NOBEL",
        "streetNameDisplayText": "WATER ACCESS ZONE L, NOBEL"
      },
      {
        "electoralDistricts": [
          {
            "election": null,
            "id": 84,
            "name": "Parry Sound—Muskoka"
          }
        ],
        "pollDivisionIds": [
          10140964,
          10140962
        ],
        "postalCode": "P0G1G0",
        "streetName": "WATER ACCESS ZONE",
        "streetDirectionId": null,
        "streetTypeId": null,
        "placeName": "NOBEL",
        "streetNameDisplayText": "WATER ACCESS ZONE, NOBEL"
      },
      {
        "electoralDistricts": [
          {
            "election": null,
            "id": 84,
            "name": "Parry Sound—Muskoka"
          }
        ],
        "pollDivisionIds": [
          10143221
        ],
        "postalCode": "P0G1G0",
        "streetName": "WAWANAISA",
        "streetDirectionId": null,
        "streetTypeId": "RD",
        "placeName": "NOBEL",
        "streetNameDisplayText": "WAWANAISA RD, NOBEL"
      },
      {
        "electoralDistricts": [
          {
            "election": null,
            "id": 84,
            "name": "Parry Sound—Muskoka"
          }
        ],
        "pollDivisionIds": [
          10140962
        ],
        "postalCode": "P0G1G0",
        "streetName": "WAZL",
        "streetDirectionId": null,
        "streetTypeId": null,
        "placeName": "NOBEL",
        "streetNameDisplayText": "WAZL, NOBEL"
      },
      {
        "electoralDistricts": [
          {
            "election": null,
            "id": 84,
            "name": "Parry Sound—Muskoka"
          }
        ],
        "pollDivisionIds": [
          10140962
        ],
        "postalCode": "P0G1G0",
        "streetName": "WEST CARLING BAY",
        "streetDirectionId": "W",
        "streetTypeId": "RD",
        "placeName": "NOBEL",
        "streetNameDisplayText": "WEST CARLING BAY RD W, NOBEL"
      },
      {
        "electoralDistricts": [
          {
            "election": null,
            "id": 84,
            "name": "Parry Sound—Muskoka"
          }
        ],
        "pollDivisionIds": [
          10140962
        ],
        "postalCode": "P0G1G0",
        "streetName": "WEST WIND",
        "streetDirectionId": null,
        "streetTypeId": "TRAIL",
        "placeName": "NOBEL",
        "streetNameDisplayText": "WEST WIND TRAIL, NOBEL"
      },
      {
        "electoralDistricts": [
          {
            "election": null,
            "id": 84,
            "name": "Parry Sound—Muskoka"
          }
        ],
        "pollDivisionIds": [
          10143221
        ],
        "postalCode": "P0G1G0",
        "streetName": "WHIP-POOR-WILLS",
        "streetDirectionId": "E",
        "streetTypeId": "LANE",
        "placeName": "NOBEL",
        "streetNameDisplayText": "WHIP-POOR-WILLS LANE E, NOBEL"
      },
      {
        "electoralDistricts": [
          {
            "election": null,
            "id": 84,
            "name": "Parry Sound—Muskoka"
          }
        ],
        "pollDivisionIds": [
          10143221
        ],
        "postalCode": "P0G1G0",
        "streetName": "WHIP-POOR-WILLS",
        "streetDirectionId": null,
        "streetTypeId": "LANE",
        "placeName": "NOBEL",
        "streetNameDisplayText": "WHIP-POOR-WILLS LANE, NOBEL"
      },
      {
        "electoralDistricts": [
          {
            "election": null,
            "id": 84,
            "name": "Parry Sound—Muskoka"
          }
        ],
        "pollDivisionIds": [
          10140954
        ],
        "postalCode": "P0G1G0",
        "streetName": "WINDCLIFFE",
        "streetDirectionId": null,
        "streetTypeId": "DR",
        "placeName": "NOBEL",
        "streetNameDisplayText": "WINDCLIFFE DR, NOBEL"
      },
      {
        "electoralDistricts": [
          {
            "election": null,
            "id": 84,
            "name": "Parry Sound—Muskoka"
          }
        ],
        "pollDivisionIds": [
          10143221
        ],
        "postalCode": "P0G1G0",
        "streetName": "WINETOU",
        "streetDirectionId": null,
        "streetTypeId": "LANE",
        "placeName": "NOBEL",
        "streetNameDisplayText": "WINETOU LANE, NOBEL"
      },
      {
        "electoralDistricts": [
          {
            "election": null,
            "id": 84,
            "name": "Parry Sound—Muskoka"
          }
        ],
        "pollDivisionIds": [
          10143221
        ],
        "postalCode": "P0G1G0",
        "streetName": "WINNETOU",
        "streetDirectionId": null,
        "streetTypeId": "LANE",
        "placeName": "NOBEL",
        "streetNameDisplayText": "WINNETOU LANE, NOBEL"
      },
      {
        "electoralDistricts": [
          {
            "election": null,
            "id": 84,
            "name": "Parry Sound—Muskoka"
          }
        ],
        "pollDivisionIds": [
          10143221
        ],
        "postalCode": "P0G1G0",
        "streetName": "WOODS",
        "streetDirectionId": null,
        "streetTypeId": "RD",
        "placeName": "NOBEL",
        "streetNameDisplayText": "WOODS RD, NOBEL"
      },
      {
        "electoralDistricts": [
          {
            "election": null,
            "id": 84,
            "name": "Parry Sound—Muskoka"
          }
        ],
        "pollDivisionIds": [
          10143221
        ],
        "postalCode": "P0G1G0",
        "streetName": "WOODYS",
        "streetDirectionId": null,
        "streetTypeId": "LANE",
        "placeName": "NOBEL",
        "streetNameDisplayText": "WOODYS LANE, NOBEL"
      },
      {
        "electoralDistricts": [
          {
            "election": null,
            "id": 84,
            "name": "Parry Sound—Muskoka"
          }
        ],
        "pollDivisionIds": [
          10143221
        ],
        "postalCode": "P0G1G0",
        "streetName": "WORSLEY",
        "streetDirectionId": null,
        "streetTypeId": "LANE",
        "placeName": "NOBEL",
        "streetNameDisplayText": "WORSLEY LANE, NOBEL"
      }
    ]
  },
  {
    "postal": "P0G1J0",
    "result": [
      {
        "electoralDistricts": [
          {
            "election": null,
            "id": 84,
            "name": "Parry Sound—Muskoka"
          }
        ],
        "pollDivisionIds": [
          10143238
        ],
        "postalCode": "P0G1J0",
        "streetName": "FRENCH RIVER 13",
        "streetDirectionId": null,
        "streetTypeId": null,
        "placeName": "PICKEREL",
        "streetNameDisplayText": "FRENCH RIVER 13, PICKEREL"
      },
      {
        "electoralDistricts": [
          {
            "election": null,
            "id": 84,
            "name": "Parry Sound—Muskoka"
          }
        ],
        "pollDivisionIds": [
          10143238
        ],
        "postalCode": "P0G1J0",
        "streetName": "MILTONS",
        "streetDirectionId": null,
        "streetTypeId": "LANE",
        "placeName": "BRITT",
        "streetNameDisplayText": "MILTONS LANE, BRITT"
      },
      {
        "electoralDistricts": [
          {
            "election": null,
            "id": 84,
            "name": "Parry Sound—Muskoka"
          }
        ],
        "pollDivisionIds": [
          10143238
        ],
        "postalCode": "P0G1J0",
        "streetName": "PICKEREL RIVER",
        "streetDirectionId": null,
        "streetTypeId": "RD",
        "placeName": "PICKEREL",
        "streetNameDisplayText": "PICKEREL RIVER RD, PICKEREL"
      },
      {
        "electoralDistricts": [
          {
            "election": null,
            "id": 84,
            "name": "Parry Sound—Muskoka"
          }
        ],
        "pollDivisionIds": [
          10143238
        ],
        "postalCode": "P0G1J0",
        "streetName": "SUB",
        "streetDirectionId": null,
        "streetTypeId": "RD",
        "placeName": "PICKEREL",
        "streetNameDisplayText": "SUB RD, PICKEREL"
      },
      {
        "electoralDistricts": [
          {
            "election": null,
            "id": 84,
            "name": "Parry Sound—Muskoka"
          }
        ],
        "pollDivisionIds": [
          10143238
        ],
        "postalCode": "P0G1J0",
        "streetName": "WEST",
        "streetDirectionId": null,
        "streetTypeId": "RD",
        "placeName": "PICKEREL",
        "streetNameDisplayText": "WEST RD, PICKEREL"
      }
    ]
  },
  {
    "postal": "P0G1K0",
    "result": [
      {
        "electoralDistricts": [
          {
            "election": null,
            "id": 84,
            "name": "Parry Sound—Muskoka"
          }
        ],
        "pollDivisionIds": [
          10140954
        ],
        "postalCode": "P0G1K0",
        "streetName": "529",
        "streetDirectionId": null,
        "streetTypeId": "HWY",
        "placeName": "POINTE-AU-BARIL-STATION",
        "streetNameDisplayText": "529 HWY, POINTE-AU-BARIL-STATION"
      },
      {
        "electoralDistricts": [
          {
            "election": null,
            "id": 84,
            "name": "Parry Sound—Muskoka"
          }
        ],
        "pollDivisionIds": [
          10140954
        ],
        "postalCode": "P0G1K0",
        "streetName": "529A",
        "streetDirectionId": null,
        "streetTypeId": "HWY",
        "placeName": "POINTE-AU-BARIL-STATION",
        "streetNameDisplayText": "529A HWY, POINTE-AU-BARIL-STATION"
      },
      {
        "electoralDistricts": [
          {
            "election": null,
            "id": 84,
            "name": "Parry Sound—Muskoka"
          }
        ],
        "pollDivisionIds": [
          10140954
        ],
        "postalCode": "P0G1K0",
        "streetName": "69",
        "streetDirectionId": null,
        "streetTypeId": "HWY",
        "placeName": "POINTE-AU-BARIL-STATION",
        "streetNameDisplayText": "69 HWY, POINTE-AU-BARIL-STATION"
      },
      {
        "electoralDistricts": [
          {
            "election": null,
            "id": 84,
            "name": "Parry Sound—Muskoka"
          }
        ],
        "pollDivisionIds": [
          10140954
        ],
        "postalCode": "P0G1K0",
        "streetName": "A1079",
        "streetDirectionId": null,
        "streetTypeId": "ISLAND",
        "placeName": "POINTE-AU-BARIL-STATION",
        "streetNameDisplayText": "A1079 ISLAND, POINTE-AU-BARIL-STATION"
      },
      {
        "electoralDistricts": [
          {
            "election": null,
            "id": 84,
            "name": "Parry Sound—Muskoka"
          }
        ],
        "pollDivisionIds": [
          10140954
        ],
        "postalCode": "P0G1K0",
        "streetName": "A25",
        "streetDirectionId": null,
        "streetTypeId": "ISLAND",
        "placeName": "POINTE-AU-BARIL-STATION",
        "streetNameDisplayText": "A25 ISLAND, POINTE-AU-BARIL-STATION"
      },
      {
        "electoralDistricts": [
          {
            "election": null,
            "id": 84,
            "name": "Parry Sound—Muskoka"
          }
        ],
        "pollDivisionIds": [
          10140954
        ],
        "postalCode": "P0G1K0",
        "streetName": "A3",
        "streetDirectionId": null,
        "streetTypeId": "ISLAND",
        "placeName": "POINTE-AU-BARIL-STATION",
        "streetNameDisplayText": "A3 ISLAND, POINTE-AU-BARIL-STATION"
      },
      {
        "electoralDistricts": [
          {
            "election": null,
            "id": 84,
            "name": "Parry Sound—Muskoka"
          }
        ],
        "pollDivisionIds": [
          10140954
        ],
        "postalCode": "P0G1K0",
        "streetName": "A30",
        "streetDirectionId": null,
        "streetTypeId": "ISLAND",
        "placeName": "POINTE-AU-BARIL-STATION",
        "streetNameDisplayText": "A30 ISLAND, POINTE-AU-BARIL-STATION"
      },
      {
        "electoralDistricts": [
          {
            "election": null,
            "id": 84,
            "name": "Parry Sound—Muskoka"
          }
        ],
        "pollDivisionIds": [
          10140954
        ],
        "postalCode": "P0G1K0",
        "streetName": "A49",
        "streetDirectionId": null,
        "streetTypeId": "ISLAND",
        "placeName": "POINTE-AU-BARIL-STATION",
        "streetNameDisplayText": "A49 ISLAND, POINTE-AU-BARIL-STATION"
      },
      {
        "electoralDistricts": [
          {
            "election": null,
            "id": 84,
            "name": "Parry Sound—Muskoka"
          }
        ],
        "pollDivisionIds": [
          10140954
        ],
        "postalCode": "P0G1K0",
        "streetName": "A698",
        "streetDirectionId": null,
        "streetTypeId": "ISLAND",
        "placeName": "POINTE-AU-BARIL-STATION",
        "streetNameDisplayText": "A698 ISLAND, POINTE-AU-BARIL-STATION"
      },
      {
        "electoralDistricts": [
          {
            "election": null,
            "id": 84,
            "name": "Parry Sound—Muskoka"
          }
        ],
        "pollDivisionIds": [
          10140954
        ],
        "postalCode": "P0G1K0",
        "streetName": "A838",
        "streetDirectionId": null,
        "streetTypeId": "ISLAND",
        "placeName": "POINTE-AU-BARIL-STATION",
        "streetNameDisplayText": "A838 ISLAND, POINTE-AU-BARIL-STATION"
      },
      {
        "electoralDistricts": [
          {
            "election": null,
            "id": 84,
            "name": "Parry Sound—Muskoka"
          }
        ],
        "pollDivisionIds": [
          10140954
        ],
        "postalCode": "P0G1K0",
        "streetName": "BLUE HERON",
        "streetDirectionId": null,
        "streetTypeId": "TRAIL",
        "placeName": "POINTE-AU-BARIL-STATION",
        "streetNameDisplayText": "BLUE HERON TRAIL, POINTE-AU-BARIL-STATION"
      },
      {
        "electoralDistricts": [
          {
            "election": null,
            "id": 84,
            "name": "Parry Sound—Muskoka"
          }
        ],
        "pollDivisionIds": [
          10140954
        ],
        "postalCode": "P0G1K0",
        "streetName": "CHANNEL",
        "streetDirectionId": null,
        "streetTypeId": "DR",
        "placeName": "POINTE-AU-BARIL-STATION",
        "streetNameDisplayText": "CHANNEL DR, POINTE-AU-BARIL-STATION"
      },
      {
        "electoralDistricts": [
          {
            "election": null,
            "id": 84,
            "name": "Parry Sound—Muskoka"
          }
        ],
        "pollDivisionIds": [
          10140954
        ],
        "postalCode": "P0G1K0",
        "streetName": "DESMASDON'S",
        "streetDirectionId": null,
        "streetTypeId": "RD",
        "placeName": "POINTE-AU-BARIL-STATION",
        "streetNameDisplayText": "DESMASDON'S RD, POINTE-AU-BARIL-STATION"
      },
      {
        "electoralDistricts": [
          {
            "election": null,
            "id": 84,
            "name": "Parry Sound—Muskoka"
          }
        ],
        "pollDivisionIds": [
          10140954
        ],
        "postalCode": "P0G1K0",
        "streetName": "FLICKER",
        "streetDirectionId": null,
        "streetTypeId": "TRAIL",
        "placeName": "POINTE-AU-BARIL-STATION",
        "streetNameDisplayText": "FLICKER TRAIL, POINTE-AU-BARIL-STATION"
      },
      {
        "electoralDistricts": [
          {
            "election": null,
            "id": 84,
            "name": "Parry Sound—Muskoka"
          }
        ],
        "pollDivisionIds": [
          10140954
        ],
        "postalCode": "P0G1K0",
        "streetName": "GARDNER",
        "streetDirectionId": null,
        "streetTypeId": "LANE",
        "placeName": "POINTE-AU-BARIL-STATION",
        "streetNameDisplayText": "GARDNER LANE, POINTE-AU-BARIL-STATION"
      },
      {
        "electoralDistricts": [
          {
            "election": null,
            "id": 84,
            "name": "Parry Sound—Muskoka"
          }
        ],
        "pollDivisionIds": [
          10140954
        ],
        "postalCode": "P0G1K0",
        "streetName": "GEORGIAN BAY WATER",
        "streetDirectionId": null,
        "streetTypeId": "BAY",
        "placeName": "NOBEL",
        "streetNameDisplayText": "GEORGIAN BAY WATER BAY, NOBEL"
      },
      {
        "electoralDistricts": [
          {
            "election": null,
            "id": 84,
            "name": "Parry Sound—Muskoka"
          }
        ],
        "pollDivisionIds": [
          10140954
        ],
        "postalCode": "P0G1K0",
        "streetName": "GEORGIAN",
        "streetDirectionId": null,
        "streetTypeId": "BAY",
        "placeName": "POINTE-AU-BARIL-STATION",
        "streetNameDisplayText": "GEORGIAN BAY, POINTE-AU-BARIL-STATION"
      },
      {
        "electoralDistricts": [
          {
            "election": null,
            "id": 84,
            "name": "Parry Sound—Muskoka"
          }
        ],
        "pollDivisionIds": [
          10140954
        ],
        "postalCode": "P0G1K0",
        "streetName": "GRANITE",
        "streetDirectionId": null,
        "streetTypeId": "RD",
        "placeName": "POINTE-AU-BARIL-STATION",
        "streetNameDisplayText": "GRANITE RD, POINTE-AU-BARIL-STATION"
      },
      {
        "electoralDistricts": [
          {
            "election": null,
            "id": 84,
            "name": "Parry Sound—Muskoka"
          }
        ],
        "pollDivisionIds": [
          10143218
        ],
        "postalCode": "P0G1K0",
        "streetName": "HARRIS LAKE",
        "streetDirectionId": null,
        "streetTypeId": "RD",
        "placeName": "POINTE-AU-BARIL-STATION",
        "streetNameDisplayText": "HARRIS LAKE RD, POINTE-AU-BARIL-STATION"
      },
      {
        "electoralDistricts": [
          {
            "election": null,
            "id": 84,
            "name": "Parry Sound—Muskoka"
          }
        ],
        "pollDivisionIds": [
          10140954
        ],
        "postalCode": "P0G1K0",
        "streetName": "HARRISON ISLAND",
        "streetDirectionId": null,
        "streetTypeId": "ISLAND",
        "placeName": "POINTE-AU-BARIL",
        "streetNameDisplayText": "HARRISON ISLAND ISLAND, POINTE-AU-BARIL"
      },
      {
        "electoralDistricts": [
          {
            "election": null,
            "id": 84,
            "name": "Parry Sound—Muskoka"
          }
        ],
        "pollDivisionIds": [
          10140954
        ],
        "postalCode": "P0G1K0",
        "streetName": "HARRISON",
        "streetDirectionId": null,
        "streetTypeId": "ISLAND",
        "placeName": "POINTE-AU-BARIL-STATION",
        "streetNameDisplayText": "HARRISON ISLAND, POINTE-AU-BARIL-STATION"
      },
      {
        "electoralDistricts": [
          {
            "election": null,
            "id": 84,
            "name": "Parry Sound—Muskoka"
          }
        ],
        "pollDivisionIds": [
          10140954
        ],
        "postalCode": "P0G1K0",
        "streetName": "HEMLOCK",
        "streetDirectionId": null,
        "streetTypeId": "RD",
        "placeName": "POINTE-AU-BARIL-STATION",
        "streetNameDisplayText": "HEMLOCK RD, POINTE-AU-BARIL-STATION"
      },
      {
        "electoralDistricts": [
          {
            "election": null,
            "id": 84,
            "name": "Parry Sound—Muskoka"
          }
        ],
        "pollDivisionIds": [
          10140954
        ],
        "postalCode": "P0G1K0",
        "streetName": "ISLAND ARCHIPELAGO",
        "streetDirectionId": null,
        "streetTypeId": "ISLAND",
        "placeName": "POINTE-AU-BARIL-STATION",
        "streetNameDisplayText": "ISLAND ARCHIPELAGO ISLAND, POINTE-AU-BARIL-STATION"
      },
      {
        "electoralDistricts": [
          {
            "election": null,
            "id": 84,
            "name": "Parry Sound—Muskoka"
          }
        ],
        "pollDivisionIds": [
          10140954
        ],
        "postalCode": "P0G1K0",
        "streetName": "NAISCOOT LAKE",
        "streetDirectionId": null,
        "streetTypeId": "RD",
        "placeName": "POINTE-AU-BARIL-STATION",
        "streetNameDisplayText": "NAISCOOT LAKE RD, POINTE-AU-BARIL-STATION"
      },
      {
        "electoralDistricts": [
          {
            "election": null,
            "id": 84,
            "name": "Parry Sound—Muskoka"
          }
        ],
        "pollDivisionIds": [
          10140954
        ],
        "postalCode": "P0G1K0",
        "streetName": "NAISCOOT LAKE WATER",
        "streetDirectionId": null,
        "streetTypeId": null,
        "placeName": "POINTE-AU-BARIL-STATION",
        "streetNameDisplayText": "NAISCOOT LAKE WATER, POINTE-AU-BARIL-STATION"
      },
      {
        "electoralDistricts": [
          {
            "election": null,
            "id": 84,
            "name": "Parry Sound—Muskoka"
          }
        ],
        "pollDivisionIds": [
          10140954
        ],
        "postalCode": "P0G1K0",
        "streetName": "NAISCOOT LAKE",
        "streetDirectionId": null,
        "streetTypeId": null,
        "placeName": "POINTE-AU-BARIL-STATION",
        "streetNameDisplayText": "NAISCOOT LAKE, POINTE-AU-BARIL-STATION"
      },
      {
        "electoralDistricts": [
          {
            "election": null,
            "id": 84,
            "name": "Parry Sound—Muskoka"
          }
        ],
        "pollDivisionIds": [
          10140954
        ],
        "postalCode": "P0G1K0",
        "streetName": "NARES INLET",
        "streetDirectionId": null,
        "streetTypeId": "RD",
        "placeName": "POINTE-AU-BARIL-STATION",
        "streetNameDisplayText": "NARES INLET RD, POINTE-AU-BARIL-STATION"
      },
      {
        "electoralDistricts": [
          {
            "election": null,
            "id": 84,
            "name": "Parry Sound—Muskoka"
          }
        ],
        "pollDivisionIds": [
          10140954
        ],
        "postalCode": "P0G1K0",
        "streetName": "NORTH SHORE",
        "streetDirectionId": null,
        "streetTypeId": "RD",
        "placeName": "POINTE AU BARIL",
        "streetNameDisplayText": "NORTH SHORE RD, POINTE AU BARIL"
      },
      {
        "electoralDistricts": [
          {
            "election": null,
            "id": 84,
            "name": "Parry Sound—Muskoka"
          }
        ],
        "pollDivisionIds": [
          10140954
        ],
        "postalCode": "P0G1K0",
        "streetName": "NORTH SHORE",
        "streetDirectionId": null,
        "streetTypeId": "RD",
        "placeName": "POINTE-AU-BARIL-STATION",
        "streetNameDisplayText": "NORTH SHORE RD, POINTE-AU-BARIL-STATION"
      },
      {
        "electoralDistricts": [
          {
            "election": null,
            "id": 84,
            "name": "Parry Sound—Muskoka"
          }
        ],
        "pollDivisionIds": [
          10140954
        ],
        "postalCode": "P0G1K0",
        "streetName": "NORTH SHORE",
        "streetDirectionId": null,
        "streetTypeId": "RD",
        "placeName": "THE ARCHIPELAGO",
        "streetNameDisplayText": "NORTH SHORE RD, THE ARCHIPELAGO"
      },
      {
        "electoralDistricts": [
          {
            "election": null,
            "id": 84,
            "name": "Parry Sound—Muskoka"
          }
        ],
        "pollDivisionIds": [
          10140954
        ],
        "postalCode": "P0G1K0",
        "streetName": "OLD BALDY",
        "streetDirectionId": null,
        "streetTypeId": "RD",
        "placeName": "POINTE-AU-BARIL-STATION",
        "streetNameDisplayText": "OLD BALDY RD, POINTE-AU-BARIL-STATION"
      },
      {
        "electoralDistricts": [
          {
            "election": null,
            "id": 84,
            "name": "Parry Sound—Muskoka"
          }
        ],
        "pollDivisionIds": [
          10140954
        ],
        "postalCode": "P0G1K0",
        "streetName": "PAYNES",
        "streetDirectionId": null,
        "streetTypeId": "RD",
        "placeName": "POINTE-AU-BARIL-STATION",
        "streetNameDisplayText": "PAYNES RD, POINTE-AU-BARIL-STATION"
      },
      {
        "electoralDistricts": [
          {
            "election": null,
            "id": 84,
            "name": "Parry Sound—Muskoka"
          }
        ],
        "pollDivisionIds": [
          10143218
        ],
        "postalCode": "P0G1K0",
        "streetName": "PLAN M297",
        "streetDirectionId": null,
        "streetTypeId": null,
        "placeName": "POINTE-AU-BARIL-STATION",
        "streetNameDisplayText": "PLAN M297, POINTE-AU-BARIL-STATION"
      },
      {
        "electoralDistricts": [
          {
            "election": null,
            "id": 84,
            "name": "Parry Sound—Muskoka"
          }
        ],
        "pollDivisionIds": [
          10140954
        ],
        "postalCode": "P0G1K0",
        "streetName": "PORCUPINE SPUR",
        "streetDirectionId": null,
        "streetTypeId": "RD",
        "placeName": "POINTE-AU-BARIL-STATION",
        "streetNameDisplayText": "PORCUPINE SPUR RD, POINTE-AU-BARIL-STATION"
      },
      {
        "electoralDistricts": [
          {
            "election": null,
            "id": 84,
            "name": "Parry Sound—Muskoka"
          }
        ],
        "pollDivisionIds": [
          10140954
        ],
        "postalCode": "P0G1K0",
        "streetName": "RABY'S",
        "streetDirectionId": null,
        "streetTypeId": "RD",
        "placeName": "POINTE-AU-BARIL-STATION",
        "streetNameDisplayText": "RABY'S RD, POINTE-AU-BARIL-STATION"
      },
      {
        "electoralDistricts": [
          {
            "election": null,
            "id": 84,
            "name": "Parry Sound—Muskoka"
          }
        ],
        "pollDivisionIds": [
          10140954
        ],
        "postalCode": "P0G1K0",
        "streetName": "RAILROAD",
        "streetDirectionId": null,
        "streetTypeId": "LANE",
        "placeName": "POINTE-AU-BARIL-STATION",
        "streetNameDisplayText": "RAILROAD LANE, POINTE-AU-BARIL-STATION"
      },
      {
        "electoralDistricts": [
          {
            "election": null,
            "id": 84,
            "name": "Parry Sound—Muskoka"
          }
        ],
        "pollDivisionIds": [
          10140954
        ],
        "postalCode": "P0G1K0",
        "streetName": "RATTLEBEAR",
        "streetDirectionId": null,
        "streetTypeId": "DR",
        "placeName": "POINTE-AU-BARIL-STATION",
        "streetNameDisplayText": "RATTLEBEAR DR, POINTE-AU-BARIL-STATION"
      },
      {
        "electoralDistricts": [
          {
            "election": null,
            "id": 84,
            "name": "Parry Sound—Muskoka"
          }
        ],
        "pollDivisionIds": [
          10140954
        ],
        "postalCode": "P0G1K0",
        "streetName": "SHORE",
        "streetDirectionId": "N",
        "streetTypeId": "RD",
        "placeName": "POINTE-AU-BARIL-STATION",
        "streetNameDisplayText": "SHORE RD N, POINTE-AU-BARIL-STATION"
      },
      {
        "electoralDistricts": [
          {
            "election": null,
            "id": 84,
            "name": "Parry Sound—Muskoka"
          }
        ],
        "pollDivisionIds": [
          10140975
        ],
        "postalCode": "P0G1K0",
        "streetName": "SOUTH SHORE",
        "streetDirectionId": null,
        "streetTypeId": "RD",
        "placeName": "MACTIER",
        "streetNameDisplayText": "SOUTH SHORE RD, MACTIER"
      },
      {
        "electoralDistricts": [
          {
            "election": null,
            "id": 84,
            "name": "Parry Sound—Muskoka"
          }
        ],
        "pollDivisionIds": [
          10140954
        ],
        "postalCode": "P0G1K0",
        "streetName": "SOUTH SHORE",
        "streetDirectionId": null,
        "streetTypeId": "RD",
        "placeName": "POINTE-AU-BARIL-STATION",
        "streetNameDisplayText": "SOUTH SHORE RD, POINTE-AU-BARIL-STATION"
      },
      {
        "electoralDistricts": [
          {
            "election": null,
            "id": 84,
            "name": "Parry Sound—Muskoka"
          }
        ],
        "pollDivisionIds": [
          10140954
        ],
        "postalCode": "P0G1K0",
        "streetName": "WOOD DUCK",
        "streetDirectionId": null,
        "streetTypeId": "TRAIL",
        "placeName": "POINTE-AU-BARIL-STATION",
        "streetNameDisplayText": "WOOD DUCK TRAIL, POINTE-AU-BARIL-STATION"
      }
    ]
  }
]
