[
  {
    "postal": "N2Z9J6",
    "result": []
  },
  {
    "postal": "N2Z9Z5",
    "result": []
  },
  {
    "postal": "N2Z7H8",
    "result": []
  },
  {
    "postal": "N2Z0P6",
    "result": []
  },
  {
    "postal": "N2Z0S7",
    "result": []
  },
  {
    "postal": "N2Z8B9",
    "result": []
  },
  {
    "postal": "N2Z2A6",
    "result": [
      {
        "electoralDistricts": [
          {
            "election": null,
            "id": 42,
            "name": "Huron—Bruce"
          }
        ],
        "pollDivisionIds": [
          10143745
        ],
        "postalCode": "N2Z2A6",
        "streetName": "OLDE VICTORIA",
        "streetDirectionId": null,
        "streetTypeId": "ST",
        "placeName": "KINCARDINE",
        "streetNameDisplayText": "OLDE VICTORIA ST, KINCARDINE"
      }
    ]
  },
  {
    "postal": "N2Z7V2",
    "result": []
  },
  {
    "postal": "N2Z9P4",
    "result": []
  },
  {
    "postal": "N2Z6G0",
    "result": []
  },
  {
    "postal": "N2Z2K0",
    "result": []
  },
  {
    "postal": "N2Z7N6",
    "result": []
  },
  {
    "postal": "N2Z5R3",
    "result": []
  },
  {
    "postal": "N2Z7K0",
    "result": []
  },
  {
    "postal": "N2Z3R2",
    "result": []
  },
  {
    "postal": "N2Z0J1",
    "result": []
  },
  {
    "postal": "N2Z0B0",
    "result": []
  },
  {
    "postal": "N2Z5Z2",
    "result": []
  },
  {
    "postal": "N2Z7P3",
    "result": []
  },
  {
    "postal": "N2Z2K3",
    "result": [
      {
        "electoralDistricts": [
          {
            "election": null,
            "id": 42,
            "name": "Huron—Bruce"
          }
        ],
        "pollDivisionIds": [
          10143745
        ],
        "postalCode": "N2Z2K3",
        "streetName": "GODERICH",
        "streetDirectionId": null,
        "streetTypeId": "ST",
        "placeName": "KINCARDINE",
        "streetNameDisplayText": "GODERICH ST, KINCARDINE"
      }
    ]
  },
  {
    "postal": "N2Z7Y6",
    "result": []
  },
  {
    "postal": "N2Z1L9",
    "result": [
      {
        "electoralDistricts": [
          {
            "election": null,
            "id": 42,
            "name": "Huron—Bruce"
          }
        ],
        "pollDivisionIds": [
          10138856
        ],
        "postalCode": "N2Z1L9",
        "streetName": "BAIRD",
        "streetDirectionId": null,
        "streetTypeId": "ST",
        "placeName": "KINCARDINE",
        "streetNameDisplayText": "BAIRD ST, KINCARDINE"
      },
      {
        "electoralDistricts": [
          {
            "election": null,
            "id": 42,
            "name": "Huron—Bruce"
          }
        ],
        "pollDivisionIds": [
          10138856
        ],
        "postalCode": "N2Z1L9",
        "streetName": "DURHAM",
        "streetDirectionId": null,
        "streetTypeId": "ST",
        "placeName": "KINCARDINE",
        "streetNameDisplayText": "DURHAM ST, KINCARDINE"
      },
      {
        "electoralDistricts": [
          {
            "election": null,
            "id": 42,
            "name": "Huron—Bruce"
          }
        ],
        "pollDivisionIds": [
          10138856
        ],
        "postalCode": "N2Z1L9",
        "streetName": "MCPHERSON",
        "streetDirectionId": null,
        "streetTypeId": "CRES",
        "placeName": "KINCARDINE",
        "streetNameDisplayText": "MCPHERSON CRES, KINCARDINE"
      }
    ]
  },
  {
    "postal": "N2Z8T0",
    "result": []
  },
  {
    "postal": "N2Z3K8",
    "result": []
  },
  {
    "postal": "N2Z5W9",
    "result": []
  },
  {
    "postal": "N2Z6T9",
    "result": []
  },
  {
    "postal": "N2Z4H1",
    "result": []
  },
  {
    "postal": "N2Z7A2",
    "result": []
  },
  {
    "postal": "N2Z5G0",
    "result": []
  },
  {
    "postal": "N2Z8V5",
    "result": []
  },
  {
    "postal": "N2Z2Y8",
    "result": [
      {
        "electoralDistricts": [
          {
            "election": null,
            "id": 42,
            "name": "Huron—Bruce"
          }
        ],
        "pollDivisionIds": [
          10138856
        ],
        "postalCode": "N2Z2Y8",
        "streetName": "CONCESSION 12",
        "streetDirectionId": null,
        "streetTypeId": null,
        "placeName": "KINCARDINE",
        "streetNameDisplayText": "CONCESSION 12, KINCARDINE"
      }
    ]
  },
  {
    "postal": "N2Z2B6",
    "result": [
      {
        "electoralDistricts": [
          {
            "election": null,
            "id": 42,
            "name": "Huron—Bruce"
          }
        ],
        "pollDivisionIds": [
          10143745
        ],
        "postalCode": "N2Z2B6",
        "streetName": "OLDE VICTORIA",
        "streetDirectionId": null,
        "streetTypeId": "ST",
        "placeName": "KINCARDINE",
        "streetNameDisplayText": "OLDE VICTORIA ST, KINCARDINE"
      }
    ]
  },
  {
    "postal": "N2Z4W8",
    "result": []
  },
  {
    "postal": "N2Z8H7",
    "result": []
  },
  {
    "postal": "N2Z5P1",
    "result": []
  },
  {
    "postal": "N2Z2B8",
    "result": [
      {
        "electoralDistricts": [
          {
            "election": null,
            "id": 42,
            "name": "Huron—Bruce"
          }
        ],
        "pollDivisionIds": [
          10143745,
          10138856
        ],
        "postalCode": "N2Z2B8",
        "streetName": "DURHAM",
        "streetDirectionId": null,
        "streetTypeId": "ST",
        "placeName": "KINCARDINE",
        "streetNameDisplayText": "DURHAM ST, KINCARDINE"
      }
    ]
  },
  {
    "postal": "N2Z0P2",
    "result": []
  },
  {
    "postal": "N2Z9M1",
    "result": []
  },
  {
    "postal": "N2Z3G0",
    "result": []
  },
  {
    "postal": "N2Z9Z2",
    "result": []
  },
  {
    "postal": "N2Z2A0",
    "result": []
  },
  {
    "postal": "N2Z6Y0",
    "result": []
  },
  {
    "postal": "N2Z2Z8",
    "result": [
      {
        "electoralDistricts": [
          {
            "election": null,
            "id": 42,
            "name": "Huron—Bruce"
          }
        ],
        "pollDivisionIds": [
          10143745
        ],
        "postalCode": "N2Z2Z8",
        "streetName": "OLDE VICTORIA",
        "streetDirectionId": null,
        "streetTypeId": "ST",
        "placeName": "KINCARDINE",
        "streetNameDisplayText": "OLDE VICTORIA ST, KINCARDINE"
      }
    ]
  },
  {
    "postal": "N2Z7Y3",
    "result": []
  },
  {
    "postal": "N2Z6Z5",
    "result": []
  },
  {
    "postal": "N2Z6E0",
    "result": []
  },
  {
    "postal": "N2Z9B7",
    "result": []
  },
  {
    "postal": "N2Z9S5",
    "result": []
  },
  {
    "postal": "N2Z3X3",
    "result": []
  },
  {
    "postal": "N2Z7R5",
    "result": []
  },
  {
    "postal": "N2Z2X3",
    "result": [
      {
        "electoralDistricts": [
          {
            "election": null,
            "id": 42,
            "name": "Huron—Bruce"
          }
        ],
        "pollDivisionIds": [
          10138857
        ],
        "postalCode": "N2Z2X3",
        "streetName": "12",
        "streetDirectionId": null,
        "streetTypeId": "CONC",
        "placeName": "KINCARDINE",
        "streetNameDisplayText": "12 CONC, KINCARDINE"
      },
      {
        "electoralDistricts": [
          {
            "election": null,
            "id": 42,
            "name": "Huron—Bruce"
          }
        ],
        "pollDivisionIds": [
          10138857
        ],
        "postalCode": "N2Z2X3",
        "streetName": "2",
        "streetDirectionId": null,
        "streetTypeId": "CONC",
        "placeName": "KINCARDINE",
        "streetNameDisplayText": "2 CONC, KINCARDINE"
      },
      {
        "electoralDistricts": [
          {
            "election": null,
            "id": 42,
            "name": "Huron—Bruce"
          }
        ],
        "pollDivisionIds": [
          10138858,
          10138857
        ],
        "postalCode": "N2Z2X3",
        "streetName": "21",
        "streetDirectionId": null,
        "streetTypeId": "HWY",
        "placeName": "KINCARDINE",
        "streetNameDisplayText": "21 HWY, KINCARDINE"
      },
      {
        "electoralDistricts": [
          {
            "election": null,
            "id": 42,
            "name": "Huron—Bruce"
          }
        ],
        "pollDivisionIds": [
          10138858,
          10138856
        ],
        "postalCode": "N2Z2X3",
        "streetName": "21",
        "streetDirectionId": null,
        "streetTypeId": "HWY",
        "placeName": "RIPLEY",
        "streetNameDisplayText": "21 HWY, RIPLEY"
      },
      {
        "electoralDistricts": [
          {
            "election": null,
            "id": 42,
            "name": "Huron—Bruce"
          }
        ],
        "pollDivisionIds": [
          10138856
        ],
        "postalCode": "N2Z2X3",
        "streetName": "9",
        "streetDirectionId": null,
        "streetTypeId": "HWY",
        "placeName": "KINCARDINE",
        "streetNameDisplayText": "9 HWY, KINCARDINE"
      },
      {
        "electoralDistricts": [
          {
            "election": null,
            "id": 42,
            "name": "Huron—Bruce"
          }
        ],
        "pollDivisionIds": [
          10138864
        ],
        "postalCode": "N2Z2X3",
        "streetName": "A AMBERLEY BEACH",
        "streetDirectionId": null,
        "streetTypeId": "RD",
        "placeName": "KINCARDINE",
        "streetNameDisplayText": "A AMBERLEY BEACH RD, KINCARDINE"
      },
      {
        "electoralDistricts": [
          {
            "election": null,
            "id": 42,
            "name": "Huron—Bruce"
          }
        ],
        "pollDivisionIds": [
          10138857
        ],
        "postalCode": "N2Z2X3",
        "streetName": "ABENAKI",
        "streetDirectionId": null,
        "streetTypeId": "DR",
        "placeName": "KINCARDINE",
        "streetNameDisplayText": "ABENAKI DR, KINCARDINE"
      },
      {
        "electoralDistricts": [
          {
            "election": null,
            "id": 42,
            "name": "Huron—Bruce"
          }
        ],
        "pollDivisionIds": [
          10138857
        ],
        "postalCode": "N2Z2X3",
        "streetName": "ALICE",
        "streetDirectionId": null,
        "streetTypeId": "ST",
        "placeName": "KINCARDINE",
        "streetNameDisplayText": "ALICE ST, KINCARDINE"
      },
      {
        "electoralDistricts": [
          {
            "election": null,
            "id": 42,
            "name": "Huron—Bruce"
          }
        ],
        "pollDivisionIds": [
          10138864
        ],
        "postalCode": "N2Z2X3",
        "streetName": "AMBERLEY BEACH",
        "streetDirectionId": null,
        "streetTypeId": "RD",
        "placeName": "KINCARDINE",
        "streetNameDisplayText": "AMBERLEY BEACH RD, KINCARDINE"
      },
      {
        "electoralDistricts": [
          {
            "election": null,
            "id": 42,
            "name": "Huron—Bruce"
          }
        ],
        "pollDivisionIds": [
          10138864,
          10138857
        ],
        "postalCode": "N2Z2X3",
        "streetName": "AMBERLEY",
        "streetDirectionId": null,
        "streetTypeId": "RD",
        "placeName": "KINCARDINE",
        "streetNameDisplayText": "AMBERLEY RD, KINCARDINE"
      },
      {
        "electoralDistricts": [
          {
            "election": null,
            "id": 42,
            "name": "Huron—Bruce"
          }
        ],
        "pollDivisionIds": [
          10138864
        ],
        "postalCode": "N2Z2X3",
        "streetName": "AMBERLEY",
        "streetDirectionId": null,
        "streetTypeId": "RD",
        "placeName": "LUCKNOW",
        "streetNameDisplayText": "AMBERLEY RD, LUCKNOW"
      },
      {
        "electoralDistricts": [
          {
            "election": null,
            "id": 42,
            "name": "Huron—Bruce"
          }
        ],
        "pollDivisionIds": [
          10138864
        ],
        "postalCode": "N2Z2X3",
        "streetName": "AMBERLY BEACH",
        "streetDirectionId": null,
        "streetTypeId": "RD",
        "placeName": "KINCARDINE",
        "streetNameDisplayText": "AMBERLY BEACH RD, KINCARDINE"
      },
      {
        "electoralDistricts": [
          {
            "election": null,
            "id": 42,
            "name": "Huron—Bruce"
          }
        ],
        "pollDivisionIds": [
          10138857
        ],
        "postalCode": "N2Z2X3",
        "streetName": "APACHE",
        "streetDirectionId": null,
        "streetTypeId": "ST",
        "placeName": "KINCARDINE",
        "streetNameDisplayText": "APACHE ST, KINCARDINE"
      },
      {
        "electoralDistricts": [
          {
            "election": null,
            "id": 42,
            "name": "Huron—Bruce"
          }
        ],
        "pollDivisionIds": [
          10138847
        ],
        "postalCode": "N2Z2X3",
        "streetName": "ARCHIE",
        "streetDirectionId": null,
        "streetTypeId": "ST",
        "placeName": "TIVERTON",
        "streetNameDisplayText": "ARCHIE ST, TIVERTON"
      },
      {
        "electoralDistricts": [
          {
            "election": null,
            "id": 42,
            "name": "Huron—Bruce"
          }
        ],
        "pollDivisionIds": [
          10138857
        ],
        "postalCode": "N2Z2X3",
        "streetName": "ARTHUR",
        "streetDirectionId": null,
        "streetTypeId": "ST",
        "placeName": "KINCARDINE",
        "streetNameDisplayText": "ARTHUR ST, KINCARDINE"
      },
      {
        "electoralDistricts": [
          {
            "election": null,
            "id": 42,
            "name": "Huron—Bruce"
          }
        ],
        "pollDivisionIds": [
          10138857
        ],
        "postalCode": "N2Z2X3",
        "streetName": "ASH",
        "streetDirectionId": null,
        "streetTypeId": "ST",
        "placeName": "KINCARDINE",
        "streetNameDisplayText": "ASH ST, KINCARDINE"
      },
      {
        "electoralDistricts": [
          {
            "election": null,
            "id": 42,
            "name": "Huron—Bruce"
          }
        ],
        "pollDivisionIds": [
          10138857
        ],
        "postalCode": "N2Z2X3",
        "streetName": "ASHFIELD-HURON",
        "streetDirectionId": null,
        "streetTypeId": "TLINE",
        "placeName": "KINCARDINE",
        "streetNameDisplayText": "ASHFIELD-HURON TLINE, KINCARDINE"
      },
      {
        "electoralDistricts": [
          {
            "election": null,
            "id": 42,
            "name": "Huron—Bruce"
          }
        ],
        "pollDivisionIds": [
          10138864
        ],
        "postalCode": "N2Z2X3",
        "streetName": "ASHFIELD-HURON",
        "streetDirectionId": null,
        "streetTypeId": null,
        "placeName": "KINCARDINE",
        "streetNameDisplayText": "ASHFIELD-HURON, KINCARDINE"
      },
      {
        "electoralDistricts": [
          {
            "election": null,
            "id": 42,
            "name": "Huron—Bruce"
          }
        ],
        "pollDivisionIds": [
          10138864
        ],
        "postalCode": "N2Z2X3",
        "streetName": "ASPEN",
        "streetDirectionId": null,
        "streetTypeId": "PL",
        "placeName": "KINCARDINE",
        "streetNameDisplayText": "ASPEN PL, KINCARDINE"
      },
      {
        "electoralDistricts": [
          {
            "election": null,
            "id": 42,
            "name": "Huron—Bruce"
          }
        ],
        "pollDivisionIds": [
          10138857
        ],
        "postalCode": "N2Z2X3",
        "streetName": "ATTAWANDARON",
        "streetDirectionId": null,
        "streetTypeId": "RD",
        "placeName": "KINCARDINE",
        "streetNameDisplayText": "ATTAWANDARON RD, KINCARDINE"
      },
      {
        "electoralDistricts": [
          {
            "election": null,
            "id": 42,
            "name": "Huron—Bruce"
          }
        ],
        "pollDivisionIds": [
          10138864
        ],
        "postalCode": "N2Z2X3",
        "streetName": "B AMBERLEY BEACH",
        "streetDirectionId": null,
        "streetTypeId": "RD",
        "placeName": "KINCARDINE",
        "streetNameDisplayText": "B AMBERLEY BEACH RD, KINCARDINE"
      },
      {
        "electoralDistricts": [
          {
            "election": null,
            "id": 42,
            "name": "Huron—Bruce"
          }
        ],
        "pollDivisionIds": [
          10138856
        ],
        "postalCode": "N2Z2X3",
        "streetName": "BASELINE",
        "streetDirectionId": "N",
        "streetTypeId": "RD",
        "placeName": "KINCARDINE",
        "streetNameDisplayText": "BASELINE RD N, KINCARDINE"
      },
      {
        "electoralDistricts": [
          {
            "election": null,
            "id": 42,
            "name": "Huron—Bruce"
          }
        ],
        "pollDivisionIds": [
          10138857
        ],
        "postalCode": "N2Z2X3",
        "streetName": "BASELINE",
        "streetDirectionId": null,
        "streetTypeId": "RD",
        "placeName": "KINCARDINE",
        "streetNameDisplayText": "BASELINE RD, KINCARDINE"
      },
      {
        "electoralDistricts": [
          {
            "election": null,
            "id": 42,
            "name": "Huron—Bruce"
          }
        ],
        "pollDivisionIds": [
          10138857
        ],
        "postalCode": "N2Z2X3",
        "streetName": "BELL",
        "streetDirectionId": null,
        "streetTypeId": "DR",
        "placeName": "RIPLEY",
        "streetNameDisplayText": "BELL DR, RIPLEY"
      },
      {
        "electoralDistricts": [
          {
            "election": null,
            "id": 42,
            "name": "Huron—Bruce"
          }
        ],
        "pollDivisionIds": [
          10138857
        ],
        "postalCode": "N2Z2X3",
        "streetName": "BIRCH",
        "streetDirectionId": null,
        "streetTypeId": "ST",
        "placeName": "KINCARDINE",
        "streetNameDisplayText": "BIRCH ST, KINCARDINE"
      },
      {
        "electoralDistricts": [
          {
            "election": null,
            "id": 42,
            "name": "Huron—Bruce"
          }
        ],
        "pollDivisionIds": [
          10138857
        ],
        "postalCode": "N2Z2X3",
        "streetName": "BLUE",
        "streetDirectionId": null,
        "streetTypeId": "ST",
        "placeName": "KINCARDINE",
        "streetNameDisplayText": "BLUE ST, KINCARDINE"
      },
      {
        "electoralDistricts": [
          {
            "election": null,
            "id": 42,
            "name": "Huron—Bruce"
          }
        ],
        "pollDivisionIds": [
          10138891
        ],
        "postalCode": "N2Z2X3",
        "streetName": "BLUEWATER",
        "streetDirectionId": null,
        "streetTypeId": "HWY",
        "placeName": "BAYFIELD",
        "streetNameDisplayText": "BLUEWATER HWY, BAYFIELD"
      },
      {
        "electoralDistricts": [
          {
            "election": null,
            "id": 42,
            "name": "Huron—Bruce"
          }
        ],
        "pollDivisionIds": [
          10138857,
          10138856
        ],
        "postalCode": "N2Z2X3",
        "streetName": "BOILER BEACH",
        "streetDirectionId": null,
        "streetTypeId": "RD",
        "placeName": "KINCARDINE",
        "streetNameDisplayText": "BOILER BEACH RD, KINCARDINE"
      },
      {
        "electoralDistricts": [
          {
            "election": null,
            "id": 42,
            "name": "Huron—Bruce"
          }
        ],
        "pollDivisionIds": [
          10138856
        ],
        "postalCode": "N2Z2X3",
        "streetName": "BRIGADOON",
        "streetDirectionId": null,
        "streetTypeId": "DR",
        "placeName": "KINCARDINE",
        "streetNameDisplayText": "BRIGADOON DR, KINCARDINE"
      },
      {
        "electoralDistricts": [
          {
            "election": null,
            "id": 42,
            "name": "Huron—Bruce"
          }
        ],
        "pollDivisionIds": [
          10138857
        ],
        "postalCode": "N2Z2X3",
        "streetName": "BROWN",
        "streetDirectionId": null,
        "streetTypeId": "ST",
        "placeName": "KINCARDINE",
        "streetNameDisplayText": "BROWN ST, KINCARDINE"
      },
      {
        "electoralDistricts": [
          {
            "election": null,
            "id": 42,
            "name": "Huron—Bruce"
          }
        ],
        "pollDivisionIds": [
          10138857
        ],
        "postalCode": "N2Z2X3",
        "streetName": "BROWNS",
        "streetDirectionId": null,
        "streetTypeId": "LANE",
        "placeName": "KINCARDINE",
        "streetNameDisplayText": "BROWNS LANE, KINCARDINE"
      },
      {
        "electoralDistricts": [
          {
            "election": null,
            "id": 42,
            "name": "Huron—Bruce"
          }
        ],
        "pollDivisionIds": [
          10138857
        ],
        "postalCode": "N2Z2X3",
        "streetName": "BRUCE BEACH",
        "streetDirectionId": null,
        "streetTypeId": "RD",
        "placeName": "KINCARDINE",
        "streetNameDisplayText": "BRUCE BEACH RD, KINCARDINE"
      },
      {
        "electoralDistricts": [
          {
            "election": null,
            "id": 42,
            "name": "Huron—Bruce"
          }
        ],
        "pollDivisionIds": [
          10138864
        ],
        "postalCode": "N2Z2X3",
        "streetName": "BRUCE ROAD 86",
        "streetDirectionId": null,
        "streetTypeId": null,
        "placeName": "LUCKNOW",
        "streetNameDisplayText": "BRUCE ROAD 86, LUCKNOW"
      },
      {
        "electoralDistricts": [
          {
            "election": null,
            "id": 42,
            "name": "Huron—Bruce"
          }
        ],
        "pollDivisionIds": [
          10138864
        ],
        "postalCode": "N2Z2X3",
        "streetName": "BRUCE ROAD 86",
        "streetDirectionId": null,
        "streetTypeId": null,
        "placeName": "WINGHAM",
        "streetNameDisplayText": "BRUCE ROAD 86, WINGHAM"
      },
      {
        "electoralDistricts": [
          {
            "election": null,
            "id": 42,
            "name": "Huron—Bruce"
          }
        ],
        "pollDivisionIds": [
          10138864
        ],
        "postalCode": "N2Z2X3",
        "streetName": "CAMERON",
        "streetDirectionId": null,
        "streetTypeId": "PL",
        "placeName": "KINCARDINE",
        "streetNameDisplayText": "CAMERON PL, KINCARDINE"
      },
      {
        "electoralDistricts": [
          {
            "election": null,
            "id": 42,
            "name": "Huron—Bruce"
          }
        ],
        "pollDivisionIds": [
          10138857
        ],
        "postalCode": "N2Z2X3",
        "streetName": "CANROBERT",
        "streetDirectionId": null,
        "streetTypeId": "ST",
        "placeName": "KINCARDINE",
        "streetNameDisplayText": "CANROBERT ST, KINCARDINE"
      },
      {
        "electoralDistricts": [
          {
            "election": null,
            "id": 42,
            "name": "Huron—Bruce"
          }
        ],
        "pollDivisionIds": [
          10138857
        ],
        "postalCode": "N2Z2X3",
        "streetName": "CATHCART",
        "streetDirectionId": null,
        "streetTypeId": "ST",
        "placeName": "KINCARDINE",
        "streetNameDisplayText": "CATHCART ST, KINCARDINE"
      },
      {
        "electoralDistricts": [
          {
            "election": null,
            "id": 42,
            "name": "Huron—Bruce"
          }
        ],
        "pollDivisionIds": [
          10138857
        ],
        "postalCode": "N2Z2X3",
        "streetName": "CAYUGA",
        "streetDirectionId": null,
        "streetTypeId": "CRES",
        "placeName": "KINCARDINE",
        "streetNameDisplayText": "CAYUGA CRES, KINCARDINE"
      },
      {
        "electoralDistricts": [
          {
            "election": null,
            "id": 42,
            "name": "Huron—Bruce"
          }
        ],
        "pollDivisionIds": [
          10138857
        ],
        "postalCode": "N2Z2X3",
        "streetName": "CEDAR",
        "streetDirectionId": null,
        "streetTypeId": "CLOSE",
        "placeName": "KINCARDINE",
        "streetNameDisplayText": "CEDAR CLOSE, KINCARDINE"
      },
      {
        "electoralDistricts": [
          {
            "election": null,
            "id": 42,
            "name": "Huron—Bruce"
          }
        ],
        "pollDivisionIds": [
          10138857
        ],
        "postalCode": "N2Z2X3",
        "streetName": "CHERRYWOOD",
        "streetDirectionId": null,
        "streetTypeId": "CRT",
        "placeName": "KINCARDINE",
        "streetNameDisplayText": "CHERRYWOOD CRT, KINCARDINE"
      },
      {
        "electoralDistricts": [
          {
            "election": null,
            "id": 42,
            "name": "Huron—Bruce"
          }
        ],
        "pollDivisionIds": [
          10138857
        ],
        "postalCode": "N2Z2X3",
        "streetName": "CLARK WOOD",
        "streetDirectionId": null,
        "streetTypeId": "RD",
        "placeName": "KINCARDINE",
        "streetNameDisplayText": "CLARK WOOD RD, KINCARDINE"
      },
      {
        "electoralDistricts": [
          {
            "election": null,
            "id": 42,
            "name": "Huron—Bruce"
          }
        ],
        "pollDivisionIds": [
          10138856
        ],
        "postalCode": "N2Z2X3",
        "streetName": "CON 12",
        "streetDirectionId": null,
        "streetTypeId": null,
        "placeName": "KINCARDINE",
        "streetNameDisplayText": "CON 12, KINCARDINE"
      },
      {
        "electoralDistricts": [
          {
            "election": null,
            "id": 42,
            "name": "Huron—Bruce"
          }
        ],
        "pollDivisionIds": [
          10138856
        ],
        "postalCode": "N2Z2X3",
        "streetName": "CONCESSION 12",
        "streetDirectionId": null,
        "streetTypeId": "RD",
        "placeName": "KINCARDINE",
        "streetNameDisplayText": "CONCESSION 12 RD, KINCARDINE"
      },
      {
        "electoralDistricts": [
          {
            "election": null,
            "id": 42,
            "name": "Huron—Bruce"
          }
        ],
        "pollDivisionIds": [
          10138856
        ],
        "postalCode": "N2Z2X3",
        "streetName": "CONCESSION 12",
        "streetDirectionId": null,
        "streetTypeId": null,
        "placeName": "KINCARDINE",
        "streetNameDisplayText": "CONCESSION 12, KINCARDINE"
      },
      {
        "electoralDistricts": [
          {
            "election": null,
            "id": 42,
            "name": "Huron—Bruce"
          }
        ],
        "pollDivisionIds": [
          10138857
        ],
        "postalCode": "N2Z2X3",
        "streetName": "CONCESSION 2",
        "streetDirectionId": null,
        "streetTypeId": "RD",
        "placeName": "KINCARDINE",
        "streetNameDisplayText": "CONCESSION 2 RD, KINCARDINE"
      },
      {
        "electoralDistricts": [
          {
            "election": null,
            "id": 42,
            "name": "Huron—Bruce"
          }
        ],
        "pollDivisionIds": [
          10138857
        ],
        "postalCode": "N2Z2X3",
        "streetName": "CONCESSION 2",
        "streetDirectionId": null,
        "streetTypeId": null,
        "placeName": "KINCARDINE",
        "streetNameDisplayText": "CONCESSION 2, KINCARDINE"
      },
      {
        "electoralDistricts": [
          {
            "election": null,
            "id": 42,
            "name": "Huron—Bruce"
          }
        ],
        "pollDivisionIds": [
          10138857
        ],
        "postalCode": "N2Z2X3",
        "streetName": "COURTLAND",
        "streetDirectionId": null,
        "streetTypeId": "ST",
        "placeName": "KINCARDINE",
        "streetNameDisplayText": "COURTLAND ST, KINCARDINE"
      },
      {
        "electoralDistricts": [
          {
            "election": null,
            "id": 42,
            "name": "Huron—Bruce"
          }
        ],
        "pollDivisionIds": [
          10138864
        ],
        "postalCode": "N2Z2X3",
        "streetName": "COURTNEY",
        "streetDirectionId": null,
        "streetTypeId": "CRT",
        "placeName": "KINCARDINE",
        "streetNameDisplayText": "COURTNEY CRT, KINCARDINE"
      },
      {
        "electoralDistricts": [
          {
            "election": null,
            "id": 42,
            "name": "Huron—Bruce"
          }
        ],
        "pollDivisionIds": [
          10138857
        ],
        "postalCode": "N2Z2X3",
        "streetName": "DEERHURST",
        "streetDirectionId": null,
        "streetTypeId": "DR",
        "placeName": "KINCARDINE",
        "streetNameDisplayText": "DEERHURST DR, KINCARDINE"
      },
      {
        "electoralDistricts": [
          {
            "election": null,
            "id": 42,
            "name": "Huron—Bruce"
          }
        ],
        "pollDivisionIds": [
          10138864
        ],
        "postalCode": "N2Z2X3",
        "streetName": "DIAGONAL",
        "streetDirectionId": null,
        "streetTypeId": "RD",
        "placeName": "KINCARDINE",
        "streetNameDisplayText": "DIAGONAL RD, KINCARDINE"
      },
      {
        "electoralDistricts": [
          {
            "election": null,
            "id": 42,
            "name": "Huron—Bruce"
          }
        ],
        "pollDivisionIds": [
          10138857
        ],
        "postalCode": "N2Z2X3",
        "streetName": "DOE HAVEN",
        "streetDirectionId": null,
        "streetTypeId": null,
        "placeName": "KINCARDINE",
        "streetNameDisplayText": "DOE HAVEN, KINCARDINE"
      },
      {
        "electoralDistricts": [
          {
            "election": null,
            "id": 42,
            "name": "Huron—Bruce"
          }
        ],
        "pollDivisionIds": [
          10138857
        ],
        "postalCode": "N2Z2X3",
        "streetName": "FAWN",
        "streetDirectionId": null,
        "streetTypeId": "RIDGE",
        "placeName": "KINCARDINE",
        "streetNameDisplayText": "FAWN RIDGE, KINCARDINE"
      },
      {
        "electoralDistricts": [
          {
            "election": null,
            "id": 42,
            "name": "Huron—Bruce"
          }
        ],
        "pollDivisionIds": [
          10143745
        ],
        "postalCode": "N2Z2X3",
        "streetName": "GORDON",
        "streetDirectionId": null,
        "streetTypeId": "ST",
        "placeName": "KINCARDINE",
        "streetNameDisplayText": "GORDON ST, KINCARDINE"
      },
      {
        "electoralDistricts": [
          {
            "election": null,
            "id": 42,
            "name": "Huron—Bruce"
          }
        ],
        "pollDivisionIds": [
          10138857
        ],
        "postalCode": "N2Z2X3",
        "streetName": "GREENBRAE",
        "streetDirectionId": null,
        "streetTypeId": "CRES",
        "placeName": "KINCARDINE",
        "streetNameDisplayText": "GREENBRAE CRES, KINCARDINE"
      },
      {
        "electoralDistricts": [
          {
            "election": null,
            "id": 42,
            "name": "Huron—Bruce"
          }
        ],
        "pollDivisionIds": [
          10138857
        ],
        "postalCode": "N2Z2X3",
        "streetName": "HAMPSHIRE",
        "streetDirectionId": null,
        "streetTypeId": "CRT",
        "placeName": "KINCARDINE",
        "streetNameDisplayText": "HAMPSHIRE CRT, KINCARDINE"
      },
      {
        "electoralDistricts": [
          {
            "election": null,
            "id": 42,
            "name": "Huron—Bruce"
          }
        ],
        "pollDivisionIds": [
          10138857
        ],
        "postalCode": "N2Z2X3",
        "streetName": "HEMLOCK",
        "streetDirectionId": null,
        "streetTypeId": "ST",
        "placeName": "KINCARDINE",
        "streetNameDisplayText": "HEMLOCK ST, KINCARDINE"
      },
      {
        "electoralDistricts": [
          {
            "election": null,
            "id": 42,
            "name": "Huron—Bruce"
          }
        ],
        "pollDivisionIds": [
          10138857
        ],
        "postalCode": "N2Z2X3",
        "streetName": "HIGHLAND",
        "streetDirectionId": null,
        "streetTypeId": "DR",
        "placeName": "KINCARDINE",
        "streetNameDisplayText": "HIGHLAND DR, KINCARDINE"
      },
      {
        "electoralDistricts": [
          {
            "election": null,
            "id": 42,
            "name": "Huron—Bruce"
          }
        ],
        "pollDivisionIds": [
          10138857,
          10138858,
          10138856
        ],
        "postalCode": "N2Z2X3",
        "streetName": "HIGHWAY 21",
        "streetDirectionId": null,
        "streetTypeId": null,
        "placeName": "KINCARDINE",
        "streetNameDisplayText": "HIGHWAY 21, KINCARDINE"
      },
      {
        "electoralDistricts": [
          {
            "election": null,
            "id": 42,
            "name": "Huron—Bruce"
          }
        ],
        "pollDivisionIds": [
          10138857
        ],
        "postalCode": "N2Z2X3",
        "streetName": "HILL",
        "streetDirectionId": null,
        "streetTypeId": "ST",
        "placeName": "KINCARDINE",
        "streetNameDisplayText": "HILL ST, KINCARDINE"
      },
      {
        "electoralDistricts": [
          {
            "election": null,
            "id": 42,
            "name": "Huron—Bruce"
          }
        ],
        "pollDivisionIds": [
          10138864
        ],
        "postalCode": "N2Z2X3",
        "streetName": "HILLSVIEW",
        "streetDirectionId": null,
        "streetTypeId": "TERR",
        "placeName": "KINCARDINE",
        "streetNameDisplayText": "HILLSVIEW TERR, KINCARDINE"
      },
      {
        "electoralDistricts": [
          {
            "election": null,
            "id": 42,
            "name": "Huron—Bruce"
          }
        ],
        "pollDivisionIds": [
          10138857
        ],
        "postalCode": "N2Z2X3",
        "streetName": "HUNT CLUB",
        "streetDirectionId": null,
        "streetTypeId": "DR",
        "placeName": "KINCARDINE",
        "streetNameDisplayText": "HUNT CLUB DR, KINCARDINE"
      },
      {
        "electoralDistricts": [
          {
            "election": null,
            "id": 42,
            "name": "Huron—Bruce"
          }
        ],
        "pollDivisionIds": [
          10138857
        ],
        "postalCode": "N2Z2X3",
        "streetName": "HURON",
        "streetDirectionId": null,
        "streetTypeId": "RD",
        "placeName": "KINCARDINE",
        "streetNameDisplayText": "HURON RD, KINCARDINE"
      },
      {
        "electoralDistricts": [
          {
            "election": null,
            "id": 42,
            "name": "Huron—Bruce"
          }
        ],
        "pollDivisionIds": [
          10138856
        ],
        "postalCode": "N2Z2X3",
        "streetName": "HURON-KINCARDINE",
        "streetDirectionId": "W",
        "streetTypeId": null,
        "placeName": "KINCARDINE",
        "streetNameDisplayText": "HURON-KINCARDINE W, KINCARDINE"
      },
      {
        "electoralDistricts": [
          {
            "election": null,
            "id": 42,
            "name": "Huron—Bruce"
          }
        ],
        "pollDivisionIds": [
          10138857
        ],
        "postalCode": "N2Z2X3",
        "streetName": "HWY 21, HURON TP",
        "streetDirectionId": null,
        "streetTypeId": null,
        "placeName": "KINCARDINE",
        "streetNameDisplayText": "HWY 21, HURON TP, KINCARDINE"
      },
      {
        "electoralDistricts": [
          {
            "election": null,
            "id": 42,
            "name": "Huron—Bruce"
          }
        ],
        "pollDivisionIds": [
          10138857
        ],
        "postalCode": "N2Z2X3",
        "streetName": "HWY 21",
        "streetDirectionId": null,
        "streetTypeId": null,
        "placeName": "KINCARDINE",
        "streetNameDisplayText": "HWY 21, KINCARDINE"
      },
      {
        "electoralDistricts": [
          {
            "election": null,
            "id": 42,
            "name": "Huron—Bruce"
          }
        ],
        "pollDivisionIds": [
          10138857
        ],
        "postalCode": "N2Z2X3",
        "streetName": "JARDINE",
        "streetDirectionId": null,
        "streetTypeId": "PL",
        "placeName": "KINCARDINE",
        "streetNameDisplayText": "JARDINE PL, KINCARDINE"
      },
      {
        "electoralDistricts": [
          {
            "election": null,
            "id": 42,
            "name": "Huron—Bruce"
          }
        ],
        "pollDivisionIds": [
          10138857
        ],
        "postalCode": "N2Z2X3",
        "streetName": "KENNEDY",
        "streetDirectionId": null,
        "streetTypeId": "RD",
        "placeName": "KINCARDINE",
        "streetNameDisplayText": "KENNEDY RD, KINCARDINE"
      },
      {
        "electoralDistricts": [
          {
            "election": null,
            "id": 42,
            "name": "Huron—Bruce"
          }
        ],
        "pollDivisionIds": [
          10138857
        ],
        "postalCode": "N2Z2X3",
        "streetName": "KICKAPOO",
        "streetDirectionId": null,
        "streetTypeId": "DR",
        "placeName": "KINCARDINE",
        "streetNameDisplayText": "KICKAPOO DR, KINCARDINE"
      },
      {
        "electoralDistricts": [
          {
            "election": null,
            "id": 42,
            "name": "Huron—Bruce"
          }
        ],
        "pollDivisionIds": [
          10138856
        ],
        "postalCode": "N2Z2X3",
        "streetName": "KINCARDINE",
        "streetDirectionId": null,
        "streetTypeId": "AVE",
        "placeName": "KINCARDINE",
        "streetNameDisplayText": "KINCARDINE AVE, KINCARDINE"
      },
      {
        "electoralDistricts": [
          {
            "election": null,
            "id": 42,
            "name": "Huron—Bruce"
          }
        ],
        "pollDivisionIds": [
          10138849
        ],
        "postalCode": "N2Z2X3",
        "streetName": "KINHURON",
        "streetDirectionId": null,
        "streetTypeId": "RD",
        "placeName": "TIVERTON",
        "streetNameDisplayText": "KINHURON RD, TIVERTON"
      },
      {
        "electoralDistricts": [
          {
            "election": null,
            "id": 42,
            "name": "Huron—Bruce"
          }
        ],
        "pollDivisionIds": [
          10138857
        ],
        "postalCode": "N2Z2X3",
        "streetName": "LAIDLAW",
        "streetDirectionId": null,
        "streetTypeId": "PL",
        "placeName": "KINCARDINE",
        "streetNameDisplayText": "LAIDLAW PL, KINCARDINE"
      },
      {
        "electoralDistricts": [
          {
            "election": null,
            "id": 42,
            "name": "Huron—Bruce"
          }
        ],
        "pollDivisionIds": [
          10138857
        ],
        "postalCode": "N2Z2X3",
        "streetName": "LAKE RANGE",
        "streetDirectionId": null,
        "streetTypeId": "DR",
        "placeName": "KINCARDINE",
        "streetNameDisplayText": "LAKE RANGE DR, KINCARDINE"
      },
      {
        "electoralDistricts": [
          {
            "election": null,
            "id": 42,
            "name": "Huron—Bruce"
          }
        ],
        "pollDivisionIds": [
          10138846
        ],
        "postalCode": "N2Z2X3",
        "streetName": "LAKE RANGE",
        "streetDirectionId": null,
        "streetTypeId": "DR",
        "placeName": "PORT ELGIN",
        "streetNameDisplayText": "LAKE RANGE DR, PORT ELGIN"
      },
      {
        "electoralDistricts": [
          {
            "election": null,
            "id": 42,
            "name": "Huron—Bruce"
          }
        ],
        "pollDivisionIds": [
          10138857
        ],
        "postalCode": "N2Z2X3",
        "streetName": "LIGHTHOUSE",
        "streetDirectionId": null,
        "streetTypeId": "RD",
        "placeName": "KINCARDINE",
        "streetNameDisplayText": "LIGHTHOUSE RD, KINCARDINE"
      },
      {
        "electoralDistricts": [
          {
            "election": null,
            "id": 42,
            "name": "Huron—Bruce"
          }
        ],
        "pollDivisionIds": [
          10138857
        ],
        "postalCode": "N2Z2X3",
        "streetName": "LONDON",
        "streetDirectionId": null,
        "streetTypeId": "RD",
        "placeName": "KINCARDINE",
        "streetNameDisplayText": "LONDON RD, KINCARDINE"
      },
      {
        "electoralDistricts": [
          {
            "election": null,
            "id": 42,
            "name": "Huron—Bruce"
          }
        ],
        "pollDivisionIds": [
          10138857
        ],
        "postalCode": "N2Z2X3",
        "streetName": "LURGAN",
        "streetDirectionId": null,
        "streetTypeId": "LANE",
        "placeName": "KINCARDINE",
        "streetNameDisplayText": "LURGAN LANE, KINCARDINE"
      },
      {
        "electoralDistricts": [
          {
            "election": null,
            "id": 42,
            "name": "Huron—Bruce"
          }
        ],
        "pollDivisionIds": [
          10138857
        ],
        "postalCode": "N2Z2X3",
        "streetName": "MARTYN",
        "streetDirectionId": null,
        "streetTypeId": "LANE",
        "placeName": "KINCARDINE",
        "streetNameDisplayText": "MARTYN LANE, KINCARDINE"
      },
      {
        "electoralDistricts": [
          {
            "election": null,
            "id": 42,
            "name": "Huron—Bruce"
          }
        ],
        "pollDivisionIds": [
          10138864,
          10138857
        ],
        "postalCode": "N2Z2X3",
        "streetName": "MCLEAN",
        "streetDirectionId": null,
        "streetTypeId": "ST",
        "placeName": "KINCARDINE",
        "streetNameDisplayText": "MCLEAN ST, KINCARDINE"
      },
      {
        "electoralDistricts": [
          {
            "election": null,
            "id": 42,
            "name": "Huron—Bruce"
          }
        ],
        "pollDivisionIds": [
          10138857
        ],
        "postalCode": "N2Z2X3",
        "streetName": "MEADOW",
        "streetDirectionId": null,
        "streetTypeId": "PL",
        "placeName": "KINCARDINE",
        "streetNameDisplayText": "MEADOW PL, KINCARDINE"
      },
      {
        "electoralDistricts": [
          {
            "election": null,
            "id": 42,
            "name": "Huron—Bruce"
          }
        ],
        "pollDivisionIds": [
          10138857
        ],
        "postalCode": "N2Z2X3",
        "streetName": "MENOMINI",
        "streetDirectionId": null,
        "streetTypeId": "RD",
        "placeName": "KINCARDINE",
        "streetNameDisplayText": "MENOMINI RD, KINCARDINE"
      },
      {
        "electoralDistricts": [
          {
            "election": null,
            "id": 42,
            "name": "Huron—Bruce"
          }
        ],
        "pollDivisionIds": [
          10138857
        ],
        "postalCode": "N2Z2X3",
        "streetName": "NORTH BASE LINE",
        "streetDirectionId": null,
        "streetTypeId": "RD",
        "placeName": "KINCARDINE",
        "streetNameDisplayText": "NORTH BASE LINE RD, KINCARDINE"
      },
      {
        "electoralDistricts": [
          {
            "election": null,
            "id": 42,
            "name": "Huron—Bruce"
          }
        ],
        "pollDivisionIds": [
          10138857
        ],
        "postalCode": "N2Z2X3",
        "streetName": "NORTH BASELINE",
        "streetDirectionId": "N",
        "streetTypeId": "RD",
        "placeName": "KINCARDINE",
        "streetNameDisplayText": "NORTH BASELINE RD N, KINCARDINE"
      },
      {
        "electoralDistricts": [
          {
            "election": null,
            "id": 42,
            "name": "Huron—Bruce"
          }
        ],
        "pollDivisionIds": [
          10138857
        ],
        "postalCode": "N2Z2X3",
        "streetName": "OJIBWA",
        "streetDirectionId": null,
        "streetTypeId": "TRAIL",
        "placeName": "KINCARDINE",
        "streetNameDisplayText": "OJIBWA TRAIL, KINCARDINE"
      },
      {
        "electoralDistricts": [
          {
            "election": null,
            "id": 42,
            "name": "Huron—Bruce"
          }
        ],
        "pollDivisionIds": [
          10138857
        ],
        "postalCode": "N2Z2X3",
        "streetName": "OKI",
        "streetDirectionId": null,
        "streetTypeId": "CRT",
        "placeName": "KINCARDINE",
        "streetNameDisplayText": "OKI CRT, KINCARDINE"
      },
      {
        "electoralDistricts": [
          {
            "election": null,
            "id": 42,
            "name": "Huron—Bruce"
          }
        ],
        "pollDivisionIds": [
          10138857
        ],
        "postalCode": "N2Z2X3",
        "streetName": "ONANDAGA",
        "streetDirectionId": null,
        "streetTypeId": "PL",
        "placeName": "KINCARDINE",
        "streetNameDisplayText": "ONANDAGA PL, KINCARDINE"
      },
      {
        "electoralDistricts": [
          {
            "election": null,
            "id": 42,
            "name": "Huron—Bruce"
          }
        ],
        "pollDivisionIds": [
          10138857
        ],
        "postalCode": "N2Z2X3",
        "streetName": "ONANDAGO",
        "streetDirectionId": null,
        "streetTypeId": "PL",
        "placeName": "KINCARDINE",
        "streetNameDisplayText": "ONANDAGO PL, KINCARDINE"
      },
      {
        "electoralDistricts": [
          {
            "election": null,
            "id": 42,
            "name": "Huron—Bruce"
          }
        ],
        "pollDivisionIds": [
          10138857
        ],
        "postalCode": "N2Z2X3",
        "streetName": "PALEO",
        "streetDirectionId": null,
        "streetTypeId": "PL",
        "placeName": "KINCARDINE",
        "streetNameDisplayText": "PALEO PL, KINCARDINE"
      },
      {
        "electoralDistricts": [
          {
            "election": null,
            "id": 42,
            "name": "Huron—Bruce"
          }
        ],
        "pollDivisionIds": [
          10138857
        ],
        "postalCode": "N2Z2X3",
        "streetName": "PARK",
        "streetDirectionId": null,
        "streetTypeId": "PL",
        "placeName": "KINCARDINE",
        "streetNameDisplayText": "PARK PL, KINCARDINE"
      },
      {
        "electoralDistricts": [
          {
            "election": null,
            "id": 42,
            "name": "Huron—Bruce"
          }
        ],
        "pollDivisionIds": [
          10138857
        ],
        "postalCode": "N2Z2X3",
        "streetName": "PARKPLACE",
        "streetDirectionId": null,
        "streetTypeId": null,
        "placeName": "KINCARDINE",
        "streetNameDisplayText": "PARKPLACE, KINCARDINE"
      },
      {
        "electoralDistricts": [
          {
            "election": null,
            "id": 42,
            "name": "Huron—Bruce"
          }
        ],
        "pollDivisionIds": [
          10138857
        ],
        "postalCode": "N2Z2X3",
        "streetName": "PETUM",
        "streetDirectionId": null,
        "streetTypeId": "CRT",
        "placeName": "KINCARDINE",
        "streetNameDisplayText": "PETUM CRT, KINCARDINE"
      },
      {
        "electoralDistricts": [
          {
            "election": null,
            "id": 42,
            "name": "Huron—Bruce"
          }
        ],
        "pollDivisionIds": [
          10138857
        ],
        "postalCode": "N2Z2X3",
        "streetName": "POTAWATOMI",
        "streetDirectionId": null,
        "streetTypeId": "PATH",
        "placeName": "KINCARDINE",
        "streetNameDisplayText": "POTAWATOMI PATH, KINCARDINE"
      },
      {
        "electoralDistricts": [
          {
            "election": null,
            "id": 42,
            "name": "Huron—Bruce"
          }
        ],
        "pollDivisionIds": [
          10138857
        ],
        "postalCode": "N2Z2X3",
        "streetName": "RIDGEWOOD",
        "streetDirectionId": null,
        "streetTypeId": "RD",
        "placeName": "KINCARDINE",
        "streetNameDisplayText": "RIDGEWOOD RD, KINCARDINE"
      },
      {
        "electoralDistricts": [
          {
            "election": null,
            "id": 42,
            "name": "Huron—Bruce"
          }
        ],
        "pollDivisionIds": [
          10138857
        ],
        "postalCode": "N2Z2X3",
        "streetName": "RONALD",
        "streetDirectionId": null,
        "streetTypeId": "ST",
        "placeName": "KINCARDINE",
        "streetNameDisplayText": "RONALD ST, KINCARDINE"
      },
      {
        "electoralDistricts": [
          {
            "election": null,
            "id": 42,
            "name": "Huron—Bruce"
          }
        ],
        "pollDivisionIds": [
          10138856
        ],
        "postalCode": "N2Z2X3",
        "streetName": "SARATOGA",
        "streetDirectionId": null,
        "streetTypeId": "RD",
        "placeName": "KINCARDINE",
        "streetNameDisplayText": "SARATOGA RD, KINCARDINE"
      },
      {
        "electoralDistricts": [
          {
            "election": null,
            "id": 42,
            "name": "Huron—Bruce"
          }
        ],
        "pollDivisionIds": [
          10138857
        ],
        "postalCode": "N2Z2X3",
        "streetName": "SAUK",
        "streetDirectionId": null,
        "streetTypeId": "CRT",
        "placeName": "KINCARDINE",
        "streetNameDisplayText": "SAUK CRT, KINCARDINE"
      },
      {
        "electoralDistricts": [
          {
            "election": null,
            "id": 42,
            "name": "Huron—Bruce"
          }
        ],
        "pollDivisionIds": [
          10138857
        ],
        "postalCode": "N2Z2X3",
        "streetName": "SENECA",
        "streetDirectionId": null,
        "streetTypeId": "ST",
        "placeName": "KINCARDINE",
        "streetNameDisplayText": "SENECA ST, KINCARDINE"
      },
      {
        "electoralDistricts": [
          {
            "election": null,
            "id": 42,
            "name": "Huron—Bruce"
          }
        ],
        "pollDivisionIds": [
          10138857
        ],
        "postalCode": "N2Z2X3",
        "streetName": "SHADYWOOD",
        "streetDirectionId": null,
        "streetTypeId": "CRES",
        "placeName": "KINCARDINE",
        "streetNameDisplayText": "SHADYWOOD CRES, KINCARDINE"
      },
      {
        "electoralDistricts": [
          {
            "election": null,
            "id": 42,
            "name": "Huron—Bruce"
          }
        ],
        "pollDivisionIds": [
          10138857
        ],
        "postalCode": "N2Z2X3",
        "streetName": "SOUTH BASELINE",
        "streetDirectionId": null,
        "streetTypeId": "RD",
        "placeName": "KINCARDINE",
        "streetNameDisplayText": "SOUTH BASELINE RD, KINCARDINE"
      },
      {
        "electoralDistricts": [
          {
            "election": null,
            "id": 42,
            "name": "Huron—Bruce"
          }
        ],
        "pollDivisionIds": [
          10138857
        ],
        "postalCode": "N2Z2X3",
        "streetName": "SPRUCE",
        "streetDirectionId": null,
        "streetTypeId": "CRES",
        "placeName": "KINCARDINE",
        "streetNameDisplayText": "SPRUCE CRES, KINCARDINE"
      },
      {
        "electoralDistricts": [
          {
            "election": null,
            "id": 42,
            "name": "Huron—Bruce"
          }
        ],
        "pollDivisionIds": [
          10138857
        ],
        "postalCode": "N2Z2X3",
        "streetName": "TANGLEWOOD",
        "streetDirectionId": null,
        "streetTypeId": "DR",
        "placeName": "KINCARDINE",
        "streetNameDisplayText": "TANGLEWOOD DR, KINCARDINE"
      },
      {
        "electoralDistricts": [
          {
            "election": null,
            "id": 42,
            "name": "Huron—Bruce"
          }
        ],
        "pollDivisionIds": [
          10138857
        ],
        "postalCode": "N2Z2X3",
        "streetName": "TRILLIUM",
        "streetDirectionId": null,
        "streetTypeId": "RD",
        "placeName": "KINCARDINE",
        "streetNameDisplayText": "TRILLIUM RD, KINCARDINE"
      },
      {
        "electoralDistricts": [
          {
            "election": null,
            "id": 42,
            "name": "Huron—Bruce"
          }
        ],
        "pollDivisionIds": [
          10138857
        ],
        "postalCode": "N2Z2X3",
        "streetName": "TUSCARORA",
        "streetDirectionId": null,
        "streetTypeId": "RD",
        "placeName": "KINCARDINE",
        "streetNameDisplayText": "TUSCARORA RD, KINCARDINE"
      },
      {
        "electoralDistricts": [
          {
            "election": null,
            "id": 42,
            "name": "Huron—Bruce"
          }
        ],
        "pollDivisionIds": [
          10138857
        ],
        "postalCode": "N2Z2X3",
        "streetName": "TYENDINAGA",
        "streetDirectionId": null,
        "streetTypeId": "RD",
        "placeName": "KINCARDINE",
        "streetNameDisplayText": "TYENDINAGA RD, KINCARDINE"
      },
      {
        "electoralDistricts": [
          {
            "election": null,
            "id": 42,
            "name": "Huron—Bruce"
          }
        ],
        "pollDivisionIds": [
          10138857
        ],
        "postalCode": "N2Z2X3",
        "streetName": "VICTORIA",
        "streetDirectionId": null,
        "streetTypeId": "RD",
        "placeName": "KINCARDINE",
        "streetNameDisplayText": "VICTORIA RD, KINCARDINE"
      },
      {
        "electoralDistricts": [
          {
            "election": null,
            "id": 42,
            "name": "Huron—Bruce"
          }
        ],
        "pollDivisionIds": [
          10138857
        ],
        "postalCode": "N2Z2X3",
        "streetName": "WALPOLE",
        "streetDirectionId": null,
        "streetTypeId": "TRAIL",
        "placeName": "KINCARDINE",
        "streetNameDisplayText": "WALPOLE TRAIL, KINCARDINE"
      },
      {
        "electoralDistricts": [
          {
            "election": null,
            "id": 42,
            "name": "Huron—Bruce"
          }
        ],
        "pollDivisionIds": [
          10138857
        ],
        "postalCode": "N2Z2X3",
        "streetName": "WILSON",
        "streetDirectionId": null,
        "streetTypeId": "AVE",
        "placeName": "KINCARDINE",
        "streetNameDisplayText": "WILSON AVE, KINCARDINE"
      },
      {
        "electoralDistricts": [
          {
            "election": null,
            "id": 42,
            "name": "Huron—Bruce"
          }
        ],
        "pollDivisionIds": [
          10138857
        ],
        "postalCode": "N2Z2X3",
        "streetName": "WINNEBAGO",
        "streetDirectionId": null,
        "streetTypeId": "RD",
        "placeName": "KINCARDINE",
        "streetNameDisplayText": "WINNEBAGO RD, KINCARDINE"
      },
      {
        "electoralDistricts": [
          {
            "election": null,
            "id": 42,
            "name": "Huron—Bruce"
          }
        ],
        "pollDivisionIds": [
          10138857
        ],
        "postalCode": "N2Z2X3",
        "streetName": "WINNIES",
        "streetDirectionId": null,
        "streetTypeId": "WAY",
        "placeName": "KINCARDINE",
        "streetNameDisplayText": "WINNIES WAY, KINCARDINE"
      },
      {
        "electoralDistricts": [
          {
            "election": null,
            "id": 42,
            "name": "Huron—Bruce"
          }
        ],
        "pollDivisionIds": [
          10138857
        ],
        "postalCode": "N2Z2X3",
        "streetName": "WOODHAVEN",
        "streetDirectionId": null,
        "streetTypeId": "RD",
        "placeName": "KINCARDINE",
        "streetNameDisplayText": "WOODHAVEN RD, KINCARDINE"
      },
      {
        "electoralDistricts": [
          {
            "election": null,
            "id": 42,
            "name": "Huron—Bruce"
          }
        ],
        "pollDivisionIds": [
          10138857
        ],
        "postalCode": "N2Z2X3",
        "streetName": "YOSACHA",
        "streetDirectionId": null,
        "streetTypeId": "PL",
        "placeName": "KINCARDINE",
        "streetNameDisplayText": "YOSACHA PL, KINCARDINE"
      },
      {
        "electoralDistricts": [
          {
            "election": null,
            "id": 42,
            "name": "Huron—Bruce"
          }
        ],
        "pollDivisionIds": [
          10138864
        ],
        "postalCode": "N2Z2X3",
        "streetName": "ZION",
        "streetDirectionId": null,
        "streetTypeId": "RD",
        "placeName": "KINCARDINE",
        "streetNameDisplayText": "ZION RD, KINCARDINE"
      }
    ]
  },
  {
    "postal": "N2Z8Z9",
    "result": []
  },
  {
    "postal": "N2Z0N4",
    "result": []
  },
  {
    "postal": "N2Z1K1",
    "result": [
      {
        "electoralDistricts": [
          {
            "election": null,
            "id": 42,
            "name": "Huron—Bruce"
          }
        ],
        "pollDivisionIds": [
          10138852
        ],
        "postalCode": "N2Z1K1",
        "streetName": "HURON RIDGE",
        "streetDirectionId": null,
        "streetTypeId": "CRES",
        "placeName": "KINCARDINE",
        "streetNameDisplayText": "HURON RIDGE CRES, KINCARDINE"
      }
    ]
  },
  {
    "postal": "N2Z1S3",
    "result": [
      {
        "electoralDistricts": [
          {
            "election": null,
            "id": 42,
            "name": "Huron—Bruce"
          }
        ],
        "pollDivisionIds": [
          10138856
        ],
        "postalCode": "N2Z1S3",
        "streetName": "JOHNSTON",
        "streetDirectionId": null,
        "streetTypeId": "CRES",
        "placeName": "KINCARDINE",
        "streetNameDisplayText": "JOHNSTON CRES, KINCARDINE"
      }
    ]
  },
  {
    "postal": "N2Z6M4",
    "result": []
  },
  {
    "postal": "N2Z9A9",
    "result": []
  },
  {
    "postal": "N2Z9Z9",
    "result": []
  },
  {
    "postal": "N2Z6T4",
    "result": []
  },
  {
    "postal": "N2Z0B2",
    "result": [
      {
        "electoralDistricts": [
          {
            "election": null,
            "id": 42,
            "name": "Huron—Bruce"
          }
        ],
        "pollDivisionIds": [
          10138856
        ],
        "postalCode": "N2Z0B2",
        "streetName": "HUNTER",
        "streetDirectionId": null,
        "streetTypeId": "ST",
        "placeName": "KINCARDINE",
        "streetNameDisplayText": "HUNTER ST, KINCARDINE"
      }
    ]
  },
  {
    "postal": "N2Z2L9",
    "result": [
      {
        "electoralDistricts": [
          {
            "election": null,
            "id": 42,
            "name": "Huron—Bruce"
          }
        ],
        "pollDivisionIds": [
          10138856
        ],
        "postalCode": "N2Z2L9",
        "streetName": "BOILER BEACH",
        "streetDirectionId": null,
        "streetTypeId": "RD",
        "placeName": "KINCARDINE",
        "streetNameDisplayText": "BOILER BEACH RD, KINCARDINE"
      },
      {
        "electoralDistricts": [
          {
            "election": null,
            "id": 42,
            "name": "Huron—Bruce"
          }
        ],
        "pollDivisionIds": [
          10143745,
          10138856
        ],
        "postalCode": "N2Z2L9",
        "streetName": "PENETANGORE",
        "streetDirectionId": "S",
        "streetTypeId": "ROW",
        "placeName": "KINCARDINE",
        "streetNameDisplayText": "PENETANGORE ROW S, KINCARDINE"
      },
      {
        "electoralDistricts": [
          {
            "election": null,
            "id": 42,
            "name": "Huron—Bruce"
          }
        ],
        "pollDivisionIds": [
          10143745
        ],
        "postalCode": "N2Z2L9",
        "streetName": "PENETANGORE",
        "streetDirectionId": null,
        "streetTypeId": "ROW",
        "placeName": "KINCARDINE",
        "streetNameDisplayText": "PENETANGORE ROW, KINCARDINE"
      }
    ]
  },
  {
    "postal": "N2Z8K9",
    "result": []
  },
  {
    "postal": "N2Z2H9",
    "result": [
      {
        "electoralDistricts": [
          {
            "election": null,
            "id": 42,
            "name": "Huron—Bruce"
          }
        ],
        "pollDivisionIds": [
          10143745
        ],
        "postalCode": "N2Z2H9",
        "streetName": "QUEEN",
        "streetDirectionId": null,
        "streetTypeId": "ST",
        "placeName": "KINCARDINE",
        "streetNameDisplayText": "QUEEN ST, KINCARDINE"
      }
    ]
  },
  {
    "postal": "N2Z3Z6",
    "result": []
  },
  {
    "postal": "N2Z3B0",
    "result": []
  },
  {
    "postal": "N2Z2H8",
    "result": [
      {
        "electoralDistricts": [
          {
            "election": null,
            "id": 42,
            "name": "Huron—Bruce"
          }
        ],
        "pollDivisionIds": [
          10143745
        ],
        "postalCode": "N2Z2H8",
        "streetName": "GORDON",
        "streetDirectionId": null,
        "streetTypeId": "ST",
        "placeName": "KINCARDINE",
        "streetNameDisplayText": "GORDON ST, KINCARDINE"
      },
      {
        "electoralDistricts": [
          {
            "election": null,
            "id": 42,
            "name": "Huron—Bruce"
          }
        ],
        "pollDivisionIds": [
          10143745
        ],
        "postalCode": "N2Z2H8",
        "streetName": "QUEEN",
        "streetDirectionId": null,
        "streetTypeId": "ST",
        "placeName": "KINCARDINE",
        "streetNameDisplayText": "QUEEN ST, KINCARDINE"
      }
    ]
  },
  {
    "postal": "N2Z3X2",
    "result": []
  },
  {
    "postal": "N2Z2E9",
    "result": [
      {
        "electoralDistricts": [
          {
            "election": null,
            "id": 42,
            "name": "Huron—Bruce"
          }
        ],
        "pollDivisionIds": [
          10138856
        ],
        "postalCode": "N2Z2E9",
        "streetName": "MECHANICS",
        "streetDirectionId": null,
        "streetTypeId": "AVE",
        "placeName": "KINCARDINE",
        "streetNameDisplayText": "MECHANICS AVE, KINCARDINE"
      },
      {
        "electoralDistricts": [
          {
            "election": null,
            "id": 42,
            "name": "Huron—Bruce"
          }
        ],
        "pollDivisionIds": [
          10138856
        ],
        "postalCode": "N2Z2E9",
        "streetName": "SUTTON",
        "streetDirectionId": null,
        "streetTypeId": "ST",
        "placeName": "KINCARDINE",
        "streetNameDisplayText": "SUTTON ST, KINCARDINE"
      }
    ]
  },
  {
    "postal": "N2Z9P6",
    "result": []
  },
  {
    "postal": "N2Z9E2",
    "result": []
  },
  {
    "postal": "N2Z9H2",
    "result": []
  },
  {
    "postal": "N2Z1S8",
    "result": []
  },
  {
    "postal": "N2Z3M6",
    "result": []
  },
  {
    "postal": "N2Z6Z8",
    "result": []
  },
  {
    "postal": "N2Z4J2",
    "result": []
  },
  {
    "postal": "N2Z9Y1",
    "result": []
  },
  {
    "postal": "N2Z8V6",
    "result": []
  },
  {
    "postal": "N2Z6B2",
    "result": []
  },
  {
    "postal": "N2Z1P8",
    "result": []
  },
  {
    "postal": "N2Z0V8",
    "result": []
  },
  {
    "postal": "N2Z4Y0",
    "result": []
  },
  {
    "postal": "N2Z2T4",
    "result": []
  },
  {
    "postal": "N2Z2S3",
    "result": [
      {
        "electoralDistricts": [
          {
            "election": null,
            "id": 42,
            "name": "Huron—Bruce"
          }
        ],
        "pollDivisionIds": [
          10143745
        ],
        "postalCode": "N2Z2S3",
        "streetName": "QUEEN",
        "streetDirectionId": null,
        "streetTypeId": "ST",
        "placeName": "KINCARDINE",
        "streetNameDisplayText": "QUEEN ST, KINCARDINE"
      }
    ]
  },
  {
    "postal": "N2Z0K0",
    "result": []
  },
  {
    "postal": "N2Z5N1",
    "result": []
  },
  {
    "postal": "N2Z7T0",
    "result": []
  },
  {
    "postal": "N2Z9N2",
    "result": []
  },
  {
    "postal": "N2Z5L1",
    "result": []
  },
  {
    "postal": "N2Z7G5",
    "result": []
  },
  {
    "postal": "N2Z6K2",
    "result": []
  },
  {
    "postal": "N2Z6P9",
    "result": []
  },
  {
    "postal": "N2Z0E6",
    "result": [
      {
        "electoralDistricts": [
          {
            "election": null,
            "id": 42,
            "name": "Huron—Bruce"
          }
        ],
        "pollDivisionIds": [
          10138856
        ],
        "postalCode": "N2Z0E6",
        "streetName": "PRINCES",
        "streetDirectionId": "S",
        "streetTypeId": "ST",
        "placeName": "KINCARDINE",
        "streetNameDisplayText": "PRINCES ST S, KINCARDINE"
      }
    ]
  },
  {
    "postal": "N2Z8R9",
    "result": []
  },
  {
    "postal": "N2Z3G9",
    "result": []
  },
  {
    "postal": "N2Z0V7",
    "result": []
  },
  {
    "postal": "N2Z2Z1",
    "result": []
  },
  {
    "postal": "N2Z7N1",
    "result": []
  },
  {
    "postal": "N2Z3C6",
    "result": []
  },
  {
    "postal": "N2Z4M1",
    "result": []
  },
  {
    "postal": "N2Z9K2",
    "result": []
  },
  {
    "postal": "N2Z9S6",
    "result": []
  },
  {
    "postal": "N2Z4X1",
    "result": []
  },
  {
    "postal": "N2Z8W2",
    "result": []
  },
  {
    "postal": "N2Z7N2",
    "result": []
  },
  {
    "postal": "N2Z8S3",
    "result": []
  },
  {
    "postal": "N2Z4V0",
    "result": []
  },
  {
    "postal": "N2Z6W4",
    "result": []
  },
  {
    "postal": "N2Z5M1",
    "result": []
  },
  {
    "postal": "N2Z0S4",
    "result": []
  },
  {
    "postal": "N2Z5X6",
    "result": []
  },
  {
    "postal": "N2Z8L5",
    "result": []
  },
  {
    "postal": "N2Z5M8",
    "result": []
  },
  {
    "postal": "N2Z2G3",
    "result": [
      {
        "electoralDistricts": [
          {
            "election": null,
            "id": 42,
            "name": "Huron—Bruce"
          }
        ],
        "pollDivisionIds": [
          10138856
        ],
        "postalCode": "N2Z2G3",
        "streetName": "WALKERS",
        "streetDirectionId": null,
        "streetTypeId": "CIR",
        "placeName": "KINCARDINE",
        "streetNameDisplayText": "WALKERS CIR, KINCARDINE"
      },
      {
        "electoralDistricts": [
          {
            "election": null,
            "id": 42,
            "name": "Huron—Bruce"
          }
        ],
        "pollDivisionIds": [
          10138856
        ],
        "postalCode": "N2Z2G3",
        "streetName": "WILLIAMSBURG",
        "streetDirectionId": null,
        "streetTypeId": "ST",
        "placeName": "KINCARDINE",
        "streetNameDisplayText": "WILLIAMSBURG ST, KINCARDINE"
      }
    ]
  },
  {
    "postal": "N2Z8E4",
    "result": []
  },
  {
    "postal": "N2Z7S9",
    "result": []
  },
  {
    "postal": "N2Z1K3",
    "result": []
  },
  {
    "postal": "N2Z4E1",
    "result": []
  },
  {
    "postal": "N2Z4R2",
    "result": []
  },
  {
    "postal": "N2Z6T0",
    "result": []
  },
  {
    "postal": "N2Z3K5",
    "result": []
  },
  {
    "postal": "N2Z3S3",
    "result": []
  },
  {
    "postal": "N2Z3L4",
    "result": []
  },
  {
    "postal": "N2Z9Y2",
    "result": []
  },
  {
    "postal": "N2Z1E0",
    "result": []
  },
  {
    "postal": "N2Z9A4",
    "result": []
  },
  {
    "postal": "N2Z1L3",
    "result": [
      {
        "electoralDistricts": [
          {
            "election": null,
            "id": 42,
            "name": "Huron—Bruce"
          }
        ],
        "pollDivisionIds": [
          10138852
        ],
        "postalCode": "N2Z1L3",
        "streetName": "INVERLYN",
        "streetDirectionId": "S",
        "streetTypeId": "CRES",
        "placeName": "KINCARDINE",
        "streetNameDisplayText": "INVERLYN CRES S, KINCARDINE"
      }
    ]
  },
  {
    "postal": "N2Z6N1",
    "result": []
  },
  {
    "postal": "N2Z6G7",
    "result": []
  },
  {
    "postal": "N2Z7W1",
    "result": []
  },
  {
    "postal": "N2Z4M6",
    "result": []
  },
  {
    "postal": "N2Z1K0",
    "result": []
  },
  {
    "postal": "N2Z3E2",
    "result": []
  },
  {
    "postal": "N2Z5H4",
    "result": []
  },
  {
    "postal": "N2Z1K7",
    "result": [
      {
        "electoralDistricts": [
          {
            "election": null,
            "id": 42,
            "name": "Huron—Bruce"
          }
        ],
        "pollDivisionIds": [
          10138852
        ],
        "postalCode": "N2Z1K7",
        "streetName": "GOLF LINKS",
        "streetDirectionId": null,
        "streetTypeId": "RD",
        "placeName": "KINCARDINE",
        "streetNameDisplayText": "GOLF LINKS RD, KINCARDINE"
      },
      {
        "electoralDistricts": [
          {
            "election": null,
            "id": 42,
            "name": "Huron—Bruce"
          }
        ],
        "pollDivisionIds": [
          10138852
        ],
        "postalCode": "N2Z1K7",
        "streetName": "LOWER BEACH",
        "streetDirectionId": null,
        "streetTypeId": "RD",
        "placeName": "KINCARDINE",
        "streetNameDisplayText": "LOWER BEACH RD, KINCARDINE"
      }
    ]
  },
  {
    "postal": "N2Z0H0",
    "result": []
  },
  {
    "postal": "N2Z0J3",
    "result": []
  },
  {
    "postal": "N2Z1X6",
    "result": [
      {
        "electoralDistricts": [
          {
            "election": null,
            "id": 42,
            "name": "Huron—Bruce"
          }
        ],
        "pollDivisionIds": [
          10138856
        ],
        "postalCode": "N2Z1X6",
        "streetName": "NELSON",
        "streetDirectionId": null,
        "streetTypeId": "ST",
        "placeName": "KINCARDINE",
        "streetNameDisplayText": "NELSON ST, KINCARDINE"
      }
    ]
  },
  {
    "postal": "N2Z2Z6",
    "result": []
  },
  {
    "postal": "N2Z4R9",
    "result": []
  },
  {
    "postal": "N2Z0W8",
    "result": []
  },
  {
    "postal": "N2Z1L4",
    "result": [
      {
        "electoralDistricts": [
          {
            "election": null,
            "id": 42,
            "name": "Huron—Bruce"
          }
        ],
        "pollDivisionIds": [
          10138852
        ],
        "postalCode": "N2Z1L4",
        "streetName": "GINGRAS",
        "streetDirectionId": null,
        "streetTypeId": "ST",
        "placeName": "KINCARDINE",
        "streetNameDisplayText": "GINGRAS ST, KINCARDINE"
      },
      {
        "electoralDistricts": [
          {
            "election": null,
            "id": 42,
            "name": "Huron—Bruce"
          }
        ],
        "pollDivisionIds": [
          10138852
        ],
        "postalCode": "N2Z1L4",
        "streetName": "INVERLYN",
        "streetDirectionId": "S",
        "streetTypeId": "CRES",
        "placeName": "KINCARDINE",
        "streetNameDisplayText": "INVERLYN CRES S, KINCARDINE"
      }
    ]
  },
  {
    "postal": "N2Z0C8",
    "result": [
      {
        "electoralDistricts": [
          {
            "election": null,
            "id": 42,
            "name": "Huron—Bruce"
          }
        ],
        "pollDivisionIds": [
          10143745
        ],
        "postalCode": "N2Z0C8",
        "streetName": "SARATOGA",
        "streetDirectionId": null,
        "streetTypeId": "RD",
        "placeName": "KINCARDINE",
        "streetNameDisplayText": "SARATOGA RD, KINCARDINE"
      }
    ]
  },
  {
    "postal": "N2Z9X7",
    "result": []
  },
  {
    "postal": "N2Z4T1",
    "result": []
  },
  {
    "postal": "N2Z0M0",
    "result": []
  },
  {
    "postal": "N2Z6A2",
    "result": []
  },
  {
    "postal": "N2Z9S8",
    "result": []
  },
  {
    "postal": "N2Z9T4",
    "result": []
  },
  {
    "postal": "N2Z9Y4",
    "result": []
  },
  {
    "postal": "N2Z6G5",
    "result": []
  },
  {
    "postal": "N2Z6H9",
    "result": []
  },
  {
    "postal": "N2Z2P3",
    "result": [
      {
        "electoralDistricts": [
          {
            "election": null,
            "id": 42,
            "name": "Huron—Bruce"
          }
        ],
        "pollDivisionIds": [
          10143745
        ],
        "postalCode": "N2Z2P3",
        "streetName": "BRUCE",
        "streetDirectionId": null,
        "streetTypeId": "AVE",
        "placeName": "KINCARDINE",
        "streetNameDisplayText": "BRUCE AVE, KINCARDINE"
      },
      {
        "electoralDistricts": [
          {
            "election": null,
            "id": 42,
            "name": "Huron—Bruce"
          }
        ],
        "pollDivisionIds": [
          10143745
        ],
        "postalCode": "N2Z2P3",
        "streetName": "PENETANGORE",
        "streetDirectionId": null,
        "streetTypeId": "ROW",
        "placeName": "KINCARDINE",
        "streetNameDisplayText": "PENETANGORE ROW, KINCARDINE"
      }
    ]
  },
  {
    "postal": "N2Z1T6",
    "result": [
      {
        "electoralDistricts": [
          {
            "election": null,
            "id": 42,
            "name": "Huron—Bruce"
          }
        ],
        "pollDivisionIds": [
          10138856
        ],
        "postalCode": "N2Z1T6",
        "streetName": "MACYOUNG",
        "streetDirectionId": null,
        "streetTypeId": "DR",
        "placeName": "KINCARDINE",
        "streetNameDisplayText": "MACYOUNG DR, KINCARDINE"
      }
    ]
  },
  {
    "postal": "N2Z4P6",
    "result": []
  },
  {
    "postal": "N2Z3K1",
    "result": []
  },
  {
    "postal": "N2Z6X4",
    "result": []
  },
  {
    "postal": "N2Z4M8",
    "result": []
  },
  {
    "postal": "N2Z2Y1",
    "result": [
      {
        "electoralDistricts": [
          {
            "election": null,
            "id": 42,
            "name": "Huron—Bruce"
          }
        ],
        "pollDivisionIds": [
          10143745
        ],
        "postalCode": "N2Z2Y1",
        "streetName": "HURON",
        "streetDirectionId": null,
        "streetTypeId": "TERR",
        "placeName": "KINCARDINE",
        "streetNameDisplayText": "HURON TERR, KINCARDINE"
      },
      {
        "electoralDistricts": [
          {
            "election": null,
            "id": 42,
            "name": "Huron—Bruce"
          }
        ],
        "pollDivisionIds": [
          10143745
        ],
        "postalCode": "N2Z2Y1",
        "streetName": "LAMBTON",
        "streetDirectionId": null,
        "streetTypeId": "ST",
        "placeName": "KINCARDINE",
        "streetNameDisplayText": "LAMBTON ST, KINCARDINE"
      }
    ]
  },
  {
    "postal": "N2Z6M1",
    "result": []
  },
  {
    "postal": "N2Z5L8",
    "result": []
  },
  {
    "postal": "N2Z3P6",
    "result": []
  },
  {
    "postal": "N2Z9A5",
    "result": []
  },
  {
    "postal": "N2Z7K1",
    "result": []
  },
  {
    "postal": "N2Z3J4",
    "result": []
  },
  {
    "postal": "N2Z5E7",
    "result": []
  },
  {
    "postal": "N2Z3A7",
    "result": [
      {
        "electoralDistricts": [
          {
            "election": null,
            "id": 42,
            "name": "Huron—Bruce"
          }
        ],
        "pollDivisionIds": [
          10138856
        ],
        "postalCode": "N2Z3A7",
        "streetName": "PHILIP",
        "streetDirectionId": null,
        "streetTypeId": "PL",
        "placeName": "KINCARDINE",
        "streetNameDisplayText": "PHILIP PL, KINCARDINE"
      }
    ]
  },
  {
    "postal": "N2Z1B9",
    "result": [
      {
        "electoralDistricts": [
          {
            "election": null,
            "id": 42,
            "name": "Huron—Bruce"
          }
        ],
        "pollDivisionIds": [
          10143745
        ],
        "postalCode": "N2Z1B9",
        "streetName": "CAMPBELL",
        "streetDirectionId": null,
        "streetTypeId": "CRES",
        "placeName": "KINCARDINE",
        "streetNameDisplayText": "CAMPBELL CRES, KINCARDINE"
      },
      {
        "electoralDistricts": [
          {
            "election": null,
            "id": 42,
            "name": "Huron—Bruce"
          }
        ],
        "pollDivisionIds": [
          10143745
        ],
        "postalCode": "N2Z1B9",
        "streetName": "MANOR WOOD",
        "streetDirectionId": null,
        "streetTypeId": "CRES",
        "placeName": "KINCARDINE",
        "streetNameDisplayText": "MANOR WOOD CRES, KINCARDINE"
      }
    ]
  },
  {
    "postal": "N2Z9E8",
    "result": []
  },
  {
    "postal": "N2Z1C9",
    "result": [
      {
        "electoralDistricts": [
          {
            "election": null,
            "id": 42,
            "name": "Huron—Bruce"
          }
        ],
        "pollDivisionIds": [
          10143745
        ],
        "postalCode": "N2Z1C9",
        "streetName": "HURON",
        "streetDirectionId": null,
        "streetTypeId": "TERR",
        "placeName": "KINCARDINE",
        "streetNameDisplayText": "HURON TERR, KINCARDINE"
      }
    ]
  },
  {
    "postal": "N2Z3B5",
    "result": [
      {
        "electoralDistricts": [
          {
            "election": null,
            "id": 42,
            "name": "Huron—Bruce"
          }
        ],
        "pollDivisionIds": [
          10143745
        ],
        "postalCode": "N2Z3B5",
        "streetName": "CAMPBELL",
        "streetDirectionId": null,
        "streetTypeId": "AVE",
        "placeName": "KINCARDINE",
        "streetNameDisplayText": "CAMPBELL AVE, KINCARDINE"
      }
    ]
  },
  {
    "postal": "N2Z8R0",
    "result": []
  },
  {
    "postal": "N2Z3P2",
    "result": []
  },
  {
    "postal": "N2Z5V4",
    "result": []
  },
  {
    "postal": "N2Z4H0",
    "result": []
  },
  {
    "postal": "N2Z4S7",
    "result": []
  },
  {
    "postal": "N2Z6C2",
    "result": []
  },
  {
    "postal": "N2Z8W3",
    "result": []
  },
  {
    "postal": "N2Z4M5",
    "result": []
  },
  {
    "postal": "N2Z5T1",
    "result": []
  },
  {
    "postal": "N2Z3B3",
    "result": [
      {
        "electoralDistricts": [
          {
            "election": null,
            "id": 42,
            "name": "Huron—Bruce"
          }
        ],
        "pollDivisionIds": [
          10138856
        ],
        "postalCode": "N2Z3B3",
        "streetName": "MURRAY",
        "streetDirectionId": null,
        "streetTypeId": "BLVD",
        "placeName": "KINCARDINE",
        "streetNameDisplayText": "MURRAY BLVD, KINCARDINE"
      },
      {
        "electoralDistricts": [
          {
            "election": null,
            "id": 42,
            "name": "Huron—Bruce"
          }
        ],
        "pollDivisionIds": [
          10138856
        ],
        "postalCode": "N2Z3B3",
        "streetName": "STEWART",
        "streetDirectionId": null,
        "streetTypeId": "DR",
        "placeName": "KINCARDINE",
        "streetNameDisplayText": "STEWART DR, KINCARDINE"
      }
    ]
  },
  {
    "postal": "N2Z6C6",
    "result": []
  },
  {
    "postal": "N2Z7N8",
    "result": []
  },
  {
    "postal": "N2Z2Y3",
    "result": [
      {
        "electoralDistricts": [
          {
            "election": null,
            "id": 42,
            "name": "Huron—Bruce"
          }
        ],
        "pollDivisionIds": [
          10143745
        ],
        "postalCode": "N2Z2Y3",
        "streetName": "HURON",
        "streetDirectionId": null,
        "streetTypeId": "TERR",
        "placeName": "KINCARDINE",
        "streetNameDisplayText": "HURON TERR, KINCARDINE"
      },
      {
        "electoralDistricts": [
          {
            "election": null,
            "id": 42,
            "name": "Huron—Bruce"
          }
        ],
        "pollDivisionIds": [
          10143745
        ],
        "postalCode": "N2Z2Y3",
        "streetName": "HURON TERRACE",
        "streetDirectionId": null,
        "streetTypeId": "TERR",
        "placeName": "KINCARDINE",
        "streetNameDisplayText": "HURON TERRACE TERR, KINCARDINE"
      }
    ]
  },
  {
    "postal": "N2Z2R6",
    "result": [
      {
        "electoralDistricts": [
          {
            "election": null,
            "id": 42,
            "name": "Huron—Bruce"
          }
        ],
        "pollDivisionIds": [
          10138856,
          10143745
        ],
        "postalCode": "N2Z2R6",
        "streetName": "QUEEN",
        "streetDirectionId": null,
        "streetTypeId": "ST",
        "placeName": "KINCARDINE",
        "streetNameDisplayText": "QUEEN ST, KINCARDINE"
      }
    ]
  },
  {
    "postal": "N2Z7N3",
    "result": []
  },
  {
    "postal": "N2Z8J2",
    "result": []
  },
  {
    "postal": "N2Z6A9",
    "result": []
  },
  {
    "postal": "N2Z3V2",
    "result": []
  },
  {
    "postal": "N2Z2N3",
    "result": [
      {
        "electoralDistricts": [
          {
            "election": null,
            "id": 42,
            "name": "Huron—Bruce"
          }
        ],
        "pollDivisionIds": [
          10138856
        ],
        "postalCode": "N2Z2N3",
        "streetName": "HEATHER",
        "streetDirectionId": null,
        "streetTypeId": "BLVD",
        "placeName": "KINCARDINE",
        "streetNameDisplayText": "HEATHER BLVD, KINCARDINE"
      },
      {
        "electoralDistricts": [
          {
            "election": null,
            "id": 42,
            "name": "Huron—Bruce"
          }
        ],
        "pollDivisionIds": [
          10138856
        ],
        "postalCode": "N2Z2N3",
        "streetName": "SARATOGA",
        "streetDirectionId": null,
        "streetTypeId": "RD",
        "placeName": "HURON-KINLOSS",
        "streetNameDisplayText": "SARATOGA RD, HURON-KINLOSS"
      },
      {
        "electoralDistricts": [
          {
            "election": null,
            "id": 42,
            "name": "Huron—Bruce"
          }
        ],
        "pollDivisionIds": [
          10138856,
          10143745
        ],
        "postalCode": "N2Z2N3",
        "streetName": "SARATOGA",
        "streetDirectionId": null,
        "streetTypeId": "RD",
        "placeName": "KINCARDINE",
        "streetNameDisplayText": "SARATOGA RD, KINCARDINE"
      }
    ]
  },
  {
    "postal": "N2Z1S5",
    "result": [
      {
        "electoralDistricts": [
          {
            "election": null,
            "id": 42,
            "name": "Huron—Bruce"
          }
        ],
        "pollDivisionIds": [
          10138856
        ],
        "postalCode": "N2Z1S5",
        "streetName": "JOHNSTON",
        "streetDirectionId": null,
        "streetTypeId": "CRES",
        "placeName": "KINCARDINE",
        "streetNameDisplayText": "JOHNSTON CRES, KINCARDINE"
      }
    ]
  },
  {
    "postal": "N2Z4T7",
    "result": []
  },
  {
    "postal": "N2Z6Y7",
    "result": []
  },
  {
    "postal": "N2Z0W7",
    "result": []
  },
  {
    "postal": "N2Z2W9",
    "result": []
  },
  {
    "postal": "N2Z8V0",
    "result": []
  },
  {
    "postal": "N2Z0H4",
    "result": []
  },
  {
    "postal": "N2Z2T1",
    "result": []
  },
  {
    "postal": "N2Z1B1",
    "result": [
      {
        "electoralDistricts": [
          {
            "election": null,
            "id": 42,
            "name": "Huron—Bruce"
          }
        ],
        "pollDivisionIds": [
          10143745
        ],
        "postalCode": "N2Z1B1",
        "streetName": "SAUGEEN",
        "streetDirectionId": null,
        "streetTypeId": "ST",
        "placeName": "KINCARDINE",
        "streetNameDisplayText": "SAUGEEN ST, KINCARDINE"
      }
    ]
  },
  {
    "postal": "N2Z8B6",
    "result": []
  },
  {
    "postal": "N2Z6H1",
    "result": []
  },
  {
    "postal": "N2Z8T8",
    "result": []
  },
  {
    "postal": "N2Z0T4",
    "result": []
  },
  {
    "postal": "N2Z2C4",
    "result": [
      {
        "electoralDistricts": [
          {
            "election": null,
            "id": 42,
            "name": "Huron—Bruce"
          }
        ],
        "pollDivisionIds": [
          10138856
        ],
        "postalCode": "N2Z2C4",
        "streetName": "SOUTH",
        "streetDirectionId": null,
        "streetTypeId": "ST",
        "placeName": "KINCARDINE",
        "streetNameDisplayText": "SOUTH ST, KINCARDINE"
      }
    ]
  },
  {
    "postal": "N2Z8N3",
    "result": []
  },
  {
    "postal": "N2Z4L8",
    "result": []
  },
  {
    "postal": "N2Z2B5",
    "result": [
      {
        "electoralDistricts": [
          {
            "election": null,
            "id": 42,
            "name": "Huron—Bruce"
          }
        ],
        "pollDivisionIds": [
          10138856,
          10143745
        ],
        "postalCode": "N2Z2B5",
        "streetName": "DURHAM",
        "streetDirectionId": null,
        "streetTypeId": "ST",
        "placeName": "KINCARDINE",
        "streetNameDisplayText": "DURHAM ST, KINCARDINE"
      },
      {
        "electoralDistricts": [
          {
            "election": null,
            "id": 42,
            "name": "Huron—Bruce"
          }
        ],
        "pollDivisionIds": [
          10143745
        ],
        "postalCode": "N2Z2B5",
        "streetName": "OLDE VICTORIA",
        "streetDirectionId": null,
        "streetTypeId": "ST",
        "placeName": "KINCARDINE",
        "streetNameDisplayText": "OLDE VICTORIA ST, KINCARDINE"
      }
    ]
  },
  {
    "postal": "N2Z3H1",
    "result": []
  },
  {
    "postal": "N2Z4Y1",
    "result": []
  },
  {
    "postal": "N2Z7E2",
    "result": []
  },
  {
    "postal": "N2Z2P5",
    "result": [
      {
        "electoralDistricts": [
          {
            "election": null,
            "id": 42,
            "name": "Huron—Bruce"
          }
        ],
        "pollDivisionIds": [
          10143745
        ],
        "postalCode": "N2Z2P5",
        "streetName": "PENETANGORE",
        "streetDirectionId": null,
        "streetTypeId": "ROW",
        "placeName": "KINCARDINE",
        "streetNameDisplayText": "PENETANGORE ROW, KINCARDINE"
      }
    ]
  },
  {
    "postal": "N2Z8R7",
    "result": []
  },
  {
    "postal": "N2Z9P1",
    "result": []
  },
  {
    "postal": "N2Z3B8",
    "result": [
      {
        "electoralDistricts": [
          {
            "election": null,
            "id": 42,
            "name": "Huron—Bruce"
          }
        ],
        "pollDivisionIds": [
          10138856
        ],
        "postalCode": "N2Z3B8",
        "streetName": "DURHAM",
        "streetDirectionId": null,
        "streetTypeId": "ST",
        "placeName": "KINCARDINE",
        "streetNameDisplayText": "DURHAM ST, KINCARDINE"
      }
    ]
  },
  {
    "postal": "N2Z3P7",
    "result": []
  },
  {
    "postal": "N2Z9B2",
    "result": []
  },
  {
    "postal": "N2Z6Z3",
    "result": []
  },
  {
    "postal": "N2Z4N5",
    "result": []
  },
  {
    "postal": "N2Z8T3",
    "result": []
  },
  {
    "postal": "N2Z1V2",
    "result": [
      {
        "electoralDistricts": [
          {
            "election": null,
            "id": 42,
            "name": "Huron—Bruce"
          }
        ],
        "pollDivisionIds": [
          10138856
        ],
        "postalCode": "N2Z1V2",
        "streetName": "KENNARD",
        "streetDirectionId": null,
        "streetTypeId": "CRES",
        "placeName": "KINCARDINE",
        "streetNameDisplayText": "KENNARD CRES, KINCARDINE"
      },
      {
        "electoralDistricts": [
          {
            "election": null,
            "id": 42,
            "name": "Huron—Bruce"
          }
        ],
        "pollDivisionIds": [
          10138856
        ],
        "postalCode": "N2Z1V2",
        "streetName": "SCOTT",
        "streetDirectionId": null,
        "streetTypeId": "ST",
        "placeName": "KINCARDINE",
        "streetNameDisplayText": "SCOTT ST, KINCARDINE"
      }
    ]
  },
  {
    "postal": "N2Z1Y0",
    "result": []
  },
  {
    "postal": "N2Z3G6",
    "result": []
  },
  {
    "postal": "N2Z3H7",
    "result": []
  },
  {
    "postal": "N2Z7X8",
    "result": []
  },
  {
    "postal": "N2Z0C7",
    "result": [
      {
        "electoralDistricts": [
          {
            "election": null,
            "id": 42,
            "name": "Huron—Bruce"
          }
        ],
        "pollDivisionIds": [
          10138857,
          10138856
        ],
        "postalCode": "N2Z0C7",
        "streetName": "BOILER BEACH",
        "streetDirectionId": null,
        "streetTypeId": "RD",
        "placeName": "KINCARDINE",
        "streetNameDisplayText": "BOILER BEACH RD, KINCARDINE"
      },
      {
        "electoralDistricts": [
          {
            "election": null,
            "id": 42,
            "name": "Huron—Bruce"
          }
        ],
        "pollDivisionIds": [
          10138857
        ],
        "postalCode": "N2Z0C7",
        "streetName": "KENNEDY",
        "streetDirectionId": null,
        "streetTypeId": "RD",
        "placeName": "KINCARDINE",
        "streetNameDisplayText": "KENNEDY RD, KINCARDINE"
      },
      {
        "electoralDistricts": [
          {
            "election": null,
            "id": 42,
            "name": "Huron—Bruce"
          }
        ],
        "pollDivisionIds": [
          10138857
        ],
        "postalCode": "N2Z0C7",
        "streetName": "KITCHENER",
        "streetDirectionId": null,
        "streetTypeId": "ST",
        "placeName": "KINCARDINE",
        "streetNameDisplayText": "KITCHENER ST, KINCARDINE"
      },
      {
        "electoralDistricts": [
          {
            "election": null,
            "id": 42,
            "name": "Huron—Bruce"
          }
        ],
        "pollDivisionIds": [
          10138857
        ],
        "postalCode": "N2Z0C7",
        "streetName": "STRATFORD",
        "streetDirectionId": null,
        "streetTypeId": "ST",
        "placeName": "KINCARDINE",
        "streetNameDisplayText": "STRATFORD ST, KINCARDINE"
      },
      {
        "electoralDistricts": [
          {
            "election": null,
            "id": 42,
            "name": "Huron—Bruce"
          }
        ],
        "pollDivisionIds": [
          10138857
        ],
        "postalCode": "N2Z0C7",
        "streetName": "WATERLOO",
        "streetDirectionId": null,
        "streetTypeId": "ST",
        "placeName": "KINCARDINE",
        "streetNameDisplayText": "WATERLOO ST, KINCARDINE"
      }
    ]
  },
  {
    "postal": "N2Z0W9",
    "result": []
  },
  {
    "postal": "N2Z8E6",
    "result": []
  },
  {
    "postal": "N2Z9Z8",
    "result": []
  },
  {
    "postal": "N2Z3P4",
    "result": []
  },
  {
    "postal": "N2Z6L8",
    "result": []
  },
  {
    "postal": "N2Z2R4",
    "result": [
      {
        "electoralDistricts": [
          {
            "election": null,
            "id": 42,
            "name": "Huron—Bruce"
          }
        ],
        "pollDivisionIds": [
          10138856
        ],
        "postalCode": "N2Z2R4",
        "streetName": "QUEEN",
        "streetDirectionId": null,
        "streetTypeId": "ST",
        "placeName": "KINCARDINE",
        "streetNameDisplayText": "QUEEN ST, KINCARDINE"
      }
    ]
  },
  {
    "postal": "N2Z2W1",
    "result": []
  },
  {
    "postal": "N2Z9H8",
    "result": []
  },
  {
    "postal": "N2Z8X9",
    "result": []
  },
  {
    "postal": "N2Z7H4",
    "result": []
  },
  {
    "postal": "N2Z3J1",
    "result": []
  },
  {
    "postal": "N2Z1P4",
    "result": [
      {
        "electoralDistricts": [
          {
            "election": null,
            "id": 42,
            "name": "Huron—Bruce"
          }
        ],
        "pollDivisionIds": [
          10138856
        ],
        "postalCode": "N2Z1P4",
        "streetName": "ABBEY",
        "streetDirectionId": null,
        "streetTypeId": "RD",
        "placeName": "KINCARDINE",
        "streetNameDisplayText": "ABBEY RD, KINCARDINE"
      },
      {
        "electoralDistricts": [
          {
            "election": null,
            "id": 42,
            "name": "Huron—Bruce"
          }
        ],
        "pollDivisionIds": [
          10138856
        ],
        "postalCode": "N2Z1P4",
        "streetName": "ANDREW MALCOLM",
        "streetDirectionId": null,
        "streetTypeId": "DR",
        "placeName": "KINCARDINE",
        "streetNameDisplayText": "ANDREW MALCOLM DR, KINCARDINE"
      },
      {
        "electoralDistricts": [
          {
            "election": null,
            "id": 42,
            "name": "Huron—Bruce"
          }
        ],
        "pollDivisionIds": [
          10138856
        ],
        "postalCode": "N2Z1P4",
        "streetName": "WALSH",
        "streetDirectionId": null,
        "streetTypeId": "ST",
        "placeName": "KINCARDINE",
        "streetNameDisplayText": "WALSH ST, KINCARDINE"
      }
    ]
  },
  {
    "postal": "N2Z2A3",
    "result": [
      {
        "electoralDistricts": [
          {
            "election": null,
            "id": 42,
            "name": "Huron—Bruce"
          }
        ],
        "pollDivisionIds": [
          10143745
        ],
        "postalCode": "N2Z2A3",
        "streetName": "DURHAM MARKET",
        "streetDirectionId": "S",
        "streetTypeId": "ST",
        "placeName": "KINCARDINE",
        "streetNameDisplayText": "DURHAM MARKET ST S, KINCARDINE"
      },
      {
        "electoralDistricts": [
          {
            "election": null,
            "id": 42,
            "name": "Huron—Bruce"
          }
        ],
        "pollDivisionIds": [
          10143745
        ],
        "postalCode": "N2Z2A3",
        "streetName": "MALCOLM",
        "streetDirectionId": null,
        "streetTypeId": "ST",
        "placeName": "KINCARDINE",
        "streetNameDisplayText": "MALCOLM ST, KINCARDINE"
      },
      {
        "electoralDistricts": [
          {
            "election": null,
            "id": 42,
            "name": "Huron—Bruce"
          }
        ],
        "pollDivisionIds": [
          10143745
        ],
        "postalCode": "N2Z2A3",
        "streetName": "PRINCES",
        "streetDirectionId": "N",
        "streetTypeId": "ST",
        "placeName": "KINCARDINE",
        "streetNameDisplayText": "PRINCES ST N, KINCARDINE"
      },
      {
        "electoralDistricts": [
          {
            "election": null,
            "id": 42,
            "name": "Huron—Bruce"
          }
        ],
        "pollDivisionIds": [
          10143745
        ],
        "postalCode": "N2Z2A3",
        "streetName": "QUEEN",
        "streetDirectionId": null,
        "streetTypeId": "ST",
        "placeName": "KINCARDINE",
        "streetNameDisplayText": "QUEEN ST, KINCARDINE"
      }
    ]
  },
  {
    "postal": "N2Z0Z1",
    "result": []
  },
  {
    "postal": "N2Z1C1",
    "result": [
      {
        "electoralDistricts": [
          {
            "election": null,
            "id": 42,
            "name": "Huron—Bruce"
          }
        ],
        "pollDivisionIds": [
          10138852
        ],
        "postalCode": "N2Z1C1",
        "streetName": "GOLF COURSE",
        "streetDirectionId": null,
        "streetTypeId": "TRAIL",
        "placeName": "KINCARDINE",
        "streetNameDisplayText": "GOLF COURSE TRAIL, KINCARDINE"
      },
      {
        "electoralDistricts": [
          {
            "election": null,
            "id": 42,
            "name": "Huron—Bruce"
          }
        ],
        "pollDivisionIds": [
          10143745
        ],
        "postalCode": "N2Z1C1",
        "streetName": "MANOR WOOD",
        "streetDirectionId": null,
        "streetTypeId": "CRES",
        "placeName": "KINCARDINE",
        "streetNameDisplayText": "MANOR WOOD CRES, KINCARDINE"
      },
      {
        "electoralDistricts": [
          {
            "election": null,
            "id": 54,
            "name": "London North Centre"
          }
        ],
        "pollDivisionIds": [
          10135377
        ],
        "postalCode": "N2Z1C1",
        "streetName": "MANORWOOD",
        "streetDirectionId": null,
        "streetTypeId": null,
        "placeName": "LONDON,ON",
        "streetNameDisplayText": "MANORWOOD, LONDON,ON"
      },
      {
        "electoralDistricts": [
          {
            "election": null,
            "id": 42,
            "name": "Huron—Bruce"
          }
        ],
        "pollDivisionIds": [
          10143745
        ],
        "postalCode": "N2Z1C1",
        "streetName": "WEST",
        "streetDirectionId": null,
        "streetTypeId": "ST",
        "placeName": "KINCARDINE",
        "streetNameDisplayText": "WEST ST, KINCARDINE"
      }
    ]
  },
  {
    "postal": "N2Z0H3",
    "result": []
  },
  {
    "postal": "N2Z7B0",
    "result": []
  },
  {
    "postal": "N2Z5K2",
    "result": []
  },
  {
    "postal": "N2Z1E9",
    "result": [
      {
        "electoralDistricts": [
          {
            "election": null,
            "id": 42,
            "name": "Huron—Bruce"
          }
        ],
        "pollDivisionIds": [
          10143745
        ],
        "postalCode": "N2Z1E9",
        "streetName": "HURON",
        "streetDirectionId": null,
        "streetTypeId": "TERR",
        "placeName": "KINCARDINE",
        "streetNameDisplayText": "HURON TERR, KINCARDINE"
      }
    ]
  },
  {
    "postal": "N2Z9W7",
    "result": []
  },
  {
    "postal": "N2Z5W6",
    "result": []
  },
  {
    "postal": "N2Z6S6",
    "result": []
  },
  {
    "postal": "N2Z2P8",
    "result": [
      {
        "electoralDistricts": [
          {
            "election": null,
            "id": 42,
            "name": "Huron—Bruce"
          }
        ],
        "pollDivisionIds": [
          10143745
        ],
        "postalCode": "N2Z2P8",
        "streetName": "ALICE",
        "streetDirectionId": null,
        "streetTypeId": "ST",
        "placeName": "KINCARDINE",
        "streetNameDisplayText": "ALICE ST, KINCARDINE"
      }
    ]
  },
  {
    "postal": "N2Z4P8",
    "result": []
  },
  {
    "postal": "N2Z0V9",
    "result": []
  },
  {
    "postal": "N2Z5Y2",
    "result": []
  },
  {
    "postal": "N2Z7Z7",
    "result": []
  },
  {
    "postal": "N2Z6Y8",
    "result": []
  },
  {
    "postal": "N2Z2G7",
    "result": [
      {
        "electoralDistricts": [
          {
            "election": null,
            "id": 42,
            "name": "Huron—Bruce"
          }
        ],
        "pollDivisionIds": [
          10138856
        ],
        "postalCode": "N2Z2G7",
        "streetName": "BROADWAY",
        "streetDirectionId": null,
        "streetTypeId": "ST",
        "placeName": "KINCARDINE",
        "streetNameDisplayText": "BROADWAY ST, KINCARDINE"
      },
      {
        "electoralDistricts": [
          {
            "election": null,
            "id": 42,
            "name": "Huron—Bruce"
          }
        ],
        "pollDivisionIds": [
          10138856
        ],
        "postalCode": "N2Z2G7",
        "streetName": "COULSON",
        "streetDirectionId": null,
        "streetTypeId": "LANE",
        "placeName": "KINCARDINE",
        "streetNameDisplayText": "COULSON LANE, KINCARDINE"
      },
      {
        "electoralDistricts": [
          {
            "election": null,
            "id": 42,
            "name": "Huron—Bruce"
          }
        ],
        "pollDivisionIds": [
          10138856
        ],
        "postalCode": "N2Z2G7",
        "streetName": "JAMES",
        "streetDirectionId": null,
        "streetTypeId": "ST",
        "placeName": "KINCARDINE",
        "streetNameDisplayText": "JAMES ST, KINCARDINE"
      },
      {
        "electoralDistricts": [
          {
            "election": null,
            "id": 42,
            "name": "Huron—Bruce"
          }
        ],
        "pollDivisionIds": [
          10138856
        ],
        "postalCode": "N2Z2G7",
        "streetName": "MECHANICS",
        "streetDirectionId": null,
        "streetTypeId": "AVE",
        "placeName": "KINCARDINE",
        "streetNameDisplayText": "MECHANICS AVE, KINCARDINE"
      },
      {
        "electoralDistricts": [
          {
            "election": null,
            "id": 42,
            "name": "Huron—Bruce"
          }
        ],
        "pollDivisionIds": [
          10138856
        ],
        "postalCode": "N2Z2G7",
        "streetName": "MILNE",
        "streetDirectionId": null,
        "streetTypeId": "DR",
        "placeName": "KINCARDINE",
        "streetNameDisplayText": "MILNE DR, KINCARDINE"
      }
    ]
  },
  {
    "postal": "N2Z8C1",
    "result": []
  },
  {
    "postal": "N2Z5C5",
    "result": []
  },
  {
    "postal": "N2Z2X8",
    "result": [
      {
        "electoralDistricts": [
          {
            "election": null,
            "id": 42,
            "name": "Huron—Bruce"
          }
        ],
        "pollDivisionIds": [
          10143745
        ],
        "postalCode": "N2Z2X8",
        "streetName": "HURON",
        "streetDirectionId": null,
        "streetTypeId": "TERR",
        "placeName": "KINCARDINE",
        "streetNameDisplayText": "HURON TERR, KINCARDINE"
      },
      {
        "electoralDistricts": [
          {
            "election": null,
            "id": 42,
            "name": "Huron—Bruce"
          }
        ],
        "pollDivisionIds": [
          10138851
        ],
        "postalCode": "N2Z2X8",
        "streetName": "REDMOND",
        "streetDirectionId": null,
        "streetTypeId": "DR",
        "placeName": "KINCARDINE",
        "streetNameDisplayText": "REDMOND DR, KINCARDINE"
      }
    ]
  },
  {
    "postal": "N2Z1W5",
    "result": []
  },
  {
    "postal": "N2Z7G0",
    "result": []
  },
  {
    "postal": "N2Z8J8",
    "result": []
  },
  {
    "postal": "N2Z3Y0",
    "result": []
  },
  {
    "postal": "N2Z9T7",
    "result": []
  },
  {
    "postal": "N2Z5P4",
    "result": []
  },
  {
    "postal": "N2Z4B0",
    "result": []
  },
  {
    "postal": "N2Z9N8",
    "result": []
  },
  {
    "postal": "N2Z4A7",
    "result": []
  },
  {
    "postal": "N2Z4H9",
    "result": []
  },
  {
    "postal": "N2Z6X1",
    "result": []
  },
  {
    "postal": "N2Z9Y7",
    "result": []
  },
  {
    "postal": "N2Z2Y5",
    "result": [
      {
        "electoralDistricts": [
          {
            "election": null,
            "id": 42,
            "name": "Huron—Bruce"
          }
        ],
        "pollDivisionIds": [
          10143745
        ],
        "postalCode": "N2Z2Y5",
        "streetName": "PRINCES",
        "streetDirectionId": "N",
        "streetTypeId": "ST",
        "placeName": "KINCARDINE",
        "streetNameDisplayText": "PRINCES ST N, KINCARDINE"
      }
    ]
  },
  {
    "postal": "N2Z8L7",
    "result": []
  },
  {
    "postal": "N2Z2A8",
    "result": [
      {
        "electoralDistricts": [
          {
            "election": null,
            "id": 42,
            "name": "Huron—Bruce"
          }
        ],
        "pollDivisionIds": [
          10143745
        ],
        "postalCode": "N2Z2A8",
        "streetName": "RUSSELL",
        "streetDirectionId": null,
        "streetTypeId": "ST",
        "placeName": "KINCARDINE",
        "streetNameDisplayText": "RUSSELL ST, KINCARDINE"
      }
    ]
  },
  {
    "postal": "N2Z2K9",
    "result": [
      {
        "electoralDistricts": [
          {
            "election": null,
            "id": 42,
            "name": "Huron—Bruce"
          }
        ],
        "pollDivisionIds": [
          10143745
        ],
        "postalCode": "N2Z2K9",
        "streetName": "GODERICH",
        "streetDirectionId": null,
        "streetTypeId": "ST",
        "placeName": "KINCARDINE",
        "streetNameDisplayText": "GODERICH ST, KINCARDINE"
      }
    ]
  },
  {
    "postal": "N2Z3E5",
    "result": []
  },
  {
    "postal": "N2Z8N6",
    "result": []
  },
  {
    "postal": "N2Z8J4",
    "result": []
  },
  {
    "postal": "N2Z4R7",
    "result": []
  },
  {
    "postal": "N2Z9K1",
    "result": []
  },
  {
    "postal": "N2Z8E1",
    "result": []
  },
  {
    "postal": "N2Z0R1",
    "result": []
  },
  {
    "postal": "N2Z4J3",
    "result": []
  },
  {
    "postal": "N2Z7E7",
    "result": []
  },
  {
    "postal": "N2Z0J0",
    "result": []
  },
  {
    "postal": "N2Z7R8",
    "result": []
  },
  {
    "postal": "N2Z9X0",
    "result": []
  },
  {
    "postal": "N2Z7P6",
    "result": []
  },
  {
    "postal": "N2Z0R7",
    "result": []
  },
  {
    "postal": "N2Z5W1",
    "result": []
  },
  {
    "postal": "N2Z0K4",
    "result": []
  },
  {
    "postal": "N2Z7N9",
    "result": []
  },
  {
    "postal": "N2Z1N0",
    "result": []
  },
  {
    "postal": "N2Z6P3",
    "result": []
  },
  {
    "postal": "N2Z5A1",
    "result": []
  },
  {
    "postal": "N2Z9M9",
    "result": []
  },
  {
    "postal": "N2Z7T6",
    "result": []
  },
  {
    "postal": "N2Z3X0",
    "result": []
  },
  {
    "postal": "N2Z2T0",
    "result": []
  },
  {
    "postal": "N2Z5X9",
    "result": []
  },
  {
    "postal": "N2Z2R3",
    "result": [
      {
        "electoralDistricts": [
          {
            "election": null,
            "id": 42,
            "name": "Huron—Bruce"
          }
        ],
        "pollDivisionIds": [
          10143745
        ],
        "postalCode": "N2Z2R3",
        "streetName": "QUEEN",
        "streetDirectionId": null,
        "streetTypeId": "ST",
        "placeName": "KINCARDINE",
        "streetNameDisplayText": "QUEEN ST, KINCARDINE"
      }
    ]
  },
  {
    "postal": "N2Z5N2",
    "result": []
  },
  {
    "postal": "N2Z4Y7",
    "result": []
  },
  {
    "postal": "N2Z7M0",
    "result": []
  },
  {
    "postal": "N2Z8P3",
    "result": []
  },
  {
    "postal": "N2Z3N3",
    "result": []
  },
  {
    "postal": "N2Z7S3",
    "result": []
  },
  {
    "postal": "N2Z3V9",
    "result": []
  },
  {
    "postal": "N2Z9N7",
    "result": []
  },
  {
    "postal": "N2Z0G4",
    "result": [
      {
        "electoralDistricts": [
          {
            "election": null,
            "id": 42,
            "name": "Huron—Bruce"
          }
        ],
        "pollDivisionIds": [
          10143745
        ],
        "postalCode": "N2Z0G4",
        "streetName": "HURON",
        "streetDirectionId": null,
        "streetTypeId": "TERR",
        "placeName": "KINCARDINE",
        "streetNameDisplayText": "HURON TERR, KINCARDINE"
      }
    ]
  },
  {
    "postal": "N2Z2E2",
    "result": [
      {
        "electoralDistricts": [
          {
            "election": null,
            "id": 42,
            "name": "Huron—Bruce"
          }
        ],
        "pollDivisionIds": [
          10138856
        ],
        "postalCode": "N2Z2E2",
        "streetName": "GARY",
        "streetDirectionId": null,
        "streetTypeId": "ST",
        "placeName": "KINCARDINE",
        "streetNameDisplayText": "GARY ST, KINCARDINE"
      },
      {
        "electoralDistricts": [
          {
            "election": null,
            "id": 42,
            "name": "Huron—Bruce"
          }
        ],
        "pollDivisionIds": [
          10138856
        ],
        "postalCode": "N2Z2E2",
        "streetName": "SUTTON",
        "streetDirectionId": null,
        "streetTypeId": "ST",
        "placeName": "KINCARDINE",
        "streetNameDisplayText": "SUTTON ST, KINCARDINE"
      }
    ]
  },
  {
    "postal": "N2Z7W8",
    "result": []
  },
  {
    "postal": "N2Z7M5",
    "result": []
  },
  {
    "postal": "N2Z5W8",
    "result": []
  },
  {
    "postal": "N2Z5E5",
    "result": []
  },
  {
    "postal": "N2Z1P9",
    "result": [
      {
        "electoralDistricts": [
          {
            "election": null,
            "id": 42,
            "name": "Huron—Bruce"
          }
        ],
        "pollDivisionIds": [
          10138856
        ],
        "postalCode": "N2Z1P9",
        "streetName": "MACKENDRICK",
        "streetDirectionId": null,
        "streetTypeId": "DR",
        "placeName": "KINCARDINE",
        "streetNameDisplayText": "MACKENDRICK DR, KINCARDINE"
      }
    ]
  },
  {
    "postal": "N2Z8V8",
    "result": []
  },
  {
    "postal": "N2Z9G8",
    "result": []
  },
  {
    "postal": "N2Z8H9",
    "result": []
  },
  {
    "postal": "N2Z1Z1",
    "result": [
      {
        "electoralDistricts": [
          {
            "election": null,
            "id": 42,
            "name": "Huron—Bruce"
          }
        ],
        "pollDivisionIds": [
          10143745
        ],
        "postalCode": "N2Z1Z1",
        "streetName": "LAMBTON",
        "streetDirectionId": null,
        "streetTypeId": "ST",
        "placeName": "KINCARDINE",
        "streetNameDisplayText": "LAMBTON ST, KINCARDINE"
      },
      {
        "electoralDistricts": [
          {
            "election": null,
            "id": 42,
            "name": "Huron—Bruce"
          }
        ],
        "pollDivisionIds": [
          10143745
        ],
        "postalCode": "N2Z1Z1",
        "streetName": "PRINCES",
        "streetDirectionId": "N",
        "streetTypeId": "ST",
        "placeName": "KINCARDINE",
        "streetNameDisplayText": "PRINCES ST N, KINCARDINE"
      }
    ]
  },
  {
    "postal": "N2Z8M3",
    "result": []
  },
  {
    "postal": "N2Z5H6",
    "result": []
  },
  {
    "postal": "N2Z7W7",
    "result": []
  },
  {
    "postal": "N2Z4L0",
    "result": []
  },
  {
    "postal": "N2Z2N1",
    "result": [
      {
        "electoralDistricts": [
          {
            "election": null,
            "id": 42,
            "name": "Huron—Bruce"
          }
        ],
        "pollDivisionIds": [
          10138856
        ],
        "postalCode": "N2Z2N1",
        "streetName": "ANNE MARIE",
        "streetDirectionId": null,
        "streetTypeId": "CRES",
        "placeName": "KINCARDINE",
        "streetNameDisplayText": "ANNE MARIE CRES, KINCARDINE"
      },
      {
        "electoralDistricts": [
          {
            "election": null,
            "id": 42,
            "name": "Huron—Bruce"
          }
        ],
        "pollDivisionIds": [
          10138856
        ],
        "postalCode": "N2Z2N1",
        "streetName": "KEYES",
        "streetDirectionId": null,
        "streetTypeId": "CIR",
        "placeName": "KINCARDINE",
        "streetNameDisplayText": "KEYES CIR, KINCARDINE"
      }
    ]
  },
  {
    "postal": "N2Z2H4",
    "result": []
  },
  {
    "postal": "N2Z5C8",
    "result": []
  },
  {
    "postal": "N2Z8B0",
    "result": []
  },
  {
    "postal": "N2Z1T4",
    "result": [
      {
        "electoralDistricts": [
          {
            "election": null,
            "id": 42,
            "name": "Huron—Bruce"
          }
        ],
        "pollDivisionIds": [
          10138856
        ],
        "postalCode": "N2Z1T4",
        "streetName": "KENNARD",
        "streetDirectionId": null,
        "streetTypeId": "CRES",
        "placeName": "KINCARDINE",
        "streetNameDisplayText": "KENNARD CRES, KINCARDINE"
      }
    ]
  },
  {
    "postal": "N2Z7N7",
    "result": []
  },
  {
    "postal": "N2Z4L3",
    "result": []
  },
  {
    "postal": "N2Z2N2",
    "result": [
      {
        "electoralDistricts": [
          {
            "election": null,
            "id": 42,
            "name": "Huron—Bruce"
          }
        ],
        "pollDivisionIds": [
          10138856
        ],
        "postalCode": "N2Z2N2",
        "streetName": "HEATHER",
        "streetDirectionId": null,
        "streetTypeId": "BLVD",
        "placeName": "KINCARDINE",
        "streetNameDisplayText": "HEATHER BLVD, KINCARDINE"
      }
    ]
  },
  {
    "postal": "N2Z4N8",
    "result": []
  },
  {
    "postal": "N2Z3M5",
    "result": []
  },
  {
    "postal": "N2Z6H7",
    "result": []
  },
  {
    "postal": "N2Z8Y8",
    "result": []
  },
  {
    "postal": "N2Z5R9",
    "result": []
  },
  {
    "postal": "N2Z8G3",
    "result": []
  },
  {
    "postal": "N2Z4N7",
    "result": []
  },
  {
    "postal": "N2Z0B9",
    "result": [
      {
        "electoralDistricts": [
          {
            "election": null,
            "id": 42,
            "name": "Huron—Bruce"
          }
        ],
        "pollDivisionIds": [
          10138857
        ],
        "postalCode": "N2Z0B9",
        "streetName": "GREG'S",
        "streetDirectionId": null,
        "streetTypeId": "TRAIL",
        "placeName": "KINCARDINE",
        "streetNameDisplayText": "GREG'S TRAIL, KINCARDINE"
      },
      {
        "electoralDistricts": [
          {
            "election": null,
            "id": 42,
            "name": "Huron—Bruce"
          }
        ],
        "pollDivisionIds": [
          10138857
        ],
        "postalCode": "N2Z0B9",
        "streetName": "HERITAGE",
        "streetDirectionId": null,
        "streetTypeId": "DR",
        "placeName": "KINCARDINE",
        "streetNameDisplayText": "HERITAGE DR, KINCARDINE"
      },
      {
        "electoralDistricts": [
          {
            "election": null,
            "id": 42,
            "name": "Huron—Bruce"
          }
        ],
        "pollDivisionIds": [
          10143745
        ],
        "postalCode": "N2Z0B9",
        "streetName": "PARK",
        "streetDirectionId": null,
        "streetTypeId": "ST",
        "placeName": "KINCARDINE",
        "streetNameDisplayText": "PARK ST, KINCARDINE"
      },
      {
        "electoralDistricts": [
          {
            "election": null,
            "id": 42,
            "name": "Huron—Bruce"
          }
        ],
        "pollDivisionIds": [
          10138857
        ],
        "postalCode": "N2Z0B9",
        "streetName": "PARKPLACE",
        "streetDirectionId": null,
        "streetTypeId": null,
        "placeName": "KINCARDINE",
        "streetNameDisplayText": "PARKPLACE, KINCARDINE"
      }
    ]
  },
  {
    "postal": "N2Z9K7",
    "result": []
  },
  {
    "postal": "N2Z9K9",
    "result": []
  },
  {
    "postal": "N2Z3Z2",
    "result": []
  },
  {
    "postal": "N2Z6W7",
    "result": []
  },
  {
    "postal": "N2Z0P1",
    "result": []
  },
  {
    "postal": "N2Z3A0",
    "result": []
  },
  {
    "postal": "N2Z8L9",
    "result": []
  },
  {
    "postal": "N2Z6X0",
    "result": []
  },
  {
    "postal": "N2Z3E9",
    "result": []
  },
  {
    "postal": "N2Z0S5",
    "result": []
  },
  {
    "postal": "N2Z1A2",
    "result": [
      {
        "electoralDistricts": [
          {
            "election": null,
            "id": 42,
            "name": "Huron—Bruce"
          }
        ],
        "pollDivisionIds": [
          10143745
        ],
        "postalCode": "N2Z1A2",
        "streetName": "MCDONALD",
        "streetDirectionId": null,
        "streetTypeId": "AVE",
        "placeName": "KINCARDINE",
        "streetNameDisplayText": "MCDONALD AVE, KINCARDINE"
      }
    ]
  },
  {
    "postal": "N2Z5V8",
    "result": []
  },
  {
    "postal": "N2Z8C5",
    "result": []
  },
  {
    "postal": "N2Z6N0",
    "result": []
  },
  {
    "postal": "N2Z9E6",
    "result": []
  },
  {
    "postal": "N2Z5J7",
    "result": []
  },
  {
    "postal": "N2Z2R2",
    "result": [
      {
        "electoralDistricts": [
          {
            "election": null,
            "id": 42,
            "name": "Huron—Bruce"
          }
        ],
        "pollDivisionIds": [
          10138856
        ],
        "postalCode": "N2Z2R2",
        "streetName": "KINCARDINE",
        "streetDirectionId": null,
        "streetTypeId": "AVE",
        "placeName": "KINCARDINE",
        "streetNameDisplayText": "KINCARDINE AVE, KINCARDINE"
      },
      {
        "electoralDistricts": [
          {
            "election": null,
            "id": 42,
            "name": "Huron—Bruce"
          }
        ],
        "pollDivisionIds": [
          10143745
        ],
        "postalCode": "N2Z2R2",
        "streetName": "QUEEN",
        "streetDirectionId": null,
        "streetTypeId": "ST",
        "placeName": "KINCARDINE",
        "streetNameDisplayText": "QUEEN ST, KINCARDINE"
      }
    ]
  },
  {
    "postal": "N2Z0P5",
    "result": []
  },
  {
    "postal": "N2Z5A7",
    "result": []
  },
  {
    "postal": "N2Z1G1",
    "result": [
      {
        "electoralDistricts": [
          {
            "election": null,
            "id": 42,
            "name": "Huron—Bruce"
          }
        ],
        "pollDivisionIds": [
          10143745
        ],
        "postalCode": "N2Z1G1",
        "streetName": "HURON",
        "streetDirectionId": null,
        "streetTypeId": "TERR",
        "placeName": "KINCARDINE",
        "streetNameDisplayText": "HURON TERR, KINCARDINE"
      },
      {
        "electoralDistricts": [
          {
            "election": null,
            "id": 42,
            "name": "Huron—Bruce"
          }
        ],
        "pollDivisionIds": [
          10143745
        ],
        "postalCode": "N2Z1G1",
        "streetName": "KINGSWAY",
        "streetDirectionId": null,
        "streetTypeId": "ST",
        "placeName": "KINCARDINE",
        "streetNameDisplayText": "KINGSWAY ST, KINCARDINE"
      },
      {
        "electoralDistricts": [
          {
            "election": null,
            "id": 42,
            "name": "Huron—Bruce"
          }
        ],
        "pollDivisionIds": [
          10143745
        ],
        "postalCode": "N2Z1G1",
        "streetName": "PARKER",
        "streetDirectionId": null,
        "streetTypeId": "ST",
        "placeName": "KINCARDINE",
        "streetNameDisplayText": "PARKER ST, KINCARDINE"
      }
    ]
  },
  {
    "postal": "N2Z9R6",
    "result": []
  },
  {
    "postal": "N2Z4Z9",
    "result": []
  },
  {
    "postal": "N2Z1V5",
    "result": [
      {
        "electoralDistricts": [
          {
            "election": null,
            "id": 42,
            "name": "Huron—Bruce"
          }
        ],
        "pollDivisionIds": [
          10138856
        ],
        "postalCode": "N2Z1V5",
        "streetName": "EVERGREEN",
        "streetDirectionId": null,
        "streetTypeId": "CRT",
        "placeName": "KINCARDINE",
        "streetNameDisplayText": "EVERGREEN CRT, KINCARDINE"
      },
      {
        "electoralDistricts": [
          {
            "election": null,
            "id": 42,
            "name": "Huron—Bruce"
          }
        ],
        "pollDivisionIds": [
          10138856
        ],
        "postalCode": "N2Z1V5",
        "streetName": "MCGAW",
        "streetDirectionId": null,
        "streetTypeId": "DR",
        "placeName": "KINCARDINE",
        "streetNameDisplayText": "MCGAW DR, KINCARDINE"
      },
      {
        "electoralDistricts": [
          {
            "election": null,
            "id": 42,
            "name": "Huron—Bruce"
          }
        ],
        "pollDivisionIds": [
          10138856
        ],
        "postalCode": "N2Z1V5",
        "streetName": "SCOTT",
        "streetDirectionId": null,
        "streetTypeId": "ST",
        "placeName": "KINCARDINE",
        "streetNameDisplayText": "SCOTT ST, KINCARDINE"
      }
    ]
  },
  {
    "postal": "N2Z9Y5",
    "result": []
  },
  {
    "postal": "N2Z1P2",
    "result": []
  },
  {
    "postal": "N2Z5X0",
    "result": []
  },
  {
    "postal": "N2Z7B8",
    "result": []
  },
  {
    "postal": "N2Z0C6",
    "result": [
      {
        "electoralDistricts": [
          {
            "election": null,
            "id": 42,
            "name": "Huron—Bruce"
          }
        ],
        "pollDivisionIds": [
          10138857
        ],
        "postalCode": "N2Z0C6",
        "streetName": "SCOTT",
        "streetDirectionId": null,
        "streetTypeId": "CRES",
        "placeName": "KINCARDINE",
        "streetNameDisplayText": "SCOTT CRES, KINCARDINE"
      },
      {
        "electoralDistricts": [
          {
            "election": null,
            "id": 42,
            "name": "Huron—Bruce"
          }
        ],
        "pollDivisionIds": [
          10138857
        ],
        "postalCode": "N2Z0C6",
        "streetName": "SNOBELEN",
        "streetDirectionId": null,
        "streetTypeId": "TRAIL",
        "placeName": "KINCARDINE",
        "streetNameDisplayText": "SNOBELEN TRAIL, KINCARDINE"
      }
    ]
  },
  {
    "postal": "N2Z6G1",
    "result": []
  },
  {
    "postal": "N2Z3K3",
    "result": []
  },
  {
    "postal": "N2Z9R0",
    "result": []
  },
  {
    "postal": "N2Z4R8",
    "result": []
  },
  {
    "postal": "N2Z5P9",
    "result": []
  },
  {
    "postal": "N2Z8N4",
    "result": []
  },
  {
    "postal": "N2Z8H4",
    "result": []
  },
  {
    "postal": "N2Z4V1",
    "result": []
  },
  {
    "postal": "N2Z1K5",
    "result": [
      {
        "electoralDistricts": [
          {
            "election": null,
            "id": 42,
            "name": "Huron—Bruce"
          }
        ],
        "pollDivisionIds": [
          10138852
        ],
        "postalCode": "N2Z1K5",
        "streetName": "BALEMORE",
        "streetDirectionId": null,
        "streetTypeId": "ST",
        "placeName": "KINCARDINE",
        "streetNameDisplayText": "BALEMORE ST, KINCARDINE"
      },
      {
        "electoralDistricts": [
          {
            "election": null,
            "id": 42,
            "name": "Huron—Bruce"
          }
        ],
        "pollDivisionIds": [
          10138852
        ],
        "postalCode": "N2Z1K5",
        "streetName": "INVERNESS",
        "streetDirectionId": "S",
        "streetTypeId": "ST",
        "placeName": "KINCARDINE",
        "streetNameDisplayText": "INVERNESS ST S, KINCARDINE"
      }
    ]
  },
  {
    "postal": "N2Z1Z5",
    "result": [
      {
        "electoralDistricts": [
          {
            "election": null,
            "id": 42,
            "name": "Huron—Bruce"
          }
        ],
        "pollDivisionIds": [
          10143745
        ],
        "postalCode": "N2Z1Z5",
        "streetName": "PRINCES",
        "streetDirectionId": "N",
        "streetTypeId": "ST",
        "placeName": "KINCARDINE",
        "streetNameDisplayText": "PRINCES ST N, KINCARDINE"
      }
    ]
  },
  {
    "postal": "N2Z9L9",
    "result": []
  },
  {
    "postal": "N2Z5L2",
    "result": []
  },
  {
    "postal": "N2Z0M2",
    "result": []
  },
  {
    "postal": "N2Z1K8",
    "result": []
  },
  {
    "postal": "N2Z3M7",
    "result": []
  },
  {
    "postal": "N2Z1B2",
    "result": [
      {
        "electoralDistricts": [
          {
            "election": null,
            "id": 42,
            "name": "Huron—Bruce"
          }
        ],
        "pollDivisionIds": [
          10143745
        ],
        "postalCode": "N2Z1B2",
        "streetName": "SAUGEEN",
        "streetDirectionId": null,
        "streetTypeId": "ST",
        "placeName": "KINCARDINE",
        "streetNameDisplayText": "SAUGEEN ST, KINCARDINE"
      }
    ]
  },
  {
    "postal": "N2Z0H9",
    "result": []
  },
  {
    "postal": "N2Z8M4",
    "result": []
  },
  {
    "postal": "N2Z2M5",
    "result": [
      {
        "electoralDistricts": [
          {
            "election": null,
            "id": 42,
            "name": "Huron—Bruce"
          }
        ],
        "pollDivisionIds": [
          10138856
        ],
        "postalCode": "N2Z2M5",
        "streetName": "DEBORAH",
        "streetDirectionId": null,
        "streetTypeId": "DR",
        "placeName": "KINCARDINE",
        "streetNameDisplayText": "DEBORAH DR, KINCARDINE"
      }
    ]
  },
  {
    "postal": "N2Z0T9",
    "result": []
  },
  {
    "postal": "N2Z3P1",
    "result": []
  },
  {
    "postal": "N2Z1R6",
    "result": [
      {
        "electoralDistricts": [
          {
            "election": null,
            "id": 42,
            "name": "Huron—Bruce"
          }
        ],
        "pollDivisionIds": [
          10138856
        ],
        "postalCode": "N2Z1R6",
        "streetName": "HUNTER",
        "streetDirectionId": null,
        "streetTypeId": "ST",
        "placeName": "KINCARDINE",
        "streetNameDisplayText": "HUNTER ST, KINCARDINE"
      }
    ]
  },
  {
    "postal": "N2Z9V5",
    "result": []
  },
  {
    "postal": "N2Z9T0",
    "result": []
  },
  {
    "postal": "N2Z0A9",
    "result": [
      {
        "electoralDistricts": [
          {
            "election": null,
            "id": 42,
            "name": "Huron—Bruce"
          }
        ],
        "pollDivisionIds": [
          10138856
        ],
        "postalCode": "N2Z0A9",
        "streetName": "WIECK",
        "streetDirectionId": null,
        "streetTypeId": "BLVD",
        "placeName": "KINCARDINE",
        "streetNameDisplayText": "WIECK BLVD, KINCARDINE"
      }
    ]
  },
  {
    "postal": "N2Z1M3",
    "result": [
      {
        "electoralDistricts": [
          {
            "election": null,
            "id": 42,
            "name": "Huron—Bruce"
          }
        ],
        "pollDivisionIds": [
          10138856
        ],
        "postalCode": "N2Z1M3",
        "streetName": "BAIRD",
        "streetDirectionId": null,
        "streetTypeId": "ST",
        "placeName": "KINCARDINE",
        "streetNameDisplayText": "BAIRD ST, KINCARDINE"
      },
      {
        "electoralDistricts": [
          {
            "election": null,
            "id": 42,
            "name": "Huron—Bruce"
          }
        ],
        "pollDivisionIds": [
          10138856
        ],
        "postalCode": "N2Z1M3",
        "streetName": "DURHAM",
        "streetDirectionId": null,
        "streetTypeId": "ST",
        "placeName": "KINCARDINE",
        "streetNameDisplayText": "DURHAM ST, KINCARDINE"
      }
    ]
  },
  {
    "postal": "N2Z1W8",
    "result": [
      {
        "electoralDistricts": [
          {
            "election": null,
            "id": 42,
            "name": "Huron—Bruce"
          }
        ],
        "pollDivisionIds": [
          10138856,
          10138852
        ],
        "postalCode": "N2Z1W8",
        "streetName": "MCLEOD",
        "streetDirectionId": null,
        "streetTypeId": "AVE",
        "placeName": "KINCARDINE",
        "streetNameDisplayText": "MCLEOD AVE, KINCARDINE"
      },
      {
        "electoralDistricts": [
          {
            "election": null,
            "id": 42,
            "name": "Huron—Bruce"
          }
        ],
        "pollDivisionIds": [
          10138856,
          10143745
        ],
        "postalCode": "N2Z1W8",
        "streetName": "PRINCES",
        "streetDirectionId": "N",
        "streetTypeId": "ST",
        "placeName": "KINCARDINE",
        "streetNameDisplayText": "PRINCES ST N, KINCARDINE"
      }
    ]
  },
  {
    "postal": "N2Z9J1",
    "result": []
  },
  {
    "postal": "N2Z8N5",
    "result": []
  },
  {
    "postal": "N2Z5X1",
    "result": []
  },
  {
    "postal": "N2Z6S2",
    "result": []
  },
  {
    "postal": "N2Z2A2",
    "result": [
      {
        "electoralDistricts": [
          {
            "election": null,
            "id": 42,
            "name": "Huron—Bruce"
          }
        ],
        "pollDivisionIds": [
          10143745
        ],
        "postalCode": "N2Z2A2",
        "streetName": "DURHAM MARKET",
        "streetDirectionId": "S",
        "streetTypeId": "ST",
        "placeName": "KINCARDINE",
        "streetNameDisplayText": "DURHAM MARKET ST S, KINCARDINE"
      },
      {
        "electoralDistricts": [
          {
            "election": null,
            "id": 42,
            "name": "Huron—Bruce"
          }
        ],
        "pollDivisionIds": [
          10143745
        ],
        "postalCode": "N2Z2A2",
        "streetName": "PRINCES",
        "streetDirectionId": "N",
        "streetTypeId": "ST",
        "placeName": "KINCARDINE",
        "streetNameDisplayText": "PRINCES ST N, KINCARDINE"
      }
    ]
  },
  {
    "postal": "N2Z6A6",
    "result": []
  },
  {
    "postal": "N2Z0S3",
    "result": []
  },
  {
    "postal": "N2Z3E7",
    "result": []
  },
  {
    "postal": "N2Z5R7",
    "result": []
  },
  {
    "postal": "N2Z3R6",
    "result": []
  },
  {
    "postal": "N2Z6K4",
    "result": []
  },
  {
    "postal": "N2Z2W5",
    "result": [
      {
        "electoralDistricts": [
          {
            "election": null,
            "id": 42,
            "name": "Huron—Bruce"
          }
        ],
        "pollDivisionIds": [
          10138856
        ],
        "postalCode": "N2Z2W5",
        "streetName": "ADELAIDE",
        "streetDirectionId": null,
        "streetTypeId": "ST",
        "placeName": "KINCARDINE",
        "streetNameDisplayText": "ADELAIDE ST, KINCARDINE"
      }
    ]
  },
  {
    "postal": "N2Z8W4",
    "result": []
  },
  {
    "postal": "N2Z9C2",
    "result": []
  },
  {
    "postal": "N2Z2C0",
    "result": []
  },
  {
    "postal": "N2Z0E1",
    "result": [
      {
        "electoralDistricts": [
          {
            "election": null,
            "id": 42,
            "name": "Huron—Bruce"
          }
        ],
        "pollDivisionIds": [
          10143745
        ],
        "postalCode": "N2Z0E1",
        "streetName": "LAKEFIELD",
        "streetDirectionId": null,
        "streetTypeId": "DR",
        "placeName": "KINCARDINE",
        "streetNameDisplayText": "LAKEFIELD DR, KINCARDINE"
      },
      {
        "electoralDistricts": [
          {
            "election": null,
            "id": 42,
            "name": "Huron—Bruce"
          }
        ],
        "pollDivisionIds": [
          10143745
        ],
        "postalCode": "N2Z0E1",
        "streetName": "MAHOOD-JOHNSTON",
        "streetDirectionId": null,
        "streetTypeId": "DR",
        "placeName": "KINCARDINE",
        "streetNameDisplayText": "MAHOOD-JOHNSTON DR, KINCARDINE"
      }
    ]
  },
  {
    "postal": "N2Z1K9",
    "result": [
      {
        "electoralDistricts": [
          {
            "election": null,
            "id": 42,
            "name": "Huron—Bruce"
          }
        ],
        "pollDivisionIds": [
          10138852
        ],
        "postalCode": "N2Z1K9",
        "streetName": "BALEMORE",
        "streetDirectionId": null,
        "streetTypeId": "ST",
        "placeName": "KINCARDINE",
        "streetNameDisplayText": "BALEMORE ST, KINCARDINE"
      },
      {
        "electoralDistricts": [
          {
            "election": null,
            "id": 42,
            "name": "Huron—Bruce"
          }
        ],
        "pollDivisionIds": [
          10138852
        ],
        "postalCode": "N2Z1K9",
        "streetName": "GLENCOE",
        "streetDirectionId": null,
        "streetTypeId": "ST",
        "placeName": "KINCARDINE",
        "streetNameDisplayText": "GLENCOE ST, KINCARDINE"
      },
      {
        "electoralDistricts": [
          {
            "election": null,
            "id": 42,
            "name": "Huron—Bruce"
          }
        ],
        "pollDivisionIds": [
          10138852
        ],
        "postalCode": "N2Z1K9",
        "streetName": "GOLF LINKS",
        "streetDirectionId": null,
        "streetTypeId": "RD",
        "placeName": "KINCARDINE",
        "streetNameDisplayText": "GOLF LINKS RD, KINCARDINE"
      },
      {
        "electoralDistricts": [
          {
            "election": null,
            "id": 42,
            "name": "Huron—Bruce"
          }
        ],
        "pollDivisionIds": [
          10138852
        ],
        "postalCode": "N2Z1K9",
        "streetName": "INVERLYN",
        "streetDirectionId": "S",
        "streetTypeId": "CRES",
        "placeName": "KINCARDINE",
        "streetNameDisplayText": "INVERLYN CRES S, KINCARDINE"
      }
    ]
  },
  {
    "postal": "N2Z1G7",
    "result": []
  },
  {
    "postal": "N2Z4E9",
    "result": []
  },
  {
    "postal": "N2Z9P0",
    "result": []
  },
  {
    "postal": "N2Z5H3",
    "result": []
  },
  {
    "postal": "N2Z9X6",
    "result": []
  },
  {
    "postal": "N2Z5N7",
    "result": []
  },
  {
    "postal": "N2Z5A6",
    "result": []
  },
  {
    "postal": "N2Z4M0",
    "result": []
  },
  {
    "postal": "N2Z3V6",
    "result": []
  },
  {
    "postal": "N2Z1L7",
    "result": [
      {
        "electoralDistricts": [
          {
            "election": null,
            "id": 42,
            "name": "Huron—Bruce"
          }
        ],
        "pollDivisionIds": [
          10143745,
          10138856
        ],
        "postalCode": "N2Z1L7",
        "streetName": "MACKENDRICK",
        "streetDirectionId": null,
        "streetTypeId": "DR",
        "placeName": "KINCARDINE",
        "streetNameDisplayText": "MACKENDRICK DR, KINCARDINE"
      }
    ]
  },
  {
    "postal": "N2Z2P9",
    "result": [
      {
        "electoralDistricts": [
          {
            "election": null,
            "id": 42,
            "name": "Huron—Bruce"
          }
        ],
        "pollDivisionIds": [
          10143745
        ],
        "postalCode": "N2Z2P9",
        "streetName": "ALICE",
        "streetDirectionId": null,
        "streetTypeId": "ST",
        "placeName": "KINCARDINE",
        "streetNameDisplayText": "ALICE ST, KINCARDINE"
      }
    ]
  },
  {
    "postal": "N2Z5T4",
    "result": []
  },
  {
    "postal": "N2Z5Z1",
    "result": []
  },
  {
    "postal": "N2Z2X0",
    "result": []
  },
  {
    "postal": "N2Z6Z2",
    "result": []
  },
  {
    "postal": "N2Z0E0",
    "result": []
  },
  {
    "postal": "N2Z3Z5",
    "result": []
  },
  {
    "postal": "N2Z8H3",
    "result": []
  },
  {
    "postal": "N2Z7S6",
    "result": []
  },
  {
    "postal": "N2Z4C1",
    "result": []
  },
  {
    "postal": "N2Z3K2",
    "result": []
  },
  {
    "postal": "N2Z1Y5",
    "result": [
      {
        "electoralDistricts": [
          {
            "election": null,
            "id": 42,
            "name": "Huron—Bruce"
          }
        ],
        "pollDivisionIds": [
          10143745
        ],
        "postalCode": "N2Z1Y5",
        "streetName": "PRINCES",
        "streetDirectionId": "N",
        "streetTypeId": "ST",
        "placeName": "KINCARDINE",
        "streetNameDisplayText": "PRINCES ST N, KINCARDINE"
      },
      {
        "electoralDistricts": [
          {
            "election": null,
            "id": 42,
            "name": "Huron—Bruce"
          }
        ],
        "pollDivisionIds": [
          10138856
        ],
        "postalCode": "N2Z1Y5",
        "streetName": "PRINCESS",
        "streetDirectionId": "N",
        "streetTypeId": "ST",
        "placeName": "KINCARDINE",
        "streetNameDisplayText": "PRINCESS ST N, KINCARDINE"
      }
    ]
  },
  {
    "postal": "N2Z6P6",
    "result": []
  },
  {
    "postal": "N2Z3N9",
    "result": []
  },
  {
    "postal": "N2Z3W2",
    "result": []
  },
  {
    "postal": "N2Z6H8",
    "result": []
  },
  {
    "postal": "N2Z9T3",
    "result": []
  },
  {
    "postal": "N2Z5L9",
    "result": []
  },
  {
    "postal": "N2Z7X7",
    "result": []
  },
  {
    "postal": "N2Z3J5",
    "result": []
  },
  {
    "postal": "N2Z4J5",
    "result": []
  },
  {
    "postal": "N2Z6J2",
    "result": []
  },
  {
    "postal": "N2Z5V6",
    "result": []
  },
  {
    "postal": "N2Z3N2",
    "result": []
  },
  {
    "postal": "N2Z3B1",
    "result": [
      {
        "electoralDistricts": [
          {
            "election": null,
            "id": 42,
            "name": "Huron—Bruce"
          }
        ],
        "pollDivisionIds": [
          10138856
        ],
        "postalCode": "N2Z3B1",
        "streetName": "KINCARDINE",
        "streetDirectionId": null,
        "streetTypeId": "AVE",
        "placeName": "KINCARDINE",
        "streetNameDisplayText": "KINCARDINE AVE, KINCARDINE"
      },
      {
        "electoralDistricts": [
          {
            "election": null,
            "id": 42,
            "name": "Huron—Bruce"
          }
        ],
        "pollDivisionIds": [
          10138856
        ],
        "postalCode": "N2Z3B1",
        "streetName": "LYNDEN",
        "streetDirectionId": null,
        "streetTypeId": "CRES",
        "placeName": "KINCARDINE",
        "streetNameDisplayText": "LYNDEN CRES, KINCARDINE"
      },
      {
        "electoralDistricts": [
          {
            "election": null,
            "id": 42,
            "name": "Huron—Bruce"
          }
        ],
        "pollDivisionIds": [
          10138856
        ],
        "postalCode": "N2Z3B1",
        "streetName": "MACDOUGALL",
        "streetDirectionId": null,
        "streetTypeId": "DR",
        "placeName": "KINCARDINE",
        "streetNameDisplayText": "MACDOUGALL DR, KINCARDINE"
      },
      {
        "electoralDistricts": [
          {
            "election": null,
            "id": 42,
            "name": "Huron—Bruce"
          }
        ],
        "pollDivisionIds": [
          10138856
        ],
        "postalCode": "N2Z3B1",
        "streetName": "PARK",
        "streetDirectionId": null,
        "streetTypeId": "ST",
        "placeName": "KINCARDINE",
        "streetNameDisplayText": "PARK ST, KINCARDINE"
      },
      {
        "electoralDistricts": [
          {
            "election": null,
            "id": 42,
            "name": "Huron—Bruce"
          }
        ],
        "pollDivisionIds": [
          10138856
        ],
        "postalCode": "N2Z3B1",
        "streetName": "PEARCE",
        "streetDirectionId": null,
        "streetTypeId": "LANE",
        "placeName": "KINCARDINE",
        "streetNameDisplayText": "PEARCE LANE, KINCARDINE"
      }
    ]
  },
  {
    "postal": "N2Z8B5",
    "result": []
  },
  {
    "postal": "N2Z0K1",
    "result": []
  },
  {
    "postal": "N2Z7M7",
    "result": []
  },
  {
    "postal": "N2Z2M2",
    "result": [
      {
        "electoralDistricts": [
          {
            "election": null,
            "id": 42,
            "name": "Huron—Bruce"
          }
        ],
        "pollDivisionIds": [
          10138856
        ],
        "postalCode": "N2Z2M2",
        "streetName": "ANNE MARIE",
        "streetDirectionId": null,
        "streetTypeId": "CRES",
        "placeName": "KINCARDINE",
        "streetNameDisplayText": "ANNE MARIE CRES, KINCARDINE"
      },
      {
        "electoralDistricts": [
          {
            "election": null,
            "id": 42,
            "name": "Huron—Bruce"
          }
        ],
        "pollDivisionIds": [
          10138856
        ],
        "postalCode": "N2Z2M2",
        "streetName": "BOILER BEACH",
        "streetDirectionId": null,
        "streetTypeId": "RD",
        "placeName": "KINCARDINE",
        "streetNameDisplayText": "BOILER BEACH RD, KINCARDINE"
      },
      {
        "electoralDistricts": [
          {
            "election": null,
            "id": 42,
            "name": "Huron—Bruce"
          }
        ],
        "pollDivisionIds": [
          10138856
        ],
        "postalCode": "N2Z2M2",
        "streetName": "DEBORAH",
        "streetDirectionId": null,
        "streetTypeId": "DR",
        "placeName": "KINCARDINE",
        "streetNameDisplayText": "DEBORAH DR, KINCARDINE"
      },
      {
        "electoralDistricts": [
          {
            "election": null,
            "id": 42,
            "name": "Huron—Bruce"
          }
        ],
        "pollDivisionIds": [
          10138856
        ],
        "postalCode": "N2Z2M2",
        "streetName": "PENETANGORE",
        "streetDirectionId": "S",
        "streetTypeId": "ROW",
        "placeName": "KINCARDINE",
        "streetNameDisplayText": "PENETANGORE ROW S, KINCARDINE"
      }
    ]
  },
  {
    "postal": "N2Z9N3",
    "result": []
  },
  {
    "postal": "N2Z4Y8",
    "result": []
  },
  {
    "postal": "N2Z3V7",
    "result": []
  },
  {
    "postal": "N2Z8Z1",
    "result": []
  },
  {
    "postal": "N2Z7B3",
    "result": []
  },
  {
    "postal": "N2Z3A8",
    "result": [
      {
        "electoralDistricts": [
          {
            "election": null,
            "id": 42,
            "name": "Huron—Bruce"
          }
        ],
        "pollDivisionIds": [
          10138856
        ],
        "postalCode": "N2Z3A8",
        "streetName": "LYNDEN",
        "streetDirectionId": null,
        "streetTypeId": "CRES",
        "placeName": "KINCARDINE",
        "streetNameDisplayText": "LYNDEN CRES, KINCARDINE"
      },
      {
        "electoralDistricts": [
          {
            "election": null,
            "id": 42,
            "name": "Huron—Bruce"
          }
        ],
        "pollDivisionIds": [
          10138856
        ],
        "postalCode": "N2Z3A8",
        "streetName": "MACDOUGALL",
        "streetDirectionId": null,
        "streetTypeId": "DR",
        "placeName": "KINCARDINE",
        "streetNameDisplayText": "MACDOUGALL DR, KINCARDINE"
      },
      {
        "electoralDistricts": [
          {
            "election": null,
            "id": 42,
            "name": "Huron—Bruce"
          }
        ],
        "pollDivisionIds": [
          10138856
        ],
        "postalCode": "N2Z3A8",
        "streetName": "PARK",
        "streetDirectionId": null,
        "streetTypeId": "ST",
        "placeName": "KINCARDINE",
        "streetNameDisplayText": "PARK ST, KINCARDINE"
      },
      {
        "electoralDistricts": [
          {
            "election": null,
            "id": 42,
            "name": "Huron—Bruce"
          }
        ],
        "pollDivisionIds": [
          10138856
        ],
        "postalCode": "N2Z3A8",
        "streetName": "PEARCE",
        "streetDirectionId": null,
        "streetTypeId": "LANE",
        "placeName": "KINCARDINE",
        "streetNameDisplayText": "PEARCE LANE, KINCARDINE"
      }
    ]
  },
  {
    "postal": "N2Z7V5",
    "result": []
  },
  {
    "postal": "N2Z2T2",
    "result": [
      {
        "electoralDistricts": [
          {
            "election": null,
            "id": 42,
            "name": "Huron—Bruce"
          }
        ],
        "pollDivisionIds": [
          10138856
        ],
        "postalCode": "N2Z2T2",
        "streetName": "PRINCES",
        "streetDirectionId": "S",
        "streetTypeId": "ST",
        "placeName": "KINCARDINE",
        "streetNameDisplayText": "PRINCES ST S, KINCARDINE"
      }
    ]
  },
  {
    "postal": "N2Z6L3",
    "result": []
  },
  {
    "postal": "N2Z0L2",
    "result": []
  },
  {
    "postal": "N2Z5Y8",
    "result": []
  },
  {
    "postal": "N2Z0B8",
    "result": [
      {
        "electoralDistricts": [
          {
            "election": null,
            "id": 42,
            "name": "Huron—Bruce"
          }
        ],
        "pollDivisionIds": [
          10138857
        ],
        "postalCode": "N2Z0B8",
        "streetName": "BOILER BEACH",
        "streetDirectionId": null,
        "streetTypeId": "RD",
        "placeName": "KINCARDINE",
        "streetNameDisplayText": "BOILER BEACH RD, KINCARDINE"
      }
    ]
  },
  {
    "postal": "N2Z6R5",
    "result": []
  },
  {
    "postal": "N2Z8W6",
    "result": []
  },
  {
    "postal": "N2Z8G6",
    "result": []
  },
  {
    "postal": "N2Z6X3",
    "result": []
  },
  {
    "postal": "N2Z7R7",
    "result": []
  },
  {
    "postal": "N2Z4B6",
    "result": []
  },
  {
    "postal": "N2Z3P9",
    "result": []
  },
  {
    "postal": "N2Z2T3",
    "result": [
      {
        "electoralDistricts": [
          {
            "election": null,
            "id": 42,
            "name": "Huron—Bruce"
          }
        ],
        "pollDivisionIds": [
          10138856
        ],
        "postalCode": "N2Z2T3",
        "streetName": "PRINCES",
        "streetDirectionId": "S",
        "streetTypeId": "ST",
        "placeName": "KINCARDINE",
        "streetNameDisplayText": "PRINCES ST S, KINCARDINE"
      }
    ]
  },
  {
    "postal": "N2Z1M4",
    "result": [
      {
        "electoralDistricts": [
          {
            "election": null,
            "id": 42,
            "name": "Huron—Bruce"
          }
        ],
        "pollDivisionIds": [
          10138856
        ],
        "postalCode": "N2Z1M4",
        "streetName": "DURHAM",
        "streetDirectionId": null,
        "streetTypeId": "ST",
        "placeName": "KINCARDINE",
        "streetNameDisplayText": "DURHAM ST, KINCARDINE"
      },
      {
        "electoralDistricts": [
          {
            "election": null,
            "id": 42,
            "name": "Huron—Bruce"
          }
        ],
        "pollDivisionIds": [
          10138856
        ],
        "postalCode": "N2Z1M4",
        "streetName": "MCPHERSON",
        "streetDirectionId": null,
        "streetTypeId": "CRES",
        "placeName": "KINCARDINE",
        "streetNameDisplayText": "MCPHERSON CRES, KINCARDINE"
      }
    ]
  },
  {
    "postal": "N2Z0H1",
    "result": []
  },
  {
    "postal": "N2Z9W3",
    "result": []
  },
  {
    "postal": "N2Z6P1",
    "result": []
  },
  {
    "postal": "N2Z7G2",
    "result": []
  },
  {
    "postal": "N2Z4J9",
    "result": []
  },
  {
    "postal": "N2Z9E4",
    "result": []
  },
  {
    "postal": "N2Z8H0",
    "result": []
  },
  {
    "postal": "N2Z4M7",
    "result": []
  },
  {
    "postal": "N2Z2G9",
    "result": [
      {
        "electoralDistricts": [
          {
            "election": null,
            "id": 42,
            "name": "Huron—Bruce"
          }
        ],
        "pollDivisionIds": [
          10138856
        ],
        "postalCode": "N2Z2G9",
        "streetName": "WALL",
        "streetDirectionId": null,
        "streetTypeId": "ST",
        "placeName": "KINCARDINE",
        "streetNameDisplayText": "WALL ST, KINCARDINE"
      },
      {
        "electoralDistricts": [
          {
            "election": null,
            "id": 42,
            "name": "Huron—Bruce"
          }
        ],
        "pollDivisionIds": [
          10138856
        ],
        "postalCode": "N2Z2G9",
        "streetName": "WILLIAM",
        "streetDirectionId": null,
        "streetTypeId": "ST",
        "placeName": "KINCARDINE",
        "streetNameDisplayText": "WILLIAM ST, KINCARDINE"
      }
    ]
  },
  {
    "postal": "N2Z8T2",
    "result": []
  },
  {
    "postal": "N2Z7G7",
    "result": []
  },
  {
    "postal": "N2Z4Z3",
    "result": []
  },
  {
    "postal": "N2Z5B3",
    "result": []
  },
  {
    "postal": "N2Z1S7",
    "result": [
      {
        "electoralDistricts": [
          {
            "election": null,
            "id": 42,
            "name": "Huron—Bruce"
          }
        ],
        "pollDivisionIds": [
          10138856
        ],
        "postalCode": "N2Z1S7",
        "streetName": "JOHNSTON",
        "streetDirectionId": null,
        "streetTypeId": "CRES",
        "placeName": "KINCARDINE",
        "streetNameDisplayText": "JOHNSTON CRES, KINCARDINE"
      },
      {
        "electoralDistricts": [
          {
            "election": null,
            "id": 42,
            "name": "Huron—Bruce"
          }
        ],
        "pollDivisionIds": [
          10138856
        ],
        "postalCode": "N2Z1S7",
        "streetName": "RUSSELL",
        "streetDirectionId": null,
        "streetTypeId": "ST",
        "placeName": "KINCARDINE",
        "streetNameDisplayText": "RUSSELL ST, KINCARDINE"
      }
    ]
  },
  {
    "postal": "N2Z2N7",
    "result": [
      {
        "electoralDistricts": [
          {
            "election": null,
            "id": 42,
            "name": "Huron—Bruce"
          }
        ],
        "pollDivisionIds": [
          10138856
        ],
        "postalCode": "N2Z2N7",
        "streetName": "PENETANGORE",
        "streetDirectionId": "S",
        "streetTypeId": "ROW",
        "placeName": "KINCARDINE",
        "streetNameDisplayText": "PENETANGORE ROW S, KINCARDINE"
      },
      {
        "electoralDistricts": [
          {
            "election": null,
            "id": 42,
            "name": "Huron—Bruce"
          }
        ],
        "pollDivisionIds": [
          10143745
        ],
        "postalCode": "N2Z2N7",
        "streetName": "PENETANGORE",
        "streetDirectionId": null,
        "streetTypeId": "ROW",
        "placeName": "KINCARDINE",
        "streetNameDisplayText": "PENETANGORE ROW, KINCARDINE"
      },
      {
        "electoralDistricts": [
          {
            "election": null,
            "id": 42,
            "name": "Huron—Bruce"
          }
        ],
        "pollDivisionIds": [
          10138856
        ],
        "postalCode": "N2Z2N7",
        "streetName": "SARATOGA",
        "streetDirectionId": null,
        "streetTypeId": "RD",
        "placeName": "KINCARDINE",
        "streetNameDisplayText": "SARATOGA RD, KINCARDINE"
      }
    ]
  },
  {
    "postal": "N2Z0H8",
    "result": []
  },
  {
    "postal": "N2Z7Z4",
    "result": []
  },
  {
    "postal": "N2Z7B1",
    "result": []
  },
  {
    "postal": "N2Z7P8",
    "result": []
  },
  {
    "postal": "N2Z7N0",
    "result": []
  },
  {
    "postal": "N2Z3Y5",
    "result": []
  },
  {
    "postal": "N2Z6K1",
    "result": []
  },
  {
    "postal": "N2Z9X5",
    "result": []
  },
  {
    "postal": "N2Z7S5",
    "result": []
  },
  {
    "postal": "N2Z0A4",
    "result": [
      {
        "electoralDistricts": [
          {
            "election": null,
            "id": 42,
            "name": "Huron—Bruce"
          }
        ],
        "pollDivisionIds": [
          10138856
        ],
        "postalCode": "N2Z0A4",
        "streetName": "CALLANISH",
        "streetDirectionId": null,
        "streetTypeId": null,
        "placeName": "KINCARDINE",
        "streetNameDisplayText": "CALLANISH, KINCARDINE"
      },
      {
        "electoralDistricts": [
          {
            "election": null,
            "id": 42,
            "name": "Huron—Bruce"
          }
        ],
        "pollDivisionIds": [
          10138856
        ],
        "postalCode": "N2Z0A4",
        "streetName": "CARLOWAY",
        "streetDirectionId": null,
        "streetTypeId": "TRAIL",
        "placeName": "KINCARDINE",
        "streetNameDisplayText": "CARLOWAY TRAIL, KINCARDINE"
      },
      {
        "electoralDistricts": [
          {
            "election": null,
            "id": 42,
            "name": "Huron—Bruce"
          }
        ],
        "pollDivisionIds": [
          10138856
        ],
        "postalCode": "N2Z0A4",
        "streetName": "GREGOR",
        "streetDirectionId": null,
        "streetTypeId": "DR",
        "placeName": "KINCARDINE",
        "streetNameDisplayText": "GREGOR DR, KINCARDINE"
      },
      {
        "electoralDistricts": [
          {
            "election": null,
            "id": 42,
            "name": "Huron—Bruce"
          }
        ],
        "pollDivisionIds": [
          10138856
        ],
        "postalCode": "N2Z0A4",
        "streetName": "LEWIS",
        "streetDirectionId": null,
        "streetTypeId": "RD",
        "placeName": "KINCARDINE",
        "streetNameDisplayText": "LEWIS RD, KINCARDINE"
      },
      {
        "electoralDistricts": [
          {
            "election": null,
            "id": 42,
            "name": "Huron—Bruce"
          }
        ],
        "pollDivisionIds": [
          10138856
        ],
        "postalCode": "N2Z0A4",
        "streetName": "STORNOWAY",
        "streetDirectionId": null,
        "streetTypeId": null,
        "placeName": "KINCARDINE",
        "streetNameDisplayText": "STORNOWAY, KINCARDINE"
      }
    ]
  },
  {
    "postal": "N2Z4T5",
    "result": []
  },
  {
    "postal": "N2Z5K1",
    "result": []
  },
  {
    "postal": "N2Z0Z9",
    "result": []
  },
  {
    "postal": "N2Z7T2",
    "result": []
  },
  {
    "postal": "N2Z1L5",
    "result": []
  },
  {
    "postal": "N2Z3N5",
    "result": []
  },
  {
    "postal": "N2Z6H4",
    "result": []
  },
  {
    "postal": "N2Z5A5",
    "result": []
  },
  {
    "postal": "N2Z3R9",
    "result": []
  },
  {
    "postal": "N2Z7L8",
    "result": []
  },
  {
    "postal": "N2Z6T6",
    "result": []
  },
  {
    "postal": "N2Z7Y7",
    "result": []
  },
  {
    "postal": "N2Z3M8",
    "result": []
  },
  {
    "postal": "N2Z2E0",
    "result": []
  },
  {
    "postal": "N2Z4B5",
    "result": []
  },
  {
    "postal": "N2Z1J3",
    "result": []
  },
  {
    "postal": "N2Z5S6",
    "result": []
  },
  {
    "postal": "N2Z8P7",
    "result": []
  },
  {
    "postal": "N2Z7S7",
    "result": []
  },
  {
    "postal": "N2Z4C2",
    "result": []
  },
  {
    "postal": "N2Z5Y0",
    "result": []
  },
  {
    "postal": "N2Z2V7",
    "result": [
      {
        "electoralDistricts": [
          {
            "election": null,
            "id": 42,
            "name": "Huron—Bruce"
          }
        ],
        "pollDivisionIds": [
          10138856
        ],
        "postalCode": "N2Z2V7",
        "streetName": "ELGIN",
        "streetDirectionId": null,
        "streetTypeId": "ST",
        "placeName": "KINCARDINE",
        "streetNameDisplayText": "ELGIN ST, KINCARDINE"
      },
      {
        "electoralDistricts": [
          {
            "election": null,
            "id": 42,
            "name": "Huron—Bruce"
          }
        ],
        "pollDivisionIds": [
          10138856
        ],
        "postalCode": "N2Z2V7",
        "streetName": "WILLOW",
        "streetDirectionId": null,
        "streetTypeId": "RD",
        "placeName": "KINCARDINE",
        "streetNameDisplayText": "WILLOW RD, KINCARDINE"
      }
    ]
  },
  {
    "postal": "N2Z8P5",
    "result": []
  },
  {
    "postal": "N2Z5P5",
    "result": []
  },
  {
    "postal": "N2Z5Z0",
    "result": []
  },
  {
    "postal": "N2Z9B0",
    "result": []
  },
  {
    "postal": "N2Z1L0",
    "result": []
  },
  {
    "postal": "N2Z0B5",
    "result": [
      {
        "electoralDistricts": [
          {
            "election": null,
            "id": 42,
            "name": "Huron—Bruce"
          }
        ],
        "pollDivisionIds": [
          10138856
        ],
        "postalCode": "N2Z0B5",
        "streetName": "MILLENIUM",
        "streetDirectionId": null,
        "streetTypeId": "WAY",
        "placeName": "KINCARDINE",
        "streetNameDisplayText": "MILLENIUM WAY, KINCARDINE"
      }
    ]
  },
  {
    "postal": "N2Z3L2",
    "result": []
  },
  {
    "postal": "N2Z3B7",
    "result": []
  },
  {
    "postal": "N2Z8L1",
    "result": []
  },
  {
    "postal": "N2Z5M4",
    "result": []
  },
  {
    "postal": "N2Z4G9",
    "result": []
  },
  {
    "postal": "N2Z0P0",
    "result": []
  },
  {
    "postal": "N2Z8G2",
    "result": []
  },
  {
    "postal": "N2Z1V9",
    "result": [
      {
        "electoralDistricts": [
          {
            "election": null,
            "id": 42,
            "name": "Huron—Bruce"
          }
        ],
        "pollDivisionIds": [
          10138856,
          10143745
        ],
        "postalCode": "N2Z1V9",
        "streetName": "CAMPBELL",
        "streetDirectionId": null,
        "streetTypeId": "AVE",
        "placeName": "KINCARDINE",
        "streetNameDisplayText": "CAMPBELL AVE, KINCARDINE"
      },
      {
        "electoralDistricts": [
          {
            "election": null,
            "id": 42,
            "name": "Huron—Bruce"
          }
        ],
        "pollDivisionIds": [
          10138856
        ],
        "postalCode": "N2Z1V9",
        "streetName": "PARK",
        "streetDirectionId": null,
        "streetTypeId": "ST",
        "placeName": "KINCARDINE",
        "streetNameDisplayText": "PARK ST, KINCARDINE"
      },
      {
        "electoralDistricts": [
          {
            "election": null,
            "id": 42,
            "name": "Huron—Bruce"
          }
        ],
        "pollDivisionIds": [
          10138856
        ],
        "postalCode": "N2Z1V9",
        "streetName": "PEARCE",
        "streetDirectionId": null,
        "streetTypeId": "LANE",
        "placeName": "KINCARDINE",
        "streetNameDisplayText": "PEARCE LANE, KINCARDINE"
      },
      {
        "electoralDistricts": [
          {
            "election": null,
            "id": 42,
            "name": "Huron—Bruce"
          }
        ],
        "pollDivisionIds": [
          10138856
        ],
        "postalCode": "N2Z1V9",
        "streetName": "RUSSELL",
        "streetDirectionId": null,
        "streetTypeId": "ST",
        "placeName": "KINCARDINE",
        "streetNameDisplayText": "RUSSELL ST, KINCARDINE"
      }
    ]
  },
  {
    "postal": "N2Z8N8",
    "result": []
  },
  {
    "postal": "N2Z6S8",
    "result": []
  },
  {
    "postal": "N2Z8H2",
    "result": []
  },
  {
    "postal": "N2Z5R8",
    "result": []
  },
  {
    "postal": "N2Z5L4",
    "result": []
  },
  {
    "postal": "N2Z9E1",
    "result": []
  },
  {
    "postal": "N2Z1C4",
    "result": [
      {
        "electoralDistricts": [
          {
            "election": null,
            "id": 42,
            "name": "Huron—Bruce"
          }
        ],
        "pollDivisionIds": [
          10143745
        ],
        "postalCode": "N2Z1C4",
        "streetName": "KINGSWAY",
        "streetDirectionId": null,
        "streetTypeId": "ST",
        "placeName": "KINCARDINE",
        "streetNameDisplayText": "KINGSWAY ST, KINCARDINE"
      },
      {
        "electoralDistricts": [
          {
            "election": null,
            "id": 42,
            "name": "Huron—Bruce"
          }
        ],
        "pollDivisionIds": [
          10143745
        ],
        "postalCode": "N2Z1C4",
        "streetName": "NELSON",
        "streetDirectionId": null,
        "streetTypeId": "ST",
        "placeName": "KINCARDINE",
        "streetNameDisplayText": "NELSON ST, KINCARDINE"
      }
    ]
  },
  {
    "postal": "N2Z8W5",
    "result": []
  },
  {
    "postal": "N2Z1Y4",
    "result": [
      {
        "electoralDistricts": [
          {
            "election": null,
            "id": 42,
            "name": "Huron—Bruce"
          }
        ],
        "pollDivisionIds": [
          10143745
        ],
        "postalCode": "N2Z1Y4",
        "streetName": "BROADWAY",
        "streetDirectionId": null,
        "streetTypeId": "ST",
        "placeName": "KINCARDINE",
        "streetNameDisplayText": "BROADWAY ST, KINCARDINE"
      },
      {
        "electoralDistricts": [
          {
            "election": null,
            "id": 42,
            "name": "Huron—Bruce"
          }
        ],
        "pollDivisionIds": [
          10143745
        ],
        "postalCode": "N2Z1Y4",
        "streetName": "PRINCES",
        "streetDirectionId": "N",
        "streetTypeId": "ST",
        "placeName": "KINCARDINE",
        "streetNameDisplayText": "PRINCES ST N, KINCARDINE"
      }
    ]
  },
  {
    "postal": "N2Z1C0",
    "result": []
  },
  {
    "postal": "N2Z2J2",
    "result": [
      {
        "electoralDistricts": [
          {
            "election": null,
            "id": 42,
            "name": "Huron—Bruce"
          }
        ],
        "pollDivisionIds": [
          10143745
        ],
        "postalCode": "N2Z2J2",
        "streetName": "ALBERT",
        "streetDirectionId": null,
        "streetTypeId": "ST",
        "placeName": "KINCARDINE",
        "streetNameDisplayText": "ALBERT ST, KINCARDINE"
      },
      {
        "electoralDistricts": [
          {
            "election": null,
            "id": 42,
            "name": "Huron—Bruce"
          }
        ],
        "pollDivisionIds": [
          10143745
        ],
        "postalCode": "N2Z2J2",
        "streetName": "QUEEN",
        "streetDirectionId": null,
        "streetTypeId": "ST",
        "placeName": "KINCARDINE",
        "streetNameDisplayText": "QUEEN ST, KINCARDINE"
      },
      {
        "electoralDistricts": [
          {
            "election": null,
            "id": 42,
            "name": "Huron—Bruce"
          }
        ],
        "pollDivisionIds": [
          10138856,
          10143745
        ],
        "postalCode": "N2Z2J2",
        "streetName": "ST ALBERT",
        "streetDirectionId": null,
        "streetTypeId": "ST",
        "placeName": "KINCARDINE",
        "streetNameDisplayText": "ST ALBERT ST, KINCARDINE"
      },
      {
        "electoralDistricts": [
          {
            "election": null,
            "id": 42,
            "name": "Huron—Bruce"
          }
        ],
        "pollDivisionIds": [
          10143745
        ],
        "postalCode": "N2Z2J2",
        "streetName": "ST. ALBERT",
        "streetDirectionId": null,
        "streetTypeId": "ST",
        "placeName": "KINCARDINE",
        "streetNameDisplayText": "ST. ALBERT ST, KINCARDINE"
      }
    ]
  },
  {
    "postal": "N2Z2J0",
    "result": []
  },
  {
    "postal": "N2Z7A3",
    "result": []
  },
  {
    "postal": "N2Z8M1",
    "result": []
  },
  {
    "postal": "N2Z7T9",
    "result": []
  },
  {
    "postal": "N2Z6C0",
    "result": []
  },
  {
    "postal": "N2Z7X1",
    "result": []
  },
  {
    "postal": "N2Z0G1",
    "result": [
      {
        "electoralDistricts": [
          {
            "election": null,
            "id": 42,
            "name": "Huron—Bruce"
          }
        ],
        "pollDivisionIds": [
          10138852
        ],
        "postalCode": "N2Z0G1",
        "streetName": "GOLF LINKS",
        "streetDirectionId": null,
        "streetTypeId": "RD",
        "placeName": "KINCARDINE",
        "streetNameDisplayText": "GOLF LINKS RD, KINCARDINE"
      }
    ]
  },
  {
    "postal": "N2Z4X2",
    "result": []
  },
  {
    "postal": "N2Z0N6",
    "result": []
  },
  {
    "postal": "N2Z8E3",
    "result": []
  },
  {
    "postal": "N2Z5S8",
    "result": []
  },
  {
    "postal": "N2Z0R0",
    "result": []
  },
  {
    "postal": "N2Z6J6",
    "result": []
  },
  {
    "postal": "N2Z4B4",
    "result": []
  },
  {
    "postal": "N2Z7E3",
    "result": []
  },
  {
    "postal": "N2Z3N6",
    "result": []
  },
  {
    "postal": "N2Z3X6",
    "result": []
  },
  {
    "postal": "N2Z8L0",
    "result": []
  },
  {
    "postal": "N2Z8N1",
    "result": []
  },
  {
    "postal": "N2Z4J0",
    "result": []
  },
  {
    "postal": "N2Z0X7",
    "result": []
  },
  {
    "postal": "N2Z6S4",
    "result": []
  },
  {
    "postal": "N2Z0Z0",
    "result": []
  },
  {
    "postal": "N2Z9X8",
    "result": []
  },
  {
    "postal": "N2Z3H3",
    "result": []
  },
  {
    "postal": "N2Z7S2",
    "result": []
  },
  {
    "postal": "N2Z3T3",
    "result": []
  },
  {
    "postal": "N2Z9P3",
    "result": []
  },
  {
    "postal": "N2Z4H8",
    "result": []
  },
  {
    "postal": "N2Z6R1",
    "result": []
  },
  {
    "postal": "N2Z1S0",
    "result": []
  },
  {
    "postal": "N2Z3W8",
    "result": []
  },
  {
    "postal": "N2Z4S3",
    "result": []
  },
  {
    "postal": "N2Z1B6",
    "result": [
      {
        "electoralDistricts": [
          {
            "election": null,
            "id": 42,
            "name": "Huron—Bruce"
          }
        ],
        "pollDivisionIds": [
          10138849,
          10143745
        ],
        "postalCode": "N2Z1B6",
        "streetName": "KINGSWAY",
        "streetDirectionId": null,
        "streetTypeId": "ST",
        "placeName": "KINCARDINE",
        "streetNameDisplayText": "KINGSWAY ST, KINCARDINE"
      }
    ]
  },
  {
    "postal": "N2Z8R3",
    "result": []
  },
  {
    "postal": "N2Z4V9",
    "result": []
  },
  {
    "postal": "N2Z9W4",
    "result": []
  },
  {
    "postal": "N2Z3T4",
    "result": []
  },
  {
    "postal": "N2Z5C7",
    "result": []
  },
  {
    "postal": "N2Z3Y1",
    "result": []
  },
  {
    "postal": "N2Z5V0",
    "result": []
  },
  {
    "postal": "N2Z8G8",
    "result": []
  },
  {
    "postal": "N2Z8B1",
    "result": []
  },
  {
    "postal": "N2Z4P5",
    "result": []
  },
  {
    "postal": "N2Z7B2",
    "result": []
  },
  {
    "postal": "N2Z0R2",
    "result": []
  },
  {
    "postal": "N2Z4M4",
    "result": []
  },
  {
    "postal": "N2Z7M4",
    "result": []
  },
  {
    "postal": "N2Z9S7",
    "result": []
  },
  {
    "postal": "N2Z5Z7",
    "result": []
  },
  {
    "postal": "N2Z7J7",
    "result": []
  },
  {
    "postal": "N2Z8R8",
    "result": []
  },
  {
    "postal": "N2Z9X1",
    "result": []
  },
  {
    "postal": "N2Z5M9",
    "result": []
  },
  {
    "postal": "N2Z9B4",
    "result": []
  },
  {
    "postal": "N2Z0L9",
    "result": []
  },
  {
    "postal": "N2Z9G4",
    "result": []
  },
  {
    "postal": "N2Z1J4",
    "result": [
      {
        "electoralDistricts": [
          {
            "election": null,
            "id": 42,
            "name": "Huron—Bruce"
          }
        ],
        "pollDivisionIds": [
          10138852
        ],
        "postalCode": "N2Z1J4",
        "streetName": "INVERNESS",
        "streetDirectionId": "N",
        "streetTypeId": "ST",
        "placeName": "KINCARDINE",
        "streetNameDisplayText": "INVERNESS ST N, KINCARDINE"
      }
    ]
  },
  {
    "postal": "N2Z0W6",
    "result": []
  }
]
