[
  {
    "postal": "L6S9J6",
    "result": []
  },
  {
    "postal": "L6S9Z5",
    "result": []
  },
  {
    "postal": "L6S7H8",
    "result": []
  },
  {
    "postal": "L6S0P6",
    "result": []
  },
  {
    "postal": "L6S0S7",
    "result": []
  },
  {
    "postal": "L6S8B9",
    "result": []
  },
  {
    "postal": "L6S2A6",
    "result": [
      {
        "electoralDistricts": [
          {
            "election": null,
            "id": 8,
            "name": "Brampton Centre"
          }
        ],
        "pollDivisionIds": [
          10137085
        ],
        "postalCode": "L6S2A6",
        "streetName": "GREENBRIAR",
        "streetDirectionId": null,
        "streetTypeId": "RD",
        "placeName": "BRAMPTON",
        "streetNameDisplayText": "GREENBRIAR RD, BRAMPTON"
      }
    ]
  },
  {
    "postal": "L6S7V2",
    "result": []
  },
  {
    "postal": "L6S9P4",
    "result": []
  },
  {
    "postal": "L6S6G0",
    "result": []
  },
  {
    "postal": "L6S2K0",
    "result": []
  },
  {
    "postal": "L6S7N6",
    "result": []
  },
  {
    "postal": "L6S5R3",
    "result": [
      {
        "electoralDistricts": [
          {
            "election": null,
            "id": 8,
            "name": "Brampton Centre"
          }
        ],
        "pollDivisionIds": [
          10137078
        ],
        "postalCode": "L6S5R3",
        "streetName": "HEATHCLIFFE",
        "streetDirectionId": null,
        "streetTypeId": "SQ",
        "placeName": "BRAMPTON",
        "streetNameDisplayText": "HEATHCLIFFE SQ, BRAMPTON"
      }
    ]
  },
  {
    "postal": "L6S7K0",
    "result": []
  },
  {
    "postal": "L6S3R2",
    "result": [
      {
        "electoralDistricts": [
          {
            "election": null,
            "id": 10,
            "name": "Brampton North"
          }
        ],
        "pollDivisionIds": [
          10126628
        ],
        "postalCode": "L6S3R2",
        "streetName": "MERIDIAN",
        "streetDirectionId": null,
        "streetTypeId": "RD",
        "placeName": "BRAMPTON",
        "streetNameDisplayText": "MERIDIAN RD, BRAMPTON"
      }
    ]
  },
  {
    "postal": "L6S0J1",
    "result": []
  },
  {
    "postal": "L6S0B0",
    "result": []
  },
  {
    "postal": "L6S5Z2",
    "result": [
      {
        "electoralDistricts": [
          {
            "election": null,
            "id": 10,
            "name": "Brampton North"
          }
        ],
        "pollDivisionIds": [
          10137116
        ],
        "postalCode": "L6S5Z2",
        "streetName": "NEWDALE",
        "streetDirectionId": null,
        "streetTypeId": "PL",
        "placeName": "BRAMPTON",
        "streetNameDisplayText": "NEWDALE PL, BRAMPTON"
      },
      {
        "electoralDistricts": [
          {
            "election": null,
            "id": 10,
            "name": "Brampton North"
          }
        ],
        "pollDivisionIds": [
          10137116
        ],
        "postalCode": "L6S5Z2",
        "streetName": "NUFFIELD",
        "streetDirectionId": null,
        "streetTypeId": "ST",
        "placeName": "BRAMPTON",
        "streetNameDisplayText": "NUFFIELD ST, BRAMPTON"
      }
    ]
  },
  {
    "postal": "L6S7P3",
    "result": []
  },
  {
    "postal": "L6S2K3",
    "result": [
      {
        "electoralDistricts": [
          {
            "election": null,
            "id": 8,
            "name": "Brampton Centre"
          }
        ],
        "pollDivisionIds": [
          10137085
        ],
        "postalCode": "L6S2K3",
        "streetName": "GROVE PARK",
        "streetDirectionId": null,
        "streetTypeId": "SQ",
        "placeName": "BRAMPTON",
        "streetNameDisplayText": "GROVE PARK SQ, BRAMPTON"
      }
    ]
  },
  {
    "postal": "L6S7Y6",
    "result": []
  },
  {
    "postal": "L6S1L9",
    "result": [
      {
        "electoralDistricts": [
          {
            "election": null,
            "id": 8,
            "name": "Brampton Centre"
          }
        ],
        "pollDivisionIds": [
          10137084
        ],
        "postalCode": "L6S1L9",
        "streetName": "GLENFOREST",
        "streetDirectionId": null,
        "streetTypeId": "RD",
        "placeName": "BRAMPTON",
        "streetNameDisplayText": "GLENFOREST RD, BRAMPTON"
      }
    ]
  },
  {
    "postal": "L6S8T0",
    "result": []
  },
  {
    "postal": "L6S3K8",
    "result": [
      {
        "electoralDistricts": [
          {
            "election": null,
            "id": 10,
            "name": "Brampton North"
          }
        ],
        "pollDivisionIds": [
          10126628
        ],
        "postalCode": "L6S3K8",
        "streetName": "MORLEY",
        "streetDirectionId": null,
        "streetTypeId": "CRES",
        "placeName": "BRAMPTON",
        "streetNameDisplayText": "MORLEY CRES, BRAMPTON"
      }
    ]
  },
  {
    "postal": "L6S5W9",
    "result": [
      {
        "electoralDistricts": [
          {
            "election": null,
            "id": 8,
            "name": "Brampton Centre"
          }
        ],
        "pollDivisionIds": [
          10137078
        ],
        "postalCode": "L6S5W9",
        "streetName": "HARTNELL",
        "streetDirectionId": null,
        "streetTypeId": "SQ",
        "placeName": "BRAMPTON",
        "streetNameDisplayText": "HARTNELL SQ, BRAMPTON"
      }
    ]
  },
  {
    "postal": "L6S6T9",
    "result": []
  },
  {
    "postal": "L6S4H1",
    "result": [
      {
        "electoralDistricts": [
          {
            "election": null,
            "id": 10,
            "name": "Brampton North"
          }
        ],
        "pollDivisionIds": [
          10137117
        ],
        "postalCode": "L6S4H1",
        "streetName": "NORMA",
        "streetDirectionId": null,
        "streetTypeId": "CRES",
        "placeName": "BRAMPTON",
        "streetNameDisplayText": "NORMA CRES, BRAMPTON"
      }
    ]
  },
  {
    "postal": "L6S7A2",
    "result": []
  },
  {
    "postal": "L6S5G0",
    "result": []
  },
  {
    "postal": "L6S8V5",
    "result": []
  },
  {
    "postal": "L6S2Y8",
    "result": [
      {
        "electoralDistricts": [
          {
            "election": null,
            "id": 8,
            "name": "Brampton Centre"
          }
        ],
        "pollDivisionIds": [
          10137076
        ],
        "postalCode": "L6S2Y8",
        "streetName": "MADELAINE",
        "streetDirectionId": null,
        "streetTypeId": "CRES",
        "placeName": "BRAMPTON",
        "streetNameDisplayText": "MADELAINE CRES, BRAMPTON"
      }
    ]
  },
  {
    "postal": "L6S2B6",
    "result": [
      {
        "electoralDistricts": [
          {
            "election": null,
            "id": 8,
            "name": "Brampton Centre"
          }
        ],
        "pollDivisionIds": [
          10137077
        ],
        "postalCode": "L6S2B6",
        "streetName": "HEDLEY",
        "streetDirectionId": null,
        "streetTypeId": "CRT",
        "placeName": "BRAMPTON",
        "streetNameDisplayText": "HEDLEY CRT, BRAMPTON"
      }
    ]
  },
  {
    "postal": "L6S4W8",
    "result": [
      {
        "electoralDistricts": [
          {
            "election": null,
            "id": 10,
            "name": "Brampton North"
          }
        ],
        "pollDivisionIds": [
          10137116
        ],
        "postalCode": "L6S4W8",
        "streetName": "NEWGATE",
        "streetDirectionId": null,
        "streetTypeId": "PL",
        "placeName": "BRAMPTON",
        "streetNameDisplayText": "NEWGATE PL, BRAMPTON"
      }
    ]
  },
  {
    "postal": "L6S8H7",
    "result": []
  },
  {
    "postal": "L6S5P1",
    "result": [
      {
        "electoralDistricts": [
          {
            "election": null,
            "id": 9,
            "name": "Brampton East"
          }
        ],
        "pollDivisionIds": [
          10111373
        ],
        "postalCode": "L6S5P1",
        "streetName": "EDVAC",
        "streetDirectionId": null,
        "streetTypeId": "DR",
        "placeName": "BRAMPTON",
        "streetNameDisplayText": "EDVAC DR, BRAMPTON"
      }
    ]
  },
  {
    "postal": "L6S2B8",
    "result": [
      {
        "electoralDistricts": [
          {
            "election": null,
            "id": 8,
            "name": "Brampton Centre"
          }
        ],
        "pollDivisionIds": [
          10137077
        ],
        "postalCode": "L6S2B8",
        "streetName": "HERNON",
        "streetDirectionId": null,
        "streetTypeId": "CRT",
        "placeName": "BRAMPTON",
        "streetNameDisplayText": "HERNON CRT, BRAMPTON"
      }
    ]
  },
  {
    "postal": "L6S0P2",
    "result": []
  },
  {
    "postal": "L6S9M1",
    "result": []
  },
  {
    "postal": "L6S3G0",
    "result": []
  },
  {
    "postal": "L6S9Z2",
    "result": []
  },
  {
    "postal": "L6S2A0",
    "result": []
  },
  {
    "postal": "L6S6Y0",
    "result": []
  },
  {
    "postal": "L6S2Z8",
    "result": [
      {
        "electoralDistricts": [
          {
            "election": null,
            "id": 10,
            "name": "Brampton North"
          }
        ],
        "pollDivisionIds": [
          10126627
        ],
        "postalCode": "L6S2Z8",
        "streetName": "MANITOU",
        "streetDirectionId": null,
        "streetTypeId": "CRES",
        "placeName": "BRAMPTON",
        "streetNameDisplayText": "MANITOU CRES, BRAMPTON"
      }
    ]
  },
  {
    "postal": "L6S7Y3",
    "result": []
  },
  {
    "postal": "L6S6Z5",
    "result": []
  },
  {
    "postal": "L6S6E0",
    "result": []
  },
  {
    "postal": "L6S9B7",
    "result": []
  },
  {
    "postal": "L6S9S5",
    "result": []
  },
  {
    "postal": "L6S3X3",
    "result": [
      {
        "electoralDistricts": [
          {
            "election": null,
            "id": 8,
            "name": "Brampton Centre"
          }
        ],
        "pollDivisionIds": [
          10137073
        ],
        "postalCode": "L6S3X3",
        "streetName": "LIONSHEAD",
        "streetDirectionId": null,
        "streetTypeId": "LKOUT",
        "placeName": "BRAMPTON",
        "streetNameDisplayText": "LIONSHEAD LKOUT, BRAMPTON"
      }
    ]
  },
  {
    "postal": "L6S7R5",
    "result": []
  },
  {
    "postal": "L6S2X3",
    "result": [
      {
        "electoralDistricts": [
          {
            "election": null,
            "id": 10,
            "name": "Brampton North"
          }
        ],
        "pollDivisionIds": [
          10126628
        ],
        "postalCode": "L6S2X3",
        "streetName": "MARLOW",
        "streetDirectionId": null,
        "streetTypeId": "PL",
        "placeName": "BRAMPTON",
        "streetNameDisplayText": "MARLOW PL, BRAMPTON"
      }
    ]
  },
  {
    "postal": "L6S8Z9",
    "result": []
  },
  {
    "postal": "L6S0N4",
    "result": []
  },
  {
    "postal": "L6S1K1",
    "result": [
      {
        "electoralDistricts": [
          {
            "election": null,
            "id": 10,
            "name": "Brampton North"
          }
        ],
        "pollDivisionIds": [
          10126630
        ],
        "postalCode": "L6S1K1",
        "streetName": "JUNIPER",
        "streetDirectionId": null,
        "streetTypeId": "CRES",
        "placeName": "BRAMPTON",
        "streetNameDisplayText": "JUNIPER CRES, BRAMPTON"
      }
    ]
  },
  {
    "postal": "L6S1S3",
    "result": [
      {
        "electoralDistricts": [
          {
            "election": null,
            "id": 8,
            "name": "Brampton Centre"
          }
        ],
        "pollDivisionIds": [
          10137078
        ],
        "postalCode": "L6S1S3",
        "streetName": "HUNTER'S",
        "streetDirectionId": null,
        "streetTypeId": "COVE",
        "placeName": "BRAMPTON",
        "streetNameDisplayText": "HUNTER'S COVE, BRAMPTON"
      }
    ]
  },
  {
    "postal": "L6S6M4",
    "result": []
  },
  {
    "postal": "L6S9A9",
    "result": []
  },
  {
    "postal": "L6S9Z9",
    "result": []
  },
  {
    "postal": "L6S6T4",
    "result": []
  },
  {
    "postal": "L6S0B2",
    "result": [
      {
        "electoralDistricts": [
          {
            "election": null,
            "id": 64,
            "name": "Mississauga—Malton"
          },
          {
            "election": null,
            "id": 9,
            "name": "Brampton East"
          }
        ],
        "pollDivisionIds": [
          10139811,
          10111373
        ],
        "postalCode": "L6S0B2",
        "streetName": "JINGLE",
        "streetDirectionId": null,
        "streetTypeId": "CRES",
        "placeName": "BRAMPTON",
        "streetNameDisplayText": "JINGLE CRES, BRAMPTON"
      }
    ]
  },
  {
    "postal": "L6S2L9",
    "result": [
      {
        "electoralDistricts": [
          {
            "election": null,
            "id": 10,
            "name": "Brampton North"
          }
        ],
        "pollDivisionIds": [
          10126630
        ],
        "postalCode": "L6S2L9",
        "streetName": "JACKMAN",
        "streetDirectionId": null,
        "streetTypeId": "DR",
        "placeName": "BRAMPTON",
        "streetNameDisplayText": "JACKMAN DR, BRAMPTON"
      }
    ]
  },
  {
    "postal": "L6S8K9",
    "result": []
  },
  {
    "postal": "L6S2H9",
    "result": [
      {
        "electoralDistricts": [
          {
            "election": null,
            "id": 8,
            "name": "Brampton Centre"
          }
        ],
        "pollDivisionIds": [
          10137084
        ],
        "postalCode": "L6S2H9",
        "streetName": "GRAND RAPIDS",
        "streetDirectionId": null,
        "streetTypeId": "SQ",
        "placeName": "BRAMPTON",
        "streetNameDisplayText": "GRAND RAPIDS SQ, BRAMPTON"
      }
    ]
  },
  {
    "postal": "L6S3Z6",
    "result": [
      {
        "electoralDistricts": [
          {
            "election": null,
            "id": 10,
            "name": "Brampton North"
          }
        ],
        "pollDivisionIds": [
          10137116
        ],
        "postalCode": "L6S3Z6",
        "streetName": "NORTHAMPTON",
        "streetDirectionId": null,
        "streetTypeId": "ST",
        "placeName": "BRAMPTON",
        "streetNameDisplayText": "NORTHAMPTON ST, BRAMPTON"
      }
    ]
  },
  {
    "postal": "L6S3B0",
    "result": []
  },
  {
    "postal": "L6S2H8",
    "result": [
      {
        "electoralDistricts": [
          {
            "election": null,
            "id": 8,
            "name": "Brampton Centre"
          }
        ],
        "pollDivisionIds": [
          10137084
        ],
        "postalCode": "L6S2H8",
        "streetName": "GLENCASTLE",
        "streetDirectionId": null,
        "streetTypeId": "SQ",
        "placeName": "BRAMPTON",
        "streetNameDisplayText": "GLENCASTLE SQ, BRAMPTON"
      }
    ]
  },
  {
    "postal": "L6S3X2",
    "result": [
      {
        "electoralDistricts": [
          {
            "election": null,
            "id": 8,
            "name": "Brampton Centre"
          }
        ],
        "pollDivisionIds": [
          10137073
        ],
        "postalCode": "L6S3X2",
        "streetName": "LIONSHEAD",
        "streetDirectionId": null,
        "streetTypeId": "LKOUT",
        "placeName": "BRAMPTON",
        "streetNameDisplayText": "LIONSHEAD LKOUT, BRAMPTON"
      }
    ]
  },
  {
    "postal": "L6S2E9",
    "result": [
      {
        "electoralDistricts": [
          {
            "election": null,
            "id": 8,
            "name": "Brampton Centre"
          }
        ],
        "pollDivisionIds": [
          10137086
        ],
        "postalCode": "L6S2E9",
        "streetName": "GREENWICH",
        "streetDirectionId": null,
        "streetTypeId": "CIR",
        "placeName": "BRAMPTON",
        "streetNameDisplayText": "GREENWICH CIR, BRAMPTON"
      }
    ]
  },
  {
    "postal": "L6S9P6",
    "result": []
  },
  {
    "postal": "L6S9E2",
    "result": []
  },
  {
    "postal": "L6S9H2",
    "result": []
  },
  {
    "postal": "L6S1S8",
    "result": [
      {
        "electoralDistricts": [
          {
            "election": null,
            "id": 8,
            "name": "Brampton Centre"
          }
        ],
        "pollDivisionIds": [
          10137086
        ],
        "postalCode": "L6S1S8",
        "streetName": "GROVETREE",
        "streetDirectionId": null,
        "streetTypeId": "PL",
        "placeName": "BRAMPTON",
        "streetNameDisplayText": "GROVETREE PL, BRAMPTON"
      }
    ]
  },
  {
    "postal": "L6S3M6",
    "result": [
      {
        "electoralDistricts": [
          {
            "election": null,
            "id": 8,
            "name": "Brampton Centre"
          }
        ],
        "pollDivisionIds": [
          10137073
        ],
        "postalCode": "L6S3M6",
        "streetName": "LEANDER",
        "streetDirectionId": null,
        "streetTypeId": "ST",
        "placeName": "BRAMPTON",
        "streetNameDisplayText": "LEANDER ST, BRAMPTON"
      }
    ]
  },
  {
    "postal": "L6S6Z8",
    "result": []
  },
  {
    "postal": "L6S4J2",
    "result": []
  },
  {
    "postal": "L6S9Y1",
    "result": []
  },
  {
    "postal": "L6S8V6",
    "result": []
  },
  {
    "postal": "L6S6B2",
    "result": []
  },
  {
    "postal": "L6S1P8",
    "result": [
      {
        "electoralDistricts": [
          {
            "election": null,
            "id": 8,
            "name": "Brampton Centre"
          }
        ],
        "pollDivisionIds": [
          10137077
        ],
        "postalCode": "L6S1P8",
        "streetName": "HILLGATE",
        "streetDirectionId": null,
        "streetTypeId": "DR",
        "placeName": "BRAMPTON",
        "streetNameDisplayText": "HILLGATE DR, BRAMPTON"
      }
    ]
  },
  {
    "postal": "L6S0V8",
    "result": []
  },
  {
    "postal": "L6S4Y0",
    "result": []
  },
  {
    "postal": "L6S2T4",
    "result": [
      {
        "electoralDistricts": [
          {
            "election": null,
            "id": 10,
            "name": "Brampton North"
          }
        ],
        "pollDivisionIds": [
          10126627
        ],
        "postalCode": "L6S2T4",
        "streetName": "MARLBOROUGH",
        "streetDirectionId": null,
        "streetTypeId": "ST",
        "placeName": "BRAMPTON",
        "streetNameDisplayText": "MARLBOROUGH ST, BRAMPTON"
      }
    ]
  },
  {
    "postal": "L6S2S3",
    "result": [
      {
        "electoralDistricts": [
          {
            "election": null,
            "id": 10,
            "name": "Brampton North"
          }
        ],
        "pollDivisionIds": [
          10126628
        ],
        "postalCode": "L6S2S3",
        "streetName": "MANDARIN",
        "streetDirectionId": null,
        "streetTypeId": "CRES",
        "placeName": "BRAMPTON",
        "streetNameDisplayText": "MANDARIN CRES, BRAMPTON"
      }
    ]
  },
  {
    "postal": "L6S0K0",
    "result": []
  },
  {
    "postal": "L6S5N1",
    "result": [
      {
        "electoralDistricts": [
          {
            "election": null,
            "id": 9,
            "name": "Brampton East"
          }
        ],
        "pollDivisionIds": [
          10111373
        ],
        "postalCode": "L6S5N1",
        "streetName": "WILLIAMS",
        "streetDirectionId": null,
        "streetTypeId": "PKY",
        "placeName": "BRAMPTON",
        "streetNameDisplayText": "WILLIAMS PKY, BRAMPTON"
      }
    ]
  },
  {
    "postal": "L6S7T0",
    "result": []
  },
  {
    "postal": "L6S9N2",
    "result": []
  },
  {
    "postal": "L6S5L1",
    "result": [
      {
        "electoralDistricts": [
          {
            "election": null,
            "id": 10,
            "name": "Brampton North"
          }
        ],
        "pollDivisionIds": [
          10137117
        ],
        "postalCode": "L6S5L1",
        "streetName": "NEVILLE",
        "streetDirectionId": null,
        "streetTypeId": "CRES",
        "placeName": "BRAMPTON",
        "streetNameDisplayText": "NEVILLE CRES, BRAMPTON"
      }
    ]
  },
  {
    "postal": "L6S7G5",
    "result": []
  },
  {
    "postal": "L6S6K2",
    "result": [
      {
        "electoralDistricts": [
          {
            "election": null,
            "id": 9,
            "name": "Brampton East"
          }
        ],
        "pollDivisionIds": [
          10111374
        ],
        "postalCode": "L6S6K2",
        "streetName": "BLUE DIAMOND",
        "streetDirectionId": null,
        "streetTypeId": "DR",
        "placeName": "BRAMPTON",
        "streetNameDisplayText": "BLUE DIAMOND DR, BRAMPTON"
      },
      {
        "electoralDistricts": [
          {
            "election": null,
            "id": 9,
            "name": "Brampton East"
          }
        ],
        "pollDivisionIds": [
          10111374
        ],
        "postalCode": "L6S6K2",
        "streetName": "VILLAGE LAKE",
        "streetDirectionId": null,
        "streetTypeId": "CRES",
        "placeName": "BRAMPTON",
        "streetNameDisplayText": "VILLAGE LAKE CRES, BRAMPTON"
      }
    ]
  },
  {
    "postal": "L6S6P9",
    "result": []
  },
  {
    "postal": "L6S0E6",
    "result": [
      {
        "electoralDistricts": [
          {
            "election": null,
            "id": 8,
            "name": "Brampton Centre"
          }
        ],
        "pollDivisionIds": [
          10137074
        ],
        "postalCode": "L6S0E6",
        "streetName": "HOWDEN",
        "streetDirectionId": null,
        "streetTypeId": "BLVD",
        "placeName": "BRAMPTON",
        "streetNameDisplayText": "HOWDEN BLVD, BRAMPTON"
      }
    ]
  },
  {
    "postal": "L6S8R9",
    "result": []
  },
  {
    "postal": "L6S3G9",
    "result": [
      {
        "electoralDistricts": [
          {
            "election": null,
            "id": 10,
            "name": "Brampton North"
          }
        ],
        "pollDivisionIds": [
          10126630
        ],
        "postalCode": "L6S3G9",
        "streetName": "JADE",
        "streetDirectionId": null,
        "streetTypeId": "CRES",
        "placeName": "BRAMPTON",
        "streetNameDisplayText": "JADE CRES, BRAMPTON"
      }
    ]
  },
  {
    "postal": "L6S0V7",
    "result": []
  },
  {
    "postal": "L6S2Z1",
    "result": [
      {
        "electoralDistricts": [
          {
            "election": null,
            "id": 8,
            "name": "Brampton Centre"
          }
        ],
        "pollDivisionIds": [
          10137076
        ],
        "postalCode": "L6S2Z1",
        "streetName": "MELBOURNE",
        "streetDirectionId": null,
        "streetTypeId": "PL",
        "placeName": "BRAMPTON",
        "streetNameDisplayText": "MELBOURNE PL, BRAMPTON"
      }
    ]
  },
  {
    "postal": "L6S7N1",
    "result": []
  },
  {
    "postal": "L6S3C6",
    "result": [
      {
        "electoralDistricts": [
          {
            "election": null,
            "id": 10,
            "name": "Brampton North"
          }
        ],
        "pollDivisionIds": [
          10126628
        ],
        "postalCode": "L6S3C6",
        "streetName": "MEDICI",
        "streetDirectionId": null,
        "streetTypeId": "PL",
        "placeName": "BRAMPTON",
        "streetNameDisplayText": "MEDICI PL, BRAMPTON"
      }
    ]
  },
  {
    "postal": "L6S4M1",
    "result": [
      {
        "electoralDistricts": [
          {
            "election": null,
            "id": 10,
            "name": "Brampton North"
          }
        ],
        "pollDivisionIds": [
          10137117
        ],
        "postalCode": "L6S4M1",
        "streetName": "NEWPORT",
        "streetDirectionId": null,
        "streetTypeId": "ST",
        "placeName": "BRAMPTON",
        "streetNameDisplayText": "NEWPORT ST, BRAMPTON"
      }
    ]
  },
  {
    "postal": "L6S9K2",
    "result": []
  },
  {
    "postal": "L6S9S6",
    "result": []
  },
  {
    "postal": "L6S4X1",
    "result": [
      {
        "electoralDistricts": [
          {
            "election": null,
            "id": 10,
            "name": "Brampton North"
          }
        ],
        "pollDivisionIds": [
          10137116
        ],
        "postalCode": "L6S4X1",
        "streetName": "NEWGATE",
        "streetDirectionId": null,
        "streetTypeId": "PL",
        "placeName": "BRAMPTON",
        "streetNameDisplayText": "NEWGATE PL, BRAMPTON"
      },
      {
        "electoralDistricts": [
          {
            "election": null,
            "id": 10,
            "name": "Brampton North"
          }
        ],
        "pollDivisionIds": [
          10137116
        ],
        "postalCode": "L6S4X1",
        "streetName": "NUFFIELD",
        "streetDirectionId": null,
        "streetTypeId": "ST",
        "placeName": "BRAMPTON",
        "streetNameDisplayText": "NUFFIELD ST, BRAMPTON"
      }
    ]
  },
  {
    "postal": "L6S8W2",
    "result": []
  },
  {
    "postal": "L6S7N2",
    "result": []
  },
  {
    "postal": "L6S8S3",
    "result": []
  },
  {
    "postal": "L6S4V0",
    "result": []
  },
  {
    "postal": "L6S6W4",
    "result": []
  },
  {
    "postal": "L6S5M1",
    "result": [
      {
        "electoralDistricts": [
          {
            "election": null,
            "id": 10,
            "name": "Brampton North"
          }
        ],
        "pollDivisionIds": [
          10137117
        ],
        "postalCode": "L6S5M1",
        "streetName": "NEWBURY",
        "streetDirectionId": null,
        "streetTypeId": "CRES",
        "placeName": "BRAMPTON",
        "streetNameDisplayText": "NEWBURY CRES, BRAMPTON"
      }
    ]
  },
  {
    "postal": "L6S0S4",
    "result": []
  },
  {
    "postal": "L6S5X6",
    "result": [
      {
        "electoralDistricts": [
          {
            "election": null,
            "id": 9,
            "name": "Brampton East"
          }
        ],
        "pollDivisionIds": [
          10111373
        ],
        "postalCode": "L6S5X6",
        "streetName": "WILLIAMS",
        "streetDirectionId": null,
        "streetTypeId": "PKY",
        "placeName": "BRAMPTON",
        "streetNameDisplayText": "WILLIAMS PKY, BRAMPTON"
      }
    ]
  },
  {
    "postal": "L6S8L5",
    "result": []
  },
  {
    "postal": "L6S5M8",
    "result": [
      {
        "electoralDistricts": [
          {
            "election": null,
            "id": 8,
            "name": "Brampton Centre"
          }
        ],
        "pollDivisionIds": [
          10137078
        ],
        "postalCode": "L6S5M8",
        "streetName": "HETHERINGTON",
        "streetDirectionId": null,
        "streetTypeId": "PL",
        "placeName": "BRAMPTON",
        "streetNameDisplayText": "HETHERINGTON PL, BRAMPTON"
      },
      {
        "electoralDistricts": [
          {
            "election": null,
            "id": 101,
            "name": "Spadina—Fort York"
          }
        ],
        "pollDivisionIds": [
          10141948
        ],
        "postalCode": "L6S5M8",
        "streetName": "HETHERINGTON PLACE",
        "streetDirectionId": null,
        "streetTypeId": null,
        "placeName": "TORONTO",
        "streetNameDisplayText": "HETHERINGTON PLACE, TORONTO"
      }
    ]
  },
  {
    "postal": "L6S2G3",
    "result": [
      {
        "electoralDistricts": [
          {
            "election": null,
            "id": 10,
            "name": "Brampton North"
          }
        ],
        "pollDivisionIds": [
          10126629
        ],
        "postalCode": "L6S2G3",
        "streetName": "JEFFERSON",
        "streetDirectionId": null,
        "streetTypeId": "RD",
        "placeName": "BRAMPTON",
        "streetNameDisplayText": "JEFFERSON RD, BRAMPTON"
      }
    ]
  },
  {
    "postal": "L6S8E4",
    "result": []
  },
  {
    "postal": "L6S7S9",
    "result": []
  },
  {
    "postal": "L6S1K3",
    "result": [
      {
        "electoralDistricts": [
          {
            "election": null,
            "id": 10,
            "name": "Brampton North"
          }
        ],
        "pollDivisionIds": [
          10126630
        ],
        "postalCode": "L6S1K3",
        "streetName": "JACKSON",
        "streetDirectionId": null,
        "streetTypeId": "RD",
        "placeName": "BRAMPTON",
        "streetNameDisplayText": "JACKSON RD, BRAMPTON"
      }
    ]
  },
  {
    "postal": "L6S4E1",
    "result": [
      {
        "electoralDistricts": [
          {
            "election": null,
            "id": 10,
            "name": "Brampton North"
          }
        ],
        "pollDivisionIds": [
          10126629
        ],
        "postalCode": "L6S4E1",
        "streetName": "NORTH PARK",
        "streetDirectionId": null,
        "streetTypeId": "DR",
        "placeName": "BRAMPTON",
        "streetNameDisplayText": "NORTH PARK DR, BRAMPTON"
      }
    ]
  },
  {
    "postal": "L6S4R2",
    "result": [
      {
        "electoralDistricts": [
          {
            "election": null,
            "id": 8,
            "name": "Brampton Centre"
          }
        ],
        "pollDivisionIds": [
          10137073
        ],
        "postalCode": "L6S4R2",
        "streetName": "LA FRANCE",
        "streetDirectionId": null,
        "streetTypeId": "RD",
        "placeName": "BRAMPTON",
        "streetNameDisplayText": "LA FRANCE RD, BRAMPTON"
      }
    ]
  },
  {
    "postal": "L6S6T0",
    "result": []
  },
  {
    "postal": "L6S3K5",
    "result": [
      {
        "electoralDistricts": [
          {
            "election": null,
            "id": 8,
            "name": "Brampton Centre"
          }
        ],
        "pollDivisionIds": [
          10137073
        ],
        "postalCode": "L6S3K5",
        "streetName": "LEACREST",
        "streetDirectionId": null,
        "streetTypeId": "ST",
        "placeName": "BRAMPTON",
        "streetNameDisplayText": "LEACREST ST, BRAMPTON"
      }
    ]
  },
  {
    "postal": "L6S3S3",
    "result": [
      {
        "electoralDistricts": [
          {
            "election": null,
            "id": 10,
            "name": "Brampton North"
          }
        ],
        "pollDivisionIds": [
          10126629
        ],
        "postalCode": "L6S3S3",
        "streetName": "POTTERY",
        "streetDirectionId": null,
        "streetTypeId": "CRES",
        "placeName": "BRAMPTON",
        "streetNameDisplayText": "POTTERY CRES, BRAMPTON"
      }
    ]
  },
  {
    "postal": "L6S3L4",
    "result": [
      {
        "electoralDistricts": [
          {
            "election": null,
            "id": 8,
            "name": "Brampton Centre"
          }
        ],
        "pollDivisionIds": [
          10137073
        ],
        "postalCode": "L6S3L4",
        "streetName": "LAWNDALE",
        "streetDirectionId": null,
        "streetTypeId": "CRES",
        "placeName": "BRAMPTON",
        "streetNameDisplayText": "LAWNDALE CRES, BRAMPTON"
      }
    ]
  },
  {
    "postal": "L6S9Y2",
    "result": []
  },
  {
    "postal": "L6S1E0",
    "result": []
  },
  {
    "postal": "L6S9A4",
    "result": []
  },
  {
    "postal": "L6S1L3",
    "result": [
      {
        "electoralDistricts": [
          {
            "election": null,
            "id": 8,
            "name": "Brampton Centre"
          }
        ],
        "pollDivisionIds": [
          10137086
        ],
        "postalCode": "L6S1L3",
        "streetName": "GROVELAND",
        "streetDirectionId": null,
        "streetTypeId": "CRES",
        "placeName": "BRAMPTON",
        "streetNameDisplayText": "GROVELAND CRES, BRAMPTON"
      }
    ]
  },
  {
    "postal": "L6S6N1",
    "result": []
  },
  {
    "postal": "L6S6G7",
    "result": []
  },
  {
    "postal": "L6S7W1",
    "result": []
  },
  {
    "postal": "L6S4M6",
    "result": []
  },
  {
    "postal": "L6S1K0",
    "result": []
  },
  {
    "postal": "L6S3E2",
    "result": [
      {
        "electoralDistricts": [
          {
            "election": null,
            "id": 10,
            "name": "Brampton North"
          }
        ],
        "pollDivisionIds": [
          10126628
        ],
        "postalCode": "L6S3E2",
        "streetName": "MANSION",
        "streetDirectionId": null,
        "streetTypeId": "ST",
        "placeName": "BRAMPTON",
        "streetNameDisplayText": "MANSION ST, BRAMPTON"
      }
    ]
  },
  {
    "postal": "L6S5H4",
    "result": [
      {
        "electoralDistricts": [
          {
            "election": null,
            "id": 8,
            "name": "Brampton Centre"
          }
        ],
        "pollDivisionIds": [
          10137073
        ],
        "postalCode": "L6S5H4",
        "streetName": "LORD SIMCOE",
        "streetDirectionId": null,
        "streetTypeId": "DR",
        "placeName": "BRAMPTON",
        "streetNameDisplayText": "LORD SIMCOE DR, BRAMPTON"
      }
    ]
  },
  {
    "postal": "L6S1K7",
    "result": [
      {
        "electoralDistricts": [
          {
            "election": null,
            "id": 8,
            "name": "Brampton Centre"
          }
        ],
        "pollDivisionIds": [
          10137086
        ],
        "postalCode": "L6S1K7",
        "streetName": "GENEVA",
        "streetDirectionId": null,
        "streetTypeId": "CRES",
        "placeName": "BRAMPTON",
        "streetNameDisplayText": "GENEVA CRES, BRAMPTON"
      }
    ]
  },
  {
    "postal": "L6S0H0",
    "result": []
  },
  {
    "postal": "L6S0J3",
    "result": []
  },
  {
    "postal": "L6S1X6",
    "result": [
      {
        "electoralDistricts": [
          {
            "election": null,
            "id": 8,
            "name": "Brampton Centre"
          }
        ],
        "pollDivisionIds": [
          10137077
        ],
        "postalCode": "L6S1X6",
        "streetName": "HERCULES",
        "streetDirectionId": null,
        "streetTypeId": "CRT",
        "placeName": "BRAMPTON",
        "streetNameDisplayText": "HERCULES CRT, BRAMPTON"
      }
    ]
  },
  {
    "postal": "L6S2Z6",
    "result": [
      {
        "electoralDistricts": [
          {
            "election": null,
            "id": 10,
            "name": "Brampton North"
          }
        ],
        "pollDivisionIds": [
          10126627
        ],
        "postalCode": "L6S2Z6",
        "streetName": "MANITOU",
        "streetDirectionId": null,
        "streetTypeId": "CRES",
        "placeName": "BRAMPTON",
        "streetNameDisplayText": "MANITOU CRES, BRAMPTON"
      }
    ]
  },
  {
    "postal": "L6S4R9",
    "result": []
  },
  {
    "postal": "L6S0W8",
    "result": []
  },
  {
    "postal": "L6S1L4",
    "result": [
      {
        "electoralDistricts": [
          {
            "election": null,
            "id": 8,
            "name": "Brampton Centre"
          }
        ],
        "pollDivisionIds": [
          10137086
        ],
        "postalCode": "L6S1L4",
        "streetName": "GROVELAND",
        "streetDirectionId": null,
        "streetTypeId": "CRT",
        "placeName": "BRAMPTON",
        "streetNameDisplayText": "GROVELAND CRT, BRAMPTON"
      }
    ]
  },
  {
    "postal": "L6S0C8",
    "result": [
      {
        "electoralDistricts": [
          {
            "election": null,
            "id": 9,
            "name": "Brampton East"
          }
        ],
        "pollDivisionIds": [
          10111363
        ],
        "postalCode": "L6S0C8",
        "streetName": "EXCHANGE",
        "streetDirectionId": null,
        "streetTypeId": "DR",
        "placeName": "BRAMPTON",
        "streetNameDisplayText": "EXCHANGE DR, BRAMPTON"
      }
    ]
  },
  {
    "postal": "L6S9X7",
    "result": []
  },
  {
    "postal": "L6S4T1",
    "result": [
      {
        "electoralDistricts": [
          {
            "election": null,
            "id": 10,
            "name": "Brampton North"
          }
        ],
        "pollDivisionIds": [
          10137117
        ],
        "postalCode": "L6S4T1",
        "streetName": "NEWPORT",
        "streetDirectionId": null,
        "streetTypeId": "ST",
        "placeName": "BRAMPTON",
        "streetNameDisplayText": "NEWPORT ST, BRAMPTON"
      }
    ]
  },
  {
    "postal": "L6S0M0",
    "result": []
  },
  {
    "postal": "L6S6A2",
    "result": [
      {
        "electoralDistricts": [
          {
            "election": null,
            "id": 9,
            "name": "Brampton East"
          }
        ],
        "pollDivisionIds": [
          10111374
        ],
        "postalCode": "L6S6A2",
        "streetName": "CORPORATION",
        "streetDirectionId": null,
        "streetTypeId": "DR",
        "placeName": "BRAMPTON",
        "streetNameDisplayText": "CORPORATION DR, BRAMPTON"
      }
    ]
  },
  {
    "postal": "L6S9S8",
    "result": []
  },
  {
    "postal": "L6S9T4",
    "result": []
  },
  {
    "postal": "L6S9Y4",
    "result": []
  },
  {
    "postal": "L6S6G5",
    "result": [
      {
        "electoralDistricts": [
          {
            "election": null,
            "id": 9,
            "name": "Brampton East"
          }
        ],
        "pollDivisionIds": [
          10111374
        ],
        "postalCode": "L6S6G5",
        "streetName": "CORPORATION",
        "streetDirectionId": null,
        "streetTypeId": "DR",
        "placeName": "BRAMPTON",
        "streetNameDisplayText": "CORPORATION DR, BRAMPTON"
      }
    ]
  },
  {
    "postal": "L6S6H9",
    "result": [
      {
        "electoralDistricts": [
          {
            "election": null,
            "id": 9,
            "name": "Brampton East"
          }
        ],
        "pollDivisionIds": [
          10111374
        ],
        "postalCode": "L6S6H9",
        "streetName": "BLUE DIAMOND",
        "streetDirectionId": null,
        "streetTypeId": "DR",
        "placeName": "BRAMPTON",
        "streetNameDisplayText": "BLUE DIAMOND DR, BRAMPTON"
      },
      {
        "electoralDistricts": [
          {
            "election": null,
            "id": 9,
            "name": "Brampton East"
          }
        ],
        "pollDivisionIds": [
          10111374
        ],
        "postalCode": "L6S6H9",
        "streetName": "OVERTURE",
        "streetDirectionId": null,
        "streetTypeId": "LANE",
        "placeName": "BRAMPTON",
        "streetNameDisplayText": "OVERTURE LANE, BRAMPTON"
      },
      {
        "electoralDistricts": [
          {
            "election": null,
            "id": 9,
            "name": "Brampton East"
          }
        ],
        "pollDivisionIds": [
          10111374
        ],
        "postalCode": "L6S6H9",
        "streetName": "SAFFRON",
        "streetDirectionId": null,
        "streetTypeId": "CRES",
        "placeName": "BRAMPTON",
        "streetNameDisplayText": "SAFFRON CRES, BRAMPTON"
      }
    ]
  },
  {
    "postal": "L6S2P3",
    "result": [
      {
        "electoralDistricts": [
          {
            "election": null,
            "id": 8,
            "name": "Brampton Centre"
          }
        ],
        "pollDivisionIds": [
          10137078
        ],
        "postalCode": "L6S2P3",
        "streetName": "CRESCENT HILL",
        "streetDirectionId": "S",
        "streetTypeId": "DR",
        "placeName": "BRAMPTON",
        "streetNameDisplayText": "CRESCENT HILL DR S, BRAMPTON"
      }
    ]
  },
  {
    "postal": "L6S1T6",
    "result": [
      {
        "electoralDistricts": [
          {
            "election": null,
            "id": 8,
            "name": "Brampton Centre"
          }
        ],
        "pollDivisionIds": [
          10137086
        ],
        "postalCode": "L6S1T6",
        "streetName": "GRENADIER",
        "streetDirectionId": null,
        "streetTypeId": "RD",
        "placeName": "BRAMPTON",
        "streetNameDisplayText": "GRENADIER RD, BRAMPTON"
      }
    ]
  },
  {
    "postal": "L6S4P6",
    "result": []
  },
  {
    "postal": "L6S3K1",
    "result": [
      {
        "electoralDistricts": [
          {
            "election": null,
            "id": 10,
            "name": "Brampton North"
          }
        ],
        "pollDivisionIds": [
          10126628
        ],
        "postalCode": "L6S3K1",
        "streetName": "CARISBROOKE",
        "streetDirectionId": null,
        "streetTypeId": "CRT",
        "placeName": "BRAMPTON",
        "streetNameDisplayText": "CARISBROOKE CRT, BRAMPTON"
      }
    ]
  },
  {
    "postal": "L6S6X4",
    "result": []
  },
  {
    "postal": "L6S4M8",
    "result": [
      {
        "electoralDistricts": [
          {
            "election": null,
            "id": 10,
            "name": "Brampton North"
          }
        ],
        "pollDivisionIds": [
          10137117
        ],
        "postalCode": "L6S4M8",
        "streetName": "NEWPORT",
        "streetDirectionId": null,
        "streetTypeId": "ST",
        "placeName": "BRAMPTON",
        "streetNameDisplayText": "NEWPORT ST, BRAMPTON"
      }
    ]
  },
  {
    "postal": "L6S2Y1",
    "result": [
      {
        "electoralDistricts": [
          {
            "election": null,
            "id": 8,
            "name": "Brampton Centre"
          }
        ],
        "pollDivisionIds": [
          10137076
        ],
        "postalCode": "L6S2Y1",
        "streetName": "MANSFIELD",
        "streetDirectionId": null,
        "streetTypeId": "ST",
        "placeName": "BRAMPTON",
        "streetNameDisplayText": "MANSFIELD ST, BRAMPTON"
      }
    ]
  },
  {
    "postal": "L6S6M1",
    "result": [
      {
        "electoralDistricts": [
          {
            "election": null,
            "id": 9,
            "name": "Brampton East"
          }
        ],
        "pollDivisionIds": [
          10111373
        ],
        "postalCode": "L6S6M1",
        "streetName": "HERDWICK",
        "streetDirectionId": null,
        "streetTypeId": "ST",
        "placeName": "BRAMPTON",
        "streetNameDisplayText": "HERDWICK ST, BRAMPTON"
      },
      {
        "electoralDistricts": [
          {
            "election": null,
            "id": 9,
            "name": "Brampton East"
          }
        ],
        "pollDivisionIds": [
          10111373
        ],
        "postalCode": "L6S6M1",
        "streetName": "TRIPLE CROWN",
        "streetDirectionId": null,
        "streetTypeId": "DR",
        "placeName": "BRAMPTON",
        "streetNameDisplayText": "TRIPLE CROWN DR, BRAMPTON"
      }
    ]
  },
  {
    "postal": "L6S5L8",
    "result": [
      {
        "electoralDistricts": [
          {
            "election": null,
            "id": 10,
            "name": "Brampton North"
          }
        ],
        "pollDivisionIds": [
          10137117
        ],
        "postalCode": "L6S5L8",
        "streetName": "NEWBURY",
        "streetDirectionId": null,
        "streetTypeId": "CRES",
        "placeName": "BRAMPTON",
        "streetNameDisplayText": "NEWBURY CRES, BRAMPTON"
      }
    ]
  },
  {
    "postal": "L6S3P6",
    "result": [
      {
        "electoralDistricts": [
          {
            "election": null,
            "id": 10,
            "name": "Brampton North"
          }
        ],
        "pollDivisionIds": [
          10126628
        ],
        "postalCode": "L6S3P6",
        "streetName": "MCGILLIVARY",
        "streetDirectionId": null,
        "streetTypeId": "CRES",
        "placeName": "BRAMPTON",
        "streetNameDisplayText": "MCGILLIVARY CRES, BRAMPTON"
      }
    ]
  },
  {
    "postal": "L6S9A5",
    "result": []
  },
  {
    "postal": "L6S7K1",
    "result": []
  },
  {
    "postal": "L6S3J4",
    "result": [
      {
        "electoralDistricts": [
          {
            "election": null,
            "id": 10,
            "name": "Brampton North"
          }
        ],
        "pollDivisionIds": [
          10126630
        ],
        "postalCode": "L6S3J4",
        "streetName": "JUDITH",
        "streetDirectionId": null,
        "streetTypeId": "CRES",
        "placeName": "BRAMPTON",
        "streetNameDisplayText": "JUDITH CRES, BRAMPTON"
      }
    ]
  },
  {
    "postal": "L6S5E7",
    "result": [
      {
        "electoralDistricts": [
          {
            "election": null,
            "id": 8,
            "name": "Brampton Centre"
          }
        ],
        "pollDivisionIds": [
          10137073
        ],
        "postalCode": "L6S5E7",
        "streetName": "LEATHERHEAD",
        "streetDirectionId": null,
        "streetTypeId": "CRT",
        "placeName": "BRAMPTON",
        "streetNameDisplayText": "LEATHERHEAD CRT, BRAMPTON"
      }
    ]
  },
  {
    "postal": "L6S3A7",
    "result": [
      {
        "electoralDistricts": [
          {
            "election": null,
            "id": 10,
            "name": "Brampton North"
          }
        ],
        "pollDivisionIds": [
          10126627
        ],
        "postalCode": "L6S3A7",
        "streetName": "MARCHBANK",
        "streetDirectionId": null,
        "streetTypeId": "CRES",
        "placeName": "BRAMPTON",
        "streetNameDisplayText": "MARCHBANK CRES, BRAMPTON"
      }
    ]
  },
  {
    "postal": "L6S1B9",
    "result": []
  },
  {
    "postal": "L6S9E8",
    "result": []
  },
  {
    "postal": "L6S1C9",
    "result": [
      {
        "electoralDistricts": [
          {
            "election": null,
            "id": 8,
            "name": "Brampton Centre"
          }
        ],
        "pollDivisionIds": [
          10137084
        ],
        "postalCode": "L6S1C9",
        "streetName": "GRASSMERE",
        "streetDirectionId": null,
        "streetTypeId": "CRES",
        "placeName": "BRAMPTON",
        "streetNameDisplayText": "GRASSMERE CRES, BRAMPTON"
      }
    ]
  },
  {
    "postal": "L6S3B5",
    "result": [
      {
        "electoralDistricts": [
          {
            "election": null,
            "id": 10,
            "name": "Brampton North"
          }
        ],
        "pollDivisionIds": [
          10126628
        ],
        "postalCode": "L6S3B5",
        "streetName": "MAITLAND",
        "streetDirectionId": null,
        "streetTypeId": "ST",
        "placeName": "BRAMPTON",
        "streetNameDisplayText": "MAITLAND ST, BRAMPTON"
      }
    ]
  },
  {
    "postal": "L6S8R0",
    "result": []
  },
  {
    "postal": "L6S3P2",
    "result": [
      {
        "electoralDistricts": [
          {
            "election": null,
            "id": 10,
            "name": "Brampton North"
          }
        ],
        "pollDivisionIds": [
          10126628
        ],
        "postalCode": "L6S3P2",
        "streetName": "MARKHAM",
        "streetDirectionId": null,
        "streetTypeId": "ST",
        "placeName": "BRAMPTON",
        "streetNameDisplayText": "MARKHAM ST, BRAMPTON"
      }
    ]
  },
  {
    "postal": "L6S5V4",
    "result": [
      {
        "electoralDistricts": [
          {
            "election": null,
            "id": 8,
            "name": "Brampton Centre"
          }
        ],
        "pollDivisionIds": [
          10137074
        ],
        "postalCode": "L6S5V4",
        "streetName": "LANSDOWNE",
        "streetDirectionId": null,
        "streetTypeId": "DR",
        "placeName": "BRAMPTON",
        "streetNameDisplayText": "LANSDOWNE DR, BRAMPTON"
      },
      {
        "electoralDistricts": [
          {
            "election": null,
            "id": 8,
            "name": "Brampton Centre"
          }
        ],
        "pollDivisionIds": [
          10137074
        ],
        "postalCode": "L6S5V4",
        "streetName": "LONE OAK",
        "streetDirectionId": null,
        "streetTypeId": "AVE",
        "placeName": "BRAMPTON",
        "streetNameDisplayText": "LONE OAK AVE, BRAMPTON"
      }
    ]
  },
  {
    "postal": "L6S4H0",
    "result": []
  },
  {
    "postal": "L6S4S7",
    "result": [
      {
        "electoralDistricts": [
          {
            "election": null,
            "id": 10,
            "name": "Brampton North"
          }
        ],
        "pollDivisionIds": [
          10137117
        ],
        "postalCode": "L6S4S7",
        "streetName": "NEWPORT",
        "streetDirectionId": null,
        "streetTypeId": "ST",
        "placeName": "BRAMPTON",
        "streetNameDisplayText": "NEWPORT ST, BRAMPTON"
      }
    ]
  },
  {
    "postal": "L6S6C2",
    "result": [
      {
        "electoralDistricts": [
          {
            "election": null,
            "id": 10,
            "name": "Brampton North"
          }
        ],
        "pollDivisionIds": [
          10126629
        ],
        "postalCode": "L6S6C2",
        "streetName": "PROVINCIAL",
        "streetDirectionId": null,
        "streetTypeId": "PL",
        "placeName": "BRAMPTON",
        "streetNameDisplayText": "PROVINCIAL PL, BRAMPTON"
      }
    ]
  },
  {
    "postal": "L6S8W3",
    "result": []
  },
  {
    "postal": "L6S4M5",
    "result": []
  },
  {
    "postal": "L6S5T1",
    "result": [
      {
        "electoralDistricts": [
          {
            "election": null,
            "id": 10,
            "name": "Brampton North"
          }
        ],
        "pollDivisionIds": [
          10137116
        ],
        "postalCode": "L6S5T1",
        "streetName": "NEWMAN",
        "streetDirectionId": null,
        "streetTypeId": "CRT",
        "placeName": "BRAMPTON",
        "streetNameDisplayText": "NEWMAN CRT, BRAMPTON"
      },
      {
        "electoralDistricts": [
          {
            "election": null,
            "id": 10,
            "name": "Brampton North"
          }
        ],
        "pollDivisionIds": [
          10137116
        ],
        "postalCode": "L6S5T1",
        "streetName": "NUFFIELD",
        "streetDirectionId": null,
        "streetTypeId": "ST",
        "placeName": "BRAMPTON",
        "streetNameDisplayText": "NUFFIELD ST, BRAMPTON"
      }
    ]
  },
  {
    "postal": "L6S3B3",
    "result": [
      {
        "electoralDistricts": [
          {
            "election": null,
            "id": 10,
            "name": "Brampton North"
          }
        ],
        "pollDivisionIds": [
          10126628
        ],
        "postalCode": "L6S3B3",
        "streetName": "MAITLAND",
        "streetDirectionId": null,
        "streetTypeId": "ST",
        "placeName": "BRAMPTON",
        "streetNameDisplayText": "MAITLAND ST, BRAMPTON"
      }
    ]
  },
  {
    "postal": "L6S6C6",
    "result": [
      {
        "electoralDistricts": [
          {
            "election": null,
            "id": 9,
            "name": "Brampton East"
          }
        ],
        "pollDivisionIds": [
          10111374
        ],
        "postalCode": "L6S6C6",
        "streetName": "NORTH PARK",
        "streetDirectionId": null,
        "streetTypeId": "DR",
        "placeName": "BRAMPTON",
        "streetNameDisplayText": "NORTH PARK DR, BRAMPTON"
      }
    ]
  },
  {
    "postal": "L6S7N8",
    "result": []
  },
  {
    "postal": "L6S2Y3",
    "result": [
      {
        "electoralDistricts": [
          {
            "election": null,
            "id": 8,
            "name": "Brampton Centre"
          }
        ],
        "pollDivisionIds": [
          10137076
        ],
        "postalCode": "L6S2Y3",
        "streetName": "MANSFIELD",
        "streetDirectionId": null,
        "streetTypeId": "ST",
        "placeName": "BRAMPTON",
        "streetNameDisplayText": "MANSFIELD ST, BRAMPTON"
      }
    ]
  },
  {
    "postal": "L6S2R6",
    "result": [
      {
        "electoralDistricts": [
          {
            "election": null,
            "id": 8,
            "name": "Brampton Centre"
          }
        ],
        "pollDivisionIds": [
          10137074
        ],
        "postalCode": "L6S2R6",
        "streetName": "LORRAINE",
        "streetDirectionId": null,
        "streetTypeId": "CRES",
        "placeName": "BRAMPTON",
        "streetNameDisplayText": "LORRAINE CRES, BRAMPTON"
      }
    ]
  },
  {
    "postal": "L6S7N3",
    "result": []
  },
  {
    "postal": "L6S8J2",
    "result": []
  },
  {
    "postal": "L6S6A9",
    "result": [
      {
        "electoralDistricts": [
          {
            "election": null,
            "id": 10,
            "name": "Brampton North"
          }
        ],
        "pollDivisionIds": [
          10137117
        ],
        "postalCode": "L6S6A9",
        "streetName": "NORTH PARK",
        "streetDirectionId": null,
        "streetTypeId": "DR",
        "placeName": "BRAMPTON",
        "streetNameDisplayText": "NORTH PARK DR, BRAMPTON"
      }
    ]
  },
  {
    "postal": "L6S3V2",
    "result": [
      {
        "electoralDistricts": [
          {
            "election": null,
            "id": 10,
            "name": "Brampton North"
          }
        ],
        "pollDivisionIds": [
          10126629
        ],
        "postalCode": "L6S3V2",
        "streetName": "PROFESSOR'S LAKE",
        "streetDirectionId": null,
        "streetTypeId": "PKY",
        "placeName": "BRAMPTON",
        "streetNameDisplayText": "PROFESSOR'S LAKE PKY, BRAMPTON"
      }
    ]
  },
  {
    "postal": "L6S2N3",
    "result": [
      {
        "electoralDistricts": [
          {
            "election": null,
            "id": 8,
            "name": "Brampton Centre"
          }
        ],
        "pollDivisionIds": [
          10137077
        ],
        "postalCode": "L6S2N3",
        "streetName": "HILLDALE",
        "streetDirectionId": null,
        "streetTypeId": "CRES",
        "placeName": "BRAMPTON",
        "streetNameDisplayText": "HILLDALE CRES, BRAMPTON"
      }
    ]
  },
  {
    "postal": "L6S1S5",
    "result": [
      {
        "electoralDistricts": [
          {
            "election": null,
            "id": 8,
            "name": "Brampton Centre"
          }
        ],
        "pollDivisionIds": [
          10137078
        ],
        "postalCode": "L6S1S5",
        "streetName": "HUNTINGWOOD",
        "streetDirectionId": null,
        "streetTypeId": "CRES",
        "placeName": "BRAMPTON",
        "streetNameDisplayText": "HUNTINGWOOD CRES, BRAMPTON"
      }
    ]
  },
  {
    "postal": "L6S4T7",
    "result": [
      {
        "electoralDistricts": [
          {
            "election": null,
            "id": 10,
            "name": "Brampton North"
          }
        ],
        "pollDivisionIds": [
          10137116
        ],
        "postalCode": "L6S4T7",
        "streetName": "NADIA",
        "streetDirectionId": null,
        "streetTypeId": "PL",
        "placeName": "BRAMPTON",
        "streetNameDisplayText": "NADIA PL, BRAMPTON"
      },
      {
        "electoralDistricts": [
          {
            "election": null,
            "id": 10,
            "name": "Brampton North"
          }
        ],
        "pollDivisionIds": [
          10137116
        ],
        "postalCode": "L6S4T7",
        "streetName": "NUTTALL",
        "streetDirectionId": null,
        "streetTypeId": "ST",
        "placeName": "BRAMPTON",
        "streetNameDisplayText": "NUTTALL ST, BRAMPTON"
      }
    ]
  },
  {
    "postal": "L6S6Y7",
    "result": []
  },
  {
    "postal": "L6S0W7",
    "result": []
  },
  {
    "postal": "L6S2W9",
    "result": [
      {
        "electoralDistricts": [
          {
            "election": null,
            "id": 10,
            "name": "Brampton North"
          }
        ],
        "pollDivisionIds": [
          10126628
        ],
        "postalCode": "L6S2W9",
        "streetName": "MANORCREST",
        "streetDirectionId": null,
        "streetTypeId": "ST",
        "placeName": "BRAMPTON",
        "streetNameDisplayText": "MANORCREST ST, BRAMPTON"
      }
    ]
  },
  {
    "postal": "L6S8V0",
    "result": []
  },
  {
    "postal": "L6S0H4",
    "result": []
  },
  {
    "postal": "L6S2T1",
    "result": [
      {
        "electoralDistricts": [
          {
            "election": null,
            "id": 10,
            "name": "Brampton North"
          }
        ],
        "pollDivisionIds": [
          10126627
        ],
        "postalCode": "L6S2T1",
        "streetName": "MARCHMOUNT",
        "streetDirectionId": null,
        "streetTypeId": "CRES",
        "placeName": "BRAMPTON",
        "streetNameDisplayText": "MARCHMOUNT CRES, BRAMPTON"
      }
    ]
  },
  {
    "postal": "L6S1B1",
    "result": [
      {
        "electoralDistricts": [
          {
            "election": null,
            "id": 8,
            "name": "Brampton Centre"
          }
        ],
        "pollDivisionIds": [
          10137074
        ],
        "postalCode": "L6S1B1",
        "streetName": "HAWTHORN",
        "streetDirectionId": null,
        "streetTypeId": "CRES",
        "placeName": "BRAMPTON",
        "streetNameDisplayText": "HAWTHORN CRES, BRAMPTON"
      }
    ]
  },
  {
    "postal": "L6S8B6",
    "result": []
  },
  {
    "postal": "L6S6H1",
    "result": []
  },
  {
    "postal": "L6S8T8",
    "result": []
  },
  {
    "postal": "L6S0T4",
    "result": []
  },
  {
    "postal": "L6S2C4",
    "result": [
      {
        "electoralDistricts": [
          {
            "election": null,
            "id": 8,
            "name": "Brampton Centre"
          }
        ],
        "pollDivisionIds": [
          10137077
        ],
        "postalCode": "L6S2C4",
        "streetName": "HINDQUARTER",
        "streetDirectionId": null,
        "streetTypeId": "CRT",
        "placeName": "BRAMPTON",
        "streetNameDisplayText": "HINDQUARTER CRT, BRAMPTON"
      }
    ]
  },
  {
    "postal": "L6S8N3",
    "result": []
  },
  {
    "postal": "L6S4L8",
    "result": [
      {
        "electoralDistricts": [
          {
            "election": null,
            "id": 8,
            "name": "Brampton Centre"
          }
        ],
        "pollDivisionIds": [
          10137074
        ],
        "postalCode": "L6S4L8",
        "streetName": "LOMBARDY",
        "streetDirectionId": null,
        "streetTypeId": "CRES",
        "placeName": "BRAMPTON",
        "streetNameDisplayText": "LOMBARDY CRES, BRAMPTON"
      }
    ]
  },
  {
    "postal": "L6S2B5",
    "result": [
      {
        "electoralDistricts": [
          {
            "election": null,
            "id": 8,
            "name": "Brampton Centre"
          }
        ],
        "pollDivisionIds": [
          10137077
        ],
        "postalCode": "L6S2B5",
        "streetName": "HAVENDALE",
        "streetDirectionId": null,
        "streetTypeId": "CRT",
        "placeName": "BRAMPTON",
        "streetNameDisplayText": "HAVENDALE CRT, BRAMPTON"
      }
    ]
  },
  {
    "postal": "L6S3H1",
    "result": [
      {
        "electoralDistricts": [
          {
            "election": null,
            "id": 10,
            "name": "Brampton North"
          }
        ],
        "pollDivisionIds": [
          10126630
        ],
        "postalCode": "L6S3H1",
        "streetName": "JADE",
        "streetDirectionId": null,
        "streetTypeId": "CRES",
        "placeName": "BRAMPTON",
        "streetNameDisplayText": "JADE CRES, BRAMPTON"
      }
    ]
  },
  {
    "postal": "L6S4Y1",
    "result": [
      {
        "electoralDistricts": [
          {
            "election": null,
            "id": 10,
            "name": "Brampton North"
          }
        ],
        "pollDivisionIds": [
          10137116
        ],
        "postalCode": "L6S4Y1",
        "streetName": "NEWGREEN",
        "streetDirectionId": null,
        "streetTypeId": "CRES",
        "placeName": "BRAMPTON",
        "streetNameDisplayText": "NEWGREEN CRES, BRAMPTON"
      }
    ]
  },
  {
    "postal": "L6S7E2",
    "result": []
  },
  {
    "postal": "L6S2P5",
    "result": []
  },
  {
    "postal": "L6S8R7",
    "result": []
  },
  {
    "postal": "L6S9P1",
    "result": []
  },
  {
    "postal": "L6S3B8",
    "result": [
      {
        "electoralDistricts": [
          {
            "election": null,
            "id": 10,
            "name": "Brampton North"
          }
        ],
        "pollDivisionIds": [
          10126628
        ],
        "postalCode": "L6S3B8",
        "streetName": "MAITLAND",
        "streetDirectionId": null,
        "streetTypeId": "ST",
        "placeName": "BRAMPTON",
        "streetNameDisplayText": "MAITLAND ST, BRAMPTON"
      }
    ]
  },
  {
    "postal": "L6S3P7",
    "result": [
      {
        "electoralDistricts": [
          {
            "election": null,
            "id": 10,
            "name": "Brampton North"
          }
        ],
        "pollDivisionIds": [
          10126628
        ],
        "postalCode": "L6S3P7",
        "streetName": "MCGILLIVARY",
        "streetDirectionId": null,
        "streetTypeId": "CRES",
        "placeName": "BRAMPTON",
        "streetNameDisplayText": "MCGILLIVARY CRES, BRAMPTON"
      }
    ]
  },
  {
    "postal": "L6S9B2",
    "result": []
  },
  {
    "postal": "L6S6Z3",
    "result": []
  },
  {
    "postal": "L6S4N5",
    "result": [
      {
        "electoralDistricts": [
          {
            "election": null,
            "id": 10,
            "name": "Brampton North"
          }
        ],
        "pollDivisionIds": [
          10137117
        ],
        "postalCode": "L6S4N5",
        "streetName": "NORTH PARK",
        "streetDirectionId": null,
        "streetTypeId": "DR",
        "placeName": "BRAMPTON",
        "streetNameDisplayText": "NORTH PARK DR, BRAMPTON"
      }
    ]
  },
  {
    "postal": "L6S8T3",
    "result": []
  },
  {
    "postal": "L6S1V2",
    "result": [
      {
        "electoralDistricts": [
          {
            "election": null,
            "id": 8,
            "name": "Brampton Centre"
          }
        ],
        "pollDivisionIds": [
          10137086
        ],
        "postalCode": "L6S1V2",
        "streetName": "GREENMOUNT",
        "streetDirectionId": null,
        "streetTypeId": "RD",
        "placeName": "BRAMPTON",
        "streetNameDisplayText": "GREENMOUNT RD, BRAMPTON"
      }
    ]
  },
  {
    "postal": "L6S1Y0",
    "result": []
  },
  {
    "postal": "L6S3G6",
    "result": [
      {
        "electoralDistricts": [
          {
            "election": null,
            "id": 10,
            "name": "Brampton North"
          }
        ],
        "pollDivisionIds": [
          10126630
        ],
        "postalCode": "L6S3G6",
        "streetName": "JAYFIELD",
        "streetDirectionId": null,
        "streetTypeId": "RD",
        "placeName": "BRAMPTON",
        "streetNameDisplayText": "JAYFIELD RD, BRAMPTON"
      }
    ]
  },
  {
    "postal": "L6S3H7",
    "result": [
      {
        "electoralDistricts": [
          {
            "election": null,
            "id": 10,
            "name": "Brampton North"
          }
        ],
        "pollDivisionIds": [
          10126630
        ],
        "postalCode": "L6S3H7",
        "streetName": "JELLICOE",
        "streetDirectionId": null,
        "streetTypeId": "CRES",
        "placeName": "BRAMPTON",
        "streetNameDisplayText": "JELLICOE CRES, BRAMPTON"
      }
    ]
  },
  {
    "postal": "L6S7X8",
    "result": []
  },
  {
    "postal": "L6S0C7",
    "result": [
      {
        "electoralDistricts": [
          {
            "election": null,
            "id": 8,
            "name": "Brampton Centre"
          }
        ],
        "pollDivisionIds": [
          10137074
        ],
        "postalCode": "L6S0C7",
        "streetName": "VODDEN",
        "streetDirectionId": "E",
        "streetTypeId": "ST",
        "placeName": "BRAMPTON",
        "streetNameDisplayText": "VODDEN ST E, BRAMPTON"
      }
    ]
  },
  {
    "postal": "L6S0W9",
    "result": []
  },
  {
    "postal": "L6S8E6",
    "result": []
  },
  {
    "postal": "L6S9Z8",
    "result": []
  },
  {
    "postal": "L6S3P4",
    "result": [
      {
        "electoralDistricts": [
          {
            "election": null,
            "id": 10,
            "name": "Brampton North"
          }
        ],
        "pollDivisionIds": [
          10126628
        ],
        "postalCode": "L6S3P4",
        "streetName": "MACDOUGALL",
        "streetDirectionId": null,
        "streetTypeId": "DR",
        "placeName": "BRAMPTON",
        "streetNameDisplayText": "MACDOUGALL DR, BRAMPTON"
      }
    ]
  },
  {
    "postal": "L6S6L8",
    "result": [
      {
        "electoralDistricts": [
          {
            "election": null,
            "id": 9,
            "name": "Brampton East"
          }
        ],
        "pollDivisionIds": [
          10111373
        ],
        "postalCode": "L6S6L8",
        "streetName": "EASTWAY",
        "streetDirectionId": null,
        "streetTypeId": "ST",
        "placeName": "BRAMPTON",
        "streetNameDisplayText": "EASTWAY ST, BRAMPTON"
      },
      {
        "electoralDistricts": [
          {
            "election": null,
            "id": 9,
            "name": "Brampton East"
          }
        ],
        "pollDivisionIds": [
          10111373
        ],
        "postalCode": "L6S6L8",
        "streetName": "RACCOON",
        "streetDirectionId": null,
        "streetTypeId": "ST",
        "placeName": "BRAMPTON",
        "streetNameDisplayText": "RACCOON ST, BRAMPTON"
      }
    ]
  },
  {
    "postal": "L6S2R4",
    "result": [
      {
        "electoralDistricts": [
          {
            "election": null,
            "id": 8,
            "name": "Brampton Centre"
          }
        ],
        "pollDivisionIds": [
          10137074
        ],
        "postalCode": "L6S2R4",
        "streetName": "LAURELCREST",
        "streetDirectionId": null,
        "streetTypeId": "ST",
        "placeName": "BRAMPTON",
        "streetNameDisplayText": "LAURELCREST ST, BRAMPTON"
      }
    ]
  },
  {
    "postal": "L6S2W1",
    "result": [
      {
        "electoralDistricts": [
          {
            "election": null,
            "id": 10,
            "name": "Brampton North"
          }
        ],
        "pollDivisionIds": [
          10126627
        ],
        "postalCode": "L6S2W1",
        "streetName": "MASSEY",
        "streetDirectionId": null,
        "streetTypeId": "ST",
        "placeName": "BRAMPTON",
        "streetNameDisplayText": "MASSEY ST, BRAMPTON"
      }
    ]
  },
  {
    "postal": "L6S9H8",
    "result": []
  },
  {
    "postal": "L6S8X9",
    "result": []
  },
  {
    "postal": "L6S7H4",
    "result": []
  },
  {
    "postal": "L6S3J1",
    "result": [
      {
        "electoralDistricts": [
          {
            "election": null,
            "id": 10,
            "name": "Brampton North"
          }
        ],
        "pollDivisionIds": [
          10126630
        ],
        "postalCode": "L6S3J1",
        "streetName": "JILL",
        "streetDirectionId": null,
        "streetTypeId": "CRES",
        "placeName": "BRAMPTON",
        "streetNameDisplayText": "JILL CRES, BRAMPTON"
      }
    ]
  },
  {
    "postal": "L6S1P4",
    "result": [
      {
        "electoralDistricts": [
          {
            "election": null,
            "id": 8,
            "name": "Brampton Centre"
          }
        ],
        "pollDivisionIds": [
          10137078
        ],
        "postalCode": "L6S1P4",
        "streetName": "HIGHLAND",
        "streetDirectionId": null,
        "streetTypeId": "TRAIL",
        "placeName": "BRAMPTON",
        "streetNameDisplayText": "HIGHLAND TRAIL, BRAMPTON"
      }
    ]
  },
  {
    "postal": "L6S2A3",
    "result": [
      {
        "electoralDistricts": [
          {
            "election": null,
            "id": 8,
            "name": "Brampton Centre"
          }
        ],
        "pollDivisionIds": [
          10137085
        ],
        "postalCode": "L6S2A3",
        "streetName": "GREENBRIAR",
        "streetDirectionId": null,
        "streetTypeId": "RD",
        "placeName": "BRAMPTON",
        "streetNameDisplayText": "GREENBRIAR RD, BRAMPTON"
      }
    ]
  },
  {
    "postal": "L6S0Z1",
    "result": []
  },
  {
    "postal": "L6S1C1",
    "result": [
      {
        "electoralDistricts": [
          {
            "election": null,
            "id": 8,
            "name": "Brampton Centre"
          }
        ],
        "pollDivisionIds": [
          10137084
        ],
        "postalCode": "L6S1C1",
        "streetName": "GABLE",
        "streetDirectionId": null,
        "streetTypeId": "PL",
        "placeName": "BRAMPTON",
        "streetNameDisplayText": "GABLE PL, BRAMPTON"
      }
    ]
  },
  {
    "postal": "L6S0H3",
    "result": []
  },
  {
    "postal": "L6S7B0",
    "result": []
  },
  {
    "postal": "L6S5K2",
    "result": [
      {
        "electoralDistricts": [
          {
            "election": null,
            "id": 8,
            "name": "Brampton Centre"
          }
        ],
        "pollDivisionIds": [
          10137086
        ],
        "postalCode": "L6S5K2",
        "streetName": "GRANBY",
        "streetDirectionId": null,
        "streetTypeId": "CRT",
        "placeName": "BRAMPTON",
        "streetNameDisplayText": "GRANBY CRT, BRAMPTON"
      },
      {
        "electoralDistricts": [
          {
            "election": null,
            "id": 8,
            "name": "Brampton Centre"
          }
        ],
        "pollDivisionIds": [
          10137086
        ],
        "postalCode": "L6S5K2",
        "streetName": "GREENDUST",
        "streetDirectionId": null,
        "streetTypeId": "CRT",
        "placeName": "BRAMPTON",
        "streetNameDisplayText": "GREENDUST CRT, BRAMPTON"
      }
    ]
  },
  {
    "postal": "L6S1E9",
    "result": [
      {
        "electoralDistricts": [
          {
            "election": null,
            "id": 8,
            "name": "Brampton Centre"
          }
        ],
        "pollDivisionIds": [
          10137086
        ],
        "postalCode": "L6S1E9",
        "streetName": "GLEBE",
        "streetDirectionId": null,
        "streetTypeId": "CRES",
        "placeName": "BRAMPTON",
        "streetNameDisplayText": "GLEBE CRES, BRAMPTON"
      }
    ]
  },
  {
    "postal": "L6S9W7",
    "result": []
  },
  {
    "postal": "L6S5W6",
    "result": [
      {
        "electoralDistricts": [
          {
            "election": null,
            "id": 9,
            "name": "Brampton East"
          }
        ],
        "pollDivisionIds": [
          10111373
        ],
        "postalCode": "L6S5W6",
        "streetName": "EDVAC",
        "streetDirectionId": null,
        "streetTypeId": "DR",
        "placeName": "BRAMPTON",
        "streetNameDisplayText": "EDVAC DR, BRAMPTON"
      }
    ]
  },
  {
    "postal": "L6S6S6",
    "result": []
  },
  {
    "postal": "L6S2P8",
    "result": [
      {
        "electoralDistricts": [
          {
            "election": null,
            "id": 8,
            "name": "Brampton Centre"
          }
        ],
        "pollDivisionIds": [
          10137074
        ],
        "postalCode": "L6S2P8",
        "streetName": "LAMBETH",
        "streetDirectionId": null,
        "streetTypeId": "ST",
        "placeName": "BRAMPTON",
        "streetNameDisplayText": "LAMBETH ST, BRAMPTON"
      }
    ]
  },
  {
    "postal": "L6S4P8",
    "result": [
      {
        "electoralDistricts": [
          {
            "election": null,
            "id": 10,
            "name": "Brampton North"
          }
        ],
        "pollDivisionIds": [
          10126629
        ],
        "postalCode": "L6S4P8",
        "streetName": "PROFESSOR'S LAKE",
        "streetDirectionId": null,
        "streetTypeId": "PKY",
        "placeName": "BRAMPTON",
        "streetNameDisplayText": "PROFESSOR'S LAKE PKY, BRAMPTON"
      }
    ]
  },
  {
    "postal": "L6S0V9",
    "result": []
  },
  {
    "postal": "L6S5Y2",
    "result": []
  },
  {
    "postal": "L6S7Z7",
    "result": []
  },
  {
    "postal": "L6S6Y8",
    "result": []
  },
  {
    "postal": "L6S2G7",
    "result": [
      {
        "electoralDistricts": [
          {
            "election": null,
            "id": 10,
            "name": "Brampton North"
          }
        ],
        "pollDivisionIds": [
          10126629
        ],
        "postalCode": "L6S2G7",
        "streetName": "JEFFERSON",
        "streetDirectionId": null,
        "streetTypeId": "RD",
        "placeName": "BRAMPTON",
        "streetNameDisplayText": "JEFFERSON RD, BRAMPTON"
      }
    ]
  },
  {
    "postal": "L6S8C1",
    "result": []
  },
  {
    "postal": "L6S5C5",
    "result": [
      {
        "electoralDistricts": [
          {
            "election": null,
            "id": 10,
            "name": "Brampton North"
          }
        ],
        "pollDivisionIds": [
          10126629
        ],
        "postalCode": "L6S5C5",
        "streetName": "PORTEOUS",
        "streetDirectionId": null,
        "streetTypeId": "CIR",
        "placeName": "BRAMPTON",
        "streetNameDisplayText": "PORTEOUS CIR, BRAMPTON"
      }
    ]
  },
  {
    "postal": "L6S2X8",
    "result": [
      {
        "electoralDistricts": [
          {
            "election": null,
            "id": 8,
            "name": "Brampton Centre"
          }
        ],
        "pollDivisionIds": [
          10137076
        ],
        "postalCode": "L6S2X8",
        "streetName": "MANSFIELD",
        "streetDirectionId": null,
        "streetTypeId": "ST",
        "placeName": "BRAMPTON",
        "streetNameDisplayText": "MANSFIELD ST, BRAMPTON"
      }
    ]
  },
  {
    "postal": "L6S1W5",
    "result": [
      {
        "electoralDistricts": [
          {
            "election": null,
            "id": 8,
            "name": "Brampton Centre"
          }
        ],
        "pollDivisionIds": [
          10137085
        ],
        "postalCode": "L6S1W5",
        "streetName": "GONDOLA",
        "streetDirectionId": null,
        "streetTypeId": "CRES",
        "placeName": "BRAMPTON",
        "streetNameDisplayText": "GONDOLA CRES, BRAMPTON"
      }
    ]
  },
  {
    "postal": "L6S7G0",
    "result": []
  },
  {
    "postal": "L6S8J8",
    "result": []
  },
  {
    "postal": "L6S3Y0",
    "result": []
  },
  {
    "postal": "L6S9T7",
    "result": []
  },
  {
    "postal": "L6S5P4",
    "result": [
      {
        "electoralDistricts": [
          {
            "election": null,
            "id": 9,
            "name": "Brampton East"
          }
        ],
        "pollDivisionIds": [
          10111373
        ],
        "postalCode": "L6S5P4",
        "streetName": "WILLIAMS",
        "streetDirectionId": null,
        "streetTypeId": "PKY",
        "placeName": "BRAMPTON",
        "streetNameDisplayText": "WILLIAMS PKY, BRAMPTON"
      }
    ]
  },
  {
    "postal": "L6S4B0",
    "result": []
  },
  {
    "postal": "L6S9N8",
    "result": []
  },
  {
    "postal": "L6S4A7",
    "result": [
      {
        "electoralDistricts": [
          {
            "election": null,
            "id": 10,
            "name": "Brampton North"
          }
        ],
        "pollDivisionIds": [
          10137117
        ],
        "postalCode": "L6S4A7",
        "streetName": "NUTMEG",
        "streetDirectionId": null,
        "streetTypeId": "ST",
        "placeName": "BRAMPTON",
        "streetNameDisplayText": "NUTMEG ST, BRAMPTON"
      }
    ]
  },
  {
    "postal": "L6S4H9",
    "result": [
      {
        "electoralDistricts": [
          {
            "election": null,
            "id": 8,
            "name": "Brampton Centre"
          }
        ],
        "pollDivisionIds": [
          10137097
        ],
        "postalCode": "L6S4H9",
        "streetName": "HANOVER",
        "streetDirectionId": null,
        "streetTypeId": "RD",
        "placeName": "BRAMPTON",
        "streetNameDisplayText": "HANOVER RD, BRAMPTON"
      }
    ]
  },
  {
    "postal": "L6S6X1",
    "result": []
  },
  {
    "postal": "L6S9Y7",
    "result": []
  },
  {
    "postal": "L6S2Y5",
    "result": [
      {
        "electoralDistricts": [
          {
            "election": null,
            "id": 8,
            "name": "Brampton Centre"
          }
        ],
        "pollDivisionIds": [
          10137076
        ],
        "postalCode": "L6S2Y5",
        "streetName": "MANSFIELD",
        "streetDirectionId": null,
        "streetTypeId": "ST",
        "placeName": "BRAMPTON",
        "streetNameDisplayText": "MANSFIELD ST, BRAMPTON"
      }
    ]
  },
  {
    "postal": "L6S8L7",
    "result": []
  },
  {
    "postal": "L6S2A8",
    "result": [
      {
        "electoralDistricts": [
          {
            "election": null,
            "id": 8,
            "name": "Brampton Centre"
          }
        ],
        "pollDivisionIds": [
          10137077
        ],
        "postalCode": "L6S2A8",
        "streetName": "HARDCASTLE",
        "streetDirectionId": null,
        "streetTypeId": "CRT",
        "placeName": "BRAMPTON",
        "streetNameDisplayText": "HARDCASTLE CRT, BRAMPTON"
      }
    ]
  },
  {
    "postal": "L6S2K9",
    "result": [
      {
        "electoralDistricts": [
          {
            "election": null,
            "id": 8,
            "name": "Brampton Centre"
          }
        ],
        "pollDivisionIds": [
          10137085
        ],
        "postalCode": "L6S2K9",
        "streetName": "GRAND VALLEY",
        "streetDirectionId": null,
        "streetTypeId": "DR",
        "placeName": "BRAMPTON",
        "streetNameDisplayText": "GRAND VALLEY DR, BRAMPTON"
      }
    ]
  },
  {
    "postal": "L6S3E5",
    "result": [
      {
        "electoralDistricts": [
          {
            "election": null,
            "id": 10,
            "name": "Brampton North"
          }
        ],
        "pollDivisionIds": [
          10126628
        ],
        "postalCode": "L6S3E5",
        "streetName": "MONTJOY",
        "streetDirectionId": null,
        "streetTypeId": "CRES",
        "placeName": "BRAMPTON",
        "streetNameDisplayText": "MONTJOY CRES, BRAMPTON"
      }
    ]
  },
  {
    "postal": "L6S8N6",
    "result": []
  },
  {
    "postal": "L6S8J4",
    "result": []
  },
  {
    "postal": "L6S4R7",
    "result": []
  },
  {
    "postal": "L6S9K1",
    "result": []
  },
  {
    "postal": "L6S8E1",
    "result": []
  },
  {
    "postal": "L6S0R1",
    "result": []
  },
  {
    "postal": "L6S4J3",
    "result": [
      {
        "electoralDistricts": [
          {
            "election": null,
            "id": 9,
            "name": "Brampton East"
          }
        ],
        "pollDivisionIds": [
          10111373
        ],
        "postalCode": "L6S4J3",
        "streetName": "AIRPORT",
        "streetDirectionId": null,
        "streetTypeId": "RD",
        "placeName": "BRAMPTON",
        "streetNameDisplayText": "AIRPORT RD, BRAMPTON"
      }
    ]
  },
  {
    "postal": "L6S7E7",
    "result": []
  },
  {
    "postal": "L6S0J0",
    "result": []
  },
  {
    "postal": "L6S7R8",
    "result": []
  },
  {
    "postal": "L6S9X0",
    "result": []
  },
  {
    "postal": "L6S7P6",
    "result": []
  },
  {
    "postal": "L6S0R7",
    "result": []
  },
  {
    "postal": "L6S5W1",
    "result": [
      {
        "electoralDistricts": [
          {
            "election": null,
            "id": 8,
            "name": "Brampton Centre"
          }
        ],
        "pollDivisionIds": [
          10137073
        ],
        "postalCode": "L6S5W1",
        "streetName": "LAIDLAW",
        "streetDirectionId": null,
        "streetTypeId": "AVE",
        "placeName": "BRAMPTON",
        "streetNameDisplayText": "LAIDLAW AVE, BRAMPTON"
      },
      {
        "electoralDistricts": [
          {
            "election": null,
            "id": 8,
            "name": "Brampton Centre"
          }
        ],
        "pollDivisionIds": [
          10137073
        ],
        "postalCode": "L6S5W1",
        "streetName": "LIGHTWOOD",
        "streetDirectionId": null,
        "streetTypeId": "PL",
        "placeName": "BRAMPTON",
        "streetNameDisplayText": "LIGHTWOOD PL, BRAMPTON"
      }
    ]
  },
  {
    "postal": "L6S0K4",
    "result": []
  },
  {
    "postal": "L6S7N9",
    "result": []
  },
  {
    "postal": "L6S1N0",
    "result": []
  },
  {
    "postal": "L6S6P3",
    "result": []
  },
  {
    "postal": "L6S5A1",
    "result": [
      {
        "electoralDistricts": [
          {
            "election": null,
            "id": 10,
            "name": "Brampton North"
          }
        ],
        "pollDivisionIds": [
          10137117
        ],
        "postalCode": "L6S5A1",
        "streetName": "NIPISSING",
        "streetDirectionId": null,
        "streetTypeId": "CRES",
        "placeName": "BRAMPTON",
        "streetNameDisplayText": "NIPISSING CRES, BRAMPTON"
      }
    ]
  },
  {
    "postal": "L6S9M9",
    "result": []
  },
  {
    "postal": "L6S7T6",
    "result": []
  },
  {
    "postal": "L6S3X0",
    "result": []
  },
  {
    "postal": "L6S2T0",
    "result": []
  },
  {
    "postal": "L6S5X9",
    "result": [
      {
        "electoralDistricts": [
          {
            "election": null,
            "id": 9,
            "name": "Brampton East"
          }
        ],
        "pollDivisionIds": [
          10111374
        ],
        "postalCode": "L6S5X9",
        "streetName": "QUEEN",
        "streetDirectionId": "E",
        "streetTypeId": "ST",
        "placeName": "BRAMPTON",
        "streetNameDisplayText": "QUEEN ST E, BRAMPTON"
      }
    ]
  },
  {
    "postal": "L6S2R3",
    "result": [
      {
        "electoralDistricts": [
          {
            "election": null,
            "id": 8,
            "name": "Brampton Centre"
          }
        ],
        "pollDivisionIds": [
          10137074
        ],
        "postalCode": "L6S2R3",
        "streetName": "LAURELCREST",
        "streetDirectionId": null,
        "streetTypeId": "ST",
        "placeName": "BRAMPTON",
        "streetNameDisplayText": "LAURELCREST ST, BRAMPTON"
      }
    ]
  },
  {
    "postal": "L6S5N2",
    "result": []
  },
  {
    "postal": "L6S4Y7",
    "result": [
      {
        "electoralDistricts": [
          {
            "election": null,
            "id": 10,
            "name": "Brampton North"
          }
        ],
        "pollDivisionIds": [
          10137116,
          10137117
        ],
        "postalCode": "L6S4Y7",
        "streetName": "NASMITH",
        "streetDirectionId": null,
        "streetTypeId": "ST",
        "placeName": "BRAMPTON",
        "streetNameDisplayText": "NASMITH ST, BRAMPTON"
      }
    ]
  },
  {
    "postal": "L6S7M0",
    "result": []
  },
  {
    "postal": "L6S8P3",
    "result": []
  },
  {
    "postal": "L6S3N3",
    "result": [
      {
        "electoralDistricts": [
          {
            "election": null,
            "id": 10,
            "name": "Brampton North"
          }
        ],
        "pollDivisionIds": [
          10126628
        ],
        "postalCode": "L6S3N3",
        "streetName": "MAYFAIR",
        "streetDirectionId": null,
        "streetTypeId": "CRES",
        "placeName": "BRAMPTON",
        "streetNameDisplayText": "MAYFAIR CRES, BRAMPTON"
      }
    ]
  },
  {
    "postal": "L6S7S3",
    "result": []
  },
  {
    "postal": "L6S3V9",
    "result": [
      {
        "electoralDistricts": [
          {
            "election": null,
            "id": 8,
            "name": "Brampton Centre"
          }
        ],
        "pollDivisionIds": [
          10137073
        ],
        "postalCode": "L6S3V9",
        "streetName": "LIBERATION",
        "streetDirectionId": null,
        "streetTypeId": "DR",
        "placeName": "BRAMPTON",
        "streetNameDisplayText": "LIBERATION DR, BRAMPTON"
      }
    ]
  },
  {
    "postal": "L6S9N7",
    "result": []
  },
  {
    "postal": "L6S0G4",
    "result": []
  },
  {
    "postal": "L6S2E2",
    "result": [
      {
        "electoralDistricts": [
          {
            "election": null,
            "id": 8,
            "name": "Brampton Centre"
          }
        ],
        "pollDivisionIds": [
          10137086
        ],
        "postalCode": "L6S2E2",
        "streetName": "GAILWOOD",
        "streetDirectionId": null,
        "streetTypeId": "CRT",
        "placeName": "BRAMPTON",
        "streetNameDisplayText": "GAILWOOD CRT, BRAMPTON"
      }
    ]
  },
  {
    "postal": "L6S7W8",
    "result": []
  },
  {
    "postal": "L6S7M5",
    "result": []
  },
  {
    "postal": "L6S5W8",
    "result": [
      {
        "electoralDistricts": [
          {
            "election": null,
            "id": 8,
            "name": "Brampton Centre"
          }
        ],
        "pollDivisionIds": [
          10137078
        ],
        "postalCode": "L6S5W8",
        "streetName": "HARTNELL",
        "streetDirectionId": null,
        "streetTypeId": "SQ",
        "placeName": "BRAMPTON",
        "streetNameDisplayText": "HARTNELL SQ, BRAMPTON"
      }
    ]
  },
  {
    "postal": "L6S5E5",
    "result": [
      {
        "electoralDistricts": [
          {
            "election": null,
            "id": 10,
            "name": "Brampton North"
          }
        ],
        "pollDivisionIds": [
          10126629
        ],
        "postalCode": "L6S5E5",
        "streetName": "PELICAN",
        "streetDirectionId": null,
        "streetTypeId": "WOOD",
        "placeName": "BRAMPTON",
        "streetNameDisplayText": "PELICAN WOOD, BRAMPTON"
      },
      {
        "electoralDistricts": [
          {
            "election": null,
            "id": 10,
            "name": "Brampton North"
          }
        ],
        "pollDivisionIds": [
          10126629
        ],
        "postalCode": "L6S5E5",
        "streetName": "PETAL",
        "streetDirectionId": null,
        "streetTypeId": "PT",
        "placeName": "BRAMPTON",
        "streetNameDisplayText": "PETAL PT, BRAMPTON"
      }
    ]
  },
  {
    "postal": "L6S1P9",
    "result": [
      {
        "electoralDistricts": [
          {
            "election": null,
            "id": 8,
            "name": "Brampton Centre"
          }
        ],
        "pollDivisionIds": [
          10137077
        ],
        "postalCode": "L6S1P9",
        "streetName": "HILLGATE",
        "streetDirectionId": null,
        "streetTypeId": "DR",
        "placeName": "BRAMPTON",
        "streetNameDisplayText": "HILLGATE DR, BRAMPTON"
      }
    ]
  },
  {
    "postal": "L6S8V8",
    "result": []
  },
  {
    "postal": "L6S9G8",
    "result": []
  },
  {
    "postal": "L6S8H9",
    "result": []
  },
  {
    "postal": "L6S1Z1",
    "result": [
      {
        "electoralDistricts": [
          {
            "election": null,
            "id": 8,
            "name": "Brampton Centre"
          }
        ],
        "pollDivisionIds": [
          10137085
        ],
        "postalCode": "L6S1Z1",
        "streetName": "GATEWOOD",
        "streetDirectionId": null,
        "streetTypeId": "DR",
        "placeName": "BRAMPTON",
        "streetNameDisplayText": "GATEWOOD DR, BRAMPTON"
      }
    ]
  },
  {
    "postal": "L6S8M3",
    "result": []
  },
  {
    "postal": "L6S5H6",
    "result": [
      {
        "electoralDistricts": [
          {
            "election": null,
            "id": 8,
            "name": "Brampton Centre"
          }
        ],
        "pollDivisionIds": [
          10137078
        ],
        "postalCode": "L6S5H6",
        "streetName": "HORTON",
        "streetDirectionId": null,
        "streetTypeId": "CRES",
        "placeName": "BRAMPTON",
        "streetNameDisplayText": "HORTON CRES, BRAMPTON"
      }
    ]
  },
  {
    "postal": "L6S7W7",
    "result": []
  },
  {
    "postal": "L6S4L0",
    "result": []
  },
  {
    "postal": "L6S2N1",
    "result": [
      {
        "electoralDistricts": [
          {
            "election": null,
            "id": 10,
            "name": "Brampton North"
          }
        ],
        "pollDivisionIds": [
          10126630
        ],
        "postalCode": "L6S2N1",
        "streetName": "JASMINE",
        "streetDirectionId": null,
        "streetTypeId": "SQ",
        "placeName": "BRAMPTON",
        "streetNameDisplayText": "JASMINE SQ, BRAMPTON"
      }
    ]
  },
  {
    "postal": "L6S2H4",
    "result": [
      {
        "electoralDistricts": [
          {
            "election": null,
            "id": 8,
            "name": "Brampton Centre"
          }
        ],
        "pollDivisionIds": [
          10137085
        ],
        "postalCode": "L6S2H4",
        "streetName": "GATSBY",
        "streetDirectionId": null,
        "streetTypeId": "SQ",
        "placeName": "BRAMPTON",
        "streetNameDisplayText": "GATSBY SQ, BRAMPTON"
      }
    ]
  },
  {
    "postal": "L6S5C8",
    "result": [
      {
        "electoralDistricts": [
          {
            "election": null,
            "id": 10,
            "name": "Brampton North"
          }
        ],
        "pollDivisionIds": [
          10126629
        ],
        "postalCode": "L6S5C8",
        "streetName": "PARADISE",
        "streetDirectionId": null,
        "streetTypeId": "GDNS",
        "placeName": "BRAMPTON",
        "streetNameDisplayText": "PARADISE GDNS, BRAMPTON"
      },
      {
        "electoralDistricts": [
          {
            "election": null,
            "id": 10,
            "name": "Brampton North"
          }
        ],
        "pollDivisionIds": [
          10126629
        ],
        "postalCode": "L6S5C8",
        "streetName": "PHILOSOPHERS",
        "streetDirectionId": null,
        "streetTypeId": "TRAIL",
        "placeName": "BRAMPTON",
        "streetNameDisplayText": "PHILOSOPHERS TRAIL, BRAMPTON"
      }
    ]
  },
  {
    "postal": "L6S8B0",
    "result": []
  },
  {
    "postal": "L6S1T4",
    "result": [
      {
        "electoralDistricts": [
          {
            "election": null,
            "id": 8,
            "name": "Brampton Centre"
          }
        ],
        "pollDivisionIds": [
          10137086
        ],
        "postalCode": "L6S1T4",
        "streetName": "GRENADIER",
        "streetDirectionId": null,
        "streetTypeId": "RD",
        "placeName": "BRAMPTON",
        "streetNameDisplayText": "GRENADIER RD, BRAMPTON"
      }
    ]
  },
  {
    "postal": "L6S7N7",
    "result": []
  },
  {
    "postal": "L6S4L3",
    "result": []
  },
  {
    "postal": "L6S2N2",
    "result": [
      {
        "electoralDistricts": [
          {
            "election": null,
            "id": 10,
            "name": "Brampton North"
          }
        ],
        "pollDivisionIds": [
          10126630
        ],
        "postalCode": "L6S2N2",
        "streetName": "JENSEN",
        "streetDirectionId": null,
        "streetTypeId": "SQ",
        "placeName": "BRAMPTON",
        "streetNameDisplayText": "JENSEN SQ, BRAMPTON"
      }
    ]
  },
  {
    "postal": "L6S4N8",
    "result": []
  },
  {
    "postal": "L6S3M5",
    "result": [
      {
        "electoralDistricts": [
          {
            "election": null,
            "id": 8,
            "name": "Brampton Centre"
          }
        ],
        "pollDivisionIds": [
          10137073
        ],
        "postalCode": "L6S3M5",
        "streetName": "LEANDER",
        "streetDirectionId": null,
        "streetTypeId": "ST",
        "placeName": "BRAMPTON",
        "streetNameDisplayText": "LEANDER ST, BRAMPTON"
      }
    ]
  },
  {
    "postal": "L6S6H7",
    "result": [
      {
        "electoralDistricts": [
          {
            "election": null,
            "id": 9,
            "name": "Brampton East"
          }
        ],
        "pollDivisionIds": [
          10111374
        ],
        "postalCode": "L6S6H7",
        "streetName": "SAFFRON",
        "streetDirectionId": null,
        "streetTypeId": "CRES",
        "placeName": "BRAMPTON",
        "streetNameDisplayText": "SAFFRON CRES, BRAMPTON"
      }
    ]
  },
  {
    "postal": "L6S8Y8",
    "result": []
  },
  {
    "postal": "L6S5R9",
    "result": [
      {
        "electoralDistricts": [
          {
            "election": null,
            "id": 10,
            "name": "Brampton North"
          }
        ],
        "pollDivisionIds": [
          10126629
        ],
        "postalCode": "L6S5R9",
        "streetName": "PLEASANT VALLEY",
        "streetDirectionId": null,
        "streetTypeId": "PL",
        "placeName": "BRAMPTON",
        "streetNameDisplayText": "PLEASANT VALLEY PL, BRAMPTON"
      }
    ]
  },
  {
    "postal": "L6S8G3",
    "result": []
  },
  {
    "postal": "L6S4N7",
    "result": []
  },
  {
    "postal": "L6S0B9",
    "result": [
      {
        "electoralDistricts": [
          {
            "election": null,
            "id": 10,
            "name": "Brampton North"
          }
        ],
        "pollDivisionIds": [
          10137116
        ],
        "postalCode": "L6S0B9",
        "streetName": "NEW HAMPSHIRE",
        "streetDirectionId": null,
        "streetTypeId": "CRT",
        "placeName": "BRAMPTON",
        "streetNameDisplayText": "NEW HAMPSHIRE CRT, BRAMPTON"
      }
    ]
  },
  {
    "postal": "L6S9K7",
    "result": []
  },
  {
    "postal": "L6S9K9",
    "result": []
  },
  {
    "postal": "L6S3Z2",
    "result": [
      {
        "electoralDistricts": [
          {
            "election": null,
            "id": 10,
            "name": "Brampton North"
          }
        ],
        "pollDivisionIds": [
          10137116
        ],
        "postalCode": "L6S3Z2",
        "streetName": "NORTHAMPTON",
        "streetDirectionId": null,
        "streetTypeId": "ST",
        "placeName": "BRAMPTON",
        "streetNameDisplayText": "NORTHAMPTON ST, BRAMPTON"
      }
    ]
  },
  {
    "postal": "L6S6W7",
    "result": []
  },
  {
    "postal": "L6S0P1",
    "result": []
  },
  {
    "postal": "L6S3A0",
    "result": []
  },
  {
    "postal": "L6S8L9",
    "result": []
  },
  {
    "postal": "L6S6X0",
    "result": []
  },
  {
    "postal": "L6S3E9",
    "result": [
      {
        "electoralDistricts": [
          {
            "election": null,
            "id": 10,
            "name": "Brampton North"
          }
        ],
        "pollDivisionIds": [
          10126628
        ],
        "postalCode": "L6S3E9",
        "streetName": "MARMORA",
        "streetDirectionId": null,
        "streetTypeId": "PL",
        "placeName": "BRAMPTON",
        "streetNameDisplayText": "MARMORA PL, BRAMPTON"
      }
    ]
  },
  {
    "postal": "L6S0S5",
    "result": []
  },
  {
    "postal": "L6S1A2",
    "result": [
      {
        "electoralDistricts": [
          {
            "election": null,
            "id": 8,
            "name": "Brampton Centre"
          }
        ],
        "pollDivisionIds": [
          10137074
        ],
        "postalCode": "L6S1A2",
        "streetName": "HILLSIDE",
        "streetDirectionId": null,
        "streetTypeId": "DR",
        "placeName": "BRAMPTON",
        "streetNameDisplayText": "HILLSIDE DR, BRAMPTON"
      }
    ]
  },
  {
    "postal": "L6S5V8",
    "result": [
      {
        "electoralDistricts": [
          {
            "election": null,
            "id": 8,
            "name": "Brampton Centre"
          }
        ],
        "pollDivisionIds": [
          10137073
        ],
        "postalCode": "L6S5V8",
        "streetName": "LEEWARD",
        "streetDirectionId": null,
        "streetTypeId": "DR",
        "placeName": "BRAMPTON",
        "streetNameDisplayText": "LEEWARD DR, BRAMPTON"
      }
    ]
  },
  {
    "postal": "L6S8C5",
    "result": []
  },
  {
    "postal": "L6S6N0",
    "result": []
  },
  {
    "postal": "L6S9E6",
    "result": []
  },
  {
    "postal": "L6S5J7",
    "result": [
      {
        "electoralDistricts": [
          {
            "election": null,
            "id": 8,
            "name": "Brampton Centre"
          }
        ],
        "pollDivisionIds": [
          10137084
        ],
        "postalCode": "L6S5J7",
        "streetName": "GRAHAM",
        "streetDirectionId": null,
        "streetTypeId": "CRES",
        "placeName": "BRAMPTON",
        "streetNameDisplayText": "GRAHAM CRES, BRAMPTON"
      }
    ]
  },
  {
    "postal": "L6S2R2",
    "result": [
      {
        "electoralDistricts": [
          {
            "election": null,
            "id": 8,
            "name": "Brampton Centre"
          }
        ],
        "pollDivisionIds": [
          10137074
        ],
        "postalCode": "L6S2R2",
        "streetName": "LANCEFIELD",
        "streetDirectionId": null,
        "streetTypeId": "CRES",
        "placeName": "BRAMPTON",
        "streetNameDisplayText": "LANCEFIELD CRES, BRAMPTON"
      }
    ]
  },
  {
    "postal": "L6S0P5",
    "result": []
  },
  {
    "postal": "L6S5A7",
    "result": [
      {
        "electoralDistricts": [
          {
            "election": null,
            "id": 10,
            "name": "Brampton North"
          }
        ],
        "pollDivisionIds": [
          10137117
        ],
        "postalCode": "L6S5A7",
        "streetName": "NIPISSING",
        "streetDirectionId": null,
        "streetTypeId": "CRES",
        "placeName": "BRAMPTON",
        "streetNameDisplayText": "NIPISSING CRES, BRAMPTON"
      }
    ]
  },
  {
    "postal": "L6S1G1",
    "result": [
      {
        "electoralDistricts": [
          {
            "election": null,
            "id": 8,
            "name": "Brampton Centre"
          }
        ],
        "pollDivisionIds": [
          10137086
        ],
        "postalCode": "L6S1G1",
        "streetName": "GLEBE",
        "streetDirectionId": null,
        "streetTypeId": "CRES",
        "placeName": "BRAMPTON",
        "streetNameDisplayText": "GLEBE CRES, BRAMPTON"
      }
    ]
  },
  {
    "postal": "L6S9R6",
    "result": []
  },
  {
    "postal": "L6S4Z9",
    "result": [
      {
        "electoralDistricts": [
          {
            "election": null,
            "id": 10,
            "name": "Brampton North"
          }
        ],
        "pollDivisionIds": [
          10137117
        ],
        "postalCode": "L6S4Z9",
        "streetName": "NIPISSING",
        "streetDirectionId": null,
        "streetTypeId": "CRES",
        "placeName": "BRAMPTON",
        "streetNameDisplayText": "NIPISSING CRES, BRAMPTON"
      }
    ]
  },
  {
    "postal": "L6S1V5",
    "result": [
      {
        "electoralDistricts": [
          {
            "election": null,
            "id": 8,
            "name": "Brampton Centre"
          }
        ],
        "pollDivisionIds": [
          10137085
        ],
        "postalCode": "L6S1V5",
        "streetName": "GREENBRIAR",
        "streetDirectionId": null,
        "streetTypeId": "RD",
        "placeName": "BRAMPTON",
        "streetNameDisplayText": "GREENBRIAR RD, BRAMPTON"
      }
    ]
  },
  {
    "postal": "L6S9Y5",
    "result": []
  },
  {
    "postal": "L6S1P2",
    "result": [
      {
        "electoralDistricts": [
          {
            "election": null,
            "id": 8,
            "name": "Brampton Centre"
          }
        ],
        "pollDivisionIds": [
          10137078
        ],
        "postalCode": "L6S1P2",
        "streetName": "HEDGESON",
        "streetDirectionId": null,
        "streetTypeId": "CRT",
        "placeName": "BRAMPTON",
        "streetNameDisplayText": "HEDGESON CRT, BRAMPTON"
      }
    ]
  },
  {
    "postal": "L6S5X0",
    "result": []
  },
  {
    "postal": "L6S7B8",
    "result": []
  },
  {
    "postal": "L6S0C6",
    "result": [
      {
        "electoralDistricts": [
          {
            "election": null,
            "id": 12,
            "name": "Brampton West"
          }
        ],
        "pollDivisionIds": [
          10137175
        ],
        "postalCode": "L6S0C6",
        "streetName": "BOVAIRD",
        "streetDirectionId": "W",
        "streetTypeId": "DR",
        "placeName": "BRAMPTON",
        "streetNameDisplayText": "BOVAIRD DR W, BRAMPTON"
      }
    ]
  },
  {
    "postal": "L6S6G1",
    "result": []
  },
  {
    "postal": "L6S3K3",
    "result": [
      {
        "electoralDistricts": [
          {
            "election": null,
            "id": 8,
            "name": "Brampton Centre"
          }
        ],
        "pollDivisionIds": [
          10137073,
          10137070
        ],
        "postalCode": "L6S3K3",
        "streetName": "LACEWOOD",
        "streetDirectionId": null,
        "streetTypeId": "CRES",
        "placeName": "BRAMPTON",
        "streetNameDisplayText": "LACEWOOD CRES, BRAMPTON"
      }
    ]
  },
  {
    "postal": "L6S9R0",
    "result": []
  },
  {
    "postal": "L6S4R8",
    "result": []
  },
  {
    "postal": "L6S5P9",
    "result": [
      {
        "electoralDistricts": [
          {
            "election": null,
            "id": 8,
            "name": "Brampton Centre"
          }
        ],
        "pollDivisionIds": [
          10137078
        ],
        "postalCode": "L6S5P9",
        "streetName": "HEATHCLIFFE",
        "streetDirectionId": null,
        "streetTypeId": "SQ",
        "placeName": "BRAMPTON",
        "streetNameDisplayText": "HEATHCLIFFE SQ, BRAMPTON"
      }
    ]
  },
  {
    "postal": "L6S8N4",
    "result": []
  },
  {
    "postal": "L6S8H4",
    "result": []
  },
  {
    "postal": "L6S4V1",
    "result": [
      {
        "electoralDistricts": [
          {
            "election": null,
            "id": 10,
            "name": "Brampton North"
          }
        ],
        "pollDivisionIds": [
          10137116
        ],
        "postalCode": "L6S4V1",
        "streetName": "NUTTALL",
        "streetDirectionId": null,
        "streetTypeId": "ST",
        "placeName": "BRAMPTON",
        "streetNameDisplayText": "NUTTALL ST, BRAMPTON"
      }
    ]
  },
  {
    "postal": "L6S1K5",
    "result": [
      {
        "electoralDistricts": [
          {
            "election": null,
            "id": 8,
            "name": "Brampton Centre"
          }
        ],
        "pollDivisionIds": [
          10137084
        ],
        "postalCode": "L6S1K5",
        "streetName": "GLENFOREST",
        "streetDirectionId": null,
        "streetTypeId": "RD",
        "placeName": "BRAMPTON",
        "streetNameDisplayText": "GLENFOREST RD, BRAMPTON"
      }
    ]
  },
  {
    "postal": "L6S1Z5",
    "result": [
      {
        "electoralDistricts": [
          {
            "election": null,
            "id": 8,
            "name": "Brampton Centre"
          }
        ],
        "pollDivisionIds": [
          10137085
        ],
        "postalCode": "L6S1Z5",
        "streetName": "GRASSINGTON",
        "streetDirectionId": null,
        "streetTypeId": "CRES",
        "placeName": "BRAMPTON",
        "streetNameDisplayText": "GRASSINGTON CRES, BRAMPTON"
      }
    ]
  },
  {
    "postal": "L6S9L9",
    "result": []
  },
  {
    "postal": "L6S5L2",
    "result": [
      {
        "electoralDistricts": [
          {
            "election": null,
            "id": 10,
            "name": "Brampton North"
          }
        ],
        "pollDivisionIds": [
          10137117
        ],
        "postalCode": "L6S5L2",
        "streetName": "NEVILLE",
        "streetDirectionId": null,
        "streetTypeId": "CRES",
        "placeName": "BRAMPTON",
        "streetNameDisplayText": "NEVILLE CRES, BRAMPTON"
      }
    ]
  },
  {
    "postal": "L6S0M2",
    "result": []
  },
  {
    "postal": "L6S1K8",
    "result": [
      {
        "electoralDistricts": [
          {
            "election": null,
            "id": 8,
            "name": "Brampton Centre"
          }
        ],
        "pollDivisionIds": [
          10137086
        ],
        "postalCode": "L6S1K8",
        "streetName": "GENEVA",
        "streetDirectionId": null,
        "streetTypeId": "CRES",
        "placeName": "BRAMPTON",
        "streetNameDisplayText": "GENEVA CRES, BRAMPTON"
      }
    ]
  },
  {
    "postal": "L6S3M7",
    "result": [
      {
        "electoralDistricts": [
          {
            "election": null,
            "id": 8,
            "name": "Brampton Centre"
          }
        ],
        "pollDivisionIds": [
          10137073
        ],
        "postalCode": "L6S3M7",
        "streetName": "LEANDER",
        "streetDirectionId": null,
        "streetTypeId": "ST",
        "placeName": "BRAMPTON",
        "streetNameDisplayText": "LEANDER ST, BRAMPTON"
      }
    ]
  },
  {
    "postal": "L6S1B2",
    "result": [
      {
        "electoralDistricts": [
          {
            "election": null,
            "id": 8,
            "name": "Brampton Centre"
          }
        ],
        "pollDivisionIds": [
          10137074
        ],
        "postalCode": "L6S1B2",
        "streetName": "HAZELWOOD",
        "streetDirectionId": null,
        "streetTypeId": "DR",
        "placeName": "BRAMPTON",
        "streetNameDisplayText": "HAZELWOOD DR, BRAMPTON"
      }
    ]
  },
  {
    "postal": "L6S0H9",
    "result": []
  },
  {
    "postal": "L6S8M4",
    "result": []
  },
  {
    "postal": "L6S2M5",
    "result": [
      {
        "electoralDistricts": [
          {
            "election": null,
            "id": 10,
            "name": "Brampton North"
          }
        ],
        "pollDivisionIds": [
          10126630
        ],
        "postalCode": "L6S2M5",
        "streetName": "JACOBS",
        "streetDirectionId": null,
        "streetTypeId": "SQ",
        "placeName": "BRAMPTON",
        "streetNameDisplayText": "JACOBS SQ, BRAMPTON"
      }
    ]
  },
  {
    "postal": "L6S0T9",
    "result": []
  },
  {
    "postal": "L6S3P1",
    "result": []
  },
  {
    "postal": "L6S1R6",
    "result": [
      {
        "electoralDistricts": [
          {
            "election": null,
            "id": 8,
            "name": "Brampton Centre"
          }
        ],
        "pollDivisionIds": [
          10137078
        ],
        "postalCode": "L6S1R6",
        "streetName": "HOLMCREST",
        "streetDirectionId": null,
        "streetTypeId": "CRT",
        "placeName": "BRAMPTON",
        "streetNameDisplayText": "HOLMCREST CRT, BRAMPTON"
      }
    ]
  },
  {
    "postal": "L6S9V5",
    "result": []
  },
  {
    "postal": "L6S9T0",
    "result": []
  },
  {
    "postal": "L6S0A9",
    "result": [
      {
        "electoralDistricts": [
          {
            "election": null,
            "id": 9,
            "name": "Brampton East"
          }
        ],
        "pollDivisionIds": [
          10111373
        ],
        "postalCode": "L6S0A9",
        "streetName": "DWYER",
        "streetDirectionId": null,
        "streetTypeId": "DR",
        "placeName": "BRAMPTON",
        "streetNameDisplayText": "DWYER DR, BRAMPTON"
      },
      {
        "electoralDistricts": [
          {
            "election": null,
            "id": 9,
            "name": "Brampton East"
          }
        ],
        "pollDivisionIds": [
          10111373
        ],
        "postalCode": "L6S0A9",
        "streetName": "JINGLE",
        "streetDirectionId": null,
        "streetTypeId": "CRES",
        "placeName": "BRAMPTON",
        "streetNameDisplayText": "JINGLE CRES, BRAMPTON"
      },
      {
        "electoralDistricts": [
          {
            "election": null,
            "id": 9,
            "name": "Brampton East"
          }
        ],
        "pollDivisionIds": [
          10111373
        ],
        "postalCode": "L6S0A9",
        "streetName": "TRIPLE CROWN",
        "streetDirectionId": null,
        "streetTypeId": "DR",
        "placeName": "BRAMPTON",
        "streetNameDisplayText": "TRIPLE CROWN DR, BRAMPTON"
      }
    ]
  },
  {
    "postal": "L6S1M3",
    "result": [
      {
        "electoralDistricts": [
          {
            "election": null,
            "id": 8,
            "name": "Brampton Centre"
          }
        ],
        "pollDivisionIds": [
          10137084
        ],
        "postalCode": "L6S1M3",
        "streetName": "GRISELDA",
        "streetDirectionId": null,
        "streetTypeId": "CRES",
        "placeName": "BRAMPTON",
        "streetNameDisplayText": "GRISELDA CRES, BRAMPTON"
      }
    ]
  },
  {
    "postal": "L6S1W8",
    "result": [
      {
        "electoralDistricts": [
          {
            "election": null,
            "id": 10,
            "name": "Brampton North"
          }
        ],
        "pollDivisionIds": [
          10126630
        ],
        "postalCode": "L6S1W8",
        "streetName": "JASPER",
        "streetDirectionId": null,
        "streetTypeId": "CRES",
        "placeName": "BRAMPTON",
        "streetNameDisplayText": "JASPER CRES, BRAMPTON"
      }
    ]
  },
  {
    "postal": "L6S9J1",
    "result": []
  },
  {
    "postal": "L6S8N5",
    "result": []
  },
  {
    "postal": "L6S5X1",
    "result": [
      {
        "electoralDistricts": [
          {
            "election": null,
            "id": 10,
            "name": "Brampton North"
          }
        ],
        "pollDivisionIds": [
          10137116
        ],
        "postalCode": "L6S5X1",
        "streetName": "NOVELLA",
        "streetDirectionId": null,
        "streetTypeId": "PL",
        "placeName": "BRAMPTON",
        "streetNameDisplayText": "NOVELLA PL, BRAMPTON"
      },
      {
        "electoralDistricts": [
          {
            "election": null,
            "id": 10,
            "name": "Brampton North"
          }
        ],
        "pollDivisionIds": [
          10137116
        ],
        "postalCode": "L6S5X1",
        "streetName": "NUFFIELD",
        "streetDirectionId": null,
        "streetTypeId": "ST",
        "placeName": "BRAMPTON",
        "streetNameDisplayText": "NUFFIELD ST, BRAMPTON"
      }
    ]
  },
  {
    "postal": "L6S6S2",
    "result": []
  },
  {
    "postal": "L6S2A2",
    "result": [
      {
        "electoralDistricts": [
          {
            "election": null,
            "id": 8,
            "name": "Brampton Centre"
          }
        ],
        "pollDivisionIds": [
          10137085
        ],
        "postalCode": "L6S2A2",
        "streetName": "GREENBRIAR",
        "streetDirectionId": null,
        "streetTypeId": "RD",
        "placeName": "BRAMPTON",
        "streetNameDisplayText": "GREENBRIAR RD, BRAMPTON"
      }
    ]
  },
  {
    "postal": "L6S6A6",
    "result": [
      {
        "electoralDistricts": [
          {
            "election": null,
            "id": 9,
            "name": "Brampton East"
          }
        ],
        "pollDivisionIds": [
          10111374
        ],
        "postalCode": "L6S6A6",
        "streetName": "TORBRAM",
        "streetDirectionId": null,
        "streetTypeId": "RD",
        "placeName": "BRAMPTON",
        "streetNameDisplayText": "TORBRAM RD, BRAMPTON"
      }
    ]
  },
  {
    "postal": "L6S0S3",
    "result": []
  },
  {
    "postal": "L6S3E7",
    "result": [
      {
        "electoralDistricts": [
          {
            "election": null,
            "id": 10,
            "name": "Brampton North"
          }
        ],
        "pollDivisionIds": [
          10126628
        ],
        "postalCode": "L6S3E7",
        "streetName": "MONTJOY",
        "streetDirectionId": null,
        "streetTypeId": "CRES",
        "placeName": "BRAMPTON",
        "streetNameDisplayText": "MONTJOY CRES, BRAMPTON"
      }
    ]
  },
  {
    "postal": "L6S5R7",
    "result": [
      {
        "electoralDistricts": [
          {
            "election": null,
            "id": 9,
            "name": "Brampton East"
          }
        ],
        "pollDivisionIds": [
          10111374
        ],
        "postalCode": "L6S5R7",
        "streetName": "WILLIAMS",
        "streetDirectionId": null,
        "streetTypeId": "PKY",
        "placeName": "BRAMPTON",
        "streetNameDisplayText": "WILLIAMS PKY, BRAMPTON"
      }
    ]
  },
  {
    "postal": "L6S3R6",
    "result": [
      {
        "electoralDistricts": [
          {
            "election": null,
            "id": 10,
            "name": "Brampton North"
          }
        ],
        "pollDivisionIds": [
          10126628
        ],
        "postalCode": "L6S3R6",
        "streetName": "MIKADO",
        "streetDirectionId": null,
        "streetTypeId": "CRES",
        "placeName": "BRAMPTON",
        "streetNameDisplayText": "MIKADO CRES, BRAMPTON"
      }
    ]
  },
  {
    "postal": "L6S6K4",
    "result": [
      {
        "electoralDistricts": [
          {
            "election": null,
            "id": 9,
            "name": "Brampton East"
          }
        ],
        "pollDivisionIds": [
          10111374
        ],
        "postalCode": "L6S6K4",
        "streetName": "FOUNTAINVIEW",
        "streetDirectionId": null,
        "streetTypeId": "WAY",
        "placeName": "BRAMPTON",
        "streetNameDisplayText": "FOUNTAINVIEW WAY, BRAMPTON"
      }
    ]
  },
  {
    "postal": "L6S2W5",
    "result": [
      {
        "electoralDistricts": [
          {
            "election": null,
            "id": 10,
            "name": "Brampton North"
          }
        ],
        "pollDivisionIds": [
          10126627
        ],
        "postalCode": "L6S2W5",
        "streetName": "MASSEY",
        "streetDirectionId": null,
        "streetTypeId": "ST",
        "placeName": "BRAMPTON",
        "streetNameDisplayText": "MASSEY ST, BRAMPTON"
      }
    ]
  },
  {
    "postal": "L6S8W4",
    "result": []
  },
  {
    "postal": "L6S9C2",
    "result": []
  },
  {
    "postal": "L6S2C0",
    "result": []
  },
  {
    "postal": "L6S0E1",
    "result": [
      {
        "electoralDistricts": [
          {
            "election": null,
            "id": 9,
            "name": "Brampton East"
          }
        ],
        "pollDivisionIds": [
          10111373
        ],
        "postalCode": "L6S0E1",
        "streetName": "COTTRELLE",
        "streetDirectionId": null,
        "streetTypeId": "BLVD",
        "placeName": "BRAMPTON",
        "streetNameDisplayText": "COTTRELLE BLVD, BRAMPTON"
      }
    ]
  },
  {
    "postal": "L6S1K9",
    "result": [
      {
        "electoralDistricts": [
          {
            "election": null,
            "id": 8,
            "name": "Brampton Centre"
          }
        ],
        "pollDivisionIds": [
          10137086
        ],
        "postalCode": "L6S1K9",
        "streetName": "GENEVA",
        "streetDirectionId": null,
        "streetTypeId": "CRES",
        "placeName": "BRAMPTON",
        "streetNameDisplayText": "GENEVA CRES, BRAMPTON"
      }
    ]
  },
  {
    "postal": "L6S1G7",
    "result": [
      {
        "electoralDistricts": [
          {
            "election": null,
            "id": 8,
            "name": "Brampton Centre"
          }
        ],
        "pollDivisionIds": [
          10137084
        ],
        "postalCode": "L6S1G7",
        "streetName": "GOLDCREST",
        "streetDirectionId": null,
        "streetTypeId": "RD",
        "placeName": "BRAMPTON",
        "streetNameDisplayText": "GOLDCREST RD, BRAMPTON"
      }
    ]
  },
  {
    "postal": "L6S4E9",
    "result": [
      {
        "electoralDistricts": [
          {
            "election": null,
            "id": 10,
            "name": "Brampton North"
          }
        ],
        "pollDivisionIds": [
          10126629
        ],
        "postalCode": "L6S4E9",
        "streetName": "PEBBLE BEACH",
        "streetDirectionId": null,
        "streetTypeId": "CRT",
        "placeName": "BRAMPTON",
        "streetNameDisplayText": "PEBBLE BEACH CRT, BRAMPTON"
      }
    ]
  },
  {
    "postal": "L6S9P0",
    "result": []
  },
  {
    "postal": "L6S5H3",
    "result": [
      {
        "electoralDistricts": [
          {
            "election": null,
            "id": 8,
            "name": "Brampton Centre"
          }
        ],
        "pollDivisionIds": [
          10137073
        ],
        "postalCode": "L6S5H3",
        "streetName": "LORD SIMCOE",
        "streetDirectionId": null,
        "streetTypeId": "DR",
        "placeName": "BRAMPTON",
        "streetNameDisplayText": "LORD SIMCOE DR, BRAMPTON"
      }
    ]
  },
  {
    "postal": "L6S9X6",
    "result": []
  },
  {
    "postal": "L6S5N7",
    "result": [
      {
        "electoralDistricts": [
          {
            "election": null,
            "id": 9,
            "name": "Brampton East"
          }
        ],
        "pollDivisionIds": [
          10111373
        ],
        "postalCode": "L6S5N7",
        "streetName": "AUTOMATIC",
        "streetDirectionId": null,
        "streetTypeId": "RD",
        "placeName": "BRAMPTON",
        "streetNameDisplayText": "AUTOMATIC RD, BRAMPTON"
      }
    ]
  },
  {
    "postal": "L6S5A6",
    "result": [
      {
        "electoralDistricts": [
          {
            "election": null,
            "id": 10,
            "name": "Brampton North"
          }
        ],
        "pollDivisionIds": [
          10137117
        ],
        "postalCode": "L6S5A6",
        "streetName": "NIPISSING",
        "streetDirectionId": null,
        "streetTypeId": "CRES",
        "placeName": "BRAMPTON",
        "streetNameDisplayText": "NIPISSING CRES, BRAMPTON"
      }
    ]
  },
  {
    "postal": "L6S4M0",
    "result": []
  },
  {
    "postal": "L6S3V6",
    "result": [
      {
        "electoralDistricts": [
          {
            "election": null,
            "id": 8,
            "name": "Brampton Centre"
          }
        ],
        "pollDivisionIds": [
          10137073
        ],
        "postalCode": "L6S3V6",
        "streetName": "LUPIN",
        "streetDirectionId": null,
        "streetTypeId": "CRT",
        "placeName": "BRAMPTON",
        "streetNameDisplayText": "LUPIN CRT, BRAMPTON"
      }
    ]
  },
  {
    "postal": "L6S1L7",
    "result": [
      {
        "electoralDistricts": [
          {
            "election": null,
            "id": 8,
            "name": "Brampton Centre"
          }
        ],
        "pollDivisionIds": [
          10137084
        ],
        "postalCode": "L6S1L7",
        "streetName": "GOLDCREST",
        "streetDirectionId": null,
        "streetTypeId": "RD",
        "placeName": "BRAMPTON",
        "streetNameDisplayText": "GOLDCREST RD, BRAMPTON"
      }
    ]
  },
  {
    "postal": "L6S2P9",
    "result": [
      {
        "electoralDistricts": [
          {
            "election": null,
            "id": 8,
            "name": "Brampton Centre"
          }
        ],
        "pollDivisionIds": [
          10137074
        ],
        "postalCode": "L6S2P9",
        "streetName": "LAMBETH",
        "streetDirectionId": null,
        "streetTypeId": "ST",
        "placeName": "BRAMPTON",
        "streetNameDisplayText": "LAMBETH ST, BRAMPTON"
      }
    ]
  },
  {
    "postal": "L6S5T4",
    "result": [
      {
        "electoralDistricts": [
          {
            "election": null,
            "id": 9,
            "name": "Brampton East"
          }
        ],
        "pollDivisionIds": [
          10111373
        ],
        "postalCode": "L6S5T4",
        "streetName": "WILLIAMS",
        "streetDirectionId": null,
        "streetTypeId": "PKY",
        "placeName": "BRAMPTON",
        "streetNameDisplayText": "WILLIAMS PKY, BRAMPTON"
      }
    ]
  },
  {
    "postal": "L6S5Z1",
    "result": [
      {
        "electoralDistricts": [
          {
            "election": null,
            "id": 10,
            "name": "Brampton North"
          }
        ],
        "pollDivisionIds": [
          10137116
        ],
        "postalCode": "L6S5Z1",
        "streetName": "NECTARINE",
        "streetDirectionId": null,
        "streetTypeId": "CRES",
        "placeName": "BRAMPTON",
        "streetNameDisplayText": "NECTARINE CRES, BRAMPTON"
      },
      {
        "electoralDistricts": [
          {
            "election": null,
            "id": 10,
            "name": "Brampton North"
          }
        ],
        "pollDivisionIds": [
          10137116
        ],
        "postalCode": "L6S5Z1",
        "streetName": "NUFFIELD",
        "streetDirectionId": null,
        "streetTypeId": "ST",
        "placeName": "BRAMPTON",
        "streetNameDisplayText": "NUFFIELD ST, BRAMPTON"
      }
    ]
  },
  {
    "postal": "L6S2X0",
    "result": []
  },
  {
    "postal": "L6S6Z2",
    "result": []
  },
  {
    "postal": "L6S0E0",
    "result": []
  },
  {
    "postal": "L6S3Z5",
    "result": [
      {
        "electoralDistricts": [
          {
            "election": null,
            "id": 10,
            "name": "Brampton North"
          }
        ],
        "pollDivisionIds": [
          10137116
        ],
        "postalCode": "L6S3Z5",
        "streetName": "NORTHAMPTON",
        "streetDirectionId": null,
        "streetTypeId": "ST",
        "placeName": "BRAMPTON",
        "streetNameDisplayText": "NORTHAMPTON ST, BRAMPTON"
      }
    ]
  },
  {
    "postal": "L6S8H3",
    "result": []
  },
  {
    "postal": "L6S7S6",
    "result": []
  },
  {
    "postal": "L6S4C1",
    "result": [
      {
        "electoralDistricts": [
          {
            "election": null,
            "id": 8,
            "name": "Brampton Centre"
          }
        ],
        "pollDivisionIds": [
          10137074
        ],
        "postalCode": "L6S4C1",
        "streetName": "LINDHURST",
        "streetDirectionId": null,
        "streetTypeId": "ST",
        "placeName": "BRAMPTON",
        "streetNameDisplayText": "LINDHURST ST, BRAMPTON"
      }
    ]
  },
  {
    "postal": "L6S3K2",
    "result": [
      {
        "electoralDistricts": [
          {
            "election": null,
            "id": 10,
            "name": "Brampton North"
          }
        ],
        "pollDivisionIds": [
          10126628
        ],
        "postalCode": "L6S3K2",
        "streetName": "GUILDFORD",
        "streetDirectionId": null,
        "streetTypeId": "CRES",
        "placeName": "BRAMPTON",
        "streetNameDisplayText": "GUILDFORD CRES, BRAMPTON"
      }
    ]
  },
  {
    "postal": "L6S1Y5",
    "result": [
      {
        "electoralDistricts": [
          {
            "election": null,
            "id": 8,
            "name": "Brampton Centre"
          }
        ],
        "pollDivisionIds": [
          10137077
        ],
        "postalCode": "L6S1Y5",
        "streetName": "HANNIBAL",
        "streetDirectionId": null,
        "streetTypeId": "SQ",
        "placeName": "BRAMPTON",
        "streetNameDisplayText": "HANNIBAL SQ, BRAMPTON"
      }
    ]
  },
  {
    "postal": "L6S6P6",
    "result": []
  },
  {
    "postal": "L6S3N9",
    "result": [
      {
        "electoralDistricts": [
          {
            "election": null,
            "id": 8,
            "name": "Brampton Centre"
          }
        ],
        "pollDivisionIds": [
          10137073
        ],
        "postalCode": "L6S3N9",
        "streetName": "LEANDER",
        "streetDirectionId": null,
        "streetTypeId": "ST",
        "placeName": "BRAMPTON",
        "streetNameDisplayText": "LEANDER ST, BRAMPTON"
      }
    ]
  },
  {
    "postal": "L6S3W2",
    "result": [
      {
        "electoralDistricts": [
          {
            "election": null,
            "id": 10,
            "name": "Brampton North"
          }
        ],
        "pollDivisionIds": [
          10126630
        ],
        "postalCode": "L6S3W2",
        "streetName": "JAMESON",
        "streetDirectionId": null,
        "streetTypeId": "CRES",
        "placeName": "BRAMPTON",
        "streetNameDisplayText": "JAMESON CRES, BRAMPTON"
      }
    ]
  },
  {
    "postal": "L6S6H8",
    "result": [
      {
        "electoralDistricts": [
          {
            "election": null,
            "id": 9,
            "name": "Brampton East"
          }
        ],
        "pollDivisionIds": [
          10111374
        ],
        "postalCode": "L6S6H8",
        "streetName": "BLUE DIAMOND",
        "streetDirectionId": null,
        "streetTypeId": "DR",
        "placeName": "BRAMPTON",
        "streetNameDisplayText": "BLUE DIAMOND DR, BRAMPTON"
      },
      {
        "electoralDistricts": [
          {
            "election": null,
            "id": 9,
            "name": "Brampton East"
          }
        ],
        "pollDivisionIds": [
          10111374
        ],
        "postalCode": "L6S6H8",
        "streetName": "OVERTURE",
        "streetDirectionId": null,
        "streetTypeId": "LANE",
        "placeName": "BRAMPTON",
        "streetNameDisplayText": "OVERTURE LANE, BRAMPTON"
      },
      {
        "electoralDistricts": [
          {
            "election": null,
            "id": 9,
            "name": "Brampton East"
          }
        ],
        "pollDivisionIds": [
          10111374
        ],
        "postalCode": "L6S6H8",
        "streetName": "SAFFRON",
        "streetDirectionId": null,
        "streetTypeId": "CRES",
        "placeName": "BRAMPTON",
        "streetNameDisplayText": "SAFFRON CRES, BRAMPTON"
      }
    ]
  },
  {
    "postal": "L6S9T3",
    "result": []
  },
  {
    "postal": "L6S5L9",
    "result": [
      {
        "electoralDistricts": [
          {
            "election": null,
            "id": 10,
            "name": "Brampton North"
          }
        ],
        "pollDivisionIds": [
          10137117
        ],
        "postalCode": "L6S5L9",
        "streetName": "NEWBURY",
        "streetDirectionId": null,
        "streetTypeId": "CRES",
        "placeName": "BRAMPTON",
        "streetNameDisplayText": "NEWBURY CRES, BRAMPTON"
      }
    ]
  },
  {
    "postal": "L6S7X7",
    "result": []
  },
  {
    "postal": "L6S3J5",
    "result": [
      {
        "electoralDistricts": [
          {
            "election": null,
            "id": 8,
            "name": "Brampton Centre"
          }
        ],
        "pollDivisionIds": [
          10137085,
          10137086
        ],
        "postalCode": "L6S3J5",
        "streetName": "CENTRAL PARK",
        "streetDirectionId": null,
        "streetTypeId": "DR",
        "placeName": "BRAMPTON",
        "streetNameDisplayText": "CENTRAL PARK DR, BRAMPTON"
      }
    ]
  },
  {
    "postal": "L6S4J5",
    "result": []
  },
  {
    "postal": "L6S6J2",
    "result": [
      {
        "electoralDistricts": [
          {
            "election": null,
            "id": 9,
            "name": "Brampton East"
          }
        ],
        "pollDivisionIds": [
          10111374
        ],
        "postalCode": "L6S6J2",
        "streetName": "BLUE DIAMOND",
        "streetDirectionId": null,
        "streetTypeId": "DR",
        "placeName": "BRAMPTON",
        "streetNameDisplayText": "BLUE DIAMOND DR, BRAMPTON"
      }
    ]
  },
  {
    "postal": "L6S5V6",
    "result": [
      {
        "electoralDistricts": [
          {
            "election": null,
            "id": 8,
            "name": "Brampton Centre"
          }
        ],
        "pollDivisionIds": [
          10137073
        ],
        "postalCode": "L6S5V6",
        "streetName": "LAIDLAW",
        "streetDirectionId": null,
        "streetTypeId": "AVE",
        "placeName": "BRAMPTON",
        "streetNameDisplayText": "LAIDLAW AVE, BRAMPTON"
      },
      {
        "electoralDistricts": [
          {
            "election": null,
            "id": 8,
            "name": "Brampton Centre"
          }
        ],
        "pollDivisionIds": [
          10137073
        ],
        "postalCode": "L6S5V6",
        "streetName": "LEEWARD",
        "streetDirectionId": null,
        "streetTypeId": "DR",
        "placeName": "BRAMPTON",
        "streetNameDisplayText": "LEEWARD DR, BRAMPTON"
      }
    ]
  },
  {
    "postal": "L6S3N2",
    "result": [
      {
        "electoralDistricts": [
          {
            "election": null,
            "id": 10,
            "name": "Brampton North"
          }
        ],
        "pollDivisionIds": [
          10126628
        ],
        "postalCode": "L6S3N2",
        "streetName": "MAJESTIC",
        "streetDirectionId": null,
        "streetTypeId": "CRES",
        "placeName": "BRAMPTON",
        "streetNameDisplayText": "MAJESTIC CRES, BRAMPTON"
      }
    ]
  },
  {
    "postal": "L6S3B1",
    "result": [
      {
        "electoralDistricts": [
          {
            "election": null,
            "id": 10,
            "name": "Brampton North"
          }
        ],
        "pollDivisionIds": [
          10126627
        ],
        "postalCode": "L6S3B1",
        "streetName": "MARCHBANK",
        "streetDirectionId": null,
        "streetTypeId": "CRES",
        "placeName": "BRAMPTON",
        "streetNameDisplayText": "MARCHBANK CRES, BRAMPTON"
      }
    ]
  },
  {
    "postal": "L6S8B5",
    "result": []
  },
  {
    "postal": "L6S0K1",
    "result": []
  },
  {
    "postal": "L6S7M7",
    "result": []
  },
  {
    "postal": "L6S2M2",
    "result": [
      {
        "electoralDistricts": [
          {
            "election": null,
            "id": 10,
            "name": "Brampton North"
          }
        ],
        "pollDivisionIds": [
          10126630
        ],
        "postalCode": "L6S2M2",
        "streetName": "JACKMAN",
        "streetDirectionId": null,
        "streetTypeId": "DR",
        "placeName": "BRAMPTON",
        "streetNameDisplayText": "JACKMAN DR, BRAMPTON"
      }
    ]
  },
  {
    "postal": "L6S9N3",
    "result": []
  },
  {
    "postal": "L6S4Y8",
    "result": [
      {
        "electoralDistricts": [
          {
            "election": null,
            "id": 10,
            "name": "Brampton North"
          }
        ],
        "pollDivisionIds": [
          10137116,
          10137117
        ],
        "postalCode": "L6S4Y8",
        "streetName": "NASMITH",
        "streetDirectionId": null,
        "streetTypeId": "ST",
        "placeName": "BRAMPTON",
        "streetNameDisplayText": "NASMITH ST, BRAMPTON"
      },
      {
        "electoralDistricts": [
          {
            "election": null,
            "id": 10,
            "name": "Brampton North"
          }
        ],
        "pollDivisionIds": [
          10137116
        ],
        "postalCode": "L6S4Y8",
        "streetName": "NIAGARA",
        "streetDirectionId": null,
        "streetTypeId": "PL",
        "placeName": "BRAMPTON",
        "streetNameDisplayText": "NIAGARA PL, BRAMPTON"
      }
    ]
  },
  {
    "postal": "L6S3V7",
    "result": [
      {
        "electoralDistricts": [
          {
            "election": null,
            "id": 8,
            "name": "Brampton Centre"
          }
        ],
        "pollDivisionIds": [
          10137073
        ],
        "postalCode": "L6S3V7",
        "streetName": "LA FRANCE",
        "streetDirectionId": null,
        "streetTypeId": "RD",
        "placeName": "BRAMPTON",
        "streetNameDisplayText": "LA FRANCE RD, BRAMPTON"
      }
    ]
  },
  {
    "postal": "L6S8Z1",
    "result": []
  },
  {
    "postal": "L6S7B3",
    "result": []
  },
  {
    "postal": "L6S3A8",
    "result": [
      {
        "electoralDistricts": [
          {
            "election": null,
            "id": 10,
            "name": "Brampton North"
          }
        ],
        "pollDivisionIds": [
          10126627
        ],
        "postalCode": "L6S3A8",
        "streetName": "MARCHBANK",
        "streetDirectionId": null,
        "streetTypeId": "CRES",
        "placeName": "BRAMPTON",
        "streetNameDisplayText": "MARCHBANK CRES, BRAMPTON"
      }
    ]
  },
  {
    "postal": "L6S7V5",
    "result": []
  },
  {
    "postal": "L6S2T2",
    "result": [
      {
        "electoralDistricts": [
          {
            "election": null,
            "id": 10,
            "name": "Brampton North"
          }
        ],
        "pollDivisionIds": [
          10126627
        ],
        "postalCode": "L6S2T2",
        "streetName": "MARCHMOUNT",
        "streetDirectionId": null,
        "streetTypeId": "CRES",
        "placeName": "BRAMPTON",
        "streetNameDisplayText": "MARCHMOUNT CRES, BRAMPTON"
      }
    ]
  },
  {
    "postal": "L6S6L3",
    "result": [
      {
        "electoralDistricts": [
          {
            "election": null,
            "id": 9,
            "name": "Brampton East"
          }
        ],
        "pollDivisionIds": [
          10111373
        ],
        "postalCode": "L6S6L3",
        "streetName": "RACCOON",
        "streetDirectionId": null,
        "streetTypeId": "ST",
        "placeName": "BRAMPTON",
        "streetNameDisplayText": "RACCOON ST, BRAMPTON"
      },
      {
        "electoralDistricts": [
          {
            "election": null,
            "id": 9,
            "name": "Brampton East"
          }
        ],
        "pollDivisionIds": [
          10111373
        ],
        "postalCode": "L6S6L3",
        "streetName": "ZIMMER",
        "streetDirectionId": null,
        "streetTypeId": "ST",
        "placeName": "BRAMPTON",
        "streetNameDisplayText": "ZIMMER ST, BRAMPTON"
      }
    ]
  },
  {
    "postal": "L6S0L2",
    "result": []
  },
  {
    "postal": "L6S5Y8",
    "result": [
      {
        "electoralDistricts": [
          {
            "election": null,
            "id": 10,
            "name": "Brampton North"
          }
        ],
        "pollDivisionIds": [
          10137116
        ],
        "postalCode": "L6S5Y8",
        "streetName": "NECTARINE",
        "streetDirectionId": null,
        "streetTypeId": "CRES",
        "placeName": "BRAMPTON",
        "streetNameDisplayText": "NECTARINE CRES, BRAMPTON"
      },
      {
        "electoralDistricts": [
          {
            "election": null,
            "id": 10,
            "name": "Brampton North"
          }
        ],
        "pollDivisionIds": [
          10137116
        ],
        "postalCode": "L6S5Y8",
        "streetName": "NEPEAN",
        "streetDirectionId": null,
        "streetTypeId": "PL",
        "placeName": "BRAMPTON",
        "streetNameDisplayText": "NEPEAN PL, BRAMPTON"
      },
      {
        "electoralDistricts": [
          {
            "election": null,
            "id": 10,
            "name": "Brampton North"
          }
        ],
        "pollDivisionIds": [
          10137116
        ],
        "postalCode": "L6S5Y8",
        "streetName": "NUFFIELD",
        "streetDirectionId": null,
        "streetTypeId": "ST",
        "placeName": "BRAMPTON",
        "streetNameDisplayText": "NUFFIELD ST, BRAMPTON"
      }
    ]
  },
  {
    "postal": "L6S0B8",
    "result": [
      {
        "electoralDistricts": [
          {
            "election": null,
            "id": 9,
            "name": "Brampton East"
          }
        ],
        "pollDivisionIds": [
          10111373
        ],
        "postalCode": "L6S0B8",
        "streetName": "AIRPORT",
        "streetDirectionId": null,
        "streetTypeId": "RD",
        "placeName": "BRAMPTON",
        "streetNameDisplayText": "AIRPORT RD, BRAMPTON"
      }
    ]
  },
  {
    "postal": "L6S6R5",
    "result": []
  },
  {
    "postal": "L6S8W6",
    "result": []
  },
  {
    "postal": "L6S8G6",
    "result": []
  },
  {
    "postal": "L6S6X3",
    "result": []
  },
  {
    "postal": "L6S7R7",
    "result": []
  },
  {
    "postal": "L6S4B6",
    "result": [
      {
        "electoralDistricts": [
          {
            "election": null,
            "id": 10,
            "name": "Brampton North"
          }
        ],
        "pollDivisionIds": [
          10126629
        ],
        "postalCode": "L6S4B6",
        "streetName": "PEREGRINE",
        "streetDirectionId": null,
        "streetTypeId": "GROVE",
        "placeName": "BRAMPTON",
        "streetNameDisplayText": "PEREGRINE GROVE, BRAMPTON"
      }
    ]
  },
  {
    "postal": "L6S3P9",
    "result": [
      {
        "electoralDistricts": [
          {
            "election": null,
            "id": 10,
            "name": "Brampton North"
          }
        ],
        "pollDivisionIds": [
          10126628
        ],
        "postalCode": "L6S3P9",
        "streetName": "MERIDIAN",
        "streetDirectionId": null,
        "streetTypeId": "RD",
        "placeName": "BRAMPTON",
        "streetNameDisplayText": "MERIDIAN RD, BRAMPTON"
      }
    ]
  },
  {
    "postal": "L6S2T3",
    "result": [
      {
        "electoralDistricts": [
          {
            "election": null,
            "id": 10,
            "name": "Brampton North"
          }
        ],
        "pollDivisionIds": [
          10126627
        ],
        "postalCode": "L6S2T3",
        "streetName": "MARLBOROUGH",
        "streetDirectionId": null,
        "streetTypeId": "ST",
        "placeName": "BRAMPTON",
        "streetNameDisplayText": "MARLBOROUGH ST, BRAMPTON"
      }
    ]
  },
  {
    "postal": "L6S1M4",
    "result": [
      {
        "electoralDistricts": [
          {
            "election": null,
            "id": 8,
            "name": "Brampton Centre"
          }
        ],
        "pollDivisionIds": [
          10137084
        ],
        "postalCode": "L6S1M4",
        "streetName": "GRISELDA",
        "streetDirectionId": null,
        "streetTypeId": "CRES",
        "placeName": "BRAMPTON",
        "streetNameDisplayText": "GRISELDA CRES, BRAMPTON"
      }
    ]
  },
  {
    "postal": "L6S0H1",
    "result": []
  },
  {
    "postal": "L6S9W3",
    "result": []
  },
  {
    "postal": "L6S6P1",
    "result": []
  },
  {
    "postal": "L6S7G2",
    "result": []
  },
  {
    "postal": "L6S4J9",
    "result": []
  },
  {
    "postal": "L6S9E4",
    "result": []
  },
  {
    "postal": "L6S8H0",
    "result": []
  },
  {
    "postal": "L6S4M7",
    "result": []
  },
  {
    "postal": "L6S2G9",
    "result": [
      {
        "electoralDistricts": [
          {
            "election": null,
            "id": 10,
            "name": "Brampton North"
          }
        ],
        "pollDivisionIds": [
          10126629
        ],
        "postalCode": "L6S2G9",
        "streetName": "JEROME",
        "streetDirectionId": null,
        "streetTypeId": "CRES",
        "placeName": "BRAMPTON",
        "streetNameDisplayText": "JEROME CRES, BRAMPTON"
      }
    ]
  },
  {
    "postal": "L6S8T2",
    "result": []
  },
  {
    "postal": "L6S7G7",
    "result": []
  },
  {
    "postal": "L6S4Z3",
    "result": [
      {
        "electoralDistricts": [
          {
            "election": null,
            "id": 10,
            "name": "Brampton North"
          }
        ],
        "pollDivisionIds": [
          10137116
        ],
        "postalCode": "L6S4Z3",
        "streetName": "NASMITH",
        "streetDirectionId": null,
        "streetTypeId": "ST",
        "placeName": "BRAMPTON",
        "streetNameDisplayText": "NASMITH ST, BRAMPTON"
      },
      {
        "electoralDistricts": [
          {
            "election": null,
            "id": 10,
            "name": "Brampton North"
          }
        ],
        "pollDivisionIds": [
          10137117
        ],
        "postalCode": "L6S4Z3",
        "streetName": "NEVADA",
        "streetDirectionId": null,
        "streetTypeId": "CRT",
        "placeName": "BRAMPTON",
        "streetNameDisplayText": "NEVADA CRT, BRAMPTON"
      }
    ]
  },
  {
    "postal": "L6S5B3",
    "result": [
      {
        "electoralDistricts": [
          {
            "election": null,
            "id": 10,
            "name": "Brampton North"
          }
        ],
        "pollDivisionIds": [
          10126627
        ],
        "postalCode": "L6S5B3",
        "streetName": "MYRTLE",
        "streetDirectionId": null,
        "streetTypeId": "CRT",
        "placeName": "BRAMPTON",
        "streetNameDisplayText": "MYRTLE CRT, BRAMPTON"
      }
    ]
  },
  {
    "postal": "L6S1S7",
    "result": [
      {
        "electoralDistricts": [
          {
            "election": null,
            "id": 8,
            "name": "Brampton Centre"
          }
        ],
        "pollDivisionIds": [
          10137078
        ],
        "postalCode": "L6S1S7",
        "streetName": "HUNTINGWOOD",
        "streetDirectionId": null,
        "streetTypeId": "CRES",
        "placeName": "BRAMPTON",
        "streetNameDisplayText": "HUNTINGWOOD CRES, BRAMPTON"
      }
    ]
  },
  {
    "postal": "L6S2N7",
    "result": [
      {
        "electoralDistricts": [
          {
            "election": null,
            "id": 8,
            "name": "Brampton Centre"
          }
        ],
        "pollDivisionIds": [
          10137078
        ],
        "postalCode": "L6S2N7",
        "streetName": "HAWKINS",
        "streetDirectionId": null,
        "streetTypeId": "CRT",
        "placeName": "BRAMPTON",
        "streetNameDisplayText": "HAWKINS CRT, BRAMPTON"
      }
    ]
  },
  {
    "postal": "L6S0H8",
    "result": []
  },
  {
    "postal": "L6S7Z4",
    "result": []
  },
  {
    "postal": "L6S7B1",
    "result": []
  },
  {
    "postal": "L6S7P8",
    "result": []
  },
  {
    "postal": "L6S7N0",
    "result": []
  },
  {
    "postal": "L6S3Y5",
    "result": [
      {
        "electoralDistricts": [
          {
            "election": null,
            "id": 10,
            "name": "Brampton North"
          }
        ],
        "pollDivisionIds": [
          10126627
        ],
        "postalCode": "L6S3Y5",
        "streetName": "NORTH PARK",
        "streetDirectionId": null,
        "streetTypeId": "DR",
        "placeName": "BRAMPTON",
        "streetNameDisplayText": "NORTH PARK DR, BRAMPTON"
      }
    ]
  },
  {
    "postal": "L6S6K1",
    "result": [
      {
        "electoralDistricts": [
          {
            "election": null,
            "id": 9,
            "name": "Brampton East"
          }
        ],
        "pollDivisionIds": [
          10111374
        ],
        "postalCode": "L6S6K1",
        "streetName": "BELLFLOWER",
        "streetDirectionId": null,
        "streetTypeId": "LANE",
        "placeName": "BRAMPTON",
        "streetNameDisplayText": "BELLFLOWER LANE, BRAMPTON"
      },
      {
        "electoralDistricts": [
          {
            "election": null,
            "id": 9,
            "name": "Brampton East"
          }
        ],
        "pollDivisionIds": [
          10111374
        ],
        "postalCode": "L6S6K1",
        "streetName": "BLUE DIAMOND",
        "streetDirectionId": null,
        "streetTypeId": "DR",
        "placeName": "BRAMPTON",
        "streetNameDisplayText": "BLUE DIAMOND DR, BRAMPTON"
      },
      {
        "electoralDistricts": [
          {
            "election": null,
            "id": 9,
            "name": "Brampton East"
          }
        ],
        "pollDivisionIds": [
          10111374
        ],
        "postalCode": "L6S6K1",
        "streetName": "VILLAGE LAKE",
        "streetDirectionId": null,
        "streetTypeId": "CRES",
        "placeName": "BRAMPTON",
        "streetNameDisplayText": "VILLAGE LAKE CRES, BRAMPTON"
      }
    ]
  },
  {
    "postal": "L6S9X5",
    "result": []
  },
  {
    "postal": "L6S7S5",
    "result": []
  },
  {
    "postal": "L6S0A4",
    "result": [
      {
        "electoralDistricts": [
          {
            "election": null,
            "id": 9,
            "name": "Brampton East"
          }
        ],
        "pollDivisionIds": [
          10111373
        ],
        "postalCode": "L6S0A4",
        "streetName": "EASTWAY",
        "streetDirectionId": null,
        "streetTypeId": "ST",
        "placeName": "BRAMPTON",
        "streetNameDisplayText": "EASTWAY ST, BRAMPTON"
      },
      {
        "electoralDistricts": [
          {
            "election": null,
            "id": 9,
            "name": "Brampton East"
          }
        ],
        "pollDivisionIds": [
          10111373
        ],
        "postalCode": "L6S0A4",
        "streetName": "GASPE",
        "streetDirectionId": null,
        "streetTypeId": "RD",
        "placeName": "BRAMPTON",
        "streetNameDisplayText": "GASPE RD, BRAMPTON"
      },
      {
        "electoralDistricts": [
          {
            "election": null,
            "id": 9,
            "name": "Brampton East"
          }
        ],
        "pollDivisionIds": [
          10111373
        ],
        "postalCode": "L6S0A4",
        "streetName": "TRIPLE CROWN",
        "streetDirectionId": null,
        "streetTypeId": "DR",
        "placeName": "BRAMPTON",
        "streetNameDisplayText": "TRIPLE CROWN DR, BRAMPTON"
      }
    ]
  },
  {
    "postal": "L6S4T5",
    "result": [
      {
        "electoralDistricts": [
          {
            "election": null,
            "id": 10,
            "name": "Brampton North"
          }
        ],
        "pollDivisionIds": [
          10126629
        ],
        "postalCode": "L6S4T5",
        "streetName": "PROFESSOR'S LAKE",
        "streetDirectionId": null,
        "streetTypeId": "PKY",
        "placeName": "BRAMPTON",
        "streetNameDisplayText": "PROFESSOR'S LAKE PKY, BRAMPTON"
      }
    ]
  },
  {
    "postal": "L6S5K1",
    "result": [
      {
        "electoralDistricts": [
          {
            "election": null,
            "id": 8,
            "name": "Brampton Centre"
          }
        ],
        "pollDivisionIds": [
          10137086
        ],
        "postalCode": "L6S5K1",
        "streetName": "GRANBY",
        "streetDirectionId": null,
        "streetTypeId": "CRT",
        "placeName": "BRAMPTON",
        "streetNameDisplayText": "GRANBY CRT, BRAMPTON"
      }
    ]
  },
  {
    "postal": "L6S0Z9",
    "result": []
  },
  {
    "postal": "L6S7T2",
    "result": []
  },
  {
    "postal": "L6S1L5",
    "result": [
      {
        "electoralDistricts": [
          {
            "election": null,
            "id": 8,
            "name": "Brampton Centre"
          }
        ],
        "pollDivisionIds": [
          10137086
        ],
        "postalCode": "L6S1L5",
        "streetName": "GREENMOUNT",
        "streetDirectionId": null,
        "streetTypeId": "RD",
        "placeName": "BRAMPTON",
        "streetNameDisplayText": "GREENMOUNT RD, BRAMPTON"
      }
    ]
  },
  {
    "postal": "L6S3N5",
    "result": [
      {
        "electoralDistricts": [
          {
            "election": null,
            "id": 8,
            "name": "Brampton Centre"
          }
        ],
        "pollDivisionIds": [
          10137073
        ],
        "postalCode": "L6S3N5",
        "streetName": "LEANDER",
        "streetDirectionId": null,
        "streetTypeId": "ST",
        "placeName": "BRAMPTON",
        "streetNameDisplayText": "LEANDER ST, BRAMPTON"
      }
    ]
  },
  {
    "postal": "L6S6H4",
    "result": []
  },
  {
    "postal": "L6S5A5",
    "result": [
      {
        "electoralDistricts": [
          {
            "election": null,
            "id": 10,
            "name": "Brampton North"
          }
        ],
        "pollDivisionIds": [
          10137117
        ],
        "postalCode": "L6S5A5",
        "streetName": "NIPISSING",
        "streetDirectionId": null,
        "streetTypeId": "CRES",
        "placeName": "BRAMPTON",
        "streetNameDisplayText": "NIPISSING CRES, BRAMPTON"
      }
    ]
  },
  {
    "postal": "L6S3R9",
    "result": [
      {
        "electoralDistricts": [
          {
            "election": null,
            "id": 10,
            "name": "Brampton North"
          }
        ],
        "pollDivisionIds": [
          10126629
        ],
        "postalCode": "L6S3R9",
        "streetName": "PEPPERWOOD",
        "streetDirectionId": null,
        "streetTypeId": "PL",
        "placeName": "BRAMPTON",
        "streetNameDisplayText": "PEPPERWOOD PL, BRAMPTON"
      }
    ]
  },
  {
    "postal": "L6S7L8",
    "result": []
  },
  {
    "postal": "L6S6T6",
    "result": []
  },
  {
    "postal": "L6S7Y7",
    "result": []
  },
  {
    "postal": "L6S3M8",
    "result": [
      {
        "electoralDistricts": [
          {
            "election": null,
            "id": 10,
            "name": "Brampton North"
          }
        ],
        "pollDivisionIds": [
          10126630
        ],
        "postalCode": "L6S3M8",
        "streetName": "JADE",
        "streetDirectionId": null,
        "streetTypeId": "CRES",
        "placeName": "BRAMPTON",
        "streetNameDisplayText": "JADE CRES, BRAMPTON"
      }
    ]
  },
  {
    "postal": "L6S2E0",
    "result": []
  },
  {
    "postal": "L6S4B5",
    "result": [
      {
        "electoralDistricts": [
          {
            "election": null,
            "id": 10,
            "name": "Brampton North"
          }
        ],
        "pollDivisionIds": [
          10137116
        ],
        "postalCode": "L6S4B5",
        "streetName": "NEWBRIDGE",
        "streetDirectionId": null,
        "streetTypeId": "CRES",
        "placeName": "BRAMPTON",
        "streetNameDisplayText": "NEWBRIDGE CRES, BRAMPTON"
      }
    ]
  },
  {
    "postal": "L6S1J3",
    "result": [
      {
        "electoralDistricts": [
          {
            "election": null,
            "id": 8,
            "name": "Brampton Centre"
          }
        ],
        "pollDivisionIds": [
          10137074
        ],
        "postalCode": "L6S1J3",
        "streetName": "DIXIE",
        "streetDirectionId": null,
        "streetTypeId": "RD",
        "placeName": "BRAMPTON",
        "streetNameDisplayText": "DIXIE RD, BRAMPTON"
      }
    ]
  },
  {
    "postal": "L6S5S6",
    "result": [
      {
        "electoralDistricts": [
          {
            "election": null,
            "id": 10,
            "name": "Brampton North"
          }
        ],
        "pollDivisionIds": [
          10126629
        ],
        "postalCode": "L6S5S6",
        "streetName": "PINEWAY",
        "streetDirectionId": null,
        "streetTypeId": "PL",
        "placeName": "BRAMPTON",
        "streetNameDisplayText": "PINEWAY PL, BRAMPTON"
      }
    ]
  },
  {
    "postal": "L6S8P7",
    "result": []
  },
  {
    "postal": "L6S7S7",
    "result": []
  },
  {
    "postal": "L6S4C2",
    "result": [
      {
        "electoralDistricts": [
          {
            "election": null,
            "id": 8,
            "name": "Brampton Centre"
          }
        ],
        "pollDivisionIds": [
          10137074
        ],
        "postalCode": "L6S4C2",
        "streetName": "LINDHURST",
        "streetDirectionId": null,
        "streetTypeId": "ST",
        "placeName": "BRAMPTON",
        "streetNameDisplayText": "LINDHURST ST, BRAMPTON"
      }
    ]
  },
  {
    "postal": "L6S5Y0",
    "result": []
  },
  {
    "postal": "L6S2V7",
    "result": [
      {
        "electoralDistricts": [
          {
            "election": null,
            "id": 10,
            "name": "Brampton North"
          }
        ],
        "pollDivisionIds": [
          10126627
        ],
        "postalCode": "L6S2V7",
        "streetName": "MASSEY",
        "streetDirectionId": null,
        "streetTypeId": "ST",
        "placeName": "BRAMPTON",
        "streetNameDisplayText": "MASSEY ST, BRAMPTON"
      }
    ]
  },
  {
    "postal": "L6S8P5",
    "result": []
  },
  {
    "postal": "L6S5P5",
    "result": []
  },
  {
    "postal": "L6S5Z0",
    "result": []
  },
  {
    "postal": "L6S9B0",
    "result": []
  },
  {
    "postal": "L6S1L0",
    "result": []
  },
  {
    "postal": "L6S0B5",
    "result": []
  },
  {
    "postal": "L6S3L2",
    "result": [
      {
        "electoralDistricts": [
          {
            "election": null,
            "id": 9,
            "name": "Brampton East"
          }
        ],
        "pollDivisionIds": [
          10111374
        ],
        "postalCode": "L6S3L2",
        "streetName": "TORBRAM",
        "streetDirectionId": null,
        "streetTypeId": "RD",
        "placeName": "BRAMPTON",
        "streetNameDisplayText": "TORBRAM RD, BRAMPTON"
      }
    ]
  },
  {
    "postal": "L6S3B7",
    "result": [
      {
        "electoralDistricts": [
          {
            "election": null,
            "id": 10,
            "name": "Brampton North"
          }
        ],
        "pollDivisionIds": [
          10126628
        ],
        "postalCode": "L6S3B7",
        "streetName": "MAITLAND",
        "streetDirectionId": null,
        "streetTypeId": "ST",
        "placeName": "BRAMPTON",
        "streetNameDisplayText": "MAITLAND ST, BRAMPTON"
      }
    ]
  },
  {
    "postal": "L6S8L1",
    "result": []
  },
  {
    "postal": "L6S5M4",
    "result": [
      {
        "electoralDistricts": [
          {
            "election": null,
            "id": 9,
            "name": "Brampton East"
          }
        ],
        "pollDivisionIds": [
          10111374
        ],
        "postalCode": "L6S5M4",
        "streetName": "NORTH PARK",
        "streetDirectionId": null,
        "streetTypeId": "DR",
        "placeName": "BRAMPTON",
        "streetNameDisplayText": "NORTH PARK DR, BRAMPTON"
      }
    ]
  },
  {
    "postal": "L6S4G9",
    "result": [
      {
        "electoralDistricts": [
          {
            "election": null,
            "id": 8,
            "name": "Brampton Centre"
          }
        ],
        "pollDivisionIds": [
          10137086
        ],
        "postalCode": "L6S4G9",
        "streetName": "QUEEN",
        "streetDirectionId": "E",
        "streetTypeId": "ST",
        "placeName": "BRAMPTON",
        "streetNameDisplayText": "QUEEN ST E, BRAMPTON"
      }
    ]
  },
  {
    "postal": "L6S0P0",
    "result": []
  },
  {
    "postal": "L6S8G2",
    "result": []
  },
  {
    "postal": "L6S1V9",
    "result": [
      {
        "electoralDistricts": [
          {
            "election": null,
            "id": 8,
            "name": "Brampton Centre"
          }
        ],
        "pollDivisionIds": [
          10137085
        ],
        "postalCode": "L6S1V9",
        "streetName": "GREENBRIAR",
        "streetDirectionId": null,
        "streetTypeId": "RD",
        "placeName": "BRAMPTON",
        "streetNameDisplayText": "GREENBRIAR RD, BRAMPTON"
      }
    ]
  },
  {
    "postal": "L6S8N8",
    "result": []
  },
  {
    "postal": "L6S6S8",
    "result": []
  },
  {
    "postal": "L6S8H2",
    "result": []
  },
  {
    "postal": "L6S5R8",
    "result": [
      {
        "electoralDistricts": [
          {
            "election": null,
            "id": 10,
            "name": "Brampton North"
          }
        ],
        "pollDivisionIds": [
          10126627
        ],
        "postalCode": "L6S5R8",
        "streetName": "NORTH PARK",
        "streetDirectionId": null,
        "streetTypeId": "DR",
        "placeName": "BRAMPTON",
        "streetNameDisplayText": "NORTH PARK DR, BRAMPTON"
      }
    ]
  },
  {
    "postal": "L6S5L4",
    "result": [
      {
        "electoralDistricts": [
          {
            "election": null,
            "id": 10,
            "name": "Brampton North"
          }
        ],
        "pollDivisionIds": [
          10137117
        ],
        "postalCode": "L6S5L4",
        "streetName": "NEVILLE",
        "streetDirectionId": null,
        "streetTypeId": "CRES",
        "placeName": "BRAMPTON",
        "streetNameDisplayText": "NEVILLE CRES, BRAMPTON"
      }
    ]
  },
  {
    "postal": "L6S9E1",
    "result": []
  },
  {
    "postal": "L6S1C4",
    "result": [
      {
        "electoralDistricts": [
          {
            "election": null,
            "id": 8,
            "name": "Brampton Centre"
          }
        ],
        "pollDivisionIds": [
          10137084
        ],
        "postalCode": "L6S1C4",
        "streetName": "GOODWOOD",
        "streetDirectionId": null,
        "streetTypeId": "RD",
        "placeName": "BRAMPTON",
        "streetNameDisplayText": "GOODWOOD RD, BRAMPTON"
      }
    ]
  },
  {
    "postal": "L6S8W5",
    "result": []
  },
  {
    "postal": "L6S1Y4",
    "result": [
      {
        "electoralDistricts": [
          {
            "election": null,
            "id": 8,
            "name": "Brampton Centre"
          }
        ],
        "pollDivisionIds": [
          10137077
        ],
        "postalCode": "L6S1Y4",
        "streetName": "HANDEL",
        "streetDirectionId": null,
        "streetTypeId": "CRT",
        "placeName": "BRAMPTON",
        "streetNameDisplayText": "HANDEL CRT, BRAMPTON"
      }
    ]
  },
  {
    "postal": "L6S1C0",
    "result": []
  },
  {
    "postal": "L6S2J2",
    "result": [
      {
        "electoralDistricts": [
          {
            "election": null,
            "id": 8,
            "name": "Brampton Centre"
          }
        ],
        "pollDivisionIds": [
          10137084
        ],
        "postalCode": "L6S2J2",
        "streetName": "GRASSPOINT",
        "streetDirectionId": null,
        "streetTypeId": "SQ",
        "placeName": "BRAMPTON",
        "streetNameDisplayText": "GRASSPOINT SQ, BRAMPTON"
      }
    ]
  },
  {
    "postal": "L6S2J0",
    "result": []
  },
  {
    "postal": "L6S7A3",
    "result": []
  },
  {
    "postal": "L6S8M1",
    "result": []
  },
  {
    "postal": "L6S7T9",
    "result": []
  },
  {
    "postal": "L6S6C0",
    "result": []
  },
  {
    "postal": "L6S7X1",
    "result": []
  },
  {
    "postal": "L6S0G1",
    "result": []
  },
  {
    "postal": "L6S4X2",
    "result": [
      {
        "electoralDistricts": [
          {
            "election": null,
            "id": 10,
            "name": "Brampton North"
          }
        ],
        "pollDivisionIds": [
          10137116
        ],
        "postalCode": "L6S4X2",
        "streetName": "NUFFIELD",
        "streetDirectionId": null,
        "streetTypeId": "ST",
        "placeName": "BRAMPTON",
        "streetNameDisplayText": "NUFFIELD ST, BRAMPTON"
      }
    ]
  },
  {
    "postal": "L6S0N6",
    "result": []
  },
  {
    "postal": "L6S8E3",
    "result": []
  },
  {
    "postal": "L6S5S8",
    "result": [
      {
        "electoralDistricts": [
          {
            "election": null,
            "id": 10,
            "name": "Brampton North"
          }
        ],
        "pollDivisionIds": [
          10126629
        ],
        "postalCode": "L6S5S8",
        "streetName": "PENNINGTON",
        "streetDirectionId": null,
        "streetTypeId": "PL",
        "placeName": "BRAMPTON",
        "streetNameDisplayText": "PENNINGTON PL, BRAMPTON"
      }
    ]
  },
  {
    "postal": "L6S0R0",
    "result": []
  },
  {
    "postal": "L6S6J6",
    "result": [
      {
        "electoralDistricts": [
          {
            "election": null,
            "id": 9,
            "name": "Brampton East"
          }
        ],
        "pollDivisionIds": [
          10111374
        ],
        "postalCode": "L6S6J6",
        "streetName": "ARIA",
        "streetDirectionId": null,
        "streetTypeId": "LANE",
        "placeName": "BRAMPTON",
        "streetNameDisplayText": "ARIA LANE, BRAMPTON"
      },
      {
        "electoralDistricts": [
          {
            "election": null,
            "id": 9,
            "name": "Brampton East"
          }
        ],
        "pollDivisionIds": [
          10111374
        ],
        "postalCode": "L6S6J6",
        "streetName": "PENNYROYAL",
        "streetDirectionId": null,
        "streetTypeId": "CRES",
        "placeName": "BRAMPTON",
        "streetNameDisplayText": "PENNYROYAL CRES, BRAMPTON"
      }
    ]
  },
  {
    "postal": "L6S4B4",
    "result": [
      {
        "electoralDistricts": [
          {
            "election": null,
            "id": 10,
            "name": "Brampton North"
          }
        ],
        "pollDivisionIds": [
          10126629
        ],
        "postalCode": "L6S4B4",
        "streetName": "NORTH PARK",
        "streetDirectionId": null,
        "streetTypeId": "DR",
        "placeName": "BRAMPTON",
        "streetNameDisplayText": "NORTH PARK DR, BRAMPTON"
      }
    ]
  },
  {
    "postal": "L6S7E3",
    "result": []
  },
  {
    "postal": "L6S3N6",
    "result": [
      {
        "electoralDistricts": [
          {
            "election": null,
            "id": 8,
            "name": "Brampton Centre"
          }
        ],
        "pollDivisionIds": [
          10137073
        ],
        "postalCode": "L6S3N6",
        "streetName": "LEANDER",
        "streetDirectionId": null,
        "streetTypeId": "ST",
        "placeName": "BRAMPTON",
        "streetNameDisplayText": "LEANDER ST, BRAMPTON"
      }
    ]
  },
  {
    "postal": "L6S3X6",
    "result": [
      {
        "electoralDistricts": [
          {
            "election": null,
            "id": 10,
            "name": "Brampton North"
          }
        ],
        "pollDivisionIds": [
          10126628
        ],
        "postalCode": "L6S3X6",
        "streetName": "MALABAR",
        "streetDirectionId": null,
        "streetTypeId": "CRES",
        "placeName": "BRAMPTON",
        "streetNameDisplayText": "MALABAR CRES, BRAMPTON"
      }
    ]
  },
  {
    "postal": "L6S8L0",
    "result": []
  },
  {
    "postal": "L6S8N1",
    "result": []
  },
  {
    "postal": "L6S4J0",
    "result": []
  },
  {
    "postal": "L6S0X7",
    "result": []
  },
  {
    "postal": "L6S6S4",
    "result": []
  },
  {
    "postal": "L6S0Z0",
    "result": []
  },
  {
    "postal": "L6S9X8",
    "result": []
  },
  {
    "postal": "L6S3H3",
    "result": [
      {
        "electoralDistricts": [
          {
            "election": null,
            "id": 10,
            "name": "Brampton North"
          }
        ],
        "pollDivisionIds": [
          10126630
        ],
        "postalCode": "L6S3H3",
        "streetName": "JARDINE",
        "streetDirectionId": null,
        "streetTypeId": "ST",
        "placeName": "BRAMPTON",
        "streetNameDisplayText": "JARDINE ST, BRAMPTON"
      }
    ]
  },
  {
    "postal": "L6S7S2",
    "result": []
  },
  {
    "postal": "L6S3T3",
    "result": [
      {
        "electoralDistricts": [
          {
            "election": null,
            "id": 8,
            "name": "Brampton Centre"
          }
        ],
        "pollDivisionIds": [
          10137073
        ],
        "postalCode": "L6S3T3",
        "streetName": "LASCELLES",
        "streetDirectionId": null,
        "streetTypeId": "BLVD",
        "placeName": "BRAMPTON",
        "streetNameDisplayText": "LASCELLES BLVD, BRAMPTON"
      }
    ]
  },
  {
    "postal": "L6S9P3",
    "result": []
  },
  {
    "postal": "L6S4H8",
    "result": [
      {
        "electoralDistricts": [
          {
            "election": null,
            "id": 10,
            "name": "Brampton North"
          }
        ],
        "pollDivisionIds": [
          10126627
        ],
        "postalCode": "L6S4H8",
        "streetName": "MYNA",
        "streetDirectionId": null,
        "streetTypeId": "CRT",
        "placeName": "BRAMPTON",
        "streetNameDisplayText": "MYNA CRT, BRAMPTON"
      }
    ]
  },
  {
    "postal": "L6S6R1",
    "result": []
  },
  {
    "postal": "L6S1S0",
    "result": []
  },
  {
    "postal": "L6S3W8",
    "result": [
      {
        "electoralDistricts": [
          {
            "election": null,
            "id": 8,
            "name": "Brampton Centre"
          }
        ],
        "pollDivisionIds": [
          10137073
        ],
        "postalCode": "L6S3W8",
        "streetName": "LINDRIDGE",
        "streetDirectionId": null,
        "streetTypeId": "AVE",
        "placeName": "BRAMPTON",
        "streetNameDisplayText": "LINDRIDGE AVE, BRAMPTON"
      }
    ]
  },
  {
    "postal": "L6S4S3",
    "result": []
  },
  {
    "postal": "L6S1B6",
    "result": [
      {
        "electoralDistricts": [
          {
            "election": null,
            "id": 8,
            "name": "Brampton Centre"
          }
        ],
        "pollDivisionIds": [
          10137078
        ],
        "postalCode": "L6S1B6",
        "streetName": "HANOVER",
        "streetDirectionId": null,
        "streetTypeId": "RD",
        "placeName": "BRAMPTON",
        "streetNameDisplayText": "HANOVER RD, BRAMPTON"
      }
    ]
  },
  {
    "postal": "L6S8R3",
    "result": []
  },
  {
    "postal": "L6S4V9",
    "result": [
      {
        "electoralDistricts": [
          {
            "election": null,
            "id": 10,
            "name": "Brampton North"
          }
        ],
        "pollDivisionIds": [
          10137116
        ],
        "postalCode": "L6S4V9",
        "streetName": "NICKEL",
        "streetDirectionId": null,
        "streetTypeId": "CRES",
        "placeName": "BRAMPTON",
        "streetNameDisplayText": "NICKEL CRES, BRAMPTON"
      }
    ]
  },
  {
    "postal": "L6S9W4",
    "result": []
  },
  {
    "postal": "L6S3T4",
    "result": [
      {
        "electoralDistricts": [
          {
            "election": null,
            "id": 8,
            "name": "Brampton Centre"
          }
        ],
        "pollDivisionIds": [
          10137073
        ],
        "postalCode": "L6S3T4",
        "streetName": "LASCELLES",
        "streetDirectionId": null,
        "streetTypeId": "BLVD",
        "placeName": "BRAMPTON",
        "streetNameDisplayText": "LASCELLES BLVD, BRAMPTON"
      }
    ]
  },
  {
    "postal": "L6S5C7",
    "result": [
      {
        "electoralDistricts": [
          {
            "election": null,
            "id": 10,
            "name": "Brampton North"
          }
        ],
        "pollDivisionIds": [
          10126629
        ],
        "postalCode": "L6S5C7",
        "streetName": "PARADISE",
        "streetDirectionId": null,
        "streetTypeId": "GDNS",
        "placeName": "BRAMPTON",
        "streetNameDisplayText": "PARADISE GDNS, BRAMPTON"
      }
    ]
  },
  {
    "postal": "L6S3Y1",
    "result": [
      {
        "electoralDistricts": [
          {
            "election": null,
            "id": 10,
            "name": "Brampton North"
          }
        ],
        "pollDivisionIds": [
          10126628
        ],
        "postalCode": "L6S3Y1",
        "streetName": "MANGROVE",
        "streetDirectionId": null,
        "streetTypeId": "RD",
        "placeName": "BRAMPTON",
        "streetNameDisplayText": "MANGROVE RD, BRAMPTON"
      }
    ]
  },
  {
    "postal": "L6S5V0",
    "result": []
  },
  {
    "postal": "L6S8G8",
    "result": []
  },
  {
    "postal": "L6S8B1",
    "result": []
  },
  {
    "postal": "L6S4P5",
    "result": []
  },
  {
    "postal": "L6S7B2",
    "result": []
  },
  {
    "postal": "L6S0R2",
    "result": []
  },
  {
    "postal": "L6S4M4",
    "result": [
      {
        "electoralDistricts": [
          {
            "election": null,
            "id": 8,
            "name": "Brampton Centre"
          }
        ],
        "pollDivisionIds": [
          10137074
        ],
        "postalCode": "L6S4M4",
        "streetName": "LEVINE",
        "streetDirectionId": null,
        "streetTypeId": "CRT",
        "placeName": "BRAMPTON",
        "streetNameDisplayText": "LEVINE CRT, BRAMPTON"
      }
    ]
  },
  {
    "postal": "L6S7M4",
    "result": []
  },
  {
    "postal": "L6S9S7",
    "result": []
  },
  {
    "postal": "L6S5Z7",
    "result": [
      {
        "electoralDistricts": [
          {
            "election": null,
            "id": 9,
            "name": "Brampton East"
          }
        ],
        "pollDivisionIds": [
          10111374
        ],
        "postalCode": "L6S5Z7",
        "streetName": "BRAMTREE",
        "streetDirectionId": null,
        "streetTypeId": "CRT",
        "placeName": "BRAMPTON",
        "streetNameDisplayText": "BRAMTREE CRT, BRAMPTON"
      }
    ]
  },
  {
    "postal": "L6S7J7",
    "result": []
  },
  {
    "postal": "L6S8R8",
    "result": []
  },
  {
    "postal": "L6S9X1",
    "result": []
  },
  {
    "postal": "L6S5M9",
    "result": [
      {
        "electoralDistricts": [
          {
            "election": null,
            "id": 9,
            "name": "Brampton East"
          }
        ],
        "pollDivisionIds": [
          10111373
        ],
        "postalCode": "L6S5M9",
        "streetName": "WILLIAMS",
        "streetDirectionId": null,
        "streetTypeId": "PKY",
        "placeName": "BRAMPTON",
        "streetNameDisplayText": "WILLIAMS PKY, BRAMPTON"
      }
    ]
  },
  {
    "postal": "L6S9B4",
    "result": []
  },
  {
    "postal": "L6S0L9",
    "result": []
  },
  {
    "postal": "L6S9G4",
    "result": []
  },
  {
    "postal": "L6S1J4",
    "result": []
  },
  {
    "postal": "L6S0W6",
    "result": []
  }
]
