[
  {
    "postal": "P0X1B0",
    "result": [
      {
        "electoralDistricts": [
          {
            "election": null,
            "id": 123,
            "name": "Kiiwetinoong"
          }
        ],
        "pollDivisionIds": [
          10143049
        ],
        "postalCode": "P0X1B0",
        "streetName": "GRASSY NARROW FN",
        "streetDirectionId": null,
        "streetTypeId": null,
        "placeName": "GRASSY NARROWS",
        "streetNameDisplayText": "GRASSY NARROW FN, GRASSY NARROWS"
      },
      {
        "electoralDistricts": [
          {
            "election": null,
            "id": 123,
            "name": "Kiiwetinoong"
          }
        ],
        "pollDivisionIds": [
          10143049
        ],
        "postalCode": "P0X1B0",
        "streetName": "LAKESHORE",
        "streetDirectionId": null,
        "streetTypeId": "DR",
        "placeName": "GRASSY NARROWS",
        "streetNameDisplayText": "LAKESHORE DR, GRASSY NARROWS"
      },
      {
        "electoralDistricts": [
          {
            "election": null,
            "id": 123,
            "name": "Kiiwetinoong"
          }
        ],
        "pollDivisionIds": [
          10143049
        ],
        "postalCode": "P0X1B0",
        "streetName": "LAKESHORE",
        "streetDirectionId": null,
        "streetTypeId": "DR",
        "placeName": "GRASSY NARROWS FIRST NATION",
        "streetNameDisplayText": "LAKESHORE DR, GRASSY NARROWS FIRST NATION"
      },
      {
        "electoralDistricts": [
          {
            "election": null,
            "id": 123,
            "name": "Kiiwetinoong"
          }
        ],
        "pollDivisionIds": [
          10143049
        ],
        "postalCode": "P0X1B0",
        "streetName": "MISSION",
        "streetDirectionId": null,
        "streetTypeId": "RD",
        "placeName": "GRASSY NARROWS",
        "streetNameDisplayText": "MISSION RD, GRASSY NARROWS"
      }
    ]
  },
  {
    "postal": "P0X1C0",
    "result": [
      {
        "electoralDistricts": [
          {
            "election": null,
            "id": 44,
            "name": "Kenora—Rainy River"
          }
        ],
        "pollDivisionIds": [
          10138985
        ],
        "postalCode": "P0X1C0",
        "streetName": "12TH",
        "streetDirectionId": null,
        "streetTypeId": "ST",
        "placeName": "KEEWATIN",
        "streetNameDisplayText": "12TH ST, KEEWATIN"
      },
      {
        "electoralDistricts": [
          {
            "election": null,
            "id": 44,
            "name": "Kenora—Rainy River"
          }
        ],
        "pollDivisionIds": [
          10138985
        ],
        "postalCode": "P0X1C0",
        "streetName": "17",
        "streetDirectionId": "W",
        "streetTypeId": "HWY",
        "placeName": "KEEWATIN",
        "streetNameDisplayText": "17 HWY W, KEEWATIN"
      },
      {
        "electoralDistricts": [
          {
            "election": null,
            "id": 44,
            "name": "Kenora—Rainy River"
          }
        ],
        "pollDivisionIds": [
          10138985
        ],
        "postalCode": "P0X1C0",
        "streetName": "17",
        "streetDirectionId": "W",
        "streetTypeId": "HWY",
        "placeName": "KENORA",
        "streetNameDisplayText": "17 HWY W, KENORA"
      },
      {
        "electoralDistricts": [
          {
            "election": null,
            "id": 44,
            "name": "Kenora—Rainy River"
          }
        ],
        "pollDivisionIds": [
          10138985
        ],
        "postalCode": "P0X1C0",
        "streetName": "17",
        "streetDirectionId": null,
        "streetTypeId": "HWY",
        "placeName": "KEEWATIN",
        "streetNameDisplayText": "17 HWY, KEEWATIN"
      },
      {
        "electoralDistricts": [
          {
            "election": null,
            "id": 44,
            "name": "Kenora—Rainy River"
          }
        ],
        "pollDivisionIds": [
          10139008
        ],
        "postalCode": "P0X1C0",
        "streetName": "17",
        "streetDirectionId": null,
        "streetTypeId": "HWY",
        "placeName": "KENORA",
        "streetNameDisplayText": "17 HWY, KENORA"
      },
      {
        "electoralDistricts": [
          {
            "election": null,
            "id": 44,
            "name": "Kenora—Rainy River"
          }
        ],
        "pollDivisionIds": [
          10138985
        ],
        "postalCode": "P0X1C0",
        "streetName": "17",
        "streetDirectionId": "W",
        "streetTypeId": null,
        "placeName": "KEEWATIN",
        "streetNameDisplayText": "17 W, KEEWATIN"
      },
      {
        "electoralDistricts": [
          {
            "election": null,
            "id": 44,
            "name": "Kenora—Rainy River"
          }
        ],
        "pollDivisionIds": [
          10138985
        ],
        "postalCode": "P0X1C0",
        "streetName": "1ST WEST BAY",
        "streetDirectionId": null,
        "streetTypeId": "RD",
        "placeName": "KEEWATIN",
        "streetNameDisplayText": "1ST WEST BAY RD, KEEWATIN"
      },
      {
        "electoralDistricts": [
          {
            "election": null,
            "id": 44,
            "name": "Kenora—Rainy River"
          }
        ],
        "pollDivisionIds": [
          10139004
        ],
        "postalCode": "P0X1C0",
        "streetName": "2",
        "streetDirectionId": "N",
        "streetTypeId": "AVE",
        "placeName": "REDDITT",
        "streetNameDisplayText": "2 AVE N, REDDITT"
      },
      {
        "electoralDistricts": [
          {
            "election": null,
            "id": 44,
            "name": "Kenora—Rainy River"
          }
        ],
        "pollDivisionIds": [
          10138985
        ],
        "postalCode": "P0X1C0",
        "streetName": "2ND WEST BAY",
        "streetDirectionId": null,
        "streetTypeId": "RD",
        "placeName": "KEEWATIN",
        "streetNameDisplayText": "2ND WEST BAY RD, KEEWATIN"
      },
      {
        "electoralDistricts": [
          {
            "election": null,
            "id": 44,
            "name": "Kenora—Rainy River"
          }
        ],
        "pollDivisionIds": [
          10138985
        ],
        "postalCode": "P0X1C0",
        "streetName": "4TH",
        "streetDirectionId": null,
        "streetTypeId": "ST",
        "placeName": "KEEWATIN",
        "streetNameDisplayText": "4TH ST, KEEWATIN"
      },
      {
        "electoralDistricts": [
          {
            "election": null,
            "id": 44,
            "name": "Kenora—Rainy River"
          }
        ],
        "pollDivisionIds": [
          10138984,
          10138985
        ],
        "postalCode": "P0X1C0",
        "streetName": "596",
        "streetDirectionId": null,
        "streetTypeId": "HWY",
        "placeName": "KEEWATIN",
        "streetNameDisplayText": "596 HWY, KEEWATIN"
      },
      {
        "electoralDistricts": [
          {
            "election": null,
            "id": 44,
            "name": "Kenora—Rainy River"
          }
        ],
        "pollDivisionIds": [
          10138984
        ],
        "postalCode": "P0X1C0",
        "streetName": "601",
        "streetDirectionId": null,
        "streetTypeId": "HWY",
        "placeName": "KEEWATIN",
        "streetNameDisplayText": "601 HWY, KEEWATIN"
      },
      {
        "electoralDistricts": [
          {
            "election": null,
            "id": 44,
            "name": "Kenora—Rainy River"
          }
        ],
        "pollDivisionIds": [
          10138984
        ],
        "postalCode": "P0X1C0",
        "streetName": "641 HWY",
        "streetDirectionId": null,
        "streetTypeId": "HWY",
        "placeName": "KEEWATIN",
        "streetNameDisplayText": "641 HWY HWY, KEEWATIN"
      },
      {
        "electoralDistricts": [
          {
            "election": null,
            "id": 44,
            "name": "Kenora—Rainy River"
          }
        ],
        "pollDivisionIds": [
          10138984
        ],
        "postalCode": "P0X1C0",
        "streetName": "641",
        "streetDirectionId": null,
        "streetTypeId": "HWY",
        "placeName": "INGOLF",
        "streetNameDisplayText": "641 HWY, INGOLF"
      },
      {
        "electoralDistricts": [
          {
            "election": null,
            "id": 44,
            "name": "Kenora—Rainy River"
          }
        ],
        "pollDivisionIds": [
          10138984
        ],
        "postalCode": "P0X1C0",
        "streetName": "641",
        "streetDirectionId": null,
        "streetTypeId": "HWY",
        "placeName": "KEEWATIN",
        "streetNameDisplayText": "641 HWY, KEEWATIN"
      },
      {
        "electoralDistricts": [
          {
            "election": null,
            "id": 44,
            "name": "Kenora—Rainy River"
          }
        ],
        "pollDivisionIds": [
          10138985
        ],
        "postalCode": "P0X1C0",
        "streetName": "6TH",
        "streetDirectionId": null,
        "streetTypeId": "ST",
        "placeName": "DISTRICT OF KENORA",
        "streetNameDisplayText": "6TH ST, DISTRICT OF KENORA"
      },
      {
        "electoralDistricts": [
          {
            "election": null,
            "id": 44,
            "name": "Kenora—Rainy River"
          }
        ],
        "pollDivisionIds": [
          10138985
        ],
        "postalCode": "P0X1C0",
        "streetName": "6TH",
        "streetDirectionId": null,
        "streetTypeId": "ST",
        "placeName": "KEEWATIN",
        "streetNameDisplayText": "6TH ST, KEEWATIN"
      },
      {
        "electoralDistricts": [
          {
            "election": null,
            "id": 44,
            "name": "Kenora—Rainy River"
          }
        ],
        "pollDivisionIds": [
          10139034
        ],
        "postalCode": "P0X1C0",
        "streetName": "71",
        "streetDirectionId": null,
        "streetTypeId": "HWY",
        "placeName": "SIOUX NARROWS-NESTOR FALLS",
        "streetNameDisplayText": "71 HWY, SIOUX NARROWS-NESTOR FALLS"
      },
      {
        "electoralDistricts": [
          {
            "election": null,
            "id": 44,
            "name": "Kenora—Rainy River"
          }
        ],
        "pollDivisionIds": [
          10138985
        ],
        "postalCode": "P0X1C0",
        "streetName": "8TH",
        "streetDirectionId": null,
        "streetTypeId": "ST",
        "placeName": "KEEWATIN",
        "streetNameDisplayText": "8TH ST, KEEWATIN"
      },
      {
        "electoralDistricts": [
          {
            "election": null,
            "id": 44,
            "name": "Kenora—Rainy River"
          }
        ],
        "pollDivisionIds": [
          10139029
        ],
        "postalCode": "P0X1C0",
        "streetName": "ACORN",
        "streetDirectionId": null,
        "streetTypeId": "DR",
        "placeName": "KEEWATIN",
        "streetNameDisplayText": "ACORN DR, KEEWATIN"
      },
      {
        "electoralDistricts": [
          {
            "election": null,
            "id": 44,
            "name": "Kenora—Rainy River"
          }
        ],
        "pollDivisionIds": [
          10138985
        ],
        "postalCode": "P0X1C0",
        "streetName": "BAY CLIFF",
        "streetDirectionId": null,
        "streetTypeId": "RD",
        "placeName": "KEEWATIN",
        "streetNameDisplayText": "BAY CLIFF RD, KEEWATIN"
      },
      {
        "electoralDistricts": [
          {
            "election": null,
            "id": 44,
            "name": "Kenora—Rainy River"
          }
        ],
        "pollDivisionIds": [
          10138985,
          10138989
        ],
        "postalCode": "P0X1C0",
        "streetName": "BAY",
        "streetDirectionId": null,
        "streetTypeId": "ST",
        "placeName": "KEEWATIN",
        "streetNameDisplayText": "BAY ST, KEEWATIN"
      },
      {
        "electoralDistricts": [
          {
            "election": null,
            "id": 44,
            "name": "Kenora—Rainy River"
          }
        ],
        "pollDivisionIds": [
          10138985
        ],
        "postalCode": "P0X1C0",
        "streetName": "BAYCLIFF",
        "streetDirectionId": null,
        "streetTypeId": "RD",
        "placeName": "KEEWATIN",
        "streetNameDisplayText": "BAYCLIFF RD, KEEWATIN"
      },
      {
        "electoralDistricts": [
          {
            "election": null,
            "id": 44,
            "name": "Kenora—Rainy River"
          }
        ],
        "pollDivisionIds": [
          10138992
        ],
        "postalCode": "P0X1C0",
        "streetName": "BAYVIEW",
        "streetDirectionId": null,
        "streetTypeId": "DR",
        "placeName": "KENORA",
        "streetNameDisplayText": "BAYVIEW DR, KENORA"
      },
      {
        "electoralDistricts": [
          {
            "election": null,
            "id": 44,
            "name": "Kenora—Rainy River"
          }
        ],
        "pollDivisionIds": [
          10138985
        ],
        "postalCode": "P0X1C0",
        "streetName": "BEACH",
        "streetDirectionId": null,
        "streetTypeId": "RD",
        "placeName": "KEEWATIN",
        "streetNameDisplayText": "BEACH RD, KEEWATIN"
      },
      {
        "electoralDistricts": [
          {
            "election": null,
            "id": 44,
            "name": "Kenora—Rainy River"
          }
        ],
        "pollDivisionIds": [
          10138985
        ],
        "postalCode": "P0X1C0",
        "streetName": "BEATTY",
        "streetDirectionId": null,
        "streetTypeId": "ST",
        "placeName": "KEEWATIN",
        "streetNameDisplayText": "BEATTY ST, KEEWATIN"
      },
      {
        "electoralDistricts": [
          {
            "election": null,
            "id": 44,
            "name": "Kenora—Rainy River"
          }
        ],
        "pollDivisionIds": [
          10138985,
          10138989
        ],
        "postalCode": "P0X1C0",
        "streetName": "BELLE",
        "streetDirectionId": null,
        "streetTypeId": "AVE",
        "placeName": "KEEWATIN",
        "streetNameDisplayText": "BELLE AVE, KEEWATIN"
      },
      {
        "electoralDistricts": [
          {
            "election": null,
            "id": 44,
            "name": "Kenora—Rainy River"
          }
        ],
        "pollDivisionIds": [
          10138984
        ],
        "postalCode": "P0X1C0",
        "streetName": "BENNETT",
        "streetDirectionId": null,
        "streetTypeId": "RD",
        "placeName": "KEEWATIN",
        "streetNameDisplayText": "BENNETT RD, KEEWATIN"
      },
      {
        "electoralDistricts": [
          {
            "election": null,
            "id": 44,
            "name": "Kenora—Rainy River"
          }
        ],
        "pollDivisionIds": [
          10138985,
          10138984
        ],
        "postalCode": "P0X1C0",
        "streetName": "BERGLUND",
        "streetDirectionId": null,
        "streetTypeId": "RD",
        "placeName": "KEEWATIN",
        "streetNameDisplayText": "BERGLUND RD, KEEWATIN"
      },
      {
        "electoralDistricts": [
          {
            "election": null,
            "id": 44,
            "name": "Kenora—Rainy River"
          }
        ],
        "pollDivisionIds": [
          10138984
        ],
        "postalCode": "P0X1C0",
        "streetName": "BERGMAN",
        "streetDirectionId": null,
        "streetTypeId": "LANE",
        "placeName": "DISTRICT OF KENORA",
        "streetNameDisplayText": "BERGMAN LANE, DISTRICT OF KENORA"
      },
      {
        "electoralDistricts": [
          {
            "election": null,
            "id": 44,
            "name": "Kenora—Rainy River"
          }
        ],
        "pollDivisionIds": [
          10138985
        ],
        "postalCode": "P0X1C0",
        "streetName": "BERGMAN",
        "streetDirectionId": null,
        "streetTypeId": "LANE",
        "placeName": "KEEWATIN",
        "streetNameDisplayText": "BERGMAN LANE, KEEWATIN"
      },
      {
        "electoralDistricts": [
          {
            "election": null,
            "id": 44,
            "name": "Kenora—Rainy River"
          }
        ],
        "pollDivisionIds": [
          10138985
        ],
        "postalCode": "P0X1C0",
        "streetName": "BERYL WINDER",
        "streetDirectionId": null,
        "streetTypeId": "RD",
        "placeName": "KEEWATIN",
        "streetNameDisplayText": "BERYL WINDER RD, KEEWATIN"
      },
      {
        "electoralDistricts": [
          {
            "election": null,
            "id": 44,
            "name": "Kenora—Rainy River"
          }
        ],
        "pollDivisionIds": [
          10138985
        ],
        "postalCode": "P0X1C0",
        "streetName": "BERYL WINDER",
        "streetDirectionId": null,
        "streetTypeId": "RD",
        "placeName": "KENORA",
        "streetNameDisplayText": "BERYL WINDER RD, KENORA"
      },
      {
        "electoralDistricts": [
          {
            "election": null,
            "id": 44,
            "name": "Kenora—Rainy River"
          }
        ],
        "pollDivisionIds": [
          10138985,
          10138984
        ],
        "postalCode": "P0X1C0",
        "streetName": "BIRD",
        "streetDirectionId": null,
        "streetTypeId": "RD",
        "placeName": "KEEWATIN",
        "streetNameDisplayText": "BIRD RD, KEEWATIN"
      },
      {
        "electoralDistricts": [
          {
            "election": null,
            "id": 44,
            "name": "Kenora—Rainy River"
          }
        ],
        "pollDivisionIds": [
          10138980
        ],
        "postalCode": "P0X1C0",
        "streetName": "CATHERINE LAKE",
        "streetDirectionId": null,
        "streetTypeId": null,
        "placeName": "DISTRICT OF KENORA",
        "streetNameDisplayText": "CATHERINE LAKE, DISTRICT OF KENORA"
      },
      {
        "electoralDistricts": [
          {
            "election": null,
            "id": 44,
            "name": "Kenora—Rainy River"
          }
        ],
        "pollDivisionIds": [
          10138985
        ],
        "postalCode": "P0X1C0",
        "streetName": "CHARLES",
        "streetDirectionId": null,
        "streetTypeId": "ST",
        "placeName": "KEEWATIN",
        "streetNameDisplayText": "CHARLES ST, KEEWATIN"
      },
      {
        "electoralDistricts": [
          {
            "election": null,
            "id": 44,
            "name": "Kenora—Rainy River"
          }
        ],
        "pollDivisionIds": [
          10138984
        ],
        "postalCode": "P0X1C0",
        "streetName": "CHRISTIE",
        "streetDirectionId": null,
        "streetTypeId": "RD",
        "placeName": "KEEWATIN",
        "streetNameDisplayText": "CHRISTIE RD, KEEWATIN"
      },
      {
        "electoralDistricts": [
          {
            "election": null,
            "id": 44,
            "name": "Kenora—Rainy River"
          }
        ],
        "pollDivisionIds": [
          10138984
        ],
        "postalCode": "P0X1C0",
        "streetName": "CHRUSITE",
        "streetDirectionId": null,
        "streetTypeId": "RD",
        "placeName": "KEEWATIN",
        "streetNameDisplayText": "CHRUSITE RD, KEEWATIN"
      },
      {
        "electoralDistricts": [
          {
            "election": null,
            "id": 44,
            "name": "Kenora—Rainy River"
          }
        ],
        "pollDivisionIds": [
          10138984
        ],
        "postalCode": "P0X1C0",
        "streetName": "CHRUSTIE",
        "streetDirectionId": null,
        "streetTypeId": "RD",
        "placeName": "KEEWATIN",
        "streetNameDisplayText": "CHRUSTIE RD, KEEWATIN"
      },
      {
        "electoralDistricts": [
          {
            "election": null,
            "id": 44,
            "name": "Kenora—Rainy River"
          }
        ],
        "pollDivisionIds": [
          10138984
        ],
        "postalCode": "P0X1C0",
        "streetName": "CHURCH",
        "streetDirectionId": null,
        "streetTypeId": "RD",
        "placeName": "INGOLF",
        "streetNameDisplayText": "CHURCH RD, INGOLF"
      },
      {
        "electoralDistricts": [
          {
            "election": null,
            "id": 44,
            "name": "Kenora—Rainy River"
          }
        ],
        "pollDivisionIds": [
          10138984
        ],
        "postalCode": "P0X1C0",
        "streetName": "CHURCH",
        "streetDirectionId": null,
        "streetTypeId": "RD",
        "placeName": "KEEWATIN",
        "streetNameDisplayText": "CHURCH RD, KEEWATIN"
      },
      {
        "electoralDistricts": [
          {
            "election": null,
            "id": 44,
            "name": "Kenora—Rainy River"
          }
        ],
        "pollDivisionIds": [
          10138984
        ],
        "postalCode": "P0X1C0",
        "streetName": "COWARD",
        "streetDirectionId": null,
        "streetTypeId": "RD",
        "placeName": "KEEWATIN",
        "streetNameDisplayText": "COWARD RD, KEEWATIN"
      },
      {
        "electoralDistricts": [
          {
            "election": null,
            "id": 44,
            "name": "Kenora—Rainy River"
          }
        ],
        "pollDivisionIds": [
          10138985
        ],
        "postalCode": "P0X1C0",
        "streetName": "CRESTVIEW",
        "streetDirectionId": null,
        "streetTypeId": "ST",
        "placeName": "KEEWATIN",
        "streetNameDisplayText": "CRESTVIEW ST, KEEWATIN"
      },
      {
        "electoralDistricts": [
          {
            "election": null,
            "id": 44,
            "name": "Kenora—Rainy River"
          }
        ],
        "pollDivisionIds": [
          10138984
        ],
        "postalCode": "P0X1C0",
        "streetName": "CROWLEY",
        "streetDirectionId": null,
        "streetTypeId": "RD",
        "placeName": "KEEWATIN",
        "streetNameDisplayText": "CROWLEY RD, KEEWATIN"
      },
      {
        "electoralDistricts": [
          {
            "election": null,
            "id": 44,
            "name": "Kenora—Rainy River"
          }
        ],
        "pollDivisionIds": [
          10138985
        ],
        "postalCode": "P0X1C0",
        "streetName": "CRYSTAL",
        "streetDirectionId": null,
        "streetTypeId": "ST",
        "placeName": "KEEWATIN",
        "streetNameDisplayText": "CRYSTAL ST, KEEWATIN"
      },
      {
        "electoralDistricts": [
          {
            "election": null,
            "id": 44,
            "name": "Kenora—Rainy River"
          }
        ],
        "pollDivisionIds": [
          10138984
        ],
        "postalCode": "P0X1C0",
        "streetName": "CULLODEN LAKE",
        "streetDirectionId": null,
        "streetTypeId": "RD",
        "placeName": "KEEWATIN",
        "streetNameDisplayText": "CULLODEN LAKE RD, KEEWATIN"
      },
      {
        "electoralDistricts": [
          {
            "election": null,
            "id": 44,
            "name": "Kenora—Rainy River"
          }
        ],
        "pollDivisionIds": [
          10138984
        ],
        "postalCode": "P0X1C0",
        "streetName": "CULLODEN LAKE",
        "streetDirectionId": null,
        "streetTypeId": "RD",
        "placeName": "KENORA",
        "streetNameDisplayText": "CULLODEN LAKE RD, KENORA"
      },
      {
        "electoralDistricts": [
          {
            "election": null,
            "id": 44,
            "name": "Kenora—Rainy River"
          }
        ],
        "pollDivisionIds": [
          10138985
        ],
        "postalCode": "P0X1C0",
        "streetName": "DARLINGTON BAY",
        "streetDirectionId": null,
        "streetTypeId": "BAY",
        "placeName": "KEEWATIN",
        "streetNameDisplayText": "DARLINGTON BAY BAY, KEEWATIN"
      },
      {
        "electoralDistricts": [
          {
            "election": null,
            "id": 44,
            "name": "Kenora—Rainy River"
          }
        ],
        "pollDivisionIds": [
          10138985
        ],
        "postalCode": "P0X1C0",
        "streetName": "DARLINGTON BAY",
        "streetDirectionId": null,
        "streetTypeId": "BAY",
        "placeName": "KENORA",
        "streetNameDisplayText": "DARLINGTON BAY BAY, KENORA"
      },
      {
        "electoralDistricts": [
          {
            "election": null,
            "id": 44,
            "name": "Kenora—Rainy River"
          }
        ],
        "pollDivisionIds": [
          10138985
        ],
        "postalCode": "P0X1C0",
        "streetName": "DARLINGTON BAY",
        "streetDirectionId": null,
        "streetTypeId": "RD",
        "placeName": "KEEWATIN",
        "streetNameDisplayText": "DARLINGTON BAY RD, KEEWATIN"
      },
      {
        "electoralDistricts": [
          {
            "election": null,
            "id": 44,
            "name": "Kenora—Rainy River"
          }
        ],
        "pollDivisionIds": [
          10138990,
          10138985
        ],
        "postalCode": "P0X1C0",
        "streetName": "DARLINGTON",
        "streetDirectionId": null,
        "streetTypeId": "DR",
        "placeName": "KEEWATIN",
        "streetNameDisplayText": "DARLINGTON DR, KEEWATIN"
      },
      {
        "electoralDistricts": [
          {
            "election": null,
            "id": 44,
            "name": "Kenora—Rainy River"
          }
        ],
        "pollDivisionIds": [
          10138985
        ],
        "postalCode": "P0X1C0",
        "streetName": "DUFFUS",
        "streetDirectionId": null,
        "streetTypeId": "RD",
        "placeName": "KEEWATIN",
        "streetNameDisplayText": "DUFFUS RD, KEEWATIN"
      },
      {
        "electoralDistricts": [
          {
            "election": null,
            "id": 44,
            "name": "Kenora—Rainy River"
          }
        ],
        "pollDivisionIds": [
          10138984
        ],
        "postalCode": "P0X1C0",
        "streetName": "DUSANG",
        "streetDirectionId": null,
        "streetTypeId": "DR",
        "placeName": "KEEWATIN",
        "streetNameDisplayText": "DUSANG DR, KEEWATIN"
      },
      {
        "electoralDistricts": [
          {
            "election": null,
            "id": 44,
            "name": "Kenora—Rainy River"
          }
        ],
        "pollDivisionIds": [
          10138985
        ],
        "postalCode": "P0X1C0",
        "streetName": "EAGLE",
        "streetDirectionId": null,
        "streetTypeId": "CRES",
        "placeName": "KEEWATIN",
        "streetNameDisplayText": "EAGLE CRES, KEEWATIN"
      },
      {
        "electoralDistricts": [
          {
            "election": null,
            "id": 44,
            "name": "Kenora—Rainy River"
          }
        ],
        "pollDivisionIds": [
          10138985
        ],
        "postalCode": "P0X1C0",
        "streetName": "EAGLE",
        "streetDirectionId": null,
        "streetTypeId": "CRES",
        "placeName": "KENORA",
        "streetNameDisplayText": "EAGLE CRES, KENORA"
      },
      {
        "electoralDistricts": [
          {
            "election": null,
            "id": 44,
            "name": "Kenora—Rainy River"
          }
        ],
        "pollDivisionIds": [
          10138984
        ],
        "postalCode": "P0X1C0",
        "streetName": "EAST SHORE",
        "streetDirectionId": null,
        "streetTypeId": "RD",
        "placeName": "KEEWATIN",
        "streetNameDisplayText": "EAST SHORE RD, KEEWATIN"
      },
      {
        "electoralDistricts": [
          {
            "election": null,
            "id": 44,
            "name": "Kenora—Rainy River"
          }
        ],
        "pollDivisionIds": [
          10138985
        ],
        "postalCode": "P0X1C0",
        "streetName": "EIGHTH",
        "streetDirectionId": null,
        "streetTypeId": "ST",
        "placeName": "KEEWATIN",
        "streetNameDisplayText": "EIGHTH ST, KEEWATIN"
      },
      {
        "electoralDistricts": [
          {
            "election": null,
            "id": 44,
            "name": "Kenora—Rainy River"
          }
        ],
        "pollDivisionIds": [
          10138985
        ],
        "postalCode": "P0X1C0",
        "streetName": "ERIE",
        "streetDirectionId": null,
        "streetTypeId": "ST",
        "placeName": "KEEWATIN",
        "streetNameDisplayText": "ERIE ST, KEEWATIN"
      },
      {
        "electoralDistricts": [
          {
            "election": null,
            "id": 44,
            "name": "Kenora—Rainy River"
          }
        ],
        "pollDivisionIds": [
          10138985
        ],
        "postalCode": "P0X1C0",
        "streetName": "FIFTH",
        "streetDirectionId": null,
        "streetTypeId": "ST",
        "placeName": "KEEWATIN",
        "streetNameDisplayText": "FIFTH ST, KEEWATIN"
      },
      {
        "electoralDistricts": [
          {
            "election": null,
            "id": 44,
            "name": "Kenora—Rainy River"
          }
        ],
        "pollDivisionIds": [
          10138985
        ],
        "postalCode": "P0X1C0",
        "streetName": "FIRE RD 111",
        "streetDirectionId": null,
        "streetTypeId": "RD",
        "placeName": "KEEWATIN",
        "streetNameDisplayText": "FIRE RD 111 RD, KEEWATIN"
      },
      {
        "electoralDistricts": [
          {
            "election": null,
            "id": 44,
            "name": "Kenora—Rainy River"
          }
        ],
        "pollDivisionIds": [
          10138985
        ],
        "postalCode": "P0X1C0",
        "streetName": "FOURTH",
        "streetDirectionId": null,
        "streetTypeId": "ST",
        "placeName": "KEEWATIN",
        "streetNameDisplayText": "FOURTH ST, KEEWATIN"
      },
      {
        "electoralDistricts": [
          {
            "election": null,
            "id": 44,
            "name": "Kenora—Rainy River"
          }
        ],
        "pollDivisionIds": [
          10138989,
          10138985
        ],
        "postalCode": "P0X1C0",
        "streetName": "FRONT",
        "streetDirectionId": null,
        "streetTypeId": "ST",
        "placeName": "KEEWATIN",
        "streetNameDisplayText": "FRONT ST, KEEWATIN"
      },
      {
        "electoralDistricts": [
          {
            "election": null,
            "id": 44,
            "name": "Kenora—Rainy River"
          }
        ],
        "pollDivisionIds": [
          10138989
        ],
        "postalCode": "P0X1C0",
        "streetName": "FRONT",
        "streetDirectionId": null,
        "streetTypeId": "ST",
        "placeName": "KENORA",
        "streetNameDisplayText": "FRONT ST, KENORA"
      },
      {
        "electoralDistricts": [
          {
            "election": null,
            "id": 44,
            "name": "Kenora—Rainy River"
          }
        ],
        "pollDivisionIds": [
          10138981
        ],
        "postalCode": "P0X1C0",
        "streetName": "GAILYNN",
        "streetDirectionId": null,
        "streetTypeId": "RD",
        "placeName": "CLEARWATER BAY",
        "streetNameDisplayText": "GAILYNN RD, CLEARWATER BAY"
      },
      {
        "electoralDistricts": [
          {
            "election": null,
            "id": 44,
            "name": "Kenora—Rainy River"
          }
        ],
        "pollDivisionIds": [
          10138984
        ],
        "postalCode": "P0X1C0",
        "streetName": "GILBERTSON",
        "streetDirectionId": null,
        "streetTypeId": "RD",
        "placeName": "KEEWATIN",
        "streetNameDisplayText": "GILBERTSON RD, KEEWATIN"
      },
      {
        "electoralDistricts": [
          {
            "election": null,
            "id": 44,
            "name": "Kenora—Rainy River"
          }
        ],
        "pollDivisionIds": [
          10138984
        ],
        "postalCode": "P0X1C0",
        "streetName": "GILBERTSON",
        "streetDirectionId": null,
        "streetTypeId": "RD",
        "placeName": "KENORA",
        "streetNameDisplayText": "GILBERTSON RD, KENORA"
      },
      {
        "electoralDistricts": [
          {
            "election": null,
            "id": 44,
            "name": "Kenora—Rainy River"
          }
        ],
        "pollDivisionIds": [
          10139003
        ],
        "postalCode": "P0X1C0",
        "streetName": "GOLF COURSE",
        "streetDirectionId": null,
        "streetTypeId": "RD",
        "placeName": "KENORA",
        "streetNameDisplayText": "GOLF COURSE RD, KENORA"
      },
      {
        "electoralDistricts": [
          {
            "election": null,
            "id": 44,
            "name": "Kenora—Rainy River"
          }
        ],
        "pollDivisionIds": [
          10138985
        ],
        "postalCode": "P0X1C0",
        "streetName": "GOVERNMENT",
        "streetDirectionId": null,
        "streetTypeId": "RD",
        "placeName": "KEEWATIN",
        "streetNameDisplayText": "GOVERNMENT RD, KEEWATIN"
      },
      {
        "electoralDistricts": [
          {
            "election": null,
            "id": 44,
            "name": "Kenora—Rainy River"
          }
        ],
        "pollDivisionIds": [
          10138985
        ],
        "postalCode": "P0X1C0",
        "streetName": "GROUSE",
        "streetDirectionId": null,
        "streetTypeId": "DR",
        "placeName": "KEEWATIN",
        "streetNameDisplayText": "GROUSE DR, KEEWATIN"
      },
      {
        "electoralDistricts": [
          {
            "election": null,
            "id": 44,
            "name": "Kenora—Rainy River"
          }
        ],
        "pollDivisionIds": [
          10138984
        ],
        "postalCode": "P0X1C0",
        "streetName": "HAGER",
        "streetDirectionId": null,
        "streetTypeId": "RD",
        "placeName": "KEEWATIN",
        "streetNameDisplayText": "HAGER RD, KEEWATIN"
      },
      {
        "electoralDistricts": [
          {
            "election": null,
            "id": 44,
            "name": "Kenora—Rainy River"
          }
        ],
        "pollDivisionIds": [
          10139006
        ],
        "postalCode": "P0X1C0",
        "streetName": "HAGER",
        "streetDirectionId": null,
        "streetTypeId": "RD",
        "placeName": "KENORA",
        "streetNameDisplayText": "HAGER RD, KENORA"
      },
      {
        "electoralDistricts": [
          {
            "election": null,
            "id": 44,
            "name": "Kenora—Rainy River"
          }
        ],
        "pollDivisionIds": [
          10138984
        ],
        "postalCode": "P0X1C0",
        "streetName": "HEINO",
        "streetDirectionId": null,
        "streetTypeId": "RD",
        "placeName": "KEEWATIN",
        "streetNameDisplayText": "HEINO RD, KEEWATIN"
      },
      {
        "electoralDistricts": [
          {
            "election": null,
            "id": 44,
            "name": "Kenora—Rainy River"
          }
        ],
        "pollDivisionIds": [
          10138985
        ],
        "postalCode": "P0X1C0",
        "streetName": "HIGHWAY 17",
        "streetDirectionId": "W",
        "streetTypeId": null,
        "placeName": "KEEWATIN",
        "streetNameDisplayText": "HIGHWAY 17 W, KEEWATIN"
      },
      {
        "electoralDistricts": [
          {
            "election": null,
            "id": 44,
            "name": "Kenora—Rainy River"
          }
        ],
        "pollDivisionIds": [
          10138985
        ],
        "postalCode": "P0X1C0",
        "streetName": "HIGHWAY 641",
        "streetDirectionId": null,
        "streetTypeId": null,
        "placeName": "KEEWATIN",
        "streetNameDisplayText": "HIGHWAY 641, KEEWATIN"
      },
      {
        "electoralDistricts": [
          {
            "election": null,
            "id": 44,
            "name": "Kenora—Rainy River"
          }
        ],
        "pollDivisionIds": [
          10138985
        ],
        "postalCode": "P0X1C0",
        "streetName": "HURON",
        "streetDirectionId": null,
        "streetTypeId": "ST",
        "placeName": "KEEWATIN",
        "streetNameDisplayText": "HURON ST, KEEWATIN"
      },
      {
        "electoralDistricts": [
          {
            "election": null,
            "id": 44,
            "name": "Kenora—Rainy River"
          }
        ],
        "pollDivisionIds": [
          10138985
        ],
        "postalCode": "P0X1C0",
        "streetName": "HWY 17",
        "streetDirectionId": "W",
        "streetTypeId": "HWY",
        "placeName": "KEEWATIN",
        "streetNameDisplayText": "HWY 17 HWY W, KEEWATIN"
      },
      {
        "electoralDistricts": [
          {
            "election": null,
            "id": 44,
            "name": "Kenora—Rainy River"
          }
        ],
        "pollDivisionIds": [
          10138985
        ],
        "postalCode": "P0X1C0",
        "streetName": "HWY 17",
        "streetDirectionId": null,
        "streetTypeId": "HWY",
        "placeName": "KEEWATIN",
        "streetNameDisplayText": "HWY 17 HWY, KEEWATIN"
      },
      {
        "electoralDistricts": [
          {
            "election": null,
            "id": 44,
            "name": "Kenora—Rainy River"
          }
        ],
        "pollDivisionIds": [
          10138985
        ],
        "postalCode": "P0X1C0",
        "streetName": "HWY 641",
        "streetDirectionId": null,
        "streetTypeId": "HWY",
        "placeName": "KEEWATIN",
        "streetNameDisplayText": "HWY 641 HWY, KEEWATIN"
      },
      {
        "electoralDistricts": [
          {
            "election": null,
            "id": 44,
            "name": "Kenora—Rainy River"
          }
        ],
        "pollDivisionIds": [
          10138985
        ],
        "postalCode": "P0X1C0",
        "streetName": "INGLIS LAKE",
        "streetDirectionId": null,
        "streetTypeId": "RD",
        "placeName": "KEEWATIN",
        "streetNameDisplayText": "INGLIS LAKE RD, KEEWATIN"
      },
      {
        "electoralDistricts": [
          {
            "election": null,
            "id": 44,
            "name": "Kenora—Rainy River"
          }
        ],
        "pollDivisionIds": [
          10138985
        ],
        "postalCode": "P0X1C0",
        "streetName": "INGLIS",
        "streetDirectionId": null,
        "streetTypeId": "RD",
        "placeName": "KEEWATIN",
        "streetNameDisplayText": "INGLIS RD, KEEWATIN"
      },
      {
        "electoralDistricts": [
          {
            "election": null,
            "id": 44,
            "name": "Kenora—Rainy River"
          }
        ],
        "pollDivisionIds": [
          10139033
        ],
        "postalCode": "P0X1C0",
        "streetName": "JOHNSON",
        "streetDirectionId": null,
        "streetTypeId": "RD",
        "placeName": "SIOUX NARROWS",
        "streetNameDisplayText": "JOHNSON RD, SIOUX NARROWS"
      },
      {
        "electoralDistricts": [
          {
            "election": null,
            "id": 44,
            "name": "Kenora—Rainy River"
          }
        ],
        "pollDivisionIds": [
          10138985
        ],
        "postalCode": "P0X1C0",
        "streetName": "KEEWATIN BEACH",
        "streetDirectionId": null,
        "streetTypeId": "RD",
        "placeName": "KEEWATIN",
        "streetNameDisplayText": "KEEWATIN BEACH RD, KEEWATIN"
      },
      {
        "electoralDistricts": [
          {
            "election": null,
            "id": 44,
            "name": "Kenora—Rainy River"
          }
        ],
        "pollDivisionIds": [
          10138985
        ],
        "postalCode": "P0X1C0",
        "streetName": "KEEWATIN",
        "streetDirectionId": null,
        "streetTypeId": "ST",
        "placeName": "KEEWATIN",
        "streetNameDisplayText": "KEEWATIN ST, KEEWATIN"
      },
      {
        "electoralDistricts": [
          {
            "election": null,
            "id": 44,
            "name": "Kenora—Rainy River"
          }
        ],
        "pollDivisionIds": [
          10138985
        ],
        "postalCode": "P0X1C0",
        "streetName": "KENDALL INLET",
        "streetDirectionId": null,
        "streetTypeId": "RD",
        "placeName": "KEEWATIN",
        "streetNameDisplayText": "KENDALL INLET RD, KEEWATIN"
      },
      {
        "electoralDistricts": [
          {
            "election": null,
            "id": 44,
            "name": "Kenora—Rainy River"
          }
        ],
        "pollDivisionIds": [
          10138985
        ],
        "postalCode": "P0X1C0",
        "streetName": "KENDALL INLET",
        "streetDirectionId": null,
        "streetTypeId": "RD",
        "placeName": "KENORA",
        "streetNameDisplayText": "KENDALL INLET RD, KENORA"
      },
      {
        "electoralDistricts": [
          {
            "election": null,
            "id": 44,
            "name": "Kenora—Rainy River"
          }
        ],
        "pollDivisionIds": [
          10138985
        ],
        "postalCode": "P0X1C0",
        "streetName": "KENRICIA",
        "streetDirectionId": null,
        "streetTypeId": "RD",
        "placeName": "KEEWATIN",
        "streetNameDisplayText": "KENRICIA RD, KEEWATIN"
      },
      {
        "electoralDistricts": [
          {
            "election": null,
            "id": 44,
            "name": "Kenora—Rainy River"
          }
        ],
        "pollDivisionIds": [
          10138985
        ],
        "postalCode": "P0X1C0",
        "streetName": "LAKE",
        "streetDirectionId": null,
        "streetTypeId": "ST",
        "placeName": "KEEWATIN",
        "streetNameDisplayText": "LAKE ST, KEEWATIN"
      },
      {
        "electoralDistricts": [
          {
            "election": null,
            "id": 44,
            "name": "Kenora—Rainy River"
          }
        ],
        "pollDivisionIds": [
          10138985
        ],
        "postalCode": "P0X1C0",
        "streetName": "LILY PAD BAY",
        "streetDirectionId": null,
        "streetTypeId": "BAY",
        "placeName": "KEEWATIN",
        "streetNameDisplayText": "LILY PAD BAY BAY, KEEWATIN"
      },
      {
        "electoralDistricts": [
          {
            "election": null,
            "id": 44,
            "name": "Kenora—Rainy River"
          }
        ],
        "pollDivisionIds": [
          10138986,
          10138985
        ],
        "postalCode": "P0X1C0",
        "streetName": "LILY PAD",
        "streetDirectionId": null,
        "streetTypeId": "BAY",
        "placeName": "KEEWATIN",
        "streetNameDisplayText": "LILY PAD BAY, KEEWATIN"
      },
      {
        "electoralDistricts": [
          {
            "election": null,
            "id": 44,
            "name": "Kenora—Rainy River"
          }
        ],
        "pollDivisionIds": [
          10138985
        ],
        "postalCode": "P0X1C0",
        "streetName": "LYNDALE",
        "streetDirectionId": null,
        "streetTypeId": "AVE",
        "placeName": "KEEWATIN",
        "streetNameDisplayText": "LYNDALE AVE, KEEWATIN"
      },
      {
        "electoralDistricts": [
          {
            "election": null,
            "id": 44,
            "name": "Kenora—Rainy River"
          }
        ],
        "pollDivisionIds": [
          10138985
        ],
        "postalCode": "P0X1C0",
        "streetName": "MAIN",
        "streetDirectionId": null,
        "streetTypeId": "ST",
        "placeName": "KEEWATIN",
        "streetNameDisplayText": "MAIN ST, KEEWATIN"
      },
      {
        "electoralDistricts": [
          {
            "election": null,
            "id": 44,
            "name": "Kenora—Rainy River"
          }
        ],
        "pollDivisionIds": [
          10138980
        ],
        "postalCode": "P0X1C0",
        "streetName": "MALACHI LAKE",
        "streetDirectionId": null,
        "streetTypeId": null,
        "placeName": "KEEWATIN",
        "streetNameDisplayText": "MALACHI LAKE, KEEWATIN"
      },
      {
        "electoralDistricts": [
          {
            "election": null,
            "id": 44,
            "name": "Kenora—Rainy River"
          }
        ],
        "pollDivisionIds": [
          10138985
        ],
        "postalCode": "P0X1C0",
        "streetName": "MARCHANTSISLAND",
        "streetDirectionId": null,
        "streetTypeId": null,
        "placeName": "KEEWATIN",
        "streetNameDisplayText": "MARCHANTSISLAND, KEEWATIN"
      },
      {
        "electoralDistricts": [
          {
            "election": null,
            "id": 44,
            "name": "Kenora—Rainy River"
          }
        ],
        "pollDivisionIds": [
          10138989,
          10138985
        ],
        "postalCode": "P0X1C0",
        "streetName": "MAY",
        "streetDirectionId": null,
        "streetTypeId": "AVE",
        "placeName": "KEEWATIN",
        "streetNameDisplayText": "MAY AVE, KEEWATIN"
      },
      {
        "electoralDistricts": [
          {
            "election": null,
            "id": 44,
            "name": "Kenora—Rainy River"
          }
        ],
        "pollDivisionIds": [
          10138981
        ],
        "postalCode": "P0X1C0",
        "streetName": "MCKENZIE PORTAGE",
        "streetDirectionId": null,
        "streetTypeId": "RD",
        "placeName": "CLEARWATER BAY",
        "streetNameDisplayText": "MCKENZIE PORTAGE RD, CLEARWATER BAY"
      },
      {
        "electoralDistricts": [
          {
            "election": null,
            "id": 44,
            "name": "Kenora—Rainy River"
          }
        ],
        "pollDivisionIds": [
          10138985,
          10138986
        ],
        "postalCode": "P0X1C0",
        "streetName": "MCKENZIE PORTAGE",
        "streetDirectionId": null,
        "streetTypeId": "RD",
        "placeName": "KEEWATIN",
        "streetNameDisplayText": "MCKENZIE PORTAGE RD, KEEWATIN"
      },
      {
        "electoralDistricts": [
          {
            "election": null,
            "id": 44,
            "name": "Kenora—Rainy River"
          }
        ],
        "pollDivisionIds": [
          10138985
        ],
        "postalCode": "P0X1C0",
        "streetName": "MCKENZIE PORTAGE",
        "streetDirectionId": null,
        "streetTypeId": "RD",
        "placeName": "KENORA",
        "streetNameDisplayText": "MCKENZIE PORTAGE RD, KENORA"
      },
      {
        "electoralDistricts": [
          {
            "election": null,
            "id": 44,
            "name": "Kenora—Rainy River"
          }
        ],
        "pollDivisionIds": [
          10138985
        ],
        "postalCode": "P0X1C0",
        "streetName": "MCLEAN",
        "streetDirectionId": null,
        "streetTypeId": "AVE",
        "placeName": "KEEWATIN",
        "streetNameDisplayText": "MCLEAN AVE, KEEWATIN"
      },
      {
        "electoralDistricts": [
          {
            "election": null,
            "id": 44,
            "name": "Kenora—Rainy River"
          }
        ],
        "pollDivisionIds": [
          10138985
        ],
        "postalCode": "P0X1C0",
        "streetName": "MENZIA",
        "streetDirectionId": null,
        "streetTypeId": "DR",
        "placeName": "KEEWATIN",
        "streetNameDisplayText": "MENZIA DR, KEEWATIN"
      },
      {
        "electoralDistricts": [
          {
            "election": null,
            "id": 44,
            "name": "Kenora—Rainy River"
          }
        ],
        "pollDivisionIds": [
          10138985
        ],
        "postalCode": "P0X1C0",
        "streetName": "MIDDLE LAKE",
        "streetDirectionId": null,
        "streetTypeId": "RD",
        "placeName": "KEEWATIN",
        "streetNameDisplayText": "MIDDLE LAKE RD, KEEWATIN"
      },
      {
        "electoralDistricts": [
          {
            "election": null,
            "id": 44,
            "name": "Kenora—Rainy River"
          }
        ],
        "pollDivisionIds": [
          10138985
        ],
        "postalCode": "P0X1C0",
        "streetName": "MILL",
        "streetDirectionId": null,
        "streetTypeId": "ST",
        "placeName": "KEEWATIN",
        "streetNameDisplayText": "MILL ST, KEEWATIN"
      },
      {
        "electoralDistricts": [
          {
            "election": null,
            "id": 44,
            "name": "Kenora—Rainy River"
          }
        ],
        "pollDivisionIds": [
          10138984
        ],
        "postalCode": "P0X1C0",
        "streetName": "MINAKI",
        "streetDirectionId": null,
        "streetTypeId": "RD",
        "placeName": "KEEWATIN",
        "streetNameDisplayText": "MINAKI RD, KEEWATIN"
      },
      {
        "electoralDistricts": [
          {
            "election": null,
            "id": 44,
            "name": "Kenora—Rainy River"
          }
        ],
        "pollDivisionIds": [
          10138984
        ],
        "postalCode": "P0X1C0",
        "streetName": "MURIEL LAKE",
        "streetDirectionId": null,
        "streetTypeId": "RD",
        "placeName": "KEEWATIN",
        "streetNameDisplayText": "MURIEL LAKE RD, KEEWATIN"
      },
      {
        "electoralDistricts": [
          {
            "election": null,
            "id": 44,
            "name": "Kenora—Rainy River"
          }
        ],
        "pollDivisionIds": [
          10138984
        ],
        "postalCode": "P0X1C0",
        "streetName": "MURIEL LAKE",
        "streetDirectionId": null,
        "streetTypeId": "RD",
        "placeName": "KENORA",
        "streetNameDisplayText": "MURIEL LAKE RD, KENORA"
      },
      {
        "electoralDistricts": [
          {
            "election": null,
            "id": 44,
            "name": "Kenora—Rainy River"
          }
        ],
        "pollDivisionIds": [
          10138985
        ],
        "postalCode": "P0X1C0",
        "streetName": "MURPHY",
        "streetDirectionId": null,
        "streetTypeId": "DR",
        "placeName": "KEEWATIN",
        "streetNameDisplayText": "MURPHY DR, KEEWATIN"
      },
      {
        "electoralDistricts": [
          {
            "election": null,
            "id": 44,
            "name": "Kenora—Rainy River"
          }
        ],
        "pollDivisionIds": [
          10138985
        ],
        "postalCode": "P0X1C0",
        "streetName": "NELSON",
        "streetDirectionId": null,
        "streetTypeId": "ST",
        "placeName": "KEEWATIN",
        "streetNameDisplayText": "NELSON ST, KEEWATIN"
      },
      {
        "electoralDistricts": [
          {
            "election": null,
            "id": 44,
            "name": "Kenora—Rainy River"
          }
        ],
        "pollDivisionIds": [
          10138985
        ],
        "postalCode": "P0X1C0",
        "streetName": "NINTH",
        "streetDirectionId": null,
        "streetTypeId": "ST",
        "placeName": "KEEWATIN",
        "streetNameDisplayText": "NINTH ST, KEEWATIN"
      },
      {
        "electoralDistricts": [
          {
            "election": null,
            "id": 44,
            "name": "Kenora—Rainy River"
          }
        ],
        "pollDivisionIds": [
          10138990
        ],
        "postalCode": "P0X1C0",
        "streetName": "NORMAN",
        "streetDirectionId": null,
        "streetTypeId": "DR",
        "placeName": "KEEWATIN",
        "streetNameDisplayText": "NORMAN DR, KEEWATIN"
      },
      {
        "electoralDistricts": [
          {
            "election": null,
            "id": 44,
            "name": "Kenora—Rainy River"
          }
        ],
        "pollDivisionIds": [
          10138990
        ],
        "postalCode": "P0X1C0",
        "streetName": "NORMAN",
        "streetDirectionId": null,
        "streetTypeId": "DR",
        "placeName": "KENORA",
        "streetNameDisplayText": "NORMAN DR, KENORA"
      },
      {
        "electoralDistricts": [
          {
            "election": null,
            "id": 44,
            "name": "Kenora—Rainy River"
          }
        ],
        "pollDivisionIds": [
          10139032
        ],
        "postalCode": "P0X1C0",
        "streetName": "NORTH LOOP",
        "streetDirectionId": "N",
        "streetTypeId": "RD",
        "placeName": "PAWITIK",
        "streetNameDisplayText": "NORTH LOOP RD N, PAWITIK"
      },
      {
        "electoralDistricts": [
          {
            "election": null,
            "id": 44,
            "name": "Kenora—Rainy River"
          }
        ],
        "pollDivisionIds": [
          10138986
        ],
        "postalCode": "P0X1C0",
        "streetName": "OBASHKAANDAGAANG",
        "streetDirectionId": null,
        "streetTypeId": null,
        "placeName": "KEEWATIN",
        "streetNameDisplayText": "OBASHKAANDAGAANG, KEEWATIN"
      },
      {
        "electoralDistricts": [
          {
            "election": null,
            "id": 44,
            "name": "Kenora—Rainy River"
          }
        ],
        "pollDivisionIds": [
          10138984
        ],
        "postalCode": "P0X1C0",
        "streetName": "OLDFORD",
        "streetDirectionId": null,
        "streetTypeId": "RD",
        "placeName": "KEEWATIN",
        "streetNameDisplayText": "OLDFORD RD, KEEWATIN"
      },
      {
        "electoralDistricts": [
          {
            "election": null,
            "id": 44,
            "name": "Kenora—Rainy River"
          }
        ],
        "pollDivisionIds": [
          10138984
        ],
        "postalCode": "P0X1C0",
        "streetName": "OLDFORD",
        "streetDirectionId": null,
        "streetTypeId": "RD",
        "placeName": "KENORA",
        "streetNameDisplayText": "OLDFORD RD, KENORA"
      },
      {
        "electoralDistricts": [
          {
            "election": null,
            "id": 44,
            "name": "Kenora—Rainy River"
          }
        ],
        "pollDivisionIds": [
          10138984
        ],
        "postalCode": "P0X1C0",
        "streetName": "OLSON",
        "streetDirectionId": null,
        "streetTypeId": "RD",
        "placeName": "KEEWATIN",
        "streetNameDisplayText": "OLSON RD, KEEWATIN"
      },
      {
        "electoralDistricts": [
          {
            "election": null,
            "id": 44,
            "name": "Kenora—Rainy River"
          }
        ],
        "pollDivisionIds": [
          10138984
        ],
        "postalCode": "P0X1C0",
        "streetName": "OLSON",
        "streetDirectionId": null,
        "streetTypeId": "RD",
        "placeName": "KENORA",
        "streetNameDisplayText": "OLSON RD, KENORA"
      },
      {
        "electoralDistricts": [
          {
            "election": null,
            "id": 44,
            "name": "Kenora—Rainy River"
          }
        ],
        "pollDivisionIds": [
          10138985
        ],
        "postalCode": "P0X1C0",
        "streetName": "ONTARIO",
        "streetDirectionId": null,
        "streetTypeId": "ST",
        "placeName": "KEEWATIN",
        "streetNameDisplayText": "ONTARIO ST, KEEWATIN"
      },
      {
        "electoralDistricts": [
          {
            "election": null,
            "id": 44,
            "name": "Kenora—Rainy River"
          }
        ],
        "pollDivisionIds": [
          10138985
        ],
        "postalCode": "P0X1C0",
        "streetName": "ONTARIO",
        "streetDirectionId": null,
        "streetTypeId": "ST",
        "placeName": "KENORA",
        "streetNameDisplayText": "ONTARIO ST, KENORA"
      },
      {
        "electoralDistricts": [
          {
            "election": null,
            "id": 44,
            "name": "Kenora—Rainy River"
          }
        ],
        "pollDivisionIds": [
          10138984
        ],
        "postalCode": "P0X1C0",
        "streetName": "OSTERSUND",
        "streetDirectionId": null,
        "streetTypeId": "RD",
        "placeName": "KEEWATIN",
        "streetNameDisplayText": "OSTERSUND RD, KEEWATIN"
      },
      {
        "electoralDistricts": [
          {
            "election": null,
            "id": 44,
            "name": "Kenora—Rainy River"
          }
        ],
        "pollDivisionIds": [
          10138985,
          10138989
        ],
        "postalCode": "P0X1C0",
        "streetName": "OTTAWA",
        "streetDirectionId": null,
        "streetTypeId": "ST",
        "placeName": "KEEWATIN",
        "streetNameDisplayText": "OTTAWA ST, KEEWATIN"
      },
      {
        "electoralDistricts": [
          {
            "election": null,
            "id": 44,
            "name": "Kenora—Rainy River"
          }
        ],
        "pollDivisionIds": [
          10138985
        ],
        "postalCode": "P0X1C0",
        "streetName": "PADDY LAKE",
        "streetDirectionId": null,
        "streetTypeId": "RD",
        "placeName": "KEEWATIN",
        "streetNameDisplayText": "PADDY LAKE RD, KEEWATIN"
      },
      {
        "electoralDistricts": [
          {
            "election": null,
            "id": 44,
            "name": "Kenora—Rainy River"
          }
        ],
        "pollDivisionIds": [
          10138984
        ],
        "postalCode": "P0X1C0",
        "streetName": "PAKALUK",
        "streetDirectionId": null,
        "streetTypeId": "RD",
        "placeName": "KEEWATIN",
        "streetNameDisplayText": "PAKALUK RD, KEEWATIN"
      },
      {
        "electoralDistricts": [
          {
            "election": null,
            "id": 44,
            "name": "Kenora—Rainy River"
          }
        ],
        "pollDivisionIds": [
          10138985
        ],
        "postalCode": "P0X1C0",
        "streetName": "PELICAN",
        "streetDirectionId": null,
        "streetTypeId": "RD",
        "placeName": "KEEWATIN",
        "streetNameDisplayText": "PELICAN RD, KEEWATIN"
      },
      {
        "electoralDistricts": [
          {
            "election": null,
            "id": 44,
            "name": "Kenora—Rainy River"
          }
        ],
        "pollDivisionIds": [
          10138985
        ],
        "postalCode": "P0X1C0",
        "streetName": "PELICAN",
        "streetDirectionId": null,
        "streetTypeId": "RD",
        "placeName": "KENORA",
        "streetNameDisplayText": "PELICAN RD, KENORA"
      },
      {
        "electoralDistricts": [
          {
            "election": null,
            "id": 44,
            "name": "Kenora—Rainy River"
          }
        ],
        "pollDivisionIds": [
          10138984
        ],
        "postalCode": "P0X1C0",
        "streetName": "PELLATT",
        "streetDirectionId": null,
        "streetTypeId": "RD",
        "placeName": "KEEWATIN",
        "streetNameDisplayText": "PELLATT RD, KEEWATIN"
      },
      {
        "electoralDistricts": [
          {
            "election": null,
            "id": 44,
            "name": "Kenora—Rainy River"
          }
        ],
        "pollDivisionIds": [
          10138984
        ],
        "postalCode": "P0X1C0",
        "streetName": "PENNY LANE",
        "streetDirectionId": null,
        "streetTypeId": "RD",
        "placeName": "KEEWATIN",
        "streetNameDisplayText": "PENNY LANE RD, KEEWATIN"
      },
      {
        "electoralDistricts": [
          {
            "election": null,
            "id": 44,
            "name": "Kenora—Rainy River"
          }
        ],
        "pollDivisionIds": [
          10138985,
          10138990
        ],
        "postalCode": "P0X1C0",
        "streetName": "PETERSON",
        "streetDirectionId": null,
        "streetTypeId": "DR",
        "placeName": "KEEWATIN",
        "streetNameDisplayText": "PETERSON DR, KEEWATIN"
      },
      {
        "electoralDistricts": [
          {
            "election": null,
            "id": 44,
            "name": "Kenora—Rainy River"
          }
        ],
        "pollDivisionIds": [
          10138985
        ],
        "postalCode": "P0X1C0",
        "streetName": "PHANTOM",
        "streetDirectionId": null,
        "streetTypeId": "DR",
        "placeName": "KEEWATIN",
        "streetNameDisplayText": "PHANTOM DR, KEEWATIN"
      },
      {
        "electoralDistricts": [
          {
            "election": null,
            "id": 44,
            "name": "Kenora—Rainy River"
          }
        ],
        "pollDivisionIds": [
          10138984
        ],
        "postalCode": "P0X1C0",
        "streetName": "PICKEREL LAKE",
        "streetDirectionId": null,
        "streetTypeId": "RD",
        "placeName": "KEEWATIN",
        "streetNameDisplayText": "PICKEREL LAKE RD, KEEWATIN"
      },
      {
        "electoralDistricts": [
          {
            "election": null,
            "id": 44,
            "name": "Kenora—Rainy River"
          }
        ],
        "pollDivisionIds": [
          10139029
        ],
        "postalCode": "P0X1C0",
        "streetName": "PINE MEADOW",
        "streetDirectionId": null,
        "streetTypeId": "DR",
        "placeName": "KEEWATIN",
        "streetNameDisplayText": "PINE MEADOW DR, KEEWATIN"
      },
      {
        "electoralDistricts": [
          {
            "election": null,
            "id": 44,
            "name": "Kenora—Rainy River"
          }
        ],
        "pollDivisionIds": [
          10138985
        ],
        "postalCode": "P0X1C0",
        "streetName": "PINEWOOD",
        "streetDirectionId": null,
        "streetTypeId": "DR",
        "placeName": "KEEWATIN",
        "streetNameDisplayText": "PINEWOOD DR, KEEWATIN"
      },
      {
        "electoralDistricts": [
          {
            "election": null,
            "id": 44,
            "name": "Kenora—Rainy River"
          }
        ],
        "pollDivisionIds": [
          10138985
        ],
        "postalCode": "P0X1C0",
        "streetName": "PIRIE",
        "streetDirectionId": null,
        "streetTypeId": "LANE",
        "placeName": "KEEWATIN",
        "streetNameDisplayText": "PIRIE LANE, KEEWATIN"
      },
      {
        "electoralDistricts": [
          {
            "election": null,
            "id": 44,
            "name": "Kenora—Rainy River"
          }
        ],
        "pollDivisionIds": [
          10138984
        ],
        "postalCode": "P0X1C0",
        "streetName": "POINT",
        "streetDirectionId": null,
        "streetTypeId": "RD",
        "placeName": "KEEWATIN",
        "streetNameDisplayText": "POINT RD, KEEWATIN"
      },
      {
        "electoralDistricts": [
          {
            "election": null,
            "id": 44,
            "name": "Kenora—Rainy River"
          }
        ],
        "pollDivisionIds": [
          10138986
        ],
        "postalCode": "P0X1C0",
        "streetName": "POPLAR BAY",
        "streetDirectionId": "N",
        "streetTypeId": "RD",
        "placeName": "KEEWATIN",
        "streetNameDisplayText": "POPLAR BAY RD N, KEEWATIN"
      },
      {
        "electoralDistricts": [
          {
            "election": null,
            "id": 44,
            "name": "Kenora—Rainy River"
          }
        ],
        "pollDivisionIds": [
          10138985,
          10138986
        ],
        "postalCode": "P0X1C0",
        "streetName": "POPLAR BAY",
        "streetDirectionId": null,
        "streetTypeId": "RD",
        "placeName": "KEEWATIN",
        "streetNameDisplayText": "POPLAR BAY RD, KEEWATIN"
      },
      {
        "electoralDistricts": [
          {
            "election": null,
            "id": 44,
            "name": "Kenora—Rainy River"
          }
        ],
        "pollDivisionIds": [
          10138986
        ],
        "postalCode": "P0X1C0",
        "streetName": "POPLAR BAY",
        "streetDirectionId": null,
        "streetTypeId": "RD",
        "placeName": "RAT PORTAGE 38A",
        "streetNameDisplayText": "POPLAR BAY RD, RAT PORTAGE 38A"
      },
      {
        "electoralDistricts": [
          {
            "election": null,
            "id": 44,
            "name": "Kenora—Rainy River"
          }
        ],
        "pollDivisionIds": [
          10139010
        ],
        "postalCode": "P0X1C0",
        "streetName": "POPLAR",
        "streetDirectionId": null,
        "streetTypeId": "BAY",
        "placeName": "DISTRICT OF KENORA",
        "streetNameDisplayText": "POPLAR BAY, DISTRICT OF KENORA"
      },
      {
        "electoralDistricts": [
          {
            "election": null,
            "id": 44,
            "name": "Kenora—Rainy River"
          }
        ],
        "pollDivisionIds": [
          10138985
        ],
        "postalCode": "P0X1C0",
        "streetName": "POPLAR",
        "streetDirectionId": null,
        "streetTypeId": "BAY",
        "placeName": "KEEWATIN",
        "streetNameDisplayText": "POPLAR BAY, KEEWATIN"
      },
      {
        "electoralDistricts": [
          {
            "election": null,
            "id": 44,
            "name": "Kenora—Rainy River"
          }
        ],
        "pollDivisionIds": [
          10138985
        ],
        "postalCode": "P0X1C0",
        "streetName": "POPLAR",
        "streetDirectionId": null,
        "streetTypeId": "ST",
        "placeName": "KEEWATIN",
        "streetNameDisplayText": "POPLAR ST, KEEWATIN"
      },
      {
        "electoralDistricts": [
          {
            "election": null,
            "id": 44,
            "name": "Kenora—Rainy River"
          }
        ],
        "pollDivisionIds": [
          10138985,
          10138989
        ],
        "postalCode": "P0X1C0",
        "streetName": "PORTAGE",
        "streetDirectionId": null,
        "streetTypeId": "ST",
        "placeName": "KEEWATIN",
        "streetNameDisplayText": "PORTAGE ST, KEEWATIN"
      },
      {
        "electoralDistricts": [
          {
            "election": null,
            "id": 44,
            "name": "Kenora—Rainy River"
          }
        ],
        "pollDivisionIds": [
          10138984
        ],
        "postalCode": "P0X1C0",
        "streetName": "PRICE",
        "streetDirectionId": null,
        "streetTypeId": "RD",
        "placeName": "KEEWATIN",
        "streetNameDisplayText": "PRICE RD, KEEWATIN"
      },
      {
        "electoralDistricts": [
          {
            "election": null,
            "id": 44,
            "name": "Kenora—Rainy River"
          }
        ],
        "pollDivisionIds": [
          10138984
        ],
        "postalCode": "P0X1C0",
        "streetName": "PRICE",
        "streetDirectionId": null,
        "streetTypeId": "RD",
        "placeName": "KENORA",
        "streetNameDisplayText": "PRICE RD, KENORA"
      },
      {
        "electoralDistricts": [
          {
            "election": null,
            "id": 44,
            "name": "Kenora—Rainy River"
          }
        ],
        "pollDivisionIds": [
          10138984
        ],
        "postalCode": "P0X1C0",
        "streetName": "PRIMROSE",
        "streetDirectionId": null,
        "streetTypeId": "LANE",
        "placeName": "KEEWATIN",
        "streetNameDisplayText": "PRIMROSE LANE, KEEWATIN"
      },
      {
        "electoralDistricts": [
          {
            "election": null,
            "id": 44,
            "name": "Kenora—Rainy River"
          }
        ],
        "pollDivisionIds": [
          10138984
        ],
        "postalCode": "P0X1C0",
        "streetName": "QUISTBERG",
        "streetDirectionId": null,
        "streetTypeId": "RD",
        "placeName": "KEEWATIN",
        "streetNameDisplayText": "QUISTBERG RD, KEEWATIN"
      },
      {
        "electoralDistricts": [
          {
            "election": null,
            "id": 44,
            "name": "Kenora—Rainy River"
          }
        ],
        "pollDivisionIds": [
          10138985
        ],
        "postalCode": "P0X1C0",
        "streetName": "RATCLIFFE",
        "streetDirectionId": null,
        "streetTypeId": "DR",
        "placeName": "KEEWATIN",
        "streetNameDisplayText": "RATCLIFFE DR, KEEWATIN"
      },
      {
        "electoralDistricts": [
          {
            "election": null,
            "id": 44,
            "name": "Kenora—Rainy River"
          }
        ],
        "pollDivisionIds": [
          10138985
        ],
        "postalCode": "P0X1C0",
        "streetName": "RIOUX BAY",
        "streetDirectionId": null,
        "streetTypeId": "RD",
        "placeName": "KEEWATIN",
        "streetNameDisplayText": "RIOUX BAY RD, KEEWATIN"
      },
      {
        "electoralDistricts": [
          {
            "election": null,
            "id": 44,
            "name": "Kenora—Rainy River"
          }
        ],
        "pollDivisionIds": [
          10138985
        ],
        "postalCode": "P0X1C0",
        "streetName": "RIVER",
        "streetDirectionId": null,
        "streetTypeId": "ST",
        "placeName": "KEEWATIN",
        "streetNameDisplayText": "RIVER ST, KEEWATIN"
      },
      {
        "electoralDistricts": [
          {
            "election": null,
            "id": 44,
            "name": "Kenora—Rainy River"
          }
        ],
        "pollDivisionIds": [
          10138985
        ],
        "postalCode": "P0X1C0",
        "streetName": "RIVERSIDE",
        "streetDirectionId": null,
        "streetTypeId": "DR",
        "placeName": "KENORA",
        "streetNameDisplayText": "RIVERSIDE DR, KENORA"
      },
      {
        "electoralDistricts": [
          {
            "election": null,
            "id": 44,
            "name": "Kenora—Rainy River"
          }
        ],
        "pollDivisionIds": [
          10138984
        ],
        "postalCode": "P0X1C0",
        "streetName": "RIVERVIEW",
        "streetDirectionId": null,
        "streetTypeId": "DR",
        "placeName": "KEEWATIN",
        "streetNameDisplayText": "RIVERVIEW DR, KEEWATIN"
      },
      {
        "electoralDistricts": [
          {
            "election": null,
            "id": 44,
            "name": "Kenora—Rainy River"
          }
        ],
        "pollDivisionIds": [
          10138985
        ],
        "postalCode": "P0X1C0",
        "streetName": "ROCK LAKE",
        "streetDirectionId": null,
        "streetTypeId": "RD",
        "placeName": "KEEWATIN",
        "streetNameDisplayText": "ROCK LAKE RD, KEEWATIN"
      },
      {
        "electoralDistricts": [
          {
            "election": null,
            "id": 44,
            "name": "Kenora—Rainy River"
          }
        ],
        "pollDivisionIds": [
          10138985
        ],
        "postalCode": "P0X1C0",
        "streetName": "ROSS",
        "streetDirectionId": null,
        "streetTypeId": "ST",
        "placeName": "KEEWATIN",
        "streetNameDisplayText": "ROSS ST, KEEWATIN"
      },
      {
        "electoralDistricts": [
          {
            "election": null,
            "id": 44,
            "name": "Kenora—Rainy River"
          }
        ],
        "pollDivisionIds": [
          10138984
        ],
        "postalCode": "P0X1C0",
        "streetName": "SCHOOL",
        "streetDirectionId": null,
        "streetTypeId": "RD",
        "placeName": "KEEWATIN",
        "streetNameDisplayText": "SCHOOL RD, KEEWATIN"
      },
      {
        "electoralDistricts": [
          {
            "election": null,
            "id": 44,
            "name": "Kenora—Rainy River"
          }
        ],
        "pollDivisionIds": [
          10139005
        ],
        "postalCode": "P0X1C0",
        "streetName": "SCHOOL",
        "streetDirectionId": null,
        "streetTypeId": "RD",
        "placeName": "KENORA",
        "streetNameDisplayText": "SCHOOL RD, KENORA"
      },
      {
        "electoralDistricts": [
          {
            "election": null,
            "id": 44,
            "name": "Kenora—Rainy River"
          }
        ],
        "pollDivisionIds": [
          10138984
        ],
        "postalCode": "P0X1C0",
        "streetName": "SCHRODER",
        "streetDirectionId": null,
        "streetTypeId": "RD",
        "placeName": "KEEWATIN",
        "streetNameDisplayText": "SCHRODER RD, KEEWATIN"
      },
      {
        "electoralDistricts": [
          {
            "election": null,
            "id": 44,
            "name": "Kenora—Rainy River"
          }
        ],
        "pollDivisionIds": [
          10138985
        ],
        "postalCode": "P0X1C0",
        "streetName": "SEVENTH",
        "streetDirectionId": null,
        "streetTypeId": "ST",
        "placeName": "KEEWATIN",
        "streetNameDisplayText": "SEVENTH ST, KEEWATIN"
      },
      {
        "electoralDistricts": [
          {
            "election": null,
            "id": 44,
            "name": "Kenora—Rainy River"
          }
        ],
        "pollDivisionIds": [
          10138985
        ],
        "postalCode": "P0X1C0",
        "streetName": "SIXTH",
        "streetDirectionId": null,
        "streetTypeId": "ST",
        "placeName": "KEEWATIN",
        "streetNameDisplayText": "SIXTH ST, KEEWATIN"
      },
      {
        "electoralDistricts": [
          {
            "election": null,
            "id": 44,
            "name": "Kenora—Rainy River"
          }
        ],
        "pollDivisionIds": [
          10138985
        ],
        "postalCode": "P0X1C0",
        "streetName": "SPRUCE LAKE",
        "streetDirectionId": null,
        "streetTypeId": "RD",
        "placeName": "KEEWATIN",
        "streetNameDisplayText": "SPRUCE LAKE RD, KEEWATIN"
      },
      {
        "electoralDistricts": [
          {
            "election": null,
            "id": 44,
            "name": "Kenora—Rainy River"
          }
        ],
        "pollDivisionIds": [
          10138985
        ],
        "postalCode": "P0X1C0",
        "streetName": "SPRUCE",
        "streetDirectionId": null,
        "streetTypeId": "ST",
        "placeName": "KEEWATIN",
        "streetNameDisplayText": "SPRUCE ST, KEEWATIN"
      },
      {
        "electoralDistricts": [
          {
            "election": null,
            "id": 44,
            "name": "Kenora—Rainy River"
          }
        ],
        "pollDivisionIds": [
          10138985
        ],
        "postalCode": "P0X1C0",
        "streetName": "ST CLAIR",
        "streetDirectionId": null,
        "streetTypeId": "ST",
        "placeName": "KEEWATIN",
        "streetNameDisplayText": "ST CLAIR ST, KEEWATIN"
      },
      {
        "electoralDistricts": [
          {
            "election": null,
            "id": 44,
            "name": "Kenora—Rainy River"
          }
        ],
        "pollDivisionIds": [
          10138985
        ],
        "postalCode": "P0X1C0",
        "streetName": "ST. CLAIR",
        "streetDirectionId": null,
        "streetTypeId": "ST",
        "placeName": "KEEWATIN",
        "streetNameDisplayText": "ST. CLAIR ST, KEEWATIN"
      },
      {
        "electoralDistricts": [
          {
            "election": null,
            "id": 44,
            "name": "Kenora—Rainy River"
          }
        ],
        "pollDivisionIds": [
          10139010
        ],
        "postalCode": "P0X1C0",
        "streetName": "STORM BAY",
        "streetDirectionId": null,
        "streetTypeId": "RD",
        "placeName": "LONGBOW LAKE",
        "streetNameDisplayText": "STORM BAY RD, LONGBOW LAKE"
      },
      {
        "electoralDistricts": [
          {
            "election": null,
            "id": 44,
            "name": "Kenora—Rainy River"
          }
        ],
        "pollDivisionIds": [
          10138984
        ],
        "postalCode": "P0X1C0",
        "streetName": "SUNDIN",
        "streetDirectionId": null,
        "streetTypeId": "RD",
        "placeName": "KEEWATIN",
        "streetNameDisplayText": "SUNDIN RD, KEEWATIN"
      },
      {
        "electoralDistricts": [
          {
            "election": null,
            "id": 44,
            "name": "Kenora—Rainy River"
          }
        ],
        "pollDivisionIds": [
          10138984
        ],
        "postalCode": "P0X1C0",
        "streetName": "SUNDIN",
        "streetDirectionId": null,
        "streetTypeId": "RD",
        "placeName": "KENORA",
        "streetNameDisplayText": "SUNDIN RD, KENORA"
      },
      {
        "electoralDistricts": [
          {
            "election": null,
            "id": 44,
            "name": "Kenora—Rainy River"
          }
        ],
        "pollDivisionIds": [
          10138985
        ],
        "postalCode": "P0X1C0",
        "streetName": "SUNNYSIDE",
        "streetDirectionId": null,
        "streetTypeId": "RD",
        "placeName": "KEEWATIN",
        "streetNameDisplayText": "SUNNYSIDE RD, KEEWATIN"
      },
      {
        "electoralDistricts": [
          {
            "election": null,
            "id": 44,
            "name": "Kenora—Rainy River"
          }
        ],
        "pollDivisionIds": [
          10138985,
          10138989
        ],
        "postalCode": "P0X1C0",
        "streetName": "SUPERIOR",
        "streetDirectionId": null,
        "streetTypeId": "ST",
        "placeName": "KEEWATIN",
        "streetNameDisplayText": "SUPERIOR ST, KEEWATIN"
      },
      {
        "electoralDistricts": [
          {
            "election": null,
            "id": 44,
            "name": "Kenora—Rainy River"
          }
        ],
        "pollDivisionIds": [
          10138984
        ],
        "postalCode": "P0X1C0",
        "streetName": "SWAYZE",
        "streetDirectionId": null,
        "streetTypeId": "DR",
        "placeName": "KEEWATIN",
        "streetNameDisplayText": "SWAYZE DR, KEEWATIN"
      },
      {
        "electoralDistricts": [
          {
            "election": null,
            "id": 44,
            "name": "Kenora—Rainy River"
          }
        ],
        "pollDivisionIds": [
          10138985,
          10138989
        ],
        "postalCode": "P0X1C0",
        "streetName": "TENTH",
        "streetDirectionId": null,
        "streetTypeId": "ST",
        "placeName": "KEEWATIN",
        "streetNameDisplayText": "TENTH ST, KEEWATIN"
      },
      {
        "electoralDistricts": [
          {
            "election": null,
            "id": 44,
            "name": "Kenora—Rainy River"
          }
        ],
        "pollDivisionIds": [
          10138985
        ],
        "postalCode": "P0X1C0",
        "streetName": "THIRD",
        "streetDirectionId": null,
        "streetTypeId": "ST",
        "placeName": "KEEWATIN",
        "streetNameDisplayText": "THIRD ST, KEEWATIN"
      },
      {
        "electoralDistricts": [
          {
            "election": null,
            "id": 44,
            "name": "Kenora—Rainy River"
          }
        ],
        "pollDivisionIds": [
          10138984
        ],
        "postalCode": "P0X1C0",
        "streetName": "TROUT LAKE",
        "streetDirectionId": null,
        "streetTypeId": "RD",
        "placeName": "INGOLF",
        "streetNameDisplayText": "TROUT LAKE RD, INGOLF"
      },
      {
        "electoralDistricts": [
          {
            "election": null,
            "id": 44,
            "name": "Kenora—Rainy River"
          }
        ],
        "pollDivisionIds": [
          10138984
        ],
        "postalCode": "P0X1C0",
        "streetName": "TROUT LAKE",
        "streetDirectionId": null,
        "streetTypeId": "RD",
        "placeName": "KEEWATIN",
        "streetNameDisplayText": "TROUT LAKE RD, KEEWATIN"
      },
      {
        "electoralDistricts": [
          {
            "election": null,
            "id": 44,
            "name": "Kenora—Rainy River"
          }
        ],
        "pollDivisionIds": [
          10138989,
          10138985
        ],
        "postalCode": "P0X1C0",
        "streetName": "TWELFTH",
        "streetDirectionId": null,
        "streetTypeId": "ST",
        "placeName": "KEEWATIN",
        "streetNameDisplayText": "TWELFTH ST, KEEWATIN"
      },
      {
        "electoralDistricts": [
          {
            "election": null,
            "id": 44,
            "name": "Kenora—Rainy River"
          }
        ],
        "pollDivisionIds": [
          10138984
        ],
        "postalCode": "P0X1C0",
        "streetName": "WACHAL",
        "streetDirectionId": null,
        "streetTypeId": "RD",
        "placeName": "KEEWATIN",
        "streetNameDisplayText": "WACHAL RD, KEEWATIN"
      },
      {
        "electoralDistricts": [
          {
            "election": null,
            "id": 44,
            "name": "Kenora—Rainy River"
          }
        ],
        "pollDivisionIds": [
          10138985
        ],
        "postalCode": "P0X1C0",
        "streetName": "WAR EAGLE LAKE",
        "streetDirectionId": null,
        "streetTypeId": "RD",
        "placeName": "KEEWATIN",
        "streetNameDisplayText": "WAR EAGLE LAKE RD, KEEWATIN"
      },
      {
        "electoralDistricts": [
          {
            "election": null,
            "id": 44,
            "name": "Kenora—Rainy River"
          }
        ],
        "pollDivisionIds": [
          10138984
        ],
        "postalCode": "P0X1C0",
        "streetName": "WATERBURY",
        "streetDirectionId": null,
        "streetTypeId": "RD",
        "placeName": "KEEWATIN",
        "streetNameDisplayText": "WATERBURY RD, KEEWATIN"
      },
      {
        "electoralDistricts": [
          {
            "election": null,
            "id": 44,
            "name": "Kenora—Rainy River"
          }
        ],
        "pollDivisionIds": [
          10138984
        ],
        "postalCode": "P0X1C0",
        "streetName": "WATHERBURY",
        "streetDirectionId": null,
        "streetTypeId": "RD",
        "placeName": "KEEWATIN",
        "streetNameDisplayText": "WATHERBURY RD, KEEWATIN"
      },
      {
        "electoralDistricts": [
          {
            "election": null,
            "id": 44,
            "name": "Kenora—Rainy River"
          }
        ],
        "pollDivisionIds": [
          10138984
        ],
        "postalCode": "P0X1C0",
        "streetName": "WATSON",
        "streetDirectionId": null,
        "streetTypeId": "RD",
        "placeName": "KEEWATIN",
        "streetNameDisplayText": "WATSON RD, KEEWATIN"
      },
      {
        "electoralDistricts": [
          {
            "election": null,
            "id": 44,
            "name": "Kenora—Rainy River"
          }
        ],
        "pollDivisionIds": [
          10139029
        ],
        "postalCode": "P0X1C0",
        "streetName": "WEBB",
        "streetDirectionId": null,
        "streetTypeId": "RD",
        "placeName": "DISTRICT OF KENORA",
        "streetNameDisplayText": "WEBB RD, DISTRICT OF KENORA"
      },
      {
        "electoralDistricts": [
          {
            "election": null,
            "id": 44,
            "name": "Kenora—Rainy River"
          }
        ],
        "pollDivisionIds": [
          10138984
        ],
        "postalCode": "P0X1C0",
        "streetName": "WEBB",
        "streetDirectionId": null,
        "streetTypeId": "RD",
        "placeName": "KEEWATIN",
        "streetNameDisplayText": "WEBB RD, KEEWATIN"
      },
      {
        "electoralDistricts": [
          {
            "election": null,
            "id": 44,
            "name": "Kenora—Rainy River"
          }
        ],
        "pollDivisionIds": [
          10138985
        ],
        "postalCode": "P0X1C0",
        "streetName": "WEST BAY",
        "streetDirectionId": null,
        "streetTypeId": "RD",
        "placeName": "KEEWATIN",
        "streetNameDisplayText": "WEST BAY RD, KEEWATIN"
      },
      {
        "electoralDistricts": [
          {
            "election": null,
            "id": 44,
            "name": "Kenora—Rainy River"
          }
        ],
        "pollDivisionIds": [
          10138985,
          10138989
        ],
        "postalCode": "P0X1C0",
        "streetName": "WHARF",
        "streetDirectionId": null,
        "streetTypeId": "ST",
        "placeName": "KEEWATIN",
        "streetNameDisplayText": "WHARF ST, KEEWATIN"
      }
    ]
  },
  {
    "postal": "P0X1E0",
    "result": [
      {
        "electoralDistricts": [
          {
            "election": null,
            "id": 44,
            "name": "Kenora—Rainy River"
          }
        ],
        "pollDivisionIds": [
          10138982
        ],
        "postalCode": "P0X1E0",
        "streetName": "4TH SHOAL",
        "streetDirectionId": null,
        "streetTypeId": "RD",
        "placeName": "KEJICK",
        "streetNameDisplayText": "4TH SHOAL RD, KEJICK"
      },
      {
        "electoralDistricts": [
          {
            "election": null,
            "id": 44,
            "name": "Kenora—Rainy River"
          }
        ],
        "pollDivisionIds": [
          10138981
        ],
        "postalCode": "P0X1E0",
        "streetName": "MACHIN",
        "streetDirectionId": null,
        "streetTypeId": "PT",
        "placeName": "SHOAL LAKE 34B2",
        "streetNameDisplayText": "MACHIN PT, SHOAL LAKE 34B2"
      },
      {
        "electoralDistricts": [
          {
            "election": null,
            "id": 44,
            "name": "Kenora—Rainy River"
          }
        ],
        "pollDivisionIds": [
          10138983
        ],
        "postalCode": "P0X1E0",
        "streetName": "SHOAL LAKE 40",
        "streetDirectionId": null,
        "streetTypeId": null,
        "placeName": "SHOAL LAKE 40",
        "streetNameDisplayText": "SHOAL LAKE 40, SHOAL LAKE 40"
      },
      {
        "electoralDistricts": [
          {
            "election": null,
            "id": 44,
            "name": "Kenora—Rainy River"
          }
        ],
        "pollDivisionIds": [
          10138982
        ],
        "postalCode": "P0X1E0",
        "streetName": "SHOAL LAKE",
        "streetDirectionId": null,
        "streetTypeId": "RD",
        "placeName": "KEJICK",
        "streetNameDisplayText": "SHOAL LAKE RD, KEJICK"
      },
      {
        "electoralDistricts": [
          {
            "election": null,
            "id": 44,
            "name": "Kenora—Rainy River"
          }
        ],
        "pollDivisionIds": [
          10138982
        ],
        "postalCode": "P0X1E0",
        "streetName": "SHOAL LAKE",
        "streetDirectionId": null,
        "streetTypeId": "RD",
        "placeName": "SHOAL LAKE 39",
        "streetNameDisplayText": "SHOAL LAKE RD, SHOAL LAKE 39"
      },
      {
        "electoralDistricts": [
          {
            "election": null,
            "id": 44,
            "name": "Kenora—Rainy River"
          }
        ],
        "pollDivisionIds": [
          10138982
        ],
        "postalCode": "P0X1E0",
        "streetName": "SHOAL LAKE RESERVE, IR",
        "streetDirectionId": null,
        "streetTypeId": "LANDNG",
        "placeName": "PICTON",
        "streetNameDisplayText": "SHOAL LAKE RESERVE, IR LANDNG, PICTON"
      },
      {
        "electoralDistricts": [
          {
            "election": null,
            "id": 44,
            "name": "Kenora—Rainy River"
          }
        ],
        "pollDivisionIds": [
          10138983
        ],
        "postalCode": "P0X1E0",
        "streetName": "SHOAL LAKE RESERVE, IR",
        "streetDirectionId": null,
        "streetTypeId": null,
        "placeName": "SHOAL LAKE (PART) 39A",
        "streetNameDisplayText": "SHOAL LAKE RESERVE, IR, SHOAL LAKE (PART) 39A"
      },
      {
        "electoralDistricts": [
          {
            "election": null,
            "id": 44,
            "name": "Kenora—Rainy River"
          }
        ],
        "pollDivisionIds": [
          10138982
        ],
        "postalCode": "P0X1E0",
        "streetName": "SHOAL LAKE RESERVE",
        "streetDirectionId": null,
        "streetTypeId": null,
        "placeName": "KEJICK",
        "streetNameDisplayText": "SHOAL LAKE RESERVE, KEJICK"
      }
    ]
  },
  {
    "postal": "P0X1H0",
    "result": [
      {
        "electoralDistricts": [
          {
            "election": null,
            "id": 44,
            "name": "Kenora—Rainy River"
          }
        ],
        "pollDivisionIds": [
          10139010
        ],
        "postalCode": "P0X1H0",
        "streetName": "17",
        "streetDirectionId": null,
        "streetTypeId": "HWY",
        "placeName": "KENORA",
        "streetNameDisplayText": "17 HWY, KENORA"
      },
      {
        "electoralDistricts": [
          {
            "election": null,
            "id": 44,
            "name": "Kenora—Rainy River"
          }
        ],
        "pollDivisionIds": [
          10139010
        ],
        "postalCode": "P0X1H0",
        "streetName": "17",
        "streetDirectionId": null,
        "streetTypeId": "HWY",
        "placeName": "LONGBOW LAKE",
        "streetNameDisplayText": "17 HWY, LONGBOW LAKE"
      },
      {
        "electoralDistricts": [
          {
            "election": null,
            "id": 44,
            "name": "Kenora—Rainy River"
          }
        ],
        "pollDivisionIds": [
          10139010
        ],
        "postalCode": "P0X1H0",
        "streetName": "17A",
        "streetDirectionId": null,
        "streetTypeId": "HWY",
        "placeName": "KENORA",
        "streetNameDisplayText": "17A HWY, KENORA"
      },
      {
        "electoralDistricts": [
          {
            "election": null,
            "id": 44,
            "name": "Kenora—Rainy River"
          }
        ],
        "pollDivisionIds": [
          10139010
        ],
        "postalCode": "P0X1H0",
        "streetName": "71",
        "streetDirectionId": null,
        "streetTypeId": "HWY",
        "placeName": "KENORA",
        "streetNameDisplayText": "71 HWY, KENORA"
      },
      {
        "electoralDistricts": [
          {
            "election": null,
            "id": 44,
            "name": "Kenora—Rainy River"
          }
        ],
        "pollDivisionIds": [
          10139010
        ],
        "postalCode": "P0X1H0",
        "streetName": "71",
        "streetDirectionId": null,
        "streetTypeId": "HWY",
        "placeName": "LONGBOW LAKE",
        "streetNameDisplayText": "71 HWY, LONGBOW LAKE"
      },
      {
        "electoralDistricts": [
          {
            "election": null,
            "id": 44,
            "name": "Kenora—Rainy River"
          }
        ],
        "pollDivisionIds": [
          10139010
        ],
        "postalCode": "P0X1H0",
        "streetName": "BIG STONE BAY",
        "streetDirectionId": null,
        "streetTypeId": "RD",
        "placeName": "LONGBOW LAKE",
        "streetNameDisplayText": "BIG STONE BAY RD, LONGBOW LAKE"
      },
      {
        "electoralDistricts": [
          {
            "election": null,
            "id": 44,
            "name": "Kenora—Rainy River"
          }
        ],
        "pollDivisionIds": [
          10139010
        ],
        "postalCode": "P0X1H0",
        "streetName": "BIGSTONE BAY",
        "streetDirectionId": null,
        "streetTypeId": "RD",
        "placeName": "KENORA",
        "streetNameDisplayText": "BIGSTONE BAY RD, KENORA"
      },
      {
        "electoralDistricts": [
          {
            "election": null,
            "id": 44,
            "name": "Kenora—Rainy River"
          }
        ],
        "pollDivisionIds": [
          10139010
        ],
        "postalCode": "P0X1H0",
        "streetName": "BIGSTONE BAY",
        "streetDirectionId": null,
        "streetTypeId": "RD",
        "placeName": "LONGBOW LAKE",
        "streetNameDisplayText": "BIGSTONE BAY RD, LONGBOW LAKE"
      },
      {
        "electoralDistricts": [
          {
            "election": null,
            "id": 44,
            "name": "Kenora—Rainy River"
          }
        ],
        "pollDivisionIds": [
          10139010
        ],
        "postalCode": "P0X1H0",
        "streetName": "BIRCH GROVE",
        "streetDirectionId": null,
        "streetTypeId": "RD",
        "placeName": "LONGBOW LAKE",
        "streetNameDisplayText": "BIRCH GROVE RD, LONGBOW LAKE"
      },
      {
        "electoralDistricts": [
          {
            "election": null,
            "id": 44,
            "name": "Kenora—Rainy River"
          }
        ],
        "pollDivisionIds": [
          10139010
        ],
        "postalCode": "P0X1H0",
        "streetName": "BLINDFOLD BAY",
        "streetDirectionId": null,
        "streetTypeId": "DR",
        "placeName": "LONGBOW LAKE",
        "streetNameDisplayText": "BLINDFOLD BAY DR, LONGBOW LAKE"
      },
      {
        "electoralDistricts": [
          {
            "election": null,
            "id": 44,
            "name": "Kenora—Rainy River"
          }
        ],
        "pollDivisionIds": [
          10139010
        ],
        "postalCode": "P0X1H0",
        "streetName": "BLINDFOLD",
        "streetDirectionId": "S",
        "streetTypeId": "RD",
        "placeName": "LONGBOW LAKE",
        "streetNameDisplayText": "BLINDFOLD RD S, LONGBOW LAKE"
      },
      {
        "electoralDistricts": [
          {
            "election": null,
            "id": 44,
            "name": "Kenora—Rainy River"
          }
        ],
        "pollDivisionIds": [
          10139010
        ],
        "postalCode": "P0X1H0",
        "streetName": "BOULTON",
        "streetDirectionId": null,
        "streetTypeId": "RD",
        "placeName": "LONGBOW LAKE",
        "streetNameDisplayText": "BOULTON RD, LONGBOW LAKE"
      },
      {
        "electoralDistricts": [
          {
            "election": null,
            "id": 44,
            "name": "Kenora—Rainy River"
          }
        ],
        "pollDivisionIds": [
          10139010
        ],
        "postalCode": "P0X1H0",
        "streetName": "BRANCH 11",
        "streetDirectionId": null,
        "streetTypeId": "RD",
        "placeName": "KENORA",
        "streetNameDisplayText": "BRANCH 11 RD, KENORA"
      },
      {
        "electoralDistricts": [
          {
            "election": null,
            "id": 44,
            "name": "Kenora—Rainy River"
          }
        ],
        "pollDivisionIds": [
          10139010
        ],
        "postalCode": "P0X1H0",
        "streetName": "BURNT BAY",
        "streetDirectionId": null,
        "streetTypeId": "RD",
        "placeName": "DISTRICT OF KENORA",
        "streetNameDisplayText": "BURNT BAY RD, DISTRICT OF KENORA"
      },
      {
        "electoralDistricts": [
          {
            "election": null,
            "id": 44,
            "name": "Kenora—Rainy River"
          }
        ],
        "pollDivisionIds": [
          10139010
        ],
        "postalCode": "P0X1H0",
        "streetName": "BURNT BAY",
        "streetDirectionId": null,
        "streetTypeId": "RD",
        "placeName": "LONGBOW LAKE",
        "streetNameDisplayText": "BURNT BAY RD, LONGBOW LAKE"
      },
      {
        "electoralDistricts": [
          {
            "election": null,
            "id": 44,
            "name": "Kenora—Rainy River"
          }
        ],
        "pollDivisionIds": [
          10139010
        ],
        "postalCode": "P0X1H0",
        "streetName": "EAST HOCKEY HAVEN",
        "streetDirectionId": "E",
        "streetTypeId": "RD",
        "placeName": "LONGBOW LAKE",
        "streetNameDisplayText": "EAST HOCKEY HAVEN RD E, LONGBOW LAKE"
      },
      {
        "electoralDistricts": [
          {
            "election": null,
            "id": 44,
            "name": "Kenora—Rainy River"
          }
        ],
        "pollDivisionIds": [
          10139010
        ],
        "postalCode": "P0X1H0",
        "streetName": "EB 387",
        "streetDirectionId": null,
        "streetTypeId": "PT",
        "placeName": "LONGBOW LAKE",
        "streetNameDisplayText": "EB 387 PT, LONGBOW LAKE"
      },
      {
        "electoralDistricts": [
          {
            "election": null,
            "id": 44,
            "name": "Kenora—Rainy River"
          }
        ],
        "pollDivisionIds": [
          10139008
        ],
        "postalCode": "P0X1H0",
        "streetName": "GREENRIDGE",
        "streetDirectionId": null,
        "streetTypeId": "RD",
        "placeName": "KENORA",
        "streetNameDisplayText": "GREENRIDGE RD, KENORA"
      },
      {
        "electoralDistricts": [
          {
            "election": null,
            "id": 44,
            "name": "Kenora—Rainy River"
          }
        ],
        "pollDivisionIds": [
          10139010
        ],
        "postalCode": "P0X1H0",
        "streetName": "GUSTAFSON",
        "streetDirectionId": null,
        "streetTypeId": "RD",
        "placeName": "LONGBOW LAKE",
        "streetNameDisplayText": "GUSTAFSON RD, LONGBOW LAKE"
      },
      {
        "electoralDistricts": [
          {
            "election": null,
            "id": 44,
            "name": "Kenora—Rainy River"
          }
        ],
        "pollDivisionIds": [
          10139010
        ],
        "postalCode": "P0X1H0",
        "streetName": "HERITAGE",
        "streetDirectionId": null,
        "streetTypeId": "RD",
        "placeName": "LONGBOW LAKE",
        "streetNameDisplayText": "HERITAGE RD, LONGBOW LAKE"
      },
      {
        "electoralDistricts": [
          {
            "election": null,
            "id": 44,
            "name": "Kenora—Rainy River"
          }
        ],
        "pollDivisionIds": [
          10139008
        ],
        "postalCode": "P0X1H0",
        "streetName": "HILLY LAKE",
        "streetDirectionId": null,
        "streetTypeId": "RD",
        "placeName": "KENORA",
        "streetNameDisplayText": "HILLY LAKE RD, KENORA"
      },
      {
        "electoralDistricts": [
          {
            "election": null,
            "id": 44,
            "name": "Kenora—Rainy River"
          }
        ],
        "pollDivisionIds": [
          10139010
        ],
        "postalCode": "P0X1H0",
        "streetName": "HOCKEY HAVEN",
        "streetDirectionId": null,
        "streetTypeId": "RD",
        "placeName": "LONGBOW LAKE",
        "streetNameDisplayText": "HOCKEY HAVEN RD, LONGBOW LAKE"
      },
      {
        "electoralDistricts": [
          {
            "election": null,
            "id": 44,
            "name": "Kenora—Rainy River"
          }
        ],
        "pollDivisionIds": [
          10139010
        ],
        "postalCode": "P0X1H0",
        "streetName": "KIMBERLEY",
        "streetDirectionId": null,
        "streetTypeId": "RD",
        "placeName": "KENORA",
        "streetNameDisplayText": "KIMBERLEY RD, KENORA"
      },
      {
        "electoralDistricts": [
          {
            "election": null,
            "id": 44,
            "name": "Kenora—Rainy River"
          }
        ],
        "pollDivisionIds": [
          10139010
        ],
        "postalCode": "P0X1H0",
        "streetName": "KIMBERLEY",
        "streetDirectionId": null,
        "streetTypeId": "RD",
        "placeName": "LONGBOW LAKE",
        "streetNameDisplayText": "KIMBERLEY RD, LONGBOW LAKE"
      },
      {
        "electoralDistricts": [
          {
            "election": null,
            "id": 44,
            "name": "Kenora—Rainy River"
          }
        ],
        "pollDivisionIds": [
          10139010
        ],
        "postalCode": "P0X1H0",
        "streetName": "LONGBOW LAKE",
        "streetDirectionId": null,
        "streetTypeId": "RD",
        "placeName": "DISTRICT OF KENORA",
        "streetNameDisplayText": "LONGBOW LAKE RD, DISTRICT OF KENORA"
      },
      {
        "electoralDistricts": [
          {
            "election": null,
            "id": 44,
            "name": "Kenora—Rainy River"
          }
        ],
        "pollDivisionIds": [
          10139010
        ],
        "postalCode": "P0X1H0",
        "streetName": "LONGBOW LAKE",
        "streetDirectionId": null,
        "streetTypeId": "RD",
        "placeName": "KENORA",
        "streetNameDisplayText": "LONGBOW LAKE RD, KENORA"
      },
      {
        "electoralDistricts": [
          {
            "election": null,
            "id": 44,
            "name": "Kenora—Rainy River"
          }
        ],
        "pollDivisionIds": [
          10139010
        ],
        "postalCode": "P0X1H0",
        "streetName": "LONGBOW LAKE",
        "streetDirectionId": null,
        "streetTypeId": "RD",
        "placeName": "LONGBOW LAKE",
        "streetNameDisplayText": "LONGBOW LAKE RD, LONGBOW LAKE"
      },
      {
        "electoralDistricts": [
          {
            "election": null,
            "id": 44,
            "name": "Kenora—Rainy River"
          }
        ],
        "pollDivisionIds": [
          10139010
        ],
        "postalCode": "P0X1H0",
        "streetName": "LONGBOW LAKE",
        "streetDirectionId": null,
        "streetTypeId": "RD",
        "placeName": "NORTH BAY",
        "streetNameDisplayText": "LONGBOW LAKE RD, NORTH BAY"
      },
      {
        "electoralDistricts": [
          {
            "election": null,
            "id": 44,
            "name": "Kenora—Rainy River"
          }
        ],
        "pollDivisionIds": [
          10139010
        ],
        "postalCode": "P0X1H0",
        "streetName": "PARKLAND",
        "streetDirectionId": null,
        "streetTypeId": "RD",
        "placeName": "LONGBOW LAKE",
        "streetNameDisplayText": "PARKLAND RD, LONGBOW LAKE"
      },
      {
        "electoralDistricts": [
          {
            "election": null,
            "id": 44,
            "name": "Kenora—Rainy River"
          }
        ],
        "pollDivisionIds": [
          10138984
        ],
        "postalCode": "P0X1H0",
        "streetName": "POINT",
        "streetDirectionId": null,
        "streetTypeId": "RD",
        "placeName": "KEEWATIN",
        "streetNameDisplayText": "POINT RD, KEEWATIN"
      },
      {
        "electoralDistricts": [
          {
            "election": null,
            "id": 44,
            "name": "Kenora—Rainy River"
          }
        ],
        "pollDivisionIds": [
          10139010
        ],
        "postalCode": "P0X1H0",
        "streetName": "PRIMMERS",
        "streetDirectionId": null,
        "streetTypeId": "RD",
        "placeName": "KENORA",
        "streetNameDisplayText": "PRIMMERS RD, KENORA"
      },
      {
        "electoralDistricts": [
          {
            "election": null,
            "id": 44,
            "name": "Kenora—Rainy River"
          }
        ],
        "pollDivisionIds": [
          10139010
        ],
        "postalCode": "P0X1H0",
        "streetName": "PRIMMERS",
        "streetDirectionId": null,
        "streetTypeId": "RD",
        "placeName": "LONGBOW LAKE",
        "streetNameDisplayText": "PRIMMERS RD, LONGBOW LAKE"
      },
      {
        "electoralDistricts": [
          {
            "election": null,
            "id": 44,
            "name": "Kenora—Rainy River"
          }
        ],
        "pollDivisionIds": [
          10139010
        ],
        "postalCode": "P0X1H0",
        "streetName": "RED PINE",
        "streetDirectionId": null,
        "streetTypeId": "RD",
        "placeName": "LONGBOW LAKE",
        "streetNameDisplayText": "RED PINE RD, LONGBOW LAKE"
      },
      {
        "electoralDistricts": [
          {
            "election": null,
            "id": 44,
            "name": "Kenora—Rainy River"
          }
        ],
        "pollDivisionIds": [
          10139010
        ],
        "postalCode": "P0X1H0",
        "streetName": "SMITH",
        "streetDirectionId": null,
        "streetTypeId": "RD",
        "placeName": "LONGBOW LAKE",
        "streetNameDisplayText": "SMITH RD, LONGBOW LAKE"
      },
      {
        "electoralDistricts": [
          {
            "election": null,
            "id": 44,
            "name": "Kenora—Rainy River"
          }
        ],
        "pollDivisionIds": [
          10139010
        ],
        "postalCode": "P0X1H0",
        "streetName": "STORM BAY",
        "streetDirectionId": null,
        "streetTypeId": "RD",
        "placeName": "KENORA",
        "streetNameDisplayText": "STORM BAY RD, KENORA"
      },
      {
        "electoralDistricts": [
          {
            "election": null,
            "id": 44,
            "name": "Kenora—Rainy River"
          }
        ],
        "pollDivisionIds": [
          10139010
        ],
        "postalCode": "P0X1H0",
        "streetName": "STORM BAY",
        "streetDirectionId": null,
        "streetTypeId": "RD",
        "placeName": "LONGBOW LAKE",
        "streetNameDisplayText": "STORM BAY RD, LONGBOW LAKE"
      },
      {
        "electoralDistricts": [
          {
            "election": null,
            "id": 44,
            "name": "Kenora—Rainy River"
          }
        ],
        "pollDivisionIds": [
          10139010
        ],
        "postalCode": "P0X1H0",
        "streetName": "THUNDER RIDGE",
        "streetDirectionId": null,
        "streetTypeId": "RD",
        "placeName": "LONGBOW LAKE",
        "streetNameDisplayText": "THUNDER RIDGE RD, LONGBOW LAKE"
      },
      {
        "electoralDistricts": [
          {
            "election": null,
            "id": 44,
            "name": "Kenora—Rainy River"
          }
        ],
        "pollDivisionIds": [
          10139010
        ],
        "postalCode": "P0X1H0",
        "streetName": "WHITTA",
        "streetDirectionId": null,
        "streetTypeId": "DR",
        "placeName": "LONGBOW LAKE",
        "streetNameDisplayText": "WHITTA DR, LONGBOW LAKE"
      },
      {
        "electoralDistricts": [
          {
            "election": null,
            "id": 44,
            "name": "Kenora—Rainy River"
          }
        ],
        "pollDivisionIds": [
          10139010
        ],
        "postalCode": "P0X1H0",
        "streetName": "WILLARD LAKE",
        "streetDirectionId": null,
        "streetTypeId": null,
        "placeName": "DISTRICT OF KENORA",
        "streetNameDisplayText": "WILLARD LAKE, DISTRICT OF KENORA"
      }
    ]
  },
  {
    "postal": "P0X1J0",
    "result": [
      {
        "electoralDistricts": [
          {
            "election": null,
            "id": 44,
            "name": "Kenora—Rainy River"
          }
        ],
        "pollDivisionIds": [
          10138980
        ],
        "postalCode": "P0X1J0",
        "streetName": "14",
        "streetDirectionId": null,
        "streetTypeId": "RD",
        "placeName": "MINAKI",
        "streetNameDisplayText": "14 RD, MINAKI"
      },
      {
        "electoralDistricts": [
          {
            "election": null,
            "id": 44,
            "name": "Kenora—Rainy River"
          }
        ],
        "pollDivisionIds": [
          10138984
        ],
        "postalCode": "P0X1J0",
        "streetName": "596",
        "streetDirectionId": null,
        "streetTypeId": "HWY",
        "placeName": "KEEWATIN",
        "streetNameDisplayText": "596 HWY, KEEWATIN"
      },
      {
        "electoralDistricts": [
          {
            "election": null,
            "id": 44,
            "name": "Kenora—Rainy River"
          }
        ],
        "pollDivisionIds": [
          10138980
        ],
        "postalCode": "P0X1J0",
        "streetName": "596",
        "streetDirectionId": null,
        "streetTypeId": "HWY",
        "placeName": "MINAKI",
        "streetNameDisplayText": "596 HWY, MINAKI"
      },
      {
        "electoralDistricts": [
          {
            "election": null,
            "id": 44,
            "name": "Kenora—Rainy River"
          }
        ],
        "pollDivisionIds": [
          10138980
        ],
        "postalCode": "P0X1J0",
        "streetName": "BIG NORTH",
        "streetDirectionId": "N",
        "streetTypeId": "RD",
        "placeName": "DISTRICT OF KENORA",
        "streetNameDisplayText": "BIG NORTH RD N, DISTRICT OF KENORA"
      },
      {
        "electoralDistricts": [
          {
            "election": null,
            "id": 44,
            "name": "Kenora—Rainy River"
          }
        ],
        "pollDivisionIds": [
          10138980
        ],
        "postalCode": "P0X1J0",
        "streetName": "GUNN LAKE",
        "streetDirectionId": null,
        "streetTypeId": "RD",
        "placeName": "MINAKI",
        "streetNameDisplayText": "GUNN LAKE RD, MINAKI"
      },
      {
        "electoralDistricts": [
          {
            "election": null,
            "id": 44,
            "name": "Kenora—Rainy River"
          }
        ],
        "pollDivisionIds": [
          10139023
        ],
        "postalCode": "P0X1J0",
        "streetName": "HILL",
        "streetDirectionId": null,
        "streetTypeId": "ST",
        "placeName": "DRYDEN",
        "streetNameDisplayText": "HILL ST, DRYDEN"
      },
      {
        "electoralDistricts": [
          {
            "election": null,
            "id": 44,
            "name": "Kenora—Rainy River"
          }
        ],
        "pollDivisionIds": [
          10138980
        ],
        "postalCode": "P0X1J0",
        "streetName": "HILL",
        "streetDirectionId": null,
        "streetTypeId": "ST",
        "placeName": "MINAKI",
        "streetNameDisplayText": "HILL ST, MINAKI"
      },
      {
        "electoralDistricts": [
          {
            "election": null,
            "id": 44,
            "name": "Kenora—Rainy River"
          }
        ],
        "pollDivisionIds": [
          10139025
        ],
        "postalCode": "P0X1J0",
        "streetName": "HILL",
        "streetDirectionId": null,
        "streetTypeId": "ST",
        "placeName": "WABIGOON",
        "streetNameDisplayText": "HILL ST, WABIGOON"
      },
      {
        "electoralDistricts": [
          {
            "election": null,
            "id": 44,
            "name": "Kenora—Rainy River"
          }
        ],
        "pollDivisionIds": [
          10138980
        ],
        "postalCode": "P0X1J0",
        "streetName": "MILNER'S BAY",
        "streetDirectionId": null,
        "streetTypeId": "BAY",
        "placeName": "MINAKI",
        "streetNameDisplayText": "MILNER'S BAY BAY, MINAKI"
      },
      {
        "electoralDistricts": [
          {
            "election": null,
            "id": 44,
            "name": "Kenora—Rainy River"
          }
        ],
        "pollDivisionIds": [
          10138980
        ],
        "postalCode": "P0X1J0",
        "streetName": "MINAKI LODGE",
        "streetDirectionId": null,
        "streetTypeId": "RD",
        "placeName": "DISTRICT OF KENORA",
        "streetNameDisplayText": "MINAKI LODGE RD, DISTRICT OF KENORA"
      },
      {
        "electoralDistricts": [
          {
            "election": null,
            "id": 44,
            "name": "Kenora—Rainy River"
          }
        ],
        "pollDivisionIds": [
          10138980
        ],
        "postalCode": "P0X1J0",
        "streetName": "MINAKI",
        "streetDirectionId": null,
        "streetTypeId": "RD",
        "placeName": "MINAKI",
        "streetNameDisplayText": "MINAKI RD, MINAKI"
      },
      {
        "electoralDistricts": [
          {
            "election": null,
            "id": 44,
            "name": "Kenora—Rainy River"
          }
        ],
        "pollDivisionIds": [
          10138980
        ],
        "postalCode": "P0X1J0",
        "streetName": "NELSON",
        "streetDirectionId": null,
        "streetTypeId": "AVE",
        "placeName": "MINAKI",
        "streetNameDisplayText": "NELSON AVE, MINAKI"
      },
      {
        "electoralDistricts": [
          {
            "election": null,
            "id": 44,
            "name": "Kenora—Rainy River"
          }
        ],
        "pollDivisionIds": [
          10138980
        ],
        "postalCode": "P0X1J0",
        "streetName": "NEW ROAD",
        "streetDirectionId": null,
        "streetTypeId": "RD",
        "placeName": "MINAKI",
        "streetNameDisplayText": "NEW ROAD RD, MINAKI"
      },
      {
        "electoralDistricts": [
          {
            "election": null,
            "id": 44,
            "name": "Kenora—Rainy River"
          }
        ],
        "pollDivisionIds": [
          10138980
        ],
        "postalCode": "P0X1J0",
        "streetName": "NORTH",
        "streetDirectionId": "N",
        "streetTypeId": "ST",
        "placeName": "MINAKI",
        "streetNameDisplayText": "NORTH ST N, MINAKI"
      },
      {
        "electoralDistricts": [
          {
            "election": null,
            "id": 44,
            "name": "Kenora—Rainy River"
          }
        ],
        "pollDivisionIds": [
          10138980
        ],
        "postalCode": "P0X1J0",
        "streetName": "ORDE",
        "streetDirectionId": null,
        "streetTypeId": "ST",
        "placeName": "MINAKI",
        "streetNameDisplayText": "ORDE ST, MINAKI"
      },
      {
        "electoralDistricts": [
          {
            "election": null,
            "id": 44,
            "name": "Kenora—Rainy River"
          }
        ],
        "pollDivisionIds": [
          10138980
        ],
        "postalCode": "P0X1J0",
        "streetName": "PARCEL LOCATION S 701",
        "streetDirectionId": "S",
        "streetTypeId": null,
        "placeName": "MINAKI",
        "streetNameDisplayText": "PARCEL LOCATION S 701 S, MINAKI"
      },
      {
        "electoralDistricts": [
          {
            "election": null,
            "id": 44,
            "name": "Kenora—Rainy River"
          }
        ],
        "pollDivisionIds": [
          10138980
        ],
        "postalCode": "P0X1J0",
        "streetName": "PINE",
        "streetDirectionId": null,
        "streetTypeId": "AVE",
        "placeName": "MINAKI",
        "streetNameDisplayText": "PINE AVE, MINAKI"
      },
      {
        "electoralDistricts": [
          {
            "election": null,
            "id": 44,
            "name": "Kenora—Rainy River"
          }
        ],
        "pollDivisionIds": [
          10139002
        ],
        "postalCode": "P0X1J0",
        "streetName": "RAILWAY",
        "streetDirectionId": null,
        "streetTypeId": "ST",
        "placeName": "KENORA",
        "streetNameDisplayText": "RAILWAY ST, KENORA"
      },
      {
        "electoralDistricts": [
          {
            "election": null,
            "id": 44,
            "name": "Kenora—Rainy River"
          }
        ],
        "pollDivisionIds": [
          10138980
        ],
        "postalCode": "P0X1J0",
        "streetName": "RAILWAY",
        "streetDirectionId": null,
        "streetTypeId": "ST",
        "placeName": "MINAKI",
        "streetNameDisplayText": "RAILWAY ST, MINAKI"
      },
      {
        "electoralDistricts": [
          {
            "election": null,
            "id": 44,
            "name": "Kenora—Rainy River"
          }
        ],
        "pollDivisionIds": [
          10138980
        ],
        "postalCode": "P0X1J0",
        "streetName": "REIDS",
        "streetDirectionId": null,
        "streetTypeId": "RD",
        "placeName": "MINAKI",
        "streetNameDisplayText": "REIDS RD, MINAKI"
      },
      {
        "electoralDistricts": [
          {
            "election": null,
            "id": 44,
            "name": "Kenora—Rainy River"
          }
        ],
        "pollDivisionIds": [
          10138980
        ],
        "postalCode": "P0X1J0",
        "streetName": "SAND LAKE",
        "streetDirectionId": null,
        "streetTypeId": "RD",
        "placeName": "MINAKI",
        "streetNameDisplayText": "SAND LAKE RD, MINAKI"
      },
      {
        "electoralDistricts": [
          {
            "election": null,
            "id": 44,
            "name": "Kenora—Rainy River"
          }
        ],
        "pollDivisionIds": [
          10138980
        ],
        "postalCode": "P0X1J0",
        "streetName": "SOUTH",
        "streetDirectionId": "S",
        "streetTypeId": "ST",
        "placeName": "MINAKI",
        "streetNameDisplayText": "SOUTH ST S, MINAKI"
      }
    ]
  },
  {
    "postal": "P0X1K0",
    "result": [
      {
        "electoralDistricts": [
          {
            "election": null,
            "id": 44,
            "name": "Kenora—Rainy River"
          }
        ],
        "pollDivisionIds": [
          10139010
        ],
        "postalCode": "P0X1K0",
        "streetName": "71",
        "streetDirectionId": null,
        "streetTypeId": "HWY",
        "placeName": "KENORA",
        "streetNameDisplayText": "71 HWY, KENORA"
      },
      {
        "electoralDistricts": [
          {
            "election": null,
            "id": 44,
            "name": "Kenora—Rainy River"
          }
        ],
        "pollDivisionIds": [
          10139034
        ],
        "postalCode": "P0X1K0",
        "streetName": "71",
        "streetDirectionId": null,
        "streetTypeId": "HWY",
        "placeName": "NESTOR FALLS",
        "streetNameDisplayText": "71 HWY, NESTOR FALLS"
      },
      {
        "electoralDistricts": [
          {
            "election": null,
            "id": 44,
            "name": "Kenora—Rainy River"
          }
        ],
        "pollDivisionIds": [
          10139033
        ],
        "postalCode": "P0X1K0",
        "streetName": "71",
        "streetDirectionId": null,
        "streetTypeId": "HWY",
        "placeName": "SIOUX NARROWS",
        "streetNameDisplayText": "71 HWY, SIOUX NARROWS"
      },
      {
        "electoralDistricts": [
          {
            "election": null,
            "id": 44,
            "name": "Kenora—Rainy River"
          }
        ],
        "pollDivisionIds": [
          10139034
        ],
        "postalCode": "P0X1K0",
        "streetName": "71",
        "streetDirectionId": null,
        "streetTypeId": "HWY",
        "placeName": "SIOUX NARROWS-NESTOR FALLS",
        "streetNameDisplayText": "71 HWY, SIOUX NARROWS-NESTOR FALLS"
      },
      {
        "electoralDistricts": [
          {
            "election": null,
            "id": 44,
            "name": "Kenora—Rainy River"
          }
        ],
        "pollDivisionIds": [
          10139035
        ],
        "postalCode": "P0X1K0",
        "streetName": "ABINOONJII",
        "streetDirectionId": null,
        "streetTypeId": "RD",
        "placeName": "ONIGAMING FN",
        "streetNameDisplayText": "ABINOONJII RD, ONIGAMING FN"
      },
      {
        "electoralDistricts": [
          {
            "election": null,
            "id": 44,
            "name": "Kenora—Rainy River"
          }
        ],
        "pollDivisionIds": [
          10139033
        ],
        "postalCode": "P0X1K0",
        "streetName": "AIRPORT",
        "streetDirectionId": null,
        "streetTypeId": "RD",
        "placeName": "SIOUX NARROWS",
        "streetNameDisplayText": "AIRPORT RD, SIOUX NARROWS"
      },
      {
        "electoralDistricts": [
          {
            "election": null,
            "id": 44,
            "name": "Kenora—Rainy River"
          }
        ],
        "pollDivisionIds": [
          10139032
        ],
        "postalCode": "P0X1K0",
        "streetName": "ANISHINABE",
        "streetDirectionId": null,
        "streetTypeId": "DR",
        "placeName": "PAWITIK",
        "streetNameDisplayText": "ANISHINABE DR, PAWITIK"
      },
      {
        "electoralDistricts": [
          {
            "election": null,
            "id": 44,
            "name": "Kenora—Rainy River"
          }
        ],
        "pollDivisionIds": [
          10139033
        ],
        "postalCode": "P0X1K0",
        "streetName": "ANISHINABE",
        "streetDirectionId": null,
        "streetTypeId": "RD",
        "placeName": "SIOUX NARROWS",
        "streetNameDisplayText": "ANISHINABE RD, SIOUX NARROWS"
      },
      {
        "electoralDistricts": [
          {
            "election": null,
            "id": 44,
            "name": "Kenora—Rainy River"
          }
        ],
        "pollDivisionIds": [
          10139035
        ],
        "postalCode": "P0X1K0",
        "streetName": "BEVERLY HILLS",
        "streetDirectionId": null,
        "streetTypeId": "RD",
        "placeName": "NESTOR FALLS",
        "streetNameDisplayText": "BEVERLY HILLS RD, NESTOR FALLS"
      },
      {
        "electoralDistricts": [
          {
            "election": null,
            "id": 44,
            "name": "Kenora—Rainy River"
          }
        ],
        "pollDivisionIds": [
          10139034
        ],
        "postalCode": "P0X1K0",
        "streetName": "BIG LAKE",
        "streetDirectionId": null,
        "streetTypeId": null,
        "placeName": "SIOUX NARROWS-NESTOR FALLS",
        "streetNameDisplayText": "BIG LAKE, SIOUX NARROWS-NESTOR FALLS"
      },
      {
        "electoralDistricts": [
          {
            "election": null,
            "id": 44,
            "name": "Kenora—Rainy River"
          }
        ],
        "pollDivisionIds": [
          10139034
        ],
        "postalCode": "P0X1K0",
        "streetName": "BLACK BEAR",
        "streetDirectionId": null,
        "streetTypeId": "RD",
        "placeName": "NESTOR FALLS",
        "streetNameDisplayText": "BLACK BEAR RD, NESTOR FALLS"
      },
      {
        "electoralDistricts": [
          {
            "election": null,
            "id": 44,
            "name": "Kenora—Rainy River"
          }
        ],
        "pollDivisionIds": [
          10139034
        ],
        "postalCode": "P0X1K0",
        "streetName": "BULL MOOSE",
        "streetDirectionId": null,
        "streetTypeId": "RD",
        "placeName": "NESTOR FALLS",
        "streetNameDisplayText": "BULL MOOSE RD, NESTOR FALLS"
      },
      {
        "electoralDistricts": [
          {
            "election": null,
            "id": 44,
            "name": "Kenora—Rainy River"
          }
        ],
        "pollDivisionIds": [
          10139034
        ],
        "postalCode": "P0X1K0",
        "streetName": "CALIPER LAKE PARK",
        "streetDirectionId": null,
        "streetTypeId": "RD",
        "placeName": "SIOUX NARROWS-NESTOR FALLS",
        "streetNameDisplayText": "CALIPER LAKE PARK RD, SIOUX NARROWS-NESTOR FALLS"
      },
      {
        "electoralDistricts": [
          {
            "election": null,
            "id": 44,
            "name": "Kenora—Rainy River"
          }
        ],
        "pollDivisionIds": [
          10139033
        ],
        "postalCode": "P0X1K0",
        "streetName": "CEMENTRY",
        "streetDirectionId": null,
        "streetTypeId": "RD",
        "placeName": "SIOUX NARROWS",
        "streetNameDisplayText": "CEMENTRY RD, SIOUX NARROWS"
      },
      {
        "electoralDistricts": [
          {
            "election": null,
            "id": 44,
            "name": "Kenora—Rainy River"
          }
        ],
        "pollDivisionIds": [
          10139034
        ],
        "postalCode": "P0X1K0",
        "streetName": "DOCK",
        "streetDirectionId": "N",
        "streetTypeId": "RD",
        "placeName": "NESTOR FALLS",
        "streetNameDisplayText": "DOCK RD N, NESTOR FALLS"
      },
      {
        "electoralDistricts": [
          {
            "election": null,
            "id": 44,
            "name": "Kenora—Rainy River"
          }
        ],
        "pollDivisionIds": [
          10139034
        ],
        "postalCode": "P0X1K0",
        "streetName": "DOCK",
        "streetDirectionId": null,
        "streetTypeId": "RD",
        "placeName": "NESTOR FALLS",
        "streetNameDisplayText": "DOCK RD, NESTOR FALLS"
      },
      {
        "electoralDistricts": [
          {
            "election": null,
            "id": 44,
            "name": "Kenora—Rainy River"
          }
        ],
        "pollDivisionIds": [
          10139034
        ],
        "postalCode": "P0X1K0",
        "streetName": "HERONRY LAKE",
        "streetDirectionId": "S",
        "streetTypeId": "RD",
        "placeName": "NESTOR FALLS",
        "streetNameDisplayText": "HERONRY LAKE RD S, NESTOR FALLS"
      },
      {
        "electoralDistricts": [
          {
            "election": null,
            "id": 44,
            "name": "Kenora—Rainy River"
          }
        ],
        "pollDivisionIds": [
          10139034
        ],
        "postalCode": "P0X1K0",
        "streetName": "HERONRY LAKE",
        "streetDirectionId": null,
        "streetTypeId": "RD",
        "placeName": "NESTOR FALLS",
        "streetNameDisplayText": "HERONRY LAKE RD, NESTOR FALLS"
      },
      {
        "electoralDistricts": [
          {
            "election": null,
            "id": 44,
            "name": "Kenora—Rainy River"
          }
        ],
        "pollDivisionIds": [
          10139034
        ],
        "postalCode": "P0X1K0",
        "streetName": "INDIAN",
        "streetDirectionId": null,
        "streetTypeId": "RD",
        "placeName": "NESTOR FALLS",
        "streetNameDisplayText": "INDIAN RD, NESTOR FALLS"
      },
      {
        "electoralDistricts": [
          {
            "election": null,
            "id": 44,
            "name": "Kenora—Rainy River"
          }
        ],
        "pollDivisionIds": [
          10139034
        ],
        "postalCode": "P0X1K0",
        "streetName": "KAKAGI LAKE",
        "streetDirectionId": null,
        "streetTypeId": "RD",
        "placeName": "NESTOR FALLS",
        "streetNameDisplayText": "KAKAGI LAKE RD, NESTOR FALLS"
      },
      {
        "electoralDistricts": [
          {
            "election": null,
            "id": 44,
            "name": "Kenora—Rainy River"
          }
        ],
        "pollDivisionIds": [
          10139034
        ],
        "postalCode": "P0X1K0",
        "streetName": "KAKAGI LAKE",
        "streetDirectionId": null,
        "streetTypeId": "RD",
        "placeName": "SIOUX NARROWS-NESTOR FALLS",
        "streetNameDisplayText": "KAKAGI LAKE RD, SIOUX NARROWS-NESTOR FALLS"
      },
      {
        "electoralDistricts": [
          {
            "election": null,
            "id": 44,
            "name": "Kenora—Rainy River"
          }
        ],
        "pollDivisionIds": [
          10139033
        ],
        "postalCode": "P0X1K0",
        "streetName": "LAKEVIEW",
        "streetDirectionId": null,
        "streetTypeId": "TERR",
        "placeName": "SIOUX NARROWS",
        "streetNameDisplayText": "LAKEVIEW TERR, SIOUX NARROWS"
      },
      {
        "electoralDistricts": [
          {
            "election": null,
            "id": 44,
            "name": "Kenora—Rainy River"
          }
        ],
        "pollDivisionIds": [
          10139034
        ],
        "postalCode": "P0X1K0",
        "streetName": "MARSH BAY",
        "streetDirectionId": null,
        "streetTypeId": "RD",
        "placeName": "NESTOR FALLS",
        "streetNameDisplayText": "MARSH BAY RD, NESTOR FALLS"
      },
      {
        "electoralDistricts": [
          {
            "election": null,
            "id": 44,
            "name": "Kenora—Rainy River"
          }
        ],
        "pollDivisionIds": [
          10139035
        ],
        "postalCode": "P0X1K0",
        "streetName": "MIKINAAK",
        "streetDirectionId": null,
        "streetTypeId": "RD",
        "placeName": "NESTOR FALLS",
        "streetNameDisplayText": "MIKINAAK RD, NESTOR FALLS"
      },
      {
        "electoralDistricts": [
          {
            "election": null,
            "id": 44,
            "name": "Kenora—Rainy River"
          }
        ],
        "pollDivisionIds": [
          10139034
        ],
        "postalCode": "P0X1K0",
        "streetName": "MORTIMER",
        "streetDirectionId": null,
        "streetTypeId": "RD",
        "placeName": "NESTOR FALLS",
        "streetNameDisplayText": "MORTIMER RD, NESTOR FALLS"
      },
      {
        "electoralDistricts": [
          {
            "election": null,
            "id": 44,
            "name": "Kenora—Rainy River"
          }
        ],
        "pollDivisionIds": [
          10139025
        ],
        "postalCode": "P0X1K0",
        "streetName": "MUSKIE",
        "streetDirectionId": null,
        "streetTypeId": "BAY",
        "placeName": "WABIGOON",
        "streetNameDisplayText": "MUSKIE BAY, WABIGOON"
      },
      {
        "electoralDistricts": [
          {
            "election": null,
            "id": 44,
            "name": "Kenora—Rainy River"
          }
        ],
        "pollDivisionIds": [
          10139034
        ],
        "postalCode": "P0X1K0",
        "streetName": "OLD GOLD MINE",
        "streetDirectionId": null,
        "streetTypeId": "RD",
        "placeName": "SIOUX NARROWS-NESTOR FALLS",
        "streetNameDisplayText": "OLD GOLD MINE RD, SIOUX NARROWS-NESTOR FALLS"
      },
      {
        "electoralDistricts": [
          {
            "election": null,
            "id": 44,
            "name": "Kenora—Rainy River"
          }
        ],
        "pollDivisionIds": [
          10139035
        ],
        "postalCode": "P0X1K0",
        "streetName": "ONIGAMING",
        "streetDirectionId": null,
        "streetTypeId": "RD",
        "placeName": "NESTOR FALLS",
        "streetNameDisplayText": "ONIGAMING RD, NESTOR FALLS"
      },
      {
        "electoralDistricts": [
          {
            "election": null,
            "id": 44,
            "name": "Kenora—Rainy River"
          }
        ],
        "pollDivisionIds": [
          10139035
        ],
        "postalCode": "P0X1K0",
        "streetName": "PORTAGE",
        "streetDirectionId": null,
        "streetTypeId": "RD",
        "placeName": "NESTOR FALLS",
        "streetNameDisplayText": "PORTAGE RD, NESTOR FALLS"
      },
      {
        "electoralDistricts": [
          {
            "election": null,
            "id": 44,
            "name": "Kenora—Rainy River"
          }
        ],
        "pollDivisionIds": [
          10139034
        ],
        "postalCode": "P0X1K0",
        "streetName": "SABASKONG BAY",
        "streetDirectionId": null,
        "streetTypeId": "RD",
        "placeName": "NESTOR FALLS",
        "streetNameDisplayText": "SABASKONG BAY RD, NESTOR FALLS"
      },
      {
        "electoralDistricts": [
          {
            "election": null,
            "id": 44,
            "name": "Kenora—Rainy River"
          }
        ],
        "pollDivisionIds": [
          10139034
        ],
        "postalCode": "P0X1K0",
        "streetName": "SABASKONG",
        "streetDirectionId": null,
        "streetTypeId": "RD",
        "placeName": "SIOUX NARROWS-NESTOR FALLS",
        "streetNameDisplayText": "SABASKONG RD, SIOUX NARROWS-NESTOR FALLS"
      },
      {
        "electoralDistricts": [
          {
            "election": null,
            "id": 44,
            "name": "Kenora—Rainy River"
          }
        ],
        "pollDivisionIds": [
          10139034
        ],
        "postalCode": "P0X1K0",
        "streetName": "SCHOOL",
        "streetDirectionId": null,
        "streetTypeId": "RD",
        "placeName": "NESTOR FALLS",
        "streetNameDisplayText": "SCHOOL RD, NESTOR FALLS"
      },
      {
        "electoralDistricts": [
          {
            "election": null,
            "id": 44,
            "name": "Kenora—Rainy River"
          }
        ],
        "pollDivisionIds": [
          10139034
        ],
        "postalCode": "P0X1K0",
        "streetName": "SHADY ROOST",
        "streetDirectionId": null,
        "streetTypeId": "RD",
        "placeName": "NESTOR FALLS",
        "streetNameDisplayText": "SHADY ROOST RD, NESTOR FALLS"
      },
      {
        "electoralDistricts": [
          {
            "election": null,
            "id": 44,
            "name": "Kenora—Rainy River"
          }
        ],
        "pollDivisionIds": [
          10139034
        ],
        "postalCode": "P0X1K0",
        "streetName": "SUBSTATION",
        "streetDirectionId": null,
        "streetTypeId": "RD",
        "placeName": "NESTOR FALLS",
        "streetNameDisplayText": "SUBSTATION RD, NESTOR FALLS"
      },
      {
        "electoralDistricts": [
          {
            "election": null,
            "id": 44,
            "name": "Kenora—Rainy River"
          }
        ],
        "pollDivisionIds": [
          10139034
        ],
        "postalCode": "P0X1K0",
        "streetName": "SUNSET",
        "streetDirectionId": null,
        "streetTypeId": "BLVD",
        "placeName": "NESTOR FALLS",
        "streetNameDisplayText": "SUNSET BLVD, NESTOR FALLS"
      },
      {
        "electoralDistricts": [
          {
            "election": null,
            "id": 44,
            "name": "Kenora—Rainy River"
          }
        ],
        "pollDivisionIds": [
          10139034
        ],
        "postalCode": "P0X1K0",
        "streetName": "TINKER'S",
        "streetDirectionId": null,
        "streetTypeId": "RD",
        "placeName": "NESTOR FALLS",
        "streetNameDisplayText": "TINKER'S RD, NESTOR FALLS"
      }
    ]
  },
  {
    "postal": "P0X1L0",
    "result": [
      {
        "electoralDistricts": [
          {
            "election": null,
            "id": 44,
            "name": "Kenora—Rainy River"
          }
        ],
        "pollDivisionIds": [
          10139032
        ],
        "postalCode": "P0X1L0",
        "streetName": "A",
        "streetDirectionId": null,
        "streetTypeId": "ST",
        "placeName": "WHITEFISH BAY 32A",
        "streetNameDisplayText": "A ST, WHITEFISH BAY 32A"
      },
      {
        "electoralDistricts": [
          {
            "election": null,
            "id": 44,
            "name": "Kenora—Rainy River"
          }
        ],
        "pollDivisionIds": [
          10139032
        ],
        "postalCode": "P0X1L0",
        "streetName": "ANISHINABE",
        "streetDirectionId": null,
        "streetTypeId": "DR",
        "placeName": "PAWITIK",
        "streetNameDisplayText": "ANISHINABE DR, PAWITIK"
      },
      {
        "electoralDistricts": [
          {
            "election": null,
            "id": 44,
            "name": "Kenora—Rainy River"
          }
        ],
        "pollDivisionIds": [
          10139032
        ],
        "postalCode": "P0X1L0",
        "streetName": "ANISHINABE",
        "streetDirectionId": null,
        "streetTypeId": "DR",
        "placeName": "WHITEFISH BAY 32A",
        "streetNameDisplayText": "ANISHINABE DR, WHITEFISH BAY 32A"
      },
      {
        "electoralDistricts": [
          {
            "election": null,
            "id": 44,
            "name": "Kenora—Rainy River"
          }
        ],
        "pollDivisionIds": [
          10139032
        ],
        "postalCode": "P0X1L0",
        "streetName": "CENTRAL LOOP",
        "streetDirectionId": null,
        "streetTypeId": "RD",
        "placeName": "PAWITIK",
        "streetNameDisplayText": "CENTRAL LOOP RD, PAWITIK"
      },
      {
        "electoralDistricts": [
          {
            "election": null,
            "id": 44,
            "name": "Kenora—Rainy River"
          }
        ],
        "pollDivisionIds": [
          10139032
        ],
        "postalCode": "P0X1L0",
        "streetName": "CENTRAL LOOP",
        "streetDirectionId": null,
        "streetTypeId": "RD",
        "placeName": "WHITEFISH BAY 32A",
        "streetNameDisplayText": "CENTRAL LOOP RD, WHITEFISH BAY 32A"
      },
      {
        "electoralDistricts": [
          {
            "election": null,
            "id": 44,
            "name": "Kenora—Rainy River"
          }
        ],
        "pollDivisionIds": [
          10139032
        ],
        "postalCode": "P0X1L0",
        "streetName": "EASTMIIKANA",
        "streetDirectionId": null,
        "streetTypeId": null,
        "placeName": "WHITEFISH BAY 32A",
        "streetNameDisplayText": "EASTMIIKANA, WHITEFISH BAY 32A"
      },
      {
        "electoralDistricts": [
          {
            "election": null,
            "id": 44,
            "name": "Kenora—Rainy River"
          }
        ],
        "pollDivisionIds": [
          10139032
        ],
        "postalCode": "P0X1L0",
        "streetName": "EIGHTH",
        "streetDirectionId": "N",
        "streetTypeId": "AVE",
        "placeName": "WHITEFISH BAY 32A",
        "streetNameDisplayText": "EIGHTH AVE N, WHITEFISH BAY 32A"
      },
      {
        "electoralDistricts": [
          {
            "election": null,
            "id": 123,
            "name": "Kiiwetinoong"
          }
        ],
        "pollDivisionIds": [
          10143051
        ],
        "postalCode": "P0X1L0",
        "streetName": "LAC SEUL 28",
        "streetDirectionId": null,
        "streetTypeId": null,
        "placeName": "HUDSON",
        "streetNameDisplayText": "LAC SEUL 28, HUDSON"
      },
      {
        "electoralDistricts": [
          {
            "election": null,
            "id": 44,
            "name": "Kenora—Rainy River"
          }
        ],
        "pollDivisionIds": [
          10139032
        ],
        "postalCode": "P0X1L0",
        "streetName": "MAIN",
        "streetDirectionId": null,
        "streetTypeId": "DR",
        "placeName": "WHITEFISH BAY 32A",
        "streetNameDisplayText": "MAIN DR, WHITEFISH BAY 32A"
      },
      {
        "electoralDistricts": [
          {
            "election": null,
            "id": 44,
            "name": "Kenora—Rainy River"
          }
        ],
        "pollDivisionIds": [
          10139032
        ],
        "postalCode": "P0X1L0",
        "streetName": "MOOKAAM MIIKANA",
        "streetDirectionId": null,
        "streetTypeId": null,
        "placeName": "WHITEFISH BAY 32A",
        "streetNameDisplayText": "MOOKAAM MIIKANA, WHITEFISH BAY 32A"
      },
      {
        "electoralDistricts": [
          {
            "election": null,
            "id": 44,
            "name": "Kenora—Rainy River"
          }
        ],
        "pollDivisionIds": [
          10139032
        ],
        "postalCode": "P0X1L0",
        "streetName": "NAOTKAMEGWANNING",
        "streetDirectionId": null,
        "streetTypeId": null,
        "placeName": "PAWITIK",
        "streetNameDisplayText": "NAOTKAMEGWANNING, PAWITIK"
      },
      {
        "electoralDistricts": [
          {
            "election": null,
            "id": 44,
            "name": "Kenora—Rainy River"
          }
        ],
        "pollDivisionIds": [
          10139032
        ],
        "postalCode": "P0X1L0",
        "streetName": "NORTH LOOP",
        "streetDirectionId": "N",
        "streetTypeId": "RD",
        "placeName": "PAWITIK",
        "streetNameDisplayText": "NORTH LOOP RD N, PAWITIK"
      },
      {
        "electoralDistricts": [
          {
            "election": null,
            "id": 44,
            "name": "Kenora—Rainy River"
          }
        ],
        "pollDivisionIds": [
          10139032
        ],
        "postalCode": "P0X1L0",
        "streetName": "NORTH LOOP",
        "streetDirectionId": "N",
        "streetTypeId": "RD",
        "placeName": "WHITEFISH BAY 32A",
        "streetNameDisplayText": "NORTH LOOP RD N, WHITEFISH BAY 32A"
      },
      {
        "electoralDistricts": [
          {
            "election": null,
            "id": 44,
            "name": "Kenora—Rainy River"
          }
        ],
        "pollDivisionIds": [
          10139032
        ],
        "postalCode": "P0X1L0",
        "streetName": "NORTHLOOP",
        "streetDirectionId": null,
        "streetTypeId": "RD",
        "placeName": "WHITEFISH BAY 32A",
        "streetNameDisplayText": "NORTHLOOP RD, WHITEFISH BAY 32A"
      },
      {
        "electoralDistricts": [
          {
            "election": null,
            "id": 44,
            "name": "Kenora—Rainy River"
          }
        ],
        "pollDivisionIds": [
          10139032
        ],
        "postalCode": "P0X1L0",
        "streetName": "OCHIBWAH",
        "streetDirectionId": null,
        "streetTypeId": "DR",
        "placeName": "WHITEFISH BAY 32A",
        "streetNameDisplayText": "OCHIBWAH DR, WHITEFISH BAY 32A"
      },
      {
        "electoralDistricts": [
          {
            "election": null,
            "id": 44,
            "name": "Kenora—Rainy River"
          }
        ],
        "pollDivisionIds": [
          10139032
        ],
        "postalCode": "P0X1L0",
        "streetName": "OPWAGON",
        "streetDirectionId": null,
        "streetTypeId": "DR",
        "placeName": "WHITEFISH BAY 32A",
        "streetNameDisplayText": "OPWAGON DR, WHITEFISH BAY 32A"
      },
      {
        "electoralDistricts": [
          {
            "election": null,
            "id": 44,
            "name": "Kenora—Rainy River"
          }
        ],
        "pollDivisionIds": [
          10139032
        ],
        "postalCode": "P0X1L0",
        "streetName": "PAWITIK",
        "streetDirectionId": null,
        "streetTypeId": "ST",
        "placeName": "WHITEFISH BAY 32A",
        "streetNameDisplayText": "PAWITIK ST, WHITEFISH BAY 32A"
      },
      {
        "electoralDistricts": [
          {
            "election": null,
            "id": 44,
            "name": "Kenora—Rainy River"
          }
        ],
        "pollDivisionIds": [
          10139032
        ],
        "postalCode": "P0X1L0",
        "streetName": "WESEND",
        "streetDirectionId": null,
        "streetTypeId": "DR",
        "placeName": "WHITEFISH BAY 32A",
        "streetNameDisplayText": "WESEND DR, WHITEFISH BAY 32A"
      },
      {
        "electoralDistricts": [
          {
            "election": null,
            "id": 44,
            "name": "Kenora—Rainy River"
          }
        ],
        "pollDivisionIds": [
          10139032
        ],
        "postalCode": "P0X1L0",
        "streetName": "WESTEND",
        "streetDirectionId": null,
        "streetTypeId": "DR",
        "placeName": "WHITEFISH BAY 32A",
        "streetNameDisplayText": "WESTEND DR, WHITEFISH BAY 32A"
      },
      {
        "electoralDistricts": [
          {
            "election": null,
            "id": 44,
            "name": "Kenora—Rainy River"
          }
        ],
        "pollDivisionIds": [
          10139032
        ],
        "postalCode": "P0X1L0",
        "streetName": "WHITEFISH BAY",
        "streetDirectionId": null,
        "streetTypeId": "RD",
        "placeName": "PAWITIK",
        "streetNameDisplayText": "WHITEFISH BAY RD, PAWITIK"
      }
    ]
  },
  {
    "postal": "P0X1M0",
    "result": [
      {
        "electoralDistricts": [
          {
            "election": null,
            "id": 44,
            "name": "Kenora—Rainy River"
          }
        ],
        "pollDivisionIds": [
          10139004
        ],
        "postalCode": "P0X1M0",
        "streetName": "2",
        "streetDirectionId": "N",
        "streetTypeId": "AVE",
        "placeName": "REDDITT",
        "streetNameDisplayText": "2 AVE N, REDDITT"
      },
      {
        "electoralDistricts": [
          {
            "election": null,
            "id": 44,
            "name": "Kenora—Rainy River"
          }
        ],
        "pollDivisionIds": [
          10139004
        ],
        "postalCode": "P0X1M0",
        "streetName": "2ND",
        "streetDirectionId": "N",
        "streetTypeId": "AVE",
        "placeName": "REDDITT",
        "streetNameDisplayText": "2ND AVE N, REDDITT"
      },
      {
        "electoralDistricts": [
          {
            "election": null,
            "id": 44,
            "name": "Kenora—Rainy River"
          }
        ],
        "pollDivisionIds": [
          10139004
        ],
        "postalCode": "P0X1M0",
        "streetName": "4TH",
        "streetDirectionId": null,
        "streetTypeId": "ST",
        "placeName": "REDDITT",
        "streetNameDisplayText": "4TH ST, REDDITT"
      },
      {
        "electoralDistricts": [
          {
            "election": null,
            "id": 44,
            "name": "Kenora—Rainy River"
          }
        ],
        "pollDivisionIds": [
          10139004
        ],
        "postalCode": "P0X1M0",
        "streetName": "658",
        "streetDirectionId": null,
        "streetTypeId": "HWY",
        "placeName": "REDDITT",
        "streetNameDisplayText": "658 HWY, REDDITT"
      },
      {
        "electoralDistricts": [
          {
            "election": null,
            "id": 44,
            "name": "Kenora—Rainy River"
          }
        ],
        "pollDivisionIds": [
          10139004
        ],
        "postalCode": "P0X1M0",
        "streetName": "ARMSTRONG",
        "streetDirectionId": null,
        "streetTypeId": "RD",
        "placeName": "REDDITT",
        "streetNameDisplayText": "ARMSTRONG RD, REDDITT"
      },
      {
        "electoralDistricts": [
          {
            "election": null,
            "id": 44,
            "name": "Kenora—Rainy River"
          }
        ],
        "pollDivisionIds": [
          10139004
        ],
        "postalCode": "P0X1M0",
        "streetName": "ARMSTRONG",
        "streetDirectionId": null,
        "streetTypeId": "ST",
        "placeName": "MACHIN",
        "streetNameDisplayText": "ARMSTRONG ST, MACHIN"
      },
      {
        "electoralDistricts": [
          {
            "election": null,
            "id": 123,
            "name": "Kiiwetinoong"
          }
        ],
        "pollDivisionIds": [
          10143047
        ],
        "postalCode": "P0X1M0",
        "streetName": "EASY",
        "streetDirectionId": null,
        "streetTypeId": "ST",
        "placeName": "DISTRICT OF KENORA",
        "streetNameDisplayText": "EASY ST, DISTRICT OF KENORA"
      },
      {
        "electoralDistricts": [
          {
            "election": null,
            "id": 44,
            "name": "Kenora—Rainy River"
          }
        ],
        "pollDivisionIds": [
          10139004
        ],
        "postalCode": "P0X1M0",
        "streetName": "FIRST",
        "streetDirectionId": null,
        "streetTypeId": "ST",
        "placeName": "REDDITT",
        "streetNameDisplayText": "FIRST ST, REDDITT"
      },
      {
        "electoralDistricts": [
          {
            "election": null,
            "id": 44,
            "name": "Kenora—Rainy River"
          }
        ],
        "pollDivisionIds": [
          10139004
        ],
        "postalCode": "P0X1M0",
        "streetName": "FOURTH",
        "streetDirectionId": null,
        "streetTypeId": "AVE",
        "placeName": "REDDITT",
        "streetNameDisplayText": "FOURTH AVE, REDDITT"
      },
      {
        "electoralDistricts": [
          {
            "election": null,
            "id": 44,
            "name": "Kenora—Rainy River"
          }
        ],
        "pollDivisionIds": [
          10139004
        ],
        "postalCode": "P0X1M0",
        "streetName": "GOVERNMENT",
        "streetDirectionId": null,
        "streetTypeId": "RD",
        "placeName": "REDDITT",
        "streetNameDisplayText": "GOVERNMENT RD, REDDITT"
      },
      {
        "electoralDistricts": [
          {
            "election": null,
            "id": 44,
            "name": "Kenora—Rainy River"
          }
        ],
        "pollDivisionIds": [
          10139004
        ],
        "postalCode": "P0X1M0",
        "streetName": "LAMBERT",
        "streetDirectionId": null,
        "streetTypeId": "ST",
        "placeName": "REDDITT",
        "streetNameDisplayText": "LAMBERT ST, REDDITT"
      },
      {
        "electoralDistricts": [
          {
            "election": null,
            "id": 44,
            "name": "Kenora—Rainy River"
          }
        ],
        "pollDivisionIds": [
          10139004
        ],
        "postalCode": "P0X1M0",
        "streetName": "MCKAY",
        "streetDirectionId": null,
        "streetTypeId": "RD",
        "placeName": "REDDITT",
        "streetNameDisplayText": "MCKAY RD, REDDITT"
      },
      {
        "electoralDistricts": [
          {
            "election": null,
            "id": 44,
            "name": "Kenora—Rainy River"
          }
        ],
        "pollDivisionIds": [
          10139017
        ],
        "postalCode": "P0X1M0",
        "streetName": "MCKEE",
        "streetDirectionId": null,
        "streetTypeId": "RD",
        "placeName": "DRYDEN",
        "streetNameDisplayText": "MCKEE RD, DRYDEN"
      },
      {
        "electoralDistricts": [
          {
            "election": null,
            "id": 44,
            "name": "Kenora—Rainy River"
          }
        ],
        "pollDivisionIds": [
          10139004
        ],
        "postalCode": "P0X1M0",
        "streetName": "SECOND",
        "streetDirectionId": "S",
        "streetTypeId": "AVE",
        "placeName": "REDDITT",
        "streetNameDisplayText": "SECOND AVE S, REDDITT"
      },
      {
        "electoralDistricts": [
          {
            "election": null,
            "id": 44,
            "name": "Kenora—Rainy River"
          }
        ],
        "pollDivisionIds": [
          10139004
        ],
        "postalCode": "P0X1M0",
        "streetName": "SECOND",
        "streetDirectionId": null,
        "streetTypeId": "ST",
        "placeName": "REDDITT",
        "streetNameDisplayText": "SECOND ST, REDDITT"
      },
      {
        "electoralDistricts": [
          {
            "election": null,
            "id": 44,
            "name": "Kenora—Rainy River"
          }
        ],
        "pollDivisionIds": [
          10139004
        ],
        "postalCode": "P0X1M0",
        "streetName": "THIRD",
        "streetDirectionId": null,
        "streetTypeId": "AVE",
        "placeName": "REDDITT",
        "streetNameDisplayText": "THIRD AVE, REDDITT"
      },
      {
        "electoralDistricts": [
          {
            "election": null,
            "id": 44,
            "name": "Kenora—Rainy River"
          }
        ],
        "pollDivisionIds": [
          10139004
        ],
        "postalCode": "P0X1M0",
        "streetName": "THIRD",
        "streetDirectionId": null,
        "streetTypeId": "ST",
        "placeName": "REDDITT",
        "streetNameDisplayText": "THIRD ST, REDDITT"
      }
    ]
  },
  {
    "postal": "P0X1N0",
    "result": [
      {
        "electoralDistricts": [
          {
            "election": null,
            "id": 44,
            "name": "Kenora—Rainy River"
          }
        ],
        "pollDivisionIds": [
          10139033
        ],
        "postalCode": "P0X1N0",
        "streetName": "71",
        "streetDirectionId": null,
        "streetTypeId": "HWY",
        "placeName": "SIOUX NARROWS",
        "streetNameDisplayText": "71 HWY, SIOUX NARROWS"
      },
      {
        "electoralDistricts": [
          {
            "election": null,
            "id": 44,
            "name": "Kenora—Rainy River"
          }
        ],
        "pollDivisionIds": [
          10139034,
          10139033
        ],
        "postalCode": "P0X1N0",
        "streetName": "71",
        "streetDirectionId": null,
        "streetTypeId": "HWY",
        "placeName": "SIOUX NARROWS-NESTOR FALLS",
        "streetNameDisplayText": "71 HWY, SIOUX NARROWS-NESTOR FALLS"
      },
      {
        "electoralDistricts": [
          {
            "election": null,
            "id": 44,
            "name": "Kenora—Rainy River"
          }
        ],
        "pollDivisionIds": [
          10139033
        ],
        "postalCode": "P0X1N0",
        "streetName": "AIRPORT",
        "streetDirectionId": null,
        "streetTypeId": "RD",
        "placeName": "SIOUX NARROWS",
        "streetNameDisplayText": "AIRPORT RD, SIOUX NARROWS"
      },
      {
        "electoralDistricts": [
          {
            "election": null,
            "id": 44,
            "name": "Kenora—Rainy River"
          }
        ],
        "pollDivisionIds": [
          10139030
        ],
        "postalCode": "P0X1N0",
        "streetName": "ANIMAKEE",
        "streetDirectionId": null,
        "streetTypeId": "DR",
        "placeName": "SIOUX NARROWS",
        "streetNameDisplayText": "ANIMAKEE DR, SIOUX NARROWS"
      },
      {
        "electoralDistricts": [
          {
            "election": null,
            "id": 44,
            "name": "Kenora—Rainy River"
          }
        ],
        "pollDivisionIds": [
          10139033
        ],
        "postalCode": "P0X1N0",
        "streetName": "ANISHINABE",
        "streetDirectionId": null,
        "streetTypeId": "RD",
        "placeName": "SIOUX NARROWS",
        "streetNameDisplayText": "ANISHINABE RD, SIOUX NARROWS"
      },
      {
        "electoralDistricts": [
          {
            "election": null,
            "id": 44,
            "name": "Kenora—Rainy River"
          }
        ],
        "pollDivisionIds": [
          10139033
        ],
        "postalCode": "P0X1N0",
        "streetName": "AZTEC",
        "streetDirectionId": null,
        "streetTypeId": "DR",
        "placeName": "SIOUX NARROWS",
        "streetNameDisplayText": "AZTEC DR, SIOUX NARROWS"
      },
      {
        "electoralDistricts": [
          {
            "election": null,
            "id": 44,
            "name": "Kenora—Rainy River"
          }
        ],
        "pollDivisionIds": [
          10139033
        ],
        "postalCode": "P0X1N0",
        "streetName": "BARTLEMAY",
        "streetDirectionId": null,
        "streetTypeId": "RD",
        "placeName": "SIOUX NARROWS",
        "streetNameDisplayText": "BARTLEMAY RD, SIOUX NARROWS"
      },
      {
        "electoralDistricts": [
          {
            "election": null,
            "id": 44,
            "name": "Kenora—Rainy River"
          }
        ],
        "pollDivisionIds": [
          10139033
        ],
        "postalCode": "P0X1N0",
        "streetName": "BELL",
        "streetDirectionId": null,
        "streetTypeId": "RD",
        "placeName": "SIOUX NARROWS",
        "streetNameDisplayText": "BELL RD, SIOUX NARROWS"
      },
      {
        "electoralDistricts": [
          {
            "election": null,
            "id": 44,
            "name": "Kenora—Rainy River"
          }
        ],
        "pollDivisionIds": [
          10139033
        ],
        "postalCode": "P0X1N0",
        "streetName": "BERRY LAKE",
        "streetDirectionId": null,
        "streetTypeId": "RD",
        "placeName": "SIOUX NARROWS-NESTOR FALLS",
        "streetNameDisplayText": "BERRY LAKE RD, SIOUX NARROWS-NESTOR FALLS"
      },
      {
        "electoralDistricts": [
          {
            "election": null,
            "id": 44,
            "name": "Kenora—Rainy River"
          }
        ],
        "pollDivisionIds": [
          10139033
        ],
        "postalCode": "P0X1N0",
        "streetName": "BLACKS",
        "streetDirectionId": null,
        "streetTypeId": "RD",
        "placeName": "SIOUX NARROWS",
        "streetNameDisplayText": "BLACKS RD, SIOUX NARROWS"
      },
      {
        "electoralDistricts": [
          {
            "election": null,
            "id": 44,
            "name": "Kenora—Rainy River"
          }
        ],
        "pollDivisionIds": [
          10139033
        ],
        "postalCode": "P0X1N0",
        "streetName": "BLUMERS",
        "streetDirectionId": null,
        "streetTypeId": "RD",
        "placeName": "SIOUX NARROWS",
        "streetNameDisplayText": "BLUMERS RD, SIOUX NARROWS"
      },
      {
        "electoralDistricts": [
          {
            "election": null,
            "id": 44,
            "name": "Kenora—Rainy River"
          }
        ],
        "pollDivisionIds": [
          10139033
        ],
        "postalCode": "P0X1N0",
        "streetName": "BOUVIERS",
        "streetDirectionId": null,
        "streetTypeId": "RD",
        "placeName": "SIOUX NARROWS",
        "streetNameDisplayText": "BOUVIERS RD, SIOUX NARROWS"
      },
      {
        "electoralDistricts": [
          {
            "election": null,
            "id": 44,
            "name": "Kenora—Rainy River"
          }
        ],
        "pollDivisionIds": [
          10139033
        ],
        "postalCode": "P0X1N0",
        "streetName": "CAMERON",
        "streetDirectionId": null,
        "streetTypeId": "RD",
        "placeName": "NORTH BAY",
        "streetNameDisplayText": "CAMERON RD, NORTH BAY"
      },
      {
        "electoralDistricts": [
          {
            "election": null,
            "id": 44,
            "name": "Kenora—Rainy River"
          }
        ],
        "pollDivisionIds": [
          10139033
        ],
        "postalCode": "P0X1N0",
        "streetName": "CAT POINT",
        "streetDirectionId": null,
        "streetTypeId": "RD",
        "placeName": "SIOUX NARROWS",
        "streetNameDisplayText": "CAT POINT RD, SIOUX NARROWS"
      },
      {
        "electoralDistricts": [
          {
            "election": null,
            "id": 44,
            "name": "Kenora—Rainy River"
          }
        ],
        "pollDivisionIds": [
          10139033
        ],
        "postalCode": "P0X1N0",
        "streetName": "CLOPPER",
        "streetDirectionId": null,
        "streetTypeId": "RD",
        "placeName": "SIOUX NARROWS",
        "streetNameDisplayText": "CLOPPER RD, SIOUX NARROWS"
      },
      {
        "electoralDistricts": [
          {
            "election": null,
            "id": 44,
            "name": "Kenora—Rainy River"
          }
        ],
        "pollDivisionIds": [
          10139033
        ],
        "postalCode": "P0X1N0",
        "streetName": "CRAWFORD'S",
        "streetDirectionId": null,
        "streetTypeId": "RD",
        "placeName": "SIOUX NARROWS",
        "streetNameDisplayText": "CRAWFORD'S RD, SIOUX NARROWS"
      },
      {
        "electoralDistricts": [
          {
            "election": null,
            "id": 44,
            "name": "Kenora—Rainy River"
          }
        ],
        "pollDivisionIds": [
          10139033
        ],
        "postalCode": "P0X1N0",
        "streetName": "CURTIS",
        "streetDirectionId": null,
        "streetTypeId": "RD",
        "placeName": "SIOUX NARROWS",
        "streetNameDisplayText": "CURTIS RD, SIOUX NARROWS"
      },
      {
        "electoralDistricts": [
          {
            "election": null,
            "id": 44,
            "name": "Kenora—Rainy River"
          }
        ],
        "pollDivisionIds": [
          10139033
        ],
        "postalCode": "P0X1N0",
        "streetName": "DUBOIS",
        "streetDirectionId": "N",
        "streetTypeId": "RD",
        "placeName": "SIOUX NARROWS",
        "streetNameDisplayText": "DUBOIS RD N, SIOUX NARROWS"
      },
      {
        "electoralDistricts": [
          {
            "election": null,
            "id": 44,
            "name": "Kenora—Rainy River"
          }
        ],
        "pollDivisionIds": [
          10139033
        ],
        "postalCode": "P0X1N0",
        "streetName": "DUBOIS",
        "streetDirectionId": null,
        "streetTypeId": "RD",
        "placeName": "SIOUX NARROWS",
        "streetNameDisplayText": "DUBOIS RD, SIOUX NARROWS"
      },
      {
        "electoralDistricts": [
          {
            "election": null,
            "id": 44,
            "name": "Kenora—Rainy River"
          }
        ],
        "pollDivisionIds": [
          10139033
        ],
        "postalCode": "P0X1N0",
        "streetName": "FADDEN",
        "streetDirectionId": null,
        "streetTypeId": "RD",
        "placeName": "SIOUX NARROWS",
        "streetNameDisplayText": "FADDEN RD, SIOUX NARROWS"
      },
      {
        "electoralDistricts": [
          {
            "election": null,
            "id": 44,
            "name": "Kenora—Rainy River"
          }
        ],
        "pollDivisionIds": [
          10139033
        ],
        "postalCode": "P0X1N0",
        "streetName": "FATHER MOSS",
        "streetDirectionId": null,
        "streetTypeId": "RD",
        "placeName": "SIOUX NARROWS",
        "streetNameDisplayText": "FATHER MOSS RD, SIOUX NARROWS"
      },
      {
        "electoralDistricts": [
          {
            "election": null,
            "id": 44,
            "name": "Kenora—Rainy River"
          }
        ],
        "pollDivisionIds": [
          10139033
        ],
        "postalCode": "P0X1N0",
        "streetName": "FICKAS",
        "streetDirectionId": null,
        "streetTypeId": "RD",
        "placeName": "SIOUX NARROWS",
        "streetNameDisplayText": "FICKAS RD, SIOUX NARROWS"
      },
      {
        "electoralDistricts": [
          {
            "election": null,
            "id": 44,
            "name": "Kenora—Rainy River"
          }
        ],
        "pollDivisionIds": [
          10139033
        ],
        "postalCode": "P0X1N0",
        "streetName": "FRANK EHRICH",
        "streetDirectionId": null,
        "streetTypeId": "RD",
        "placeName": "SIOUX NARROWS",
        "streetNameDisplayText": "FRANK EHRICH RD, SIOUX NARROWS"
      },
      {
        "electoralDistricts": [
          {
            "election": null,
            "id": 44,
            "name": "Kenora—Rainy River"
          }
        ],
        "pollDivisionIds": [
          10139030,
          10139033,
          10143949
        ],
        "postalCode": "P0X1N0",
        "streetName": "GENERAL DELIVERY",
        "streetDirectionId": null,
        "streetTypeId": null,
        "placeName": "SIOUX NARROWS",
        "streetNameDisplayText": "GENERAL DELIVERY, SIOUX NARROWS"
      },
      {
        "electoralDistricts": [
          {
            "election": null,
            "id": 44,
            "name": "Kenora—Rainy River"
          }
        ],
        "pollDivisionIds": [
          10139033
        ],
        "postalCode": "P0X1N0",
        "streetName": "GIBI LAKE",
        "streetDirectionId": null,
        "streetTypeId": "RD",
        "placeName": "LONGBOW LAKE",
        "streetNameDisplayText": "GIBI LAKE RD, LONGBOW LAKE"
      },
      {
        "electoralDistricts": [
          {
            "election": null,
            "id": 44,
            "name": "Kenora—Rainy River"
          }
        ],
        "pollDivisionIds": [
          10139033
        ],
        "postalCode": "P0X1N0",
        "streetName": "HAAS",
        "streetDirectionId": null,
        "streetTypeId": "RD",
        "placeName": "SIOUX NARROWS",
        "streetNameDisplayText": "HAAS RD, SIOUX NARROWS"
      },
      {
        "electoralDistricts": [
          {
            "election": null,
            "id": 44,
            "name": "Kenora—Rainy River"
          }
        ],
        "pollDivisionIds": [
          10139033
        ],
        "postalCode": "P0X1N0",
        "streetName": "HAGENS",
        "streetDirectionId": null,
        "streetTypeId": "RD",
        "placeName": "SIOUX NARROWS",
        "streetNameDisplayText": "HAGENS RD, SIOUX NARROWS"
      },
      {
        "electoralDistricts": [
          {
            "election": null,
            "id": 44,
            "name": "Kenora—Rainy River"
          }
        ],
        "pollDivisionIds": [
          10139033
        ],
        "postalCode": "P0X1N0",
        "streetName": "HALVERSON",
        "streetDirectionId": null,
        "streetTypeId": "DR",
        "placeName": "SIOUX NARROWS",
        "streetNameDisplayText": "HALVERSON DR, SIOUX NARROWS"
      },
      {
        "electoralDistricts": [
          {
            "election": null,
            "id": 44,
            "name": "Kenora—Rainy River"
          }
        ],
        "pollDivisionIds": [
          10139033
        ],
        "postalCode": "P0X1N0",
        "streetName": "HIGHWAY 71",
        "streetDirectionId": null,
        "streetTypeId": null,
        "placeName": "SIOUX NARROWS",
        "streetNameDisplayText": "HIGHWAY 71, SIOUX NARROWS"
      },
      {
        "electoralDistricts": [
          {
            "election": null,
            "id": 44,
            "name": "Kenora—Rainy River"
          }
        ],
        "pollDivisionIds": [
          10139033
        ],
        "postalCode": "P0X1N0",
        "streetName": "JOHNSON",
        "streetDirectionId": null,
        "streetTypeId": "RD",
        "placeName": "SIOUX NARROWS",
        "streetNameDisplayText": "JOHNSON RD, SIOUX NARROWS"
      },
      {
        "electoralDistricts": [
          {
            "election": null,
            "id": 44,
            "name": "Kenora—Rainy River"
          }
        ],
        "pollDivisionIds": [
          10139033
        ],
        "postalCode": "P0X1N0",
        "streetName": "KILPATRICK",
        "streetDirectionId": null,
        "streetTypeId": "RD",
        "placeName": "SIOUX NARROWS",
        "streetNameDisplayText": "KILPATRICK RD, SIOUX NARROWS"
      },
      {
        "electoralDistricts": [
          {
            "election": null,
            "id": 44,
            "name": "Kenora—Rainy River"
          }
        ],
        "pollDivisionIds": [
          10139033
        ],
        "postalCode": "P0X1N0",
        "streetName": "LAKEVIEW",
        "streetDirectionId": null,
        "streetTypeId": "TERR",
        "placeName": "SIOUX NARROWS",
        "streetNameDisplayText": "LAKEVIEW TERR, SIOUX NARROWS"
      },
      {
        "electoralDistricts": [
          {
            "election": null,
            "id": 44,
            "name": "Kenora—Rainy River"
          }
        ],
        "pollDivisionIds": [
          10139033
        ],
        "postalCode": "P0X1N0",
        "streetName": "LAUGHING WATER",
        "streetDirectionId": null,
        "streetTypeId": "RD",
        "placeName": "SIOUX NARROWS",
        "streetNameDisplayText": "LAUGHING WATER RD, SIOUX NARROWS"
      },
      {
        "electoralDistricts": [
          {
            "election": null,
            "id": 44,
            "name": "Kenora—Rainy River"
          }
        ],
        "pollDivisionIds": [
          10139033
        ],
        "postalCode": "P0X1N0",
        "streetName": "LOBSTICK BAY",
        "streetDirectionId": "N",
        "streetTypeId": "RD",
        "placeName": "SIOUX NARROWS",
        "streetNameDisplayText": "LOBSTICK BAY RD N, SIOUX NARROWS"
      },
      {
        "electoralDistricts": [
          {
            "election": null,
            "id": 44,
            "name": "Kenora—Rainy River"
          }
        ],
        "pollDivisionIds": [
          10139033
        ],
        "postalCode": "P0X1N0",
        "streetName": "LOBSTICK BAY",
        "streetDirectionId": null,
        "streetTypeId": "RD",
        "placeName": "SIOUX NARROWS-NESTOR FALLS",
        "streetNameDisplayText": "LOBSTICK BAY RD, SIOUX NARROWS-NESTOR FALLS"
      },
      {
        "electoralDistricts": [
          {
            "election": null,
            "id": 44,
            "name": "Kenora—Rainy River"
          }
        ],
        "pollDivisionIds": [
          10139033
        ],
        "postalCode": "P0X1N0",
        "streetName": "MATHIEU",
        "streetDirectionId": null,
        "streetTypeId": "RD",
        "placeName": "SIOUX NARROWS",
        "streetNameDisplayText": "MATHIEU RD, SIOUX NARROWS"
      },
      {
        "electoralDistricts": [
          {
            "election": null,
            "id": 44,
            "name": "Kenora—Rainy River"
          }
        ],
        "pollDivisionIds": [
          10139033
        ],
        "postalCode": "P0X1N0",
        "streetName": "MAYBRUN",
        "streetDirectionId": null,
        "streetTypeId": "RD",
        "placeName": "SIOUX NARROWS",
        "streetNameDisplayText": "MAYBRUN RD, SIOUX NARROWS"
      },
      {
        "electoralDistricts": [
          {
            "election": null,
            "id": 44,
            "name": "Kenora—Rainy River"
          }
        ],
        "pollDivisionIds": [
          10139033
        ],
        "postalCode": "P0X1N0",
        "streetName": "MAYBRUN SUBDIVISION",
        "streetDirectionId": null,
        "streetTypeId": "RD",
        "placeName": "SIOUX NARROWS",
        "streetNameDisplayText": "MAYBRUN SUBDIVISION RD, SIOUX NARROWS"
      },
      {
        "electoralDistricts": [
          {
            "election": null,
            "id": 44,
            "name": "Kenora—Rainy River"
          }
        ],
        "pollDivisionIds": [
          10139033
        ],
        "postalCode": "P0X1N0",
        "streetName": "MCKENZIE WARD",
        "streetDirectionId": null,
        "streetTypeId": "RD",
        "placeName": "SIOUX NARROWS",
        "streetNameDisplayText": "MCKENZIE WARD RD, SIOUX NARROWS"
      },
      {
        "electoralDistricts": [
          {
            "election": null,
            "id": 44,
            "name": "Kenora—Rainy River"
          }
        ],
        "pollDivisionIds": [
          10139033
        ],
        "postalCode": "P0X1N0",
        "streetName": "MILLER",
        "streetDirectionId": null,
        "streetTypeId": "RD",
        "placeName": "SIOUX NARROWS",
        "streetNameDisplayText": "MILLER RD, SIOUX NARROWS"
      },
      {
        "electoralDistricts": [
          {
            "election": null,
            "id": 44,
            "name": "Kenora—Rainy River"
          }
        ],
        "pollDivisionIds": [
          10143952
        ],
        "postalCode": "P0X1N0",
        "streetName": "NORTHWEST ANGLE 37",
        "streetDirectionId": "NW",
        "streetTypeId": null,
        "placeName": "SIOUX NARROWS",
        "streetNameDisplayText": "NORTHWEST ANGLE 37 NW, SIOUX NARROWS"
      },
      {
        "electoralDistricts": [
          {
            "election": null,
            "id": 44,
            "name": "Kenora—Rainy River"
          }
        ],
        "pollDivisionIds": [
          10139033
        ],
        "postalCode": "P0X1N0",
        "streetName": "OTTER",
        "streetDirectionId": null,
        "streetTypeId": "DR",
        "placeName": "SIOUX NARROWS",
        "streetNameDisplayText": "OTTER DR, SIOUX NARROWS"
      },
      {
        "electoralDistricts": [
          {
            "election": null,
            "id": 44,
            "name": "Kenora—Rainy River"
          }
        ],
        "pollDivisionIds": [
          10139033
        ],
        "postalCode": "P0X1N0",
        "streetName": "PARADISE POINT",
        "streetDirectionId": null,
        "streetTypeId": "RD",
        "placeName": "SIOUX NARROWS",
        "streetNameDisplayText": "PARADISE POINT RD, SIOUX NARROWS"
      },
      {
        "electoralDistricts": [
          {
            "election": null,
            "id": 44,
            "name": "Kenora—Rainy River"
          }
        ],
        "pollDivisionIds": [
          10139033
        ],
        "postalCode": "P0X1N0",
        "streetName": "PARADISE",
        "streetDirectionId": null,
        "streetTypeId": "PT",
        "placeName": "SIOUX NARROWS",
        "streetNameDisplayText": "PARADISE PT, SIOUX NARROWS"
      },
      {
        "electoralDistricts": [
          {
            "election": null,
            "id": 44,
            "name": "Kenora—Rainy River"
          }
        ],
        "pollDivisionIds": [
          10139033
        ],
        "postalCode": "P0X1N0",
        "streetName": "RED INDIAN",
        "streetDirectionId": null,
        "streetTypeId": "RD",
        "placeName": "SIOUX NARROWS",
        "streetNameDisplayText": "RED INDIAN RD, SIOUX NARROWS"
      },
      {
        "electoralDistricts": [
          {
            "election": null,
            "id": 44,
            "name": "Kenora—Rainy River"
          }
        ],
        "pollDivisionIds": [
          10139033
        ],
        "postalCode": "P0X1N0",
        "streetName": "SHANGRILA",
        "streetDirectionId": null,
        "streetTypeId": "RD",
        "placeName": "SIOUX NARROWS",
        "streetNameDisplayText": "SHANGRILA RD, SIOUX NARROWS"
      },
      {
        "electoralDistricts": [
          {
            "election": null,
            "id": 44,
            "name": "Kenora—Rainy River"
          }
        ],
        "pollDivisionIds": [
          10139033
        ],
        "postalCode": "P0X1N0",
        "streetName": "SHINGWAK",
        "streetDirectionId": null,
        "streetTypeId": "RD",
        "placeName": "SIOUX NARROWS",
        "streetNameDisplayText": "SHINGWAK RD, SIOUX NARROWS"
      },
      {
        "electoralDistricts": [
          {
            "election": null,
            "id": 44,
            "name": "Kenora—Rainy River"
          }
        ],
        "pollDivisionIds": [
          10139033
        ],
        "postalCode": "P0X1N0",
        "streetName": "SIOUX",
        "streetDirectionId": null,
        "streetTypeId": "BLVD",
        "placeName": "SIOUX NARROWS",
        "streetNameDisplayText": "SIOUX BLVD, SIOUX NARROWS"
      },
      {
        "electoralDistricts": [
          {
            "election": null,
            "id": 44,
            "name": "Kenora—Rainy River"
          }
        ],
        "pollDivisionIds": [
          10139033
        ],
        "postalCode": "P0X1N0",
        "streetName": "SKYERS",
        "streetDirectionId": null,
        "streetTypeId": "RD",
        "placeName": "SIOUX NARROWS",
        "streetNameDisplayText": "SKYERS RD, SIOUX NARROWS"
      },
      {
        "electoralDistricts": [
          {
            "election": null,
            "id": 44,
            "name": "Kenora—Rainy River"
          }
        ],
        "pollDivisionIds": [
          10139033
        ],
        "postalCode": "P0X1N0",
        "streetName": "SN AIRPORT",
        "streetDirectionId": null,
        "streetTypeId": "RD",
        "placeName": "SIOUX NARROWS",
        "streetNameDisplayText": "SN AIRPORT RD, SIOUX NARROWS"
      },
      {
        "electoralDistricts": [
          {
            "election": null,
            "id": 44,
            "name": "Kenora—Rainy River"
          }
        ],
        "pollDivisionIds": [
          10139033
        ],
        "postalCode": "P0X1N0",
        "streetName": "TOMAHAWK",
        "streetDirectionId": null,
        "streetTypeId": "RD",
        "placeName": "SIOUX NARROWS",
        "streetNameDisplayText": "TOMAHAWK RD, SIOUX NARROWS"
      },
      {
        "electoralDistricts": [
          {
            "election": null,
            "id": 44,
            "name": "Kenora—Rainy River"
          }
        ],
        "pollDivisionIds": [
          10139033
        ],
        "postalCode": "P0X1N0",
        "streetName": "TOTEM",
        "streetDirectionId": null,
        "streetTypeId": "RD",
        "placeName": "SIOUX NARROWS",
        "streetNameDisplayText": "TOTEM RD, SIOUX NARROWS"
      },
      {
        "electoralDistricts": [
          {
            "election": null,
            "id": 44,
            "name": "Kenora—Rainy River"
          }
        ],
        "pollDivisionIds": [
          10139033
        ],
        "postalCode": "P0X1N0",
        "streetName": "TRILLIUM",
        "streetDirectionId": null,
        "streetTypeId": "TRAIL",
        "placeName": "SIOUX NARROWS",
        "streetNameDisplayText": "TRILLIUM TRAIL, SIOUX NARROWS"
      },
      {
        "electoralDistricts": [
          {
            "election": null,
            "id": 44,
            "name": "Kenora—Rainy River"
          }
        ],
        "pollDivisionIds": [
          10139033
        ],
        "postalCode": "P0X1N0",
        "streetName": "TROUT",
        "streetDirectionId": null,
        "streetTypeId": "ST",
        "placeName": "SIOUX NARROWS",
        "streetNameDisplayText": "TROUT ST, SIOUX NARROWS"
      },
      {
        "electoralDistricts": [
          {
            "election": null,
            "id": 44,
            "name": "Kenora—Rainy River"
          }
        ],
        "pollDivisionIds": [
          10139033
        ],
        "postalCode": "P0X1N0",
        "streetName": "TVO",
        "streetDirectionId": null,
        "streetTypeId": "RD",
        "placeName": "SIOUX NARROWS",
        "streetNameDisplayText": "TVO RD, SIOUX NARROWS"
      },
      {
        "electoralDistricts": [
          {
            "election": null,
            "id": 44,
            "name": "Kenora—Rainy River"
          }
        ],
        "pollDivisionIds": [
          10139033
        ],
        "postalCode": "P0X1N0",
        "streetName": "WHITE MOOSE",
        "streetDirectionId": null,
        "streetTypeId": "RD",
        "placeName": "SIOUX NARROWS",
        "streetNameDisplayText": "WHITE MOOSE RD, SIOUX NARROWS"
      },
      {
        "electoralDistricts": [
          {
            "election": null,
            "id": 44,
            "name": "Kenora—Rainy River"
          }
        ],
        "pollDivisionIds": [
          10139033
        ],
        "postalCode": "P0X1N0",
        "streetName": "WHITE PINE",
        "streetDirectionId": null,
        "streetTypeId": "RD",
        "placeName": "SIOUX NARROWS",
        "streetNameDisplayText": "WHITE PINE RD, SIOUX NARROWS"
      },
      {
        "electoralDistricts": [
          {
            "election": null,
            "id": 44,
            "name": "Kenora—Rainy River"
          }
        ],
        "pollDivisionIds": [
          10139032
        ],
        "postalCode": "P0X1N0",
        "streetName": "WHITEFISH BAY",
        "streetDirectionId": null,
        "streetTypeId": "RD",
        "placeName": "PAWITIK",
        "streetNameDisplayText": "WHITEFISH BAY RD, PAWITIK"
      },
      {
        "electoralDistricts": [
          {
            "election": null,
            "id": 44,
            "name": "Kenora—Rainy River"
          }
        ],
        "pollDivisionIds": [
          10139033
        ],
        "postalCode": "P0X1N0",
        "streetName": "WOODHOUSE",
        "streetDirectionId": null,
        "streetTypeId": "RD",
        "placeName": "SIOUX NARROWS",
        "streetNameDisplayText": "WOODHOUSE RD, SIOUX NARROWS"
      },
      {
        "electoralDistricts": [
          {
            "election": null,
            "id": 44,
            "name": "Kenora—Rainy River"
          }
        ],
        "pollDivisionIds": [
          10139033
        ],
        "postalCode": "P0X1N0",
        "streetName": "WOODPECKER",
        "streetDirectionId": null,
        "streetTypeId": "HILL",
        "placeName": "SIOUX NARROWS",
        "streetNameDisplayText": "WOODPECKER HILL, SIOUX NARROWS"
      }
    ]
  },
  {
    "postal": "P0X1P0",
    "result": [
      {
        "electoralDistricts": [
          {
            "election": null,
            "id": 123,
            "name": "Kiiwetinoong"
          }
        ],
        "pollDivisionIds": [
          10143048
        ],
        "postalCode": "P0X1P0",
        "streetName": "WABASEEMOONG INDEPENDENT NATIONS",
        "streetDirectionId": null,
        "streetTypeId": null,
        "placeName": "WHITEDOG",
        "streetNameDisplayText": "WABASEEMOONG INDEPENDENT NATIONS, WHITEDOG"
      }
    ]
  },
  {
    "postal": "P0X1S0",
    "result": [
      {
        "electoralDistricts": [
          {
            "election": null,
            "id": 44,
            "name": "Kenora—Rainy River"
          }
        ],
        "pollDivisionIds": [
          10138981
        ],
        "postalCode": "P0X1S0",
        "streetName": "BOYS TWP",
        "streetDirectionId": null,
        "streetTypeId": null,
        "placeName": "CLEARWATER BAY",
        "streetNameDisplayText": "BOYS TWP, CLEARWATER BAY"
      },
      {
        "electoralDistricts": [
          {
            "election": null,
            "id": 44,
            "name": "Kenora—Rainy River"
          }
        ],
        "pollDivisionIds": [
          10138981
        ],
        "postalCode": "P0X1S0",
        "streetName": "CAMERON",
        "streetDirectionId": null,
        "streetTypeId": "DR",
        "placeName": "CLEARWATER BAY",
        "streetNameDisplayText": "CAMERON DR, CLEARWATER BAY"
      },
      {
        "electoralDistricts": [
          {
            "election": null,
            "id": 44,
            "name": "Kenora—Rainy River"
          }
        ],
        "pollDivisionIds": [
          10138981
        ],
        "postalCode": "P0X1S0",
        "streetName": "CLEARWATER",
        "streetDirectionId": null,
        "streetTypeId": "BAY",
        "placeName": "CLEARWATER BAY",
        "streetNameDisplayText": "CLEARWATER BAY, CLEARWATER BAY"
      },
      {
        "electoralDistricts": [
          {
            "election": null,
            "id": 44,
            "name": "Kenora—Rainy River"
          }
        ],
        "pollDivisionIds": [
          10138984
        ],
        "postalCode": "P0X1S0",
        "streetName": "GIDLEY TWP",
        "streetDirectionId": null,
        "streetTypeId": null,
        "placeName": "CLEARWATER BAY",
        "streetNameDisplayText": "GIDLEY TWP, CLEARWATER BAY"
      },
      {
        "electoralDistricts": [
          {
            "election": null,
            "id": 44,
            "name": "Kenora—Rainy River"
          }
        ],
        "pollDivisionIds": [
          10138981
        ],
        "postalCode": "P0X1S0",
        "streetName": "GLASS TWP",
        "streetDirectionId": null,
        "streetTypeId": null,
        "placeName": "KEEWATIN",
        "streetNameDisplayText": "GLASS TWP, KEEWATIN"
      },
      {
        "electoralDistricts": [
          {
            "election": null,
            "id": 44,
            "name": "Kenora—Rainy River"
          }
        ],
        "pollDivisionIds": [
          10138985
        ],
        "postalCode": "P0X1S0",
        "streetName": "INGLIS LAKE",
        "streetDirectionId": null,
        "streetTypeId": "RD",
        "placeName": "KEEWATIN",
        "streetNameDisplayText": "INGLIS LAKE RD, KEEWATIN"
      },
      {
        "electoralDistricts": [
          {
            "election": null,
            "id": 44,
            "name": "Kenora—Rainy River"
          }
        ],
        "pollDivisionIds": [
          10138985
        ],
        "postalCode": "P0X1S0",
        "streetName": "KENDALL INLET",
        "streetDirectionId": null,
        "streetTypeId": "RD",
        "placeName": "KEEWATIN",
        "streetNameDisplayText": "KENDALL INLET RD, KEEWATIN"
      },
      {
        "electoralDistricts": [
          {
            "election": null,
            "id": 44,
            "name": "Kenora—Rainy River"
          }
        ],
        "pollDivisionIds": [
          10138981
        ],
        "postalCode": "P0X1S0",
        "streetName": "LAKE OF TWO MOUNTAINS",
        "streetDirectionId": null,
        "streetTypeId": null,
        "placeName": "DISTRICT OF KENORA",
        "streetNameDisplayText": "LAKE OF TWO MOUNTAINS, DISTRICT OF KENORA"
      },
      {
        "electoralDistricts": [
          {
            "election": null,
            "id": 44,
            "name": "Kenora—Rainy River"
          }
        ],
        "pollDivisionIds": [
          10138981
        ],
        "postalCode": "P0X1S0",
        "streetName": "MCCALLUM POINT",
        "streetDirectionId": null,
        "streetTypeId": "RD",
        "placeName": "CLEARWATER BAY",
        "streetNameDisplayText": "MCCALLUM POINT RD, CLEARWATER BAY"
      },
      {
        "electoralDistricts": [
          {
            "election": null,
            "id": 44,
            "name": "Kenora—Rainy River"
          }
        ],
        "pollDivisionIds": [
          10138981
        ],
        "postalCode": "P0X1S0",
        "streetName": "PINE",
        "streetDirectionId": null,
        "streetTypeId": "RD",
        "placeName": "DISTRICT OF KENORA",
        "streetNameDisplayText": "PINE RD, DISTRICT OF KENORA"
      },
      {
        "electoralDistricts": [
          {
            "election": null,
            "id": 44,
            "name": "Kenora—Rainy River"
          }
        ],
        "pollDivisionIds": [
          10138981
        ],
        "postalCode": "P0X1S0",
        "streetName": "PYES",
        "streetDirectionId": null,
        "streetTypeId": "RD",
        "placeName": "CLEARWATER BAY",
        "streetNameDisplayText": "PYES RD, CLEARWATER BAY"
      },
      {
        "electoralDistricts": [
          {
            "election": null,
            "id": 44,
            "name": "Kenora—Rainy River"
          }
        ],
        "pollDivisionIds": [
          10138981
        ],
        "postalCode": "P0X1S0",
        "streetName": "RED PINE RIDGE",
        "streetDirectionId": null,
        "streetTypeId": "RD",
        "placeName": "CLEARWATER BAY",
        "streetNameDisplayText": "RED PINE RIDGE RD, CLEARWATER BAY"
      },
      {
        "electoralDistricts": [
          {
            "election": null,
            "id": 44,
            "name": "Kenora—Rainy River"
          }
        ],
        "pollDivisionIds": [
          10138981
        ],
        "postalCode": "P0X1S0",
        "streetName": "ROCKERIES",
        "streetDirectionId": "W",
        "streetTypeId": "RD",
        "placeName": "CLEARWATER BAY",
        "streetNameDisplayText": "ROCKERIES RD W, CLEARWATER BAY"
      },
      {
        "electoralDistricts": [
          {
            "election": null,
            "id": 44,
            "name": "Kenora—Rainy River"
          }
        ],
        "pollDivisionIds": [
          10138981
        ],
        "postalCode": "P0X1S0",
        "streetName": "ROCKERIES",
        "streetDirectionId": null,
        "streetTypeId": "RD",
        "placeName": "CLEARWATER BAY",
        "streetNameDisplayText": "ROCKERIES RD, CLEARWATER BAY"
      },
      {
        "electoralDistricts": [
          {
            "election": null,
            "id": 44,
            "name": "Kenora—Rainy River"
          }
        ],
        "pollDivisionIds": [
          10138981
        ],
        "postalCode": "P0X1S0",
        "streetName": "ROCKY RIDGE",
        "streetDirectionId": null,
        "streetTypeId": "RD",
        "placeName": "CLEARWATER BAY",
        "streetNameDisplayText": "ROCKY RIDGE RD, CLEARWATER BAY"
      },
      {
        "electoralDistricts": [
          {
            "election": null,
            "id": 44,
            "name": "Kenora—Rainy River"
          }
        ],
        "pollDivisionIds": [
          10138981
        ],
        "postalCode": "P0X1S0",
        "streetName": "RUSH BAY",
        "streetDirectionId": null,
        "streetTypeId": "RD",
        "placeName": "CLEARWATER BAY",
        "streetNameDisplayText": "RUSH BAY RD, CLEARWATER BAY"
      },
      {
        "electoralDistricts": [
          {
            "election": null,
            "id": 44,
            "name": "Kenora—Rainy River"
          }
        ],
        "pollDivisionIds": [
          10138981
        ],
        "postalCode": "P0X1S0",
        "streetName": "SHEDIAC",
        "streetDirectionId": null,
        "streetTypeId": "LANE",
        "placeName": "CLEARWATER BAY",
        "streetNameDisplayText": "SHEDIAC LANE, CLEARWATER BAY"
      },
      {
        "electoralDistricts": [
          {
            "election": null,
            "id": 44,
            "name": "Kenora—Rainy River"
          }
        ],
        "pollDivisionIds": [
          10138981
        ],
        "postalCode": "P0X1S0",
        "streetName": "ZIG ZAG ISLAND",
        "streetDirectionId": null,
        "streetTypeId": "ISLAND",
        "placeName": "CLEARWATER BAY",
        "streetNameDisplayText": "ZIG ZAG ISLAND ISLAND, CLEARWATER BAY"
      }
    ]
  }
]
