[
  {
    "postal": "L2V9J6",
    "result": []
  },
  {
    "postal": "L2V9Z5",
    "result": []
  },
  {
    "postal": "L2V7H8",
    "result": []
  },
  {
    "postal": "L2V0P6",
    "result": []
  },
  {
    "postal": "L2V0S7",
    "result": []
  },
  {
    "postal": "L2V8B9",
    "result": []
  },
  {
    "postal": "L2V2A6",
    "result": [
      {
        "electoralDistricts": [
          {
            "election": null,
            "id": 68,
            "name": "Niagara Centre"
          }
        ],
        "pollDivisionIds": [
          10139909
        ],
        "postalCode": "L2V2A6",
        "streetName": "CARLETON",
        "streetDirectionId": "N",
        "streetTypeId": "ST",
        "placeName": "THOROLD",
        "streetNameDisplayText": "CARLETON ST N, THOROLD"
      },
      {
        "electoralDistricts": [
          {
            "election": null,
            "id": 68,
            "name": "Niagara Centre"
          }
        ],
        "pollDivisionIds": [
          10139909
        ],
        "postalCode": "L2V2A6",
        "streetName": "CARLTON ST NORTH",
        "streetDirectionId": "N",
        "streetTypeId": "ST",
        "placeName": "THOROLD",
        "streetNameDisplayText": "CARLTON ST NORTH ST N, THOROLD"
      }
    ]
  },
  {
    "postal": "L2V7V2",
    "result": []
  },
  {
    "postal": "L2V9P4",
    "result": []
  },
  {
    "postal": "L2V6G0",
    "result": []
  },
  {
    "postal": "L2V2K0",
    "result": []
  },
  {
    "postal": "L2V7N6",
    "result": []
  },
  {
    "postal": "L2V5R3",
    "result": []
  },
  {
    "postal": "L2V7K0",
    "result": []
  },
  {
    "postal": "L2V3R2",
    "result": [
      {
        "electoralDistricts": [
          {
            "election": null,
            "id": 68,
            "name": "Niagara Centre"
          }
        ],
        "pollDivisionIds": [
          10139912
        ],
        "postalCode": "L2V3R2",
        "streetName": "SYDENHAM",
        "streetDirectionId": null,
        "streetTypeId": "ST",
        "placeName": "THOROLD",
        "streetNameDisplayText": "SYDENHAM ST, THOROLD"
      }
    ]
  },
  {
    "postal": "L2V0J1",
    "result": [
      {
        "electoralDistricts": [
          {
            "election": null,
            "id": 68,
            "name": "Niagara Centre"
          }
        ],
        "pollDivisionIds": [
          10139911
        ],
        "postalCode": "L2V0J1",
        "streetName": "HAWTHORN",
        "streetDirectionId": null,
        "streetTypeId": "AVE",
        "placeName": "THOROLD",
        "streetNameDisplayText": "HAWTHORN AVE, THOROLD"
      },
      {
        "electoralDistricts": [
          {
            "election": null,
            "id": 68,
            "name": "Niagara Centre"
          }
        ],
        "pollDivisionIds": [
          10139911
        ],
        "postalCode": "L2V0J1",
        "streetName": "IRONWOOD",
        "streetDirectionId": null,
        "streetTypeId": "CRT",
        "placeName": "THOROLD",
        "streetNameDisplayText": "IRONWOOD CRT, THOROLD"
      },
      {
        "electoralDistricts": [
          {
            "election": null,
            "id": 68,
            "name": "Niagara Centre"
          }
        ],
        "pollDivisionIds": [
          10139911
        ],
        "postalCode": "L2V0J1",
        "streetName": "WINTERBERRY",
        "streetDirectionId": null,
        "streetTypeId": "BLVD",
        "placeName": "THOROLD",
        "streetNameDisplayText": "WINTERBERRY BLVD, THOROLD"
      }
    ]
  },
  {
    "postal": "L2V0B0",
    "result": []
  },
  {
    "postal": "L2V5Z2",
    "result": []
  },
  {
    "postal": "L2V7P3",
    "result": []
  },
  {
    "postal": "L2V2K3",
    "result": [
      {
        "electoralDistricts": [
          {
            "election": null,
            "id": 68,
            "name": "Niagara Centre"
          }
        ],
        "pollDivisionIds": [
          10139909
        ],
        "postalCode": "L2V2K3",
        "streetName": "WATER",
        "streetDirectionId": null,
        "streetTypeId": "ST",
        "placeName": "THOROLD",
        "streetNameDisplayText": "WATER ST, THOROLD"
      }
    ]
  },
  {
    "postal": "L2V7Y6",
    "result": []
  },
  {
    "postal": "L2V1L9",
    "result": [
      {
        "electoralDistricts": [
          {
            "election": null,
            "id": 68,
            "name": "Niagara Centre"
          }
        ],
        "pollDivisionIds": [
          10139915
        ],
        "postalCode": "L2V1L9",
        "streetName": "HAYES",
        "streetDirectionId": null,
        "streetTypeId": "RD",
        "placeName": "THOROLD",
        "streetNameDisplayText": "HAYES RD, THOROLD"
      }
    ]
  },
  {
    "postal": "L2V8T0",
    "result": []
  },
  {
    "postal": "L2V3K8",
    "result": [
      {
        "electoralDistricts": [
          {
            "election": null,
            "id": 68,
            "name": "Niagara Centre"
          }
        ],
        "pollDivisionIds": [
          10139913
        ],
        "postalCode": "L2V3K8",
        "streetName": "CUNNINGHAM",
        "streetDirectionId": null,
        "streetTypeId": "ST",
        "placeName": "THOROLD",
        "streetNameDisplayText": "CUNNINGHAM ST, THOROLD"
      }
    ]
  },
  {
    "postal": "L2V5W9",
    "result": []
  },
  {
    "postal": "L2V6T9",
    "result": []
  },
  {
    "postal": "L2V4H1",
    "result": [
      {
        "electoralDistricts": [
          {
            "election": null,
            "id": 68,
            "name": "Niagara Centre"
          }
        ],
        "pollDivisionIds": [
          10139911
        ],
        "postalCode": "L2V4H1",
        "streetName": "FORSTER",
        "streetDirectionId": null,
        "streetTypeId": "AVE",
        "placeName": "THOROLD",
        "streetNameDisplayText": "FORSTER AVE, THOROLD"
      }
    ]
  },
  {
    "postal": "L2V7A2",
    "result": []
  },
  {
    "postal": "L2V5G0",
    "result": []
  },
  {
    "postal": "L2V8V5",
    "result": []
  },
  {
    "postal": "L2V2Y8",
    "result": [
      {
        "electoralDistricts": [
          {
            "election": null,
            "id": 68,
            "name": "Niagara Centre"
          }
        ],
        "pollDivisionIds": [
          10139909
        ],
        "postalCode": "L2V2Y8",
        "streetName": "SULLIVAN",
        "streetDirectionId": null,
        "streetTypeId": "AVE",
        "placeName": "THOROLD",
        "streetNameDisplayText": "SULLIVAN AVE, THOROLD"
      }
    ]
  },
  {
    "postal": "L2V2B6",
    "result": [
      {
        "electoralDistricts": [
          {
            "election": null,
            "id": 68,
            "name": "Niagara Centre"
          }
        ],
        "pollDivisionIds": [
          10139913
        ],
        "postalCode": "L2V2B6",
        "streetName": "WELLAND",
        "streetDirectionId": "S",
        "streetTypeId": "ST",
        "placeName": "THOROLD",
        "streetNameDisplayText": "WELLAND ST S, THOROLD"
      }
    ]
  },
  {
    "postal": "L2V4W8",
    "result": []
  },
  {
    "postal": "L2V8H7",
    "result": []
  },
  {
    "postal": "L2V5P1",
    "result": []
  },
  {
    "postal": "L2V2B8",
    "result": [
      {
        "electoralDistricts": [
          {
            "election": null,
            "id": 68,
            "name": "Niagara Centre"
          }
        ],
        "pollDivisionIds": [
          10139909
        ],
        "postalCode": "L2V2B8",
        "streetName": "WELLAND",
        "streetDirectionId": "N",
        "streetTypeId": "ST",
        "placeName": "THOROLD",
        "streetNameDisplayText": "WELLAND ST N, THOROLD"
      }
    ]
  },
  {
    "postal": "L2V0P2",
    "result": []
  },
  {
    "postal": "L2V9M1",
    "result": []
  },
  {
    "postal": "L2V3G0",
    "result": []
  },
  {
    "postal": "L2V9Z2",
    "result": []
  },
  {
    "postal": "L2V2A0",
    "result": []
  },
  {
    "postal": "L2V6Y0",
    "result": []
  },
  {
    "postal": "L2V2Z8",
    "result": [
      {
        "electoralDistricts": [
          {
            "election": null,
            "id": 68,
            "name": "Niagara Centre"
          }
        ],
        "pollDivisionIds": [
          10139909
        ],
        "postalCode": "L2V2Z8",
        "streetName": "METCALFE",
        "streetDirectionId": null,
        "streetTypeId": "ST",
        "placeName": "THOROLD",
        "streetNameDisplayText": "METCALFE ST, THOROLD"
      }
    ]
  },
  {
    "postal": "L2V7Y3",
    "result": []
  },
  {
    "postal": "L2V6Z5",
    "result": []
  },
  {
    "postal": "L2V6E0",
    "result": []
  },
  {
    "postal": "L2V9B7",
    "result": []
  },
  {
    "postal": "L2V9S5",
    "result": []
  },
  {
    "postal": "L2V3X3",
    "result": [
      {
        "electoralDistricts": [
          {
            "election": null,
            "id": 68,
            "name": "Niagara Centre"
          }
        ],
        "pollDivisionIds": [
          10139913
        ],
        "postalCode": "L2V3X3",
        "streetName": "MARTIN",
        "streetDirectionId": null,
        "streetTypeId": "ST",
        "placeName": "THOROLD",
        "streetNameDisplayText": "MARTIN ST, THOROLD"
      }
    ]
  },
  {
    "postal": "L2V7R5",
    "result": []
  },
  {
    "postal": "L2V2X3",
    "result": [
      {
        "electoralDistricts": [
          {
            "election": null,
            "id": 68,
            "name": "Niagara Centre"
          }
        ],
        "pollDivisionIds": [
          10139912
        ],
        "postalCode": "L2V2X3",
        "streetName": "COLLIER",
        "streetDirectionId": "N",
        "streetTypeId": "RD",
        "placeName": "THOROLD",
        "streetNameDisplayText": "COLLIER RD N, THOROLD"
      }
    ]
  },
  {
    "postal": "L2V8Z9",
    "result": []
  },
  {
    "postal": "L2V0N4",
    "result": []
  },
  {
    "postal": "L2V1K1",
    "result": [
      {
        "electoralDistricts": [
          {
            "election": null,
            "id": 68,
            "name": "Niagara Centre"
          }
        ],
        "pollDivisionIds": [
          10139915
        ],
        "postalCode": "L2V1K1",
        "streetName": "CLARA",
        "streetDirectionId": null,
        "streetTypeId": "ST",
        "placeName": "THOROLD",
        "streetNameDisplayText": "CLARA ST, THOROLD"
      }
    ]
  },
  {
    "postal": "L2V1S3",
    "result": [
      {
        "electoralDistricts": [
          {
            "election": null,
            "id": 68,
            "name": "Niagara Centre"
          }
        ],
        "pollDivisionIds": [
          10139913
        ],
        "postalCode": "L2V1S3",
        "streetName": "PORTLAND",
        "streetDirectionId": null,
        "streetTypeId": "ST",
        "placeName": "THOROLD",
        "streetNameDisplayText": "PORTLAND ST, THOROLD"
      }
    ]
  },
  {
    "postal": "L2V6M4",
    "result": []
  },
  {
    "postal": "L2V9A9",
    "result": []
  },
  {
    "postal": "L2V9Z9",
    "result": []
  },
  {
    "postal": "L2V6T4",
    "result": []
  },
  {
    "postal": "L2V0B2",
    "result": [
      {
        "electoralDistricts": [
          {
            "election": null,
            "id": 68,
            "name": "Niagara Centre"
          }
        ],
        "pollDivisionIds": [
          10139911
        ],
        "postalCode": "L2V0B2",
        "streetName": "JUNEBERRY",
        "streetDirectionId": null,
        "streetTypeId": "RD",
        "placeName": "THOROLD",
        "streetNameDisplayText": "JUNEBERRY RD, THOROLD"
      },
      {
        "electoralDistricts": [
          {
            "election": null,
            "id": 68,
            "name": "Niagara Centre"
          }
        ],
        "pollDivisionIds": [
          10139911
        ],
        "postalCode": "L2V0B2",
        "streetName": "WINTERBERRY",
        "streetDirectionId": null,
        "streetTypeId": "BLVD",
        "placeName": "THOROLD",
        "streetNameDisplayText": "WINTERBERRY BLVD, THOROLD"
      }
    ]
  },
  {
    "postal": "L2V2L9",
    "result": [
      {
        "electoralDistricts": [
          {
            "election": null,
            "id": 68,
            "name": "Niagara Centre"
          }
        ],
        "pollDivisionIds": [
          10139912
        ],
        "postalCode": "L2V2L9",
        "streetName": "ST. DAVID'S",
        "streetDirectionId": null,
        "streetTypeId": "RD",
        "placeName": "THOROLD",
        "streetNameDisplayText": "ST. DAVID'S RD, THOROLD"
      }
    ]
  },
  {
    "postal": "L2V8K9",
    "result": []
  },
  {
    "postal": "L2V2H9",
    "result": [
      {
        "electoralDistricts": [
          {
            "election": null,
            "id": 68,
            "name": "Niagara Centre"
          }
        ],
        "pollDivisionIds": [
          10139912
        ],
        "postalCode": "L2V2H9",
        "streetName": "BRODERICK",
        "streetDirectionId": null,
        "streetTypeId": "AVE",
        "placeName": "THOROLD",
        "streetNameDisplayText": "BRODERICK AVE, THOROLD"
      }
    ]
  },
  {
    "postal": "L2V3Z6",
    "result": []
  },
  {
    "postal": "L2V3B0",
    "result": []
  },
  {
    "postal": "L2V2H8",
    "result": [
      {
        "electoralDistricts": [
          {
            "election": null,
            "id": 68,
            "name": "Niagara Centre"
          }
        ],
        "pollDivisionIds": [
          10139912
        ],
        "postalCode": "L2V2H8",
        "streetName": "BRODERICK",
        "streetDirectionId": null,
        "streetTypeId": "AVE",
        "placeName": "THOROLD",
        "streetNameDisplayText": "BRODERICK AVE, THOROLD"
      }
    ]
  },
  {
    "postal": "L2V3X2",
    "result": [
      {
        "electoralDistricts": [
          {
            "election": null,
            "id": 68,
            "name": "Niagara Centre"
          }
        ],
        "pollDivisionIds": [
          10139913
        ],
        "postalCode": "L2V3X2",
        "streetName": "MARTIN",
        "streetDirectionId": null,
        "streetTypeId": "ST",
        "placeName": "THOROLD",
        "streetNameDisplayText": "MARTIN ST, THOROLD"
      }
    ]
  },
  {
    "postal": "L2V2E9",
    "result": [
      {
        "electoralDistricts": [
          {
            "election": null,
            "id": 68,
            "name": "Niagara Centre"
          }
        ],
        "pollDivisionIds": [
          10139909
        ],
        "postalCode": "L2V2E9",
        "streetName": "ALBERT",
        "streetDirectionId": "W",
        "streetTypeId": "ST",
        "placeName": "THOROLD",
        "streetNameDisplayText": "ALBERT ST W, THOROLD"
      }
    ]
  },
  {
    "postal": "L2V9P6",
    "result": []
  },
  {
    "postal": "L2V9E2",
    "result": []
  },
  {
    "postal": "L2V9H2",
    "result": []
  },
  {
    "postal": "L2V1S8",
    "result": [
      {
        "electoralDistricts": [
          {
            "election": null,
            "id": 68,
            "name": "Niagara Centre"
          }
        ],
        "pollDivisionIds": [
          10139909
        ],
        "postalCode": "L2V1S8",
        "streetName": "VINE",
        "streetDirectionId": null,
        "streetTypeId": "ST",
        "placeName": "THOROLD",
        "streetNameDisplayText": "VINE ST, THOROLD"
      }
    ]
  },
  {
    "postal": "L2V3M6",
    "result": [
      {
        "electoralDistricts": [
          {
            "election": null,
            "id": 68,
            "name": "Niagara Centre"
          }
        ],
        "pollDivisionIds": [
          10139913
        ],
        "postalCode": "L2V3M6",
        "streetName": "PINE",
        "streetDirectionId": "S",
        "streetTypeId": "ST",
        "placeName": "THOROLD",
        "streetNameDisplayText": "PINE ST S, THOROLD"
      }
    ]
  },
  {
    "postal": "L2V6Z8",
    "result": []
  },
  {
    "postal": "L2V4J2",
    "result": [
      {
        "electoralDistricts": [
          {
            "election": null,
            "id": 68,
            "name": "Niagara Centre"
          }
        ],
        "pollDivisionIds": [
          10139913
        ],
        "postalCode": "L2V4J2",
        "streetName": "KALMUS",
        "streetDirectionId": null,
        "streetTypeId": "ST",
        "placeName": "THOROLD",
        "streetNameDisplayText": "KALMUS ST, THOROLD"
      }
    ]
  },
  {
    "postal": "L2V9Y1",
    "result": []
  },
  {
    "postal": "L2V8V6",
    "result": []
  },
  {
    "postal": "L2V6B2",
    "result": []
  },
  {
    "postal": "L2V1P8",
    "result": [
      {
        "electoralDistricts": [
          {
            "election": null,
            "id": 68,
            "name": "Niagara Centre"
          }
        ],
        "pollDivisionIds": [
          10139909
        ],
        "postalCode": "L2V1P8",
        "streetName": "WELLINGTON",
        "streetDirectionId": "N",
        "streetTypeId": "ST",
        "placeName": "THOROLD",
        "streetNameDisplayText": "WELLINGTON ST N, THOROLD"
      }
    ]
  },
  {
    "postal": "L2V0V8",
    "result": []
  },
  {
    "postal": "L2V4Y0",
    "result": []
  },
  {
    "postal": "L2V2T4",
    "result": [
      {
        "electoralDistricts": [
          {
            "election": null,
            "id": 68,
            "name": "Niagara Centre"
          }
        ],
        "pollDivisionIds": [
          10139912
        ],
        "postalCode": "L2V2T4",
        "streetName": "WHYTE",
        "streetDirectionId": "N",
        "streetTypeId": "AVE",
        "placeName": "THOROLD",
        "streetNameDisplayText": "WHYTE AVE N, THOROLD"
      }
    ]
  },
  {
    "postal": "L2V2S3",
    "result": [
      {
        "electoralDistricts": [
          {
            "election": null,
            "id": 68,
            "name": "Niagara Centre"
          }
        ],
        "pollDivisionIds": [
          10139909
        ],
        "postalCode": "L2V2S3",
        "streetName": "WEST",
        "streetDirectionId": "N",
        "streetTypeId": "ST",
        "placeName": "THOROLD",
        "streetNameDisplayText": "WEST ST N, THOROLD"
      }
    ]
  },
  {
    "postal": "L2V0K0",
    "result": []
  },
  {
    "postal": "L2V5N1",
    "result": []
  },
  {
    "postal": "L2V7T0",
    "result": []
  },
  {
    "postal": "L2V9N2",
    "result": []
  },
  {
    "postal": "L2V5L1",
    "result": []
  },
  {
    "postal": "L2V7G5",
    "result": []
  },
  {
    "postal": "L2V6K2",
    "result": []
  },
  {
    "postal": "L2V6P9",
    "result": []
  },
  {
    "postal": "L2V0E6",
    "result": [
      {
        "electoralDistricts": [
          {
            "election": null,
            "id": 68,
            "name": "Niagara Centre"
          }
        ],
        "pollDivisionIds": [
          10139921
        ],
        "postalCode": "L2V0E6",
        "streetName": "DAYS",
        "streetDirectionId": null,
        "streetTypeId": "AVE",
        "placeName": "THOROLD",
        "streetNameDisplayText": "DAYS AVE, THOROLD"
      },
      {
        "electoralDistricts": [
          {
            "election": null,
            "id": 68,
            "name": "Niagara Centre"
          }
        ],
        "pollDivisionIds": [
          10139921
        ],
        "postalCode": "L2V0E6",
        "streetName": "ELLIOT",
        "streetDirectionId": null,
        "streetTypeId": "ST",
        "placeName": "THOROLD",
        "streetNameDisplayText": "ELLIOT ST, THOROLD"
      },
      {
        "electoralDistricts": [
          {
            "election": null,
            "id": 68,
            "name": "Niagara Centre"
          }
        ],
        "pollDivisionIds": [
          10139921
        ],
        "postalCode": "L2V0E6",
        "streetName": "HOPKINS",
        "streetDirectionId": null,
        "streetTypeId": "ST",
        "placeName": "THOROLD",
        "streetNameDisplayText": "HOPKINS ST, THOROLD"
      },
      {
        "electoralDistricts": [
          {
            "election": null,
            "id": 68,
            "name": "Niagara Centre"
          }
        ],
        "pollDivisionIds": [
          10139921
        ],
        "postalCode": "L2V0E6",
        "streetName": "SECORD",
        "streetDirectionId": null,
        "streetTypeId": "ST",
        "placeName": "THOROLD",
        "streetNameDisplayText": "SECORD ST, THOROLD"
      }
    ]
  },
  {
    "postal": "L2V8R9",
    "result": []
  },
  {
    "postal": "L2V3G9",
    "result": [
      {
        "electoralDistricts": [
          {
            "election": null,
            "id": 68,
            "name": "Niagara Centre"
          }
        ],
        "pollDivisionIds": [
          10139912
        ],
        "postalCode": "L2V3G9",
        "streetName": "RICHMOND",
        "streetDirectionId": null,
        "streetTypeId": "ST",
        "placeName": "THOROLD",
        "streetNameDisplayText": "RICHMOND ST, THOROLD"
      }
    ]
  },
  {
    "postal": "L2V0V7",
    "result": []
  },
  {
    "postal": "L2V2Z1",
    "result": [
      {
        "electoralDistricts": [
          {
            "election": null,
            "id": 68,
            "name": "Niagara Centre"
          }
        ],
        "pollDivisionIds": [
          10139912
        ],
        "postalCode": "L2V2Z1",
        "streetName": "SULLIVAN",
        "streetDirectionId": null,
        "streetTypeId": "AVE",
        "placeName": "THOROLD",
        "streetNameDisplayText": "SULLIVAN AVE, THOROLD"
      }
    ]
  },
  {
    "postal": "L2V7N1",
    "result": []
  },
  {
    "postal": "L2V3C6",
    "result": [
      {
        "electoralDistricts": [
          {
            "election": null,
            "id": 68,
            "name": "Niagara Centre"
          }
        ],
        "pollDivisionIds": [
          10139912
        ],
        "postalCode": "L2V3C6",
        "streetName": "ROSE",
        "streetDirectionId": null,
        "streetTypeId": "AVE",
        "placeName": "THOROLD",
        "streetNameDisplayText": "ROSE AVE, THOROLD"
      }
    ]
  },
  {
    "postal": "L2V4M1",
    "result": [
      {
        "electoralDistricts": [
          {
            "election": null,
            "id": 68,
            "name": "Niagara Centre"
          }
        ],
        "pollDivisionIds": [
          10139914
        ],
        "postalCode": "L2V4M1",
        "streetName": "TARA",
        "streetDirectionId": null,
        "streetTypeId": "CRES",
        "placeName": "THOROLD",
        "streetNameDisplayText": "TARA CRES, THOROLD"
      }
    ]
  },
  {
    "postal": "L2V9K2",
    "result": []
  },
  {
    "postal": "L2V9S6",
    "result": []
  },
  {
    "postal": "L2V4X1",
    "result": [
      {
        "electoralDistricts": [
          {
            "election": null,
            "id": 68,
            "name": "Niagara Centre"
          }
        ],
        "pollDivisionIds": [
          10139914
        ],
        "postalCode": "L2V4X1",
        "streetName": "RANNIE",
        "streetDirectionId": null,
        "streetTypeId": "CRT",
        "placeName": "THOROLD",
        "streetNameDisplayText": "RANNIE CRT, THOROLD"
      }
    ]
  },
  {
    "postal": "L2V8W2",
    "result": []
  },
  {
    "postal": "L2V7N2",
    "result": []
  },
  {
    "postal": "L2V8S3",
    "result": []
  },
  {
    "postal": "L2V4V0",
    "result": []
  },
  {
    "postal": "L2V6W4",
    "result": []
  },
  {
    "postal": "L2V5M1",
    "result": []
  },
  {
    "postal": "L2V0S4",
    "result": []
  },
  {
    "postal": "L2V5X6",
    "result": []
  },
  {
    "postal": "L2V8L5",
    "result": []
  },
  {
    "postal": "L2V5M8",
    "result": []
  },
  {
    "postal": "L2V2G3",
    "result": [
      {
        "electoralDistricts": [
          {
            "election": null,
            "id": 68,
            "name": "Niagara Centre"
          }
        ],
        "pollDivisionIds": [
          10139909
        ],
        "postalCode": "L2V2G3",
        "streetName": "ALBERT",
        "streetDirectionId": "W",
        "streetTypeId": "ST",
        "placeName": "THOROLD",
        "streetNameDisplayText": "ALBERT ST W, THOROLD"
      }
    ]
  },
  {
    "postal": "L2V8E4",
    "result": []
  },
  {
    "postal": "L2V7S9",
    "result": []
  },
  {
    "postal": "L2V1K3",
    "result": [
      {
        "electoralDistricts": [
          {
            "election": null,
            "id": 68,
            "name": "Niagara Centre"
          }
        ],
        "pollDivisionIds": [
          10139915
        ],
        "postalCode": "L2V1K3",
        "streetName": "CLARA",
        "streetDirectionId": null,
        "streetTypeId": "ST",
        "placeName": "THOROLD",
        "streetNameDisplayText": "CLARA ST, THOROLD"
      }
    ]
  },
  {
    "postal": "L2V4E1",
    "result": []
  },
  {
    "postal": "L2V4R2",
    "result": [
      {
        "electoralDistricts": [
          {
            "election": null,
            "id": 68,
            "name": "Niagara Centre"
          }
        ],
        "pollDivisionIds": [
          10139914
        ],
        "postalCode": "L2V4R2",
        "streetName": "COMMERFORD",
        "streetDirectionId": null,
        "streetTypeId": "ST",
        "placeName": "THOROLD",
        "streetNameDisplayText": "COMMERFORD ST, THOROLD"
      }
    ]
  },
  {
    "postal": "L2V6T0",
    "result": []
  },
  {
    "postal": "L2V3K5",
    "result": [
      {
        "electoralDistricts": [
          {
            "election": null,
            "id": 68,
            "name": "Niagara Centre"
          }
        ],
        "pollDivisionIds": [
          10139913
        ],
        "postalCode": "L2V3K5",
        "streetName": "CLEVELAND",
        "streetDirectionId": null,
        "streetTypeId": "ST",
        "placeName": "THOROLD",
        "streetNameDisplayText": "CLEVELAND ST, THOROLD"
      }
    ]
  },
  {
    "postal": "L2V3S3",
    "result": [
      {
        "electoralDistricts": [
          {
            "election": null,
            "id": 68,
            "name": "Niagara Centre"
          }
        ],
        "pollDivisionIds": [
          10139912
        ],
        "postalCode": "L2V3S3",
        "streetName": "WINSLOW",
        "streetDirectionId": null,
        "streetTypeId": "CRES",
        "placeName": "THOROLD",
        "streetNameDisplayText": "WINSLOW CRES, THOROLD"
      }
    ]
  },
  {
    "postal": "L2V3L4",
    "result": [
      {
        "electoralDistricts": [
          {
            "election": null,
            "id": 68,
            "name": "Niagara Centre"
          }
        ],
        "pollDivisionIds": [
          10139913
        ],
        "postalCode": "L2V3L4",
        "streetName": "PINE",
        "streetDirectionId": "S",
        "streetTypeId": "ST",
        "placeName": "THOROLD",
        "streetNameDisplayText": "PINE ST S, THOROLD"
      }
    ]
  },
  {
    "postal": "L2V9Y2",
    "result": []
  },
  {
    "postal": "L2V1E0",
    "result": []
  },
  {
    "postal": "L2V9A4",
    "result": []
  },
  {
    "postal": "L2V1L3",
    "result": [
      {
        "electoralDistricts": [
          {
            "election": null,
            "id": 68,
            "name": "Niagara Centre"
          }
        ],
        "pollDivisionIds": [
          10139915
        ],
        "postalCode": "L2V1L3",
        "streetName": "MCCORMACK",
        "streetDirectionId": null,
        "streetTypeId": "DR",
        "placeName": "THOROLD",
        "streetNameDisplayText": "MCCORMACK DR, THOROLD"
      }
    ]
  },
  {
    "postal": "L2V6N1",
    "result": []
  },
  {
    "postal": "L2V6G7",
    "result": []
  },
  {
    "postal": "L2V7W1",
    "result": []
  },
  {
    "postal": "L2V4M6",
    "result": [
      {
        "electoralDistricts": [
          {
            "election": null,
            "id": 90,
            "name": "St. Catharines"
          },
          {
            "election": null,
            "id": 68,
            "name": "Niagara Centre"
          }
        ],
        "pollDivisionIds": [
          10141333,
          10139914
        ],
        "postalCode": "L2V4M6",
        "streetName": "KEEFER",
        "streetDirectionId": null,
        "streetTypeId": "RD",
        "placeName": "THOROLD",
        "streetNameDisplayText": "KEEFER RD, THOROLD"
      }
    ]
  },
  {
    "postal": "L2V1K0",
    "result": []
  },
  {
    "postal": "L2V3E2",
    "result": [
      {
        "electoralDistricts": [
          {
            "election": null,
            "id": 68,
            "name": "Niagara Centre"
          }
        ],
        "pollDivisionIds": [
          10139912
        ],
        "postalCode": "L2V3E2",
        "streetName": "ROSE",
        "streetDirectionId": null,
        "streetTypeId": "AVE",
        "placeName": "THOROLD",
        "streetNameDisplayText": "ROSE AVE, THOROLD"
      }
    ]
  },
  {
    "postal": "L2V5H4",
    "result": []
  },
  {
    "postal": "L2V1K7",
    "result": [
      {
        "electoralDistricts": [
          {
            "election": null,
            "id": 68,
            "name": "Niagara Centre"
          }
        ],
        "pollDivisionIds": [
          10139915
        ],
        "postalCode": "L2V1K7",
        "streetName": "CLARA",
        "streetDirectionId": null,
        "streetTypeId": "ST",
        "placeName": "THOROLD",
        "streetNameDisplayText": "CLARA ST, THOROLD"
      }
    ]
  },
  {
    "postal": "L2V0H0",
    "result": []
  },
  {
    "postal": "L2V0J3",
    "result": [
      {
        "electoralDistricts": [
          {
            "election": null,
            "id": 68,
            "name": "Niagara Centre"
          }
        ],
        "pollDivisionIds": [
          10139921
        ],
        "postalCode": "L2V0J3",
        "streetName": "CAMPBELL",
        "streetDirectionId": null,
        "streetTypeId": "ST",
        "placeName": "THOROLD",
        "streetNameDisplayText": "CAMPBELL ST, THOROLD"
      },
      {
        "electoralDistricts": [
          {
            "election": null,
            "id": 68,
            "name": "Niagara Centre"
          }
        ],
        "pollDivisionIds": [
          10139921
        ],
        "postalCode": "L2V0J3",
        "streetName": "MCFARLAND",
        "streetDirectionId": null,
        "streetTypeId": "ST",
        "placeName": "THOROLD",
        "streetNameDisplayText": "MCFARLAND ST, THOROLD"
      },
      {
        "electoralDistricts": [
          {
            "election": null,
            "id": 68,
            "name": "Niagara Centre"
          }
        ],
        "pollDivisionIds": [
          10139921
        ],
        "postalCode": "L2V0J3",
        "streetName": "SINGER",
        "streetDirectionId": null,
        "streetTypeId": "ST",
        "placeName": "THOROLD",
        "streetNameDisplayText": "SINGER ST, THOROLD"
      }
    ]
  },
  {
    "postal": "L2V1X6",
    "result": [
      {
        "electoralDistricts": [
          {
            "election": null,
            "id": 68,
            "name": "Niagara Centre"
          }
        ],
        "pollDivisionIds": [
          10139909
        ],
        "postalCode": "L2V1X6",
        "streetName": "FRONT",
        "streetDirectionId": "N",
        "streetTypeId": "ST",
        "placeName": "THOROLD",
        "streetNameDisplayText": "FRONT ST N, THOROLD"
      }
    ]
  },
  {
    "postal": "L2V2Z6",
    "result": [
      {
        "electoralDistricts": [
          {
            "election": null,
            "id": 68,
            "name": "Niagara Centre"
          }
        ],
        "pollDivisionIds": [
          10139909
        ],
        "postalCode": "L2V2Z6",
        "streetName": "METCALFE",
        "streetDirectionId": null,
        "streetTypeId": "ST",
        "placeName": "THOROLD",
        "streetNameDisplayText": "METCALFE ST, THOROLD"
      }
    ]
  },
  {
    "postal": "L2V4R9",
    "result": [
      {
        "electoralDistricts": [
          {
            "election": null,
            "id": 68,
            "name": "Niagara Centre"
          }
        ],
        "pollDivisionIds": [
          10139914
        ],
        "postalCode": "L2V4R9",
        "streetName": "CAPRI",
        "streetDirectionId": null,
        "streetTypeId": "ST",
        "placeName": "THOROLD",
        "streetNameDisplayText": "CAPRI ST, THOROLD"
      }
    ]
  },
  {
    "postal": "L2V0W8",
    "result": []
  },
  {
    "postal": "L2V1L4",
    "result": [
      {
        "electoralDistricts": [
          {
            "election": null,
            "id": 68,
            "name": "Niagara Centre"
          }
        ],
        "pollDivisionIds": [
          10139915
        ],
        "postalCode": "L2V1L4",
        "streetName": "MCCORMACK",
        "streetDirectionId": null,
        "streetTypeId": "DR",
        "placeName": "THOROLD",
        "streetNameDisplayText": "MCCORMACK DR, THOROLD"
      }
    ]
  },
  {
    "postal": "L2V0C8",
    "result": [
      {
        "electoralDistricts": [
          {
            "election": null,
            "id": 68,
            "name": "Niagara Centre"
          }
        ],
        "pollDivisionIds": [
          10139915
        ],
        "postalCode": "L2V0C8",
        "streetName": "SUCCESS",
        "streetDirectionId": null,
        "streetTypeId": "WAY",
        "placeName": "THOROLD",
        "streetNameDisplayText": "SUCCESS WAY, THOROLD"
      },
      {
        "electoralDistricts": [
          {
            "election": null,
            "id": 68,
            "name": "Niagara Centre"
          }
        ],
        "pollDivisionIds": [
          10139915
        ],
        "postalCode": "L2V0C8",
        "streetName": "SUNSET",
        "streetDirectionId": null,
        "streetTypeId": "WAY",
        "placeName": "THOROLD",
        "streetNameDisplayText": "SUNSET WAY, THOROLD"
      }
    ]
  },
  {
    "postal": "L2V9X7",
    "result": []
  },
  {
    "postal": "L2V4T1",
    "result": [
      {
        "electoralDistricts": [
          {
            "election": null,
            "id": 68,
            "name": "Niagara Centre"
          }
        ],
        "pollDivisionIds": [
          10139912
        ],
        "postalCode": "L2V4T1",
        "streetName": "ABBEY",
        "streetDirectionId": null,
        "streetTypeId": "DR",
        "placeName": "THOROLD",
        "streetNameDisplayText": "ABBEY DR, THOROLD"
      }
    ]
  },
  {
    "postal": "L2V0M0",
    "result": []
  },
  {
    "postal": "L2V6A2",
    "result": []
  },
  {
    "postal": "L2V9S8",
    "result": []
  },
  {
    "postal": "L2V9T4",
    "result": []
  },
  {
    "postal": "L2V9Y4",
    "result": []
  },
  {
    "postal": "L2V6G5",
    "result": []
  },
  {
    "postal": "L2V6H9",
    "result": []
  },
  {
    "postal": "L2V2P3",
    "result": [
      {
        "electoralDistricts": [
          {
            "election": null,
            "id": 68,
            "name": "Niagara Centre"
          }
        ],
        "pollDivisionIds": [
          10139909
        ],
        "postalCode": "L2V2P3",
        "streetName": "PINE",
        "streetDirectionId": "N",
        "streetTypeId": "ST",
        "placeName": "THOROLD",
        "streetNameDisplayText": "PINE ST N, THOROLD"
      }
    ]
  },
  {
    "postal": "L2V1T6",
    "result": [
      {
        "electoralDistricts": [
          {
            "election": null,
            "id": 68,
            "name": "Niagara Centre"
          }
        ],
        "pollDivisionIds": [
          10139909
        ],
        "postalCode": "L2V1T6",
        "streetName": "REGENT",
        "streetDirectionId": null,
        "streetTypeId": "ST",
        "placeName": "THOROLD",
        "streetNameDisplayText": "REGENT ST, THOROLD"
      }
    ]
  },
  {
    "postal": "L2V4P6",
    "result": [
      {
        "electoralDistricts": [
          {
            "election": null,
            "id": 68,
            "name": "Niagara Centre"
          }
        ],
        "pollDivisionIds": [
          10139914
        ],
        "postalCode": "L2V4P6",
        "streetName": "COMMERFORD",
        "streetDirectionId": null,
        "streetTypeId": "ST",
        "placeName": "THOROLD",
        "streetNameDisplayText": "COMMERFORD ST, THOROLD"
      }
    ]
  },
  {
    "postal": "L2V3K1",
    "result": [
      {
        "electoralDistricts": [
          {
            "election": null,
            "id": 68,
            "name": "Niagara Centre"
          }
        ],
        "pollDivisionIds": [
          10139913
        ],
        "postalCode": "L2V3K1",
        "streetName": "CLEVELAND",
        "streetDirectionId": null,
        "streetTypeId": "ST",
        "placeName": "THOROLD",
        "streetNameDisplayText": "CLEVELAND ST, THOROLD"
      }
    ]
  },
  {
    "postal": "L2V6X4",
    "result": []
  },
  {
    "postal": "L2V4M8",
    "result": [
      {
        "electoralDistricts": [
          {
            "election": null,
            "id": 68,
            "name": "Niagara Centre"
          }
        ],
        "pollDivisionIds": [
          10139914
        ],
        "postalCode": "L2V4M8",
        "streetName": "KEEFER",
        "streetDirectionId": null,
        "streetTypeId": "RD",
        "placeName": "THOROLD",
        "streetNameDisplayText": "KEEFER RD, THOROLD"
      }
    ]
  },
  {
    "postal": "L2V2Y1",
    "result": []
  },
  {
    "postal": "L2V6M1",
    "result": []
  },
  {
    "postal": "L2V5L8",
    "result": []
  },
  {
    "postal": "L2V3P6",
    "result": [
      {
        "electoralDistricts": [
          {
            "election": null,
            "id": 68,
            "name": "Niagara Centre"
          }
        ],
        "pollDivisionIds": [
          10139909
        ],
        "postalCode": "L2V3P6",
        "streetName": "COLBORNE",
        "streetDirectionId": null,
        "streetTypeId": "ST",
        "placeName": "THOROLD",
        "streetNameDisplayText": "COLBORNE ST, THOROLD"
      }
    ]
  },
  {
    "postal": "L2V9A5",
    "result": []
  },
  {
    "postal": "L2V7K1",
    "result": []
  },
  {
    "postal": "L2V3J4",
    "result": [
      {
        "electoralDistricts": [
          {
            "election": null,
            "id": 68,
            "name": "Niagara Centre"
          }
        ],
        "pollDivisionIds": [
          10139913
        ],
        "postalCode": "L2V3J4",
        "streetName": "HAGAR",
        "streetDirectionId": null,
        "streetTypeId": "ST",
        "placeName": "THOROLD",
        "streetNameDisplayText": "HAGAR ST, THOROLD"
      }
    ]
  },
  {
    "postal": "L2V5E7",
    "result": [
      {
        "electoralDistricts": [
          {
            "election": null,
            "id": 68,
            "name": "Niagara Centre"
          }
        ],
        "pollDivisionIds": [
          10139909
        ],
        "postalCode": "L2V5E7",
        "streetName": "WELLINGTON",
        "streetDirectionId": "N",
        "streetTypeId": "ST",
        "placeName": "THOROLD",
        "streetNameDisplayText": "WELLINGTON ST N, THOROLD"
      }
    ]
  },
  {
    "postal": "L2V3A7",
    "result": [
      {
        "electoralDistricts": [
          {
            "election": null,
            "id": 68,
            "name": "Niagara Centre"
          }
        ],
        "pollDivisionIds": [
          10139909
        ],
        "postalCode": "L2V3A7",
        "streetName": "MAITLAND",
        "streetDirectionId": null,
        "streetTypeId": "ST",
        "placeName": "THOROLD",
        "streetNameDisplayText": "MAITLAND ST, THOROLD"
      }
    ]
  },
  {
    "postal": "L2V1B9",
    "result": [
      {
        "electoralDistricts": [
          {
            "election": null,
            "id": 68,
            "name": "Niagara Centre"
          }
        ],
        "pollDivisionIds": [
          10139915
        ],
        "postalCode": "L2V1B9",
        "streetName": "BEAVER",
        "streetDirectionId": null,
        "streetTypeId": "ST",
        "placeName": "THOROLD",
        "streetNameDisplayText": "BEAVER ST, THOROLD"
      }
    ]
  },
  {
    "postal": "L2V9E8",
    "result": []
  },
  {
    "postal": "L2V1C9",
    "result": [
      {
        "electoralDistricts": [
          {
            "election": null,
            "id": 68,
            "name": "Niagara Centre"
          }
        ],
        "pollDivisionIds": [
          10139915
        ],
        "postalCode": "L2V1C9",
        "streetName": "MORTON",
        "streetDirectionId": null,
        "streetTypeId": "ST",
        "placeName": "THOROLD",
        "streetNameDisplayText": "MORTON ST, THOROLD"
      }
    ]
  },
  {
    "postal": "L2V3B5",
    "result": [
      {
        "electoralDistricts": [
          {
            "election": null,
            "id": 68,
            "name": "Niagara Centre"
          }
        ],
        "pollDivisionIds": [
          10139909
        ],
        "postalCode": "L2V3B5",
        "streetName": "ELGIN",
        "streetDirectionId": null,
        "streetTypeId": "ST",
        "placeName": "THOROLD",
        "streetNameDisplayText": "ELGIN ST, THOROLD"
      }
    ]
  },
  {
    "postal": "L2V8R0",
    "result": []
  },
  {
    "postal": "L2V3P2",
    "result": [
      {
        "electoralDistricts": [
          {
            "election": null,
            "id": 68,
            "name": "Niagara Centre"
          }
        ],
        "pollDivisionIds": [
          10139912
        ],
        "postalCode": "L2V3P2",
        "streetName": "QUEEN",
        "streetDirectionId": "S",
        "streetTypeId": "ST",
        "placeName": "THOROLD",
        "streetNameDisplayText": "QUEEN ST S, THOROLD"
      }
    ]
  },
  {
    "postal": "L2V5V4",
    "result": []
  },
  {
    "postal": "L2V4H0",
    "result": []
  },
  {
    "postal": "L2V4S7",
    "result": [
      {
        "electoralDistricts": [
          {
            "election": null,
            "id": 68,
            "name": "Niagara Centre"
          }
        ],
        "pollDivisionIds": [
          10139914
        ],
        "postalCode": "L2V4S7",
        "streetName": "NAPLES",
        "streetDirectionId": null,
        "streetTypeId": "CRT",
        "placeName": "THOROLD",
        "streetNameDisplayText": "NAPLES CRT, THOROLD"
      }
    ]
  },
  {
    "postal": "L2V6C2",
    "result": []
  },
  {
    "postal": "L2V8W3",
    "result": []
  },
  {
    "postal": "L2V4M5",
    "result": [
      {
        "electoralDistricts": [
          {
            "election": null,
            "id": 68,
            "name": "Niagara Centre"
          }
        ],
        "pollDivisionIds": [
          10139914
        ],
        "postalCode": "L2V4M5",
        "streetName": "BUCHANAN",
        "streetDirectionId": null,
        "streetTypeId": "CRES",
        "placeName": "THOROLD",
        "streetNameDisplayText": "BUCHANAN CRES, THOROLD"
      }
    ]
  },
  {
    "postal": "L2V5T1",
    "result": []
  },
  {
    "postal": "L2V3B3",
    "result": [
      {
        "electoralDistricts": [
          {
            "election": null,
            "id": 68,
            "name": "Niagara Centre"
          }
        ],
        "pollDivisionIds": [
          10139913
        ],
        "postalCode": "L2V3B3",
        "streetName": "ELGIN",
        "streetDirectionId": null,
        "streetTypeId": "ST",
        "placeName": "THOROLD",
        "streetNameDisplayText": "ELGIN ST, THOROLD"
      }
    ]
  },
  {
    "postal": "L2V6C6",
    "result": []
  },
  {
    "postal": "L2V7N8",
    "result": []
  },
  {
    "postal": "L2V2Y3",
    "result": [
      {
        "electoralDistricts": [
          {
            "election": null,
            "id": 68,
            "name": "Niagara Centre"
          }
        ],
        "pollDivisionIds": [
          10139909
        ],
        "postalCode": "L2V2Y3",
        "streetName": "SULLIVAN",
        "streetDirectionId": null,
        "streetTypeId": "AVE",
        "placeName": "THOROLD",
        "streetNameDisplayText": "SULLIVAN AVE, THOROLD"
      }
    ]
  },
  {
    "postal": "L2V2R6",
    "result": [
      {
        "electoralDistricts": [
          {
            "election": null,
            "id": 68,
            "name": "Niagara Centre"
          }
        ],
        "pollDivisionIds": [
          10139909
        ],
        "postalCode": "L2V2R6",
        "streetName": "WEST",
        "streetDirectionId": "S",
        "streetTypeId": "ST",
        "placeName": "THOROLD",
        "streetNameDisplayText": "WEST ST S, THOROLD"
      }
    ]
  },
  {
    "postal": "L2V7N3",
    "result": []
  },
  {
    "postal": "L2V8J2",
    "result": []
  },
  {
    "postal": "L2V6A9",
    "result": []
  },
  {
    "postal": "L2V3V2",
    "result": [
      {
        "electoralDistricts": [
          {
            "election": null,
            "id": 68,
            "name": "Niagara Centre"
          }
        ],
        "pollDivisionIds": [
          10139912
        ],
        "postalCode": "L2V3V2",
        "streetName": "KAYWILL",
        "streetDirectionId": null,
        "streetTypeId": "DR",
        "placeName": "THOROLD",
        "streetNameDisplayText": "KAYWILL DR, THOROLD"
      }
    ]
  },
  {
    "postal": "L2V2N3",
    "result": [
      {
        "electoralDistricts": [
          {
            "election": null,
            "id": 68,
            "name": "Niagara Centre"
          }
        ],
        "pollDivisionIds": [
          10139912
        ],
        "postalCode": "L2V2N3",
        "streetName": "THOMPSON",
        "streetDirectionId": null,
        "streetTypeId": "AVE",
        "placeName": "THOROLD",
        "streetNameDisplayText": "THOMPSON AVE, THOROLD"
      }
    ]
  },
  {
    "postal": "L2V1S5",
    "result": [
      {
        "electoralDistricts": [
          {
            "election": null,
            "id": 68,
            "name": "Niagara Centre"
          }
        ],
        "pollDivisionIds": [
          10139913
        ],
        "postalCode": "L2V1S5",
        "streetName": "LYNDON",
        "streetDirectionId": "E",
        "streetTypeId": "ST",
        "placeName": "THOROLD",
        "streetNameDisplayText": "LYNDON ST E, THOROLD"
      }
    ]
  },
  {
    "postal": "L2V4T7",
    "result": [
      {
        "electoralDistricts": [
          {
            "election": null,
            "id": 68,
            "name": "Niagara Centre"
          }
        ],
        "pollDivisionIds": [
          10139911
        ],
        "postalCode": "L2V4T7",
        "streetName": "SIR ISAAC BROCK",
        "streetDirectionId": null,
        "streetTypeId": "WAY",
        "placeName": "ST CATHARINES",
        "streetNameDisplayText": "SIR ISAAC BROCK WAY, ST CATHARINES"
      }
    ]
  },
  {
    "postal": "L2V6Y7",
    "result": []
  },
  {
    "postal": "L2V0W7",
    "result": []
  },
  {
    "postal": "L2V2W9",
    "result": [
      {
        "electoralDistricts": [
          {
            "election": null,
            "id": 68,
            "name": "Niagara Centre"
          }
        ],
        "pollDivisionIds": [
          10139912
        ],
        "postalCode": "L2V2W9",
        "streetName": "COLLIER",
        "streetDirectionId": "N",
        "streetTypeId": "RD",
        "placeName": "THOROLD",
        "streetNameDisplayText": "COLLIER RD N, THOROLD"
      }
    ]
  },
  {
    "postal": "L2V8V0",
    "result": []
  },
  {
    "postal": "L2V0H4",
    "result": []
  },
  {
    "postal": "L2V2T1",
    "result": [
      {
        "electoralDistricts": [
          {
            "election": null,
            "id": 68,
            "name": "Niagara Centre"
          }
        ],
        "pollDivisionIds": [
          10139909
        ],
        "postalCode": "L2V2T1",
        "streetName": "WHYTE",
        "streetDirectionId": "S",
        "streetTypeId": "AVE",
        "placeName": "THOROLD",
        "streetNameDisplayText": "WHYTE AVE S, THOROLD"
      }
    ]
  },
  {
    "postal": "L2V1B1",
    "result": [
      {
        "electoralDistricts": [
          {
            "election": null,
            "id": 68,
            "name": "Niagara Centre"
          }
        ],
        "pollDivisionIds": [
          10139915
        ],
        "postalCode": "L2V1B1",
        "streetName": "ALLANBURG",
        "streetDirectionId": null,
        "streetTypeId": "RD",
        "placeName": "THOROLD",
        "streetNameDisplayText": "ALLANBURG RD, THOROLD"
      }
    ]
  },
  {
    "postal": "L2V8B6",
    "result": []
  },
  {
    "postal": "L2V6H1",
    "result": []
  },
  {
    "postal": "L2V8T8",
    "result": []
  },
  {
    "postal": "L2V0T4",
    "result": []
  },
  {
    "postal": "L2V2C4",
    "result": [
      {
        "electoralDistricts": [
          {
            "election": null,
            "id": 68,
            "name": "Niagara Centre"
          }
        ],
        "pollDivisionIds": [
          10139909
        ],
        "postalCode": "L2V2C4",
        "streetName": "CHAPEL",
        "streetDirectionId": "S",
        "streetTypeId": "ST",
        "placeName": "THOROLD",
        "streetNameDisplayText": "CHAPEL ST S, THOROLD"
      }
    ]
  },
  {
    "postal": "L2V8N3",
    "result": []
  },
  {
    "postal": "L2V4L8",
    "result": [
      {
        "electoralDistricts": [
          {
            "election": null,
            "id": 68,
            "name": "Niagara Centre"
          }
        ],
        "pollDivisionIds": [
          10139914
        ],
        "postalCode": "L2V4L8",
        "streetName": "RICHMOND",
        "streetDirectionId": null,
        "streetTypeId": "ST",
        "placeName": "THOROLD",
        "streetNameDisplayText": "RICHMOND ST, THOROLD"
      }
    ]
  },
  {
    "postal": "L2V2B5",
    "result": [
      {
        "electoralDistricts": [
          {
            "election": null,
            "id": 68,
            "name": "Niagara Centre"
          }
        ],
        "pollDivisionIds": [
          10139913
        ],
        "postalCode": "L2V2B5",
        "streetName": "WELLAND",
        "streetDirectionId": "S",
        "streetTypeId": "ST",
        "placeName": "THOROLD",
        "streetNameDisplayText": "WELLAND ST S, THOROLD"
      }
    ]
  },
  {
    "postal": "L2V3H1",
    "result": [
      {
        "electoralDistricts": [
          {
            "election": null,
            "id": 68,
            "name": "Niagara Centre"
          }
        ],
        "pollDivisionIds": [
          10139912
        ],
        "postalCode": "L2V3H1",
        "streetName": "RICHMOND",
        "streetDirectionId": null,
        "streetTypeId": "ST",
        "placeName": "THOROLD",
        "streetNameDisplayText": "RICHMOND ST, THOROLD"
      }
    ]
  },
  {
    "postal": "L2V4Y1",
    "result": [
      {
        "electoralDistricts": [
          {
            "election": null,
            "id": 68,
            "name": "Niagara Centre"
          }
        ],
        "pollDivisionIds": [
          10139914
        ],
        "postalCode": "L2V4Y1",
        "streetName": "FORTURA",
        "streetDirectionId": null,
        "streetTypeId": "CRES",
        "placeName": "THOROLD",
        "streetNameDisplayText": "FORTURA CRES, THOROLD"
      }
    ]
  },
  {
    "postal": "L2V7E2",
    "result": []
  },
  {
    "postal": "L2V2P5",
    "result": [
      {
        "electoralDistricts": [
          {
            "election": null,
            "id": 68,
            "name": "Niagara Centre"
          }
        ],
        "pollDivisionIds": [
          10139909
        ],
        "postalCode": "L2V2P5",
        "streetName": "TOWPATH",
        "streetDirectionId": null,
        "streetTypeId": "ST",
        "placeName": "THOROLD",
        "streetNameDisplayText": "TOWPATH ST, THOROLD"
      }
    ]
  },
  {
    "postal": "L2V8R7",
    "result": []
  },
  {
    "postal": "L2V9P1",
    "result": []
  },
  {
    "postal": "L2V3B8",
    "result": [
      {
        "electoralDistricts": [
          {
            "election": null,
            "id": 68,
            "name": "Niagara Centre"
          }
        ],
        "pollDivisionIds": [
          10139912
        ],
        "postalCode": "L2V3B8",
        "streetName": "ELGIN",
        "streetDirectionId": null,
        "streetTypeId": "ST",
        "placeName": "THOROLD",
        "streetNameDisplayText": "ELGIN ST, THOROLD"
      }
    ]
  },
  {
    "postal": "L2V3P7",
    "result": [
      {
        "electoralDistricts": [
          {
            "election": null,
            "id": 68,
            "name": "Niagara Centre"
          }
        ],
        "pollDivisionIds": [
          10139909
        ],
        "postalCode": "L2V3P7",
        "streetName": "COLBORNE",
        "streetDirectionId": null,
        "streetTypeId": "ST",
        "placeName": "THOROLD",
        "streetNameDisplayText": "COLBORNE ST, THOROLD"
      }
    ]
  },
  {
    "postal": "L2V9B2",
    "result": []
  },
  {
    "postal": "L2V6Z3",
    "result": []
  },
  {
    "postal": "L2V4N5",
    "result": [
      {
        "electoralDistricts": [
          {
            "election": null,
            "id": 68,
            "name": "Niagara Centre"
          }
        ],
        "pollDivisionIds": [
          10139914
        ],
        "postalCode": "L2V4N5",
        "streetName": "KEEFER",
        "streetDirectionId": null,
        "streetTypeId": "RD",
        "placeName": "THOROLD",
        "streetNameDisplayText": "KEEFER RD, THOROLD"
      }
    ]
  },
  {
    "postal": "L2V8T3",
    "result": []
  },
  {
    "postal": "L2V1V2",
    "result": [
      {
        "electoralDistricts": [
          {
            "election": null,
            "id": 68,
            "name": "Niagara Centre"
          }
        ],
        "pollDivisionIds": [
          10139909
        ],
        "postalCode": "L2V1V2",
        "streetName": "ST. DAVID",
        "streetDirectionId": "E",
        "streetTypeId": "ST",
        "placeName": "THOROLD",
        "streetNameDisplayText": "ST. DAVID ST E, THOROLD"
      }
    ]
  },
  {
    "postal": "L2V1Y0",
    "result": []
  },
  {
    "postal": "L2V3G6",
    "result": []
  },
  {
    "postal": "L2V3H7",
    "result": [
      {
        "electoralDistricts": [
          {
            "election": null,
            "id": 68,
            "name": "Niagara Centre"
          }
        ],
        "pollDivisionIds": [
          10139912
        ],
        "postalCode": "L2V3H7",
        "streetName": "BOLTON",
        "streetDirectionId": null,
        "streetTypeId": "AVE",
        "placeName": "THOROLD",
        "streetNameDisplayText": "BOLTON AVE, THOROLD"
      }
    ]
  },
  {
    "postal": "L2V7X8",
    "result": []
  },
  {
    "postal": "L2V0C7",
    "result": [
      {
        "electoralDistricts": [
          {
            "election": null,
            "id": 68,
            "name": "Niagara Centre"
          }
        ],
        "pollDivisionIds": [
          10139915
        ],
        "postalCode": "L2V0C7",
        "streetName": "SUNSET",
        "streetDirectionId": null,
        "streetTypeId": "WAY",
        "placeName": "THOROLD",
        "streetNameDisplayText": "SUNSET WAY, THOROLD"
      }
    ]
  },
  {
    "postal": "L2V0W9",
    "result": []
  },
  {
    "postal": "L2V8E6",
    "result": []
  },
  {
    "postal": "L2V9Z8",
    "result": []
  },
  {
    "postal": "L2V3P4",
    "result": [
      {
        "electoralDistricts": [
          {
            "election": null,
            "id": 68,
            "name": "Niagara Centre"
          }
        ],
        "pollDivisionIds": [
          10139913
        ],
        "postalCode": "L2V3P4",
        "streetName": "QUEEN",
        "streetDirectionId": "S",
        "streetTypeId": "ST",
        "placeName": "THOROLD",
        "streetNameDisplayText": "QUEEN ST S, THOROLD"
      }
    ]
  },
  {
    "postal": "L2V6L8",
    "result": []
  },
  {
    "postal": "L2V2R4",
    "result": [
      {
        "electoralDistricts": [
          {
            "election": null,
            "id": 68,
            "name": "Niagara Centre"
          }
        ],
        "pollDivisionIds": [
          10139909
        ],
        "postalCode": "L2V2R4",
        "streetName": "QUEEN",
        "streetDirectionId": "N",
        "streetTypeId": "ST",
        "placeName": "THOROLD",
        "streetNameDisplayText": "QUEEN ST N, THOROLD"
      }
    ]
  },
  {
    "postal": "L2V2W1",
    "result": [
      {
        "electoralDistricts": [
          {
            "election": null,
            "id": 68,
            "name": "Niagara Centre"
          }
        ],
        "pollDivisionIds": [
          10139912
        ],
        "postalCode": "L2V2W1",
        "streetName": "WESTMOUNT",
        "streetDirectionId": null,
        "streetTypeId": "AVE",
        "placeName": "THOROLD",
        "streetNameDisplayText": "WESTMOUNT AVE, THOROLD"
      }
    ]
  },
  {
    "postal": "L2V9H8",
    "result": []
  },
  {
    "postal": "L2V8X9",
    "result": []
  },
  {
    "postal": "L2V7H4",
    "result": []
  },
  {
    "postal": "L2V3J1",
    "result": [
      {
        "electoralDistricts": [
          {
            "election": null,
            "id": 68,
            "name": "Niagara Centre"
          }
        ],
        "pollDivisionIds": [
          10139913
        ],
        "postalCode": "L2V3J1",
        "streetName": "GARDEN",
        "streetDirectionId": null,
        "streetTypeId": "ST",
        "placeName": "THOROLD",
        "streetNameDisplayText": "GARDEN ST, THOROLD"
      }
    ]
  },
  {
    "postal": "L2V1P4",
    "result": [
      {
        "electoralDistricts": [
          {
            "election": null,
            "id": 68,
            "name": "Niagara Centre"
          }
        ],
        "pollDivisionIds": [
          10139909
        ],
        "postalCode": "L2V1P4",
        "streetName": "ALBERT",
        "streetDirectionId": "E",
        "streetTypeId": "ST",
        "placeName": "THOROLD",
        "streetNameDisplayText": "ALBERT ST E, THOROLD"
      }
    ]
  },
  {
    "postal": "L2V2A3",
    "result": [
      {
        "electoralDistricts": [
          {
            "election": null,
            "id": 68,
            "name": "Niagara Centre"
          }
        ],
        "pollDivisionIds": [
          10139909
        ],
        "postalCode": "L2V2A3",
        "streetName": "CARLETON",
        "streetDirectionId": "N",
        "streetTypeId": "ST",
        "placeName": "THOROLD",
        "streetNameDisplayText": "CARLETON ST N, THOROLD"
      }
    ]
  },
  {
    "postal": "L2V0Z1",
    "result": []
  },
  {
    "postal": "L2V1C1",
    "result": [
      {
        "electoralDistricts": [
          {
            "election": null,
            "id": 68,
            "name": "Niagara Centre"
          }
        ],
        "pollDivisionIds": [
          10139915
        ],
        "postalCode": "L2V1C1",
        "streetName": "BEAVER",
        "streetDirectionId": null,
        "streetTypeId": "ST",
        "placeName": "THOROLD",
        "streetNameDisplayText": "BEAVER ST, THOROLD"
      }
    ]
  },
  {
    "postal": "L2V0H3",
    "result": [
      {
        "electoralDistricts": [
          {
            "election": null,
            "id": 68,
            "name": "Niagara Centre"
          }
        ],
        "pollDivisionIds": [
          10139915
        ],
        "postalCode": "L2V0H3",
        "streetName": "CHRISTALLINA",
        "streetDirectionId": null,
        "streetTypeId": "DR",
        "placeName": "THOROLD",
        "streetNameDisplayText": "CHRISTALLINA DR, THOROLD"
      }
    ]
  },
  {
    "postal": "L2V7B0",
    "result": []
  },
  {
    "postal": "L2V5K2",
    "result": []
  },
  {
    "postal": "L2V1E9",
    "result": [
      {
        "electoralDistricts": [
          {
            "election": null,
            "id": 68,
            "name": "Niagara Centre"
          }
        ],
        "pollDivisionIds": [
          10139915
        ],
        "postalCode": "L2V1E9",
        "streetName": "DAVIS",
        "streetDirectionId": null,
        "streetTypeId": "ST",
        "placeName": "THOROLD",
        "streetNameDisplayText": "DAVIS ST, THOROLD"
      }
    ]
  },
  {
    "postal": "L2V9W7",
    "result": []
  },
  {
    "postal": "L2V5W6",
    "result": []
  },
  {
    "postal": "L2V6S6",
    "result": []
  },
  {
    "postal": "L2V2P8",
    "result": [
      {
        "electoralDistricts": [
          {
            "election": null,
            "id": 68,
            "name": "Niagara Centre"
          }
        ],
        "pollDivisionIds": [
          10139909
        ],
        "postalCode": "L2V2P8",
        "streetName": "QUEEN",
        "streetDirectionId": "N",
        "streetTypeId": "ST",
        "placeName": "THOROLD",
        "streetNameDisplayText": "QUEEN ST N, THOROLD"
      }
    ]
  },
  {
    "postal": "L2V4P8",
    "result": [
      {
        "electoralDistricts": [
          {
            "election": null,
            "id": 68,
            "name": "Niagara Centre"
          }
        ],
        "pollDivisionIds": [
          10139914
        ],
        "postalCode": "L2V4P8",
        "streetName": "COMMERFORD",
        "streetDirectionId": null,
        "streetTypeId": "ST",
        "placeName": "THOROLD",
        "streetNameDisplayText": "COMMERFORD ST, THOROLD"
      }
    ]
  },
  {
    "postal": "L2V0V9",
    "result": []
  },
  {
    "postal": "L2V5Y2",
    "result": []
  },
  {
    "postal": "L2V7Z7",
    "result": []
  },
  {
    "postal": "L2V6Y8",
    "result": []
  },
  {
    "postal": "L2V2G7",
    "result": [
      {
        "electoralDistricts": [
          {
            "election": null,
            "id": 68,
            "name": "Niagara Centre"
          }
        ],
        "pollDivisionIds": [
          10139909
        ],
        "postalCode": "L2V2G7",
        "streetName": "ALBERT",
        "streetDirectionId": "W",
        "streetTypeId": "ST",
        "placeName": "THOROLD",
        "streetNameDisplayText": "ALBERT ST W, THOROLD"
      }
    ]
  },
  {
    "postal": "L2V8C1",
    "result": []
  },
  {
    "postal": "L2V5C5",
    "result": [
      {
        "electoralDistricts": [
          {
            "election": null,
            "id": 68,
            "name": "Niagara Centre"
          }
        ],
        "pollDivisionIds": [
          10139913
        ],
        "postalCode": "L2V5C5",
        "streetName": "SHRINER",
        "streetDirectionId": null,
        "streetTypeId": "ST",
        "placeName": "THOROLD",
        "streetNameDisplayText": "SHRINER ST, THOROLD"
      }
    ]
  },
  {
    "postal": "L2V2X8",
    "result": [
      {
        "electoralDistricts": [
          {
            "election": null,
            "id": 68,
            "name": "Niagara Centre"
          }
        ],
        "pollDivisionIds": [
          10139914
        ],
        "postalCode": "L2V2X8",
        "streetName": "PAMELA",
        "streetDirectionId": null,
        "streetTypeId": "DR",
        "placeName": "THOROLD",
        "streetNameDisplayText": "PAMELA DR, THOROLD"
      }
    ]
  },
  {
    "postal": "L2V1W5",
    "result": [
      {
        "electoralDistricts": [
          {
            "election": null,
            "id": 68,
            "name": "Niagara Centre"
          }
        ],
        "pollDivisionIds": [
          10139909
        ],
        "postalCode": "L2V1W5",
        "streetName": "GREENHILL",
        "streetDirectionId": null,
        "streetTypeId": "DR",
        "placeName": "THOROLD",
        "streetNameDisplayText": "GREENHILL DR, THOROLD"
      }
    ]
  },
  {
    "postal": "L2V7G0",
    "result": []
  },
  {
    "postal": "L2V8J8",
    "result": []
  },
  {
    "postal": "L2V3Y0",
    "result": []
  },
  {
    "postal": "L2V9T7",
    "result": []
  },
  {
    "postal": "L2V5P4",
    "result": []
  },
  {
    "postal": "L2V4B0",
    "result": []
  },
  {
    "postal": "L2V9N8",
    "result": []
  },
  {
    "postal": "L2V4A7",
    "result": []
  },
  {
    "postal": "L2V4H9",
    "result": [
      {
        "electoralDistricts": [
          {
            "election": null,
            "id": 68,
            "name": "Niagara Centre"
          }
        ],
        "pollDivisionIds": [
          10139911
        ],
        "postalCode": "L2V4H9",
        "streetName": "CARTIER",
        "streetDirectionId": null,
        "streetTypeId": "DR",
        "placeName": "THOROLD",
        "streetNameDisplayText": "CARTIER DR, THOROLD"
      }
    ]
  },
  {
    "postal": "L2V6X1",
    "result": []
  },
  {
    "postal": "L2V9Y7",
    "result": []
  },
  {
    "postal": "L2V2Y5",
    "result": [
      {
        "electoralDistricts": [
          {
            "election": null,
            "id": 68,
            "name": "Niagara Centre"
          }
        ],
        "pollDivisionIds": [
          10139909
        ],
        "postalCode": "L2V2Y5",
        "streetName": "SULLIVAN",
        "streetDirectionId": null,
        "streetTypeId": "AVE",
        "placeName": "THOROLD",
        "streetNameDisplayText": "SULLIVAN AVE, THOROLD"
      }
    ]
  },
  {
    "postal": "L2V8L7",
    "result": []
  },
  {
    "postal": "L2V2A8",
    "result": [
      {
        "electoralDistricts": [
          {
            "election": null,
            "id": 68,
            "name": "Niagara Centre"
          }
        ],
        "pollDivisionIds": [
          10139909
        ],
        "postalCode": "L2V2A8",
        "streetName": "CARLETON",
        "streetDirectionId": "N",
        "streetTypeId": "ST",
        "placeName": "THOROLD",
        "streetNameDisplayText": "CARLETON ST N, THOROLD"
      }
    ]
  },
  {
    "postal": "L2V2K9",
    "result": [
      {
        "electoralDistricts": [
          {
            "election": null,
            "id": 68,
            "name": "Niagara Centre"
          }
        ],
        "pollDivisionIds": [
          10139909
        ],
        "postalCode": "L2V2K9",
        "streetName": "ST. DAVID",
        "streetDirectionId": "E",
        "streetTypeId": "ST",
        "placeName": "THOROLD",
        "streetNameDisplayText": "ST. DAVID ST E, THOROLD"
      },
      {
        "electoralDistricts": [
          {
            "election": null,
            "id": 68,
            "name": "Niagara Centre"
          }
        ],
        "pollDivisionIds": [
          10139909
        ],
        "postalCode": "L2V2K9",
        "streetName": "ST. DAVID",
        "streetDirectionId": "W",
        "streetTypeId": "ST",
        "placeName": "THOROLD",
        "streetNameDisplayText": "ST. DAVID ST W, THOROLD"
      }
    ]
  },
  {
    "postal": "L2V3E5",
    "result": [
      {
        "electoralDistricts": [
          {
            "election": null,
            "id": 68,
            "name": "Niagara Centre"
          }
        ],
        "pollDivisionIds": [
          10139912
        ],
        "postalCode": "L2V3E5",
        "streetName": "MCDONALD",
        "streetDirectionId": null,
        "streetTypeId": "AVE",
        "placeName": "THOROLD",
        "streetNameDisplayText": "MCDONALD AVE, THOROLD"
      }
    ]
  },
  {
    "postal": "L2V8N6",
    "result": []
  },
  {
    "postal": "L2V8J4",
    "result": []
  },
  {
    "postal": "L2V4R7",
    "result": [
      {
        "electoralDistricts": [
          {
            "election": null,
            "id": 68,
            "name": "Niagara Centre"
          }
        ],
        "pollDivisionIds": [
          10139912
        ],
        "postalCode": "L2V4R7",
        "streetName": "DOBBIE",
        "streetDirectionId": null,
        "streetTypeId": "RD",
        "placeName": "THOROLD",
        "streetNameDisplayText": "DOBBIE RD, THOROLD"
      }
    ]
  },
  {
    "postal": "L2V9K1",
    "result": []
  },
  {
    "postal": "L2V8E1",
    "result": []
  },
  {
    "postal": "L2V0R1",
    "result": []
  },
  {
    "postal": "L2V4J3",
    "result": []
  },
  {
    "postal": "L2V7E7",
    "result": []
  },
  {
    "postal": "L2V0J0",
    "result": []
  },
  {
    "postal": "L2V7R8",
    "result": []
  },
  {
    "postal": "L2V9X0",
    "result": []
  },
  {
    "postal": "L2V7P6",
    "result": []
  },
  {
    "postal": "L2V0R7",
    "result": []
  },
  {
    "postal": "L2V5W1",
    "result": []
  },
  {
    "postal": "L2V0K4",
    "result": []
  },
  {
    "postal": "L2V7N9",
    "result": []
  },
  {
    "postal": "L2V1N0",
    "result": []
  },
  {
    "postal": "L2V6P3",
    "result": []
  },
  {
    "postal": "L2V5A1",
    "result": [
      {
        "electoralDistricts": [
          {
            "election": null,
            "id": 68,
            "name": "Niagara Centre"
          }
        ],
        "pollDivisionIds": [
          10139912
        ],
        "postalCode": "L2V5A1",
        "streetName": "REMIGIO",
        "streetDirectionId": null,
        "streetTypeId": "CRT",
        "placeName": "THOROLD",
        "streetNameDisplayText": "REMIGIO CRT, THOROLD"
      },
      {
        "electoralDistricts": [
          {
            "election": null,
            "id": 68,
            "name": "Niagara Centre"
          }
        ],
        "pollDivisionIds": [
          10139912,
          10139914
        ],
        "postalCode": "L2V5A1",
        "streetName": "SUMMERS",
        "streetDirectionId": null,
        "streetTypeId": "DR",
        "placeName": "THOROLD",
        "streetNameDisplayText": "SUMMERS DR, THOROLD"
      }
    ]
  },
  {
    "postal": "L2V9M9",
    "result": []
  },
  {
    "postal": "L2V7T6",
    "result": []
  },
  {
    "postal": "L2V3X0",
    "result": []
  },
  {
    "postal": "L2V2T0",
    "result": []
  },
  {
    "postal": "L2V5X9",
    "result": []
  },
  {
    "postal": "L2V2R3",
    "result": [
      {
        "electoralDistricts": [
          {
            "election": null,
            "id": 68,
            "name": "Niagara Centre"
          }
        ],
        "pollDivisionIds": [
          10139909
        ],
        "postalCode": "L2V2R3",
        "streetName": "QUEEN",
        "streetDirectionId": "N",
        "streetTypeId": "ST",
        "placeName": "THOROLD",
        "streetNameDisplayText": "QUEEN ST N, THOROLD"
      }
    ]
  },
  {
    "postal": "L2V5N2",
    "result": []
  },
  {
    "postal": "L2V4Y7",
    "result": [
      {
        "electoralDistricts": [
          {
            "election": null,
            "id": 68,
            "name": "Niagara Centre"
          }
        ],
        "pollDivisionIds": [
          10139912
        ],
        "postalCode": "L2V4Y7",
        "streetName": "CROMPTON",
        "streetDirectionId": null,
        "streetTypeId": "BLVD",
        "placeName": "THOROLD",
        "streetNameDisplayText": "CROMPTON BLVD, THOROLD"
      }
    ]
  },
  {
    "postal": "L2V7M0",
    "result": []
  },
  {
    "postal": "L2V8P3",
    "result": []
  },
  {
    "postal": "L2V3N3",
    "result": [
      {
        "electoralDistricts": [
          {
            "election": null,
            "id": 68,
            "name": "Niagara Centre"
          }
        ],
        "pollDivisionIds": [
          10139909
        ],
        "postalCode": "L2V3N3",
        "streetName": "QUEEN",
        "streetDirectionId": "S",
        "streetTypeId": "ST",
        "placeName": "THOROLD",
        "streetNameDisplayText": "QUEEN ST S, THOROLD"
      }
    ]
  },
  {
    "postal": "L2V7S3",
    "result": []
  },
  {
    "postal": "L2V3V9",
    "result": [
      {
        "electoralDistricts": [
          {
            "election": null,
            "id": 68,
            "name": "Niagara Centre"
          }
        ],
        "pollDivisionIds": [
          10139913
        ],
        "postalCode": "L2V3V9",
        "streetName": "PATRICIA",
        "streetDirectionId": null,
        "streetTypeId": "ST",
        "placeName": "THOROLD",
        "streetNameDisplayText": "PATRICIA ST, THOROLD"
      }
    ]
  },
  {
    "postal": "L2V9N7",
    "result": []
  },
  {
    "postal": "L2V0G4",
    "result": [
      {
        "electoralDistricts": [
          {
            "election": null,
            "id": 68,
            "name": "Niagara Centre"
          }
        ],
        "pollDivisionIds": [
          10139921
        ],
        "postalCode": "L2V0G4",
        "streetName": "HANEY",
        "streetDirectionId": null,
        "streetTypeId": "DR",
        "placeName": "THOROLD",
        "streetNameDisplayText": "HANEY DR, THOROLD"
      },
      {
        "electoralDistricts": [
          {
            "election": null,
            "id": 68,
            "name": "Niagara Centre"
          }
        ],
        "pollDivisionIds": [
          10139921
        ],
        "postalCode": "L2V0G4",
        "streetName": "WILKERSON",
        "streetDirectionId": null,
        "streetTypeId": "ST",
        "placeName": "THOROLD",
        "streetNameDisplayText": "WILKERSON ST, THOROLD"
      }
    ]
  },
  {
    "postal": "L2V2E2",
    "result": [
      {
        "electoralDistricts": [
          {
            "election": null,
            "id": 68,
            "name": "Niagara Centre"
          }
        ],
        "pollDivisionIds": [
          10139909
        ],
        "postalCode": "L2V2E2",
        "streetName": "CHAPEL",
        "streetDirectionId": "N",
        "streetTypeId": "ST",
        "placeName": "THOROLD",
        "streetNameDisplayText": "CHAPEL ST N, THOROLD"
      }
    ]
  },
  {
    "postal": "L2V7W8",
    "result": []
  },
  {
    "postal": "L2V7M5",
    "result": []
  },
  {
    "postal": "L2V5W8",
    "result": []
  },
  {
    "postal": "L2V5E5",
    "result": [
      {
        "electoralDistricts": [
          {
            "election": null,
            "id": 68,
            "name": "Niagara Centre"
          }
        ],
        "pollDivisionIds": [
          10139911
        ],
        "postalCode": "L2V5E5",
        "streetName": "SUGAR MAPLE",
        "streetDirectionId": null,
        "streetTypeId": "RD",
        "placeName": "THOROLD",
        "streetNameDisplayText": "SUGAR MAPLE RD, THOROLD"
      },
      {
        "electoralDistricts": [
          {
            "election": null,
            "id": 68,
            "name": "Niagara Centre"
          }
        ],
        "pollDivisionIds": [
          10139911
        ],
        "postalCode": "L2V5E5",
        "streetName": "WINTERBERRY",
        "streetDirectionId": null,
        "streetTypeId": "BLVD",
        "placeName": "THOROLD",
        "streetNameDisplayText": "WINTERBERRY BLVD, THOROLD"
      }
    ]
  },
  {
    "postal": "L2V1P9",
    "result": [
      {
        "electoralDistricts": [
          {
            "election": null,
            "id": 68,
            "name": "Niagara Centre"
          }
        ],
        "pollDivisionIds": [
          10139909
        ],
        "postalCode": "L2V1P9",
        "streetName": "MCARTHUR",
        "streetDirectionId": null,
        "streetTypeId": "LANE",
        "placeName": "THOROLD",
        "streetNameDisplayText": "MCARTHUR LANE, THOROLD"
      }
    ]
  },
  {
    "postal": "L2V8V8",
    "result": []
  },
  {
    "postal": "L2V9G8",
    "result": []
  },
  {
    "postal": "L2V8H9",
    "result": []
  },
  {
    "postal": "L2V1Z1",
    "result": [
      {
        "electoralDistricts": [
          {
            "election": null,
            "id": 68,
            "name": "Niagara Centre"
          }
        ],
        "pollDivisionIds": [
          10139909
        ],
        "postalCode": "L2V1Z1",
        "streetName": "ORMOND",
        "streetDirectionId": "N",
        "streetTypeId": "ST",
        "placeName": "THOROLD",
        "streetNameDisplayText": "ORMOND ST N, THOROLD"
      }
    ]
  },
  {
    "postal": "L2V8M3",
    "result": []
  },
  {
    "postal": "L2V5H6",
    "result": []
  },
  {
    "postal": "L2V7W7",
    "result": []
  },
  {
    "postal": "L2V4L0",
    "result": []
  },
  {
    "postal": "L2V2N1",
    "result": [
      {
        "electoralDistricts": [
          {
            "election": null,
            "id": 68,
            "name": "Niagara Centre"
          }
        ],
        "pollDivisionIds": [
          10139912
        ],
        "postalCode": "L2V2N1",
        "streetName": "THOMPSON",
        "streetDirectionId": null,
        "streetTypeId": "AVE",
        "placeName": "THOROLD",
        "streetNameDisplayText": "THOMPSON AVE, THOROLD"
      }
    ]
  },
  {
    "postal": "L2V2H4",
    "result": [
      {
        "electoralDistricts": [
          {
            "election": null,
            "id": 68,
            "name": "Niagara Centre"
          }
        ],
        "pollDivisionIds": [
          10139912
        ],
        "postalCode": "L2V2H4",
        "streetName": "BRODERICK",
        "streetDirectionId": null,
        "streetTypeId": "AVE",
        "placeName": "THOROLD",
        "streetNameDisplayText": "BRODERICK AVE, THOROLD"
      }
    ]
  },
  {
    "postal": "L2V5C8",
    "result": [
      {
        "electoralDistricts": [
          {
            "election": null,
            "id": 68,
            "name": "Niagara Centre"
          }
        ],
        "pollDivisionIds": [
          10139909
        ],
        "postalCode": "L2V5C8",
        "streetName": "MCNAMARA",
        "streetDirectionId": null,
        "streetTypeId": "ST",
        "placeName": "THOROLD",
        "streetNameDisplayText": "MCNAMARA ST, THOROLD"
      }
    ]
  },
  {
    "postal": "L2V8B0",
    "result": []
  },
  {
    "postal": "L2V1T4",
    "result": []
  },
  {
    "postal": "L2V7N7",
    "result": []
  },
  {
    "postal": "L2V4L3",
    "result": [
      {
        "electoralDistricts": [
          {
            "election": null,
            "id": 68,
            "name": "Niagara Centre"
          }
        ],
        "pollDivisionIds": [
          10139914
        ],
        "postalCode": "L2V4L3",
        "streetName": "ROMY",
        "streetDirectionId": null,
        "streetTypeId": "CRES",
        "placeName": "THOROLD",
        "streetNameDisplayText": "ROMY CRES, THOROLD"
      }
    ]
  },
  {
    "postal": "L2V2N2",
    "result": [
      {
        "electoralDistricts": [
          {
            "election": null,
            "id": 68,
            "name": "Niagara Centre"
          }
        ],
        "pollDivisionIds": [
          10139912
        ],
        "postalCode": "L2V2N2",
        "streetName": "THOMPSON",
        "streetDirectionId": null,
        "streetTypeId": "AVE",
        "placeName": "THOROLD",
        "streetNameDisplayText": "THOMPSON AVE, THOROLD"
      }
    ]
  },
  {
    "postal": "L2V4N8",
    "result": []
  },
  {
    "postal": "L2V3M5",
    "result": [
      {
        "electoralDistricts": [
          {
            "election": null,
            "id": 68,
            "name": "Niagara Centre"
          }
        ],
        "pollDivisionIds": [
          10139913
        ],
        "postalCode": "L2V3M5",
        "streetName": "PINE",
        "streetDirectionId": "S",
        "streetTypeId": "ST",
        "placeName": "THOROLD",
        "streetNameDisplayText": "PINE ST S, THOROLD"
      }
    ]
  },
  {
    "postal": "L2V6H7",
    "result": []
  },
  {
    "postal": "L2V8Y8",
    "result": []
  },
  {
    "postal": "L2V5R9",
    "result": []
  },
  {
    "postal": "L2V8G3",
    "result": []
  },
  {
    "postal": "L2V4N7",
    "result": [
      {
        "electoralDistricts": [
          {
            "election": null,
            "id": 68,
            "name": "Niagara Centre"
          }
        ],
        "pollDivisionIds": [
          10139914
        ],
        "postalCode": "L2V4N7",
        "streetName": "KEEFER",
        "streetDirectionId": null,
        "streetTypeId": "RD",
        "placeName": "THOROLD",
        "streetNameDisplayText": "KEEFER RD, THOROLD"
      }
    ]
  },
  {
    "postal": "L2V0B9",
    "result": [
      {
        "electoralDistricts": [
          {
            "election": null,
            "id": 68,
            "name": "Niagara Centre"
          }
        ],
        "pollDivisionIds": [
          10139915
        ],
        "postalCode": "L2V0B9",
        "streetName": "SUCCESS",
        "streetDirectionId": null,
        "streetTypeId": "WAY",
        "placeName": "THOROLD",
        "streetNameDisplayText": "SUCCESS WAY, THOROLD"
      },
      {
        "electoralDistricts": [
          {
            "election": null,
            "id": 68,
            "name": "Niagara Centre"
          }
        ],
        "pollDivisionIds": [
          10139915
        ],
        "postalCode": "L2V0B9",
        "streetName": "SUNSET",
        "streetDirectionId": null,
        "streetTypeId": "WAY",
        "placeName": "THOROLD",
        "streetNameDisplayText": "SUNSET WAY, THOROLD"
      }
    ]
  },
  {
    "postal": "L2V9K7",
    "result": []
  },
  {
    "postal": "L2V9K9",
    "result": []
  },
  {
    "postal": "L2V3Z2",
    "result": []
  },
  {
    "postal": "L2V6W7",
    "result": []
  },
  {
    "postal": "L2V0P1",
    "result": []
  },
  {
    "postal": "L2V3A0",
    "result": []
  },
  {
    "postal": "L2V8L9",
    "result": []
  },
  {
    "postal": "L2V6X0",
    "result": []
  },
  {
    "postal": "L2V3E9",
    "result": [
      {
        "electoralDistricts": [
          {
            "election": null,
            "id": 68,
            "name": "Niagara Centre"
          }
        ],
        "pollDivisionIds": [
          10139913
        ],
        "postalCode": "L2V3E9",
        "streetName": "RICHMOND",
        "streetDirectionId": null,
        "streetTypeId": "ST",
        "placeName": "THOROLD",
        "streetNameDisplayText": "RICHMOND ST, THOROLD"
      }
    ]
  },
  {
    "postal": "L2V0S5",
    "result": []
  },
  {
    "postal": "L2V1A2",
    "result": [
      {
        "electoralDistricts": [
          {
            "election": null,
            "id": 68,
            "name": "Niagara Centre"
          }
        ],
        "pollDivisionIds": [
          10139915
        ],
        "postalCode": "L2V1A2",
        "streetName": "ALLANBURG",
        "streetDirectionId": null,
        "streetTypeId": "RD",
        "placeName": "THOROLD",
        "streetNameDisplayText": "ALLANBURG RD, THOROLD"
      }
    ]
  },
  {
    "postal": "L2V5V8",
    "result": []
  },
  {
    "postal": "L2V8C5",
    "result": []
  },
  {
    "postal": "L2V6N0",
    "result": []
  },
  {
    "postal": "L2V9E6",
    "result": []
  },
  {
    "postal": "L2V5J7",
    "result": []
  },
  {
    "postal": "L2V2R2",
    "result": [
      {
        "electoralDistricts": [
          {
            "election": null,
            "id": 68,
            "name": "Niagara Centre"
          }
        ],
        "pollDivisionIds": [
          10139909
        ],
        "postalCode": "L2V2R2",
        "streetName": "QUEEN",
        "streetDirectionId": "N",
        "streetTypeId": "ST",
        "placeName": "THOROLD",
        "streetNameDisplayText": "QUEEN ST N, THOROLD"
      }
    ]
  },
  {
    "postal": "L2V0P5",
    "result": []
  },
  {
    "postal": "L2V5A7",
    "result": [
      {
        "electoralDistricts": [
          {
            "election": null,
            "id": 68,
            "name": "Niagara Centre"
          }
        ],
        "pollDivisionIds": [
          10139914
        ],
        "postalCode": "L2V5A7",
        "streetName": "RICHMOND",
        "streetDirectionId": null,
        "streetTypeId": "ST",
        "placeName": "THOROLD",
        "streetNameDisplayText": "RICHMOND ST, THOROLD"
      }
    ]
  },
  {
    "postal": "L2V1G1",
    "result": [
      {
        "electoralDistricts": [
          {
            "election": null,
            "id": 68,
            "name": "Niagara Centre"
          }
        ],
        "pollDivisionIds": [
          10139915
        ],
        "postalCode": "L2V1G1",
        "streetName": "DAVIS",
        "streetDirectionId": null,
        "streetTypeId": "ST",
        "placeName": "THOROLD",
        "streetNameDisplayText": "DAVIS ST, THOROLD"
      }
    ]
  },
  {
    "postal": "L2V9R6",
    "result": []
  },
  {
    "postal": "L2V4Z9",
    "result": [
      {
        "electoralDistricts": [
          {
            "election": null,
            "id": 68,
            "name": "Niagara Centre"
          }
        ],
        "pollDivisionIds": [
          10139914
        ],
        "postalCode": "L2V4Z9",
        "streetName": "CRYSLER",
        "streetDirectionId": null,
        "streetTypeId": "CRES",
        "placeName": "THOROLD",
        "streetNameDisplayText": "CRYSLER CRES, THOROLD"
      },
      {
        "electoralDistricts": [
          {
            "election": null,
            "id": 68,
            "name": "Niagara Centre"
          }
        ],
        "pollDivisionIds": [
          10139914
        ],
        "postalCode": "L2V4Z9",
        "streetName": "SILVERCREST",
        "streetDirectionId": null,
        "streetTypeId": "CRT",
        "placeName": "THOROLD",
        "streetNameDisplayText": "SILVERCREST CRT, THOROLD"
      },
      {
        "electoralDistricts": [
          {
            "election": null,
            "id": 68,
            "name": "Niagara Centre"
          }
        ],
        "pollDivisionIds": [
          10139914
        ],
        "postalCode": "L2V4Z9",
        "streetName": "SUMMERS",
        "streetDirectionId": null,
        "streetTypeId": "DR",
        "placeName": "THOROLD",
        "streetNameDisplayText": "SUMMERS DR, THOROLD"
      }
    ]
  },
  {
    "postal": "L2V1V5",
    "result": [
      {
        "electoralDistricts": [
          {
            "election": null,
            "id": 68,
            "name": "Niagara Centre"
          }
        ],
        "pollDivisionIds": [
          10139909
        ],
        "postalCode": "L2V1V5",
        "streetName": "ST. DAVID",
        "streetDirectionId": "E",
        "streetTypeId": "ST",
        "placeName": "THOROLD",
        "streetNameDisplayText": "ST. DAVID ST E, THOROLD"
      }
    ]
  },
  {
    "postal": "L2V9Y5",
    "result": []
  },
  {
    "postal": "L2V1P2",
    "result": [
      {
        "electoralDistricts": [
          {
            "election": null,
            "id": 68,
            "name": "Niagara Centre"
          }
        ],
        "pollDivisionIds": [
          10139909
        ],
        "postalCode": "L2V1P2",
        "streetName": "ALBERT",
        "streetDirectionId": "E",
        "streetTypeId": "ST",
        "placeName": "THOROLD",
        "streetNameDisplayText": "ALBERT ST E, THOROLD"
      },
      {
        "electoralDistricts": [
          {
            "election": null,
            "id": 68,
            "name": "Niagara Centre"
          }
        ],
        "pollDivisionIds": [
          10139909
        ],
        "postalCode": "L2V1P2",
        "streetName": "ALBERT",
        "streetDirectionId": "W",
        "streetTypeId": "ST",
        "placeName": "THOROLD",
        "streetNameDisplayText": "ALBERT ST W, THOROLD"
      }
    ]
  },
  {
    "postal": "L2V5X0",
    "result": []
  },
  {
    "postal": "L2V7B8",
    "result": []
  },
  {
    "postal": "L2V0C6",
    "result": []
  },
  {
    "postal": "L2V6G1",
    "result": []
  },
  {
    "postal": "L2V3K3",
    "result": [
      {
        "electoralDistricts": [
          {
            "election": null,
            "id": 68,
            "name": "Niagara Centre"
          }
        ],
        "pollDivisionIds": [
          10139908,
          10139913
        ],
        "postalCode": "L2V3K3",
        "streetName": "CLEVELAND",
        "streetDirectionId": null,
        "streetTypeId": "ST",
        "placeName": "THOROLD",
        "streetNameDisplayText": "CLEVELAND ST, THOROLD"
      }
    ]
  },
  {
    "postal": "L2V9R0",
    "result": []
  },
  {
    "postal": "L2V4R8",
    "result": [
      {
        "electoralDistricts": [
          {
            "election": null,
            "id": 68,
            "name": "Niagara Centre"
          }
        ],
        "pollDivisionIds": [
          10139914
        ],
        "postalCode": "L2V4R8",
        "streetName": "CAPRI",
        "streetDirectionId": null,
        "streetTypeId": "ST",
        "placeName": "THOROLD",
        "streetNameDisplayText": "CAPRI ST, THOROLD"
      }
    ]
  },
  {
    "postal": "L2V5P9",
    "result": []
  },
  {
    "postal": "L2V8N4",
    "result": []
  },
  {
    "postal": "L2V8H4",
    "result": []
  },
  {
    "postal": "L2V4V1",
    "result": [
      {
        "electoralDistricts": [
          {
            "election": null,
            "id": 68,
            "name": "Niagara Centre"
          }
        ],
        "pollDivisionIds": [
          10139912
        ],
        "postalCode": "L2V4V1",
        "streetName": "KEEFER",
        "streetDirectionId": null,
        "streetTypeId": "RD",
        "placeName": "THOROLD",
        "streetNameDisplayText": "KEEFER RD, THOROLD"
      }
    ]
  },
  {
    "postal": "L2V1K5",
    "result": [
      {
        "electoralDistricts": [
          {
            "election": null,
            "id": 68,
            "name": "Niagara Centre"
          }
        ],
        "pollDivisionIds": [
          10139915
        ],
        "postalCode": "L2V1K5",
        "streetName": "CLARA",
        "streetDirectionId": null,
        "streetTypeId": "ST",
        "placeName": "THOROLD",
        "streetNameDisplayText": "CLARA ST, THOROLD"
      }
    ]
  },
  {
    "postal": "L2V1Z5",
    "result": [
      {
        "electoralDistricts": [
          {
            "election": null,
            "id": 68,
            "name": "Niagara Centre"
          }
        ],
        "pollDivisionIds": [
          10139909
        ],
        "postalCode": "L2V1Z5",
        "streetName": "CARLETON",
        "streetDirectionId": "S",
        "streetTypeId": "ST",
        "placeName": "THOROLD",
        "streetNameDisplayText": "CARLETON ST S, THOROLD"
      }
    ]
  },
  {
    "postal": "L2V9L9",
    "result": []
  },
  {
    "postal": "L2V5L2",
    "result": []
  },
  {
    "postal": "L2V0M2",
    "result": []
  },
  {
    "postal": "L2V1K8",
    "result": [
      {
        "electoralDistricts": [
          {
            "election": null,
            "id": 68,
            "name": "Niagara Centre"
          }
        ],
        "pollDivisionIds": [
          10139915
        ],
        "postalCode": "L2V1K8",
        "streetName": "CLARA",
        "streetDirectionId": null,
        "streetTypeId": "ST",
        "placeName": "THOROLD",
        "streetNameDisplayText": "CLARA ST, THOROLD"
      }
    ]
  },
  {
    "postal": "L2V3M7",
    "result": [
      {
        "electoralDistricts": [
          {
            "election": null,
            "id": 68,
            "name": "Niagara Centre"
          }
        ],
        "pollDivisionIds": [
          10139909
        ],
        "postalCode": "L2V3M7",
        "streetName": "QUEEN",
        "streetDirectionId": "S",
        "streetTypeId": "ST",
        "placeName": "THOROLD",
        "streetNameDisplayText": "QUEEN ST S, THOROLD"
      }
    ]
  },
  {
    "postal": "L2V1B2",
    "result": [
      {
        "electoralDistricts": [
          {
            "election": null,
            "id": 68,
            "name": "Niagara Centre"
          }
        ],
        "pollDivisionIds": [
          10139915
        ],
        "postalCode": "L2V1B2",
        "streetName": "PEEL",
        "streetDirectionId": null,
        "streetTypeId": "ST",
        "placeName": "THOROLD",
        "streetNameDisplayText": "PEEL ST, THOROLD"
      }
    ]
  },
  {
    "postal": "L2V0H9",
    "result": [
      {
        "electoralDistricts": [
          {
            "election": null,
            "id": 68,
            "name": "Niagara Centre"
          }
        ],
        "pollDivisionIds": [
          10139911
        ],
        "postalCode": "L2V0H9",
        "streetName": "HAWTHORN",
        "streetDirectionId": null,
        "streetTypeId": "AVE",
        "placeName": "THOROLD",
        "streetNameDisplayText": "HAWTHORN AVE, THOROLD"
      },
      {
        "electoralDistricts": [
          {
            "election": null,
            "id": 68,
            "name": "Niagara Centre"
          }
        ],
        "pollDivisionIds": [
          10139911
        ],
        "postalCode": "L2V0H9",
        "streetName": "IRONWOOD",
        "streetDirectionId": null,
        "streetTypeId": "CRT",
        "placeName": "THOROLD",
        "streetNameDisplayText": "IRONWOOD CRT, THOROLD"
      },
      {
        "electoralDistricts": [
          {
            "election": null,
            "id": 68,
            "name": "Niagara Centre"
          }
        ],
        "pollDivisionIds": [
          10139911
        ],
        "postalCode": "L2V0H9",
        "streetName": "JUNEBERRY",
        "streetDirectionId": null,
        "streetTypeId": "RD",
        "placeName": "THOROLD",
        "streetNameDisplayText": "JUNEBERRY RD, THOROLD"
      }
    ]
  },
  {
    "postal": "L2V8M4",
    "result": []
  },
  {
    "postal": "L2V2M5",
    "result": [
      {
        "electoralDistricts": [
          {
            "election": null,
            "id": 68,
            "name": "Niagara Centre"
          }
        ],
        "pollDivisionIds": [
          10139909
        ],
        "postalCode": "L2V2M5",
        "streetName": "TOWNLINE",
        "streetDirectionId": "W",
        "streetTypeId": "RD",
        "placeName": "THOROLD",
        "streetNameDisplayText": "TOWNLINE RD W, THOROLD"
      }
    ]
  },
  {
    "postal": "L2V0T9",
    "result": []
  },
  {
    "postal": "L2V3P1",
    "result": [
      {
        "electoralDistricts": [
          {
            "election": null,
            "id": 68,
            "name": "Niagara Centre"
          }
        ],
        "pollDivisionIds": [
          10139912
        ],
        "postalCode": "L2V3P1",
        "streetName": "QUEEN",
        "streetDirectionId": "S",
        "streetTypeId": "ST",
        "placeName": "THOROLD",
        "streetNameDisplayText": "QUEEN ST S, THOROLD"
      }
    ]
  },
  {
    "postal": "L2V1R6",
    "result": [
      {
        "electoralDistricts": [
          {
            "election": null,
            "id": 68,
            "name": "Niagara Centre"
          }
        ],
        "pollDivisionIds": [
          10139909
        ],
        "postalCode": "L2V1R6",
        "streetName": "CLAIRMONT",
        "streetDirectionId": null,
        "streetTypeId": "ST",
        "placeName": "THOROLD",
        "streetNameDisplayText": "CLAIRMONT ST, THOROLD"
      },
      {
        "electoralDistricts": [
          {
            "election": null,
            "id": 68,
            "name": "Niagara Centre"
          }
        ],
        "pollDivisionIds": [
          10139909
        ],
        "postalCode": "L2V1R6",
        "streetName": "CLAREMOUNT",
        "streetDirectionId": null,
        "streetTypeId": "ST",
        "placeName": "THOROLD",
        "streetNameDisplayText": "CLAREMOUNT ST, THOROLD"
      }
    ]
  },
  {
    "postal": "L2V9V5",
    "result": []
  },
  {
    "postal": "L2V9T0",
    "result": []
  },
  {
    "postal": "L2V0A9",
    "result": []
  },
  {
    "postal": "L2V1M3",
    "result": [
      {
        "electoralDistricts": [
          {
            "election": null,
            "id": 68,
            "name": "Niagara Centre"
          }
        ],
        "pollDivisionIds": [
          10139915
        ],
        "postalCode": "L2V1M3",
        "streetName": "LYNN",
        "streetDirectionId": null,
        "streetTypeId": "CRES",
        "placeName": "THOROLD",
        "streetNameDisplayText": "LYNN CRES, THOROLD"
      }
    ]
  },
  {
    "postal": "L2V1W8",
    "result": [
      {
        "electoralDistricts": [
          {
            "election": null,
            "id": 68,
            "name": "Niagara Centre"
          }
        ],
        "pollDivisionIds": [
          10139914,
          10139909
        ],
        "postalCode": "L2V1W8",
        "streetName": "FRONT",
        "streetDirectionId": "S",
        "streetTypeId": "ST",
        "placeName": "THOROLD",
        "streetNameDisplayText": "FRONT ST S, THOROLD"
      }
    ]
  },
  {
    "postal": "L2V9J1",
    "result": []
  },
  {
    "postal": "L2V8N5",
    "result": []
  },
  {
    "postal": "L2V5X1",
    "result": []
  },
  {
    "postal": "L2V6S2",
    "result": []
  },
  {
    "postal": "L2V2A2",
    "result": [
      {
        "electoralDistricts": [
          {
            "election": null,
            "id": 68,
            "name": "Niagara Centre"
          }
        ],
        "pollDivisionIds": [
          10139909
        ],
        "postalCode": "L2V2A2",
        "streetName": "CARLETON",
        "streetDirectionId": "N",
        "streetTypeId": "ST",
        "placeName": "THOROLD",
        "streetNameDisplayText": "CARLETON ST N, THOROLD"
      }
    ]
  },
  {
    "postal": "L2V6A6",
    "result": []
  },
  {
    "postal": "L2V0S3",
    "result": []
  },
  {
    "postal": "L2V3E7",
    "result": [
      {
        "electoralDistricts": [
          {
            "election": null,
            "id": 68,
            "name": "Niagara Centre"
          }
        ],
        "pollDivisionIds": [
          10139912
        ],
        "postalCode": "L2V3E7",
        "streetName": "MCDONALD",
        "streetDirectionId": null,
        "streetTypeId": "AVE",
        "placeName": "THOROLD",
        "streetNameDisplayText": "MCDONALD AVE, THOROLD"
      }
    ]
  },
  {
    "postal": "L2V5R7",
    "result": []
  },
  {
    "postal": "L2V3R6",
    "result": [
      {
        "electoralDistricts": [
          {
            "election": null,
            "id": 68,
            "name": "Niagara Centre"
          }
        ],
        "pollDivisionIds": [
          10139912
        ],
        "postalCode": "L2V3R6",
        "streetName": "DELAWARE",
        "streetDirectionId": null,
        "streetTypeId": "AVE",
        "placeName": "THOROLD",
        "streetNameDisplayText": "DELAWARE AVE, THOROLD"
      }
    ]
  },
  {
    "postal": "L2V6K4",
    "result": []
  },
  {
    "postal": "L2V2W5",
    "result": [
      {
        "electoralDistricts": [
          {
            "election": null,
            "id": 68,
            "name": "Niagara Centre"
          }
        ],
        "pollDivisionIds": [
          10139912
        ],
        "postalCode": "L2V2W5",
        "streetName": "STEWART",
        "streetDirectionId": null,
        "streetTypeId": "AVE",
        "placeName": "THOROLD",
        "streetNameDisplayText": "STEWART AVE, THOROLD"
      }
    ]
  },
  {
    "postal": "L2V8W4",
    "result": []
  },
  {
    "postal": "L2V9C2",
    "result": []
  },
  {
    "postal": "L2V2C0",
    "result": []
  },
  {
    "postal": "L2V0E1",
    "result": [
      {
        "electoralDistricts": [
          {
            "election": null,
            "id": 68,
            "name": "Niagara Centre"
          }
        ],
        "pollDivisionIds": [
          10139911
        ],
        "postalCode": "L2V0E1",
        "streetName": "SCHMON",
        "streetDirectionId": null,
        "streetTypeId": "PKY",
        "placeName": "THOROLD",
        "streetNameDisplayText": "SCHMON PKY, THOROLD"
      }
    ]
  },
  {
    "postal": "L2V1K9",
    "result": [
      {
        "electoralDistricts": [
          {
            "election": null,
            "id": 68,
            "name": "Niagara Centre"
          }
        ],
        "pollDivisionIds": [
          10139915
        ],
        "postalCode": "L2V1K9",
        "streetName": "CLARA",
        "streetDirectionId": null,
        "streetTypeId": "ST",
        "placeName": "THOROLD",
        "streetNameDisplayText": "CLARA ST, THOROLD"
      }
    ]
  },
  {
    "postal": "L2V1G7",
    "result": [
      {
        "electoralDistricts": [
          {
            "election": null,
            "id": 68,
            "name": "Niagara Centre"
          }
        ],
        "pollDivisionIds": [
          10139915
        ],
        "postalCode": "L2V1G7",
        "streetName": "MACKAN",
        "streetDirectionId": null,
        "streetTypeId": "ST",
        "placeName": "THOROLD",
        "streetNameDisplayText": "MACKAN ST, THOROLD"
      }
    ]
  },
  {
    "postal": "L2V4E9",
    "result": []
  },
  {
    "postal": "L2V9P0",
    "result": []
  },
  {
    "postal": "L2V5H3",
    "result": []
  },
  {
    "postal": "L2V9X6",
    "result": []
  },
  {
    "postal": "L2V5N7",
    "result": []
  },
  {
    "postal": "L2V5A6",
    "result": [
      {
        "electoralDistricts": [
          {
            "election": null,
            "id": 68,
            "name": "Niagara Centre"
          }
        ],
        "pollDivisionIds": [
          10139914,
          10139912
        ],
        "postalCode": "L2V5A6",
        "streetName": "CONFEDERATION",
        "streetDirectionId": null,
        "streetTypeId": "AVE",
        "placeName": "THOROLD",
        "streetNameDisplayText": "CONFEDERATION AVE, THOROLD"
      },
      {
        "electoralDistricts": [
          {
            "election": null,
            "id": 68,
            "name": "Niagara Centre"
          }
        ],
        "pollDivisionIds": [
          10139912
        ],
        "postalCode": "L2V5A6",
        "streetName": "DEVINE",
        "streetDirectionId": null,
        "streetTypeId": "CRES",
        "placeName": "THOROLD",
        "streetNameDisplayText": "DEVINE CRES, THOROLD"
      },
      {
        "electoralDistricts": [
          {
            "election": null,
            "id": 68,
            "name": "Niagara Centre"
          }
        ],
        "pollDivisionIds": [
          10139914
        ],
        "postalCode": "L2V5A6",
        "streetName": "SUMMERS",
        "streetDirectionId": null,
        "streetTypeId": "DR",
        "placeName": "THOROLD",
        "streetNameDisplayText": "SUMMERS DR, THOROLD"
      }
    ]
  },
  {
    "postal": "L2V4M0",
    "result": []
  },
  {
    "postal": "L2V3V6",
    "result": [
      {
        "electoralDistricts": [
          {
            "election": null,
            "id": 68,
            "name": "Niagara Centre"
          }
        ],
        "pollDivisionIds": [
          10139912
        ],
        "postalCode": "L2V3V6",
        "streetName": "CROMPTON",
        "streetDirectionId": null,
        "streetTypeId": "BLVD",
        "placeName": "THOROLD",
        "streetNameDisplayText": "CROMPTON BLVD, THOROLD"
      }
    ]
  },
  {
    "postal": "L2V1L7",
    "result": [
      {
        "electoralDistricts": [
          {
            "election": null,
            "id": 68,
            "name": "Niagara Centre"
          }
        ],
        "pollDivisionIds": [
          10139915
        ],
        "postalCode": "L2V1L7",
        "streetName": "MCCORMACK",
        "streetDirectionId": null,
        "streetTypeId": "DR",
        "placeName": "THOROLD",
        "streetNameDisplayText": "MCCORMACK DR, THOROLD"
      }
    ]
  },
  {
    "postal": "L2V2P9",
    "result": [
      {
        "electoralDistricts": [
          {
            "election": null,
            "id": 68,
            "name": "Niagara Centre"
          }
        ],
        "pollDivisionIds": [
          10139909
        ],
        "postalCode": "L2V2P9",
        "streetName": "QUEEN",
        "streetDirectionId": "N",
        "streetTypeId": "ST",
        "placeName": "THOROLD",
        "streetNameDisplayText": "QUEEN ST N, THOROLD"
      }
    ]
  },
  {
    "postal": "L2V5T4",
    "result": []
  },
  {
    "postal": "L2V5Z1",
    "result": []
  },
  {
    "postal": "L2V2X0",
    "result": []
  },
  {
    "postal": "L2V6Z2",
    "result": []
  },
  {
    "postal": "L2V0E0",
    "result": []
  },
  {
    "postal": "L2V3Z5",
    "result": []
  },
  {
    "postal": "L2V8H3",
    "result": []
  },
  {
    "postal": "L2V7S6",
    "result": []
  },
  {
    "postal": "L2V4C1",
    "result": [
      {
        "electoralDistricts": [
          {
            "election": null,
            "id": 68,
            "name": "Niagara Centre"
          }
        ],
        "pollDivisionIds": [
          10139911
        ],
        "postalCode": "L2V4C1",
        "streetName": "KEHOLME",
        "streetDirectionId": null,
        "streetTypeId": "CRES",
        "placeName": "THOROLD",
        "streetNameDisplayText": "KEHOLME CRES, THOROLD"
      }
    ]
  },
  {
    "postal": "L2V3K2",
    "result": [
      {
        "electoralDistricts": [
          {
            "election": null,
            "id": 68,
            "name": "Niagara Centre"
          }
        ],
        "pollDivisionIds": [
          10139913
        ],
        "postalCode": "L2V3K2",
        "streetName": "CLEVELAND",
        "streetDirectionId": null,
        "streetTypeId": "ST",
        "placeName": "THOROLD",
        "streetNameDisplayText": "CLEVELAND ST, THOROLD"
      }
    ]
  },
  {
    "postal": "L2V1Y5",
    "result": [
      {
        "electoralDistricts": [
          {
            "election": null,
            "id": 68,
            "name": "Niagara Centre"
          }
        ],
        "pollDivisionIds": [
          10139913
        ],
        "postalCode": "L2V1Y5",
        "streetName": "ORMOND",
        "streetDirectionId": "S",
        "streetTypeId": "ST",
        "placeName": "THOROLD",
        "streetNameDisplayText": "ORMOND ST S, THOROLD"
      }
    ]
  },
  {
    "postal": "L2V6P6",
    "result": []
  },
  {
    "postal": "L2V3N9",
    "result": [
      {
        "electoralDistricts": [
          {
            "election": null,
            "id": 68,
            "name": "Niagara Centre"
          }
        ],
        "pollDivisionIds": [
          10139913
        ],
        "postalCode": "L2V3N9",
        "streetName": "QUEEN",
        "streetDirectionId": "S",
        "streetTypeId": "ST",
        "placeName": "THOROLD",
        "streetNameDisplayText": "QUEEN ST S, THOROLD"
      }
    ]
  },
  {
    "postal": "L2V3W2",
    "result": [
      {
        "electoralDistricts": [
          {
            "election": null,
            "id": 68,
            "name": "Niagara Centre"
          }
        ],
        "pollDivisionIds": [
          10139913
        ],
        "postalCode": "L2V3W2",
        "streetName": "BATTLE",
        "streetDirectionId": null,
        "streetTypeId": "ST",
        "placeName": "THOROLD",
        "streetNameDisplayText": "BATTLE ST, THOROLD"
      }
    ]
  },
  {
    "postal": "L2V6H8",
    "result": []
  },
  {
    "postal": "L2V9T3",
    "result": []
  },
  {
    "postal": "L2V5L9",
    "result": []
  },
  {
    "postal": "L2V7X7",
    "result": []
  },
  {
    "postal": "L2V3J5",
    "result": []
  },
  {
    "postal": "L2V4J5",
    "result": [
      {
        "electoralDistricts": [
          {
            "election": null,
            "id": 68,
            "name": "Niagara Centre"
          }
        ],
        "pollDivisionIds": [
          10139911
        ],
        "postalCode": "L2V4J5",
        "streetName": "FORSTER",
        "streetDirectionId": null,
        "streetTypeId": "AVE",
        "placeName": "THOROLD",
        "streetNameDisplayText": "FORSTER AVE, THOROLD"
      }
    ]
  },
  {
    "postal": "L2V6J2",
    "result": []
  },
  {
    "postal": "L2V5V6",
    "result": []
  },
  {
    "postal": "L2V3N2",
    "result": [
      {
        "electoralDistricts": [
          {
            "election": null,
            "id": 68,
            "name": "Niagara Centre"
          }
        ],
        "pollDivisionIds": [
          10139909
        ],
        "postalCode": "L2V3N2",
        "streetName": "QUEEN",
        "streetDirectionId": "S",
        "streetTypeId": "ST",
        "placeName": "THOROLD",
        "streetNameDisplayText": "QUEEN ST S, THOROLD"
      }
    ]
  },
  {
    "postal": "L2V3B1",
    "result": [
      {
        "electoralDistricts": [
          {
            "election": null,
            "id": 68,
            "name": "Niagara Centre"
          }
        ],
        "pollDivisionIds": [
          10139912
        ],
        "postalCode": "L2V3B1",
        "streetName": "MAITLAND",
        "streetDirectionId": null,
        "streetTypeId": "ST",
        "placeName": "THOROLD",
        "streetNameDisplayText": "MAITLAND ST, THOROLD"
      }
    ]
  },
  {
    "postal": "L2V8B5",
    "result": []
  },
  {
    "postal": "L2V0K1",
    "result": []
  },
  {
    "postal": "L2V7M7",
    "result": []
  },
  {
    "postal": "L2V2M2",
    "result": [
      {
        "electoralDistricts": [
          {
            "election": null,
            "id": 68,
            "name": "Niagara Centre"
          }
        ],
        "pollDivisionIds": [
          10139911
        ],
        "postalCode": "L2V2M2",
        "streetName": "ST. DAVID'S",
        "streetDirectionId": null,
        "streetTypeId": "RD",
        "placeName": "THOROLD",
        "streetNameDisplayText": "ST. DAVID'S RD, THOROLD"
      }
    ]
  },
  {
    "postal": "L2V9N3",
    "result": []
  },
  {
    "postal": "L2V4Y8",
    "result": [
      {
        "electoralDistricts": [
          {
            "election": null,
            "id": 68,
            "name": "Niagara Centre"
          }
        ],
        "pollDivisionIds": [
          10139915
        ],
        "postalCode": "L2V4Y8",
        "streetName": "COWAN",
        "streetDirectionId": null,
        "streetTypeId": "DR",
        "placeName": "THOROLD",
        "streetNameDisplayText": "COWAN DR, THOROLD"
      },
      {
        "electoralDistricts": [
          {
            "election": null,
            "id": 68,
            "name": "Niagara Centre"
          }
        ],
        "pollDivisionIds": [
          10139915
        ],
        "postalCode": "L2V4Y8",
        "streetName": "STEPHENSON",
        "streetDirectionId": null,
        "streetTypeId": "CRT",
        "placeName": "THOROLD",
        "streetNameDisplayText": "STEPHENSON CRT, THOROLD"
      }
    ]
  },
  {
    "postal": "L2V3V7",
    "result": [
      {
        "electoralDistricts": [
          {
            "election": null,
            "id": 68,
            "name": "Niagara Centre"
          }
        ],
        "pollDivisionIds": [
          10139913
        ],
        "postalCode": "L2V3V7",
        "streetName": "PATRICIA",
        "streetDirectionId": null,
        "streetTypeId": "ST",
        "placeName": "THOROLD",
        "streetNameDisplayText": "PATRICIA ST, THOROLD"
      }
    ]
  },
  {
    "postal": "L2V8Z1",
    "result": []
  },
  {
    "postal": "L2V7B3",
    "result": []
  },
  {
    "postal": "L2V3A8",
    "result": [
      {
        "electoralDistricts": [
          {
            "election": null,
            "id": 68,
            "name": "Niagara Centre"
          }
        ],
        "pollDivisionIds": [
          10139909
        ],
        "postalCode": "L2V3A8",
        "streetName": "MAITLAND",
        "streetDirectionId": null,
        "streetTypeId": "ST",
        "placeName": "THOROLD",
        "streetNameDisplayText": "MAITLAND ST, THOROLD"
      }
    ]
  },
  {
    "postal": "L2V7V5",
    "result": []
  },
  {
    "postal": "L2V2T2",
    "result": [
      {
        "electoralDistricts": [
          {
            "election": null,
            "id": 68,
            "name": "Niagara Centre"
          }
        ],
        "pollDivisionIds": [
          10139909
        ],
        "postalCode": "L2V2T2",
        "streetName": "WHYTE",
        "streetDirectionId": "S",
        "streetTypeId": "AVE",
        "placeName": "THOROLD",
        "streetNameDisplayText": "WHYTE AVE S, THOROLD"
      }
    ]
  },
  {
    "postal": "L2V6L3",
    "result": []
  },
  {
    "postal": "L2V0L2",
    "result": []
  },
  {
    "postal": "L2V5Y8",
    "result": []
  },
  {
    "postal": "L2V0B8",
    "result": [
      {
        "electoralDistricts": [
          {
            "election": null,
            "id": 68,
            "name": "Niagara Centre"
          }
        ],
        "pollDivisionIds": [
          10139915
        ],
        "postalCode": "L2V0B8",
        "streetName": "AUTUMN",
        "streetDirectionId": null,
        "streetTypeId": "AVE",
        "placeName": "THOROLD",
        "streetNameDisplayText": "AUTUMN AVE, THOROLD"
      },
      {
        "electoralDistricts": [
          {
            "election": null,
            "id": 68,
            "name": "Niagara Centre"
          }
        ],
        "pollDivisionIds": [
          10139915
        ],
        "postalCode": "L2V0B8",
        "streetName": "GOLDRICH",
        "streetDirectionId": null,
        "streetTypeId": "AVE",
        "placeName": "THOROLD",
        "streetNameDisplayText": "GOLDRICH AVE, THOROLD"
      },
      {
        "electoralDistricts": [
          {
            "election": null,
            "id": 68,
            "name": "Niagara Centre"
          }
        ],
        "pollDivisionIds": [
          10139915
        ],
        "postalCode": "L2V0B8",
        "streetName": "SUCCESS",
        "streetDirectionId": null,
        "streetTypeId": "WAY",
        "placeName": "THOROLD",
        "streetNameDisplayText": "SUCCESS WAY, THOROLD"
      }
    ]
  },
  {
    "postal": "L2V6R5",
    "result": []
  },
  {
    "postal": "L2V8W6",
    "result": []
  },
  {
    "postal": "L2V8G6",
    "result": []
  },
  {
    "postal": "L2V6X3",
    "result": []
  },
  {
    "postal": "L2V7R7",
    "result": []
  },
  {
    "postal": "L2V4B6",
    "result": [
      {
        "electoralDistricts": [
          {
            "election": null,
            "id": 68,
            "name": "Niagara Centre"
          }
        ],
        "pollDivisionIds": [
          10139911
        ],
        "postalCode": "L2V4B6",
        "streetName": "MCCLURE",
        "streetDirectionId": null,
        "streetTypeId": "CRES",
        "placeName": "THOROLD",
        "streetNameDisplayText": "MCCLURE CRES, THOROLD"
      }
    ]
  },
  {
    "postal": "L2V3P9",
    "result": [
      {
        "electoralDistricts": [
          {
            "election": null,
            "id": 68,
            "name": "Niagara Centre"
          }
        ],
        "pollDivisionIds": [
          10139909
        ],
        "postalCode": "L2V3P9",
        "streetName": "COLBORNE",
        "streetDirectionId": null,
        "streetTypeId": "ST",
        "placeName": "THOROLD",
        "streetNameDisplayText": "COLBORNE ST, THOROLD"
      }
    ]
  },
  {
    "postal": "L2V2T3",
    "result": [
      {
        "electoralDistricts": [
          {
            "election": null,
            "id": 68,
            "name": "Niagara Centre"
          }
        ],
        "pollDivisionIds": [
          10139912
        ],
        "postalCode": "L2V2T3",
        "streetName": "WHYTE",
        "streetDirectionId": "N",
        "streetTypeId": "AVE",
        "placeName": "THOROLD",
        "streetNameDisplayText": "WHYTE AVE N, THOROLD"
      }
    ]
  },
  {
    "postal": "L2V1M4",
    "result": [
      {
        "electoralDistricts": [
          {
            "election": null,
            "id": 68,
            "name": "Niagara Centre"
          }
        ],
        "pollDivisionIds": [
          10139915
        ],
        "postalCode": "L2V1M4",
        "streetName": "LYNN",
        "streetDirectionId": null,
        "streetTypeId": "CRES",
        "placeName": "THOROLD",
        "streetNameDisplayText": "LYNN CRES, THOROLD"
      }
    ]
  },
  {
    "postal": "L2V0H1",
    "result": [
      {
        "electoralDistricts": [
          {
            "election": null,
            "id": 68,
            "name": "Niagara Centre"
          }
        ],
        "pollDivisionIds": [
          10139915
        ],
        "postalCode": "L2V0H1",
        "streetName": "HARMONY",
        "streetDirectionId": null,
        "streetTypeId": "WAY",
        "placeName": "THOROLD",
        "streetNameDisplayText": "HARMONY WAY, THOROLD"
      }
    ]
  },
  {
    "postal": "L2V9W3",
    "result": []
  },
  {
    "postal": "L2V6P1",
    "result": []
  },
  {
    "postal": "L2V7G2",
    "result": []
  },
  {
    "postal": "L2V4J9",
    "result": [
      {
        "electoralDistricts": [
          {
            "election": null,
            "id": 68,
            "name": "Niagara Centre"
          }
        ],
        "pollDivisionIds": [
          10139914
        ],
        "postalCode": "L2V4J9",
        "streetName": "CALCOTT",
        "streetDirectionId": null,
        "streetTypeId": "CRT",
        "placeName": "THOROLD",
        "streetNameDisplayText": "CALCOTT CRT, THOROLD"
      }
    ]
  },
  {
    "postal": "L2V9E4",
    "result": []
  },
  {
    "postal": "L2V8H0",
    "result": []
  },
  {
    "postal": "L2V4M7",
    "result": []
  },
  {
    "postal": "L2V2G9",
    "result": [
      {
        "electoralDistricts": [
          {
            "election": null,
            "id": 68,
            "name": "Niagara Centre"
          }
        ],
        "pollDivisionIds": [
          10139909
        ],
        "postalCode": "L2V2G9",
        "streetName": "ALBERT",
        "streetDirectionId": "W",
        "streetTypeId": "ST",
        "placeName": "THOROLD",
        "streetNameDisplayText": "ALBERT ST W, THOROLD"
      }
    ]
  },
  {
    "postal": "L2V8T2",
    "result": []
  },
  {
    "postal": "L2V7G7",
    "result": []
  },
  {
    "postal": "L2V4Z3",
    "result": [
      {
        "electoralDistricts": [
          {
            "election": null,
            "id": 68,
            "name": "Niagara Centre"
          }
        ],
        "pollDivisionIds": [
          10139912
        ],
        "postalCode": "L2V4Z3",
        "streetName": "ANN",
        "streetDirectionId": null,
        "streetTypeId": "ST",
        "placeName": "THOROLD",
        "streetNameDisplayText": "ANN ST, THOROLD"
      }
    ]
  },
  {
    "postal": "L2V5B3",
    "result": []
  },
  {
    "postal": "L2V1S7",
    "result": [
      {
        "electoralDistricts": [
          {
            "election": null,
            "id": 68,
            "name": "Niagara Centre"
          }
        ],
        "pollDivisionIds": [
          10139909
        ],
        "postalCode": "L2V1S7",
        "streetName": "VINE",
        "streetDirectionId": null,
        "streetTypeId": "ST",
        "placeName": "THOROLD",
        "streetNameDisplayText": "VINE ST, THOROLD"
      }
    ]
  },
  {
    "postal": "L2V2N7",
    "result": [
      {
        "electoralDistricts": [
          {
            "election": null,
            "id": 68,
            "name": "Niagara Centre"
          }
        ],
        "pollDivisionIds": [
          10139912
        ],
        "postalCode": "L2V2N7",
        "streetName": "PARKDALE",
        "streetDirectionId": null,
        "streetTypeId": "DR",
        "placeName": "THOROLD",
        "streetNameDisplayText": "PARKDALE DR, THOROLD"
      }
    ]
  },
  {
    "postal": "L2V0H8",
    "result": [
      {
        "electoralDistricts": [
          {
            "election": null,
            "id": 68,
            "name": "Niagara Centre"
          }
        ],
        "pollDivisionIds": [
          10139911
        ],
        "postalCode": "L2V0H8",
        "streetName": "JUNEBERRY",
        "streetDirectionId": null,
        "streetTypeId": "RD",
        "placeName": "THOROLD",
        "streetNameDisplayText": "JUNEBERRY RD, THOROLD"
      }
    ]
  },
  {
    "postal": "L2V7Z4",
    "result": []
  },
  {
    "postal": "L2V7B1",
    "result": []
  },
  {
    "postal": "L2V7P8",
    "result": []
  },
  {
    "postal": "L2V7N0",
    "result": []
  },
  {
    "postal": "L2V3Y5",
    "result": [
      {
        "electoralDistricts": [
          {
            "election": null,
            "id": 69,
            "name": "Niagara Falls"
          }
        ],
        "pollDivisionIds": [
          10139972
        ],
        "postalCode": "L2V3Y5",
        "streetName": "BEECHWOOD",
        "streetDirectionId": null,
        "streetTypeId": "RD",
        "placeName": "THOROLD",
        "streetNameDisplayText": "BEECHWOOD RD, THOROLD"
      },
      {
        "electoralDistricts": [
          {
            "election": null,
            "id": 68,
            "name": "Niagara Centre"
          }
        ],
        "pollDivisionIds": [
          10139915
        ],
        "postalCode": "L2V3Y5",
        "streetName": "DAVIS",
        "streetDirectionId": null,
        "streetTypeId": "RD",
        "placeName": "THOROLD",
        "streetNameDisplayText": "DAVIS RD, THOROLD"
      },
      {
        "electoralDistricts": [
          {
            "election": null,
            "id": 90,
            "name": "St. Catharines"
          }
        ],
        "pollDivisionIds": [
          10141361
        ],
        "postalCode": "L2V3Y5",
        "streetName": "GLENDALE",
        "streetDirectionId": null,
        "streetTypeId": "AVE",
        "placeName": "ST CATHARINES",
        "streetNameDisplayText": "GLENDALE AVE, ST CATHARINES"
      },
      {
        "electoralDistricts": [
          {
            "election": null,
            "id": 68,
            "name": "Niagara Centre"
          }
        ],
        "pollDivisionIds": [
          10139915
        ],
        "postalCode": "L2V3Y5",
        "streetName": "OLD THOROLD STONE",
        "streetDirectionId": null,
        "streetTypeId": "RD",
        "placeName": "THOROLD",
        "streetNameDisplayText": "OLD THOROLD STONE RD, THOROLD"
      },
      {
        "electoralDistricts": [
          {
            "election": null,
            "id": 68,
            "name": "Niagara Centre"
          }
        ],
        "pollDivisionIds": [
          10139915
        ],
        "postalCode": "L2V3Y5",
        "streetName": "THOROLD TOWNLINE",
        "streetDirectionId": "E",
        "streetTypeId": "RD",
        "placeName": "THOROLD",
        "streetNameDisplayText": "THOROLD TOWNLINE RD E, THOROLD"
      }
    ]
  },
  {
    "postal": "L2V6K1",
    "result": []
  },
  {
    "postal": "L2V9X5",
    "result": []
  },
  {
    "postal": "L2V7S5",
    "result": []
  },
  {
    "postal": "L2V0A4",
    "result": [
      {
        "electoralDistricts": [
          {
            "election": null,
            "id": 68,
            "name": "Niagara Centre"
          }
        ],
        "pollDivisionIds": [
          10139911
        ],
        "postalCode": "L2V0A4",
        "streetName": "TULIPTREE",
        "streetDirectionId": null,
        "streetTypeId": "RD",
        "placeName": "THOROLD",
        "streetNameDisplayText": "TULIPTREE RD, THOROLD"
      }
    ]
  },
  {
    "postal": "L2V4T5",
    "result": [
      {
        "electoralDistricts": [
          {
            "election": null,
            "id": 68,
            "name": "Niagara Centre"
          }
        ],
        "pollDivisionIds": [
          10139914
        ],
        "postalCode": "L2V4T5",
        "streetName": "ROMY",
        "streetDirectionId": null,
        "streetTypeId": "CRES",
        "placeName": "THOROLD",
        "streetNameDisplayText": "ROMY CRES, THOROLD"
      }
    ]
  },
  {
    "postal": "L2V5K1",
    "result": []
  },
  {
    "postal": "L2V0Z9",
    "result": []
  },
  {
    "postal": "L2V7T2",
    "result": []
  },
  {
    "postal": "L2V1L5",
    "result": [
      {
        "electoralDistricts": [
          {
            "election": null,
            "id": 68,
            "name": "Niagara Centre"
          }
        ],
        "pollDivisionIds": [
          10139915
        ],
        "postalCode": "L2V1L5",
        "streetName": "MCCORMACK",
        "streetDirectionId": null,
        "streetTypeId": "DR",
        "placeName": "THOROLD",
        "streetNameDisplayText": "MCCORMACK DR, THOROLD"
      }
    ]
  },
  {
    "postal": "L2V3N5",
    "result": [
      {
        "electoralDistricts": [
          {
            "election": null,
            "id": 68,
            "name": "Niagara Centre"
          }
        ],
        "pollDivisionIds": [
          10139909
        ],
        "postalCode": "L2V3N5",
        "streetName": "QUEEN",
        "streetDirectionId": "S",
        "streetTypeId": "ST",
        "placeName": "THOROLD",
        "streetNameDisplayText": "QUEEN ST S, THOROLD"
      }
    ]
  },
  {
    "postal": "L2V6H4",
    "result": []
  },
  {
    "postal": "L2V5A5",
    "result": [
      {
        "electoralDistricts": [
          {
            "election": null,
            "id": 68,
            "name": "Niagara Centre"
          }
        ],
        "pollDivisionIds": [
          10139912
        ],
        "postalCode": "L2V5A5",
        "streetName": "DEVINE",
        "streetDirectionId": null,
        "streetTypeId": "CRES",
        "placeName": "THOROLD",
        "streetNameDisplayText": "DEVINE CRES, THOROLD"
      }
    ]
  },
  {
    "postal": "L2V3R9",
    "result": [
      {
        "electoralDistricts": [
          {
            "election": null,
            "id": 68,
            "name": "Niagara Centre"
          }
        ],
        "pollDivisionIds": [
          10139912
        ],
        "postalCode": "L2V3R9",
        "streetName": "DELAWARE",
        "streetDirectionId": null,
        "streetTypeId": "AVE",
        "placeName": "THOROLD",
        "streetNameDisplayText": "DELAWARE AVE, THOROLD"
      }
    ]
  },
  {
    "postal": "L2V7L8",
    "result": []
  },
  {
    "postal": "L2V6T6",
    "result": []
  },
  {
    "postal": "L2V7Y7",
    "result": []
  },
  {
    "postal": "L2V3M8",
    "result": [
      {
        "electoralDistricts": [
          {
            "election": null,
            "id": 68,
            "name": "Niagara Centre"
          }
        ],
        "pollDivisionIds": [
          10139909
        ],
        "postalCode": "L2V3M8",
        "streetName": "QUEEN",
        "streetDirectionId": "S",
        "streetTypeId": "ST",
        "placeName": "THOROLD",
        "streetNameDisplayText": "QUEEN ST S, THOROLD"
      }
    ]
  },
  {
    "postal": "L2V2E0",
    "result": []
  },
  {
    "postal": "L2V4B5",
    "result": [
      {
        "electoralDistricts": [
          {
            "election": null,
            "id": 68,
            "name": "Niagara Centre"
          }
        ],
        "pollDivisionIds": [
          10139911
        ],
        "postalCode": "L2V4B5",
        "streetName": "MCCLURE",
        "streetDirectionId": null,
        "streetTypeId": "CRES",
        "placeName": "THOROLD",
        "streetNameDisplayText": "MCCLURE CRES, THOROLD"
      }
    ]
  },
  {
    "postal": "L2V1J3",
    "result": [
      {
        "electoralDistricts": [
          {
            "election": null,
            "id": 68,
            "name": "Niagara Centre"
          }
        ],
        "pollDivisionIds": [
          10139915
        ],
        "postalCode": "L2V1J3",
        "streetName": "NIAGARA FALLS",
        "streetDirectionId": null,
        "streetTypeId": "RD",
        "placeName": "THOROLD",
        "streetNameDisplayText": "NIAGARA FALLS RD, THOROLD"
      }
    ]
  },
  {
    "postal": "L2V5S6",
    "result": []
  },
  {
    "postal": "L2V8P7",
    "result": []
  },
  {
    "postal": "L2V7S7",
    "result": []
  },
  {
    "postal": "L2V4C2",
    "result": [
      {
        "electoralDistricts": [
          {
            "election": null,
            "id": 68,
            "name": "Niagara Centre"
          }
        ],
        "pollDivisionIds": [
          10139911
        ],
        "postalCode": "L2V4C2",
        "streetName": "KILLARNEY",
        "streetDirectionId": null,
        "streetTypeId": "CRES",
        "placeName": "THOROLD",
        "streetNameDisplayText": "KILLARNEY CRES, THOROLD"
      }
    ]
  },
  {
    "postal": "L2V5Y0",
    "result": []
  },
  {
    "postal": "L2V2V7",
    "result": [
      {
        "electoralDistricts": [
          {
            "election": null,
            "id": 68,
            "name": "Niagara Centre"
          }
        ],
        "pollDivisionIds": [
          10139912
        ],
        "postalCode": "L2V2V7",
        "streetName": "MUNRO",
        "streetDirectionId": null,
        "streetTypeId": "ST",
        "placeName": "THOROLD",
        "streetNameDisplayText": "MUNRO ST, THOROLD"
      }
    ]
  },
  {
    "postal": "L2V8P5",
    "result": []
  },
  {
    "postal": "L2V5P5",
    "result": []
  },
  {
    "postal": "L2V5Z0",
    "result": []
  },
  {
    "postal": "L2V9B0",
    "result": []
  },
  {
    "postal": "L2V1L0",
    "result": []
  },
  {
    "postal": "L2V0B5",
    "result": [
      {
        "electoralDistricts": [
          {
            "election": null,
            "id": 68,
            "name": "Niagara Centre"
          }
        ],
        "pollDivisionIds": [
          10139911
        ],
        "postalCode": "L2V0B5",
        "streetName": "FOX GRAPE",
        "streetDirectionId": null,
        "streetTypeId": "RD",
        "placeName": "THOROLD",
        "streetNameDisplayText": "FOX GRAPE RD, THOROLD"
      },
      {
        "electoralDistricts": [
          {
            "election": null,
            "id": 68,
            "name": "Niagara Centre"
          }
        ],
        "pollDivisionIds": [
          10139911
        ],
        "postalCode": "L2V0B5",
        "streetName": "WHITE ASH",
        "streetDirectionId": null,
        "streetTypeId": "RD",
        "placeName": "THOROLD",
        "streetNameDisplayText": "WHITE ASH RD, THOROLD"
      },
      {
        "electoralDistricts": [
          {
            "election": null,
            "id": 68,
            "name": "Niagara Centre"
          }
        ],
        "pollDivisionIds": [
          10139911
        ],
        "postalCode": "L2V0B5",
        "streetName": "WINTERBERRY",
        "streetDirectionId": null,
        "streetTypeId": "BLVD",
        "placeName": "THOROLD",
        "streetNameDisplayText": "WINTERBERRY BLVD, THOROLD"
      }
    ]
  },
  {
    "postal": "L2V3L2",
    "result": [
      {
        "electoralDistricts": [
          {
            "election": null,
            "id": 68,
            "name": "Niagara Centre"
          }
        ],
        "pollDivisionIds": [
          10139909
        ],
        "postalCode": "L2V3L2",
        "streetName": "PINE",
        "streetDirectionId": "N",
        "streetTypeId": "ST",
        "placeName": "THOROLD",
        "streetNameDisplayText": "PINE ST N, THOROLD"
      },
      {
        "electoralDistricts": [
          {
            "election": null,
            "id": 68,
            "name": "Niagara Centre"
          }
        ],
        "pollDivisionIds": [
          10139909
        ],
        "postalCode": "L2V3L2",
        "streetName": "PINE",
        "streetDirectionId": "S",
        "streetTypeId": "ST",
        "placeName": "THOROLD",
        "streetNameDisplayText": "PINE ST S, THOROLD"
      }
    ]
  },
  {
    "postal": "L2V3B7",
    "result": [
      {
        "electoralDistricts": [
          {
            "election": null,
            "id": 68,
            "name": "Niagara Centre"
          }
        ],
        "pollDivisionIds": [
          10139912
        ],
        "postalCode": "L2V3B7",
        "streetName": "ELGIN",
        "streetDirectionId": null,
        "streetTypeId": "ST",
        "placeName": "THOROLD",
        "streetNameDisplayText": "ELGIN ST, THOROLD"
      }
    ]
  },
  {
    "postal": "L2V8L1",
    "result": []
  },
  {
    "postal": "L2V5M4",
    "result": []
  },
  {
    "postal": "L2V4G9",
    "result": [
      {
        "electoralDistricts": [
          {
            "election": null,
            "id": 68,
            "name": "Niagara Centre"
          }
        ],
        "pollDivisionIds": [
          10139911
        ],
        "postalCode": "L2V4G9",
        "streetName": "LEE",
        "streetDirectionId": null,
        "streetTypeId": "CRES",
        "placeName": "THOROLD",
        "streetNameDisplayText": "LEE CRES, THOROLD"
      }
    ]
  },
  {
    "postal": "L2V0P0",
    "result": []
  },
  {
    "postal": "L2V8G2",
    "result": []
  },
  {
    "postal": "L2V1V9",
    "result": [
      {
        "electoralDistricts": [
          {
            "election": null,
            "id": 68,
            "name": "Niagara Centre"
          }
        ],
        "pollDivisionIds": [
          10139909
        ],
        "postalCode": "L2V1V9",
        "streetName": "BROCK",
        "streetDirectionId": null,
        "streetTypeId": "ST",
        "placeName": "THOROLD",
        "streetNameDisplayText": "BROCK ST, THOROLD"
      }
    ]
  },
  {
    "postal": "L2V8N8",
    "result": []
  },
  {
    "postal": "L2V6S8",
    "result": []
  },
  {
    "postal": "L2V8H2",
    "result": []
  },
  {
    "postal": "L2V5R8",
    "result": []
  },
  {
    "postal": "L2V5L4",
    "result": []
  },
  {
    "postal": "L2V9E1",
    "result": []
  },
  {
    "postal": "L2V1C4",
    "result": [
      {
        "electoralDistricts": [
          {
            "election": null,
            "id": 68,
            "name": "Niagara Centre"
          }
        ],
        "pollDivisionIds": [
          10139915
        ],
        "postalCode": "L2V1C4",
        "streetName": "MORTON",
        "streetDirectionId": null,
        "streetTypeId": "ST",
        "placeName": "THOROLD",
        "streetNameDisplayText": "MORTON ST, THOROLD"
      }
    ]
  },
  {
    "postal": "L2V8W5",
    "result": []
  },
  {
    "postal": "L2V1Y4",
    "result": [
      {
        "electoralDistricts": [
          {
            "election": null,
            "id": 68,
            "name": "Niagara Centre"
          }
        ],
        "pollDivisionIds": [
          10139913
        ],
        "postalCode": "L2V1Y4",
        "streetName": "ORMOND",
        "streetDirectionId": "S",
        "streetTypeId": "ST",
        "placeName": "THOROLD",
        "streetNameDisplayText": "ORMOND ST S, THOROLD"
      }
    ]
  },
  {
    "postal": "L2V1C0",
    "result": []
  },
  {
    "postal": "L2V2J2",
    "result": [
      {
        "electoralDistricts": [
          {
            "election": null,
            "id": 68,
            "name": "Niagara Centre"
          }
        ],
        "pollDivisionIds": [
          10139909
        ],
        "postalCode": "L2V2J2",
        "streetName": "ANN",
        "streetDirectionId": null,
        "streetTypeId": "ST",
        "placeName": "THOROLD",
        "streetNameDisplayText": "ANN ST, THOROLD"
      }
    ]
  },
  {
    "postal": "L2V2J0",
    "result": []
  },
  {
    "postal": "L2V7A3",
    "result": []
  },
  {
    "postal": "L2V8M1",
    "result": []
  },
  {
    "postal": "L2V7T9",
    "result": []
  },
  {
    "postal": "L2V6C0",
    "result": []
  },
  {
    "postal": "L2V7X1",
    "result": []
  },
  {
    "postal": "L2V0G1",
    "result": []
  },
  {
    "postal": "L2V4X2",
    "result": [
      {
        "electoralDistricts": [
          {
            "election": null,
            "id": 68,
            "name": "Niagara Centre"
          }
        ],
        "pollDivisionIds": [
          10139914
        ],
        "postalCode": "L2V4X2",
        "streetName": "RANNIE",
        "streetDirectionId": null,
        "streetTypeId": "CRT",
        "placeName": "THOROLD",
        "streetNameDisplayText": "RANNIE CRT, THOROLD"
      }
    ]
  },
  {
    "postal": "L2V0N6",
    "result": []
  },
  {
    "postal": "L2V8E3",
    "result": []
  },
  {
    "postal": "L2V5S8",
    "result": []
  },
  {
    "postal": "L2V0R0",
    "result": []
  },
  {
    "postal": "L2V6J6",
    "result": []
  },
  {
    "postal": "L2V4B4",
    "result": [
      {
        "electoralDistricts": [
          {
            "election": null,
            "id": 68,
            "name": "Niagara Centre"
          }
        ],
        "pollDivisionIds": [
          10139915
        ],
        "postalCode": "L2V4B4",
        "streetName": "DEERFIELD",
        "streetDirectionId": null,
        "streetTypeId": "PKY",
        "placeName": "THOROLD",
        "streetNameDisplayText": "DEERFIELD PKY, THOROLD"
      }
    ]
  },
  {
    "postal": "L2V7E3",
    "result": []
  },
  {
    "postal": "L2V3N6",
    "result": [
      {
        "electoralDistricts": [
          {
            "election": null,
            "id": 68,
            "name": "Niagara Centre"
          }
        ],
        "pollDivisionIds": [
          10139912
        ],
        "postalCode": "L2V3N6",
        "streetName": "QUEEN",
        "streetDirectionId": "S",
        "streetTypeId": "ST",
        "placeName": "THOROLD",
        "streetNameDisplayText": "QUEEN ST S, THOROLD"
      }
    ]
  },
  {
    "postal": "L2V3X6",
    "result": [
      {
        "electoralDistricts": [
          {
            "election": null,
            "id": 68,
            "name": "Niagara Centre"
          }
        ],
        "pollDivisionIds": [
          10139912
        ],
        "postalCode": "L2V3X6",
        "streetName": "FENTON",
        "streetDirectionId": null,
        "streetTypeId": "AVE",
        "placeName": "THOROLD",
        "streetNameDisplayText": "FENTON AVE, THOROLD"
      }
    ]
  },
  {
    "postal": "L2V8L0",
    "result": []
  },
  {
    "postal": "L2V8N1",
    "result": []
  },
  {
    "postal": "L2V4J0",
    "result": []
  },
  {
    "postal": "L2V0X7",
    "result": []
  },
  {
    "postal": "L2V6S4",
    "result": []
  },
  {
    "postal": "L2V0Z0",
    "result": []
  },
  {
    "postal": "L2V9X8",
    "result": []
  },
  {
    "postal": "L2V3H3",
    "result": [
      {
        "electoralDistricts": [
          {
            "election": null,
            "id": 68,
            "name": "Niagara Centre"
          }
        ],
        "pollDivisionIds": [
          10139912
        ],
        "postalCode": "L2V3H3",
        "streetName": "RICHMOND",
        "streetDirectionId": null,
        "streetTypeId": "ST",
        "placeName": "THOROLD",
        "streetNameDisplayText": "RICHMOND ST, THOROLD"
      }
    ]
  },
  {
    "postal": "L2V7S2",
    "result": []
  },
  {
    "postal": "L2V3T3",
    "result": [
      {
        "electoralDistricts": [
          {
            "election": null,
            "id": 68,
            "name": "Niagara Centre"
          }
        ],
        "pollDivisionIds": [
          10139914
        ],
        "postalCode": "L2V3T3",
        "streetName": "COLLIER",
        "streetDirectionId": "S",
        "streetTypeId": "RD",
        "placeName": "THOROLD",
        "streetNameDisplayText": "COLLIER RD S, THOROLD"
      }
    ]
  },
  {
    "postal": "L2V9P3",
    "result": []
  },
  {
    "postal": "L2V4H8",
    "result": [
      {
        "electoralDistricts": [
          {
            "election": null,
            "id": 68,
            "name": "Niagara Centre"
          }
        ],
        "pollDivisionIds": [
          10139911
        ],
        "postalCode": "L2V4H8",
        "streetName": "CARTIER",
        "streetDirectionId": null,
        "streetTypeId": "DR",
        "placeName": "THOROLD",
        "streetNameDisplayText": "CARTIER DR, THOROLD"
      }
    ]
  },
  {
    "postal": "L2V6R1",
    "result": []
  },
  {
    "postal": "L2V1S0",
    "result": []
  },
  {
    "postal": "L2V3W8",
    "result": [
      {
        "electoralDistricts": [
          {
            "election": null,
            "id": 68,
            "name": "Niagara Centre"
          }
        ],
        "pollDivisionIds": [
          10139913
        ],
        "postalCode": "L2V3W8",
        "streetName": "MARTIN",
        "streetDirectionId": null,
        "streetTypeId": "ST",
        "placeName": "THOROLD",
        "streetNameDisplayText": "MARTIN ST, THOROLD"
      }
    ]
  },
  {
    "postal": "L2V4S3",
    "result": [
      {
        "electoralDistricts": [
          {
            "election": null,
            "id": 68,
            "name": "Niagara Centre"
          }
        ],
        "pollDivisionIds": [
          10139914
        ],
        "postalCode": "L2V4S3",
        "streetName": "CAPRI",
        "streetDirectionId": null,
        "streetTypeId": "ST",
        "placeName": "THOROLD",
        "streetNameDisplayText": "CAPRI ST, THOROLD"
      }
    ]
  },
  {
    "postal": "L2V1B6",
    "result": [
      {
        "electoralDistricts": [
          {
            "election": null,
            "id": 68,
            "name": "Niagara Centre"
          }
        ],
        "pollDivisionIds": [
          10139915
        ],
        "postalCode": "L2V1B6",
        "streetName": "PILKINGTON",
        "streetDirectionId": null,
        "streetTypeId": "ST",
        "placeName": "THOROLD",
        "streetNameDisplayText": "PILKINGTON ST, THOROLD"
      }
    ]
  },
  {
    "postal": "L2V8R3",
    "result": []
  },
  {
    "postal": "L2V4V9",
    "result": [
      {
        "electoralDistricts": [
          {
            "election": null,
            "id": 68,
            "name": "Niagara Centre"
          }
        ],
        "pollDivisionIds": [
          10139914
        ],
        "postalCode": "L2V4V9",
        "streetName": "CAPRI",
        "streetDirectionId": null,
        "streetTypeId": "ST",
        "placeName": "THOROLD",
        "streetNameDisplayText": "CAPRI ST, THOROLD"
      }
    ]
  },
  {
    "postal": "L2V9W4",
    "result": []
  },
  {
    "postal": "L2V3T4",
    "result": [
      {
        "electoralDistricts": [
          {
            "election": null,
            "id": 68,
            "name": "Niagara Centre"
          }
        ],
        "pollDivisionIds": [
          10139912
        ],
        "postalCode": "L2V3T4",
        "streetName": "COLLIER",
        "streetDirectionId": "S",
        "streetTypeId": "RD",
        "placeName": "THOROLD",
        "streetNameDisplayText": "COLLIER RD S, THOROLD"
      }
    ]
  },
  {
    "postal": "L2V5C7",
    "result": [
      {
        "electoralDistricts": [
          {
            "election": null,
            "id": 68,
            "name": "Niagara Centre"
          }
        ],
        "pollDivisionIds": [
          10139912
        ],
        "postalCode": "L2V5C7",
        "streetName": "NATALIE",
        "streetDirectionId": null,
        "streetTypeId": "CRT",
        "placeName": "THOROLD",
        "streetNameDisplayText": "NATALIE CRT, THOROLD"
      },
      {
        "electoralDistricts": [
          {
            "election": null,
            "id": 68,
            "name": "Niagara Centre"
          }
        ],
        "pollDivisionIds": [
          10139912
        ],
        "postalCode": "L2V5C7",
        "streetName": "SUMMERS",
        "streetDirectionId": null,
        "streetTypeId": "DR",
        "placeName": "THOROLD",
        "streetNameDisplayText": "SUMMERS DR, THOROLD"
      }
    ]
  },
  {
    "postal": "L2V3Y1",
    "result": [
      {
        "electoralDistricts": [
          {
            "election": null,
            "id": 68,
            "name": "Niagara Centre"
          }
        ],
        "pollDivisionIds": [
          10139913
        ],
        "postalCode": "L2V3Y1",
        "streetName": "BEAVERDAMS",
        "streetDirectionId": null,
        "streetTypeId": "RD",
        "placeName": "THOROLD",
        "streetNameDisplayText": "BEAVERDAMS RD, THOROLD"
      }
    ]
  },
  {
    "postal": "L2V5V0",
    "result": []
  },
  {
    "postal": "L2V8G8",
    "result": []
  },
  {
    "postal": "L2V8B1",
    "result": []
  },
  {
    "postal": "L2V4P5",
    "result": [
      {
        "electoralDistricts": [
          {
            "election": null,
            "id": 68,
            "name": "Niagara Centre"
          }
        ],
        "pollDivisionIds": [
          10139914
        ],
        "postalCode": "L2V4P5",
        "streetName": "COMMERFORD",
        "streetDirectionId": null,
        "streetTypeId": "ST",
        "placeName": "THOROLD",
        "streetNameDisplayText": "COMMERFORD ST, THOROLD"
      }
    ]
  },
  {
    "postal": "L2V7B2",
    "result": []
  },
  {
    "postal": "L2V0R2",
    "result": []
  },
  {
    "postal": "L2V4M4",
    "result": [
      {
        "electoralDistricts": [
          {
            "election": null,
            "id": 68,
            "name": "Niagara Centre"
          }
        ],
        "pollDivisionIds": [
          10139914
        ],
        "postalCode": "L2V4M4",
        "streetName": "COMMERFORD",
        "streetDirectionId": null,
        "streetTypeId": "ST",
        "placeName": "THOROLD",
        "streetNameDisplayText": "COMMERFORD ST, THOROLD"
      }
    ]
  },
  {
    "postal": "L2V7M4",
    "result": []
  },
  {
    "postal": "L2V9S7",
    "result": []
  },
  {
    "postal": "L2V5Z7",
    "result": []
  },
  {
    "postal": "L2V7J7",
    "result": []
  },
  {
    "postal": "L2V8R8",
    "result": []
  },
  {
    "postal": "L2V9X1",
    "result": []
  },
  {
    "postal": "L2V5M9",
    "result": []
  },
  {
    "postal": "L2V9B4",
    "result": []
  },
  {
    "postal": "L2V0L9",
    "result": []
  },
  {
    "postal": "L2V9G4",
    "result": []
  },
  {
    "postal": "L2V1J4",
    "result": []
  },
  {
    "postal": "L2V0W6",
    "result": []
  }
]
