[
  {
    "postal": "L8E9J6",
    "result": []
  },
  {
    "postal": "L8E9Z5",
    "result": []
  },
  {
    "postal": "L8E7H8",
    "result": []
  },
  {
    "postal": "L8E0P6",
    "result": []
  },
  {
    "postal": "L8E0S7",
    "result": []
  },
  {
    "postal": "L8E8B9",
    "result": []
  },
  {
    "postal": "L8E2A6",
    "result": [
      {
        "electoralDistricts": [
          {
            "election": null,
            "id": 37,
            "name": "Hamilton East—Stoney Creek"
          }
        ],
        "pollDivisionIds": [
          10138661
        ],
        "postalCode": "L8E2A6",
        "streetName": "GREEN",
        "streetDirectionId": null,
        "streetTypeId": "RD",
        "placeName": "STONEY CREEK",
        "streetNameDisplayText": "GREEN RD, STONEY CREEK"
      }
    ]
  },
  {
    "postal": "L8E7V2",
    "result": []
  },
  {
    "postal": "L8E9P4",
    "result": []
  },
  {
    "postal": "L8E6G0",
    "result": []
  },
  {
    "postal": "L8E2K0",
    "result": []
  },
  {
    "postal": "L8E7N6",
    "result": []
  },
  {
    "postal": "L8E5R3",
    "result": [
      {
        "electoralDistricts": [
          {
            "election": null,
            "id": 37,
            "name": "Hamilton East—Stoney Creek"
          }
        ],
        "pollDivisionIds": [
          10138663
        ],
        "postalCode": "L8E5R3",
        "streetName": "ARVIN",
        "streetDirectionId": null,
        "streetTypeId": "AVE",
        "placeName": "STONEY CREEK",
        "streetNameDisplayText": "ARVIN AVE, STONEY CREEK"
      }
    ]
  },
  {
    "postal": "L8E7K0",
    "result": []
  },
  {
    "postal": "L8E3R2",
    "result": []
  },
  {
    "postal": "L8E0J1",
    "result": []
  },
  {
    "postal": "L8E0B0",
    "result": []
  },
  {
    "postal": "L8E5Z2",
    "result": [
      {
        "electoralDistricts": [
          {
            "election": null,
            "id": 37,
            "name": "Hamilton East—Stoney Creek"
          }
        ],
        "pollDivisionIds": [
          10138663
        ],
        "postalCode": "L8E5Z2",
        "streetName": "SOUTH SERVICE",
        "streetDirectionId": null,
        "streetTypeId": "RD",
        "placeName": "STONEY CREEK",
        "streetNameDisplayText": "SOUTH SERVICE RD, STONEY CREEK"
      }
    ]
  },
  {
    "postal": "L8E7P3",
    "result": []
  },
  {
    "postal": "L8E2K3",
    "result": [
      {
        "electoralDistricts": [
          {
            "election": null,
            "id": 37,
            "name": "Hamilton East—Stoney Creek"
          }
        ],
        "pollDivisionIds": [
          10138650
        ],
        "postalCode": "L8E2K3",
        "streetName": "BARTON",
        "streetDirectionId": null,
        "streetTypeId": "ST",
        "placeName": "STONEY CREEK",
        "streetNameDisplayText": "BARTON ST, STONEY CREEK"
      }
    ]
  },
  {
    "postal": "L8E7Y6",
    "result": []
  },
  {
    "postal": "L8E1L9",
    "result": [
      {
        "electoralDistricts": [
          {
            "election": null,
            "id": 37,
            "name": "Hamilton East—Stoney Creek"
          }
        ],
        "pollDivisionIds": [
          10138659
        ],
        "postalCode": "L8E1L9",
        "streetName": "HONEYWELL",
        "streetDirectionId": null,
        "streetTypeId": "DR",
        "placeName": "HAMILTON",
        "streetNameDisplayText": "HONEYWELL DR, HAMILTON"
      }
    ]
  },
  {
    "postal": "L8E8T0",
    "result": []
  },
  {
    "postal": "L8E3K8",
    "result": [
      {
        "electoralDistricts": [
          {
            "election": null,
            "id": 37,
            "name": "Hamilton East—Stoney Creek"
          }
        ],
        "pollDivisionIds": [
          10138649
        ],
        "postalCode": "L8E3K8",
        "streetName": "AMY",
        "streetDirectionId": null,
        "streetTypeId": "LANE",
        "placeName": "HAMILTON",
        "streetNameDisplayText": "AMY LANE, HAMILTON"
      }
    ]
  },
  {
    "postal": "L8E5W9",
    "result": [
      {
        "electoralDistricts": [
          {
            "election": null,
            "id": 37,
            "name": "Hamilton East—Stoney Creek"
          }
        ],
        "pollDivisionIds": [
          10138643
        ],
        "postalCode": "L8E5W9",
        "streetName": "FRANCES",
        "streetDirectionId": null,
        "streetTypeId": "AVE",
        "placeName": "STONEY CREEK",
        "streetNameDisplayText": "FRANCES AVE, STONEY CREEK"
      }
    ]
  },
  {
    "postal": "L8E6T9",
    "result": []
  },
  {
    "postal": "L8E4H1",
    "result": []
  },
  {
    "postal": "L8E7A2",
    "result": []
  },
  {
    "postal": "L8E5G0",
    "result": []
  },
  {
    "postal": "L8E8V5",
    "result": []
  },
  {
    "postal": "L8E2Y8",
    "result": [
      {
        "electoralDistricts": [
          {
            "election": null,
            "id": 37,
            "name": "Hamilton East—Stoney Creek"
          }
        ],
        "pollDivisionIds": [
          10138650
        ],
        "postalCode": "L8E2Y8",
        "streetName": "GARDEN",
        "streetDirectionId": null,
        "streetTypeId": "AVE",
        "placeName": "STONEY CREEK",
        "streetNameDisplayText": "GARDEN AVE, STONEY CREEK"
      }
    ]
  },
  {
    "postal": "L8E2B6",
    "result": [
      {
        "electoralDistricts": [
          {
            "election": null,
            "id": 37,
            "name": "Hamilton East—Stoney Creek"
          }
        ],
        "pollDivisionIds": [
          10138662
        ],
        "postalCode": "L8E2B6",
        "streetName": "FEDERAL",
        "streetDirectionId": null,
        "streetTypeId": "ST",
        "placeName": "STONEY CREEK",
        "streetNameDisplayText": "FEDERAL ST, STONEY CREEK"
      }
    ]
  },
  {
    "postal": "L8E4W8",
    "result": [
      {
        "electoralDistricts": [
          {
            "election": null,
            "id": 37,
            "name": "Hamilton East—Stoney Creek"
          }
        ],
        "pollDivisionIds": [
          10138648
        ],
        "postalCode": "L8E4W8",
        "streetName": "KEEFER",
        "streetDirectionId": null,
        "streetTypeId": "CRT",
        "placeName": "HAMILTON",
        "streetNameDisplayText": "KEEFER CRT, HAMILTON"
      }
    ]
  },
  {
    "postal": "L8E8H7",
    "result": []
  },
  {
    "postal": "L8E5P1",
    "result": [
      {
        "electoralDistricts": [
          {
            "election": null,
            "id": 37,
            "name": "Hamilton East—Stoney Creek"
          }
        ],
        "pollDivisionIds": [
          10138663
        ],
        "postalCode": "L8E5P1",
        "streetName": "ARVIN",
        "streetDirectionId": null,
        "streetTypeId": "AVE",
        "placeName": "STONEY CREEK",
        "streetNameDisplayText": "ARVIN AVE, STONEY CREEK"
      }
    ]
  },
  {
    "postal": "L8E2B8",
    "result": [
      {
        "electoralDistricts": [
          {
            "election": null,
            "id": 37,
            "name": "Hamilton East—Stoney Creek"
          }
        ],
        "pollDivisionIds": [
          10138662
        ],
        "postalCode": "L8E2B8",
        "streetName": "FEDERAL",
        "streetDirectionId": null,
        "streetTypeId": "ST",
        "placeName": "STONEY CREEK",
        "streetNameDisplayText": "FEDERAL ST, STONEY CREEK"
      }
    ]
  },
  {
    "postal": "L8E0P2",
    "result": []
  },
  {
    "postal": "L8E9M1",
    "result": []
  },
  {
    "postal": "L8E3G0",
    "result": []
  },
  {
    "postal": "L8E9Z2",
    "result": []
  },
  {
    "postal": "L8E2A0",
    "result": []
  },
  {
    "postal": "L8E6Y0",
    "result": []
  },
  {
    "postal": "L8E2Z8",
    "result": []
  },
  {
    "postal": "L8E7Y3",
    "result": []
  },
  {
    "postal": "L8E6Z5",
    "result": []
  },
  {
    "postal": "L8E6E0",
    "result": []
  },
  {
    "postal": "L8E9B7",
    "result": []
  },
  {
    "postal": "L8E9S5",
    "result": []
  },
  {
    "postal": "L8E3X3",
    "result": [
      {
        "electoralDistricts": [
          {
            "election": null,
            "id": 37,
            "name": "Hamilton East—Stoney Creek"
          }
        ],
        "pollDivisionIds": [
          10138650
        ],
        "postalCode": "L8E3X3",
        "streetName": "LORING",
        "streetDirectionId": null,
        "streetTypeId": "CRES",
        "placeName": "STONEY CREEK",
        "streetNameDisplayText": "LORING CRES, STONEY CREEK"
      }
    ]
  },
  {
    "postal": "L8E7R5",
    "result": []
  },
  {
    "postal": "L8E2X3",
    "result": [
      {
        "electoralDistricts": [
          {
            "election": null,
            "id": 37,
            "name": "Hamilton East—Stoney Creek"
          }
        ],
        "pollDivisionIds": [
          10138648
        ],
        "postalCode": "L8E2X3",
        "streetName": "CENTENNIAL",
        "streetDirectionId": "N",
        "streetTypeId": "PKY",
        "placeName": "HAMILTON",
        "streetNameDisplayText": "CENTENNIAL PKY N, HAMILTON"
      }
    ]
  },
  {
    "postal": "L8E8Z9",
    "result": []
  },
  {
    "postal": "L8E0N4",
    "result": []
  },
  {
    "postal": "L8E1K1",
    "result": [
      {
        "electoralDistricts": [
          {
            "election": null,
            "id": 37,
            "name": "Hamilton East—Stoney Creek"
          }
        ],
        "pollDivisionIds": [
          10138649
        ],
        "postalCode": "L8E1K1",
        "streetName": "RIVERDALE",
        "streetDirectionId": null,
        "streetTypeId": "DR",
        "placeName": "HAMILTON",
        "streetNameDisplayText": "RIVERDALE DR, HAMILTON"
      }
    ]
  },
  {
    "postal": "L8E1S3",
    "result": [
      {
        "electoralDistricts": [
          {
            "election": null,
            "id": 37,
            "name": "Hamilton East—Stoney Creek"
          }
        ],
        "pollDivisionIds": [
          10138662
        ],
        "postalCode": "L8E1S3",
        "streetName": "CEDARDALE",
        "streetDirectionId": null,
        "streetTypeId": "AVE",
        "placeName": "STONEY CREEK",
        "streetNameDisplayText": "CEDARDALE AVE, STONEY CREEK"
      }
    ]
  },
  {
    "postal": "L8E6M4",
    "result": []
  },
  {
    "postal": "L8E9A9",
    "result": []
  },
  {
    "postal": "L8E9Z9",
    "result": []
  },
  {
    "postal": "L8E6T4",
    "result": []
  },
  {
    "postal": "L8E0B2",
    "result": [
      {
        "electoralDistricts": [
          {
            "election": null,
            "id": 37,
            "name": "Hamilton East—Stoney Creek"
          }
        ],
        "pollDivisionIds": [
          10138651
        ],
        "postalCode": "L8E0B2",
        "streetName": "SEDGEBROOK",
        "streetDirectionId": null,
        "streetTypeId": "AVE",
        "placeName": "STONEY CREEK",
        "streetNameDisplayText": "SEDGEBROOK AVE, STONEY CREEK"
      },
      {
        "electoralDistricts": [
          {
            "election": null,
            "id": 37,
            "name": "Hamilton East—Stoney Creek"
          }
        ],
        "pollDivisionIds": [
          10138651
        ],
        "postalCode": "L8E0B2",
        "streetName": "SPRINGSTEAD",
        "streetDirectionId": null,
        "streetTypeId": "AVE",
        "placeName": "STONEY CREEK",
        "streetNameDisplayText": "SPRINGSTEAD AVE, STONEY CREEK"
      }
    ]
  },
  {
    "postal": "L8E2L9",
    "result": [
      {
        "electoralDistricts": [
          {
            "election": null,
            "id": 37,
            "name": "Hamilton East—Stoney Creek"
          }
        ],
        "pollDivisionIds": [
          10138650
        ],
        "postalCode": "L8E2L9",
        "streetName": "ARVIN",
        "streetDirectionId": null,
        "streetTypeId": "AVE",
        "placeName": "STONEY CREEK",
        "streetNameDisplayText": "ARVIN AVE, STONEY CREEK"
      }
    ]
  },
  {
    "postal": "L8E8K9",
    "result": []
  },
  {
    "postal": "L8E2H9",
    "result": [
      {
        "electoralDistricts": [
          {
            "election": null,
            "id": 37,
            "name": "Hamilton East—Stoney Creek"
          }
        ],
        "pollDivisionIds": [
          10138662
        ],
        "postalCode": "L8E2H9",
        "streetName": "MARGARET",
        "streetDirectionId": null,
        "streetTypeId": "AVE",
        "placeName": "STONEY CREEK",
        "streetNameDisplayText": "MARGARET AVE, STONEY CREEK"
      }
    ]
  },
  {
    "postal": "L8E3Z6",
    "result": [
      {
        "electoralDistricts": [
          {
            "election": null,
            "id": 37,
            "name": "Hamilton East—Stoney Creek"
          }
        ],
        "pollDivisionIds": [
          10138650
        ],
        "postalCode": "L8E3Z6",
        "streetName": "MACINTOSH",
        "streetDirectionId": null,
        "streetTypeId": "DR",
        "placeName": "STONEY CREEK",
        "streetNameDisplayText": "MACINTOSH DR, STONEY CREEK"
      }
    ]
  },
  {
    "postal": "L8E3B0",
    "result": []
  },
  {
    "postal": "L8E2H8",
    "result": [
      {
        "electoralDistricts": [
          {
            "election": null,
            "id": 37,
            "name": "Hamilton East—Stoney Creek"
          }
        ],
        "pollDivisionIds": [
          10138662
        ],
        "postalCode": "L8E2H8",
        "streetName": "MARGARET",
        "streetDirectionId": null,
        "streetTypeId": "AVE",
        "placeName": "STONEY CREEK",
        "streetNameDisplayText": "MARGARET AVE, STONEY CREEK"
      }
    ]
  },
  {
    "postal": "L8E3X2",
    "result": [
      {
        "electoralDistricts": [
          {
            "election": null,
            "id": 37,
            "name": "Hamilton East—Stoney Creek"
          }
        ],
        "pollDivisionIds": [
          10138650
        ],
        "postalCode": "L8E3X2",
        "streetName": "LORING",
        "streetDirectionId": null,
        "streetTypeId": "CRES",
        "placeName": "STONEY CREEK",
        "streetNameDisplayText": "LORING CRES, STONEY CREEK"
      }
    ]
  },
  {
    "postal": "L8E2E9",
    "result": [
      {
        "electoralDistricts": [
          {
            "election": null,
            "id": 37,
            "name": "Hamilton East—Stoney Creek"
          }
        ],
        "pollDivisionIds": [
          10138662
        ],
        "postalCode": "L8E2E9",
        "streetName": "WORSLEY",
        "streetDirectionId": null,
        "streetTypeId": "RD",
        "placeName": "STONEY CREEK",
        "streetNameDisplayText": "WORSLEY RD, STONEY CREEK"
      }
    ]
  },
  {
    "postal": "L8E9P6",
    "result": []
  },
  {
    "postal": "L8E9E2",
    "result": []
  },
  {
    "postal": "L8E9H2",
    "result": []
  },
  {
    "postal": "L8E1S8",
    "result": [
      {
        "electoralDistricts": [
          {
            "election": null,
            "id": 37,
            "name": "Hamilton East—Stoney Creek"
          }
        ],
        "pollDivisionIds": [
          10138661
        ],
        "postalCode": "L8E1S8",
        "streetName": "ROXBOROUGH",
        "streetDirectionId": null,
        "streetTypeId": "AVE",
        "placeName": "STONEY CREEK",
        "streetNameDisplayText": "ROXBOROUGH AVE, STONEY CREEK"
      }
    ]
  },
  {
    "postal": "L8E3M6",
    "result": [
      {
        "electoralDistricts": [
          {
            "election": null,
            "id": 37,
            "name": "Hamilton East—Stoney Creek"
          }
        ],
        "pollDivisionIds": [
          10138670
        ],
        "postalCode": "L8E3M6",
        "streetName": "GREEN",
        "streetDirectionId": null,
        "streetTypeId": "RD",
        "placeName": "STONEY CREEK",
        "streetNameDisplayText": "GREEN RD, STONEY CREEK"
      }
    ]
  },
  {
    "postal": "L8E6Z8",
    "result": []
  },
  {
    "postal": "L8E4J2",
    "result": [
      {
        "electoralDistricts": [
          {
            "election": null,
            "id": 37,
            "name": "Hamilton East—Stoney Creek"
          }
        ],
        "pollDivisionIds": [
          10138662
        ],
        "postalCode": "L8E4J2",
        "streetName": "HEMLOCK",
        "streetDirectionId": null,
        "streetTypeId": "AVE",
        "placeName": "STONEY CREEK",
        "streetNameDisplayText": "HEMLOCK AVE, STONEY CREEK"
      }
    ]
  },
  {
    "postal": "L8E9Y1",
    "result": []
  },
  {
    "postal": "L8E8V6",
    "result": []
  },
  {
    "postal": "L8E6B2",
    "result": [
      {
        "electoralDistricts": [
          {
            "election": null,
            "id": 37,
            "name": "Hamilton East—Stoney Creek"
          }
        ],
        "pollDivisionIds": [
          10138669
        ],
        "postalCode": "L8E6B2",
        "streetName": "CONSTELLATION",
        "streetDirectionId": null,
        "streetTypeId": "DR",
        "placeName": "STONEY CREEK",
        "streetNameDisplayText": "CONSTELLATION DR, STONEY CREEK"
      }
    ]
  },
  {
    "postal": "L8E1P8",
    "result": [
      {
        "electoralDistricts": [
          {
            "election": null,
            "id": 37,
            "name": "Hamilton East—Stoney Creek"
          }
        ],
        "pollDivisionIds": [
          10138662
        ],
        "postalCode": "L8E1P8",
        "streetName": "FEDERAL",
        "streetDirectionId": null,
        "streetTypeId": "ST",
        "placeName": "STONEY CREEK",
        "streetNameDisplayText": "FEDERAL ST, STONEY CREEK"
      }
    ]
  },
  {
    "postal": "L8E0V8",
    "result": []
  },
  {
    "postal": "L8E4Y0",
    "result": []
  },
  {
    "postal": "L8E2T4",
    "result": [
      {
        "electoralDistricts": [
          {
            "election": null,
            "id": 37,
            "name": "Hamilton East—Stoney Creek"
          }
        ],
        "pollDivisionIds": [
          10138663
        ],
        "postalCode": "L8E2T4",
        "streetName": "HEWITSON",
        "streetDirectionId": null,
        "streetTypeId": "RD",
        "placeName": "STONEY CREEK",
        "streetNameDisplayText": "HEWITSON RD, STONEY CREEK"
      }
    ]
  },
  {
    "postal": "L8E2S3",
    "result": [
      {
        "electoralDistricts": [
          {
            "election": null,
            "id": 37,
            "name": "Hamilton East—Stoney Creek"
          }
        ],
        "pollDivisionIds": [
          10138659
        ],
        "postalCode": "L8E2S3",
        "streetName": "FAIRHOLME",
        "streetDirectionId": null,
        "streetTypeId": "CRT",
        "placeName": "HAMILTON",
        "streetNameDisplayText": "FAIRHOLME CRT, HAMILTON"
      }
    ]
  },
  {
    "postal": "L8E0K0",
    "result": []
  },
  {
    "postal": "L8E5N1",
    "result": [
      {
        "electoralDistricts": [
          {
            "election": null,
            "id": 37,
            "name": "Hamilton East—Stoney Creek"
          }
        ],
        "pollDivisionIds": [
          10138663
        ],
        "postalCode": "L8E5N1",
        "streetName": "ARVIN",
        "streetDirectionId": null,
        "streetTypeId": "AVE",
        "placeName": "STONEY CREEK",
        "streetNameDisplayText": "ARVIN AVE, STONEY CREEK"
      },
      {
        "electoralDistricts": [
          {
            "election": null,
            "id": 37,
            "name": "Hamilton East—Stoney Creek"
          }
        ],
        "pollDivisionIds": [
          10138663
        ],
        "postalCode": "L8E5N1",
        "streetName": "KENMORE",
        "streetDirectionId": null,
        "streetTypeId": "AVE",
        "placeName": "STONEY CREEK",
        "streetNameDisplayText": "KENMORE AVE, STONEY CREEK"
      }
    ]
  },
  {
    "postal": "L8E7T0",
    "result": []
  },
  {
    "postal": "L8E9N2",
    "result": []
  },
  {
    "postal": "L8E5L1",
    "result": [
      {
        "electoralDistricts": [
          {
            "election": null,
            "id": 37,
            "name": "Hamilton East—Stoney Creek"
          }
        ],
        "pollDivisionIds": [
          10138669
        ],
        "postalCode": "L8E5L1",
        "streetName": "BARTON",
        "streetDirectionId": null,
        "streetTypeId": "ST",
        "placeName": "STONEY CREEK",
        "streetNameDisplayText": "BARTON ST, STONEY CREEK"
      },
      {
        "electoralDistricts": [
          {
            "election": null,
            "id": 37,
            "name": "Hamilton East—Stoney Creek"
          }
        ],
        "pollDivisionIds": [
          10138669
        ],
        "postalCode": "L8E5L1",
        "streetName": "FIFTY",
        "streetDirectionId": null,
        "streetTypeId": "RD",
        "placeName": "STONEY CREEK",
        "streetNameDisplayText": "FIFTY RD, STONEY CREEK"
      }
    ]
  },
  {
    "postal": "L8E7G5",
    "result": []
  },
  {
    "postal": "L8E6K2",
    "result": []
  },
  {
    "postal": "L8E6P9",
    "result": []
  },
  {
    "postal": "L8E0E6",
    "result": [
      {
        "electoralDistricts": [
          {
            "election": null,
            "id": 37,
            "name": "Hamilton East—Stoney Creek"
          }
        ],
        "pollDivisionIds": [
          10138663
        ],
        "postalCode": "L8E0E6",
        "streetName": "DUPONT",
        "streetDirectionId": null,
        "streetTypeId": "ST",
        "placeName": "STONEY CREEK",
        "streetNameDisplayText": "DUPONT ST, STONEY CREEK"
      }
    ]
  },
  {
    "postal": "L8E8R9",
    "result": []
  },
  {
    "postal": "L8E3G9",
    "result": [
      {
        "electoralDistricts": [
          {
            "election": null,
            "id": 37,
            "name": "Hamilton East—Stoney Creek"
          }
        ],
        "pollDivisionIds": [
          10138674
        ],
        "postalCode": "L8E3G9",
        "streetName": "JEROME",
        "streetDirectionId": null,
        "streetTypeId": "CRES",
        "placeName": "HAMILTON",
        "streetNameDisplayText": "JEROME CRES, HAMILTON"
      }
    ]
  },
  {
    "postal": "L8E0V7",
    "result": []
  },
  {
    "postal": "L8E2Z1",
    "result": [
      {
        "electoralDistricts": [
          {
            "election": null,
            "id": 37,
            "name": "Hamilton East—Stoney Creek"
          }
        ],
        "pollDivisionIds": [
          10138659
        ],
        "postalCode": "L8E2Z1",
        "streetName": "GRAYS",
        "streetDirectionId": null,
        "streetTypeId": "RD",
        "placeName": "HAMILTON",
        "streetNameDisplayText": "GRAYS RD, HAMILTON"
      }
    ]
  },
  {
    "postal": "L8E7N1",
    "result": []
  },
  {
    "postal": "L8E3C6",
    "result": [
      {
        "electoralDistricts": [
          {
            "election": null,
            "id": 37,
            "name": "Hamilton East—Stoney Creek"
          }
        ],
        "pollDivisionIds": [
          10138659
        ],
        "postalCode": "L8E3C6",
        "streetName": "BURFORD",
        "streetDirectionId": null,
        "streetTypeId": "RD",
        "placeName": "HAMILTON",
        "streetNameDisplayText": "BURFORD RD, HAMILTON"
      },
      {
        "electoralDistricts": [
          {
            "election": null,
            "id": 37,
            "name": "Hamilton East—Stoney Creek"
          }
        ],
        "pollDivisionIds": [
          10138663
        ],
        "postalCode": "L8E3C6",
        "streetName": "DEWITT",
        "streetDirectionId": null,
        "streetTypeId": "RD",
        "placeName": "STONEY CREEK",
        "streetNameDisplayText": "DEWITT RD, STONEY CREEK"
      }
    ]
  },
  {
    "postal": "L8E4M1",
    "result": [
      {
        "electoralDistricts": [
          {
            "election": null,
            "id": 37,
            "name": "Hamilton East—Stoney Creek"
          }
        ],
        "pollDivisionIds": [
          10138650
        ],
        "postalCode": "L8E4M1",
        "streetName": "GREENFIELDS",
        "streetDirectionId": null,
        "streetTypeId": "AVE",
        "placeName": "STONEY CREEK",
        "streetNameDisplayText": "GREENFIELDS AVE, STONEY CREEK"
      }
    ]
  },
  {
    "postal": "L8E9K2",
    "result": []
  },
  {
    "postal": "L8E9S6",
    "result": []
  },
  {
    "postal": "L8E4X1",
    "result": [
      {
        "electoralDistricts": [
          {
            "election": null,
            "id": 37,
            "name": "Hamilton East—Stoney Creek"
          }
        ],
        "pollDivisionIds": [
          10138643
        ],
        "postalCode": "L8E4X1",
        "streetName": "SUNNYSIDE",
        "streetDirectionId": null,
        "streetTypeId": "AVE",
        "placeName": "STONEY CREEK",
        "streetNameDisplayText": "SUNNYSIDE AVE, STONEY CREEK"
      }
    ]
  },
  {
    "postal": "L8E8W2",
    "result": []
  },
  {
    "postal": "L8E7N2",
    "result": []
  },
  {
    "postal": "L8E8S3",
    "result": []
  },
  {
    "postal": "L8E4V0",
    "result": []
  },
  {
    "postal": "L8E6W4",
    "result": []
  },
  {
    "postal": "L8E5M1",
    "result": [
      {
        "electoralDistricts": [
          {
            "election": null,
            "id": 37,
            "name": "Hamilton East—Stoney Creek"
          }
        ],
        "pollDivisionIds": [
          10138663
        ],
        "postalCode": "L8E5M1",
        "streetName": "FRUITLAND",
        "streetDirectionId": null,
        "streetTypeId": "RD",
        "placeName": "STONEY CREEK",
        "streetNameDisplayText": "FRUITLAND RD, STONEY CREEK"
      }
    ]
  },
  {
    "postal": "L8E0S4",
    "result": []
  },
  {
    "postal": "L8E5X6",
    "result": [
      {
        "electoralDistricts": [
          {
            "election": null,
            "id": 37,
            "name": "Hamilton East—Stoney Creek"
          }
        ],
        "pollDivisionIds": [
          10138643
        ],
        "postalCode": "L8E5X6",
        "streetName": "NORTH SERVICE",
        "streetDirectionId": null,
        "streetTypeId": "RD",
        "placeName": "STONEY CREEK",
        "streetNameDisplayText": "NORTH SERVICE RD, STONEY CREEK"
      }
    ]
  },
  {
    "postal": "L8E8L5",
    "result": []
  },
  {
    "postal": "L8E5M8",
    "result": [
      {
        "electoralDistricts": [
          {
            "election": null,
            "id": 37,
            "name": "Hamilton East—Stoney Creek"
          }
        ],
        "pollDivisionIds": [
          10138663
        ],
        "postalCode": "L8E5M8",
        "streetName": "ARVIN",
        "streetDirectionId": null,
        "streetTypeId": "AVE",
        "placeName": "STONEY CREEK",
        "streetNameDisplayText": "ARVIN AVE, STONEY CREEK"
      },
      {
        "electoralDistricts": [
          {
            "election": null,
            "id": 37,
            "name": "Hamilton East—Stoney Creek"
          }
        ],
        "pollDivisionIds": [
          10138663
        ],
        "postalCode": "L8E5M8",
        "streetName": "FRUITLAND",
        "streetDirectionId": null,
        "streetTypeId": "RD",
        "placeName": "STONEY CREEK",
        "streetNameDisplayText": "FRUITLAND RD, STONEY CREEK"
      }
    ]
  },
  {
    "postal": "L8E2G3",
    "result": [
      {
        "electoralDistricts": [
          {
            "election": null,
            "id": 37,
            "name": "Hamilton East—Stoney Creek"
          }
        ],
        "pollDivisionIds": [
          10138650
        ],
        "postalCode": "L8E2G3",
        "streetName": "WORSLEY",
        "streetDirectionId": null,
        "streetTypeId": "RD",
        "placeName": "STONEY CREEK",
        "streetNameDisplayText": "WORSLEY RD, STONEY CREEK"
      }
    ]
  },
  {
    "postal": "L8E8E4",
    "result": []
  },
  {
    "postal": "L8E7S9",
    "result": []
  },
  {
    "postal": "L8E1K3",
    "result": [
      {
        "electoralDistricts": [
          {
            "election": null,
            "id": 37,
            "name": "Hamilton East—Stoney Creek"
          }
        ],
        "pollDivisionIds": [
          10138649
        ],
        "postalCode": "L8E1K3",
        "streetName": "RIVERDALE",
        "streetDirectionId": null,
        "streetTypeId": "DR",
        "placeName": "HAMILTON",
        "streetNameDisplayText": "RIVERDALE DR, HAMILTON"
      }
    ]
  },
  {
    "postal": "L8E4E1",
    "result": [
      {
        "electoralDistricts": [
          {
            "election": null,
            "id": 37,
            "name": "Hamilton East—Stoney Creek"
          }
        ],
        "pollDivisionIds": [
          10138650
        ],
        "postalCode": "L8E4E1",
        "streetName": "MACINTOSH",
        "streetDirectionId": null,
        "streetTypeId": "DR",
        "placeName": "STONEY CREEK",
        "streetNameDisplayText": "MACINTOSH DR, STONEY CREEK"
      }
    ]
  },
  {
    "postal": "L8E4R2",
    "result": [
      {
        "electoralDistricts": [
          {
            "election": null,
            "id": 37,
            "name": "Hamilton East—Stoney Creek"
          }
        ],
        "pollDivisionIds": [
          10138649
        ],
        "postalCode": "L8E4R2",
        "streetName": "STRAWBERRY",
        "streetDirectionId": null,
        "streetTypeId": "DR",
        "placeName": "HAMILTON",
        "streetNameDisplayText": "STRAWBERRY DR, HAMILTON"
      }
    ]
  },
  {
    "postal": "L8E6T0",
    "result": []
  },
  {
    "postal": "L8E3K5",
    "result": [
      {
        "electoralDistricts": [
          {
            "election": null,
            "id": 37,
            "name": "Hamilton East—Stoney Creek"
          }
        ],
        "pollDivisionIds": [
          10138659
        ],
        "postalCode": "L8E3K5",
        "streetName": "BERKINDALE",
        "streetDirectionId": null,
        "streetTypeId": "DR",
        "placeName": "HAMILTON",
        "streetNameDisplayText": "BERKINDALE DR, HAMILTON"
      }
    ]
  },
  {
    "postal": "L8E3S3",
    "result": [
      {
        "electoralDistricts": [
          {
            "election": null,
            "id": 37,
            "name": "Hamilton East—Stoney Creek"
          }
        ],
        "pollDivisionIds": [
          10138650
        ],
        "postalCode": "L8E3S3",
        "streetName": "HALE",
        "streetDirectionId": null,
        "streetTypeId": "ST",
        "placeName": "STONEY CREEK",
        "streetNameDisplayText": "HALE ST, STONEY CREEK"
      }
    ]
  },
  {
    "postal": "L8E3L4",
    "result": [
      {
        "electoralDistricts": [
          {
            "election": null,
            "id": 37,
            "name": "Hamilton East—Stoney Creek"
          }
        ],
        "pollDivisionIds": [
          10138659
        ],
        "postalCode": "L8E3L4",
        "streetName": "BOW VALLEY",
        "streetDirectionId": null,
        "streetTypeId": "DR",
        "placeName": "HAMILTON",
        "streetNameDisplayText": "BOW VALLEY DR, HAMILTON"
      }
    ]
  },
  {
    "postal": "L8E9Y2",
    "result": []
  },
  {
    "postal": "L8E1E0",
    "result": []
  },
  {
    "postal": "L8E9A4",
    "result": []
  },
  {
    "postal": "L8E1L3",
    "result": [
      {
        "electoralDistricts": [
          {
            "election": null,
            "id": 37,
            "name": "Hamilton East—Stoney Creek"
          }
        ],
        "pollDivisionIds": [
          10138649
        ],
        "postalCode": "L8E1L3",
        "streetName": "LAKE",
        "streetDirectionId": "N",
        "streetTypeId": "AVE",
        "placeName": "HAMILTON",
        "streetNameDisplayText": "LAKE AVE N, HAMILTON"
      }
    ]
  },
  {
    "postal": "L8E6N1",
    "result": []
  },
  {
    "postal": "L8E6G7",
    "result": [
      {
        "electoralDistricts": [
          {
            "election": null,
            "id": 37,
            "name": "Hamilton East—Stoney Creek"
          }
        ],
        "pollDivisionIds": [
          10138651
        ],
        "postalCode": "L8E6G7",
        "streetName": "PISA",
        "streetDirectionId": null,
        "streetTypeId": "DR",
        "placeName": "STONEY CREEK",
        "streetNameDisplayText": "PISA DR, STONEY CREEK"
      }
    ]
  },
  {
    "postal": "L8E7W1",
    "result": []
  },
  {
    "postal": "L8E4M6",
    "result": [
      {
        "electoralDistricts": [
          {
            "election": null,
            "id": 37,
            "name": "Hamilton East—Stoney Creek"
          }
        ],
        "pollDivisionIds": [
          10138659
        ],
        "postalCode": "L8E4M6",
        "streetName": "BARTON",
        "streetDirectionId": "E",
        "streetTypeId": "ST",
        "placeName": "HAMILTON",
        "streetNameDisplayText": "BARTON ST E, HAMILTON"
      }
    ]
  },
  {
    "postal": "L8E1K0",
    "result": []
  },
  {
    "postal": "L8E3E2",
    "result": [
      {
        "electoralDistricts": [
          {
            "election": null,
            "id": 37,
            "name": "Hamilton East—Stoney Creek"
          }
        ],
        "pollDivisionIds": [
          10138661
        ],
        "postalCode": "L8E3E2",
        "streetName": "ASHWOOD",
        "streetDirectionId": null,
        "streetTypeId": "CRT",
        "placeName": "STONEY CREEK",
        "streetNameDisplayText": "ASHWOOD CRT, STONEY CREEK"
      }
    ]
  },
  {
    "postal": "L8E5H4",
    "result": [
      {
        "electoralDistricts": [
          {
            "election": null,
            "id": 37,
            "name": "Hamilton East—Stoney Creek"
          }
        ],
        "pollDivisionIds": [
          10138669
        ],
        "postalCode": "L8E5H4",
        "streetName": "BARTON",
        "streetDirectionId": null,
        "streetTypeId": "ST",
        "placeName": "STONEY CREEK",
        "streetNameDisplayText": "BARTON ST, STONEY CREEK"
      },
      {
        "electoralDistricts": [
          {
            "election": null,
            "id": 37,
            "name": "Hamilton East—Stoney Creek"
          }
        ],
        "pollDivisionIds": [
          10138669
        ],
        "postalCode": "L8E5H4",
        "streetName": "MCNEILLY",
        "streetDirectionId": null,
        "streetTypeId": "RD",
        "placeName": "STONEY CREEK",
        "streetNameDisplayText": "MCNEILLY RD, STONEY CREEK"
      }
    ]
  },
  {
    "postal": "L8E1K7",
    "result": [
      {
        "electoralDistricts": [
          {
            "election": null,
            "id": 37,
            "name": "Hamilton East—Stoney Creek"
          }
        ],
        "pollDivisionIds": [
          10138649
        ],
        "postalCode": "L8E1K7",
        "streetName": "JEROME",
        "streetDirectionId": null,
        "streetTypeId": "CRES",
        "placeName": "HAMILTON",
        "streetNameDisplayText": "JEROME CRES, HAMILTON"
      }
    ]
  },
  {
    "postal": "L8E0H0",
    "result": []
  },
  {
    "postal": "L8E0J3",
    "result": [
      {
        "electoralDistricts": [
          {
            "election": null,
            "id": 37,
            "name": "Hamilton East—Stoney Creek"
          }
        ],
        "pollDivisionIds": [
          10138643
        ],
        "postalCode": "L8E0J3",
        "streetName": "FRANCES",
        "streetDirectionId": null,
        "streetTypeId": "AVE",
        "placeName": "STONEY CREEK",
        "streetNameDisplayText": "FRANCES AVE, STONEY CREEK"
      },
      {
        "electoralDistricts": [
          {
            "election": null,
            "id": 37,
            "name": "Hamilton East—Stoney Creek"
          }
        ],
        "pollDivisionIds": [
          10138643
        ],
        "postalCode": "L8E0J3",
        "streetName": "LAKEFRONT",
        "streetDirectionId": null,
        "streetTypeId": "DR",
        "placeName": "STONEY CREEK",
        "streetNameDisplayText": "LAKEFRONT DR, STONEY CREEK"
      },
      {
        "electoralDistricts": [
          {
            "election": null,
            "id": 37,
            "name": "Hamilton East—Stoney Creek"
          }
        ],
        "pollDivisionIds": [
          10138643
        ],
        "postalCode": "L8E0J3",
        "streetName": "LAKEWALK",
        "streetDirectionId": null,
        "streetTypeId": "DR",
        "placeName": "STONEY CREEK",
        "streetNameDisplayText": "LAKEWALK DR, STONEY CREEK"
      },
      {
        "electoralDistricts": [
          {
            "election": null,
            "id": 37,
            "name": "Hamilton East—Stoney Creek"
          }
        ],
        "pollDivisionIds": [
          10138643
        ],
        "postalCode": "L8E0J3",
        "streetName": "SOUTHSHORE",
        "streetDirectionId": null,
        "streetTypeId": "CRES",
        "placeName": "STONEY CREEK",
        "streetNameDisplayText": "SOUTHSHORE CRES, STONEY CREEK"
      },
      {
        "electoralDistricts": [
          {
            "election": null,
            "id": 37,
            "name": "Hamilton East—Stoney Creek"
          }
        ],
        "pollDivisionIds": [
          10138643
        ],
        "postalCode": "L8E0J3",
        "streetName": "WATERVIEW",
        "streetDirectionId": null,
        "streetTypeId": "DR",
        "placeName": "STONEY CREEK",
        "streetNameDisplayText": "WATERVIEW DR, STONEY CREEK"
      }
    ]
  },
  {
    "postal": "L8E1X6",
    "result": [
      {
        "electoralDistricts": [
          {
            "election": null,
            "id": 37,
            "name": "Hamilton East—Stoney Creek"
          }
        ],
        "pollDivisionIds": [
          10138662
        ],
        "postalCode": "L8E1X6",
        "streetName": "CHESTER",
        "streetDirectionId": null,
        "streetTypeId": "RD",
        "placeName": "STONEY CREEK",
        "streetNameDisplayText": "CHESTER RD, STONEY CREEK"
      }
    ]
  },
  {
    "postal": "L8E2Z6",
    "result": [
      {
        "electoralDistricts": [
          {
            "election": null,
            "id": 37,
            "name": "Hamilton East—Stoney Creek"
          }
        ],
        "pollDivisionIds": [
          10138643
        ],
        "postalCode": "L8E2Z6",
        "streetName": "GRAYS",
        "streetDirectionId": null,
        "streetTypeId": "RD",
        "placeName": "HAMILTON",
        "streetNameDisplayText": "GRAYS RD, HAMILTON"
      }
    ]
  },
  {
    "postal": "L8E4R9",
    "result": [
      {
        "electoralDistricts": [
          {
            "election": null,
            "id": 37,
            "name": "Hamilton East—Stoney Creek"
          }
        ],
        "pollDivisionIds": [
          10138649
        ],
        "postalCode": "L8E4R9",
        "streetName": "HUCKLEBERRY",
        "streetDirectionId": null,
        "streetTypeId": "DR",
        "placeName": "HAMILTON",
        "streetNameDisplayText": "HUCKLEBERRY DR, HAMILTON"
      }
    ]
  },
  {
    "postal": "L8E0W8",
    "result": []
  },
  {
    "postal": "L8E1L4",
    "result": [
      {
        "electoralDistricts": [
          {
            "election": null,
            "id": 37,
            "name": "Hamilton East—Stoney Creek"
          }
        ],
        "pollDivisionIds": [
          10138649
        ],
        "postalCode": "L8E1L4",
        "streetName": "LAKE",
        "streetDirectionId": "N",
        "streetTypeId": "AVE",
        "placeName": "HAMILTON",
        "streetNameDisplayText": "LAKE AVE N, HAMILTON"
      }
    ]
  },
  {
    "postal": "L8E0C8",
    "result": [
      {
        "electoralDistricts": [
          {
            "election": null,
            "id": 37,
            "name": "Hamilton East—Stoney Creek"
          }
        ],
        "pollDivisionIds": [
          10138651
        ],
        "postalCode": "L8E0C8",
        "streetName": "HALIFAX",
        "streetDirectionId": null,
        "streetTypeId": "ST",
        "placeName": "STONEY CREEK",
        "streetNameDisplayText": "HALIFAX ST, STONEY CREEK"
      },
      {
        "electoralDistricts": [
          {
            "election": null,
            "id": 37,
            "name": "Hamilton East—Stoney Creek"
          }
        ],
        "pollDivisionIds": [
          10138651
        ],
        "postalCode": "L8E0C8",
        "streetName": "MONTREAL",
        "streetDirectionId": null,
        "streetTypeId": "CIR",
        "placeName": "STONEY CREEK",
        "streetNameDisplayText": "MONTREAL CIR, STONEY CREEK"
      },
      {
        "electoralDistricts": [
          {
            "election": null,
            "id": 37,
            "name": "Hamilton East—Stoney Creek"
          }
        ],
        "pollDivisionIds": [
          10138651
        ],
        "postalCode": "L8E0C8",
        "streetName": "MONZA",
        "streetDirectionId": null,
        "streetTypeId": "DR",
        "placeName": "STONEY CREEK",
        "streetNameDisplayText": "MONZA DR, STONEY CREEK"
      }
    ]
  },
  {
    "postal": "L8E9X7",
    "result": []
  },
  {
    "postal": "L8E4T1",
    "result": [
      {
        "electoralDistricts": [
          {
            "election": null,
            "id": 37,
            "name": "Hamilton East—Stoney Creek"
          }
        ],
        "pollDivisionIds": [
          10138668
        ],
        "postalCode": "L8E4T1",
        "streetName": "VALERA",
        "streetDirectionId": null,
        "streetTypeId": "DR",
        "placeName": "STONEY CREEK",
        "streetNameDisplayText": "VALERA DR, STONEY CREEK"
      }
    ]
  },
  {
    "postal": "L8E0M0",
    "result": []
  },
  {
    "postal": "L8E6A2",
    "result": [
      {
        "electoralDistricts": [
          {
            "election": null,
            "id": 37,
            "name": "Hamilton East—Stoney Creek"
          }
        ],
        "pollDivisionIds": [
          10138669
        ],
        "postalCode": "L8E6A2",
        "streetName": "SOUTH SERVICE",
        "streetDirectionId": null,
        "streetTypeId": "RD",
        "placeName": "STONEY CREEK",
        "streetNameDisplayText": "SOUTH SERVICE RD, STONEY CREEK"
      }
    ]
  },
  {
    "postal": "L8E9S8",
    "result": []
  },
  {
    "postal": "L8E9T4",
    "result": []
  },
  {
    "postal": "L8E9Y4",
    "result": []
  },
  {
    "postal": "L8E6G5",
    "result": [
      {
        "electoralDistricts": [
          {
            "election": null,
            "id": 37,
            "name": "Hamilton East—Stoney Creek"
          }
        ],
        "pollDivisionIds": [
          10138669
        ],
        "postalCode": "L8E6G5",
        "streetName": "BENZIGER",
        "streetDirectionId": null,
        "streetTypeId": "LANE",
        "placeName": "STONEY CREEK",
        "streetNameDisplayText": "BENZIGER LANE, STONEY CREEK"
      }
    ]
  },
  {
    "postal": "L8E6H9",
    "result": []
  },
  {
    "postal": "L8E2P3",
    "result": []
  },
  {
    "postal": "L8E1T6",
    "result": [
      {
        "electoralDistricts": [
          {
            "election": null,
            "id": 37,
            "name": "Hamilton East—Stoney Creek"
          }
        ],
        "pollDivisionIds": [
          10138659
        ],
        "postalCode": "L8E1T6",
        "streetName": "GRAY",
        "streetDirectionId": null,
        "streetTypeId": "RD",
        "placeName": "STONEY CREEK",
        "streetNameDisplayText": "GRAY RD, STONEY CREEK"
      },
      {
        "electoralDistricts": [
          {
            "election": null,
            "id": 37,
            "name": "Hamilton East—Stoney Creek"
          }
        ],
        "pollDivisionIds": [
          10138659
        ],
        "postalCode": "L8E1T6",
        "streetName": "GRAYS",
        "streetDirectionId": null,
        "streetTypeId": "RD",
        "placeName": "STONEY CREEK",
        "streetNameDisplayText": "GRAYS RD, STONEY CREEK"
      }
    ]
  },
  {
    "postal": "L8E4P6",
    "result": [
      {
        "electoralDistricts": [
          {
            "election": null,
            "id": 37,
            "name": "Hamilton East—Stoney Creek"
          }
        ],
        "pollDivisionIds": [
          10138663
        ],
        "postalCode": "L8E4P6",
        "streetName": "DEWITT",
        "streetDirectionId": null,
        "streetTypeId": "RD",
        "placeName": "STONEY CREEK",
        "streetNameDisplayText": "DEWITT RD, STONEY CREEK"
      }
    ]
  },
  {
    "postal": "L8E3K1",
    "result": [
      {
        "electoralDistricts": [
          {
            "election": null,
            "id": 37,
            "name": "Hamilton East—Stoney Creek"
          }
        ],
        "pollDivisionIds": [
          10138659
        ],
        "postalCode": "L8E3K1",
        "streetName": "COLCREST",
        "streetDirectionId": null,
        "streetTypeId": "ST",
        "placeName": "HAMILTON",
        "streetNameDisplayText": "COLCREST ST, HAMILTON"
      }
    ]
  },
  {
    "postal": "L8E6X4",
    "result": []
  },
  {
    "postal": "L8E4M8",
    "result": [
      {
        "electoralDistricts": [
          {
            "election": null,
            "id": 37,
            "name": "Hamilton East—Stoney Creek"
          }
        ],
        "pollDivisionIds": [
          10138668
        ],
        "postalCode": "L8E4M8",
        "streetName": "REGIS",
        "streetDirectionId": null,
        "streetTypeId": "CRT",
        "placeName": "STONEY CREEK",
        "streetNameDisplayText": "REGIS CRT, STONEY CREEK"
      }
    ]
  },
  {
    "postal": "L8E2Y1",
    "result": [
      {
        "electoralDistricts": [
          {
            "election": null,
            "id": 37,
            "name": "Hamilton East—Stoney Creek"
          }
        ],
        "pollDivisionIds": [
          10138650
        ],
        "postalCode": "L8E2Y1",
        "streetName": "COMMUNITY",
        "streetDirectionId": null,
        "streetTypeId": "AVE",
        "placeName": "STONEY CREEK",
        "streetNameDisplayText": "COMMUNITY AVE, STONEY CREEK"
      }
    ]
  },
  {
    "postal": "L8E6M1",
    "result": []
  },
  {
    "postal": "L8E5L8",
    "result": [
      {
        "electoralDistricts": [
          {
            "election": null,
            "id": 37,
            "name": "Hamilton East—Stoney Creek"
          }
        ],
        "pollDivisionIds": [
          10138663
        ],
        "postalCode": "L8E5L8",
        "streetName": "BARTON",
        "streetDirectionId": null,
        "streetTypeId": "ST",
        "placeName": "STONEY CREEK",
        "streetNameDisplayText": "BARTON ST, STONEY CREEK"
      },
      {
        "electoralDistricts": [
          {
            "election": null,
            "id": 37,
            "name": "Hamilton East—Stoney Creek"
          }
        ],
        "pollDivisionIds": [
          10138663
        ],
        "postalCode": "L8E5L8",
        "streetName": "JONES",
        "streetDirectionId": null,
        "streetTypeId": "RD",
        "placeName": "STONEY CREEK",
        "streetNameDisplayText": "JONES RD, STONEY CREEK"
      }
    ]
  },
  {
    "postal": "L8E3P6",
    "result": [
      {
        "electoralDistricts": [
          {
            "election": null,
            "id": 37,
            "name": "Hamilton East—Stoney Creek"
          }
        ],
        "pollDivisionIds": [
          10138659
        ],
        "postalCode": "L8E3P6",
        "streetName": "HIGHRIDGE",
        "streetDirectionId": null,
        "streetTypeId": "AVE",
        "placeName": "HAMILTON",
        "streetNameDisplayText": "HIGHRIDGE AVE, HAMILTON"
      }
    ]
  },
  {
    "postal": "L8E9A5",
    "result": []
  },
  {
    "postal": "L8E7K1",
    "result": []
  },
  {
    "postal": "L8E3J4",
    "result": []
  },
  {
    "postal": "L8E5E7",
    "result": [
      {
        "electoralDistricts": [
          {
            "election": null,
            "id": 37,
            "name": "Hamilton East—Stoney Creek"
          }
        ],
        "pollDivisionIds": [
          10138651
        ],
        "postalCode": "L8E5E7",
        "streetName": "RIVIERA",
        "streetDirectionId": null,
        "streetTypeId": "RIDGE",
        "placeName": "STONEY CREEK",
        "streetNameDisplayText": "RIVIERA RIDGE, STONEY CREEK"
      },
      {
        "electoralDistricts": [
          {
            "election": null,
            "id": 37,
            "name": "Hamilton East—Stoney Creek"
          }
        ],
        "pollDivisionIds": [
          10138651
        ],
        "postalCode": "L8E5E7",
        "streetName": "SHADOWDALE",
        "streetDirectionId": null,
        "streetTypeId": "DR",
        "placeName": "STONEY CREEK",
        "streetNameDisplayText": "SHADOWDALE DR, STONEY CREEK"
      }
    ]
  },
  {
    "postal": "L8E3A7",
    "result": []
  },
  {
    "postal": "L8E1B9",
    "result": [
      {
        "electoralDistricts": [
          {
            "election": null,
            "id": 37,
            "name": "Hamilton East—Stoney Creek"
          }
        ],
        "pollDivisionIds": [
          10138648
        ],
        "postalCode": "L8E1B9",
        "streetName": "ELLINGWOOD",
        "streetDirectionId": null,
        "streetTypeId": "AVE",
        "placeName": "HAMILTON",
        "streetNameDisplayText": "ELLINGWOOD AVE, HAMILTON"
      }
    ]
  },
  {
    "postal": "L8E9E8",
    "result": []
  },
  {
    "postal": "L8E1C9",
    "result": [
      {
        "electoralDistricts": [
          {
            "election": null,
            "id": 37,
            "name": "Hamilton East—Stoney Creek"
          }
        ],
        "pollDivisionIds": [
          10138649
        ],
        "postalCode": "L8E1C9",
        "streetName": "GLENBURN",
        "streetDirectionId": null,
        "streetTypeId": "CRT",
        "placeName": "HAMILTON",
        "streetNameDisplayText": "GLENBURN CRT, HAMILTON"
      }
    ]
  },
  {
    "postal": "L8E3B5",
    "result": [
      {
        "electoralDistricts": [
          {
            "election": null,
            "id": 37,
            "name": "Hamilton East—Stoney Creek"
          }
        ],
        "pollDivisionIds": [
          10138643
        ],
        "postalCode": "L8E3B5",
        "streetName": "TEAL",
        "streetDirectionId": null,
        "streetTypeId": "AVE",
        "placeName": "STONEY CREEK",
        "streetNameDisplayText": "TEAL AVE, STONEY CREEK"
      }
    ]
  },
  {
    "postal": "L8E8R0",
    "result": []
  },
  {
    "postal": "L8E3P2",
    "result": [
      {
        "electoralDistricts": [
          {
            "election": null,
            "id": 37,
            "name": "Hamilton East—Stoney Creek"
          }
        ],
        "pollDivisionIds": [
          10138648
        ],
        "postalCode": "L8E3P2",
        "streetName": "KENORA",
        "streetDirectionId": null,
        "streetTypeId": "AVE",
        "placeName": "HAMILTON",
        "streetNameDisplayText": "KENORA AVE, HAMILTON"
      }
    ]
  },
  {
    "postal": "L8E5V4",
    "result": [
      {
        "electoralDistricts": [
          {
            "election": null,
            "id": 37,
            "name": "Hamilton East—Stoney Creek"
          }
        ],
        "pollDivisionIds": [
          10138650
        ],
        "postalCode": "L8E5V4",
        "streetName": "GREEN",
        "streetDirectionId": null,
        "streetTypeId": "RD",
        "placeName": "STONEY CREEK",
        "streetNameDisplayText": "GREEN RD, STONEY CREEK"
      }
    ]
  },
  {
    "postal": "L8E4H0",
    "result": []
  },
  {
    "postal": "L8E4S7",
    "result": [
      {
        "electoralDistricts": [
          {
            "election": null,
            "id": 37,
            "name": "Hamilton East—Stoney Creek"
          }
        ],
        "pollDivisionIds": [
          10138668
        ],
        "postalCode": "L8E4S7",
        "streetName": "VEGA",
        "streetDirectionId": null,
        "streetTypeId": "CRES",
        "placeName": "STONEY CREEK",
        "streetNameDisplayText": "VEGA CRES, STONEY CREEK"
      }
    ]
  },
  {
    "postal": "L8E6C2",
    "result": [
      {
        "electoralDistricts": [
          {
            "election": null,
            "id": 37,
            "name": "Hamilton East—Stoney Creek"
          }
        ],
        "pollDivisionIds": [
          10138651
        ],
        "postalCode": "L8E6C2",
        "streetName": "DEWSBURY",
        "streetDirectionId": null,
        "streetTypeId": "WAY",
        "placeName": "STONEY CREEK",
        "streetNameDisplayText": "DEWSBURY WAY, STONEY CREEK"
      },
      {
        "electoralDistricts": [
          {
            "election": null,
            "id": 37,
            "name": "Hamilton East—Stoney Creek"
          }
        ],
        "pollDivisionIds": [
          10138651
        ],
        "postalCode": "L8E6C2",
        "streetName": "GLENMEADOW",
        "streetDirectionId": null,
        "streetTypeId": "CRES",
        "placeName": "STONEY CREEK",
        "streetNameDisplayText": "GLENMEADOW CRES, STONEY CREEK"
      },
      {
        "electoralDistricts": [
          {
            "election": null,
            "id": 37,
            "name": "Hamilton East—Stoney Creek"
          }
        ],
        "pollDivisionIds": [
          10138651
        ],
        "postalCode": "L8E6C2",
        "streetName": "GOLDEYE",
        "streetDirectionId": null,
        "streetTypeId": "DR",
        "placeName": "STONEY CREEK",
        "streetNameDisplayText": "GOLDEYE DR, STONEY CREEK"
      }
    ]
  },
  {
    "postal": "L8E8W3",
    "result": []
  },
  {
    "postal": "L8E4M5",
    "result": [
      {
        "electoralDistricts": [
          {
            "election": null,
            "id": 37,
            "name": "Hamilton East—Stoney Creek"
          }
        ],
        "pollDivisionIds": [
          10138668
        ],
        "postalCode": "L8E4M5",
        "streetName": "DEWITT",
        "streetDirectionId": null,
        "streetTypeId": "RD",
        "placeName": "STONEY CREEK",
        "streetNameDisplayText": "DEWITT RD, STONEY CREEK"
      }
    ]
  },
  {
    "postal": "L8E5T1",
    "result": [
      {
        "electoralDistricts": [
          {
            "election": null,
            "id": 37,
            "name": "Hamilton East—Stoney Creek"
          }
        ],
        "pollDivisionIds": [
          10138651
        ],
        "postalCode": "L8E5T1",
        "streetName": "EAST",
        "streetDirectionId": null,
        "streetTypeId": "ST",
        "placeName": "STONEY CREEK",
        "streetNameDisplayText": "EAST ST, STONEY CREEK"
      },
      {
        "electoralDistricts": [
          {
            "election": null,
            "id": 37,
            "name": "Hamilton East—Stoney Creek"
          }
        ],
        "pollDivisionIds": [
          10138651
        ],
        "postalCode": "L8E5T1",
        "streetName": "WENDAKEE",
        "streetDirectionId": null,
        "streetTypeId": "DR",
        "placeName": "STONEY CREEK",
        "streetNameDisplayText": "WENDAKEE DR, STONEY CREEK"
      }
    ]
  },
  {
    "postal": "L8E3B3",
    "result": [
      {
        "electoralDistricts": [
          {
            "election": null,
            "id": 37,
            "name": "Hamilton East—Stoney Creek"
          }
        ],
        "pollDivisionIds": [
          10138643
        ],
        "postalCode": "L8E3B3",
        "streetName": "TEAL",
        "streetDirectionId": null,
        "streetTypeId": "AVE",
        "placeName": "STONEY CREEK",
        "streetNameDisplayText": "TEAL AVE, STONEY CREEK"
      }
    ]
  },
  {
    "postal": "L8E6C6",
    "result": [
      {
        "electoralDistricts": [
          {
            "election": null,
            "id": 37,
            "name": "Hamilton East—Stoney Creek"
          }
        ],
        "pollDivisionIds": [
          10138651
        ],
        "postalCode": "L8E6C6",
        "streetName": "PANORAMA",
        "streetDirectionId": null,
        "streetTypeId": "WAY",
        "placeName": "STONEY CREEK",
        "streetNameDisplayText": "PANORAMA WAY, STONEY CREEK"
      },
      {
        "electoralDistricts": [
          {
            "election": null,
            "id": 37,
            "name": "Hamilton East—Stoney Creek"
          }
        ],
        "pollDivisionIds": [
          10138651
        ],
        "postalCode": "L8E6C6",
        "streetName": "WEST HAMPTON",
        "streetDirectionId": null,
        "streetTypeId": "WAY",
        "placeName": "STONEY CREEK",
        "streetNameDisplayText": "WEST HAMPTON WAY, STONEY CREEK"
      },
      {
        "electoralDistricts": [
          {
            "election": null,
            "id": 37,
            "name": "Hamilton East—Stoney Creek"
          }
        ],
        "pollDivisionIds": [
          10138651
        ],
        "postalCode": "L8E6C6",
        "streetName": "WESTHAMPTON",
        "streetDirectionId": null,
        "streetTypeId": "WAY",
        "placeName": "STONEY CREEK",
        "streetNameDisplayText": "WESTHAMPTON WAY, STONEY CREEK"
      }
    ]
  },
  {
    "postal": "L8E7N8",
    "result": []
  },
  {
    "postal": "L8E2Y3",
    "result": [
      {
        "electoralDistricts": [
          {
            "election": null,
            "id": 37,
            "name": "Hamilton East—Stoney Creek"
          }
        ],
        "pollDivisionIds": [
          10138650
        ],
        "postalCode": "L8E2Y3",
        "streetName": "COMMUNITY",
        "streetDirectionId": null,
        "streetTypeId": "AVE",
        "placeName": "STONEY CREEK",
        "streetNameDisplayText": "COMMUNITY AVE, STONEY CREEK"
      }
    ]
  },
  {
    "postal": "L8E2R6",
    "result": [
      {
        "electoralDistricts": [
          {
            "election": null,
            "id": 37,
            "name": "Hamilton East—Stoney Creek"
          }
        ],
        "pollDivisionIds": [
          10138659
        ],
        "postalCode": "L8E2R6",
        "streetName": "BERKINDALE",
        "streetDirectionId": null,
        "streetTypeId": "DR",
        "placeName": "HAMILTON",
        "streetNameDisplayText": "BERKINDALE DR, HAMILTON"
      }
    ]
  },
  {
    "postal": "L8E7N3",
    "result": []
  },
  {
    "postal": "L8E8J2",
    "result": []
  },
  {
    "postal": "L8E6A9",
    "result": [
      {
        "electoralDistricts": [
          {
            "election": null,
            "id": 37,
            "name": "Hamilton East—Stoney Creek"
          }
        ],
        "pollDivisionIds": [
          10138643
        ],
        "postalCode": "L8E6A9",
        "streetName": "GREEN",
        "streetDirectionId": null,
        "streetTypeId": "RD",
        "placeName": "STONEY CREEK",
        "streetNameDisplayText": "GREEN RD, STONEY CREEK"
      }
    ]
  },
  {
    "postal": "L8E3V2",
    "result": [
      {
        "electoralDistricts": [
          {
            "election": null,
            "id": 37,
            "name": "Hamilton East—Stoney Creek"
          }
        ],
        "pollDivisionIds": [
          10138650
        ],
        "postalCode": "L8E3V2",
        "streetName": "APPLE",
        "streetDirectionId": null,
        "streetTypeId": "PL",
        "placeName": "STONEY CREEK",
        "streetNameDisplayText": "APPLE PL, STONEY CREEK"
      }
    ]
  },
  {
    "postal": "L8E2N3",
    "result": [
      {
        "electoralDistricts": [
          {
            "election": null,
            "id": 37,
            "name": "Hamilton East—Stoney Creek"
          }
        ],
        "pollDivisionIds": [
          10138650
        ],
        "postalCode": "L8E2N3",
        "streetName": "HILTON",
        "streetDirectionId": null,
        "streetTypeId": "DR",
        "placeName": "STONEY CREEK",
        "streetNameDisplayText": "HILTON DR, STONEY CREEK"
      }
    ]
  },
  {
    "postal": "L8E1S5",
    "result": [
      {
        "electoralDistricts": [
          {
            "election": null,
            "id": 37,
            "name": "Hamilton East—Stoney Creek"
          }
        ],
        "pollDivisionIds": [
          10138661
        ],
        "postalCode": "L8E1S5",
        "streetName": "ROXBOROUGH",
        "streetDirectionId": null,
        "streetTypeId": "AVE",
        "placeName": "STONEY CREEK",
        "streetNameDisplayText": "ROXBOROUGH AVE, STONEY CREEK"
      }
    ]
  },
  {
    "postal": "L8E4T7",
    "result": [
      {
        "electoralDistricts": [
          {
            "election": null,
            "id": 37,
            "name": "Hamilton East—Stoney Creek"
          }
        ],
        "pollDivisionIds": [
          10138663
        ],
        "postalCode": "L8E4T7",
        "streetName": "VALERA",
        "streetDirectionId": null,
        "streetTypeId": "DR",
        "placeName": "STONEY CREEK",
        "streetNameDisplayText": "VALERA DR, STONEY CREEK"
      }
    ]
  },
  {
    "postal": "L8E6Y7",
    "result": []
  },
  {
    "postal": "L8E0W7",
    "result": []
  },
  {
    "postal": "L8E2W9",
    "result": [
      {
        "electoralDistricts": [
          {
            "election": null,
            "id": 37,
            "name": "Hamilton East—Stoney Creek"
          }
        ],
        "pollDivisionIds": [
          10138648
        ],
        "postalCode": "L8E2W9",
        "streetName": "BARTON",
        "streetDirectionId": "E",
        "streetTypeId": "ST",
        "placeName": "HAMILTON",
        "streetNameDisplayText": "BARTON ST E, HAMILTON"
      }
    ]
  },
  {
    "postal": "L8E8V0",
    "result": []
  },
  {
    "postal": "L8E0H4",
    "result": []
  },
  {
    "postal": "L8E2T1",
    "result": [
      {
        "electoralDistricts": [
          {
            "election": null,
            "id": 37,
            "name": "Hamilton East—Stoney Creek"
          }
        ],
        "pollDivisionIds": [
          10138663
        ],
        "postalCode": "L8E2T1",
        "streetName": "DEWITT",
        "streetDirectionId": null,
        "streetTypeId": "RD",
        "placeName": "STONEY CREEK",
        "streetNameDisplayText": "DEWITT RD, STONEY CREEK"
      }
    ]
  },
  {
    "postal": "L8E1B1",
    "result": [
      {
        "electoralDistricts": [
          {
            "election": null,
            "id": 37,
            "name": "Hamilton East—Stoney Creek"
          }
        ],
        "pollDivisionIds": [
          10138648
        ],
        "postalCode": "L8E1B1",
        "streetName": "HOUNSLOW",
        "streetDirectionId": null,
        "streetTypeId": "CRT",
        "placeName": "HAMILTON",
        "streetNameDisplayText": "HOUNSLOW CRT, HAMILTON"
      }
    ]
  },
  {
    "postal": "L8E8B6",
    "result": []
  },
  {
    "postal": "L8E6H1",
    "result": [
      {
        "electoralDistricts": [
          {
            "election": null,
            "id": 37,
            "name": "Hamilton East—Stoney Creek"
          }
        ],
        "pollDivisionIds": [
          10138651
        ],
        "postalCode": "L8E6H1",
        "streetName": "CHIARA",
        "streetDirectionId": null,
        "streetTypeId": "DR",
        "placeName": "STONEY CREEK",
        "streetNameDisplayText": "CHIARA DR, STONEY CREEK"
      }
    ]
  },
  {
    "postal": "L8E8T8",
    "result": []
  },
  {
    "postal": "L8E0T4",
    "result": []
  },
  {
    "postal": "L8E2C4",
    "result": [
      {
        "electoralDistricts": [
          {
            "election": null,
            "id": 37,
            "name": "Hamilton East—Stoney Creek"
          }
        ],
        "pollDivisionIds": [
          10138650
        ],
        "postalCode": "L8E2C4",
        "streetName": "RED OAK",
        "streetDirectionId": null,
        "streetTypeId": "AVE",
        "placeName": "STONEY CREEK",
        "streetNameDisplayText": "RED OAK AVE, STONEY CREEK"
      }
    ]
  },
  {
    "postal": "L8E8N3",
    "result": []
  },
  {
    "postal": "L8E4L8",
    "result": [
      {
        "electoralDistricts": [
          {
            "election": null,
            "id": 37,
            "name": "Hamilton East—Stoney Creek"
          }
        ],
        "pollDivisionIds": [
          10138650
        ],
        "postalCode": "L8E4L8",
        "streetName": "HENLEY",
        "streetDirectionId": null,
        "streetTypeId": "DR",
        "placeName": "STONEY CREEK",
        "streetNameDisplayText": "HENLEY DR, STONEY CREEK"
      }
    ]
  },
  {
    "postal": "L8E2B5",
    "result": [
      {
        "electoralDistricts": [
          {
            "election": null,
            "id": 37,
            "name": "Hamilton East—Stoney Creek"
          }
        ],
        "pollDivisionIds": [
          10138662
        ],
        "postalCode": "L8E2B5",
        "streetName": "FEDERAL",
        "streetDirectionId": null,
        "streetTypeId": "ST",
        "placeName": "STONEY CREEK",
        "streetNameDisplayText": "FEDERAL ST, STONEY CREEK"
      }
    ]
  },
  {
    "postal": "L8E3H1",
    "result": [
      {
        "electoralDistricts": [
          {
            "election": null,
            "id": 37,
            "name": "Hamilton East—Stoney Creek"
          }
        ],
        "pollDivisionIds": [
          10138672
        ],
        "postalCode": "L8E3H1",
        "streetName": "JEROME",
        "streetDirectionId": null,
        "streetTypeId": "CRES",
        "placeName": "HAMILTON",
        "streetNameDisplayText": "JEROME CRES, HAMILTON"
      }
    ]
  },
  {
    "postal": "L8E4Y1",
    "result": [
      {
        "electoralDistricts": [
          {
            "election": null,
            "id": 37,
            "name": "Hamilton East—Stoney Creek"
          }
        ],
        "pollDivisionIds": [
          10138668
        ],
        "postalCode": "L8E4Y1",
        "streetName": "ROYALWOOD",
        "streetDirectionId": null,
        "streetTypeId": "CRT",
        "placeName": "STONEY CREEK",
        "streetNameDisplayText": "ROYALWOOD CRT, STONEY CREEK"
      }
    ]
  },
  {
    "postal": "L8E7E2",
    "result": []
  },
  {
    "postal": "L8E2P5",
    "result": []
  },
  {
    "postal": "L8E8R7",
    "result": []
  },
  {
    "postal": "L8E9P1",
    "result": []
  },
  {
    "postal": "L8E3B8",
    "result": [
      {
        "electoralDistricts": [
          {
            "election": null,
            "id": 37,
            "name": "Hamilton East—Stoney Creek"
          }
        ],
        "pollDivisionIds": [
          10138649
        ],
        "postalCode": "L8E3B8",
        "streetName": "LAKE",
        "streetDirectionId": "N",
        "streetTypeId": "AVE",
        "placeName": "HAMILTON",
        "streetNameDisplayText": "LAKE AVE N, HAMILTON"
      }
    ]
  },
  {
    "postal": "L8E3P7",
    "result": [
      {
        "electoralDistricts": [
          {
            "election": null,
            "id": 37,
            "name": "Hamilton East—Stoney Creek"
          }
        ],
        "pollDivisionIds": [
          10138659
        ],
        "postalCode": "L8E3P7",
        "streetName": "HIGHRIDGE",
        "streetDirectionId": null,
        "streetTypeId": "AVE",
        "placeName": "HAMILTON",
        "streetNameDisplayText": "HIGHRIDGE AVE, HAMILTON"
      }
    ]
  },
  {
    "postal": "L8E9B2",
    "result": []
  },
  {
    "postal": "L8E6Z3",
    "result": []
  },
  {
    "postal": "L8E4N5",
    "result": []
  },
  {
    "postal": "L8E8T3",
    "result": []
  },
  {
    "postal": "L8E1V2",
    "result": [
      {
        "electoralDistricts": [
          {
            "election": null,
            "id": 37,
            "name": "Hamilton East—Stoney Creek"
          }
        ],
        "pollDivisionIds": [
          10138659
        ],
        "postalCode": "L8E1V2",
        "streetName": "GRAY",
        "streetDirectionId": null,
        "streetTypeId": "RD",
        "placeName": "STONEY CREEK",
        "streetNameDisplayText": "GRAY RD, STONEY CREEK"
      }
    ]
  },
  {
    "postal": "L8E1Y0",
    "result": []
  },
  {
    "postal": "L8E3G6",
    "result": [
      {
        "electoralDistricts": [
          {
            "election": null,
            "id": 37,
            "name": "Hamilton East—Stoney Creek"
          }
        ],
        "pollDivisionIds": [
          10138648
        ],
        "postalCode": "L8E3G6",
        "streetName": "BARTON",
        "streetDirectionId": "E",
        "streetTypeId": "ST",
        "placeName": "HAMILTON",
        "streetNameDisplayText": "BARTON ST E, HAMILTON"
      }
    ]
  },
  {
    "postal": "L8E3H7",
    "result": [
      {
        "electoralDistricts": [
          {
            "election": null,
            "id": 37,
            "name": "Hamilton East—Stoney Creek"
          }
        ],
        "pollDivisionIds": [
          10138661
        ],
        "postalCode": "L8E3H7",
        "streetName": "EASTBURY",
        "streetDirectionId": null,
        "streetTypeId": "DR",
        "placeName": "STONEY CREEK",
        "streetNameDisplayText": "EASTBURY DR, STONEY CREEK"
      }
    ]
  },
  {
    "postal": "L8E7X8",
    "result": []
  },
  {
    "postal": "L8E0C7",
    "result": [
      {
        "electoralDistricts": [
          {
            "election": null,
            "id": 37,
            "name": "Hamilton East—Stoney Creek"
          }
        ],
        "pollDivisionIds": [
          10138651
        ],
        "postalCode": "L8E0C7",
        "streetName": "MONTREAL",
        "streetDirectionId": null,
        "streetTypeId": "CIR",
        "placeName": "STONEY CREEK",
        "streetNameDisplayText": "MONTREAL CIR, STONEY CREEK"
      }
    ]
  },
  {
    "postal": "L8E0W9",
    "result": []
  },
  {
    "postal": "L8E8E6",
    "result": []
  },
  {
    "postal": "L8E9Z8",
    "result": []
  },
  {
    "postal": "L8E3P4",
    "result": [
      {
        "electoralDistricts": [
          {
            "election": null,
            "id": 37,
            "name": "Hamilton East—Stoney Creek"
          }
        ],
        "pollDivisionIds": [
          10138661
        ],
        "postalCode": "L8E3P4",
        "streetName": "EASTDALE",
        "streetDirectionId": null,
        "streetTypeId": "BLVD",
        "placeName": "STONEY CREEK",
        "streetNameDisplayText": "EASTDALE BLVD, STONEY CREEK"
      }
    ]
  },
  {
    "postal": "L8E6L8",
    "result": []
  },
  {
    "postal": "L8E2R4",
    "result": [
      {
        "electoralDistricts": [
          {
            "election": null,
            "id": 37,
            "name": "Hamilton East—Stoney Creek"
          }
        ],
        "pollDivisionIds": [
          10138650
        ],
        "postalCode": "L8E2R4",
        "streetName": "SOUTH SERVICE",
        "streetDirectionId": null,
        "streetTypeId": "RD",
        "placeName": "STONEY CREEK",
        "streetNameDisplayText": "SOUTH SERVICE RD, STONEY CREEK"
      }
    ]
  },
  {
    "postal": "L8E2W1",
    "result": [
      {
        "electoralDistricts": [
          {
            "election": null,
            "id": 37,
            "name": "Hamilton East—Stoney Creek"
          }
        ],
        "pollDivisionIds": [
          10138663
        ],
        "postalCode": "L8E2W1",
        "streetName": "SOUTH SERVICE",
        "streetDirectionId": null,
        "streetTypeId": "RD",
        "placeName": "STONEY CREEK",
        "streetNameDisplayText": "SOUTH SERVICE RD, STONEY CREEK"
      }
    ]
  },
  {
    "postal": "L8E9H8",
    "result": []
  },
  {
    "postal": "L8E8X9",
    "result": []
  },
  {
    "postal": "L8E7H4",
    "result": []
  },
  {
    "postal": "L8E3J1",
    "result": [
      {
        "electoralDistricts": [
          {
            "election": null,
            "id": 37,
            "name": "Hamilton East—Stoney Creek"
          }
        ],
        "pollDivisionIds": [
          10138659
        ],
        "postalCode": "L8E3J1",
        "streetName": "BOW VALLEY",
        "streetDirectionId": null,
        "streetTypeId": "DR",
        "placeName": "HAMILTON",
        "streetNameDisplayText": "BOW VALLEY DR, HAMILTON"
      }
    ]
  },
  {
    "postal": "L8E1P4",
    "result": [
      {
        "electoralDistricts": [
          {
            "election": null,
            "id": 37,
            "name": "Hamilton East—Stoney Creek"
          }
        ],
        "pollDivisionIds": [
          10138662
        ],
        "postalCode": "L8E1P4",
        "streetName": "FEDERAL",
        "streetDirectionId": null,
        "streetTypeId": "ST",
        "placeName": "STONEY CREEK",
        "streetNameDisplayText": "FEDERAL ST, STONEY CREEK"
      }
    ]
  },
  {
    "postal": "L8E2A3",
    "result": [
      {
        "electoralDistricts": [
          {
            "election": null,
            "id": 37,
            "name": "Hamilton East—Stoney Creek"
          }
        ],
        "pollDivisionIds": [
          10138662
        ],
        "postalCode": "L8E2A3",
        "streetName": "GREEN",
        "streetDirectionId": null,
        "streetTypeId": "RD",
        "placeName": "STONEY CREEK",
        "streetNameDisplayText": "GREEN RD, STONEY CREEK"
      }
    ]
  },
  {
    "postal": "L8E0Z1",
    "result": []
  },
  {
    "postal": "L8E1C1",
    "result": [
      {
        "electoralDistricts": [
          {
            "election": null,
            "id": 37,
            "name": "Hamilton East—Stoney Creek"
          }
        ],
        "pollDivisionIds": [
          10138648
        ],
        "postalCode": "L8E1C1",
        "streetName": "ELLINGWOOD",
        "streetDirectionId": null,
        "streetTypeId": "AVE",
        "placeName": "HAMILTON",
        "streetNameDisplayText": "ELLINGWOOD AVE, HAMILTON"
      }
    ]
  },
  {
    "postal": "L8E0H3",
    "result": [
      {
        "electoralDistricts": [
          {
            "election": null,
            "id": 37,
            "name": "Hamilton East—Stoney Creek"
          }
        ],
        "pollDivisionIds": [
          10138659
        ],
        "postalCode": "L8E0H3",
        "streetName": "FEDERAL",
        "streetDirectionId": null,
        "streetTypeId": "ST",
        "placeName": "STONEY CREEK",
        "streetNameDisplayText": "FEDERAL ST, STONEY CREEK"
      }
    ]
  },
  {
    "postal": "L8E7B0",
    "result": []
  },
  {
    "postal": "L8E5K2",
    "result": [
      {
        "electoralDistricts": [
          {
            "election": null,
            "id": 37,
            "name": "Hamilton East—Stoney Creek"
          }
        ],
        "pollDivisionIds": [
          10138669
        ],
        "postalCode": "L8E5K2",
        "streetName": "BEL-AIR",
        "streetDirectionId": null,
        "streetTypeId": "AVE",
        "placeName": "STONEY CREEK",
        "streetNameDisplayText": "BEL-AIR AVE, STONEY CREEK"
      },
      {
        "electoralDistricts": [
          {
            "election": null,
            "id": 37,
            "name": "Hamilton East—Stoney Creek"
          }
        ],
        "pollDivisionIds": [
          10138669
        ],
        "postalCode": "L8E5K2",
        "streetName": "HWY 8",
        "streetDirectionId": null,
        "streetTypeId": null,
        "placeName": "STONEY CREEK",
        "streetNameDisplayText": "HWY 8, STONEY CREEK"
      }
    ]
  },
  {
    "postal": "L8E1E9",
    "result": [
      {
        "electoralDistricts": [
          {
            "election": null,
            "id": 37,
            "name": "Hamilton East—Stoney Creek"
          }
        ],
        "pollDivisionIds": [
          10138649
        ],
        "postalCode": "L8E1E9",
        "streetName": "OLD ORCHARD",
        "streetDirectionId": null,
        "streetTypeId": "DR",
        "placeName": "HAMILTON",
        "streetNameDisplayText": "OLD ORCHARD DR, HAMILTON"
      }
    ]
  },
  {
    "postal": "L8E9W7",
    "result": []
  },
  {
    "postal": "L8E5W6",
    "result": [
      {
        "electoralDistricts": [
          {
            "election": null,
            "id": 37,
            "name": "Hamilton East—Stoney Creek"
          }
        ],
        "pollDivisionIds": [
          10138651
        ],
        "postalCode": "L8E5W6",
        "streetName": "EDGEWATER",
        "streetDirectionId": null,
        "streetTypeId": "DR",
        "placeName": "STONEY CREEK",
        "streetNameDisplayText": "EDGEWATER DR, STONEY CREEK"
      }
    ]
  },
  {
    "postal": "L8E6S6",
    "result": []
  },
  {
    "postal": "L8E2P8",
    "result": [
      {
        "electoralDistricts": [
          {
            "election": null,
            "id": 37,
            "name": "Hamilton East—Stoney Creek"
          }
        ],
        "pollDivisionIds": [
          10138663
        ],
        "postalCode": "L8E2P8",
        "streetName": "SOUTH SERVICE",
        "streetDirectionId": null,
        "streetTypeId": "RD",
        "placeName": "STONEY CREEK",
        "streetNameDisplayText": "SOUTH SERVICE RD, STONEY CREEK"
      }
    ]
  },
  {
    "postal": "L8E4P8",
    "result": [
      {
        "electoralDistricts": [
          {
            "election": null,
            "id": 37,
            "name": "Hamilton East—Stoney Creek"
          }
        ],
        "pollDivisionIds": [
          10138643
        ],
        "postalCode": "L8E4P8",
        "streetName": "LAKE POINTE",
        "streetDirectionId": null,
        "streetTypeId": "PL",
        "placeName": "HAMILTON",
        "streetNameDisplayText": "LAKE POINTE PL, HAMILTON"
      }
    ]
  },
  {
    "postal": "L8E0V9",
    "result": []
  },
  {
    "postal": "L8E5Y2",
    "result": [
      {
        "electoralDistricts": [
          {
            "election": null,
            "id": 37,
            "name": "Hamilton East—Stoney Creek"
          }
        ],
        "pollDivisionIds": [
          10138662
        ],
        "postalCode": "L8E5Y2",
        "streetName": "TALLMAN",
        "streetDirectionId": null,
        "streetTypeId": "ST",
        "placeName": "STONEY CREEK",
        "streetNameDisplayText": "TALLMAN ST, STONEY CREEK"
      }
    ]
  },
  {
    "postal": "L8E7Z7",
    "result": []
  },
  {
    "postal": "L8E6Y8",
    "result": []
  },
  {
    "postal": "L8E2G7",
    "result": [
      {
        "electoralDistricts": [
          {
            "election": null,
            "id": 37,
            "name": "Hamilton East—Stoney Creek"
          }
        ],
        "pollDivisionIds": [
          10138662
        ],
        "postalCode": "L8E2G7",
        "streetName": "MILLEN",
        "streetDirectionId": null,
        "streetTypeId": "RD",
        "placeName": "STONEY CREEK",
        "streetNameDisplayText": "MILLEN RD, STONEY CREEK"
      }
    ]
  },
  {
    "postal": "L8E8C1",
    "result": []
  },
  {
    "postal": "L8E5C5",
    "result": [
      {
        "electoralDistricts": [
          {
            "election": null,
            "id": 37,
            "name": "Hamilton East—Stoney Creek"
          }
        ],
        "pollDivisionIds": [
          10138669
        ],
        "postalCode": "L8E5C5",
        "streetName": "SOUTH SERVICE",
        "streetDirectionId": null,
        "streetTypeId": "RD",
        "placeName": "STONEY CREEK",
        "streetNameDisplayText": "SOUTH SERVICE RD, STONEY CREEK"
      }
    ]
  },
  {
    "postal": "L8E2X8",
    "result": [
      {
        "electoralDistricts": [
          {
            "election": null,
            "id": 37,
            "name": "Hamilton East—Stoney Creek"
          }
        ],
        "pollDivisionIds": [
          10138643
        ],
        "postalCode": "L8E2X8",
        "streetName": "CHURCH",
        "streetDirectionId": null,
        "streetTypeId": "ST",
        "placeName": "STONEY CREEK",
        "streetNameDisplayText": "CHURCH ST, STONEY CREEK"
      }
    ]
  },
  {
    "postal": "L8E1W5",
    "result": [
      {
        "electoralDistricts": [
          {
            "election": null,
            "id": 37,
            "name": "Hamilton East—Stoney Creek"
          }
        ],
        "pollDivisionIds": [
          10138661
        ],
        "postalCode": "L8E1W5",
        "streetName": "BLENHEIM",
        "streetDirectionId": null,
        "streetTypeId": "DR",
        "placeName": "STONEY CREEK",
        "streetNameDisplayText": "BLENHEIM DR, STONEY CREEK"
      }
    ]
  },
  {
    "postal": "L8E7G0",
    "result": []
  },
  {
    "postal": "L8E8J8",
    "result": []
  },
  {
    "postal": "L8E3Y0",
    "result": []
  },
  {
    "postal": "L8E9T7",
    "result": []
  },
  {
    "postal": "L8E5P4",
    "result": [
      {
        "electoralDistricts": [
          {
            "election": null,
            "id": 37,
            "name": "Hamilton East—Stoney Creek"
          }
        ],
        "pollDivisionIds": [
          10138663
        ],
        "postalCode": "L8E5P4",
        "streetName": "JONES",
        "streetDirectionId": null,
        "streetTypeId": "RD",
        "placeName": "STONEY CREEK",
        "streetNameDisplayText": "JONES RD, STONEY CREEK"
      }
    ]
  },
  {
    "postal": "L8E4B0",
    "result": []
  },
  {
    "postal": "L8E9N8",
    "result": []
  },
  {
    "postal": "L8E4A7",
    "result": [
      {
        "electoralDistricts": [
          {
            "election": null,
            "id": 37,
            "name": "Hamilton East—Stoney Creek"
          }
        ],
        "pollDivisionIds": [
          10138650
        ],
        "postalCode": "L8E4A7",
        "streetName": "MACINTOSH",
        "streetDirectionId": null,
        "streetTypeId": "DR",
        "placeName": "STONEY CREEK",
        "streetNameDisplayText": "MACINTOSH DR, STONEY CREEK"
      }
    ]
  },
  {
    "postal": "L8E4H9",
    "result": [
      {
        "electoralDistricts": [
          {
            "election": null,
            "id": 37,
            "name": "Hamilton East—Stoney Creek"
          }
        ],
        "pollDivisionIds": [
          10138661
        ],
        "postalCode": "L8E4H9",
        "streetName": "CROMPTON",
        "streetDirectionId": null,
        "streetTypeId": "WAY",
        "placeName": "STONEY CREEK",
        "streetNameDisplayText": "CROMPTON WAY, STONEY CREEK"
      }
    ]
  },
  {
    "postal": "L8E6X1",
    "result": []
  },
  {
    "postal": "L8E9Y7",
    "result": []
  },
  {
    "postal": "L8E2Y5",
    "result": [
      {
        "electoralDistricts": [
          {
            "election": null,
            "id": 37,
            "name": "Hamilton East—Stoney Creek"
          }
        ],
        "pollDivisionIds": [
          10138649
        ],
        "postalCode": "L8E2Y5",
        "streetName": "COVINGTON",
        "streetDirectionId": null,
        "streetTypeId": "ST",
        "placeName": "HAMILTON",
        "streetNameDisplayText": "COVINGTON ST, HAMILTON"
      }
    ]
  },
  {
    "postal": "L8E8L7",
    "result": []
  },
  {
    "postal": "L8E2A8",
    "result": [
      {
        "electoralDistricts": [
          {
            "election": null,
            "id": 37,
            "name": "Hamilton East—Stoney Creek"
          }
        ],
        "pollDivisionIds": [
          10138650
        ],
        "postalCode": "L8E2A8",
        "streetName": "GREEN",
        "streetDirectionId": null,
        "streetTypeId": "RD",
        "placeName": "STONEY CREEK",
        "streetNameDisplayText": "GREEN RD, STONEY CREEK"
      }
    ]
  },
  {
    "postal": "L8E2K9",
    "result": [
      {
        "electoralDistricts": [
          {
            "election": null,
            "id": 37,
            "name": "Hamilton East—Stoney Creek"
          }
        ],
        "pollDivisionIds": [
          10138650
        ],
        "postalCode": "L8E2K9",
        "streetName": "BARTON",
        "streetDirectionId": null,
        "streetTypeId": "ST",
        "placeName": "STONEY CREEK",
        "streetNameDisplayText": "BARTON ST, STONEY CREEK"
      }
    ]
  },
  {
    "postal": "L8E3E5",
    "result": [
      {
        "electoralDistricts": [
          {
            "election": null,
            "id": 37,
            "name": "Hamilton East—Stoney Creek"
          }
        ],
        "pollDivisionIds": [
          10138650
        ],
        "postalCode": "L8E3E5",
        "streetName": "SEATON PLACE",
        "streetDirectionId": null,
        "streetTypeId": "DR",
        "placeName": "STONEY CREEK",
        "streetNameDisplayText": "SEATON PLACE DR, STONEY CREEK"
      }
    ]
  },
  {
    "postal": "L8E8N6",
    "result": []
  },
  {
    "postal": "L8E8J4",
    "result": []
  },
  {
    "postal": "L8E4R7",
    "result": [
      {
        "electoralDistricts": [
          {
            "election": null,
            "id": 37,
            "name": "Hamilton East—Stoney Creek"
          }
        ],
        "pollDivisionIds": [
          10138649
        ],
        "postalCode": "L8E4R7",
        "streetName": "STRAWBERRY",
        "streetDirectionId": null,
        "streetTypeId": "DR",
        "placeName": "HAMILTON",
        "streetNameDisplayText": "STRAWBERRY DR, HAMILTON"
      }
    ]
  },
  {
    "postal": "L8E9K1",
    "result": []
  },
  {
    "postal": "L8E8E1",
    "result": []
  },
  {
    "postal": "L8E0R1",
    "result": []
  },
  {
    "postal": "L8E4J3",
    "result": [
      {
        "electoralDistricts": [
          {
            "election": null,
            "id": 37,
            "name": "Hamilton East—Stoney Creek"
          }
        ],
        "pollDivisionIds": [
          10138650
        ],
        "postalCode": "L8E4J3",
        "streetName": "RED OAK",
        "streetDirectionId": null,
        "streetTypeId": "AVE",
        "placeName": "STONEY CREEK",
        "streetNameDisplayText": "RED OAK AVE, STONEY CREEK"
      }
    ]
  },
  {
    "postal": "L8E7E7",
    "result": []
  },
  {
    "postal": "L8E0J0",
    "result": []
  },
  {
    "postal": "L8E7R8",
    "result": []
  },
  {
    "postal": "L8E9X0",
    "result": []
  },
  {
    "postal": "L8E7P6",
    "result": []
  },
  {
    "postal": "L8E0R7",
    "result": []
  },
  {
    "postal": "L8E5W1",
    "result": [
      {
        "electoralDistricts": [
          {
            "election": null,
            "id": 37,
            "name": "Hamilton East—Stoney Creek"
          }
        ],
        "pollDivisionIds": [
          10138669
        ],
        "postalCode": "L8E5W1",
        "streetName": "BARTON",
        "streetDirectionId": null,
        "streetTypeId": "ST",
        "placeName": "STONEY CREEK",
        "streetNameDisplayText": "BARTON ST, STONEY CREEK"
      },
      {
        "electoralDistricts": [
          {
            "election": null,
            "id": 37,
            "name": "Hamilton East—Stoney Creek"
          }
        ],
        "pollDivisionIds": [
          10138669
        ],
        "postalCode": "L8E5W1",
        "streetName": "CHIANTI",
        "streetDirectionId": null,
        "streetTypeId": "CRES",
        "placeName": "STONEY CREEK",
        "streetNameDisplayText": "CHIANTI CRES, STONEY CREEK"
      },
      {
        "electoralDistricts": [
          {
            "election": null,
            "id": 37,
            "name": "Hamilton East—Stoney Creek"
          }
        ],
        "pollDivisionIds": [
          10138669
        ],
        "postalCode": "L8E5W1",
        "streetName": "DUBONNET",
        "streetDirectionId": null,
        "streetTypeId": "DR",
        "placeName": "STONEY CREEK",
        "streetNameDisplayText": "DUBONNET DR, STONEY CREEK"
      },
      {
        "electoralDistricts": [
          {
            "election": null,
            "id": 37,
            "name": "Hamilton East—Stoney Creek"
          }
        ],
        "pollDivisionIds": [
          10138669
        ],
        "postalCode": "L8E5W1",
        "streetName": "ORVIETO",
        "streetDirectionId": null,
        "streetTypeId": "CRT",
        "placeName": "STONEY CREEK",
        "streetNameDisplayText": "ORVIETO CRT, STONEY CREEK"
      }
    ]
  },
  {
    "postal": "L8E0K4",
    "result": [
      {
        "electoralDistricts": [
          {
            "election": null,
            "id": 37,
            "name": "Hamilton East—Stoney Creek"
          }
        ],
        "pollDivisionIds": [
          10138643
        ],
        "postalCode": "L8E0K4",
        "streetName": "SHOREVIEW",
        "streetDirectionId": null,
        "streetTypeId": "PLACE",
        "placeName": "STONEY CREEK",
        "streetNameDisplayText": "SHOREVIEW PLACE, STONEY CREEK"
      }
    ]
  },
  {
    "postal": "L8E7N9",
    "result": []
  },
  {
    "postal": "L8E1N0",
    "result": []
  },
  {
    "postal": "L8E6P3",
    "result": []
  },
  {
    "postal": "L8E5A1",
    "result": [
      {
        "electoralDistricts": [
          {
            "election": null,
            "id": 37,
            "name": "Hamilton East—Stoney Creek"
          }
        ],
        "pollDivisionIds": [
          10138651
        ],
        "postalCode": "L8E5A1",
        "streetName": "COVE",
        "streetDirectionId": null,
        "streetTypeId": "CRES",
        "placeName": "STONEY CREEK",
        "streetNameDisplayText": "COVE CRES, STONEY CREEK"
      }
    ]
  },
  {
    "postal": "L8E9M9",
    "result": []
  },
  {
    "postal": "L8E7T6",
    "result": []
  },
  {
    "postal": "L8E3X0",
    "result": []
  },
  {
    "postal": "L8E2T0",
    "result": []
  },
  {
    "postal": "L8E5X9",
    "result": [
      {
        "electoralDistricts": [
          {
            "election": null,
            "id": 37,
            "name": "Hamilton East—Stoney Creek"
          }
        ],
        "pollDivisionIds": [
          10138650
        ],
        "postalCode": "L8E5X9",
        "streetName": "PINELANDS",
        "streetDirectionId": null,
        "streetTypeId": "AVE",
        "placeName": "STONEY CREEK",
        "streetNameDisplayText": "PINELANDS AVE, STONEY CREEK"
      }
    ]
  },
  {
    "postal": "L8E2R3",
    "result": []
  },
  {
    "postal": "L8E5N2",
    "result": [
      {
        "electoralDistricts": [
          {
            "election": null,
            "id": 37,
            "name": "Hamilton East—Stoney Creek"
          }
        ],
        "pollDivisionIds": [
          10138663
        ],
        "postalCode": "L8E5N2",
        "streetName": "CORNELL",
        "streetDirectionId": null,
        "streetTypeId": "AVE",
        "placeName": "STONEY CREEK",
        "streetNameDisplayText": "CORNELL AVE, STONEY CREEK"
      },
      {
        "electoralDistricts": [
          {
            "election": null,
            "id": 37,
            "name": "Hamilton East—Stoney Creek"
          }
        ],
        "pollDivisionIds": [
          10138663
        ],
        "postalCode": "L8E5N2",
        "streetName": "JONES",
        "streetDirectionId": null,
        "streetTypeId": "RD",
        "placeName": "STONEY CREEK",
        "streetNameDisplayText": "JONES RD, STONEY CREEK"
      }
    ]
  },
  {
    "postal": "L8E4Y7",
    "result": [
      {
        "electoralDistricts": [
          {
            "election": null,
            "id": 37,
            "name": "Hamilton East—Stoney Creek"
          }
        ],
        "pollDivisionIds": [
          10138668,
          10138663
        ],
        "postalCode": "L8E4Y7",
        "streetName": "NAPOLEON",
        "streetDirectionId": null,
        "streetTypeId": "DR",
        "placeName": "STONEY CREEK",
        "streetNameDisplayText": "NAPOLEON DR, STONEY CREEK"
      },
      {
        "electoralDistricts": [
          {
            "election": null,
            "id": 37,
            "name": "Hamilton East—Stoney Creek"
          }
        ],
        "pollDivisionIds": [
          10138668
        ],
        "postalCode": "L8E4Y7",
        "streetName": "VALERA",
        "streetDirectionId": null,
        "streetTypeId": "DR",
        "placeName": "STONEY CREEK",
        "streetNameDisplayText": "VALERA DR, STONEY CREEK"
      }
    ]
  },
  {
    "postal": "L8E7M0",
    "result": []
  },
  {
    "postal": "L8E8P3",
    "result": []
  },
  {
    "postal": "L8E3N3",
    "result": [
      {
        "electoralDistricts": [
          {
            "election": null,
            "id": 37,
            "name": "Hamilton East—Stoney Creek"
          }
        ],
        "pollDivisionIds": [
          10138648
        ],
        "postalCode": "L8E3N3",
        "streetName": "FAIRINGTON",
        "streetDirectionId": null,
        "streetTypeId": "CRES",
        "placeName": "HAMILTON",
        "streetNameDisplayText": "FAIRINGTON CRES, HAMILTON"
      }
    ]
  },
  {
    "postal": "L8E7S3",
    "result": []
  },
  {
    "postal": "L8E3V9",
    "result": [
      {
        "electoralDistricts": [
          {
            "election": null,
            "id": 37,
            "name": "Hamilton East—Stoney Creek"
          }
        ],
        "pollDivisionIds": [
          10138659
        ],
        "postalCode": "L8E3V9",
        "streetName": "HIGHRIDGE",
        "streetDirectionId": null,
        "streetTypeId": "AVE",
        "placeName": "HAMILTON",
        "streetNameDisplayText": "HIGHRIDGE AVE, HAMILTON"
      }
    ]
  },
  {
    "postal": "L8E9N7",
    "result": []
  },
  {
    "postal": "L8E0G4",
    "result": [
      {
        "electoralDistricts": [
          {
            "election": null,
            "id": 37,
            "name": "Hamilton East—Stoney Creek"
          }
        ],
        "pollDivisionIds": [
          10138669
        ],
        "postalCode": "L8E0G4",
        "streetName": "EDENROCK",
        "streetDirectionId": null,
        "streetTypeId": "DR",
        "placeName": "STONEY CREEK",
        "streetNameDisplayText": "EDENROCK DR, STONEY CREEK"
      },
      {
        "electoralDistricts": [
          {
            "election": null,
            "id": 37,
            "name": "Hamilton East—Stoney Creek"
          }
        ],
        "pollDivisionIds": [
          10138669
        ],
        "postalCode": "L8E0G4",
        "streetName": "ESCARPMENT",
        "streetDirectionId": null,
        "streetTypeId": "DR",
        "placeName": "STONEY CREEK",
        "streetNameDisplayText": "ESCARPMENT DR, STONEY CREEK"
      }
    ]
  },
  {
    "postal": "L8E2E2",
    "result": [
      {
        "electoralDistricts": [
          {
            "election": null,
            "id": 37,
            "name": "Hamilton East—Stoney Creek"
          }
        ],
        "pollDivisionIds": [
          10138650
        ],
        "postalCode": "L8E2E2",
        "streetName": "HEMLOCK",
        "streetDirectionId": null,
        "streetTypeId": "AVE",
        "placeName": "STONEY CREEK",
        "streetNameDisplayText": "HEMLOCK AVE, STONEY CREEK"
      }
    ]
  },
  {
    "postal": "L8E7W8",
    "result": []
  },
  {
    "postal": "L8E7M5",
    "result": []
  },
  {
    "postal": "L8E5W8",
    "result": [
      {
        "electoralDistricts": [
          {
            "election": null,
            "id": 37,
            "name": "Hamilton East—Stoney Creek"
          }
        ],
        "pollDivisionIds": [
          10138643
        ],
        "postalCode": "L8E5W8",
        "streetName": "DEWITT",
        "streetDirectionId": null,
        "streetTypeId": "RD",
        "placeName": "STONEY CREEK",
        "streetNameDisplayText": "DEWITT RD, STONEY CREEK"
      }
    ]
  },
  {
    "postal": "L8E5E5",
    "result": [
      {
        "electoralDistricts": [
          {
            "election": null,
            "id": 37,
            "name": "Hamilton East—Stoney Creek"
          }
        ],
        "pollDivisionIds": [
          10138651
        ],
        "postalCode": "L8E5E5",
        "streetName": "LIDO",
        "streetDirectionId": null,
        "streetTypeId": "DR",
        "placeName": "STONEY CREEK",
        "streetNameDisplayText": "LIDO DR, STONEY CREEK"
      },
      {
        "electoralDistricts": [
          {
            "election": null,
            "id": 37,
            "name": "Hamilton East—Stoney Creek"
          }
        ],
        "pollDivisionIds": [
          10138651
        ],
        "postalCode": "L8E5E5",
        "streetName": "RIVIERA",
        "streetDirectionId": null,
        "streetTypeId": "RIDGE",
        "placeName": "STONEY CREEK",
        "streetNameDisplayText": "RIVIERA RIDGE, STONEY CREEK"
      },
      {
        "electoralDistricts": [
          {
            "election": null,
            "id": 37,
            "name": "Hamilton East—Stoney Creek"
          }
        ],
        "pollDivisionIds": [
          10138651
        ],
        "postalCode": "L8E5E5",
        "streetName": "WINONA",
        "streetDirectionId": null,
        "streetTypeId": "RD",
        "placeName": "STONEY CREEK",
        "streetNameDisplayText": "WINONA RD, STONEY CREEK"
      }
    ]
  },
  {
    "postal": "L8E1P9",
    "result": []
  },
  {
    "postal": "L8E8V8",
    "result": []
  },
  {
    "postal": "L8E9G8",
    "result": []
  },
  {
    "postal": "L8E8H9",
    "result": []
  },
  {
    "postal": "L8E1Z1",
    "result": [
      {
        "electoralDistricts": [
          {
            "election": null,
            "id": 37,
            "name": "Hamilton East—Stoney Creek"
          }
        ],
        "pollDivisionIds": [
          10138662
        ],
        "postalCode": "L8E1Z1",
        "streetName": "LINCOLN",
        "streetDirectionId": null,
        "streetTypeId": "RD",
        "placeName": "STONEY CREEK",
        "streetNameDisplayText": "LINCOLN RD, STONEY CREEK"
      }
    ]
  },
  {
    "postal": "L8E8M3",
    "result": []
  },
  {
    "postal": "L8E5H6",
    "result": [
      {
        "electoralDistricts": [
          {
            "election": null,
            "id": 37,
            "name": "Hamilton East—Stoney Creek"
          }
        ],
        "pollDivisionIds": [
          10138663
        ],
        "postalCode": "L8E5H6",
        "streetName": "GLOVER",
        "streetDirectionId": null,
        "streetTypeId": "RD",
        "placeName": "STONEY CREEK",
        "streetNameDisplayText": "GLOVER RD, STONEY CREEK"
      },
      {
        "electoralDistricts": [
          {
            "election": null,
            "id": 37,
            "name": "Hamilton East—Stoney Creek"
          }
        ],
        "pollDivisionIds": [
          10138663
        ],
        "postalCode": "L8E5H6",
        "streetName": "HWY 8",
        "streetDirectionId": null,
        "streetTypeId": null,
        "placeName": "STONEY CREEK",
        "streetNameDisplayText": "HWY 8, STONEY CREEK"
      }
    ]
  },
  {
    "postal": "L8E7W7",
    "result": []
  },
  {
    "postal": "L8E4L0",
    "result": []
  },
  {
    "postal": "L8E2N1",
    "result": [
      {
        "electoralDistricts": [
          {
            "election": null,
            "id": 37,
            "name": "Hamilton East—Stoney Creek"
          }
        ],
        "pollDivisionIds": [
          10138663
        ],
        "postalCode": "L8E2N1",
        "streetName": "ARVIN",
        "streetDirectionId": null,
        "streetTypeId": "AVE",
        "placeName": "STONEY CREEK",
        "streetNameDisplayText": "ARVIN AVE, STONEY CREEK"
      }
    ]
  },
  {
    "postal": "L8E2H4",
    "result": [
      {
        "electoralDistricts": [
          {
            "election": null,
            "id": 37,
            "name": "Hamilton East—Stoney Creek"
          }
        ],
        "pollDivisionIds": [
          10138650
        ],
        "postalCode": "L8E2H4",
        "streetName": "MILLEN",
        "streetDirectionId": null,
        "streetTypeId": "RD",
        "placeName": "STONEY CREEK",
        "streetNameDisplayText": "MILLEN RD, STONEY CREEK"
      }
    ]
  },
  {
    "postal": "L8E5C8",
    "result": [
      {
        "electoralDistricts": [
          {
            "election": null,
            "id": 37,
            "name": "Hamilton East—Stoney Creek"
          }
        ],
        "pollDivisionIds": [
          10138651
        ],
        "postalCode": "L8E5C8",
        "streetName": "MCNEILLY",
        "streetDirectionId": null,
        "streetTypeId": "RD",
        "placeName": "STONEY CREEK",
        "streetNameDisplayText": "MCNEILLY RD, STONEY CREEK"
      },
      {
        "electoralDistricts": [
          {
            "election": null,
            "id": 37,
            "name": "Hamilton East—Stoney Creek"
          }
        ],
        "pollDivisionIds": [
          10138651
        ],
        "postalCode": "L8E5C8",
        "streetName": "NORTH SERVICE",
        "streetDirectionId": null,
        "streetTypeId": "RD",
        "placeName": "STONEY CREEK",
        "streetNameDisplayText": "NORTH SERVICE RD, STONEY CREEK"
      },
      {
        "electoralDistricts": [
          {
            "election": null,
            "id": 37,
            "name": "Hamilton East—Stoney Creek"
          }
        ],
        "pollDivisionIds": [
          10138651
        ],
        "postalCode": "L8E5C8",
        "streetName": "SEABREEZE",
        "streetDirectionId": null,
        "streetTypeId": "CRES",
        "placeName": "STONEY CREEK",
        "streetNameDisplayText": "SEABREEZE CRES, STONEY CREEK"
      }
    ]
  },
  {
    "postal": "L8E8B0",
    "result": []
  },
  {
    "postal": "L8E1T4",
    "result": [
      {
        "electoralDistricts": [
          {
            "election": null,
            "id": 37,
            "name": "Hamilton East—Stoney Creek"
          }
        ],
        "pollDivisionIds": [
          10138661
        ],
        "postalCode": "L8E1T4",
        "streetName": "GRAY",
        "streetDirectionId": null,
        "streetTypeId": "RD",
        "placeName": "STONEY CREEK",
        "streetNameDisplayText": "GRAY RD, STONEY CREEK"
      }
    ]
  },
  {
    "postal": "L8E7N7",
    "result": []
  },
  {
    "postal": "L8E4L3",
    "result": [
      {
        "electoralDistricts": [
          {
            "election": null,
            "id": 37,
            "name": "Hamilton East—Stoney Creek"
          }
        ],
        "pollDivisionIds": [
          10138659
        ],
        "postalCode": "L8E4L3",
        "streetName": "VITTORITO",
        "streetDirectionId": null,
        "streetTypeId": "AVE",
        "placeName": "HAMILTON",
        "streetNameDisplayText": "VITTORITO AVE, HAMILTON"
      }
    ]
  },
  {
    "postal": "L8E2N2",
    "result": []
  },
  {
    "postal": "L8E4N8",
    "result": [
      {
        "electoralDistricts": [
          {
            "election": null,
            "id": 37,
            "name": "Hamilton East—Stoney Creek"
          }
        ],
        "pollDivisionIds": [
          10138643
        ],
        "postalCode": "L8E4N8",
        "streetName": "NORTH SERVICE",
        "streetDirectionId": null,
        "streetTypeId": "RD",
        "placeName": "STONEY CREEK",
        "streetNameDisplayText": "NORTH SERVICE RD, STONEY CREEK"
      }
    ]
  },
  {
    "postal": "L8E3M5",
    "result": [
      {
        "electoralDistricts": [
          {
            "election": null,
            "id": 37,
            "name": "Hamilton East—Stoney Creek"
          }
        ],
        "pollDivisionIds": [
          10138640
        ],
        "postalCode": "L8E3M5",
        "streetName": "NASH",
        "streetDirectionId": "N",
        "streetTypeId": "RD",
        "placeName": "HAMILTON",
        "streetNameDisplayText": "NASH RD N, HAMILTON"
      }
    ]
  },
  {
    "postal": "L8E6H7",
    "result": []
  },
  {
    "postal": "L8E8Y8",
    "result": []
  },
  {
    "postal": "L8E5R9",
    "result": [
      {
        "electoralDistricts": [
          {
            "election": null,
            "id": 37,
            "name": "Hamilton East—Stoney Creek"
          }
        ],
        "pollDivisionIds": [
          10138669
        ],
        "postalCode": "L8E5R9",
        "streetName": "SOUTH SERVICE",
        "streetDirectionId": null,
        "streetTypeId": "RD",
        "placeName": "STONEY CREEK",
        "streetNameDisplayText": "SOUTH SERVICE RD, STONEY CREEK"
      }
    ]
  },
  {
    "postal": "L8E8G3",
    "result": []
  },
  {
    "postal": "L8E4N7",
    "result": []
  },
  {
    "postal": "L8E0B9",
    "result": [
      {
        "electoralDistricts": [
          {
            "election": null,
            "id": 37,
            "name": "Hamilton East—Stoney Creek"
          }
        ],
        "pollDivisionIds": [
          10138651
        ],
        "postalCode": "L8E0B9",
        "streetName": "DARTMOUTH",
        "streetDirectionId": null,
        "streetTypeId": "GATE",
        "placeName": "STONEY CREEK",
        "streetNameDisplayText": "DARTMOUTH GATE, STONEY CREEK"
      },
      {
        "electoralDistricts": [
          {
            "election": null,
            "id": 37,
            "name": "Hamilton East—Stoney Creek"
          }
        ],
        "pollDivisionIds": [
          10138651
        ],
        "postalCode": "L8E0B9",
        "streetName": "PALACEBEACH",
        "streetDirectionId": null,
        "streetTypeId": "TRAIL",
        "placeName": "STONEY CREEK",
        "streetNameDisplayText": "PALACEBEACH TRAIL, STONEY CREEK"
      }
    ]
  },
  {
    "postal": "L8E9K7",
    "result": []
  },
  {
    "postal": "L8E9K9",
    "result": []
  },
  {
    "postal": "L8E3Z2",
    "result": [
      {
        "electoralDistricts": [
          {
            "election": null,
            "id": 37,
            "name": "Hamilton East—Stoney Creek"
          }
        ],
        "pollDivisionIds": [
          10138648
        ],
        "postalCode": "L8E3Z2",
        "streetName": "OAKLAND",
        "streetDirectionId": null,
        "streetTypeId": "DR",
        "placeName": "HAMILTON",
        "streetNameDisplayText": "OAKLAND DR, HAMILTON"
      }
    ]
  },
  {
    "postal": "L8E6W7",
    "result": []
  },
  {
    "postal": "L8E0P1",
    "result": []
  },
  {
    "postal": "L8E3A0",
    "result": []
  },
  {
    "postal": "L8E8L9",
    "result": []
  },
  {
    "postal": "L8E6X0",
    "result": []
  },
  {
    "postal": "L8E3E9",
    "result": [
      {
        "electoralDistricts": [
          {
            "election": null,
            "id": 37,
            "name": "Hamilton East—Stoney Creek"
          }
        ],
        "pollDivisionIds": [
          10138650
        ],
        "postalCode": "L8E3E9",
        "streetName": "LYNWOOD",
        "streetDirectionId": null,
        "streetTypeId": "DR",
        "placeName": "STONEY CREEK",
        "streetNameDisplayText": "LYNWOOD DR, STONEY CREEK"
      }
    ]
  },
  {
    "postal": "L8E0S5",
    "result": []
  },
  {
    "postal": "L8E1A2",
    "result": [
      {
        "electoralDistricts": [
          {
            "election": null,
            "id": 37,
            "name": "Hamilton East—Stoney Creek"
          }
        ],
        "pollDivisionIds": [
          10138648
        ],
        "postalCode": "L8E1A2",
        "streetName": "KINGS",
        "streetDirectionId": null,
        "streetTypeId": "CRT",
        "placeName": "HAMILTON",
        "streetNameDisplayText": "KINGS CRT, HAMILTON"
      }
    ]
  },
  {
    "postal": "L8E5V8",
    "result": [
      {
        "electoralDistricts": [
          {
            "election": null,
            "id": 37,
            "name": "Hamilton East—Stoney Creek"
          }
        ],
        "pollDivisionIds": [
          10138648
        ],
        "postalCode": "L8E5V8",
        "streetName": "BARTON",
        "streetDirectionId": "E",
        "streetTypeId": "ST",
        "placeName": "HAMILTON",
        "streetNameDisplayText": "BARTON ST E, HAMILTON"
      }
    ]
  },
  {
    "postal": "L8E8C5",
    "result": []
  },
  {
    "postal": "L8E6N0",
    "result": []
  },
  {
    "postal": "L8E9E6",
    "result": []
  },
  {
    "postal": "L8E5J7",
    "result": [
      {
        "electoralDistricts": [
          {
            "election": null,
            "id": 37,
            "name": "Hamilton East—Stoney Creek"
          }
        ],
        "pollDivisionIds": [
          10138668,
          10138663
        ],
        "postalCode": "L8E5J7",
        "streetName": "FRUITLAND",
        "streetDirectionId": null,
        "streetTypeId": "RD",
        "placeName": "STONEY CREEK",
        "streetNameDisplayText": "FRUITLAND RD, STONEY CREEK"
      },
      {
        "electoralDistricts": [
          {
            "election": null,
            "id": 37,
            "name": "Hamilton East—Stoney Creek"
          }
        ],
        "pollDivisionIds": [
          10138663
        ],
        "postalCode": "L8E5J7",
        "streetName": "HWY 8",
        "streetDirectionId": null,
        "streetTypeId": null,
        "placeName": "STONEY CREEK",
        "streetNameDisplayText": "HWY 8, STONEY CREEK"
      }
    ]
  },
  {
    "postal": "L8E2R2",
    "result": [
      {
        "electoralDistricts": [
          {
            "election": null,
            "id": 37,
            "name": "Hamilton East—Stoney Creek"
          }
        ],
        "pollDivisionIds": [
          10138663
        ],
        "postalCode": "L8E2R2",
        "streetName": "SEAMAN",
        "streetDirectionId": null,
        "streetTypeId": "ST",
        "placeName": "STONEY CREEK",
        "streetNameDisplayText": "SEAMAN ST, STONEY CREEK"
      }
    ]
  },
  {
    "postal": "L8E0P5",
    "result": []
  },
  {
    "postal": "L8E5A7",
    "result": [
      {
        "electoralDistricts": [
          {
            "election": null,
            "id": 37,
            "name": "Hamilton East—Stoney Creek"
          }
        ],
        "pollDivisionIds": [
          10138643
        ],
        "postalCode": "L8E5A7",
        "streetName": "LAKEVIEW",
        "streetDirectionId": null,
        "streetTypeId": "DR",
        "placeName": "STONEY CREEK",
        "streetNameDisplayText": "LAKEVIEW DR, STONEY CREEK"
      },
      {
        "electoralDistricts": [
          {
            "election": null,
            "id": 37,
            "name": "Hamilton East—Stoney Creek"
          }
        ],
        "pollDivisionIds": [
          10138643
        ],
        "postalCode": "L8E5A7",
        "streetName": "THOMAS",
        "streetDirectionId": null,
        "streetTypeId": "CRT",
        "placeName": "STONEY CREEK",
        "streetNameDisplayText": "THOMAS CRT, STONEY CREEK"
      }
    ]
  },
  {
    "postal": "L8E1G1",
    "result": [
      {
        "electoralDistricts": [
          {
            "election": null,
            "id": 37,
            "name": "Hamilton East—Stoney Creek"
          }
        ],
        "pollDivisionIds": [
          10138649
        ],
        "postalCode": "L8E1G1",
        "streetName": "OLD ORCHARD",
        "streetDirectionId": null,
        "streetTypeId": "DR",
        "placeName": "HAMILTON",
        "streetNameDisplayText": "OLD ORCHARD DR, HAMILTON"
      }
    ]
  },
  {
    "postal": "L8E9R6",
    "result": []
  },
  {
    "postal": "L8E4Z9",
    "result": [
      {
        "electoralDistricts": [
          {
            "election": null,
            "id": 37,
            "name": "Hamilton East—Stoney Creek"
          }
        ],
        "pollDivisionIds": [
          10138651
        ],
        "postalCode": "L8E4Z9",
        "streetName": "WATERFORD",
        "streetDirectionId": null,
        "streetTypeId": "CRES",
        "placeName": "STONEY CREEK",
        "streetNameDisplayText": "WATERFORD CRES, STONEY CREEK"
      }
    ]
  },
  {
    "postal": "L8E1V5",
    "result": [
      {
        "electoralDistricts": [
          {
            "election": null,
            "id": 37,
            "name": "Hamilton East—Stoney Creek"
          }
        ],
        "pollDivisionIds": [
          10138661
        ],
        "postalCode": "L8E1V5",
        "streetName": "GRAYS",
        "streetDirectionId": null,
        "streetTypeId": "RD",
        "placeName": "HAMILTON",
        "streetNameDisplayText": "GRAYS RD, HAMILTON"
      }
    ]
  },
  {
    "postal": "L8E9Y5",
    "result": []
  },
  {
    "postal": "L8E1P2",
    "result": [
      {
        "electoralDistricts": [
          {
            "election": null,
            "id": 37,
            "name": "Hamilton East—Stoney Creek"
          }
        ],
        "pollDivisionIds": [
          10138662
        ],
        "postalCode": "L8E1P2",
        "streetName": "FEDERAL",
        "streetDirectionId": null,
        "streetTypeId": "ST",
        "placeName": "STONEY CREEK",
        "streetNameDisplayText": "FEDERAL ST, STONEY CREEK"
      }
    ]
  },
  {
    "postal": "L8E5X0",
    "result": []
  },
  {
    "postal": "L8E7B8",
    "result": []
  },
  {
    "postal": "L8E0C6",
    "result": [
      {
        "electoralDistricts": [
          {
            "election": null,
            "id": 37,
            "name": "Hamilton East—Stoney Creek"
          }
        ],
        "pollDivisionIds": [
          10138651
        ],
        "postalCode": "L8E0C6",
        "streetName": "MONTREAL",
        "streetDirectionId": null,
        "streetTypeId": "CIR",
        "placeName": "STONEY CREEK",
        "streetNameDisplayText": "MONTREAL CIR, STONEY CREEK"
      }
    ]
  },
  {
    "postal": "L8E6G1",
    "result": [
      {
        "electoralDistricts": [
          {
            "election": null,
            "id": 37,
            "name": "Hamilton East—Stoney Creek"
          }
        ],
        "pollDivisionIds": [
          10138651
        ],
        "postalCode": "L8E6G1",
        "streetName": "CARDIFF",
        "streetDirectionId": null,
        "streetTypeId": "LANE",
        "placeName": "STONEY CREEK",
        "streetNameDisplayText": "CARDIFF LANE, STONEY CREEK"
      },
      {
        "electoralDistricts": [
          {
            "election": null,
            "id": 37,
            "name": "Hamilton East—Stoney Creek"
          }
        ],
        "pollDivisionIds": [
          10138651
        ],
        "postalCode": "L8E6G1",
        "streetName": "GREENSTEM",
        "streetDirectionId": null,
        "streetTypeId": "CRES",
        "placeName": "STONEY CREEK",
        "streetNameDisplayText": "GREENSTEM CRES, STONEY CREEK"
      },
      {
        "electoralDistricts": [
          {
            "election": null,
            "id": 37,
            "name": "Hamilton East—Stoney Creek"
          }
        ],
        "pollDivisionIds": [
          10138651
        ],
        "postalCode": "L8E6G1",
        "streetName": "RIDGEGATE",
        "streetDirectionId": null,
        "streetTypeId": "PL",
        "placeName": "STONEY CREEK",
        "streetNameDisplayText": "RIDGEGATE PL, STONEY CREEK"
      }
    ]
  },
  {
    "postal": "L8E3K3",
    "result": [
      {
        "electoralDistricts": [
          {
            "election": null,
            "id": 37,
            "name": "Hamilton East—Stoney Creek"
          }
        ],
        "pollDivisionIds": [
          10138659
        ],
        "postalCode": "L8E3K3",
        "streetName": "EVELYN",
        "streetDirectionId": null,
        "streetTypeId": "ST",
        "placeName": "HAMILTON",
        "streetNameDisplayText": "EVELYN ST, HAMILTON"
      }
    ]
  },
  {
    "postal": "L8E9R0",
    "result": []
  },
  {
    "postal": "L8E4R8",
    "result": [
      {
        "electoralDistricts": [
          {
            "election": null,
            "id": 37,
            "name": "Hamilton East—Stoney Creek"
          }
        ],
        "pollDivisionIds": [
          10138649
        ],
        "postalCode": "L8E4R8",
        "streetName": "BLUEBERRY",
        "streetDirectionId": null,
        "streetTypeId": "DR",
        "placeName": "HAMILTON",
        "streetNameDisplayText": "BLUEBERRY DR, HAMILTON"
      }
    ]
  },
  {
    "postal": "L8E5P9",
    "result": []
  },
  {
    "postal": "L8E8N4",
    "result": []
  },
  {
    "postal": "L8E8H4",
    "result": []
  },
  {
    "postal": "L8E4V1",
    "result": [
      {
        "electoralDistricts": [
          {
            "election": null,
            "id": 37,
            "name": "Hamilton East—Stoney Creek"
          }
        ],
        "pollDivisionIds": [
          10138663
        ],
        "postalCode": "L8E4V1",
        "streetName": "VELVET",
        "streetDirectionId": null,
        "streetTypeId": "CRT",
        "placeName": "STONEY CREEK",
        "streetNameDisplayText": "VELVET CRT, STONEY CREEK"
      }
    ]
  },
  {
    "postal": "L8E1K5",
    "result": [
      {
        "electoralDistricts": [
          {
            "election": null,
            "id": 37,
            "name": "Hamilton East—Stoney Creek"
          }
        ],
        "pollDivisionIds": [
          10138649
        ],
        "postalCode": "L8E1K5",
        "streetName": "JEROME",
        "streetDirectionId": null,
        "streetTypeId": "CRES",
        "placeName": "HAMILTON",
        "streetNameDisplayText": "JEROME CRES, HAMILTON"
      }
    ]
  },
  {
    "postal": "L8E1Z5",
    "result": [
      {
        "electoralDistricts": [
          {
            "election": null,
            "id": 37,
            "name": "Hamilton East—Stoney Creek"
          }
        ],
        "pollDivisionIds": [
          10138662
        ],
        "postalCode": "L8E1Z5",
        "streetName": "NORWICH",
        "streetDirectionId": null,
        "streetTypeId": "RD",
        "placeName": "STONEY CREEK",
        "streetNameDisplayText": "NORWICH RD, STONEY CREEK"
      }
    ]
  },
  {
    "postal": "L8E9L9",
    "result": []
  },
  {
    "postal": "L8E5L2",
    "result": [
      {
        "electoralDistricts": [
          {
            "election": null,
            "id": 37,
            "name": "Hamilton East—Stoney Creek"
          }
        ],
        "pollDivisionIds": [
          10138669
        ],
        "postalCode": "L8E5L2",
        "streetName": "HWY 8",
        "streetDirectionId": null,
        "streetTypeId": null,
        "placeName": "STONEY CREEK",
        "streetNameDisplayText": "HWY 8, STONEY CREEK"
      },
      {
        "electoralDistricts": [
          {
            "election": null,
            "id": 37,
            "name": "Hamilton East—Stoney Creek"
          }
        ],
        "pollDivisionIds": [
          10138669
        ],
        "postalCode": "L8E5L2",
        "streetName": "MILLIKIN",
        "streetDirectionId": null,
        "streetTypeId": "DR",
        "placeName": "STONEY CREEK",
        "streetNameDisplayText": "MILLIKIN DR, STONEY CREEK"
      },
      {
        "electoralDistricts": [
          {
            "election": null,
            "id": 37,
            "name": "Hamilton East—Stoney Creek"
          }
        ],
        "pollDivisionIds": [
          10138669
        ],
        "postalCode": "L8E5L2",
        "streetName": "PARKMANOR",
        "streetDirectionId": null,
        "streetTypeId": "DR",
        "placeName": "STONEY CREEK",
        "streetNameDisplayText": "PARKMANOR DR, STONEY CREEK"
      }
    ]
  },
  {
    "postal": "L8E0M2",
    "result": []
  },
  {
    "postal": "L8E1K8",
    "result": [
      {
        "electoralDistricts": [
          {
            "election": null,
            "id": 37,
            "name": "Hamilton East—Stoney Creek"
          }
        ],
        "pollDivisionIds": [
          10138649
        ],
        "postalCode": "L8E1K8",
        "streetName": "HOLLYDENE",
        "streetDirectionId": null,
        "streetTypeId": "PL",
        "placeName": "HAMILTON",
        "streetNameDisplayText": "HOLLYDENE PL, HAMILTON"
      }
    ]
  },
  {
    "postal": "L8E3M7",
    "result": [
      {
        "electoralDistricts": [
          {
            "election": null,
            "id": 37,
            "name": "Hamilton East—Stoney Creek"
          }
        ],
        "pollDivisionIds": [
          10138648
        ],
        "postalCode": "L8E3M7",
        "streetName": "VILLAGE",
        "streetDirectionId": null,
        "streetTypeId": "DR",
        "placeName": "HAMILTON",
        "streetNameDisplayText": "VILLAGE DR, HAMILTON"
      }
    ]
  },
  {
    "postal": "L8E1B2",
    "result": [
      {
        "electoralDistricts": [
          {
            "election": null,
            "id": 37,
            "name": "Hamilton East—Stoney Creek"
          }
        ],
        "pollDivisionIds": [
          10138648
        ],
        "postalCode": "L8E1B2",
        "streetName": "HOUNSLOW",
        "streetDirectionId": null,
        "streetTypeId": "CRT",
        "placeName": "HAMILTON",
        "streetNameDisplayText": "HOUNSLOW CRT, HAMILTON"
      }
    ]
  },
  {
    "postal": "L8E0H9",
    "result": [
      {
        "electoralDistricts": [
          {
            "election": null,
            "id": 37,
            "name": "Hamilton East—Stoney Creek"
          }
        ],
        "pollDivisionIds": [
          10138650
        ],
        "postalCode": "L8E0H9",
        "streetName": "MACINTOSH",
        "streetDirectionId": null,
        "streetTypeId": "DR",
        "placeName": "STONEY CREEK",
        "streetNameDisplayText": "MACINTOSH DR, STONEY CREEK"
      },
      {
        "electoralDistricts": [
          {
            "election": null,
            "id": 37,
            "name": "Hamilton East—Stoney Creek"
          }
        ],
        "pollDivisionIds": [
          10138650
        ],
        "postalCode": "L8E0H9",
        "streetName": "SAXONY",
        "streetDirectionId": null,
        "streetTypeId": "CRT",
        "placeName": "STONEY CREEK",
        "streetNameDisplayText": "SAXONY CRT, STONEY CREEK"
      }
    ]
  },
  {
    "postal": "L8E8M4",
    "result": []
  },
  {
    "postal": "L8E2M5",
    "result": []
  },
  {
    "postal": "L8E0T9",
    "result": []
  },
  {
    "postal": "L8E3P1",
    "result": [
      {
        "electoralDistricts": [
          {
            "election": null,
            "id": 37,
            "name": "Hamilton East—Stoney Creek"
          }
        ],
        "pollDivisionIds": [
          10138659
        ],
        "postalCode": "L8E3P1",
        "streetName": "BROCKLEY",
        "streetDirectionId": null,
        "streetTypeId": "DR",
        "placeName": "HAMILTON",
        "streetNameDisplayText": "BROCKLEY DR, HAMILTON"
      }
    ]
  },
  {
    "postal": "L8E1R6",
    "result": []
  },
  {
    "postal": "L8E9V5",
    "result": []
  },
  {
    "postal": "L8E9T0",
    "result": []
  },
  {
    "postal": "L8E0A9",
    "result": [
      {
        "electoralDistricts": [
          {
            "election": null,
            "id": 37,
            "name": "Hamilton East—Stoney Creek"
          }
        ],
        "pollDivisionIds": [
          10138651
        ],
        "postalCode": "L8E0A9",
        "streetName": "GLENDARLING",
        "streetDirectionId": null,
        "streetTypeId": "CRES",
        "placeName": "STONEY CREEK",
        "streetNameDisplayText": "GLENDARLING CRES, STONEY CREEK"
      }
    ]
  },
  {
    "postal": "L8E1M3",
    "result": [
      {
        "electoralDistricts": [
          {
            "election": null,
            "id": 37,
            "name": "Hamilton East—Stoney Creek"
          }
        ],
        "pollDivisionIds": [
          10138659
        ],
        "postalCode": "L8E1M3",
        "streetName": "BERKINDALE",
        "streetDirectionId": null,
        "streetTypeId": "DR",
        "placeName": "HAMILTON",
        "streetNameDisplayText": "BERKINDALE DR, HAMILTON"
      }
    ]
  },
  {
    "postal": "L8E1W8",
    "result": [
      {
        "electoralDistricts": [
          {
            "election": null,
            "id": 37,
            "name": "Hamilton East—Stoney Creek"
          }
        ],
        "pollDivisionIds": [
          10138661
        ],
        "postalCode": "L8E1W8",
        "streetName": "DURHAM",
        "streetDirectionId": null,
        "streetTypeId": "RD",
        "placeName": "STONEY CREEK",
        "streetNameDisplayText": "DURHAM RD, STONEY CREEK"
      }
    ]
  },
  {
    "postal": "L8E9J1",
    "result": []
  },
  {
    "postal": "L8E8N5",
    "result": []
  },
  {
    "postal": "L8E5X1",
    "result": [
      {
        "electoralDistricts": [
          {
            "election": null,
            "id": 37,
            "name": "Hamilton East—Stoney Creek"
          }
        ],
        "pollDivisionIds": [
          10138669
        ],
        "postalCode": "L8E5X1",
        "streetName": "GLOVER",
        "streetDirectionId": null,
        "streetTypeId": "RD",
        "placeName": "STONEY CREEK",
        "streetNameDisplayText": "GLOVER RD, STONEY CREEK"
      }
    ]
  },
  {
    "postal": "L8E6S2",
    "result": []
  },
  {
    "postal": "L8E2A2",
    "result": [
      {
        "electoralDistricts": [
          {
            "election": null,
            "id": 37,
            "name": "Hamilton East—Stoney Creek"
          }
        ],
        "pollDivisionIds": [
          10138662
        ],
        "postalCode": "L8E2A2",
        "streetName": "GREEN",
        "streetDirectionId": null,
        "streetTypeId": "RD",
        "placeName": "STONEY CREEK",
        "streetNameDisplayText": "GREEN RD, STONEY CREEK"
      }
    ]
  },
  {
    "postal": "L8E6A6",
    "result": [
      {
        "electoralDistricts": [
          {
            "election": null,
            "id": 37,
            "name": "Hamilton East—Stoney Creek"
          }
        ],
        "pollDivisionIds": [
          10138669
        ],
        "postalCode": "L8E6A6",
        "streetName": "SILVERLACE",
        "streetDirectionId": null,
        "streetTypeId": "CIR",
        "placeName": "STONEY CREEK",
        "streetNameDisplayText": "SILVERLACE CIR, STONEY CREEK"
      }
    ]
  },
  {
    "postal": "L8E0S3",
    "result": []
  },
  {
    "postal": "L8E3E7",
    "result": [
      {
        "electoralDistricts": [
          {
            "election": null,
            "id": 37,
            "name": "Hamilton East—Stoney Creek"
          }
        ],
        "pollDivisionIds": [
          10138650
        ],
        "postalCode": "L8E3E7",
        "streetName": "LYNWOOD",
        "streetDirectionId": null,
        "streetTypeId": "DR",
        "placeName": "STONEY CREEK",
        "streetNameDisplayText": "LYNWOOD DR, STONEY CREEK"
      }
    ]
  },
  {
    "postal": "L8E5R7",
    "result": [
      {
        "electoralDistricts": [
          {
            "election": null,
            "id": 37,
            "name": "Hamilton East—Stoney Creek"
          }
        ],
        "pollDivisionIds": [
          10138663
        ],
        "postalCode": "L8E5R7",
        "streetName": "CHELSEA",
        "streetDirectionId": null,
        "streetTypeId": "CRES",
        "placeName": "STONEY CREEK",
        "streetNameDisplayText": "CHELSEA CRES, STONEY CREEK"
      }
    ]
  },
  {
    "postal": "L8E3R6",
    "result": [
      {
        "electoralDistricts": [
          {
            "election": null,
            "id": 37,
            "name": "Hamilton East—Stoney Creek"
          }
        ],
        "pollDivisionIds": [
          10138649
        ],
        "postalCode": "L8E3R6",
        "streetName": "BARLAKE",
        "streetDirectionId": null,
        "streetTypeId": "AVE",
        "placeName": "HAMILTON",
        "streetNameDisplayText": "BARLAKE AVE, HAMILTON"
      }
    ]
  },
  {
    "postal": "L8E6K4",
    "result": []
  },
  {
    "postal": "L8E2W5",
    "result": [
      {
        "electoralDistricts": [
          {
            "election": null,
            "id": 37,
            "name": "Hamilton East—Stoney Creek"
          }
        ],
        "pollDivisionIds": [
          10138648
        ],
        "postalCode": "L8E2W5",
        "streetName": "BANCROFT",
        "streetDirectionId": null,
        "streetTypeId": "ST",
        "placeName": "HAMILTON",
        "streetNameDisplayText": "BANCROFT ST, HAMILTON"
      }
    ]
  },
  {
    "postal": "L8E8W4",
    "result": []
  },
  {
    "postal": "L8E9C2",
    "result": []
  },
  {
    "postal": "L8E2C0",
    "result": []
  },
  {
    "postal": "L8E0E1",
    "result": [
      {
        "electoralDistricts": [
          {
            "election": null,
            "id": 37,
            "name": "Hamilton East—Stoney Creek"
          }
        ],
        "pollDivisionIds": [
          10138651
        ],
        "postalCode": "L8E0E1",
        "streetName": "KINGSTON",
        "streetDirectionId": null,
        "streetTypeId": "RD",
        "placeName": "STONEY CREEK",
        "streetNameDisplayText": "KINGSTON RD, STONEY CREEK"
      },
      {
        "electoralDistricts": [
          {
            "election": null,
            "id": 37,
            "name": "Hamilton East—Stoney Creek"
          }
        ],
        "pollDivisionIds": [
          10138651
        ],
        "postalCode": "L8E0E1",
        "streetName": "MONTREAL",
        "streetDirectionId": null,
        "streetTypeId": "CIR",
        "placeName": "STONEY CREEK",
        "streetNameDisplayText": "MONTREAL CIR, STONEY CREEK"
      },
      {
        "electoralDistricts": [
          {
            "election": null,
            "id": 37,
            "name": "Hamilton East—Stoney Creek"
          }
        ],
        "pollDivisionIds": [
          10138651
        ],
        "postalCode": "L8E0E1",
        "streetName": "NANAIMO",
        "streetDirectionId": null,
        "streetTypeId": "CRES",
        "placeName": "STONEY CREEK",
        "streetNameDisplayText": "NANAIMO CRES, STONEY CREEK"
      }
    ]
  },
  {
    "postal": "L8E1K9",
    "result": [
      {
        "electoralDistricts": [
          {
            "election": null,
            "id": 37,
            "name": "Hamilton East—Stoney Creek"
          }
        ],
        "pollDivisionIds": [
          10138649
        ],
        "postalCode": "L8E1K9",
        "streetName": "HOLLYDENE",
        "streetDirectionId": null,
        "streetTypeId": "PL",
        "placeName": "HAMILTON",
        "streetNameDisplayText": "HOLLYDENE PL, HAMILTON"
      }
    ]
  },
  {
    "postal": "L8E1G7",
    "result": [
      {
        "electoralDistricts": [
          {
            "election": null,
            "id": 37,
            "name": "Hamilton East—Stoney Creek"
          }
        ],
        "pollDivisionIds": [
          10138649
        ],
        "postalCode": "L8E1G7",
        "streetName": "BARLAKE",
        "streetDirectionId": null,
        "streetTypeId": "AVE",
        "placeName": "HAMILTON",
        "streetNameDisplayText": "BARLAKE AVE, HAMILTON"
      }
    ]
  },
  {
    "postal": "L8E4E9",
    "result": [
      {
        "electoralDistricts": [
          {
            "election": null,
            "id": 37,
            "name": "Hamilton East—Stoney Creek"
          }
        ],
        "pollDivisionIds": [
          10138662
        ],
        "postalCode": "L8E4E9",
        "streetName": "ELLINGTON",
        "streetDirectionId": null,
        "streetTypeId": "AVE",
        "placeName": "STONEY CREEK",
        "streetNameDisplayText": "ELLINGTON AVE, STONEY CREEK"
      }
    ]
  },
  {
    "postal": "L8E9P0",
    "result": []
  },
  {
    "postal": "L8E5H3",
    "result": [
      {
        "electoralDistricts": [
          {
            "election": null,
            "id": 37,
            "name": "Hamilton East—Stoney Creek"
          }
        ],
        "pollDivisionIds": [
          10138663,
          10138669
        ],
        "postalCode": "L8E5H3",
        "streetName": "BARTON",
        "streetDirectionId": null,
        "streetTypeId": "ST",
        "placeName": "STONEY CREEK",
        "streetNameDisplayText": "BARTON ST, STONEY CREEK"
      },
      {
        "electoralDistricts": [
          {
            "election": null,
            "id": 37,
            "name": "Hamilton East—Stoney Creek"
          }
        ],
        "pollDivisionIds": [
          10138663,
          10138669
        ],
        "postalCode": "L8E5H3",
        "streetName": "MCNEILLY",
        "streetDirectionId": null,
        "streetTypeId": "RD",
        "placeName": "STONEY CREEK",
        "streetNameDisplayText": "MCNEILLY RD, STONEY CREEK"
      }
    ]
  },
  {
    "postal": "L8E9X6",
    "result": []
  },
  {
    "postal": "L8E5N7",
    "result": [
      {
        "electoralDistricts": [
          {
            "election": null,
            "id": 37,
            "name": "Hamilton East—Stoney Creek"
          }
        ],
        "pollDivisionIds": [
          10138663
        ],
        "postalCode": "L8E5N7",
        "streetName": "ARVIN",
        "streetDirectionId": null,
        "streetTypeId": "AVE",
        "placeName": "STONEY CREEK",
        "streetNameDisplayText": "ARVIN AVE, STONEY CREEK"
      }
    ]
  },
  {
    "postal": "L8E5A6",
    "result": [
      {
        "electoralDistricts": [
          {
            "election": null,
            "id": 37,
            "name": "Hamilton East—Stoney Creek"
          }
        ],
        "pollDivisionIds": [
          10138651,
          10138643
        ],
        "postalCode": "L8E5A6",
        "streetName": "FRUITLAND",
        "streetDirectionId": null,
        "streetTypeId": "RD",
        "placeName": "STONEY CREEK",
        "streetNameDisplayText": "FRUITLAND RD, STONEY CREEK"
      },
      {
        "electoralDistricts": [
          {
            "election": null,
            "id": 37,
            "name": "Hamilton East—Stoney Creek"
          }
        ],
        "pollDivisionIds": [
          10138643
        ],
        "postalCode": "L8E5A6",
        "streetName": "HERBERT",
        "streetDirectionId": null,
        "streetTypeId": "CRT",
        "placeName": "STONEY CREEK",
        "streetNameDisplayText": "HERBERT CRT, STONEY CREEK"
      },
      {
        "electoralDistricts": [
          {
            "election": null,
            "id": 37,
            "name": "Hamilton East—Stoney Creek"
          }
        ],
        "pollDivisionIds": [
          10138643
        ],
        "postalCode": "L8E5A6",
        "streetName": "LAKEVIEW",
        "streetDirectionId": null,
        "streetTypeId": "DR",
        "placeName": "STONEY CREEK",
        "streetNameDisplayText": "LAKEVIEW DR, STONEY CREEK"
      }
    ]
  },
  {
    "postal": "L8E4M0",
    "result": []
  },
  {
    "postal": "L8E3V6",
    "result": [
      {
        "electoralDistricts": [
          {
            "election": null,
            "id": 37,
            "name": "Hamilton East—Stoney Creek"
          }
        ],
        "pollDivisionIds": [
          10138659
        ],
        "postalCode": "L8E3V6",
        "streetName": "CAPRI",
        "streetDirectionId": null,
        "streetTypeId": "CRES",
        "placeName": "HAMILTON",
        "streetNameDisplayText": "CAPRI CRES, HAMILTON"
      }
    ]
  },
  {
    "postal": "L8E1L7",
    "result": [
      {
        "electoralDistricts": [
          {
            "election": null,
            "id": 37,
            "name": "Hamilton East—Stoney Creek"
          }
        ],
        "pollDivisionIds": [
          10138659
        ],
        "postalCode": "L8E1L7",
        "streetName": "HONEYWELL",
        "streetDirectionId": null,
        "streetTypeId": "DR",
        "placeName": "HAMILTON",
        "streetNameDisplayText": "HONEYWELL DR, HAMILTON"
      }
    ]
  },
  {
    "postal": "L8E2P9",
    "result": []
  },
  {
    "postal": "L8E5T4",
    "result": [
      {
        "electoralDistricts": [
          {
            "election": null,
            "id": 37,
            "name": "Hamilton East—Stoney Creek"
          }
        ],
        "pollDivisionIds": [
          10138651
        ],
        "postalCode": "L8E5T4",
        "streetName": "FIFTY",
        "streetDirectionId": null,
        "streetTypeId": "RD",
        "placeName": "STONEY CREEK",
        "streetNameDisplayText": "FIFTY RD, STONEY CREEK"
      }
    ]
  },
  {
    "postal": "L8E5Z1",
    "result": [
      {
        "electoralDistricts": [
          {
            "election": null,
            "id": 37,
            "name": "Hamilton East—Stoney Creek"
          }
        ],
        "pollDivisionIds": [
          10138651
        ],
        "postalCode": "L8E5Z1",
        "streetName": "LIUNA",
        "streetDirectionId": null,
        "streetTypeId": "CRT",
        "placeName": "STONEY CREEK",
        "streetNameDisplayText": "LIUNA CRT, STONEY CREEK"
      }
    ]
  },
  {
    "postal": "L8E2X0",
    "result": []
  },
  {
    "postal": "L8E6Z2",
    "result": []
  },
  {
    "postal": "L8E0E0",
    "result": []
  },
  {
    "postal": "L8E3Z5",
    "result": [
      {
        "electoralDistricts": [
          {
            "election": null,
            "id": 37,
            "name": "Hamilton East—Stoney Creek"
          }
        ],
        "pollDivisionIds": [
          10138662
        ],
        "postalCode": "L8E3Z5",
        "streetName": "RUSSET",
        "streetDirectionId": null,
        "streetTypeId": "CRT",
        "placeName": "STONEY CREEK",
        "streetNameDisplayText": "RUSSET CRT, STONEY CREEK"
      }
    ]
  },
  {
    "postal": "L8E8H3",
    "result": []
  },
  {
    "postal": "L8E7S6",
    "result": []
  },
  {
    "postal": "L8E4C1",
    "result": [
      {
        "electoralDistricts": [
          {
            "election": null,
            "id": 37,
            "name": "Hamilton East—Stoney Creek"
          }
        ],
        "pollDivisionIds": [
          10138650
        ],
        "postalCode": "L8E4C1",
        "streetName": "MACINTOSH",
        "streetDirectionId": null,
        "streetTypeId": "DR",
        "placeName": "STONEY CREEK",
        "streetNameDisplayText": "MACINTOSH DR, STONEY CREEK"
      }
    ]
  },
  {
    "postal": "L8E3K2",
    "result": [
      {
        "electoralDistricts": [
          {
            "election": null,
            "id": 37,
            "name": "Hamilton East—Stoney Creek"
          }
        ],
        "pollDivisionIds": [
          10138659
        ],
        "postalCode": "L8E3K2",
        "streetName": "EVELYN",
        "streetDirectionId": null,
        "streetTypeId": "ST",
        "placeName": "HAMILTON",
        "streetNameDisplayText": "EVELYN ST, HAMILTON"
      }
    ]
  },
  {
    "postal": "L8E1Y5",
    "result": [
      {
        "electoralDistricts": [
          {
            "election": null,
            "id": 37,
            "name": "Hamilton East—Stoney Creek"
          }
        ],
        "pollDivisionIds": [
          10138662
        ],
        "postalCode": "L8E1Y5",
        "streetName": "WARWICK",
        "streetDirectionId": null,
        "streetTypeId": "RD",
        "placeName": "STONEY CREEK",
        "streetNameDisplayText": "WARWICK RD, STONEY CREEK"
      }
    ]
  },
  {
    "postal": "L8E6P6",
    "result": []
  },
  {
    "postal": "L8E3N9",
    "result": [
      {
        "electoralDistricts": [
          {
            "election": null,
            "id": 37,
            "name": "Hamilton East—Stoney Creek"
          }
        ],
        "pollDivisionIds": [
          10138663
        ],
        "postalCode": "L8E3N9",
        "streetName": "MILLEN",
        "streetDirectionId": null,
        "streetTypeId": "RD",
        "placeName": "STONEY CREEK",
        "streetNameDisplayText": "MILLEN RD, STONEY CREEK"
      }
    ]
  },
  {
    "postal": "L8E3W2",
    "result": [
      {
        "electoralDistricts": [
          {
            "election": null,
            "id": 37,
            "name": "Hamilton East—Stoney Creek"
          }
        ],
        "pollDivisionIds": [
          10138659
        ],
        "postalCode": "L8E3W2",
        "streetName": "HIGHRIDGE",
        "streetDirectionId": null,
        "streetTypeId": "AVE",
        "placeName": "HAMILTON",
        "streetNameDisplayText": "HIGHRIDGE AVE, HAMILTON"
      }
    ]
  },
  {
    "postal": "L8E6H8",
    "result": []
  },
  {
    "postal": "L8E9T3",
    "result": []
  },
  {
    "postal": "L8E5L9",
    "result": [
      {
        "electoralDistricts": [
          {
            "election": null,
            "id": 37,
            "name": "Hamilton East—Stoney Creek"
          }
        ],
        "pollDivisionIds": [
          10138663
        ],
        "postalCode": "L8E5L9",
        "streetName": "FRUITLAND",
        "streetDirectionId": null,
        "streetTypeId": "RD",
        "placeName": "STONEY CREEK",
        "streetNameDisplayText": "FRUITLAND RD, STONEY CREEK"
      }
    ]
  },
  {
    "postal": "L8E7X7",
    "result": []
  },
  {
    "postal": "L8E3J5",
    "result": [
      {
        "electoralDistricts": [
          {
            "election": null,
            "id": 37,
            "name": "Hamilton East—Stoney Creek"
          }
        ],
        "pollDivisionIds": [
          10138662
        ],
        "postalCode": "L8E3J5",
        "streetName": "GREEN",
        "streetDirectionId": null,
        "streetTypeId": "RD",
        "placeName": "STONEY CREEK",
        "streetNameDisplayText": "GREEN RD, STONEY CREEK"
      }
    ]
  },
  {
    "postal": "L8E4J5",
    "result": [
      {
        "electoralDistricts": [
          {
            "election": null,
            "id": 37,
            "name": "Hamilton East—Stoney Creek"
          }
        ],
        "pollDivisionIds": [
          10138659
        ],
        "postalCode": "L8E4J5",
        "streetName": "BOW VALLEY",
        "streetDirectionId": null,
        "streetTypeId": "DR",
        "placeName": "HAMILTON",
        "streetNameDisplayText": "BOW VALLEY DR, HAMILTON"
      }
    ]
  },
  {
    "postal": "L8E6J2",
    "result": []
  },
  {
    "postal": "L8E5V6",
    "result": [
      {
        "electoralDistricts": [
          {
            "election": null,
            "id": 37,
            "name": "Hamilton East—Stoney Creek"
          }
        ],
        "pollDivisionIds": [
          10138643
        ],
        "postalCode": "L8E5V6",
        "streetName": "FRANCES",
        "streetDirectionId": null,
        "streetTypeId": "AVE",
        "placeName": "STONEY CREEK",
        "streetNameDisplayText": "FRANCES AVE, STONEY CREEK"
      }
    ]
  },
  {
    "postal": "L8E3N2",
    "result": [
      {
        "electoralDistricts": [
          {
            "election": null,
            "id": 37,
            "name": "Hamilton East—Stoney Creek"
          }
        ],
        "pollDivisionIds": [
          10138648
        ],
        "postalCode": "L8E3N2",
        "streetName": "ADORN",
        "streetDirectionId": null,
        "streetTypeId": "CRT",
        "placeName": "HAMILTON",
        "streetNameDisplayText": "ADORN CRT, HAMILTON"
      }
    ]
  },
  {
    "postal": "L8E3B1",
    "result": [
      {
        "electoralDistricts": [
          {
            "election": null,
            "id": 37,
            "name": "Hamilton East—Stoney Creek"
          }
        ],
        "pollDivisionIds": [
          10138650
        ],
        "postalCode": "L8E3B1",
        "streetName": "TEAL",
        "streetDirectionId": null,
        "streetTypeId": "AVE",
        "placeName": "STONEY CREEK",
        "streetNameDisplayText": "TEAL AVE, STONEY CREEK"
      }
    ]
  },
  {
    "postal": "L8E8B5",
    "result": []
  },
  {
    "postal": "L8E0K1",
    "result": [
      {
        "electoralDistricts": [
          {
            "election": null,
            "id": 37,
            "name": "Hamilton East—Stoney Creek"
          }
        ],
        "pollDivisionIds": [
          10138669
        ],
        "postalCode": "L8E0K1",
        "streetName": "FOOTHILLS",
        "streetDirectionId": null,
        "streetTypeId": "LANE",
        "placeName": "STONEY CREEK",
        "streetNameDisplayText": "FOOTHILLS LANE, STONEY CREEK"
      },
      {
        "electoralDistricts": [
          {
            "election": null,
            "id": 37,
            "name": "Hamilton East—Stoney Creek"
          }
        ],
        "pollDivisionIds": [
          10138669
        ],
        "postalCode": "L8E0K1",
        "streetName": "SONOMA",
        "streetDirectionId": null,
        "streetTypeId": "LANE",
        "placeName": "STONEY CREEK",
        "streetNameDisplayText": "SONOMA LANE, STONEY CREEK"
      },
      {
        "electoralDistricts": [
          {
            "election": null,
            "id": 37,
            "name": "Hamilton East—Stoney Creek"
          }
        ],
        "pollDivisionIds": [
          10138669
        ],
        "postalCode": "L8E0K1",
        "streetName": "ZINFANDEL",
        "streetDirectionId": null,
        "streetTypeId": "DR",
        "placeName": "STONEY CREEK",
        "streetNameDisplayText": "ZINFANDEL DR, STONEY CREEK"
      }
    ]
  },
  {
    "postal": "L8E7M7",
    "result": []
  },
  {
    "postal": "L8E2M2",
    "result": [
      {
        "electoralDistricts": [
          {
            "election": null,
            "id": 37,
            "name": "Hamilton East—Stoney Creek"
          }
        ],
        "pollDivisionIds": [
          10138650
        ],
        "postalCode": "L8E2M2",
        "streetName": "ARVIN",
        "streetDirectionId": null,
        "streetTypeId": "AVE",
        "placeName": "STONEY CREEK",
        "streetNameDisplayText": "ARVIN AVE, STONEY CREEK"
      }
    ]
  },
  {
    "postal": "L8E9N3",
    "result": []
  },
  {
    "postal": "L8E4Y8",
    "result": [
      {
        "electoralDistricts": [
          {
            "election": null,
            "id": 37,
            "name": "Hamilton East—Stoney Creek"
          }
        ],
        "pollDivisionIds": [
          10138668
        ],
        "postalCode": "L8E4Y8",
        "streetName": "NAPOLEON",
        "streetDirectionId": null,
        "streetTypeId": "DR",
        "placeName": "STONEY CREEK",
        "streetNameDisplayText": "NAPOLEON DR, STONEY CREEK"
      },
      {
        "electoralDistricts": [
          {
            "election": null,
            "id": 37,
            "name": "Hamilton East—Stoney Creek"
          }
        ],
        "pollDivisionIds": [
          10138663
        ],
        "postalCode": "L8E4Y8",
        "streetName": "SANDY",
        "streetDirectionId": null,
        "streetTypeId": "DR",
        "placeName": "STONEY CREEK",
        "streetNameDisplayText": "SANDY DR, STONEY CREEK"
      },
      {
        "electoralDistricts": [
          {
            "election": null,
            "id": 37,
            "name": "Hamilton East—Stoney Creek"
          }
        ],
        "pollDivisionIds": [
          10138663
        ],
        "postalCode": "L8E4Y8",
        "streetName": "SHERWOOD PARK",
        "streetDirectionId": null,
        "streetTypeId": "DR",
        "placeName": "STONEY CREEK",
        "streetNameDisplayText": "SHERWOOD PARK DR, STONEY CREEK"
      },
      {
        "electoralDistricts": [
          {
            "election": null,
            "id": 37,
            "name": "Hamilton East—Stoney Creek"
          }
        ],
        "pollDivisionIds": [
          10138668
        ],
        "postalCode": "L8E4Y8",
        "streetName": "SHERWOOD PARK",
        "streetDirectionId": null,
        "streetTypeId": "RD",
        "placeName": "STONEY CREEK",
        "streetNameDisplayText": "SHERWOOD PARK RD, STONEY CREEK"
      }
    ]
  },
  {
    "postal": "L8E3V7",
    "result": [
      {
        "electoralDistricts": [
          {
            "election": null,
            "id": 37,
            "name": "Hamilton East—Stoney Creek"
          }
        ],
        "pollDivisionIds": [
          10138659
        ],
        "postalCode": "L8E3V7",
        "streetName": "BERKINDALE",
        "streetDirectionId": null,
        "streetTypeId": "DR",
        "placeName": "HAMILTON",
        "streetNameDisplayText": "BERKINDALE DR, HAMILTON"
      }
    ]
  },
  {
    "postal": "L8E8Z1",
    "result": []
  },
  {
    "postal": "L8E7B3",
    "result": []
  },
  {
    "postal": "L8E3A8",
    "result": [
      {
        "electoralDistricts": [
          {
            "election": null,
            "id": 37,
            "name": "Hamilton East—Stoney Creek"
          }
        ],
        "pollDivisionIds": [
          10138643
        ],
        "postalCode": "L8E3A8",
        "streetName": "PINELANDS",
        "streetDirectionId": null,
        "streetTypeId": "AVE",
        "placeName": "STONEY CREEK",
        "streetNameDisplayText": "PINELANDS AVE, STONEY CREEK"
      }
    ]
  },
  {
    "postal": "L8E7V5",
    "result": []
  },
  {
    "postal": "L8E2T2",
    "result": [
      {
        "electoralDistricts": [
          {
            "election": null,
            "id": 37,
            "name": "Hamilton East—Stoney Creek"
          }
        ],
        "pollDivisionIds": [
          10138663
        ],
        "postalCode": "L8E2T2",
        "streetName": "DEWITT",
        "streetDirectionId": null,
        "streetTypeId": "RD",
        "placeName": "STONEY CREEK",
        "streetNameDisplayText": "DEWITT RD, STONEY CREEK"
      }
    ]
  },
  {
    "postal": "L8E6L3",
    "result": []
  },
  {
    "postal": "L8E0L2",
    "result": []
  },
  {
    "postal": "L8E5Y8",
    "result": [
      {
        "electoralDistricts": [
          {
            "election": null,
            "id": 37,
            "name": "Hamilton East—Stoney Creek"
          }
        ],
        "pollDivisionIds": [
          10138669
        ],
        "postalCode": "L8E5Y8",
        "streetName": "ARVIN",
        "streetDirectionId": null,
        "streetTypeId": "AVE",
        "placeName": "STONEY CREEK",
        "streetNameDisplayText": "ARVIN AVE, STONEY CREEK"
      }
    ]
  },
  {
    "postal": "L8E0B8",
    "result": [
      {
        "electoralDistricts": [
          {
            "election": null,
            "id": 37,
            "name": "Hamilton East—Stoney Creek"
          }
        ],
        "pollDivisionIds": [
          10138651
        ],
        "postalCode": "L8E0B8",
        "streetName": "PALACEBEACH",
        "streetDirectionId": null,
        "streetTypeId": "TRAIL",
        "placeName": "STONEY CREEK",
        "streetNameDisplayText": "PALACEBEACH TRAIL, STONEY CREEK"
      },
      {
        "electoralDistricts": [
          {
            "election": null,
            "id": 37,
            "name": "Hamilton East—Stoney Creek"
          }
        ],
        "pollDivisionIds": [
          10138651
        ],
        "postalCode": "L8E0B8",
        "streetName": "SAYBROOK",
        "streetDirectionId": null,
        "streetTypeId": "GDNS",
        "placeName": "STONEY CREEK",
        "streetNameDisplayText": "SAYBROOK GDNS, STONEY CREEK"
      },
      {
        "electoralDistricts": [
          {
            "election": null,
            "id": 37,
            "name": "Hamilton East—Stoney Creek"
          }
        ],
        "pollDivisionIds": [
          10138651
        ],
        "postalCode": "L8E0B8",
        "streetName": "SIGNAL HILL",
        "streetDirectionId": null,
        "streetTypeId": "PTWAY",
        "placeName": "STONEY CREEK",
        "streetNameDisplayText": "SIGNAL HILL PTWAY, STONEY CREEK"
      },
      {
        "electoralDistricts": [
          {
            "election": null,
            "id": 37,
            "name": "Hamilton East—Stoney Creek"
          }
        ],
        "pollDivisionIds": [
          10138651
        ],
        "postalCode": "L8E0B8",
        "streetName": "TIDEMORE",
        "streetDirectionId": null,
        "streetTypeId": "HTS",
        "placeName": "STONEY CREEK",
        "streetNameDisplayText": "TIDEMORE HTS, STONEY CREEK"
      }
    ]
  },
  {
    "postal": "L8E6R5",
    "result": []
  },
  {
    "postal": "L8E8W6",
    "result": []
  },
  {
    "postal": "L8E8G6",
    "result": []
  },
  {
    "postal": "L8E6X3",
    "result": []
  },
  {
    "postal": "L8E7R7",
    "result": []
  },
  {
    "postal": "L8E4B6",
    "result": []
  },
  {
    "postal": "L8E3P9",
    "result": []
  },
  {
    "postal": "L8E2T3",
    "result": [
      {
        "electoralDistricts": [
          {
            "election": null,
            "id": 37,
            "name": "Hamilton East—Stoney Creek"
          }
        ],
        "pollDivisionIds": [
          10138663
        ],
        "postalCode": "L8E2T3",
        "streetName": "HEWITSON",
        "streetDirectionId": null,
        "streetTypeId": "RD",
        "placeName": "STONEY CREEK",
        "streetNameDisplayText": "HEWITSON RD, STONEY CREEK"
      }
    ]
  },
  {
    "postal": "L8E1M4",
    "result": [
      {
        "electoralDistricts": [
          {
            "election": null,
            "id": 37,
            "name": "Hamilton East—Stoney Creek"
          }
        ],
        "pollDivisionIds": [
          10138659
        ],
        "postalCode": "L8E1M4",
        "streetName": "BERKINDALE",
        "streetDirectionId": null,
        "streetTypeId": "DR",
        "placeName": "HAMILTON",
        "streetNameDisplayText": "BERKINDALE DR, HAMILTON"
      }
    ]
  },
  {
    "postal": "L8E0H1",
    "result": [
      {
        "electoralDistricts": [
          {
            "election": null,
            "id": 37,
            "name": "Hamilton East—Stoney Creek"
          }
        ],
        "pollDivisionIds": [
          10138651
        ],
        "postalCode": "L8E0H1",
        "streetName": "GALILEO",
        "streetDirectionId": null,
        "streetTypeId": "DR",
        "placeName": "STONEY CREEK",
        "streetNameDisplayText": "GALILEO DR, STONEY CREEK"
      }
    ]
  },
  {
    "postal": "L8E9W3",
    "result": []
  },
  {
    "postal": "L8E6P1",
    "result": []
  },
  {
    "postal": "L8E7G2",
    "result": []
  },
  {
    "postal": "L8E4J9",
    "result": [
      {
        "electoralDistricts": [
          {
            "election": null,
            "id": 37,
            "name": "Hamilton East—Stoney Creek"
          }
        ],
        "pollDivisionIds": [
          10138650
        ],
        "postalCode": "L8E4J9",
        "streetName": "HEMLOCK",
        "streetDirectionId": null,
        "streetTypeId": "AVE",
        "placeName": "STONEY CREEK",
        "streetNameDisplayText": "HEMLOCK AVE, STONEY CREEK"
      }
    ]
  },
  {
    "postal": "L8E9E4",
    "result": []
  },
  {
    "postal": "L8E8H0",
    "result": []
  },
  {
    "postal": "L8E4M7",
    "result": [
      {
        "electoralDistricts": [
          {
            "election": null,
            "id": 37,
            "name": "Hamilton East—Stoney Creek"
          }
        ],
        "pollDivisionIds": [
          10138668
        ],
        "postalCode": "L8E4M7",
        "streetName": "SPARTAN",
        "streetDirectionId": null,
        "streetTypeId": "AVE",
        "placeName": "STONEY CREEK",
        "streetNameDisplayText": "SPARTAN AVE, STONEY CREEK"
      }
    ]
  },
  {
    "postal": "L8E2G9",
    "result": [
      {
        "electoralDistricts": [
          {
            "election": null,
            "id": 37,
            "name": "Hamilton East—Stoney Creek"
          }
        ],
        "pollDivisionIds": [
          10138650
        ],
        "postalCode": "L8E2G9",
        "streetName": "MILLEN",
        "streetDirectionId": null,
        "streetTypeId": "RD",
        "placeName": "STONEY CREEK",
        "streetNameDisplayText": "MILLEN RD, STONEY CREEK"
      }
    ]
  },
  {
    "postal": "L8E8T2",
    "result": []
  },
  {
    "postal": "L8E7G7",
    "result": []
  },
  {
    "postal": "L8E4Z3",
    "result": [
      {
        "electoralDistricts": [
          {
            "election": null,
            "id": 37,
            "name": "Hamilton East—Stoney Creek"
          }
        ],
        "pollDivisionIds": [
          10138651
        ],
        "postalCode": "L8E4Z3",
        "streetName": "EDGEWATER",
        "streetDirectionId": null,
        "streetTypeId": "DR",
        "placeName": "STONEY CREEK",
        "streetNameDisplayText": "EDGEWATER DR, STONEY CREEK"
      }
    ]
  },
  {
    "postal": "L8E5B3",
    "result": [
      {
        "electoralDistricts": [
          {
            "election": null,
            "id": 37,
            "name": "Hamilton East—Stoney Creek"
          }
        ],
        "pollDivisionIds": [
          10138659
        ],
        "postalCode": "L8E5B3",
        "streetName": "DONN",
        "streetDirectionId": null,
        "streetTypeId": "AVE",
        "placeName": "HAMILTON",
        "streetNameDisplayText": "DONN AVE, HAMILTON"
      }
    ]
  },
  {
    "postal": "L8E1S7",
    "result": [
      {
        "electoralDistricts": [
          {
            "election": null,
            "id": 37,
            "name": "Hamilton East—Stoney Creek"
          }
        ],
        "pollDivisionIds": [
          10138661
        ],
        "postalCode": "L8E1S7",
        "streetName": "ROXBOROUGH",
        "streetDirectionId": null,
        "streetTypeId": "AVE",
        "placeName": "STONEY CREEK",
        "streetNameDisplayText": "ROXBOROUGH AVE, STONEY CREEK"
      }
    ]
  },
  {
    "postal": "L8E2N7",
    "result": [
      {
        "electoralDistricts": [
          {
            "election": null,
            "id": 37,
            "name": "Hamilton East—Stoney Creek"
          }
        ],
        "pollDivisionIds": [
          10138650
        ],
        "postalCode": "L8E2N7",
        "streetName": "LEASIDE",
        "streetDirectionId": null,
        "streetTypeId": "AVE",
        "placeName": "STONEY CREEK",
        "streetNameDisplayText": "LEASIDE AVE, STONEY CREEK"
      }
    ]
  },
  {
    "postal": "L8E0H8",
    "result": []
  },
  {
    "postal": "L8E7Z4",
    "result": []
  },
  {
    "postal": "L8E7B1",
    "result": []
  },
  {
    "postal": "L8E7P8",
    "result": []
  },
  {
    "postal": "L8E7N0",
    "result": []
  },
  {
    "postal": "L8E3Y5",
    "result": [
      {
        "electoralDistricts": [
          {
            "election": null,
            "id": 37,
            "name": "Hamilton East—Stoney Creek"
          }
        ],
        "pollDivisionIds": [
          10138650
        ],
        "postalCode": "L8E3Y5",
        "streetName": "TEAL",
        "streetDirectionId": null,
        "streetTypeId": "AVE",
        "placeName": "STONEY CREEK",
        "streetNameDisplayText": "TEAL AVE, STONEY CREEK"
      }
    ]
  },
  {
    "postal": "L8E6K1",
    "result": []
  },
  {
    "postal": "L8E9X5",
    "result": []
  },
  {
    "postal": "L8E7S5",
    "result": []
  },
  {
    "postal": "L8E0A4",
    "result": [
      {
        "electoralDistricts": [
          {
            "election": null,
            "id": 37,
            "name": "Hamilton East—Stoney Creek"
          }
        ],
        "pollDivisionIds": [
          10138651
        ],
        "postalCode": "L8E0A4",
        "streetName": "IVYBRIDGE",
        "streetDirectionId": null,
        "streetTypeId": "DR",
        "placeName": "STONEY CREEK",
        "streetNameDisplayText": "IVYBRIDGE DR, STONEY CREEK"
      },
      {
        "electoralDistricts": [
          {
            "election": null,
            "id": 37,
            "name": "Hamilton East—Stoney Creek"
          }
        ],
        "pollDivisionIds": [
          10138651
        ],
        "postalCode": "L8E0A4",
        "streetName": "SPRINGBREEZE",
        "streetDirectionId": null,
        "streetTypeId": "HTS",
        "placeName": "STONEY CREEK",
        "streetNameDisplayText": "SPRINGBREEZE HTS, STONEY CREEK"
      },
      {
        "electoralDistricts": [
          {
            "election": null,
            "id": 37,
            "name": "Hamilton East—Stoney Creek"
          }
        ],
        "pollDivisionIds": [
          10138651
        ],
        "postalCode": "L8E0A4",
        "streetName": "WATERCREST",
        "streetDirectionId": null,
        "streetTypeId": "DR",
        "placeName": "STONEY CREEK",
        "streetNameDisplayText": "WATERCREST DR, STONEY CREEK"
      }
    ]
  },
  {
    "postal": "L8E4T5",
    "result": [
      {
        "electoralDistricts": [
          {
            "election": null,
            "id": 37,
            "name": "Hamilton East—Stoney Creek"
          }
        ],
        "pollDivisionIds": [
          10138663
        ],
        "postalCode": "L8E4T5",
        "streetName": "CANDOR",
        "streetDirectionId": null,
        "streetTypeId": "CRES",
        "placeName": "STONEY CREEK",
        "streetNameDisplayText": "CANDOR CRES, STONEY CREEK"
      },
      {
        "electoralDistricts": [
          {
            "election": null,
            "id": 37,
            "name": "Hamilton East—Stoney Creek"
          }
        ],
        "pollDivisionIds": [
          10138663,
          10138668
        ],
        "postalCode": "L8E4T5",
        "streetName": "NAPOLEON",
        "streetDirectionId": null,
        "streetTypeId": "DR",
        "placeName": "STONEY CREEK",
        "streetNameDisplayText": "NAPOLEON DR, STONEY CREEK"
      }
    ]
  },
  {
    "postal": "L8E5K1",
    "result": [
      {
        "electoralDistricts": [
          {
            "election": null,
            "id": 37,
            "name": "Hamilton East—Stoney Creek"
          }
        ],
        "pollDivisionIds": [
          10138669
        ],
        "postalCode": "L8E5K1",
        "streetName": "BEL-AIR",
        "streetDirectionId": null,
        "streetTypeId": "AVE",
        "placeName": "STONEY CREEK",
        "streetNameDisplayText": "BEL-AIR AVE, STONEY CREEK"
      },
      {
        "electoralDistricts": [
          {
            "election": null,
            "id": 37,
            "name": "Hamilton East—Stoney Creek"
          }
        ],
        "pollDivisionIds": [
          10138669
        ],
        "postalCode": "L8E5K1",
        "streetName": "GLENHOLME",
        "streetDirectionId": null,
        "streetTypeId": "AVE",
        "placeName": "STONEY CREEK",
        "streetNameDisplayText": "GLENHOLME AVE, STONEY CREEK"
      },
      {
        "electoralDistricts": [
          {
            "election": null,
            "id": 37,
            "name": "Hamilton East—Stoney Creek"
          }
        ],
        "pollDivisionIds": [
          10138669
        ],
        "postalCode": "L8E5K1",
        "streetName": "HELENA",
        "streetDirectionId": null,
        "streetTypeId": "AVE",
        "placeName": "STONEY CREEK",
        "streetNameDisplayText": "HELENA AVE, STONEY CREEK"
      }
    ]
  },
  {
    "postal": "L8E0Z9",
    "result": []
  },
  {
    "postal": "L8E7T2",
    "result": []
  },
  {
    "postal": "L8E1L5",
    "result": [
      {
        "electoralDistricts": [
          {
            "election": null,
            "id": 37,
            "name": "Hamilton East—Stoney Creek"
          }
        ],
        "pollDivisionIds": [
          10138649
        ],
        "postalCode": "L8E1L5",
        "streetName": "LAKE",
        "streetDirectionId": "N",
        "streetTypeId": "AVE",
        "placeName": "HAMILTON",
        "streetNameDisplayText": "LAKE AVE N, HAMILTON"
      },
      {
        "electoralDistricts": [
          {
            "election": null,
            "id": 37,
            "name": "Hamilton East—Stoney Creek"
          }
        ],
        "pollDivisionIds": [
          10138649
        ],
        "postalCode": "L8E1L5",
        "streetName": "LAKE AVENUE",
        "streetDirectionId": "N",
        "streetTypeId": "DR",
        "placeName": "HAMILTON",
        "streetNameDisplayText": "LAKE AVENUE DR N, HAMILTON"
      }
    ]
  },
  {
    "postal": "L8E3N5",
    "result": [
      {
        "electoralDistricts": [
          {
            "election": null,
            "id": 37,
            "name": "Hamilton East—Stoney Creek"
          }
        ],
        "pollDivisionIds": [
          10138648
        ],
        "postalCode": "L8E3N5",
        "streetName": "DELAWANA",
        "streetDirectionId": null,
        "streetTypeId": "DR",
        "placeName": "HAMILTON",
        "streetNameDisplayText": "DELAWANA DR, HAMILTON"
      }
    ]
  },
  {
    "postal": "L8E6H4",
    "result": []
  },
  {
    "postal": "L8E5A5",
    "result": [
      {
        "electoralDistricts": [
          {
            "election": null,
            "id": 37,
            "name": "Hamilton East—Stoney Creek"
          }
        ],
        "pollDivisionIds": [
          10138643
        ],
        "postalCode": "L8E5A5",
        "streetName": "DEWITT",
        "streetDirectionId": null,
        "streetTypeId": "RD",
        "placeName": "STONEY CREEK",
        "streetNameDisplayText": "DEWITT RD, STONEY CREEK"
      },
      {
        "electoralDistricts": [
          {
            "election": null,
            "id": 37,
            "name": "Hamilton East—Stoney Creek"
          }
        ],
        "pollDivisionIds": [
          10138643
        ],
        "postalCode": "L8E5A5",
        "streetName": "GRANDVIEW",
        "streetDirectionId": null,
        "streetTypeId": "AVE",
        "placeName": "STONEY CREEK",
        "streetNameDisplayText": "GRANDVIEW AVE, STONEY CREEK"
      },
      {
        "electoralDistricts": [
          {
            "election": null,
            "id": 37,
            "name": "Hamilton East—Stoney Creek"
          }
        ],
        "pollDivisionIds": [
          10138643
        ],
        "postalCode": "L8E5A5",
        "streetName": "LAKEVIEW",
        "streetDirectionId": null,
        "streetTypeId": "DR",
        "placeName": "STONEY CREEK",
        "streetNameDisplayText": "LAKEVIEW DR, STONEY CREEK"
      }
    ]
  },
  {
    "postal": "L8E3R9",
    "result": [
      {
        "electoralDistricts": [
          {
            "election": null,
            "id": 37,
            "name": "Hamilton East—Stoney Creek"
          }
        ],
        "pollDivisionIds": [
          10138650
        ],
        "postalCode": "L8E3R9",
        "streetName": "SOUTH SERVICE",
        "streetDirectionId": null,
        "streetTypeId": "RD",
        "placeName": "STONEY CREEK",
        "streetNameDisplayText": "SOUTH SERVICE RD, STONEY CREEK"
      }
    ]
  },
  {
    "postal": "L8E7L8",
    "result": []
  },
  {
    "postal": "L8E6T6",
    "result": []
  },
  {
    "postal": "L8E7Y7",
    "result": []
  },
  {
    "postal": "L8E3M8",
    "result": [
      {
        "electoralDistricts": [
          {
            "election": null,
            "id": 37,
            "name": "Hamilton East—Stoney Creek"
          }
        ],
        "pollDivisionIds": [
          10138648
        ],
        "postalCode": "L8E3M8",
        "streetName": "VILLAGE",
        "streetDirectionId": null,
        "streetTypeId": "DR",
        "placeName": "HAMILTON",
        "streetNameDisplayText": "VILLAGE DR, HAMILTON"
      },
      {
        "electoralDistricts": [
          {
            "election": null,
            "id": 37,
            "name": "Hamilton East—Stoney Creek"
          }
        ],
        "pollDivisionIds": [
          10138657
        ],
        "postalCode": "L8E3M8",
        "streetName": "VILLAGE",
        "streetDirectionId": null,
        "streetTypeId": "GREEN",
        "placeName": "HAMILTON",
        "streetNameDisplayText": "VILLAGE GREEN, HAMILTON"
      }
    ]
  },
  {
    "postal": "L8E2E0",
    "result": []
  },
  {
    "postal": "L8E4B5",
    "result": [
      {
        "electoralDistricts": [
          {
            "election": null,
            "id": 37,
            "name": "Hamilton East—Stoney Creek"
          }
        ],
        "pollDivisionIds": [
          10138659
        ],
        "postalCode": "L8E4B5",
        "streetName": "BERKINDALE",
        "streetDirectionId": null,
        "streetTypeId": "DR",
        "placeName": "HAMILTON",
        "streetNameDisplayText": "BERKINDALE DR, HAMILTON"
      }
    ]
  },
  {
    "postal": "L8E1J3",
    "result": [
      {
        "electoralDistricts": [
          {
            "election": null,
            "id": 37,
            "name": "Hamilton East—Stoney Creek"
          }
        ],
        "pollDivisionIds": [
          10138649
        ],
        "postalCode": "L8E1J3",
        "streetName": "KELVIN",
        "streetDirectionId": null,
        "streetTypeId": "CRT",
        "placeName": "HAMILTON",
        "streetNameDisplayText": "KELVIN CRT, HAMILTON"
      }
    ]
  },
  {
    "postal": "L8E5S6",
    "result": []
  },
  {
    "postal": "L8E8P7",
    "result": []
  },
  {
    "postal": "L8E7S7",
    "result": []
  },
  {
    "postal": "L8E4C2",
    "result": [
      {
        "electoralDistricts": [
          {
            "election": null,
            "id": 37,
            "name": "Hamilton East—Stoney Creek"
          }
        ],
        "pollDivisionIds": [
          10138650
        ],
        "postalCode": "L8E4C2",
        "streetName": "MACINTOSH",
        "streetDirectionId": null,
        "streetTypeId": "DR",
        "placeName": "STONEY CREEK",
        "streetNameDisplayText": "MACINTOSH DR, STONEY CREEK"
      }
    ]
  },
  {
    "postal": "L8E5Y0",
    "result": []
  },
  {
    "postal": "L8E2V7",
    "result": [
      {
        "electoralDistricts": [
          {
            "election": null,
            "id": 37,
            "name": "Hamilton East—Stoney Creek"
          }
        ],
        "pollDivisionIds": [
          10138661
        ],
        "postalCode": "L8E2V7",
        "streetName": "EASTBURY",
        "streetDirectionId": null,
        "streetTypeId": "DR",
        "placeName": "STONEY CREEK",
        "streetNameDisplayText": "EASTBURY DR, STONEY CREEK"
      }
    ]
  },
  {
    "postal": "L8E8P5",
    "result": []
  },
  {
    "postal": "L8E5P5",
    "result": [
      {
        "electoralDistricts": [
          {
            "election": null,
            "id": 37,
            "name": "Hamilton East—Stoney Creek"
          }
        ],
        "pollDivisionIds": [
          10138669
        ],
        "postalCode": "L8E5P5",
        "streetName": "BARTON",
        "streetDirectionId": null,
        "streetTypeId": "ST",
        "placeName": "STONEY CREEK",
        "streetNameDisplayText": "BARTON ST, STONEY CREEK"
      }
    ]
  },
  {
    "postal": "L8E5Z0",
    "result": []
  },
  {
    "postal": "L8E9B0",
    "result": []
  },
  {
    "postal": "L8E1L0",
    "result": []
  },
  {
    "postal": "L8E0B5",
    "result": [
      {
        "electoralDistricts": [
          {
            "election": null,
            "id": 37,
            "name": "Hamilton East—Stoney Creek"
          }
        ],
        "pollDivisionIds": [
          10138651
        ],
        "postalCode": "L8E0B5",
        "streetName": "AQUAMARINE",
        "streetDirectionId": null,
        "streetTypeId": "DR",
        "placeName": "STONEY CREEK",
        "streetNameDisplayText": "AQUAMARINE DR, STONEY CREEK"
      },
      {
        "electoralDistricts": [
          {
            "election": null,
            "id": 37,
            "name": "Hamilton East—Stoney Creek"
          }
        ],
        "pollDivisionIds": [
          10138651
        ],
        "postalCode": "L8E0B5",
        "streetName": "COPES",
        "streetDirectionId": null,
        "streetTypeId": "LANE",
        "placeName": "STONEY CREEK",
        "streetNameDisplayText": "COPES LANE, STONEY CREEK"
      },
      {
        "electoralDistricts": [
          {
            "election": null,
            "id": 37,
            "name": "Hamilton East—Stoney Creek"
          }
        ],
        "pollDivisionIds": [
          10138651
        ],
        "postalCode": "L8E0B5",
        "streetName": "GALILEO",
        "streetDirectionId": null,
        "streetTypeId": "DR",
        "placeName": "STONEY CREEK",
        "streetNameDisplayText": "GALILEO DR, STONEY CREEK"
      },
      {
        "electoralDistricts": [
          {
            "election": null,
            "id": 37,
            "name": "Hamilton East—Stoney Creek"
          }
        ],
        "pollDivisionIds": [
          10138651
        ],
        "postalCode": "L8E0B5",
        "streetName": "WATERSHORE",
        "streetDirectionId": null,
        "streetTypeId": "DR",
        "placeName": "STONEY CREEK",
        "streetNameDisplayText": "WATERSHORE DR, STONEY CREEK"
      }
    ]
  },
  {
    "postal": "L8E3L2",
    "result": [
      {
        "electoralDistricts": [
          {
            "election": null,
            "id": 37,
            "name": "Hamilton East—Stoney Creek"
          }
        ],
        "pollDivisionIds": [
          10138659
        ],
        "postalCode": "L8E3L2",
        "streetName": "BELL MANOR",
        "streetDirectionId": null,
        "streetTypeId": "ST",
        "placeName": "HAMILTON",
        "streetNameDisplayText": "BELL MANOR ST, HAMILTON"
      }
    ]
  },
  {
    "postal": "L8E3B7",
    "result": [
      {
        "electoralDistricts": [
          {
            "election": null,
            "id": 37,
            "name": "Hamilton East—Stoney Creek"
          }
        ],
        "pollDivisionIds": [
          10138649
        ],
        "postalCode": "L8E3B7",
        "streetName": "CASCADE",
        "streetDirectionId": null,
        "streetTypeId": "ST",
        "placeName": "HAMILTON",
        "streetNameDisplayText": "CASCADE ST, HAMILTON"
      }
    ]
  },
  {
    "postal": "L8E8L1",
    "result": []
  },
  {
    "postal": "L8E5M4",
    "result": [
      {
        "electoralDistricts": [
          {
            "election": null,
            "id": 37,
            "name": "Hamilton East—Stoney Creek"
          }
        ],
        "pollDivisionIds": [
          10138669
        ],
        "postalCode": "L8E5M4",
        "streetName": "GLOVER",
        "streetDirectionId": null,
        "streetTypeId": "RD",
        "placeName": "STONEY CREEK",
        "streetNameDisplayText": "GLOVER RD, STONEY CREEK"
      }
    ]
  },
  {
    "postal": "L8E4G9",
    "result": [
      {
        "electoralDistricts": [
          {
            "election": null,
            "id": 37,
            "name": "Hamilton East—Stoney Creek"
          }
        ],
        "pollDivisionIds": [
          10138643
        ],
        "postalCode": "L8E4G9",
        "streetName": "LAKEGATE",
        "streetDirectionId": null,
        "streetTypeId": "DR",
        "placeName": "STONEY CREEK",
        "streetNameDisplayText": "LAKEGATE DR, STONEY CREEK"
      }
    ]
  },
  {
    "postal": "L8E0P0",
    "result": []
  },
  {
    "postal": "L8E8G2",
    "result": []
  },
  {
    "postal": "L8E1V9",
    "result": [
      {
        "electoralDistricts": [
          {
            "election": null,
            "id": 37,
            "name": "Hamilton East—Stoney Creek"
          }
        ],
        "pollDivisionIds": [
          10138661
        ],
        "postalCode": "L8E1V9",
        "streetName": "BLENHEIM",
        "streetDirectionId": null,
        "streetTypeId": "DR",
        "placeName": "STONEY CREEK",
        "streetNameDisplayText": "BLENHEIM DR, STONEY CREEK"
      }
    ]
  },
  {
    "postal": "L8E8N8",
    "result": []
  },
  {
    "postal": "L8E6S8",
    "result": []
  },
  {
    "postal": "L8E8H2",
    "result": []
  },
  {
    "postal": "L8E5R8",
    "result": [
      {
        "electoralDistricts": [
          {
            "election": null,
            "id": 37,
            "name": "Hamilton East—Stoney Creek"
          }
        ],
        "pollDivisionIds": [
          10138663
        ],
        "postalCode": "L8E5R8",
        "streetName": "BARTON",
        "streetDirectionId": null,
        "streetTypeId": "ST",
        "placeName": "STONEY CREEK",
        "streetNameDisplayText": "BARTON ST, STONEY CREEK"
      },
      {
        "electoralDistricts": [
          {
            "election": null,
            "id": 37,
            "name": "Hamilton East—Stoney Creek"
          }
        ],
        "pollDivisionIds": [
          10138663
        ],
        "postalCode": "L8E5R8",
        "streetName": "CHELSEA",
        "streetDirectionId": null,
        "streetTypeId": "CRES",
        "placeName": "STONEY CREEK",
        "streetNameDisplayText": "CHELSEA CRES, STONEY CREEK"
      }
    ]
  },
  {
    "postal": "L8E5L4",
    "result": [
      {
        "electoralDistricts": [
          {
            "election": null,
            "id": 37,
            "name": "Hamilton East—Stoney Creek"
          }
        ],
        "pollDivisionIds": [
          10138669
        ],
        "postalCode": "L8E5L4",
        "streetName": "BARTON",
        "streetDirectionId": null,
        "streetTypeId": "ST",
        "placeName": "STONEY CREEK",
        "streetNameDisplayText": "BARTON ST, STONEY CREEK"
      },
      {
        "electoralDistricts": [
          {
            "election": null,
            "id": 37,
            "name": "Hamilton East—Stoney Creek"
          }
        ],
        "pollDivisionIds": [
          10138669
        ],
        "postalCode": "L8E5L4",
        "streetName": "WINONA",
        "streetDirectionId": null,
        "streetTypeId": "RD",
        "placeName": "STONEY CREEK",
        "streetNameDisplayText": "WINONA RD, STONEY CREEK"
      }
    ]
  },
  {
    "postal": "L8E9E1",
    "result": []
  },
  {
    "postal": "L8E1C4",
    "result": [
      {
        "electoralDistricts": [
          {
            "election": null,
            "id": 37,
            "name": "Hamilton East—Stoney Creek"
          }
        ],
        "pollDivisionIds": [
          10138648
        ],
        "postalCode": "L8E1C4",
        "streetName": "KENORA",
        "streetDirectionId": null,
        "streetTypeId": "AVE",
        "placeName": "HAMILTON",
        "streetNameDisplayText": "KENORA AVE, HAMILTON"
      }
    ]
  },
  {
    "postal": "L8E8W5",
    "result": []
  },
  {
    "postal": "L8E1Y4",
    "result": [
      {
        "electoralDistricts": [
          {
            "election": null,
            "id": 37,
            "name": "Hamilton East—Stoney Creek"
          }
        ],
        "pollDivisionIds": [
          10138662
        ],
        "postalCode": "L8E1Y4",
        "streetName": "WARWICK",
        "streetDirectionId": null,
        "streetTypeId": "RD",
        "placeName": "STONEY CREEK",
        "streetNameDisplayText": "WARWICK RD, STONEY CREEK"
      }
    ]
  },
  {
    "postal": "L8E1C0",
    "result": []
  },
  {
    "postal": "L8E2J2",
    "result": [
      {
        "electoralDistricts": [
          {
            "election": null,
            "id": 37,
            "name": "Hamilton East—Stoney Creek"
          }
        ],
        "pollDivisionIds": [
          10138650
        ],
        "postalCode": "L8E2J2",
        "streetName": "MARGARET",
        "streetDirectionId": null,
        "streetTypeId": "AVE",
        "placeName": "STONEY CREEK",
        "streetNameDisplayText": "MARGARET AVE, STONEY CREEK"
      }
    ]
  },
  {
    "postal": "L8E2J0",
    "result": []
  },
  {
    "postal": "L8E7A3",
    "result": []
  },
  {
    "postal": "L8E8M1",
    "result": []
  },
  {
    "postal": "L8E7T9",
    "result": []
  },
  {
    "postal": "L8E6C0",
    "result": []
  },
  {
    "postal": "L8E7X1",
    "result": []
  },
  {
    "postal": "L8E0G1",
    "result": [
      {
        "electoralDistricts": [
          {
            "election": null,
            "id": 37,
            "name": "Hamilton East—Stoney Creek"
          }
        ],
        "pollDivisionIds": [
          10138651
        ],
        "postalCode": "L8E0G1",
        "streetName": "SEABREEZE",
        "streetDirectionId": null,
        "streetTypeId": "CRES",
        "placeName": "STONEY CREEK",
        "streetNameDisplayText": "SEABREEZE CRES, STONEY CREEK"
      }
    ]
  },
  {
    "postal": "L8E4X2",
    "result": [
      {
        "electoralDistricts": [
          {
            "election": null,
            "id": 37,
            "name": "Hamilton East—Stoney Creek"
          }
        ],
        "pollDivisionIds": [
          10138643
        ],
        "postalCode": "L8E4X2",
        "streetName": "HOMELAND",
        "streetDirectionId": null,
        "streetTypeId": "AVE",
        "placeName": "STONEY CREEK",
        "streetNameDisplayText": "HOMELAND AVE, STONEY CREEK"
      },
      {
        "electoralDistricts": [
          {
            "election": null,
            "id": 37,
            "name": "Hamilton East—Stoney Creek"
          }
        ],
        "pollDivisionIds": [
          10138643
        ],
        "postalCode": "L8E4X2",
        "streetName": "LAKEVIEW",
        "streetDirectionId": null,
        "streetTypeId": "DR",
        "placeName": "STONEY CREEK",
        "streetNameDisplayText": "LAKEVIEW DR, STONEY CREEK"
      }
    ]
  },
  {
    "postal": "L8E0N6",
    "result": []
  },
  {
    "postal": "L8E8E3",
    "result": []
  },
  {
    "postal": "L8E5S8",
    "result": [
      {
        "electoralDistricts": [
          {
            "election": null,
            "id": 37,
            "name": "Hamilton East—Stoney Creek"
          }
        ],
        "pollDivisionIds": [
          10138668
        ],
        "postalCode": "L8E5S8",
        "streetName": "ROBINDALE",
        "streetDirectionId": null,
        "streetTypeId": "CRT",
        "placeName": "STONEY CREEK",
        "streetNameDisplayText": "ROBINDALE CRT, STONEY CREEK"
      }
    ]
  },
  {
    "postal": "L8E0R0",
    "result": []
  },
  {
    "postal": "L8E6J6",
    "result": []
  },
  {
    "postal": "L8E4B4",
    "result": [
      {
        "electoralDistricts": [
          {
            "election": null,
            "id": 37,
            "name": "Hamilton East—Stoney Creek"
          }
        ],
        "pollDivisionIds": [
          10138659
        ],
        "postalCode": "L8E4B4",
        "streetName": "BERKINDALE",
        "streetDirectionId": null,
        "streetTypeId": "DR",
        "placeName": "HAMILTON",
        "streetNameDisplayText": "BERKINDALE DR, HAMILTON"
      }
    ]
  },
  {
    "postal": "L8E7E3",
    "result": []
  },
  {
    "postal": "L8E3N6",
    "result": [
      {
        "electoralDistricts": [
          {
            "election": null,
            "id": 37,
            "name": "Hamilton East—Stoney Creek"
          }
        ],
        "pollDivisionIds": [
          10138648
        ],
        "postalCode": "L8E3N6",
        "streetName": "DELAWANA",
        "streetDirectionId": null,
        "streetTypeId": "DR",
        "placeName": "HAMILTON",
        "streetNameDisplayText": "DELAWANA DR, HAMILTON"
      }
    ]
  },
  {
    "postal": "L8E3X6",
    "result": []
  },
  {
    "postal": "L8E8L0",
    "result": []
  },
  {
    "postal": "L8E8N1",
    "result": []
  },
  {
    "postal": "L8E4J0",
    "result": []
  },
  {
    "postal": "L8E0X7",
    "result": []
  },
  {
    "postal": "L8E6S4",
    "result": []
  },
  {
    "postal": "L8E0Z0",
    "result": []
  },
  {
    "postal": "L8E9X8",
    "result": []
  },
  {
    "postal": "L8E3H3",
    "result": []
  },
  {
    "postal": "L8E7S2",
    "result": []
  },
  {
    "postal": "L8E3T3",
    "result": [
      {
        "electoralDistricts": [
          {
            "election": null,
            "id": 37,
            "name": "Hamilton East—Stoney Creek"
          }
        ],
        "pollDivisionIds": [
          10138662
        ],
        "postalCode": "L8E3T3",
        "streetName": "VALROSE",
        "streetDirectionId": null,
        "streetTypeId": "DR",
        "placeName": "STONEY CREEK",
        "streetNameDisplayText": "VALROSE DR, STONEY CREEK"
      }
    ]
  },
  {
    "postal": "L8E9P3",
    "result": []
  },
  {
    "postal": "L8E4H8",
    "result": [
      {
        "electoralDistricts": [
          {
            "election": null,
            "id": 37,
            "name": "Hamilton East—Stoney Creek"
          }
        ],
        "pollDivisionIds": [
          10138648
        ],
        "postalCode": "L8E4H8",
        "streetName": "ARROWSMITH",
        "streetDirectionId": null,
        "streetTypeId": "RD",
        "placeName": "HAMILTON",
        "streetNameDisplayText": "ARROWSMITH RD, HAMILTON"
      }
    ]
  },
  {
    "postal": "L8E6R1",
    "result": []
  },
  {
    "postal": "L8E1S0",
    "result": []
  },
  {
    "postal": "L8E3W8",
    "result": [
      {
        "electoralDistricts": [
          {
            "election": null,
            "id": 37,
            "name": "Hamilton East—Stoney Creek"
          }
        ],
        "pollDivisionIds": [
          10138662
        ],
        "postalCode": "L8E3W8",
        "streetName": "HEMLOCK",
        "streetDirectionId": null,
        "streetTypeId": "AVE",
        "placeName": "STONEY CREEK",
        "streetNameDisplayText": "HEMLOCK AVE, STONEY CREEK"
      }
    ]
  },
  {
    "postal": "L8E4S3",
    "result": [
      {
        "electoralDistricts": [
          {
            "election": null,
            "id": 37,
            "name": "Hamilton East—Stoney Creek"
          }
        ],
        "pollDivisionIds": [
          10138663
        ],
        "postalCode": "L8E4S3",
        "streetName": "BOYNE",
        "streetDirectionId": null,
        "streetTypeId": "CRT",
        "placeName": "STONEY CREEK",
        "streetNameDisplayText": "BOYNE CRT, STONEY CREEK"
      },
      {
        "electoralDistricts": [
          {
            "election": null,
            "id": 37,
            "name": "Hamilton East—Stoney Creek"
          }
        ],
        "pollDivisionIds": [
          10138663
        ],
        "postalCode": "L8E4S3",
        "streetName": "CRESTHAVEN",
        "streetDirectionId": null,
        "streetTypeId": "DR",
        "placeName": "STONEY CREEK",
        "streetNameDisplayText": "CRESTHAVEN DR, STONEY CREEK"
      }
    ]
  },
  {
    "postal": "L8E1B6",
    "result": [
      {
        "electoralDistricts": [
          {
            "election": null,
            "id": 37,
            "name": "Hamilton East—Stoney Creek"
          }
        ],
        "pollDivisionIds": [
          10138648
        ],
        "postalCode": "L8E1B6",
        "streetName": "OAKLAND",
        "streetDirectionId": null,
        "streetTypeId": "DR",
        "placeName": "HAMILTON",
        "streetNameDisplayText": "OAKLAND DR, HAMILTON"
      }
    ]
  },
  {
    "postal": "L8E8R3",
    "result": []
  },
  {
    "postal": "L8E4V9",
    "result": [
      {
        "electoralDistricts": [
          {
            "election": null,
            "id": 37,
            "name": "Hamilton East—Stoney Creek"
          }
        ],
        "pollDivisionIds": [
          10138662
        ],
        "postalCode": "L8E4V9",
        "streetName": "TALLMAN",
        "streetDirectionId": null,
        "streetTypeId": "ST",
        "placeName": "STONEY CREEK",
        "streetNameDisplayText": "TALLMAN ST, STONEY CREEK"
      }
    ]
  },
  {
    "postal": "L8E9W4",
    "result": []
  },
  {
    "postal": "L8E3T4",
    "result": [
      {
        "electoralDistricts": [
          {
            "election": null,
            "id": 37,
            "name": "Hamilton East—Stoney Creek"
          }
        ],
        "pollDivisionIds": [
          10138662
        ],
        "postalCode": "L8E3T4",
        "streetName": "VALROSE",
        "streetDirectionId": null,
        "streetTypeId": "DR",
        "placeName": "STONEY CREEK",
        "streetNameDisplayText": "VALROSE DR, STONEY CREEK"
      }
    ]
  },
  {
    "postal": "L8E5C7",
    "result": [
      {
        "electoralDistricts": [
          {
            "election": null,
            "id": 37,
            "name": "Hamilton East—Stoney Creek"
          }
        ],
        "pollDivisionIds": [
          10138651
        ],
        "postalCode": "L8E5C7",
        "streetName": "LAKESHORE",
        "streetDirectionId": null,
        "streetTypeId": "DR",
        "placeName": "STONEY CREEK",
        "streetNameDisplayText": "LAKESHORE DR, STONEY CREEK"
      },
      {
        "electoralDistricts": [
          {
            "election": null,
            "id": 37,
            "name": "Hamilton East—Stoney Creek"
          }
        ],
        "pollDivisionIds": [
          10138651
        ],
        "postalCode": "L8E5C7",
        "streetName": "SHORELINE",
        "streetDirectionId": null,
        "streetTypeId": "DR",
        "placeName": "STONEY CREEK",
        "streetNameDisplayText": "SHORELINE DR, STONEY CREEK"
      },
      {
        "electoralDistricts": [
          {
            "election": null,
            "id": 37,
            "name": "Hamilton East—Stoney Creek"
          }
        ],
        "pollDivisionIds": [
          10138651
        ],
        "postalCode": "L8E5C7",
        "streetName": "WATERCREST",
        "streetDirectionId": null,
        "streetTypeId": "DR",
        "placeName": "STONEY CREEK",
        "streetNameDisplayText": "WATERCREST DR, STONEY CREEK"
      }
    ]
  },
  {
    "postal": "L8E3Y1",
    "result": [
      {
        "electoralDistricts": [
          {
            "election": null,
            "id": 37,
            "name": "Hamilton East—Stoney Creek"
          }
        ],
        "pollDivisionIds": [
          10138662
        ],
        "postalCode": "L8E3Y1",
        "streetName": "MACINTOSH",
        "streetDirectionId": null,
        "streetTypeId": "DR",
        "placeName": "STONEY CREEK",
        "streetNameDisplayText": "MACINTOSH DR, STONEY CREEK"
      }
    ]
  },
  {
    "postal": "L8E5V0",
    "result": []
  },
  {
    "postal": "L8E8G8",
    "result": []
  },
  {
    "postal": "L8E8B1",
    "result": []
  },
  {
    "postal": "L8E4P5",
    "result": [
      {
        "electoralDistricts": [
          {
            "election": null,
            "id": 37,
            "name": "Hamilton East—Stoney Creek"
          }
        ],
        "pollDivisionIds": [
          10138662
        ],
        "postalCode": "L8E4P5",
        "streetName": "DARROW",
        "streetDirectionId": null,
        "streetTypeId": "DR",
        "placeName": "STONEY CREEK",
        "streetNameDisplayText": "DARROW DR, STONEY CREEK"
      }
    ]
  },
  {
    "postal": "L8E7B2",
    "result": []
  },
  {
    "postal": "L8E0R2",
    "result": []
  },
  {
    "postal": "L8E4M4",
    "result": [
      {
        "electoralDistricts": [
          {
            "election": null,
            "id": 37,
            "name": "Hamilton East—Stoney Creek"
          }
        ],
        "pollDivisionIds": [
          10138650
        ],
        "postalCode": "L8E4M4",
        "streetName": "HENLEY",
        "streetDirectionId": null,
        "streetTypeId": "DR",
        "placeName": "STONEY CREEK",
        "streetNameDisplayText": "HENLEY DR, STONEY CREEK"
      }
    ]
  },
  {
    "postal": "L8E7M4",
    "result": []
  },
  {
    "postal": "L8E9S7",
    "result": []
  },
  {
    "postal": "L8E5Z7",
    "result": [
      {
        "electoralDistricts": [
          {
            "election": null,
            "id": 37,
            "name": "Hamilton East—Stoney Creek"
          }
        ],
        "pollDivisionIds": [
          10138662
        ],
        "postalCode": "L8E5Z7",
        "streetName": "PEACHWOOD",
        "streetDirectionId": null,
        "streetTypeId": "CRES",
        "placeName": "STONEY CREEK",
        "streetNameDisplayText": "PEACHWOOD CRES, STONEY CREEK"
      }
    ]
  },
  {
    "postal": "L8E7J7",
    "result": []
  },
  {
    "postal": "L8E8R8",
    "result": []
  },
  {
    "postal": "L8E9X1",
    "result": []
  },
  {
    "postal": "L8E5M9",
    "result": [
      {
        "electoralDistricts": [
          {
            "election": null,
            "id": 37,
            "name": "Hamilton East—Stoney Creek"
          }
        ],
        "pollDivisionIds": [
          10138663
        ],
        "postalCode": "L8E5M9",
        "streetName": "ARVIN",
        "streetDirectionId": null,
        "streetTypeId": "AVE",
        "placeName": "STONEY CREEK",
        "streetNameDisplayText": "ARVIN AVE, STONEY CREEK"
      },
      {
        "electoralDistricts": [
          {
            "election": null,
            "id": 37,
            "name": "Hamilton East—Stoney Creek"
          }
        ],
        "pollDivisionIds": [
          10138663
        ],
        "postalCode": "L8E5M9",
        "streetName": "SUNNYHURST",
        "streetDirectionId": null,
        "streetTypeId": "AVE",
        "placeName": "STONEY CREEK",
        "streetNameDisplayText": "SUNNYHURST AVE, STONEY CREEK"
      }
    ]
  },
  {
    "postal": "L8E9B4",
    "result": []
  },
  {
    "postal": "L8E0L9",
    "result": []
  },
  {
    "postal": "L8E9G4",
    "result": []
  },
  {
    "postal": "L8E1J4",
    "result": [
      {
        "electoralDistricts": [
          {
            "election": null,
            "id": 37,
            "name": "Hamilton East—Stoney Creek"
          }
        ],
        "pollDivisionIds": [
          10138649
        ],
        "postalCode": "L8E1J4",
        "streetName": "KEATS",
        "streetDirectionId": null,
        "streetTypeId": "RD",
        "placeName": "HAMILTON",
        "streetNameDisplayText": "KEATS RD, HAMILTON"
      }
    ]
  },
  {
    "postal": "L8E0W6",
    "result": []
  }
]
