[
  {
    "postal": "N5C9J6",
    "result": []
  },
  {
    "postal": "N5C9Z5",
    "result": []
  },
  {
    "postal": "N5C7H8",
    "result": []
  },
  {
    "postal": "N5C0P6",
    "result": []
  },
  {
    "postal": "N5C0S7",
    "result": []
  },
  {
    "postal": "N5C8B9",
    "result": []
  },
  {
    "postal": "N5C2A6",
    "result": [
      {
        "electoralDistricts": [
          {
            "election": null,
            "id": 82,
            "name": "Oxford"
          }
        ],
        "pollDivisionIds": [
          10140895
        ],
        "postalCode": "N5C2A6",
        "streetName": "MUTUAL",
        "streetDirectionId": "N",
        "streetTypeId": "ST",
        "placeName": "INGERSOLL",
        "streetNameDisplayText": "MUTUAL ST N, INGERSOLL"
      }
    ]
  },
  {
    "postal": "N5C7V2",
    "result": []
  },
  {
    "postal": "N5C9P4",
    "result": []
  },
  {
    "postal": "N5C6G0",
    "result": []
  },
  {
    "postal": "N5C2K0",
    "result": []
  },
  {
    "postal": "N5C7N6",
    "result": []
  },
  {
    "postal": "N5C5R3",
    "result": []
  },
  {
    "postal": "N5C7K0",
    "result": []
  },
  {
    "postal": "N5C3R2",
    "result": [
      {
        "electoralDistricts": [
          {
            "election": null,
            "id": 82,
            "name": "Oxford"
          }
        ],
        "pollDivisionIds": [
          10140897
        ],
        "postalCode": "N5C3R2",
        "streetName": "CULLODEN",
        "streetDirectionId": null,
        "streetTypeId": "RD",
        "placeName": "INGERSOLL",
        "streetNameDisplayText": "CULLODEN RD, INGERSOLL"
      }
    ]
  },
  {
    "postal": "N5C0J1",
    "result": []
  },
  {
    "postal": "N5C0B0",
    "result": []
  },
  {
    "postal": "N5C5Z2",
    "result": []
  },
  {
    "postal": "N5C7P3",
    "result": []
  },
  {
    "postal": "N5C2K3",
    "result": [
      {
        "electoralDistricts": [
          {
            "election": null,
            "id": 82,
            "name": "Oxford"
          }
        ],
        "pollDivisionIds": [
          10140893,
          10140897
        ],
        "postalCode": "N5C2K3",
        "streetName": "KING",
        "streetDirectionId": "W",
        "streetTypeId": "ST",
        "placeName": "INGERSOLL",
        "streetNameDisplayText": "KING ST W, INGERSOLL"
      }
    ]
  },
  {
    "postal": "N5C7Y6",
    "result": []
  },
  {
    "postal": "N5C1L9",
    "result": [
      {
        "electoralDistricts": [
          {
            "election": null,
            "id": 82,
            "name": "Oxford"
          }
        ],
        "pollDivisionIds": [
          10140894
        ],
        "postalCode": "N5C1L9",
        "streetName": "KING HIRAM",
        "streetDirectionId": null,
        "streetTypeId": "ST",
        "placeName": "INGERSOLL",
        "streetNameDisplayText": "KING HIRAM ST, INGERSOLL"
      }
    ]
  },
  {
    "postal": "N5C8T0",
    "result": []
  },
  {
    "postal": "N5C3K8",
    "result": [
      {
        "electoralDistricts": [
          {
            "election": null,
            "id": 82,
            "name": "Oxford"
          }
        ],
        "pollDivisionIds": [
          10140896
        ],
        "postalCode": "N5C3K8",
        "streetName": "CONCESSION",
        "streetDirectionId": null,
        "streetTypeId": "ST",
        "placeName": "INGERSOLL",
        "streetNameDisplayText": "CONCESSION ST, INGERSOLL"
      }
    ]
  },
  {
    "postal": "N5C5W9",
    "result": []
  },
  {
    "postal": "N5C6T9",
    "result": []
  },
  {
    "postal": "N5C4H1",
    "result": [
      {
        "electoralDistricts": [
          {
            "election": null,
            "id": 82,
            "name": "Oxford"
          }
        ],
        "pollDivisionIds": [
          10140894
        ],
        "postalCode": "N5C4H1",
        "streetName": "KERR",
        "streetDirectionId": null,
        "streetTypeId": "CRES",
        "placeName": "INGERSOLL",
        "streetNameDisplayText": "KERR CRES, INGERSOLL"
      }
    ]
  },
  {
    "postal": "N5C7A2",
    "result": []
  },
  {
    "postal": "N5C5G0",
    "result": []
  },
  {
    "postal": "N5C8V5",
    "result": []
  },
  {
    "postal": "N5C2Y8",
    "result": [
      {
        "electoralDistricts": [
          {
            "election": null,
            "id": 82,
            "name": "Oxford"
          }
        ],
        "pollDivisionIds": [
          10140893
        ],
        "postalCode": "N5C2Y8",
        "streetName": "WONHAM",
        "streetDirectionId": "S",
        "streetTypeId": "ST",
        "placeName": "INGERSOLL",
        "streetNameDisplayText": "WONHAM ST S, INGERSOLL"
      }
    ]
  },
  {
    "postal": "N5C2B6",
    "result": [
      {
        "electoralDistricts": [
          {
            "election": null,
            "id": 82,
            "name": "Oxford"
          }
        ],
        "pollDivisionIds": [
          10140895
        ],
        "postalCode": "N5C2B6",
        "streetName": "NORTH TOWN",
        "streetDirectionId": "E",
        "streetTypeId": "LINE",
        "placeName": "INGERSOLL",
        "streetNameDisplayText": "NORTH TOWN LINE E, INGERSOLL"
      }
    ]
  },
  {
    "postal": "N5C4W8",
    "result": []
  },
  {
    "postal": "N5C8H7",
    "result": []
  },
  {
    "postal": "N5C5P1",
    "result": []
  },
  {
    "postal": "N5C2B8",
    "result": [
      {
        "electoralDistricts": [
          {
            "election": null,
            "id": 82,
            "name": "Oxford"
          }
        ],
        "pollDivisionIds": [
          10140893
        ],
        "postalCode": "N5C2B8",
        "streetName": "HOLCROFT",
        "streetDirectionId": "W",
        "streetTypeId": "ST",
        "placeName": "INGERSOLL",
        "streetNameDisplayText": "HOLCROFT ST W, INGERSOLL"
      }
    ]
  },
  {
    "postal": "N5C0P2",
    "result": []
  },
  {
    "postal": "N5C9M1",
    "result": []
  },
  {
    "postal": "N5C3G0",
    "result": []
  },
  {
    "postal": "N5C9Z2",
    "result": []
  },
  {
    "postal": "N5C2A0",
    "result": []
  },
  {
    "postal": "N5C6Y0",
    "result": []
  },
  {
    "postal": "N5C2Z8",
    "result": [
      {
        "electoralDistricts": [
          {
            "election": null,
            "id": 82,
            "name": "Oxford"
          }
        ],
        "pollDivisionIds": [
          10140897
        ],
        "postalCode": "N5C2Z8",
        "streetName": "WONHAM",
        "streetDirectionId": "S",
        "streetTypeId": "ST",
        "placeName": "INGERSOLL",
        "streetNameDisplayText": "WONHAM ST S, INGERSOLL"
      }
    ]
  },
  {
    "postal": "N5C7Y3",
    "result": []
  },
  {
    "postal": "N5C6Z5",
    "result": []
  },
  {
    "postal": "N5C6E0",
    "result": []
  },
  {
    "postal": "N5C9B7",
    "result": []
  },
  {
    "postal": "N5C9S5",
    "result": []
  },
  {
    "postal": "N5C3X3",
    "result": [
      {
        "electoralDistricts": [
          {
            "election": null,
            "id": 82,
            "name": "Oxford"
          }
        ],
        "pollDivisionIds": [
          10140895
        ],
        "postalCode": "N5C3X3",
        "streetName": "GARLAND",
        "streetDirectionId": null,
        "streetTypeId": "CRT",
        "placeName": "INGERSOLL",
        "streetNameDisplayText": "GARLAND CRT, INGERSOLL"
      }
    ]
  },
  {
    "postal": "N5C7R5",
    "result": []
  },
  {
    "postal": "N5C2X3",
    "result": [
      {
        "electoralDistricts": [
          {
            "election": null,
            "id": 82,
            "name": "Oxford"
          }
        ],
        "pollDivisionIds": [
          10140893
        ],
        "postalCode": "N5C2X3",
        "streetName": "EARL",
        "streetDirectionId": null,
        "streetTypeId": "ST",
        "placeName": "INGERSOLL",
        "streetNameDisplayText": "EARL ST, INGERSOLL"
      }
    ]
  },
  {
    "postal": "N5C8Z9",
    "result": []
  },
  {
    "postal": "N5C0N4",
    "result": []
  },
  {
    "postal": "N5C1K1",
    "result": [
      {
        "electoralDistricts": [
          {
            "election": null,
            "id": 82,
            "name": "Oxford"
          }
        ],
        "pollDivisionIds": [
          10140896
        ],
        "postalCode": "N5C1K1",
        "streetName": "CHARLES",
        "streetDirectionId": "E",
        "streetTypeId": "ST",
        "placeName": "INGERSOLL",
        "streetNameDisplayText": "CHARLES ST E, INGERSOLL"
      }
    ]
  },
  {
    "postal": "N5C1S3",
    "result": []
  },
  {
    "postal": "N5C6M4",
    "result": []
  },
  {
    "postal": "N5C9A9",
    "result": []
  },
  {
    "postal": "N5C9Z9",
    "result": []
  },
  {
    "postal": "N5C6T4",
    "result": []
  },
  {
    "postal": "N5C0B2",
    "result": [
      {
        "electoralDistricts": [
          {
            "election": null,
            "id": 82,
            "name": "Oxford"
          }
        ],
        "pollDivisionIds": [
          10140897
        ],
        "postalCode": "N5C0B2",
        "streetName": "MOFFAT",
        "streetDirectionId": null,
        "streetTypeId": "AVE",
        "placeName": "INGERSOLL",
        "streetNameDisplayText": "MOFFAT AVE, INGERSOLL"
      },
      {
        "electoralDistricts": [
          {
            "election": null,
            "id": 82,
            "name": "Oxford"
          }
        ],
        "pollDivisionIds": [
          10140897
        ],
        "postalCode": "N5C0B2",
        "streetName": "WINDERS",
        "streetDirectionId": null,
        "streetTypeId": "TRAIL",
        "placeName": "INGERSOLL",
        "streetNameDisplayText": "WINDERS TRAIL, INGERSOLL"
      }
    ]
  },
  {
    "postal": "N5C2L9",
    "result": [
      {
        "electoralDistricts": [
          {
            "election": null,
            "id": 82,
            "name": "Oxford"
          }
        ],
        "pollDivisionIds": [
          10140893
        ],
        "postalCode": "N5C2L9",
        "streetName": "CHARLES",
        "streetDirectionId": "W",
        "streetTypeId": "ST",
        "placeName": "INGERSOLL",
        "streetNameDisplayText": "CHARLES ST W, INGERSOLL"
      }
    ]
  },
  {
    "postal": "N5C8K9",
    "result": []
  },
  {
    "postal": "N5C2H9",
    "result": [
      {
        "electoralDistricts": [
          {
            "election": null,
            "id": 82,
            "name": "Oxford"
          }
        ],
        "pollDivisionIds": [
          10140893
        ],
        "postalCode": "N5C2H9",
        "streetName": "FREDERICK",
        "streetDirectionId": null,
        "streetTypeId": "ST",
        "placeName": "INGERSOLL",
        "streetNameDisplayText": "FREDERICK ST, INGERSOLL"
      }
    ]
  },
  {
    "postal": "N5C3Z6",
    "result": [
      {
        "electoralDistricts": [
          {
            "election": null,
            "id": 82,
            "name": "Oxford"
          }
        ],
        "pollDivisionIds": [
          10140893
        ],
        "postalCode": "N5C3Z6",
        "streetName": "HEMLOCK",
        "streetDirectionId": null,
        "streetTypeId": "RD",
        "placeName": "INGERSOLL",
        "streetNameDisplayText": "HEMLOCK RD, INGERSOLL"
      },
      {
        "electoralDistricts": [
          {
            "election": null,
            "id": 82,
            "name": "Oxford"
          }
        ],
        "pollDivisionIds": [
          10140893
        ],
        "postalCode": "N5C3Z6",
        "streetName": "MAGNOLIA",
        "streetDirectionId": null,
        "streetTypeId": "PL",
        "placeName": "INGERSOLL",
        "streetNameDisplayText": "MAGNOLIA PL, INGERSOLL"
      }
    ]
  },
  {
    "postal": "N5C3B0",
    "result": []
  },
  {
    "postal": "N5C2H8",
    "result": [
      {
        "electoralDistricts": [
          {
            "election": null,
            "id": 82,
            "name": "Oxford"
          }
        ],
        "pollDivisionIds": [
          10140893
        ],
        "postalCode": "N5C2H8",
        "streetName": "FREDERICK",
        "streetDirectionId": null,
        "streetTypeId": "ST",
        "placeName": "INGERSOLL",
        "streetNameDisplayText": "FREDERICK ST, INGERSOLL"
      }
    ]
  },
  {
    "postal": "N5C3X2",
    "result": [
      {
        "electoralDistricts": [
          {
            "election": null,
            "id": 82,
            "name": "Oxford"
          }
        ],
        "pollDivisionIds": [
          10140895
        ],
        "postalCode": "N5C3X2",
        "streetName": "GARLAND",
        "streetDirectionId": null,
        "streetTypeId": "CRT",
        "placeName": "INGERSOLL",
        "streetNameDisplayText": "GARLAND CRT, INGERSOLL"
      }
    ]
  },
  {
    "postal": "N5C2E9",
    "result": [
      {
        "electoralDistricts": [
          {
            "election": null,
            "id": 82,
            "name": "Oxford"
          }
        ],
        "pollDivisionIds": [
          10140897
        ],
        "postalCode": "N5C2E9",
        "streetName": "ANN",
        "streetDirectionId": null,
        "streetTypeId": "ST",
        "placeName": "INGERSOLL",
        "streetNameDisplayText": "ANN ST, INGERSOLL"
      }
    ]
  },
  {
    "postal": "N5C9P6",
    "result": []
  },
  {
    "postal": "N5C9E2",
    "result": []
  },
  {
    "postal": "N5C9H2",
    "result": []
  },
  {
    "postal": "N5C1S8",
    "result": [
      {
        "electoralDistricts": [
          {
            "election": null,
            "id": 82,
            "name": "Oxford"
          }
        ],
        "pollDivisionIds": [
          10140896
        ],
        "postalCode": "N5C1S8",
        "streetName": "WELLINGTON",
        "streetDirectionId": null,
        "streetTypeId": "ST",
        "placeName": "INGERSOLL",
        "streetNameDisplayText": "WELLINGTON ST, INGERSOLL"
      }
    ]
  },
  {
    "postal": "N5C3M6",
    "result": [
      {
        "electoralDistricts": [
          {
            "election": null,
            "id": 82,
            "name": "Oxford"
          }
        ],
        "pollDivisionIds": [
          10140893
        ],
        "postalCode": "N5C3M6",
        "streetName": "THAMES",
        "streetDirectionId": "N",
        "streetTypeId": "ST",
        "placeName": "INGERSOLL",
        "streetNameDisplayText": "THAMES ST N, INGERSOLL"
      }
    ]
  },
  {
    "postal": "N5C6Z8",
    "result": []
  },
  {
    "postal": "N5C4J2",
    "result": []
  },
  {
    "postal": "N5C9Y1",
    "result": []
  },
  {
    "postal": "N5C8V6",
    "result": []
  },
  {
    "postal": "N5C6B2",
    "result": []
  },
  {
    "postal": "N5C1P8",
    "result": [
      {
        "electoralDistricts": [
          {
            "election": null,
            "id": 82,
            "name": "Oxford"
          }
        ],
        "pollDivisionIds": [
          10140895
        ],
        "postalCode": "N5C1P8",
        "streetName": "CAMBRIDGE",
        "streetDirectionId": null,
        "streetTypeId": "ST",
        "placeName": "INGERSOLL",
        "streetNameDisplayText": "CAMBRIDGE ST, INGERSOLL"
      }
    ]
  },
  {
    "postal": "N5C0V8",
    "result": []
  },
  {
    "postal": "N5C4Y0",
    "result": []
  },
  {
    "postal": "N5C2T4",
    "result": [
      {
        "electoralDistricts": [
          {
            "election": null,
            "id": 82,
            "name": "Oxford"
          }
        ],
        "pollDivisionIds": [
          10140893
        ],
        "postalCode": "N5C2T4",
        "streetName": "THAMES",
        "streetDirectionId": "S",
        "streetTypeId": "ST",
        "placeName": "INGERSOLL",
        "streetNameDisplayText": "THAMES ST S, INGERSOLL"
      }
    ]
  },
  {
    "postal": "N5C2S3",
    "result": [
      {
        "electoralDistricts": [
          {
            "election": null,
            "id": 82,
            "name": "Oxford"
          }
        ],
        "pollDivisionIds": [
          10140894
        ],
        "postalCode": "N5C2S3",
        "streetName": "HAINES",
        "streetDirectionId": null,
        "streetTypeId": "ST",
        "placeName": "INGERSOLL",
        "streetNameDisplayText": "HAINES ST, INGERSOLL"
      }
    ]
  },
  {
    "postal": "N5C0K0",
    "result": []
  },
  {
    "postal": "N5C5N1",
    "result": []
  },
  {
    "postal": "N5C7T0",
    "result": []
  },
  {
    "postal": "N5C9N2",
    "result": []
  },
  {
    "postal": "N5C5L1",
    "result": []
  },
  {
    "postal": "N5C7G5",
    "result": []
  },
  {
    "postal": "N5C6K2",
    "result": []
  },
  {
    "postal": "N5C6P9",
    "result": []
  },
  {
    "postal": "N5C0E6",
    "result": []
  },
  {
    "postal": "N5C8R9",
    "result": []
  },
  {
    "postal": "N5C3G9",
    "result": [
      {
        "electoralDistricts": [
          {
            "election": null,
            "id": 82,
            "name": "Oxford"
          }
        ],
        "pollDivisionIds": [
          10140894
        ],
        "postalCode": "N5C3G9",
        "streetName": "WONHAM",
        "streetDirectionId": "N",
        "streetTypeId": "ST",
        "placeName": "INGERSOLL",
        "streetNameDisplayText": "WONHAM ST N, INGERSOLL"
      }
    ]
  },
  {
    "postal": "N5C0V7",
    "result": []
  },
  {
    "postal": "N5C2Z1",
    "result": [
      {
        "electoralDistricts": [
          {
            "election": null,
            "id": 82,
            "name": "Oxford"
          }
        ],
        "pollDivisionIds": [
          10140897,
          10140893
        ],
        "postalCode": "N5C2Z1",
        "streetName": "WONHAM",
        "streetDirectionId": "S",
        "streetTypeId": "ST",
        "placeName": "INGERSOLL",
        "streetNameDisplayText": "WONHAM ST S, INGERSOLL"
      }
    ]
  },
  {
    "postal": "N5C7N1",
    "result": []
  },
  {
    "postal": "N5C3C6",
    "result": [
      {
        "electoralDistricts": [
          {
            "election": null,
            "id": 82,
            "name": "Oxford"
          }
        ],
        "pollDivisionIds": [
          10140894
        ],
        "postalCode": "N5C3C6",
        "streetName": "THAMES",
        "streetDirectionId": "N",
        "streetTypeId": "ST",
        "placeName": "INGERSOLL",
        "streetNameDisplayText": "THAMES ST N, INGERSOLL"
      },
      {
        "electoralDistricts": [
          {
            "election": null,
            "id": 82,
            "name": "Oxford"
          }
        ],
        "pollDivisionIds": [
          10140896
        ],
        "postalCode": "N5C3C6",
        "streetName": "THAMES",
        "streetDirectionId": "S",
        "streetTypeId": "ST",
        "placeName": "INGERSOLL",
        "streetNameDisplayText": "THAMES ST S, INGERSOLL"
      }
    ]
  },
  {
    "postal": "N5C4M1",
    "result": []
  },
  {
    "postal": "N5C9K2",
    "result": []
  },
  {
    "postal": "N5C9S6",
    "result": []
  },
  {
    "postal": "N5C4X1",
    "result": []
  },
  {
    "postal": "N5C8W2",
    "result": []
  },
  {
    "postal": "N5C7N2",
    "result": []
  },
  {
    "postal": "N5C8S3",
    "result": []
  },
  {
    "postal": "N5C4V0",
    "result": []
  },
  {
    "postal": "N5C6W4",
    "result": []
  },
  {
    "postal": "N5C5M1",
    "result": []
  },
  {
    "postal": "N5C0S4",
    "result": []
  },
  {
    "postal": "N5C5X6",
    "result": []
  },
  {
    "postal": "N5C8L5",
    "result": []
  },
  {
    "postal": "N5C5M8",
    "result": []
  },
  {
    "postal": "N5C2G3",
    "result": [
      {
        "electoralDistricts": [
          {
            "election": null,
            "id": 82,
            "name": "Oxford"
          }
        ],
        "pollDivisionIds": [
          10140893
        ],
        "postalCode": "N5C2G3",
        "streetName": "ANN",
        "streetDirectionId": null,
        "streetTypeId": "ST",
        "placeName": "INGERSOLL",
        "streetNameDisplayText": "ANN ST, INGERSOLL"
      }
    ]
  },
  {
    "postal": "N5C8E4",
    "result": []
  },
  {
    "postal": "N5C7S9",
    "result": []
  },
  {
    "postal": "N5C1K3",
    "result": [
      {
        "electoralDistricts": [
          {
            "election": null,
            "id": 82,
            "name": "Oxford"
          }
        ],
        "pollDivisionIds": [
          10140896
        ],
        "postalCode": "N5C1K3",
        "streetName": "CHARLES",
        "streetDirectionId": "E",
        "streetTypeId": "ST",
        "placeName": "INGERSOLL",
        "streetNameDisplayText": "CHARLES ST E, INGERSOLL"
      }
    ]
  },
  {
    "postal": "N5C4E1",
    "result": [
      {
        "electoralDistricts": [
          {
            "election": null,
            "id": 82,
            "name": "Oxford"
          }
        ],
        "pollDivisionIds": [
          10140896
        ],
        "postalCode": "N5C4E1",
        "streetName": "CORNISH",
        "streetDirectionId": null,
        "streetTypeId": "CRES",
        "placeName": "INGERSOLL",
        "streetNameDisplayText": "CORNISH CRES, INGERSOLL"
      },
      {
        "electoralDistricts": [
          {
            "election": null,
            "id": 82,
            "name": "Oxford"
          }
        ],
        "pollDivisionIds": [
          10140896
        ],
        "postalCode": "N5C4E1",
        "streetName": "ROSSITER",
        "streetDirectionId": null,
        "streetTypeId": "RD",
        "placeName": "INGERSOLL",
        "streetNameDisplayText": "ROSSITER RD, INGERSOLL"
      }
    ]
  },
  {
    "postal": "N5C4R2",
    "result": []
  },
  {
    "postal": "N5C6T0",
    "result": []
  },
  {
    "postal": "N5C3K5",
    "result": [
      {
        "electoralDistricts": [
          {
            "election": null,
            "id": 82,
            "name": "Oxford"
          }
        ],
        "pollDivisionIds": [
          10140897
        ],
        "postalCode": "N5C3K5",
        "streetName": "CLARKE",
        "streetDirectionId": null,
        "streetTypeId": "RD",
        "placeName": "INGERSOLL",
        "streetNameDisplayText": "CLARKE RD, INGERSOLL"
      },
      {
        "electoralDistricts": [
          {
            "election": null,
            "id": 82,
            "name": "Oxford"
          }
        ],
        "pollDivisionIds": [
          10140897
        ],
        "postalCode": "N5C3K5",
        "streetName": "CLARKE RD",
        "streetDirectionId": null,
        "streetTypeId": null,
        "placeName": "INGERSOLL",
        "streetNameDisplayText": "CLARKE RD, INGERSOLL"
      },
      {
        "electoralDistricts": [
          {
            "election": null,
            "id": 82,
            "name": "Oxford"
          }
        ],
        "pollDivisionIds": [
          10140899
        ],
        "postalCode": "N5C3K5",
        "streetName": "CULLODEN",
        "streetDirectionId": null,
        "streetTypeId": "LINE",
        "placeName": "MOUNT ELGIN",
        "streetNameDisplayText": "CULLODEN LINE, MOUNT ELGIN"
      }
    ]
  },
  {
    "postal": "N5C3S3",
    "result": [
      {
        "electoralDistricts": [
          {
            "election": null,
            "id": 82,
            "name": "Oxford"
          }
        ],
        "pollDivisionIds": [
          10140894
        ],
        "postalCode": "N5C3S3",
        "streetName": "WONHAM",
        "streetDirectionId": "N",
        "streetTypeId": "ST",
        "placeName": "INGERSOLL",
        "streetNameDisplayText": "WONHAM ST N, INGERSOLL"
      }
    ]
  },
  {
    "postal": "N5C3L4",
    "result": [
      {
        "electoralDistricts": [
          {
            "election": null,
            "id": 82,
            "name": "Oxford"
          }
        ],
        "pollDivisionIds": [
          10140893
        ],
        "postalCode": "N5C3L4",
        "streetName": "DEAN",
        "streetDirectionId": null,
        "streetTypeId": "CRES",
        "placeName": "INGERSOLL",
        "streetNameDisplayText": "DEAN CRES, INGERSOLL"
      },
      {
        "electoralDistricts": [
          {
            "election": null,
            "id": 82,
            "name": "Oxford"
          }
        ],
        "pollDivisionIds": [
          10140893
        ],
        "postalCode": "N5C3L4",
        "streetName": "FLEISHER",
        "streetDirectionId": null,
        "streetTypeId": "AVE",
        "placeName": "INGERSOLL",
        "streetNameDisplayText": "FLEISHER AVE, INGERSOLL"
      }
    ]
  },
  {
    "postal": "N5C9Y2",
    "result": []
  },
  {
    "postal": "N5C1E0",
    "result": []
  },
  {
    "postal": "N5C9A4",
    "result": []
  },
  {
    "postal": "N5C1L3",
    "result": [
      {
        "electoralDistricts": [
          {
            "election": null,
            "id": 82,
            "name": "Oxford"
          }
        ],
        "pollDivisionIds": [
          10140894
        ],
        "postalCode": "N5C1L3",
        "streetName": "CATHERINE",
        "streetDirectionId": null,
        "streetTypeId": "ST",
        "placeName": "INGERSOLL",
        "streetNameDisplayText": "CATHERINE ST, INGERSOLL"
      }
    ]
  },
  {
    "postal": "N5C6N1",
    "result": []
  },
  {
    "postal": "N5C6G7",
    "result": []
  },
  {
    "postal": "N5C7W1",
    "result": []
  },
  {
    "postal": "N5C4M6",
    "result": []
  },
  {
    "postal": "N5C1K0",
    "result": []
  },
  {
    "postal": "N5C3E2",
    "result": [
      {
        "electoralDistricts": [
          {
            "election": null,
            "id": 82,
            "name": "Oxford"
          }
        ],
        "pollDivisionIds": [
          10140894
        ],
        "postalCode": "N5C3E2",
        "streetName": "THAMES",
        "streetDirectionId": "N",
        "streetTypeId": "ST",
        "placeName": "INGERSOLL",
        "streetNameDisplayText": "THAMES ST N, INGERSOLL"
      }
    ]
  },
  {
    "postal": "N5C5H4",
    "result": []
  },
  {
    "postal": "N5C1K7",
    "result": [
      {
        "electoralDistricts": [
          {
            "election": null,
            "id": 82,
            "name": "Oxford"
          }
        ],
        "pollDivisionIds": [
          10140894
        ],
        "postalCode": "N5C1K7",
        "streetName": "CARNEGIE",
        "streetDirectionId": null,
        "streetTypeId": "ST",
        "placeName": "INGERSOLL",
        "streetNameDisplayText": "CARNEGIE ST, INGERSOLL"
      }
    ]
  },
  {
    "postal": "N5C0H0",
    "result": []
  },
  {
    "postal": "N5C0J3",
    "result": []
  },
  {
    "postal": "N5C1X6",
    "result": [
      {
        "electoralDistricts": [
          {
            "election": null,
            "id": 82,
            "name": "Oxford"
          }
        ],
        "pollDivisionIds": [
          10140896
        ],
        "postalCode": "N5C1X6",
        "streetName": "CENTRE",
        "streetDirectionId": null,
        "streetTypeId": "ST",
        "placeName": "INGERSOLL",
        "streetNameDisplayText": "CENTRE ST, INGERSOLL"
      }
    ]
  },
  {
    "postal": "N5C2Z6",
    "result": [
      {
        "electoralDistricts": [
          {
            "election": null,
            "id": 82,
            "name": "Oxford"
          }
        ],
        "pollDivisionIds": [
          10140897
        ],
        "postalCode": "N5C2Z6",
        "streetName": "WONHAM",
        "streetDirectionId": "S",
        "streetTypeId": "ST",
        "placeName": "INGERSOLL",
        "streetNameDisplayText": "WONHAM ST S, INGERSOLL"
      }
    ]
  },
  {
    "postal": "N5C4R9",
    "result": []
  },
  {
    "postal": "N5C0W8",
    "result": []
  },
  {
    "postal": "N5C1L4",
    "result": [
      {
        "electoralDistricts": [
          {
            "election": null,
            "id": 82,
            "name": "Oxford"
          }
        ],
        "pollDivisionIds": [
          10140894
        ],
        "postalCode": "N5C1L4",
        "streetName": "CATHERINE",
        "streetDirectionId": null,
        "streetTypeId": "ST",
        "placeName": "INGERSOLL",
        "streetNameDisplayText": "CATHERINE ST, INGERSOLL"
      }
    ]
  },
  {
    "postal": "N5C0C8",
    "result": []
  },
  {
    "postal": "N5C9X7",
    "result": []
  },
  {
    "postal": "N5C4T1",
    "result": []
  },
  {
    "postal": "N5C0M0",
    "result": []
  },
  {
    "postal": "N5C6A2",
    "result": []
  },
  {
    "postal": "N5C9S8",
    "result": []
  },
  {
    "postal": "N5C9T4",
    "result": []
  },
  {
    "postal": "N5C9Y4",
    "result": []
  },
  {
    "postal": "N5C6G5",
    "result": []
  },
  {
    "postal": "N5C6H9",
    "result": []
  },
  {
    "postal": "N5C2P3",
    "result": [
      {
        "electoralDistricts": [
          {
            "election": null,
            "id": 82,
            "name": "Oxford"
          }
        ],
        "pollDivisionIds": [
          10140894
        ],
        "postalCode": "N5C2P3",
        "streetName": "BELL",
        "streetDirectionId": null,
        "streetTypeId": "ST",
        "placeName": "INGERSOLL",
        "streetNameDisplayText": "BELL ST, INGERSOLL"
      }
    ]
  },
  {
    "postal": "N5C1T6",
    "result": [
      {
        "electoralDistricts": [
          {
            "election": null,
            "id": 82,
            "name": "Oxford"
          }
        ],
        "pollDivisionIds": [
          10140897
        ],
        "postalCode": "N5C1T6",
        "streetName": "WELLINGTON",
        "streetDirectionId": null,
        "streetTypeId": "ST",
        "placeName": "INGERSOLL",
        "streetNameDisplayText": "WELLINGTON ST, INGERSOLL"
      }
    ]
  },
  {
    "postal": "N5C4P6",
    "result": []
  },
  {
    "postal": "N5C3K1",
    "result": []
  },
  {
    "postal": "N5C6X4",
    "result": []
  },
  {
    "postal": "N5C4M8",
    "result": []
  },
  {
    "postal": "N5C2Y1",
    "result": [
      {
        "electoralDistricts": [
          {
            "election": null,
            "id": 82,
            "name": "Oxford"
          }
        ],
        "pollDivisionIds": [
          10140893
        ],
        "postalCode": "N5C2Y1",
        "streetName": "ALBERT",
        "streetDirectionId": null,
        "streetTypeId": "ST",
        "placeName": "INGERSOLL",
        "streetNameDisplayText": "ALBERT ST, INGERSOLL"
      }
    ]
  },
  {
    "postal": "N5C6M1",
    "result": []
  },
  {
    "postal": "N5C5L8",
    "result": []
  },
  {
    "postal": "N5C3P6",
    "result": [
      {
        "electoralDistricts": [
          {
            "election": null,
            "id": 82,
            "name": "Oxford"
          }
        ],
        "pollDivisionIds": [
          10140933
        ],
        "postalCode": "N5C3P6",
        "streetName": "WONHAM",
        "streetDirectionId": "S",
        "streetTypeId": "ST",
        "placeName": "INGERSOLL",
        "streetNameDisplayText": "WONHAM ST S, INGERSOLL"
      }
    ]
  },
  {
    "postal": "N5C9A5",
    "result": []
  },
  {
    "postal": "N5C7K1",
    "result": []
  },
  {
    "postal": "N5C3J4",
    "result": []
  },
  {
    "postal": "N5C5E7",
    "result": []
  },
  {
    "postal": "N5C3A7",
    "result": [
      {
        "electoralDistricts": [
          {
            "election": null,
            "id": 82,
            "name": "Oxford"
          }
        ],
        "pollDivisionIds": [
          10140893
        ],
        "postalCode": "N5C3A7",
        "streetName": "BENSON",
        "streetDirectionId": null,
        "streetTypeId": "ST",
        "placeName": "INGERSOLL",
        "streetNameDisplayText": "BENSON ST, INGERSOLL"
      }
    ]
  },
  {
    "postal": "N5C1B9",
    "result": [
      {
        "electoralDistricts": [
          {
            "election": null,
            "id": 82,
            "name": "Oxford"
          }
        ],
        "pollDivisionIds": [
          10140897
        ],
        "postalCode": "N5C1B9",
        "streetName": "NELSON",
        "streetDirectionId": null,
        "streetTypeId": "ST",
        "placeName": "INGERSOLL",
        "streetNameDisplayText": "NELSON ST, INGERSOLL"
      }
    ]
  },
  {
    "postal": "N5C9E8",
    "result": []
  },
  {
    "postal": "N5C1C9",
    "result": [
      {
        "electoralDistricts": [
          {
            "election": null,
            "id": 82,
            "name": "Oxford"
          }
        ],
        "pollDivisionIds": [
          10140896
        ],
        "postalCode": "N5C1C9",
        "streetName": "CANTERBURY",
        "streetDirectionId": null,
        "streetTypeId": "ST",
        "placeName": "INGERSOLL",
        "streetNameDisplayText": "CANTERBURY ST, INGERSOLL"
      }
    ]
  },
  {
    "postal": "N5C3B5",
    "result": [
      {
        "electoralDistricts": [
          {
            "election": null,
            "id": 82,
            "name": "Oxford"
          }
        ],
        "pollDivisionIds": [
          10140893
        ],
        "postalCode": "N5C3B5",
        "streetName": "WHITING",
        "streetDirectionId": null,
        "streetTypeId": "ST",
        "placeName": "INGERSOLL",
        "streetNameDisplayText": "WHITING ST, INGERSOLL"
      }
    ]
  },
  {
    "postal": "N5C8R0",
    "result": []
  },
  {
    "postal": "N5C3P2",
    "result": [
      {
        "electoralDistricts": [
          {
            "election": null,
            "id": 82,
            "name": "Oxford"
          }
        ],
        "pollDivisionIds": [
          10140893
        ],
        "postalCode": "N5C3P2",
        "streetName": "WITTY",
        "streetDirectionId": null,
        "streetTypeId": "AVE",
        "placeName": "INGERSOLL",
        "streetNameDisplayText": "WITTY AVE, INGERSOLL"
      }
    ]
  },
  {
    "postal": "N5C5V4",
    "result": []
  },
  {
    "postal": "N5C4H0",
    "result": []
  },
  {
    "postal": "N5C4S7",
    "result": []
  },
  {
    "postal": "N5C6C2",
    "result": []
  },
  {
    "postal": "N5C8W3",
    "result": []
  },
  {
    "postal": "N5C4M5",
    "result": []
  },
  {
    "postal": "N5C5T1",
    "result": []
  },
  {
    "postal": "N5C3B3",
    "result": [
      {
        "electoralDistricts": [
          {
            "election": null,
            "id": 82,
            "name": "Oxford"
          }
        ],
        "pollDivisionIds": [
          10140893
        ],
        "postalCode": "N5C3B3",
        "streetName": "WHITING",
        "streetDirectionId": null,
        "streetTypeId": "ST",
        "placeName": "INGERSOLL",
        "streetNameDisplayText": "WHITING ST, INGERSOLL"
      }
    ]
  },
  {
    "postal": "N5C6C6",
    "result": []
  },
  {
    "postal": "N5C7N8",
    "result": []
  },
  {
    "postal": "N5C2Y3",
    "result": [
      {
        "electoralDistricts": [
          {
            "election": null,
            "id": 82,
            "name": "Oxford"
          }
        ],
        "pollDivisionIds": [
          10140893
        ],
        "postalCode": "N5C2Y3",
        "streetName": "ALBERT",
        "streetDirectionId": null,
        "streetTypeId": "ST",
        "placeName": "INGERSOLL",
        "streetNameDisplayText": "ALBERT ST, INGERSOLL"
      }
    ]
  },
  {
    "postal": "N5C2R6",
    "result": [
      {
        "electoralDistricts": [
          {
            "election": null,
            "id": 82,
            "name": "Oxford"
          }
        ],
        "pollDivisionIds": [
          10140895
        ],
        "postalCode": "N5C2R6",
        "streetName": "INNES",
        "streetDirectionId": null,
        "streetTypeId": "ST",
        "placeName": "INGERSOLL",
        "streetNameDisplayText": "INNES ST, INGERSOLL"
      }
    ]
  },
  {
    "postal": "N5C7N3",
    "result": []
  },
  {
    "postal": "N5C8J2",
    "result": []
  },
  {
    "postal": "N5C6A9",
    "result": []
  },
  {
    "postal": "N5C3V2",
    "result": [
      {
        "electoralDistricts": [
          {
            "election": null,
            "id": 82,
            "name": "Oxford"
          }
        ],
        "pollDivisionIds": [
          10140893
        ],
        "postalCode": "N5C3V2",
        "streetName": "WONHAM",
        "streetDirectionId": "S",
        "streetTypeId": "ST",
        "placeName": "INGERSOLL",
        "streetNameDisplayText": "WONHAM ST S, INGERSOLL"
      }
    ]
  },
  {
    "postal": "N5C2N3",
    "result": [
      {
        "electoralDistricts": [
          {
            "election": null,
            "id": 82,
            "name": "Oxford"
          }
        ],
        "pollDivisionIds": [
          10140894
        ],
        "postalCode": "N5C2N3",
        "streetName": "VICTORIA",
        "streetDirectionId": null,
        "streetTypeId": "ST",
        "placeName": "INGERSOLL",
        "streetNameDisplayText": "VICTORIA ST, INGERSOLL"
      }
    ]
  },
  {
    "postal": "N5C1S5",
    "result": [
      {
        "electoralDistricts": [
          {
            "election": null,
            "id": 82,
            "name": "Oxford"
          }
        ],
        "pollDivisionIds": [
          10140896
        ],
        "postalCode": "N5C1S5",
        "streetName": "MUTUAL",
        "streetDirectionId": "S",
        "streetTypeId": "ST",
        "placeName": "INGERSOLL",
        "streetNameDisplayText": "MUTUAL ST S, INGERSOLL"
      }
    ]
  },
  {
    "postal": "N5C4T7",
    "result": []
  },
  {
    "postal": "N5C6Y7",
    "result": []
  },
  {
    "postal": "N5C0W7",
    "result": []
  },
  {
    "postal": "N5C2W9",
    "result": [
      {
        "electoralDistricts": [
          {
            "election": null,
            "id": 82,
            "name": "Oxford"
          }
        ],
        "pollDivisionIds": [
          10140893
        ],
        "postalCode": "N5C2W9",
        "streetName": "EARL",
        "streetDirectionId": null,
        "streetTypeId": "ST",
        "placeName": "INGERSOLL",
        "streetNameDisplayText": "EARL ST, INGERSOLL"
      }
    ]
  },
  {
    "postal": "N5C8V0",
    "result": []
  },
  {
    "postal": "N5C0H4",
    "result": []
  },
  {
    "postal": "N5C2T1",
    "result": [
      {
        "electoralDistricts": [
          {
            "election": null,
            "id": 82,
            "name": "Oxford"
          }
        ],
        "pollDivisionIds": [
          10140893
        ],
        "postalCode": "N5C2T1",
        "streetName": "THAMES",
        "streetDirectionId": "S",
        "streetTypeId": "ST",
        "placeName": "INGERSOLL",
        "streetNameDisplayText": "THAMES ST S, INGERSOLL"
      }
    ]
  },
  {
    "postal": "N5C1B1",
    "result": [
      {
        "electoralDistricts": [
          {
            "election": null,
            "id": 82,
            "name": "Oxford"
          }
        ],
        "pollDivisionIds": [
          10140897
        ],
        "postalCode": "N5C1B1",
        "streetName": "CROSS",
        "streetDirectionId": null,
        "streetTypeId": "ST",
        "placeName": "INGERSOLL",
        "streetNameDisplayText": "CROSS ST, INGERSOLL"
      }
    ]
  },
  {
    "postal": "N5C8B6",
    "result": []
  },
  {
    "postal": "N5C6H1",
    "result": []
  },
  {
    "postal": "N5C8T8",
    "result": []
  },
  {
    "postal": "N5C0T4",
    "result": []
  },
  {
    "postal": "N5C2C4",
    "result": [
      {
        "electoralDistricts": [
          {
            "election": null,
            "id": 82,
            "name": "Oxford"
          }
        ],
        "pollDivisionIds": [
          10140893
        ],
        "postalCode": "N5C2C4",
        "streetName": "CHISHOLM",
        "streetDirectionId": null,
        "streetTypeId": "DR",
        "placeName": "INGERSOLL",
        "streetNameDisplayText": "CHISHOLM DR, INGERSOLL"
      }
    ]
  },
  {
    "postal": "N5C8N3",
    "result": []
  },
  {
    "postal": "N5C4L8",
    "result": []
  },
  {
    "postal": "N5C2B5",
    "result": [
      {
        "electoralDistricts": [
          {
            "election": null,
            "id": 82,
            "name": "Oxford"
          }
        ],
        "pollDivisionIds": [
          10140893,
          10140895
        ],
        "postalCode": "N5C2B5",
        "streetName": "PEMBERTON",
        "streetDirectionId": null,
        "streetTypeId": "ST",
        "placeName": "INGERSOLL",
        "streetNameDisplayText": "PEMBERTON ST, INGERSOLL"
      }
    ]
  },
  {
    "postal": "N5C3H1",
    "result": [
      {
        "electoralDistricts": [
          {
            "election": null,
            "id": 82,
            "name": "Oxford"
          }
        ],
        "pollDivisionIds": [
          10140895
        ],
        "postalCode": "N5C3H1",
        "streetName": "WONHAM",
        "streetDirectionId": "N",
        "streetTypeId": "ST",
        "placeName": "INGERSOLL",
        "streetNameDisplayText": "WONHAM ST N, INGERSOLL"
      }
    ]
  },
  {
    "postal": "N5C4Y1",
    "result": []
  },
  {
    "postal": "N5C7E2",
    "result": []
  },
  {
    "postal": "N5C2P5",
    "result": [
      {
        "electoralDistricts": [
          {
            "election": null,
            "id": 82,
            "name": "Oxford"
          }
        ],
        "pollDivisionIds": [
          10140894
        ],
        "postalCode": "N5C2P5",
        "streetName": "BELL",
        "streetDirectionId": null,
        "streetTypeId": "ST",
        "placeName": "INGERSOLL",
        "streetNameDisplayText": "BELL ST, INGERSOLL"
      }
    ]
  },
  {
    "postal": "N5C8R7",
    "result": []
  },
  {
    "postal": "N5C9P1",
    "result": []
  },
  {
    "postal": "N5C3B8",
    "result": [
      {
        "electoralDistricts": [
          {
            "election": null,
            "id": 82,
            "name": "Oxford"
          }
        ],
        "pollDivisionIds": [
          10140893
        ],
        "postalCode": "N5C3B8",
        "streetName": "WHITING",
        "streetDirectionId": null,
        "streetTypeId": "ST",
        "placeName": "INGERSOLL",
        "streetNameDisplayText": "WHITING ST, INGERSOLL"
      }
    ]
  },
  {
    "postal": "N5C3P7",
    "result": [
      {
        "electoralDistricts": [
          {
            "election": null,
            "id": 82,
            "name": "Oxford"
          }
        ],
        "pollDivisionIds": [
          10140897
        ],
        "postalCode": "N5C3P7",
        "streetName": "WHITING",
        "streetDirectionId": null,
        "streetTypeId": "ST",
        "placeName": "INGERSOLL",
        "streetNameDisplayText": "WHITING ST, INGERSOLL"
      }
    ]
  },
  {
    "postal": "N5C9B2",
    "result": []
  },
  {
    "postal": "N5C6Z3",
    "result": []
  },
  {
    "postal": "N5C4N5",
    "result": []
  },
  {
    "postal": "N5C8T3",
    "result": []
  },
  {
    "postal": "N5C1V2",
    "result": [
      {
        "electoralDistricts": [
          {
            "election": null,
            "id": 82,
            "name": "Oxford"
          }
        ],
        "pollDivisionIds": [
          10140897
        ],
        "postalCode": "N5C1V2",
        "streetName": "WELLINGTON",
        "streetDirectionId": null,
        "streetTypeId": "ST",
        "placeName": "INGERSOLL",
        "streetNameDisplayText": "WELLINGTON ST, INGERSOLL"
      }
    ]
  },
  {
    "postal": "N5C1Y0",
    "result": []
  },
  {
    "postal": "N5C3G6",
    "result": [
      {
        "electoralDistricts": [
          {
            "election": null,
            "id": 82,
            "name": "Oxford"
          }
        ],
        "pollDivisionIds": [
          10140894
        ],
        "postalCode": "N5C3G6",
        "streetName": "MARGARET",
        "streetDirectionId": null,
        "streetTypeId": "ST",
        "placeName": "INGERSOLL",
        "streetNameDisplayText": "MARGARET ST, INGERSOLL"
      }
    ]
  },
  {
    "postal": "N5C3H7",
    "result": [
      {
        "electoralDistricts": [
          {
            "election": null,
            "id": 82,
            "name": "Oxford"
          }
        ],
        "pollDivisionIds": [
          10140894
        ],
        "postalCode": "N5C3H7",
        "streetName": "MCKEAND",
        "streetDirectionId": null,
        "streetTypeId": "ST",
        "placeName": "INGERSOLL",
        "streetNameDisplayText": "MCKEAND ST, INGERSOLL"
      }
    ]
  },
  {
    "postal": "N5C7X8",
    "result": []
  },
  {
    "postal": "N5C0C7",
    "result": [
      {
        "electoralDistricts": [
          {
            "election": null,
            "id": 82,
            "name": "Oxford"
          }
        ],
        "pollDivisionIds": [
          10140896,
          10140897
        ],
        "postalCode": "N5C0C7",
        "streetName": "CHAMBERLAIN",
        "streetDirectionId": null,
        "streetTypeId": "AVE",
        "placeName": "INGERSOLL",
        "streetNameDisplayText": "CHAMBERLAIN AVE, INGERSOLL"
      }
    ]
  },
  {
    "postal": "N5C0W9",
    "result": []
  },
  {
    "postal": "N5C8E6",
    "result": []
  },
  {
    "postal": "N5C9Z8",
    "result": []
  },
  {
    "postal": "N5C3P4",
    "result": [
      {
        "electoralDistricts": [
          {
            "election": null,
            "id": 82,
            "name": "Oxford"
          }
        ],
        "pollDivisionIds": [
          10140893
        ],
        "postalCode": "N5C3P4",
        "streetName": "WITTY",
        "streetDirectionId": null,
        "streetTypeId": "AVE",
        "placeName": "INGERSOLL",
        "streetNameDisplayText": "WITTY AVE, INGERSOLL"
      }
    ]
  },
  {
    "postal": "N5C6L8",
    "result": []
  },
  {
    "postal": "N5C2R4",
    "result": [
      {
        "electoralDistricts": [
          {
            "election": null,
            "id": 82,
            "name": "Oxford"
          }
        ],
        "pollDivisionIds": [
          10140894
        ],
        "postalCode": "N5C2R4",
        "streetName": "SKYE",
        "streetDirectionId": null,
        "streetTypeId": "ST",
        "placeName": "INGERSOLL",
        "streetNameDisplayText": "SKYE ST, INGERSOLL"
      }
    ]
  },
  {
    "postal": "N5C2W1",
    "result": [
      {
        "electoralDistricts": [
          {
            "election": null,
            "id": 82,
            "name": "Oxford"
          }
        ],
        "pollDivisionIds": [
          10140897,
          10140934
        ],
        "postalCode": "N5C2W1",
        "streetName": "OXFORD",
        "streetDirectionId": null,
        "streetTypeId": "ST",
        "placeName": "INGERSOLL",
        "streetNameDisplayText": "OXFORD ST, INGERSOLL"
      }
    ]
  },
  {
    "postal": "N5C9H8",
    "result": []
  },
  {
    "postal": "N5C8X9",
    "result": []
  },
  {
    "postal": "N5C7H4",
    "result": []
  },
  {
    "postal": "N5C3J1",
    "result": [
      {
        "electoralDistricts": [
          {
            "election": null,
            "id": 82,
            "name": "Oxford"
          }
        ],
        "pollDivisionIds": [
          10140894
        ],
        "postalCode": "N5C3J1",
        "streetName": "MCKEAND",
        "streetDirectionId": null,
        "streetTypeId": "ST",
        "placeName": "INGERSOLL",
        "streetNameDisplayText": "MCKEAND ST, INGERSOLL"
      }
    ]
  },
  {
    "postal": "N5C1P4",
    "result": [
      {
        "electoralDistricts": [
          {
            "election": null,
            "id": 82,
            "name": "Oxford"
          }
        ],
        "pollDivisionIds": [
          10140895
        ],
        "postalCode": "N5C1P4",
        "streetName": "KING SOLOMON",
        "streetDirectionId": null,
        "streetTypeId": "ST",
        "placeName": "INGERSOLL",
        "streetNameDisplayText": "KING SOLOMON ST, INGERSOLL"
      }
    ]
  },
  {
    "postal": "N5C2A3",
    "result": [
      {
        "electoralDistricts": [
          {
            "election": null,
            "id": 82,
            "name": "Oxford"
          }
        ],
        "pollDivisionIds": [
          10140894
        ],
        "postalCode": "N5C2A3",
        "streetName": "MUTUAL",
        "streetDirectionId": "N",
        "streetTypeId": "ST",
        "placeName": "INGERSOLL",
        "streetNameDisplayText": "MUTUAL ST N, INGERSOLL"
      }
    ]
  },
  {
    "postal": "N5C0Z1",
    "result": []
  },
  {
    "postal": "N5C1C1",
    "result": [
      {
        "electoralDistricts": [
          {
            "election": null,
            "id": 82,
            "name": "Oxford"
          }
        ],
        "pollDivisionIds": [
          10140897
        ],
        "postalCode": "N5C1C1",
        "streetName": "NELSON",
        "streetDirectionId": null,
        "streetTypeId": "ST",
        "placeName": "INGERSOLL",
        "streetNameDisplayText": "NELSON ST, INGERSOLL"
      }
    ]
  },
  {
    "postal": "N5C0H3",
    "result": []
  },
  {
    "postal": "N5C7B0",
    "result": []
  },
  {
    "postal": "N5C5K2",
    "result": []
  },
  {
    "postal": "N5C1E9",
    "result": [
      {
        "electoralDistricts": [
          {
            "election": null,
            "id": 82,
            "name": "Oxford"
          }
        ],
        "pollDivisionIds": [
          10140896
        ],
        "postalCode": "N5C1E9",
        "streetName": "CONCESSION",
        "streetDirectionId": null,
        "streetTypeId": "ST",
        "placeName": "INGERSOLL",
        "streetNameDisplayText": "CONCESSION ST, INGERSOLL"
      }
    ]
  },
  {
    "postal": "N5C9W7",
    "result": []
  },
  {
    "postal": "N5C5W6",
    "result": []
  },
  {
    "postal": "N5C6S6",
    "result": []
  },
  {
    "postal": "N5C2P8",
    "result": [
      {
        "electoralDistricts": [
          {
            "election": null,
            "id": 82,
            "name": "Oxford"
          }
        ],
        "pollDivisionIds": [
          10140895
        ],
        "postalCode": "N5C2P8",
        "streetName": "SKYE",
        "streetDirectionId": null,
        "streetTypeId": "ST",
        "placeName": "INGERSOLL",
        "streetNameDisplayText": "SKYE ST, INGERSOLL"
      }
    ]
  },
  {
    "postal": "N5C4P8",
    "result": []
  },
  {
    "postal": "N5C0V9",
    "result": []
  },
  {
    "postal": "N5C5Y2",
    "result": []
  },
  {
    "postal": "N5C7Z7",
    "result": []
  },
  {
    "postal": "N5C6Y8",
    "result": []
  },
  {
    "postal": "N5C2G7",
    "result": [
      {
        "electoralDistricts": [
          {
            "election": null,
            "id": 82,
            "name": "Oxford"
          }
        ],
        "pollDivisionIds": [
          10140893
        ],
        "postalCode": "N5C2G7",
        "streetName": "THOMAS",
        "streetDirectionId": null,
        "streetTypeId": "ST",
        "placeName": "INGERSOLL",
        "streetNameDisplayText": "THOMAS ST, INGERSOLL"
      }
    ]
  },
  {
    "postal": "N5C8C1",
    "result": []
  },
  {
    "postal": "N5C5C5",
    "result": []
  },
  {
    "postal": "N5C2X8",
    "result": [
      {
        "electoralDistricts": [
          {
            "election": null,
            "id": 82,
            "name": "Oxford"
          }
        ],
        "pollDivisionIds": [
          10140893
        ],
        "postalCode": "N5C2X8",
        "streetName": "CHURCH",
        "streetDirectionId": "W",
        "streetTypeId": "ST",
        "placeName": "INGERSOLL",
        "streetNameDisplayText": "CHURCH ST W, INGERSOLL"
      },
      {
        "electoralDistricts": [
          {
            "election": null,
            "id": 82,
            "name": "Oxford"
          }
        ],
        "pollDivisionIds": [
          10140893
        ],
        "postalCode": "N5C2X8",
        "streetName": "CHURCH",
        "streetDirectionId": null,
        "streetTypeId": "ST",
        "placeName": "INGERSOLL",
        "streetNameDisplayText": "CHURCH ST, INGERSOLL"
      }
    ]
  },
  {
    "postal": "N5C1W5",
    "result": [
      {
        "electoralDistricts": [
          {
            "election": null,
            "id": 82,
            "name": "Oxford"
          }
        ],
        "pollDivisionIds": [
          10140896
        ],
        "postalCode": "N5C1W5",
        "streetName": "TUNIS",
        "streetDirectionId": null,
        "streetTypeId": "ST",
        "placeName": "INGERSOLL",
        "streetNameDisplayText": "TUNIS ST, INGERSOLL"
      }
    ]
  },
  {
    "postal": "N5C7G0",
    "result": []
  },
  {
    "postal": "N5C8J8",
    "result": []
  },
  {
    "postal": "N5C3Y0",
    "result": []
  },
  {
    "postal": "N5C9T7",
    "result": []
  },
  {
    "postal": "N5C5P4",
    "result": []
  },
  {
    "postal": "N5C4B0",
    "result": []
  },
  {
    "postal": "N5C9N8",
    "result": []
  },
  {
    "postal": "N5C4A7",
    "result": []
  },
  {
    "postal": "N5C4H9",
    "result": []
  },
  {
    "postal": "N5C6X1",
    "result": []
  },
  {
    "postal": "N5C9Y7",
    "result": []
  },
  {
    "postal": "N5C2Y5",
    "result": [
      {
        "electoralDistricts": [
          {
            "election": null,
            "id": 82,
            "name": "Oxford"
          }
        ],
        "pollDivisionIds": [
          10140893
        ],
        "postalCode": "N5C2Y5",
        "streetName": "ALBERT",
        "streetDirectionId": null,
        "streetTypeId": "ST",
        "placeName": "INGERSOLL",
        "streetNameDisplayText": "ALBERT ST, INGERSOLL"
      }
    ]
  },
  {
    "postal": "N5C8L7",
    "result": []
  },
  {
    "postal": "N5C2A8",
    "result": [
      {
        "electoralDistricts": [
          {
            "election": null,
            "id": 82,
            "name": "Oxford"
          }
        ],
        "pollDivisionIds": [
          10140895
        ],
        "postalCode": "N5C2A8",
        "streetName": "MUTUAL",
        "streetDirectionId": "N",
        "streetTypeId": "ST",
        "placeName": "INGERSOLL",
        "streetNameDisplayText": "MUTUAL ST N, INGERSOLL"
      }
    ]
  },
  {
    "postal": "N5C2K9",
    "result": [
      {
        "electoralDistricts": [
          {
            "election": null,
            "id": 82,
            "name": "Oxford"
          }
        ],
        "pollDivisionIds": [
          10140893
        ],
        "postalCode": "N5C2K9",
        "streetName": "KING",
        "streetDirectionId": "W",
        "streetTypeId": "ST",
        "placeName": "INGERSOLL",
        "streetNameDisplayText": "KING ST W, INGERSOLL"
      }
    ]
  },
  {
    "postal": "N5C3E5",
    "result": [
      {
        "electoralDistricts": [
          {
            "election": null,
            "id": 82,
            "name": "Oxford"
          }
        ],
        "pollDivisionIds": [
          10140893
        ],
        "postalCode": "N5C3E5",
        "streetName": "THAMES",
        "streetDirectionId": "N",
        "streetTypeId": "ST",
        "placeName": "INGERSOLL",
        "streetNameDisplayText": "THAMES ST N, INGERSOLL"
      }
    ]
  },
  {
    "postal": "N5C8N6",
    "result": []
  },
  {
    "postal": "N5C8J4",
    "result": []
  },
  {
    "postal": "N5C4R7",
    "result": []
  },
  {
    "postal": "N5C9K1",
    "result": []
  },
  {
    "postal": "N5C8E1",
    "result": []
  },
  {
    "postal": "N5C0R1",
    "result": []
  },
  {
    "postal": "N5C4J3",
    "result": []
  },
  {
    "postal": "N5C7E7",
    "result": []
  },
  {
    "postal": "N5C0J0",
    "result": []
  },
  {
    "postal": "N5C7R8",
    "result": []
  },
  {
    "postal": "N5C9X0",
    "result": []
  },
  {
    "postal": "N5C7P6",
    "result": []
  },
  {
    "postal": "N5C0R7",
    "result": []
  },
  {
    "postal": "N5C5W1",
    "result": []
  },
  {
    "postal": "N5C0K4",
    "result": []
  },
  {
    "postal": "N5C7N9",
    "result": []
  },
  {
    "postal": "N5C1N0",
    "result": []
  },
  {
    "postal": "N5C6P3",
    "result": []
  },
  {
    "postal": "N5C5A1",
    "result": []
  },
  {
    "postal": "N5C9M9",
    "result": []
  },
  {
    "postal": "N5C7T6",
    "result": []
  },
  {
    "postal": "N5C3X0",
    "result": []
  },
  {
    "postal": "N5C2T0",
    "result": []
  },
  {
    "postal": "N5C5X9",
    "result": []
  },
  {
    "postal": "N5C2R3",
    "result": [
      {
        "electoralDistricts": [
          {
            "election": null,
            "id": 82,
            "name": "Oxford"
          }
        ],
        "pollDivisionIds": [
          10140894
        ],
        "postalCode": "N5C2R3",
        "streetName": "SKYE",
        "streetDirectionId": null,
        "streetTypeId": "ST",
        "placeName": "INGERSOLL",
        "streetNameDisplayText": "SKYE ST, INGERSOLL"
      }
    ]
  },
  {
    "postal": "N5C5N2",
    "result": []
  },
  {
    "postal": "N5C4Y7",
    "result": []
  },
  {
    "postal": "N5C7M0",
    "result": []
  },
  {
    "postal": "N5C8P3",
    "result": []
  },
  {
    "postal": "N5C3N3",
    "result": [
      {
        "electoralDistricts": [
          {
            "election": null,
            "id": 82,
            "name": "Oxford"
          }
        ],
        "pollDivisionIds": [
          10140896
        ],
        "postalCode": "N5C3N3",
        "streetName": "GRENVILLE",
        "streetDirectionId": null,
        "streetTypeId": "ST",
        "placeName": "INGERSOLL",
        "streetNameDisplayText": "GRENVILLE ST, INGERSOLL"
      }
    ]
  },
  {
    "postal": "N5C7S3",
    "result": []
  },
  {
    "postal": "N5C3V9",
    "result": [
      {
        "electoralDistricts": [
          {
            "election": null,
            "id": 82,
            "name": "Oxford"
          }
        ],
        "pollDivisionIds": [
          10140893
        ],
        "postalCode": "N5C3V9",
        "streetName": "BOLES",
        "streetDirectionId": null,
        "streetTypeId": "ST",
        "placeName": "INGERSOLL",
        "streetNameDisplayText": "BOLES ST, INGERSOLL"
      }
    ]
  },
  {
    "postal": "N5C9N7",
    "result": []
  },
  {
    "postal": "N5C0G4",
    "result": []
  },
  {
    "postal": "N5C2E2",
    "result": [
      {
        "electoralDistricts": [
          {
            "election": null,
            "id": 82,
            "name": "Oxford"
          }
        ],
        "pollDivisionIds": [
          10140893
        ],
        "postalCode": "N5C2E2",
        "streetName": "MELITA",
        "streetDirectionId": null,
        "streetTypeId": "ST",
        "placeName": "INGERSOLL",
        "streetNameDisplayText": "MELITA ST, INGERSOLL"
      }
    ]
  },
  {
    "postal": "N5C7W8",
    "result": []
  },
  {
    "postal": "N5C7M5",
    "result": []
  },
  {
    "postal": "N5C5W8",
    "result": []
  },
  {
    "postal": "N5C5E5",
    "result": []
  },
  {
    "postal": "N5C1P9",
    "result": [
      {
        "electoralDistricts": [
          {
            "election": null,
            "id": 82,
            "name": "Oxford"
          }
        ],
        "pollDivisionIds": [
          10140895
        ],
        "postalCode": "N5C1P9",
        "streetName": "RAGLAN",
        "streetDirectionId": null,
        "streetTypeId": "ST",
        "placeName": "INGERSOLL",
        "streetNameDisplayText": "RAGLAN ST, INGERSOLL"
      }
    ]
  },
  {
    "postal": "N5C8V8",
    "result": []
  },
  {
    "postal": "N5C9G8",
    "result": []
  },
  {
    "postal": "N5C8H9",
    "result": []
  },
  {
    "postal": "N5C1Z1",
    "result": [
      {
        "electoralDistricts": [
          {
            "election": null,
            "id": 82,
            "name": "Oxford"
          }
        ],
        "pollDivisionIds": [
          10140894
        ],
        "postalCode": "N5C1Z1",
        "streetName": "GEORGE",
        "streetDirectionId": null,
        "streetTypeId": "ST",
        "placeName": "INGERSOLL",
        "streetNameDisplayText": "GEORGE ST, INGERSOLL"
      }
    ]
  },
  {
    "postal": "N5C8M3",
    "result": []
  },
  {
    "postal": "N5C5H6",
    "result": []
  },
  {
    "postal": "N5C7W7",
    "result": []
  },
  {
    "postal": "N5C4L0",
    "result": []
  },
  {
    "postal": "N5C2N1",
    "result": [
      {
        "electoralDistricts": [
          {
            "election": null,
            "id": 82,
            "name": "Oxford"
          }
        ],
        "pollDivisionIds": [
          10140894
        ],
        "postalCode": "N5C2N1",
        "streetName": "VICTORIA",
        "streetDirectionId": null,
        "streetTypeId": "ST",
        "placeName": "INGERSOLL",
        "streetNameDisplayText": "VICTORIA ST, INGERSOLL"
      }
    ]
  },
  {
    "postal": "N5C2H4",
    "result": [
      {
        "electoralDistricts": [
          {
            "election": null,
            "id": 82,
            "name": "Oxford"
          }
        ],
        "pollDivisionIds": [
          10140893
        ],
        "postalCode": "N5C2H4",
        "streetName": "FRANCES",
        "streetDirectionId": null,
        "streetTypeId": "ST",
        "placeName": "INGERSOLL",
        "streetNameDisplayText": "FRANCES ST, INGERSOLL"
      }
    ]
  },
  {
    "postal": "N5C5C8",
    "result": []
  },
  {
    "postal": "N5C8B0",
    "result": []
  },
  {
    "postal": "N5C1T4",
    "result": [
      {
        "electoralDistricts": [
          {
            "election": null,
            "id": 82,
            "name": "Oxford"
          }
        ],
        "pollDivisionIds": [
          10140897
        ],
        "postalCode": "N5C1T4",
        "streetName": "WELLINGTON",
        "streetDirectionId": null,
        "streetTypeId": "ST",
        "placeName": "INGERSOLL",
        "streetNameDisplayText": "WELLINGTON ST, INGERSOLL"
      }
    ]
  },
  {
    "postal": "N5C7N7",
    "result": []
  },
  {
    "postal": "N5C4L3",
    "result": []
  },
  {
    "postal": "N5C2N2",
    "result": [
      {
        "electoralDistricts": [
          {
            "election": null,
            "id": 82,
            "name": "Oxford"
          }
        ],
        "pollDivisionIds": [
          10140894
        ],
        "postalCode": "N5C2N2",
        "streetName": "VICTORIA",
        "streetDirectionId": null,
        "streetTypeId": "ST",
        "placeName": "INGERSOLL",
        "streetNameDisplayText": "VICTORIA ST, INGERSOLL"
      }
    ]
  },
  {
    "postal": "N5C4N8",
    "result": []
  },
  {
    "postal": "N5C3M5",
    "result": [
      {
        "electoralDistricts": [
          {
            "election": null,
            "id": 82,
            "name": "Oxford"
          }
        ],
        "pollDivisionIds": [
          10140896
        ],
        "postalCode": "N5C3M5",
        "streetName": "ETNA",
        "streetDirectionId": null,
        "streetTypeId": "ST",
        "placeName": "INGERSOLL",
        "streetNameDisplayText": "ETNA ST, INGERSOLL"
      }
    ]
  },
  {
    "postal": "N5C6H7",
    "result": []
  },
  {
    "postal": "N5C8Y8",
    "result": []
  },
  {
    "postal": "N5C5R9",
    "result": []
  },
  {
    "postal": "N5C8G3",
    "result": []
  },
  {
    "postal": "N5C4N7",
    "result": []
  },
  {
    "postal": "N5C0B9",
    "result": [
      {
        "electoralDistricts": [
          {
            "election": null,
            "id": 82,
            "name": "Oxford"
          }
        ],
        "pollDivisionIds": [
          10140894
        ],
        "postalCode": "N5C0B9",
        "streetName": "INGERSOLL",
        "streetDirectionId": "N",
        "streetTypeId": "RD",
        "placeName": "INGERSOLL",
        "streetNameDisplayText": "INGERSOLL RD N, INGERSOLL"
      },
      {
        "electoralDistricts": [
          {
            "election": null,
            "id": 82,
            "name": "Oxford"
          }
        ],
        "pollDivisionIds": [
          10140894
        ],
        "postalCode": "N5C0B9",
        "streetName": "INGERSOLL",
        "streetDirectionId": "N",
        "streetTypeId": "ST",
        "placeName": "INGERSOLL",
        "streetNameDisplayText": "INGERSOLL ST N, INGERSOLL"
      }
    ]
  },
  {
    "postal": "N5C9K7",
    "result": []
  },
  {
    "postal": "N5C9K9",
    "result": []
  },
  {
    "postal": "N5C3Z2",
    "result": [
      {
        "electoralDistricts": [
          {
            "election": null,
            "id": 82,
            "name": "Oxford"
          }
        ],
        "pollDivisionIds": [
          10140893
        ],
        "postalCode": "N5C3Z2",
        "streetName": "ALDER",
        "streetDirectionId": null,
        "streetTypeId": "RD",
        "placeName": "INGERSOLL",
        "streetNameDisplayText": "ALDER RD, INGERSOLL"
      }
    ]
  },
  {
    "postal": "N5C6W7",
    "result": []
  },
  {
    "postal": "N5C0P1",
    "result": []
  },
  {
    "postal": "N5C3A0",
    "result": []
  },
  {
    "postal": "N5C8L9",
    "result": []
  },
  {
    "postal": "N5C6X0",
    "result": []
  },
  {
    "postal": "N5C3E9",
    "result": [
      {
        "electoralDistricts": [
          {
            "election": null,
            "id": 82,
            "name": "Oxford"
          }
        ],
        "pollDivisionIds": [
          10140895
        ],
        "postalCode": "N5C3E9",
        "streetName": "JOHN",
        "streetDirectionId": null,
        "streetTypeId": "ST",
        "placeName": "INGERSOLL",
        "streetNameDisplayText": "JOHN ST, INGERSOLL"
      }
    ]
  },
  {
    "postal": "N5C0S5",
    "result": []
  },
  {
    "postal": "N5C1A2",
    "result": [
      {
        "electoralDistricts": [
          {
            "election": null,
            "id": 82,
            "name": "Oxford"
          }
        ],
        "pollDivisionIds": [
          10140897
        ],
        "postalCode": "N5C1A2",
        "streetName": "PINE",
        "streetDirectionId": null,
        "streetTypeId": "ST",
        "placeName": "INGERSOLL",
        "streetNameDisplayText": "PINE ST, INGERSOLL"
      }
    ]
  },
  {
    "postal": "N5C5V8",
    "result": []
  },
  {
    "postal": "N5C8C5",
    "result": []
  },
  {
    "postal": "N5C6N0",
    "result": []
  },
  {
    "postal": "N5C9E6",
    "result": []
  },
  {
    "postal": "N5C5J7",
    "result": []
  },
  {
    "postal": "N5C2R2",
    "result": [
      {
        "electoralDistricts": [
          {
            "election": null,
            "id": 82,
            "name": "Oxford"
          }
        ],
        "pollDivisionIds": [
          10140894
        ],
        "postalCode": "N5C2R2",
        "streetName": "SKYE",
        "streetDirectionId": null,
        "streetTypeId": "ST",
        "placeName": "INGERSOLL",
        "streetNameDisplayText": "SKYE ST, INGERSOLL"
      }
    ]
  },
  {
    "postal": "N5C0P5",
    "result": []
  },
  {
    "postal": "N5C5A7",
    "result": []
  },
  {
    "postal": "N5C1G1",
    "result": [
      {
        "electoralDistricts": [
          {
            "election": null,
            "id": 82,
            "name": "Oxford"
          }
        ],
        "pollDivisionIds": [
          10140896
        ],
        "postalCode": "N5C1G1",
        "streetName": "CONCESSION",
        "streetDirectionId": null,
        "streetTypeId": "ST",
        "placeName": "INGERSOLL",
        "streetNameDisplayText": "CONCESSION ST, INGERSOLL"
      }
    ]
  },
  {
    "postal": "N5C9R6",
    "result": []
  },
  {
    "postal": "N5C4Z9",
    "result": []
  },
  {
    "postal": "N5C1V5",
    "result": [
      {
        "electoralDistricts": [
          {
            "election": null,
            "id": 82,
            "name": "Oxford"
          }
        ],
        "pollDivisionIds": [
          10140896
        ],
        "postalCode": "N5C1V5",
        "streetName": "HALL",
        "streetDirectionId": null,
        "streetTypeId": "ST",
        "placeName": "INGERSOLL",
        "streetNameDisplayText": "HALL ST, INGERSOLL"
      }
    ]
  },
  {
    "postal": "N5C9Y5",
    "result": []
  },
  {
    "postal": "N5C1P2",
    "result": [
      {
        "electoralDistricts": [
          {
            "election": null,
            "id": 82,
            "name": "Oxford"
          }
        ],
        "pollDivisionIds": [
          10140894
        ],
        "postalCode": "N5C1P2",
        "streetName": "KING SOLOMON",
        "streetDirectionId": null,
        "streetTypeId": "ST",
        "placeName": "INGERSOLL",
        "streetNameDisplayText": "KING SOLOMON ST, INGERSOLL"
      }
    ]
  },
  {
    "postal": "N5C5X0",
    "result": []
  },
  {
    "postal": "N5C7B8",
    "result": []
  },
  {
    "postal": "N5C0C6",
    "result": [
      {
        "electoralDistricts": [
          {
            "election": null,
            "id": 82,
            "name": "Oxford"
          }
        ],
        "pollDivisionIds": [
          10140897
        ],
        "postalCode": "N5C0C6",
        "streetName": "CHAMBERLAIN",
        "streetDirectionId": null,
        "streetTypeId": "AVE",
        "placeName": "INGERSOLL",
        "streetNameDisplayText": "CHAMBERLAIN AVE, INGERSOLL"
      },
      {
        "electoralDistricts": [
          {
            "election": null,
            "id": 82,
            "name": "Oxford"
          }
        ],
        "pollDivisionIds": [
          10140897
        ],
        "postalCode": "N5C0C6",
        "streetName": "CHAMBERLAIN",
        "streetDirectionId": null,
        "streetTypeId": "DR",
        "placeName": "INGERSOLL",
        "streetNameDisplayText": "CHAMBERLAIN DR, INGERSOLL"
      },
      {
        "electoralDistricts": [
          {
            "election": null,
            "id": 82,
            "name": "Oxford"
          }
        ],
        "pollDivisionIds": [
          10140897
        ],
        "postalCode": "N5C0C6",
        "streetName": "HOLLINGSHEAD",
        "streetDirectionId": null,
        "streetTypeId": "RD",
        "placeName": "INGERSOLL",
        "streetNameDisplayText": "HOLLINGSHEAD RD, INGERSOLL"
      }
    ]
  },
  {
    "postal": "N5C6G1",
    "result": []
  },
  {
    "postal": "N5C3K3",
    "result": []
  },
  {
    "postal": "N5C9R0",
    "result": []
  },
  {
    "postal": "N5C4R8",
    "result": []
  },
  {
    "postal": "N5C5P9",
    "result": []
  },
  {
    "postal": "N5C8N4",
    "result": []
  },
  {
    "postal": "N5C8H4",
    "result": []
  },
  {
    "postal": "N5C4V1",
    "result": []
  },
  {
    "postal": "N5C1K5",
    "result": [
      {
        "electoralDistricts": [
          {
            "election": null,
            "id": 82,
            "name": "Oxford"
          }
        ],
        "pollDivisionIds": [
          10140896
        ],
        "postalCode": "N5C1K5",
        "streetName": "CHARLES",
        "streetDirectionId": "E",
        "streetTypeId": "ST",
        "placeName": "INGERSOLL",
        "streetNameDisplayText": "CHARLES ST E, INGERSOLL"
      }
    ]
  },
  {
    "postal": "N5C1Z5",
    "result": [
      {
        "electoralDistricts": [
          {
            "election": null,
            "id": 82,
            "name": "Oxford"
          }
        ],
        "pollDivisionIds": [
          10140895
        ],
        "postalCode": "N5C1Z5",
        "streetName": "GEORGE",
        "streetDirectionId": null,
        "streetTypeId": "ST",
        "placeName": "INGERSOLL",
        "streetNameDisplayText": "GEORGE ST, INGERSOLL"
      }
    ]
  },
  {
    "postal": "N5C9L9",
    "result": []
  },
  {
    "postal": "N5C5L2",
    "result": []
  },
  {
    "postal": "N5C0M2",
    "result": []
  },
  {
    "postal": "N5C1K8",
    "result": [
      {
        "electoralDistricts": [
          {
            "election": null,
            "id": 82,
            "name": "Oxford"
          }
        ],
        "pollDivisionIds": [
          10140894
        ],
        "postalCode": "N5C1K8",
        "streetName": "CARNEGIE",
        "streetDirectionId": null,
        "streetTypeId": "ST",
        "placeName": "INGERSOLL",
        "streetNameDisplayText": "CARNEGIE ST, INGERSOLL"
      }
    ]
  },
  {
    "postal": "N5C3M7",
    "result": [
      {
        "electoralDistricts": [
          {
            "election": null,
            "id": 82,
            "name": "Oxford"
          }
        ],
        "pollDivisionIds": [
          10140893,
          10140895
        ],
        "postalCode": "N5C3M7",
        "streetName": "THAMES",
        "streetDirectionId": "N",
        "streetTypeId": "ST",
        "placeName": "INGERSOLL",
        "streetNameDisplayText": "THAMES ST N, INGERSOLL"
      }
    ]
  },
  {
    "postal": "N5C1B2",
    "result": [
      {
        "electoralDistricts": [
          {
            "election": null,
            "id": 82,
            "name": "Oxford"
          }
        ],
        "pollDivisionIds": [
          10140897
        ],
        "postalCode": "N5C1B2",
        "streetName": "CROSS",
        "streetDirectionId": null,
        "streetTypeId": "ST",
        "placeName": "INGERSOLL",
        "streetNameDisplayText": "CROSS ST, INGERSOLL"
      }
    ]
  },
  {
    "postal": "N5C0H9",
    "result": []
  },
  {
    "postal": "N5C8M4",
    "result": []
  },
  {
    "postal": "N5C2M5",
    "result": [
      {
        "electoralDistricts": [
          {
            "election": null,
            "id": 82,
            "name": "Oxford"
          }
        ],
        "pollDivisionIds": [
          10140893
        ],
        "postalCode": "N5C2M5",
        "streetName": "CHARLES",
        "streetDirectionId": "W",
        "streetTypeId": "ST",
        "placeName": "INGERSOLL",
        "streetNameDisplayText": "CHARLES ST W, INGERSOLL"
      }
    ]
  },
  {
    "postal": "N5C0T9",
    "result": []
  },
  {
    "postal": "N5C3P1",
    "result": [
      {
        "electoralDistricts": [
          {
            "election": null,
            "id": 82,
            "name": "Oxford"
          }
        ],
        "pollDivisionIds": [
          10140893
        ],
        "postalCode": "N5C3P1",
        "streetName": "WITTY",
        "streetDirectionId": null,
        "streetTypeId": "AVE",
        "placeName": "INGERSOLL",
        "streetNameDisplayText": "WITTY AVE, INGERSOLL"
      }
    ]
  },
  {
    "postal": "N5C1R6",
    "result": [
      {
        "electoralDistricts": [
          {
            "election": null,
            "id": 82,
            "name": "Oxford"
          }
        ],
        "pollDivisionIds": [
          10140897
        ],
        "postalCode": "N5C1R6",
        "streetName": "ROYLAND",
        "streetDirectionId": null,
        "streetTypeId": "CRES",
        "placeName": "INGERSOLL",
        "streetNameDisplayText": "ROYLAND CRES, INGERSOLL"
      }
    ]
  },
  {
    "postal": "N5C9V5",
    "result": []
  },
  {
    "postal": "N5C9T0",
    "result": []
  },
  {
    "postal": "N5C0A9",
    "result": []
  },
  {
    "postal": "N5C1M3",
    "result": [
      {
        "electoralDistricts": [
          {
            "election": null,
            "id": 82,
            "name": "Oxford"
          }
        ],
        "pollDivisionIds": [
          10140894
        ],
        "postalCode": "N5C1M3",
        "streetName": "WILLIAM",
        "streetDirectionId": null,
        "streetTypeId": "ST",
        "placeName": "INGERSOLL",
        "streetNameDisplayText": "WILLIAM ST, INGERSOLL"
      }
    ]
  },
  {
    "postal": "N5C1W8",
    "result": [
      {
        "electoralDistricts": [
          {
            "election": null,
            "id": 82,
            "name": "Oxford"
          }
        ],
        "pollDivisionIds": [
          10140896
        ],
        "postalCode": "N5C1W8",
        "streetName": "TUNIS",
        "streetDirectionId": null,
        "streetTypeId": "ST",
        "placeName": "INGERSOLL",
        "streetNameDisplayText": "TUNIS ST, INGERSOLL"
      }
    ]
  },
  {
    "postal": "N5C9J1",
    "result": []
  },
  {
    "postal": "N5C8N5",
    "result": []
  },
  {
    "postal": "N5C5X1",
    "result": []
  },
  {
    "postal": "N5C6S2",
    "result": []
  },
  {
    "postal": "N5C2A2",
    "result": [
      {
        "electoralDistricts": [
          {
            "election": null,
            "id": 82,
            "name": "Oxford"
          }
        ],
        "pollDivisionIds": [
          10140894
        ],
        "postalCode": "N5C2A2",
        "streetName": "MUTUAL",
        "streetDirectionId": "N",
        "streetTypeId": "ST",
        "placeName": "INGERSOLL",
        "streetNameDisplayText": "MUTUAL ST N, INGERSOLL"
      }
    ]
  },
  {
    "postal": "N5C6A6",
    "result": []
  },
  {
    "postal": "N5C0S3",
    "result": []
  },
  {
    "postal": "N5C3E7",
    "result": [
      {
        "electoralDistricts": [
          {
            "election": null,
            "id": 82,
            "name": "Oxford"
          }
        ],
        "pollDivisionIds": [
          10140893
        ],
        "postalCode": "N5C3E7",
        "streetName": "THAMES",
        "streetDirectionId": "N",
        "streetTypeId": "ST",
        "placeName": "INGERSOLL",
        "streetNameDisplayText": "THAMES ST N, INGERSOLL"
      },
      {
        "electoralDistricts": [
          {
            "election": null,
            "id": 82,
            "name": "Oxford"
          }
        ],
        "pollDivisionIds": [
          10140897
        ],
        "postalCode": "N5C3E7",
        "streetName": "THAMES",
        "streetDirectionId": "S",
        "streetTypeId": "ST",
        "placeName": "INGERSOLL",
        "streetNameDisplayText": "THAMES ST S, INGERSOLL"
      }
    ]
  },
  {
    "postal": "N5C5R7",
    "result": []
  },
  {
    "postal": "N5C3R6",
    "result": [
      {
        "electoralDistricts": [
          {
            "election": null,
            "id": 82,
            "name": "Oxford"
          }
        ],
        "pollDivisionIds": [
          10140897
        ],
        "postalCode": "N5C3R6",
        "streetName": "CLARK",
        "streetDirectionId": "E",
        "streetTypeId": "RD",
        "placeName": "INGERSOLL",
        "streetNameDisplayText": "CLARK RD E, INGERSOLL"
      },
      {
        "electoralDistricts": [
          {
            "election": null,
            "id": 82,
            "name": "Oxford"
          }
        ],
        "pollDivisionIds": [
          10140897
        ],
        "postalCode": "N5C3R6",
        "streetName": "CLARKE",
        "streetDirectionId": "E",
        "streetTypeId": "RD",
        "placeName": "INGERSOLL",
        "streetNameDisplayText": "CLARKE RD E, INGERSOLL"
      }
    ]
  },
  {
    "postal": "N5C6K4",
    "result": []
  },
  {
    "postal": "N5C2W5",
    "result": [
      {
        "electoralDistricts": [
          {
            "election": null,
            "id": 82,
            "name": "Oxford"
          }
        ],
        "pollDivisionIds": [
          10140893
        ],
        "postalCode": "N5C2W5",
        "streetName": "OXFORD",
        "streetDirectionId": null,
        "streetTypeId": "LANE",
        "placeName": "INGERSOLL",
        "streetNameDisplayText": "OXFORD LANE, INGERSOLL"
      }
    ]
  },
  {
    "postal": "N5C8W4",
    "result": []
  },
  {
    "postal": "N5C9C2",
    "result": []
  },
  {
    "postal": "N5C2C0",
    "result": []
  },
  {
    "postal": "N5C0E1",
    "result": [
      {
        "electoralDistricts": [
          {
            "election": null,
            "id": 82,
            "name": "Oxford"
          }
        ],
        "pollDivisionIds": [
          10140897
        ],
        "postalCode": "N5C0E1",
        "streetName": "CASH",
        "streetDirectionId": null,
        "streetTypeId": "CRES",
        "placeName": "INGERSOLL",
        "streetNameDisplayText": "CASH CRES, INGERSOLL"
      },
      {
        "electoralDistricts": [
          {
            "election": null,
            "id": 82,
            "name": "Oxford"
          }
        ],
        "pollDivisionIds": [
          10140897
        ],
        "postalCode": "N5C0E1",
        "streetName": "REEVES",
        "streetDirectionId": null,
        "streetTypeId": "RD",
        "placeName": "INGERSOLL",
        "streetNameDisplayText": "REEVES RD, INGERSOLL"
      }
    ]
  },
  {
    "postal": "N5C1K9",
    "result": [
      {
        "electoralDistricts": [
          {
            "election": null,
            "id": 82,
            "name": "Oxford"
          }
        ],
        "pollDivisionIds": [
          10140894
        ],
        "postalCode": "N5C1K9",
        "streetName": "CARNEGIE",
        "streetDirectionId": null,
        "streetTypeId": "ST",
        "placeName": "INGERSOLL",
        "streetNameDisplayText": "CARNEGIE ST, INGERSOLL"
      }
    ]
  },
  {
    "postal": "N5C1G7",
    "result": [
      {
        "electoralDistricts": [
          {
            "election": null,
            "id": 82,
            "name": "Oxford"
          }
        ],
        "pollDivisionIds": [
          10140896
        ],
        "postalCode": "N5C1G7",
        "streetName": "KING",
        "streetDirectionId": "E",
        "streetTypeId": "ST",
        "placeName": "INGERSOLL",
        "streetNameDisplayText": "KING ST E, INGERSOLL"
      },
      {
        "electoralDistricts": [
          {
            "election": null,
            "id": 82,
            "name": "Oxford"
          }
        ],
        "pollDivisionIds": [
          10140893
        ],
        "postalCode": "N5C1G7",
        "streetName": "KING",
        "streetDirectionId": "W",
        "streetTypeId": "ST",
        "placeName": "INGERSOLL",
        "streetNameDisplayText": "KING ST W, INGERSOLL"
      }
    ]
  },
  {
    "postal": "N5C4E9",
    "result": [
      {
        "electoralDistricts": [
          {
            "election": null,
            "id": 82,
            "name": "Oxford"
          }
        ],
        "pollDivisionIds": [
          10140894
        ],
        "postalCode": "N5C4E9",
        "streetName": "FELTZ",
        "streetDirectionId": null,
        "streetTypeId": "DR",
        "placeName": "INGERSOLL",
        "streetNameDisplayText": "FELTZ DR, INGERSOLL"
      },
      {
        "electoralDistricts": [
          {
            "election": null,
            "id": 82,
            "name": "Oxford"
          }
        ],
        "pollDivisionIds": [
          10140894
        ],
        "postalCode": "N5C4E9",
        "streetName": "MCCREERY",
        "streetDirectionId": null,
        "streetTypeId": "RD",
        "placeName": "INGERSOLL",
        "streetNameDisplayText": "MCCREERY RD, INGERSOLL"
      }
    ]
  },
  {
    "postal": "N5C9P0",
    "result": []
  },
  {
    "postal": "N5C5H3",
    "result": []
  },
  {
    "postal": "N5C9X6",
    "result": []
  },
  {
    "postal": "N5C5N7",
    "result": []
  },
  {
    "postal": "N5C5A6",
    "result": []
  },
  {
    "postal": "N5C4M0",
    "result": []
  },
  {
    "postal": "N5C3V6",
    "result": [
      {
        "electoralDistricts": [
          {
            "election": null,
            "id": 82,
            "name": "Oxford"
          }
        ],
        "pollDivisionIds": [
          10140897
        ],
        "postalCode": "N5C3V6",
        "streetName": "UNDERWOOD",
        "streetDirectionId": null,
        "streetTypeId": "RD",
        "placeName": "INGERSOLL",
        "streetNameDisplayText": "UNDERWOOD RD, INGERSOLL"
      }
    ]
  },
  {
    "postal": "N5C1L7",
    "result": [
      {
        "electoralDistricts": [
          {
            "election": null,
            "id": 82,
            "name": "Oxford"
          }
        ],
        "pollDivisionIds": [
          10140894
        ],
        "postalCode": "N5C1L7",
        "streetName": "KING HIRAM",
        "streetDirectionId": null,
        "streetTypeId": "ST",
        "placeName": "INGERSOLL",
        "streetNameDisplayText": "KING HIRAM ST, INGERSOLL"
      }
    ]
  },
  {
    "postal": "N5C2P9",
    "result": [
      {
        "electoralDistricts": [
          {
            "election": null,
            "id": 82,
            "name": "Oxford"
          }
        ],
        "pollDivisionIds": [
          10140894
        ],
        "postalCode": "N5C2P9",
        "streetName": "SKYE",
        "streetDirectionId": null,
        "streetTypeId": "ST",
        "placeName": "INGERSOLL",
        "streetNameDisplayText": "SKYE ST, INGERSOLL"
      }
    ]
  },
  {
    "postal": "N5C5T4",
    "result": []
  },
  {
    "postal": "N5C5Z1",
    "result": []
  },
  {
    "postal": "N5C2X0",
    "result": []
  },
  {
    "postal": "N5C6Z2",
    "result": []
  },
  {
    "postal": "N5C0E0",
    "result": []
  },
  {
    "postal": "N5C3Z5",
    "result": [
      {
        "electoralDistricts": [
          {
            "election": null,
            "id": 82,
            "name": "Oxford"
          }
        ],
        "pollDivisionIds": [
          10140893
        ],
        "postalCode": "N5C3Z5",
        "streetName": "HEMLOCK",
        "streetDirectionId": null,
        "streetTypeId": "RD",
        "placeName": "INGERSOLL",
        "streetNameDisplayText": "HEMLOCK RD, INGERSOLL"
      }
    ]
  },
  {
    "postal": "N5C8H3",
    "result": []
  },
  {
    "postal": "N5C7S6",
    "result": []
  },
  {
    "postal": "N5C4C1",
    "result": [
      {
        "electoralDistricts": [
          {
            "election": null,
            "id": 82,
            "name": "Oxford"
          }
        ],
        "pollDivisionIds": [
          10140896
        ],
        "postalCode": "N5C4C1",
        "streetName": "MILL",
        "streetDirectionId": null,
        "streetTypeId": "ST",
        "placeName": "INGERSOLL",
        "streetNameDisplayText": "MILL ST, INGERSOLL"
      }
    ]
  },
  {
    "postal": "N5C3K2",
    "result": []
  },
  {
    "postal": "N5C1Y5",
    "result": [
      {
        "electoralDistricts": [
          {
            "election": null,
            "id": 82,
            "name": "Oxford"
          }
        ],
        "pollDivisionIds": [
          10140897,
          10140896
        ],
        "postalCode": "N5C1Y5",
        "streetName": "HARRIS",
        "streetDirectionId": null,
        "streetTypeId": "ST",
        "placeName": "INGERSOLL",
        "streetNameDisplayText": "HARRIS ST, INGERSOLL"
      }
    ]
  },
  {
    "postal": "N5C6P6",
    "result": []
  },
  {
    "postal": "N5C3N9",
    "result": [
      {
        "electoralDistricts": [
          {
            "election": null,
            "id": 82,
            "name": "Oxford"
          }
        ],
        "pollDivisionIds": [
          10140893
        ],
        "postalCode": "N5C3N9",
        "streetName": "WITTY",
        "streetDirectionId": null,
        "streetTypeId": "AVE",
        "placeName": "INGERSOLL",
        "streetNameDisplayText": "WITTY AVE, INGERSOLL"
      }
    ]
  },
  {
    "postal": "N5C3W2",
    "result": [
      {
        "electoralDistricts": [
          {
            "election": null,
            "id": 82,
            "name": "Oxford"
          }
        ],
        "pollDivisionIds": [
          10140893
        ],
        "postalCode": "N5C3W2",
        "streetName": "MELITA",
        "streetDirectionId": null,
        "streetTypeId": "ST",
        "placeName": "INGERSOLL",
        "streetNameDisplayText": "MELITA ST, INGERSOLL"
      }
    ]
  },
  {
    "postal": "N5C6H8",
    "result": []
  },
  {
    "postal": "N5C9T3",
    "result": []
  },
  {
    "postal": "N5C5L9",
    "result": []
  },
  {
    "postal": "N5C7X7",
    "result": []
  },
  {
    "postal": "N5C3J5",
    "result": [
      {
        "electoralDistricts": [
          {
            "election": null,
            "id": 82,
            "name": "Oxford"
          }
        ],
        "pollDivisionIds": [
          10140893
        ],
        "postalCode": "N5C3J5",
        "streetName": "27TH",
        "streetDirectionId": null,
        "streetTypeId": "LINE",
        "placeName": "INGERSOLL",
        "streetNameDisplayText": "27TH LINE, INGERSOLL"
      },
      {
        "electoralDistricts": [
          {
            "election": null,
            "id": 82,
            "name": "Oxford"
          }
        ],
        "pollDivisionIds": [
          10140891
        ],
        "postalCode": "N5C3J5",
        "streetName": "29TH",
        "streetDirectionId": null,
        "streetTypeId": "LINE",
        "placeName": "INGERSOLL",
        "streetNameDisplayText": "29TH LINE, INGERSOLL"
      },
      {
        "electoralDistricts": [
          {
            "election": null,
            "id": 82,
            "name": "Oxford"
          }
        ],
        "pollDivisionIds": [
          10140893
        ],
        "postalCode": "N5C3J5",
        "streetName": "31",
        "streetDirectionId": null,
        "streetTypeId": "LINE",
        "placeName": "INGERSOLL",
        "streetNameDisplayText": "31 LINE, INGERSOLL"
      },
      {
        "electoralDistricts": [
          {
            "election": null,
            "id": 82,
            "name": "Oxford"
          }
        ],
        "pollDivisionIds": [
          10140893
        ],
        "postalCode": "N5C3J5",
        "streetName": "31ST",
        "streetDirectionId": null,
        "streetTypeId": "LINE",
        "placeName": "INGERSOLL",
        "streetNameDisplayText": "31ST LINE, INGERSOLL"
      },
      {
        "electoralDistricts": [
          {
            "election": null,
            "id": 82,
            "name": "Oxford"
          }
        ],
        "pollDivisionIds": [
          10140893
        ],
        "postalCode": "N5C3J5",
        "streetName": "33",
        "streetDirectionId": null,
        "streetTypeId": "LINE",
        "placeName": "INGERSOLL",
        "streetNameDisplayText": "33 LINE, INGERSOLL"
      },
      {
        "electoralDistricts": [
          {
            "election": null,
            "id": 82,
            "name": "Oxford"
          }
        ],
        "pollDivisionIds": [
          10140892,
          10140893
        ],
        "postalCode": "N5C3J5",
        "streetName": "33RD",
        "streetDirectionId": null,
        "streetTypeId": "LINE",
        "placeName": "INGERSOLL",
        "streetNameDisplayText": "33RD LINE, INGERSOLL"
      },
      {
        "electoralDistricts": [
          {
            "election": null,
            "id": 82,
            "name": "Oxford"
          }
        ],
        "pollDivisionIds": [
          10140893
        ],
        "postalCode": "N5C3J5",
        "streetName": "37TH",
        "streetDirectionId": null,
        "streetTypeId": "LINE",
        "placeName": "INGERSOLL",
        "streetNameDisplayText": "37TH LINE, INGERSOLL"
      },
      {
        "electoralDistricts": [
          {
            "election": null,
            "id": 82,
            "name": "Oxford"
          }
        ],
        "pollDivisionIds": [
          10140893,
          10140900,
          10140892
        ],
        "postalCode": "N5C3J5",
        "streetName": "41ST",
        "streetDirectionId": null,
        "streetTypeId": "LINE",
        "placeName": "INGERSOLL",
        "streetNameDisplayText": "41ST LINE, INGERSOLL"
      },
      {
        "electoralDistricts": [
          {
            "election": null,
            "id": 82,
            "name": "Oxford"
          }
        ],
        "pollDivisionIds": [
          10140893
        ],
        "postalCode": "N5C3J5",
        "streetName": "62",
        "streetDirectionId": null,
        "streetTypeId": "RD",
        "placeName": "INGERSOLL",
        "streetNameDisplayText": "62 RD, INGERSOLL"
      },
      {
        "electoralDistricts": [
          {
            "election": null,
            "id": 82,
            "name": "Oxford"
          }
        ],
        "pollDivisionIds": [
          10140893
        ],
        "postalCode": "N5C3J5",
        "streetName": "64",
        "streetDirectionId": null,
        "streetTypeId": "RD",
        "placeName": "INGERSOLL",
        "streetNameDisplayText": "64 RD, INGERSOLL"
      },
      {
        "electoralDistricts": [
          {
            "election": null,
            "id": 82,
            "name": "Oxford"
          }
        ],
        "pollDivisionIds": [
          10140893,
          10140900
        ],
        "postalCode": "N5C3J5",
        "streetName": "66",
        "streetDirectionId": null,
        "streetTypeId": "RD",
        "placeName": "INGERSOLL",
        "streetNameDisplayText": "66 RD, INGERSOLL"
      },
      {
        "electoralDistricts": [
          {
            "election": null,
            "id": 82,
            "name": "Oxford"
          }
        ],
        "pollDivisionIds": [
          10140900
        ],
        "postalCode": "N5C3J5",
        "streetName": "68",
        "streetDirectionId": null,
        "streetTypeId": "RD",
        "placeName": "BEACHVILLE",
        "streetNameDisplayText": "68 RD, BEACHVILLE"
      },
      {
        "electoralDistricts": [
          {
            "election": null,
            "id": 82,
            "name": "Oxford"
          }
        ],
        "pollDivisionIds": [
          10140892,
          10140893,
          10140900
        ],
        "postalCode": "N5C3J5",
        "streetName": "68",
        "streetDirectionId": null,
        "streetTypeId": "RD",
        "placeName": "INGERSOLL",
        "streetNameDisplayText": "68 RD, INGERSOLL"
      },
      {
        "electoralDistricts": [
          {
            "election": null,
            "id": 82,
            "name": "Oxford"
          }
        ],
        "pollDivisionIds": [
          10140893,
          10140900
        ],
        "postalCode": "N5C3J5",
        "streetName": "BEACHVILLE",
        "streetDirectionId": null,
        "streetTypeId": "RD",
        "placeName": "INGERSOLL",
        "streetNameDisplayText": "BEACHVILLE RD, INGERSOLL"
      },
      {
        "electoralDistricts": [
          {
            "election": null,
            "id": 82,
            "name": "Oxford"
          }
        ],
        "pollDivisionIds": [
          10140900
        ],
        "postalCode": "N5C3J5",
        "streetName": "CHURCH",
        "streetDirectionId": null,
        "streetTypeId": "LINE",
        "placeName": "INGERSOLL",
        "streetNameDisplayText": "CHURCH LINE, INGERSOLL"
      },
      {
        "electoralDistricts": [
          {
            "election": null,
            "id": 82,
            "name": "Oxford"
          }
        ],
        "pollDivisionIds": [
          10140893
        ],
        "postalCode": "N5C3J5",
        "streetName": "DAVEY",
        "streetDirectionId": null,
        "streetTypeId": "ST",
        "placeName": "INGERSOLL",
        "streetNameDisplayText": "DAVEY ST, INGERSOLL"
      },
      {
        "electoralDistricts": [
          {
            "election": null,
            "id": 82,
            "name": "Oxford"
          }
        ],
        "pollDivisionIds": [
          10140893
        ],
        "postalCode": "N5C3J5",
        "streetName": "DAVY",
        "streetDirectionId": null,
        "streetTypeId": "ST",
        "placeName": "INGERSOLL",
        "streetNameDisplayText": "DAVY ST, INGERSOLL"
      },
      {
        "electoralDistricts": [
          {
            "election": null,
            "id": 82,
            "name": "Oxford"
          }
        ],
        "pollDivisionIds": [
          10140900
        ],
        "postalCode": "N5C3J5",
        "streetName": "GALLOWAY",
        "streetDirectionId": null,
        "streetTypeId": "LINE",
        "placeName": "INGERSOLL",
        "streetNameDisplayText": "GALLOWAY LINE, INGERSOLL"
      },
      {
        "electoralDistricts": [
          {
            "election": null,
            "id": 82,
            "name": "Oxford"
          }
        ],
        "pollDivisionIds": [
          10140893
        ],
        "postalCode": "N5C3J5",
        "streetName": "HAMPDEN",
        "streetDirectionId": null,
        "streetTypeId": "ST",
        "placeName": "INGERSOLL",
        "streetNameDisplayText": "HAMPDEN ST, INGERSOLL"
      },
      {
        "electoralDistricts": [
          {
            "election": null,
            "id": 82,
            "name": "Oxford"
          }
        ],
        "pollDivisionIds": [
          10140893
        ],
        "postalCode": "N5C3J5",
        "streetName": "HAMPTON",
        "streetDirectionId": null,
        "streetTypeId": "ST",
        "placeName": "INGERSOLL",
        "streetNameDisplayText": "HAMPTON ST, INGERSOLL"
      },
      {
        "electoralDistricts": [
          {
            "election": null,
            "id": 82,
            "name": "Oxford"
          }
        ],
        "pollDivisionIds": [
          10140890
        ],
        "postalCode": "N5C3J5",
        "streetName": "HWY 2",
        "streetDirectionId": null,
        "streetTypeId": null,
        "placeName": "INGERSOLL",
        "streetNameDisplayText": "HWY 2, INGERSOLL"
      },
      {
        "electoralDistricts": [
          {
            "election": null,
            "id": 82,
            "name": "Oxford"
          }
        ],
        "pollDivisionIds": [
          10140900
        ],
        "postalCode": "N5C3J5",
        "streetName": "KARN",
        "streetDirectionId": null,
        "streetTypeId": "RD",
        "placeName": "INGERSOLL",
        "streetNameDisplayText": "KARN RD, INGERSOLL"
      },
      {
        "electoralDistricts": [
          {
            "election": null,
            "id": 82,
            "name": "Oxford"
          }
        ],
        "pollDivisionIds": [
          10140900
        ],
        "postalCode": "N5C3J5",
        "streetName": "MILL",
        "streetDirectionId": null,
        "streetTypeId": "LINE",
        "placeName": "INGERSOLL",
        "streetNameDisplayText": "MILL LINE, INGERSOLL"
      },
      {
        "electoralDistricts": [
          {
            "election": null,
            "id": 82,
            "name": "Oxford"
          }
        ],
        "pollDivisionIds": [
          10140893
        ],
        "postalCode": "N5C3J5",
        "streetName": "NEWTON",
        "streetDirectionId": null,
        "streetTypeId": "ST",
        "placeName": "INGERSOLL",
        "streetNameDisplayText": "NEWTON ST, INGERSOLL"
      },
      {
        "electoralDistricts": [
          {
            "election": null,
            "id": 82,
            "name": "Oxford"
          }
        ],
        "pollDivisionIds": [
          10140893
        ],
        "postalCode": "N5C3J5",
        "streetName": "NORTH TOWN",
        "streetDirectionId": "E",
        "streetTypeId": "LINE",
        "placeName": "INGERSOLL",
        "streetNameDisplayText": "NORTH TOWN LINE E, INGERSOLL"
      },
      {
        "electoralDistricts": [
          {
            "election": null,
            "id": 82,
            "name": "Oxford"
          }
        ],
        "pollDivisionIds": [
          10140893
        ],
        "postalCode": "N5C3J5",
        "streetName": "NORTH TOWN",
        "streetDirectionId": "W",
        "streetTypeId": "LINE",
        "placeName": "INGERSOLL",
        "streetNameDisplayText": "NORTH TOWN LINE W, INGERSOLL"
      },
      {
        "electoralDistricts": [
          {
            "election": null,
            "id": 82,
            "name": "Oxford"
          }
        ],
        "pollDivisionIds": [
          10140893,
          10140890
        ],
        "postalCode": "N5C3J5",
        "streetName": "RD 64",
        "streetDirectionId": null,
        "streetTypeId": null,
        "placeName": "INGERSOLL",
        "streetNameDisplayText": "RD 64, INGERSOLL"
      },
      {
        "electoralDistricts": [
          {
            "election": null,
            "id": 82,
            "name": "Oxford"
          }
        ],
        "pollDivisionIds": [
          10140893
        ],
        "postalCode": "N5C3J5",
        "streetName": "ROAD 62",
        "streetDirectionId": null,
        "streetTypeId": null,
        "placeName": "INGERSOLL",
        "streetNameDisplayText": "ROAD 62, INGERSOLL"
      },
      {
        "electoralDistricts": [
          {
            "election": null,
            "id": 82,
            "name": "Oxford"
          }
        ],
        "pollDivisionIds": [
          10140893
        ],
        "postalCode": "N5C3J5",
        "streetName": "ROAD 64",
        "streetDirectionId": null,
        "streetTypeId": null,
        "placeName": "INGERSOLL",
        "streetNameDisplayText": "ROAD 64, INGERSOLL"
      },
      {
        "electoralDistricts": [
          {
            "election": null,
            "id": 82,
            "name": "Oxford"
          }
        ],
        "pollDivisionIds": [
          10140893
        ],
        "postalCode": "N5C3J5",
        "streetName": "ROAD 66",
        "streetDirectionId": null,
        "streetTypeId": null,
        "placeName": "INGERSOLL",
        "streetNameDisplayText": "ROAD 66, INGERSOLL"
      },
      {
        "electoralDistricts": [
          {
            "election": null,
            "id": 82,
            "name": "Oxford"
          }
        ],
        "pollDivisionIds": [
          10140893,
          10140892,
          10140900
        ],
        "postalCode": "N5C3J5",
        "streetName": "ROAD 68",
        "streetDirectionId": null,
        "streetTypeId": null,
        "placeName": "INGERSOLL",
        "streetNameDisplayText": "ROAD 68, INGERSOLL"
      }
    ]
  },
  {
    "postal": "N5C4J5",
    "result": []
  },
  {
    "postal": "N5C6J2",
    "result": []
  },
  {
    "postal": "N5C5V6",
    "result": []
  },
  {
    "postal": "N5C3N2",
    "result": [
      {
        "electoralDistricts": [
          {
            "election": null,
            "id": 82,
            "name": "Oxford"
          }
        ],
        "pollDivisionIds": [
          10140896
        ],
        "postalCode": "N5C3N2",
        "streetName": "GREENWOOD",
        "streetDirectionId": null,
        "streetTypeId": "RD",
        "placeName": "INGERSOLL",
        "streetNameDisplayText": "GREENWOOD RD, INGERSOLL"
      }
    ]
  },
  {
    "postal": "N5C3B1",
    "result": [
      {
        "electoralDistricts": [
          {
            "election": null,
            "id": 82,
            "name": "Oxford"
          }
        ],
        "pollDivisionIds": [
          10140893
        ],
        "postalCode": "N5C3B1",
        "streetName": "BOND",
        "streetDirectionId": null,
        "streetTypeId": "ST",
        "placeName": "INGERSOLL",
        "streetNameDisplayText": "BOND ST, INGERSOLL"
      }
    ]
  },
  {
    "postal": "N5C8B5",
    "result": []
  },
  {
    "postal": "N5C0K1",
    "result": []
  },
  {
    "postal": "N5C7M7",
    "result": []
  },
  {
    "postal": "N5C2M2",
    "result": [
      {
        "electoralDistricts": [
          {
            "election": null,
            "id": 82,
            "name": "Oxford"
          }
        ],
        "pollDivisionIds": [
          10140893
        ],
        "postalCode": "N5C2M2",
        "streetName": "CHARLES",
        "streetDirectionId": "W",
        "streetTypeId": "ST",
        "placeName": "INGERSOLL",
        "streetNameDisplayText": "CHARLES ST W, INGERSOLL"
      }
    ]
  },
  {
    "postal": "N5C9N3",
    "result": []
  },
  {
    "postal": "N5C4Y8",
    "result": []
  },
  {
    "postal": "N5C3V7",
    "result": [
      {
        "electoralDistricts": [
          {
            "election": null,
            "id": 82,
            "name": "Oxford"
          }
        ],
        "pollDivisionIds": [
          10140897
        ],
        "postalCode": "N5C3V7",
        "streetName": "INGERSOLL",
        "streetDirectionId": "S",
        "streetTypeId": "ST",
        "placeName": "INGERSOLL",
        "streetNameDisplayText": "INGERSOLL ST S, INGERSOLL"
      }
    ]
  },
  {
    "postal": "N5C8Z1",
    "result": []
  },
  {
    "postal": "N5C7B3",
    "result": []
  },
  {
    "postal": "N5C3A8",
    "result": [
      {
        "electoralDistricts": [
          {
            "election": null,
            "id": 82,
            "name": "Oxford"
          }
        ],
        "pollDivisionIds": [
          10140900,
          10140893
        ],
        "postalCode": "N5C3A8",
        "streetName": "BOND",
        "streetDirectionId": null,
        "streetTypeId": "ST",
        "placeName": "INGERSOLL",
        "streetNameDisplayText": "BOND ST, INGERSOLL"
      }
    ]
  },
  {
    "postal": "N5C7V5",
    "result": []
  },
  {
    "postal": "N5C2T2",
    "result": [
      {
        "electoralDistricts": [
          {
            "election": null,
            "id": 82,
            "name": "Oxford"
          }
        ],
        "pollDivisionIds": [
          10140896,
          10140893
        ],
        "postalCode": "N5C2T2",
        "streetName": "THAMES",
        "streetDirectionId": "S",
        "streetTypeId": "ST",
        "placeName": "INGERSOLL",
        "streetNameDisplayText": "THAMES ST S, INGERSOLL"
      }
    ]
  },
  {
    "postal": "N5C6L3",
    "result": []
  },
  {
    "postal": "N5C0L2",
    "result": []
  },
  {
    "postal": "N5C5Y8",
    "result": []
  },
  {
    "postal": "N5C0B8",
    "result": []
  },
  {
    "postal": "N5C6R5",
    "result": []
  },
  {
    "postal": "N5C8W6",
    "result": []
  },
  {
    "postal": "N5C8G6",
    "result": []
  },
  {
    "postal": "N5C6X3",
    "result": []
  },
  {
    "postal": "N5C7R7",
    "result": []
  },
  {
    "postal": "N5C4B6",
    "result": [
      {
        "electoralDistricts": [
          {
            "election": null,
            "id": 82,
            "name": "Oxford"
          }
        ],
        "pollDivisionIds": [
          10140894
        ],
        "postalCode": "N5C4B6",
        "streetName": "HILLSIDE",
        "streetDirectionId": null,
        "streetTypeId": "RD",
        "placeName": "INGERSOLL",
        "streetNameDisplayText": "HILLSIDE RD, INGERSOLL"
      },
      {
        "electoralDistricts": [
          {
            "election": null,
            "id": 82,
            "name": "Oxford"
          }
        ],
        "pollDivisionIds": [
          10140894
        ],
        "postalCode": "N5C4B6",
        "streetName": "RIDGE",
        "streetDirectionId": null,
        "streetTypeId": "RD",
        "placeName": "INGERSOLL",
        "streetNameDisplayText": "RIDGE RD, INGERSOLL"
      }
    ]
  },
  {
    "postal": "N5C3P9",
    "result": [
      {
        "electoralDistricts": [
          {
            "election": null,
            "id": 82,
            "name": "Oxford"
          }
        ],
        "pollDivisionIds": [
          10140897
        ],
        "postalCode": "N5C3P9",
        "streetName": "WHITING",
        "streetDirectionId": null,
        "streetTypeId": "ST",
        "placeName": "INGERSOLL",
        "streetNameDisplayText": "WHITING ST, INGERSOLL"
      }
    ]
  },
  {
    "postal": "N5C2T3",
    "result": [
      {
        "electoralDistricts": [
          {
            "election": null,
            "id": 82,
            "name": "Oxford"
          }
        ],
        "pollDivisionIds": [
          10140896
        ],
        "postalCode": "N5C2T3",
        "streetName": "THAMES",
        "streetDirectionId": "S",
        "streetTypeId": "ST",
        "placeName": "INGERSOLL",
        "streetNameDisplayText": "THAMES ST S, INGERSOLL"
      }
    ]
  },
  {
    "postal": "N5C1M4",
    "result": [
      {
        "electoralDistricts": [
          {
            "election": null,
            "id": 82,
            "name": "Oxford"
          }
        ],
        "pollDivisionIds": [
          10140894
        ],
        "postalCode": "N5C1M4",
        "streetName": "WILLIAM",
        "streetDirectionId": null,
        "streetTypeId": "ST",
        "placeName": "INGERSOLL",
        "streetNameDisplayText": "WILLIAM ST, INGERSOLL"
      }
    ]
  },
  {
    "postal": "N5C0H1",
    "result": []
  },
  {
    "postal": "N5C9W3",
    "result": []
  },
  {
    "postal": "N5C6P1",
    "result": []
  },
  {
    "postal": "N5C7G2",
    "result": []
  },
  {
    "postal": "N5C4J9",
    "result": []
  },
  {
    "postal": "N5C9E4",
    "result": []
  },
  {
    "postal": "N5C8H0",
    "result": []
  },
  {
    "postal": "N5C4M7",
    "result": []
  },
  {
    "postal": "N5C2G9",
    "result": [
      {
        "electoralDistricts": [
          {
            "election": null,
            "id": 82,
            "name": "Oxford"
          }
        ],
        "pollDivisionIds": [
          10140893
        ],
        "postalCode": "N5C2G9",
        "streetName": "FRANCES",
        "streetDirectionId": null,
        "streetTypeId": "ST",
        "placeName": "INGERSOLL",
        "streetNameDisplayText": "FRANCES ST, INGERSOLL"
      }
    ]
  },
  {
    "postal": "N5C8T2",
    "result": []
  },
  {
    "postal": "N5C7G7",
    "result": []
  },
  {
    "postal": "N5C4Z3",
    "result": []
  },
  {
    "postal": "N5C5B3",
    "result": []
  },
  {
    "postal": "N5C1S7",
    "result": [
      {
        "electoralDistricts": [
          {
            "election": null,
            "id": 82,
            "name": "Oxford"
          }
        ],
        "pollDivisionIds": [
          10140896
        ],
        "postalCode": "N5C1S7",
        "streetName": "WELLINGTON",
        "streetDirectionId": null,
        "streetTypeId": "ST",
        "placeName": "INGERSOLL",
        "streetNameDisplayText": "WELLINGTON ST, INGERSOLL"
      }
    ]
  },
  {
    "postal": "N5C2N7",
    "result": [
      {
        "electoralDistricts": [
          {
            "election": null,
            "id": 82,
            "name": "Oxford"
          }
        ],
        "pollDivisionIds": [
          10140895
        ],
        "postalCode": "N5C2N7",
        "streetName": "BELL",
        "streetDirectionId": null,
        "streetTypeId": "ST",
        "placeName": "INGERSOLL",
        "streetNameDisplayText": "BELL ST, INGERSOLL"
      }
    ]
  },
  {
    "postal": "N5C0H8",
    "result": []
  },
  {
    "postal": "N5C7Z4",
    "result": []
  },
  {
    "postal": "N5C7B1",
    "result": []
  },
  {
    "postal": "N5C7P8",
    "result": []
  },
  {
    "postal": "N5C7N0",
    "result": []
  },
  {
    "postal": "N5C3Y5",
    "result": [
      {
        "electoralDistricts": [
          {
            "election": null,
            "id": 82,
            "name": "Oxford"
          }
        ],
        "pollDivisionIds": [
          10140895
        ],
        "postalCode": "N5C3Y5",
        "streetName": "FLORENCE",
        "streetDirectionId": null,
        "streetTypeId": "AVE",
        "placeName": "INGERSOLL",
        "streetNameDisplayText": "FLORENCE AVE, INGERSOLL"
      },
      {
        "electoralDistricts": [
          {
            "election": null,
            "id": 82,
            "name": "Oxford"
          }
        ],
        "pollDivisionIds": [
          10140895
        ],
        "postalCode": "N5C3Y5",
        "streetName": "HUTCHISON",
        "streetDirectionId": null,
        "streetTypeId": "AVE",
        "placeName": "INGERSOLL",
        "streetNameDisplayText": "HUTCHISON AVE, INGERSOLL"
      }
    ]
  },
  {
    "postal": "N5C6K1",
    "result": []
  },
  {
    "postal": "N5C9X5",
    "result": []
  },
  {
    "postal": "N5C7S5",
    "result": []
  },
  {
    "postal": "N5C0A4",
    "result": [
      {
        "electoralDistricts": [
          {
            "election": null,
            "id": 82,
            "name": "Oxford"
          }
        ],
        "pollDivisionIds": [
          10140894
        ],
        "postalCode": "N5C0A4",
        "streetName": "SCOURFIELD",
        "streetDirectionId": null,
        "streetTypeId": "DR",
        "placeName": "INGERSOLL",
        "streetNameDisplayText": "SCOURFIELD DR, INGERSOLL"
      }
    ]
  },
  {
    "postal": "N5C4T5",
    "result": []
  },
  {
    "postal": "N5C5K1",
    "result": []
  },
  {
    "postal": "N5C0Z9",
    "result": []
  },
  {
    "postal": "N5C7T2",
    "result": []
  },
  {
    "postal": "N5C1L5",
    "result": [
      {
        "electoralDistricts": [
          {
            "election": null,
            "id": 82,
            "name": "Oxford"
          }
        ],
        "pollDivisionIds": [
          10140894
        ],
        "postalCode": "N5C1L5",
        "streetName": "CATHERINE",
        "streetDirectionId": null,
        "streetTypeId": "ST",
        "placeName": "INGERSOLL",
        "streetNameDisplayText": "CATHERINE ST, INGERSOLL"
      }
    ]
  },
  {
    "postal": "N5C3N5",
    "result": [
      {
        "electoralDistricts": [
          {
            "election": null,
            "id": 82,
            "name": "Oxford"
          }
        ],
        "pollDivisionIds": [
          10140896
        ],
        "postalCode": "N5C3N5",
        "streetName": "GOLDEN",
        "streetDirectionId": null,
        "streetTypeId": "PL",
        "placeName": "INGERSOLL",
        "streetNameDisplayText": "GOLDEN PL, INGERSOLL"
      }
    ]
  },
  {
    "postal": "N5C6H4",
    "result": []
  },
  {
    "postal": "N5C5A5",
    "result": []
  },
  {
    "postal": "N5C3R9",
    "result": [
      {
        "electoralDistricts": [
          {
            "election": null,
            "id": 82,
            "name": "Oxford"
          }
        ],
        "pollDivisionIds": [
          10140897
        ],
        "postalCode": "N5C3R9",
        "streetName": "CLARK",
        "streetDirectionId": "E",
        "streetTypeId": "RD",
        "placeName": "INGERSOLL",
        "streetNameDisplayText": "CLARK RD E, INGERSOLL"
      }
    ]
  },
  {
    "postal": "N5C7L8",
    "result": []
  },
  {
    "postal": "N5C6T6",
    "result": []
  },
  {
    "postal": "N5C7Y7",
    "result": []
  },
  {
    "postal": "N5C3M8",
    "result": [
      {
        "electoralDistricts": [
          {
            "election": null,
            "id": 82,
            "name": "Oxford"
          }
        ],
        "pollDivisionIds": [
          10140897
        ],
        "postalCode": "N5C3M8",
        "streetName": "CAFFYN",
        "streetDirectionId": null,
        "streetTypeId": "ST",
        "placeName": "INGERSOLL",
        "streetNameDisplayText": "CAFFYN ST, INGERSOLL"
      }
    ]
  },
  {
    "postal": "N5C2E0",
    "result": []
  },
  {
    "postal": "N5C4B5",
    "result": [
      {
        "electoralDistricts": [
          {
            "election": null,
            "id": 82,
            "name": "Oxford"
          }
        ],
        "pollDivisionIds": [
          10140894
        ],
        "postalCode": "N5C4B5",
        "streetName": "HILLSIDE",
        "streetDirectionId": null,
        "streetTypeId": "RD",
        "placeName": "INGERSOLL",
        "streetNameDisplayText": "HILLSIDE RD, INGERSOLL"
      },
      {
        "electoralDistricts": [
          {
            "election": null,
            "id": 82,
            "name": "Oxford"
          }
        ],
        "pollDivisionIds": [
          10140894
        ],
        "postalCode": "N5C4B5",
        "streetName": "RIVERVIEW",
        "streetDirectionId": null,
        "streetTypeId": "RD",
        "placeName": "INGERSOLL",
        "streetNameDisplayText": "RIVERVIEW RD, INGERSOLL"
      }
    ]
  },
  {
    "postal": "N5C1J3",
    "result": [
      {
        "electoralDistricts": [
          {
            "election": null,
            "id": 82,
            "name": "Oxford"
          }
        ],
        "pollDivisionIds": [
          10140896
        ],
        "postalCode": "N5C1J3",
        "streetName": "CHERRY",
        "streetDirectionId": null,
        "streetTypeId": "ST",
        "placeName": "INGERSOLL",
        "streetNameDisplayText": "CHERRY ST, INGERSOLL"
      }
    ]
  },
  {
    "postal": "N5C5S6",
    "result": []
  },
  {
    "postal": "N5C8P7",
    "result": []
  },
  {
    "postal": "N5C7S7",
    "result": []
  },
  {
    "postal": "N5C4C2",
    "result": [
      {
        "electoralDistricts": [
          {
            "election": null,
            "id": 82,
            "name": "Oxford"
          }
        ],
        "pollDivisionIds": [
          10140893
        ],
        "postalCode": "N5C4C2",
        "streetName": "BOND",
        "streetDirectionId": null,
        "streetTypeId": "ST",
        "placeName": "INGERSOLL",
        "streetNameDisplayText": "BOND ST, INGERSOLL"
      }
    ]
  },
  {
    "postal": "N5C5Y0",
    "result": []
  },
  {
    "postal": "N5C2V7",
    "result": [
      {
        "electoralDistricts": [
          {
            "election": null,
            "id": 82,
            "name": "Oxford"
          }
        ],
        "pollDivisionIds": [
          10140893
        ],
        "postalCode": "N5C2V7",
        "streetName": "OXFORD",
        "streetDirectionId": null,
        "streetTypeId": "ST",
        "placeName": "INGERSOLL",
        "streetNameDisplayText": "OXFORD ST, INGERSOLL"
      }
    ]
  },
  {
    "postal": "N5C8P5",
    "result": []
  },
  {
    "postal": "N5C5P5",
    "result": []
  },
  {
    "postal": "N5C5Z0",
    "result": []
  },
  {
    "postal": "N5C9B0",
    "result": []
  },
  {
    "postal": "N5C1L0",
    "result": []
  },
  {
    "postal": "N5C0B5",
    "result": [
      {
        "electoralDistricts": [
          {
            "election": null,
            "id": 82,
            "name": "Oxford"
          }
        ],
        "pollDivisionIds": [
          10140897
        ],
        "postalCode": "N5C0B5",
        "streetName": "BROOKFIELD",
        "streetDirectionId": null,
        "streetTypeId": "AVE",
        "placeName": "INGERSOLL",
        "streetNameDisplayText": "BROOKFIELD AVE, INGERSOLL"
      },
      {
        "electoralDistricts": [
          {
            "election": null,
            "id": 82,
            "name": "Oxford"
          }
        ],
        "pollDivisionIds": [
          10140897
        ],
        "postalCode": "N5C0B5",
        "streetName": "HOLLINGSHEAD",
        "streetDirectionId": null,
        "streetTypeId": "RD",
        "placeName": "INGERSOLL",
        "streetNameDisplayText": "HOLLINGSHEAD RD, INGERSOLL"
      }
    ]
  },
  {
    "postal": "N5C3L2",
    "result": [
      {
        "electoralDistricts": [
          {
            "election": null,
            "id": 82,
            "name": "Oxford"
          }
        ],
        "pollDivisionIds": [
          10140893
        ],
        "postalCode": "N5C3L2",
        "streetName": "WADSWORTH",
        "streetDirectionId": null,
        "streetTypeId": "DR",
        "placeName": "INGERSOLL",
        "streetNameDisplayText": "WADSWORTH DR, INGERSOLL"
      }
    ]
  },
  {
    "postal": "N5C3B7",
    "result": [
      {
        "electoralDistricts": [
          {
            "election": null,
            "id": 82,
            "name": "Oxford"
          }
        ],
        "pollDivisionIds": [
          10140893
        ],
        "postalCode": "N5C3B7",
        "streetName": "WHITING",
        "streetDirectionId": null,
        "streetTypeId": "ST",
        "placeName": "INGERSOLL",
        "streetNameDisplayText": "WHITING ST, INGERSOLL"
      }
    ]
  },
  {
    "postal": "N5C8L1",
    "result": []
  },
  {
    "postal": "N5C5M4",
    "result": []
  },
  {
    "postal": "N5C4G9",
    "result": [
      {
        "electoralDistricts": [
          {
            "election": null,
            "id": 82,
            "name": "Oxford"
          }
        ],
        "pollDivisionIds": [
          10140894
        ],
        "postalCode": "N5C4G9",
        "streetName": "SHELTON",
        "streetDirectionId": null,
        "streetTypeId": "DR",
        "placeName": "INGERSOLL",
        "streetNameDisplayText": "SHELTON DR, INGERSOLL"
      }
    ]
  },
  {
    "postal": "N5C0P0",
    "result": []
  },
  {
    "postal": "N5C8G2",
    "result": []
  },
  {
    "postal": "N5C1V9",
    "result": [
      {
        "electoralDistricts": [
          {
            "election": null,
            "id": 82,
            "name": "Oxford"
          }
        ],
        "pollDivisionIds": [
          10140897
        ],
        "postalCode": "N5C1V9",
        "streetName": "HALL",
        "streetDirectionId": null,
        "streetTypeId": "ST",
        "placeName": "INGERSOLL",
        "streetNameDisplayText": "HALL ST, INGERSOLL"
      }
    ]
  },
  {
    "postal": "N5C8N8",
    "result": []
  },
  {
    "postal": "N5C6S8",
    "result": []
  },
  {
    "postal": "N5C8H2",
    "result": []
  },
  {
    "postal": "N5C5R8",
    "result": []
  },
  {
    "postal": "N5C5L4",
    "result": []
  },
  {
    "postal": "N5C9E1",
    "result": []
  },
  {
    "postal": "N5C1C4",
    "result": [
      {
        "electoralDistricts": [
          {
            "election": null,
            "id": 82,
            "name": "Oxford"
          }
        ],
        "pollDivisionIds": [
          10140897
        ],
        "postalCode": "N5C1C4",
        "streetName": "CANTERBURY",
        "streetDirectionId": null,
        "streetTypeId": "ST",
        "placeName": "INGERSOLL",
        "streetNameDisplayText": "CANTERBURY ST, INGERSOLL"
      }
    ]
  },
  {
    "postal": "N5C8W5",
    "result": []
  },
  {
    "postal": "N5C1Y4",
    "result": [
      {
        "electoralDistricts": [
          {
            "election": null,
            "id": 82,
            "name": "Oxford"
          }
        ],
        "pollDivisionIds": [
          10140896
        ],
        "postalCode": "N5C1Y4",
        "streetName": "HARRIS",
        "streetDirectionId": null,
        "streetTypeId": "ST",
        "placeName": "INGERSOLL",
        "streetNameDisplayText": "HARRIS ST, INGERSOLL"
      }
    ]
  },
  {
    "postal": "N5C1C0",
    "result": []
  },
  {
    "postal": "N5C2J2",
    "result": [
      {
        "electoralDistricts": [
          {
            "election": null,
            "id": 82,
            "name": "Oxford"
          }
        ],
        "pollDivisionIds": [
          10140893
        ],
        "postalCode": "N5C2J2",
        "streetName": "KING",
        "streetDirectionId": "W",
        "streetTypeId": "ST",
        "placeName": "INGERSOLL",
        "streetNameDisplayText": "KING ST W, INGERSOLL"
      }
    ]
  },
  {
    "postal": "N5C2J0",
    "result": []
  },
  {
    "postal": "N5C7A3",
    "result": []
  },
  {
    "postal": "N5C8M1",
    "result": []
  },
  {
    "postal": "N5C7T9",
    "result": []
  },
  {
    "postal": "N5C6C0",
    "result": []
  },
  {
    "postal": "N5C7X1",
    "result": []
  },
  {
    "postal": "N5C0G1",
    "result": []
  },
  {
    "postal": "N5C4X2",
    "result": []
  },
  {
    "postal": "N5C0N6",
    "result": []
  },
  {
    "postal": "N5C8E3",
    "result": []
  },
  {
    "postal": "N5C5S8",
    "result": []
  },
  {
    "postal": "N5C0R0",
    "result": []
  },
  {
    "postal": "N5C6J6",
    "result": []
  },
  {
    "postal": "N5C4B4",
    "result": [
      {
        "electoralDistricts": [
          {
            "election": null,
            "id": 82,
            "name": "Oxford"
          }
        ],
        "pollDivisionIds": [
          10140894
        ],
        "postalCode": "N5C4B4",
        "streetName": "INGERSOLL",
        "streetDirectionId": "N",
        "streetTypeId": "ST",
        "placeName": "INGERSOLL",
        "streetNameDisplayText": "INGERSOLL ST N, INGERSOLL"
      }
    ]
  },
  {
    "postal": "N5C7E3",
    "result": []
  },
  {
    "postal": "N5C3N6",
    "result": [
      {
        "electoralDistricts": [
          {
            "election": null,
            "id": 82,
            "name": "Oxford"
          }
        ],
        "pollDivisionIds": [
          10140896
        ],
        "postalCode": "N5C3N6",
        "streetName": "GLENWOOD",
        "streetDirectionId": null,
        "streetTypeId": "RD",
        "placeName": "INGERSOLL",
        "streetNameDisplayText": "GLENWOOD RD, INGERSOLL"
      }
    ]
  },
  {
    "postal": "N5C3X6",
    "result": [
      {
        "electoralDistricts": [
          {
            "election": null,
            "id": 82,
            "name": "Oxford"
          }
        ],
        "pollDivisionIds": [
          10140895
        ],
        "postalCode": "N5C3X6",
        "streetName": "BECKETT",
        "streetDirectionId": null,
        "streetTypeId": "RD",
        "placeName": "INGERSOLL",
        "streetNameDisplayText": "BECKETT RD, INGERSOLL"
      },
      {
        "electoralDistricts": [
          {
            "election": null,
            "id": 82,
            "name": "Oxford"
          }
        ],
        "pollDivisionIds": [
          10140895
        ],
        "postalCode": "N5C3X6",
        "streetName": "ELIZABETH",
        "streetDirectionId": null,
        "streetTypeId": "AVE",
        "placeName": "INGERSOLL",
        "streetNameDisplayText": "ELIZABETH AVE, INGERSOLL"
      }
    ]
  },
  {
    "postal": "N5C8L0",
    "result": []
  },
  {
    "postal": "N5C8N1",
    "result": []
  },
  {
    "postal": "N5C4J0",
    "result": []
  },
  {
    "postal": "N5C0X7",
    "result": []
  },
  {
    "postal": "N5C6S4",
    "result": []
  },
  {
    "postal": "N5C0Z0",
    "result": []
  },
  {
    "postal": "N5C9X8",
    "result": []
  },
  {
    "postal": "N5C3H3",
    "result": [
      {
        "electoralDistricts": [
          {
            "election": null,
            "id": 82,
            "name": "Oxford"
          }
        ],
        "pollDivisionIds": [
          10140895
        ],
        "postalCode": "N5C3H3",
        "streetName": "CASHEL",
        "streetDirectionId": null,
        "streetTypeId": "ST",
        "placeName": "INGERSOLL",
        "streetNameDisplayText": "CASHEL ST, INGERSOLL"
      }
    ]
  },
  {
    "postal": "N5C7S2",
    "result": []
  },
  {
    "postal": "N5C3T3",
    "result": [
      {
        "electoralDistricts": [
          {
            "election": null,
            "id": 82,
            "name": "Oxford"
          }
        ],
        "pollDivisionIds": [
          10140893
        ],
        "postalCode": "N5C3T3",
        "streetName": "MELITA",
        "streetDirectionId": null,
        "streetTypeId": "ST",
        "placeName": "INGERSOLL",
        "streetNameDisplayText": "MELITA ST, INGERSOLL"
      }
    ]
  },
  {
    "postal": "N5C9P3",
    "result": []
  },
  {
    "postal": "N5C4H8",
    "result": []
  },
  {
    "postal": "N5C6R1",
    "result": []
  },
  {
    "postal": "N5C1S0",
    "result": []
  },
  {
    "postal": "N5C3W8",
    "result": [
      {
        "electoralDistricts": [
          {
            "election": null,
            "id": 82,
            "name": "Oxford"
          }
        ],
        "pollDivisionIds": [
          10140896
        ],
        "postalCode": "N5C3W8",
        "streetName": "DANIEL",
        "streetDirectionId": null,
        "streetTypeId": "ST",
        "placeName": "INGERSOLL",
        "streetNameDisplayText": "DANIEL ST, INGERSOLL"
      }
    ]
  },
  {
    "postal": "N5C4S3",
    "result": []
  },
  {
    "postal": "N5C1B6",
    "result": [
      {
        "electoralDistricts": [
          {
            "election": null,
            "id": 82,
            "name": "Oxford"
          }
        ],
        "pollDivisionIds": [
          10140897
        ],
        "postalCode": "N5C1B6",
        "streetName": "PARK",
        "streetDirectionId": null,
        "streetTypeId": "AVE",
        "placeName": "INGERSOLL",
        "streetNameDisplayText": "PARK AVE, INGERSOLL"
      }
    ]
  },
  {
    "postal": "N5C8R3",
    "result": []
  },
  {
    "postal": "N5C4V9",
    "result": []
  },
  {
    "postal": "N5C9W4",
    "result": []
  },
  {
    "postal": "N5C3T4",
    "result": [
      {
        "electoralDistricts": [
          {
            "election": null,
            "id": 82,
            "name": "Oxford"
          }
        ],
        "pollDivisionIds": [
          10140894
        ],
        "postalCode": "N5C3T4",
        "streetName": "MUTUAL",
        "streetDirectionId": "N",
        "streetTypeId": "ST",
        "placeName": "INGERSOLL",
        "streetNameDisplayText": "MUTUAL ST N, INGERSOLL"
      }
    ]
  },
  {
    "postal": "N5C5C7",
    "result": []
  },
  {
    "postal": "N5C3Y1",
    "result": [
      {
        "electoralDistricts": [
          {
            "election": null,
            "id": 82,
            "name": "Oxford"
          }
        ],
        "pollDivisionIds": [
          10140895
        ],
        "postalCode": "N5C3Y1",
        "streetName": "CLARENCE",
        "streetDirectionId": null,
        "streetTypeId": "AVE",
        "placeName": "INGERSOLL",
        "streetNameDisplayText": "CLARENCE AVE, INGERSOLL"
      },
      {
        "electoralDistricts": [
          {
            "election": null,
            "id": 82,
            "name": "Oxford"
          }
        ],
        "pollDivisionIds": [
          10140895
        ],
        "postalCode": "N5C3Y1",
        "streetName": "ELIZABETH",
        "streetDirectionId": null,
        "streetTypeId": "AVE",
        "placeName": "INGERSOLL",
        "streetNameDisplayText": "ELIZABETH AVE, INGERSOLL"
      },
      {
        "electoralDistricts": [
          {
            "election": null,
            "id": 82,
            "name": "Oxford"
          }
        ],
        "pollDivisionIds": [
          10140895
        ],
        "postalCode": "N5C3Y1",
        "streetName": "HUTCHISON",
        "streetDirectionId": null,
        "streetTypeId": "AVE",
        "placeName": "INGERSOLL",
        "streetNameDisplayText": "HUTCHISON AVE, INGERSOLL"
      }
    ]
  },
  {
    "postal": "N5C5V0",
    "result": []
  },
  {
    "postal": "N5C8G8",
    "result": []
  },
  {
    "postal": "N5C8B1",
    "result": []
  },
  {
    "postal": "N5C4P5",
    "result": []
  },
  {
    "postal": "N5C7B2",
    "result": []
  },
  {
    "postal": "N5C0R2",
    "result": []
  },
  {
    "postal": "N5C4M4",
    "result": []
  },
  {
    "postal": "N5C7M4",
    "result": []
  },
  {
    "postal": "N5C9S7",
    "result": []
  },
  {
    "postal": "N5C5Z7",
    "result": []
  },
  {
    "postal": "N5C7J7",
    "result": []
  },
  {
    "postal": "N5C8R8",
    "result": []
  },
  {
    "postal": "N5C9X1",
    "result": []
  },
  {
    "postal": "N5C5M9",
    "result": []
  },
  {
    "postal": "N5C9B4",
    "result": []
  },
  {
    "postal": "N5C0L9",
    "result": []
  },
  {
    "postal": "N5C9G4",
    "result": []
  },
  {
    "postal": "N5C1J4",
    "result": [
      {
        "electoralDistricts": [
          {
            "election": null,
            "id": 82,
            "name": "Oxford"
          }
        ],
        "pollDivisionIds": [
          10140896
        ],
        "postalCode": "N5C1J4",
        "streetName": "CHARLES",
        "streetDirectionId": "E",
        "streetTypeId": "ST",
        "placeName": "INGERSOLL",
        "streetNameDisplayText": "CHARLES ST E, INGERSOLL"
      }
    ]
  },
  {
    "postal": "N5C0W6",
    "result": []
  }
]
