[
  {
    "postal": "L7N9J6",
    "result": []
  },
  {
    "postal": "L7N9Z5",
    "result": []
  },
  {
    "postal": "L7N7H8",
    "result": []
  },
  {
    "postal": "L7N0P6",
    "result": []
  },
  {
    "postal": "L7N0S7",
    "result": []
  },
  {
    "postal": "L7N8B9",
    "result": []
  },
  {
    "postal": "L7N2A6",
    "result": [
      {
        "electoralDistricts": [
          {
            "election": null,
            "id": 15,
            "name": "Burlington"
          }
        ],
        "pollDivisionIds": [
          10137339
        ],
        "postalCode": "L7N2A6",
        "streetName": "WALDEN",
        "streetDirectionId": null,
        "streetTypeId": "DR",
        "placeName": "BURLINGTON",
        "streetNameDisplayText": "WALDEN DR, BURLINGTON"
      }
    ]
  },
  {
    "postal": "L7N7V2",
    "result": []
  },
  {
    "postal": "L7N9P4",
    "result": []
  },
  {
    "postal": "L7N6G0",
    "result": []
  },
  {
    "postal": "L7N2K0",
    "result": []
  },
  {
    "postal": "L7N7N6",
    "result": []
  },
  {
    "postal": "L7N5R3",
    "result": []
  },
  {
    "postal": "L7N7K0",
    "result": []
  },
  {
    "postal": "L7N3R2",
    "result": []
  },
  {
    "postal": "L7N0J1",
    "result": []
  },
  {
    "postal": "L7N0B0",
    "result": []
  },
  {
    "postal": "L7N5Z2",
    "result": []
  },
  {
    "postal": "L7N7P3",
    "result": []
  },
  {
    "postal": "L7N2K3",
    "result": [
      {
        "electoralDistricts": [
          {
            "election": null,
            "id": 15,
            "name": "Burlington"
          }
        ],
        "pollDivisionIds": [
          10137338
        ],
        "postalCode": "L7N2K3",
        "streetName": "EVA",
        "streetDirectionId": null,
        "streetTypeId": "DR",
        "placeName": "BURLINGTON",
        "streetNameDisplayText": "EVA DR, BURLINGTON"
      }
    ]
  },
  {
    "postal": "L7N7Y6",
    "result": []
  },
  {
    "postal": "L7N1L9",
    "result": [
      {
        "electoralDistricts": [
          {
            "election": null,
            "id": 15,
            "name": "Burlington"
          }
        ],
        "pollDivisionIds": [
          10137340
        ],
        "postalCode": "L7N1L9",
        "streetName": "REGAL",
        "streetDirectionId": null,
        "streetTypeId": "RD",
        "placeName": "BURLINGTON",
        "streetNameDisplayText": "REGAL RD, BURLINGTON"
      }
    ]
  },
  {
    "postal": "L7N8T0",
    "result": []
  },
  {
    "postal": "L7N3K8",
    "result": [
      {
        "electoralDistricts": [
          {
            "election": null,
            "id": 15,
            "name": "Burlington"
          }
        ],
        "pollDivisionIds": [
          10137339
        ],
        "postalCode": "L7N3K8",
        "streetName": "RUBENS",
        "streetDirectionId": null,
        "streetTypeId": "CRT",
        "placeName": "BURLINGTON",
        "streetNameDisplayText": "RUBENS CRT, BURLINGTON"
      }
    ]
  },
  {
    "postal": "L7N5W9",
    "result": []
  },
  {
    "postal": "L7N6T9",
    "result": []
  },
  {
    "postal": "L7N4H1",
    "result": []
  },
  {
    "postal": "L7N7A2",
    "result": []
  },
  {
    "postal": "L7N5G0",
    "result": []
  },
  {
    "postal": "L7N8V5",
    "result": []
  },
  {
    "postal": "L7N2Y8",
    "result": [
      {
        "electoralDistricts": [
          {
            "election": null,
            "id": 15,
            "name": "Burlington"
          }
        ],
        "pollDivisionIds": [
          10137337
        ],
        "postalCode": "L7N2Y8",
        "streetName": "LETITIA",
        "streetDirectionId": null,
        "streetTypeId": "CRT",
        "placeName": "BURLINGTON",
        "streetNameDisplayText": "LETITIA CRT, BURLINGTON"
      }
    ]
  },
  {
    "postal": "L7N2B6",
    "result": [
      {
        "electoralDistricts": [
          {
            "election": null,
            "id": 15,
            "name": "Burlington"
          }
        ],
        "pollDivisionIds": [
          10137339
        ],
        "postalCode": "L7N2B6",
        "streetName": "PENN",
        "streetDirectionId": null,
        "streetTypeId": "DR",
        "placeName": "BURLINGTON",
        "streetNameDisplayText": "PENN DR, BURLINGTON"
      }
    ]
  },
  {
    "postal": "L7N4W8",
    "result": []
  },
  {
    "postal": "L7N8H7",
    "result": []
  },
  {
    "postal": "L7N5P1",
    "result": []
  },
  {
    "postal": "L7N2B8",
    "result": [
      {
        "electoralDistricts": [
          {
            "election": null,
            "id": 15,
            "name": "Burlington"
          }
        ],
        "pollDivisionIds": [
          10137339
        ],
        "postalCode": "L7N2B8",
        "streetName": "PENN",
        "streetDirectionId": null,
        "streetTypeId": "DR",
        "placeName": "BURLINGTON",
        "streetNameDisplayText": "PENN DR, BURLINGTON"
      }
    ]
  },
  {
    "postal": "L7N0P2",
    "result": []
  },
  {
    "postal": "L7N9M1",
    "result": []
  },
  {
    "postal": "L7N3G0",
    "result": []
  },
  {
    "postal": "L7N9Z2",
    "result": []
  },
  {
    "postal": "L7N2A0",
    "result": []
  },
  {
    "postal": "L7N6Y0",
    "result": []
  },
  {
    "postal": "L7N2Z8",
    "result": [
      {
        "electoralDistricts": [
          {
            "election": null,
            "id": 15,
            "name": "Burlington"
          }
        ],
        "pollDivisionIds": [
          10137337
        ],
        "postalCode": "L7N2Z8",
        "streetName": "GLEN MOOR",
        "streetDirectionId": null,
        "streetTypeId": "CRES",
        "placeName": "BURLINGTON",
        "streetNameDisplayText": "GLEN MOOR CRES, BURLINGTON"
      }
    ]
  },
  {
    "postal": "L7N7Y3",
    "result": []
  },
  {
    "postal": "L7N6Z5",
    "result": []
  },
  {
    "postal": "L7N6E0",
    "result": []
  },
  {
    "postal": "L7N9B7",
    "result": []
  },
  {
    "postal": "L7N9S5",
    "result": []
  },
  {
    "postal": "L7N3X3",
    "result": []
  },
  {
    "postal": "L7N7R5",
    "result": []
  },
  {
    "postal": "L7N2X3",
    "result": [
      {
        "electoralDistricts": [
          {
            "election": null,
            "id": 15,
            "name": "Burlington"
          }
        ],
        "pollDivisionIds": [
          10137337
        ],
        "postalCode": "L7N2X3",
        "streetName": "CUMBERLAND",
        "streetDirectionId": null,
        "streetTypeId": "AVE",
        "placeName": "BURLINGTON",
        "streetNameDisplayText": "CUMBERLAND AVE, BURLINGTON"
      }
    ]
  },
  {
    "postal": "L7N8Z9",
    "result": []
  },
  {
    "postal": "L7N0N4",
    "result": []
  },
  {
    "postal": "L7N1K1",
    "result": [
      {
        "electoralDistricts": [
          {
            "election": null,
            "id": 15,
            "name": "Burlington"
          }
        ],
        "pollDivisionIds": [
          10137339
        ],
        "postalCode": "L7N1K1",
        "streetName": "SPRUCE",
        "streetDirectionId": null,
        "streetTypeId": "AVE",
        "placeName": "BURLINGTON",
        "streetNameDisplayText": "SPRUCE AVE, BURLINGTON"
      }
    ]
  },
  {
    "postal": "L7N1S3",
    "result": [
      {
        "electoralDistricts": [
          {
            "election": null,
            "id": 15,
            "name": "Burlington"
          }
        ],
        "pollDivisionIds": [
          10137340
        ],
        "postalCode": "L7N1S3",
        "streetName": "ROSELAND",
        "streetDirectionId": null,
        "streetTypeId": "CRES",
        "placeName": "BURLINGTON",
        "streetNameDisplayText": "ROSELAND CRES, BURLINGTON"
      }
    ]
  },
  {
    "postal": "L7N6M4",
    "result": []
  },
  {
    "postal": "L7N9A9",
    "result": []
  },
  {
    "postal": "L7N9Z9",
    "result": []
  },
  {
    "postal": "L7N6T4",
    "result": []
  },
  {
    "postal": "L7N0B2",
    "result": []
  },
  {
    "postal": "L7N2L9",
    "result": [
      {
        "electoralDistricts": [
          {
            "election": null,
            "id": 15,
            "name": "Burlington"
          }
        ],
        "pollDivisionIds": [
          10137337
        ],
        "postalCode": "L7N2L9",
        "streetName": "REXWAY",
        "streetDirectionId": null,
        "streetTypeId": "DR",
        "placeName": "BURLINGTON",
        "streetNameDisplayText": "REXWAY DR, BURLINGTON"
      }
    ]
  },
  {
    "postal": "L7N8K9",
    "result": []
  },
  {
    "postal": "L7N2H9",
    "result": [
      {
        "electoralDistricts": [
          {
            "election": null,
            "id": 15,
            "name": "Burlington"
          }
        ],
        "pollDivisionIds": [
          10137338
        ],
        "postalCode": "L7N2H9",
        "streetName": "WILLOW",
        "streetDirectionId": null,
        "streetTypeId": "LANE",
        "placeName": "BURLINGTON",
        "streetNameDisplayText": "WILLOW LANE, BURLINGTON"
      }
    ]
  },
  {
    "postal": "L7N3Z6",
    "result": []
  },
  {
    "postal": "L7N3B0",
    "result": []
  },
  {
    "postal": "L7N2H8",
    "result": [
      {
        "electoralDistricts": [
          {
            "election": null,
            "id": 15,
            "name": "Burlington"
          }
        ],
        "pollDivisionIds": [
          10137338
        ],
        "postalCode": "L7N2H8",
        "streetName": "GLENCREST",
        "streetDirectionId": null,
        "streetTypeId": "RD",
        "placeName": "BURLINGTON",
        "streetNameDisplayText": "GLENCREST RD, BURLINGTON"
      }
    ]
  },
  {
    "postal": "L7N3X2",
    "result": []
  },
  {
    "postal": "L7N2E9",
    "result": [
      {
        "electoralDistricts": [
          {
            "election": null,
            "id": 15,
            "name": "Burlington"
          }
        ],
        "pollDivisionIds": [
          10137337
        ],
        "postalCode": "L7N2E9",
        "streetName": "WALKERS",
        "streetDirectionId": null,
        "streetTypeId": "LINE",
        "placeName": "BURLINGTON",
        "streetNameDisplayText": "WALKERS LINE, BURLINGTON"
      },
      {
        "electoralDistricts": [
          {
            "election": null,
            "id": 15,
            "name": "Burlington"
          }
        ],
        "pollDivisionIds": [
          10137337
        ],
        "postalCode": "L7N2E9",
        "streetName": "WALKER'S",
        "streetDirectionId": null,
        "streetTypeId": "LINE",
        "placeName": "BURLINGTON",
        "streetNameDisplayText": "WALKER'S LINE, BURLINGTON"
      }
    ]
  },
  {
    "postal": "L7N9P6",
    "result": []
  },
  {
    "postal": "L7N9E2",
    "result": []
  },
  {
    "postal": "L7N9H2",
    "result": []
  },
  {
    "postal": "L7N1S8",
    "result": [
      {
        "electoralDistricts": [
          {
            "election": null,
            "id": 15,
            "name": "Burlington"
          }
        ],
        "pollDivisionIds": [
          10137340
        ],
        "postalCode": "L7N1S8",
        "streetName": "SOUTH",
        "streetDirectionId": null,
        "streetTypeId": "CRT",
        "placeName": "BURLINGTON",
        "streetNameDisplayText": "SOUTH CRT, BURLINGTON"
      }
    ]
  },
  {
    "postal": "L7N3M6",
    "result": [
      {
        "electoralDistricts": [
          {
            "election": null,
            "id": 15,
            "name": "Burlington"
          }
        ],
        "pollDivisionIds": [
          10137337
        ],
        "postalCode": "L7N3M6",
        "streetName": "SOUTH SERVICE",
        "streetDirectionId": null,
        "streetTypeId": "RD",
        "placeName": "BURLINGTON",
        "streetNameDisplayText": "SOUTH SERVICE RD, BURLINGTON"
      }
    ]
  },
  {
    "postal": "L7N6Z8",
    "result": []
  },
  {
    "postal": "L7N4J2",
    "result": []
  },
  {
    "postal": "L7N9Y1",
    "result": []
  },
  {
    "postal": "L7N8V6",
    "result": []
  },
  {
    "postal": "L7N6B2",
    "result": []
  },
  {
    "postal": "L7N1P8",
    "result": [
      {
        "electoralDistricts": [
          {
            "election": null,
            "id": 15,
            "name": "Burlington"
          }
        ],
        "pollDivisionIds": [
          10137340
        ],
        "postalCode": "L7N1P8",
        "streetName": "EAST HART",
        "streetDirectionId": "E",
        "streetTypeId": "CRES",
        "placeName": "BURLINGTON",
        "streetNameDisplayText": "EAST HART CRES E, BURLINGTON"
      },
      {
        "electoralDistricts": [
          {
            "election": null,
            "id": 15,
            "name": "Burlington"
          }
        ],
        "pollDivisionIds": [
          10137340
        ],
        "postalCode": "L7N1P8",
        "streetName": "HART",
        "streetDirectionId": "E",
        "streetTypeId": "CRES",
        "placeName": "BURLINGTON",
        "streetNameDisplayText": "HART CRES E, BURLINGTON"
      }
    ]
  },
  {
    "postal": "L7N0V8",
    "result": []
  },
  {
    "postal": "L7N4Y0",
    "result": []
  },
  {
    "postal": "L7N2T4",
    "result": [
      {
        "electoralDistricts": [
          {
            "election": null,
            "id": 15,
            "name": "Burlington"
          }
        ],
        "pollDivisionIds": [
          10137338
        ],
        "postalCode": "L7N2T4",
        "streetName": "ROSEDALE",
        "streetDirectionId": null,
        "streetTypeId": "CRES",
        "placeName": "BURLINGTON",
        "streetNameDisplayText": "ROSEDALE CRES, BURLINGTON"
      }
    ]
  },
  {
    "postal": "L7N2S3",
    "result": [
      {
        "electoralDistricts": [
          {
            "election": null,
            "id": 15,
            "name": "Burlington"
          }
        ],
        "pollDivisionIds": [
          10143421
        ],
        "postalCode": "L7N2S3",
        "streetName": "CLARIDGE",
        "streetDirectionId": null,
        "streetTypeId": "RD",
        "placeName": "BURLINGTON",
        "streetNameDisplayText": "CLARIDGE RD, BURLINGTON"
      }
    ]
  },
  {
    "postal": "L7N0K0",
    "result": []
  },
  {
    "postal": "L7N5N1",
    "result": []
  },
  {
    "postal": "L7N7T0",
    "result": []
  },
  {
    "postal": "L7N9N2",
    "result": []
  },
  {
    "postal": "L7N5L1",
    "result": []
  },
  {
    "postal": "L7N7G5",
    "result": []
  },
  {
    "postal": "L7N6K2",
    "result": []
  },
  {
    "postal": "L7N6P9",
    "result": []
  },
  {
    "postal": "L7N0E6",
    "result": []
  },
  {
    "postal": "L7N8R9",
    "result": []
  },
  {
    "postal": "L7N3G9",
    "result": []
  },
  {
    "postal": "L7N0V7",
    "result": []
  },
  {
    "postal": "L7N2Z1",
    "result": [
      {
        "electoralDistricts": [
          {
            "election": null,
            "id": 15,
            "name": "Burlington"
          }
        ],
        "pollDivisionIds": [
          10137337
        ],
        "postalCode": "L7N2Z1",
        "streetName": "MONTEGO",
        "streetDirectionId": null,
        "streetTypeId": "CRES",
        "placeName": "BURLINGTON",
        "streetNameDisplayText": "MONTEGO CRES, BURLINGTON"
      }
    ]
  },
  {
    "postal": "L7N7N1",
    "result": []
  },
  {
    "postal": "L7N3C6",
    "result": [
      {
        "electoralDistricts": [
          {
            "election": null,
            "id": 15,
            "name": "Burlington"
          }
        ],
        "pollDivisionIds": [
          10137337,
          10137339
        ],
        "postalCode": "L7N3C6",
        "streetName": "ELWOOD",
        "streetDirectionId": null,
        "streetTypeId": "RD",
        "placeName": "BURLINGTON",
        "streetNameDisplayText": "ELWOOD RD, BURLINGTON"
      }
    ]
  },
  {
    "postal": "L7N4M1",
    "result": []
  },
  {
    "postal": "L7N9K2",
    "result": []
  },
  {
    "postal": "L7N9S6",
    "result": []
  },
  {
    "postal": "L7N4X1",
    "result": []
  },
  {
    "postal": "L7N8W2",
    "result": []
  },
  {
    "postal": "L7N7N2",
    "result": []
  },
  {
    "postal": "L7N8S3",
    "result": []
  },
  {
    "postal": "L7N4V0",
    "result": []
  },
  {
    "postal": "L7N6W4",
    "result": []
  },
  {
    "postal": "L7N5M1",
    "result": []
  },
  {
    "postal": "L7N0S4",
    "result": []
  },
  {
    "postal": "L7N5X6",
    "result": []
  },
  {
    "postal": "L7N8L5",
    "result": []
  },
  {
    "postal": "L7N5M8",
    "result": []
  },
  {
    "postal": "L7N2G3",
    "result": [
      {
        "electoralDistricts": [
          {
            "election": null,
            "id": 15,
            "name": "Burlington"
          }
        ],
        "pollDivisionIds": [
          10137335
        ],
        "postalCode": "L7N2G3",
        "streetName": "WALKERS",
        "streetDirectionId": null,
        "streetTypeId": "LINE",
        "placeName": "BURLINGTON",
        "streetNameDisplayText": "WALKERS LINE, BURLINGTON"
      }
    ]
  },
  {
    "postal": "L7N8E4",
    "result": []
  },
  {
    "postal": "L7N7S9",
    "result": []
  },
  {
    "postal": "L7N1K3",
    "result": [
      {
        "electoralDistricts": [
          {
            "election": null,
            "id": 15,
            "name": "Burlington"
          }
        ],
        "pollDivisionIds": [
          10137339
        ],
        "postalCode": "L7N1K3",
        "streetName": "SPRUCE",
        "streetDirectionId": null,
        "streetTypeId": "AVE",
        "placeName": "BURLINGTON",
        "streetNameDisplayText": "SPRUCE AVE, BURLINGTON"
      }
    ]
  },
  {
    "postal": "L7N4E1",
    "result": []
  },
  {
    "postal": "L7N4R2",
    "result": []
  },
  {
    "postal": "L7N6T0",
    "result": []
  },
  {
    "postal": "L7N3K5",
    "result": [
      {
        "electoralDistricts": [
          {
            "election": null,
            "id": 15,
            "name": "Burlington"
          }
        ],
        "pollDivisionIds": [
          10137339
        ],
        "postalCode": "L7N3K5",
        "streetName": "SWINBURNE",
        "streetDirectionId": null,
        "streetTypeId": "RD",
        "placeName": "BURLINGTON",
        "streetNameDisplayText": "SWINBURNE RD, BURLINGTON"
      }
    ]
  },
  {
    "postal": "L7N3S3",
    "result": [
      {
        "electoralDistricts": [
          {
            "election": null,
            "id": 15,
            "name": "Burlington"
          }
        ],
        "pollDivisionIds": [
          10137340
        ],
        "postalCode": "L7N3S3",
        "streetName": "KASTELIC",
        "streetDirectionId": null,
        "streetTypeId": "PL",
        "placeName": "BURLINGTON",
        "streetNameDisplayText": "KASTELIC PL, BURLINGTON"
      },
      {
        "electoralDistricts": [
          {
            "election": null,
            "id": 15,
            "name": "Burlington"
          }
        ],
        "pollDivisionIds": [
          10137337,
          10137340
        ],
        "postalCode": "L7N3S3",
        "streetName": "RYERSON",
        "streetDirectionId": null,
        "streetTypeId": "RD",
        "placeName": "BURLINGTON",
        "streetNameDisplayText": "RYERSON RD, BURLINGTON"
      }
    ]
  },
  {
    "postal": "L7N3L4",
    "result": [
      {
        "electoralDistricts": [
          {
            "election": null,
            "id": 15,
            "name": "Burlington"
          }
        ],
        "pollDivisionIds": [
          10137351,
          10143419,
          10143402
        ],
        "postalCode": "L7N3L4",
        "streetName": "NEW",
        "streetDirectionId": null,
        "streetTypeId": "ST",
        "placeName": "BURLINGTON",
        "streetNameDisplayText": "NEW ST, BURLINGTON"
      }
    ]
  },
  {
    "postal": "L7N9Y2",
    "result": []
  },
  {
    "postal": "L7N1E0",
    "result": []
  },
  {
    "postal": "L7N9A4",
    "result": []
  },
  {
    "postal": "L7N1L3",
    "result": [
      {
        "electoralDistricts": [
          {
            "election": null,
            "id": 15,
            "name": "Burlington"
          }
        ],
        "pollDivisionIds": [
          10137340
        ],
        "postalCode": "L7N1L3",
        "streetName": "ST CLAIR",
        "streetDirectionId": null,
        "streetTypeId": "AVE",
        "placeName": "BURLINGTON",
        "streetNameDisplayText": "ST CLAIR AVE, BURLINGTON"
      }
    ]
  },
  {
    "postal": "L7N6N1",
    "result": []
  },
  {
    "postal": "L7N6G7",
    "result": []
  },
  {
    "postal": "L7N7W1",
    "result": []
  },
  {
    "postal": "L7N4M6",
    "result": []
  },
  {
    "postal": "L7N1K0",
    "result": []
  },
  {
    "postal": "L7N3E2",
    "result": [
      {
        "electoralDistricts": [
          {
            "election": null,
            "id": 15,
            "name": "Burlington"
          }
        ],
        "pollDivisionIds": [
          10137339
        ],
        "postalCode": "L7N3E2",
        "streetName": "ROTHESAY",
        "streetDirectionId": null,
        "streetTypeId": "PL",
        "placeName": "BURLINGTON",
        "streetNameDisplayText": "ROTHESAY PL, BURLINGTON"
      }
    ]
  },
  {
    "postal": "L7N5H4",
    "result": []
  },
  {
    "postal": "L7N1K7",
    "result": [
      {
        "electoralDistricts": [
          {
            "election": null,
            "id": 15,
            "name": "Burlington"
          }
        ],
        "pollDivisionIds": [
          10137340
        ],
        "postalCode": "L7N1K7",
        "streetName": "MYER'S",
        "streetDirectionId": null,
        "streetTypeId": "LANE",
        "placeName": "BURLINGTON",
        "streetNameDisplayText": "MYER'S LANE, BURLINGTON"
      }
    ]
  },
  {
    "postal": "L7N0H0",
    "result": []
  },
  {
    "postal": "L7N0J3",
    "result": []
  },
  {
    "postal": "L7N1X6",
    "result": [
      {
        "electoralDistricts": [
          {
            "election": null,
            "id": 15,
            "name": "Burlington"
          }
        ],
        "pollDivisionIds": [
          10137339
        ],
        "postalCode": "L7N1X6",
        "streetName": "BRECKONDALE",
        "streetDirectionId": null,
        "streetTypeId": "CRT",
        "placeName": "BURLINGTON",
        "streetNameDisplayText": "BRECKONDALE CRT, BURLINGTON"
      }
    ]
  },
  {
    "postal": "L7N2Z6",
    "result": [
      {
        "electoralDistricts": [
          {
            "election": null,
            "id": 15,
            "name": "Burlington"
          }
        ],
        "pollDivisionIds": [
          10137337
        ],
        "postalCode": "L7N2Z6",
        "streetName": "MACLAREN",
        "streetDirectionId": null,
        "streetTypeId": "DR",
        "placeName": "BURLINGTON",
        "streetNameDisplayText": "MACLAREN DR, BURLINGTON"
      }
    ]
  },
  {
    "postal": "L7N4R9",
    "result": []
  },
  {
    "postal": "L7N0W8",
    "result": []
  },
  {
    "postal": "L7N1L4",
    "result": [
      {
        "electoralDistricts": [
          {
            "election": null,
            "id": 15,
            "name": "Burlington"
          }
        ],
        "pollDivisionIds": [
          10137340
        ],
        "postalCode": "L7N1L4",
        "streetName": "ST CLAIR",
        "streetDirectionId": null,
        "streetTypeId": "AVE",
        "placeName": "BURLINGTON",
        "streetNameDisplayText": "ST CLAIR AVE, BURLINGTON"
      }
    ]
  },
  {
    "postal": "L7N0C8",
    "result": []
  },
  {
    "postal": "L7N9X7",
    "result": []
  },
  {
    "postal": "L7N4T1",
    "result": []
  },
  {
    "postal": "L7N0M0",
    "result": []
  },
  {
    "postal": "L7N6A2",
    "result": []
  },
  {
    "postal": "L7N9S8",
    "result": []
  },
  {
    "postal": "L7N9T4",
    "result": []
  },
  {
    "postal": "L7N9Y4",
    "result": []
  },
  {
    "postal": "L7N6G5",
    "result": []
  },
  {
    "postal": "L7N6H9",
    "result": []
  },
  {
    "postal": "L7N2P3",
    "result": [
      {
        "electoralDistricts": [
          {
            "election": null,
            "id": 15,
            "name": "Burlington"
          }
        ],
        "pollDivisionIds": [
          10137337
        ],
        "postalCode": "L7N2P3",
        "streetName": "PUTTER",
        "streetDirectionId": null,
        "streetTypeId": "PL",
        "placeName": "BURLINGTON",
        "streetNameDisplayText": "PUTTER PL, BURLINGTON"
      }
    ]
  },
  {
    "postal": "L7N1T6",
    "result": [
      {
        "electoralDistricts": [
          {
            "election": null,
            "id": 15,
            "name": "Burlington"
          }
        ],
        "pollDivisionIds": [
          10137340
        ],
        "postalCode": "L7N1T6",
        "streetName": "POMONA",
        "streetDirectionId": null,
        "streetTypeId": "AVE",
        "placeName": "BURLINGTON",
        "streetNameDisplayText": "POMONA AVE, BURLINGTON"
      }
    ]
  },
  {
    "postal": "L7N4P6",
    "result": []
  },
  {
    "postal": "L7N3K1",
    "result": [
      {
        "electoralDistricts": [
          {
            "election": null,
            "id": 15,
            "name": "Burlington"
          }
        ],
        "pollDivisionIds": [
          10137338
        ],
        "postalCode": "L7N3K1",
        "streetName": "GLENCREST",
        "streetDirectionId": null,
        "streetTypeId": "RD",
        "placeName": "BURLINGTON",
        "streetNameDisplayText": "GLENCREST RD, BURLINGTON"
      }
    ]
  },
  {
    "postal": "L7N6X4",
    "result": []
  },
  {
    "postal": "L7N4M8",
    "result": []
  },
  {
    "postal": "L7N2Y1",
    "result": [
      {
        "electoralDistricts": [
          {
            "election": null,
            "id": 15,
            "name": "Burlington"
          }
        ],
        "pollDivisionIds": [
          10137337
        ],
        "postalCode": "L7N2Y1",
        "streetName": "RAMSGATE",
        "streetDirectionId": null,
        "streetTypeId": "RD",
        "placeName": "BURLINGTON",
        "streetNameDisplayText": "RAMSGATE RD, BURLINGTON"
      }
    ]
  },
  {
    "postal": "L7N6M1",
    "result": []
  },
  {
    "postal": "L7N5L8",
    "result": []
  },
  {
    "postal": "L7N3P6",
    "result": [
      {
        "electoralDistricts": [
          {
            "election": null,
            "id": 15,
            "name": "Burlington"
          }
        ],
        "pollDivisionIds": [
          10137337
        ],
        "postalCode": "L7N3P6",
        "streetName": "OLD COACH",
        "streetDirectionId": null,
        "streetTypeId": "RD",
        "placeName": "BURLINGTON",
        "streetNameDisplayText": "OLD COACH RD, BURLINGTON"
      }
    ]
  },
  {
    "postal": "L7N9A5",
    "result": []
  },
  {
    "postal": "L7N7K1",
    "result": []
  },
  {
    "postal": "L7N3J4",
    "result": []
  },
  {
    "postal": "L7N5E7",
    "result": []
  },
  {
    "postal": "L7N3A7",
    "result": [
      {
        "electoralDistricts": [
          {
            "election": null,
            "id": 15,
            "name": "Burlington"
          }
        ],
        "pollDivisionIds": [
          10137337
        ],
        "postalCode": "L7N3A7",
        "streetName": "RONALD",
        "streetDirectionId": null,
        "streetTypeId": "DR",
        "placeName": "BURLINGTON",
        "streetNameDisplayText": "RONALD DR, BURLINGTON"
      }
    ]
  },
  {
    "postal": "L7N1B9",
    "result": [
      {
        "electoralDistricts": [
          {
            "election": null,
            "id": 15,
            "name": "Burlington"
          }
        ],
        "pollDivisionIds": [
          10137339
        ],
        "postalCode": "L7N1B9",
        "streetName": "LAKELAND",
        "streetDirectionId": null,
        "streetTypeId": "CRES",
        "placeName": "BURLINGTON",
        "streetNameDisplayText": "LAKELAND CRES, BURLINGTON"
      }
    ]
  },
  {
    "postal": "L7N9E8",
    "result": []
  },
  {
    "postal": "L7N1C9",
    "result": [
      {
        "electoralDistricts": [
          {
            "election": null,
            "id": 15,
            "name": "Burlington"
          }
        ],
        "pollDivisionIds": [
          10137339
        ],
        "postalCode": "L7N1C9",
        "streetName": "WALMER",
        "streetDirectionId": null,
        "streetTypeId": "RD",
        "placeName": "BURLINGTON",
        "streetNameDisplayText": "WALMER RD, BURLINGTON"
      }
    ]
  },
  {
    "postal": "L7N3B5",
    "result": [
      {
        "electoralDistricts": [
          {
            "election": null,
            "id": 15,
            "name": "Burlington"
          }
        ],
        "pollDivisionIds": [
          10137337
        ],
        "postalCode": "L7N3B5",
        "streetName": "REXWAY",
        "streetDirectionId": null,
        "streetTypeId": "CRT",
        "placeName": "BURLINGTON",
        "streetNameDisplayText": "REXWAY CRT, BURLINGTON"
      }
    ]
  },
  {
    "postal": "L7N8R0",
    "result": []
  },
  {
    "postal": "L7N3P2",
    "result": [
      {
        "electoralDistricts": [
          {
            "election": null,
            "id": 15,
            "name": "Burlington"
          }
        ],
        "pollDivisionIds": [
          10137337
        ],
        "postalCode": "L7N3P2",
        "streetName": "HARVESTER",
        "streetDirectionId": null,
        "streetTypeId": "RD",
        "placeName": "BURLINGTON",
        "streetNameDisplayText": "HARVESTER RD, BURLINGTON"
      }
    ]
  },
  {
    "postal": "L7N5V4",
    "result": []
  },
  {
    "postal": "L7N4H0",
    "result": []
  },
  {
    "postal": "L7N4S7",
    "result": []
  },
  {
    "postal": "L7N6C2",
    "result": []
  },
  {
    "postal": "L7N8W3",
    "result": []
  },
  {
    "postal": "L7N4M5",
    "result": []
  },
  {
    "postal": "L7N5T1",
    "result": []
  },
  {
    "postal": "L7N3B3",
    "result": [
      {
        "electoralDistricts": [
          {
            "election": null,
            "id": 15,
            "name": "Burlington"
          }
        ],
        "pollDivisionIds": [
          10137337
        ],
        "postalCode": "L7N3B3",
        "streetName": "JENNIFER",
        "streetDirectionId": null,
        "streetTypeId": "CRES",
        "placeName": "BURLINGTON",
        "streetNameDisplayText": "JENNIFER CRES, BURLINGTON"
      }
    ]
  },
  {
    "postal": "L7N6C6",
    "result": []
  },
  {
    "postal": "L7N7N8",
    "result": []
  },
  {
    "postal": "L7N2Y3",
    "result": [
      {
        "electoralDistricts": [
          {
            "election": null,
            "id": 15,
            "name": "Burlington"
          }
        ],
        "pollDivisionIds": [
          10137337
        ],
        "postalCode": "L7N2Y3",
        "streetName": "RAMSGATE",
        "streetDirectionId": null,
        "streetTypeId": "RD",
        "placeName": "BURLINGTON",
        "streetNameDisplayText": "RAMSGATE RD, BURLINGTON"
      }
    ]
  },
  {
    "postal": "L7N2R6",
    "result": [
      {
        "electoralDistricts": [
          {
            "election": null,
            "id": 15,
            "name": "Burlington"
          }
        ],
        "pollDivisionIds": [
          10137338
        ],
        "postalCode": "L7N2R6",
        "streetName": "OXFORD",
        "streetDirectionId": null,
        "streetTypeId": "RD",
        "placeName": "BURLINGTON",
        "streetNameDisplayText": "OXFORD RD, BURLINGTON"
      }
    ]
  },
  {
    "postal": "L7N7N3",
    "result": []
  },
  {
    "postal": "L7N8J2",
    "result": []
  },
  {
    "postal": "L7N6A9",
    "result": []
  },
  {
    "postal": "L7N3V2",
    "result": [
      {
        "electoralDistricts": [
          {
            "election": null,
            "id": 15,
            "name": "Burlington"
          }
        ],
        "pollDivisionIds": [
          10137337
        ],
        "postalCode": "L7N3V2",
        "streetName": "HARVESTER",
        "streetDirectionId": null,
        "streetTypeId": "RD",
        "placeName": "BURLINGTON",
        "streetNameDisplayText": "HARVESTER RD, BURLINGTON"
      }
    ]
  },
  {
    "postal": "L7N2N3",
    "result": [
      {
        "electoralDistricts": [
          {
            "election": null,
            "id": 15,
            "name": "Burlington"
          }
        ],
        "pollDivisionIds": [
          10137337
        ],
        "postalCode": "L7N2N3",
        "streetName": "WINDSOR",
        "streetDirectionId": null,
        "streetTypeId": "CRT",
        "placeName": "BURLINGTON",
        "streetNameDisplayText": "WINDSOR CRT, BURLINGTON"
      }
    ]
  },
  {
    "postal": "L7N1S5",
    "result": [
      {
        "electoralDistricts": [
          {
            "election": null,
            "id": 15,
            "name": "Burlington"
          }
        ],
        "pollDivisionIds": [
          10137340
        ],
        "postalCode": "L7N1S5",
        "streetName": "ROSSLYN",
        "streetDirectionId": null,
        "streetTypeId": "DR",
        "placeName": "BURLINGTON",
        "streetNameDisplayText": "ROSSLYN DR, BURLINGTON"
      }
    ]
  },
  {
    "postal": "L7N4T7",
    "result": []
  },
  {
    "postal": "L7N6Y7",
    "result": []
  },
  {
    "postal": "L7N0W7",
    "result": []
  },
  {
    "postal": "L7N2W9",
    "result": [
      {
        "electoralDistricts": [
          {
            "election": null,
            "id": 15,
            "name": "Burlington"
          }
        ],
        "pollDivisionIds": [
          10137337
        ],
        "postalCode": "L7N2W9",
        "streetName": "FENWICK",
        "streetDirectionId": null,
        "streetTypeId": "PL",
        "placeName": "BURLINGTON",
        "streetNameDisplayText": "FENWICK PL, BURLINGTON"
      }
    ]
  },
  {
    "postal": "L7N8V0",
    "result": []
  },
  {
    "postal": "L7N0H4",
    "result": []
  },
  {
    "postal": "L7N2T1",
    "result": [
      {
        "electoralDistricts": [
          {
            "election": null,
            "id": 15,
            "name": "Burlington"
          }
        ],
        "pollDivisionIds": [
          10137338
        ],
        "postalCode": "L7N2T1",
        "streetName": "ROSEDALE",
        "streetDirectionId": null,
        "streetTypeId": "CRES",
        "placeName": "BURLINGTON",
        "streetNameDisplayText": "ROSEDALE CRES, BURLINGTON"
      }
    ]
  },
  {
    "postal": "L7N1B1",
    "result": [
      {
        "electoralDistricts": [
          {
            "election": null,
            "id": 15,
            "name": "Burlington"
          }
        ],
        "pollDivisionIds": [
          10137339
        ],
        "postalCode": "L7N1B1",
        "streetName": "LAKESHORE",
        "streetDirectionId": null,
        "streetTypeId": "RD",
        "placeName": "BURLINGTON",
        "streetNameDisplayText": "LAKESHORE RD, BURLINGTON"
      }
    ]
  },
  {
    "postal": "L7N8B6",
    "result": []
  },
  {
    "postal": "L7N6H1",
    "result": []
  },
  {
    "postal": "L7N8T8",
    "result": []
  },
  {
    "postal": "L7N0T4",
    "result": []
  },
  {
    "postal": "L7N2C4",
    "result": [
      {
        "electoralDistricts": [
          {
            "election": null,
            "id": 15,
            "name": "Burlington"
          }
        ],
        "pollDivisionIds": [
          10137333
        ],
        "postalCode": "L7N2C4",
        "streetName": "WALKER'S",
        "streetDirectionId": null,
        "streetTypeId": "LINE",
        "placeName": "BURLINGTON",
        "streetNameDisplayText": "WALKER'S LINE, BURLINGTON"
      }
    ]
  },
  {
    "postal": "L7N8N3",
    "result": []
  },
  {
    "postal": "L7N4L8",
    "result": []
  },
  {
    "postal": "L7N2B5",
    "result": [
      {
        "electoralDistricts": [
          {
            "election": null,
            "id": 15,
            "name": "Burlington"
          }
        ],
        "pollDivisionIds": [
          10137339
        ],
        "postalCode": "L7N2B5",
        "streetName": "RANKIN",
        "streetDirectionId": null,
        "streetTypeId": "DR",
        "placeName": "BURLINGTON",
        "streetNameDisplayText": "RANKIN DR, BURLINGTON"
      }
    ]
  },
  {
    "postal": "L7N3H1",
    "result": [
      {
        "electoralDistricts": [
          {
            "election": null,
            "id": 15,
            "name": "Burlington"
          }
        ],
        "pollDivisionIds": [
          10143405
        ],
        "postalCode": "L7N3H1",
        "streetName": "REGENCY",
        "streetDirectionId": null,
        "streetTypeId": "CRT",
        "placeName": "BURLINGTON",
        "streetNameDisplayText": "REGENCY CRT, BURLINGTON"
      }
    ]
  },
  {
    "postal": "L7N4Y1",
    "result": []
  },
  {
    "postal": "L7N7E2",
    "result": []
  },
  {
    "postal": "L7N2P5",
    "result": [
      {
        "electoralDistricts": [
          {
            "election": null,
            "id": 15,
            "name": "Burlington"
          }
        ],
        "pollDivisionIds": [
          10137338
        ],
        "postalCode": "L7N2P5",
        "streetName": "PROSPECT",
        "streetDirectionId": null,
        "streetTypeId": "ST",
        "placeName": "BURLINGTON",
        "streetNameDisplayText": "PROSPECT ST, BURLINGTON"
      }
    ]
  },
  {
    "postal": "L7N8R7",
    "result": []
  },
  {
    "postal": "L7N9P1",
    "result": []
  },
  {
    "postal": "L7N3B8",
    "result": [
      {
        "electoralDistricts": [
          {
            "election": null,
            "id": 15,
            "name": "Burlington"
          }
        ],
        "pollDivisionIds": [
          10137337
        ],
        "postalCode": "L7N3B8",
        "streetName": "THORNWOOD",
        "streetDirectionId": null,
        "streetTypeId": "AVE",
        "placeName": "BURLINGTON",
        "streetNameDisplayText": "THORNWOOD AVE, BURLINGTON"
      }
    ]
  },
  {
    "postal": "L7N3P7",
    "result": [
      {
        "electoralDistricts": [
          {
            "election": null,
            "id": 15,
            "name": "Burlington"
          }
        ],
        "pollDivisionIds": [
          10137337
        ],
        "postalCode": "L7N3P7",
        "streetName": "OLD COACH",
        "streetDirectionId": null,
        "streetTypeId": "RD",
        "placeName": "BURLINGTON",
        "streetNameDisplayText": "OLD COACH RD, BURLINGTON"
      }
    ]
  },
  {
    "postal": "L7N9B2",
    "result": []
  },
  {
    "postal": "L7N6Z3",
    "result": []
  },
  {
    "postal": "L7N4N5",
    "result": []
  },
  {
    "postal": "L7N8T3",
    "result": []
  },
  {
    "postal": "L7N1V2",
    "result": [
      {
        "electoralDistricts": [
          {
            "election": null,
            "id": 15,
            "name": "Burlington"
          }
        ],
        "pollDivisionIds": [
          10137340
        ],
        "postalCode": "L7N1V2",
        "streetName": "JOHNSTON",
        "streetDirectionId": null,
        "streetTypeId": "DR",
        "placeName": "BURLINGTON",
        "streetNameDisplayText": "JOHNSTON DR, BURLINGTON"
      }
    ]
  },
  {
    "postal": "L7N1Y0",
    "result": []
  },
  {
    "postal": "L7N3G6",
    "result": [
      {
        "electoralDistricts": [
          {
            "election": null,
            "id": 15,
            "name": "Burlington"
          }
        ],
        "pollDivisionIds": [
          10137338
        ],
        "postalCode": "L7N3G6",
        "streetName": "WOODWARD",
        "streetDirectionId": null,
        "streetTypeId": "AVE",
        "placeName": "BURLINGTON",
        "streetNameDisplayText": "WOODWARD AVE, BURLINGTON"
      }
    ]
  },
  {
    "postal": "L7N3H7",
    "result": [
      {
        "electoralDistricts": [
          {
            "election": null,
            "id": 15,
            "name": "Burlington"
          }
        ],
        "pollDivisionIds": [
          10137337
        ],
        "postalCode": "L7N3H7",
        "streetName": "ROCKWOOD",
        "streetDirectionId": null,
        "streetTypeId": "DR",
        "placeName": "BURLINGTON",
        "streetNameDisplayText": "ROCKWOOD DR, BURLINGTON"
      }
    ]
  },
  {
    "postal": "L7N7X8",
    "result": []
  },
  {
    "postal": "L7N0C7",
    "result": []
  },
  {
    "postal": "L7N0W9",
    "result": []
  },
  {
    "postal": "L7N8E6",
    "result": []
  },
  {
    "postal": "L7N9Z8",
    "result": []
  },
  {
    "postal": "L7N3P4",
    "result": []
  },
  {
    "postal": "L7N6L8",
    "result": []
  },
  {
    "postal": "L7N2R4",
    "result": [
      {
        "electoralDistricts": [
          {
            "election": null,
            "id": 15,
            "name": "Burlington"
          }
        ],
        "pollDivisionIds": [
          10137337
        ],
        "postalCode": "L7N2R4",
        "streetName": "FAIRVIEW",
        "streetDirectionId": null,
        "streetTypeId": "ST",
        "placeName": "BURLINGTON",
        "streetNameDisplayText": "FAIRVIEW ST, BURLINGTON"
      }
    ]
  },
  {
    "postal": "L7N2W1",
    "result": [
      {
        "electoralDistricts": [
          {
            "election": null,
            "id": 15,
            "name": "Burlington"
          }
        ],
        "pollDivisionIds": [
          10137338
        ],
        "postalCode": "L7N2W1",
        "streetName": "MAPLEHILL",
        "streetDirectionId": null,
        "streetTypeId": "DR",
        "placeName": "BURLINGTON",
        "streetNameDisplayText": "MAPLEHILL DR, BURLINGTON"
      }
    ]
  },
  {
    "postal": "L7N9H8",
    "result": []
  },
  {
    "postal": "L7N8X9",
    "result": []
  },
  {
    "postal": "L7N7H4",
    "result": []
  },
  {
    "postal": "L7N3J1",
    "result": [
      {
        "electoralDistricts": [
          {
            "election": null,
            "id": 15,
            "name": "Burlington"
          }
        ],
        "pollDivisionIds": [
          10137337
        ],
        "postalCode": "L7N3J1",
        "streetName": "HARVESTER",
        "streetDirectionId": null,
        "streetTypeId": "RD",
        "placeName": "BURLINGTON",
        "streetNameDisplayText": "HARVESTER RD, BURLINGTON"
      }
    ]
  },
  {
    "postal": "L7N1P4",
    "result": [
      {
        "electoralDistricts": [
          {
            "election": null,
            "id": 15,
            "name": "Burlington"
          }
        ],
        "pollDivisionIds": [
          10137340
        ],
        "postalCode": "L7N1P4",
        "streetName": "HART",
        "streetDirectionId": null,
        "streetTypeId": "AVE",
        "placeName": "BURLINGTON",
        "streetNameDisplayText": "HART AVE, BURLINGTON"
      }
    ]
  },
  {
    "postal": "L7N2A3",
    "result": [
      {
        "electoralDistricts": [
          {
            "election": null,
            "id": 15,
            "name": "Burlington"
          }
        ],
        "pollDivisionIds": [
          10137340
        ],
        "postalCode": "L7N2A3",
        "streetName": "SWINBURNE",
        "streetDirectionId": null,
        "streetTypeId": "RD",
        "placeName": "BURLINGTON",
        "streetNameDisplayText": "SWINBURNE RD, BURLINGTON"
      }
    ]
  },
  {
    "postal": "L7N0Z1",
    "result": []
  },
  {
    "postal": "L7N1C1",
    "result": [
      {
        "electoralDistricts": [
          {
            "election": null,
            "id": 15,
            "name": "Burlington"
          }
        ],
        "pollDivisionIds": [
          10137340
        ],
        "postalCode": "L7N1C1",
        "streetName": "HAMPTON",
        "streetDirectionId": null,
        "streetTypeId": "CRT",
        "placeName": "BURLINGTON",
        "streetNameDisplayText": "HAMPTON CRT, BURLINGTON"
      }
    ]
  },
  {
    "postal": "L7N0H3",
    "result": []
  },
  {
    "postal": "L7N7B0",
    "result": []
  },
  {
    "postal": "L7N5K2",
    "result": []
  },
  {
    "postal": "L7N1E9",
    "result": [
      {
        "electoralDistricts": [
          {
            "election": null,
            "id": 15,
            "name": "Burlington"
          }
        ],
        "pollDivisionIds": [
          10137340
        ],
        "postalCode": "L7N1E9",
        "streetName": "PRINCESS",
        "streetDirectionId": null,
        "streetTypeId": "BLVD",
        "placeName": "BURLINGTON",
        "streetNameDisplayText": "PRINCESS BLVD, BURLINGTON"
      }
    ]
  },
  {
    "postal": "L7N9W7",
    "result": []
  },
  {
    "postal": "L7N5W6",
    "result": []
  },
  {
    "postal": "L7N6S6",
    "result": []
  },
  {
    "postal": "L7N2P8",
    "result": [
      {
        "electoralDistricts": [
          {
            "election": null,
            "id": 15,
            "name": "Burlington"
          }
        ],
        "pollDivisionIds": [
          10137337
        ],
        "postalCode": "L7N2P8",
        "streetName": "CAPLAN",
        "streetDirectionId": null,
        "streetTypeId": "CRES",
        "placeName": "BURLINGTON",
        "streetNameDisplayText": "CAPLAN CRES, BURLINGTON"
      }
    ]
  },
  {
    "postal": "L7N4P8",
    "result": []
  },
  {
    "postal": "L7N0V9",
    "result": []
  },
  {
    "postal": "L7N5Y2",
    "result": []
  },
  {
    "postal": "L7N7Z7",
    "result": []
  },
  {
    "postal": "L7N6Y8",
    "result": []
  },
  {
    "postal": "L7N2G7",
    "result": [
      {
        "electoralDistricts": [
          {
            "election": null,
            "id": 15,
            "name": "Burlington"
          }
        ],
        "pollDivisionIds": [
          10137337,
          10137338
        ],
        "postalCode": "L7N2G7",
        "streetName": "SPRUCEHILL",
        "streetDirectionId": null,
        "streetTypeId": "AVE",
        "placeName": "BURLINGTON",
        "streetNameDisplayText": "SPRUCEHILL AVE, BURLINGTON"
      }
    ]
  },
  {
    "postal": "L7N8C1",
    "result": []
  },
  {
    "postal": "L7N5C5",
    "result": []
  },
  {
    "postal": "L7N2X8",
    "result": []
  },
  {
    "postal": "L7N1W5",
    "result": [
      {
        "electoralDistricts": [
          {
            "election": null,
            "id": 15,
            "name": "Burlington"
          }
        ],
        "pollDivisionIds": [
          10137340
        ],
        "postalCode": "L7N1W5",
        "streetName": "PINE COVE",
        "streetDirectionId": null,
        "streetTypeId": "RD",
        "placeName": "BURLINGTON",
        "streetNameDisplayText": "PINE COVE RD, BURLINGTON"
      }
    ]
  },
  {
    "postal": "L7N7G0",
    "result": []
  },
  {
    "postal": "L7N8J8",
    "result": []
  },
  {
    "postal": "L7N3Y0",
    "result": []
  },
  {
    "postal": "L7N9T7",
    "result": []
  },
  {
    "postal": "L7N5P4",
    "result": []
  },
  {
    "postal": "L7N4B0",
    "result": []
  },
  {
    "postal": "L7N9N8",
    "result": []
  },
  {
    "postal": "L7N4A7",
    "result": []
  },
  {
    "postal": "L7N4H9",
    "result": []
  },
  {
    "postal": "L7N6X1",
    "result": []
  },
  {
    "postal": "L7N9Y7",
    "result": []
  },
  {
    "postal": "L7N2Y5",
    "result": [
      {
        "electoralDistricts": [
          {
            "election": null,
            "id": 15,
            "name": "Burlington"
          }
        ],
        "pollDivisionIds": [
          10137337
        ],
        "postalCode": "L7N2Y5",
        "streetName": "LANI",
        "streetDirectionId": null,
        "streetTypeId": "CRES",
        "placeName": "BURLINGTON",
        "streetNameDisplayText": "LANI CRES, BURLINGTON"
      }
    ]
  },
  {
    "postal": "L7N8L7",
    "result": []
  },
  {
    "postal": "L7N2A8",
    "result": [
      {
        "electoralDistricts": [
          {
            "election": null,
            "id": 15,
            "name": "Burlington"
          }
        ],
        "pollDivisionIds": [
          10137339
        ],
        "postalCode": "L7N2A8",
        "streetName": "WALDEN",
        "streetDirectionId": null,
        "streetTypeId": "DR",
        "placeName": "BURLINGTON",
        "streetNameDisplayText": "WALDEN DR, BURLINGTON"
      }
    ]
  },
  {
    "postal": "L7N2K9",
    "result": [
      {
        "electoralDistricts": [
          {
            "election": null,
            "id": 15,
            "name": "Burlington"
          }
        ],
        "pollDivisionIds": [
          10137337
        ],
        "postalCode": "L7N2K9",
        "streetName": "REXWAY",
        "streetDirectionId": null,
        "streetTypeId": "DR",
        "placeName": "BURLINGTON",
        "streetNameDisplayText": "REXWAY DR, BURLINGTON"
      }
    ]
  },
  {
    "postal": "L7N3E5",
    "result": [
      {
        "electoralDistricts": [
          {
            "election": null,
            "id": 15,
            "name": "Burlington"
          }
        ],
        "pollDivisionIds": [
          10137337
        ],
        "postalCode": "L7N3E5",
        "streetName": "BRAEMORE",
        "streetDirectionId": null,
        "streetTypeId": "RD",
        "placeName": "BURLINGTON",
        "streetNameDisplayText": "BRAEMORE RD, BURLINGTON"
      }
    ]
  },
  {
    "postal": "L7N8N6",
    "result": []
  },
  {
    "postal": "L7N8J4",
    "result": []
  },
  {
    "postal": "L7N4R7",
    "result": []
  },
  {
    "postal": "L7N9K1",
    "result": []
  },
  {
    "postal": "L7N8E1",
    "result": []
  },
  {
    "postal": "L7N0R1",
    "result": []
  },
  {
    "postal": "L7N4J3",
    "result": []
  },
  {
    "postal": "L7N7E7",
    "result": []
  },
  {
    "postal": "L7N0J0",
    "result": []
  },
  {
    "postal": "L7N7R8",
    "result": []
  },
  {
    "postal": "L7N9X0",
    "result": []
  },
  {
    "postal": "L7N7P6",
    "result": []
  },
  {
    "postal": "L7N0R7",
    "result": []
  },
  {
    "postal": "L7N5W1",
    "result": []
  },
  {
    "postal": "L7N0K4",
    "result": []
  },
  {
    "postal": "L7N7N9",
    "result": []
  },
  {
    "postal": "L7N1N0",
    "result": []
  },
  {
    "postal": "L7N6P3",
    "result": []
  },
  {
    "postal": "L7N5A1",
    "result": []
  },
  {
    "postal": "L7N9M9",
    "result": []
  },
  {
    "postal": "L7N7T6",
    "result": []
  },
  {
    "postal": "L7N3X0",
    "result": []
  },
  {
    "postal": "L7N2T0",
    "result": []
  },
  {
    "postal": "L7N5X9",
    "result": []
  },
  {
    "postal": "L7N2R3",
    "result": [
      {
        "electoralDistricts": [
          {
            "election": null,
            "id": 15,
            "name": "Burlington"
          }
        ],
        "pollDivisionIds": [
          10137337
        ],
        "postalCode": "L7N2R3",
        "streetName": "ROCKWOOD",
        "streetDirectionId": null,
        "streetTypeId": "DR",
        "placeName": "BURLINGTON",
        "streetNameDisplayText": "ROCKWOOD DR, BURLINGTON"
      }
    ]
  },
  {
    "postal": "L7N5N2",
    "result": []
  },
  {
    "postal": "L7N4Y7",
    "result": []
  },
  {
    "postal": "L7N7M0",
    "result": []
  },
  {
    "postal": "L7N8P3",
    "result": []
  },
  {
    "postal": "L7N3N3",
    "result": [
      {
        "electoralDistricts": [
          {
            "election": null,
            "id": 15,
            "name": "Burlington"
          }
        ],
        "pollDivisionIds": [
          10137339
        ],
        "postalCode": "L7N3N3",
        "streetName": "SIMON",
        "streetDirectionId": null,
        "streetTypeId": "DR",
        "placeName": "BURLINGTON",
        "streetNameDisplayText": "SIMON DR, BURLINGTON"
      }
    ]
  },
  {
    "postal": "L7N7S3",
    "result": []
  },
  {
    "postal": "L7N3V9",
    "result": [
      {
        "electoralDistricts": [
          {
            "election": null,
            "id": 15,
            "name": "Burlington"
          }
        ],
        "pollDivisionIds": [
          10137338
        ],
        "postalCode": "L7N3V9",
        "streetName": "NEW",
        "streetDirectionId": null,
        "streetTypeId": "ST",
        "placeName": "BURLINGTON",
        "streetNameDisplayText": "NEW ST, BURLINGTON"
      }
    ]
  },
  {
    "postal": "L7N9N7",
    "result": []
  },
  {
    "postal": "L7N0G4",
    "result": []
  },
  {
    "postal": "L7N2E2",
    "result": [
      {
        "electoralDistricts": [
          {
            "election": null,
            "id": 15,
            "name": "Burlington"
          }
        ],
        "pollDivisionIds": [
          10137339,
          10137337
        ],
        "postalCode": "L7N2E2",
        "streetName": "WALKER'S",
        "streetDirectionId": null,
        "streetTypeId": "LINE",
        "placeName": "BURLINGTON",
        "streetNameDisplayText": "WALKER'S LINE, BURLINGTON"
      }
    ]
  },
  {
    "postal": "L7N7W8",
    "result": []
  },
  {
    "postal": "L7N7M5",
    "result": []
  },
  {
    "postal": "L7N5W8",
    "result": []
  },
  {
    "postal": "L7N5E5",
    "result": []
  },
  {
    "postal": "L7N1P9",
    "result": [
      {
        "electoralDistricts": [
          {
            "election": null,
            "id": 15,
            "name": "Burlington"
          }
        ],
        "pollDivisionIds": [
          10137340
        ],
        "postalCode": "L7N1P9",
        "streetName": "ROSSMORE",
        "streetDirectionId": null,
        "streetTypeId": "BLVD",
        "placeName": "BURLINGTON",
        "streetNameDisplayText": "ROSSMORE BLVD, BURLINGTON"
      }
    ]
  },
  {
    "postal": "L7N8V8",
    "result": []
  },
  {
    "postal": "L7N9G8",
    "result": []
  },
  {
    "postal": "L7N8H9",
    "result": []
  },
  {
    "postal": "L7N1Z1",
    "result": [
      {
        "electoralDistricts": [
          {
            "election": null,
            "id": 15,
            "name": "Burlington"
          }
        ],
        "pollDivisionIds": [
          10137339
        ],
        "postalCode": "L7N1Z1",
        "streetName": "LAKEVIEW",
        "streetDirectionId": null,
        "streetTypeId": "AVE",
        "placeName": "BURLINGTON",
        "streetNameDisplayText": "LAKEVIEW AVE, BURLINGTON"
      }
    ]
  },
  {
    "postal": "L7N8M3",
    "result": []
  },
  {
    "postal": "L7N5H6",
    "result": []
  },
  {
    "postal": "L7N7W7",
    "result": []
  },
  {
    "postal": "L7N4L0",
    "result": []
  },
  {
    "postal": "L7N2N1",
    "result": [
      {
        "electoralDistricts": [
          {
            "election": null,
            "id": 15,
            "name": "Burlington"
          }
        ],
        "pollDivisionIds": [
          10137337
        ],
        "postalCode": "L7N2N1",
        "streetName": "BRAEMORE",
        "streetDirectionId": null,
        "streetTypeId": "PL",
        "placeName": "BURLINGTON",
        "streetNameDisplayText": "BRAEMORE PL, BURLINGTON"
      }
    ]
  },
  {
    "postal": "L7N2H4",
    "result": [
      {
        "electoralDistricts": [
          {
            "election": null,
            "id": 15,
            "name": "Burlington"
          }
        ],
        "pollDivisionIds": [
          10137338
        ],
        "postalCode": "L7N2H4",
        "streetName": "GLENCREST",
        "streetDirectionId": null,
        "streetTypeId": "RD",
        "placeName": "BURLINGTON",
        "streetNameDisplayText": "GLENCREST RD, BURLINGTON"
      }
    ]
  },
  {
    "postal": "L7N5C8",
    "result": []
  },
  {
    "postal": "L7N8B0",
    "result": []
  },
  {
    "postal": "L7N1T4",
    "result": [
      {
        "electoralDistricts": [
          {
            "election": null,
            "id": 15,
            "name": "Burlington"
          }
        ],
        "pollDivisionIds": [
          10137340
        ],
        "postalCode": "L7N1T4",
        "streetName": "POMONA",
        "streetDirectionId": null,
        "streetTypeId": "AVE",
        "placeName": "BURLINGTON",
        "streetNameDisplayText": "POMONA AVE, BURLINGTON"
      }
    ]
  },
  {
    "postal": "L7N7N7",
    "result": []
  },
  {
    "postal": "L7N4L3",
    "result": []
  },
  {
    "postal": "L7N2N2",
    "result": [
      {
        "electoralDistricts": [
          {
            "election": null,
            "id": 15,
            "name": "Burlington"
          }
        ],
        "pollDivisionIds": [
          10137337
        ],
        "postalCode": "L7N2N2",
        "streetName": "BRAEMORE",
        "streetDirectionId": null,
        "streetTypeId": "PL",
        "placeName": "BURLINGTON",
        "streetNameDisplayText": "BRAEMORE PL, BURLINGTON"
      }
    ]
  },
  {
    "postal": "L7N4N8",
    "result": []
  },
  {
    "postal": "L7N3M5",
    "result": [
      {
        "electoralDistricts": [
          {
            "election": null,
            "id": 15,
            "name": "Burlington"
          }
        ],
        "pollDivisionIds": [
          10137337
        ],
        "postalCode": "L7N3M5",
        "streetName": "PROSPECT",
        "streetDirectionId": null,
        "streetTypeId": "ST",
        "placeName": "BURLINGTON",
        "streetNameDisplayText": "PROSPECT ST, BURLINGTON"
      }
    ]
  },
  {
    "postal": "L7N6H7",
    "result": []
  },
  {
    "postal": "L7N8Y8",
    "result": []
  },
  {
    "postal": "L7N5R9",
    "result": []
  },
  {
    "postal": "L7N8G3",
    "result": []
  },
  {
    "postal": "L7N4N7",
    "result": []
  },
  {
    "postal": "L7N0B9",
    "result": []
  },
  {
    "postal": "L7N9K7",
    "result": []
  },
  {
    "postal": "L7N9K9",
    "result": []
  },
  {
    "postal": "L7N3Z2",
    "result": []
  },
  {
    "postal": "L7N6W7",
    "result": []
  },
  {
    "postal": "L7N0P1",
    "result": []
  },
  {
    "postal": "L7N3A0",
    "result": []
  },
  {
    "postal": "L7N8L9",
    "result": []
  },
  {
    "postal": "L7N6X0",
    "result": []
  },
  {
    "postal": "L7N3E9",
    "result": [
      {
        "electoralDistricts": [
          {
            "election": null,
            "id": 15,
            "name": "Burlington"
          }
        ],
        "pollDivisionIds": [
          10137337
        ],
        "postalCode": "L7N3E9",
        "streetName": "SOUTH SERVICE",
        "streetDirectionId": null,
        "streetTypeId": "RD",
        "placeName": "BURLINGTON",
        "streetNameDisplayText": "SOUTH SERVICE RD, BURLINGTON"
      }
    ]
  },
  {
    "postal": "L7N0S5",
    "result": []
  },
  {
    "postal": "L7N1A2",
    "result": [
      {
        "electoralDistricts": [
          {
            "election": null,
            "id": 15,
            "name": "Burlington"
          }
        ],
        "pollDivisionIds": [
          10137340
        ],
        "postalCode": "L7N1A2",
        "streetName": "LAKESHORE",
        "streetDirectionId": null,
        "streetTypeId": "RD",
        "placeName": "BURLINGTON",
        "streetNameDisplayText": "LAKESHORE RD, BURLINGTON"
      }
    ]
  },
  {
    "postal": "L7N5V8",
    "result": []
  },
  {
    "postal": "L7N8C5",
    "result": []
  },
  {
    "postal": "L7N6N0",
    "result": []
  },
  {
    "postal": "L7N9E6",
    "result": []
  },
  {
    "postal": "L7N5J7",
    "result": []
  },
  {
    "postal": "L7N2R2",
    "result": [
      {
        "electoralDistricts": [
          {
            "election": null,
            "id": 15,
            "name": "Burlington"
          }
        ],
        "pollDivisionIds": [
          10137337
        ],
        "postalCode": "L7N2R2",
        "streetName": "ROCKWOOD",
        "streetDirectionId": null,
        "streetTypeId": "DR",
        "placeName": "BURLINGTON",
        "streetNameDisplayText": "ROCKWOOD DR, BURLINGTON"
      }
    ]
  },
  {
    "postal": "L7N0P5",
    "result": []
  },
  {
    "postal": "L7N5A7",
    "result": []
  },
  {
    "postal": "L7N1G1",
    "result": [
      {
        "electoralDistricts": [
          {
            "election": null,
            "id": 15,
            "name": "Burlington"
          }
        ],
        "pollDivisionIds": [
          10137340
        ],
        "postalCode": "L7N1G1",
        "streetName": "PRINCESS",
        "streetDirectionId": null,
        "streetTypeId": "BLVD",
        "placeName": "BURLINGTON",
        "streetNameDisplayText": "PRINCESS BLVD, BURLINGTON"
      }
    ]
  },
  {
    "postal": "L7N9R6",
    "result": []
  },
  {
    "postal": "L7N4Z9",
    "result": []
  },
  {
    "postal": "L7N1V5",
    "result": [
      {
        "electoralDistricts": [
          {
            "election": null,
            "id": 15,
            "name": "Burlington"
          }
        ],
        "pollDivisionIds": [
          10137340
        ],
        "postalCode": "L7N1V5",
        "streetName": "JOHNSTON",
        "streetDirectionId": null,
        "streetTypeId": "DR",
        "placeName": "BURLINGTON",
        "streetNameDisplayText": "JOHNSTON DR, BURLINGTON"
      }
    ]
  },
  {
    "postal": "L7N9Y5",
    "result": []
  },
  {
    "postal": "L7N1P2",
    "result": [
      {
        "electoralDistricts": [
          {
            "election": null,
            "id": 15,
            "name": "Burlington"
          }
        ],
        "pollDivisionIds": [
          10137340
        ],
        "postalCode": "L7N1P2",
        "streetName": "HART",
        "streetDirectionId": null,
        "streetTypeId": "AVE",
        "placeName": "BURLINGTON",
        "streetNameDisplayText": "HART AVE, BURLINGTON"
      }
    ]
  },
  {
    "postal": "L7N5X0",
    "result": []
  },
  {
    "postal": "L7N7B8",
    "result": []
  },
  {
    "postal": "L7N0C6",
    "result": []
  },
  {
    "postal": "L7N6G1",
    "result": []
  },
  {
    "postal": "L7N3K3",
    "result": [
      {
        "electoralDistricts": [
          {
            "election": null,
            "id": 15,
            "name": "Burlington"
          }
        ],
        "pollDivisionIds": [
          10137339
        ],
        "postalCode": "L7N3K3",
        "streetName": "RUBENS",
        "streetDirectionId": null,
        "streetTypeId": "CRT",
        "placeName": "BURLINGTON",
        "streetNameDisplayText": "RUBENS CRT, BURLINGTON"
      }
    ]
  },
  {
    "postal": "L7N9R0",
    "result": []
  },
  {
    "postal": "L7N4R8",
    "result": []
  },
  {
    "postal": "L7N5P9",
    "result": []
  },
  {
    "postal": "L7N8N4",
    "result": []
  },
  {
    "postal": "L7N8H4",
    "result": []
  },
  {
    "postal": "L7N4V1",
    "result": []
  },
  {
    "postal": "L7N1K5",
    "result": [
      {
        "electoralDistricts": [
          {
            "election": null,
            "id": 15,
            "name": "Burlington"
          }
        ],
        "pollDivisionIds": [
          10137339
        ],
        "postalCode": "L7N1K5",
        "streetName": "SPRUCE",
        "streetDirectionId": null,
        "streetTypeId": "AVE",
        "placeName": "BURLINGTON",
        "streetNameDisplayText": "SPRUCE AVE, BURLINGTON"
      }
    ]
  },
  {
    "postal": "L7N1Z5",
    "result": [
      {
        "electoralDistricts": [
          {
            "election": null,
            "id": 15,
            "name": "Burlington"
          }
        ],
        "pollDivisionIds": [
          10137340
        ],
        "postalCode": "L7N1Z5",
        "streetName": "MONICA",
        "streetDirectionId": null,
        "streetTypeId": "CRES",
        "placeName": "BURLINGTON",
        "streetNameDisplayText": "MONICA CRES, BURLINGTON"
      }
    ]
  },
  {
    "postal": "L7N9L9",
    "result": []
  },
  {
    "postal": "L7N5L2",
    "result": []
  },
  {
    "postal": "L7N0M2",
    "result": []
  },
  {
    "postal": "L7N1K8",
    "result": [
      {
        "electoralDistricts": [
          {
            "election": null,
            "id": 15,
            "name": "Burlington"
          }
        ],
        "pollDivisionIds": [
          10137340
        ],
        "postalCode": "L7N1K8",
        "streetName": "WOODLAND PARK",
        "streetDirectionId": null,
        "streetTypeId": "DR",
        "placeName": "BURLINGTON",
        "streetNameDisplayText": "WOODLAND PARK DR, BURLINGTON"
      }
    ]
  },
  {
    "postal": "L7N3M7",
    "result": [
      {
        "electoralDistricts": [
          {
            "election": null,
            "id": 15,
            "name": "Burlington"
          }
        ],
        "pollDivisionIds": [
          10137337
        ],
        "postalCode": "L7N3M7",
        "streetName": "HARVESTER",
        "streetDirectionId": null,
        "streetTypeId": "RD",
        "placeName": "BURLINGTON",
        "streetNameDisplayText": "HARVESTER RD, BURLINGTON"
      }
    ]
  },
  {
    "postal": "L7N1B2",
    "result": [
      {
        "electoralDistricts": [
          {
            "election": null,
            "id": 15,
            "name": "Burlington"
          }
        ],
        "pollDivisionIds": [
          10137339
        ],
        "postalCode": "L7N1B2",
        "streetName": "LAKESHORE",
        "streetDirectionId": null,
        "streetTypeId": "RD",
        "placeName": "BURLINGTON",
        "streetNameDisplayText": "LAKESHORE RD, BURLINGTON"
      }
    ]
  },
  {
    "postal": "L7N0H9",
    "result": []
  },
  {
    "postal": "L7N8M4",
    "result": []
  },
  {
    "postal": "L7N2M5",
    "result": [
      {
        "electoralDistricts": [
          {
            "election": null,
            "id": 15,
            "name": "Burlington"
          }
        ],
        "pollDivisionIds": [
          10137337,
          10137338
        ],
        "postalCode": "L7N2M5",
        "streetName": "WOODWARD",
        "streetDirectionId": null,
        "streetTypeId": "AVE",
        "placeName": "BURLINGTON",
        "streetNameDisplayText": "WOODWARD AVE, BURLINGTON"
      }
    ]
  },
  {
    "postal": "L7N0T9",
    "result": []
  },
  {
    "postal": "L7N3P1",
    "result": [
      {
        "electoralDistricts": [
          {
            "election": null,
            "id": 15,
            "name": "Burlington"
          }
        ],
        "pollDivisionIds": [
          10137337
        ],
        "postalCode": "L7N3P1",
        "streetName": "WOODWARD",
        "streetDirectionId": null,
        "streetTypeId": "AVE",
        "placeName": "BURLINGTON",
        "streetNameDisplayText": "WOODWARD AVE, BURLINGTON"
      }
    ]
  },
  {
    "postal": "L7N1R6",
    "result": [
      {
        "electoralDistricts": [
          {
            "election": null,
            "id": 15,
            "name": "Burlington"
          }
        ],
        "pollDivisionIds": [
          10137340
        ],
        "postalCode": "L7N1R6",
        "streetName": "ROSSMORE",
        "streetDirectionId": null,
        "streetTypeId": "BLVD",
        "placeName": "BURLINGTON",
        "streetNameDisplayText": "ROSSMORE BLVD, BURLINGTON"
      }
    ]
  },
  {
    "postal": "L7N9V5",
    "result": []
  },
  {
    "postal": "L7N9T0",
    "result": []
  },
  {
    "postal": "L7N0A9",
    "result": []
  },
  {
    "postal": "L7N1M3",
    "result": [
      {
        "electoralDistricts": [
          {
            "election": null,
            "id": 15,
            "name": "Burlington"
          }
        ],
        "pollDivisionIds": [
          10137339
        ],
        "postalCode": "L7N1M3",
        "streetName": "REGAL",
        "streetDirectionId": null,
        "streetTypeId": "RD",
        "placeName": "BURLINGTON",
        "streetNameDisplayText": "REGAL RD, BURLINGTON"
      }
    ]
  },
  {
    "postal": "L7N1W8",
    "result": [
      {
        "electoralDistricts": [
          {
            "election": null,
            "id": 15,
            "name": "Burlington"
          }
        ],
        "pollDivisionIds": [
          10137339
        ],
        "postalCode": "L7N1W8",
        "streetName": "OAKWOOD",
        "streetDirectionId": null,
        "streetTypeId": "CRT",
        "placeName": "BURLINGTON",
        "streetNameDisplayText": "OAKWOOD CRT, BURLINGTON"
      }
    ]
  },
  {
    "postal": "L7N9J1",
    "result": []
  },
  {
    "postal": "L7N8N5",
    "result": []
  },
  {
    "postal": "L7N5X1",
    "result": []
  },
  {
    "postal": "L7N6S2",
    "result": []
  },
  {
    "postal": "L7N2A2",
    "result": [
      {
        "electoralDistricts": [
          {
            "election": null,
            "id": 15,
            "name": "Burlington"
          }
        ],
        "pollDivisionIds": [
          10137339
        ],
        "postalCode": "L7N2A2",
        "streetName": "SWINBURNE",
        "streetDirectionId": null,
        "streetTypeId": "RD",
        "placeName": "BURLINGTON",
        "streetNameDisplayText": "SWINBURNE RD, BURLINGTON"
      }
    ]
  },
  {
    "postal": "L7N6A6",
    "result": []
  },
  {
    "postal": "L7N0S3",
    "result": []
  },
  {
    "postal": "L7N3E7",
    "result": [
      {
        "electoralDistricts": [
          {
            "election": null,
            "id": 15,
            "name": "Burlington"
          }
        ],
        "pollDivisionIds": [
          10137337
        ],
        "postalCode": "L7N3E7",
        "streetName": "CHESTNUT",
        "streetDirectionId": null,
        "streetTypeId": "PL",
        "placeName": "BURLINGTON",
        "streetNameDisplayText": "CHESTNUT PL, BURLINGTON"
      }
    ]
  },
  {
    "postal": "L7N5R7",
    "result": []
  },
  {
    "postal": "L7N3R6",
    "result": []
  },
  {
    "postal": "L7N6K4",
    "result": []
  },
  {
    "postal": "L7N2W5",
    "result": [
      {
        "electoralDistricts": [
          {
            "election": null,
            "id": 15,
            "name": "Burlington"
          }
        ],
        "pollDivisionIds": [
          10137337
        ],
        "postalCode": "L7N2W5",
        "streetName": "HILLFAIR",
        "streetDirectionId": null,
        "streetTypeId": "PL",
        "placeName": "BURLINGTON",
        "streetNameDisplayText": "HILLFAIR PL, BURLINGTON"
      }
    ]
  },
  {
    "postal": "L7N8W4",
    "result": []
  },
  {
    "postal": "L7N9C2",
    "result": []
  },
  {
    "postal": "L7N2C0",
    "result": []
  },
  {
    "postal": "L7N0E1",
    "result": []
  },
  {
    "postal": "L7N1K9",
    "result": [
      {
        "electoralDistricts": [
          {
            "election": null,
            "id": 15,
            "name": "Burlington"
          }
        ],
        "pollDivisionIds": [
          10137340
        ],
        "postalCode": "L7N1K9",
        "streetName": "WOODLAND PARK",
        "streetDirectionId": null,
        "streetTypeId": "DR",
        "placeName": "BURLINGTON",
        "streetNameDisplayText": "WOODLAND PARK DR, BURLINGTON"
      }
    ]
  },
  {
    "postal": "L7N1G7",
    "result": [
      {
        "electoralDistricts": [
          {
            "election": null,
            "id": 15,
            "name": "Burlington"
          }
        ],
        "pollDivisionIds": [
          10137340
        ],
        "postalCode": "L7N1G7",
        "streetName": "DOUGLAS",
        "streetDirectionId": null,
        "streetTypeId": "ST",
        "placeName": "BURLINGTON",
        "streetNameDisplayText": "DOUGLAS ST, BURLINGTON"
      }
    ]
  },
  {
    "postal": "L7N4E9",
    "result": []
  },
  {
    "postal": "L7N9P0",
    "result": []
  },
  {
    "postal": "L7N5H3",
    "result": []
  },
  {
    "postal": "L7N9X6",
    "result": []
  },
  {
    "postal": "L7N5N7",
    "result": []
  },
  {
    "postal": "L7N5A6",
    "result": []
  },
  {
    "postal": "L7N4M0",
    "result": []
  },
  {
    "postal": "L7N3V6",
    "result": [
      {
        "electoralDistricts": [
          {
            "election": null,
            "id": 15,
            "name": "Burlington"
          }
        ],
        "pollDivisionIds": [
          10137337
        ],
        "postalCode": "L7N3V6",
        "streetName": "LAURENTIAN",
        "streetDirectionId": null,
        "streetTypeId": "DR",
        "placeName": "BURLINGTON",
        "streetNameDisplayText": "LAURENTIAN DR, BURLINGTON"
      }
    ]
  },
  {
    "postal": "L7N1L7",
    "result": [
      {
        "electoralDistricts": [
          {
            "election": null,
            "id": 15,
            "name": "Burlington"
          }
        ],
        "pollDivisionIds": [
          10137340
        ],
        "postalCode": "L7N1L7",
        "streetName": "GUILDWOOD",
        "streetDirectionId": null,
        "streetTypeId": "DR",
        "placeName": "BURLINGTON",
        "streetNameDisplayText": "GUILDWOOD DR, BURLINGTON"
      }
    ]
  },
  {
    "postal": "L7N2P9",
    "result": [
      {
        "electoralDistricts": [
          {
            "election": null,
            "id": 15,
            "name": "Burlington"
          }
        ],
        "pollDivisionIds": [
          10137337
        ],
        "postalCode": "L7N2P9",
        "streetName": "CAPLAN",
        "streetDirectionId": null,
        "streetTypeId": "CRES",
        "placeName": "BURLINGTON",
        "streetNameDisplayText": "CAPLAN CRES, BURLINGTON"
      }
    ]
  },
  {
    "postal": "L7N5T4",
    "result": []
  },
  {
    "postal": "L7N5Z1",
    "result": []
  },
  {
    "postal": "L7N2X0",
    "result": []
  },
  {
    "postal": "L7N6Z2",
    "result": []
  },
  {
    "postal": "L7N0E0",
    "result": []
  },
  {
    "postal": "L7N3Z5",
    "result": []
  },
  {
    "postal": "L7N8H3",
    "result": []
  },
  {
    "postal": "L7N7S6",
    "result": []
  },
  {
    "postal": "L7N4C1",
    "result": []
  },
  {
    "postal": "L7N3K2",
    "result": [
      {
        "electoralDistricts": [
          {
            "election": null,
            "id": 15,
            "name": "Burlington"
          }
        ],
        "pollDivisionIds": [
          10137339
        ],
        "postalCode": "L7N3K2",
        "streetName": "WALKER'S",
        "streetDirectionId": null,
        "streetTypeId": "LINE",
        "placeName": "BURLINGTON",
        "streetNameDisplayText": "WALKER'S LINE, BURLINGTON"
      }
    ]
  },
  {
    "postal": "L7N1Y5",
    "result": [
      {
        "electoralDistricts": [
          {
            "election": null,
            "id": 15,
            "name": "Burlington"
          }
        ],
        "pollDivisionIds": [
          10137339
        ],
        "postalCode": "L7N1Y5",
        "streetName": "LAKESIDE",
        "streetDirectionId": null,
        "streetTypeId": "AVE",
        "placeName": "BURLINGTON",
        "streetNameDisplayText": "LAKESIDE AVE, BURLINGTON"
      }
    ]
  },
  {
    "postal": "L7N6P6",
    "result": []
  },
  {
    "postal": "L7N3N9",
    "result": [
      {
        "electoralDistricts": [
          {
            "election": null,
            "id": 15,
            "name": "Burlington"
          }
        ],
        "pollDivisionIds": [
          10137337
        ],
        "postalCode": "L7N3N9",
        "streetName": "FAIRVIEW",
        "streetDirectionId": null,
        "streetTypeId": "ST",
        "placeName": "BURLINGTON",
        "streetNameDisplayText": "FAIRVIEW ST, BURLINGTON"
      }
    ]
  },
  {
    "postal": "L7N3W2",
    "result": [
      {
        "electoralDistricts": [
          {
            "election": null,
            "id": 15,
            "name": "Burlington"
          }
        ],
        "pollDivisionIds": [
          10137339
        ],
        "postalCode": "L7N3W2",
        "streetName": "NEW",
        "streetDirectionId": null,
        "streetTypeId": "ST",
        "placeName": "BURLINGTON",
        "streetNameDisplayText": "NEW ST, BURLINGTON"
      }
    ]
  },
  {
    "postal": "L7N6H8",
    "result": []
  },
  {
    "postal": "L7N9T3",
    "result": []
  },
  {
    "postal": "L7N5L9",
    "result": []
  },
  {
    "postal": "L7N7X7",
    "result": []
  },
  {
    "postal": "L7N3J5",
    "result": [
      {
        "electoralDistricts": [
          {
            "election": null,
            "id": 15,
            "name": "Burlington"
          }
        ],
        "pollDivisionIds": [
          10137337
        ],
        "postalCode": "L7N3J5",
        "streetName": "SOUTH SERVICE",
        "streetDirectionId": null,
        "streetTypeId": "RD",
        "placeName": "BURLINGTON",
        "streetNameDisplayText": "SOUTH SERVICE RD, BURLINGTON"
      }
    ]
  },
  {
    "postal": "L7N4J5",
    "result": []
  },
  {
    "postal": "L7N6J2",
    "result": []
  },
  {
    "postal": "L7N5V6",
    "result": []
  },
  {
    "postal": "L7N3N2",
    "result": [
      {
        "electoralDistricts": [
          {
            "election": null,
            "id": 15,
            "name": "Burlington"
          }
        ],
        "pollDivisionIds": [
          10137337
        ],
        "postalCode": "L7N3N2",
        "streetName": "HARVESTER",
        "streetDirectionId": null,
        "streetTypeId": "RD",
        "placeName": "BURLINGTON",
        "streetNameDisplayText": "HARVESTER RD, BURLINGTON"
      },
      {
        "electoralDistricts": [
          {
            "election": null,
            "id": 75,
            "name": "Oakville NorthBurlington"
          }
        ],
        "pollDivisionIds": [
          10140415
        ],
        "postalCode": "L7N3N2",
        "streetName": "ORCHARD",
        "streetDirectionId": null,
        "streetTypeId": "RD",
        "placeName": "BURLINGTON",
        "streetNameDisplayText": "ORCHARD RD, BURLINGTON"
      }
    ]
  },
  {
    "postal": "L7N3B1",
    "result": [
      {
        "electoralDistricts": [
          {
            "election": null,
            "id": 15,
            "name": "Burlington"
          }
        ],
        "pollDivisionIds": [
          10137337
        ],
        "postalCode": "L7N3B1",
        "streetName": "JENNIFER",
        "streetDirectionId": null,
        "streetTypeId": "CRES",
        "placeName": "BURLINGTON",
        "streetNameDisplayText": "JENNIFER CRES, BURLINGTON"
      }
    ]
  },
  {
    "postal": "L7N8B5",
    "result": []
  },
  {
    "postal": "L7N0K1",
    "result": []
  },
  {
    "postal": "L7N7M7",
    "result": []
  },
  {
    "postal": "L7N2M2",
    "result": [
      {
        "electoralDistricts": [
          {
            "election": null,
            "id": 15,
            "name": "Burlington"
          }
        ],
        "pollDivisionIds": [
          10137338
        ],
        "postalCode": "L7N2M2",
        "streetName": "WOODWARD",
        "streetDirectionId": null,
        "streetTypeId": "AVE",
        "placeName": "BURLINGTON",
        "streetNameDisplayText": "WOODWARD AVE, BURLINGTON"
      }
    ]
  },
  {
    "postal": "L7N9N3",
    "result": []
  },
  {
    "postal": "L7N4Y8",
    "result": []
  },
  {
    "postal": "L7N3V7",
    "result": [
      {
        "electoralDistricts": [
          {
            "election": null,
            "id": 15,
            "name": "Burlington"
          }
        ],
        "pollDivisionIds": [
          10137340
        ],
        "postalCode": "L7N3V7",
        "streetName": "CUMBERLAND",
        "streetDirectionId": null,
        "streetTypeId": "AVE",
        "placeName": "BURLINGTON",
        "streetNameDisplayText": "CUMBERLAND AVE, BURLINGTON"
      }
    ]
  },
  {
    "postal": "L7N8Z1",
    "result": []
  },
  {
    "postal": "L7N7B3",
    "result": []
  },
  {
    "postal": "L7N3A8",
    "result": [
      {
        "electoralDistricts": [
          {
            "election": null,
            "id": 15,
            "name": "Burlington"
          }
        ],
        "pollDivisionIds": [
          10137337
        ],
        "postalCode": "L7N3A8",
        "streetName": "RONALD",
        "streetDirectionId": null,
        "streetTypeId": "DR",
        "placeName": "BURLINGTON",
        "streetNameDisplayText": "RONALD DR, BURLINGTON"
      }
    ]
  },
  {
    "postal": "L7N7V5",
    "result": []
  },
  {
    "postal": "L7N2T2",
    "result": [
      {
        "electoralDistricts": [
          {
            "election": null,
            "id": 15,
            "name": "Burlington"
          }
        ],
        "pollDivisionIds": [
          10137338
        ],
        "postalCode": "L7N2T2",
        "streetName": "ROSEDALE",
        "streetDirectionId": null,
        "streetTypeId": "CRES",
        "placeName": "BURLINGTON",
        "streetNameDisplayText": "ROSEDALE CRES, BURLINGTON"
      }
    ]
  },
  {
    "postal": "L7N6L3",
    "result": []
  },
  {
    "postal": "L7N0L2",
    "result": []
  },
  {
    "postal": "L7N5Y8",
    "result": []
  },
  {
    "postal": "L7N0B8",
    "result": []
  },
  {
    "postal": "L7N6R5",
    "result": []
  },
  {
    "postal": "L7N8W6",
    "result": []
  },
  {
    "postal": "L7N8G6",
    "result": []
  },
  {
    "postal": "L7N6X3",
    "result": []
  },
  {
    "postal": "L7N7R7",
    "result": []
  },
  {
    "postal": "L7N4B6",
    "result": []
  },
  {
    "postal": "L7N3P9",
    "result": [
      {
        "electoralDistricts": [
          {
            "election": null,
            "id": 15,
            "name": "Burlington"
          }
        ],
        "pollDivisionIds": [
          10137340
        ],
        "postalCode": "L7N3P9",
        "streetName": "WOODVIEW",
        "streetDirectionId": null,
        "streetTypeId": "RD",
        "placeName": "BURLINGTON",
        "streetNameDisplayText": "WOODVIEW RD, BURLINGTON"
      }
    ]
  },
  {
    "postal": "L7N2T3",
    "result": [
      {
        "electoralDistricts": [
          {
            "election": null,
            "id": 15,
            "name": "Burlington"
          }
        ],
        "pollDivisionIds": [
          10137338
        ],
        "postalCode": "L7N2T3",
        "streetName": "ROSEDALE",
        "streetDirectionId": null,
        "streetTypeId": "CRES",
        "placeName": "BURLINGTON",
        "streetNameDisplayText": "ROSEDALE CRES, BURLINGTON"
      }
    ]
  },
  {
    "postal": "L7N1M4",
    "result": [
      {
        "electoralDistricts": [
          {
            "election": null,
            "id": 15,
            "name": "Burlington"
          }
        ],
        "pollDivisionIds": [
          10137339
        ],
        "postalCode": "L7N1M4",
        "streetName": "REGAL",
        "streetDirectionId": null,
        "streetTypeId": "RD",
        "placeName": "BURLINGTON",
        "streetNameDisplayText": "REGAL RD, BURLINGTON"
      }
    ]
  },
  {
    "postal": "L7N0H1",
    "result": []
  },
  {
    "postal": "L7N9W3",
    "result": []
  },
  {
    "postal": "L7N6P1",
    "result": []
  },
  {
    "postal": "L7N7G2",
    "result": []
  },
  {
    "postal": "L7N4J9",
    "result": []
  },
  {
    "postal": "L7N9E4",
    "result": []
  },
  {
    "postal": "L7N8H0",
    "result": []
  },
  {
    "postal": "L7N4M7",
    "result": []
  },
  {
    "postal": "L7N2G9",
    "result": [
      {
        "electoralDistricts": [
          {
            "election": null,
            "id": 15,
            "name": "Burlington"
          }
        ],
        "pollDivisionIds": [
          10137337
        ],
        "postalCode": "L7N2G9",
        "streetName": "SPRUCEHILL",
        "streetDirectionId": null,
        "streetTypeId": "AVE",
        "placeName": "BURLINGTON",
        "streetNameDisplayText": "SPRUCEHILL AVE, BURLINGTON"
      }
    ]
  },
  {
    "postal": "L7N8T2",
    "result": []
  },
  {
    "postal": "L7N7G7",
    "result": []
  },
  {
    "postal": "L7N4Z3",
    "result": []
  },
  {
    "postal": "L7N5B3",
    "result": []
  },
  {
    "postal": "L7N1S7",
    "result": [
      {
        "electoralDistricts": [
          {
            "election": null,
            "id": 15,
            "name": "Burlington"
          }
        ],
        "pollDivisionIds": [
          10137340
        ],
        "postalCode": "L7N1S7",
        "streetName": "SOUTH",
        "streetDirectionId": null,
        "streetTypeId": "CRT",
        "placeName": "BURLINGTON",
        "streetNameDisplayText": "SOUTH CRT, BURLINGTON"
      }
    ]
  },
  {
    "postal": "L7N2N7",
    "result": [
      {
        "electoralDistricts": [
          {
            "election": null,
            "id": 15,
            "name": "Burlington"
          }
        ],
        "pollDivisionIds": [
          10137337
        ],
        "postalCode": "L7N2N7",
        "streetName": "MANFRED",
        "streetDirectionId": null,
        "streetTypeId": "DR",
        "placeName": "BURLINGTON",
        "streetNameDisplayText": "MANFRED DR, BURLINGTON"
      }
    ]
  },
  {
    "postal": "L7N0H8",
    "result": []
  },
  {
    "postal": "L7N7Z4",
    "result": []
  },
  {
    "postal": "L7N7B1",
    "result": []
  },
  {
    "postal": "L7N7P8",
    "result": []
  },
  {
    "postal": "L7N7N0",
    "result": []
  },
  {
    "postal": "L7N3Y5",
    "result": []
  },
  {
    "postal": "L7N6K1",
    "result": []
  },
  {
    "postal": "L7N9X5",
    "result": []
  },
  {
    "postal": "L7N7S5",
    "result": []
  },
  {
    "postal": "L7N0A4",
    "result": []
  },
  {
    "postal": "L7N4T5",
    "result": []
  },
  {
    "postal": "L7N5K1",
    "result": []
  },
  {
    "postal": "L7N0Z9",
    "result": []
  },
  {
    "postal": "L7N7T2",
    "result": []
  },
  {
    "postal": "L7N1L5",
    "result": [
      {
        "electoralDistricts": [
          {
            "election": null,
            "id": 15,
            "name": "Burlington"
          }
        ],
        "pollDivisionIds": [
          10137340
        ],
        "postalCode": "L7N1L5",
        "streetName": "GUILDWOOD",
        "streetDirectionId": null,
        "streetTypeId": "DR",
        "placeName": "BURLINGTON",
        "streetNameDisplayText": "GUILDWOOD DR, BURLINGTON"
      }
    ]
  },
  {
    "postal": "L7N3N5",
    "result": [
      {
        "electoralDistricts": [
          {
            "election": null,
            "id": 15,
            "name": "Burlington"
          }
        ],
        "pollDivisionIds": [
          10137339
        ],
        "postalCode": "L7N3N5",
        "streetName": "NICHOLSON",
        "streetDirectionId": null,
        "streetTypeId": "CRT",
        "placeName": "BURLINGTON",
        "streetNameDisplayText": "NICHOLSON CRT, BURLINGTON"
      }
    ]
  },
  {
    "postal": "L7N6H4",
    "result": []
  },
  {
    "postal": "L7N5A5",
    "result": []
  },
  {
    "postal": "L7N3R9",
    "result": []
  },
  {
    "postal": "L7N7L8",
    "result": []
  },
  {
    "postal": "L7N6T6",
    "result": []
  },
  {
    "postal": "L7N7Y7",
    "result": []
  },
  {
    "postal": "L7N3M8",
    "result": [
      {
        "electoralDistricts": [
          {
            "election": null,
            "id": 15,
            "name": "Burlington"
          }
        ],
        "pollDivisionIds": [
          10137337
        ],
        "postalCode": "L7N3M8",
        "streetName": "HARVESTER",
        "streetDirectionId": null,
        "streetTypeId": "RD",
        "placeName": "BURLINGTON",
        "streetNameDisplayText": "HARVESTER RD, BURLINGTON"
      }
    ]
  },
  {
    "postal": "L7N2E0",
    "result": []
  },
  {
    "postal": "L7N4B5",
    "result": []
  },
  {
    "postal": "L7N1J3",
    "result": [
      {
        "electoralDistricts": [
          {
            "election": null,
            "id": 15,
            "name": "Burlington"
          }
        ],
        "pollDivisionIds": [
          10137340
        ],
        "postalCode": "L7N1J3",
        "streetName": "SPRUCE",
        "streetDirectionId": null,
        "streetTypeId": "AVE",
        "placeName": "BURLINGTON",
        "streetNameDisplayText": "SPRUCE AVE, BURLINGTON"
      }
    ]
  },
  {
    "postal": "L7N5S6",
    "result": []
  },
  {
    "postal": "L7N8P7",
    "result": []
  },
  {
    "postal": "L7N7S7",
    "result": []
  },
  {
    "postal": "L7N4C2",
    "result": []
  },
  {
    "postal": "L7N5Y0",
    "result": []
  },
  {
    "postal": "L7N2V7",
    "result": [
      {
        "electoralDistricts": [
          {
            "election": null,
            "id": 15,
            "name": "Burlington"
          }
        ],
        "pollDivisionIds": [
          10137338
        ],
        "postalCode": "L7N2V7",
        "streetName": "DYNES",
        "streetDirectionId": null,
        "streetTypeId": "RD",
        "placeName": "BURLINGTON",
        "streetNameDisplayText": "DYNES RD, BURLINGTON"
      }
    ]
  },
  {
    "postal": "L7N8P5",
    "result": []
  },
  {
    "postal": "L7N5P5",
    "result": []
  },
  {
    "postal": "L7N5Z0",
    "result": []
  },
  {
    "postal": "L7N9B0",
    "result": []
  },
  {
    "postal": "L7N1L0",
    "result": []
  },
  {
    "postal": "L7N0B5",
    "result": []
  },
  {
    "postal": "L7N3L2",
    "result": [
      {
        "electoralDistricts": [
          {
            "election": null,
            "id": 15,
            "name": "Burlington"
          }
        ],
        "pollDivisionIds": [
          10137339
        ],
        "postalCode": "L7N3L2",
        "streetName": "RAVENSWOOD",
        "streetDirectionId": null,
        "streetTypeId": "CRT",
        "placeName": "BURLINGTON",
        "streetNameDisplayText": "RAVENSWOOD CRT, BURLINGTON"
      }
    ]
  },
  {
    "postal": "L7N3B7",
    "result": [
      {
        "electoralDistricts": [
          {
            "election": null,
            "id": 15,
            "name": "Burlington"
          }
        ],
        "pollDivisionIds": [
          10137337
        ],
        "postalCode": "L7N3B7",
        "streetName": "THORNWOOD",
        "streetDirectionId": null,
        "streetTypeId": "AVE",
        "placeName": "BURLINGTON",
        "streetNameDisplayText": "THORNWOOD AVE, BURLINGTON"
      }
    ]
  },
  {
    "postal": "L7N8L1",
    "result": []
  },
  {
    "postal": "L7N5M4",
    "result": []
  },
  {
    "postal": "L7N4G9",
    "result": []
  },
  {
    "postal": "L7N0P0",
    "result": []
  },
  {
    "postal": "L7N8G2",
    "result": []
  },
  {
    "postal": "L7N1V9",
    "result": [
      {
        "electoralDistricts": [
          {
            "election": null,
            "id": 15,
            "name": "Burlington"
          }
        ],
        "pollDivisionIds": [
          10137340
        ],
        "postalCode": "L7N1V9",
        "streetName": "WILTON",
        "streetDirectionId": null,
        "streetTypeId": "ST",
        "placeName": "BURLINGTON",
        "streetNameDisplayText": "WILTON ST, BURLINGTON"
      }
    ]
  },
  {
    "postal": "L7N8N8",
    "result": []
  },
  {
    "postal": "L7N6S8",
    "result": []
  },
  {
    "postal": "L7N8H2",
    "result": []
  },
  {
    "postal": "L7N5R8",
    "result": []
  },
  {
    "postal": "L7N5L4",
    "result": []
  },
  {
    "postal": "L7N9E1",
    "result": []
  },
  {
    "postal": "L7N1C4",
    "result": [
      {
        "electoralDistricts": [
          {
            "election": null,
            "id": 15,
            "name": "Burlington"
          }
        ],
        "pollDivisionIds": [
          10137340
        ],
        "postalCode": "L7N1C4",
        "streetName": "FIRST",
        "streetDirectionId": null,
        "streetTypeId": "ST",
        "placeName": "BURLINGTON",
        "streetNameDisplayText": "FIRST ST, BURLINGTON"
      }
    ]
  },
  {
    "postal": "L7N8W5",
    "result": []
  },
  {
    "postal": "L7N1Y4",
    "result": [
      {
        "electoralDistricts": [
          {
            "election": null,
            "id": 15,
            "name": "Burlington"
          }
        ],
        "pollDivisionIds": [
          10137339
        ],
        "postalCode": "L7N1Y4",
        "streetName": "LAKESIDE",
        "streetDirectionId": null,
        "streetTypeId": "AVE",
        "placeName": "BURLINGTON",
        "streetNameDisplayText": "LAKESIDE AVE, BURLINGTON"
      }
    ]
  },
  {
    "postal": "L7N1C0",
    "result": []
  },
  {
    "postal": "L7N2J2",
    "result": [
      {
        "electoralDistricts": [
          {
            "election": null,
            "id": 15,
            "name": "Burlington"
          }
        ],
        "pollDivisionIds": [
          10137338
        ],
        "postalCode": "L7N2J2",
        "streetName": "WILLOW",
        "streetDirectionId": null,
        "streetTypeId": "LANE",
        "placeName": "BURLINGTON",
        "streetNameDisplayText": "WILLOW LANE, BURLINGTON"
      }
    ]
  },
  {
    "postal": "L7N2J0",
    "result": []
  },
  {
    "postal": "L7N7A3",
    "result": []
  },
  {
    "postal": "L7N8M1",
    "result": []
  },
  {
    "postal": "L7N7T9",
    "result": []
  },
  {
    "postal": "L7N6C0",
    "result": []
  },
  {
    "postal": "L7N7X1",
    "result": []
  },
  {
    "postal": "L7N0G1",
    "result": []
  },
  {
    "postal": "L7N4X2",
    "result": []
  },
  {
    "postal": "L7N0N6",
    "result": []
  },
  {
    "postal": "L7N8E3",
    "result": []
  },
  {
    "postal": "L7N5S8",
    "result": []
  },
  {
    "postal": "L7N0R0",
    "result": []
  },
  {
    "postal": "L7N6J6",
    "result": []
  },
  {
    "postal": "L7N4B4",
    "result": []
  },
  {
    "postal": "L7N7E3",
    "result": []
  },
  {
    "postal": "L7N3N6",
    "result": [
      {
        "electoralDistricts": [
          {
            "election": null,
            "id": 15,
            "name": "Burlington"
          }
        ],
        "pollDivisionIds": [
          10137386,
          10137337
        ],
        "postalCode": "L7N3N6",
        "streetName": "BILLINGS",
        "streetDirectionId": null,
        "streetTypeId": "CRT",
        "placeName": "BURLINGTON",
        "streetNameDisplayText": "BILLINGS CRT, BURLINGTON"
      }
    ]
  },
  {
    "postal": "L7N3X6",
    "result": []
  },
  {
    "postal": "L7N8L0",
    "result": []
  },
  {
    "postal": "L7N8N1",
    "result": []
  },
  {
    "postal": "L7N4J0",
    "result": []
  },
  {
    "postal": "L7N0X7",
    "result": []
  },
  {
    "postal": "L7N6S4",
    "result": []
  },
  {
    "postal": "L7N0Z0",
    "result": []
  },
  {
    "postal": "L7N9X8",
    "result": []
  },
  {
    "postal": "L7N3H3",
    "result": [
      {
        "electoralDistricts": [
          {
            "election": null,
            "id": 15,
            "name": "Burlington"
          }
        ],
        "pollDivisionIds": [
          10137338
        ],
        "postalCode": "L7N3H3",
        "streetName": "DONNA",
        "streetDirectionId": null,
        "streetTypeId": "CRT",
        "placeName": "BURLINGTON",
        "streetNameDisplayText": "DONNA CRT, BURLINGTON"
      }
    ]
  },
  {
    "postal": "L7N7S2",
    "result": []
  },
  {
    "postal": "L7N3T3",
    "result": [
      {
        "electoralDistricts": [
          {
            "election": null,
            "id": 15,
            "name": "Burlington"
          }
        ],
        "pollDivisionIds": [
          10137337
        ],
        "postalCode": "L7N3T3",
        "streetName": "HARVESTER",
        "streetDirectionId": null,
        "streetTypeId": "RD",
        "placeName": "BURLINGTON",
        "streetNameDisplayText": "HARVESTER RD, BURLINGTON"
      }
    ]
  },
  {
    "postal": "L7N9P3",
    "result": []
  },
  {
    "postal": "L7N4H8",
    "result": []
  },
  {
    "postal": "L7N6R1",
    "result": []
  },
  {
    "postal": "L7N1S0",
    "result": []
  },
  {
    "postal": "L7N3W8",
    "result": [
      {
        "electoralDistricts": [
          {
            "election": null,
            "id": 15,
            "name": "Burlington"
          }
        ],
        "pollDivisionIds": [
          10137337
        ],
        "postalCode": "L7N3W8",
        "streetName": "HARVESTER",
        "streetDirectionId": null,
        "streetTypeId": "RD",
        "placeName": "BURLINGTON",
        "streetNameDisplayText": "HARVESTER RD, BURLINGTON"
      }
    ]
  },
  {
    "postal": "L7N4S3",
    "result": []
  },
  {
    "postal": "L7N1B6",
    "result": [
      {
        "electoralDistricts": [
          {
            "election": null,
            "id": 15,
            "name": "Burlington"
          }
        ],
        "pollDivisionIds": [
          10137339
        ],
        "postalCode": "L7N1B6",
        "streetName": "MALVERN",
        "streetDirectionId": null,
        "streetTypeId": "RD",
        "placeName": "BURLINGTON",
        "streetNameDisplayText": "MALVERN RD, BURLINGTON"
      }
    ]
  },
  {
    "postal": "L7N8R3",
    "result": []
  },
  {
    "postal": "L7N4V9",
    "result": []
  },
  {
    "postal": "L7N9W4",
    "result": []
  },
  {
    "postal": "L7N3T4",
    "result": [
      {
        "electoralDistricts": [
          {
            "election": null,
            "id": 15,
            "name": "Burlington"
          }
        ],
        "pollDivisionIds": [
          10137338
        ],
        "postalCode": "L7N3T4",
        "streetName": "NEW",
        "streetDirectionId": null,
        "streetTypeId": "ST",
        "placeName": "BURLINGTON",
        "streetNameDisplayText": "NEW ST, BURLINGTON"
      }
    ]
  },
  {
    "postal": "L7N5C7",
    "result": []
  },
  {
    "postal": "L7N3Y1",
    "result": []
  },
  {
    "postal": "L7N5V0",
    "result": []
  },
  {
    "postal": "L7N8G8",
    "result": []
  },
  {
    "postal": "L7N8B1",
    "result": []
  },
  {
    "postal": "L7N4P5",
    "result": []
  },
  {
    "postal": "L7N7B2",
    "result": []
  },
  {
    "postal": "L7N0R2",
    "result": []
  },
  {
    "postal": "L7N4M4",
    "result": []
  },
  {
    "postal": "L7N7M4",
    "result": []
  },
  {
    "postal": "L7N9S7",
    "result": []
  },
  {
    "postal": "L7N5Z7",
    "result": []
  },
  {
    "postal": "L7N7J7",
    "result": []
  },
  {
    "postal": "L7N8R8",
    "result": []
  },
  {
    "postal": "L7N9X1",
    "result": []
  },
  {
    "postal": "L7N5M9",
    "result": []
  },
  {
    "postal": "L7N9B4",
    "result": []
  },
  {
    "postal": "L7N0L9",
    "result": []
  },
  {
    "postal": "L7N9G4",
    "result": []
  },
  {
    "postal": "L7N1J4",
    "result": [
      {
        "electoralDistricts": [
          {
            "election": null,
            "id": 15,
            "name": "Burlington"
          }
        ],
        "pollDivisionIds": [
          10137339
        ],
        "postalCode": "L7N1J4",
        "streetName": "SPRUCE",
        "streetDirectionId": null,
        "streetTypeId": "AVE",
        "placeName": "BURLINGTON",
        "streetNameDisplayText": "SPRUCE AVE, BURLINGTON"
      }
    ]
  },
  {
    "postal": "L7N0W6",
    "result": []
  }
]
