[
  {
    "postal": "M8Y9J6",
    "result": []
  },
  {
    "postal": "M8Y9Z5",
    "result": []
  },
  {
    "postal": "M8Y7H8",
    "result": []
  },
  {
    "postal": "M8Y0P6",
    "result": []
  },
  {
    "postal": "M8Y0S7",
    "result": []
  },
  {
    "postal": "M8Y8B9",
    "result": []
  },
  {
    "postal": "M8Y2A6",
    "result": [
      {
        "electoralDistricts": [
          {
            "election": null,
            "id": 29,
            "name": "Etobicoke—Lakeshore"
          }
        ],
        "pollDivisionIds": [
          10138145
        ],
        "postalCode": "M8Y2A6",
        "streetName": "SOUTH KINGSLEA",
        "streetDirectionId": null,
        "streetTypeId": "DR",
        "placeName": "ETOBICOKE",
        "streetNameDisplayText": "SOUTH KINGSLEA DR, ETOBICOKE"
      }
    ]
  },
  {
    "postal": "M8Y7V2",
    "result": []
  },
  {
    "postal": "M8Y9P4",
    "result": []
  },
  {
    "postal": "M8Y6G0",
    "result": []
  },
  {
    "postal": "M8Y2K0",
    "result": []
  },
  {
    "postal": "M8Y7N6",
    "result": []
  },
  {
    "postal": "M8Y5R3",
    "result": []
  },
  {
    "postal": "M8Y7K0",
    "result": []
  },
  {
    "postal": "M8Y3R2",
    "result": [
      {
        "electoralDistricts": [
          {
            "election": null,
            "id": 29,
            "name": "Etobicoke—Lakeshore"
          }
        ],
        "pollDivisionIds": [
          10138153
        ],
        "postalCode": "M8Y3R2",
        "streetName": "HUMBERVALE",
        "streetDirectionId": null,
        "streetTypeId": "BLVD",
        "placeName": "ETOBICOKE",
        "streetNameDisplayText": "HUMBERVALE BLVD, ETOBICOKE"
      }
    ]
  },
  {
    "postal": "M8Y0J1",
    "result": []
  },
  {
    "postal": "M8Y0B0",
    "result": []
  },
  {
    "postal": "M8Y5Z2",
    "result": []
  },
  {
    "postal": "M8Y7P3",
    "result": []
  },
  {
    "postal": "M8Y2K3",
    "result": [
      {
        "electoralDistricts": [
          {
            "election": null,
            "id": 29,
            "name": "Etobicoke—Lakeshore"
          }
        ],
        "pollDivisionIds": [
          10138145
        ],
        "postalCode": "M8Y2K3",
        "streetName": "SUNNYLEA",
        "streetDirectionId": "E",
        "streetTypeId": "AVE",
        "placeName": "ETOBICOKE",
        "streetNameDisplayText": "SUNNYLEA AVE E, ETOBICOKE"
      }
    ]
  },
  {
    "postal": "M8Y7Y6",
    "result": []
  },
  {
    "postal": "M8Y1L9",
    "result": [
      {
        "electoralDistricts": [
          {
            "election": null,
            "id": 29,
            "name": "Etobicoke—Lakeshore"
          }
        ],
        "pollDivisionIds": [
          10138155
        ],
        "postalCode": "M8Y1L9",
        "streetName": "DANIELS",
        "streetDirectionId": null,
        "streetTypeId": "ST",
        "placeName": "ETOBICOKE",
        "streetNameDisplayText": "DANIELS ST, ETOBICOKE"
      }
    ]
  },
  {
    "postal": "M8Y8T0",
    "result": []
  },
  {
    "postal": "M8Y3K8",
    "result": [
      {
        "electoralDistricts": [
          {
            "election": null,
            "id": 29,
            "name": "Etobicoke—Lakeshore"
          }
        ],
        "pollDivisionIds": [
          10138153
        ],
        "postalCode": "M8Y3K8",
        "streetName": "FRANCES",
        "streetDirectionId": null,
        "streetTypeId": "AVE",
        "placeName": "ETOBICOKE",
        "streetNameDisplayText": "FRANCES AVE, ETOBICOKE"
      }
    ]
  },
  {
    "postal": "M8Y5W9",
    "result": []
  },
  {
    "postal": "M8Y6T9",
    "result": []
  },
  {
    "postal": "M8Y4H1",
    "result": [
      {
        "electoralDistricts": [
          {
            "election": null,
            "id": 29,
            "name": "Etobicoke—Lakeshore"
          }
        ],
        "pollDivisionIds": [
          10138144
        ],
        "postalCode": "M8Y4H1",
        "streetName": "ROYAL YORK",
        "streetDirectionId": null,
        "streetTypeId": "RD",
        "placeName": "ETOBICOKE",
        "streetNameDisplayText": "ROYAL YORK RD, ETOBICOKE"
      }
    ]
  },
  {
    "postal": "M8Y7A2",
    "result": []
  },
  {
    "postal": "M8Y5G0",
    "result": []
  },
  {
    "postal": "M8Y8V5",
    "result": []
  },
  {
    "postal": "M8Y2Y8",
    "result": []
  },
  {
    "postal": "M8Y2B6",
    "result": [
      {
        "electoralDistricts": [
          {
            "election": null,
            "id": 29,
            "name": "Etobicoke—Lakeshore"
          }
        ],
        "pollDivisionIds": [
          10138145
        ],
        "postalCode": "M8Y2B6",
        "streetName": "IVY LEA",
        "streetDirectionId": null,
        "streetTypeId": "CRES",
        "placeName": "ETOBICOKE",
        "streetNameDisplayText": "IVY LEA CRES, ETOBICOKE"
      }
    ]
  },
  {
    "postal": "M8Y4W8",
    "result": []
  },
  {
    "postal": "M8Y8H7",
    "result": []
  },
  {
    "postal": "M8Y5P1",
    "result": []
  },
  {
    "postal": "M8Y2B8",
    "result": [
      {
        "electoralDistricts": [
          {
            "election": null,
            "id": 29,
            "name": "Etobicoke—Lakeshore"
          }
        ],
        "pollDivisionIds": [
          10138145
        ],
        "postalCode": "M8Y2B8",
        "streetName": "WOODWAY",
        "streetDirectionId": null,
        "streetTypeId": "TRAIL",
        "placeName": "ETOBICOKE",
        "streetNameDisplayText": "WOODWAY TRAIL, ETOBICOKE"
      }
    ]
  },
  {
    "postal": "M8Y0P2",
    "result": []
  },
  {
    "postal": "M8Y9M1",
    "result": []
  },
  {
    "postal": "M8Y3G0",
    "result": []
  },
  {
    "postal": "M8Y9Z2",
    "result": []
  },
  {
    "postal": "M8Y2A0",
    "result": []
  },
  {
    "postal": "M8Y6Y0",
    "result": []
  },
  {
    "postal": "M8Y2Z8",
    "result": [
      {
        "electoralDistricts": [
          {
            "election": null,
            "id": 29,
            "name": "Etobicoke—Lakeshore"
          }
        ],
        "pollDivisionIds": [
          10138155
        ],
        "postalCode": "M8Y2Z8",
        "streetName": "MORGAN",
        "streetDirectionId": null,
        "streetTypeId": "AVE",
        "placeName": "ETOBICOKE",
        "streetNameDisplayText": "MORGAN AVE, ETOBICOKE"
      }
    ]
  },
  {
    "postal": "M8Y7Y3",
    "result": []
  },
  {
    "postal": "M8Y6Z5",
    "result": []
  },
  {
    "postal": "M8Y6E0",
    "result": []
  },
  {
    "postal": "M8Y9B7",
    "result": []
  },
  {
    "postal": "M8Y9S5",
    "result": []
  },
  {
    "postal": "M8Y3X3",
    "result": [
      {
        "electoralDistricts": [
          {
            "election": null,
            "id": 29,
            "name": "Etobicoke—Lakeshore"
          }
        ],
        "pollDivisionIds": [
          10138151
        ],
        "postalCode": "M8Y3X3",
        "streetName": "PRINCE EDWARD",
        "streetDirectionId": "S",
        "streetTypeId": "DR",
        "placeName": "ETOBICOKE",
        "streetNameDisplayText": "PRINCE EDWARD DR S, ETOBICOKE"
      }
    ]
  },
  {
    "postal": "M8Y7R5",
    "result": []
  },
  {
    "postal": "M8Y2X3",
    "result": []
  },
  {
    "postal": "M8Y8Z9",
    "result": []
  },
  {
    "postal": "M8Y0N4",
    "result": []
  },
  {
    "postal": "M8Y1K1",
    "result": [
      {
        "electoralDistricts": [
          {
            "election": null,
            "id": 29,
            "name": "Etobicoke—Lakeshore"
          }
        ],
        "pollDivisionIds": [
          10138155
        ],
        "postalCode": "M8Y1K1",
        "streetName": "THE QUEENSWAY",
        "streetDirectionId": null,
        "streetTypeId": null,
        "placeName": "ETOBICOKE",
        "streetNameDisplayText": "THE QUEENSWAY, ETOBICOKE"
      }
    ]
  },
  {
    "postal": "M8Y1S3",
    "result": [
      {
        "electoralDistricts": [
          {
            "election": null,
            "id": 29,
            "name": "Etobicoke—Lakeshore"
          }
        ],
        "pollDivisionIds": [
          10138153
        ],
        "postalCode": "M8Y1S3",
        "streetName": "DODDINGTON",
        "streetDirectionId": null,
        "streetTypeId": "DR",
        "placeName": "ETOBICOKE",
        "streetNameDisplayText": "DODDINGTON DR, ETOBICOKE"
      }
    ]
  },
  {
    "postal": "M8Y6M4",
    "result": []
  },
  {
    "postal": "M8Y9A9",
    "result": []
  },
  {
    "postal": "M8Y9Z9",
    "result": []
  },
  {
    "postal": "M8Y6T4",
    "result": []
  },
  {
    "postal": "M8Y0B2",
    "result": [
      {
        "electoralDistricts": [
          {
            "election": null,
            "id": 29,
            "name": "Etobicoke—Lakeshore"
          }
        ],
        "pollDivisionIds": [
          10138155
        ],
        "postalCode": "M8Y0B2",
        "streetName": "ALEX FISHER",
        "streetDirectionId": null,
        "streetTypeId": "TERR",
        "placeName": "ETOBICOKE",
        "streetNameDisplayText": "ALEX FISHER TERR, ETOBICOKE"
      }
    ]
  },
  {
    "postal": "M8Y2L9",
    "result": [
      {
        "electoralDistricts": [
          {
            "election": null,
            "id": 29,
            "name": "Etobicoke—Lakeshore"
          }
        ],
        "pollDivisionIds": [
          10138151
        ],
        "postalCode": "M8Y2L9",
        "streetName": "GLENROY",
        "streetDirectionId": null,
        "streetTypeId": "AVE",
        "placeName": "ETOBICOKE",
        "streetNameDisplayText": "GLENROY AVE, ETOBICOKE"
      },
      {
        "electoralDistricts": [
          {
            "election": null,
            "id": 29,
            "name": "Etobicoke—Lakeshore"
          }
        ],
        "pollDivisionIds": [
          10138151
        ],
        "postalCode": "M8Y2L9",
        "streetName": "GLENROY",
        "streetDirectionId": null,
        "streetTypeId": "AVE",
        "placeName": "TORONTO",
        "streetNameDisplayText": "GLENROY AVE, TORONTO"
      }
    ]
  },
  {
    "postal": "M8Y8K9",
    "result": []
  },
  {
    "postal": "M8Y2H9",
    "result": [
      {
        "electoralDistricts": [
          {
            "election": null,
            "id": 29,
            "name": "Etobicoke—Lakeshore"
          }
        ],
        "pollDivisionIds": [
          10138153
        ],
        "postalCode": "M8Y2H9",
        "streetName": "REID",
        "streetDirectionId": null,
        "streetTypeId": "MANOR",
        "placeName": "ETOBICOKE",
        "streetNameDisplayText": "REID MANOR, ETOBICOKE"
      }
    ]
  },
  {
    "postal": "M8Y3Z6",
    "result": [
      {
        "electoralDistricts": [
          {
            "election": null,
            "id": 29,
            "name": "Etobicoke—Lakeshore"
          }
        ],
        "pollDivisionIds": [
          10138145
        ],
        "postalCode": "M8Y3Z6",
        "streetName": "KINGSLEA",
        "streetDirectionId": null,
        "streetTypeId": "CRT",
        "placeName": "ETOBICOKE",
        "streetNameDisplayText": "KINGSLEA CRT, ETOBICOKE"
      }
    ]
  },
  {
    "postal": "M8Y3B0",
    "result": []
  },
  {
    "postal": "M8Y2H8",
    "result": [
      {
        "electoralDistricts": [
          {
            "election": null,
            "id": 29,
            "name": "Etobicoke—Lakeshore"
          }
        ],
        "pollDivisionIds": [
          10138153
        ],
        "postalCode": "M8Y2H8",
        "streetName": "REID",
        "streetDirectionId": null,
        "streetTypeId": "MANOR",
        "placeName": "ETOBICOKE",
        "streetNameDisplayText": "REID MANOR, ETOBICOKE"
      }
    ]
  },
  {
    "postal": "M8Y3X2",
    "result": [
      {
        "electoralDistricts": [
          {
            "election": null,
            "id": 29,
            "name": "Etobicoke—Lakeshore"
          }
        ],
        "pollDivisionIds": [
          10138151
        ],
        "postalCode": "M8Y3X2",
        "streetName": "PRINCE EDWARD",
        "streetDirectionId": "S",
        "streetTypeId": "DR",
        "placeName": "ETOBICOKE",
        "streetNameDisplayText": "PRINCE EDWARD DR S, ETOBICOKE"
      }
    ]
  },
  {
    "postal": "M8Y2E9",
    "result": [
      {
        "electoralDistricts": [
          {
            "election": null,
            "id": 29,
            "name": "Etobicoke—Lakeshore"
          }
        ],
        "pollDivisionIds": [
          10138153
        ],
        "postalCode": "M8Y2E9",
        "streetName": "KIRK BRADDEN",
        "streetDirectionId": "W",
        "streetTypeId": "RD",
        "placeName": "ETOBICOKE",
        "streetNameDisplayText": "KIRK BRADDEN RD W, ETOBICOKE"
      }
    ]
  },
  {
    "postal": "M8Y9P6",
    "result": []
  },
  {
    "postal": "M8Y9E2",
    "result": []
  },
  {
    "postal": "M8Y9H2",
    "result": []
  },
  {
    "postal": "M8Y1S8",
    "result": [
      {
        "electoralDistricts": [
          {
            "election": null,
            "id": 29,
            "name": "Etobicoke—Lakeshore"
          }
        ],
        "pollDivisionIds": [
          10138153
        ],
        "postalCode": "M8Y1S8",
        "streetName": "KEYWELL",
        "streetDirectionId": null,
        "streetTypeId": "CRT",
        "placeName": "ETOBICOKE",
        "streetNameDisplayText": "KEYWELL CRT, ETOBICOKE"
      }
    ]
  },
  {
    "postal": "M8Y3M6",
    "result": [
      {
        "electoralDistricts": [
          {
            "election": null,
            "id": 29,
            "name": "Etobicoke—Lakeshore"
          }
        ],
        "pollDivisionIds": [
          10138153
        ],
        "postalCode": "M8Y3M6",
        "streetName": "STEPHEN",
        "streetDirectionId": null,
        "streetTypeId": "DR",
        "placeName": "ETOBICOKE",
        "streetNameDisplayText": "STEPHEN DR, ETOBICOKE"
      }
    ]
  },
  {
    "postal": "M8Y6Z8",
    "result": []
  },
  {
    "postal": "M8Y4J2",
    "result": []
  },
  {
    "postal": "M8Y9Y1",
    "result": []
  },
  {
    "postal": "M8Y8V6",
    "result": []
  },
  {
    "postal": "M8Y6B2",
    "result": []
  },
  {
    "postal": "M8Y1P8",
    "result": [
      {
        "electoralDistricts": [
          {
            "election": null,
            "id": 29,
            "name": "Etobicoke—Lakeshore"
          }
        ],
        "pollDivisionIds": [
          10138153
        ],
        "postalCode": "M8Y1P8",
        "streetName": "WANISKA",
        "streetDirectionId": null,
        "streetTypeId": "AVE",
        "placeName": "ETOBICOKE",
        "streetNameDisplayText": "WANISKA AVE, ETOBICOKE"
      }
    ]
  },
  {
    "postal": "M8Y0V8",
    "result": []
  },
  {
    "postal": "M8Y4Y0",
    "result": []
  },
  {
    "postal": "M8Y2T4",
    "result": [
      {
        "electoralDistricts": [
          {
            "election": null,
            "id": 29,
            "name": "Etobicoke—Lakeshore"
          }
        ],
        "pollDivisionIds": [
          10138154
        ],
        "postalCode": "M8Y2T4",
        "streetName": "ROYAL YORK",
        "streetDirectionId": null,
        "streetTypeId": "RD",
        "placeName": "ETOBICOKE",
        "streetNameDisplayText": "ROYAL YORK RD, ETOBICOKE"
      }
    ]
  },
  {
    "postal": "M8Y2S3",
    "result": [
      {
        "electoralDistricts": [
          {
            "election": null,
            "id": 29,
            "name": "Etobicoke—Lakeshore"
          }
        ],
        "pollDivisionIds": [
          10138155
        ],
        "postalCode": "M8Y2S3",
        "streetName": "ROYAL YORK",
        "streetDirectionId": null,
        "streetTypeId": "RD",
        "placeName": "ETOBICOKE",
        "streetNameDisplayText": "ROYAL YORK RD, ETOBICOKE"
      }
    ]
  },
  {
    "postal": "M8Y0K0",
    "result": []
  },
  {
    "postal": "M8Y5N1",
    "result": []
  },
  {
    "postal": "M8Y7T0",
    "result": []
  },
  {
    "postal": "M8Y9N2",
    "result": []
  },
  {
    "postal": "M8Y5L1",
    "result": []
  },
  {
    "postal": "M8Y7G5",
    "result": []
  },
  {
    "postal": "M8Y6K2",
    "result": []
  },
  {
    "postal": "M8Y6P9",
    "result": []
  },
  {
    "postal": "M8Y0E6",
    "result": []
  },
  {
    "postal": "M8Y8R9",
    "result": []
  },
  {
    "postal": "M8Y3G9",
    "result": [
      {
        "electoralDistricts": [
          {
            "election": null,
            "id": 29,
            "name": "Etobicoke—Lakeshore"
          }
        ],
        "pollDivisionIds": [
          10138153
        ],
        "postalCode": "M8Y3G9",
        "streetName": "BONNYVIEW",
        "streetDirectionId": null,
        "streetTypeId": "DR",
        "placeName": "ETOBICOKE",
        "streetNameDisplayText": "BONNYVIEW DR, ETOBICOKE"
      }
    ]
  },
  {
    "postal": "M8Y0V7",
    "result": []
  },
  {
    "postal": "M8Y2Z1",
    "result": []
  },
  {
    "postal": "M8Y7N1",
    "result": []
  },
  {
    "postal": "M8Y3C6",
    "result": [
      {
        "electoralDistricts": [
          {
            "election": null,
            "id": 29,
            "name": "Etobicoke—Lakeshore"
          }
        ],
        "pollDivisionIds": [
          10138155
        ],
        "postalCode": "M8Y3C6",
        "streetName": "BERL",
        "streetDirectionId": null,
        "streetTypeId": "AVE",
        "placeName": "ETOBICOKE",
        "streetNameDisplayText": "BERL AVE, ETOBICOKE"
      }
    ]
  },
  {
    "postal": "M8Y4M1",
    "result": []
  },
  {
    "postal": "M8Y9K2",
    "result": []
  },
  {
    "postal": "M8Y9S6",
    "result": []
  },
  {
    "postal": "M8Y4X1",
    "result": []
  },
  {
    "postal": "M8Y8W2",
    "result": []
  },
  {
    "postal": "M8Y7N2",
    "result": []
  },
  {
    "postal": "M8Y8S3",
    "result": []
  },
  {
    "postal": "M8Y4V0",
    "result": []
  },
  {
    "postal": "M8Y6W4",
    "result": []
  },
  {
    "postal": "M8Y5M1",
    "result": []
  },
  {
    "postal": "M8Y0S4",
    "result": []
  },
  {
    "postal": "M8Y5X6",
    "result": []
  },
  {
    "postal": "M8Y8L5",
    "result": []
  },
  {
    "postal": "M8Y5M8",
    "result": []
  },
  {
    "postal": "M8Y2G3",
    "result": [
      {
        "electoralDistricts": [
          {
            "election": null,
            "id": 29,
            "name": "Etobicoke—Lakeshore"
          }
        ],
        "pollDivisionIds": [
          10138153
        ],
        "postalCode": "M8Y2G3",
        "streetName": "KIRK BRADDEN",
        "streetDirectionId": "W",
        "streetTypeId": "RD",
        "placeName": "ETOBICOKE",
        "streetNameDisplayText": "KIRK BRADDEN RD W, ETOBICOKE"
      }
    ]
  },
  {
    "postal": "M8Y8E4",
    "result": []
  },
  {
    "postal": "M8Y7S9",
    "result": []
  },
  {
    "postal": "M8Y1K3",
    "result": [
      {
        "electoralDistricts": [
          {
            "election": null,
            "id": 29,
            "name": "Etobicoke—Lakeshore"
          }
        ],
        "pollDivisionIds": [
          10138155
        ],
        "postalCode": "M8Y1K3",
        "streetName": "THE QUEENSWAY",
        "streetDirectionId": null,
        "streetTypeId": null,
        "placeName": "ETOBICOKE",
        "streetNameDisplayText": "THE QUEENSWAY, ETOBICOKE"
      }
    ]
  },
  {
    "postal": "M8Y4E1",
    "result": [
      {
        "electoralDistricts": [
          {
            "election": null,
            "id": 29,
            "name": "Etobicoke—Lakeshore"
          }
        ],
        "pollDivisionIds": [
          10138145
        ],
        "postalCode": "M8Y4E1",
        "streetName": "RIVERWOOD",
        "streetDirectionId": null,
        "streetTypeId": "PKY",
        "placeName": "ETOBICOKE",
        "streetNameDisplayText": "RIVERWOOD PKY, ETOBICOKE"
      }
    ]
  },
  {
    "postal": "M8Y4R2",
    "result": []
  },
  {
    "postal": "M8Y6T0",
    "result": []
  },
  {
    "postal": "M8Y3K5",
    "result": []
  },
  {
    "postal": "M8Y3S3",
    "result": [
      {
        "electoralDistricts": [
          {
            "election": null,
            "id": 29,
            "name": "Etobicoke—Lakeshore"
          }
        ],
        "pollDivisionIds": [
          10138153
        ],
        "postalCode": "M8Y3S3",
        "streetName": "GRENVIEW",
        "streetDirectionId": "S",
        "streetTypeId": "BLVD",
        "placeName": "ETOBICOKE",
        "streetNameDisplayText": "GRENVIEW BLVD S, ETOBICOKE"
      },
      {
        "electoralDistricts": [
          {
            "election": null,
            "id": 29,
            "name": "Etobicoke—Lakeshore"
          }
        ],
        "pollDivisionIds": [
          10138153
        ],
        "postalCode": "M8Y3S3",
        "streetName": "GRENVIEW BLVD SOUTH",
        "streetDirectionId": null,
        "streetTypeId": null,
        "placeName": "ETOBICOKE",
        "streetNameDisplayText": "GRENVIEW BLVD SOUTH, ETOBICOKE"
      }
    ]
  },
  {
    "postal": "M8Y3L4",
    "result": [
      {
        "electoralDistricts": [
          {
            "election": null,
            "id": 29,
            "name": "Etobicoke—Lakeshore"
          }
        ],
        "pollDivisionIds": [
          10138153
        ],
        "postalCode": "M8Y3L4",
        "streetName": "ALDGATE",
        "streetDirectionId": null,
        "streetTypeId": "AVE",
        "placeName": "ETOBICOKE",
        "streetNameDisplayText": "ALDGATE AVE, ETOBICOKE"
      }
    ]
  },
  {
    "postal": "M8Y9Y2",
    "result": []
  },
  {
    "postal": "M8Y1E0",
    "result": []
  },
  {
    "postal": "M8Y9A4",
    "result": []
  },
  {
    "postal": "M8Y1L3",
    "result": [
      {
        "electoralDistricts": [
          {
            "election": null,
            "id": 29,
            "name": "Etobicoke—Lakeshore"
          }
        ],
        "pollDivisionIds": [
          10138155
        ],
        "postalCode": "M8Y1L3",
        "streetName": "THE QUEENSWAY",
        "streetDirectionId": null,
        "streetTypeId": null,
        "placeName": "ETOBICOKE",
        "streetNameDisplayText": "THE QUEENSWAY, ETOBICOKE"
      }
    ]
  },
  {
    "postal": "M8Y6N1",
    "result": []
  },
  {
    "postal": "M8Y6G7",
    "result": []
  },
  {
    "postal": "M8Y7W1",
    "result": []
  },
  {
    "postal": "M8Y4M6",
    "result": []
  },
  {
    "postal": "M8Y1K0",
    "result": []
  },
  {
    "postal": "M8Y3E2",
    "result": [
      {
        "electoralDistricts": [
          {
            "election": null,
            "id": 29,
            "name": "Etobicoke—Lakeshore"
          }
        ],
        "pollDivisionIds": [
          10138155
        ],
        "postalCode": "M8Y3E2",
        "streetName": "MCINTOSH",
        "streetDirectionId": null,
        "streetTypeId": "AVE",
        "placeName": "ETOBICOKE",
        "streetNameDisplayText": "MCINTOSH AVE, ETOBICOKE"
      }
    ]
  },
  {
    "postal": "M8Y5H4",
    "result": []
  },
  {
    "postal": "M8Y1K7",
    "result": [
      {
        "electoralDistricts": [
          {
            "election": null,
            "id": 29,
            "name": "Etobicoke—Lakeshore"
          }
        ],
        "pollDivisionIds": [
          10138155
        ],
        "postalCode": "M8Y1K7",
        "streetName": "THE QUEENSWAY",
        "streetDirectionId": null,
        "streetTypeId": null,
        "placeName": "ETOBICOKE",
        "streetNameDisplayText": "THE QUEENSWAY, ETOBICOKE"
      }
    ]
  },
  {
    "postal": "M8Y0H0",
    "result": []
  },
  {
    "postal": "M8Y0J3",
    "result": []
  },
  {
    "postal": "M8Y1X6",
    "result": [
      {
        "electoralDistricts": [
          {
            "election": null,
            "id": 29,
            "name": "Etobicoke—Lakeshore"
          }
        ],
        "pollDivisionIds": [
          10138145
        ],
        "postalCode": "M8Y1X6",
        "streetName": "BERRY",
        "streetDirectionId": null,
        "streetTypeId": "RD",
        "placeName": "ETOBICOKE",
        "streetNameDisplayText": "BERRY RD, ETOBICOKE"
      }
    ]
  },
  {
    "postal": "M8Y2Z6",
    "result": [
      {
        "electoralDistricts": [
          {
            "election": null,
            "id": 29,
            "name": "Etobicoke—Lakeshore"
          }
        ],
        "pollDivisionIds": [
          10138155
        ],
        "postalCode": "M8Y2Z6",
        "streetName": "GRAND",
        "streetDirectionId": null,
        "streetTypeId": "AVE",
        "placeName": "ETOBICOKE",
        "streetNameDisplayText": "GRAND AVE, ETOBICOKE"
      }
    ]
  },
  {
    "postal": "M8Y4R9",
    "result": []
  },
  {
    "postal": "M8Y0W8",
    "result": []
  },
  {
    "postal": "M8Y1L4",
    "result": [
      {
        "electoralDistricts": [
          {
            "election": null,
            "id": 29,
            "name": "Etobicoke—Lakeshore"
          }
        ],
        "pollDivisionIds": [
          10138155,
          10138154
        ],
        "postalCode": "M8Y1L4",
        "streetName": "THE QUEENSWAY",
        "streetDirectionId": null,
        "streetTypeId": null,
        "placeName": "ETOBICOKE",
        "streetNameDisplayText": "THE QUEENSWAY, ETOBICOKE"
      }
    ]
  },
  {
    "postal": "M8Y0C8",
    "result": []
  },
  {
    "postal": "M8Y9X7",
    "result": []
  },
  {
    "postal": "M8Y4T1",
    "result": []
  },
  {
    "postal": "M8Y0M0",
    "result": []
  },
  {
    "postal": "M8Y6A2",
    "result": []
  },
  {
    "postal": "M8Y9S8",
    "result": []
  },
  {
    "postal": "M8Y9T4",
    "result": []
  },
  {
    "postal": "M8Y9Y4",
    "result": []
  },
  {
    "postal": "M8Y6G5",
    "result": []
  },
  {
    "postal": "M8Y6H9",
    "result": []
  },
  {
    "postal": "M8Y2P3",
    "result": [
      {
        "electoralDistricts": [
          {
            "election": null,
            "id": 29,
            "name": "Etobicoke—Lakeshore"
          }
        ],
        "pollDivisionIds": [
          10138144
        ],
        "postalCode": "M8Y2P3",
        "streetName": "MEADOWVALE",
        "streetDirectionId": null,
        "streetTypeId": "DR",
        "placeName": "ETOBICOKE",
        "streetNameDisplayText": "MEADOWVALE DR, ETOBICOKE"
      }
    ]
  },
  {
    "postal": "M8Y1T6",
    "result": [
      {
        "electoralDistricts": [
          {
            "election": null,
            "id": 29,
            "name": "Etobicoke—Lakeshore"
          }
        ],
        "pollDivisionIds": [
          10138153
        ],
        "postalCode": "M8Y1T6",
        "streetName": "CLOVERHILL",
        "streetDirectionId": null,
        "streetTypeId": "RD",
        "placeName": "ETOBICOKE",
        "streetNameDisplayText": "CLOVERHILL RD, ETOBICOKE"
      }
    ]
  },
  {
    "postal": "M8Y4P6",
    "result": []
  },
  {
    "postal": "M8Y3K1",
    "result": [
      {
        "electoralDistricts": [
          {
            "election": null,
            "id": 29,
            "name": "Etobicoke—Lakeshore"
          }
        ],
        "pollDivisionIds": [
          10138153
        ],
        "postalCode": "M8Y3K1",
        "streetName": "PARK LAWN",
        "streetDirectionId": null,
        "streetTypeId": "RD",
        "placeName": "ETOBICOKE",
        "streetNameDisplayText": "PARK LAWN RD, ETOBICOKE"
      }
    ]
  },
  {
    "postal": "M8Y6X4",
    "result": []
  },
  {
    "postal": "M8Y4M8",
    "result": []
  },
  {
    "postal": "M8Y2Y1",
    "result": [
      {
        "electoralDistricts": [
          {
            "election": null,
            "id": 29,
            "name": "Etobicoke—Lakeshore"
          }
        ],
        "pollDivisionIds": [
          10143883
        ],
        "postalCode": "M8Y2Y1",
        "streetName": "MILTON",
        "streetDirectionId": null,
        "streetTypeId": "ST",
        "placeName": "ETOBICOKE",
        "streetNameDisplayText": "MILTON ST, ETOBICOKE"
      }
    ]
  },
  {
    "postal": "M8Y6M1",
    "result": []
  },
  {
    "postal": "M8Y5L8",
    "result": []
  },
  {
    "postal": "M8Y3P6",
    "result": [
      {
        "electoralDistricts": [
          {
            "election": null,
            "id": 29,
            "name": "Etobicoke—Lakeshore"
          }
        ],
        "pollDivisionIds": [
          10138151
        ],
        "postalCode": "M8Y3P6",
        "streetName": "HUMBERVALE",
        "streetDirectionId": null,
        "streetTypeId": "BLVD",
        "placeName": "ETOBICOKE",
        "streetNameDisplayText": "HUMBERVALE BLVD, ETOBICOKE"
      }
    ]
  },
  {
    "postal": "M8Y9A5",
    "result": []
  },
  {
    "postal": "M8Y7K1",
    "result": []
  },
  {
    "postal": "M8Y3J4",
    "result": [
      {
        "electoralDistricts": [
          {
            "election": null,
            "id": 29,
            "name": "Etobicoke—Lakeshore"
          }
        ],
        "pollDivisionIds": [
          10138153
        ],
        "postalCode": "M8Y3J4",
        "streetName": "PARK LAWN",
        "streetDirectionId": null,
        "streetTypeId": "RD",
        "placeName": "ETOBICOKE",
        "streetNameDisplayText": "PARK LAWN RD, ETOBICOKE"
      }
    ]
  },
  {
    "postal": "M8Y5E7",
    "result": []
  },
  {
    "postal": "M8Y3A7",
    "result": [
      {
        "electoralDistricts": [
          {
            "election": null,
            "id": 29,
            "name": "Etobicoke—Lakeshore"
          }
        ],
        "pollDivisionIds": [
          10138155
        ],
        "postalCode": "M8Y3A7",
        "streetName": "PENHURST",
        "streetDirectionId": null,
        "streetTypeId": "AVE",
        "placeName": "ETOBICOKE",
        "streetNameDisplayText": "PENHURST AVE, ETOBICOKE"
      }
    ]
  },
  {
    "postal": "M8Y1B9",
    "result": []
  },
  {
    "postal": "M8Y9E8",
    "result": []
  },
  {
    "postal": "M8Y1C9",
    "result": [
      {
        "electoralDistricts": [
          {
            "election": null,
            "id": 29,
            "name": "Etobicoke—Lakeshore"
          }
        ],
        "pollDivisionIds": [
          10143883
        ],
        "postalCode": "M8Y1C9",
        "streetName": "MANITOBA",
        "streetDirectionId": null,
        "streetTypeId": "ST",
        "placeName": "ETOBICOKE",
        "streetNameDisplayText": "MANITOBA ST, ETOBICOKE"
      }
    ]
  },
  {
    "postal": "M8Y3B5",
    "result": [
      {
        "electoralDistricts": [
          {
            "election": null,
            "id": 29,
            "name": "Etobicoke—Lakeshore"
          }
        ],
        "pollDivisionIds": [
          10138155
        ],
        "postalCode": "M8Y3B5",
        "streetName": "MOYNES",
        "streetDirectionId": null,
        "streetTypeId": "AVE",
        "placeName": "ETOBICOKE",
        "streetNameDisplayText": "MOYNES AVE, ETOBICOKE"
      }
    ]
  },
  {
    "postal": "M8Y8R0",
    "result": []
  },
  {
    "postal": "M8Y3P2",
    "result": [
      {
        "electoralDistricts": [
          {
            "election": null,
            "id": 29,
            "name": "Etobicoke—Lakeshore"
          }
        ],
        "pollDivisionIds": [
          10138144
        ],
        "postalCode": "M8Y3P2",
        "streetName": "HUMBERVALE",
        "streetDirectionId": null,
        "streetTypeId": "BLVD",
        "placeName": "ETOBICOKE",
        "streetNameDisplayText": "HUMBERVALE BLVD, ETOBICOKE"
      }
    ]
  },
  {
    "postal": "M8Y5V4",
    "result": []
  },
  {
    "postal": "M8Y4H0",
    "result": []
  },
  {
    "postal": "M8Y4S7",
    "result": []
  },
  {
    "postal": "M8Y6C2",
    "result": []
  },
  {
    "postal": "M8Y8W3",
    "result": []
  },
  {
    "postal": "M8Y4M5",
    "result": []
  },
  {
    "postal": "M8Y5T1",
    "result": []
  },
  {
    "postal": "M8Y3B3",
    "result": [
      {
        "electoralDistricts": [
          {
            "election": null,
            "id": 29,
            "name": "Etobicoke—Lakeshore"
          }
        ],
        "pollDivisionIds": [
          10138155
        ],
        "postalCode": "M8Y3B3",
        "streetName": "HOLBROOKE",
        "streetDirectionId": null,
        "streetTypeId": "AVE",
        "placeName": "ETOBICOKE",
        "streetNameDisplayText": "HOLBROOKE AVE, ETOBICOKE"
      }
    ]
  },
  {
    "postal": "M8Y6C6",
    "result": []
  },
  {
    "postal": "M8Y7N8",
    "result": []
  },
  {
    "postal": "M8Y2Y3",
    "result": [
      {
        "electoralDistricts": [
          {
            "election": null,
            "id": 29,
            "name": "Etobicoke—Lakeshore"
          }
        ],
        "pollDivisionIds": [
          10138155
        ],
        "postalCode": "M8Y2Y3",
        "streetName": "MILTON",
        "streetDirectionId": null,
        "streetTypeId": "ST",
        "placeName": "ETOBICOKE",
        "streetNameDisplayText": "MILTON ST, ETOBICOKE"
      }
    ]
  },
  {
    "postal": "M8Y2R6",
    "result": []
  },
  {
    "postal": "M8Y7N3",
    "result": []
  },
  {
    "postal": "M8Y8J2",
    "result": []
  },
  {
    "postal": "M8Y6A9",
    "result": []
  },
  {
    "postal": "M8Y3V2",
    "result": [
      {
        "electoralDistricts": [
          {
            "election": null,
            "id": 29,
            "name": "Etobicoke—Lakeshore"
          }
        ],
        "pollDivisionIds": [
          10138144
        ],
        "postalCode": "M8Y3V2",
        "streetName": "GRENVIEW",
        "streetDirectionId": "S",
        "streetTypeId": "BLVD",
        "placeName": "ETOBICOKE",
        "streetNameDisplayText": "GRENVIEW BLVD S, ETOBICOKE"
      }
    ]
  },
  {
    "postal": "M8Y2N3",
    "result": [
      {
        "electoralDistricts": [
          {
            "election": null,
            "id": 29,
            "name": "Etobicoke—Lakeshore"
          }
        ],
        "pollDivisionIds": [
          10138151
        ],
        "postalCode": "M8Y2N3",
        "streetName": "EDGEMORE",
        "streetDirectionId": null,
        "streetTypeId": "DR",
        "placeName": "ETOBICOKE",
        "streetNameDisplayText": "EDGEMORE DR, ETOBICOKE"
      }
    ]
  },
  {
    "postal": "M8Y1S5",
    "result": [
      {
        "electoralDistricts": [
          {
            "election": null,
            "id": 29,
            "name": "Etobicoke—Lakeshore"
          }
        ],
        "pollDivisionIds": [
          10138153
        ],
        "postalCode": "M8Y1S5",
        "streetName": "KEYWELL",
        "streetDirectionId": null,
        "streetTypeId": "CRT",
        "placeName": "ETOBICOKE",
        "streetNameDisplayText": "KEYWELL CRT, ETOBICOKE"
      }
    ]
  },
  {
    "postal": "M8Y4T7",
    "result": []
  },
  {
    "postal": "M8Y6Y7",
    "result": []
  },
  {
    "postal": "M8Y0W7",
    "result": []
  },
  {
    "postal": "M8Y2W9",
    "result": [
      {
        "electoralDistricts": [
          {
            "election": null,
            "id": 29,
            "name": "Etobicoke—Lakeshore"
          }
        ],
        "pollDivisionIds": [
          10138155
        ],
        "postalCode": "M8Y2W9",
        "streetName": "WESLEY",
        "streetDirectionId": null,
        "streetTypeId": "ST",
        "placeName": "ETOBICOKE",
        "streetNameDisplayText": "WESLEY ST, ETOBICOKE"
      }
    ]
  },
  {
    "postal": "M8Y8V0",
    "result": []
  },
  {
    "postal": "M8Y0H4",
    "result": []
  },
  {
    "postal": "M8Y2T1",
    "result": [
      {
        "electoralDistricts": [
          {
            "election": null,
            "id": 29,
            "name": "Etobicoke—Lakeshore"
          }
        ],
        "pollDivisionIds": [
          10138155
        ],
        "postalCode": "M8Y2T1",
        "streetName": "ROYAL YORK",
        "streetDirectionId": null,
        "streetTypeId": "RD",
        "placeName": "ETOBICOKE",
        "streetNameDisplayText": "ROYAL YORK RD, ETOBICOKE"
      }
    ]
  },
  {
    "postal": "M8Y1B1",
    "result": [
      {
        "electoralDistricts": [
          {
            "election": null,
            "id": 29,
            "name": "Etobicoke—Lakeshore"
          },
          {
            "election": null,
            "id": 101,
            "name": "Spadina—Fort York"
          }
        ],
        "pollDivisionIds": [
          10143883,
          10141951
        ],
        "postalCode": "M8Y1B1",
        "streetName": "PORTLAND",
        "streetDirectionId": null,
        "streetTypeId": "ST",
        "placeName": "ETOBICOKE",
        "streetNameDisplayText": "PORTLAND ST, ETOBICOKE"
      },
      {
        "electoralDistricts": [
          {
            "election": null,
            "id": 101,
            "name": "Spadina—Fort York"
          }
        ],
        "pollDivisionIds": [
          10141951
        ],
        "postalCode": "M8Y1B1",
        "streetName": "PORTLAND",
        "streetDirectionId": null,
        "streetTypeId": "ST",
        "placeName": "TORONTO",
        "streetNameDisplayText": "PORTLAND ST, TORONTO"
      }
    ]
  },
  {
    "postal": "M8Y8B6",
    "result": []
  },
  {
    "postal": "M8Y6H1",
    "result": []
  },
  {
    "postal": "M8Y8T8",
    "result": []
  },
  {
    "postal": "M8Y0T4",
    "result": []
  },
  {
    "postal": "M8Y2C4",
    "result": [
      {
        "electoralDistricts": [
          {
            "election": null,
            "id": 29,
            "name": "Etobicoke—Lakeshore"
          }
        ],
        "pollDivisionIds": [
          10138153
        ],
        "postalCode": "M8Y2C4",
        "streetName": "ELDERIDGE",
        "streetDirectionId": null,
        "streetTypeId": "AVE",
        "placeName": "ETOBICOKE",
        "streetNameDisplayText": "ELDERIDGE AVE, ETOBICOKE"
      }
    ]
  },
  {
    "postal": "M8Y8N3",
    "result": []
  },
  {
    "postal": "M8Y4L8",
    "result": []
  },
  {
    "postal": "M8Y2B5",
    "result": [
      {
        "electoralDistricts": [
          {
            "election": null,
            "id": 29,
            "name": "Etobicoke—Lakeshore"
          }
        ],
        "pollDivisionIds": [
          10138145
        ],
        "postalCode": "M8Y2B5",
        "streetName": "IVY LEA",
        "streetDirectionId": null,
        "streetTypeId": "CRES",
        "placeName": "ETOBICOKE",
        "streetNameDisplayText": "IVY LEA CRES, ETOBICOKE"
      }
    ]
  },
  {
    "postal": "M8Y3H1",
    "result": [
      {
        "electoralDistricts": [
          {
            "election": null,
            "id": 29,
            "name": "Etobicoke—Lakeshore"
          }
        ],
        "pollDivisionIds": [
          10138153
        ],
        "postalCode": "M8Y3H1",
        "streetName": "BONNYVIEW",
        "streetDirectionId": null,
        "streetTypeId": "DR",
        "placeName": "ETOBICOKE",
        "streetNameDisplayText": "BONNYVIEW DR, ETOBICOKE"
      }
    ]
  },
  {
    "postal": "M8Y4Y1",
    "result": []
  },
  {
    "postal": "M8Y7E2",
    "result": []
  },
  {
    "postal": "M8Y2P5",
    "result": [
      {
        "electoralDistricts": [
          {
            "election": null,
            "id": 29,
            "name": "Etobicoke—Lakeshore"
          }
        ],
        "pollDivisionIds": [
          10138144
        ],
        "postalCode": "M8Y2P5",
        "streetName": "BERMUDA",
        "streetDirectionId": null,
        "streetTypeId": "AVE",
        "placeName": "ETOBICOKE",
        "streetNameDisplayText": "BERMUDA AVE, ETOBICOKE"
      }
    ]
  },
  {
    "postal": "M8Y8R7",
    "result": []
  },
  {
    "postal": "M8Y9P1",
    "result": []
  },
  {
    "postal": "M8Y3B8",
    "result": [
      {
        "electoralDistricts": [
          {
            "election": null,
            "id": 29,
            "name": "Etobicoke—Lakeshore"
          }
        ],
        "pollDivisionIds": [
          10138155
        ],
        "postalCode": "M8Y3B8",
        "streetName": "MOYNES",
        "streetDirectionId": null,
        "streetTypeId": "AVE",
        "placeName": "ETOBICOKE",
        "streetNameDisplayText": "MOYNES AVE, ETOBICOKE"
      }
    ]
  },
  {
    "postal": "M8Y3P7",
    "result": [
      {
        "electoralDistricts": [
          {
            "election": null,
            "id": 29,
            "name": "Etobicoke—Lakeshore"
          }
        ],
        "pollDivisionIds": [
          10138151
        ],
        "postalCode": "M8Y3P7",
        "streetName": "HUMBERVALE",
        "streetDirectionId": null,
        "streetTypeId": "BLVD",
        "placeName": "ETOBICOKE",
        "streetNameDisplayText": "HUMBERVALE BLVD, ETOBICOKE"
      }
    ]
  },
  {
    "postal": "M8Y9B2",
    "result": []
  },
  {
    "postal": "M8Y6Z3",
    "result": []
  },
  {
    "postal": "M8Y4N5",
    "result": []
  },
  {
    "postal": "M8Y8T3",
    "result": []
  },
  {
    "postal": "M8Y1V2",
    "result": [
      {
        "electoralDistricts": [
          {
            "election": null,
            "id": 29,
            "name": "Etobicoke—Lakeshore"
          }
        ],
        "pollDivisionIds": [
          10138153
        ],
        "postalCode": "M8Y1V2",
        "streetName": "RIVER VALLEY",
        "streetDirectionId": null,
        "streetTypeId": "CRES",
        "placeName": "ETOBICOKE",
        "streetNameDisplayText": "RIVER VALLEY CRES, ETOBICOKE"
      }
    ]
  },
  {
    "postal": "M8Y1Y0",
    "result": []
  },
  {
    "postal": "M8Y3G6",
    "result": [
      {
        "electoralDistricts": [
          {
            "election": null,
            "id": 29,
            "name": "Etobicoke—Lakeshore"
          }
        ],
        "pollDivisionIds": [
          10138153
        ],
        "postalCode": "M8Y3G6",
        "streetName": "BONNYVIEW",
        "streetDirectionId": null,
        "streetTypeId": "DR",
        "placeName": "ETOBICOKE",
        "streetNameDisplayText": "BONNYVIEW DR, ETOBICOKE"
      }
    ]
  },
  {
    "postal": "M8Y3H7",
    "result": []
  },
  {
    "postal": "M8Y7X8",
    "result": []
  },
  {
    "postal": "M8Y0C7",
    "result": []
  },
  {
    "postal": "M8Y0W9",
    "result": []
  },
  {
    "postal": "M8Y8E6",
    "result": []
  },
  {
    "postal": "M8Y9Z8",
    "result": []
  },
  {
    "postal": "M8Y3P4",
    "result": [
      {
        "electoralDistricts": [
          {
            "election": null,
            "id": 29,
            "name": "Etobicoke—Lakeshore"
          }
        ],
        "pollDivisionIds": [
          10138151
        ],
        "postalCode": "M8Y3P4",
        "streetName": "HUMBERVALE",
        "streetDirectionId": null,
        "streetTypeId": "BLVD",
        "placeName": "ETOBICOKE",
        "streetNameDisplayText": "HUMBERVALE BLVD, ETOBICOKE"
      }
    ]
  },
  {
    "postal": "M8Y6L8",
    "result": []
  },
  {
    "postal": "M8Y2R4",
    "result": [
      {
        "electoralDistricts": [
          {
            "election": null,
            "id": 29,
            "name": "Etobicoke—Lakeshore"
          }
        ],
        "pollDivisionIds": [
          10143883
        ],
        "postalCode": "M8Y2R4",
        "streetName": "ROYAL YORK",
        "streetDirectionId": null,
        "streetTypeId": "RD",
        "placeName": "ETOBICOKE",
        "streetNameDisplayText": "ROYAL YORK RD, ETOBICOKE"
      }
    ]
  },
  {
    "postal": "M8Y2W1",
    "result": [
      {
        "electoralDistricts": [
          {
            "election": null,
            "id": 29,
            "name": "Etobicoke—Lakeshore"
          }
        ],
        "pollDivisionIds": [
          10143883
        ],
        "postalCode": "M8Y2W1",
        "streetName": "BUCKINGHAM",
        "streetDirectionId": null,
        "streetTypeId": "ST",
        "placeName": "ETOBICOKE",
        "streetNameDisplayText": "BUCKINGHAM ST, ETOBICOKE"
      }
    ]
  },
  {
    "postal": "M8Y9H8",
    "result": []
  },
  {
    "postal": "M8Y8X9",
    "result": []
  },
  {
    "postal": "M8Y7H4",
    "result": []
  },
  {
    "postal": "M8Y3J1",
    "result": [
      {
        "electoralDistricts": [
          {
            "election": null,
            "id": 29,
            "name": "Etobicoke—Lakeshore"
          }
        ],
        "pollDivisionIds": [
          10138153
        ],
        "postalCode": "M8Y3J1",
        "streetName": "PARK LAWN",
        "streetDirectionId": null,
        "streetTypeId": "RD",
        "placeName": "ETOBICOKE",
        "streetNameDisplayText": "PARK LAWN RD, ETOBICOKE"
      }
    ]
  },
  {
    "postal": "M8Y1P4",
    "result": [
      {
        "electoralDistricts": [
          {
            "election": null,
            "id": 29,
            "name": "Etobicoke—Lakeshore"
          }
        ],
        "pollDivisionIds": [
          10138153
        ],
        "postalCode": "M8Y1P4",
        "streetName": "RINGLEY",
        "streetDirectionId": null,
        "streetTypeId": "AVE",
        "placeName": "ETOBICOKE",
        "streetNameDisplayText": "RINGLEY AVE, ETOBICOKE"
      }
    ]
  },
  {
    "postal": "M8Y2A3",
    "result": [
      {
        "electoralDistricts": [
          {
            "election": null,
            "id": 29,
            "name": "Etobicoke—Lakeshore"
          }
        ],
        "pollDivisionIds": [
          10138145
        ],
        "postalCode": "M8Y2A3",
        "streetName": "SOUTH KINGSLEA",
        "streetDirectionId": null,
        "streetTypeId": "DR",
        "placeName": "ETOBICOKE",
        "streetNameDisplayText": "SOUTH KINGSLEA DR, ETOBICOKE"
      }
    ]
  },
  {
    "postal": "M8Y0Z1",
    "result": []
  },
  {
    "postal": "M8Y1C1",
    "result": []
  },
  {
    "postal": "M8Y0H3",
    "result": []
  },
  {
    "postal": "M8Y7B0",
    "result": []
  },
  {
    "postal": "M8Y5K2",
    "result": []
  },
  {
    "postal": "M8Y1E9",
    "result": []
  },
  {
    "postal": "M8Y9W7",
    "result": []
  },
  {
    "postal": "M8Y5W6",
    "result": []
  },
  {
    "postal": "M8Y6S6",
    "result": []
  },
  {
    "postal": "M8Y2P8",
    "result": [
      {
        "electoralDistricts": [
          {
            "election": null,
            "id": 29,
            "name": "Etobicoke—Lakeshore"
          }
        ],
        "pollDivisionIds": [
          10143883
        ],
        "postalCode": "M8Y2P8",
        "streetName": "ROYAL YORK",
        "streetDirectionId": null,
        "streetTypeId": "RD",
        "placeName": "ETOBICOKE",
        "streetNameDisplayText": "ROYAL YORK RD, ETOBICOKE"
      }
    ]
  },
  {
    "postal": "M8Y4P8",
    "result": []
  },
  {
    "postal": "M8Y0V9",
    "result": []
  },
  {
    "postal": "M8Y5Y2",
    "result": []
  },
  {
    "postal": "M8Y7Z7",
    "result": []
  },
  {
    "postal": "M8Y6Y8",
    "result": []
  },
  {
    "postal": "M8Y2G7",
    "result": [
      {
        "electoralDistricts": [
          {
            "election": null,
            "id": 29,
            "name": "Etobicoke—Lakeshore"
          }
        ],
        "pollDivisionIds": [
          10138145
        ],
        "postalCode": "M8Y2G7",
        "streetName": "GLENELLEN",
        "streetDirectionId": "E",
        "streetTypeId": "DR",
        "placeName": "ETOBICOKE",
        "streetNameDisplayText": "GLENELLEN DR E, ETOBICOKE"
      }
    ]
  },
  {
    "postal": "M8Y8C1",
    "result": []
  },
  {
    "postal": "M8Y5C5",
    "result": []
  },
  {
    "postal": "M8Y2X8",
    "result": [
      {
        "electoralDistricts": [
          {
            "election": null,
            "id": 29,
            "name": "Etobicoke—Lakeshore"
          }
        ],
        "pollDivisionIds": [
          10143883
        ],
        "postalCode": "M8Y2X8",
        "streetName": "MILTON",
        "streetDirectionId": null,
        "streetTypeId": "ST",
        "placeName": "ETOBICOKE",
        "streetNameDisplayText": "MILTON ST, ETOBICOKE"
      }
    ]
  },
  {
    "postal": "M8Y1W5",
    "result": [
      {
        "electoralDistricts": [
          {
            "election": null,
            "id": 29,
            "name": "Etobicoke—Lakeshore"
          }
        ],
        "pollDivisionIds": [
          10138145
        ],
        "postalCode": "M8Y1W5",
        "streetName": "BERRY",
        "streetDirectionId": null,
        "streetTypeId": "RD",
        "placeName": "ETOBICOKE",
        "streetNameDisplayText": "BERRY RD, ETOBICOKE"
      }
    ]
  },
  {
    "postal": "M8Y7G0",
    "result": []
  },
  {
    "postal": "M8Y8J8",
    "result": []
  },
  {
    "postal": "M8Y3Y0",
    "result": []
  },
  {
    "postal": "M8Y9T7",
    "result": []
  },
  {
    "postal": "M8Y5P4",
    "result": []
  },
  {
    "postal": "M8Y4B0",
    "result": []
  },
  {
    "postal": "M8Y9N8",
    "result": []
  },
  {
    "postal": "M8Y4A7",
    "result": [
      {
        "electoralDistricts": [
          {
            "election": null,
            "id": 29,
            "name": "Etobicoke—Lakeshore"
          }
        ],
        "pollDivisionIds": [
          10138145
        ],
        "postalCode": "M8Y4A7",
        "streetName": "BALLACAINE",
        "streetDirectionId": null,
        "streetTypeId": "DR",
        "placeName": "ETOBICOKE",
        "streetNameDisplayText": "BALLACAINE DR, ETOBICOKE"
      }
    ]
  },
  {
    "postal": "M8Y4H9",
    "result": [
      {
        "electoralDistricts": [
          {
            "election": null,
            "id": 29,
            "name": "Etobicoke—Lakeshore"
          }
        ],
        "pollDivisionIds": [
          10138155
        ],
        "postalCode": "M8Y4H9",
        "streetName": "CHIMES",
        "streetDirectionId": null,
        "streetTypeId": "LANE",
        "placeName": "ETOBICOKE",
        "streetNameDisplayText": "CHIMES LANE, ETOBICOKE"
      }
    ]
  },
  {
    "postal": "M8Y6X1",
    "result": []
  },
  {
    "postal": "M8Y9Y7",
    "result": []
  },
  {
    "postal": "M8Y2Y5",
    "result": [
      {
        "electoralDistricts": [
          {
            "election": null,
            "id": 29,
            "name": "Etobicoke—Lakeshore"
          }
        ],
        "pollDivisionIds": [
          10143883
        ],
        "postalCode": "M8Y2Y5",
        "streetName": "GRAND",
        "streetDirectionId": null,
        "streetTypeId": "AVE",
        "placeName": "ETOBICOKE",
        "streetNameDisplayText": "GRAND AVE, ETOBICOKE"
      }
    ]
  },
  {
    "postal": "M8Y8L7",
    "result": []
  },
  {
    "postal": "M8Y2A8",
    "result": [
      {
        "electoralDistricts": [
          {
            "election": null,
            "id": 29,
            "name": "Etobicoke—Lakeshore"
          }
        ],
        "pollDivisionIds": [
          10138145
        ],
        "postalCode": "M8Y2A8",
        "streetName": "KINGSLEA",
        "streetDirectionId": null,
        "streetTypeId": "GDNS",
        "placeName": "ETOBICOKE",
        "streetNameDisplayText": "KINGSLEA GDNS, ETOBICOKE"
      }
    ]
  },
  {
    "postal": "M8Y2K9",
    "result": [
      {
        "electoralDistricts": [
          {
            "election": null,
            "id": 29,
            "name": "Etobicoke—Lakeshore"
          }
        ],
        "pollDivisionIds": [
          10138151
        ],
        "postalCode": "M8Y2K9",
        "streetName": "WINSTON",
        "streetDirectionId": null,
        "streetTypeId": "GROVE",
        "placeName": "ETOBICOKE",
        "streetNameDisplayText": "WINSTON GROVE, ETOBICOKE"
      }
    ]
  },
  {
    "postal": "M8Y3E5",
    "result": [
      {
        "electoralDistricts": [
          {
            "election": null,
            "id": 29,
            "name": "Etobicoke—Lakeshore"
          }
        ],
        "pollDivisionIds": [
          10138155
        ],
        "postalCode": "M8Y3E5",
        "streetName": "BURMA",
        "streetDirectionId": null,
        "streetTypeId": "DR",
        "placeName": "ETOBICOKE",
        "streetNameDisplayText": "BURMA DR, ETOBICOKE"
      }
    ]
  },
  {
    "postal": "M8Y8N6",
    "result": []
  },
  {
    "postal": "M8Y8J4",
    "result": []
  },
  {
    "postal": "M8Y4R7",
    "result": []
  },
  {
    "postal": "M8Y9K1",
    "result": []
  },
  {
    "postal": "M8Y8E1",
    "result": []
  },
  {
    "postal": "M8Y0R1",
    "result": []
  },
  {
    "postal": "M8Y4J3",
    "result": []
  },
  {
    "postal": "M8Y7E7",
    "result": []
  },
  {
    "postal": "M8Y0J0",
    "result": []
  },
  {
    "postal": "M8Y7R8",
    "result": []
  },
  {
    "postal": "M8Y9X0",
    "result": []
  },
  {
    "postal": "M8Y7P6",
    "result": []
  },
  {
    "postal": "M8Y0R7",
    "result": []
  },
  {
    "postal": "M8Y5W1",
    "result": []
  },
  {
    "postal": "M8Y0K4",
    "result": []
  },
  {
    "postal": "M8Y7N9",
    "result": []
  },
  {
    "postal": "M8Y1N0",
    "result": []
  },
  {
    "postal": "M8Y6P3",
    "result": []
  },
  {
    "postal": "M8Y5A1",
    "result": []
  },
  {
    "postal": "M8Y9M9",
    "result": []
  },
  {
    "postal": "M8Y7T6",
    "result": []
  },
  {
    "postal": "M8Y3X0",
    "result": []
  },
  {
    "postal": "M8Y2T0",
    "result": []
  },
  {
    "postal": "M8Y5X9",
    "result": []
  },
  {
    "postal": "M8Y2R3",
    "result": [
      {
        "electoralDistricts": [
          {
            "election": null,
            "id": 29,
            "name": "Etobicoke—Lakeshore"
          }
        ],
        "pollDivisionIds": [
          10143883
        ],
        "postalCode": "M8Y2R3",
        "streetName": "ROYAL YORK",
        "streetDirectionId": null,
        "streetTypeId": "RD",
        "placeName": "ETOBICOKE",
        "streetNameDisplayText": "ROYAL YORK RD, ETOBICOKE"
      }
    ]
  },
  {
    "postal": "M8Y5N2",
    "result": []
  },
  {
    "postal": "M8Y4Y7",
    "result": []
  },
  {
    "postal": "M8Y7M0",
    "result": []
  },
  {
    "postal": "M8Y8P3",
    "result": []
  },
  {
    "postal": "M8Y3N3",
    "result": [
      {
        "electoralDistricts": [
          {
            "election": null,
            "id": 29,
            "name": "Etobicoke—Lakeshore"
          }
        ],
        "pollDivisionIds": [
          10138153
        ],
        "postalCode": "M8Y3N3",
        "streetName": "STEPHEN",
        "streetDirectionId": null,
        "streetTypeId": "DR",
        "placeName": "ETOBICOKE",
        "streetNameDisplayText": "STEPHEN DR, ETOBICOKE"
      }
    ]
  },
  {
    "postal": "M8Y7S3",
    "result": []
  },
  {
    "postal": "M8Y3V9",
    "result": [
      {
        "electoralDistricts": [
          {
            "election": null,
            "id": 29,
            "name": "Etobicoke—Lakeshore"
          }
        ],
        "pollDivisionIds": [
          10138153
        ],
        "postalCode": "M8Y3V9",
        "streetName": "PRINCE EDWARD",
        "streetDirectionId": "S",
        "streetTypeId": "DR",
        "placeName": "ETOBICOKE",
        "streetNameDisplayText": "PRINCE EDWARD DR S, ETOBICOKE"
      }
    ]
  },
  {
    "postal": "M8Y9N7",
    "result": []
  },
  {
    "postal": "M8Y0G4",
    "result": []
  },
  {
    "postal": "M8Y2E2",
    "result": [
      {
        "electoralDistricts": [
          {
            "election": null,
            "id": 29,
            "name": "Etobicoke—Lakeshore"
          }
        ],
        "pollDivisionIds": [
          10138153
        ],
        "postalCode": "M8Y2E2",
        "streetName": "KENRIDGE",
        "streetDirectionId": null,
        "streetTypeId": "AVE",
        "placeName": "ETOBICOKE",
        "streetNameDisplayText": "KENRIDGE AVE, ETOBICOKE"
      }
    ]
  },
  {
    "postal": "M8Y7W8",
    "result": []
  },
  {
    "postal": "M8Y7M5",
    "result": []
  },
  {
    "postal": "M8Y5W8",
    "result": []
  },
  {
    "postal": "M8Y5E5",
    "result": []
  },
  {
    "postal": "M8Y1P9",
    "result": [
      {
        "electoralDistricts": [
          {
            "election": null,
            "id": 29,
            "name": "Etobicoke—Lakeshore"
          }
        ],
        "pollDivisionIds": [
          10138153
        ],
        "postalCode": "M8Y1P9",
        "streetName": "WANISKA",
        "streetDirectionId": null,
        "streetTypeId": "AVE",
        "placeName": "ETOBICOKE",
        "streetNameDisplayText": "WANISKA AVE, ETOBICOKE"
      }
    ]
  },
  {
    "postal": "M8Y8V8",
    "result": []
  },
  {
    "postal": "M8Y9G8",
    "result": []
  },
  {
    "postal": "M8Y8H9",
    "result": []
  },
  {
    "postal": "M8Y1Z1",
    "result": [
      {
        "electoralDistricts": [
          {
            "election": null,
            "id": 29,
            "name": "Etobicoke—Lakeshore"
          }
        ],
        "pollDivisionIds": [
          10138145
        ],
        "postalCode": "M8Y1Z1",
        "streetName": "HILL HEIGHTS",
        "streetDirectionId": null,
        "streetTypeId": "RD",
        "placeName": "ETOBICOKE",
        "streetNameDisplayText": "HILL HEIGHTS RD, ETOBICOKE"
      }
    ]
  },
  {
    "postal": "M8Y8M3",
    "result": []
  },
  {
    "postal": "M8Y5H6",
    "result": []
  },
  {
    "postal": "M8Y7W7",
    "result": []
  },
  {
    "postal": "M8Y4L0",
    "result": []
  },
  {
    "postal": "M8Y2N1",
    "result": [
      {
        "electoralDistricts": [
          {
            "election": null,
            "id": 29,
            "name": "Etobicoke—Lakeshore"
          }
        ],
        "pollDivisionIds": [
          10138151
        ],
        "postalCode": "M8Y2N1",
        "streetName": "EDGEMORE",
        "streetDirectionId": null,
        "streetTypeId": "DR",
        "placeName": "ETOBICOKE",
        "streetNameDisplayText": "EDGEMORE DR, ETOBICOKE"
      }
    ]
  },
  {
    "postal": "M8Y2H4",
    "result": [
      {
        "electoralDistricts": [
          {
            "election": null,
            "id": 29,
            "name": "Etobicoke—Lakeshore"
          }
        ],
        "pollDivisionIds": [
          10138153
        ],
        "postalCode": "M8Y2H4",
        "streetName": "GLENELLEN",
        "streetDirectionId": "W",
        "streetTypeId": "DR",
        "placeName": "ETOBICOKE",
        "streetNameDisplayText": "GLENELLEN DR W, ETOBICOKE"
      }
    ]
  },
  {
    "postal": "M8Y5C8",
    "result": []
  },
  {
    "postal": "M8Y8B0",
    "result": []
  },
  {
    "postal": "M8Y1T4",
    "result": [
      {
        "electoralDistricts": [
          {
            "election": null,
            "id": 29,
            "name": "Etobicoke—Lakeshore"
          }
        ],
        "pollDivisionIds": [
          10138153
        ],
        "postalCode": "M8Y1T4",
        "streetName": "CLOVERHILL",
        "streetDirectionId": null,
        "streetTypeId": "RD",
        "placeName": "ETOBICOKE",
        "streetNameDisplayText": "CLOVERHILL RD, ETOBICOKE"
      }
    ]
  },
  {
    "postal": "M8Y7N7",
    "result": []
  },
  {
    "postal": "M8Y4L3",
    "result": []
  },
  {
    "postal": "M8Y2N2",
    "result": [
      {
        "electoralDistricts": [
          {
            "election": null,
            "id": 29,
            "name": "Etobicoke—Lakeshore"
          }
        ],
        "pollDivisionIds": [
          10138151
        ],
        "postalCode": "M8Y2N2",
        "streetName": "EDGEMORE",
        "streetDirectionId": null,
        "streetTypeId": "DR",
        "placeName": "ETOBICOKE",
        "streetNameDisplayText": "EDGEMORE DR, ETOBICOKE"
      }
    ]
  },
  {
    "postal": "M8Y4N8",
    "result": []
  },
  {
    "postal": "M8Y3M5",
    "result": [
      {
        "electoralDistricts": [
          {
            "election": null,
            "id": 29,
            "name": "Etobicoke—Lakeshore"
          }
        ],
        "pollDivisionIds": [
          10138153
        ],
        "postalCode": "M8Y3M5",
        "streetName": "STEPHEN",
        "streetDirectionId": null,
        "streetTypeId": "DR",
        "placeName": "ETOBICOKE",
        "streetNameDisplayText": "STEPHEN DR, ETOBICOKE"
      }
    ]
  },
  {
    "postal": "M8Y6H7",
    "result": []
  },
  {
    "postal": "M8Y8Y8",
    "result": []
  },
  {
    "postal": "M8Y5R9",
    "result": []
  },
  {
    "postal": "M8Y8G3",
    "result": []
  },
  {
    "postal": "M8Y4N7",
    "result": []
  },
  {
    "postal": "M8Y0B9",
    "result": []
  },
  {
    "postal": "M8Y9K7",
    "result": []
  },
  {
    "postal": "M8Y9K9",
    "result": []
  },
  {
    "postal": "M8Y3Z2",
    "result": [
      {
        "electoralDistricts": [
          {
            "election": null,
            "id": 29,
            "name": "Etobicoke—Lakeshore"
          }
        ],
        "pollDivisionIds": [
          10138151
        ],
        "postalCode": "M8Y3Z2",
        "streetName": "PRINCE EDWARD",
        "streetDirectionId": "S",
        "streetTypeId": "DR",
        "placeName": "ETOBICOKE",
        "streetNameDisplayText": "PRINCE EDWARD DR S, ETOBICOKE"
      }
    ]
  },
  {
    "postal": "M8Y6W7",
    "result": []
  },
  {
    "postal": "M8Y0P1",
    "result": []
  },
  {
    "postal": "M8Y3A0",
    "result": []
  },
  {
    "postal": "M8Y8L9",
    "result": []
  },
  {
    "postal": "M8Y6X0",
    "result": []
  },
  {
    "postal": "M8Y3E9",
    "result": [
      {
        "electoralDistricts": [
          {
            "election": null,
            "id": 29,
            "name": "Etobicoke—Lakeshore"
          }
        ],
        "pollDivisionIds": [
          10138155
        ],
        "postalCode": "M8Y3E9",
        "streetName": "WOODFORD PARK",
        "streetDirectionId": null,
        "streetTypeId": "RD",
        "placeName": "ETOBICOKE",
        "streetNameDisplayText": "WOODFORD PARK RD, ETOBICOKE"
      }
    ]
  },
  {
    "postal": "M8Y0S5",
    "result": []
  },
  {
    "postal": "M8Y1A2",
    "result": [
      {
        "electoralDistricts": [
          {
            "election": null,
            "id": 29,
            "name": "Etobicoke—Lakeshore"
          }
        ],
        "pollDivisionIds": [
          10143883
        ],
        "postalCode": "M8Y1A2",
        "streetName": "NEWCASTLE",
        "streetDirectionId": null,
        "streetTypeId": "ST",
        "placeName": "ETOBICOKE",
        "streetNameDisplayText": "NEWCASTLE ST, ETOBICOKE"
      }
    ]
  },
  {
    "postal": "M8Y5V8",
    "result": []
  },
  {
    "postal": "M8Y8C5",
    "result": []
  },
  {
    "postal": "M8Y6N0",
    "result": []
  },
  {
    "postal": "M8Y9E6",
    "result": []
  },
  {
    "postal": "M8Y5J7",
    "result": []
  },
  {
    "postal": "M8Y2R2",
    "result": [
      {
        "electoralDistricts": [
          {
            "election": null,
            "id": 29,
            "name": "Etobicoke—Lakeshore"
          }
        ],
        "pollDivisionIds": [
          10143883
        ],
        "postalCode": "M8Y2R2",
        "streetName": "ROYAL YORK",
        "streetDirectionId": null,
        "streetTypeId": "RD",
        "placeName": "ETOBICOKE",
        "streetNameDisplayText": "ROYAL YORK RD, ETOBICOKE"
      }
    ]
  },
  {
    "postal": "M8Y0P5",
    "result": []
  },
  {
    "postal": "M8Y5A7",
    "result": []
  },
  {
    "postal": "M8Y1G1",
    "result": []
  },
  {
    "postal": "M8Y9R6",
    "result": []
  },
  {
    "postal": "M8Y4Z9",
    "result": []
  },
  {
    "postal": "M8Y1V5",
    "result": [
      {
        "electoralDistricts": [
          {
            "election": null,
            "id": 29,
            "name": "Etobicoke—Lakeshore"
          }
        ],
        "pollDivisionIds": [
          10138153
        ],
        "postalCode": "M8Y1V5",
        "streetName": "STONEGATE",
        "streetDirectionId": null,
        "streetTypeId": "RD",
        "placeName": "ETOBICOKE",
        "streetNameDisplayText": "STONEGATE RD, ETOBICOKE"
      }
    ]
  },
  {
    "postal": "M8Y9Y5",
    "result": []
  },
  {
    "postal": "M8Y1P2",
    "result": [
      {
        "electoralDistricts": [
          {
            "election": null,
            "id": 29,
            "name": "Etobicoke—Lakeshore"
          }
        ],
        "pollDivisionIds": [
          10138153
        ],
        "postalCode": "M8Y1P2",
        "streetName": "RINGLEY",
        "streetDirectionId": null,
        "streetTypeId": "AVE",
        "placeName": "ETOBICOKE",
        "streetNameDisplayText": "RINGLEY AVE, ETOBICOKE"
      }
    ]
  },
  {
    "postal": "M8Y5X0",
    "result": []
  },
  {
    "postal": "M8Y7B8",
    "result": []
  },
  {
    "postal": "M8Y0C6",
    "result": []
  },
  {
    "postal": "M8Y6G1",
    "result": []
  },
  {
    "postal": "M8Y3K3",
    "result": [
      {
        "electoralDistricts": [
          {
            "election": null,
            "id": 29,
            "name": "Etobicoke—Lakeshore"
          }
        ],
        "pollDivisionIds": [
          10138145
        ],
        "postalCode": "M8Y3K3",
        "streetName": "PARK LAWN",
        "streetDirectionId": null,
        "streetTypeId": "RD",
        "placeName": "ETOBICOKE",
        "streetNameDisplayText": "PARK LAWN RD, ETOBICOKE"
      }
    ]
  },
  {
    "postal": "M8Y9R0",
    "result": []
  },
  {
    "postal": "M8Y4R8",
    "result": []
  },
  {
    "postal": "M8Y5P9",
    "result": []
  },
  {
    "postal": "M8Y8N4",
    "result": []
  },
  {
    "postal": "M8Y8H4",
    "result": []
  },
  {
    "postal": "M8Y4V1",
    "result": []
  },
  {
    "postal": "M8Y1K5",
    "result": [
      {
        "electoralDistricts": [
          {
            "election": null,
            "id": 29,
            "name": "Etobicoke—Lakeshore"
          }
        ],
        "pollDivisionIds": [
          10138155
        ],
        "postalCode": "M8Y1K5",
        "streetName": "THE QUEENSWAY",
        "streetDirectionId": null,
        "streetTypeId": null,
        "placeName": "ETOBICOKE",
        "streetNameDisplayText": "THE QUEENSWAY, ETOBICOKE"
      }
    ]
  },
  {
    "postal": "M8Y1Z5",
    "result": [
      {
        "electoralDistricts": [
          {
            "election": null,
            "id": 29,
            "name": "Etobicoke—Lakeshore"
          }
        ],
        "pollDivisionIds": [
          10138145
        ],
        "postalCode": "M8Y1Z5",
        "streetName": "BERNICE",
        "streetDirectionId": null,
        "streetTypeId": "AVE",
        "placeName": "ETOBICOKE",
        "streetNameDisplayText": "BERNICE AVE, ETOBICOKE"
      }
    ]
  },
  {
    "postal": "M8Y9L9",
    "result": []
  },
  {
    "postal": "M8Y5L2",
    "result": []
  },
  {
    "postal": "M8Y0M2",
    "result": []
  },
  {
    "postal": "M8Y1K8",
    "result": [
      {
        "electoralDistricts": [
          {
            "election": null,
            "id": 29,
            "name": "Etobicoke—Lakeshore"
          }
        ],
        "pollDivisionIds": [
          10138155
        ],
        "postalCode": "M8Y1K8",
        "streetName": "THE QUEENSWAY",
        "streetDirectionId": null,
        "streetTypeId": null,
        "placeName": "ETOBICOKE",
        "streetNameDisplayText": "THE QUEENSWAY, ETOBICOKE"
      }
    ]
  },
  {
    "postal": "M8Y3M7",
    "result": [
      {
        "electoralDistricts": [
          {
            "election": null,
            "id": 29,
            "name": "Etobicoke—Lakeshore"
          }
        ],
        "pollDivisionIds": [
          10138153
        ],
        "postalCode": "M8Y3M7",
        "streetName": "STEPHEN",
        "streetDirectionId": null,
        "streetTypeId": "DR",
        "placeName": "ETOBICOKE",
        "streetNameDisplayText": "STEPHEN DR, ETOBICOKE"
      }
    ]
  },
  {
    "postal": "M8Y1B2",
    "result": [
      {
        "electoralDistricts": [
          {
            "election": null,
            "id": 101,
            "name": "Spadina—Fort York"
          },
          {
            "election": null,
            "id": 29,
            "name": "Etobicoke—Lakeshore"
          }
        ],
        "pollDivisionIds": [
          10141951,
          10143883
        ],
        "postalCode": "M8Y1B2",
        "streetName": "PORTLAND",
        "streetDirectionId": null,
        "streetTypeId": "ST",
        "placeName": "ETOBICOKE",
        "streetNameDisplayText": "PORTLAND ST, ETOBICOKE"
      }
    ]
  },
  {
    "postal": "M8Y0H9",
    "result": []
  },
  {
    "postal": "M8Y8M4",
    "result": []
  },
  {
    "postal": "M8Y2M5",
    "result": [
      {
        "electoralDistricts": [
          {
            "election": null,
            "id": 29,
            "name": "Etobicoke—Lakeshore"
          }
        ],
        "pollDivisionIds": [
          10138151
        ],
        "postalCode": "M8Y2M5",
        "streetName": "ATHLONE",
        "streetDirectionId": null,
        "streetTypeId": "DR",
        "placeName": "ETOBICOKE",
        "streetNameDisplayText": "ATHLONE DR, ETOBICOKE"
      },
      {
        "electoralDistricts": [
          {
            "election": null,
            "id": 29,
            "name": "Etobicoke—Lakeshore"
          }
        ],
        "pollDivisionIds": [
          10138151
        ],
        "postalCode": "M8Y2M5",
        "streetName": "PRINCE EDWARD",
        "streetDirectionId": null,
        "streetTypeId": "DR",
        "placeName": "ETOBICOKE",
        "streetNameDisplayText": "PRINCE EDWARD DR, ETOBICOKE"
      }
    ]
  },
  {
    "postal": "M8Y0T9",
    "result": []
  },
  {
    "postal": "M8Y3P1",
    "result": [
      {
        "electoralDistricts": [
          {
            "election": null,
            "id": 29,
            "name": "Etobicoke—Lakeshore"
          }
        ],
        "pollDivisionIds": [
          10138153
        ],
        "postalCode": "M8Y3P1",
        "streetName": "TANGLEWOOD",
        "streetDirectionId": null,
        "streetTypeId": "TERR",
        "placeName": "ETOBICOKE",
        "streetNameDisplayText": "TANGLEWOOD TERR, ETOBICOKE"
      }
    ]
  },
  {
    "postal": "M8Y1R6",
    "result": [
      {
        "electoralDistricts": [
          {
            "election": null,
            "id": 29,
            "name": "Etobicoke—Lakeshore"
          }
        ],
        "pollDivisionIds": [
          10138153
        ],
        "postalCode": "M8Y1R6",
        "streetName": "PARK",
        "streetDirectionId": null,
        "streetTypeId": "LANE",
        "placeName": "ETOBICOKE",
        "streetNameDisplayText": "PARK LANE, ETOBICOKE"
      }
    ]
  },
  {
    "postal": "M8Y9V5",
    "result": []
  },
  {
    "postal": "M8Y9T0",
    "result": []
  },
  {
    "postal": "M8Y0A9",
    "result": [
      {
        "electoralDistricts": [
          {
            "election": null,
            "id": 29,
            "name": "Etobicoke—Lakeshore"
          }
        ],
        "pollDivisionIds": [
          10138155
        ],
        "postalCode": "M8Y0A9",
        "streetName": "GALA",
        "streetDirectionId": null,
        "streetTypeId": "LANE",
        "placeName": "ETOBICOKE",
        "streetNameDisplayText": "GALA LANE, ETOBICOKE"
      }
    ]
  },
  {
    "postal": "M8Y1M3",
    "result": [
      {
        "electoralDistricts": [
          {
            "election": null,
            "id": 29,
            "name": "Etobicoke—Lakeshore"
          }
        ],
        "pollDivisionIds": [
          10138155
        ],
        "postalCode": "M8Y1M3",
        "streetName": "DANIELS",
        "streetDirectionId": null,
        "streetTypeId": "ST",
        "placeName": "ETOBICOKE",
        "streetNameDisplayText": "DANIELS ST, ETOBICOKE"
      }
    ]
  },
  {
    "postal": "M8Y1W8",
    "result": [
      {
        "electoralDistricts": [
          {
            "election": null,
            "id": 29,
            "name": "Etobicoke—Lakeshore"
          }
        ],
        "pollDivisionIds": [
          10138145
        ],
        "postalCode": "M8Y1W8",
        "streetName": "BERRY",
        "streetDirectionId": null,
        "streetTypeId": "RD",
        "placeName": "ETOBICOKE",
        "streetNameDisplayText": "BERRY RD, ETOBICOKE"
      }
    ]
  },
  {
    "postal": "M8Y9J1",
    "result": []
  },
  {
    "postal": "M8Y8N5",
    "result": []
  },
  {
    "postal": "M8Y5X1",
    "result": []
  },
  {
    "postal": "M8Y6S2",
    "result": []
  },
  {
    "postal": "M8Y2A2",
    "result": [
      {
        "electoralDistricts": [
          {
            "election": null,
            "id": 29,
            "name": "Etobicoke—Lakeshore"
          }
        ],
        "pollDivisionIds": [
          10138145
        ],
        "postalCode": "M8Y2A2",
        "streetName": "SOUTH KINGSLEA",
        "streetDirectionId": null,
        "streetTypeId": "DR",
        "placeName": "ETOBICOKE",
        "streetNameDisplayText": "SOUTH KINGSLEA DR, ETOBICOKE"
      }
    ]
  },
  {
    "postal": "M8Y6A6",
    "result": []
  },
  {
    "postal": "M8Y0S3",
    "result": []
  },
  {
    "postal": "M8Y3E7",
    "result": [
      {
        "electoralDistricts": [
          {
            "election": null,
            "id": 29,
            "name": "Etobicoke—Lakeshore"
          }
        ],
        "pollDivisionIds": [
          10138155
        ],
        "postalCode": "M8Y3E7",
        "streetName": "WOODFORD PARK",
        "streetDirectionId": null,
        "streetTypeId": "RD",
        "placeName": "ETOBICOKE",
        "streetNameDisplayText": "WOODFORD PARK RD, ETOBICOKE"
      }
    ]
  },
  {
    "postal": "M8Y5R7",
    "result": []
  },
  {
    "postal": "M8Y3R6",
    "result": [
      {
        "electoralDistricts": [
          {
            "election": null,
            "id": 29,
            "name": "Etobicoke—Lakeshore"
          }
        ],
        "pollDivisionIds": [
          10138151
        ],
        "postalCode": "M8Y3R6",
        "streetName": "ELSFIELD",
        "streetDirectionId": null,
        "streetTypeId": "RD",
        "placeName": "ETOBICOKE",
        "streetNameDisplayText": "ELSFIELD RD, ETOBICOKE"
      }
    ]
  },
  {
    "postal": "M8Y6K4",
    "result": []
  },
  {
    "postal": "M8Y2W5",
    "result": [
      {
        "electoralDistricts": [
          {
            "election": null,
            "id": 29,
            "name": "Etobicoke—Lakeshore"
          }
        ],
        "pollDivisionIds": [
          10143883
        ],
        "postalCode": "M8Y2W5",
        "streetName": "WESLEY",
        "streetDirectionId": null,
        "streetTypeId": "ST",
        "placeName": "ETOBICOKE",
        "streetNameDisplayText": "WESLEY ST, ETOBICOKE"
      }
    ]
  },
  {
    "postal": "M8Y8W4",
    "result": []
  },
  {
    "postal": "M8Y9C2",
    "result": []
  },
  {
    "postal": "M8Y2C0",
    "result": []
  },
  {
    "postal": "M8Y0E1",
    "result": []
  },
  {
    "postal": "M8Y1K9",
    "result": [
      {
        "electoralDistricts": [
          {
            "election": null,
            "id": 29,
            "name": "Etobicoke—Lakeshore"
          }
        ],
        "pollDivisionIds": [
          10138155
        ],
        "postalCode": "M8Y1K9",
        "streetName": "THE QUEENSWAY",
        "streetDirectionId": null,
        "streetTypeId": null,
        "placeName": "ETOBICOKE",
        "streetNameDisplayText": "THE QUEENSWAY, ETOBICOKE"
      }
    ]
  },
  {
    "postal": "M8Y1G7",
    "result": [
      {
        "electoralDistricts": [
          {
            "election": null,
            "id": 29,
            "name": "Etobicoke—Lakeshore"
          }
        ],
        "pollDivisionIds": [
          10138155
        ],
        "postalCode": "M8Y1G7",
        "streetName": "DALESFORD",
        "streetDirectionId": null,
        "streetTypeId": "RD",
        "placeName": "ETOBICOKE",
        "streetNameDisplayText": "DALESFORD RD, ETOBICOKE"
      }
    ]
  },
  {
    "postal": "M8Y4E9",
    "result": [
      {
        "electoralDistricts": [
          {
            "election": null,
            "id": 29,
            "name": "Etobicoke—Lakeshore"
          }
        ],
        "pollDivisionIds": [
          10138145
        ],
        "postalCode": "M8Y4E9",
        "streetName": "RIVERWOOD",
        "streetDirectionId": null,
        "streetTypeId": "PKY",
        "placeName": "ETOBICOKE",
        "streetNameDisplayText": "RIVERWOOD PKY, ETOBICOKE"
      }
    ]
  },
  {
    "postal": "M8Y9P0",
    "result": []
  },
  {
    "postal": "M8Y5H3",
    "result": []
  },
  {
    "postal": "M8Y9X6",
    "result": []
  },
  {
    "postal": "M8Y5N7",
    "result": []
  },
  {
    "postal": "M8Y5A6",
    "result": []
  },
  {
    "postal": "M8Y4M0",
    "result": []
  },
  {
    "postal": "M8Y3V6",
    "result": []
  },
  {
    "postal": "M8Y1L7",
    "result": [
      {
        "electoralDistricts": [
          {
            "election": null,
            "id": 29,
            "name": "Etobicoke—Lakeshore"
          }
        ],
        "pollDivisionIds": [
          10138155
        ],
        "postalCode": "M8Y1L7",
        "streetName": "DANIELS",
        "streetDirectionId": null,
        "streetTypeId": "ST",
        "placeName": "ETOBICOKE",
        "streetNameDisplayText": "DANIELS ST, ETOBICOKE"
      }
    ]
  },
  {
    "postal": "M8Y2P9",
    "result": [
      {
        "electoralDistricts": [
          {
            "election": null,
            "id": 29,
            "name": "Etobicoke—Lakeshore"
          }
        ],
        "pollDivisionIds": [
          10143883
        ],
        "postalCode": "M8Y2P9",
        "streetName": "ROYAL YORK",
        "streetDirectionId": null,
        "streetTypeId": "RD",
        "placeName": "ETOBICOKE",
        "streetNameDisplayText": "ROYAL YORK RD, ETOBICOKE"
      }
    ]
  },
  {
    "postal": "M8Y5T4",
    "result": []
  },
  {
    "postal": "M8Y5Z1",
    "result": []
  },
  {
    "postal": "M8Y2X0",
    "result": []
  },
  {
    "postal": "M8Y6Z2",
    "result": []
  },
  {
    "postal": "M8Y0E0",
    "result": []
  },
  {
    "postal": "M8Y3Z5",
    "result": [
      {
        "electoralDistricts": [
          {
            "election": null,
            "id": 29,
            "name": "Etobicoke—Lakeshore"
          }
        ],
        "pollDivisionIds": [
          10138144
        ],
        "postalCode": "M8Y3Z5",
        "streetName": "PRINCE EDWARD",
        "streetDirectionId": null,
        "streetTypeId": "DR",
        "placeName": "ETOBICOKE",
        "streetNameDisplayText": "PRINCE EDWARD DR, ETOBICOKE"
      }
    ]
  },
  {
    "postal": "M8Y8H3",
    "result": []
  },
  {
    "postal": "M8Y7S6",
    "result": []
  },
  {
    "postal": "M8Y4C1",
    "result": [
      {
        "electoralDistricts": [
          {
            "election": null,
            "id": 29,
            "name": "Etobicoke—Lakeshore"
          }
        ],
        "pollDivisionIds": [
          10138145
        ],
        "postalCode": "M8Y4C1",
        "streetName": "CROWN HILL",
        "streetDirectionId": null,
        "streetTypeId": "PL",
        "placeName": "ETOBICOKE",
        "streetNameDisplayText": "CROWN HILL PL, ETOBICOKE"
      }
    ]
  },
  {
    "postal": "M8Y3K2",
    "result": [
      {
        "electoralDistricts": [
          {
            "election": null,
            "id": 29,
            "name": "Etobicoke—Lakeshore"
          }
        ],
        "pollDivisionIds": [
          10138153
        ],
        "postalCode": "M8Y3K2",
        "streetName": "PARK LAWN",
        "streetDirectionId": null,
        "streetTypeId": "RD",
        "placeName": "ETOBICOKE",
        "streetNameDisplayText": "PARK LAWN RD, ETOBICOKE"
      },
      {
        "electoralDistricts": [
          {
            "election": null,
            "id": 29,
            "name": "Etobicoke—Lakeshore"
          }
        ],
        "pollDivisionIds": [
          10138153
        ],
        "postalCode": "M8Y3K2",
        "streetName": "PARKLAWN",
        "streetDirectionId": null,
        "streetTypeId": "RD",
        "placeName": "ETOBICOKE",
        "streetNameDisplayText": "PARKLAWN RD, ETOBICOKE"
      }
    ]
  },
  {
    "postal": "M8Y1Y5",
    "result": [
      {
        "electoralDistricts": [
          {
            "election": null,
            "id": 29,
            "name": "Etobicoke—Lakeshore"
          }
        ],
        "pollDivisionIds": [
          10138145
        ],
        "postalCode": "M8Y1Y5",
        "streetName": "BETHNAL",
        "streetDirectionId": null,
        "streetTypeId": "AVE",
        "placeName": "ETOBICOKE",
        "streetNameDisplayText": "BETHNAL AVE, ETOBICOKE"
      }
    ]
  },
  {
    "postal": "M8Y6P6",
    "result": []
  },
  {
    "postal": "M8Y3N9",
    "result": [
      {
        "electoralDistricts": [
          {
            "election": null,
            "id": 29,
            "name": "Etobicoke—Lakeshore"
          }
        ],
        "pollDivisionIds": [
          10138153
        ],
        "postalCode": "M8Y3N9",
        "streetName": "HIGH",
        "streetDirectionId": null,
        "streetTypeId": "ST",
        "placeName": "ETOBICOKE",
        "streetNameDisplayText": "HIGH ST, ETOBICOKE"
      }
    ]
  },
  {
    "postal": "M8Y3W2",
    "result": [
      {
        "electoralDistricts": [
          {
            "election": null,
            "id": 29,
            "name": "Etobicoke—Lakeshore"
          }
        ],
        "pollDivisionIds": [
          10138153
        ],
        "postalCode": "M8Y3W2",
        "streetName": "PRINCE EDWARD",
        "streetDirectionId": "S",
        "streetTypeId": "DR",
        "placeName": "ETOBICOKE",
        "streetNameDisplayText": "PRINCE EDWARD DR S, ETOBICOKE"
      }
    ]
  },
  {
    "postal": "M8Y6H8",
    "result": []
  },
  {
    "postal": "M8Y9T3",
    "result": []
  },
  {
    "postal": "M8Y5L9",
    "result": []
  },
  {
    "postal": "M8Y7X7",
    "result": []
  },
  {
    "postal": "M8Y3J5",
    "result": [
      {
        "electoralDistricts": [
          {
            "election": null,
            "id": 29,
            "name": "Etobicoke—Lakeshore"
          }
        ],
        "pollDivisionIds": [
          10138153
        ],
        "postalCode": "M8Y3J5",
        "streetName": "PARK LAWN",
        "streetDirectionId": null,
        "streetTypeId": "RD",
        "placeName": "ETOBICOKE",
        "streetNameDisplayText": "PARK LAWN RD, ETOBICOKE"
      }
    ]
  },
  {
    "postal": "M8Y4J5",
    "result": []
  },
  {
    "postal": "M8Y6J2",
    "result": []
  },
  {
    "postal": "M8Y5V6",
    "result": []
  },
  {
    "postal": "M8Y3N2",
    "result": [
      {
        "electoralDistricts": [
          {
            "election": null,
            "id": 29,
            "name": "Etobicoke—Lakeshore"
          }
        ],
        "pollDivisionIds": [
          10138153
        ],
        "postalCode": "M8Y3N2",
        "streetName": "STEPHEN",
        "streetDirectionId": null,
        "streetTypeId": "DR",
        "placeName": "ETOBICOKE",
        "streetNameDisplayText": "STEPHEN DR, ETOBICOKE"
      }
    ]
  },
  {
    "postal": "M8Y3B1",
    "result": [
      {
        "electoralDistricts": [
          {
            "election": null,
            "id": 29,
            "name": "Etobicoke—Lakeshore"
          }
        ],
        "pollDivisionIds": [
          10138155
        ],
        "postalCode": "M8Y3B1",
        "streetName": "HOLBROOKE",
        "streetDirectionId": null,
        "streetTypeId": "AVE",
        "placeName": "ETOBICOKE",
        "streetNameDisplayText": "HOLBROOKE AVE, ETOBICOKE"
      }
    ]
  },
  {
    "postal": "M8Y8B5",
    "result": []
  },
  {
    "postal": "M8Y0K1",
    "result": []
  },
  {
    "postal": "M8Y7M7",
    "result": []
  },
  {
    "postal": "M8Y2M2",
    "result": [
      {
        "electoralDistricts": [
          {
            "election": null,
            "id": 29,
            "name": "Etobicoke—Lakeshore"
          }
        ],
        "pollDivisionIds": [
          10138151
        ],
        "postalCode": "M8Y2M2",
        "streetName": "GLENROY",
        "streetDirectionId": null,
        "streetTypeId": "AVE",
        "placeName": "ETOBICOKE",
        "streetNameDisplayText": "GLENROY AVE, ETOBICOKE"
      }
    ]
  },
  {
    "postal": "M8Y9N3",
    "result": []
  },
  {
    "postal": "M8Y4Y8",
    "result": []
  },
  {
    "postal": "M8Y3V7",
    "result": [
      {
        "electoralDistricts": [
          {
            "election": null,
            "id": 29,
            "name": "Etobicoke—Lakeshore"
          }
        ],
        "pollDivisionIds": [
          10138153
        ],
        "postalCode": "M8Y3V7",
        "streetName": "PRINCE EDWARD",
        "streetDirectionId": "S",
        "streetTypeId": "DR",
        "placeName": "ETOBICOKE",
        "streetNameDisplayText": "PRINCE EDWARD DR S, ETOBICOKE"
      }
    ]
  },
  {
    "postal": "M8Y8Z1",
    "result": []
  },
  {
    "postal": "M8Y7B3",
    "result": []
  },
  {
    "postal": "M8Y3A8",
    "result": [
      {
        "electoralDistricts": [
          {
            "election": null,
            "id": 29,
            "name": "Etobicoke—Lakeshore"
          }
        ],
        "pollDivisionIds": [
          10138155
        ],
        "postalCode": "M8Y3A8",
        "streetName": "PENHURST",
        "streetDirectionId": null,
        "streetTypeId": "AVE",
        "placeName": "ETOBICOKE",
        "streetNameDisplayText": "PENHURST AVE, ETOBICOKE"
      }
    ]
  },
  {
    "postal": "M8Y7V5",
    "result": []
  },
  {
    "postal": "M8Y2T2",
    "result": [
      {
        "electoralDistricts": [
          {
            "election": null,
            "id": 29,
            "name": "Etobicoke—Lakeshore"
          }
        ],
        "pollDivisionIds": [
          10138155
        ],
        "postalCode": "M8Y2T2",
        "streetName": "ROYAL YORK",
        "streetDirectionId": null,
        "streetTypeId": "RD",
        "placeName": "ETOBICOKE",
        "streetNameDisplayText": "ROYAL YORK RD, ETOBICOKE"
      }
    ]
  },
  {
    "postal": "M8Y6L3",
    "result": []
  },
  {
    "postal": "M8Y0L2",
    "result": []
  },
  {
    "postal": "M8Y5Y8",
    "result": []
  },
  {
    "postal": "M8Y0B8",
    "result": []
  },
  {
    "postal": "M8Y6R5",
    "result": []
  },
  {
    "postal": "M8Y8W6",
    "result": []
  },
  {
    "postal": "M8Y8G6",
    "result": []
  },
  {
    "postal": "M8Y6X3",
    "result": []
  },
  {
    "postal": "M8Y7R7",
    "result": []
  },
  {
    "postal": "M8Y4B6",
    "result": [
      {
        "electoralDistricts": [
          {
            "election": null,
            "id": 29,
            "name": "Etobicoke—Lakeshore"
          }
        ],
        "pollDivisionIds": [
          10138145
        ],
        "postalCode": "M8Y4B6",
        "streetName": "BALLACAINE",
        "streetDirectionId": null,
        "streetTypeId": "DR",
        "placeName": "ETOBICOKE",
        "streetNameDisplayText": "BALLACAINE DR, ETOBICOKE"
      }
    ]
  },
  {
    "postal": "M8Y3P9",
    "result": [
      {
        "electoralDistricts": [
          {
            "election": null,
            "id": 29,
            "name": "Etobicoke—Lakeshore"
          }
        ],
        "pollDivisionIds": [
          10138151
        ],
        "postalCode": "M8Y3P9",
        "streetName": "HUMBERVALE",
        "streetDirectionId": null,
        "streetTypeId": "BLVD",
        "placeName": "ETOBICOKE",
        "streetNameDisplayText": "HUMBERVALE BLVD, ETOBICOKE"
      }
    ]
  },
  {
    "postal": "M8Y2T3",
    "result": [
      {
        "electoralDistricts": [
          {
            "election": null,
            "id": 29,
            "name": "Etobicoke—Lakeshore"
          }
        ],
        "pollDivisionIds": [
          10138155,
          10138198,
          10138153
        ],
        "postalCode": "M8Y2T3",
        "streetName": "ROYAL YORK",
        "streetDirectionId": null,
        "streetTypeId": "RD",
        "placeName": "ETOBICOKE",
        "streetNameDisplayText": "ROYAL YORK RD, ETOBICOKE"
      }
    ]
  },
  {
    "postal": "M8Y1M4",
    "result": [
      {
        "electoralDistricts": [
          {
            "election": null,
            "id": 29,
            "name": "Etobicoke—Lakeshore"
          }
        ],
        "pollDivisionIds": [
          10138155
        ],
        "postalCode": "M8Y1M4",
        "streetName": "DANIELS",
        "streetDirectionId": null,
        "streetTypeId": "ST",
        "placeName": "ETOBICOKE",
        "streetNameDisplayText": "DANIELS ST, ETOBICOKE"
      }
    ]
  },
  {
    "postal": "M8Y0H1",
    "result": []
  },
  {
    "postal": "M8Y9W3",
    "result": []
  },
  {
    "postal": "M8Y6P1",
    "result": []
  },
  {
    "postal": "M8Y7G2",
    "result": []
  },
  {
    "postal": "M8Y4J9",
    "result": []
  },
  {
    "postal": "M8Y9E4",
    "result": []
  },
  {
    "postal": "M8Y8H0",
    "result": []
  },
  {
    "postal": "M8Y4M7",
    "result": []
  },
  {
    "postal": "M8Y2G9",
    "result": [
      {
        "electoralDistricts": [
          {
            "election": null,
            "id": 29,
            "name": "Etobicoke—Lakeshore"
          }
        ],
        "pollDivisionIds": [
          10138145
        ],
        "postalCode": "M8Y2G9",
        "streetName": "GLENELLEN",
        "streetDirectionId": "E",
        "streetTypeId": "DR",
        "placeName": "ETOBICOKE",
        "streetNameDisplayText": "GLENELLEN DR E, ETOBICOKE"
      }
    ]
  },
  {
    "postal": "M8Y8T2",
    "result": []
  },
  {
    "postal": "M8Y7G7",
    "result": []
  },
  {
    "postal": "M8Y4Z3",
    "result": []
  },
  {
    "postal": "M8Y5B3",
    "result": []
  },
  {
    "postal": "M8Y1S7",
    "result": [
      {
        "electoralDistricts": [
          {
            "election": null,
            "id": 29,
            "name": "Etobicoke—Lakeshore"
          }
        ],
        "pollDivisionIds": [
          10138153
        ],
        "postalCode": "M8Y1S7",
        "streetName": "KEYWELL",
        "streetDirectionId": null,
        "streetTypeId": "CRT",
        "placeName": "ETOBICOKE",
        "streetNameDisplayText": "KEYWELL CRT, ETOBICOKE"
      }
    ]
  },
  {
    "postal": "M8Y2N7",
    "result": [
      {
        "electoralDistricts": [
          {
            "election": null,
            "id": 29,
            "name": "Etobicoke—Lakeshore"
          }
        ],
        "pollDivisionIds": [
          10138151
        ],
        "postalCode": "M8Y2N7",
        "streetName": "MEADOWVALE",
        "streetDirectionId": null,
        "streetTypeId": "DR",
        "placeName": "ETOBICOKE",
        "streetNameDisplayText": "MEADOWVALE DR, ETOBICOKE"
      }
    ]
  },
  {
    "postal": "M8Y0H8",
    "result": []
  },
  {
    "postal": "M8Y7Z4",
    "result": []
  },
  {
    "postal": "M8Y7B1",
    "result": []
  },
  {
    "postal": "M8Y7P8",
    "result": []
  },
  {
    "postal": "M8Y7N0",
    "result": []
  },
  {
    "postal": "M8Y3Y5",
    "result": []
  },
  {
    "postal": "M8Y6K1",
    "result": []
  },
  {
    "postal": "M8Y9X5",
    "result": []
  },
  {
    "postal": "M8Y7S5",
    "result": []
  },
  {
    "postal": "M8Y0A4",
    "result": [
      {
        "electoralDistricts": [
          {
            "election": null,
            "id": 29,
            "name": "Etobicoke—Lakeshore"
          }
        ],
        "pollDivisionIds": [
          10138145
        ],
        "postalCode": "M8Y0A4",
        "streetName": "BELL MANOR",
        "streetDirectionId": null,
        "streetTypeId": "DR",
        "placeName": "ETOBICOKE",
        "streetNameDisplayText": "BELL MANOR DR, ETOBICOKE"
      }
    ]
  },
  {
    "postal": "M8Y4T5",
    "result": []
  },
  {
    "postal": "M8Y5K1",
    "result": []
  },
  {
    "postal": "M8Y0Z9",
    "result": []
  },
  {
    "postal": "M8Y7T2",
    "result": []
  },
  {
    "postal": "M8Y1L5",
    "result": [
      {
        "electoralDistricts": [
          {
            "election": null,
            "id": 29,
            "name": "Etobicoke—Lakeshore"
          }
        ],
        "pollDivisionIds": [
          10138155
        ],
        "postalCode": "M8Y1L5",
        "streetName": "THE QUEENSWAY",
        "streetDirectionId": null,
        "streetTypeId": null,
        "placeName": "ETOBICOKE",
        "streetNameDisplayText": "THE QUEENSWAY, ETOBICOKE"
      }
    ]
  },
  {
    "postal": "M8Y3N5",
    "result": [
      {
        "electoralDistricts": [
          {
            "election": null,
            "id": 29,
            "name": "Etobicoke—Lakeshore"
          }
        ],
        "pollDivisionIds": [
          10138153
        ],
        "postalCode": "M8Y3N5",
        "streetName": "STEPHEN",
        "streetDirectionId": null,
        "streetTypeId": "DR",
        "placeName": "ETOBICOKE",
        "streetNameDisplayText": "STEPHEN DR, ETOBICOKE"
      }
    ]
  },
  {
    "postal": "M8Y6H4",
    "result": []
  },
  {
    "postal": "M8Y5A5",
    "result": []
  },
  {
    "postal": "M8Y3R9",
    "result": [
      {
        "electoralDistricts": [
          {
            "election": null,
            "id": 29,
            "name": "Etobicoke—Lakeshore"
          }
        ],
        "pollDivisionIds": [
          10138153
        ],
        "postalCode": "M8Y3R9",
        "streetName": "GRENVIEW",
        "streetDirectionId": "S",
        "streetTypeId": "BLVD",
        "placeName": "ETOBICOKE",
        "streetNameDisplayText": "GRENVIEW BLVD S, ETOBICOKE"
      }
    ]
  },
  {
    "postal": "M8Y7L8",
    "result": []
  },
  {
    "postal": "M8Y6T6",
    "result": []
  },
  {
    "postal": "M8Y7Y7",
    "result": []
  },
  {
    "postal": "M8Y3M8",
    "result": [
      {
        "electoralDistricts": [
          {
            "election": null,
            "id": 29,
            "name": "Etobicoke—Lakeshore"
          }
        ],
        "pollDivisionIds": [
          10138153
        ],
        "postalCode": "M8Y3M8",
        "streetName": "STEPHEN",
        "streetDirectionId": null,
        "streetTypeId": "DR",
        "placeName": "ETOBICOKE",
        "streetNameDisplayText": "STEPHEN DR, ETOBICOKE"
      }
    ]
  },
  {
    "postal": "M8Y2E0",
    "result": []
  },
  {
    "postal": "M8Y4B5",
    "result": [
      {
        "electoralDistricts": [
          {
            "election": null,
            "id": 29,
            "name": "Etobicoke—Lakeshore"
          }
        ],
        "pollDivisionIds": [
          10138145
        ],
        "postalCode": "M8Y4B5",
        "streetName": "BALLACAINE",
        "streetDirectionId": null,
        "streetTypeId": "DR",
        "placeName": "ETOBICOKE",
        "streetNameDisplayText": "BALLACAINE DR, ETOBICOKE"
      }
    ]
  },
  {
    "postal": "M8Y1J3",
    "result": [
      {
        "electoralDistricts": [
          {
            "election": null,
            "id": 29,
            "name": "Etobicoke—Lakeshore"
          }
        ],
        "pollDivisionIds": [
          10138153
        ],
        "postalCode": "M8Y1J3",
        "streetName": "THE QUEENSWAY",
        "streetDirectionId": null,
        "streetTypeId": null,
        "placeName": "ETOBICOKE",
        "streetNameDisplayText": "THE QUEENSWAY, ETOBICOKE"
      }
    ]
  },
  {
    "postal": "M8Y5S6",
    "result": []
  },
  {
    "postal": "M8Y8P7",
    "result": []
  },
  {
    "postal": "M8Y7S7",
    "result": []
  },
  {
    "postal": "M8Y4C2",
    "result": [
      {
        "electoralDistricts": [
          {
            "election": null,
            "id": 29,
            "name": "Etobicoke—Lakeshore"
          }
        ],
        "pollDivisionIds": [
          10138145
        ],
        "postalCode": "M8Y4C2",
        "streetName": "CROWN HILL",
        "streetDirectionId": null,
        "streetTypeId": "PL",
        "placeName": "ETOBICOKE",
        "streetNameDisplayText": "CROWN HILL PL, ETOBICOKE"
      }
    ]
  },
  {
    "postal": "M8Y5Y0",
    "result": []
  },
  {
    "postal": "M8Y2V7",
    "result": [
      {
        "electoralDistricts": [
          {
            "election": null,
            "id": 29,
            "name": "Etobicoke—Lakeshore"
          }
        ],
        "pollDivisionIds": [
          10138144
        ],
        "postalCode": "M8Y2V7",
        "streetName": "ROYAL YORK",
        "streetDirectionId": null,
        "streetTypeId": "RD",
        "placeName": "ETOBICOKE",
        "streetNameDisplayText": "ROYAL YORK RD, ETOBICOKE"
      }
    ]
  },
  {
    "postal": "M8Y8P5",
    "result": []
  },
  {
    "postal": "M8Y5P5",
    "result": []
  },
  {
    "postal": "M8Y5Z0",
    "result": []
  },
  {
    "postal": "M8Y9B0",
    "result": []
  },
  {
    "postal": "M8Y1L0",
    "result": []
  },
  {
    "postal": "M8Y0B5",
    "result": [
      {
        "electoralDistricts": [
          {
            "election": null,
            "id": 29,
            "name": "Etobicoke—Lakeshore"
          }
        ],
        "pollDivisionIds": [
          10138159
        ],
        "postalCode": "M8Y0B5",
        "streetName": "PARK LAWN",
        "streetDirectionId": null,
        "streetTypeId": "RD",
        "placeName": "ETOBICOKE",
        "streetNameDisplayText": "PARK LAWN RD, ETOBICOKE"
      }
    ]
  },
  {
    "postal": "M8Y3L2",
    "result": [
      {
        "electoralDistricts": [
          {
            "election": null,
            "id": 29,
            "name": "Etobicoke—Lakeshore"
          }
        ],
        "pollDivisionIds": [
          10138153
        ],
        "postalCode": "M8Y3L2",
        "streetName": "GUTHRIE",
        "streetDirectionId": null,
        "streetTypeId": "AVE",
        "placeName": "ETOBICOKE",
        "streetNameDisplayText": "GUTHRIE AVE, ETOBICOKE"
      }
    ]
  },
  {
    "postal": "M8Y3B7",
    "result": [
      {
        "electoralDistricts": [
          {
            "election": null,
            "id": 29,
            "name": "Etobicoke—Lakeshore"
          }
        ],
        "pollDivisionIds": [
          10138155
        ],
        "postalCode": "M8Y3B7",
        "streetName": "MOYNES",
        "streetDirectionId": null,
        "streetTypeId": "AVE",
        "placeName": "ETOBICOKE",
        "streetNameDisplayText": "MOYNES AVE, ETOBICOKE"
      }
    ]
  },
  {
    "postal": "M8Y8L1",
    "result": []
  },
  {
    "postal": "M8Y5M4",
    "result": []
  },
  {
    "postal": "M8Y4G9",
    "result": []
  },
  {
    "postal": "M8Y0P0",
    "result": []
  },
  {
    "postal": "M8Y8G2",
    "result": []
  },
  {
    "postal": "M8Y1V9",
    "result": [
      {
        "electoralDistricts": [
          {
            "election": null,
            "id": 29,
            "name": "Etobicoke—Lakeshore"
          }
        ],
        "pollDivisionIds": [
          10138153
        ],
        "postalCode": "M8Y1V9",
        "streetName": "TRILLIUM",
        "streetDirectionId": null,
        "streetTypeId": "TERR",
        "placeName": "ETOBICOKE",
        "streetNameDisplayText": "TRILLIUM TERR, ETOBICOKE"
      }
    ]
  },
  {
    "postal": "M8Y8N8",
    "result": []
  },
  {
    "postal": "M8Y6S8",
    "result": []
  },
  {
    "postal": "M8Y8H2",
    "result": []
  },
  {
    "postal": "M8Y5R8",
    "result": []
  },
  {
    "postal": "M8Y5L4",
    "result": []
  },
  {
    "postal": "M8Y9E1",
    "result": []
  },
  {
    "postal": "M8Y1C4",
    "result": [
      {
        "electoralDistricts": [
          {
            "election": null,
            "id": 29,
            "name": "Etobicoke—Lakeshore"
          }
        ],
        "pollDivisionIds": [
          10143883
        ],
        "postalCode": "M8Y1C4",
        "streetName": "ALGOMA",
        "streetDirectionId": null,
        "streetTypeId": "ST",
        "placeName": "ETOBICOKE",
        "streetNameDisplayText": "ALGOMA ST, ETOBICOKE"
      }
    ]
  },
  {
    "postal": "M8Y8W5",
    "result": []
  },
  {
    "postal": "M8Y1Y4",
    "result": [
      {
        "electoralDistricts": [
          {
            "election": null,
            "id": 29,
            "name": "Etobicoke—Lakeshore"
          }
        ],
        "pollDivisionIds": [
          10138145
        ],
        "postalCode": "M8Y1Y4",
        "streetName": "BASKING",
        "streetDirectionId": null,
        "streetTypeId": "RIDGE",
        "placeName": "ETOBICOKE",
        "streetNameDisplayText": "BASKING RIDGE, ETOBICOKE"
      }
    ]
  },
  {
    "postal": "M8Y1C0",
    "result": []
  },
  {
    "postal": "M8Y2J2",
    "result": [
      {
        "electoralDistricts": [
          {
            "election": null,
            "id": 29,
            "name": "Etobicoke—Lakeshore"
          }
        ],
        "pollDivisionIds": [
          10138153
        ],
        "postalCode": "M8Y2J2",
        "streetName": "SUNNYDALE",
        "streetDirectionId": null,
        "streetTypeId": "DR",
        "placeName": "ETOBICOKE",
        "streetNameDisplayText": "SUNNYDALE DR, ETOBICOKE"
      }
    ]
  },
  {
    "postal": "M8Y2J0",
    "result": []
  },
  {
    "postal": "M8Y7A3",
    "result": []
  },
  {
    "postal": "M8Y8M1",
    "result": []
  },
  {
    "postal": "M8Y7T9",
    "result": []
  },
  {
    "postal": "M8Y6C0",
    "result": []
  },
  {
    "postal": "M8Y7X1",
    "result": []
  },
  {
    "postal": "M8Y0G1",
    "result": []
  },
  {
    "postal": "M8Y4X2",
    "result": []
  },
  {
    "postal": "M8Y0N6",
    "result": []
  },
  {
    "postal": "M8Y8E3",
    "result": []
  },
  {
    "postal": "M8Y5S8",
    "result": []
  },
  {
    "postal": "M8Y0R0",
    "result": []
  },
  {
    "postal": "M8Y6J6",
    "result": []
  },
  {
    "postal": "M8Y4B4",
    "result": [
      {
        "electoralDistricts": [
          {
            "election": null,
            "id": 29,
            "name": "Etobicoke—Lakeshore"
          }
        ],
        "pollDivisionIds": [
          10138145
        ],
        "postalCode": "M8Y4B4",
        "streetName": "BALLACAINE",
        "streetDirectionId": null,
        "streetTypeId": "DR",
        "placeName": "ETOBICOKE",
        "streetNameDisplayText": "BALLACAINE DR, ETOBICOKE"
      }
    ]
  },
  {
    "postal": "M8Y7E3",
    "result": []
  },
  {
    "postal": "M8Y3N6",
    "result": [
      {
        "electoralDistricts": [
          {
            "election": null,
            "id": 29,
            "name": "Etobicoke—Lakeshore"
          }
        ],
        "pollDivisionIds": [
          10138145
        ],
        "postalCode": "M8Y3N6",
        "streetName": "STEPHEN",
        "streetDirectionId": null,
        "streetTypeId": "DR",
        "placeName": "ETOBICOKE",
        "streetNameDisplayText": "STEPHEN DR, ETOBICOKE"
      }
    ]
  },
  {
    "postal": "M8Y3X6",
    "result": [
      {
        "electoralDistricts": [
          {
            "election": null,
            "id": 29,
            "name": "Etobicoke—Lakeshore"
          }
        ],
        "pollDivisionIds": [
          10138151
        ],
        "postalCode": "M8Y3X6",
        "streetName": "PRINCE EDWARD",
        "streetDirectionId": "S",
        "streetTypeId": "DR",
        "placeName": "ETOBICOKE",
        "streetNameDisplayText": "PRINCE EDWARD DR S, ETOBICOKE"
      }
    ]
  },
  {
    "postal": "M8Y8L0",
    "result": []
  },
  {
    "postal": "M8Y8N1",
    "result": []
  },
  {
    "postal": "M8Y4J0",
    "result": []
  },
  {
    "postal": "M8Y0X7",
    "result": []
  },
  {
    "postal": "M8Y6S4",
    "result": []
  },
  {
    "postal": "M8Y0Z0",
    "result": []
  },
  {
    "postal": "M8Y9X8",
    "result": []
  },
  {
    "postal": "M8Y3H3",
    "result": [
      {
        "electoralDistricts": [
          {
            "election": null,
            "id": 29,
            "name": "Etobicoke—Lakeshore"
          }
        ],
        "pollDivisionIds": [
          10138153
        ],
        "postalCode": "M8Y3H3",
        "streetName": "GLENN MURRAY",
        "streetDirectionId": null,
        "streetTypeId": "DR",
        "placeName": "ETOBICOKE",
        "streetNameDisplayText": "GLENN MURRAY DR, ETOBICOKE"
      }
    ]
  },
  {
    "postal": "M8Y7S2",
    "result": []
  },
  {
    "postal": "M8Y3T3",
    "result": [
      {
        "electoralDistricts": [
          {
            "election": null,
            "id": 29,
            "name": "Etobicoke—Lakeshore"
          }
        ],
        "pollDivisionIds": [
          10138153
        ],
        "postalCode": "M8Y3T3",
        "streetName": "GRENVIEW",
        "streetDirectionId": "S",
        "streetTypeId": "BLVD",
        "placeName": "ETOBICOKE",
        "streetNameDisplayText": "GRENVIEW BLVD S, ETOBICOKE"
      }
    ]
  },
  {
    "postal": "M8Y9P3",
    "result": []
  },
  {
    "postal": "M8Y4H8",
    "result": [
      {
        "electoralDistricts": [
          {
            "election": null,
            "id": 29,
            "name": "Etobicoke—Lakeshore"
          }
        ],
        "pollDivisionIds": [
          10138155
        ],
        "postalCode": "M8Y4H8",
        "streetName": "CHIMES",
        "streetDirectionId": null,
        "streetTypeId": "LANE",
        "placeName": "ETOBICOKE",
        "streetNameDisplayText": "CHIMES LANE, ETOBICOKE"
      }
    ]
  },
  {
    "postal": "M8Y6R1",
    "result": []
  },
  {
    "postal": "M8Y1S0",
    "result": []
  },
  {
    "postal": "M8Y3W8",
    "result": [
      {
        "electoralDistricts": [
          {
            "election": null,
            "id": 29,
            "name": "Etobicoke—Lakeshore"
          }
        ],
        "pollDivisionIds": [
          10138153
        ],
        "postalCode": "M8Y3W8",
        "streetName": "PRINCE EDWARD",
        "streetDirectionId": "S",
        "streetTypeId": "DR",
        "placeName": "ETOBICOKE",
        "streetNameDisplayText": "PRINCE EDWARD DR S, ETOBICOKE"
      }
    ]
  },
  {
    "postal": "M8Y4S3",
    "result": []
  },
  {
    "postal": "M8Y1B6",
    "result": [
      {
        "electoralDistricts": [
          {
            "election": null,
            "id": 29,
            "name": "Etobicoke—Lakeshore"
          }
        ],
        "pollDivisionIds": [
          10143883
        ],
        "postalCode": "M8Y1B6",
        "streetName": "MELROSE",
        "streetDirectionId": null,
        "streetTypeId": "ST",
        "placeName": "ETOBICOKE",
        "streetNameDisplayText": "MELROSE ST, ETOBICOKE"
      }
    ]
  },
  {
    "postal": "M8Y8R3",
    "result": []
  },
  {
    "postal": "M8Y4V9",
    "result": []
  },
  {
    "postal": "M8Y9W4",
    "result": []
  },
  {
    "postal": "M8Y3T4",
    "result": [
      {
        "electoralDistricts": [
          {
            "election": null,
            "id": 29,
            "name": "Etobicoke—Lakeshore"
          }
        ],
        "pollDivisionIds": [
          10138151
        ],
        "postalCode": "M8Y3T4",
        "streetName": "GRENVIEW",
        "streetDirectionId": "S",
        "streetTypeId": "BLVD",
        "placeName": "ETOBICOKE",
        "streetNameDisplayText": "GRENVIEW BLVD S, ETOBICOKE"
      }
    ]
  },
  {
    "postal": "M8Y5C7",
    "result": []
  },
  {
    "postal": "M8Y3Y1",
    "result": []
  },
  {
    "postal": "M8Y5V0",
    "result": []
  },
  {
    "postal": "M8Y8G8",
    "result": []
  },
  {
    "postal": "M8Y8B1",
    "result": []
  },
  {
    "postal": "M8Y4P5",
    "result": []
  },
  {
    "postal": "M8Y7B2",
    "result": []
  },
  {
    "postal": "M8Y0R2",
    "result": []
  },
  {
    "postal": "M8Y4M4",
    "result": []
  },
  {
    "postal": "M8Y7M4",
    "result": []
  },
  {
    "postal": "M8Y9S7",
    "result": []
  },
  {
    "postal": "M8Y5Z7",
    "result": []
  },
  {
    "postal": "M8Y7J7",
    "result": []
  },
  {
    "postal": "M8Y8R8",
    "result": []
  },
  {
    "postal": "M8Y9X1",
    "result": []
  },
  {
    "postal": "M8Y5M9",
    "result": []
  },
  {
    "postal": "M8Y9B4",
    "result": []
  },
  {
    "postal": "M8Y0L9",
    "result": []
  },
  {
    "postal": "M8Y9G4",
    "result": []
  },
  {
    "postal": "M8Y1J4",
    "result": [
      {
        "electoralDistricts": [
          {
            "election": null,
            "id": 29,
            "name": "Etobicoke—Lakeshore"
          }
        ],
        "pollDivisionIds": [
          10138153
        ],
        "postalCode": "M8Y1J4",
        "streetName": "THE QUEENSWAY",
        "streetDirectionId": null,
        "streetTypeId": null,
        "placeName": "ETOBICOKE",
        "streetNameDisplayText": "THE QUEENSWAY, ETOBICOKE"
      }
    ]
  },
  {
    "postal": "M8Y0W6",
    "result": []
  }
]
