[
  {
    "postal": "P1A9J6",
    "result": []
  },
  {
    "postal": "P1A9Z5",
    "result": []
  },
  {
    "postal": "P1A7H8",
    "result": []
  },
  {
    "postal": "P1A0P6",
    "result": []
  },
  {
    "postal": "P1A0S7",
    "result": []
  },
  {
    "postal": "P1A8B9",
    "result": []
  },
  {
    "postal": "P1A2A6",
    "result": [
      {
        "electoralDistricts": [
          {
            "election": null,
            "id": 72,
            "name": "Nipissing"
          }
        ],
        "pollDivisionIds": [
          10140176
        ],
        "postalCode": "P1A2A6",
        "streetName": "LAKESHORE",
        "streetDirectionId": null,
        "streetTypeId": "DR",
        "placeName": "NORTH BAY",
        "streetNameDisplayText": "LAKESHORE DR, NORTH BAY"
      }
    ]
  },
  {
    "postal": "P1A7V2",
    "result": []
  },
  {
    "postal": "P1A9P4",
    "result": []
  },
  {
    "postal": "P1A6G0",
    "result": []
  },
  {
    "postal": "P1A2K0",
    "result": []
  },
  {
    "postal": "P1A7N6",
    "result": []
  },
  {
    "postal": "P1A5R3",
    "result": []
  },
  {
    "postal": "P1A7K0",
    "result": []
  },
  {
    "postal": "P1A3R2",
    "result": []
  },
  {
    "postal": "P1A0J1",
    "result": []
  },
  {
    "postal": "P1A0B0",
    "result": []
  },
  {
    "postal": "P1A5Z2",
    "result": []
  },
  {
    "postal": "P1A7P3",
    "result": []
  },
  {
    "postal": "P1A2K3",
    "result": [
      {
        "electoralDistricts": [
          {
            "election": null,
            "id": 72,
            "name": "Nipissing"
          }
        ],
        "pollDivisionIds": [
          10140176
        ],
        "postalCode": "P1A2K3",
        "streetName": "LEE",
        "streetDirectionId": null,
        "streetTypeId": "AVE",
        "placeName": "NORTH BAY",
        "streetNameDisplayText": "LEE AVE, NORTH BAY"
      }
    ]
  },
  {
    "postal": "P1A7Y6",
    "result": []
  },
  {
    "postal": "P1A1L9",
    "result": [
      {
        "electoralDistricts": [
          {
            "election": null,
            "id": 72,
            "name": "Nipissing"
          }
        ],
        "pollDivisionIds": [
          10140177
        ],
        "postalCode": "P1A1L9",
        "streetName": "JOSEPH",
        "streetDirectionId": null,
        "streetTypeId": "ST",
        "placeName": "NORTH BAY",
        "streetNameDisplayText": "JOSEPH ST, NORTH BAY"
      }
    ]
  },
  {
    "postal": "P1A8T0",
    "result": []
  },
  {
    "postal": "P1A3K8",
    "result": [
      {
        "electoralDistricts": [
          {
            "election": null,
            "id": 72,
            "name": "Nipissing"
          }
        ],
        "pollDivisionIds": [
          10140157
        ],
        "postalCode": "P1A3K8",
        "streetName": "CAMELOT",
        "streetDirectionId": null,
        "streetTypeId": "DR",
        "placeName": "NORTH BAY",
        "streetNameDisplayText": "CAMELOT DR, NORTH BAY"
      }
    ]
  },
  {
    "postal": "P1A5W9",
    "result": []
  },
  {
    "postal": "P1A6T9",
    "result": []
  },
  {
    "postal": "P1A4H1",
    "result": [
      {
        "electoralDistricts": [
          {
            "election": null,
            "id": 72,
            "name": "Nipissing"
          }
        ],
        "pollDivisionIds": [
          10140178
        ],
        "postalCode": "P1A4H1",
        "streetName": "MASSEY",
        "streetDirectionId": null,
        "streetTypeId": "DR",
        "placeName": "NORTH BAY",
        "streetNameDisplayText": "MASSEY DR, NORTH BAY"
      }
    ]
  },
  {
    "postal": "P1A7A2",
    "result": []
  },
  {
    "postal": "P1A5G0",
    "result": []
  },
  {
    "postal": "P1A8V5",
    "result": []
  },
  {
    "postal": "P1A2Y8",
    "result": [
      {
        "electoralDistricts": [
          {
            "election": null,
            "id": 72,
            "name": "Nipissing"
          }
        ],
        "pollDivisionIds": [
          10140174
        ],
        "postalCode": "P1A2Y8",
        "streetName": "SYLVAN",
        "streetDirectionId": null,
        "streetTypeId": "CRES",
        "placeName": "NORTH BAY",
        "streetNameDisplayText": "SYLVAN CRES, NORTH BAY"
      }
    ]
  },
  {
    "postal": "P1A2B6",
    "result": [
      {
        "electoralDistricts": [
          {
            "election": null,
            "id": 72,
            "name": "Nipissing"
          }
        ],
        "pollDivisionIds": [
          10140176
        ],
        "postalCode": "P1A2B6",
        "streetName": "LAKESHORE",
        "streetDirectionId": null,
        "streetTypeId": "DR",
        "placeName": "NORTH BAY",
        "streetNameDisplayText": "LAKESHORE DR, NORTH BAY"
      }
    ]
  },
  {
    "postal": "P1A4W8",
    "result": []
  },
  {
    "postal": "P1A8H7",
    "result": []
  },
  {
    "postal": "P1A5P1",
    "result": []
  },
  {
    "postal": "P1A2B8",
    "result": [
      {
        "electoralDistricts": [
          {
            "election": null,
            "id": 72,
            "name": "Nipissing"
          }
        ],
        "pollDivisionIds": [
          10140176
        ],
        "postalCode": "P1A2B8",
        "streetName": "LAKESHORE",
        "streetDirectionId": null,
        "streetTypeId": "DR",
        "placeName": "NORTH BAY",
        "streetNameDisplayText": "LAKESHORE DR, NORTH BAY"
      }
    ]
  },
  {
    "postal": "P1A0P2",
    "result": []
  },
  {
    "postal": "P1A9M1",
    "result": []
  },
  {
    "postal": "P1A3G0",
    "result": []
  },
  {
    "postal": "P1A9Z2",
    "result": []
  },
  {
    "postal": "P1A2A0",
    "result": []
  },
  {
    "postal": "P1A6Y0",
    "result": []
  },
  {
    "postal": "P1A2Z8",
    "result": [
      {
        "electoralDistricts": [
          {
            "election": null,
            "id": 72,
            "name": "Nipissing"
          }
        ],
        "pollDivisionIds": [
          10140157,
          10140174
        ],
        "postalCode": "P1A2Z8",
        "streetName": "LAKE HEIGHTS",
        "streetDirectionId": null,
        "streetTypeId": "RD",
        "placeName": "NORTH BAY",
        "streetNameDisplayText": "LAKE HEIGHTS RD, NORTH BAY"
      },
      {
        "electoralDistricts": [
          {
            "election": null,
            "id": 72,
            "name": "Nipissing"
          }
        ],
        "pollDivisionIds": [
          10140157
        ],
        "postalCode": "P1A2Z8",
        "streetName": "LAKEHEIGHTS",
        "streetDirectionId": null,
        "streetTypeId": "RD",
        "placeName": "NORTH BAY",
        "streetNameDisplayText": "LAKEHEIGHTS RD, NORTH BAY"
      }
    ]
  },
  {
    "postal": "P1A7Y3",
    "result": []
  },
  {
    "postal": "P1A6Z5",
    "result": []
  },
  {
    "postal": "P1A6E0",
    "result": []
  },
  {
    "postal": "P1A9B7",
    "result": []
  },
  {
    "postal": "P1A9S5",
    "result": []
  },
  {
    "postal": "P1A3X3",
    "result": [
      {
        "electoralDistricts": [
          {
            "election": null,
            "id": 72,
            "name": "Nipissing"
          }
        ],
        "pollDivisionIds": [
          10140157
        ],
        "postalCode": "P1A3X3",
        "streetName": "SHALLOT",
        "streetDirectionId": null,
        "streetTypeId": "CRES",
        "placeName": "NORTH BAY",
        "streetNameDisplayText": "SHALLOT CRES, NORTH BAY"
      }
    ]
  },
  {
    "postal": "P1A7R5",
    "result": []
  },
  {
    "postal": "P1A2X3",
    "result": []
  },
  {
    "postal": "P1A8Z9",
    "result": []
  },
  {
    "postal": "P1A0N4",
    "result": []
  },
  {
    "postal": "P1A1K1",
    "result": [
      {
        "electoralDistricts": [
          {
            "election": null,
            "id": 72,
            "name": "Nipissing"
          }
        ],
        "pollDivisionIds": [
          10140176
        ],
        "postalCode": "P1A1K1",
        "streetName": "GERTRUDE",
        "streetDirectionId": "E",
        "streetTypeId": "ST",
        "placeName": "NORTH BAY",
        "streetNameDisplayText": "GERTRUDE ST E, NORTH BAY"
      }
    ]
  },
  {
    "postal": "P1A1S3",
    "result": [
      {
        "electoralDistricts": [
          {
            "election": null,
            "id": 72,
            "name": "Nipissing"
          }
        ],
        "pollDivisionIds": [
          10140176
        ],
        "postalCode": "P1A1S3",
        "streetName": "CHARLAND",
        "streetDirectionId": null,
        "streetTypeId": "DR",
        "placeName": "NORTH BAY",
        "streetNameDisplayText": "CHARLAND DR, NORTH BAY"
      }
    ]
  },
  {
    "postal": "P1A6M4",
    "result": []
  },
  {
    "postal": "P1A9A9",
    "result": []
  },
  {
    "postal": "P1A9Z9",
    "result": []
  },
  {
    "postal": "P1A6T4",
    "result": []
  },
  {
    "postal": "P1A0B2",
    "result": [
      {
        "electoralDistricts": [
          {
            "election": null,
            "id": 72,
            "name": "Nipissing"
          }
        ],
        "pollDivisionIds": [
          10140174
        ],
        "postalCode": "P1A0B2",
        "streetName": "CHOLETTE",
        "streetDirectionId": null,
        "streetTypeId": "ST",
        "placeName": "NORTH BAY",
        "streetNameDisplayText": "CHOLETTE ST, NORTH BAY"
      }
    ]
  },
  {
    "postal": "P1A2L9",
    "result": [
      {
        "electoralDistricts": [
          {
            "election": null,
            "id": 72,
            "name": "Nipissing"
          }
        ],
        "pollDivisionIds": [
          10140176
        ],
        "postalCode": "P1A2L9",
        "streetName": "GLADSTONE",
        "streetDirectionId": null,
        "streetTypeId": "AVE",
        "placeName": "NORTH BAY",
        "streetNameDisplayText": "GLADSTONE AVE, NORTH BAY"
      }
    ]
  },
  {
    "postal": "P1A8K9",
    "result": []
  },
  {
    "postal": "P1A2H9",
    "result": [
      {
        "electoralDistricts": [
          {
            "election": null,
            "id": 72,
            "name": "Nipissing"
          }
        ],
        "pollDivisionIds": [
          10140179
        ],
        "postalCode": "P1A2H9",
        "streetName": "PREMIER",
        "streetDirectionId": null,
        "streetTypeId": "RD",
        "placeName": "NORTH BAY",
        "streetNameDisplayText": "PREMIER RD, NORTH BAY"
      }
    ]
  },
  {
    "postal": "P1A3Z6",
    "result": [
      {
        "electoralDistricts": [
          {
            "election": null,
            "id": 72,
            "name": "Nipissing"
          }
        ],
        "pollDivisionIds": [
          10140171
        ],
        "postalCode": "P1A3Z6",
        "streetName": "DRURY",
        "streetDirectionId": null,
        "streetTypeId": "ST",
        "placeName": "NORTH BAY",
        "streetNameDisplayText": "DRURY ST, NORTH BAY"
      }
    ]
  },
  {
    "postal": "P1A3B0",
    "result": []
  },
  {
    "postal": "P1A2H8",
    "result": [
      {
        "electoralDistricts": [
          {
            "election": null,
            "id": 72,
            "name": "Nipissing"
          }
        ],
        "pollDivisionIds": [
          10140179
        ],
        "postalCode": "P1A2H8",
        "streetName": "PREMIER",
        "streetDirectionId": null,
        "streetTypeId": "RD",
        "placeName": "NORTH BAY",
        "streetNameDisplayText": "PREMIER RD, NORTH BAY"
      }
    ]
  },
  {
    "postal": "P1A3X2",
    "result": []
  },
  {
    "postal": "P1A2E9",
    "result": [
      {
        "electoralDistricts": [
          {
            "election": null,
            "id": 72,
            "name": "Nipissing"
          }
        ],
        "pollDivisionIds": [
          10140177
        ],
        "postalCode": "P1A2E9",
        "streetName": "LAKESHORE",
        "streetDirectionId": null,
        "streetTypeId": "DR",
        "placeName": "NORTH BAY",
        "streetNameDisplayText": "LAKESHORE DR, NORTH BAY"
      }
    ]
  },
  {
    "postal": "P1A9P6",
    "result": []
  },
  {
    "postal": "P1A9E2",
    "result": []
  },
  {
    "postal": "P1A9H2",
    "result": []
  },
  {
    "postal": "P1A1S8",
    "result": [
      {
        "electoralDistricts": [
          {
            "election": null,
            "id": 72,
            "name": "Nipissing"
          }
        ],
        "pollDivisionIds": [
          10140176
        ],
        "postalCode": "P1A1S8",
        "streetName": "PARSONS",
        "streetDirectionId": null,
        "streetTypeId": "AVE",
        "placeName": "NORTH BAY",
        "streetNameDisplayText": "PARSONS AVE, NORTH BAY"
      }
    ]
  },
  {
    "postal": "P1A3M6",
    "result": [
      {
        "electoralDistricts": [
          {
            "election": null,
            "id": 72,
            "name": "Nipissing"
          }
        ],
        "pollDivisionIds": [
          10140177
        ],
        "postalCode": "P1A3M6",
        "streetName": "CHARLTON",
        "streetDirectionId": null,
        "streetTypeId": "CRES",
        "placeName": "NORTH BAY",
        "streetNameDisplayText": "CHARLTON CRES, NORTH BAY"
      }
    ]
  },
  {
    "postal": "P1A6Z8",
    "result": []
  },
  {
    "postal": "P1A4J2",
    "result": [
      {
        "electoralDistricts": [
          {
            "election": null,
            "id": 72,
            "name": "Nipissing"
          }
        ],
        "pollDivisionIds": [
          10140157
        ],
        "postalCode": "P1A4J2",
        "streetName": "KILLARE",
        "streetDirectionId": null,
        "streetTypeId": "ST",
        "placeName": "NORTH BAY",
        "streetNameDisplayText": "KILLARE ST, NORTH BAY"
      },
      {
        "electoralDistricts": [
          {
            "election": null,
            "id": 72,
            "name": "Nipissing"
          }
        ],
        "pollDivisionIds": [
          10140157
        ],
        "postalCode": "P1A4J2",
        "streetName": "VIVYENNE",
        "streetDirectionId": null,
        "streetTypeId": "CRT",
        "placeName": "NORTH BAY",
        "streetNameDisplayText": "VIVYENNE CRT, NORTH BAY"
      }
    ]
  },
  {
    "postal": "P1A9Y1",
    "result": []
  },
  {
    "postal": "P1A8V6",
    "result": []
  },
  {
    "postal": "P1A6B2",
    "result": []
  },
  {
    "postal": "P1A1P8",
    "result": [
      {
        "electoralDistricts": [
          {
            "election": null,
            "id": 72,
            "name": "Nipissing"
          }
        ],
        "pollDivisionIds": [
          10140177
        ],
        "postalCode": "P1A1P8",
        "streetName": "MARSHALL",
        "streetDirectionId": "E",
        "streetTypeId": "AVE",
        "placeName": "NORTH BAY",
        "streetNameDisplayText": "MARSHALL AVE E, NORTH BAY"
      }
    ]
  },
  {
    "postal": "P1A0V8",
    "result": []
  },
  {
    "postal": "P1A4Y0",
    "result": []
  },
  {
    "postal": "P1A2T4",
    "result": [
      {
        "electoralDistricts": [
          {
            "election": null,
            "id": 72,
            "name": "Nipissing"
          }
        ],
        "pollDivisionIds": [
          10140178,
          10140177
        ],
        "postalCode": "P1A2T4",
        "streetName": "PRINCE EDWARD",
        "streetDirectionId": null,
        "streetTypeId": "DR",
        "placeName": "NORTH BAY",
        "streetNameDisplayText": "PRINCE EDWARD DR, NORTH BAY"
      }
    ]
  },
  {
    "postal": "P1A2S3",
    "result": [
      {
        "electoralDistricts": [
          {
            "election": null,
            "id": 72,
            "name": "Nipissing"
          }
        ],
        "pollDivisionIds": [
          10140176
        ],
        "postalCode": "P1A2S3",
        "streetName": "CECELIA",
        "streetDirectionId": null,
        "streetTypeId": "CRT",
        "placeName": "NORTH BAY",
        "streetNameDisplayText": "CECELIA CRT, NORTH BAY"
      }
    ]
  },
  {
    "postal": "P1A0K0",
    "result": []
  },
  {
    "postal": "P1A5N1",
    "result": []
  },
  {
    "postal": "P1A7T0",
    "result": []
  },
  {
    "postal": "P1A9N2",
    "result": []
  },
  {
    "postal": "P1A5L1",
    "result": []
  },
  {
    "postal": "P1A7G5",
    "result": []
  },
  {
    "postal": "P1A6K2",
    "result": []
  },
  {
    "postal": "P1A6P9",
    "result": []
  },
  {
    "postal": "P1A0E6",
    "result": []
  },
  {
    "postal": "P1A8R9",
    "result": []
  },
  {
    "postal": "P1A3G9",
    "result": [
      {
        "electoralDistricts": [
          {
            "election": null,
            "id": 72,
            "name": "Nipissing"
          }
        ],
        "pollDivisionIds": [
          10140174
        ],
        "postalCode": "P1A3G9",
        "streetName": "WICKSTEAD",
        "streetDirectionId": null,
        "streetTypeId": "AVE",
        "placeName": "NORTH BAY",
        "streetNameDisplayText": "WICKSTEAD AVE, NORTH BAY"
      }
    ]
  },
  {
    "postal": "P1A0V7",
    "result": []
  },
  {
    "postal": "P1A2Z1",
    "result": [
      {
        "electoralDistricts": [
          {
            "election": null,
            "id": 72,
            "name": "Nipissing"
          }
        ],
        "pollDivisionIds": [
          10140174
        ],
        "postalCode": "P1A2Z1",
        "streetName": "LAKE HEIGHTS",
        "streetDirectionId": null,
        "streetTypeId": "RD",
        "placeName": "NORTH BAY",
        "streetNameDisplayText": "LAKE HEIGHTS RD, NORTH BAY"
      }
    ]
  },
  {
    "postal": "P1A7N1",
    "result": []
  },
  {
    "postal": "P1A3C6",
    "result": [
      {
        "electoralDistricts": [
          {
            "election": null,
            "id": 72,
            "name": "Nipissing"
          }
        ],
        "pollDivisionIds": [
          10140157
        ],
        "postalCode": "P1A3C6",
        "streetName": "RICHARD",
        "streetDirectionId": null,
        "streetTypeId": "RD",
        "placeName": "NORTH BAY",
        "streetNameDisplayText": "RICHARD RD, NORTH BAY"
      },
      {
        "electoralDistricts": [
          {
            "election": null,
            "id": 72,
            "name": "Nipissing"
          }
        ],
        "pollDivisionIds": [
          10140157
        ],
        "postalCode": "P1A3C6",
        "streetName": "RICHARD RD.",
        "streetDirectionId": null,
        "streetTypeId": "RD",
        "placeName": "NORTH BAY",
        "streetNameDisplayText": "RICHARD RD. RD, NORTH BAY"
      }
    ]
  },
  {
    "postal": "P1A4M1",
    "result": []
  },
  {
    "postal": "P1A9K2",
    "result": []
  },
  {
    "postal": "P1A9S6",
    "result": []
  },
  {
    "postal": "P1A4X1",
    "result": []
  },
  {
    "postal": "P1A8W2",
    "result": []
  },
  {
    "postal": "P1A7N2",
    "result": []
  },
  {
    "postal": "P1A8S3",
    "result": []
  },
  {
    "postal": "P1A4V0",
    "result": []
  },
  {
    "postal": "P1A6W4",
    "result": []
  },
  {
    "postal": "P1A5M1",
    "result": []
  },
  {
    "postal": "P1A0S4",
    "result": []
  },
  {
    "postal": "P1A5X6",
    "result": []
  },
  {
    "postal": "P1A8L5",
    "result": []
  },
  {
    "postal": "P1A5M8",
    "result": []
  },
  {
    "postal": "P1A2G3",
    "result": [
      {
        "electoralDistricts": [
          {
            "election": null,
            "id": 72,
            "name": "Nipissing"
          }
        ],
        "pollDivisionIds": [
          10140177
        ],
        "postalCode": "P1A2G3",
        "streetName": "LAKESHORE",
        "streetDirectionId": null,
        "streetTypeId": "DR",
        "placeName": "NORTH BAY",
        "streetNameDisplayText": "LAKESHORE DR, NORTH BAY"
      }
    ]
  },
  {
    "postal": "P1A8E4",
    "result": []
  },
  {
    "postal": "P1A7S9",
    "result": []
  },
  {
    "postal": "P1A1K3",
    "result": [
      {
        "electoralDistricts": [
          {
            "election": null,
            "id": 72,
            "name": "Nipissing"
          }
        ],
        "pollDivisionIds": [
          10140176
        ],
        "postalCode": "P1A1K3",
        "streetName": "GERTRUDE",
        "streetDirectionId": "E",
        "streetTypeId": "ST",
        "placeName": "NORTH BAY",
        "streetNameDisplayText": "GERTRUDE ST E, NORTH BAY"
      }
    ]
  },
  {
    "postal": "P1A4E1",
    "result": []
  },
  {
    "postal": "P1A4R2",
    "result": []
  },
  {
    "postal": "P1A6T0",
    "result": []
  },
  {
    "postal": "P1A3K5",
    "result": [
      {
        "electoralDistricts": [
          {
            "election": null,
            "id": 72,
            "name": "Nipissing"
          }
        ],
        "pollDivisionIds": [
          10140157
        ],
        "postalCode": "P1A3K5",
        "streetName": "CAMELOT",
        "streetDirectionId": null,
        "streetTypeId": "DR",
        "placeName": "NORTH BAY",
        "streetNameDisplayText": "CAMELOT DR, NORTH BAY"
      }
    ]
  },
  {
    "postal": "P1A3S3",
    "result": [
      {
        "electoralDistricts": [
          {
            "election": null,
            "id": 72,
            "name": "Nipissing"
          }
        ],
        "pollDivisionIds": [
          10140176
        ],
        "postalCode": "P1A3S3",
        "streetName": "MULLIGAN",
        "streetDirectionId": null,
        "streetTypeId": "ST",
        "placeName": "NORTH BAY",
        "streetNameDisplayText": "MULLIGAN ST, NORTH BAY"
      }
    ]
  },
  {
    "postal": "P1A3L4",
    "result": [
      {
        "electoralDistricts": [
          {
            "election": null,
            "id": 72,
            "name": "Nipissing"
          }
        ],
        "pollDivisionIds": [
          10140177
        ],
        "postalCode": "P1A3L4",
        "streetName": "MARSHALL",
        "streetDirectionId": "E",
        "streetTypeId": "AVE",
        "placeName": "NORTH BAY",
        "streetNameDisplayText": "MARSHALL AVE E, NORTH BAY"
      }
    ]
  },
  {
    "postal": "P1A9Y2",
    "result": []
  },
  {
    "postal": "P1A1E0",
    "result": []
  },
  {
    "postal": "P1A9A4",
    "result": []
  },
  {
    "postal": "P1A1L3",
    "result": [
      {
        "electoralDistricts": [
          {
            "election": null,
            "id": 72,
            "name": "Nipissing"
          }
        ],
        "pollDivisionIds": [
          10140176
        ],
        "postalCode": "P1A1L3",
        "streetName": "RALPH",
        "streetDirectionId": null,
        "streetTypeId": "PL",
        "placeName": "NORTH BAY",
        "streetNameDisplayText": "RALPH PL, NORTH BAY"
      }
    ]
  },
  {
    "postal": "P1A6N1",
    "result": []
  },
  {
    "postal": "P1A6G7",
    "result": []
  },
  {
    "postal": "P1A7W1",
    "result": []
  },
  {
    "postal": "P1A4M6",
    "result": [
      {
        "electoralDistricts": [
          {
            "election": null,
            "id": 72,
            "name": "Nipissing"
          }
        ],
        "pollDivisionIds": [
          10140179
        ],
        "postalCode": "P1A4M6",
        "streetName": "BLAIR",
        "streetDirectionId": null,
        "streetTypeId": "ST",
        "placeName": "NORTH BAY",
        "streetNameDisplayText": "BLAIR ST, NORTH BAY"
      },
      {
        "electoralDistricts": [
          {
            "election": null,
            "id": 72,
            "name": "Nipissing"
          }
        ],
        "pollDivisionIds": [
          10140179
        ],
        "postalCode": "P1A4M6",
        "streetName": "MARIAH",
        "streetDirectionId": null,
        "streetTypeId": "ST",
        "placeName": "NORTH BAY",
        "streetNameDisplayText": "MARIAH ST, NORTH BAY"
      }
    ]
  },
  {
    "postal": "P1A1K0",
    "result": []
  },
  {
    "postal": "P1A3E2",
    "result": [
      {
        "electoralDistricts": [
          {
            "election": null,
            "id": 72,
            "name": "Nipissing"
          }
        ],
        "pollDivisionIds": [
          10140157
        ],
        "postalCode": "P1A3E2",
        "streetName": "LAKESIDE",
        "streetDirectionId": null,
        "streetTypeId": "DR",
        "placeName": "NORTH BAY",
        "streetNameDisplayText": "LAKESIDE DR, NORTH BAY"
      }
    ]
  },
  {
    "postal": "P1A5H4",
    "result": []
  },
  {
    "postal": "P1A1K7",
    "result": [
      {
        "electoralDistricts": [
          {
            "election": null,
            "id": 72,
            "name": "Nipissing"
          }
        ],
        "pollDivisionIds": [
          10140176
        ],
        "postalCode": "P1A1K7",
        "streetName": "DREANY",
        "streetDirectionId": null,
        "streetTypeId": "ST",
        "placeName": "NORTH BAY",
        "streetNameDisplayText": "DREANY ST, NORTH BAY"
      }
    ]
  },
  {
    "postal": "P1A0H0",
    "result": []
  },
  {
    "postal": "P1A0J3",
    "result": []
  },
  {
    "postal": "P1A1X6",
    "result": [
      {
        "electoralDistricts": [
          {
            "election": null,
            "id": 72,
            "name": "Nipissing"
          }
        ],
        "pollDivisionIds": [
          10140177
        ],
        "postalCode": "P1A1X6",
        "streetName": "WILLIAM",
        "streetDirectionId": null,
        "streetTypeId": "ST",
        "placeName": "NORTH BAY",
        "streetNameDisplayText": "WILLIAM ST, NORTH BAY"
      }
    ]
  },
  {
    "postal": "P1A2Z6",
    "result": [
      {
        "electoralDistricts": [
          {
            "election": null,
            "id": 72,
            "name": "Nipissing"
          }
        ],
        "pollDivisionIds": [
          10140174
        ],
        "postalCode": "P1A2Z6",
        "streetName": "LAKE HEIGHTS",
        "streetDirectionId": null,
        "streetTypeId": "RD",
        "placeName": "NORTH BAY",
        "streetNameDisplayText": "LAKE HEIGHTS RD, NORTH BAY"
      }
    ]
  },
  {
    "postal": "P1A4R9",
    "result": []
  },
  {
    "postal": "P1A0W8",
    "result": []
  },
  {
    "postal": "P1A1L4",
    "result": [
      {
        "electoralDistricts": [
          {
            "election": null,
            "id": 72,
            "name": "Nipissing"
          }
        ],
        "pollDivisionIds": [
          10140176
        ],
        "postalCode": "P1A1L4",
        "streetName": "JOSEPH",
        "streetDirectionId": null,
        "streetTypeId": "ST",
        "placeName": "NORTH BAY",
        "streetNameDisplayText": "JOSEPH ST, NORTH BAY"
      }
    ]
  },
  {
    "postal": "P1A0C8",
    "result": [
      {
        "electoralDistricts": [
          {
            "election": null,
            "id": 72,
            "name": "Nipissing"
          }
        ],
        "pollDivisionIds": [
          10140157
        ],
        "postalCode": "P1A0C8",
        "streetName": "SEYMOUR",
        "streetDirectionId": null,
        "streetTypeId": "ST",
        "placeName": "NORTH BAY",
        "streetNameDisplayText": "SEYMOUR ST, NORTH BAY"
      }
    ]
  },
  {
    "postal": "P1A9X7",
    "result": []
  },
  {
    "postal": "P1A4T1",
    "result": []
  },
  {
    "postal": "P1A0M0",
    "result": []
  },
  {
    "postal": "P1A6A2",
    "result": []
  },
  {
    "postal": "P1A9S8",
    "result": []
  },
  {
    "postal": "P1A9T4",
    "result": []
  },
  {
    "postal": "P1A9Y4",
    "result": []
  },
  {
    "postal": "P1A6G5",
    "result": []
  },
  {
    "postal": "P1A6H9",
    "result": []
  },
  {
    "postal": "P1A2P3",
    "result": [
      {
        "electoralDistricts": [
          {
            "election": null,
            "id": 72,
            "name": "Nipissing"
          }
        ],
        "pollDivisionIds": [
          10140177
        ],
        "postalCode": "P1A2P3",
        "streetName": "ECHO",
        "streetDirectionId": null,
        "streetTypeId": "PL",
        "placeName": "NORTH BAY",
        "streetNameDisplayText": "ECHO PL, NORTH BAY"
      }
    ]
  },
  {
    "postal": "P1A1T6",
    "result": [
      {
        "electoralDistricts": [
          {
            "election": null,
            "id": 72,
            "name": "Nipissing"
          }
        ],
        "pollDivisionIds": [
          10140163
        ],
        "postalCode": "P1A1T6",
        "streetName": "MEMORIAL",
        "streetDirectionId": null,
        "streetTypeId": "DR",
        "placeName": "NORTH BAY",
        "streetNameDisplayText": "MEMORIAL DR, NORTH BAY"
      }
    ]
  },
  {
    "postal": "P1A4P6",
    "result": []
  },
  {
    "postal": "P1A3K1",
    "result": [
      {
        "electoralDistricts": [
          {
            "election": null,
            "id": 72,
            "name": "Nipissing"
          }
        ],
        "pollDivisionIds": [
          10140174
        ],
        "postalCode": "P1A3K1",
        "streetName": "ARTHUR",
        "streetDirectionId": null,
        "streetTypeId": "CRT",
        "placeName": "NORTH BAY",
        "streetNameDisplayText": "ARTHUR CRT, NORTH BAY"
      }
    ]
  },
  {
    "postal": "P1A6X4",
    "result": []
  },
  {
    "postal": "P1A4M8",
    "result": [
      {
        "electoralDistricts": [
          {
            "election": null,
            "id": 72,
            "name": "Nipissing"
          }
        ],
        "pollDivisionIds": [
          10140179
        ],
        "postalCode": "P1A4M8",
        "streetName": "THELMA",
        "streetDirectionId": null,
        "streetTypeId": "AVE",
        "placeName": "NORTH BAY",
        "streetNameDisplayText": "THELMA AVE, NORTH BAY"
      }
    ]
  },
  {
    "postal": "P1A2Y1",
    "result": [
      {
        "electoralDistricts": [
          {
            "election": null,
            "id": 72,
            "name": "Nipissing"
          }
        ],
        "pollDivisionIds": [
          10140174
        ],
        "postalCode": "P1A2Y1",
        "streetName": "SOVEREIGN",
        "streetDirectionId": null,
        "streetTypeId": "DR",
        "placeName": "NORTH BAY",
        "streetNameDisplayText": "SOVEREIGN DR, NORTH BAY"
      }
    ]
  },
  {
    "postal": "P1A6M1",
    "result": []
  },
  {
    "postal": "P1A5L8",
    "result": []
  },
  {
    "postal": "P1A3P6",
    "result": [
      {
        "electoralDistricts": [
          {
            "election": null,
            "id": 72,
            "name": "Nipissing"
          }
        ],
        "pollDivisionIds": [
          10140176
        ],
        "postalCode": "P1A3P6",
        "streetName": "PARSONS",
        "streetDirectionId": null,
        "streetTypeId": "AVE",
        "placeName": "NORTH BAY",
        "streetNameDisplayText": "PARSONS AVE, NORTH BAY"
      }
    ]
  },
  {
    "postal": "P1A9A5",
    "result": []
  },
  {
    "postal": "P1A7K1",
    "result": []
  },
  {
    "postal": "P1A3J4",
    "result": [
      {
        "electoralDistricts": [
          {
            "election": null,
            "id": 72,
            "name": "Nipissing"
          }
        ],
        "pollDivisionIds": [
          10140174
        ],
        "postalCode": "P1A3J4",
        "streetName": "K AND K",
        "streetDirectionId": null,
        "streetTypeId": "DR",
        "placeName": "NORTH BAY",
        "streetNameDisplayText": "K AND K DR, NORTH BAY"
      },
      {
        "electoralDistricts": [
          {
            "election": null,
            "id": 72,
            "name": "Nipissing"
          }
        ],
        "pollDivisionIds": [
          10140174
        ],
        "postalCode": "P1A3J4",
        "streetName": "K&K",
        "streetDirectionId": null,
        "streetTypeId": "DR",
        "placeName": "NORTH BAY",
        "streetNameDisplayText": "K&K DR, NORTH BAY"
      }
    ]
  },
  {
    "postal": "P1A5E7",
    "result": []
  },
  {
    "postal": "P1A3A7",
    "result": [
      {
        "electoralDistricts": [
          {
            "election": null,
            "id": 72,
            "name": "Nipissing"
          }
        ],
        "pollDivisionIds": [
          10140157
        ],
        "postalCode": "P1A3A7",
        "streetName": "LANCELOT",
        "streetDirectionId": null,
        "streetTypeId": "AVE",
        "placeName": "NORTH BAY",
        "streetNameDisplayText": "LANCELOT AVE, NORTH BAY"
      }
    ]
  },
  {
    "postal": "P1A1B9",
    "result": [
      {
        "electoralDistricts": [
          {
            "election": null,
            "id": 72,
            "name": "Nipissing"
          }
        ],
        "pollDivisionIds": [
          10140176
        ],
        "postalCode": "P1A1B9",
        "streetName": "GEORGE",
        "streetDirectionId": null,
        "streetTypeId": "ST",
        "placeName": "NORTH BAY",
        "streetNameDisplayText": "GEORGE ST, NORTH BAY"
      }
    ]
  },
  {
    "postal": "P1A9E8",
    "result": []
  },
  {
    "postal": "P1A1C9",
    "result": [
      {
        "electoralDistricts": [
          {
            "election": null,
            "id": 72,
            "name": "Nipissing"
          }
        ],
        "pollDivisionIds": [
          10140176
        ],
        "postalCode": "P1A1C9",
        "streetName": "CHARLES",
        "streetDirectionId": "W",
        "streetTypeId": "ST",
        "placeName": "NORTH BAY",
        "streetNameDisplayText": "CHARLES ST W, NORTH BAY"
      }
    ]
  },
  {
    "postal": "P1A3B5",
    "result": [
      {
        "electoralDistricts": [
          {
            "election": null,
            "id": 72,
            "name": "Nipissing"
          }
        ],
        "pollDivisionIds": [
          10140157
        ],
        "postalCode": "P1A3B5",
        "streetName": "REGINALD",
        "streetDirectionId": null,
        "streetTypeId": "RD",
        "placeName": "NORTH BAY",
        "streetNameDisplayText": "REGINALD RD, NORTH BAY"
      }
    ]
  },
  {
    "postal": "P1A8R0",
    "result": []
  },
  {
    "postal": "P1A3P2",
    "result": [
      {
        "electoralDistricts": [
          {
            "election": null,
            "id": 72,
            "name": "Nipissing"
          }
        ],
        "pollDivisionIds": [
          10140177,
          10140178
        ],
        "postalCode": "P1A3P2",
        "streetName": "HURON",
        "streetDirectionId": null,
        "streetTypeId": "CRES",
        "placeName": "NORTH BAY",
        "streetNameDisplayText": "HURON CRES, NORTH BAY"
      }
    ]
  },
  {
    "postal": "P1A5V4",
    "result": []
  },
  {
    "postal": "P1A4H0",
    "result": []
  },
  {
    "postal": "P1A4S7",
    "result": []
  },
  {
    "postal": "P1A6C2",
    "result": []
  },
  {
    "postal": "P1A8W3",
    "result": []
  },
  {
    "postal": "P1A4M5",
    "result": [
      {
        "electoralDistricts": [
          {
            "election": null,
            "id": 72,
            "name": "Nipissing"
          }
        ],
        "pollDivisionIds": [
          10140179
        ],
        "postalCode": "P1A4M5",
        "streetName": "IMPERIAL",
        "streetDirectionId": null,
        "streetTypeId": "RD",
        "placeName": "NORTH BAY",
        "streetNameDisplayText": "IMPERIAL RD, NORTH BAY"
      }
    ]
  },
  {
    "postal": "P1A5T1",
    "result": []
  },
  {
    "postal": "P1A3B3",
    "result": [
      {
        "electoralDistricts": [
          {
            "election": null,
            "id": 72,
            "name": "Nipissing"
          }
        ],
        "pollDivisionIds": [
          10140157
        ],
        "postalCode": "P1A3B3",
        "streetName": "REGINALD",
        "streetDirectionId": null,
        "streetTypeId": "RD",
        "placeName": "NORTH BAY",
        "streetNameDisplayText": "REGINALD RD, NORTH BAY"
      }
    ]
  },
  {
    "postal": "P1A6C6",
    "result": []
  },
  {
    "postal": "P1A7N8",
    "result": []
  },
  {
    "postal": "P1A2Y3",
    "result": [
      {
        "electoralDistricts": [
          {
            "election": null,
            "id": 72,
            "name": "Nipissing"
          }
        ],
        "pollDivisionIds": [
          10140174
        ],
        "postalCode": "P1A2Y3",
        "streetName": "LAVASE",
        "streetDirectionId": null,
        "streetTypeId": "RD",
        "placeName": "NORTH BAY",
        "streetNameDisplayText": "LAVASE RD, NORTH BAY"
      }
    ]
  },
  {
    "postal": "P1A2R6",
    "result": [
      {
        "electoralDistricts": [
          {
            "election": null,
            "id": 72,
            "name": "Nipissing"
          }
        ],
        "pollDivisionIds": [
          10140176
        ],
        "postalCode": "P1A2R6",
        "streetName": "WOODWARD",
        "streetDirectionId": null,
        "streetTypeId": "AVE",
        "placeName": "NORTH BAY",
        "streetNameDisplayText": "WOODWARD AVE, NORTH BAY"
      }
    ]
  },
  {
    "postal": "P1A7N3",
    "result": []
  },
  {
    "postal": "P1A8J2",
    "result": []
  },
  {
    "postal": "P1A6A9",
    "result": []
  },
  {
    "postal": "P1A3V2",
    "result": [
      {
        "electoralDistricts": [
          {
            "election": null,
            "id": 72,
            "name": "Nipissing"
          }
        ],
        "pollDivisionIds": [
          10140176
        ],
        "postalCode": "P1A3V2",
        "streetName": "LAKESHORE",
        "streetDirectionId": null,
        "streetTypeId": "DR",
        "placeName": "NORTH BAY",
        "streetNameDisplayText": "LAKESHORE DR, NORTH BAY"
      }
    ]
  },
  {
    "postal": "P1A2N3",
    "result": [
      {
        "electoralDistricts": [
          {
            "election": null,
            "id": 72,
            "name": "Nipissing"
          }
        ],
        "pollDivisionIds": [
          10140176
        ],
        "postalCode": "P1A2N3",
        "streetName": "STRATHCONA",
        "streetDirectionId": null,
        "streetTypeId": "DR",
        "placeName": "NORTH BAY",
        "streetNameDisplayText": "STRATHCONA DR, NORTH BAY"
      }
    ]
  },
  {
    "postal": "P1A1S5",
    "result": [
      {
        "electoralDistricts": [
          {
            "election": null,
            "id": 72,
            "name": "Nipissing"
          }
        ],
        "pollDivisionIds": [
          10140176
        ],
        "postalCode": "P1A1S5",
        "streetName": "CHARLAND",
        "streetDirectionId": null,
        "streetTypeId": "DR",
        "placeName": "NORTH BAY",
        "streetNameDisplayText": "CHARLAND DR, NORTH BAY"
      }
    ]
  },
  {
    "postal": "P1A4T7",
    "result": []
  },
  {
    "postal": "P1A6Y7",
    "result": []
  },
  {
    "postal": "P1A0W7",
    "result": []
  },
  {
    "postal": "P1A2W9",
    "result": [
      {
        "electoralDistricts": [
          {
            "election": null,
            "id": 72,
            "name": "Nipissing"
          }
        ],
        "pollDivisionIds": [
          10140174
        ],
        "postalCode": "P1A2W9",
        "streetName": "WALLACE",
        "streetDirectionId": null,
        "streetTypeId": "RD",
        "placeName": "NORTH BAY",
        "streetNameDisplayText": "WALLACE RD, NORTH BAY"
      }
    ]
  },
  {
    "postal": "P1A8V0",
    "result": []
  },
  {
    "postal": "P1A0H4",
    "result": []
  },
  {
    "postal": "P1A2T1",
    "result": [
      {
        "electoralDistricts": [
          {
            "election": null,
            "id": 72,
            "name": "Nipissing"
          }
        ],
        "pollDivisionIds": [
          10140176
        ],
        "postalCode": "P1A2T1",
        "streetName": "GEORGIAN",
        "streetDirectionId": null,
        "streetTypeId": "RD",
        "placeName": "NORTH BAY",
        "streetNameDisplayText": "GEORGIAN RD, NORTH BAY"
      }
    ]
  },
  {
    "postal": "P1A1B1",
    "result": [
      {
        "electoralDistricts": [
          {
            "election": null,
            "id": 72,
            "name": "Nipissing"
          }
        ],
        "pollDivisionIds": [
          10140163
        ],
        "postalCode": "P1A1B1",
        "streetName": "BETH",
        "streetDirectionId": null,
        "streetTypeId": "ST",
        "placeName": "NORTH BAY",
        "streetNameDisplayText": "BETH ST, NORTH BAY"
      }
    ]
  },
  {
    "postal": "P1A8B6",
    "result": []
  },
  {
    "postal": "P1A6H1",
    "result": []
  },
  {
    "postal": "P1A8T8",
    "result": []
  },
  {
    "postal": "P1A0T4",
    "result": []
  },
  {
    "postal": "P1A2C4",
    "result": [
      {
        "electoralDistricts": [
          {
            "election": null,
            "id": 72,
            "name": "Nipissing"
          }
        ],
        "pollDivisionIds": [
          10140176
        ],
        "postalCode": "P1A2C4",
        "streetName": "LAKESHORE",
        "streetDirectionId": null,
        "streetTypeId": "DR",
        "placeName": "NORTH BAY",
        "streetNameDisplayText": "LAKESHORE DR, NORTH BAY"
      }
    ]
  },
  {
    "postal": "P1A8N3",
    "result": []
  },
  {
    "postal": "P1A4L8",
    "result": [
      {
        "electoralDistricts": [
          {
            "election": null,
            "id": 72,
            "name": "Nipissing"
          }
        ],
        "pollDivisionIds": [
          10140178
        ],
        "postalCode": "P1A4L8",
        "streetName": "ASHDALE",
        "streetDirectionId": null,
        "streetTypeId": "CRES",
        "placeName": "NORTH BAY",
        "streetNameDisplayText": "ASHDALE CRES, NORTH BAY"
      }
    ]
  },
  {
    "postal": "P1A2B5",
    "result": [
      {
        "electoralDistricts": [
          {
            "election": null,
            "id": 72,
            "name": "Nipissing"
          }
        ],
        "pollDivisionIds": [
          10140176
        ],
        "postalCode": "P1A2B5",
        "streetName": "LAKESHORE",
        "streetDirectionId": null,
        "streetTypeId": "DR",
        "placeName": "NORTH BAY",
        "streetNameDisplayText": "LAKESHORE DR, NORTH BAY"
      }
    ]
  },
  {
    "postal": "P1A3H1",
    "result": [
      {
        "electoralDistricts": [
          {
            "election": null,
            "id": 72,
            "name": "Nipissing"
          }
        ],
        "pollDivisionIds": [
          10140174
        ],
        "postalCode": "P1A3H1",
        "streetName": "WICKSTEAD",
        "streetDirectionId": null,
        "streetTypeId": "AVE",
        "placeName": "NORTH BAY",
        "streetNameDisplayText": "WICKSTEAD AVE, NORTH BAY"
      }
    ]
  },
  {
    "postal": "P1A4Y1",
    "result": []
  },
  {
    "postal": "P1A7E2",
    "result": []
  },
  {
    "postal": "P1A2P5",
    "result": [
      {
        "electoralDistricts": [
          {
            "election": null,
            "id": 72,
            "name": "Nipissing"
          }
        ],
        "pollDivisionIds": [
          10140176
        ],
        "postalCode": "P1A2P5",
        "streetName": "KNOX",
        "streetDirectionId": null,
        "streetTypeId": "CRT",
        "placeName": "NORTH BAY",
        "streetNameDisplayText": "KNOX CRT, NORTH BAY"
      }
    ]
  },
  {
    "postal": "P1A8R7",
    "result": []
  },
  {
    "postal": "P1A9P1",
    "result": []
  },
  {
    "postal": "P1A3B8",
    "result": [
      {
        "electoralDistricts": [
          {
            "election": null,
            "id": 72,
            "name": "Nipissing"
          }
        ],
        "pollDivisionIds": [
          10140157
        ],
        "postalCode": "P1A3B8",
        "streetName": "IVANHOE",
        "streetDirectionId": null,
        "streetTypeId": "DR",
        "placeName": "NORTH BAY",
        "streetNameDisplayText": "IVANHOE DR, NORTH BAY"
      }
    ]
  },
  {
    "postal": "P1A3P7",
    "result": [
      {
        "electoralDistricts": [
          {
            "election": null,
            "id": 72,
            "name": "Nipissing"
          }
        ],
        "pollDivisionIds": [
          10140163
        ],
        "postalCode": "P1A3P7",
        "streetName": "QUEEN",
        "streetDirectionId": null,
        "streetTypeId": "ST",
        "placeName": "NORTH BAY",
        "streetNameDisplayText": "QUEEN ST, NORTH BAY"
      }
    ]
  },
  {
    "postal": "P1A9B2",
    "result": []
  },
  {
    "postal": "P1A6Z3",
    "result": []
  },
  {
    "postal": "P1A4N5",
    "result": []
  },
  {
    "postal": "P1A8T3",
    "result": []
  },
  {
    "postal": "P1A1V2",
    "result": [
      {
        "electoralDistricts": [
          {
            "election": null,
            "id": 72,
            "name": "Nipissing"
          }
        ],
        "pollDivisionIds": [
          10140163
        ],
        "postalCode": "P1A1V2",
        "streetName": "LEASK",
        "streetDirectionId": null,
        "streetTypeId": "AVE",
        "placeName": "NORTH BAY",
        "streetNameDisplayText": "LEASK AVE, NORTH BAY"
      }
    ]
  },
  {
    "postal": "P1A1Y0",
    "result": []
  },
  {
    "postal": "P1A3G6",
    "result": [
      {
        "electoralDistricts": [
          {
            "election": null,
            "id": 72,
            "name": "Nipissing"
          }
        ],
        "pollDivisionIds": [
          10140174
        ],
        "postalCode": "P1A3G6",
        "streetName": "WICKSTEAD",
        "streetDirectionId": null,
        "streetTypeId": "AVE",
        "placeName": "NORTH BAY",
        "streetNameDisplayText": "WICKSTEAD AVE, NORTH BAY"
      }
    ]
  },
  {
    "postal": "P1A3H7",
    "result": [
      {
        "electoralDistricts": [
          {
            "election": null,
            "id": 72,
            "name": "Nipissing"
          }
        ],
        "pollDivisionIds": [
          10140174
        ],
        "postalCode": "P1A3H7",
        "streetName": "MELINA",
        "streetDirectionId": null,
        "streetTypeId": "CLOSE",
        "placeName": "NORTH BAY",
        "streetNameDisplayText": "MELINA CLOSE, NORTH BAY"
      }
    ]
  },
  {
    "postal": "P1A7X8",
    "result": []
  },
  {
    "postal": "P1A0C7",
    "result": [
      {
        "electoralDistricts": [
          {
            "election": null,
            "id": 72,
            "name": "Nipissing"
          }
        ],
        "pollDivisionIds": [
          10140174
        ],
        "postalCode": "P1A0C7",
        "streetName": "SEYMOUR",
        "streetDirectionId": null,
        "streetTypeId": "ST",
        "placeName": "NORTH BAY",
        "streetNameDisplayText": "SEYMOUR ST, NORTH BAY"
      }
    ]
  },
  {
    "postal": "P1A0W9",
    "result": []
  },
  {
    "postal": "P1A8E6",
    "result": []
  },
  {
    "postal": "P1A9Z8",
    "result": []
  },
  {
    "postal": "P1A3P4",
    "result": [
      {
        "electoralDistricts": [
          {
            "election": null,
            "id": 72,
            "name": "Nipissing"
          }
        ],
        "pollDivisionIds": [
          10140176
        ],
        "postalCode": "P1A3P4",
        "streetName": "MULLIGAN",
        "streetDirectionId": null,
        "streetTypeId": "ST",
        "placeName": "NORTH BAY",
        "streetNameDisplayText": "MULLIGAN ST, NORTH BAY"
      }
    ]
  },
  {
    "postal": "P1A6L8",
    "result": []
  },
  {
    "postal": "P1A2R4",
    "result": [
      {
        "electoralDistricts": [
          {
            "election": null,
            "id": 72,
            "name": "Nipissing"
          }
        ],
        "pollDivisionIds": [
          10140176
        ],
        "postalCode": "P1A2R4",
        "streetName": "HERMAN",
        "streetDirectionId": null,
        "streetTypeId": "CRES",
        "placeName": "NORTH BAY",
        "streetNameDisplayText": "HERMAN CRES, NORTH BAY"
      }
    ]
  },
  {
    "postal": "P1A2W1",
    "result": [
      {
        "electoralDistricts": [
          {
            "election": null,
            "id": 72,
            "name": "Nipissing"
          }
        ],
        "pollDivisionIds": [
          10140171
        ],
        "postalCode": "P1A2W1",
        "streetName": "FRANKLIN",
        "streetDirectionId": null,
        "streetTypeId": "ST",
        "placeName": "NORTH BAY",
        "streetNameDisplayText": "FRANKLIN ST, NORTH BAY"
      }
    ]
  },
  {
    "postal": "P1A9H8",
    "result": []
  },
  {
    "postal": "P1A8X9",
    "result": []
  },
  {
    "postal": "P1A7H4",
    "result": []
  },
  {
    "postal": "P1A3J1",
    "result": [
      {
        "electoralDistricts": [
          {
            "election": null,
            "id": 72,
            "name": "Nipissing"
          }
        ],
        "pollDivisionIds": [
          10140174
        ],
        "postalCode": "P1A3J1",
        "streetName": "MICHENER",
        "streetDirectionId": null,
        "streetTypeId": "DR",
        "placeName": "NORTH BAY",
        "streetNameDisplayText": "MICHENER DR, NORTH BAY"
      }
    ]
  },
  {
    "postal": "P1A1P4",
    "result": [
      {
        "electoralDistricts": [
          {
            "election": null,
            "id": 72,
            "name": "Nipissing"
          }
        ],
        "pollDivisionIds": [
          10140177
        ],
        "postalCode": "P1A1P4",
        "streetName": "MANITOU",
        "streetDirectionId": null,
        "streetTypeId": "ST",
        "placeName": "NORTH BAY",
        "streetNameDisplayText": "MANITOU ST, NORTH BAY"
      }
    ]
  },
  {
    "postal": "P1A2A3",
    "result": [
      {
        "electoralDistricts": [
          {
            "election": null,
            "id": 72,
            "name": "Nipissing"
          }
        ],
        "pollDivisionIds": [
          10140176,
          10140179
        ],
        "postalCode": "P1A2A3",
        "streetName": "LAKESHORE",
        "streetDirectionId": null,
        "streetTypeId": "DR",
        "placeName": "NORTH BAY",
        "streetNameDisplayText": "LAKESHORE DR, NORTH BAY"
      }
    ]
  },
  {
    "postal": "P1A0Z1",
    "result": []
  },
  {
    "postal": "P1A1C1",
    "result": [
      {
        "electoralDistricts": [
          {
            "election": null,
            "id": 72,
            "name": "Nipissing"
          }
        ],
        "pollDivisionIds": [
          10140176
        ],
        "postalCode": "P1A1C1",
        "streetName": "GEORGE",
        "streetDirectionId": null,
        "streetTypeId": "ST",
        "placeName": "NORTH BAY",
        "streetNameDisplayText": "GEORGE ST, NORTH BAY"
      }
    ]
  },
  {
    "postal": "P1A0H3",
    "result": []
  },
  {
    "postal": "P1A7B0",
    "result": []
  },
  {
    "postal": "P1A5K2",
    "result": []
  },
  {
    "postal": "P1A1E9",
    "result": [
      {
        "electoralDistricts": [
          {
            "election": null,
            "id": 72,
            "name": "Nipissing"
          }
        ],
        "pollDivisionIds": [
          10140176
        ],
        "postalCode": "P1A1E9",
        "streetName": "CHARLES",
        "streetDirectionId": "E",
        "streetTypeId": "ST",
        "placeName": "NORTH BAY",
        "streetNameDisplayText": "CHARLES ST E, NORTH BAY"
      }
    ]
  },
  {
    "postal": "P1A9W7",
    "result": []
  },
  {
    "postal": "P1A5W6",
    "result": []
  },
  {
    "postal": "P1A6S6",
    "result": []
  },
  {
    "postal": "P1A2P8",
    "result": [
      {
        "electoralDistricts": [
          {
            "election": null,
            "id": 72,
            "name": "Nipissing"
          }
        ],
        "pollDivisionIds": [
          10140176
        ],
        "postalCode": "P1A2P8",
        "streetName": "PALMER",
        "streetDirectionId": null,
        "streetTypeId": "CRT",
        "placeName": "NORTH BAY",
        "streetNameDisplayText": "PALMER CRT, NORTH BAY"
      }
    ]
  },
  {
    "postal": "P1A4P8",
    "result": []
  },
  {
    "postal": "P1A0V9",
    "result": []
  },
  {
    "postal": "P1A5Y2",
    "result": []
  },
  {
    "postal": "P1A7Z7",
    "result": []
  },
  {
    "postal": "P1A6Y8",
    "result": []
  },
  {
    "postal": "P1A2G7",
    "result": [
      {
        "electoralDistricts": [
          {
            "election": null,
            "id": 72,
            "name": "Nipissing"
          }
        ],
        "pollDivisionIds": [
          10140179
        ],
        "postalCode": "P1A2G7",
        "streetName": "LAKESHORE",
        "streetDirectionId": null,
        "streetTypeId": "DR",
        "placeName": "NORTH BAY",
        "streetNameDisplayText": "LAKESHORE DR, NORTH BAY"
      }
    ]
  },
  {
    "postal": "P1A8C1",
    "result": []
  },
  {
    "postal": "P1A5C5",
    "result": []
  },
  {
    "postal": "P1A2X8",
    "result": [
      {
        "electoralDistricts": [
          {
            "election": null,
            "id": 72,
            "name": "Nipissing"
          }
        ],
        "pollDivisionIds": [
          10140174
        ],
        "postalCode": "P1A2X8",
        "streetName": "MOUNTAINVIEW",
        "streetDirectionId": null,
        "streetTypeId": "DR",
        "placeName": "NORTH BAY",
        "streetNameDisplayText": "MOUNTAINVIEW DR, NORTH BAY"
      }
    ]
  },
  {
    "postal": "P1A1W5",
    "result": [
      {
        "electoralDistricts": [
          {
            "election": null,
            "id": 72,
            "name": "Nipissing"
          }
        ],
        "pollDivisionIds": [
          10140163
        ],
        "postalCode": "P1A1W5",
        "streetName": "AMELIA",
        "streetDirectionId": null,
        "streetTypeId": "ST",
        "placeName": "NORTH BAY",
        "streetNameDisplayText": "AMELIA ST, NORTH BAY"
      }
    ]
  },
  {
    "postal": "P1A7G0",
    "result": []
  },
  {
    "postal": "P1A8J8",
    "result": []
  },
  {
    "postal": "P1A3Y0",
    "result": []
  },
  {
    "postal": "P1A9T7",
    "result": []
  },
  {
    "postal": "P1A5P4",
    "result": []
  },
  {
    "postal": "P1A4B0",
    "result": []
  },
  {
    "postal": "P1A9N8",
    "result": []
  },
  {
    "postal": "P1A4A7",
    "result": [
      {
        "electoralDistricts": [
          {
            "election": null,
            "id": 72,
            "name": "Nipissing"
          }
        ],
        "pollDivisionIds": [
          10140179
        ],
        "postalCode": "P1A4A7",
        "streetName": "KARLA",
        "streetDirectionId": null,
        "streetTypeId": "DR",
        "placeName": "NORTH BAY",
        "streetNameDisplayText": "KARLA DR, NORTH BAY"
      }
    ]
  },
  {
    "postal": "P1A4H9",
    "result": []
  },
  {
    "postal": "P1A6X1",
    "result": []
  },
  {
    "postal": "P1A9Y7",
    "result": []
  },
  {
    "postal": "P1A2Y5",
    "result": [
      {
        "electoralDistricts": [
          {
            "election": null,
            "id": 72,
            "name": "Nipissing"
          }
        ],
        "pollDivisionIds": [
          10140174
        ],
        "postalCode": "P1A2Y5",
        "streetName": "LAVASE",
        "streetDirectionId": null,
        "streetTypeId": "RD",
        "placeName": "NORTH BAY",
        "streetNameDisplayText": "LAVASE RD, NORTH BAY"
      }
    ]
  },
  {
    "postal": "P1A8L7",
    "result": []
  },
  {
    "postal": "P1A2A8",
    "result": [
      {
        "electoralDistricts": [
          {
            "election": null,
            "id": 72,
            "name": "Nipissing"
          }
        ],
        "pollDivisionIds": [
          10140176
        ],
        "postalCode": "P1A2A8",
        "streetName": "LAKESHORE",
        "streetDirectionId": null,
        "streetTypeId": "DR",
        "placeName": "NORTH BAY",
        "streetNameDisplayText": "LAKESHORE DR, NORTH BAY"
      }
    ]
  },
  {
    "postal": "P1A2K9",
    "result": [
      {
        "electoralDistricts": [
          {
            "election": null,
            "id": 72,
            "name": "Nipissing"
          }
        ],
        "pollDivisionIds": [
          10140176
        ],
        "postalCode": "P1A2K9",
        "streetName": "WESLEY",
        "streetDirectionId": null,
        "streetTypeId": "AVE",
        "placeName": "NORTH BAY",
        "streetNameDisplayText": "WESLEY AVE, NORTH BAY"
      }
    ]
  },
  {
    "postal": "P1A3E5",
    "result": [
      {
        "electoralDistricts": [
          {
            "election": null,
            "id": 72,
            "name": "Nipissing"
          }
        ],
        "pollDivisionIds": [
          10140157
        ],
        "postalCode": "P1A3E5",
        "streetName": "LAKESIDE",
        "streetDirectionId": null,
        "streetTypeId": "DR",
        "placeName": "NORTH BAY",
        "streetNameDisplayText": "LAKESIDE DR, NORTH BAY"
      }
    ]
  },
  {
    "postal": "P1A8N6",
    "result": []
  },
  {
    "postal": "P1A8J4",
    "result": []
  },
  {
    "postal": "P1A4R7",
    "result": []
  },
  {
    "postal": "P1A9K1",
    "result": []
  },
  {
    "postal": "P1A8E1",
    "result": []
  },
  {
    "postal": "P1A0R1",
    "result": []
  },
  {
    "postal": "P1A4J3",
    "result": [
      {
        "electoralDistricts": [
          {
            "election": null,
            "id": 72,
            "name": "Nipissing"
          }
        ],
        "pollDivisionIds": [
          10140178
        ],
        "postalCode": "P1A4J3",
        "streetName": "CLOVERBRAE",
        "streetDirectionId": null,
        "streetTypeId": "CRES",
        "placeName": "NORTH BAY",
        "streetNameDisplayText": "CLOVERBRAE CRES, NORTH BAY"
      }
    ]
  },
  {
    "postal": "P1A7E7",
    "result": []
  },
  {
    "postal": "P1A0J0",
    "result": []
  },
  {
    "postal": "P1A7R8",
    "result": []
  },
  {
    "postal": "P1A9X0",
    "result": []
  },
  {
    "postal": "P1A7P6",
    "result": []
  },
  {
    "postal": "P1A0R7",
    "result": []
  },
  {
    "postal": "P1A5W1",
    "result": []
  },
  {
    "postal": "P1A0K4",
    "result": []
  },
  {
    "postal": "P1A7N9",
    "result": []
  },
  {
    "postal": "P1A1N0",
    "result": []
  },
  {
    "postal": "P1A6P3",
    "result": []
  },
  {
    "postal": "P1A5A1",
    "result": []
  },
  {
    "postal": "P1A9M9",
    "result": []
  },
  {
    "postal": "P1A7T6",
    "result": []
  },
  {
    "postal": "P1A3X0",
    "result": []
  },
  {
    "postal": "P1A2T0",
    "result": []
  },
  {
    "postal": "P1A5X9",
    "result": []
  },
  {
    "postal": "P1A2R3",
    "result": [
      {
        "electoralDistricts": [
          {
            "election": null,
            "id": 72,
            "name": "Nipissing"
          }
        ],
        "pollDivisionIds": [
          10140177
        ],
        "postalCode": "P1A2R3",
        "streetName": "NIGHTINGALE",
        "streetDirectionId": null,
        "streetTypeId": "DR",
        "placeName": "NORTH BAY",
        "streetNameDisplayText": "NIGHTINGALE DR, NORTH BAY"
      }
    ]
  },
  {
    "postal": "P1A5N2",
    "result": []
  },
  {
    "postal": "P1A4Y7",
    "result": []
  },
  {
    "postal": "P1A7M0",
    "result": []
  },
  {
    "postal": "P1A8P3",
    "result": []
  },
  {
    "postal": "P1A3N3",
    "result": [
      {
        "electoralDistricts": [
          {
            "election": null,
            "id": 72,
            "name": "Nipissing"
          }
        ],
        "pollDivisionIds": [
          10140177
        ],
        "postalCode": "P1A3N3",
        "streetName": "PRINCE EDWARD",
        "streetDirectionId": null,
        "streetTypeId": "DR",
        "placeName": "NORTH BAY",
        "streetNameDisplayText": "PRINCE EDWARD DR, NORTH BAY"
      }
    ]
  },
  {
    "postal": "P1A7S3",
    "result": []
  },
  {
    "postal": "P1A3V9",
    "result": [
      {
        "electoralDistricts": [
          {
            "election": null,
            "id": 72,
            "name": "Nipissing"
          }
        ],
        "pollDivisionIds": [
          10140179
        ],
        "postalCode": "P1A3V9",
        "streetName": "BLAIR",
        "streetDirectionId": null,
        "streetTypeId": "ST",
        "placeName": "NORTH BAY",
        "streetNameDisplayText": "BLAIR ST, NORTH BAY"
      }
    ]
  },
  {
    "postal": "P1A9N7",
    "result": []
  },
  {
    "postal": "P1A0G4",
    "result": [
      {
        "electoralDistricts": [
          {
            "election": null,
            "id": 72,
            "name": "Nipissing"
          }
        ],
        "pollDivisionIds": [
          10140179
        ],
        "postalCode": "P1A0G4",
        "streetName": "BARLEY",
        "streetDirectionId": null,
        "streetTypeId": "RD",
        "placeName": "NORTH BAY",
        "streetNameDisplayText": "BARLEY RD, NORTH BAY"
      }
    ]
  },
  {
    "postal": "P1A2E2",
    "result": [
      {
        "electoralDistricts": [
          {
            "election": null,
            "id": 72,
            "name": "Nipissing"
          }
        ],
        "pollDivisionIds": [
          10140177
        ],
        "postalCode": "P1A2E2",
        "streetName": "LAKESHORE",
        "streetDirectionId": null,
        "streetTypeId": "DR",
        "placeName": "NORTH BAY",
        "streetNameDisplayText": "LAKESHORE DR, NORTH BAY"
      }
    ]
  },
  {
    "postal": "P1A7W8",
    "result": []
  },
  {
    "postal": "P1A7M5",
    "result": []
  },
  {
    "postal": "P1A5W8",
    "result": []
  },
  {
    "postal": "P1A5E5",
    "result": []
  },
  {
    "postal": "P1A1P9",
    "result": [
      {
        "electoralDistricts": [
          {
            "election": null,
            "id": 72,
            "name": "Nipissing"
          }
        ],
        "pollDivisionIds": [
          10140177
        ],
        "postalCode": "P1A1P9",
        "streetName": "MARSHALL",
        "streetDirectionId": "E",
        "streetTypeId": "AVE",
        "placeName": "NORTH BAY",
        "streetNameDisplayText": "MARSHALL AVE E, NORTH BAY"
      }
    ]
  },
  {
    "postal": "P1A8V8",
    "result": []
  },
  {
    "postal": "P1A9G8",
    "result": []
  },
  {
    "postal": "P1A8H9",
    "result": []
  },
  {
    "postal": "P1A1Z1",
    "result": [
      {
        "electoralDistricts": [
          {
            "election": null,
            "id": 72,
            "name": "Nipissing"
          }
        ],
        "pollDivisionIds": [
          10140176
        ],
        "postalCode": "P1A1Z1",
        "streetName": "WHITNEY",
        "streetDirectionId": null,
        "streetTypeId": "AVE",
        "placeName": "NORTH BAY",
        "streetNameDisplayText": "WHITNEY AVE, NORTH BAY"
      }
    ]
  },
  {
    "postal": "P1A8M3",
    "result": []
  },
  {
    "postal": "P1A5H6",
    "result": []
  },
  {
    "postal": "P1A7W7",
    "result": []
  },
  {
    "postal": "P1A4L0",
    "result": []
  },
  {
    "postal": "P1A2N1",
    "result": [
      {
        "electoralDistricts": [
          {
            "election": null,
            "id": 72,
            "name": "Nipissing"
          }
        ],
        "pollDivisionIds": [
          10140176
        ],
        "postalCode": "P1A2N1",
        "streetName": "STRATHCONA",
        "streetDirectionId": null,
        "streetTypeId": "DR",
        "placeName": "NORTH BAY",
        "streetNameDisplayText": "STRATHCONA DR, NORTH BAY"
      }
    ]
  },
  {
    "postal": "P1A2H4",
    "result": [
      {
        "electoralDistricts": [
          {
            "election": null,
            "id": 72,
            "name": "Nipissing"
          }
        ],
        "pollDivisionIds": [
          10140179
        ],
        "postalCode": "P1A2H4",
        "streetName": "PREMIER",
        "streetDirectionId": null,
        "streetTypeId": "RD",
        "placeName": "NORTH BAY",
        "streetNameDisplayText": "PREMIER RD, NORTH BAY"
      }
    ]
  },
  {
    "postal": "P1A5C8",
    "result": []
  },
  {
    "postal": "P1A8B0",
    "result": []
  },
  {
    "postal": "P1A1T4",
    "result": []
  },
  {
    "postal": "P1A7N7",
    "result": []
  },
  {
    "postal": "P1A4L3",
    "result": [
      {
        "electoralDistricts": [
          {
            "election": null,
            "id": 72,
            "name": "Nipissing"
          }
        ],
        "pollDivisionIds": [
          10140179
        ],
        "postalCode": "P1A4L3",
        "streetName": "HARRIS",
        "streetDirectionId": null,
        "streetTypeId": "DR",
        "placeName": "NORTH BAY",
        "streetNameDisplayText": "HARRIS DR, NORTH BAY"
      }
    ]
  },
  {
    "postal": "P1A2N2",
    "result": [
      {
        "electoralDistricts": [
          {
            "election": null,
            "id": 72,
            "name": "Nipissing"
          }
        ],
        "pollDivisionIds": [
          10140176
        ],
        "postalCode": "P1A2N2",
        "streetName": "STRATHCONA",
        "streetDirectionId": null,
        "streetTypeId": "DR",
        "placeName": "NORTH BAY",
        "streetNameDisplayText": "STRATHCONA DR, NORTH BAY"
      }
    ]
  },
  {
    "postal": "P1A4N8",
    "result": []
  },
  {
    "postal": "P1A3M5",
    "result": [
      {
        "electoralDistricts": [
          {
            "election": null,
            "id": 72,
            "name": "Nipissing"
          }
        ],
        "pollDivisionIds": [
          10140177
        ],
        "postalCode": "P1A3M5",
        "streetName": "PRINCE EDWARD",
        "streetDirectionId": null,
        "streetTypeId": "DR",
        "placeName": "NORTH BAY",
        "streetNameDisplayText": "PRINCE EDWARD DR, NORTH BAY"
      }
    ]
  },
  {
    "postal": "P1A6H7",
    "result": []
  },
  {
    "postal": "P1A8Y8",
    "result": []
  },
  {
    "postal": "P1A5R9",
    "result": []
  },
  {
    "postal": "P1A8G3",
    "result": []
  },
  {
    "postal": "P1A4N7",
    "result": []
  },
  {
    "postal": "P1A0B9",
    "result": []
  },
  {
    "postal": "P1A9K7",
    "result": []
  },
  {
    "postal": "P1A9K9",
    "result": []
  },
  {
    "postal": "P1A3Z2",
    "result": [
      {
        "electoralDistricts": [
          {
            "election": null,
            "id": 72,
            "name": "Nipissing"
          }
        ],
        "pollDivisionIds": [
          10140179
        ],
        "postalCode": "P1A3Z2",
        "streetName": "HARRIS",
        "streetDirectionId": null,
        "streetTypeId": "DR",
        "placeName": "NORTH BAY",
        "streetNameDisplayText": "HARRIS DR, NORTH BAY"
      }
    ]
  },
  {
    "postal": "P1A6W7",
    "result": []
  },
  {
    "postal": "P1A0P1",
    "result": []
  },
  {
    "postal": "P1A3A0",
    "result": []
  },
  {
    "postal": "P1A8L9",
    "result": []
  },
  {
    "postal": "P1A6X0",
    "result": []
  },
  {
    "postal": "P1A3E9",
    "result": [
      {
        "electoralDistricts": [
          {
            "election": null,
            "id": 72,
            "name": "Nipissing"
          }
        ],
        "pollDivisionIds": [
          10140174
        ],
        "postalCode": "P1A3E9",
        "streetName": "HUGHES",
        "streetDirectionId": null,
        "streetTypeId": "RD",
        "placeName": "NORTH BAY",
        "streetNameDisplayText": "HUGHES RD, NORTH BAY"
      }
    ]
  },
  {
    "postal": "P1A0S5",
    "result": []
  },
  {
    "postal": "P1A1A2",
    "result": []
  },
  {
    "postal": "P1A5V8",
    "result": []
  },
  {
    "postal": "P1A8C5",
    "result": []
  },
  {
    "postal": "P1A6N0",
    "result": []
  },
  {
    "postal": "P1A9E6",
    "result": []
  },
  {
    "postal": "P1A5J7",
    "result": []
  },
  {
    "postal": "P1A2R2",
    "result": [
      {
        "electoralDistricts": [
          {
            "election": null,
            "id": 72,
            "name": "Nipissing"
          }
        ],
        "pollDivisionIds": [
          10140177
        ],
        "postalCode": "P1A2R2",
        "streetName": "NIGHTINGALE",
        "streetDirectionId": null,
        "streetTypeId": "DR",
        "placeName": "NORTH BAY",
        "streetNameDisplayText": "NIGHTINGALE DR, NORTH BAY"
      }
    ]
  },
  {
    "postal": "P1A0P5",
    "result": []
  },
  {
    "postal": "P1A5A7",
    "result": []
  },
  {
    "postal": "P1A1G1",
    "result": [
      {
        "electoralDistricts": [
          {
            "election": null,
            "id": 72,
            "name": "Nipissing"
          }
        ],
        "pollDivisionIds": [
          10140176
        ],
        "postalCode": "P1A1G1",
        "streetName": "VAN HORNE",
        "streetDirectionId": null,
        "streetTypeId": "CRES",
        "placeName": "NORTH BAY",
        "streetNameDisplayText": "VAN HORNE CRES, NORTH BAY"
      }
    ]
  },
  {
    "postal": "P1A9R6",
    "result": []
  },
  {
    "postal": "P1A4Z9",
    "result": []
  },
  {
    "postal": "P1A1V5",
    "result": [
      {
        "electoralDistricts": [
          {
            "election": null,
            "id": 72,
            "name": "Nipissing"
          }
        ],
        "pollDivisionIds": [
          10140176
        ],
        "postalCode": "P1A1V5",
        "streetName": "CAMPBELL",
        "streetDirectionId": null,
        "streetTypeId": "AVE",
        "placeName": "NORTH BAY",
        "streetNameDisplayText": "CAMPBELL AVE, NORTH BAY"
      }
    ]
  },
  {
    "postal": "P1A9Y5",
    "result": []
  },
  {
    "postal": "P1A1P2",
    "result": [
      {
        "electoralDistricts": [
          {
            "election": null,
            "id": 72,
            "name": "Nipissing"
          }
        ],
        "pollDivisionIds": [
          10140177
        ],
        "postalCode": "P1A1P2",
        "streetName": "PORTAGE",
        "streetDirectionId": null,
        "streetTypeId": "AVE",
        "placeName": "NORTH BAY",
        "streetNameDisplayText": "PORTAGE AVE, NORTH BAY"
      }
    ]
  },
  {
    "postal": "P1A5X0",
    "result": []
  },
  {
    "postal": "P1A7B8",
    "result": []
  },
  {
    "postal": "P1A0C6",
    "result": [
      {
        "electoralDistricts": [
          {
            "election": null,
            "id": 72,
            "name": "Nipissing"
          }
        ],
        "pollDivisionIds": [
          10140174
        ],
        "postalCode": "P1A0C6",
        "streetName": "SEYMOUR",
        "streetDirectionId": null,
        "streetTypeId": "ST",
        "placeName": "NORTH BAY",
        "streetNameDisplayText": "SEYMOUR ST, NORTH BAY"
      }
    ]
  },
  {
    "postal": "P1A6G1",
    "result": []
  },
  {
    "postal": "P1A3K3",
    "result": [
      {
        "electoralDistricts": [
          {
            "election": null,
            "id": 72,
            "name": "Nipissing"
          }
        ],
        "pollDivisionIds": [
          10140174
        ],
        "postalCode": "P1A3K3",
        "streetName": "TRAPPER'S GLEN",
        "streetDirectionId": null,
        "streetTypeId": "RD",
        "placeName": "NORTH BAY",
        "streetNameDisplayText": "TRAPPER'S GLEN RD, NORTH BAY"
      }
    ]
  },
  {
    "postal": "P1A9R0",
    "result": []
  },
  {
    "postal": "P1A4R8",
    "result": []
  },
  {
    "postal": "P1A5P9",
    "result": []
  },
  {
    "postal": "P1A8N4",
    "result": []
  },
  {
    "postal": "P1A8H4",
    "result": []
  },
  {
    "postal": "P1A4V1",
    "result": []
  },
  {
    "postal": "P1A1K5",
    "result": [
      {
        "electoralDistricts": [
          {
            "election": null,
            "id": 72,
            "name": "Nipissing"
          }
        ],
        "pollDivisionIds": [
          10140176
        ],
        "postalCode": "P1A1K5",
        "streetName": "GERTRUDE",
        "streetDirectionId": "E",
        "streetTypeId": "ST",
        "placeName": "NORTH BAY",
        "streetNameDisplayText": "GERTRUDE ST E, NORTH BAY"
      }
    ]
  },
  {
    "postal": "P1A1Z5",
    "result": [
      {
        "electoralDistricts": [
          {
            "election": null,
            "id": 72,
            "name": "Nipissing"
          }
        ],
        "pollDivisionIds": [
          10140176
        ],
        "postalCode": "P1A1Z5",
        "streetName": "POLLARD",
        "streetDirectionId": null,
        "streetTypeId": "AVE",
        "placeName": "NORTH BAY",
        "streetNameDisplayText": "POLLARD AVE, NORTH BAY"
      }
    ]
  },
  {
    "postal": "P1A9L9",
    "result": []
  },
  {
    "postal": "P1A5L2",
    "result": []
  },
  {
    "postal": "P1A0M2",
    "result": []
  },
  {
    "postal": "P1A1K8",
    "result": [
      {
        "electoralDistricts": [
          {
            "election": null,
            "id": 72,
            "name": "Nipissing"
          }
        ],
        "pollDivisionIds": [
          10140176
        ],
        "postalCode": "P1A1K8",
        "streetName": "MARTIN",
        "streetDirectionId": null,
        "streetTypeId": "ST",
        "placeName": "NORTH BAY",
        "streetNameDisplayText": "MARTIN ST, NORTH BAY"
      },
      {
        "electoralDistricts": [
          {
            "election": null,
            "id": 72,
            "name": "Nipissing"
          }
        ],
        "pollDivisionIds": [
          10140176
        ],
        "postalCode": "P1A1K8",
        "streetName": "MARTIN ST.",
        "streetDirectionId": null,
        "streetTypeId": "ST",
        "placeName": "NORTH BAY",
        "streetNameDisplayText": "MARTIN ST. ST, NORTH BAY"
      }
    ]
  },
  {
    "postal": "P1A3M7",
    "result": [
      {
        "electoralDistricts": [
          {
            "election": null,
            "id": 72,
            "name": "Nipissing"
          }
        ],
        "pollDivisionIds": [
          10140177
        ],
        "postalCode": "P1A3M7",
        "streetName": "CHARLTON",
        "streetDirectionId": null,
        "streetTypeId": "CRES",
        "placeName": "NORTH BAY",
        "streetNameDisplayText": "CHARLTON CRES, NORTH BAY"
      }
    ]
  },
  {
    "postal": "P1A1B2",
    "result": [
      {
        "electoralDistricts": [
          {
            "election": null,
            "id": 72,
            "name": "Nipissing"
          }
        ],
        "pollDivisionIds": [
          10140176
        ],
        "postalCode": "P1A1B2",
        "streetName": "JUDGE",
        "streetDirectionId": null,
        "streetTypeId": "AVE",
        "placeName": "NORTH BAY",
        "streetNameDisplayText": "JUDGE AVE, NORTH BAY"
      }
    ]
  },
  {
    "postal": "P1A0H9",
    "result": []
  },
  {
    "postal": "P1A8M4",
    "result": []
  },
  {
    "postal": "P1A2M5",
    "result": [
      {
        "electoralDistricts": [
          {
            "election": null,
            "id": 72,
            "name": "Nipissing"
          }
        ],
        "pollDivisionIds": [
          10140176
        ],
        "postalCode": "P1A2M5",
        "streetName": "STRATHCONA",
        "streetDirectionId": null,
        "streetTypeId": "DR",
        "placeName": "NORTH BAY",
        "streetNameDisplayText": "STRATHCONA DR, NORTH BAY"
      }
    ]
  },
  {
    "postal": "P1A0T9",
    "result": []
  },
  {
    "postal": "P1A3P1",
    "result": [
      {
        "electoralDistricts": [
          {
            "election": null,
            "id": 72,
            "name": "Nipissing"
          }
        ],
        "pollDivisionIds": [
          10140177
        ],
        "postalCode": "P1A3P1",
        "streetName": "TALON",
        "streetDirectionId": null,
        "streetTypeId": "ST",
        "placeName": "NORTH BAY",
        "streetNameDisplayText": "TALON ST, NORTH BAY"
      }
    ]
  },
  {
    "postal": "P1A1R6",
    "result": [
      {
        "electoralDistricts": [
          {
            "election": null,
            "id": 72,
            "name": "Nipissing"
          }
        ],
        "pollDivisionIds": [
          10140179
        ],
        "postalCode": "P1A1R6",
        "streetName": "BIRCHS",
        "streetDirectionId": null,
        "streetTypeId": "RD",
        "placeName": "NORTH BAY",
        "streetNameDisplayText": "BIRCHS RD, NORTH BAY"
      }
    ]
  },
  {
    "postal": "P1A9V5",
    "result": []
  },
  {
    "postal": "P1A9T0",
    "result": []
  },
  {
    "postal": "P1A0A9",
    "result": [
      {
        "electoralDistricts": [
          {
            "election": null,
            "id": 72,
            "name": "Nipissing"
          }
        ],
        "pollDivisionIds": [
          10140174
        ],
        "postalCode": "P1A0A9",
        "streetName": "CHOLETTE",
        "streetDirectionId": null,
        "streetTypeId": "ST",
        "placeName": "NORTH BAY",
        "streetNameDisplayText": "CHOLETTE ST, NORTH BAY"
      }
    ]
  },
  {
    "postal": "P1A1M3",
    "result": [
      {
        "electoralDistricts": [
          {
            "election": null,
            "id": 72,
            "name": "Nipissing"
          }
        ],
        "pollDivisionIds": [
          10140176
        ],
        "postalCode": "P1A1M3",
        "streetName": "MILFORD",
        "streetDirectionId": null,
        "streetTypeId": "CRES",
        "placeName": "NORTH BAY",
        "streetNameDisplayText": "MILFORD CRES, NORTH BAY"
      }
    ]
  },
  {
    "postal": "P1A1W8",
    "result": [
      {
        "electoralDistricts": [
          {
            "election": null,
            "id": 72,
            "name": "Nipissing"
          }
        ],
        "pollDivisionIds": [
          10140176
        ],
        "postalCode": "P1A1W8",
        "streetName": "ROWE",
        "streetDirectionId": null,
        "streetTypeId": "AVE",
        "placeName": "NORTH BAY",
        "streetNameDisplayText": "ROWE AVE, NORTH BAY"
      }
    ]
  },
  {
    "postal": "P1A9J1",
    "result": []
  },
  {
    "postal": "P1A8N5",
    "result": []
  },
  {
    "postal": "P1A5X1",
    "result": []
  },
  {
    "postal": "P1A6S2",
    "result": []
  },
  {
    "postal": "P1A2A2",
    "result": [
      {
        "electoralDistricts": [
          {
            "election": null,
            "id": 72,
            "name": "Nipissing"
          }
        ],
        "pollDivisionIds": [
          10140176
        ],
        "postalCode": "P1A2A2",
        "streetName": "LAKESHORE",
        "streetDirectionId": null,
        "streetTypeId": "DR",
        "placeName": "NORTH BAY",
        "streetNameDisplayText": "LAKESHORE DR, NORTH BAY"
      }
    ]
  },
  {
    "postal": "P1A6A6",
    "result": []
  },
  {
    "postal": "P1A0S3",
    "result": []
  },
  {
    "postal": "P1A3E7",
    "result": [
      {
        "electoralDistricts": [
          {
            "election": null,
            "id": 72,
            "name": "Nipissing"
          }
        ],
        "pollDivisionIds": [
          10140157
        ],
        "postalCode": "P1A3E7",
        "streetName": "LAKESIDE",
        "streetDirectionId": null,
        "streetTypeId": "DR",
        "placeName": "NORTH BAY",
        "streetNameDisplayText": "LAKESIDE DR, NORTH BAY"
      }
    ]
  },
  {
    "postal": "P1A5R7",
    "result": []
  },
  {
    "postal": "P1A3R6",
    "result": [
      {
        "electoralDistricts": [
          {
            "election": null,
            "id": 72,
            "name": "Nipissing"
          }
        ],
        "pollDivisionIds": [
          10140178
        ],
        "postalCode": "P1A3R6",
        "streetName": "LABRECHE",
        "streetDirectionId": null,
        "streetTypeId": "DR",
        "placeName": "NORTH BAY",
        "streetNameDisplayText": "LABRECHE DR, NORTH BAY"
      }
    ]
  },
  {
    "postal": "P1A6K4",
    "result": []
  },
  {
    "postal": "P1A2W5",
    "result": []
  },
  {
    "postal": "P1A8W4",
    "result": []
  },
  {
    "postal": "P1A9C2",
    "result": []
  },
  {
    "postal": "P1A2C0",
    "result": []
  },
  {
    "postal": "P1A0E1",
    "result": [
      {
        "electoralDistricts": [
          {
            "election": null,
            "id": 72,
            "name": "Nipissing"
          }
        ],
        "pollDivisionIds": [
          10140174
        ],
        "postalCode": "P1A0E1",
        "streetName": "SEYMOUR",
        "streetDirectionId": null,
        "streetTypeId": "ST",
        "placeName": "NORTH BAY",
        "streetNameDisplayText": "SEYMOUR ST, NORTH BAY"
      }
    ]
  },
  {
    "postal": "P1A1K9",
    "result": [
      {
        "electoralDistricts": [
          {
            "election": null,
            "id": 72,
            "name": "Nipissing"
          }
        ],
        "pollDivisionIds": [
          10140176
        ],
        "postalCode": "P1A1K9",
        "streetName": "MARTIN",
        "streetDirectionId": null,
        "streetTypeId": "ST",
        "placeName": "NORTH BAY",
        "streetNameDisplayText": "MARTIN ST, NORTH BAY"
      }
    ]
  },
  {
    "postal": "P1A1G7",
    "result": [
      {
        "electoralDistricts": [
          {
            "election": null,
            "id": 72,
            "name": "Nipissing"
          }
        ],
        "pollDivisionIds": [
          10140176
        ],
        "postalCode": "P1A1G7",
        "streetName": "MACDONALD",
        "streetDirectionId": "W",
        "streetTypeId": "AVE",
        "placeName": "NORTH BAY",
        "streetNameDisplayText": "MACDONALD AVE W, NORTH BAY"
      }
    ]
  },
  {
    "postal": "P1A4E9",
    "result": [
      {
        "electoralDistricts": [
          {
            "election": null,
            "id": 72,
            "name": "Nipissing"
          }
        ],
        "pollDivisionIds": [
          10140179
        ],
        "postalCode": "P1A4E9",
        "streetName": "BLAIR",
        "streetDirectionId": null,
        "streetTypeId": "ST",
        "placeName": "NORTH BAY",
        "streetNameDisplayText": "BLAIR ST, NORTH BAY"
      }
    ]
  },
  {
    "postal": "P1A9P0",
    "result": []
  },
  {
    "postal": "P1A5H3",
    "result": []
  },
  {
    "postal": "P1A9X6",
    "result": []
  },
  {
    "postal": "P1A5N7",
    "result": []
  },
  {
    "postal": "P1A5A6",
    "result": []
  },
  {
    "postal": "P1A4M0",
    "result": []
  },
  {
    "postal": "P1A3V6",
    "result": [
      {
        "electoralDistricts": [
          {
            "election": null,
            "id": 72,
            "name": "Nipissing"
          }
        ],
        "pollDivisionIds": [
          10140157
        ],
        "postalCode": "P1A3V6",
        "streetName": "MERLIN",
        "streetDirectionId": null,
        "streetTypeId": "AVE",
        "placeName": "NORTH BAY",
        "streetNameDisplayText": "MERLIN AVE, NORTH BAY"
      }
    ]
  },
  {
    "postal": "P1A1L7",
    "result": [
      {
        "electoralDistricts": [
          {
            "election": null,
            "id": 72,
            "name": "Nipissing"
          }
        ],
        "pollDivisionIds": [
          10140176
        ],
        "postalCode": "P1A1L7",
        "streetName": "JOSEPH",
        "streetDirectionId": null,
        "streetTypeId": "ST",
        "placeName": "NORTH BAY",
        "streetNameDisplayText": "JOSEPH ST, NORTH BAY"
      }
    ]
  },
  {
    "postal": "P1A2P9",
    "result": [
      {
        "electoralDistricts": [
          {
            "election": null,
            "id": 72,
            "name": "Nipissing"
          }
        ],
        "pollDivisionIds": [
          10140177
        ],
        "postalCode": "P1A2P9",
        "streetName": "NIGHTINGALE",
        "streetDirectionId": null,
        "streetTypeId": "DR",
        "placeName": "NORTH BAY",
        "streetNameDisplayText": "NIGHTINGALE DR, NORTH BAY"
      }
    ]
  },
  {
    "postal": "P1A5T4",
    "result": []
  },
  {
    "postal": "P1A5Z1",
    "result": []
  },
  {
    "postal": "P1A2X0",
    "result": []
  },
  {
    "postal": "P1A6Z2",
    "result": []
  },
  {
    "postal": "P1A0E0",
    "result": []
  },
  {
    "postal": "P1A3Z5",
    "result": [
      {
        "electoralDistricts": [
          {
            "election": null,
            "id": 72,
            "name": "Nipissing"
          }
        ],
        "pollDivisionIds": [
          10140171
        ],
        "postalCode": "P1A3Z5",
        "streetName": "BRULE",
        "streetDirectionId": null,
        "streetTypeId": "ST",
        "placeName": "NORTH BAY",
        "streetNameDisplayText": "BRULE ST, NORTH BAY"
      }
    ]
  },
  {
    "postal": "P1A8H3",
    "result": []
  },
  {
    "postal": "P1A7S6",
    "result": []
  },
  {
    "postal": "P1A4C1",
    "result": []
  },
  {
    "postal": "P1A3K2",
    "result": [
      {
        "electoralDistricts": [
          {
            "election": null,
            "id": 72,
            "name": "Nipissing"
          }
        ],
        "pollDivisionIds": [
          10140174
        ],
        "postalCode": "P1A3K2",
        "streetName": "ARTHUR",
        "streetDirectionId": null,
        "streetTypeId": "CRT",
        "placeName": "NORTH BAY",
        "streetNameDisplayText": "ARTHUR CRT, NORTH BAY"
      }
    ]
  },
  {
    "postal": "P1A1Y5",
    "result": [
      {
        "electoralDistricts": [
          {
            "election": null,
            "id": 72,
            "name": "Nipissing"
          }
        ],
        "pollDivisionIds": [
          10140176
        ],
        "postalCode": "P1A1Y5",
        "streetName": "WHITNEY",
        "streetDirectionId": null,
        "streetTypeId": "AVE",
        "placeName": "NORTH BAY",
        "streetNameDisplayText": "WHITNEY AVE, NORTH BAY"
      }
    ]
  },
  {
    "postal": "P1A6P6",
    "result": []
  },
  {
    "postal": "P1A3N9",
    "result": [
      {
        "electoralDistricts": [
          {
            "election": null,
            "id": 72,
            "name": "Nipissing"
          }
        ],
        "pollDivisionIds": [
          10140157
        ],
        "postalCode": "P1A3N9",
        "streetName": "GUINEVERE",
        "streetDirectionId": null,
        "streetTypeId": "CRT",
        "placeName": "NORTH BAY",
        "streetNameDisplayText": "GUINEVERE CRT, NORTH BAY"
      }
    ]
  },
  {
    "postal": "P1A3W2",
    "result": [
      {
        "electoralDistricts": [
          {
            "election": null,
            "id": 72,
            "name": "Nipissing"
          }
        ],
        "pollDivisionIds": [
          10140178
        ],
        "postalCode": "P1A3W2",
        "streetName": "REGENT",
        "streetDirectionId": null,
        "streetTypeId": "CRT",
        "placeName": "NORTH BAY",
        "streetNameDisplayText": "REGENT CRT, NORTH BAY"
      }
    ]
  },
  {
    "postal": "P1A6H8",
    "result": []
  },
  {
    "postal": "P1A9T3",
    "result": []
  },
  {
    "postal": "P1A5L9",
    "result": []
  },
  {
    "postal": "P1A7X7",
    "result": []
  },
  {
    "postal": "P1A3J5",
    "result": [
      {
        "electoralDistricts": [
          {
            "election": null,
            "id": 72,
            "name": "Nipissing"
          }
        ],
        "pollDivisionIds": [
          10140157
        ],
        "postalCode": "P1A3J5",
        "streetName": "RITA",
        "streetDirectionId": null,
        "streetTypeId": "RD",
        "placeName": "NORTH BAY",
        "streetNameDisplayText": "RITA RD, NORTH BAY"
      }
    ]
  },
  {
    "postal": "P1A4J5",
    "result": [
      {
        "electoralDistricts": [
          {
            "election": null,
            "id": 72,
            "name": "Nipissing"
          }
        ],
        "pollDivisionIds": [
          10140178
        ],
        "postalCode": "P1A4J5",
        "streetName": "LABRECHE",
        "streetDirectionId": null,
        "streetTypeId": "DR",
        "placeName": "NORTH BAY",
        "streetNameDisplayText": "LABRECHE DR, NORTH BAY"
      }
    ]
  },
  {
    "postal": "P1A6J2",
    "result": []
  },
  {
    "postal": "P1A5V6",
    "result": []
  },
  {
    "postal": "P1A3N2",
    "result": [
      {
        "electoralDistricts": [
          {
            "election": null,
            "id": 72,
            "name": "Nipissing"
          }
        ],
        "pollDivisionIds": [
          10140176
        ],
        "postalCode": "P1A3N2",
        "streetName": "MULLIGAN",
        "streetDirectionId": null,
        "streetTypeId": "ST",
        "placeName": "NORTH BAY",
        "streetNameDisplayText": "MULLIGAN ST, NORTH BAY"
      }
    ]
  },
  {
    "postal": "P1A3B1",
    "result": [
      {
        "electoralDistricts": [
          {
            "election": null,
            "id": 72,
            "name": "Nipissing"
          }
        ],
        "pollDivisionIds": [
          10140157
        ],
        "postalCode": "P1A3B1",
        "streetName": "ORANGE",
        "streetDirectionId": null,
        "streetTypeId": "CRES",
        "placeName": "NORTH BAY",
        "streetNameDisplayText": "ORANGE CRES, NORTH BAY"
      }
    ]
  },
  {
    "postal": "P1A8B5",
    "result": []
  },
  {
    "postal": "P1A0K1",
    "result": []
  },
  {
    "postal": "P1A7M7",
    "result": []
  },
  {
    "postal": "P1A2M2",
    "result": [
      {
        "electoralDistricts": [
          {
            "election": null,
            "id": 72,
            "name": "Nipissing"
          }
        ],
        "pollDivisionIds": [
          10140176
        ],
        "postalCode": "P1A2M2",
        "streetName": "GLADSTONE",
        "streetDirectionId": null,
        "streetTypeId": "AVE",
        "placeName": "NORTH BAY",
        "streetNameDisplayText": "GLADSTONE AVE, NORTH BAY"
      }
    ]
  },
  {
    "postal": "P1A9N3",
    "result": []
  },
  {
    "postal": "P1A4Y8",
    "result": []
  },
  {
    "postal": "P1A3V7",
    "result": [
      {
        "electoralDistricts": [
          {
            "election": null,
            "id": 72,
            "name": "Nipissing"
          }
        ],
        "pollDivisionIds": [
          10140157
        ],
        "postalCode": "P1A3V7",
        "streetName": "SHALLOT",
        "streetDirectionId": null,
        "streetTypeId": "CRES",
        "placeName": "NORTH BAY",
        "streetNameDisplayText": "SHALLOT CRES, NORTH BAY"
      }
    ]
  },
  {
    "postal": "P1A8Z1",
    "result": []
  },
  {
    "postal": "P1A7B3",
    "result": []
  },
  {
    "postal": "P1A3A8",
    "result": [
      {
        "electoralDistricts": [
          {
            "election": null,
            "id": 72,
            "name": "Nipissing"
          }
        ],
        "pollDivisionIds": [
          10140157
        ],
        "postalCode": "P1A3A8",
        "streetName": "LANCELOT",
        "streetDirectionId": null,
        "streetTypeId": "AVE",
        "placeName": "NORTH BAY",
        "streetNameDisplayText": "LANCELOT AVE, NORTH BAY"
      }
    ]
  },
  {
    "postal": "P1A7V5",
    "result": []
  },
  {
    "postal": "P1A2T2",
    "result": [
      {
        "electoralDistricts": [
          {
            "election": null,
            "id": 72,
            "name": "Nipissing"
          }
        ],
        "pollDivisionIds": [
          10140176
        ],
        "postalCode": "P1A2T2",
        "streetName": "GEORGIAN",
        "streetDirectionId": null,
        "streetTypeId": "RD",
        "placeName": "NORTH BAY",
        "streetNameDisplayText": "GEORGIAN RD, NORTH BAY"
      }
    ]
  },
  {
    "postal": "P1A6L3",
    "result": []
  },
  {
    "postal": "P1A0L2",
    "result": []
  },
  {
    "postal": "P1A5Y8",
    "result": []
  },
  {
    "postal": "P1A0B8",
    "result": []
  },
  {
    "postal": "P1A6R5",
    "result": []
  },
  {
    "postal": "P1A8W6",
    "result": []
  },
  {
    "postal": "P1A8G6",
    "result": []
  },
  {
    "postal": "P1A6X3",
    "result": []
  },
  {
    "postal": "P1A7R7",
    "result": []
  },
  {
    "postal": "P1A4B6",
    "result": []
  },
  {
    "postal": "P1A3P9",
    "result": [
      {
        "electoralDistricts": [
          {
            "election": null,
            "id": 72,
            "name": "Nipissing"
          }
        ],
        "pollDivisionIds": [
          10140176
        ],
        "postalCode": "P1A3P9",
        "streetName": "CLAUDIA",
        "streetDirectionId": null,
        "streetTypeId": "CRT",
        "placeName": "NORTH BAY",
        "streetNameDisplayText": "CLAUDIA CRT, NORTH BAY"
      }
    ]
  },
  {
    "postal": "P1A2T3",
    "result": [
      {
        "electoralDistricts": [
          {
            "election": null,
            "id": 72,
            "name": "Nipissing"
          }
        ],
        "pollDivisionIds": [
          10140176
        ],
        "postalCode": "P1A2T3",
        "streetName": "PRINCE EDWARD",
        "streetDirectionId": null,
        "streetTypeId": "DR",
        "placeName": "NORTH BAY",
        "streetNameDisplayText": "PRINCE EDWARD DR, NORTH BAY"
      }
    ]
  },
  {
    "postal": "P1A1M4",
    "result": [
      {
        "electoralDistricts": [
          {
            "election": null,
            "id": 72,
            "name": "Nipissing"
          }
        ],
        "pollDivisionIds": [
          10140176
        ],
        "postalCode": "P1A1M4",
        "streetName": "MILFORD",
        "streetDirectionId": null,
        "streetTypeId": "CRES",
        "placeName": "NORTH BAY",
        "streetNameDisplayText": "MILFORD CRES, NORTH BAY"
      }
    ]
  },
  {
    "postal": "P1A0H1",
    "result": []
  },
  {
    "postal": "P1A9W3",
    "result": []
  },
  {
    "postal": "P1A6P1",
    "result": []
  },
  {
    "postal": "P1A7G2",
    "result": []
  },
  {
    "postal": "P1A4J9",
    "result": [
      {
        "electoralDistricts": [
          {
            "election": null,
            "id": 72,
            "name": "Nipissing"
          }
        ],
        "pollDivisionIds": [
          10140179
        ],
        "postalCode": "P1A4J9",
        "streetName": "THELMA",
        "streetDirectionId": null,
        "streetTypeId": "AVE",
        "placeName": "NORTH BAY",
        "streetNameDisplayText": "THELMA AVE, NORTH BAY"
      }
    ]
  },
  {
    "postal": "P1A9E4",
    "result": []
  },
  {
    "postal": "P1A8H0",
    "result": []
  },
  {
    "postal": "P1A4M7",
    "result": [
      {
        "electoralDistricts": [
          {
            "election": null,
            "id": 72,
            "name": "Nipissing"
          }
        ],
        "pollDivisionIds": [
          10140179
        ],
        "postalCode": "P1A4M7",
        "streetName": "BLAIR",
        "streetDirectionId": null,
        "streetTypeId": "ST",
        "placeName": "NORTH BAY",
        "streetNameDisplayText": "BLAIR ST, NORTH BAY"
      },
      {
        "electoralDistricts": [
          {
            "election": null,
            "id": 72,
            "name": "Nipissing"
          }
        ],
        "pollDivisionIds": [
          10140179
        ],
        "postalCode": "P1A4M7",
        "streetName": "MARIAH",
        "streetDirectionId": null,
        "streetTypeId": "ST",
        "placeName": "NORTH BAY",
        "streetNameDisplayText": "MARIAH ST, NORTH BAY"
      }
    ]
  },
  {
    "postal": "P1A2G9",
    "result": [
      {
        "electoralDistricts": [
          {
            "election": null,
            "id": 72,
            "name": "Nipissing"
          }
        ],
        "pollDivisionIds": [
          10140179
        ],
        "postalCode": "P1A2G9",
        "streetName": "LAKESHORE",
        "streetDirectionId": null,
        "streetTypeId": "DR",
        "placeName": "NORTH BAY",
        "streetNameDisplayText": "LAKESHORE DR, NORTH BAY"
      }
    ]
  },
  {
    "postal": "P1A8T2",
    "result": []
  },
  {
    "postal": "P1A7G7",
    "result": []
  },
  {
    "postal": "P1A4Z3",
    "result": []
  },
  {
    "postal": "P1A5B3",
    "result": []
  },
  {
    "postal": "P1A1S7",
    "result": [
      {
        "electoralDistricts": [
          {
            "election": null,
            "id": 72,
            "name": "Nipissing"
          }
        ],
        "pollDivisionIds": [
          10140176
        ],
        "postalCode": "P1A1S7",
        "streetName": "PARSONS",
        "streetDirectionId": null,
        "streetTypeId": "AVE",
        "placeName": "NORTH BAY",
        "streetNameDisplayText": "PARSONS AVE, NORTH BAY"
      }
    ]
  },
  {
    "postal": "P1A2N7",
    "result": [
      {
        "electoralDistricts": [
          {
            "election": null,
            "id": 72,
            "name": "Nipissing"
          }
        ],
        "pollDivisionIds": [
          10140177
        ],
        "postalCode": "P1A2N7",
        "streetName": "MERCER",
        "streetDirectionId": null,
        "streetTypeId": "DR",
        "placeName": "NORTH BAY",
        "streetNameDisplayText": "MERCER DR, NORTH BAY"
      }
    ]
  },
  {
    "postal": "P1A0H8",
    "result": []
  },
  {
    "postal": "P1A7Z4",
    "result": []
  },
  {
    "postal": "P1A7B1",
    "result": []
  },
  {
    "postal": "P1A7P8",
    "result": []
  },
  {
    "postal": "P1A7N0",
    "result": []
  },
  {
    "postal": "P1A3Y5",
    "result": [
      {
        "electoralDistricts": [
          {
            "election": null,
            "id": 72,
            "name": "Nipissing"
          }
        ],
        "pollDivisionIds": [
          10140179
        ],
        "postalCode": "P1A3Y5",
        "streetName": "PLUMTREE",
        "streetDirectionId": null,
        "streetTypeId": "PL",
        "placeName": "NORTH BAY",
        "streetNameDisplayText": "PLUMTREE PL, NORTH BAY"
      }
    ]
  },
  {
    "postal": "P1A6K1",
    "result": []
  },
  {
    "postal": "P1A9X5",
    "result": []
  },
  {
    "postal": "P1A7S5",
    "result": []
  },
  {
    "postal": "P1A0A4",
    "result": [
      {
        "electoralDistricts": [
          {
            "election": null,
            "id": 72,
            "name": "Nipissing"
          }
        ],
        "pollDivisionIds": [
          10140180
        ],
        "postalCode": "P1A0A4",
        "streetName": "17",
        "streetDirectionId": "E",
        "streetTypeId": "HWY",
        "placeName": "NORTH BAY",
        "streetNameDisplayText": "17 HWY E, NORTH BAY"
      },
      {
        "electoralDistricts": [
          {
            "election": null,
            "id": 72,
            "name": "Nipissing"
          }
        ],
        "pollDivisionIds": [
          10140180
        ],
        "postalCode": "P1A0A4",
        "streetName": "HIGHWAY 17",
        "streetDirectionId": "E",
        "streetTypeId": "HWY",
        "placeName": "NORTH BAY",
        "streetNameDisplayText": "HIGHWAY 17 HWY E, NORTH BAY"
      },
      {
        "electoralDistricts": [
          {
            "election": null,
            "id": 72,
            "name": "Nipissing"
          }
        ],
        "pollDivisionIds": [
          10140180
        ],
        "postalCode": "P1A0A4",
        "streetName": "HWY 17",
        "streetDirectionId": "E",
        "streetTypeId": "HWY",
        "placeName": "NORTH BAY",
        "streetNameDisplayText": "HWY 17 HWY E, NORTH BAY"
      }
    ]
  },
  {
    "postal": "P1A4T5",
    "result": []
  },
  {
    "postal": "P1A5K1",
    "result": []
  },
  {
    "postal": "P1A0Z9",
    "result": []
  },
  {
    "postal": "P1A7T2",
    "result": []
  },
  {
    "postal": "P1A1L5",
    "result": [
      {
        "electoralDistricts": [
          {
            "election": null,
            "id": 72,
            "name": "Nipissing"
          }
        ],
        "pollDivisionIds": [
          10140176
        ],
        "postalCode": "P1A1L5",
        "streetName": "JOSEPH",
        "streetDirectionId": null,
        "streetTypeId": "ST",
        "placeName": "NORTH BAY",
        "streetNameDisplayText": "JOSEPH ST, NORTH BAY"
      }
    ]
  },
  {
    "postal": "P1A3N5",
    "result": [
      {
        "electoralDistricts": [
          {
            "election": null,
            "id": 72,
            "name": "Nipissing"
          }
        ],
        "pollDivisionIds": [
          10140177
        ],
        "postalCode": "P1A3N5",
        "streetName": "PRINCE EDWARD",
        "streetDirectionId": null,
        "streetTypeId": "DR",
        "placeName": "NORTH BAY",
        "streetNameDisplayText": "PRINCE EDWARD DR, NORTH BAY"
      }
    ]
  },
  {
    "postal": "P1A6H4",
    "result": []
  },
  {
    "postal": "P1A5A5",
    "result": []
  },
  {
    "postal": "P1A3R9",
    "result": [
      {
        "electoralDistricts": [
          {
            "election": null,
            "id": 72,
            "name": "Nipissing"
          }
        ],
        "pollDivisionIds": [
          10140174
        ],
        "postalCode": "P1A3R9",
        "streetName": "CROWN",
        "streetDirectionId": null,
        "streetTypeId": "CRES",
        "placeName": "NORTH BAY",
        "streetNameDisplayText": "CROWN CRES, NORTH BAY"
      }
    ]
  },
  {
    "postal": "P1A7L8",
    "result": []
  },
  {
    "postal": "P1A6T6",
    "result": []
  },
  {
    "postal": "P1A7Y7",
    "result": []
  },
  {
    "postal": "P1A3M8",
    "result": [
      {
        "electoralDistricts": [
          {
            "election": null,
            "id": 72,
            "name": "Nipissing"
          }
        ],
        "pollDivisionIds": [
          10140177
        ],
        "postalCode": "P1A3M8",
        "streetName": "CHARLTON",
        "streetDirectionId": null,
        "streetTypeId": "CRES",
        "placeName": "NORTH BAY",
        "streetNameDisplayText": "CHARLTON CRES, NORTH BAY"
      }
    ]
  },
  {
    "postal": "P1A2E0",
    "result": []
  },
  {
    "postal": "P1A4B5",
    "result": []
  },
  {
    "postal": "P1A1J3",
    "result": [
      {
        "electoralDistricts": [
          {
            "election": null,
            "id": 72,
            "name": "Nipissing"
          }
        ],
        "pollDivisionIds": [
          10140176
        ],
        "postalCode": "P1A1J3",
        "streetName": "GERTRUDE",
        "streetDirectionId": "W",
        "streetTypeId": "ST",
        "placeName": "NORTH BAY",
        "streetNameDisplayText": "GERTRUDE ST W, NORTH BAY"
      }
    ]
  },
  {
    "postal": "P1A5S6",
    "result": []
  },
  {
    "postal": "P1A8P7",
    "result": []
  },
  {
    "postal": "P1A7S7",
    "result": []
  },
  {
    "postal": "P1A4C2",
    "result": [
      {
        "electoralDistricts": [
          {
            "election": null,
            "id": 72,
            "name": "Nipissing"
          }
        ],
        "pollDivisionIds": [
          10140178
        ],
        "postalCode": "P1A4C2",
        "streetName": "MARSHALL",
        "streetDirectionId": "E",
        "streetTypeId": "AVE",
        "placeName": "NORTH BAY",
        "streetNameDisplayText": "MARSHALL AVE E, NORTH BAY"
      }
    ]
  },
  {
    "postal": "P1A5Y0",
    "result": []
  },
  {
    "postal": "P1A2V7",
    "result": [
      {
        "electoralDistricts": [
          {
            "election": null,
            "id": 72,
            "name": "Nipissing"
          }
        ],
        "pollDivisionIds": [
          10140177
        ],
        "postalCode": "P1A2V7",
        "streetName": "NIPISSING",
        "streetDirectionId": null,
        "streetTypeId": "CRES",
        "placeName": "NORTH BAY",
        "streetNameDisplayText": "NIPISSING CRES, NORTH BAY"
      }
    ]
  },
  {
    "postal": "P1A8P5",
    "result": []
  },
  {
    "postal": "P1A5P5",
    "result": []
  },
  {
    "postal": "P1A5Z0",
    "result": []
  },
  {
    "postal": "P1A9B0",
    "result": []
  },
  {
    "postal": "P1A1L0",
    "result": []
  },
  {
    "postal": "P1A0B5",
    "result": [
      {
        "electoralDistricts": [
          {
            "election": null,
            "id": 72,
            "name": "Nipissing"
          }
        ],
        "pollDivisionIds": [
          10140174
        ],
        "postalCode": "P1A0B5",
        "streetName": "MUD LAKE",
        "streetDirectionId": null,
        "streetTypeId": "RD",
        "placeName": "NORTH BAY",
        "streetNameDisplayText": "MUD LAKE RD, NORTH BAY"
      }
    ]
  },
  {
    "postal": "P1A3L2",
    "result": [
      {
        "electoralDistricts": [
          {
            "election": null,
            "id": 72,
            "name": "Nipissing"
          }
        ],
        "pollDivisionIds": [
          10140178,
          10140179
        ],
        "postalCode": "P1A3L2",
        "streetName": "MARSHALL PARK",
        "streetDirectionId": null,
        "streetTypeId": "DR",
        "placeName": "NORTH BAY",
        "streetNameDisplayText": "MARSHALL PARK DR, NORTH BAY"
      }
    ]
  },
  {
    "postal": "P1A3B7",
    "result": [
      {
        "electoralDistricts": [
          {
            "election": null,
            "id": 72,
            "name": "Nipissing"
          }
        ],
        "pollDivisionIds": [
          10140157
        ],
        "postalCode": "P1A3B7",
        "streetName": "REGINALD",
        "streetDirectionId": null,
        "streetTypeId": "RD",
        "placeName": "NORTH BAY",
        "streetNameDisplayText": "REGINALD RD, NORTH BAY"
      }
    ]
  },
  {
    "postal": "P1A8L1",
    "result": []
  },
  {
    "postal": "P1A5M4",
    "result": []
  },
  {
    "postal": "P1A4G9",
    "result": [
      {
        "electoralDistricts": [
          {
            "election": null,
            "id": 72,
            "name": "Nipissing"
          }
        ],
        "pollDivisionIds": [
          10140178
        ],
        "postalCode": "P1A4G9",
        "streetName": "MASSEY",
        "streetDirectionId": null,
        "streetTypeId": "DR",
        "placeName": "NORTH BAY",
        "streetNameDisplayText": "MASSEY DR, NORTH BAY"
      }
    ]
  },
  {
    "postal": "P1A0P0",
    "result": []
  },
  {
    "postal": "P1A8G2",
    "result": []
  },
  {
    "postal": "P1A1V9",
    "result": [
      {
        "electoralDistricts": [
          {
            "election": null,
            "id": 72,
            "name": "Nipissing"
          }
        ],
        "pollDivisionIds": [
          10140176
        ],
        "postalCode": "P1A1V9",
        "streetName": "CAMPBELL",
        "streetDirectionId": null,
        "streetTypeId": "AVE",
        "placeName": "NORTH BAY",
        "streetNameDisplayText": "CAMPBELL AVE, NORTH BAY"
      }
    ]
  },
  {
    "postal": "P1A8N8",
    "result": []
  },
  {
    "postal": "P1A6S8",
    "result": []
  },
  {
    "postal": "P1A8H2",
    "result": []
  },
  {
    "postal": "P1A5R8",
    "result": []
  },
  {
    "postal": "P1A5L4",
    "result": []
  },
  {
    "postal": "P1A9E1",
    "result": []
  },
  {
    "postal": "P1A1C4",
    "result": [
      {
        "electoralDistricts": [
          {
            "election": null,
            "id": 72,
            "name": "Nipissing"
          }
        ],
        "pollDivisionIds": [
          10140176
        ],
        "postalCode": "P1A1C4",
        "streetName": "FODOR",
        "streetDirectionId": null,
        "streetTypeId": "ST",
        "placeName": "NORTH BAY",
        "streetNameDisplayText": "FODOR ST, NORTH BAY"
      }
    ]
  },
  {
    "postal": "P1A8W5",
    "result": []
  },
  {
    "postal": "P1A1Y4",
    "result": [
      {
        "electoralDistricts": [
          {
            "election": null,
            "id": 72,
            "name": "Nipissing"
          }
        ],
        "pollDivisionIds": [
          10140176
        ],
        "postalCode": "P1A1Y4",
        "streetName": "WHITNEY",
        "streetDirectionId": null,
        "streetTypeId": "AVE",
        "placeName": "NORTH BAY",
        "streetNameDisplayText": "WHITNEY AVE, NORTH BAY"
      }
    ]
  },
  {
    "postal": "P1A1C0",
    "result": []
  },
  {
    "postal": "P1A2J2",
    "result": [
      {
        "electoralDistricts": [
          {
            "election": null,
            "id": 72,
            "name": "Nipissing"
          }
        ],
        "pollDivisionIds": [
          10140179
        ],
        "postalCode": "P1A2J2",
        "streetName": "PREMIER",
        "streetDirectionId": null,
        "streetTypeId": "RD",
        "placeName": "NORTH BAY",
        "streetNameDisplayText": "PREMIER RD, NORTH BAY"
      }
    ]
  },
  {
    "postal": "P1A2J0",
    "result": []
  },
  {
    "postal": "P1A7A3",
    "result": []
  },
  {
    "postal": "P1A8M1",
    "result": []
  },
  {
    "postal": "P1A7T9",
    "result": []
  },
  {
    "postal": "P1A6C0",
    "result": []
  },
  {
    "postal": "P1A7X1",
    "result": []
  },
  {
    "postal": "P1A0G1",
    "result": [
      {
        "electoralDistricts": [
          {
            "election": null,
            "id": 72,
            "name": "Nipissing"
          }
        ],
        "pollDivisionIds": [
          10140174
        ],
        "postalCode": "P1A0G1",
        "streetName": "LILLIAN",
        "streetDirectionId": null,
        "streetTypeId": "AVE",
        "placeName": "NORTH BAY",
        "streetNameDisplayText": "LILLIAN AVE, NORTH BAY"
      }
    ]
  },
  {
    "postal": "P1A4X2",
    "result": []
  },
  {
    "postal": "P1A0N6",
    "result": []
  },
  {
    "postal": "P1A8E3",
    "result": []
  },
  {
    "postal": "P1A5S8",
    "result": []
  },
  {
    "postal": "P1A0R0",
    "result": []
  },
  {
    "postal": "P1A6J6",
    "result": []
  },
  {
    "postal": "P1A4B4",
    "result": []
  },
  {
    "postal": "P1A7E3",
    "result": []
  },
  {
    "postal": "P1A3N6",
    "result": [
      {
        "electoralDistricts": [
          {
            "election": null,
            "id": 72,
            "name": "Nipissing"
          }
        ],
        "pollDivisionIds": [
          10140177
        ],
        "postalCode": "P1A3N6",
        "streetName": "LAKESHORE",
        "streetDirectionId": null,
        "streetTypeId": "DR",
        "placeName": "NORTH BAY",
        "streetNameDisplayText": "LAKESHORE DR, NORTH BAY"
      }
    ]
  },
  {
    "postal": "P1A3X6",
    "result": [
      {
        "electoralDistricts": [
          {
            "election": null,
            "id": 72,
            "name": "Nipissing"
          }
        ],
        "pollDivisionIds": [
          10140157
        ],
        "postalCode": "P1A3X6",
        "streetName": "SABLE",
        "streetDirectionId": null,
        "streetTypeId": "CRES",
        "placeName": "NORTH BAY",
        "streetNameDisplayText": "SABLE CRES, NORTH BAY"
      }
    ]
  },
  {
    "postal": "P1A8L0",
    "result": []
  },
  {
    "postal": "P1A8N1",
    "result": []
  },
  {
    "postal": "P1A4J0",
    "result": []
  },
  {
    "postal": "P1A0X7",
    "result": []
  },
  {
    "postal": "P1A6S4",
    "result": []
  },
  {
    "postal": "P1A0Z0",
    "result": []
  },
  {
    "postal": "P1A9X8",
    "result": []
  },
  {
    "postal": "P1A3H3",
    "result": [
      {
        "electoralDistricts": [
          {
            "election": null,
            "id": 72,
            "name": "Nipissing"
          }
        ],
        "pollDivisionIds": [
          10140157
        ],
        "postalCode": "P1A3H3",
        "streetName": "DONALD",
        "streetDirectionId": null,
        "streetTypeId": "DR",
        "placeName": "NORTH BAY",
        "streetNameDisplayText": "DONALD DR, NORTH BAY"
      }
    ]
  },
  {
    "postal": "P1A7S2",
    "result": []
  },
  {
    "postal": "P1A3T3",
    "result": [
      {
        "electoralDistricts": [
          {
            "election": null,
            "id": 72,
            "name": "Nipissing"
          }
        ],
        "pollDivisionIds": [
          10140174
        ],
        "postalCode": "P1A3T3",
        "streetName": "WALLACE",
        "streetDirectionId": null,
        "streetTypeId": "RD",
        "placeName": "NORTH BAY",
        "streetNameDisplayText": "WALLACE RD, NORTH BAY"
      }
    ]
  },
  {
    "postal": "P1A9P3",
    "result": []
  },
  {
    "postal": "P1A4H8",
    "result": [
      {
        "electoralDistricts": [
          {
            "election": null,
            "id": 72,
            "name": "Nipissing"
          }
        ],
        "pollDivisionIds": [
          10140157
        ],
        "postalCode": "P1A4H8",
        "streetName": "AVALON",
        "streetDirectionId": null,
        "streetTypeId": "ST",
        "placeName": "NORTH BAY",
        "streetNameDisplayText": "AVALON ST, NORTH BAY"
      },
      {
        "electoralDistricts": [
          {
            "election": null,
            "id": 72,
            "name": "Nipissing"
          }
        ],
        "pollDivisionIds": [
          10140157
        ],
        "postalCode": "P1A4H8",
        "streetName": "KILLARE",
        "streetDirectionId": null,
        "streetTypeId": "ST",
        "placeName": "NORTH BAY",
        "streetNameDisplayText": "KILLARE ST, NORTH BAY"
      }
    ]
  },
  {
    "postal": "P1A6R1",
    "result": []
  },
  {
    "postal": "P1A1S0",
    "result": []
  },
  {
    "postal": "P1A3W8",
    "result": [
      {
        "electoralDistricts": [
          {
            "election": null,
            "id": 72,
            "name": "Nipissing"
          }
        ],
        "pollDivisionIds": [
          10140179
        ],
        "postalCode": "P1A3W8",
        "streetName": "KARLA",
        "streetDirectionId": null,
        "streetTypeId": "DR",
        "placeName": "NORTH BAY",
        "streetNameDisplayText": "KARLA DR, NORTH BAY"
      }
    ]
  },
  {
    "postal": "P1A4S3",
    "result": []
  },
  {
    "postal": "P1A1B6",
    "result": [
      {
        "electoralDistricts": [
          {
            "election": null,
            "id": 72,
            "name": "Nipissing"
          }
        ],
        "pollDivisionIds": [
          10140163
        ],
        "postalCode": "P1A1B6",
        "streetName": "JUDGE",
        "streetDirectionId": null,
        "streetTypeId": "AVE",
        "placeName": "NORTH BAY",
        "streetNameDisplayText": "JUDGE AVE, NORTH BAY"
      }
    ]
  },
  {
    "postal": "P1A8R3",
    "result": []
  },
  {
    "postal": "P1A4V9",
    "result": []
  },
  {
    "postal": "P1A9W4",
    "result": []
  },
  {
    "postal": "P1A3T4",
    "result": [
      {
        "electoralDistricts": [
          {
            "election": null,
            "id": 72,
            "name": "Nipissing"
          }
        ],
        "pollDivisionIds": [
          10140176
        ],
        "postalCode": "P1A3T4",
        "streetName": "GERTRUDE",
        "streetDirectionId": "E",
        "streetTypeId": "ST",
        "placeName": "NORTH BAY",
        "streetNameDisplayText": "GERTRUDE ST E, NORTH BAY"
      }
    ]
  },
  {
    "postal": "P1A5C7",
    "result": []
  },
  {
    "postal": "P1A3Y1",
    "result": [
      {
        "electoralDistricts": [
          {
            "election": null,
            "id": 72,
            "name": "Nipissing"
          }
        ],
        "pollDivisionIds": [
          10140157
        ],
        "postalCode": "P1A3Y1",
        "streetName": "MERLIN",
        "streetDirectionId": null,
        "streetTypeId": "AVE",
        "placeName": "NORTH BAY",
        "streetNameDisplayText": "MERLIN AVE, NORTH BAY"
      }
    ]
  },
  {
    "postal": "P1A5V0",
    "result": []
  },
  {
    "postal": "P1A8G8",
    "result": []
  },
  {
    "postal": "P1A8B1",
    "result": []
  },
  {
    "postal": "P1A4P5",
    "result": []
  },
  {
    "postal": "P1A7B2",
    "result": []
  },
  {
    "postal": "P1A0R2",
    "result": []
  },
  {
    "postal": "P1A4M4",
    "result": [
      {
        "electoralDistricts": [
          {
            "election": null,
            "id": 72,
            "name": "Nipissing"
          }
        ],
        "pollDivisionIds": [
          10140178
        ],
        "postalCode": "P1A4M4",
        "streetName": "BOOTH",
        "streetDirectionId": null,
        "streetTypeId": "RD",
        "placeName": "NORTH BAY",
        "streetNameDisplayText": "BOOTH RD, NORTH BAY"
      }
    ]
  },
  {
    "postal": "P1A7M4",
    "result": []
  },
  {
    "postal": "P1A9S7",
    "result": []
  },
  {
    "postal": "P1A5Z7",
    "result": []
  },
  {
    "postal": "P1A7J7",
    "result": []
  },
  {
    "postal": "P1A8R8",
    "result": []
  },
  {
    "postal": "P1A9X1",
    "result": []
  },
  {
    "postal": "P1A5M9",
    "result": []
  },
  {
    "postal": "P1A9B4",
    "result": []
  },
  {
    "postal": "P1A0L9",
    "result": []
  },
  {
    "postal": "P1A9G4",
    "result": []
  },
  {
    "postal": "P1A1J4",
    "result": [
      {
        "electoralDistricts": [
          {
            "election": null,
            "id": 72,
            "name": "Nipissing"
          }
        ],
        "pollDivisionIds": [
          10140176
        ],
        "postalCode": "P1A1J4",
        "streetName": "GERTRUDE",
        "streetDirectionId": "W",
        "streetTypeId": "ST",
        "placeName": "NORTH BAY",
        "streetNameDisplayText": "GERTRUDE ST W, NORTH BAY"
      }
    ]
  },
  {
    "postal": "P1A0W6",
    "result": []
  }
]
