[
  {
    "postal": "K2M9J6",
    "result": []
  },
  {
    "postal": "K2M9Z5",
    "result": []
  },
  {
    "postal": "K2M7H8",
    "result": []
  },
  {
    "postal": "K2M0P6",
    "result": []
  },
  {
    "postal": "K2M0S7",
    "result": []
  },
  {
    "postal": "K2M8B9",
    "result": []
  },
  {
    "postal": "K2M2A6",
    "result": [
      {
        "electoralDistricts": [
          {
            "election": null,
            "id": 43,
            "name": "Kanata—Carleton"
          }
        ],
        "pollDivisionIds": [
          10138957
        ],
        "postalCode": "K2M2A6",
        "streetName": "KLUANE",
        "streetDirectionId": null,
        "streetTypeId": "RIDGE",
        "placeName": "KANATA",
        "streetNameDisplayText": "KLUANE RIDGE, KANATA"
      },
      {
        "electoralDistricts": [
          {
            "election": null,
            "id": 43,
            "name": "Kanata—Carleton"
          }
        ],
        "pollDivisionIds": [
          10138957
        ],
        "postalCode": "K2M2A6",
        "streetName": "SPRINGWATER",
        "streetDirectionId": null,
        "streetTypeId": "DR",
        "placeName": "KANATA",
        "streetNameDisplayText": "SPRINGWATER DR, KANATA"
      },
      {
        "electoralDistricts": [
          {
            "election": null,
            "id": 43,
            "name": "Kanata—Carleton"
          }
        ],
        "pollDivisionIds": [
          10138957
        ],
        "postalCode": "K2M2A6",
        "streetName": "STEEPLE CHASE",
        "streetDirectionId": null,
        "streetTypeId": "DR",
        "placeName": "KANATA",
        "streetNameDisplayText": "STEEPLE CHASE DR, KANATA"
      }
    ]
  },
  {
    "postal": "K2M7V2",
    "result": []
  },
  {
    "postal": "K2M9P4",
    "result": []
  },
  {
    "postal": "K2M6G0",
    "result": []
  },
  {
    "postal": "K2M2K0",
    "result": []
  },
  {
    "postal": "K2M7N6",
    "result": []
  },
  {
    "postal": "K2M5R3",
    "result": []
  },
  {
    "postal": "K2M7K0",
    "result": []
  },
  {
    "postal": "K2M3R2",
    "result": []
  },
  {
    "postal": "K2M0J1",
    "result": [
      {
        "electoralDistricts": [
          {
            "election": null,
            "id": 43,
            "name": "Kanata—Carleton"
          }
        ],
        "pollDivisionIds": [
          10138963
        ],
        "postalCode": "K2M0J1",
        "streetName": "TERENCE MATTHEWS",
        "streetDirectionId": null,
        "streetTypeId": "CRES",
        "placeName": "KANATA",
        "streetNameDisplayText": "TERENCE MATTHEWS CRES, KANATA"
      }
    ]
  },
  {
    "postal": "K2M0B0",
    "result": []
  },
  {
    "postal": "K2M5Z2",
    "result": []
  },
  {
    "postal": "K2M7P3",
    "result": []
  },
  {
    "postal": "K2M2K3",
    "result": [
      {
        "electoralDistricts": [
          {
            "election": null,
            "id": 43,
            "name": "Kanata—Carleton"
          }
        ],
        "pollDivisionIds": [
          10138956
        ],
        "postalCode": "K2M2K3",
        "streetName": "SPRUCE MEADOWS",
        "streetDirectionId": null,
        "streetTypeId": "DR",
        "placeName": "KANATA",
        "streetNameDisplayText": "SPRUCE MEADOWS DR, KANATA"
      }
    ]
  },
  {
    "postal": "K2M7Y6",
    "result": []
  },
  {
    "postal": "K2M1L9",
    "result": [
      {
        "electoralDistricts": [
          {
            "election": null,
            "id": 43,
            "name": "Kanata—Carleton"
          }
        ],
        "pollDivisionIds": [
          10138956
        ],
        "postalCode": "K2M1L9",
        "streetName": "PALOMINO",
        "streetDirectionId": null,
        "streetTypeId": "DR",
        "placeName": "KANATA",
        "streetNameDisplayText": "PALOMINO DR, KANATA"
      }
    ]
  },
  {
    "postal": "K2M8T0",
    "result": []
  },
  {
    "postal": "K2M3K8",
    "result": []
  },
  {
    "postal": "K2M5W9",
    "result": []
  },
  {
    "postal": "K2M6T9",
    "result": []
  },
  {
    "postal": "K2M4H1",
    "result": []
  },
  {
    "postal": "K2M7A2",
    "result": []
  },
  {
    "postal": "K2M5G0",
    "result": []
  },
  {
    "postal": "K2M8V5",
    "result": []
  },
  {
    "postal": "K2M2Y8",
    "result": [
      {
        "electoralDistricts": [
          {
            "election": null,
            "id": 43,
            "name": "Kanata—Carleton"
          }
        ],
        "pollDivisionIds": [
          10138964
        ],
        "postalCode": "K2M2Y8",
        "streetName": "BRIDGESTONE",
        "streetDirectionId": null,
        "streetTypeId": "DR",
        "placeName": "KANATA",
        "streetNameDisplayText": "BRIDGESTONE DR, KANATA"
      },
      {
        "electoralDistricts": [
          {
            "election": null,
            "id": 43,
            "name": "Kanata—Carleton"
          }
        ],
        "pollDivisionIds": [
          10138964
        ],
        "postalCode": "K2M2Y8",
        "streetName": "SADDLESMITH",
        "streetDirectionId": null,
        "streetTypeId": "CIR",
        "placeName": "KANATA",
        "streetNameDisplayText": "SADDLESMITH CIR, KANATA"
      }
    ]
  },
  {
    "postal": "K2M2B6",
    "result": [
      {
        "electoralDistricts": [
          {
            "election": null,
            "id": 43,
            "name": "Kanata—Carleton"
          }
        ],
        "pollDivisionIds": [
          10138956
        ],
        "postalCode": "K2M2B6",
        "streetName": "BRANDY CREEK",
        "streetDirectionId": null,
        "streetTypeId": "CRES",
        "placeName": "KANATA",
        "streetNameDisplayText": "BRANDY CREEK CRES, KANATA"
      },
      {
        "electoralDistricts": [
          {
            "election": null,
            "id": 43,
            "name": "Kanata—Carleton"
          }
        ],
        "pollDivisionIds": [
          10138956
        ],
        "postalCode": "K2M2B6",
        "streetName": "PINE HILL",
        "streetDirectionId": null,
        "streetTypeId": "DR",
        "placeName": "KANATA",
        "streetNameDisplayText": "PINE HILL DR, KANATA"
      },
      {
        "electoralDistricts": [
          {
            "election": null,
            "id": 43,
            "name": "Kanata—Carleton"
          }
        ],
        "pollDivisionIds": [
          10138956
        ],
        "postalCode": "K2M2B6",
        "streetName": "WINDFIELD",
        "streetDirectionId": null,
        "streetTypeId": "CRES",
        "placeName": "KANATA",
        "streetNameDisplayText": "WINDFIELD CRES, KANATA"
      }
    ]
  },
  {
    "postal": "K2M4W8",
    "result": []
  },
  {
    "postal": "K2M8H7",
    "result": []
  },
  {
    "postal": "K2M5P1",
    "result": []
  },
  {
    "postal": "K2M2B8",
    "result": [
      {
        "electoralDistricts": [
          {
            "election": null,
            "id": 43,
            "name": "Kanata—Carleton"
          }
        ],
        "pollDivisionIds": [
          10138956
        ],
        "postalCode": "K2M2B8",
        "streetName": "BRANDY CREEK",
        "streetDirectionId": null,
        "streetTypeId": "CRES",
        "placeName": "KANATA",
        "streetNameDisplayText": "BRANDY CREEK CRES, KANATA"
      }
    ]
  },
  {
    "postal": "K2M0P2",
    "result": []
  },
  {
    "postal": "K2M9M1",
    "result": []
  },
  {
    "postal": "K2M3G0",
    "result": []
  },
  {
    "postal": "K2M9Z2",
    "result": []
  },
  {
    "postal": "K2M2A0",
    "result": []
  },
  {
    "postal": "K2M6Y0",
    "result": []
  },
  {
    "postal": "K2M2Z8",
    "result": [
      {
        "electoralDistricts": [
          {
            "election": null,
            "id": 43,
            "name": "Kanata—Carleton"
          }
        ],
        "pollDivisionIds": [
          10138956
        ],
        "postalCode": "K2M2Z8",
        "streetName": "OSPREY",
        "streetDirectionId": null,
        "streetTypeId": "CRES",
        "placeName": "KANATA",
        "streetNameDisplayText": "OSPREY CRES, KANATA"
      }
    ]
  },
  {
    "postal": "K2M7Y3",
    "result": []
  },
  {
    "postal": "K2M6Z5",
    "result": []
  },
  {
    "postal": "K2M6E0",
    "result": []
  },
  {
    "postal": "K2M9B7",
    "result": []
  },
  {
    "postal": "K2M9S5",
    "result": []
  },
  {
    "postal": "K2M3X3",
    "result": []
  },
  {
    "postal": "K2M7R5",
    "result": []
  },
  {
    "postal": "K2M2X3",
    "result": [
      {
        "electoralDistricts": [
          {
            "election": null,
            "id": 43,
            "name": "Kanata—Carleton"
          }
        ],
        "pollDivisionIds": [
          10138965
        ],
        "postalCode": "K2M2X3",
        "streetName": "SAWYER",
        "streetDirectionId": null,
        "streetTypeId": "WAY",
        "placeName": "KANATA",
        "streetNameDisplayText": "SAWYER WAY, KANATA"
      },
      {
        "electoralDistricts": [
          {
            "election": null,
            "id": 43,
            "name": "Kanata—Carleton"
          }
        ],
        "pollDivisionIds": [
          10138965
        ],
        "postalCode": "K2M2X3",
        "streetName": "SCISSONS",
        "streetDirectionId": null,
        "streetTypeId": "RD",
        "placeName": "KANATA",
        "streetNameDisplayText": "SCISSONS RD, KANATA"
      }
    ]
  },
  {
    "postal": "K2M8Z9",
    "result": []
  },
  {
    "postal": "K2M0N4",
    "result": []
  },
  {
    "postal": "K2M1K1",
    "result": []
  },
  {
    "postal": "K2M1S3",
    "result": [
      {
        "electoralDistricts": [
          {
            "election": null,
            "id": 43,
            "name": "Kanata—Carleton"
          }
        ],
        "pollDivisionIds": [
          10138956
        ],
        "postalCode": "K2M1S3",
        "streetName": "SHETLAND",
        "streetDirectionId": null,
        "streetTypeId": "WAY",
        "placeName": "KANATA",
        "streetNameDisplayText": "SHETLAND WAY, KANATA"
      }
    ]
  },
  {
    "postal": "K2M6M4",
    "result": []
  },
  {
    "postal": "K2M9A9",
    "result": []
  },
  {
    "postal": "K2M9Z9",
    "result": []
  },
  {
    "postal": "K2M6T4",
    "result": []
  },
  {
    "postal": "K2M0B2",
    "result": [
      {
        "electoralDistricts": [
          {
            "election": null,
            "id": 43,
            "name": "Kanata—Carleton"
          }
        ],
        "pollDivisionIds": [
          10138963
        ],
        "postalCode": "K2M0B2",
        "streetName": "TERENCE MATTHEWS",
        "streetDirectionId": null,
        "streetTypeId": "CRES",
        "placeName": "KANATA",
        "streetNameDisplayText": "TERENCE MATTHEWS CRES, KANATA"
      }
    ]
  },
  {
    "postal": "K2M2L9",
    "result": [
      {
        "electoralDistricts": [
          {
            "election": null,
            "id": 43,
            "name": "Kanata—Carleton"
          }
        ],
        "pollDivisionIds": [
          10138965
        ],
        "postalCode": "K2M2L9",
        "streetName": "MEADOWBREEZE",
        "streetDirectionId": null,
        "streetTypeId": "DR",
        "placeName": "KANATA",
        "streetNameDisplayText": "MEADOWBREEZE DR, KANATA"
      }
    ]
  },
  {
    "postal": "K2M8K9",
    "result": []
  },
  {
    "postal": "K2M2H9",
    "result": [
      {
        "electoralDistricts": [
          {
            "election": null,
            "id": 43,
            "name": "Kanata—Carleton"
          }
        ],
        "pollDivisionIds": [
          10138956
        ],
        "postalCode": "K2M2H9",
        "streetName": "FURLONG",
        "streetDirectionId": null,
        "streetTypeId": "CRES",
        "placeName": "KANATA",
        "streetNameDisplayText": "FURLONG CRES, KANATA"
      }
    ]
  },
  {
    "postal": "K2M3Z6",
    "result": []
  },
  {
    "postal": "K2M3B0",
    "result": []
  },
  {
    "postal": "K2M2H8",
    "result": [
      {
        "electoralDistricts": [
          {
            "election": null,
            "id": 43,
            "name": "Kanata—Carleton"
          }
        ],
        "pollDivisionIds": [
          10138963
        ],
        "postalCode": "K2M2H8",
        "streetName": "CEDAROCK",
        "streetDirectionId": null,
        "streetTypeId": "DR",
        "placeName": "KANATA",
        "streetNameDisplayText": "CEDAROCK DR, KANATA"
      }
    ]
  },
  {
    "postal": "K2M3X2",
    "result": []
  },
  {
    "postal": "K2M2E9",
    "result": [
      {
        "electoralDistricts": [
          {
            "election": null,
            "id": 43,
            "name": "Kanata—Carleton"
          }
        ],
        "pollDivisionIds": [
          10138963
        ],
        "postalCode": "K2M2E9",
        "streetName": "MICHAEL COWPLAND",
        "streetDirectionId": null,
        "streetTypeId": "DR",
        "placeName": "KANATA",
        "streetNameDisplayText": "MICHAEL COWPLAND DR, KANATA"
      }
    ]
  },
  {
    "postal": "K2M9P6",
    "result": []
  },
  {
    "postal": "K2M9E2",
    "result": []
  },
  {
    "postal": "K2M9H2",
    "result": []
  },
  {
    "postal": "K2M1S8",
    "result": [
      {
        "electoralDistricts": [
          {
            "election": null,
            "id": 43,
            "name": "Kanata—Carleton"
          }
        ],
        "pollDivisionIds": [
          10138956
        ],
        "postalCode": "K2M1S8",
        "streetName": "SHETLAND",
        "streetDirectionId": null,
        "streetTypeId": "WAY",
        "placeName": "KANATA",
        "streetNameDisplayText": "SHETLAND WAY, KANATA"
      }
    ]
  },
  {
    "postal": "K2M3M6",
    "result": []
  },
  {
    "postal": "K2M6Z8",
    "result": []
  },
  {
    "postal": "K2M4J2",
    "result": []
  },
  {
    "postal": "K2M9Y1",
    "result": []
  },
  {
    "postal": "K2M8V6",
    "result": []
  },
  {
    "postal": "K2M6B2",
    "result": []
  },
  {
    "postal": "K2M1P8",
    "result": [
      {
        "electoralDistricts": [
          {
            "election": null,
            "id": 43,
            "name": "Kanata—Carleton"
          }
        ],
        "pollDivisionIds": [
          10138963
        ],
        "postalCode": "K2M1P8",
        "streetName": "BLUEMEADOW",
        "streetDirectionId": null,
        "streetTypeId": "WAY",
        "placeName": "KANATA",
        "streetNameDisplayText": "BLUEMEADOW WAY, KANATA"
      },
      {
        "electoralDistricts": [
          {
            "election": null,
            "id": 43,
            "name": "Kanata—Carleton"
          }
        ],
        "pollDivisionIds": [
          10138963
        ],
        "postalCode": "K2M1P8",
        "streetName": "ROSETHORN",
        "streetDirectionId": null,
        "streetTypeId": "WAY",
        "placeName": "KANATA",
        "streetNameDisplayText": "ROSETHORN WAY, KANATA"
      }
    ]
  },
  {
    "postal": "K2M0V8",
    "result": []
  },
  {
    "postal": "K2M4Y0",
    "result": []
  },
  {
    "postal": "K2M2T4",
    "result": [
      {
        "electoralDistricts": [
          {
            "election": null,
            "id": 43,
            "name": "Kanata—Carleton"
          }
        ],
        "pollDivisionIds": [
          10138965
        ],
        "postalCode": "K2M2T4",
        "streetName": "BURNSTEAD",
        "streetDirectionId": null,
        "streetTypeId": "CRES",
        "placeName": "KANATA",
        "streetNameDisplayText": "BURNSTEAD CRES, KANATA"
      },
      {
        "electoralDistricts": [
          {
            "election": null,
            "id": 43,
            "name": "Kanata—Carleton"
          }
        ],
        "pollDivisionIds": [
          10138965
        ],
        "postalCode": "K2M2T4",
        "streetName": "MEADOWBREEZE",
        "streetDirectionId": null,
        "streetTypeId": "DR",
        "placeName": "KANATA",
        "streetNameDisplayText": "MEADOWBREEZE DR, KANATA"
      }
    ]
  },
  {
    "postal": "K2M2S3",
    "result": [
      {
        "electoralDistricts": [
          {
            "election": null,
            "id": 43,
            "name": "Kanata—Carleton"
          }
        ],
        "pollDivisionIds": [
          10138965
        ],
        "postalCode": "K2M2S3",
        "streetName": "EAGLEVIEW",
        "streetDirectionId": null,
        "streetTypeId": "ST",
        "placeName": "KANATA",
        "streetNameDisplayText": "EAGLEVIEW ST, KANATA"
      },
      {
        "electoralDistricts": [
          {
            "election": null,
            "id": 43,
            "name": "Kanata—Carleton"
          }
        ],
        "pollDivisionIds": [
          10138964,
          10138965
        ],
        "postalCode": "K2M2S3",
        "streetName": "MILNER DOWNS",
        "streetDirectionId": null,
        "streetTypeId": "CRES",
        "placeName": "KANATA",
        "streetNameDisplayText": "MILNER DOWNS CRES, KANATA"
      }
    ]
  },
  {
    "postal": "K2M0K0",
    "result": []
  },
  {
    "postal": "K2M5N1",
    "result": []
  },
  {
    "postal": "K2M7T0",
    "result": []
  },
  {
    "postal": "K2M9N2",
    "result": []
  },
  {
    "postal": "K2M5L1",
    "result": []
  },
  {
    "postal": "K2M7G5",
    "result": []
  },
  {
    "postal": "K2M6K2",
    "result": []
  },
  {
    "postal": "K2M6P9",
    "result": []
  },
  {
    "postal": "K2M0E6",
    "result": [
      {
        "electoralDistricts": [
          {
            "election": null,
            "id": 43,
            "name": "Kanata—Carleton"
          }
        ],
        "pollDivisionIds": [
          10138964
        ],
        "postalCode": "K2M0E6",
        "streetName": "PEPPERVILLE",
        "streetDirectionId": null,
        "streetTypeId": "CRES",
        "placeName": "KANATA",
        "streetNameDisplayText": "PEPPERVILLE CRES, KANATA"
      },
      {
        "electoralDistricts": [
          {
            "election": null,
            "id": 43,
            "name": "Kanata—Carleton"
          }
        ],
        "pollDivisionIds": [
          10138964,
          10138965
        ],
        "postalCode": "K2M0E6",
        "streetName": "REGIMENT",
        "streetDirectionId": null,
        "streetTypeId": "AVE",
        "placeName": "KANATA",
        "streetNameDisplayText": "REGIMENT AVE, KANATA"
      }
    ]
  },
  {
    "postal": "K2M8R9",
    "result": []
  },
  {
    "postal": "K2M3G9",
    "result": []
  },
  {
    "postal": "K2M0V7",
    "result": []
  },
  {
    "postal": "K2M2Z1",
    "result": [
      {
        "electoralDistricts": [
          {
            "election": null,
            "id": 43,
            "name": "Kanata—Carleton"
          }
        ],
        "pollDivisionIds": [
          10138964
        ],
        "postalCode": "K2M2Z1",
        "streetName": "SADDLESMITH",
        "streetDirectionId": null,
        "streetTypeId": "CIR",
        "placeName": "KANATA",
        "streetNameDisplayText": "SADDLESMITH CIR, KANATA"
      }
    ]
  },
  {
    "postal": "K2M7N1",
    "result": []
  },
  {
    "postal": "K2M3C6",
    "result": []
  },
  {
    "postal": "K2M4M1",
    "result": []
  },
  {
    "postal": "K2M9K2",
    "result": []
  },
  {
    "postal": "K2M9S6",
    "result": []
  },
  {
    "postal": "K2M4X1",
    "result": []
  },
  {
    "postal": "K2M8W2",
    "result": []
  },
  {
    "postal": "K2M7N2",
    "result": []
  },
  {
    "postal": "K2M8S3",
    "result": []
  },
  {
    "postal": "K2M4V0",
    "result": []
  },
  {
    "postal": "K2M6W4",
    "result": []
  },
  {
    "postal": "K2M5M1",
    "result": []
  },
  {
    "postal": "K2M0S4",
    "result": []
  },
  {
    "postal": "K2M5X6",
    "result": []
  },
  {
    "postal": "K2M8L5",
    "result": []
  },
  {
    "postal": "K2M5M8",
    "result": []
  },
  {
    "postal": "K2M2G3",
    "result": [
      {
        "electoralDistricts": [
          {
            "election": null,
            "id": 43,
            "name": "Kanata—Carleton"
          }
        ],
        "pollDivisionIds": [
          10138963
        ],
        "postalCode": "K2M2G3",
        "streetName": "TERENCE MATTHEWS",
        "streetDirectionId": null,
        "streetTypeId": "CRES",
        "placeName": "KANATA",
        "streetNameDisplayText": "TERENCE MATTHEWS CRES, KANATA"
      }
    ]
  },
  {
    "postal": "K2M8E4",
    "result": []
  },
  {
    "postal": "K2M7S9",
    "result": []
  },
  {
    "postal": "K2M1K3",
    "result": []
  },
  {
    "postal": "K2M4E1",
    "result": []
  },
  {
    "postal": "K2M4R2",
    "result": []
  },
  {
    "postal": "K2M6T0",
    "result": []
  },
  {
    "postal": "K2M3K5",
    "result": []
  },
  {
    "postal": "K2M3S3",
    "result": []
  },
  {
    "postal": "K2M3L4",
    "result": []
  },
  {
    "postal": "K2M9Y2",
    "result": []
  },
  {
    "postal": "K2M1E0",
    "result": []
  },
  {
    "postal": "K2M9A4",
    "result": []
  },
  {
    "postal": "K2M1L3",
    "result": [
      {
        "electoralDistricts": [
          {
            "election": null,
            "id": 43,
            "name": "Kanata—Carleton"
          }
        ],
        "pollDivisionIds": [
          10138963
        ],
        "postalCode": "K2M1L3",
        "streetName": "WILLOW GLEN",
        "streetDirectionId": null,
        "streetTypeId": "DR",
        "placeName": "KANATA",
        "streetNameDisplayText": "WILLOW GLEN DR, KANATA"
      }
    ]
  },
  {
    "postal": "K2M6N1",
    "result": []
  },
  {
    "postal": "K2M6G7",
    "result": []
  },
  {
    "postal": "K2M7W1",
    "result": []
  },
  {
    "postal": "K2M4M6",
    "result": []
  },
  {
    "postal": "K2M1K0",
    "result": []
  },
  {
    "postal": "K2M3E2",
    "result": []
  },
  {
    "postal": "K2M5H4",
    "result": []
  },
  {
    "postal": "K2M1K7",
    "result": [
      {
        "electoralDistricts": [
          {
            "election": null,
            "id": 43,
            "name": "Kanata—Carleton"
          }
        ],
        "pollDivisionIds": [
          10138963
        ],
        "postalCode": "K2M1K7",
        "streetName": "EQUESTRIAN",
        "streetDirectionId": null,
        "streetTypeId": "DR",
        "placeName": "KANATA",
        "streetNameDisplayText": "EQUESTRIAN DR, KANATA"
      }
    ]
  },
  {
    "postal": "K2M0H0",
    "result": []
  },
  {
    "postal": "K2M0J3",
    "result": [
      {
        "electoralDistricts": [
          {
            "election": null,
            "id": 43,
            "name": "Kanata—Carleton"
          }
        ],
        "pollDivisionIds": [
          10138965
        ],
        "postalCode": "K2M0J3",
        "streetName": "COLDWATER",
        "streetDirectionId": null,
        "streetTypeId": "CRES",
        "placeName": "KANATA",
        "streetNameDisplayText": "COLDWATER CRES, KANATA"
      },
      {
        "electoralDistricts": [
          {
            "election": null,
            "id": 43,
            "name": "Kanata—Carleton"
          }
        ],
        "pollDivisionIds": [
          10138965
        ],
        "postalCode": "K2M0J3",
        "streetName": "LILY POND",
        "streetDirectionId": null,
        "streetTypeId": "ST",
        "placeName": "KANATA",
        "streetNameDisplayText": "LILY POND ST, KANATA"
      },
      {
        "electoralDistricts": [
          {
            "election": null,
            "id": 43,
            "name": "Kanata—Carleton"
          }
        ],
        "pollDivisionIds": [
          10138965
        ],
        "postalCode": "K2M0J3",
        "streetName": "RIVERTREE",
        "streetDirectionId": null,
        "streetTypeId": "ST",
        "placeName": "KANATA",
        "streetNameDisplayText": "RIVERTREE ST, KANATA"
      }
    ]
  },
  {
    "postal": "K2M1X6",
    "result": [
      {
        "electoralDistricts": [
          {
            "election": null,
            "id": 43,
            "name": "Kanata—Carleton"
          }
        ],
        "pollDivisionIds": [
          10138957
        ],
        "postalCode": "K2M1X6",
        "streetName": "SPRINGWATER",
        "streetDirectionId": null,
        "streetTypeId": "DR",
        "placeName": "KANATA",
        "streetNameDisplayText": "SPRINGWATER DR, KANATA"
      }
    ]
  },
  {
    "postal": "K2M2Z6",
    "result": [
      {
        "electoralDistricts": [
          {
            "election": null,
            "id": 43,
            "name": "Kanata—Carleton"
          }
        ],
        "pollDivisionIds": [
          10138956
        ],
        "postalCode": "K2M2Z6",
        "streetName": "GYRFALCON",
        "streetDirectionId": null,
        "streetTypeId": "CRES",
        "placeName": "KANATA",
        "streetNameDisplayText": "GYRFALCON CRES, KANATA"
      }
    ]
  },
  {
    "postal": "K2M4R9",
    "result": []
  },
  {
    "postal": "K2M0W8",
    "result": []
  },
  {
    "postal": "K2M1L4",
    "result": [
      {
        "electoralDistricts": [
          {
            "election": null,
            "id": 43,
            "name": "Kanata—Carleton"
          }
        ],
        "pollDivisionIds": [
          10138963
        ],
        "postalCode": "K2M1L4",
        "streetName": "WILLOW GLEN",
        "streetDirectionId": null,
        "streetTypeId": "DR",
        "placeName": "KANATA",
        "streetNameDisplayText": "WILLOW GLEN DR, KANATA"
      },
      {
        "electoralDistricts": [
          {
            "election": null,
            "id": 43,
            "name": "Kanata—Carleton"
          }
        ],
        "pollDivisionIds": [
          10138963
        ],
        "postalCode": "K2M1L4",
        "streetName": "WINDBROOK",
        "streetDirectionId": null,
        "streetTypeId": "CRES",
        "placeName": "KANATA",
        "streetNameDisplayText": "WINDBROOK CRES, KANATA"
      }
    ]
  },
  {
    "postal": "K2M0C8",
    "result": [
      {
        "electoralDistricts": [
          {
            "election": null,
            "id": 43,
            "name": "Kanata—Carleton"
          }
        ],
        "pollDivisionIds": [
          10138964
        ],
        "postalCode": "K2M0C8",
        "streetName": "ALSON MILLS",
        "streetDirectionId": null,
        "streetTypeId": "WAY",
        "placeName": "KANATA",
        "streetNameDisplayText": "ALSON MILLS WAY, KANATA"
      },
      {
        "electoralDistricts": [
          {
            "election": null,
            "id": 43,
            "name": "Kanata—Carleton"
          }
        ],
        "pollDivisionIds": [
          10138964
        ],
        "postalCode": "K2M0C8",
        "streetName": "NORTHGRAVES",
        "streetDirectionId": null,
        "streetTypeId": "CRES",
        "placeName": "KANATA",
        "streetNameDisplayText": "NORTHGRAVES CRES, KANATA"
      }
    ]
  },
  {
    "postal": "K2M9X7",
    "result": []
  },
  {
    "postal": "K2M4T1",
    "result": []
  },
  {
    "postal": "K2M0M0",
    "result": []
  },
  {
    "postal": "K2M6A2",
    "result": []
  },
  {
    "postal": "K2M9S8",
    "result": []
  },
  {
    "postal": "K2M9T4",
    "result": []
  },
  {
    "postal": "K2M9Y4",
    "result": []
  },
  {
    "postal": "K2M6G5",
    "result": []
  },
  {
    "postal": "K2M6H9",
    "result": []
  },
  {
    "postal": "K2M2P3",
    "result": [
      {
        "electoralDistricts": [
          {
            "election": null,
            "id": 43,
            "name": "Kanata—Carleton"
          }
        ],
        "pollDivisionIds": [
          10138964
        ],
        "postalCode": "K2M2P3",
        "streetName": "SUNNYBROOKE",
        "streetDirectionId": null,
        "streetTypeId": "DR",
        "placeName": "KANATA",
        "streetNameDisplayText": "SUNNYBROOKE DR, KANATA"
      }
    ]
  },
  {
    "postal": "K2M1T6",
    "result": [
      {
        "electoralDistricts": [
          {
            "election": null,
            "id": 43,
            "name": "Kanata—Carleton"
          }
        ],
        "pollDivisionIds": [
          10138963
        ],
        "postalCode": "K2M1T6",
        "streetName": "HAWLEY",
        "streetDirectionId": null,
        "streetTypeId": "CRES",
        "placeName": "KANATA",
        "streetNameDisplayText": "HAWLEY CRES, KANATA"
      },
      {
        "electoralDistricts": [
          {
            "election": null,
            "id": 43,
            "name": "Kanata—Carleton"
          }
        ],
        "pollDivisionIds": [
          10138963
        ],
        "postalCode": "K2M1T6",
        "streetName": "WILLOW GLEN",
        "streetDirectionId": null,
        "streetTypeId": "DR",
        "placeName": "KANATA",
        "streetNameDisplayText": "WILLOW GLEN DR, KANATA"
      }
    ]
  },
  {
    "postal": "K2M4P6",
    "result": []
  },
  {
    "postal": "K2M3K1",
    "result": []
  },
  {
    "postal": "K2M6X4",
    "result": []
  },
  {
    "postal": "K2M4M8",
    "result": []
  },
  {
    "postal": "K2M2Y1",
    "result": []
  },
  {
    "postal": "K2M6M1",
    "result": []
  },
  {
    "postal": "K2M5L8",
    "result": []
  },
  {
    "postal": "K2M3P6",
    "result": []
  },
  {
    "postal": "K2M9A5",
    "result": []
  },
  {
    "postal": "K2M7K1",
    "result": []
  },
  {
    "postal": "K2M3J4",
    "result": []
  },
  {
    "postal": "K2M5E7",
    "result": []
  },
  {
    "postal": "K2M3A7",
    "result": [
      {
        "electoralDistricts": [
          {
            "election": null,
            "id": 43,
            "name": "Kanata—Carleton"
          }
        ],
        "pollDivisionIds": [
          10138965
        ],
        "postalCode": "K2M3A7",
        "streetName": "HILLSBORO",
        "streetDirectionId": null,
        "streetTypeId": "PVT",
        "placeName": "KANATA",
        "streetNameDisplayText": "HILLSBORO PVT, KANATA"
      },
      {
        "electoralDistricts": [
          {
            "election": null,
            "id": 43,
            "name": "Kanata—Carleton"
          }
        ],
        "pollDivisionIds": [
          10138965
        ],
        "postalCode": "K2M3A7",
        "streetName": "MEADOWBREEZE",
        "streetDirectionId": null,
        "streetTypeId": "DR",
        "placeName": "KANATA",
        "streetNameDisplayText": "MEADOWBREEZE DR, KANATA"
      }
    ]
  },
  {
    "postal": "K2M1B9",
    "result": [
      {
        "electoralDistricts": [
          {
            "election": null,
            "id": 43,
            "name": "Kanata—Carleton"
          }
        ],
        "pollDivisionIds": [
          10138963
        ],
        "postalCode": "K2M1B9",
        "streetName": "HUNTSMAN",
        "streetDirectionId": null,
        "streetTypeId": "CRES",
        "placeName": "KANATA",
        "streetNameDisplayText": "HUNTSMAN CRES, KANATA"
      }
    ]
  },
  {
    "postal": "K2M9E8",
    "result": []
  },
  {
    "postal": "K2M1C9",
    "result": [
      {
        "electoralDistricts": [
          {
            "election": null,
            "id": 43,
            "name": "Kanata—Carleton"
          }
        ],
        "pollDivisionIds": [
          10138955
        ],
        "postalCode": "K2M1C9",
        "streetName": "EAGLESON",
        "streetDirectionId": null,
        "streetTypeId": "RD",
        "placeName": "KANATA",
        "streetNameDisplayText": "EAGLESON RD, KANATA"
      }
    ]
  },
  {
    "postal": "K2M3B5",
    "result": [
      {
        "electoralDistricts": [
          {
            "election": null,
            "id": 43,
            "name": "Kanata—Carleton"
          }
        ],
        "pollDivisionIds": [
          10138966
        ],
        "postalCode": "K2M3B5",
        "streetName": "STONEHAVEN",
        "streetDirectionId": null,
        "streetTypeId": "DR",
        "placeName": "KANATA",
        "streetNameDisplayText": "STONEHAVEN DR, KANATA"
      }
    ]
  },
  {
    "postal": "K2M8R0",
    "result": []
  },
  {
    "postal": "K2M3P2",
    "result": []
  },
  {
    "postal": "K2M5V4",
    "result": []
  },
  {
    "postal": "K2M4H0",
    "result": []
  },
  {
    "postal": "K2M4S7",
    "result": []
  },
  {
    "postal": "K2M6C2",
    "result": []
  },
  {
    "postal": "K2M8W3",
    "result": []
  },
  {
    "postal": "K2M4M5",
    "result": []
  },
  {
    "postal": "K2M5T1",
    "result": []
  },
  {
    "postal": "K2M3B3",
    "result": [
      {
        "electoralDistricts": [
          {
            "election": null,
            "id": 43,
            "name": "Kanata—Carleton"
          }
        ],
        "pollDivisionIds": [
          10138965
        ],
        "postalCode": "K2M3B3",
        "streetName": "MEADOWBREEZE",
        "streetDirectionId": null,
        "streetTypeId": "DR",
        "placeName": "KANATA",
        "streetNameDisplayText": "MEADOWBREEZE DR, KANATA"
      },
      {
        "electoralDistricts": [
          {
            "election": null,
            "id": 43,
            "name": "Kanata—Carleton"
          }
        ],
        "pollDivisionIds": [
          10138965
        ],
        "postalCode": "K2M3B3",
        "streetName": "TISBURY",
        "streetDirectionId": null,
        "streetTypeId": "PVT",
        "placeName": "KANATA",
        "streetNameDisplayText": "TISBURY PVT, KANATA"
      }
    ]
  },
  {
    "postal": "K2M6C6",
    "result": []
  },
  {
    "postal": "K2M7N8",
    "result": []
  },
  {
    "postal": "K2M2Y3",
    "result": [
      {
        "electoralDistricts": [
          {
            "election": null,
            "id": 43,
            "name": "Kanata—Carleton"
          }
        ],
        "pollDivisionIds": [
          10138957
        ],
        "postalCode": "K2M2Y3",
        "streetName": "RONDEAU",
        "streetDirectionId": null,
        "streetTypeId": "PL",
        "placeName": "KANATA",
        "streetNameDisplayText": "RONDEAU PL, KANATA"
      },
      {
        "electoralDistricts": [
          {
            "election": null,
            "id": 43,
            "name": "Kanata—Carleton"
          }
        ],
        "pollDivisionIds": [
          10138957
        ],
        "postalCode": "K2M2Y3",
        "streetName": "SAUBLE",
        "streetDirectionId": null,
        "streetTypeId": "DR",
        "placeName": "KANATA",
        "streetNameDisplayText": "SAUBLE DR, KANATA"
      }
    ]
  },
  {
    "postal": "K2M2R6",
    "result": [
      {
        "electoralDistricts": [
          {
            "election": null,
            "id": 43,
            "name": "Kanata—Carleton"
          }
        ],
        "pollDivisionIds": [
          10138965
        ],
        "postalCode": "K2M2R6",
        "streetName": "FLOWERTREE",
        "streetDirectionId": null,
        "streetTypeId": "CRES",
        "placeName": "KANATA",
        "streetNameDisplayText": "FLOWERTREE CRES, KANATA"
      },
      {
        "electoralDistricts": [
          {
            "election": null,
            "id": 43,
            "name": "Kanata—Carleton"
          }
        ],
        "pollDivisionIds": [
          10138965
        ],
        "postalCode": "K2M2R6",
        "streetName": "GRASSY PLAINS",
        "streetDirectionId": null,
        "streetTypeId": "DR",
        "placeName": "KANATA",
        "streetNameDisplayText": "GRASSY PLAINS DR, KANATA"
      }
    ]
  },
  {
    "postal": "K2M7N3",
    "result": []
  },
  {
    "postal": "K2M8J2",
    "result": []
  },
  {
    "postal": "K2M6A9",
    "result": []
  },
  {
    "postal": "K2M3V2",
    "result": []
  },
  {
    "postal": "K2M2N3",
    "result": [
      {
        "electoralDistricts": [
          {
            "election": null,
            "id": 43,
            "name": "Kanata—Carleton"
          }
        ],
        "pollDivisionIds": [
          10138965
        ],
        "postalCode": "K2M2N3",
        "streetName": "APPLE CREEK",
        "streetDirectionId": null,
        "streetTypeId": "CRES",
        "placeName": "KANATA",
        "streetNameDisplayText": "APPLE CREEK CRES, KANATA"
      },
      {
        "electoralDistricts": [
          {
            "election": null,
            "id": 43,
            "name": "Kanata—Carleton"
          }
        ],
        "pollDivisionIds": [
          10138965
        ],
        "postalCode": "K2M2N3",
        "streetName": "GRASSY PLAINS",
        "streetDirectionId": null,
        "streetTypeId": "DR",
        "placeName": "KANATA",
        "streetNameDisplayText": "GRASSY PLAINS DR, KANATA"
      }
    ]
  },
  {
    "postal": "K2M1S5",
    "result": [
      {
        "electoralDistricts": [
          {
            "election": null,
            "id": 43,
            "name": "Kanata—Carleton"
          }
        ],
        "pollDivisionIds": [
          10138956
        ],
        "postalCode": "K2M1S5",
        "streetName": "DARTMOOR",
        "streetDirectionId": null,
        "streetTypeId": "DR",
        "placeName": "KANATA",
        "streetNameDisplayText": "DARTMOOR DR, KANATA"
      }
    ]
  },
  {
    "postal": "K2M4T7",
    "result": []
  },
  {
    "postal": "K2M6Y7",
    "result": []
  },
  {
    "postal": "K2M0W7",
    "result": []
  },
  {
    "postal": "K2M2W9",
    "result": [
      {
        "electoralDistricts": [
          {
            "election": null,
            "id": 43,
            "name": "Kanata—Carleton"
          }
        ],
        "pollDivisionIds": [
          10138964
        ],
        "postalCode": "K2M2W9",
        "streetName": "BRIDLE PARK",
        "streetDirectionId": null,
        "streetTypeId": "DR",
        "placeName": "KANATA",
        "streetNameDisplayText": "BRIDLE PARK DR, KANATA"
      },
      {
        "electoralDistricts": [
          {
            "election": null,
            "id": 43,
            "name": "Kanata—Carleton"
          }
        ],
        "pollDivisionIds": [
          10138964
        ],
        "postalCode": "K2M2W9",
        "streetName": "RIVERGREEN",
        "streetDirectionId": null,
        "streetTypeId": "CRES",
        "placeName": "KANATA",
        "streetNameDisplayText": "RIVERGREEN CRES, KANATA"
      }
    ]
  },
  {
    "postal": "K2M8V0",
    "result": []
  },
  {
    "postal": "K2M0H4",
    "result": [
      {
        "electoralDistricts": [
          {
            "election": null,
            "id": 43,
            "name": "Kanata—Carleton"
          }
        ],
        "pollDivisionIds": [
          10138966
        ],
        "postalCode": "K2M0H4",
        "streetName": "BRIDLEGLEN",
        "streetDirectionId": null,
        "streetTypeId": "CRES",
        "placeName": "KANATA",
        "streetNameDisplayText": "BRIDLEGLEN CRES, KANATA"
      },
      {
        "electoralDistricts": [
          {
            "election": null,
            "id": 43,
            "name": "Kanata—Carleton"
          }
        ],
        "pollDivisionIds": [
          10138966
        ],
        "postalCode": "K2M0H4",
        "streetName": "LONG ACRES",
        "streetDirectionId": null,
        "streetTypeId": "ST",
        "placeName": "KANATA",
        "streetNameDisplayText": "LONG ACRES ST, KANATA"
      },
      {
        "electoralDistricts": [
          {
            "election": null,
            "id": 43,
            "name": "Kanata—Carleton"
          }
        ],
        "pollDivisionIds": [
          10138966
        ],
        "postalCode": "K2M0H4",
        "streetName": "PINTO",
        "streetDirectionId": null,
        "streetTypeId": "CRT",
        "placeName": "KANATA",
        "streetNameDisplayText": "PINTO CRT, KANATA"
      }
    ]
  },
  {
    "postal": "K2M2T1",
    "result": [
      {
        "electoralDistricts": [
          {
            "election": null,
            "id": 43,
            "name": "Kanata—Carleton"
          }
        ],
        "pollDivisionIds": [
          10138966
        ],
        "postalCode": "K2M2T1",
        "streetName": "SCISSONS",
        "streetDirectionId": null,
        "streetTypeId": "RD",
        "placeName": "KANATA",
        "streetNameDisplayText": "SCISSONS RD, KANATA"
      }
    ]
  },
  {
    "postal": "K2M1B1",
    "result": [
      {
        "electoralDistricts": [
          {
            "election": null,
            "id": 43,
            "name": "Kanata—Carleton"
          }
        ],
        "pollDivisionIds": [
          10138963
        ],
        "postalCode": "K2M1B1",
        "streetName": "PACER",
        "streetDirectionId": null,
        "streetTypeId": "PL",
        "placeName": "KANATA",
        "streetNameDisplayText": "PACER PL, KANATA"
      }
    ]
  },
  {
    "postal": "K2M8B6",
    "result": []
  },
  {
    "postal": "K2M6H1",
    "result": []
  },
  {
    "postal": "K2M8T8",
    "result": []
  },
  {
    "postal": "K2M0T4",
    "result": []
  },
  {
    "postal": "K2M2C4",
    "result": [
      {
        "electoralDistricts": [
          {
            "election": null,
            "id": 43,
            "name": "Kanata—Carleton"
          }
        ],
        "pollDivisionIds": [
          10138963
        ],
        "postalCode": "K2M2C4",
        "streetName": "TERENCE MATTHEWS",
        "streetDirectionId": null,
        "streetTypeId": "CRES",
        "placeName": "KANATA",
        "streetNameDisplayText": "TERENCE MATTHEWS CRES, KANATA"
      }
    ]
  },
  {
    "postal": "K2M8N3",
    "result": []
  },
  {
    "postal": "K2M4L8",
    "result": []
  },
  {
    "postal": "K2M2B5",
    "result": [
      {
        "electoralDistricts": [
          {
            "election": null,
            "id": 43,
            "name": "Kanata—Carleton"
          }
        ],
        "pollDivisionIds": [
          10138964,
          10138933
        ],
        "postalCode": "K2M2B5",
        "streetName": "PASSAGEWAY",
        "streetDirectionId": null,
        "streetTypeId": "PVT",
        "placeName": "KANATA",
        "streetNameDisplayText": "PASSAGEWAY PVT, KANATA"
      },
      {
        "electoralDistricts": [
          {
            "election": null,
            "id": 43,
            "name": "Kanata—Carleton"
          }
        ],
        "pollDivisionIds": [
          10138963
        ],
        "postalCode": "K2M2B5",
        "streetName": "SPUR",
        "streetDirectionId": null,
        "streetTypeId": "AVE",
        "placeName": "KANATA",
        "streetNameDisplayText": "SPUR AVE, KANATA"
      }
    ]
  },
  {
    "postal": "K2M3H1",
    "result": []
  },
  {
    "postal": "K2M4Y1",
    "result": []
  },
  {
    "postal": "K2M7E2",
    "result": []
  },
  {
    "postal": "K2M2P5",
    "result": [
      {
        "electoralDistricts": [
          {
            "election": null,
            "id": 43,
            "name": "Kanata—Carleton"
          }
        ],
        "pollDivisionIds": [
          10138956
        ],
        "postalCode": "K2M2P5",
        "streetName": "BUNTING",
        "streetDirectionId": null,
        "streetTypeId": "LANE",
        "placeName": "KANATA",
        "streetNameDisplayText": "BUNTING LANE, KANATA"
      },
      {
        "electoralDistricts": [
          {
            "election": null,
            "id": 43,
            "name": "Kanata—Carleton"
          }
        ],
        "pollDivisionIds": [
          10138956
        ],
        "postalCode": "K2M2P5",
        "streetName": "GOLDFINCH",
        "streetDirectionId": null,
        "streetTypeId": "DR",
        "placeName": "KANATA",
        "streetNameDisplayText": "GOLDFINCH DR, KANATA"
      },
      {
        "electoralDistricts": [
          {
            "election": null,
            "id": 43,
            "name": "Kanata—Carleton"
          }
        ],
        "pollDivisionIds": [
          10138956
        ],
        "postalCode": "K2M2P5",
        "streetName": "PARTRIDGE",
        "streetDirectionId": null,
        "streetTypeId": "DR",
        "placeName": "KANATA",
        "streetNameDisplayText": "PARTRIDGE DR, KANATA"
      }
    ]
  },
  {
    "postal": "K2M8R7",
    "result": []
  },
  {
    "postal": "K2M9P1",
    "result": []
  },
  {
    "postal": "K2M3B8",
    "result": []
  },
  {
    "postal": "K2M3P7",
    "result": []
  },
  {
    "postal": "K2M9B2",
    "result": []
  },
  {
    "postal": "K2M6Z3",
    "result": []
  },
  {
    "postal": "K2M4N5",
    "result": []
  },
  {
    "postal": "K2M8T3",
    "result": []
  },
  {
    "postal": "K2M1V2",
    "result": [
      {
        "electoralDistricts": [
          {
            "election": null,
            "id": 43,
            "name": "Kanata—Carleton"
          }
        ],
        "pollDivisionIds": [
          10138963
        ],
        "postalCode": "K2M1V2",
        "streetName": "LONGDEN",
        "streetDirectionId": null,
        "streetTypeId": "PL",
        "placeName": "KANATA",
        "streetNameDisplayText": "LONGDEN PL, KANATA"
      }
    ]
  },
  {
    "postal": "K2M1Y0",
    "result": []
  },
  {
    "postal": "K2M3G6",
    "result": []
  },
  {
    "postal": "K2M3H7",
    "result": []
  },
  {
    "postal": "K2M7X8",
    "result": []
  },
  {
    "postal": "K2M0C7",
    "result": [
      {
        "electoralDistricts": [
          {
            "election": null,
            "id": 43,
            "name": "Kanata—Carleton"
          }
        ],
        "pollDivisionIds": [
          10138964
        ],
        "postalCode": "K2M0C7",
        "streetName": "HENBURY WA Y",
        "streetDirectionId": null,
        "streetTypeId": "WAY",
        "placeName": "KANATA",
        "streetNameDisplayText": "HENBURY WA Y WAY, KANATA"
      },
      {
        "electoralDistricts": [
          {
            "election": null,
            "id": 43,
            "name": "Kanata—Carleton"
          }
        ],
        "pollDivisionIds": [
          10138964
        ],
        "postalCode": "K2M0C7",
        "streetName": "HENBURY",
        "streetDirectionId": null,
        "streetTypeId": "WAY",
        "placeName": "KANATA",
        "streetNameDisplayText": "HENBURY WAY, KANATA"
      },
      {
        "electoralDistricts": [
          {
            "election": null,
            "id": 43,
            "name": "Kanata—Carleton"
          }
        ],
        "pollDivisionIds": [
          10138964
        ],
        "postalCode": "K2M0C7",
        "streetName": "NORTHGRAVES",
        "streetDirectionId": null,
        "streetTypeId": "CRES",
        "placeName": "KANATA",
        "streetNameDisplayText": "NORTHGRAVES CRES, KANATA"
      }
    ]
  },
  {
    "postal": "K2M0W9",
    "result": []
  },
  {
    "postal": "K2M8E6",
    "result": []
  },
  {
    "postal": "K2M9Z8",
    "result": []
  },
  {
    "postal": "K2M3P4",
    "result": []
  },
  {
    "postal": "K2M6L8",
    "result": []
  },
  {
    "postal": "K2M2R4",
    "result": [
      {
        "electoralDistricts": [
          {
            "election": null,
            "id": 43,
            "name": "Kanata—Carleton"
          }
        ],
        "pollDivisionIds": [
          10138957
        ],
        "postalCode": "K2M2R4",
        "streetName": "PELEE",
        "streetDirectionId": null,
        "streetTypeId": "ST",
        "placeName": "KANATA",
        "streetNameDisplayText": "PELEE ST, KANATA"
      },
      {
        "electoralDistricts": [
          {
            "election": null,
            "id": 43,
            "name": "Kanata—Carleton"
          }
        ],
        "pollDivisionIds": [
          10138957
        ],
        "postalCode": "K2M2R4",
        "streetName": "YOHO",
        "streetDirectionId": null,
        "streetTypeId": "DR",
        "placeName": "KANATA",
        "streetNameDisplayText": "YOHO DR, KANATA"
      }
    ]
  },
  {
    "postal": "K2M2W1",
    "result": [
      {
        "electoralDistricts": [
          {
            "election": null,
            "id": 43,
            "name": "Kanata—Carleton"
          }
        ],
        "pollDivisionIds": [
          10138963
        ],
        "postalCode": "K2M2W1",
        "streetName": "MICHAEL COWPLAND",
        "streetDirectionId": null,
        "streetTypeId": "DR",
        "placeName": "KANATA",
        "streetNameDisplayText": "MICHAEL COWPLAND DR, KANATA"
      }
    ]
  },
  {
    "postal": "K2M9H8",
    "result": []
  },
  {
    "postal": "K2M8X9",
    "result": []
  },
  {
    "postal": "K2M7H4",
    "result": []
  },
  {
    "postal": "K2M3J1",
    "result": []
  },
  {
    "postal": "K2M1P4",
    "result": [
      {
        "electoralDistricts": [
          {
            "election": null,
            "id": 43,
            "name": "Kanata—Carleton"
          }
        ],
        "pollDivisionIds": [
          10138956
        ],
        "postalCode": "K2M1P4",
        "streetName": "PALOMINO",
        "streetDirectionId": null,
        "streetTypeId": "DR",
        "placeName": "KANATA",
        "streetNameDisplayText": "PALOMINO DR, KANATA"
      }
    ]
  },
  {
    "postal": "K2M2A3",
    "result": [
      {
        "electoralDistricts": [
          {
            "election": null,
            "id": 43,
            "name": "Kanata—Carleton"
          }
        ],
        "pollDivisionIds": [
          10138957
        ],
        "postalCode": "K2M2A3",
        "streetName": "INWOOD",
        "streetDirectionId": null,
        "streetTypeId": "DR",
        "placeName": "KANATA",
        "streetNameDisplayText": "INWOOD DR, KANATA"
      }
    ]
  },
  {
    "postal": "K2M0Z1",
    "result": []
  },
  {
    "postal": "K2M1C1",
    "result": [
      {
        "electoralDistricts": [
          {
            "election": null,
            "id": 43,
            "name": "Kanata—Carleton"
          }
        ],
        "pollDivisionIds": [
          10138963
        ],
        "postalCode": "K2M1C1",
        "streetName": "EQUESTRIAN",
        "streetDirectionId": null,
        "streetTypeId": "DR",
        "placeName": "KANATA",
        "streetNameDisplayText": "EQUESTRIAN DR, KANATA"
      }
    ]
  },
  {
    "postal": "K2M0H3",
    "result": [
      {
        "electoralDistricts": [
          {
            "election": null,
            "id": 43,
            "name": "Kanata—Carleton"
          }
        ],
        "pollDivisionIds": [
          10138966
        ],
        "postalCode": "K2M0H3",
        "streetName": "BRIDLEGLEN",
        "streetDirectionId": null,
        "streetTypeId": "CRES",
        "placeName": "KANATA",
        "streetNameDisplayText": "BRIDLEGLEN CRES, KANATA"
      },
      {
        "electoralDistricts": [
          {
            "election": null,
            "id": 43,
            "name": "Kanata—Carleton"
          }
        ],
        "pollDivisionIds": [
          10138966,
          10138965
        ],
        "postalCode": "K2M0H3",
        "streetName": "SUNNYRIDGE",
        "streetDirectionId": null,
        "streetTypeId": "CRES",
        "placeName": "KANATA",
        "streetNameDisplayText": "SUNNYRIDGE CRES, KANATA"
      }
    ]
  },
  {
    "postal": "K2M7B0",
    "result": []
  },
  {
    "postal": "K2M5K2",
    "result": []
  },
  {
    "postal": "K2M1E9",
    "result": [
      {
        "electoralDistricts": [
          {
            "election": null,
            "id": 43,
            "name": "Kanata—Carleton"
          }
        ],
        "pollDivisionIds": [
          10138963
        ],
        "postalCode": "K2M1E9",
        "streetName": "EQUESTRIAN",
        "streetDirectionId": null,
        "streetTypeId": "DR",
        "placeName": "KANATA",
        "streetNameDisplayText": "EQUESTRIAN DR, KANATA"
      }
    ]
  },
  {
    "postal": "K2M9W7",
    "result": []
  },
  {
    "postal": "K2M5W6",
    "result": []
  },
  {
    "postal": "K2M6S6",
    "result": []
  },
  {
    "postal": "K2M2P8",
    "result": []
  },
  {
    "postal": "K2M4P8",
    "result": []
  },
  {
    "postal": "K2M0V9",
    "result": []
  },
  {
    "postal": "K2M5Y2",
    "result": []
  },
  {
    "postal": "K2M7Z7",
    "result": []
  },
  {
    "postal": "K2M6Y8",
    "result": []
  },
  {
    "postal": "K2M2G7",
    "result": [
      {
        "electoralDistricts": [
          {
            "election": null,
            "id": 43,
            "name": "Kanata—Carleton"
          }
        ],
        "pollDivisionIds": [
          10138957
        ],
        "postalCode": "K2M2G7",
        "streetName": "CLYDESDALE",
        "streetDirectionId": null,
        "streetTypeId": "AVE",
        "placeName": "KANATA",
        "streetNameDisplayText": "CLYDESDALE AVE, KANATA"
      }
    ]
  },
  {
    "postal": "K2M8C1",
    "result": []
  },
  {
    "postal": "K2M5C5",
    "result": []
  },
  {
    "postal": "K2M2X8",
    "result": [
      {
        "electoralDistricts": [
          {
            "election": null,
            "id": 43,
            "name": "Kanata—Carleton"
          }
        ],
        "pollDivisionIds": [
          10138966
        ],
        "postalCode": "K2M2X8",
        "streetName": "BRIDLE PARK",
        "streetDirectionId": null,
        "streetTypeId": "DR",
        "placeName": "KANATA",
        "streetNameDisplayText": "BRIDLE PARK DR, KANATA"
      },
      {
        "electoralDistricts": [
          {
            "election": null,
            "id": 43,
            "name": "Kanata—Carleton"
          }
        ],
        "pollDivisionIds": [
          10138966
        ],
        "postalCode": "K2M2X8",
        "streetName": "FLINTRIDGE",
        "streetDirectionId": null,
        "streetTypeId": "CRES",
        "placeName": "KANATA",
        "streetNameDisplayText": "FLINTRIDGE CRES, KANATA"
      },
      {
        "electoralDistricts": [
          {
            "election": null,
            "id": 43,
            "name": "Kanata—Carleton"
          }
        ],
        "pollDivisionIds": [
          10138966
        ],
        "postalCode": "K2M2X8",
        "streetName": "WINDGATE",
        "streetDirectionId": null,
        "streetTypeId": "CRES",
        "placeName": "KANATA",
        "streetNameDisplayText": "WINDGATE CRES, KANATA"
      }
    ]
  },
  {
    "postal": "K2M1W5",
    "result": [
      {
        "electoralDistricts": [
          {
            "election": null,
            "id": 43,
            "name": "Kanata—Carleton"
          }
        ],
        "pollDivisionIds": [
          10138957
        ],
        "postalCode": "K2M1W5",
        "streetName": "CLYDESDALE",
        "streetDirectionId": null,
        "streetTypeId": "AVE",
        "placeName": "KANATA",
        "streetNameDisplayText": "CLYDESDALE AVE, KANATA"
      }
    ]
  },
  {
    "postal": "K2M7G0",
    "result": []
  },
  {
    "postal": "K2M8J8",
    "result": []
  },
  {
    "postal": "K2M3Y0",
    "result": []
  },
  {
    "postal": "K2M9T7",
    "result": []
  },
  {
    "postal": "K2M5P4",
    "result": []
  },
  {
    "postal": "K2M4B0",
    "result": []
  },
  {
    "postal": "K2M9N8",
    "result": []
  },
  {
    "postal": "K2M4A7",
    "result": []
  },
  {
    "postal": "K2M4H9",
    "result": []
  },
  {
    "postal": "K2M6X1",
    "result": []
  },
  {
    "postal": "K2M9Y7",
    "result": []
  },
  {
    "postal": "K2M2Y5",
    "result": [
      {
        "electoralDistricts": [
          {
            "election": null,
            "id": 43,
            "name": "Kanata—Carleton"
          }
        ],
        "pollDivisionIds": [
          10138964
        ],
        "postalCode": "K2M2Y5",
        "streetName": "CEDAR VALLEY",
        "streetDirectionId": null,
        "streetTypeId": "DR",
        "placeName": "KANATA",
        "streetNameDisplayText": "CEDAR VALLEY DR, KANATA"
      },
      {
        "electoralDistricts": [
          {
            "election": null,
            "id": 43,
            "name": "Kanata—Carleton"
          }
        ],
        "pollDivisionIds": [
          10138964
        ],
        "postalCode": "K2M2Y5",
        "streetName": "SADDLESMITH",
        "streetDirectionId": null,
        "streetTypeId": "CIR",
        "placeName": "KANATA",
        "streetNameDisplayText": "SADDLESMITH CIR, KANATA"
      }
    ]
  },
  {
    "postal": "K2M8L7",
    "result": []
  },
  {
    "postal": "K2M2A8",
    "result": [
      {
        "electoralDistricts": [
          {
            "election": null,
            "id": 43,
            "name": "Kanata—Carleton"
          }
        ],
        "pollDivisionIds": [
          10138963
        ],
        "postalCode": "K2M2A8",
        "streetName": "TERENCE MATTHEWS",
        "streetDirectionId": null,
        "streetTypeId": "CRES",
        "placeName": "KANATA",
        "streetNameDisplayText": "TERENCE MATTHEWS CRES, KANATA"
      }
    ]
  },
  {
    "postal": "K2M2K9",
    "result": [
      {
        "electoralDistricts": [
          {
            "election": null,
            "id": 43,
            "name": "Kanata—Carleton"
          }
        ],
        "pollDivisionIds": [
          10138966
        ],
        "postalCode": "K2M2K9",
        "streetName": "REDSTONE",
        "streetDirectionId": null,
        "streetTypeId": "LANE",
        "placeName": "KANATA",
        "streetNameDisplayText": "REDSTONE LANE, KANATA"
      },
      {
        "electoralDistricts": [
          {
            "election": null,
            "id": 43,
            "name": "Kanata—Carleton"
          }
        ],
        "pollDivisionIds": [
          10138966
        ],
        "postalCode": "K2M2K9",
        "streetName": "SPRINGCREEK",
        "streetDirectionId": null,
        "streetTypeId": "CRES",
        "placeName": "KANATA",
        "streetNameDisplayText": "SPRINGCREEK CRES, KANATA"
      },
      {
        "electoralDistricts": [
          {
            "election": null,
            "id": 43,
            "name": "Kanata—Carleton"
          }
        ],
        "pollDivisionIds": [
          10138966
        ],
        "postalCode": "K2M2K9",
        "streetName": "STONEMEADOW",
        "streetDirectionId": null,
        "streetTypeId": "DR",
        "placeName": "KANATA",
        "streetNameDisplayText": "STONEMEADOW DR, KANATA"
      }
    ]
  },
  {
    "postal": "K2M3E5",
    "result": []
  },
  {
    "postal": "K2M8N6",
    "result": []
  },
  {
    "postal": "K2M8J4",
    "result": []
  },
  {
    "postal": "K2M4R7",
    "result": []
  },
  {
    "postal": "K2M9K1",
    "result": []
  },
  {
    "postal": "K2M8E1",
    "result": []
  },
  {
    "postal": "K2M0R1",
    "result": []
  },
  {
    "postal": "K2M4J3",
    "result": []
  },
  {
    "postal": "K2M7E7",
    "result": []
  },
  {
    "postal": "K2M0J0",
    "result": []
  },
  {
    "postal": "K2M7R8",
    "result": []
  },
  {
    "postal": "K2M9X0",
    "result": []
  },
  {
    "postal": "K2M7P6",
    "result": []
  },
  {
    "postal": "K2M0R7",
    "result": []
  },
  {
    "postal": "K2M5W1",
    "result": []
  },
  {
    "postal": "K2M0K4",
    "result": [
      {
        "electoralDistricts": [
          {
            "election": null,
            "id": 43,
            "name": "Kanata—Carleton"
          }
        ],
        "pollDivisionIds": [
          10138965
        ],
        "postalCode": "K2M0K4",
        "streetName": "ACCEPTANCE",
        "streetDirectionId": null,
        "streetTypeId": "PL",
        "placeName": "KANATA",
        "streetNameDisplayText": "ACCEPTANCE PL, KANATA"
      }
    ]
  },
  {
    "postal": "K2M7N9",
    "result": []
  },
  {
    "postal": "K2M1N0",
    "result": []
  },
  {
    "postal": "K2M6P3",
    "result": []
  },
  {
    "postal": "K2M5A1",
    "result": []
  },
  {
    "postal": "K2M9M9",
    "result": []
  },
  {
    "postal": "K2M7T6",
    "result": []
  },
  {
    "postal": "K2M3X0",
    "result": []
  },
  {
    "postal": "K2M2T0",
    "result": []
  },
  {
    "postal": "K2M5X9",
    "result": []
  },
  {
    "postal": "K2M2R3",
    "result": [
      {
        "electoralDistricts": [
          {
            "election": null,
            "id": 43,
            "name": "Kanata—Carleton"
          }
        ],
        "pollDivisionIds": [
          10138965
        ],
        "postalCode": "K2M2R3",
        "streetName": "EAGLEVIEW",
        "streetDirectionId": null,
        "streetTypeId": "ST",
        "placeName": "KANATA",
        "streetNameDisplayText": "EAGLEVIEW ST, KANATA"
      }
    ]
  },
  {
    "postal": "K2M5N2",
    "result": []
  },
  {
    "postal": "K2M4Y7",
    "result": []
  },
  {
    "postal": "K2M7M0",
    "result": []
  },
  {
    "postal": "K2M8P3",
    "result": []
  },
  {
    "postal": "K2M3N3",
    "result": []
  },
  {
    "postal": "K2M7S3",
    "result": []
  },
  {
    "postal": "K2M3V9",
    "result": []
  },
  {
    "postal": "K2M9N7",
    "result": []
  },
  {
    "postal": "K2M0G4",
    "result": [
      {
        "electoralDistricts": [
          {
            "election": null,
            "id": 43,
            "name": "Kanata—Carleton"
          }
        ],
        "pollDivisionIds": [
          10138964
        ],
        "postalCode": "K2M0G4",
        "streetName": "CARRONBRIDGE",
        "streetDirectionId": null,
        "streetTypeId": "CIR",
        "placeName": "KANATA",
        "streetNameDisplayText": "CARRONBRIDGE CIR, KANATA"
      }
    ]
  },
  {
    "postal": "K2M2E2",
    "result": [
      {
        "electoralDistricts": [
          {
            "election": null,
            "id": 43,
            "name": "Kanata—Carleton"
          }
        ],
        "pollDivisionIds": [
          10138964
        ],
        "postalCode": "K2M2E2",
        "streetName": "BLACK RIVERS",
        "streetDirectionId": null,
        "streetTypeId": "PL",
        "placeName": "KANATA",
        "streetNameDisplayText": "BLACK RIVERS PL, KANATA"
      },
      {
        "electoralDistricts": [
          {
            "election": null,
            "id": 43,
            "name": "Kanata—Carleton"
          }
        ],
        "pollDivisionIds": [
          10138964
        ],
        "postalCode": "K2M2E2",
        "streetName": "BRIDLE PARK",
        "streetDirectionId": null,
        "streetTypeId": "DR",
        "placeName": "KANATA",
        "streetNameDisplayText": "BRIDLE PARK DR, KANATA"
      }
    ]
  },
  {
    "postal": "K2M7W8",
    "result": []
  },
  {
    "postal": "K2M7M5",
    "result": []
  },
  {
    "postal": "K2M5W8",
    "result": []
  },
  {
    "postal": "K2M5E5",
    "result": []
  },
  {
    "postal": "K2M1P9",
    "result": [
      {
        "electoralDistricts": [
          {
            "election": null,
            "id": 43,
            "name": "Kanata—Carleton"
          }
        ],
        "pollDivisionIds": [
          10138963
        ],
        "postalCode": "K2M1P9",
        "streetName": "ROSETHORN",
        "streetDirectionId": null,
        "streetTypeId": "WAY",
        "placeName": "KANATA",
        "streetNameDisplayText": "ROSETHORN WAY, KANATA"
      }
    ]
  },
  {
    "postal": "K2M8V8",
    "result": []
  },
  {
    "postal": "K2M9G8",
    "result": []
  },
  {
    "postal": "K2M8H9",
    "result": []
  },
  {
    "postal": "K2M1Z1",
    "result": [
      {
        "electoralDistricts": [
          {
            "election": null,
            "id": 43,
            "name": "Kanata—Carleton"
          }
        ],
        "pollDivisionIds": [
          10138957
        ],
        "postalCode": "K2M1Z1",
        "streetName": "WATERTON",
        "streetDirectionId": null,
        "streetTypeId": "CRES",
        "placeName": "KANATA",
        "streetNameDisplayText": "WATERTON CRES, KANATA"
      }
    ]
  },
  {
    "postal": "K2M8M3",
    "result": []
  },
  {
    "postal": "K2M5H6",
    "result": []
  },
  {
    "postal": "K2M7W7",
    "result": []
  },
  {
    "postal": "K2M4L0",
    "result": []
  },
  {
    "postal": "K2M2N1",
    "result": [
      {
        "electoralDistricts": [
          {
            "election": null,
            "id": 43,
            "name": "Kanata—Carleton"
          }
        ],
        "pollDivisionIds": [
          10138957
        ],
        "postalCode": "K2M2N1",
        "streetName": "YOHO",
        "streetDirectionId": null,
        "streetTypeId": "DR",
        "placeName": "KANATA",
        "streetNameDisplayText": "YOHO DR, KANATA"
      }
    ]
  },
  {
    "postal": "K2M2H4",
    "result": [
      {
        "electoralDistricts": [
          {
            "election": null,
            "id": 43,
            "name": "Kanata—Carleton"
          }
        ],
        "pollDivisionIds": [
          10138966
        ],
        "postalCode": "K2M2H4",
        "streetName": "BRAMBLEWOOD",
        "streetDirectionId": null,
        "streetTypeId": "CRES",
        "placeName": "KANATA",
        "streetNameDisplayText": "BRAMBLEWOOD CRES, KANATA"
      },
      {
        "electoralDistricts": [
          {
            "election": null,
            "id": 43,
            "name": "Kanata—Carleton"
          }
        ],
        "pollDivisionIds": [
          10138966
        ],
        "postalCode": "K2M2H4",
        "streetName": "STONEHAVEN",
        "streetDirectionId": null,
        "streetTypeId": "DR",
        "placeName": "KANATA",
        "streetNameDisplayText": "STONEHAVEN DR, KANATA"
      },
      {
        "electoralDistricts": [
          {
            "election": null,
            "id": 43,
            "name": "Kanata—Carleton"
          }
        ],
        "pollDivisionIds": [
          10138966
        ],
        "postalCode": "K2M2H4",
        "streetName": "THUNDERBIRD",
        "streetDirectionId": null,
        "streetTypeId": "CRES",
        "placeName": "KANATA",
        "streetNameDisplayText": "THUNDERBIRD CRES, KANATA"
      }
    ]
  },
  {
    "postal": "K2M5C8",
    "result": []
  },
  {
    "postal": "K2M8B0",
    "result": []
  },
  {
    "postal": "K2M1T4",
    "result": [
      {
        "electoralDistricts": [
          {
            "election": null,
            "id": 43,
            "name": "Kanata—Carleton"
          }
        ],
        "pollDivisionIds": [
          10138963
        ],
        "postalCode": "K2M1T4",
        "streetName": "HAWLEY",
        "streetDirectionId": null,
        "streetTypeId": "CRES",
        "placeName": "KANATA",
        "streetNameDisplayText": "HAWLEY CRES, KANATA"
      }
    ]
  },
  {
    "postal": "K2M7N7",
    "result": []
  },
  {
    "postal": "K2M4L3",
    "result": []
  },
  {
    "postal": "K2M2N2",
    "result": [
      {
        "electoralDistricts": [
          {
            "election": null,
            "id": 43,
            "name": "Kanata—Carleton"
          }
        ],
        "pollDivisionIds": [
          10138957
        ],
        "postalCode": "K2M2N2",
        "streetName": "YOHO",
        "streetDirectionId": null,
        "streetTypeId": "DR",
        "placeName": "KANATA",
        "streetNameDisplayText": "YOHO DR, KANATA"
      }
    ]
  },
  {
    "postal": "K2M4N8",
    "result": []
  },
  {
    "postal": "K2M3M5",
    "result": []
  },
  {
    "postal": "K2M6H7",
    "result": []
  },
  {
    "postal": "K2M8Y8",
    "result": []
  },
  {
    "postal": "K2M5R9",
    "result": []
  },
  {
    "postal": "K2M8G3",
    "result": []
  },
  {
    "postal": "K2M4N7",
    "result": []
  },
  {
    "postal": "K2M0B9",
    "result": [
      {
        "electoralDistricts": [
          {
            "election": null,
            "id": 43,
            "name": "Kanata—Carleton"
          }
        ],
        "pollDivisionIds": [
          10138964
        ],
        "postalCode": "K2M0B9",
        "streetName": "PATRIOT",
        "streetDirectionId": null,
        "streetTypeId": "PL",
        "placeName": "KANATA",
        "streetNameDisplayText": "PATRIOT PL, KANATA"
      }
    ]
  },
  {
    "postal": "K2M9K7",
    "result": []
  },
  {
    "postal": "K2M9K9",
    "result": []
  },
  {
    "postal": "K2M3Z2",
    "result": []
  },
  {
    "postal": "K2M6W7",
    "result": []
  },
  {
    "postal": "K2M0P1",
    "result": []
  },
  {
    "postal": "K2M3A0",
    "result": []
  },
  {
    "postal": "K2M8L9",
    "result": []
  },
  {
    "postal": "K2M6X0",
    "result": []
  },
  {
    "postal": "K2M3E9",
    "result": []
  },
  {
    "postal": "K2M0S5",
    "result": []
  },
  {
    "postal": "K2M1A2",
    "result": [
      {
        "electoralDistricts": [
          {
            "election": null,
            "id": 43,
            "name": "Kanata—Carleton"
          }
        ],
        "pollDivisionIds": [
          10138963
        ],
        "postalCode": "K2M1A2",
        "streetName": "POMMEL",
        "streetDirectionId": null,
        "streetTypeId": "CRES",
        "placeName": "KANATA",
        "streetNameDisplayText": "POMMEL CRES, KANATA"
      }
    ]
  },
  {
    "postal": "K2M5V8",
    "result": []
  },
  {
    "postal": "K2M8C5",
    "result": []
  },
  {
    "postal": "K2M6N0",
    "result": []
  },
  {
    "postal": "K2M9E6",
    "result": []
  },
  {
    "postal": "K2M5J7",
    "result": []
  },
  {
    "postal": "K2M2R2",
    "result": [
      {
        "electoralDistricts": [
          {
            "election": null,
            "id": 43,
            "name": "Kanata—Carleton"
          }
        ],
        "pollDivisionIds": [
          10138965
        ],
        "postalCode": "K2M2R2",
        "streetName": "DEERCHASE",
        "streetDirectionId": null,
        "streetTypeId": "CRT",
        "placeName": "KANATA",
        "streetNameDisplayText": "DEERCHASE CRT, KANATA"
      },
      {
        "electoralDistricts": [
          {
            "election": null,
            "id": 43,
            "name": "Kanata—Carleton"
          }
        ],
        "pollDivisionIds": [
          10138965
        ],
        "postalCode": "K2M2R2",
        "streetName": "EAGLEVIEW",
        "streetDirectionId": null,
        "streetTypeId": "ST",
        "placeName": "KANATA",
        "streetNameDisplayText": "EAGLEVIEW ST, KANATA"
      }
    ]
  },
  {
    "postal": "K2M0P5",
    "result": []
  },
  {
    "postal": "K2M5A7",
    "result": []
  },
  {
    "postal": "K2M1G1",
    "result": [
      {
        "electoralDistricts": [
          {
            "election": null,
            "id": 43,
            "name": "Kanata—Carleton"
          }
        ],
        "pollDivisionIds": [
          10138964
        ],
        "postalCode": "K2M1G1",
        "streetName": "BLUEGRASS",
        "streetDirectionId": null,
        "streetTypeId": "DR",
        "placeName": "KANATA",
        "streetNameDisplayText": "BLUEGRASS DR, KANATA"
      }
    ]
  },
  {
    "postal": "K2M9R6",
    "result": []
  },
  {
    "postal": "K2M4Z9",
    "result": []
  },
  {
    "postal": "K2M1V5",
    "result": [
      {
        "electoralDistricts": [
          {
            "election": null,
            "id": 43,
            "name": "Kanata—Carleton"
          }
        ],
        "pollDivisionIds": [
          10138956
        ],
        "postalCode": "K2M1V5",
        "streetName": "FILION",
        "streetDirectionId": null,
        "streetTypeId": "CRES",
        "placeName": "KANATA",
        "streetNameDisplayText": "FILION CRES, KANATA"
      }
    ]
  },
  {
    "postal": "K2M9Y5",
    "result": []
  },
  {
    "postal": "K2M1P2",
    "result": [
      {
        "electoralDistricts": [
          {
            "election": null,
            "id": 43,
            "name": "Kanata—Carleton"
          }
        ],
        "pollDivisionIds": [
          10138956
        ],
        "postalCode": "K2M1P2",
        "streetName": "PALOMINO",
        "streetDirectionId": null,
        "streetTypeId": "DR",
        "placeName": "KANATA",
        "streetNameDisplayText": "PALOMINO DR, KANATA"
      }
    ]
  },
  {
    "postal": "K2M5X0",
    "result": []
  },
  {
    "postal": "K2M7B8",
    "result": []
  },
  {
    "postal": "K2M0C6",
    "result": [
      {
        "electoralDistricts": [
          {
            "election": null,
            "id": 43,
            "name": "Kanata—Carleton"
          }
        ],
        "pollDivisionIds": [
          10138964
        ],
        "postalCode": "K2M0C6",
        "streetName": "NORTHGRAVES",
        "streetDirectionId": null,
        "streetTypeId": "CRES",
        "placeName": "KANATA",
        "streetNameDisplayText": "NORTHGRAVES CRES, KANATA"
      }
    ]
  },
  {
    "postal": "K2M6G1",
    "result": []
  },
  {
    "postal": "K2M3K3",
    "result": []
  },
  {
    "postal": "K2M9R0",
    "result": []
  },
  {
    "postal": "K2M4R8",
    "result": []
  },
  {
    "postal": "K2M5P9",
    "result": []
  },
  {
    "postal": "K2M8N4",
    "result": []
  },
  {
    "postal": "K2M8H4",
    "result": []
  },
  {
    "postal": "K2M4V1",
    "result": []
  },
  {
    "postal": "K2M1K5",
    "result": [
      {
        "electoralDistricts": [
          {
            "election": null,
            "id": 43,
            "name": "Kanata—Carleton"
          }
        ],
        "pollDivisionIds": [
          10138963
        ],
        "postalCode": "K2M1K5",
        "streetName": "STABLE",
        "streetDirectionId": null,
        "streetTypeId": "WAY",
        "placeName": "KANATA",
        "streetNameDisplayText": "STABLE WAY, KANATA"
      }
    ]
  },
  {
    "postal": "K2M1Z5",
    "result": [
      {
        "electoralDistricts": [
          {
            "election": null,
            "id": 43,
            "name": "Kanata—Carleton"
          }
        ],
        "pollDivisionIds": [
          10138957
        ],
        "postalCode": "K2M1Z5",
        "streetName": "INWOOD",
        "streetDirectionId": null,
        "streetTypeId": "DR",
        "placeName": "KANATA",
        "streetNameDisplayText": "INWOOD DR, KANATA"
      },
      {
        "electoralDistricts": [
          {
            "election": null,
            "id": 43,
            "name": "Kanata—Carleton"
          }
        ],
        "pollDivisionIds": [
          10138957
        ],
        "postalCode": "K2M1Z5",
        "streetName": "KLUANE",
        "streetDirectionId": null,
        "streetTypeId": "RIDGE",
        "placeName": "KANATA",
        "streetNameDisplayText": "KLUANE RIDGE, KANATA"
      }
    ]
  },
  {
    "postal": "K2M9L9",
    "result": []
  },
  {
    "postal": "K2M5L2",
    "result": []
  },
  {
    "postal": "K2M0M2",
    "result": [
      {
        "electoralDistricts": [
          {
            "election": null,
            "id": 43,
            "name": "Kanata—Carleton"
          }
        ],
        "pollDivisionIds": [
          10138965
        ],
        "postalCode": "K2M0M2",
        "streetName": "CONIFER CREEK",
        "streetDirectionId": null,
        "streetTypeId": "CIR",
        "placeName": "KANATA",
        "streetNameDisplayText": "CONIFER CREEK CIR, KANATA"
      }
    ]
  },
  {
    "postal": "K2M1K8",
    "result": [
      {
        "electoralDistricts": [
          {
            "election": null,
            "id": 43,
            "name": "Kanata—Carleton"
          }
        ],
        "pollDivisionIds": [
          10138963
        ],
        "postalCode": "K2M1K8",
        "streetName": "WILLOW GLEN",
        "streetDirectionId": null,
        "streetTypeId": "DR",
        "placeName": "KANATA",
        "streetNameDisplayText": "WILLOW GLEN DR, KANATA"
      }
    ]
  },
  {
    "postal": "K2M3M7",
    "result": []
  },
  {
    "postal": "K2M1B2",
    "result": [
      {
        "electoralDistricts": [
          {
            "election": null,
            "id": 43,
            "name": "Kanata—Carleton"
          }
        ],
        "pollDivisionIds": [
          10138963
        ],
        "postalCode": "K2M1B2",
        "streetName": "TROTTING",
        "streetDirectionId": null,
        "streetTypeId": "WAY",
        "placeName": "KANATA",
        "streetNameDisplayText": "TROTTING WAY, KANATA"
      }
    ]
  },
  {
    "postal": "K2M0H9",
    "result": []
  },
  {
    "postal": "K2M8M4",
    "result": []
  },
  {
    "postal": "K2M2M5",
    "result": [
      {
        "electoralDistricts": [
          {
            "election": null,
            "id": 43,
            "name": "Kanata—Carleton"
          }
        ],
        "pollDivisionIds": [
          10138965
        ],
        "postalCode": "K2M2M5",
        "streetName": "APPLE CREEK",
        "streetDirectionId": null,
        "streetTypeId": "CRES",
        "placeName": "KANATA",
        "streetNameDisplayText": "APPLE CREEK CRES, KANATA"
      },
      {
        "electoralDistricts": [
          {
            "election": null,
            "id": 43,
            "name": "Kanata—Carleton"
          }
        ],
        "pollDivisionIds": [
          10138965
        ],
        "postalCode": "K2M2M5",
        "streetName": "GRASSY PLAINS",
        "streetDirectionId": null,
        "streetTypeId": "DR",
        "placeName": "KANATA",
        "streetNameDisplayText": "GRASSY PLAINS DR, KANATA"
      }
    ]
  },
  {
    "postal": "K2M0T9",
    "result": []
  },
  {
    "postal": "K2M3P1",
    "result": []
  },
  {
    "postal": "K2M1R6",
    "result": [
      {
        "electoralDistricts": [
          {
            "election": null,
            "id": 43,
            "name": "Kanata—Carleton"
          }
        ],
        "pollDivisionIds": [
          10138956
        ],
        "postalCode": "K2M1R6",
        "streetName": "TOWER HILL",
        "streetDirectionId": null,
        "streetTypeId": "CRES",
        "placeName": "KANATA",
        "streetNameDisplayText": "TOWER HILL CRES, KANATA"
      }
    ]
  },
  {
    "postal": "K2M9V5",
    "result": []
  },
  {
    "postal": "K2M9T0",
    "result": []
  },
  {
    "postal": "K2M0A9",
    "result": [
      {
        "electoralDistricts": [
          {
            "election": null,
            "id": 43,
            "name": "Kanata—Carleton"
          }
        ],
        "pollDivisionIds": [
          10138965
        ],
        "postalCode": "K2M0A9",
        "streetName": "CATAMOUNT",
        "streetDirectionId": null,
        "streetTypeId": "CRT",
        "placeName": "KANATA",
        "streetNameDisplayText": "CATAMOUNT CRT, KANATA"
      }
    ]
  },
  {
    "postal": "K2M1M3",
    "result": [
      {
        "electoralDistricts": [
          {
            "election": null,
            "id": 43,
            "name": "Kanata—Carleton"
          }
        ],
        "pollDivisionIds": [
          10138956
        ],
        "postalCode": "K2M1M3",
        "streetName": "CHICKASAW",
        "streetDirectionId": null,
        "streetTypeId": "CRES",
        "placeName": "KANATA",
        "streetNameDisplayText": "CHICKASAW CRES, KANATA"
      },
      {
        "electoralDistricts": [
          {
            "election": null,
            "id": 43,
            "name": "Kanata—Carleton"
          }
        ],
        "pollDivisionIds": [
          10138956
        ],
        "postalCode": "K2M1M3",
        "streetName": "PALOMINO",
        "streetDirectionId": null,
        "streetTypeId": "DR",
        "placeName": "KANATA",
        "streetNameDisplayText": "PALOMINO DR, KANATA"
      }
    ]
  },
  {
    "postal": "K2M1W8",
    "result": [
      {
        "electoralDistricts": [
          {
            "election": null,
            "id": 43,
            "name": "Kanata—Carleton"
          }
        ],
        "pollDivisionIds": [
          10138963
        ],
        "postalCode": "K2M1W8",
        "streetName": "TERENCE MATTHEWS",
        "streetDirectionId": null,
        "streetTypeId": "CRES",
        "placeName": "KANATA",
        "streetNameDisplayText": "TERENCE MATTHEWS CRES, KANATA"
      }
    ]
  },
  {
    "postal": "K2M9J1",
    "result": []
  },
  {
    "postal": "K2M8N5",
    "result": []
  },
  {
    "postal": "K2M5X1",
    "result": []
  },
  {
    "postal": "K2M6S2",
    "result": []
  },
  {
    "postal": "K2M2A2",
    "result": [
      {
        "electoralDistricts": [
          {
            "election": null,
            "id": 43,
            "name": "Kanata—Carleton"
          }
        ],
        "pollDivisionIds": [
          10138957
        ],
        "postalCode": "K2M2A2",
        "streetName": "MORESBY",
        "streetDirectionId": null,
        "streetTypeId": "DR",
        "placeName": "KANATA",
        "streetNameDisplayText": "MORESBY DR, KANATA"
      },
      {
        "electoralDistricts": [
          {
            "election": null,
            "id": 43,
            "name": "Kanata—Carleton"
          }
        ],
        "pollDivisionIds": [
          10138957
        ],
        "postalCode": "K2M2A2",
        "streetName": "NIPIGON",
        "streetDirectionId": null,
        "streetTypeId": "WAY",
        "placeName": "KANATA",
        "streetNameDisplayText": "NIPIGON WAY, KANATA"
      },
      {
        "electoralDistricts": [
          {
            "election": null,
            "id": 43,
            "name": "Kanata—Carleton"
          }
        ],
        "pollDivisionIds": [
          10138957
        ],
        "postalCode": "K2M2A2",
        "streetName": "SPRINGWATER",
        "streetDirectionId": null,
        "streetTypeId": "DR",
        "placeName": "KANATA",
        "streetNameDisplayText": "SPRINGWATER DR, KANATA"
      }
    ]
  },
  {
    "postal": "K2M6A6",
    "result": []
  },
  {
    "postal": "K2M0S3",
    "result": []
  },
  {
    "postal": "K2M3E7",
    "result": []
  },
  {
    "postal": "K2M5R7",
    "result": []
  },
  {
    "postal": "K2M3R6",
    "result": []
  },
  {
    "postal": "K2M6K4",
    "result": []
  },
  {
    "postal": "K2M2W5",
    "result": [
      {
        "electoralDistricts": [
          {
            "election": null,
            "id": 43,
            "name": "Kanata—Carleton"
          }
        ],
        "pollDivisionIds": [
          10138957
        ],
        "postalCode": "K2M2W5",
        "streetName": "BON ECHO",
        "streetDirectionId": null,
        "streetTypeId": "CRES",
        "placeName": "KANATA",
        "streetNameDisplayText": "BON ECHO CRES, KANATA"
      },
      {
        "electoralDistricts": [
          {
            "election": null,
            "id": 43,
            "name": "Kanata—Carleton"
          }
        ],
        "pollDivisionIds": [
          10138957
        ],
        "postalCode": "K2M2W5",
        "streetName": "FORILLON",
        "streetDirectionId": null,
        "streetTypeId": "CRES",
        "placeName": "KANATA",
        "streetNameDisplayText": "FORILLON CRES, KANATA"
      },
      {
        "electoralDistricts": [
          {
            "election": null,
            "id": 43,
            "name": "Kanata—Carleton"
          }
        ],
        "pollDivisionIds": [
          10138957
        ],
        "postalCode": "K2M2W5",
        "streetName": "STEEPLE CHASE",
        "streetDirectionId": null,
        "streetTypeId": "DR",
        "placeName": "KANATA",
        "streetNameDisplayText": "STEEPLE CHASE DR, KANATA"
      }
    ]
  },
  {
    "postal": "K2M8W4",
    "result": []
  },
  {
    "postal": "K2M9C2",
    "result": []
  },
  {
    "postal": "K2M2C0",
    "result": []
  },
  {
    "postal": "K2M0E1",
    "result": [
      {
        "electoralDistricts": [
          {
            "election": null,
            "id": 43,
            "name": "Kanata—Carleton"
          }
        ],
        "pollDivisionIds": [
          10138933
        ],
        "postalCode": "K2M0E1",
        "streetName": "NORTHGATE",
        "streetDirectionId": null,
        "streetTypeId": "CRES",
        "placeName": "KANATA",
        "streetNameDisplayText": "NORTHGATE CRES, KANATA"
      },
      {
        "electoralDistricts": [
          {
            "election": null,
            "id": 43,
            "name": "Kanata—Carleton"
          }
        ],
        "pollDivisionIds": [
          10138964
        ],
        "postalCode": "K2M0E1",
        "streetName": "NORTHGRAVES",
        "streetDirectionId": null,
        "streetTypeId": "CRES",
        "placeName": "KANATA",
        "streetNameDisplayText": "NORTHGRAVES CRES, KANATA"
      },
      {
        "electoralDistricts": [
          {
            "election": null,
            "id": 43,
            "name": "Kanata—Carleton"
          }
        ],
        "pollDivisionIds": [
          10138964
        ],
        "postalCode": "K2M0E1",
        "streetName": "WHITEFORD",
        "streetDirectionId": null,
        "streetTypeId": "WAY",
        "placeName": "KANATA",
        "streetNameDisplayText": "WHITEFORD WAY, KANATA"
      }
    ]
  },
  {
    "postal": "K2M1K9",
    "result": [
      {
        "electoralDistricts": [
          {
            "election": null,
            "id": 43,
            "name": "Kanata—Carleton"
          }
        ],
        "pollDivisionIds": [
          10138963
        ],
        "postalCode": "K2M1K9",
        "streetName": "WILLOW GLEN",
        "streetDirectionId": null,
        "streetTypeId": "DR",
        "placeName": "KANATA",
        "streetNameDisplayText": "WILLOW GLEN DR, KANATA"
      }
    ]
  },
  {
    "postal": "K2M1G7",
    "result": [
      {
        "electoralDistricts": [
          {
            "election": null,
            "id": 43,
            "name": "Kanata—Carleton"
          }
        ],
        "pollDivisionIds": [
          10138964
        ],
        "postalCode": "K2M1G7",
        "streetName": "SULKY",
        "streetDirectionId": null,
        "streetTypeId": "WAY",
        "placeName": "KANATA",
        "streetNameDisplayText": "SULKY WAY, KANATA"
      }
    ]
  },
  {
    "postal": "K2M4E9",
    "result": []
  },
  {
    "postal": "K2M9P0",
    "result": []
  },
  {
    "postal": "K2M5H3",
    "result": []
  },
  {
    "postal": "K2M9X6",
    "result": []
  },
  {
    "postal": "K2M5N7",
    "result": []
  },
  {
    "postal": "K2M5A6",
    "result": []
  },
  {
    "postal": "K2M4M0",
    "result": []
  },
  {
    "postal": "K2M3V6",
    "result": []
  },
  {
    "postal": "K2M1L7",
    "result": [
      {
        "electoralDistricts": [
          {
            "election": null,
            "id": 43,
            "name": "Kanata—Carleton"
          }
        ],
        "pollDivisionIds": [
          10138963
        ],
        "postalCode": "K2M1L7",
        "streetName": "BLUEMEADOW",
        "streetDirectionId": null,
        "streetTypeId": "WAY",
        "placeName": "KANATA",
        "streetNameDisplayText": "BLUEMEADOW WAY, KANATA"
      }
    ]
  },
  {
    "postal": "K2M2P9",
    "result": [
      {
        "electoralDistricts": [
          {
            "election": null,
            "id": 43,
            "name": "Kanata—Carleton"
          }
        ],
        "pollDivisionIds": [
          10138963
        ],
        "postalCode": "K2M2P9",
        "streetName": "STONEHAVEN",
        "streetDirectionId": null,
        "streetTypeId": "DR",
        "placeName": "KANATA",
        "streetNameDisplayText": "STONEHAVEN DR, KANATA"
      }
    ]
  },
  {
    "postal": "K2M5T4",
    "result": []
  },
  {
    "postal": "K2M5Z1",
    "result": []
  },
  {
    "postal": "K2M2X0",
    "result": []
  },
  {
    "postal": "K2M6Z2",
    "result": []
  },
  {
    "postal": "K2M0E0",
    "result": []
  },
  {
    "postal": "K2M3Z5",
    "result": []
  },
  {
    "postal": "K2M8H3",
    "result": []
  },
  {
    "postal": "K2M7S6",
    "result": []
  },
  {
    "postal": "K2M4C1",
    "result": []
  },
  {
    "postal": "K2M3K2",
    "result": []
  },
  {
    "postal": "K2M1Y5",
    "result": [
      {
        "electoralDistricts": [
          {
            "election": null,
            "id": 43,
            "name": "Kanata—Carleton"
          }
        ],
        "pollDivisionIds": [
          10138957
        ],
        "postalCode": "K2M1Y5",
        "streetName": "WATERTON",
        "streetDirectionId": null,
        "streetTypeId": "CRES",
        "placeName": "KANATA",
        "streetNameDisplayText": "WATERTON CRES, KANATA"
      }
    ]
  },
  {
    "postal": "K2M6P6",
    "result": []
  },
  {
    "postal": "K2M3N9",
    "result": []
  },
  {
    "postal": "K2M3W2",
    "result": []
  },
  {
    "postal": "K2M6H8",
    "result": []
  },
  {
    "postal": "K2M9T3",
    "result": []
  },
  {
    "postal": "K2M5L9",
    "result": []
  },
  {
    "postal": "K2M7X7",
    "result": []
  },
  {
    "postal": "K2M3J5",
    "result": []
  },
  {
    "postal": "K2M4J5",
    "result": []
  },
  {
    "postal": "K2M6J2",
    "result": []
  },
  {
    "postal": "K2M5V6",
    "result": []
  },
  {
    "postal": "K2M3N2",
    "result": []
  },
  {
    "postal": "K2M3B1",
    "result": [
      {
        "electoralDistricts": [
          {
            "election": null,
            "id": 43,
            "name": "Kanata—Carleton"
          }
        ],
        "pollDivisionIds": [
          10138965
        ],
        "postalCode": "K2M3B1",
        "streetName": "HILLSBORO",
        "streetDirectionId": null,
        "streetTypeId": "PVT",
        "placeName": "KANATA",
        "streetNameDisplayText": "HILLSBORO PVT, KANATA"
      },
      {
        "electoralDistricts": [
          {
            "election": null,
            "id": 43,
            "name": "Kanata—Carleton"
          }
        ],
        "pollDivisionIds": [
          10138965
        ],
        "postalCode": "K2M3B1",
        "streetName": "MADAKET",
        "streetDirectionId": null,
        "streetTypeId": "PVT",
        "placeName": "KANATA",
        "streetNameDisplayText": "MADAKET PVT, KANATA"
      }
    ]
  },
  {
    "postal": "K2M8B5",
    "result": []
  },
  {
    "postal": "K2M0K1",
    "result": [
      {
        "electoralDistricts": [
          {
            "election": null,
            "id": 43,
            "name": "Kanata—Carleton"
          }
        ],
        "pollDivisionIds": [
          10138965
        ],
        "postalCode": "K2M0K1",
        "streetName": "FLOWING CREEK",
        "streetDirectionId": null,
        "streetTypeId": "CIR",
        "placeName": "KANATA",
        "streetNameDisplayText": "FLOWING CREEK CIR, KANATA"
      },
      {
        "electoralDistricts": [
          {
            "election": null,
            "id": 43,
            "name": "Kanata—Carleton"
          }
        ],
        "pollDivisionIds": [
          10138965
        ],
        "postalCode": "K2M0K1",
        "streetName": "FLOWING CREEK",
        "streetDirectionId": null,
        "streetTypeId": "CIR",
        "placeName": "OTTAWA",
        "streetNameDisplayText": "FLOWING CREEK CIR, OTTAWA"
      }
    ]
  },
  {
    "postal": "K2M7M7",
    "result": []
  },
  {
    "postal": "K2M2M2",
    "result": [
      {
        "electoralDistricts": [
          {
            "election": null,
            "id": 43,
            "name": "Kanata—Carleton"
          }
        ],
        "pollDivisionIds": [
          10138966
        ],
        "postalCode": "K2M2M2",
        "streetName": "REDSTONE",
        "streetDirectionId": null,
        "streetTypeId": "LANE",
        "placeName": "KANATA",
        "streetNameDisplayText": "REDSTONE LANE, KANATA"
      },
      {
        "electoralDistricts": [
          {
            "election": null,
            "id": 43,
            "name": "Kanata—Carleton"
          }
        ],
        "pollDivisionIds": [
          10138966
        ],
        "postalCode": "K2M2M2",
        "streetName": "SPRINGCREEK",
        "streetDirectionId": null,
        "streetTypeId": "CRES",
        "placeName": "KANATA",
        "streetNameDisplayText": "SPRINGCREEK CRES, KANATA"
      }
    ]
  },
  {
    "postal": "K2M9N3",
    "result": []
  },
  {
    "postal": "K2M4Y8",
    "result": []
  },
  {
    "postal": "K2M3V7",
    "result": []
  },
  {
    "postal": "K2M8Z1",
    "result": []
  },
  {
    "postal": "K2M7B3",
    "result": []
  },
  {
    "postal": "K2M3A8",
    "result": [
      {
        "electoralDistricts": [
          {
            "election": null,
            "id": 43,
            "name": "Kanata—Carleton"
          }
        ],
        "pollDivisionIds": [
          10138965
        ],
        "postalCode": "K2M3A8",
        "streetName": "HILLSBORO",
        "streetDirectionId": null,
        "streetTypeId": "PVT",
        "placeName": "KANATA",
        "streetNameDisplayText": "HILLSBORO PVT, KANATA"
      }
    ]
  },
  {
    "postal": "K2M7V5",
    "result": []
  },
  {
    "postal": "K2M2T2",
    "result": [
      {
        "electoralDistricts": [
          {
            "election": null,
            "id": 43,
            "name": "Kanata—Carleton"
          }
        ],
        "pollDivisionIds": [
          10138956
        ],
        "postalCode": "K2M2T2",
        "streetName": "PEREGRINE",
        "streetDirectionId": null,
        "streetTypeId": "CRES",
        "placeName": "KANATA",
        "streetNameDisplayText": "PEREGRINE CRES, KANATA"
      },
      {
        "electoralDistricts": [
          {
            "election": null,
            "id": 43,
            "name": "Kanata—Carleton"
          }
        ],
        "pollDivisionIds": [
          10138956
        ],
        "postalCode": "K2M2T2",
        "streetName": "PINE HILL",
        "streetDirectionId": null,
        "streetTypeId": "DR",
        "placeName": "KANATA",
        "streetNameDisplayText": "PINE HILL DR, KANATA"
      }
    ]
  },
  {
    "postal": "K2M6L3",
    "result": []
  },
  {
    "postal": "K2M0L2",
    "result": [
      {
        "electoralDistricts": [
          {
            "election": null,
            "id": 43,
            "name": "Kanata—Carleton"
          }
        ],
        "pollDivisionIds": [
          10138965
        ],
        "postalCode": "K2M0L2",
        "streetName": "MEADOWBREEZE",
        "streetDirectionId": null,
        "streetTypeId": "DR",
        "placeName": "KANATA",
        "streetNameDisplayText": "MEADOWBREEZE DR, KANATA"
      },
      {
        "electoralDistricts": [
          {
            "election": null,
            "id": 43,
            "name": "Kanata—Carleton"
          }
        ],
        "pollDivisionIds": [
          10138965
        ],
        "postalCode": "K2M0L2",
        "streetName": "MEADOWBREEZE",
        "streetDirectionId": null,
        "streetTypeId": "DR",
        "placeName": "NEPEAN",
        "streetNameDisplayText": "MEADOWBREEZE DR, NEPEAN"
      },
      {
        "electoralDistricts": [
          {
            "election": null,
            "id": 43,
            "name": "Kanata—Carleton"
          }
        ],
        "pollDivisionIds": [
          10138965
        ],
        "postalCode": "K2M0L2",
        "streetName": "SILVER SPRUCE",
        "streetDirectionId": null,
        "streetTypeId": "WAY",
        "placeName": "KANATA",
        "streetNameDisplayText": "SILVER SPRUCE WAY, KANATA"
      }
    ]
  },
  {
    "postal": "K2M5Y8",
    "result": []
  },
  {
    "postal": "K2M0B8",
    "result": [
      {
        "electoralDistricts": [
          {
            "election": null,
            "id": 43,
            "name": "Kanata—Carleton"
          }
        ],
        "pollDivisionIds": [
          10138964
        ],
        "postalCode": "K2M0B8",
        "streetName": "PATRIOT",
        "streetDirectionId": null,
        "streetTypeId": "PL",
        "placeName": "KANATA",
        "streetNameDisplayText": "PATRIOT PL, KANATA"
      },
      {
        "electoralDistricts": [
          {
            "election": null,
            "id": 43,
            "name": "Kanata—Carleton"
          }
        ],
        "pollDivisionIds": [
          10138964,
          10138953
        ],
        "postalCode": "K2M0B8",
        "streetName": "TABARET",
        "streetDirectionId": null,
        "streetTypeId": "ST",
        "placeName": "KANATA",
        "streetNameDisplayText": "TABARET ST, KANATA"
      },
      {
        "electoralDistricts": [
          {
            "election": null,
            "id": 43,
            "name": "Kanata—Carleton"
          }
        ],
        "pollDivisionIds": [
          10138964
        ],
        "postalCode": "K2M0B8",
        "streetName": "TEMPLEFORD",
        "streetDirectionId": null,
        "streetTypeId": "AVE",
        "placeName": "KANATA",
        "streetNameDisplayText": "TEMPLEFORD AVE, KANATA"
      }
    ]
  },
  {
    "postal": "K2M6R5",
    "result": []
  },
  {
    "postal": "K2M8W6",
    "result": []
  },
  {
    "postal": "K2M8G6",
    "result": []
  },
  {
    "postal": "K2M6X3",
    "result": []
  },
  {
    "postal": "K2M7R7",
    "result": []
  },
  {
    "postal": "K2M4B6",
    "result": []
  },
  {
    "postal": "K2M3P9",
    "result": []
  },
  {
    "postal": "K2M2T3",
    "result": [
      {
        "electoralDistricts": [
          {
            "election": null,
            "id": 43,
            "name": "Kanata—Carleton"
          }
        ],
        "pollDivisionIds": [
          10138956
        ],
        "postalCode": "K2M2T3",
        "streetName": "PEREGRINE",
        "streetDirectionId": null,
        "streetTypeId": "CRES",
        "placeName": "KANATA",
        "streetNameDisplayText": "PEREGRINE CRES, KANATA"
      }
    ]
  },
  {
    "postal": "K2M1M4",
    "result": [
      {
        "electoralDistricts": [
          {
            "election": null,
            "id": 43,
            "name": "Kanata—Carleton"
          }
        ],
        "pollDivisionIds": [
          10138956
        ],
        "postalCode": "K2M1M4",
        "streetName": "CHICKASAW",
        "streetDirectionId": null,
        "streetTypeId": "CRES",
        "placeName": "KANATA",
        "streetNameDisplayText": "CHICKASAW CRES, KANATA"
      }
    ]
  },
  {
    "postal": "K2M0H1",
    "result": [
      {
        "electoralDistricts": [
          {
            "election": null,
            "id": 43,
            "name": "Kanata—Carleton"
          }
        ],
        "pollDivisionIds": [
          10138966
        ],
        "postalCode": "K2M0H1",
        "streetName": "BRIDLEGLEN",
        "streetDirectionId": null,
        "streetTypeId": "CRES",
        "placeName": "KANATA",
        "streetNameDisplayText": "BRIDLEGLEN CRES, KANATA"
      },
      {
        "electoralDistricts": [
          {
            "election": null,
            "id": 43,
            "name": "Kanata—Carleton"
          }
        ],
        "pollDivisionIds": [
          10138966,
          10138965
        ],
        "postalCode": "K2M0H1",
        "streetName": "LONG ACRES",
        "streetDirectionId": null,
        "streetTypeId": "ST",
        "placeName": "KANATA",
        "streetNameDisplayText": "LONG ACRES ST, KANATA"
      }
    ]
  },
  {
    "postal": "K2M9W3",
    "result": []
  },
  {
    "postal": "K2M6P1",
    "result": []
  },
  {
    "postal": "K2M7G2",
    "result": []
  },
  {
    "postal": "K2M4J9",
    "result": []
  },
  {
    "postal": "K2M9E4",
    "result": []
  },
  {
    "postal": "K2M8H0",
    "result": []
  },
  {
    "postal": "K2M4M7",
    "result": []
  },
  {
    "postal": "K2M2G9",
    "result": [
      {
        "electoralDistricts": [
          {
            "election": null,
            "id": 43,
            "name": "Kanata—Carleton"
          }
        ],
        "pollDivisionIds": [
          10138964,
          10138963
        ],
        "postalCode": "K2M2G9",
        "streetName": "EAGLESON",
        "streetDirectionId": null,
        "streetTypeId": "RD",
        "placeName": "KANATA",
        "streetNameDisplayText": "EAGLESON RD, KANATA"
      }
    ]
  },
  {
    "postal": "K2M8T2",
    "result": []
  },
  {
    "postal": "K2M7G7",
    "result": []
  },
  {
    "postal": "K2M4Z3",
    "result": []
  },
  {
    "postal": "K2M5B3",
    "result": []
  },
  {
    "postal": "K2M1S7",
    "result": [
      {
        "electoralDistricts": [
          {
            "election": null,
            "id": 43,
            "name": "Kanata—Carleton"
          }
        ],
        "pollDivisionIds": [
          10138956
        ],
        "postalCode": "K2M1S7",
        "streetName": "SHETLAND",
        "streetDirectionId": null,
        "streetTypeId": "WAY",
        "placeName": "KANATA",
        "streetNameDisplayText": "SHETLAND WAY, KANATA"
      }
    ]
  },
  {
    "postal": "K2M2N7",
    "result": [
      {
        "electoralDistricts": [
          {
            "election": null,
            "id": 43,
            "name": "Kanata—Carleton"
          }
        ],
        "pollDivisionIds": [
          10138957
        ],
        "postalCode": "K2M2N7",
        "streetName": "BUDAPEST",
        "streetDirectionId": null,
        "streetTypeId": "CRES",
        "placeName": "KANATA",
        "streetNameDisplayText": "BUDAPEST CRES, KANATA"
      }
    ]
  },
  {
    "postal": "K2M0H8",
    "result": [
      {
        "electoralDistricts": [
          {
            "election": null,
            "id": 43,
            "name": "Kanata—Carleton"
          }
        ],
        "pollDivisionIds": [
          10138964
        ],
        "postalCode": "K2M0H8",
        "streetName": "BARRICK HILL",
        "streetDirectionId": null,
        "streetTypeId": "RD",
        "placeName": "KANATA",
        "streetNameDisplayText": "BARRICK HILL RD, KANATA"
      },
      {
        "electoralDistricts": [
          {
            "election": null,
            "id": 43,
            "name": "Kanata—Carleton"
          }
        ],
        "pollDivisionIds": [
          10138964
        ],
        "postalCode": "K2M0H8",
        "streetName": "MOORPARK",
        "streetDirectionId": null,
        "streetTypeId": "AVE",
        "placeName": "KANATA",
        "streetNameDisplayText": "MOORPARK AVE, KANATA"
      }
    ]
  },
  {
    "postal": "K2M7Z4",
    "result": []
  },
  {
    "postal": "K2M7B1",
    "result": []
  },
  {
    "postal": "K2M7P8",
    "result": []
  },
  {
    "postal": "K2M7N0",
    "result": []
  },
  {
    "postal": "K2M3Y5",
    "result": []
  },
  {
    "postal": "K2M6K1",
    "result": []
  },
  {
    "postal": "K2M9X5",
    "result": []
  },
  {
    "postal": "K2M7S5",
    "result": []
  },
  {
    "postal": "K2M0A4",
    "result": [
      {
        "electoralDistricts": [
          {
            "election": null,
            "id": 43,
            "name": "Kanata—Carleton"
          }
        ],
        "pollDivisionIds": [
          10138964
        ],
        "postalCode": "K2M0A4",
        "streetName": "BRIDGESTONE",
        "streetDirectionId": null,
        "streetTypeId": "DR",
        "placeName": "KANATA",
        "streetNameDisplayText": "BRIDGESTONE DR, KANATA"
      },
      {
        "electoralDistricts": [
          {
            "election": null,
            "id": 43,
            "name": "Kanata—Carleton"
          }
        ],
        "pollDivisionIds": [
          10138964
        ],
        "postalCode": "K2M0A4",
        "streetName": "WAYMARK",
        "streetDirectionId": null,
        "streetTypeId": "CRES",
        "placeName": "KANATA",
        "streetNameDisplayText": "WAYMARK CRES, KANATA"
      },
      {
        "electoralDistricts": [
          {
            "election": null,
            "id": 43,
            "name": "Kanata—Carleton"
          }
        ],
        "pollDivisionIds": [
          10138964
        ],
        "postalCode": "K2M0A4",
        "streetName": "WAYWARK",
        "streetDirectionId": null,
        "streetTypeId": "CRES",
        "placeName": "KANATA",
        "streetNameDisplayText": "WAYWARK CRES, KANATA"
      }
    ]
  },
  {
    "postal": "K2M4T5",
    "result": []
  },
  {
    "postal": "K2M5K1",
    "result": []
  },
  {
    "postal": "K2M0Z9",
    "result": []
  },
  {
    "postal": "K2M7T2",
    "result": []
  },
  {
    "postal": "K2M1L5",
    "result": [
      {
        "electoralDistricts": [
          {
            "election": null,
            "id": 43,
            "name": "Kanata—Carleton"
          }
        ],
        "pollDivisionIds": [
          10138963
        ],
        "postalCode": "K2M1L5",
        "streetName": "HUNTINGS END",
        "streetDirectionId": null,
        "streetTypeId": "AVE",
        "placeName": "KANATA",
        "streetNameDisplayText": "HUNTINGS END AVE, KANATA"
      }
    ]
  },
  {
    "postal": "K2M3N5",
    "result": []
  },
  {
    "postal": "K2M6H4",
    "result": []
  },
  {
    "postal": "K2M5A5",
    "result": []
  },
  {
    "postal": "K2M3R9",
    "result": []
  },
  {
    "postal": "K2M7L8",
    "result": []
  },
  {
    "postal": "K2M6T6",
    "result": []
  },
  {
    "postal": "K2M7Y7",
    "result": []
  },
  {
    "postal": "K2M3M8",
    "result": []
  },
  {
    "postal": "K2M2E0",
    "result": []
  },
  {
    "postal": "K2M4B5",
    "result": []
  },
  {
    "postal": "K2M1J3",
    "result": [
      {
        "electoralDistricts": [
          {
            "election": null,
            "id": 43,
            "name": "Kanata—Carleton"
          }
        ],
        "pollDivisionIds": [
          10138963
        ],
        "postalCode": "K2M1J3",
        "streetName": "EQUESTRIAN",
        "streetDirectionId": null,
        "streetTypeId": "DR",
        "placeName": "KANATA",
        "streetNameDisplayText": "EQUESTRIAN DR, KANATA"
      }
    ]
  },
  {
    "postal": "K2M5S6",
    "result": []
  },
  {
    "postal": "K2M8P7",
    "result": []
  },
  {
    "postal": "K2M7S7",
    "result": []
  },
  {
    "postal": "K2M4C2",
    "result": []
  },
  {
    "postal": "K2M5Y0",
    "result": []
  },
  {
    "postal": "K2M2V7",
    "result": [
      {
        "electoralDistricts": [
          {
            "election": null,
            "id": 43,
            "name": "Kanata—Carleton"
          }
        ],
        "pollDivisionIds": [
          10138964,
          10138966
        ],
        "postalCode": "K2M2V7",
        "streetName": "THUNDERBIRD",
        "streetDirectionId": null,
        "streetTypeId": "CRES",
        "placeName": "KANATA",
        "streetNameDisplayText": "THUNDERBIRD CRES, KANATA"
      }
    ]
  },
  {
    "postal": "K2M8P5",
    "result": []
  },
  {
    "postal": "K2M5P5",
    "result": []
  },
  {
    "postal": "K2M5Z0",
    "result": []
  },
  {
    "postal": "K2M9B0",
    "result": []
  },
  {
    "postal": "K2M1L0",
    "result": []
  },
  {
    "postal": "K2M0B5",
    "result": [
      {
        "electoralDistricts": [
          {
            "election": null,
            "id": 43,
            "name": "Kanata—Carleton"
          }
        ],
        "pollDivisionIds": [
          10138964
        ],
        "postalCode": "K2M0B5",
        "streetName": "BARRICK HILL",
        "streetDirectionId": null,
        "streetTypeId": "RD",
        "placeName": "KANATA",
        "streetNameDisplayText": "BARRICK HILL RD, KANATA"
      },
      {
        "electoralDistricts": [
          {
            "election": null,
            "id": 43,
            "name": "Kanata—Carleton"
          }
        ],
        "pollDivisionIds": [
          10138964
        ],
        "postalCode": "K2M0B5",
        "streetName": "MOORPARK",
        "streetDirectionId": null,
        "streetTypeId": "AVE",
        "placeName": "KANATA",
        "streetNameDisplayText": "MOORPARK AVE, KANATA"
      },
      {
        "electoralDistricts": [
          {
            "election": null,
            "id": 43,
            "name": "Kanata—Carleton"
          }
        ],
        "pollDivisionIds": [
          10138964
        ],
        "postalCode": "K2M0B5",
        "streetName": "OAKGLADE",
        "streetDirectionId": null,
        "streetTypeId": "AVE",
        "placeName": "KANATA",
        "streetNameDisplayText": "OAKGLADE AVE, KANATA"
      }
    ]
  },
  {
    "postal": "K2M3L2",
    "result": []
  },
  {
    "postal": "K2M3B7",
    "result": []
  },
  {
    "postal": "K2M8L1",
    "result": []
  },
  {
    "postal": "K2M5M4",
    "result": []
  },
  {
    "postal": "K2M4G9",
    "result": []
  },
  {
    "postal": "K2M0P0",
    "result": []
  },
  {
    "postal": "K2M8G2",
    "result": []
  },
  {
    "postal": "K2M1V9",
    "result": [
      {
        "electoralDistricts": [
          {
            "election": null,
            "id": 43,
            "name": "Kanata—Carleton"
          }
        ],
        "pollDivisionIds": [
          10138956
        ],
        "postalCode": "K2M1V9",
        "streetName": "SPEERS",
        "streetDirectionId": null,
        "streetTypeId": "CRES",
        "placeName": "KANATA",
        "streetNameDisplayText": "SPEERS CRES, KANATA"
      }
    ]
  },
  {
    "postal": "K2M8N8",
    "result": []
  },
  {
    "postal": "K2M6S8",
    "result": []
  },
  {
    "postal": "K2M8H2",
    "result": []
  },
  {
    "postal": "K2M5R8",
    "result": []
  },
  {
    "postal": "K2M5L4",
    "result": []
  },
  {
    "postal": "K2M9E1",
    "result": []
  },
  {
    "postal": "K2M1C4",
    "result": [
      {
        "electoralDistricts": [
          {
            "election": null,
            "id": 43,
            "name": "Kanata—Carleton"
          }
        ],
        "pollDivisionIds": [
          10138963
        ],
        "postalCode": "K2M1C4",
        "streetName": "HUNTSMAN",
        "streetDirectionId": null,
        "streetTypeId": "CRES",
        "placeName": "KANATA",
        "streetNameDisplayText": "HUNTSMAN CRES, KANATA"
      }
    ]
  },
  {
    "postal": "K2M8W5",
    "result": []
  },
  {
    "postal": "K2M1Y4",
    "result": [
      {
        "electoralDistricts": [
          {
            "election": null,
            "id": 43,
            "name": "Kanata—Carleton"
          }
        ],
        "pollDivisionIds": [
          10138957
        ],
        "postalCode": "K2M1Y4",
        "streetName": "SPRINGWATER",
        "streetDirectionId": null,
        "streetTypeId": "DR",
        "placeName": "KANATA",
        "streetNameDisplayText": "SPRINGWATER DR, KANATA"
      },
      {
        "electoralDistricts": [
          {
            "election": null,
            "id": 43,
            "name": "Kanata—Carleton"
          }
        ],
        "pollDivisionIds": [
          10138957
        ],
        "postalCode": "K2M1Y4",
        "streetName": "WATERTON",
        "streetDirectionId": null,
        "streetTypeId": "CRES",
        "placeName": "KANATA",
        "streetNameDisplayText": "WATERTON CRES, KANATA"
      }
    ]
  },
  {
    "postal": "K2M1C0",
    "result": []
  },
  {
    "postal": "K2M2J2",
    "result": [
      {
        "electoralDistricts": [
          {
            "election": null,
            "id": 43,
            "name": "Kanata—Carleton"
          }
        ],
        "pollDivisionIds": [
          10138964
        ],
        "postalCode": "K2M2J2",
        "streetName": "SILVER HORSE",
        "streetDirectionId": null,
        "streetTypeId": "CRES",
        "placeName": "KANATA",
        "streetNameDisplayText": "SILVER HORSE CRES, KANATA"
      }
    ]
  },
  {
    "postal": "K2M2J0",
    "result": []
  },
  {
    "postal": "K2M7A3",
    "result": []
  },
  {
    "postal": "K2M8M1",
    "result": []
  },
  {
    "postal": "K2M7T9",
    "result": []
  },
  {
    "postal": "K2M6C0",
    "result": []
  },
  {
    "postal": "K2M7X1",
    "result": []
  },
  {
    "postal": "K2M0G1",
    "result": [
      {
        "electoralDistricts": [
          {
            "election": null,
            "id": 43,
            "name": "Kanata—Carleton"
          }
        ],
        "pollDivisionIds": [
          10138953
        ],
        "postalCode": "K2M0G1",
        "streetName": "FOX HALL",
        "streetDirectionId": null,
        "streetTypeId": "WAY",
        "placeName": "KANATA",
        "streetNameDisplayText": "FOX HALL WAY, KANATA"
      },
      {
        "electoralDistricts": [
          {
            "election": null,
            "id": 43,
            "name": "Kanata—Carleton"
          }
        ],
        "pollDivisionIds": [
          10138964
        ],
        "postalCode": "K2M0G1",
        "streetName": "FOXHALL",
        "streetDirectionId": null,
        "streetTypeId": "WAY",
        "placeName": "KANATA",
        "streetNameDisplayText": "FOXHALL WAY, KANATA"
      },
      {
        "electoralDistricts": [
          {
            "election": null,
            "id": 43,
            "name": "Kanata—Carleton"
          }
        ],
        "pollDivisionIds": [
          10138964
        ],
        "postalCode": "K2M0G1",
        "streetName": "KINGBROOK",
        "streetDirectionId": null,
        "streetTypeId": "DR",
        "placeName": "KANATA",
        "streetNameDisplayText": "KINGBROOK DR, KANATA"
      }
    ]
  },
  {
    "postal": "K2M4X2",
    "result": []
  },
  {
    "postal": "K2M0N6",
    "result": []
  },
  {
    "postal": "K2M8E3",
    "result": []
  },
  {
    "postal": "K2M5S8",
    "result": []
  },
  {
    "postal": "K2M0R0",
    "result": []
  },
  {
    "postal": "K2M6J6",
    "result": []
  },
  {
    "postal": "K2M4B4",
    "result": []
  },
  {
    "postal": "K2M7E3",
    "result": []
  },
  {
    "postal": "K2M3N6",
    "result": []
  },
  {
    "postal": "K2M3X6",
    "result": []
  },
  {
    "postal": "K2M8L0",
    "result": []
  },
  {
    "postal": "K2M8N1",
    "result": []
  },
  {
    "postal": "K2M4J0",
    "result": []
  },
  {
    "postal": "K2M0X7",
    "result": []
  },
  {
    "postal": "K2M6S4",
    "result": []
  },
  {
    "postal": "K2M0Z0",
    "result": []
  },
  {
    "postal": "K2M9X8",
    "result": []
  },
  {
    "postal": "K2M3H3",
    "result": []
  },
  {
    "postal": "K2M7S2",
    "result": []
  },
  {
    "postal": "K2M3T3",
    "result": []
  },
  {
    "postal": "K2M9P3",
    "result": []
  },
  {
    "postal": "K2M4H8",
    "result": []
  },
  {
    "postal": "K2M6R1",
    "result": []
  },
  {
    "postal": "K2M1S0",
    "result": []
  },
  {
    "postal": "K2M3W8",
    "result": []
  },
  {
    "postal": "K2M4S3",
    "result": []
  },
  {
    "postal": "K2M1B6",
    "result": [
      {
        "electoralDistricts": [
          {
            "election": null,
            "id": 43,
            "name": "Kanata—Carleton"
          }
        ],
        "pollDivisionIds": [
          10138963
        ],
        "postalCode": "K2M1B6",
        "streetName": "FOXLEIGH",
        "streetDirectionId": null,
        "streetTypeId": "CRES",
        "placeName": "KANATA",
        "streetNameDisplayText": "FOXLEIGH CRES, KANATA"
      }
    ]
  },
  {
    "postal": "K2M8R3",
    "result": []
  },
  {
    "postal": "K2M4V9",
    "result": []
  },
  {
    "postal": "K2M9W4",
    "result": []
  },
  {
    "postal": "K2M3T4",
    "result": []
  },
  {
    "postal": "K2M5C7",
    "result": []
  },
  {
    "postal": "K2M3Y1",
    "result": []
  },
  {
    "postal": "K2M5V0",
    "result": []
  },
  {
    "postal": "K2M8G8",
    "result": []
  },
  {
    "postal": "K2M8B1",
    "result": []
  },
  {
    "postal": "K2M4P5",
    "result": []
  },
  {
    "postal": "K2M7B2",
    "result": []
  },
  {
    "postal": "K2M0R2",
    "result": []
  },
  {
    "postal": "K2M4M4",
    "result": []
  },
  {
    "postal": "K2M7M4",
    "result": []
  },
  {
    "postal": "K2M9S7",
    "result": []
  },
  {
    "postal": "K2M5Z7",
    "result": []
  },
  {
    "postal": "K2M7J7",
    "result": []
  },
  {
    "postal": "K2M8R8",
    "result": []
  },
  {
    "postal": "K2M9X1",
    "result": []
  },
  {
    "postal": "K2M5M9",
    "result": []
  },
  {
    "postal": "K2M9B4",
    "result": []
  },
  {
    "postal": "K2M0L9",
    "result": [
      {
        "electoralDistricts": [
          {
            "election": null,
            "id": 43,
            "name": "Kanata—Carleton"
          }
        ],
        "pollDivisionIds": [
          10138965
        ],
        "postalCode": "K2M0L9",
        "streetName": "FOXLIGHT",
        "streetDirectionId": null,
        "streetTypeId": "CIR",
        "placeName": "KANATA",
        "streetNameDisplayText": "FOXLIGHT CIR, KANATA"
      }
    ]
  },
  {
    "postal": "K2M9G4",
    "result": []
  },
  {
    "postal": "K2M1J4",
    "result": []
  },
  {
    "postal": "K2M0W6",
    "result": []
  }
]
