[
  {
    "postal": "L9G9J6",
    "result": []
  },
  {
    "postal": "L9G9Z5",
    "result": []
  },
  {
    "postal": "L9G7H8",
    "result": []
  },
  {
    "postal": "L9G0P6",
    "result": []
  },
  {
    "postal": "L9G0S7",
    "result": []
  },
  {
    "postal": "L9G8B9",
    "result": []
  },
  {
    "postal": "L9G2A6",
    "result": [
      {
        "electoralDistricts": [
          {
            "election": null,
            "id": 39,
            "name": "Hamilton West—Ancaster—Dundas"
          }
        ],
        "pollDivisionIds": [
          10135280
        ],
        "postalCode": "L9G2A6",
        "streetName": "VALLEYVIEW",
        "streetDirectionId": null,
        "streetTypeId": "DR",
        "placeName": "ANCASTER",
        "streetNameDisplayText": "VALLEYVIEW DR, ANCASTER"
      }
    ]
  },
  {
    "postal": "L9G7V2",
    "result": []
  },
  {
    "postal": "L9G9P4",
    "result": []
  },
  {
    "postal": "L9G6G0",
    "result": []
  },
  {
    "postal": "L9G2K0",
    "result": []
  },
  {
    "postal": "L9G7N6",
    "result": []
  },
  {
    "postal": "L9G5R3",
    "result": []
  },
  {
    "postal": "L9G7K0",
    "result": []
  },
  {
    "postal": "L9G3R2",
    "result": [
      {
        "electoralDistricts": [
          {
            "election": null,
            "id": 39,
            "name": "Hamilton West—Ancaster—Dundas"
          }
        ],
        "pollDivisionIds": [
          10135283
        ],
        "postalCode": "L9G3R2",
        "streetName": "TOMAHAWK",
        "streetDirectionId": null,
        "streetTypeId": "CRES",
        "placeName": "ANCASTER",
        "streetNameDisplayText": "TOMAHAWK CRES, ANCASTER"
      }
    ]
  },
  {
    "postal": "L9G0J1",
    "result": []
  },
  {
    "postal": "L9G0B0",
    "result": []
  },
  {
    "postal": "L9G5Z2",
    "result": []
  },
  {
    "postal": "L9G7P3",
    "result": []
  },
  {
    "postal": "L9G2K3",
    "result": [
      {
        "electoralDistricts": [
          {
            "election": null,
            "id": 39,
            "name": "Hamilton West—Ancaster—Dundas"
          }
        ],
        "pollDivisionIds": [
          10135282
        ],
        "postalCode": "L9G2K3",
        "streetName": "MAPLEDENE",
        "streetDirectionId": null,
        "streetTypeId": "DR",
        "placeName": "ANCASTER",
        "streetNameDisplayText": "MAPLEDENE DR, ANCASTER"
      }
    ]
  },
  {
    "postal": "L9G7Y6",
    "result": []
  },
  {
    "postal": "L9G1L9",
    "result": [
      {
        "electoralDistricts": [
          {
            "election": null,
            "id": 39,
            "name": "Hamilton West—Ancaster—Dundas"
          }
        ],
        "pollDivisionIds": [
          10135270
        ],
        "postalCode": "L9G1L9",
        "streetName": "SULPHUR SPRINGS",
        "streetDirectionId": null,
        "streetTypeId": "RD",
        "placeName": "ANCASTER",
        "streetNameDisplayText": "SULPHUR SPRINGS RD, ANCASTER"
      }
    ]
  },
  {
    "postal": "L9G8T0",
    "result": []
  },
  {
    "postal": "L9G3K8",
    "result": [
      {
        "electoralDistricts": [
          {
            "election": null,
            "id": 39,
            "name": "Hamilton West—Ancaster—Dundas"
          }
        ],
        "pollDivisionIds": [
          10135280
        ],
        "postalCode": "L9G3K8",
        "streetName": "JERSEYVILLE",
        "streetDirectionId": "W",
        "streetTypeId": "RD",
        "placeName": "ANCASTER",
        "streetNameDisplayText": "JERSEYVILLE RD W, ANCASTER"
      }
    ]
  },
  {
    "postal": "L9G5W9",
    "result": []
  },
  {
    "postal": "L9G6T9",
    "result": []
  },
  {
    "postal": "L9G4H1",
    "result": [
      {
        "electoralDistricts": [
          {
            "election": null,
            "id": 39,
            "name": "Hamilton West—Ancaster—Dundas"
          }
        ],
        "pollDivisionIds": [
          10135273
        ],
        "postalCode": "L9G4H1",
        "streetName": "BROOKVIEW",
        "streetDirectionId": null,
        "streetTypeId": "CRT",
        "placeName": "ANCASTER",
        "streetNameDisplayText": "BROOKVIEW CRT, ANCASTER"
      }
    ]
  },
  {
    "postal": "L9G7A2",
    "result": []
  },
  {
    "postal": "L9G5G0",
    "result": []
  },
  {
    "postal": "L9G8V5",
    "result": []
  },
  {
    "postal": "L9G2Y8",
    "result": [
      {
        "electoralDistricts": [
          {
            "election": null,
            "id": 39,
            "name": "Hamilton West—Ancaster—Dundas"
          }
        ],
        "pollDivisionIds": [
          10135270
        ],
        "postalCode": "L9G2Y8",
        "streetName": "CLARENDON",
        "streetDirectionId": null,
        "streetTypeId": "DR",
        "placeName": "ANCASTER",
        "streetNameDisplayText": "CLARENDON DR, ANCASTER"
      }
    ]
  },
  {
    "postal": "L9G2B6",
    "result": [
      {
        "electoralDistricts": [
          {
            "election": null,
            "id": 39,
            "name": "Hamilton West—Ancaster—Dundas"
          }
        ],
        "pollDivisionIds": [
          10135273
        ],
        "postalCode": "L9G2B6",
        "streetName": "WILSON",
        "streetDirectionId": "E",
        "streetTypeId": "ST",
        "placeName": "ANCASTER",
        "streetNameDisplayText": "WILSON ST E, ANCASTER"
      }
    ]
  },
  {
    "postal": "L9G4W8",
    "result": []
  },
  {
    "postal": "L9G8H7",
    "result": []
  },
  {
    "postal": "L9G5P1",
    "result": []
  },
  {
    "postal": "L9G2B8",
    "result": [
      {
        "electoralDistricts": [
          {
            "election": null,
            "id": 39,
            "name": "Hamilton West—Ancaster—Dundas"
          }
        ],
        "pollDivisionIds": [
          10135273
        ],
        "postalCode": "L9G2B8",
        "streetName": "WILSON",
        "streetDirectionId": "E",
        "streetTypeId": "ST",
        "placeName": "ANCASTER",
        "streetNameDisplayText": "WILSON ST E, ANCASTER"
      }
    ]
  },
  {
    "postal": "L9G0P2",
    "result": []
  },
  {
    "postal": "L9G9M1",
    "result": []
  },
  {
    "postal": "L9G3G0",
    "result": []
  },
  {
    "postal": "L9G9Z2",
    "result": []
  },
  {
    "postal": "L9G2A0",
    "result": []
  },
  {
    "postal": "L9G6Y0",
    "result": []
  },
  {
    "postal": "L9G2Z8",
    "result": [
      {
        "electoralDistricts": [
          {
            "election": null,
            "id": 39,
            "name": "Hamilton West—Ancaster—Dundas"
          }
        ],
        "pollDivisionIds": [
          10135270
        ],
        "postalCode": "L9G2Z8",
        "streetName": "LODOR",
        "streetDirectionId": null,
        "streetTypeId": "ST",
        "placeName": "ANCASTER",
        "streetNameDisplayText": "LODOR ST, ANCASTER"
      }
    ]
  },
  {
    "postal": "L9G7Y3",
    "result": []
  },
  {
    "postal": "L9G6Z5",
    "result": []
  },
  {
    "postal": "L9G6E0",
    "result": []
  },
  {
    "postal": "L9G9B7",
    "result": []
  },
  {
    "postal": "L9G9S5",
    "result": []
  },
  {
    "postal": "L9G3X3",
    "result": [
      {
        "electoralDistricts": [
          {
            "election": null,
            "id": 39,
            "name": "Hamilton West—Ancaster—Dundas"
          }
        ],
        "pollDivisionIds": [
          10135270
        ],
        "postalCode": "L9G3X3",
        "streetName": "HIGHVALLEY",
        "streetDirectionId": null,
        "streetTypeId": "RD",
        "placeName": "ANCASTER",
        "streetNameDisplayText": "HIGHVALLEY RD, ANCASTER"
      }
    ]
  },
  {
    "postal": "L9G7R5",
    "result": []
  },
  {
    "postal": "L9G2X3",
    "result": [
      {
        "electoralDistricts": [
          {
            "election": null,
            "id": 39,
            "name": "Hamilton West—Ancaster—Dundas"
          }
        ],
        "pollDivisionIds": [
          10135283
        ],
        "postalCode": "L9G2X3",
        "streetName": "MOHAWK",
        "streetDirectionId": null,
        "streetTypeId": "RD",
        "placeName": "ANCASTER",
        "streetNameDisplayText": "MOHAWK RD, ANCASTER"
      }
    ]
  },
  {
    "postal": "L9G8Z9",
    "result": []
  },
  {
    "postal": "L9G0N4",
    "result": []
  },
  {
    "postal": "L9G1K1",
    "result": [
      {
        "electoralDistricts": [
          {
            "election": null,
            "id": 39,
            "name": "Hamilton West—Ancaster—Dundas"
          }
        ],
        "pollDivisionIds": [
          10135273
        ],
        "postalCode": "L9G1K1",
        "streetName": "JERSEYVILLE",
        "streetDirectionId": "E",
        "streetTypeId": "RD",
        "placeName": "ANCASTER",
        "streetNameDisplayText": "JERSEYVILLE RD E, ANCASTER"
      }
    ]
  },
  {
    "postal": "L9G1S3",
    "result": [
      {
        "electoralDistricts": [
          {
            "election": null,
            "id": 39,
            "name": "Hamilton West—Ancaster—Dundas"
          }
        ],
        "pollDivisionIds": [
          10135281
        ],
        "postalCode": "L9G1S3",
        "streetName": "NAKOMA",
        "streetDirectionId": null,
        "streetTypeId": "RD",
        "placeName": "ANCASTER",
        "streetNameDisplayText": "NAKOMA RD, ANCASTER"
      }
    ]
  },
  {
    "postal": "L9G6M4",
    "result": []
  },
  {
    "postal": "L9G9A9",
    "result": []
  },
  {
    "postal": "L9G9Z9",
    "result": []
  },
  {
    "postal": "L9G6T4",
    "result": []
  },
  {
    "postal": "L9G0B2",
    "result": [
      {
        "electoralDistricts": [
          {
            "election": null,
            "id": 39,
            "name": "Hamilton West—Ancaster—Dundas"
          }
        ],
        "pollDivisionIds": [
          10135288
        ],
        "postalCode": "L9G0B2",
        "streetName": "VALRIDGE",
        "streetDirectionId": null,
        "streetTypeId": "CRT",
        "placeName": "ANCASTER",
        "streetNameDisplayText": "VALRIDGE CRT, ANCASTER"
      },
      {
        "electoralDistricts": [
          {
            "election": null,
            "id": 39,
            "name": "Hamilton West—Ancaster—Dundas"
          }
        ],
        "pollDivisionIds": [
          10135280
        ],
        "postalCode": "L9G0B2",
        "streetName": "VALRIDGE",
        "streetDirectionId": null,
        "streetTypeId": "DR",
        "placeName": "ANCASTER",
        "streetNameDisplayText": "VALRIDGE DR, ANCASTER"
      }
    ]
  },
  {
    "postal": "L9G2L9",
    "result": [
      {
        "electoralDistricts": [
          {
            "election": null,
            "id": 39,
            "name": "Hamilton West—Ancaster—Dundas"
          }
        ],
        "pollDivisionIds": [
          10135282
        ],
        "postalCode": "L9G2L9",
        "streetName": "ROBINA",
        "streetDirectionId": null,
        "streetTypeId": "RD",
        "placeName": "ANCASTER",
        "streetNameDisplayText": "ROBINA RD, ANCASTER"
      }
    ]
  },
  {
    "postal": "L9G8K9",
    "result": []
  },
  {
    "postal": "L9G2H9",
    "result": [
      {
        "electoralDistricts": [
          {
            "election": null,
            "id": 39,
            "name": "Hamilton West—Ancaster—Dundas"
          }
        ],
        "pollDivisionIds": [
          10135289
        ],
        "postalCode": "L9G2H9",
        "streetName": "MILLER",
        "streetDirectionId": null,
        "streetTypeId": "DR",
        "placeName": "ANCASTER",
        "streetNameDisplayText": "MILLER DR, ANCASTER"
      }
    ]
  },
  {
    "postal": "L9G3Z6",
    "result": [
      {
        "electoralDistricts": [
          {
            "election": null,
            "id": 39,
            "name": "Hamilton West—Ancaster—Dundas"
          }
        ],
        "pollDivisionIds": [
          10135273
        ],
        "postalCode": "L9G3Z6",
        "streetName": "LLOYMINN",
        "streetDirectionId": null,
        "streetTypeId": "AVE",
        "placeName": "ANCASTER",
        "streetNameDisplayText": "LLOYMINN AVE, ANCASTER"
      }
    ]
  },
  {
    "postal": "L9G3B0",
    "result": []
  },
  {
    "postal": "L9G2H8",
    "result": [
      {
        "electoralDistricts": [
          {
            "election": null,
            "id": 39,
            "name": "Hamilton West—Ancaster—Dundas"
          }
        ],
        "pollDivisionIds": [
          10135282
        ],
        "postalCode": "L9G2H8",
        "streetName": "HATTON",
        "streetDirectionId": null,
        "streetTypeId": "DR",
        "placeName": "ANCASTER",
        "streetNameDisplayText": "HATTON DR, ANCASTER"
      }
    ]
  },
  {
    "postal": "L9G3X2",
    "result": [
      {
        "electoralDistricts": [
          {
            "election": null,
            "id": 39,
            "name": "Hamilton West—Ancaster—Dundas"
          }
        ],
        "pollDivisionIds": [
          10135273
        ],
        "postalCode": "L9G3X2",
        "streetName": "CHATTERSON",
        "streetDirectionId": null,
        "streetTypeId": "DR",
        "placeName": "ANCASTER",
        "streetNameDisplayText": "CHATTERSON DR, ANCASTER"
      }
    ]
  },
  {
    "postal": "L9G2E9",
    "result": [
      {
        "electoralDistricts": [
          {
            "election": null,
            "id": 39,
            "name": "Hamilton West—Ancaster—Dundas"
          }
        ],
        "pollDivisionIds": [
          10135282
        ],
        "postalCode": "L9G2E9",
        "streetName": "BROOKS",
        "streetDirectionId": null,
        "streetTypeId": "RD",
        "placeName": "ANCASTER",
        "streetNameDisplayText": "BROOKS RD, ANCASTER"
      },
      {
        "electoralDistricts": [
          {
            "election": null,
            "id": 39,
            "name": "Hamilton West—Ancaster—Dundas"
          }
        ],
        "pollDivisionIds": [
          10135282
        ],
        "postalCode": "L9G2E9",
        "streetName": "ROBINA",
        "streetDirectionId": null,
        "streetTypeId": "RD",
        "placeName": "ANCASTER",
        "streetNameDisplayText": "ROBINA RD, ANCASTER"
      }
    ]
  },
  {
    "postal": "L9G9P6",
    "result": []
  },
  {
    "postal": "L9G9E2",
    "result": []
  },
  {
    "postal": "L9G9H2",
    "result": []
  },
  {
    "postal": "L9G1S8",
    "result": [
      {
        "electoralDistricts": [
          {
            "election": null,
            "id": 39,
            "name": "Hamilton West—Ancaster—Dundas"
          }
        ],
        "pollDivisionIds": [
          10135281
        ],
        "postalCode": "L9G1S8",
        "streetName": "NAKOMA",
        "streetDirectionId": null,
        "streetTypeId": "RD",
        "placeName": "ANCASTER",
        "streetNameDisplayText": "NAKOMA RD, ANCASTER"
      }
    ]
  },
  {
    "postal": "L9G3M6",
    "result": [
      {
        "electoralDistricts": [
          {
            "election": null,
            "id": 39,
            "name": "Hamilton West—Ancaster—Dundas"
          }
        ],
        "pollDivisionIds": [
          10135270
        ],
        "postalCode": "L9G3M6",
        "streetName": "BROAD LEAF",
        "streetDirectionId": null,
        "streetTypeId": "CRES",
        "placeName": "ANCASTER",
        "streetNameDisplayText": "BROAD LEAF CRES, ANCASTER"
      }
    ]
  },
  {
    "postal": "L9G6Z8",
    "result": []
  },
  {
    "postal": "L9G4J2",
    "result": []
  },
  {
    "postal": "L9G9Y1",
    "result": []
  },
  {
    "postal": "L9G8V6",
    "result": []
  },
  {
    "postal": "L9G6B2",
    "result": []
  },
  {
    "postal": "L9G1P8",
    "result": [
      {
        "electoralDistricts": [
          {
            "election": null,
            "id": 39,
            "name": "Hamilton West—Ancaster—Dundas"
          }
        ],
        "pollDivisionIds": [
          10135281
        ],
        "postalCode": "L9G1P8",
        "streetName": "SIOUX",
        "streetDirectionId": null,
        "streetTypeId": "RD",
        "placeName": "ANCASTER",
        "streetNameDisplayText": "SIOUX RD, ANCASTER"
      }
    ]
  },
  {
    "postal": "L9G0V8",
    "result": []
  },
  {
    "postal": "L9G4Y0",
    "result": []
  },
  {
    "postal": "L9G2T4",
    "result": [
      {
        "electoralDistricts": [
          {
            "election": null,
            "id": 39,
            "name": "Hamilton West—Ancaster—Dundas"
          }
        ],
        "pollDivisionIds": [
          10135290
        ],
        "postalCode": "L9G2T4",
        "streetName": "HARMONY HALL",
        "streetDirectionId": null,
        "streetTypeId": "DR",
        "placeName": "ANCASTER",
        "streetNameDisplayText": "HARMONY HALL DR, ANCASTER"
      }
    ]
  },
  {
    "postal": "L9G2S3",
    "result": [
      {
        "electoralDistricts": [
          {
            "election": null,
            "id": 39,
            "name": "Hamilton West—Ancaster—Dundas"
          }
        ],
        "pollDivisionIds": [
          10135283
        ],
        "postalCode": "L9G2S3",
        "streetName": "HALSON",
        "streetDirectionId": null,
        "streetTypeId": "ST",
        "placeName": "ANCASTER",
        "streetNameDisplayText": "HALSON ST, ANCASTER"
      }
    ]
  },
  {
    "postal": "L9G0K0",
    "result": []
  },
  {
    "postal": "L9G5N1",
    "result": []
  },
  {
    "postal": "L9G7T0",
    "result": []
  },
  {
    "postal": "L9G9N2",
    "result": []
  },
  {
    "postal": "L9G5L1",
    "result": []
  },
  {
    "postal": "L9G7G5",
    "result": []
  },
  {
    "postal": "L9G6K2",
    "result": []
  },
  {
    "postal": "L9G6P9",
    "result": []
  },
  {
    "postal": "L9G0E6",
    "result": []
  },
  {
    "postal": "L9G8R9",
    "result": []
  },
  {
    "postal": "L9G3G9",
    "result": [
      {
        "electoralDistricts": [
          {
            "election": null,
            "id": 39,
            "name": "Hamilton West—Ancaster—Dundas"
          }
        ],
        "pollDivisionIds": [
          10135270
        ],
        "postalCode": "L9G3G9",
        "streetName": "HAIG",
        "streetDirectionId": null,
        "streetTypeId": "RD",
        "placeName": "ANCASTER",
        "streetNameDisplayText": "HAIG RD, ANCASTER"
      }
    ]
  },
  {
    "postal": "L9G0V7",
    "result": []
  },
  {
    "postal": "L9G2Z1",
    "result": [
      {
        "electoralDistricts": [
          {
            "election": null,
            "id": 39,
            "name": "Hamilton West—Ancaster—Dundas"
          }
        ],
        "pollDivisionIds": [
          10135270
        ],
        "postalCode": "L9G2Z1",
        "streetName": "CLARENDON",
        "streetDirectionId": null,
        "streetTypeId": "DR",
        "placeName": "ANCASTER",
        "streetNameDisplayText": "CLARENDON DR, ANCASTER"
      }
    ]
  },
  {
    "postal": "L9G7N1",
    "result": []
  },
  {
    "postal": "L9G3C6",
    "result": [
      {
        "electoralDistricts": [
          {
            "election": null,
            "id": 39,
            "name": "Hamilton West—Ancaster—Dundas"
          }
        ],
        "pollDivisionIds": [
          10135283
        ],
        "postalCode": "L9G3C6",
        "streetName": "ALGONQUIN",
        "streetDirectionId": null,
        "streetTypeId": "AVE",
        "placeName": "ANCASTER",
        "streetNameDisplayText": "ALGONQUIN AVE, ANCASTER"
      }
    ]
  },
  {
    "postal": "L9G4M1",
    "result": [
      {
        "electoralDistricts": [
          {
            "election": null,
            "id": 39,
            "name": "Hamilton West—Ancaster—Dundas"
          }
        ],
        "pollDivisionIds": [
          10135283
        ],
        "postalCode": "L9G4M1",
        "streetName": "CHANCERY",
        "streetDirectionId": null,
        "streetTypeId": "DR",
        "placeName": "ANCASTER",
        "streetNameDisplayText": "CHANCERY DR, ANCASTER"
      }
    ]
  },
  {
    "postal": "L9G9K2",
    "result": []
  },
  {
    "postal": "L9G9S6",
    "result": []
  },
  {
    "postal": "L9G4X1",
    "result": [
      {
        "electoralDistricts": [
          {
            "election": null,
            "id": 39,
            "name": "Hamilton West—Ancaster—Dundas"
          }
        ],
        "pollDivisionIds": [
          10135259
        ],
        "postalCode": "L9G4X1",
        "streetName": "MINERAL SPRINGS",
        "streetDirectionId": null,
        "streetTypeId": "RD",
        "placeName": "ANCASTER",
        "streetNameDisplayText": "MINERAL SPRINGS RD, ANCASTER"
      }
    ]
  },
  {
    "postal": "L9G8W2",
    "result": []
  },
  {
    "postal": "L9G7N2",
    "result": []
  },
  {
    "postal": "L9G8S3",
    "result": []
  },
  {
    "postal": "L9G4V0",
    "result": []
  },
  {
    "postal": "L9G6W4",
    "result": []
  },
  {
    "postal": "L9G5M1",
    "result": []
  },
  {
    "postal": "L9G0S4",
    "result": []
  },
  {
    "postal": "L9G5X6",
    "result": []
  },
  {
    "postal": "L9G8L5",
    "result": []
  },
  {
    "postal": "L9G5M8",
    "result": []
  },
  {
    "postal": "L9G2G3",
    "result": [
      {
        "electoralDistricts": [
          {
            "election": null,
            "id": 39,
            "name": "Hamilton West—Ancaster—Dundas"
          }
        ],
        "pollDivisionIds": [
          10135282
        ],
        "postalCode": "L9G2G3",
        "streetName": "CALVIN",
        "streetDirectionId": null,
        "streetTypeId": "ST",
        "placeName": "ANCASTER",
        "streetNameDisplayText": "CALVIN ST, ANCASTER"
      }
    ]
  },
  {
    "postal": "L9G8E4",
    "result": []
  },
  {
    "postal": "L9G7S9",
    "result": []
  },
  {
    "postal": "L9G1K3",
    "result": [
      {
        "electoralDistricts": [
          {
            "election": null,
            "id": 39,
            "name": "Hamilton West—Ancaster—Dundas"
          }
        ],
        "pollDivisionIds": [
          10135273
        ],
        "postalCode": "L9G1K3",
        "streetName": "JERSEYVILLE",
        "streetDirectionId": "E",
        "streetTypeId": "RD",
        "placeName": "ANCASTER",
        "streetNameDisplayText": "JERSEYVILLE RD E, ANCASTER"
      }
    ]
  },
  {
    "postal": "L9G4E1",
    "result": [
      {
        "electoralDistricts": [
          {
            "election": null,
            "id": 39,
            "name": "Hamilton West—Ancaster—Dundas"
          }
        ],
        "pollDivisionIds": [
          10135270
        ],
        "postalCode": "L9G4E1",
        "streetName": "DEERVALLEY",
        "streetDirectionId": null,
        "streetTypeId": "RD",
        "placeName": "ANCASTER",
        "streetNameDisplayText": "DEERVALLEY RD, ANCASTER"
      }
    ]
  },
  {
    "postal": "L9G4R2",
    "result": [
      {
        "electoralDistricts": [
          {
            "election": null,
            "id": 39,
            "name": "Hamilton West—Ancaster—Dundas"
          }
        ],
        "pollDivisionIds": [
          10135281
        ],
        "postalCode": "L9G4R2",
        "streetName": "DEVONSHIRE",
        "streetDirectionId": null,
        "streetTypeId": "TERR",
        "placeName": "ANCASTER",
        "streetNameDisplayText": "DEVONSHIRE TERR, ANCASTER"
      }
    ]
  },
  {
    "postal": "L9G6T0",
    "result": []
  },
  {
    "postal": "L9G3K5",
    "result": [
      {
        "electoralDistricts": [
          {
            "election": null,
            "id": 39,
            "name": "Hamilton West—Ancaster—Dundas"
          }
        ],
        "pollDivisionIds": [
          10135283
        ],
        "postalCode": "L9G3K5",
        "streetName": "GOLF LINKS",
        "streetDirectionId": null,
        "streetTypeId": "RD",
        "placeName": "ANCASTER",
        "streetNameDisplayText": "GOLF LINKS RD, ANCASTER"
      }
    ]
  },
  {
    "postal": "L9G3S3",
    "result": [
      {
        "electoralDistricts": [
          {
            "election": null,
            "id": 39,
            "name": "Hamilton West—Ancaster—Dundas"
          }
        ],
        "pollDivisionIds": [
          10135281
        ],
        "postalCode": "L9G3S3",
        "streetName": "AMBERLY",
        "streetDirectionId": null,
        "streetTypeId": "BLVD",
        "placeName": "ANCASTER",
        "streetNameDisplayText": "AMBERLY BLVD, ANCASTER"
      }
    ]
  },
  {
    "postal": "L9G3L4",
    "result": []
  },
  {
    "postal": "L9G9Y2",
    "result": []
  },
  {
    "postal": "L9G1E0",
    "result": []
  },
  {
    "postal": "L9G9A4",
    "result": []
  },
  {
    "postal": "L9G1L3",
    "result": [
      {
        "electoralDistricts": [
          {
            "election": null,
            "id": 39,
            "name": "Hamilton West—Ancaster—Dundas"
          }
        ],
        "pollDivisionIds": [
          10135273
        ],
        "postalCode": "L9G1L3",
        "streetName": "JUDITH",
        "streetDirectionId": null,
        "streetTypeId": "CRES",
        "placeName": "ANCASTER",
        "streetNameDisplayText": "JUDITH CRES, ANCASTER"
      }
    ]
  },
  {
    "postal": "L9G6N1",
    "result": []
  },
  {
    "postal": "L9G6G7",
    "result": []
  },
  {
    "postal": "L9G7W1",
    "result": []
  },
  {
    "postal": "L9G4M6",
    "result": [
      {
        "electoralDistricts": [
          {
            "election": null,
            "id": 39,
            "name": "Hamilton West—Ancaster—Dundas"
          }
        ],
        "pollDivisionIds": [
          10135283
        ],
        "postalCode": "L9G4M6",
        "streetName": "CHARTERHOUSE",
        "streetDirectionId": null,
        "streetTypeId": "CRES",
        "placeName": "ANCASTER",
        "streetNameDisplayText": "CHARTERHOUSE CRES, ANCASTER"
      },
      {
        "electoralDistricts": [
          {
            "election": null,
            "id": 39,
            "name": "Hamilton West—Ancaster—Dundas"
          }
        ],
        "pollDivisionIds": [
          10135283
        ],
        "postalCode": "L9G4M6",
        "streetName": "ORTON",
        "streetDirectionId": null,
        "streetTypeId": "PL",
        "placeName": "ANCASTER",
        "streetNameDisplayText": "ORTON PL, ANCASTER"
      }
    ]
  },
  {
    "postal": "L9G1K0",
    "result": []
  },
  {
    "postal": "L9G3E2",
    "result": [
      {
        "electoralDistricts": [
          {
            "election": null,
            "id": 39,
            "name": "Hamilton West—Ancaster—Dundas"
          }
        ],
        "pollDivisionIds": [
          10135270
        ],
        "postalCode": "L9G3E2",
        "streetName": "HENDRY",
        "streetDirectionId": null,
        "streetTypeId": "LANE",
        "placeName": "ANCASTER",
        "streetNameDisplayText": "HENDRY LANE, ANCASTER"
      }
    ]
  },
  {
    "postal": "L9G5H4",
    "result": []
  },
  {
    "postal": "L9G1K7",
    "result": [
      {
        "electoralDistricts": [
          {
            "election": null,
            "id": 39,
            "name": "Hamilton West—Ancaster—Dundas"
          }
        ],
        "pollDivisionIds": [
          10135273
        ],
        "postalCode": "L9G1K7",
        "streetName": "IRMA",
        "streetDirectionId": null,
        "streetTypeId": "CRT",
        "placeName": "ANCASTER",
        "streetNameDisplayText": "IRMA CRT, ANCASTER"
      }
    ]
  },
  {
    "postal": "L9G0H0",
    "result": []
  },
  {
    "postal": "L9G0J3",
    "result": []
  },
  {
    "postal": "L9G1X6",
    "result": [
      {
        "electoralDistricts": [
          {
            "election": null,
            "id": 39,
            "name": "Hamilton West—Ancaster—Dundas"
          }
        ],
        "pollDivisionIds": [
          10135281
        ],
        "postalCode": "L9G1X6",
        "streetName": "CRESTWOOD",
        "streetDirectionId": null,
        "streetTypeId": "ST",
        "placeName": "ANCASTER",
        "streetNameDisplayText": "CRESTWOOD ST, ANCASTER"
      }
    ]
  },
  {
    "postal": "L9G2Z6",
    "result": [
      {
        "electoralDistricts": [
          {
            "election": null,
            "id": 39,
            "name": "Hamilton West—Ancaster—Dundas"
          }
        ],
        "pollDivisionIds": [
          10135270
        ],
        "postalCode": "L9G2Z6",
        "streetName": "LODOR",
        "streetDirectionId": null,
        "streetTypeId": "ST",
        "placeName": "ANCASTER",
        "streetNameDisplayText": "LODOR ST, ANCASTER"
      }
    ]
  },
  {
    "postal": "L9G4R9",
    "result": [
      {
        "electoralDistricts": [
          {
            "election": null,
            "id": 39,
            "name": "Hamilton West—Ancaster—Dundas"
          }
        ],
        "pollDivisionIds": [
          10135273
        ],
        "postalCode": "L9G4R9",
        "streetName": "FOXRIDGE",
        "streetDirectionId": null,
        "streetTypeId": "DR",
        "placeName": "ANCASTER",
        "streetNameDisplayText": "FOXRIDGE DR, ANCASTER"
      },
      {
        "electoralDistricts": [
          {
            "election": null,
            "id": 39,
            "name": "Hamilton West—Ancaster—Dundas"
          }
        ],
        "pollDivisionIds": [
          10135273
        ],
        "postalCode": "L9G4R9",
        "streetName": "SHEPHERD",
        "streetDirectionId": null,
        "streetTypeId": "GREEN",
        "placeName": "ANCASTER",
        "streetNameDisplayText": "SHEPHERD GREEN, ANCASTER"
      }
    ]
  },
  {
    "postal": "L9G0W8",
    "result": []
  },
  {
    "postal": "L9G1L4",
    "result": [
      {
        "electoralDistricts": [
          {
            "election": null,
            "id": 39,
            "name": "Hamilton West—Ancaster—Dundas"
          }
        ],
        "pollDivisionIds": [
          10135273
        ],
        "postalCode": "L9G1L4",
        "streetName": "JUDITH",
        "streetDirectionId": null,
        "streetTypeId": "CRES",
        "placeName": "ANCASTER",
        "streetNameDisplayText": "JUDITH CRES, ANCASTER"
      }
    ]
  },
  {
    "postal": "L9G0C8",
    "result": [
      {
        "electoralDistricts": [
          {
            "election": null,
            "id": 39,
            "name": "Hamilton West—Ancaster—Dundas"
          }
        ],
        "pollDivisionIds": [
          10135289
        ],
        "postalCode": "L9G0C8",
        "streetName": "LORUPE",
        "streetDirectionId": null,
        "streetTypeId": "CRT",
        "placeName": "ANCASTER",
        "streetNameDisplayText": "LORUPE CRT, ANCASTER"
      }
    ]
  },
  {
    "postal": "L9G9X7",
    "result": []
  },
  {
    "postal": "L9G4T1",
    "result": [
      {
        "electoralDistricts": [
          {
            "election": null,
            "id": 39,
            "name": "Hamilton West—Ancaster—Dundas"
          }
        ],
        "pollDivisionIds": [
          10135280
        ],
        "postalCode": "L9G4T1",
        "streetName": "GALLEY",
        "streetDirectionId": null,
        "streetTypeId": "RD",
        "placeName": "ANCASTER",
        "streetNameDisplayText": "GALLEY RD, ANCASTER"
      }
    ]
  },
  {
    "postal": "L9G0M0",
    "result": []
  },
  {
    "postal": "L9G6A2",
    "result": []
  },
  {
    "postal": "L9G9S8",
    "result": []
  },
  {
    "postal": "L9G9T4",
    "result": []
  },
  {
    "postal": "L9G9Y4",
    "result": []
  },
  {
    "postal": "L9G6G5",
    "result": []
  },
  {
    "postal": "L9G6H9",
    "result": []
  },
  {
    "postal": "L9G2P3",
    "result": [
      {
        "electoralDistricts": [
          {
            "election": null,
            "id": 39,
            "name": "Hamilton West—Ancaster—Dundas"
          }
        ],
        "pollDivisionIds": [
          10135283
        ],
        "postalCode": "L9G2P3",
        "streetName": "DORVAL",
        "streetDirectionId": null,
        "streetTypeId": "DR",
        "placeName": "ANCASTER",
        "streetNameDisplayText": "DORVAL DR, ANCASTER"
      }
    ]
  },
  {
    "postal": "L9G1T6",
    "result": [
      {
        "electoralDistricts": [
          {
            "election": null,
            "id": 39,
            "name": "Hamilton West—Ancaster—Dundas"
          }
        ],
        "pollDivisionIds": [
          10135282
        ],
        "postalCode": "L9G1T6",
        "streetName": "OAKLEY",
        "streetDirectionId": null,
        "streetTypeId": "CRT",
        "placeName": "ANCASTER",
        "streetNameDisplayText": "OAKLEY CRT, ANCASTER"
      }
    ]
  },
  {
    "postal": "L9G4P6",
    "result": [
      {
        "electoralDistricts": [
          {
            "election": null,
            "id": 39,
            "name": "Hamilton West—Ancaster—Dundas"
          }
        ],
        "pollDivisionIds": [
          10135280
        ],
        "postalCode": "L9G4P6",
        "streetName": "MEADOWBROOK",
        "streetDirectionId": null,
        "streetTypeId": "DR",
        "placeName": "ANCASTER",
        "streetNameDisplayText": "MEADOWBROOK DR, ANCASTER"
      },
      {
        "electoralDistricts": [
          {
            "election": null,
            "id": 39,
            "name": "Hamilton West—Ancaster—Dundas"
          }
        ],
        "pollDivisionIds": [
          10135280
        ],
        "postalCode": "L9G4P6",
        "streetName": "SPEERS",
        "streetDirectionId": null,
        "streetTypeId": "RD",
        "placeName": "ANCASTER",
        "streetNameDisplayText": "SPEERS RD, ANCASTER"
      }
    ]
  },
  {
    "postal": "L9G3K1",
    "result": [
      {
        "electoralDistricts": [
          {
            "election": null,
            "id": 39,
            "name": "Hamilton West—Ancaster—Dundas"
          }
        ],
        "pollDivisionIds": [
          10135270
        ],
        "postalCode": "L9G3K1",
        "streetName": "MASSEY",
        "streetDirectionId": null,
        "streetTypeId": "DR",
        "placeName": "ANCASTER",
        "streetNameDisplayText": "MASSEY DR, ANCASTER"
      }
    ]
  },
  {
    "postal": "L9G6X4",
    "result": []
  },
  {
    "postal": "L9G4M8",
    "result": [
      {
        "electoralDistricts": [
          {
            "election": null,
            "id": 39,
            "name": "Hamilton West—Ancaster—Dundas"
          }
        ],
        "pollDivisionIds": [
          10135283
        ],
        "postalCode": "L9G4M8",
        "streetName": "ORTON",
        "streetDirectionId": null,
        "streetTypeId": "AVE",
        "placeName": "ANCASTER",
        "streetNameDisplayText": "ORTON AVE, ANCASTER"
      },
      {
        "electoralDistricts": [
          {
            "election": null,
            "id": 39,
            "name": "Hamilton West—Ancaster—Dundas"
          }
        ],
        "pollDivisionIds": [
          10135283
        ],
        "postalCode": "L9G4M8",
        "streetName": "ORTON",
        "streetDirectionId": null,
        "streetTypeId": "PL",
        "placeName": "ANCASTER",
        "streetNameDisplayText": "ORTON PL, ANCASTER"
      }
    ]
  },
  {
    "postal": "L9G2Y1",
    "result": [
      {
        "electoralDistricts": [
          {
            "election": null,
            "id": 39,
            "name": "Hamilton West—Ancaster—Dundas"
          }
        ],
        "pollDivisionIds": [
          10135270
        ],
        "postalCode": "L9G2Y1",
        "streetName": "ACADEMY",
        "streetDirectionId": null,
        "streetTypeId": "ST",
        "placeName": "ANCASTER",
        "streetNameDisplayText": "ACADEMY ST, ANCASTER"
      }
    ]
  },
  {
    "postal": "L9G6M1",
    "result": []
  },
  {
    "postal": "L9G5L8",
    "result": []
  },
  {
    "postal": "L9G3P6",
    "result": [
      {
        "electoralDistricts": [
          {
            "election": null,
            "id": 39,
            "name": "Hamilton West—Ancaster—Dundas"
          }
        ],
        "pollDivisionIds": [
          10135270
        ],
        "postalCode": "L9G3P6",
        "streetName": "LIME KILN",
        "streetDirectionId": null,
        "streetTypeId": "RD",
        "placeName": "ANCASTER",
        "streetNameDisplayText": "LIME KILN RD, ANCASTER"
      }
    ]
  },
  {
    "postal": "L9G9A5",
    "result": []
  },
  {
    "postal": "L9G7K1",
    "result": []
  },
  {
    "postal": "L9G3J4",
    "result": [
      {
        "electoralDistricts": [
          {
            "election": null,
            "id": 39,
            "name": "Hamilton West—Ancaster—Dundas"
          }
        ],
        "pollDivisionIds": [
          10135270
        ],
        "postalCode": "L9G3J4",
        "streetName": "OLD DUNDAS",
        "streetDirectionId": null,
        "streetTypeId": "RD",
        "placeName": "ANCASTER",
        "streetNameDisplayText": "OLD DUNDAS RD, ANCASTER"
      }
    ]
  },
  {
    "postal": "L9G5E7",
    "result": [
      {
        "electoralDistricts": [
          {
            "election": null,
            "id": 39,
            "name": "Hamilton West—Ancaster—Dundas"
          }
        ],
        "pollDivisionIds": [
          10135288
        ],
        "postalCode": "L9G5E7",
        "streetName": "HAMILTON",
        "streetDirectionId": null,
        "streetTypeId": "DR",
        "placeName": "ANCASTER",
        "streetNameDisplayText": "HAMILTON DR, ANCASTER"
      }
    ]
  },
  {
    "postal": "L9G3A7",
    "result": [
      {
        "electoralDistricts": [
          {
            "election": null,
            "id": 39,
            "name": "Hamilton West—Ancaster—Dundas"
          }
        ],
        "pollDivisionIds": [
          10135283
        ],
        "postalCode": "L9G3A7",
        "streetName": "HIAWATHA",
        "streetDirectionId": null,
        "streetTypeId": "BLVD",
        "placeName": "ANCASTER",
        "streetNameDisplayText": "HIAWATHA BLVD, ANCASTER"
      }
    ]
  },
  {
    "postal": "L9G1B9",
    "result": [
      {
        "electoralDistricts": [
          {
            "election": null,
            "id": 39,
            "name": "Hamilton West—Ancaster—Dundas"
          }
        ],
        "pollDivisionIds": [
          10135273
        ],
        "postalCode": "L9G1B9",
        "streetName": "BEVERLY",
        "streetDirectionId": null,
        "streetTypeId": "CRT",
        "placeName": "ANCASTER",
        "streetNameDisplayText": "BEVERLY CRT, ANCASTER"
      }
    ]
  },
  {
    "postal": "L9G9E8",
    "result": []
  },
  {
    "postal": "L9G1C9",
    "result": [
      {
        "electoralDistricts": [
          {
            "election": null,
            "id": 39,
            "name": "Hamilton West—Ancaster—Dundas"
          }
        ],
        "pollDivisionIds": [
          10135273
        ],
        "postalCode": "L9G1C9",
        "streetName": "CRESTVIEW",
        "streetDirectionId": null,
        "streetTypeId": "AVE",
        "placeName": "ANCASTER",
        "streetNameDisplayText": "CRESTVIEW AVE, ANCASTER"
      }
    ]
  },
  {
    "postal": "L9G3B5",
    "result": [
      {
        "electoralDistricts": [
          {
            "election": null,
            "id": 39,
            "name": "Hamilton West—Ancaster—Dundas"
          }
        ],
        "pollDivisionIds": [
          10135283
        ],
        "postalCode": "L9G3B5",
        "streetName": "IROQUOIS",
        "streetDirectionId": null,
        "streetTypeId": "AVE",
        "placeName": "ANCASTER",
        "streetNameDisplayText": "IROQUOIS AVE, ANCASTER"
      }
    ]
  },
  {
    "postal": "L9G8R0",
    "result": []
  },
  {
    "postal": "L9G3P2",
    "result": [
      {
        "electoralDistricts": [
          {
            "election": null,
            "id": 39,
            "name": "Hamilton West—Ancaster—Dundas"
          }
        ],
        "pollDivisionIds": [
          10135270
        ],
        "postalCode": "L9G3P2",
        "streetName": "BROAD LEAF",
        "streetDirectionId": null,
        "streetTypeId": "CRES",
        "placeName": "ANCASTER",
        "streetNameDisplayText": "BROAD LEAF CRES, ANCASTER"
      }
    ]
  },
  {
    "postal": "L9G5V4",
    "result": []
  },
  {
    "postal": "L9G4H0",
    "result": []
  },
  {
    "postal": "L9G4S7",
    "result": [
      {
        "electoralDistricts": [
          {
            "election": null,
            "id": 39,
            "name": "Hamilton West—Ancaster—Dundas"
          }
        ],
        "pollDivisionIds": [
          10135283,
          10135270
        ],
        "postalCode": "L9G4S7",
        "streetName": "MCNIVEN",
        "streetDirectionId": null,
        "streetTypeId": "RD",
        "placeName": "ANCASTER",
        "streetNameDisplayText": "MCNIVEN RD, ANCASTER"
      }
    ]
  },
  {
    "postal": "L9G6C2",
    "result": []
  },
  {
    "postal": "L9G8W3",
    "result": []
  },
  {
    "postal": "L9G4M5",
    "result": [
      {
        "electoralDistricts": [
          {
            "election": null,
            "id": 39,
            "name": "Hamilton West—Ancaster—Dundas"
          }
        ],
        "pollDivisionIds": [
          10135283
        ],
        "postalCode": "L9G4M5",
        "streetName": "CHARTERHOUSE",
        "streetDirectionId": null,
        "streetTypeId": "CRES",
        "placeName": "ANCASTER",
        "streetNameDisplayText": "CHARTERHOUSE CRES, ANCASTER"
      },
      {
        "electoralDistricts": [
          {
            "election": null,
            "id": 39,
            "name": "Hamilton West—Ancaster—Dundas"
          }
        ],
        "pollDivisionIds": [
          10135283
        ],
        "postalCode": "L9G4M5",
        "streetName": "SEYMOUR",
        "streetDirectionId": null,
        "streetTypeId": "DR",
        "placeName": "ANCASTER",
        "streetNameDisplayText": "SEYMOUR DR, ANCASTER"
      }
    ]
  },
  {
    "postal": "L9G5T1",
    "result": []
  },
  {
    "postal": "L9G3B3",
    "result": [
      {
        "electoralDistricts": [
          {
            "election": null,
            "id": 39,
            "name": "Hamilton West—Ancaster—Dundas"
          }
        ],
        "pollDivisionIds": [
          10135283
        ],
        "postalCode": "L9G3B3",
        "streetName": "CAYUGA",
        "streetDirectionId": null,
        "streetTypeId": "AVE",
        "placeName": "ANCASTER",
        "streetNameDisplayText": "CAYUGA AVE, ANCASTER"
      }
    ]
  },
  {
    "postal": "L9G6C6",
    "result": []
  },
  {
    "postal": "L9G7N8",
    "result": []
  },
  {
    "postal": "L9G2Y3",
    "result": [
      {
        "electoralDistricts": [
          {
            "election": null,
            "id": 39,
            "name": "Hamilton West—Ancaster—Dundas"
          }
        ],
        "pollDivisionIds": [
          10135270
        ],
        "postalCode": "L9G2Y3",
        "streetName": "LODOR",
        "streetDirectionId": null,
        "streetTypeId": "LANE",
        "placeName": "ANCASTER",
        "streetNameDisplayText": "LODOR LANE, ANCASTER"
      }
    ]
  },
  {
    "postal": "L9G2R6",
    "result": [
      {
        "electoralDistricts": [
          {
            "election": null,
            "id": 39,
            "name": "Hamilton West—Ancaster—Dundas"
          }
        ],
        "pollDivisionIds": [
          10135290
        ],
        "postalCode": "L9G2R6",
        "streetName": "ANNALEE",
        "streetDirectionId": null,
        "streetTypeId": "DR",
        "placeName": "ANCASTER",
        "streetNameDisplayText": "ANNALEE DR, ANCASTER"
      }
    ]
  },
  {
    "postal": "L9G7N3",
    "result": []
  },
  {
    "postal": "L9G8J2",
    "result": []
  },
  {
    "postal": "L9G6A9",
    "result": []
  },
  {
    "postal": "L9G3V2",
    "result": [
      {
        "electoralDistricts": [
          {
            "election": null,
            "id": 39,
            "name": "Hamilton West—Ancaster—Dundas"
          }
        ],
        "pollDivisionIds": [
          10135281
        ],
        "postalCode": "L9G3V2",
        "streetName": "AMBERLY",
        "streetDirectionId": null,
        "streetTypeId": "BLVD",
        "placeName": "ANCASTER",
        "streetNameDisplayText": "AMBERLY BLVD, ANCASTER"
      }
    ]
  },
  {
    "postal": "L9G2N3",
    "result": [
      {
        "electoralDistricts": [
          {
            "election": null,
            "id": 39,
            "name": "Hamilton West—Ancaster—Dundas"
          }
        ],
        "pollDivisionIds": [
          10135282
        ],
        "postalCode": "L9G2N3",
        "streetName": "WOODWORTH",
        "streetDirectionId": null,
        "streetTypeId": "DR",
        "placeName": "ANCASTER",
        "streetNameDisplayText": "WOODWORTH DR, ANCASTER"
      }
    ]
  },
  {
    "postal": "L9G1S5",
    "result": [
      {
        "electoralDistricts": [
          {
            "election": null,
            "id": 39,
            "name": "Hamilton West—Ancaster—Dundas"
          }
        ],
        "pollDivisionIds": [
          10135281
        ],
        "postalCode": "L9G1S5",
        "streetName": "NAKOMA",
        "streetDirectionId": null,
        "streetTypeId": "RD",
        "placeName": "ANCASTER",
        "streetNameDisplayText": "NAKOMA RD, ANCASTER"
      }
    ]
  },
  {
    "postal": "L9G4T7",
    "result": [
      {
        "electoralDistricts": [
          {
            "election": null,
            "id": 39,
            "name": "Hamilton West—Ancaster—Dundas"
          }
        ],
        "pollDivisionIds": [
          10135273
        ],
        "postalCode": "L9G4T7",
        "streetName": "LOVER'S",
        "streetDirectionId": null,
        "streetTypeId": "LANE",
        "placeName": "ANCASTER",
        "streetNameDisplayText": "LOVER'S LANE, ANCASTER"
      },
      {
        "electoralDistricts": [
          {
            "election": null,
            "id": 39,
            "name": "Hamilton West—Ancaster—Dundas"
          }
        ],
        "pollDivisionIds": [
          10135270,
          10135273
        ],
        "postalCode": "L9G4T7",
        "streetName": "SULPHUR SPRINGS",
        "streetDirectionId": null,
        "streetTypeId": "RD",
        "placeName": "ANCASTER",
        "streetNameDisplayText": "SULPHUR SPRINGS RD, ANCASTER"
      }
    ]
  },
  {
    "postal": "L9G6Y7",
    "result": []
  },
  {
    "postal": "L9G0W7",
    "result": []
  },
  {
    "postal": "L9G2W9",
    "result": [
      {
        "electoralDistricts": [
          {
            "election": null,
            "id": 39,
            "name": "Hamilton West—Ancaster—Dundas"
          }
        ],
        "pollDivisionIds": [
          10135270,
          10135283
        ],
        "postalCode": "L9G2W9",
        "streetName": "MOHAWK",
        "streetDirectionId": null,
        "streetTypeId": "RD",
        "placeName": "ANCASTER",
        "streetNameDisplayText": "MOHAWK RD, ANCASTER"
      }
    ]
  },
  {
    "postal": "L9G8V0",
    "result": []
  },
  {
    "postal": "L9G0H4",
    "result": [
      {
        "electoralDistricts": [
          {
            "election": null,
            "id": 39,
            "name": "Hamilton West—Ancaster—Dundas"
          }
        ],
        "pollDivisionIds": [
          10135288
        ],
        "postalCode": "L9G0H4",
        "streetName": "MARKLE",
        "streetDirectionId": null,
        "streetTypeId": "CRES",
        "placeName": "ANCASTER",
        "streetNameDisplayText": "MARKLE CRES, ANCASTER"
      }
    ]
  },
  {
    "postal": "L9G2T1",
    "result": [
      {
        "electoralDistricts": [
          {
            "election": null,
            "id": 39,
            "name": "Hamilton West—Ancaster—Dundas"
          }
        ],
        "pollDivisionIds": [
          10135283
        ],
        "postalCode": "L9G2T1",
        "streetName": "SOUTH CREST",
        "streetDirectionId": null,
        "streetTypeId": null,
        "placeName": "ANCASTER",
        "streetNameDisplayText": "SOUTH CREST, ANCASTER"
      }
    ]
  },
  {
    "postal": "L9G1B1",
    "result": [
      {
        "electoralDistricts": [
          {
            "election": null,
            "id": 39,
            "name": "Hamilton West—Ancaster—Dundas"
          }
        ],
        "pollDivisionIds": [
          10135273
        ],
        "postalCode": "L9G1B1",
        "streetName": "JOANNE",
        "streetDirectionId": null,
        "streetTypeId": "CRT",
        "placeName": "ANCASTER",
        "streetNameDisplayText": "JOANNE CRT, ANCASTER"
      }
    ]
  },
  {
    "postal": "L9G8B6",
    "result": []
  },
  {
    "postal": "L9G6H1",
    "result": []
  },
  {
    "postal": "L9G8T8",
    "result": []
  },
  {
    "postal": "L9G0T4",
    "result": []
  },
  {
    "postal": "L9G2C4",
    "result": [
      {
        "electoralDistricts": [
          {
            "election": null,
            "id": 39,
            "name": "Hamilton West—Ancaster—Dundas"
          }
        ],
        "pollDivisionIds": [
          10135270
        ],
        "postalCode": "L9G2C4",
        "streetName": "WILSON",
        "streetDirectionId": "E",
        "streetTypeId": "ST",
        "placeName": "ANCASTER",
        "streetNameDisplayText": "WILSON ST E, ANCASTER"
      }
    ]
  },
  {
    "postal": "L9G8N3",
    "result": []
  },
  {
    "postal": "L9G4L8",
    "result": [
      {
        "electoralDistricts": [
          {
            "election": null,
            "id": 39,
            "name": "Hamilton West—Ancaster—Dundas"
          }
        ],
        "pollDivisionIds": [
          10135283
        ],
        "postalCode": "L9G4L8",
        "streetName": "CHANCERY",
        "streetDirectionId": null,
        "streetTypeId": "DR",
        "placeName": "ANCASTER",
        "streetNameDisplayText": "CHANCERY DR, ANCASTER"
      },
      {
        "electoralDistricts": [
          {
            "election": null,
            "id": 39,
            "name": "Hamilton West—Ancaster—Dundas"
          }
        ],
        "pollDivisionIds": [
          10135283
        ],
        "postalCode": "L9G4L8",
        "streetName": "PEPPERTREE",
        "streetDirectionId": null,
        "streetTypeId": "CRES",
        "placeName": "ANCASTER",
        "streetNameDisplayText": "PEPPERTREE CRES, ANCASTER"
      }
    ]
  },
  {
    "postal": "L9G2B5",
    "result": [
      {
        "electoralDistricts": [
          {
            "election": null,
            "id": 39,
            "name": "Hamilton West—Ancaster—Dundas"
          }
        ],
        "pollDivisionIds": [
          10135282
        ],
        "postalCode": "L9G2B5",
        "streetName": "WILSON",
        "streetDirectionId": "E",
        "streetTypeId": "ST",
        "placeName": "ANCASTER",
        "streetNameDisplayText": "WILSON ST E, ANCASTER"
      }
    ]
  },
  {
    "postal": "L9G3H1",
    "result": [
      {
        "electoralDistricts": [
          {
            "election": null,
            "id": 39,
            "name": "Hamilton West—Ancaster—Dundas"
          }
        ],
        "pollDivisionIds": [
          10135270
        ],
        "postalCode": "L9G3H1",
        "streetName": "HAIG",
        "streetDirectionId": null,
        "streetTypeId": "RD",
        "placeName": "ANCASTER",
        "streetNameDisplayText": "HAIG RD, ANCASTER"
      }
    ]
  },
  {
    "postal": "L9G4Y1",
    "result": [
      {
        "electoralDistricts": [
          {
            "election": null,
            "id": 39,
            "name": "Hamilton West—Ancaster—Dundas"
          }
        ],
        "pollDivisionIds": [
          10135288,
          10135289
        ],
        "postalCode": "L9G4Y1",
        "streetName": "LIAM",
        "streetDirectionId": null,
        "streetTypeId": "DR",
        "placeName": "ANCASTER",
        "streetNameDisplayText": "LIAM DR, ANCASTER"
      }
    ]
  },
  {
    "postal": "L9G7E2",
    "result": []
  },
  {
    "postal": "L9G2P5",
    "result": [
      {
        "electoralDistricts": [
          {
            "election": null,
            "id": 39,
            "name": "Hamilton West—Ancaster—Dundas"
          }
        ],
        "pollDivisionIds": [
          10135283
        ],
        "postalCode": "L9G2P5",
        "streetName": "MIDDLE CREST",
        "streetDirectionId": null,
        "streetTypeId": "ST",
        "placeName": "ANCASTER",
        "streetNameDisplayText": "MIDDLE CREST ST, ANCASTER"
      },
      {
        "electoralDistricts": [
          {
            "election": null,
            "id": 39,
            "name": "Hamilton West—Ancaster—Dundas"
          }
        ],
        "pollDivisionIds": [
          10135283
        ],
        "postalCode": "L9G2P5",
        "streetName": "MIDDLECREST",
        "streetDirectionId": null,
        "streetTypeId": "ST",
        "placeName": "ANCASTER",
        "streetNameDisplayText": "MIDDLECREST ST, ANCASTER"
      }
    ]
  },
  {
    "postal": "L9G8R7",
    "result": []
  },
  {
    "postal": "L9G9P1",
    "result": []
  },
  {
    "postal": "L9G3B8",
    "result": [
      {
        "electoralDistricts": [
          {
            "election": null,
            "id": 39,
            "name": "Hamilton West—Ancaster—Dundas"
          }
        ],
        "pollDivisionIds": [
          10135283
        ],
        "postalCode": "L9G3B8",
        "streetName": "SENECA",
        "streetDirectionId": null,
        "streetTypeId": "DR",
        "placeName": "ANCASTER",
        "streetNameDisplayText": "SENECA DR, ANCASTER"
      }
    ]
  },
  {
    "postal": "L9G3P7",
    "result": [
      {
        "electoralDistricts": [
          {
            "election": null,
            "id": 39,
            "name": "Hamilton West—Ancaster—Dundas"
          }
        ],
        "pollDivisionIds": [
          10135283,
          10135270
        ],
        "postalCode": "L9G3P7",
        "streetName": "CAYUGA",
        "streetDirectionId": null,
        "streetTypeId": "AVE",
        "placeName": "ANCASTER",
        "streetNameDisplayText": "CAYUGA AVE, ANCASTER"
      }
    ]
  },
  {
    "postal": "L9G9B2",
    "result": []
  },
  {
    "postal": "L9G6Z3",
    "result": []
  },
  {
    "postal": "L9G4N5",
    "result": [
      {
        "electoralDistricts": [
          {
            "election": null,
            "id": 39,
            "name": "Hamilton West—Ancaster—Dundas"
          }
        ],
        "pollDivisionIds": [
          10135283
        ],
        "postalCode": "L9G4N5",
        "streetName": "SEYMOUR",
        "streetDirectionId": null,
        "streetTypeId": "DR",
        "placeName": "ANCASTER",
        "streetNameDisplayText": "SEYMOUR DR, ANCASTER"
      }
    ]
  },
  {
    "postal": "L9G8T3",
    "result": []
  },
  {
    "postal": "L9G1V2",
    "result": [
      {
        "electoralDistricts": [
          {
            "election": null,
            "id": 39,
            "name": "Hamilton West—Ancaster—Dundas"
          }
        ],
        "pollDivisionIds": [
          10135281
        ],
        "postalCode": "L9G1V2",
        "streetName": "COUNCIL",
        "streetDirectionId": null,
        "streetTypeId": "CRES",
        "placeName": "ANCASTER",
        "streetNameDisplayText": "COUNCIL CRES, ANCASTER"
      }
    ]
  },
  {
    "postal": "L9G1Y0",
    "result": []
  },
  {
    "postal": "L9G3G6",
    "result": [
      {
        "electoralDistricts": [
          {
            "election": null,
            "id": 39,
            "name": "Hamilton West—Ancaster—Dundas"
          }
        ],
        "pollDivisionIds": [
          10135270
        ],
        "postalCode": "L9G3G6",
        "streetName": "MILL",
        "streetDirectionId": null,
        "streetTypeId": "ST",
        "placeName": "ANCASTER",
        "streetNameDisplayText": "MILL ST, ANCASTER"
      }
    ]
  },
  {
    "postal": "L9G3H7",
    "result": [
      {
        "electoralDistricts": [
          {
            "election": null,
            "id": 39,
            "name": "Hamilton West—Ancaster—Dundas"
          }
        ],
        "pollDivisionIds": [
          10135270
        ],
        "postalCode": "L9G3H7",
        "streetName": "MONTGOMERY",
        "streetDirectionId": null,
        "streetTypeId": "DR",
        "placeName": "ANCASTER",
        "streetNameDisplayText": "MONTGOMERY DR, ANCASTER"
      }
    ]
  },
  {
    "postal": "L9G7X8",
    "result": []
  },
  {
    "postal": "L9G0C7",
    "result": [
      {
        "electoralDistricts": [
          {
            "election": null,
            "id": 39,
            "name": "Hamilton West—Ancaster—Dundas"
          }
        ],
        "pollDivisionIds": [
          10135270
        ],
        "postalCode": "L9G0C7",
        "streetName": "QUEEN",
        "streetDirectionId": null,
        "streetTypeId": "ST",
        "placeName": "ANCASTER",
        "streetNameDisplayText": "QUEEN ST, ANCASTER"
      }
    ]
  },
  {
    "postal": "L9G0W9",
    "result": []
  },
  {
    "postal": "L9G8E6",
    "result": []
  },
  {
    "postal": "L9G9Z8",
    "result": []
  },
  {
    "postal": "L9G3P4",
    "result": [
      {
        "electoralDistricts": [
          {
            "election": null,
            "id": 39,
            "name": "Hamilton West—Ancaster—Dundas"
          }
        ],
        "pollDivisionIds": [
          10135270
        ],
        "postalCode": "L9G3P4",
        "streetName": "STONEGATE",
        "streetDirectionId": null,
        "streetTypeId": "DR",
        "placeName": "ANCASTER",
        "streetNameDisplayText": "STONEGATE DR, ANCASTER"
      }
    ]
  },
  {
    "postal": "L9G6L8",
    "result": []
  },
  {
    "postal": "L9G2R4",
    "result": [
      {
        "electoralDistricts": [
          {
            "election": null,
            "id": 39,
            "name": "Hamilton West—Ancaster—Dundas"
          }
        ],
        "pollDivisionIds": [
          10135290
        ],
        "postalCode": "L9G2R4",
        "streetName": "JOHN FREDERICK",
        "streetDirectionId": null,
        "streetTypeId": "DR",
        "placeName": "ANCASTER",
        "streetNameDisplayText": "JOHN FREDERICK DR, ANCASTER"
      }
    ]
  },
  {
    "postal": "L9G2W1",
    "result": [
      {
        "electoralDistricts": [
          {
            "election": null,
            "id": 39,
            "name": "Hamilton West—Ancaster—Dundas"
          }
        ],
        "pollDivisionIds": [
          10135290
        ],
        "postalCode": "L9G2W1",
        "streetName": "SOUTHCOTE",
        "streetDirectionId": null,
        "streetTypeId": "RD",
        "placeName": "ANCASTER",
        "streetNameDisplayText": "SOUTHCOTE RD, ANCASTER"
      }
    ]
  },
  {
    "postal": "L9G9H8",
    "result": []
  },
  {
    "postal": "L9G8X9",
    "result": []
  },
  {
    "postal": "L9G7H4",
    "result": []
  },
  {
    "postal": "L9G3J1",
    "result": [
      {
        "electoralDistricts": [
          {
            "election": null,
            "id": 39,
            "name": "Hamilton West—Ancaster—Dundas"
          }
        ],
        "pollDivisionIds": [
          10135270
        ],
        "postalCode": "L9G3J1",
        "streetName": "MONTGOMERY",
        "streetDirectionId": null,
        "streetTypeId": "DR",
        "placeName": "ANCASTER",
        "streetNameDisplayText": "MONTGOMERY DR, ANCASTER"
      }
    ]
  },
  {
    "postal": "L9G1P4",
    "result": [
      {
        "electoralDistricts": [
          {
            "election": null,
            "id": 39,
            "name": "Hamilton West—Ancaster—Dundas"
          }
        ],
        "pollDivisionIds": [
          10135280
        ],
        "postalCode": "L9G1P4",
        "streetName": "TAYLOR",
        "streetDirectionId": null,
        "streetTypeId": "RD",
        "placeName": "ANCASTER",
        "streetNameDisplayText": "TAYLOR RD, ANCASTER"
      }
    ]
  },
  {
    "postal": "L9G2A3",
    "result": [
      {
        "electoralDistricts": [
          {
            "election": null,
            "id": 39,
            "name": "Hamilton West—Ancaster—Dundas"
          }
        ],
        "pollDivisionIds": [
          10135280
        ],
        "postalCode": "L9G2A3",
        "streetName": "CENTRAL",
        "streetDirectionId": null,
        "streetTypeId": "DR",
        "placeName": "ANCASTER",
        "streetNameDisplayText": "CENTRAL DR, ANCASTER"
      }
    ]
  },
  {
    "postal": "L9G0Z1",
    "result": []
  },
  {
    "postal": "L9G1C1",
    "result": [
      {
        "electoralDistricts": [
          {
            "election": null,
            "id": 39,
            "name": "Hamilton West—Ancaster—Dundas"
          }
        ],
        "pollDivisionIds": [
          10135273
        ],
        "postalCode": "L9G1C1",
        "streetName": "BEVERLY",
        "streetDirectionId": null,
        "streetTypeId": "CRT",
        "placeName": "ANCASTER",
        "streetNameDisplayText": "BEVERLY CRT, ANCASTER"
      }
    ]
  },
  {
    "postal": "L9G0H3",
    "result": [
      {
        "electoralDistricts": [
          {
            "election": null,
            "id": 39,
            "name": "Hamilton West—Ancaster—Dundas"
          }
        ],
        "pollDivisionIds": [
          10135288
        ],
        "postalCode": "L9G0H3",
        "streetName": "MARKLE",
        "streetDirectionId": null,
        "streetTypeId": "CRES",
        "placeName": "ANCASTER",
        "streetNameDisplayText": "MARKLE CRES, ANCASTER"
      },
      {
        "electoralDistricts": [
          {
            "election": null,
            "id": 39,
            "name": "Hamilton West—Ancaster—Dundas"
          }
        ],
        "pollDivisionIds": [
          10135288
        ],
        "postalCode": "L9G0H3",
        "streetName": "MUNAY",
        "streetDirectionId": null,
        "streetTypeId": "LANE",
        "placeName": "ANCASTER",
        "streetNameDisplayText": "MUNAY LANE, ANCASTER"
      }
    ]
  },
  {
    "postal": "L9G7B0",
    "result": []
  },
  {
    "postal": "L9G5K2",
    "result": []
  },
  {
    "postal": "L9G1E9",
    "result": []
  },
  {
    "postal": "L9G9W7",
    "result": []
  },
  {
    "postal": "L9G5W6",
    "result": []
  },
  {
    "postal": "L9G6S6",
    "result": []
  },
  {
    "postal": "L9G2P8",
    "result": [
      {
        "electoralDistricts": [
          {
            "election": null,
            "id": 39,
            "name": "Hamilton West—Ancaster—Dundas"
          }
        ],
        "pollDivisionIds": [
          10135283
        ],
        "postalCode": "L9G2P8",
        "streetName": "EVERGREEN",
        "streetDirectionId": null,
        "streetTypeId": "AVE",
        "placeName": "ANCASTER",
        "streetNameDisplayText": "EVERGREEN AVE, ANCASTER"
      }
    ]
  },
  {
    "postal": "L9G4P8",
    "result": [
      {
        "electoralDistricts": [
          {
            "election": null,
            "id": 39,
            "name": "Hamilton West—Ancaster—Dundas"
          }
        ],
        "pollDivisionIds": [
          10135273
        ],
        "postalCode": "L9G4P8",
        "streetName": "REMBRANDT",
        "streetDirectionId": null,
        "streetTypeId": "CRT",
        "placeName": "ANCASTER",
        "streetNameDisplayText": "REMBRANDT CRT, ANCASTER"
      }
    ]
  },
  {
    "postal": "L9G0V9",
    "result": []
  },
  {
    "postal": "L9G5Y2",
    "result": []
  },
  {
    "postal": "L9G7Z7",
    "result": []
  },
  {
    "postal": "L9G6Y8",
    "result": []
  },
  {
    "postal": "L9G2G7",
    "result": [
      {
        "electoralDistricts": [
          {
            "election": null,
            "id": 39,
            "name": "Hamilton West—Ancaster—Dundas"
          }
        ],
        "pollDivisionIds": [
          10135282
        ],
        "postalCode": "L9G2G7",
        "streetName": "CALVIN",
        "streetDirectionId": null,
        "streetTypeId": "ST",
        "placeName": "ANCASTER",
        "streetNameDisplayText": "CALVIN ST, ANCASTER"
      }
    ]
  },
  {
    "postal": "L9G8C1",
    "result": []
  },
  {
    "postal": "L9G5C5",
    "result": [
      {
        "electoralDistricts": [
          {
            "election": null,
            "id": 39,
            "name": "Hamilton West—Ancaster—Dundas"
          }
        ],
        "pollDivisionIds": [
          10135280
        ],
        "postalCode": "L9G5C5",
        "streetName": "TRANQUILITY",
        "streetDirectionId": null,
        "streetTypeId": "AVE",
        "placeName": "ANCASTER",
        "streetNameDisplayText": "TRANQUILITY AVE, ANCASTER"
      },
      {
        "electoralDistricts": [
          {
            "election": null,
            "id": 39,
            "name": "Hamilton West—Ancaster—Dundas"
          }
        ],
        "pollDivisionIds": [
          10135280
        ],
        "postalCode": "L9G5C5",
        "streetName": "VALRIDGE",
        "streetDirectionId": null,
        "streetTypeId": "DR",
        "placeName": "ANCASTER",
        "streetNameDisplayText": "VALRIDGE DR, ANCASTER"
      },
      {
        "electoralDistricts": [
          {
            "election": null,
            "id": 39,
            "name": "Hamilton West—Ancaster—Dundas"
          }
        ],
        "pollDivisionIds": [
          10135280
        ],
        "postalCode": "L9G5C5",
        "streetName": "WESLEYAN",
        "streetDirectionId": null,
        "streetTypeId": "CRT",
        "placeName": "ANCASTER",
        "streetNameDisplayText": "WESLEYAN CRT, ANCASTER"
      }
    ]
  },
  {
    "postal": "L9G2X8",
    "result": [
      {
        "electoralDistricts": [
          {
            "election": null,
            "id": 39,
            "name": "Hamilton West—Ancaster—Dundas"
          }
        ],
        "pollDivisionIds": [
          10135270
        ],
        "postalCode": "L9G2X8",
        "streetName": "ACADEMY",
        "streetDirectionId": null,
        "streetTypeId": "ST",
        "placeName": "ANCASTER",
        "streetNameDisplayText": "ACADEMY ST, ANCASTER"
      }
    ]
  },
  {
    "postal": "L9G1W5",
    "result": [
      {
        "electoralDistricts": [
          {
            "election": null,
            "id": 39,
            "name": "Hamilton West—Ancaster—Dundas"
          }
        ],
        "pollDivisionIds": [
          10135282
        ],
        "postalCode": "L9G1W5",
        "streetName": "FIDDLER'S GREEN",
        "streetDirectionId": null,
        "streetTypeId": "RD",
        "placeName": "ANCASTER",
        "streetNameDisplayText": "FIDDLER'S GREEN RD, ANCASTER"
      }
    ]
  },
  {
    "postal": "L9G7G0",
    "result": []
  },
  {
    "postal": "L9G8J8",
    "result": []
  },
  {
    "postal": "L9G3Y0",
    "result": []
  },
  {
    "postal": "L9G9T7",
    "result": []
  },
  {
    "postal": "L9G5P4",
    "result": []
  },
  {
    "postal": "L9G4B0",
    "result": []
  },
  {
    "postal": "L9G9N8",
    "result": []
  },
  {
    "postal": "L9G4A7",
    "result": [
      {
        "electoralDistricts": [
          {
            "election": null,
            "id": 39,
            "name": "Hamilton West—Ancaster—Dundas"
          }
        ],
        "pollDivisionIds": [
          10135273
        ],
        "postalCode": "L9G4A7",
        "streetName": "WOODLAND",
        "streetDirectionId": null,
        "streetTypeId": "DR",
        "placeName": "ANCASTER",
        "streetNameDisplayText": "WOODLAND DR, ANCASTER"
      }
    ]
  },
  {
    "postal": "L9G4H9",
    "result": [
      {
        "electoralDistricts": [
          {
            "election": null,
            "id": 39,
            "name": "Hamilton West—Ancaster—Dundas"
          }
        ],
        "pollDivisionIds": [
          10135283
        ],
        "postalCode": "L9G4H9",
        "streetName": "ORTON",
        "streetDirectionId": null,
        "streetTypeId": "AVE",
        "placeName": "ANCASTER",
        "streetNameDisplayText": "ORTON AVE, ANCASTER"
      }
    ]
  },
  {
    "postal": "L9G6X1",
    "result": []
  },
  {
    "postal": "L9G9Y7",
    "result": []
  },
  {
    "postal": "L9G2Y5",
    "result": [
      {
        "electoralDistricts": [
          {
            "election": null,
            "id": 39,
            "name": "Hamilton West—Ancaster—Dundas"
          }
        ],
        "pollDivisionIds": [
          10135270
        ],
        "postalCode": "L9G2Y5",
        "streetName": "BROOKDALE",
        "streetDirectionId": null,
        "streetTypeId": "DR",
        "placeName": "ANCASTER",
        "streetNameDisplayText": "BROOKDALE DR, ANCASTER"
      }
    ]
  },
  {
    "postal": "L9G8L7",
    "result": []
  },
  {
    "postal": "L9G2A8",
    "result": [
      {
        "electoralDistricts": [
          {
            "election": null,
            "id": 39,
            "name": "Hamilton West—Ancaster—Dundas"
          }
        ],
        "pollDivisionIds": [
          10135280
        ],
        "postalCode": "L9G2A8",
        "streetName": "VALLEYVIEW",
        "streetDirectionId": null,
        "streetTypeId": "DR",
        "placeName": "ANCASTER",
        "streetNameDisplayText": "VALLEYVIEW DR, ANCASTER"
      }
    ]
  },
  {
    "postal": "L9G2K9",
    "result": [
      {
        "electoralDistricts": [
          {
            "election": null,
            "id": 39,
            "name": "Hamilton West—Ancaster—Dundas"
          }
        ],
        "pollDivisionIds": [
          10135282
        ],
        "postalCode": "L9G2K9",
        "streetName": "ST MARGARETS",
        "streetDirectionId": null,
        "streetTypeId": "RD",
        "placeName": "ANCASTER",
        "streetNameDisplayText": "ST MARGARETS RD, ANCASTER"
      }
    ]
  },
  {
    "postal": "L9G3E5",
    "result": [
      {
        "electoralDistricts": [
          {
            "election": null,
            "id": 39,
            "name": "Hamilton West—Ancaster—Dundas"
          }
        ],
        "pollDivisionIds": [
          10135270
        ],
        "postalCode": "L9G3E5",
        "streetName": "BISHOP",
        "streetDirectionId": null,
        "streetTypeId": "PL",
        "placeName": "ANCASTER",
        "streetNameDisplayText": "BISHOP PL, ANCASTER"
      }
    ]
  },
  {
    "postal": "L9G8N6",
    "result": []
  },
  {
    "postal": "L9G8J4",
    "result": []
  },
  {
    "postal": "L9G4R7",
    "result": [
      {
        "electoralDistricts": [
          {
            "election": null,
            "id": 39,
            "name": "Hamilton West—Ancaster—Dundas"
          }
        ],
        "pollDivisionIds": [
          10135273
        ],
        "postalCode": "L9G4R7",
        "streetName": "DEERVIEW",
        "streetDirectionId": null,
        "streetTypeId": "AVE",
        "placeName": "ANCASTER",
        "streetNameDisplayText": "DEERVIEW AVE, ANCASTER"
      }
    ]
  },
  {
    "postal": "L9G9K1",
    "result": []
  },
  {
    "postal": "L9G8E1",
    "result": []
  },
  {
    "postal": "L9G0R1",
    "result": []
  },
  {
    "postal": "L9G4J3",
    "result": []
  },
  {
    "postal": "L9G7E7",
    "result": []
  },
  {
    "postal": "L9G0J0",
    "result": []
  },
  {
    "postal": "L9G7R8",
    "result": []
  },
  {
    "postal": "L9G9X0",
    "result": []
  },
  {
    "postal": "L9G7P6",
    "result": []
  },
  {
    "postal": "L9G0R7",
    "result": []
  },
  {
    "postal": "L9G5W1",
    "result": []
  },
  {
    "postal": "L9G0K4",
    "result": []
  },
  {
    "postal": "L9G7N9",
    "result": []
  },
  {
    "postal": "L9G1N0",
    "result": []
  },
  {
    "postal": "L9G6P3",
    "result": []
  },
  {
    "postal": "L9G5A1",
    "result": [
      {
        "electoralDistricts": [
          {
            "election": null,
            "id": 39,
            "name": "Hamilton West—Ancaster—Dundas"
          }
        ],
        "pollDivisionIds": [
          10135280
        ],
        "postalCode": "L9G5A1",
        "streetName": "VALMONT",
        "streetDirectionId": null,
        "streetTypeId": "CRT",
        "placeName": "ANCASTER",
        "streetNameDisplayText": "VALMONT CRT, ANCASTER"
      },
      {
        "electoralDistricts": [
          {
            "election": null,
            "id": 39,
            "name": "Hamilton West—Ancaster—Dundas"
          }
        ],
        "pollDivisionIds": [
          10135280
        ],
        "postalCode": "L9G5A1",
        "streetName": "VALMONT",
        "streetDirectionId": null,
        "streetTypeId": "ST",
        "placeName": "ANCASTER",
        "streetNameDisplayText": "VALMONT ST, ANCASTER"
      }
    ]
  },
  {
    "postal": "L9G9M9",
    "result": []
  },
  {
    "postal": "L9G7T6",
    "result": []
  },
  {
    "postal": "L9G3X0",
    "result": []
  },
  {
    "postal": "L9G2T0",
    "result": []
  },
  {
    "postal": "L9G5X9",
    "result": []
  },
  {
    "postal": "L9G2R3",
    "result": [
      {
        "electoralDistricts": [
          {
            "election": null,
            "id": 39,
            "name": "Hamilton West—Ancaster—Dundas"
          }
        ],
        "pollDivisionIds": [
          10135290
        ],
        "postalCode": "L9G2R3",
        "streetName": "JOHN FREDERICK",
        "streetDirectionId": null,
        "streetTypeId": "DR",
        "placeName": "ANCASTER",
        "streetNameDisplayText": "JOHN FREDERICK DR, ANCASTER"
      }
    ]
  },
  {
    "postal": "L9G5N2",
    "result": []
  },
  {
    "postal": "L9G4Y7",
    "result": [
      {
        "electoralDistricts": [
          {
            "election": null,
            "id": 39,
            "name": "Hamilton West—Ancaster—Dundas"
          }
        ],
        "pollDivisionIds": [
          10135280
        ],
        "postalCode": "L9G4Y7",
        "streetName": "VALMONT",
        "streetDirectionId": null,
        "streetTypeId": "ST",
        "placeName": "ANCASTER",
        "streetNameDisplayText": "VALMONT ST, ANCASTER"
      },
      {
        "electoralDistricts": [
          {
            "election": null,
            "id": 39,
            "name": "Hamilton West—Ancaster—Dundas"
          }
        ],
        "pollDivisionIds": [
          10135280
        ],
        "postalCode": "L9G4Y7",
        "streetName": "VALRIDGE",
        "streetDirectionId": null,
        "streetTypeId": "CRT",
        "placeName": "ANCASTER",
        "streetNameDisplayText": "VALRIDGE CRT, ANCASTER"
      },
      {
        "electoralDistricts": [
          {
            "election": null,
            "id": 39,
            "name": "Hamilton West—Ancaster—Dundas"
          }
        ],
        "pollDivisionIds": [
          10135280
        ],
        "postalCode": "L9G4Y7",
        "streetName": "VALRIDGE",
        "streetDirectionId": null,
        "streetTypeId": "DR",
        "placeName": "ANCASTER",
        "streetNameDisplayText": "VALRIDGE DR, ANCASTER"
      }
    ]
  },
  {
    "postal": "L9G7M0",
    "result": []
  },
  {
    "postal": "L9G8P3",
    "result": []
  },
  {
    "postal": "L9G3N3",
    "result": [
      {
        "electoralDistricts": [
          {
            "election": null,
            "id": 39,
            "name": "Hamilton West—Ancaster—Dundas"
          }
        ],
        "pollDivisionIds": [
          10135283
        ],
        "postalCode": "L9G3N3",
        "streetName": "TUSCARORA",
        "streetDirectionId": null,
        "streetTypeId": "DR",
        "placeName": "ANCASTER",
        "streetNameDisplayText": "TUSCARORA DR, ANCASTER"
      }
    ]
  },
  {
    "postal": "L9G7S3",
    "result": []
  },
  {
    "postal": "L9G3V9",
    "result": [
      {
        "electoralDistricts": [
          {
            "election": null,
            "id": 39,
            "name": "Hamilton West—Ancaster—Dundas"
          }
        ],
        "pollDivisionIds": [
          10135290
        ],
        "postalCode": "L9G3V9",
        "streetName": "GREENBRIAR",
        "streetDirectionId": null,
        "streetTypeId": "RD",
        "placeName": "ANCASTER",
        "streetNameDisplayText": "GREENBRIAR RD, ANCASTER"
      }
    ]
  },
  {
    "postal": "L9G9N7",
    "result": []
  },
  {
    "postal": "L9G0G4",
    "result": [
      {
        "electoralDistricts": [
          {
            "election": null,
            "id": 31,
            "name": "Flamborough—Glanbrook"
          }
        ],
        "pollDivisionIds": [
          10138256
        ],
        "postalCode": "L9G0G4",
        "streetName": "GLANCASTER",
        "streetDirectionId": null,
        "streetTypeId": "RD",
        "placeName": "ANCASTER",
        "streetNameDisplayText": "GLANCASTER RD, ANCASTER"
      }
    ]
  },
  {
    "postal": "L9G2E2",
    "result": [
      {
        "electoralDistricts": [
          {
            "election": null,
            "id": 39,
            "name": "Hamilton West—Ancaster—Dundas"
          }
        ],
        "pollDivisionIds": [
          10135282
        ],
        "postalCode": "L9G2E2",
        "streetName": "DOUGLAS",
        "streetDirectionId": null,
        "streetTypeId": "RD",
        "placeName": "ANCASTER",
        "streetNameDisplayText": "DOUGLAS RD, ANCASTER"
      }
    ]
  },
  {
    "postal": "L9G7W8",
    "result": []
  },
  {
    "postal": "L9G7M5",
    "result": []
  },
  {
    "postal": "L9G5W8",
    "result": []
  },
  {
    "postal": "L9G5E5",
    "result": []
  },
  {
    "postal": "L9G1P9",
    "result": [
      {
        "electoralDistricts": [
          {
            "election": null,
            "id": 39,
            "name": "Hamilton West—Ancaster—Dundas"
          }
        ],
        "pollDivisionIds": [
          10135282
        ],
        "postalCode": "L9G1P9",
        "streetName": "CARRINGTON",
        "streetDirectionId": null,
        "streetTypeId": "CRT",
        "placeName": "ANCASTER",
        "streetNameDisplayText": "CARRINGTON CRT, ANCASTER"
      }
    ]
  },
  {
    "postal": "L9G8V8",
    "result": []
  },
  {
    "postal": "L9G9G8",
    "result": []
  },
  {
    "postal": "L9G8H9",
    "result": []
  },
  {
    "postal": "L9G1Z1",
    "result": [
      {
        "electoralDistricts": [
          {
            "election": null,
            "id": 39,
            "name": "Hamilton West—Ancaster—Dundas"
          }
        ],
        "pollDivisionIds": [
          10135281
        ],
        "postalCode": "L9G1Z1",
        "streetName": "SEMINOLE",
        "streetDirectionId": null,
        "streetTypeId": "RD",
        "placeName": "ANCASTER",
        "streetNameDisplayText": "SEMINOLE RD, ANCASTER"
      }
    ]
  },
  {
    "postal": "L9G8M3",
    "result": []
  },
  {
    "postal": "L9G5H6",
    "result": []
  },
  {
    "postal": "L9G7W7",
    "result": []
  },
  {
    "postal": "L9G4L0",
    "result": []
  },
  {
    "postal": "L9G2N1",
    "result": [
      {
        "electoralDistricts": [
          {
            "election": null,
            "id": 39,
            "name": "Hamilton West—Ancaster—Dundas"
          }
        ],
        "pollDivisionIds": [
          10135282
        ],
        "postalCode": "L9G2N1",
        "streetName": "WOODWORTH",
        "streetDirectionId": null,
        "streetTypeId": "DR",
        "placeName": "ANCASTER",
        "streetNameDisplayText": "WOODWORTH DR, ANCASTER"
      }
    ]
  },
  {
    "postal": "L9G2H4",
    "result": [
      {
        "electoralDistricts": [
          {
            "election": null,
            "id": 39,
            "name": "Hamilton West—Ancaster—Dundas"
          }
        ],
        "pollDivisionIds": [
          10135282
        ],
        "postalCode": "L9G2H4",
        "streetName": "ENMORE",
        "streetDirectionId": null,
        "streetTypeId": "AVE",
        "placeName": "ANCASTER",
        "streetNameDisplayText": "ENMORE AVE, ANCASTER"
      }
    ]
  },
  {
    "postal": "L9G5C8",
    "result": [
      {
        "electoralDistricts": [
          {
            "election": null,
            "id": 39,
            "name": "Hamilton West—Ancaster—Dundas"
          }
        ],
        "pollDivisionIds": [
          10135288
        ],
        "postalCode": "L9G5C8",
        "streetName": "BLACKSMITH",
        "streetDirectionId": null,
        "streetTypeId": "CRT",
        "placeName": "ANCASTER",
        "streetNameDisplayText": "BLACKSMITH CRT, ANCASTER"
      },
      {
        "electoralDistricts": [
          {
            "election": null,
            "id": 39,
            "name": "Hamilton West—Ancaster—Dundas"
          }
        ],
        "pollDivisionIds": [
          10135288
        ],
        "postalCode": "L9G5C8",
        "streetName": "STOWBRIDGE",
        "streetDirectionId": null,
        "streetTypeId": "CRES",
        "placeName": "ANCASTER",
        "streetNameDisplayText": "STOWBRIDGE CRES, ANCASTER"
      },
      {
        "electoralDistricts": [
          {
            "election": null,
            "id": 39,
            "name": "Hamilton West—Ancaster—Dundas"
          }
        ],
        "pollDivisionIds": [
          10135288
        ],
        "postalCode": "L9G5C8",
        "streetName": "TOLLGATE",
        "streetDirectionId": null,
        "streetTypeId": "DR",
        "placeName": "ANCASTER",
        "streetNameDisplayText": "TOLLGATE DR, ANCASTER"
      }
    ]
  },
  {
    "postal": "L9G8B0",
    "result": []
  },
  {
    "postal": "L9G1T4",
    "result": [
      {
        "electoralDistricts": [
          {
            "election": null,
            "id": 39,
            "name": "Hamilton West—Ancaster—Dundas"
          }
        ],
        "pollDivisionIds": [
          10135281
        ],
        "postalCode": "L9G1T4",
        "streetName": "WABAN",
        "streetDirectionId": null,
        "streetTypeId": "PL",
        "placeName": "ANCASTER",
        "streetNameDisplayText": "WABAN PL, ANCASTER"
      }
    ]
  },
  {
    "postal": "L9G7N7",
    "result": []
  },
  {
    "postal": "L9G4L3",
    "result": [
      {
        "electoralDistricts": [
          {
            "election": null,
            "id": 39,
            "name": "Hamilton West—Ancaster—Dundas"
          }
        ],
        "pollDivisionIds": [
          10135281
        ],
        "postalCode": "L9G4L3",
        "streetName": "HAMMILL",
        "streetDirectionId": null,
        "streetTypeId": "CRT",
        "placeName": "ANCASTER",
        "streetNameDisplayText": "HAMMILL CRT, ANCASTER"
      }
    ]
  },
  {
    "postal": "L9G2N2",
    "result": [
      {
        "electoralDistricts": [
          {
            "election": null,
            "id": 39,
            "name": "Hamilton West—Ancaster—Dundas"
          }
        ],
        "pollDivisionIds": [
          10135282
        ],
        "postalCode": "L9G2N2",
        "streetName": "WOODWORTH",
        "streetDirectionId": null,
        "streetTypeId": "DR",
        "placeName": "ANCASTER",
        "streetNameDisplayText": "WOODWORTH DR, ANCASTER"
      }
    ]
  },
  {
    "postal": "L9G4N8",
    "result": [
      {
        "electoralDistricts": [
          {
            "election": null,
            "id": 39,
            "name": "Hamilton West—Ancaster—Dundas"
          }
        ],
        "pollDivisionIds": [
          10135283
        ],
        "postalCode": "L9G4N8",
        "streetName": "SEYMOUR",
        "streetDirectionId": null,
        "streetTypeId": "DR",
        "placeName": "ANCASTER",
        "streetNameDisplayText": "SEYMOUR DR, ANCASTER"
      }
    ]
  },
  {
    "postal": "L9G3M5",
    "result": [
      {
        "electoralDistricts": [
          {
            "election": null,
            "id": 39,
            "name": "Hamilton West—Ancaster—Dundas"
          }
        ],
        "pollDivisionIds": [
          10135270
        ],
        "postalCode": "L9G3M5",
        "streetName": "BROAD LEAF",
        "streetDirectionId": null,
        "streetTypeId": "CRES",
        "placeName": "ANCASTER",
        "streetNameDisplayText": "BROAD LEAF CRES, ANCASTER"
      }
    ]
  },
  {
    "postal": "L9G6H7",
    "result": []
  },
  {
    "postal": "L9G8Y8",
    "result": []
  },
  {
    "postal": "L9G5R9",
    "result": []
  },
  {
    "postal": "L9G8G3",
    "result": []
  },
  {
    "postal": "L9G4N7",
    "result": [
      {
        "electoralDistricts": [
          {
            "election": null,
            "id": 39,
            "name": "Hamilton West—Ancaster—Dundas"
          }
        ],
        "pollDivisionIds": [
          10135283
        ],
        "postalCode": "L9G4N7",
        "streetName": "ALTERRA",
        "streetDirectionId": null,
        "streetTypeId": "BLVD",
        "placeName": "ANCASTER",
        "streetNameDisplayText": "ALTERRA BLVD, ANCASTER"
      },
      {
        "electoralDistricts": [
          {
            "election": null,
            "id": 39,
            "name": "Hamilton West—Ancaster—Dundas"
          }
        ],
        "pollDivisionIds": [
          10135283
        ],
        "postalCode": "L9G4N7",
        "streetName": "SEYMOUR",
        "streetDirectionId": null,
        "streetTypeId": "DR",
        "placeName": "ANCASTER",
        "streetNameDisplayText": "SEYMOUR DR, ANCASTER"
      }
    ]
  },
  {
    "postal": "L9G0B9",
    "result": [
      {
        "electoralDistricts": [
          {
            "election": null,
            "id": 39,
            "name": "Hamilton West—Ancaster—Dundas"
          }
        ],
        "pollDivisionIds": [
          10135289
        ],
        "postalCode": "L9G0B9",
        "streetName": "GREGORIO",
        "streetDirectionId": null,
        "streetTypeId": "AVE",
        "placeName": "ANCASTER",
        "streetNameDisplayText": "GREGORIO AVE, ANCASTER"
      }
    ]
  },
  {
    "postal": "L9G9K7",
    "result": []
  },
  {
    "postal": "L9G9K9",
    "result": []
  },
  {
    "postal": "L9G3Z2",
    "result": [
      {
        "electoralDistricts": [
          {
            "election": null,
            "id": 39,
            "name": "Hamilton West—Ancaster—Dundas"
          }
        ],
        "pollDivisionIds": [
          10135280
        ],
        "postalCode": "L9G3Z2",
        "streetName": "TAYLOR",
        "streetDirectionId": null,
        "streetTypeId": "RD",
        "placeName": "ANCASTER",
        "streetNameDisplayText": "TAYLOR RD, ANCASTER"
      }
    ]
  },
  {
    "postal": "L9G6W7",
    "result": []
  },
  {
    "postal": "L9G0P1",
    "result": []
  },
  {
    "postal": "L9G3A0",
    "result": []
  },
  {
    "postal": "L9G8L9",
    "result": []
  },
  {
    "postal": "L9G6X0",
    "result": []
  },
  {
    "postal": "L9G3E9",
    "result": [
      {
        "electoralDistricts": [
          {
            "election": null,
            "id": 39,
            "name": "Hamilton West—Ancaster—Dundas"
          }
        ],
        "pollDivisionIds": [
          10135270
        ],
        "postalCode": "L9G3E9",
        "streetName": "ALEXANDER",
        "streetDirectionId": null,
        "streetTypeId": "RD",
        "placeName": "ANCASTER",
        "streetNameDisplayText": "ALEXANDER RD, ANCASTER"
      }
    ]
  },
  {
    "postal": "L9G0S5",
    "result": []
  },
  {
    "postal": "L9G1A2",
    "result": [
      {
        "electoralDistricts": [
          {
            "election": null,
            "id": 39,
            "name": "Hamilton West—Ancaster—Dundas"
          }
        ],
        "pollDivisionIds": [
          10135273
        ],
        "postalCode": "L9G1A2",
        "streetName": "JERSEYVILLE",
        "streetDirectionId": "W",
        "streetTypeId": "RD",
        "placeName": "ANCASTER",
        "streetNameDisplayText": "JERSEYVILLE RD W, ANCASTER"
      }
    ]
  },
  {
    "postal": "L9G5V8",
    "result": []
  },
  {
    "postal": "L9G8C5",
    "result": []
  },
  {
    "postal": "L9G6N0",
    "result": []
  },
  {
    "postal": "L9G9E6",
    "result": []
  },
  {
    "postal": "L9G5J7",
    "result": []
  },
  {
    "postal": "L9G2R2",
    "result": [
      {
        "electoralDistricts": [
          {
            "election": null,
            "id": 39,
            "name": "Hamilton West—Ancaster—Dundas"
          }
        ],
        "pollDivisionIds": [
          10135290
        ],
        "postalCode": "L9G2R2",
        "streetName": "JOHN FREDERICK",
        "streetDirectionId": null,
        "streetTypeId": "DR",
        "placeName": "ANCASTER",
        "streetNameDisplayText": "JOHN FREDERICK DR, ANCASTER"
      }
    ]
  },
  {
    "postal": "L9G0P5",
    "result": []
  },
  {
    "postal": "L9G5A7",
    "result": [
      {
        "electoralDistricts": [
          {
            "election": null,
            "id": 39,
            "name": "Hamilton West—Ancaster—Dundas"
          }
        ],
        "pollDivisionIds": [
          10135288
        ],
        "postalCode": "L9G5A7",
        "streetName": "BLASDELL",
        "streetDirectionId": null,
        "streetTypeId": "CRT",
        "placeName": "ANCASTER",
        "streetNameDisplayText": "BLASDELL CRT, ANCASTER"
      },
      {
        "electoralDistricts": [
          {
            "election": null,
            "id": 39,
            "name": "Hamilton West—Ancaster—Dundas"
          }
        ],
        "pollDivisionIds": [
          10135288
        ],
        "postalCode": "L9G5A7",
        "streetName": "BRAITHWAITE",
        "streetDirectionId": null,
        "streetTypeId": "AVE",
        "placeName": "ANCASTER",
        "streetNameDisplayText": "BRAITHWAITE AVE, ANCASTER"
      }
    ]
  },
  {
    "postal": "L9G1G1",
    "result": [
      {
        "electoralDistricts": [
          {
            "election": null,
            "id": 39,
            "name": "Hamilton West—Ancaster—Dundas"
          }
        ],
        "pollDivisionIds": [
          10135273
        ],
        "postalCode": "L9G1G1",
        "streetName": "WOODVIEW",
        "streetDirectionId": null,
        "streetTypeId": "CRES",
        "placeName": "ANCASTER",
        "streetNameDisplayText": "WOODVIEW CRES, ANCASTER"
      }
    ]
  },
  {
    "postal": "L9G9R6",
    "result": []
  },
  {
    "postal": "L9G4Z9",
    "result": [
      {
        "electoralDistricts": [
          {
            "election": null,
            "id": 39,
            "name": "Hamilton West—Ancaster—Dundas"
          }
        ],
        "pollDivisionIds": [
          10135280
        ],
        "postalCode": "L9G4Z9",
        "streetName": "MOORE",
        "streetDirectionId": null,
        "streetTypeId": "CRES",
        "placeName": "ANCASTER",
        "streetNameDisplayText": "MOORE CRES, ANCASTER"
      },
      {
        "electoralDistricts": [
          {
            "election": null,
            "id": 39,
            "name": "Hamilton West—Ancaster—Dundas"
          }
        ],
        "pollDivisionIds": [
          10135280
        ],
        "postalCode": "L9G4Z9",
        "streetName": "VALMONT",
        "streetDirectionId": null,
        "streetTypeId": "ST",
        "placeName": "ANCASTER",
        "streetNameDisplayText": "VALMONT ST, ANCASTER"
      }
    ]
  },
  {
    "postal": "L9G1V5",
    "result": [
      {
        "electoralDistricts": [
          {
            "election": null,
            "id": 39,
            "name": "Hamilton West—Ancaster—Dundas"
          }
        ],
        "pollDivisionIds": [
          10135281
        ],
        "postalCode": "L9G1V5",
        "streetName": "CUMMING",
        "streetDirectionId": null,
        "streetTypeId": "CRT",
        "placeName": "ANCASTER",
        "streetNameDisplayText": "CUMMING CRT, ANCASTER"
      }
    ]
  },
  {
    "postal": "L9G9Y5",
    "result": []
  },
  {
    "postal": "L9G1P2",
    "result": [
      {
        "electoralDistricts": [
          {
            "election": null,
            "id": 39,
            "name": "Hamilton West—Ancaster—Dundas"
          }
        ],
        "pollDivisionIds": [
          10135280
        ],
        "postalCode": "L9G1P2",
        "streetName": "TAYLOR",
        "streetDirectionId": null,
        "streetTypeId": "RD",
        "placeName": "ANCASTER",
        "streetNameDisplayText": "TAYLOR RD, ANCASTER"
      }
    ]
  },
  {
    "postal": "L9G5X0",
    "result": []
  },
  {
    "postal": "L9G7B8",
    "result": []
  },
  {
    "postal": "L9G0C6",
    "result": [
      {
        "electoralDistricts": [
          {
            "election": null,
            "id": 39,
            "name": "Hamilton West—Ancaster—Dundas"
          }
        ],
        "pollDivisionIds": [
          10135289
        ],
        "postalCode": "L9G0C6",
        "streetName": "SECINARO",
        "streetDirectionId": null,
        "streetTypeId": "AVE",
        "placeName": "ANCASTER",
        "streetNameDisplayText": "SECINARO AVE, ANCASTER"
      }
    ]
  },
  {
    "postal": "L9G6G1",
    "result": []
  },
  {
    "postal": "L9G3K3",
    "result": [
      {
        "electoralDistricts": [
          {
            "election": null,
            "id": 39,
            "name": "Hamilton West—Ancaster—Dundas"
          }
        ],
        "pollDivisionIds": [
          10135270
        ],
        "postalCode": "L9G3K3",
        "streetName": "BAILEY",
        "streetDirectionId": null,
        "streetTypeId": "AVE",
        "placeName": "ANCASTER",
        "streetNameDisplayText": "BAILEY AVE, ANCASTER"
      }
    ]
  },
  {
    "postal": "L9G9R0",
    "result": []
  },
  {
    "postal": "L9G4R8",
    "result": [
      {
        "electoralDistricts": [
          {
            "election": null,
            "id": 39,
            "name": "Hamilton West—Ancaster—Dundas"
          }
        ],
        "pollDivisionIds": [
          10135273
        ],
        "postalCode": "L9G4R8",
        "streetName": "DEERVIEW",
        "streetDirectionId": null,
        "streetTypeId": "AVE",
        "placeName": "ANCASTER",
        "streetNameDisplayText": "DEERVIEW AVE, ANCASTER"
      }
    ]
  },
  {
    "postal": "L9G5P9",
    "result": []
  },
  {
    "postal": "L9G8N4",
    "result": []
  },
  {
    "postal": "L9G8H4",
    "result": []
  },
  {
    "postal": "L9G4V1",
    "result": [
      {
        "electoralDistricts": [
          {
            "election": null,
            "id": 39,
            "name": "Hamilton West—Ancaster—Dundas"
          }
        ],
        "pollDivisionIds": [
          10135290
        ],
        "postalCode": "L9G4V1",
        "streetName": "CALDER",
        "streetDirectionId": null,
        "streetTypeId": "ST",
        "placeName": "ANCASTER",
        "streetNameDisplayText": "CALDER ST, ANCASTER"
      }
    ]
  },
  {
    "postal": "L9G1K5",
    "result": [
      {
        "electoralDistricts": [
          {
            "election": null,
            "id": 39,
            "name": "Hamilton West—Ancaster—Dundas"
          }
        ],
        "pollDivisionIds": [
          10135273
        ],
        "postalCode": "L9G1K5",
        "streetName": "DALLEY",
        "streetDirectionId": null,
        "streetTypeId": "DR",
        "placeName": "ANCASTER",
        "streetNameDisplayText": "DALLEY DR, ANCASTER"
      }
    ]
  },
  {
    "postal": "L9G1Z5",
    "result": [
      {
        "electoralDistricts": [
          {
            "election": null,
            "id": 39,
            "name": "Hamilton West—Ancaster—Dundas"
          }
        ],
        "pollDivisionIds": [
          10135280
        ],
        "postalCode": "L9G1Z5",
        "streetName": "PARKVIEW",
        "streetDirectionId": null,
        "streetTypeId": "DR",
        "placeName": "ANCASTER",
        "streetNameDisplayText": "PARKVIEW DR, ANCASTER"
      }
    ]
  },
  {
    "postal": "L9G9L9",
    "result": []
  },
  {
    "postal": "L9G5L2",
    "result": []
  },
  {
    "postal": "L9G0M2",
    "result": []
  },
  {
    "postal": "L9G1K8",
    "result": [
      {
        "electoralDistricts": [
          {
            "election": null,
            "id": 31,
            "name": "Flamborough—Glanbrook"
          }
        ],
        "pollDivisionIds": [
          10138252
        ],
        "postalCode": "L9G1K8",
        "streetName": "PARK",
        "streetDirectionId": null,
        "streetTypeId": "AVE",
        "placeName": "ANCASTER",
        "streetNameDisplayText": "PARK AVE, ANCASTER"
      },
      {
        "electoralDistricts": [
          {
            "election": null,
            "id": 39,
            "name": "Hamilton West—Ancaster—Dundas"
          }
        ],
        "pollDivisionIds": [
          10135273
        ],
        "postalCode": "L9G1K8",
        "streetName": "PARK",
        "streetDirectionId": null,
        "streetTypeId": "LANE",
        "placeName": "ANCASTER",
        "streetNameDisplayText": "PARK LANE, ANCASTER"
      },
      {
        "electoralDistricts": [
          {
            "election": null,
            "id": 39,
            "name": "Hamilton West—Ancaster—Dundas"
          }
        ],
        "pollDivisionIds": [
          10135262
        ],
        "postalCode": "L9G1K8",
        "streetName": "PARK",
        "streetDirectionId": "W",
        "streetTypeId": "ST",
        "placeName": "ANCASTER",
        "streetNameDisplayText": "PARK ST W, ANCASTER"
      }
    ]
  },
  {
    "postal": "L9G3M7",
    "result": [
      {
        "electoralDistricts": [
          {
            "election": null,
            "id": 39,
            "name": "Hamilton West—Ancaster—Dundas"
          }
        ],
        "pollDivisionIds": [
          10135270
        ],
        "postalCode": "L9G3M7",
        "streetName": "BRIAR HILL",
        "streetDirectionId": null,
        "streetTypeId": "CRES",
        "placeName": "ANCASTER",
        "streetNameDisplayText": "BRIAR HILL CRES, ANCASTER"
      }
    ]
  },
  {
    "postal": "L9G1B2",
    "result": [
      {
        "electoralDistricts": [
          {
            "election": null,
            "id": 39,
            "name": "Hamilton West—Ancaster—Dundas"
          }
        ],
        "pollDivisionIds": [
          10135273
        ],
        "postalCode": "L9G1B2",
        "streetName": "JOANNE",
        "streetDirectionId": null,
        "streetTypeId": "CRT",
        "placeName": "ANCASTER",
        "streetNameDisplayText": "JOANNE CRT, ANCASTER"
      }
    ]
  },
  {
    "postal": "L9G0H9",
    "result": []
  },
  {
    "postal": "L9G8M4",
    "result": []
  },
  {
    "postal": "L9G2M5",
    "result": [
      {
        "electoralDistricts": [
          {
            "election": null,
            "id": 39,
            "name": "Hamilton West—Ancaster—Dundas"
          }
        ],
        "pollDivisionIds": [
          10135289
        ],
        "postalCode": "L9G2M5",
        "streetName": "ANSON",
        "streetDirectionId": null,
        "streetTypeId": "DR",
        "placeName": "ANCASTER",
        "streetNameDisplayText": "ANSON DR, ANCASTER"
      }
    ]
  },
  {
    "postal": "L9G0T9",
    "result": []
  },
  {
    "postal": "L9G3P1",
    "result": [
      {
        "electoralDistricts": [
          {
            "election": null,
            "id": 39,
            "name": "Hamilton West—Ancaster—Dundas"
          }
        ],
        "pollDivisionIds": [
          10135290
        ],
        "postalCode": "L9G3P1",
        "streetName": "JOHN FREDERICK",
        "streetDirectionId": null,
        "streetTypeId": "DR",
        "placeName": "ANCASTER",
        "streetNameDisplayText": "JOHN FREDERICK DR, ANCASTER"
      }
    ]
  },
  {
    "postal": "L9G1R6",
    "result": [
      {
        "electoralDistricts": [
          {
            "election": null,
            "id": 39,
            "name": "Hamilton West—Ancaster—Dundas"
          }
        ],
        "pollDivisionIds": [
          10135282
        ],
        "postalCode": "L9G1R6",
        "streetName": "FLORESTA",
        "streetDirectionId": null,
        "streetTypeId": "CRT",
        "placeName": "ANCASTER",
        "streetNameDisplayText": "FLORESTA CRT, ANCASTER"
      }
    ]
  },
  {
    "postal": "L9G9V5",
    "result": []
  },
  {
    "postal": "L9G9T0",
    "result": []
  },
  {
    "postal": "L9G0A9",
    "result": [
      {
        "electoralDistricts": [
          {
            "election": null,
            "id": 39,
            "name": "Hamilton West—Ancaster—Dundas"
          }
        ],
        "pollDivisionIds": [
          10135280
        ],
        "postalCode": "L9G0A9",
        "streetName": "VALRIDGE",
        "streetDirectionId": null,
        "streetTypeId": "DR",
        "placeName": "ANCASTER",
        "streetNameDisplayText": "VALRIDGE DR, ANCASTER"
      }
    ]
  },
  {
    "postal": "L9G1M3",
    "result": [
      {
        "electoralDistricts": [
          {
            "election": null,
            "id": 39,
            "name": "Hamilton West—Ancaster—Dundas"
          }
        ],
        "pollDivisionIds": [
          10135273
        ],
        "postalCode": "L9G1M3",
        "streetName": "CAIT",
        "streetDirectionId": null,
        "streetTypeId": "CRT",
        "placeName": "ANCASTER",
        "streetNameDisplayText": "CAIT CRT, ANCASTER"
      }
    ]
  },
  {
    "postal": "L9G1W8",
    "result": [
      {
        "electoralDistricts": [
          {
            "election": null,
            "id": 39,
            "name": "Hamilton West—Ancaster—Dundas"
          }
        ],
        "pollDivisionIds": [
          10135282
        ],
        "postalCode": "L9G1W8",
        "streetName": "FIDDLER'S GREEN",
        "streetDirectionId": null,
        "streetTypeId": "RD",
        "placeName": "ANCASTER",
        "streetNameDisplayText": "FIDDLER'S GREEN RD, ANCASTER"
      }
    ]
  },
  {
    "postal": "L9G9J1",
    "result": []
  },
  {
    "postal": "L9G8N5",
    "result": []
  },
  {
    "postal": "L9G5X1",
    "result": []
  },
  {
    "postal": "L9G6S2",
    "result": []
  },
  {
    "postal": "L9G2A2",
    "result": [
      {
        "electoralDistricts": [
          {
            "election": null,
            "id": 39,
            "name": "Hamilton West—Ancaster—Dundas"
          }
        ],
        "pollDivisionIds": [
          10135280
        ],
        "postalCode": "L9G2A2",
        "streetName": "CENTRAL",
        "streetDirectionId": null,
        "streetTypeId": "DR",
        "placeName": "ANCASTER",
        "streetNameDisplayText": "CENTRAL DR, ANCASTER"
      }
    ]
  },
  {
    "postal": "L9G6A6",
    "result": []
  },
  {
    "postal": "L9G0S3",
    "result": []
  },
  {
    "postal": "L9G3E7",
    "result": [
      {
        "electoralDistricts": [
          {
            "election": null,
            "id": 39,
            "name": "Hamilton West—Ancaster—Dundas"
          }
        ],
        "pollDivisionIds": [
          10135270
        ],
        "postalCode": "L9G3E7",
        "streetName": "ALEXANDER",
        "streetDirectionId": null,
        "streetTypeId": "RD",
        "placeName": "ANCASTER",
        "streetNameDisplayText": "ALEXANDER RD, ANCASTER"
      }
    ]
  },
  {
    "postal": "L9G5R7",
    "result": []
  },
  {
    "postal": "L9G3R6",
    "result": [
      {
        "electoralDistricts": [
          {
            "election": null,
            "id": 39,
            "name": "Hamilton West—Ancaster—Dundas"
          }
        ],
        "pollDivisionIds": [
          10135273
        ],
        "postalCode": "L9G3R6",
        "streetName": "JESSIE",
        "streetDirectionId": null,
        "streetTypeId": "CRT",
        "placeName": "ANCASTER",
        "streetNameDisplayText": "JESSIE CRT, ANCASTER"
      }
    ]
  },
  {
    "postal": "L9G6K4",
    "result": []
  },
  {
    "postal": "L9G2W5",
    "result": [
      {
        "electoralDistricts": [
          {
            "election": null,
            "id": 39,
            "name": "Hamilton West—Ancaster—Dundas"
          }
        ],
        "pollDivisionIds": [
          10135270
        ],
        "postalCode": "L9G2W5",
        "streetName": "ROUSSEAUX",
        "streetDirectionId": null,
        "streetTypeId": "ST",
        "placeName": "ANCASTER",
        "streetNameDisplayText": "ROUSSEAUX ST, ANCASTER"
      }
    ]
  },
  {
    "postal": "L9G8W4",
    "result": []
  },
  {
    "postal": "L9G9C2",
    "result": []
  },
  {
    "postal": "L9G2C0",
    "result": []
  },
  {
    "postal": "L9G0E1",
    "result": [
      {
        "electoralDistricts": [
          {
            "election": null,
            "id": 39,
            "name": "Hamilton West—Ancaster—Dundas"
          }
        ],
        "pollDivisionIds": [
          10135290
        ],
        "postalCode": "L9G0E1",
        "streetName": "ANNALEE",
        "streetDirectionId": null,
        "streetTypeId": "DR",
        "placeName": "ANCASTER",
        "streetNameDisplayText": "ANNALEE DR, ANCASTER"
      },
      {
        "electoralDistricts": [
          {
            "election": null,
            "id": 39,
            "name": "Hamilton West—Ancaster—Dundas"
          }
        ],
        "pollDivisionIds": [
          10135290
        ],
        "postalCode": "L9G0E1",
        "streetName": "DYMENT",
        "streetDirectionId": null,
        "streetTypeId": "CRT",
        "placeName": "ANCASTER",
        "streetNameDisplayText": "DYMENT CRT, ANCASTER"
      },
      {
        "electoralDistricts": [
          {
            "election": null,
            "id": 39,
            "name": "Hamilton West—Ancaster—Dundas"
          }
        ],
        "pollDivisionIds": [
          10135289,
          10135290
        ],
        "postalCode": "L9G0E1",
        "streetName": "JOHN FREDERICK",
        "streetDirectionId": null,
        "streetTypeId": "DR",
        "placeName": "ANCASTER",
        "streetNameDisplayText": "JOHN FREDERICK DR, ANCASTER"
      }
    ]
  },
  {
    "postal": "L9G1K9",
    "result": [
      {
        "electoralDistricts": [
          {
            "election": null,
            "id": 39,
            "name": "Hamilton West—Ancaster—Dundas"
          }
        ],
        "pollDivisionIds": [
          10135273
        ],
        "postalCode": "L9G1K9",
        "streetName": "PARK",
        "streetDirectionId": null,
        "streetTypeId": "LANE",
        "placeName": "ANCASTER",
        "streetNameDisplayText": "PARK LANE, ANCASTER"
      }
    ]
  },
  {
    "postal": "L9G1G7",
    "result": [
      {
        "electoralDistricts": [
          {
            "election": null,
            "id": 39,
            "name": "Hamilton West—Ancaster—Dundas"
          }
        ],
        "pollDivisionIds": [
          10135273
        ],
        "postalCode": "L9G1G7",
        "streetName": "LOVERS",
        "streetDirectionId": null,
        "streetTypeId": "LANE",
        "placeName": "ANCASTER",
        "streetNameDisplayText": "LOVERS LANE, ANCASTER"
      },
      {
        "electoralDistricts": [
          {
            "election": null,
            "id": 39,
            "name": "Hamilton West—Ancaster—Dundas"
          }
        ],
        "pollDivisionIds": [
          10135273
        ],
        "postalCode": "L9G1G7",
        "streetName": "LOVER'S",
        "streetDirectionId": null,
        "streetTypeId": "LANE",
        "placeName": "ANCASTER",
        "streetNameDisplayText": "LOVER'S LANE, ANCASTER"
      }
    ]
  },
  {
    "postal": "L9G4E9",
    "result": [
      {
        "electoralDistricts": [
          {
            "election": null,
            "id": 39,
            "name": "Hamilton West—Ancaster—Dundas"
          }
        ],
        "pollDivisionIds": [
          10135270
        ],
        "postalCode": "L9G4E9",
        "streetName": "HIGHVALLEY",
        "streetDirectionId": null,
        "streetTypeId": "RD",
        "placeName": "ANCASTER",
        "streetNameDisplayText": "HIGHVALLEY RD, ANCASTER"
      }
    ]
  },
  {
    "postal": "L9G9P0",
    "result": []
  },
  {
    "postal": "L9G5H3",
    "result": []
  },
  {
    "postal": "L9G9X6",
    "result": []
  },
  {
    "postal": "L9G5N7",
    "result": []
  },
  {
    "postal": "L9G5A6",
    "result": [
      {
        "electoralDistricts": [
          {
            "election": null,
            "id": 39,
            "name": "Hamilton West—Ancaster—Dundas"
          }
        ],
        "pollDivisionIds": [
          10135288
        ],
        "postalCode": "L9G5A6",
        "streetName": "BLASDELL",
        "streetDirectionId": null,
        "streetTypeId": "CRT",
        "placeName": "ANCASTER",
        "streetNameDisplayText": "BLASDELL CRT, ANCASTER"
      },
      {
        "electoralDistricts": [
          {
            "election": null,
            "id": 39,
            "name": "Hamilton West—Ancaster—Dundas"
          }
        ],
        "pollDivisionIds": [
          10135288
        ],
        "postalCode": "L9G5A6",
        "streetName": "BRAITHWAITE",
        "streetDirectionId": null,
        "streetTypeId": "AVE",
        "placeName": "ANCASTER",
        "streetNameDisplayText": "BRAITHWAITE AVE, ANCASTER"
      }
    ]
  },
  {
    "postal": "L9G4M0",
    "result": []
  },
  {
    "postal": "L9G3V6",
    "result": [
      {
        "electoralDistricts": [
          {
            "election": null,
            "id": 39,
            "name": "Hamilton West—Ancaster—Dundas"
          }
        ],
        "pollDivisionIds": [
          10135281
        ],
        "postalCode": "L9G3V6",
        "streetName": "COTTINGHAM",
        "streetDirectionId": null,
        "streetTypeId": "CRES",
        "placeName": "ANCASTER",
        "streetNameDisplayText": "COTTINGHAM CRES, ANCASTER"
      }
    ]
  },
  {
    "postal": "L9G1L7",
    "result": [
      {
        "electoralDistricts": [
          {
            "election": null,
            "id": 39,
            "name": "Hamilton West—Ancaster—Dundas"
          }
        ],
        "pollDivisionIds": [
          10135270
        ],
        "postalCode": "L9G1L7",
        "streetName": "SULPHUR SPRINGS",
        "streetDirectionId": null,
        "streetTypeId": "RD",
        "placeName": "ANCASTER",
        "streetNameDisplayText": "SULPHUR SPRINGS RD, ANCASTER"
      }
    ]
  },
  {
    "postal": "L9G2P9",
    "result": [
      {
        "electoralDistricts": [
          {
            "election": null,
            "id": 39,
            "name": "Hamilton West—Ancaster—Dundas"
          }
        ],
        "pollDivisionIds": [
          10135283
        ],
        "postalCode": "L9G2P9",
        "streetName": "EVERGREEN",
        "streetDirectionId": null,
        "streetTypeId": "AVE",
        "placeName": "ANCASTER",
        "streetNameDisplayText": "EVERGREEN AVE, ANCASTER"
      }
    ]
  },
  {
    "postal": "L9G5T4",
    "result": []
  },
  {
    "postal": "L9G5Z1",
    "result": []
  },
  {
    "postal": "L9G2X0",
    "result": []
  },
  {
    "postal": "L9G6Z2",
    "result": []
  },
  {
    "postal": "L9G0E0",
    "result": []
  },
  {
    "postal": "L9G3Z5",
    "result": [
      {
        "electoralDistricts": [
          {
            "election": null,
            "id": 39,
            "name": "Hamilton West—Ancaster—Dundas"
          }
        ],
        "pollDivisionIds": [
          10135273
        ],
        "postalCode": "L9G3Z5",
        "streetName": "CRADOCK",
        "streetDirectionId": null,
        "streetTypeId": "CRT",
        "placeName": "ANCASTER",
        "streetNameDisplayText": "CRADOCK CRT, ANCASTER"
      }
    ]
  },
  {
    "postal": "L9G8H3",
    "result": []
  },
  {
    "postal": "L9G7S6",
    "result": []
  },
  {
    "postal": "L9G4C1",
    "result": [
      {
        "electoralDistricts": [
          {
            "election": null,
            "id": 39,
            "name": "Hamilton West—Ancaster—Dundas"
          }
        ],
        "pollDivisionIds": [
          10135273
        ],
        "postalCode": "L9G4C1",
        "streetName": "APRIL",
        "streetDirectionId": null,
        "streetTypeId": "CRT",
        "placeName": "ANCASTER",
        "streetNameDisplayText": "APRIL CRT, ANCASTER"
      }
    ]
  },
  {
    "postal": "L9G3K2",
    "result": [
      {
        "electoralDistricts": [
          {
            "election": null,
            "id": 39,
            "name": "Hamilton West—Ancaster—Dundas"
          }
        ],
        "pollDivisionIds": [
          10135270
        ],
        "postalCode": "L9G3K2",
        "streetName": "BAILEY",
        "streetDirectionId": null,
        "streetTypeId": "AVE",
        "placeName": "ANCASTER",
        "streetNameDisplayText": "BAILEY AVE, ANCASTER"
      }
    ]
  },
  {
    "postal": "L9G1Y5",
    "result": [
      {
        "electoralDistricts": [
          {
            "election": null,
            "id": 39,
            "name": "Hamilton West—Ancaster—Dundas"
          }
        ],
        "pollDivisionIds": [
          10135281
        ],
        "postalCode": "L9G1Y5",
        "streetName": "YAHARA",
        "streetDirectionId": null,
        "streetTypeId": "PL",
        "placeName": "ANCASTER",
        "streetNameDisplayText": "YAHARA PL, ANCASTER"
      }
    ]
  },
  {
    "postal": "L9G6P6",
    "result": []
  },
  {
    "postal": "L9G3N9",
    "result": [
      {
        "electoralDistricts": [
          {
            "election": null,
            "id": 39,
            "name": "Hamilton West—Ancaster—Dundas"
          }
        ],
        "pollDivisionIds": [
          10135283
        ],
        "postalCode": "L9G3N9",
        "streetName": "TUSCARORA",
        "streetDirectionId": null,
        "streetTypeId": "DR",
        "placeName": "ANCASTER",
        "streetNameDisplayText": "TUSCARORA DR, ANCASTER"
      }
    ]
  },
  {
    "postal": "L9G3W2",
    "result": [
      {
        "electoralDistricts": [
          {
            "election": null,
            "id": 39,
            "name": "Hamilton West—Ancaster—Dundas"
          }
        ],
        "pollDivisionIds": [
          10135270
        ],
        "postalCode": "L9G3W2",
        "streetName": "GREENRAVINE",
        "streetDirectionId": null,
        "streetTypeId": "DR",
        "placeName": "ANCASTER",
        "streetNameDisplayText": "GREENRAVINE DR, ANCASTER"
      }
    ]
  },
  {
    "postal": "L9G6H8",
    "result": []
  },
  {
    "postal": "L9G9T3",
    "result": []
  },
  {
    "postal": "L9G5L9",
    "result": []
  },
  {
    "postal": "L9G7X7",
    "result": []
  },
  {
    "postal": "L9G3J5",
    "result": [
      {
        "electoralDistricts": [
          {
            "election": null,
            "id": 39,
            "name": "Hamilton West—Ancaster—Dundas"
          }
        ],
        "pollDivisionIds": [
          10135270
        ],
        "postalCode": "L9G3J5",
        "streetName": "OLD DUNDAS",
        "streetDirectionId": null,
        "streetTypeId": "RD",
        "placeName": "ANCASTER",
        "streetNameDisplayText": "OLD DUNDAS RD, ANCASTER"
      }
    ]
  },
  {
    "postal": "L9G4J5",
    "result": []
  },
  {
    "postal": "L9G6J2",
    "result": []
  },
  {
    "postal": "L9G5V6",
    "result": []
  },
  {
    "postal": "L9G3N2",
    "result": [
      {
        "electoralDistricts": [
          {
            "election": null,
            "id": 39,
            "name": "Hamilton West—Ancaster—Dundas"
          }
        ],
        "pollDivisionIds": [
          10135283
        ],
        "postalCode": "L9G3N2",
        "streetName": "TOMAHAWK",
        "streetDirectionId": null,
        "streetTypeId": "CRES",
        "placeName": "ANCASTER",
        "streetNameDisplayText": "TOMAHAWK CRES, ANCASTER"
      }
    ]
  },
  {
    "postal": "L9G3B1",
    "result": [
      {
        "electoralDistricts": [
          {
            "election": null,
            "id": 39,
            "name": "Hamilton West—Ancaster—Dundas"
          }
        ],
        "pollDivisionIds": [
          10135270
        ],
        "postalCode": "L9G3B1",
        "streetName": "LIME KILN",
        "streetDirectionId": null,
        "streetTypeId": "RD",
        "placeName": "ANCASTER",
        "streetNameDisplayText": "LIME KILN RD, ANCASTER"
      }
    ]
  },
  {
    "postal": "L9G8B5",
    "result": []
  },
  {
    "postal": "L9G0K1",
    "result": []
  },
  {
    "postal": "L9G7M7",
    "result": []
  },
  {
    "postal": "L9G2M2",
    "result": [
      {
        "electoralDistricts": [
          {
            "election": null,
            "id": 39,
            "name": "Hamilton West—Ancaster—Dundas"
          }
        ],
        "pollDivisionIds": [
          10135289
        ],
        "postalCode": "L9G2M2",
        "streetName": "ANSON",
        "streetDirectionId": null,
        "streetTypeId": "DR",
        "placeName": "ANCASTER",
        "streetNameDisplayText": "ANSON DR, ANCASTER"
      }
    ]
  },
  {
    "postal": "L9G9N3",
    "result": []
  },
  {
    "postal": "L9G4Y8",
    "result": [
      {
        "electoralDistricts": [
          {
            "election": null,
            "id": 39,
            "name": "Hamilton West—Ancaster—Dundas"
          }
        ],
        "pollDivisionIds": [
          10135288,
          10135289
        ],
        "postalCode": "L9G4Y8",
        "streetName": "FOXBOROUGH",
        "streetDirectionId": null,
        "streetTypeId": "DR",
        "placeName": "ANCASTER",
        "streetNameDisplayText": "FOXBOROUGH DR, ANCASTER"
      },
      {
        "electoralDistricts": [
          {
            "election": null,
            "id": 39,
            "name": "Hamilton West—Ancaster—Dundas"
          }
        ],
        "pollDivisionIds": [
          10135289
        ],
        "postalCode": "L9G4Y8",
        "streetName": "SUNTER'S",
        "streetDirectionId": null,
        "streetTypeId": "CRT",
        "placeName": "ANCASTER",
        "streetNameDisplayText": "SUNTER'S CRT, ANCASTER"
      }
    ]
  },
  {
    "postal": "L9G3V7",
    "result": [
      {
        "electoralDistricts": [
          {
            "election": null,
            "id": 39,
            "name": "Hamilton West—Ancaster—Dundas"
          }
        ],
        "pollDivisionIds": [
          10135281
        ],
        "postalCode": "L9G3V7",
        "streetName": "DRURY",
        "streetDirectionId": null,
        "streetTypeId": "CRT",
        "placeName": "ANCASTER",
        "streetNameDisplayText": "DRURY CRT, ANCASTER"
      }
    ]
  },
  {
    "postal": "L9G8Z1",
    "result": []
  },
  {
    "postal": "L9G7B3",
    "result": []
  },
  {
    "postal": "L9G3A8",
    "result": [
      {
        "electoralDistricts": [
          {
            "election": null,
            "id": 39,
            "name": "Hamilton West—Ancaster—Dundas"
          }
        ],
        "pollDivisionIds": [
          10135283
        ],
        "postalCode": "L9G3A8",
        "streetName": "HIAWATHA",
        "streetDirectionId": null,
        "streetTypeId": "BLVD",
        "placeName": "ANCASTER",
        "streetNameDisplayText": "HIAWATHA BLVD, ANCASTER"
      }
    ]
  },
  {
    "postal": "L9G7V5",
    "result": []
  },
  {
    "postal": "L9G2T2",
    "result": [
      {
        "electoralDistricts": [
          {
            "election": null,
            "id": 39,
            "name": "Hamilton West—Ancaster—Dundas"
          }
        ],
        "pollDivisionIds": [
          10135290
        ],
        "postalCode": "L9G2T2",
        "streetName": "HARMONY",
        "streetDirectionId": null,
        "streetTypeId": "RD",
        "placeName": "ANCASTER",
        "streetNameDisplayText": "HARMONY RD, ANCASTER"
      }
    ]
  },
  {
    "postal": "L9G6L3",
    "result": []
  },
  {
    "postal": "L9G0L2",
    "result": []
  },
  {
    "postal": "L9G5Y8",
    "result": []
  },
  {
    "postal": "L9G0B8",
    "result": [
      {
        "electoralDistricts": [
          {
            "election": null,
            "id": 39,
            "name": "Hamilton West—Ancaster—Dundas"
          }
        ],
        "pollDivisionIds": [
          10135289
        ],
        "postalCode": "L9G0B8",
        "streetName": "GREGORIO",
        "streetDirectionId": null,
        "streetTypeId": "CRT",
        "placeName": "ANCASTER",
        "streetNameDisplayText": "GREGORIO CRT, ANCASTER"
      }
    ]
  },
  {
    "postal": "L9G6R5",
    "result": []
  },
  {
    "postal": "L9G8W6",
    "result": []
  },
  {
    "postal": "L9G8G6",
    "result": []
  },
  {
    "postal": "L9G6X3",
    "result": []
  },
  {
    "postal": "L9G7R7",
    "result": []
  },
  {
    "postal": "L9G4B6",
    "result": [
      {
        "electoralDistricts": [
          {
            "election": null,
            "id": 39,
            "name": "Hamilton West—Ancaster—Dundas"
          }
        ],
        "pollDivisionIds": [
          10135281
        ],
        "postalCode": "L9G4B6",
        "streetName": "AMBERLY",
        "streetDirectionId": null,
        "streetTypeId": "BLVD",
        "placeName": "ANCASTER",
        "streetNameDisplayText": "AMBERLY BLVD, ANCASTER"
      }
    ]
  },
  {
    "postal": "L9G3P9",
    "result": [
      {
        "electoralDistricts": [
          {
            "election": null,
            "id": 39,
            "name": "Hamilton West—Ancaster—Dundas"
          }
        ],
        "pollDivisionIds": [
          10135273
        ],
        "postalCode": "L9G3P9",
        "streetName": "POSTANS",
        "streetDirectionId": null,
        "streetTypeId": "PATH",
        "placeName": "ANCASTER",
        "streetNameDisplayText": "POSTANS PATH, ANCASTER"
      }
    ]
  },
  {
    "postal": "L9G2T3",
    "result": [
      {
        "electoralDistricts": [
          {
            "election": null,
            "id": 39,
            "name": "Hamilton West—Ancaster—Dundas"
          }
        ],
        "pollDivisionIds": [
          10135290
        ],
        "postalCode": "L9G2T3",
        "streetName": "HARMONY",
        "streetDirectionId": null,
        "streetTypeId": "RD",
        "placeName": "ANCASTER",
        "streetNameDisplayText": "HARMONY RD, ANCASTER"
      }
    ]
  },
  {
    "postal": "L9G1M4",
    "result": [
      {
        "electoralDistricts": [
          {
            "election": null,
            "id": 39,
            "name": "Hamilton West—Ancaster—Dundas"
          }
        ],
        "pollDivisionIds": [
          10135273
        ],
        "postalCode": "L9G1M4",
        "streetName": "CAIT",
        "streetDirectionId": null,
        "streetTypeId": "CRT",
        "placeName": "ANCASTER",
        "streetNameDisplayText": "CAIT CRT, ANCASTER"
      }
    ]
  },
  {
    "postal": "L9G0H1",
    "result": []
  },
  {
    "postal": "L9G9W3",
    "result": []
  },
  {
    "postal": "L9G6P1",
    "result": []
  },
  {
    "postal": "L9G7G2",
    "result": []
  },
  {
    "postal": "L9G4J9",
    "result": [
      {
        "electoralDistricts": [
          {
            "election": null,
            "id": 39,
            "name": "Hamilton West—Ancaster—Dundas"
          }
        ],
        "pollDivisionIds": [
          10135281
        ],
        "postalCode": "L9G4J9",
        "streetName": "STADACONA",
        "streetDirectionId": null,
        "streetTypeId": "AVE",
        "placeName": "ANCASTER",
        "streetNameDisplayText": "STADACONA AVE, ANCASTER"
      }
    ]
  },
  {
    "postal": "L9G9E4",
    "result": []
  },
  {
    "postal": "L9G8H0",
    "result": []
  },
  {
    "postal": "L9G4M7",
    "result": [
      {
        "electoralDistricts": [
          {
            "election": null,
            "id": 39,
            "name": "Hamilton West—Ancaster—Dundas"
          }
        ],
        "pollDivisionIds": [
          10135283
        ],
        "postalCode": "L9G4M7",
        "streetName": "ORTON",
        "streetDirectionId": null,
        "streetTypeId": "AVE",
        "placeName": "ANCASTER",
        "streetNameDisplayText": "ORTON AVE, ANCASTER"
      },
      {
        "electoralDistricts": [
          {
            "election": null,
            "id": 39,
            "name": "Hamilton West—Ancaster—Dundas"
          }
        ],
        "pollDivisionIds": [
          10135283
        ],
        "postalCode": "L9G4M7",
        "streetName": "ORTON",
        "streetDirectionId": null,
        "streetTypeId": "PL",
        "placeName": "ANCASTER",
        "streetNameDisplayText": "ORTON PL, ANCASTER"
      }
    ]
  },
  {
    "postal": "L9G2G9",
    "result": [
      {
        "electoralDistricts": [
          {
            "election": null,
            "id": 39,
            "name": "Hamilton West—Ancaster—Dundas"
          }
        ],
        "pollDivisionIds": [
          10135282
        ],
        "postalCode": "L9G2G9",
        "streetName": "CALVIN",
        "streetDirectionId": null,
        "streetTypeId": "ST",
        "placeName": "ANCASTER",
        "streetNameDisplayText": "CALVIN ST, ANCASTER"
      }
    ]
  },
  {
    "postal": "L9G8T2",
    "result": []
  },
  {
    "postal": "L9G7G7",
    "result": []
  },
  {
    "postal": "L9G4Z3",
    "result": [
      {
        "electoralDistricts": [
          {
            "election": null,
            "id": 39,
            "name": "Hamilton West—Ancaster—Dundas"
          }
        ],
        "pollDivisionIds": [
          10135270
        ],
        "postalCode": "L9G4Z3",
        "streetName": "MILLCREEK",
        "streetDirectionId": null,
        "streetTypeId": "CRT",
        "placeName": "ANCASTER",
        "streetNameDisplayText": "MILLCREEK CRT, ANCASTER"
      }
    ]
  },
  {
    "postal": "L9G5B3",
    "result": [
      {
        "electoralDistricts": [
          {
            "election": null,
            "id": 39,
            "name": "Hamilton West—Ancaster—Dundas"
          }
        ],
        "pollDivisionIds": [
          10135270
        ],
        "postalCode": "L9G5B3",
        "streetName": "WOODHAVEN",
        "streetDirectionId": null,
        "streetTypeId": "PL",
        "placeName": "ANCASTER",
        "streetNameDisplayText": "WOODHAVEN PL, ANCASTER"
      }
    ]
  },
  {
    "postal": "L9G1S7",
    "result": [
      {
        "electoralDistricts": [
          {
            "election": null,
            "id": 39,
            "name": "Hamilton West—Ancaster—Dundas"
          }
        ],
        "pollDivisionIds": [
          10135281
        ],
        "postalCode": "L9G1S7",
        "streetName": "NAKOMA",
        "streetDirectionId": null,
        "streetTypeId": "RD",
        "placeName": "ANCASTER",
        "streetNameDisplayText": "NAKOMA RD, ANCASTER"
      }
    ]
  },
  {
    "postal": "L9G2N7",
    "result": [
      {
        "electoralDistricts": [
          {
            "election": null,
            "id": 39,
            "name": "Hamilton West—Ancaster—Dundas"
          }
        ],
        "pollDivisionIds": [
          10135283
        ],
        "postalCode": "L9G2N7",
        "streetName": "GOLF LINKS",
        "streetDirectionId": null,
        "streetTypeId": "RD",
        "placeName": "ANCASTER",
        "streetNameDisplayText": "GOLF LINKS RD, ANCASTER"
      }
    ]
  },
  {
    "postal": "L9G0H8",
    "result": []
  },
  {
    "postal": "L9G7Z4",
    "result": []
  },
  {
    "postal": "L9G7B1",
    "result": []
  },
  {
    "postal": "L9G7P8",
    "result": []
  },
  {
    "postal": "L9G7N0",
    "result": []
  },
  {
    "postal": "L9G3Y5",
    "result": [
      {
        "electoralDistricts": [
          {
            "election": null,
            "id": 39,
            "name": "Hamilton West—Ancaster—Dundas"
          }
        ],
        "pollDivisionIds": [
          10135281
        ],
        "postalCode": "L9G3Y5",
        "streetName": "AMBERLY",
        "streetDirectionId": null,
        "streetTypeId": "BLVD",
        "placeName": "ANCASTER",
        "streetNameDisplayText": "AMBERLY BLVD, ANCASTER"
      }
    ]
  },
  {
    "postal": "L9G6K1",
    "result": []
  },
  {
    "postal": "L9G9X5",
    "result": []
  },
  {
    "postal": "L9G7S5",
    "result": []
  },
  {
    "postal": "L9G0A4",
    "result": [
      {
        "electoralDistricts": [
          {
            "election": null,
            "id": 39,
            "name": "Hamilton West—Ancaster—Dundas"
          }
        ],
        "pollDivisionIds": [
          10135288
        ],
        "postalCode": "L9G0A4",
        "streetName": "PANABAKER",
        "streetDirectionId": null,
        "streetTypeId": "DR",
        "placeName": "ANCASTER",
        "streetNameDisplayText": "PANABAKER DR, ANCASTER"
      }
    ]
  },
  {
    "postal": "L9G4T5",
    "result": [
      {
        "electoralDistricts": [
          {
            "election": null,
            "id": 39,
            "name": "Hamilton West—Ancaster—Dundas"
          }
        ],
        "pollDivisionIds": [
          10135281
        ],
        "postalCode": "L9G4T5",
        "streetName": "CAVENDISH",
        "streetDirectionId": null,
        "streetTypeId": "DR",
        "placeName": "ANCASTER",
        "streetNameDisplayText": "CAVENDISH DR, ANCASTER"
      }
    ]
  },
  {
    "postal": "L9G5K1",
    "result": []
  },
  {
    "postal": "L9G0Z9",
    "result": []
  },
  {
    "postal": "L9G7T2",
    "result": []
  },
  {
    "postal": "L9G1L5",
    "result": [
      {
        "electoralDistricts": [
          {
            "election": null,
            "id": 39,
            "name": "Hamilton West—Ancaster—Dundas"
          }
        ],
        "pollDivisionIds": [
          10135273
        ],
        "postalCode": "L9G1L5",
        "streetName": "JUDITH",
        "streetDirectionId": null,
        "streetTypeId": "CRES",
        "placeName": "ANCASTER",
        "streetNameDisplayText": "JUDITH CRES, ANCASTER"
      }
    ]
  },
  {
    "postal": "L9G3N5",
    "result": [
      {
        "electoralDistricts": [
          {
            "election": null,
            "id": 39,
            "name": "Hamilton West—Ancaster—Dundas"
          }
        ],
        "pollDivisionIds": [
          10135273
        ],
        "postalCode": "L9G3N5",
        "streetName": "REMBRANDT",
        "streetDirectionId": null,
        "streetTypeId": "CRT",
        "placeName": "ANCASTER",
        "streetNameDisplayText": "REMBRANDT CRT, ANCASTER"
      }
    ]
  },
  {
    "postal": "L9G6H4",
    "result": []
  },
  {
    "postal": "L9G5A5",
    "result": [
      {
        "electoralDistricts": [
          {
            "election": null,
            "id": 39,
            "name": "Hamilton West—Ancaster—Dundas"
          }
        ],
        "pollDivisionIds": [
          10135288
        ],
        "postalCode": "L9G5A5",
        "streetName": "BRAITHWAITE",
        "streetDirectionId": null,
        "streetTypeId": "AVE",
        "placeName": "ANCASTER",
        "streetNameDisplayText": "BRAITHWAITE AVE, ANCASTER"
      },
      {
        "electoralDistricts": [
          {
            "election": null,
            "id": 39,
            "name": "Hamilton West—Ancaster—Dundas"
          }
        ],
        "pollDivisionIds": [
          10135288
        ],
        "postalCode": "L9G5A5",
        "streetName": "KENDRICK",
        "streetDirectionId": null,
        "streetTypeId": "CRT",
        "placeName": "ANCASTER",
        "streetNameDisplayText": "KENDRICK CRT, ANCASTER"
      }
    ]
  },
  {
    "postal": "L9G3R9",
    "result": [
      {
        "electoralDistricts": [
          {
            "election": null,
            "id": 39,
            "name": "Hamilton West—Ancaster—Dundas"
          },
          {
            "election": null,
            "id": 31,
            "name": "Flamborough—Glanbrook"
          }
        ],
        "pollDivisionIds": [
          10135281,
          10138243
        ],
        "postalCode": "L9G3R9",
        "streetName": "AMBERLY",
        "streetDirectionId": null,
        "streetTypeId": "BLVD",
        "placeName": "ANCASTER",
        "streetNameDisplayText": "AMBERLY BLVD, ANCASTER"
      }
    ]
  },
  {
    "postal": "L9G7L8",
    "result": []
  },
  {
    "postal": "L9G6T6",
    "result": []
  },
  {
    "postal": "L9G7Y7",
    "result": []
  },
  {
    "postal": "L9G3M8",
    "result": [
      {
        "electoralDistricts": [
          {
            "election": null,
            "id": 39,
            "name": "Hamilton West—Ancaster—Dundas"
          }
        ],
        "pollDivisionIds": [
          10135290
        ],
        "postalCode": "L9G3M8",
        "streetName": "LIMA",
        "streetDirectionId": null,
        "streetTypeId": "CRT",
        "placeName": "ANCASTER",
        "streetNameDisplayText": "LIMA CRT, ANCASTER"
      }
    ]
  },
  {
    "postal": "L9G2E0",
    "result": []
  },
  {
    "postal": "L9G4B5",
    "result": [
      {
        "electoralDistricts": [
          {
            "election": null,
            "id": 39,
            "name": "Hamilton West—Ancaster—Dundas"
          }
        ],
        "pollDivisionIds": [
          10135273
        ],
        "postalCode": "L9G4B5",
        "streetName": "TERRENCE PARK",
        "streetDirectionId": null,
        "streetTypeId": "DR",
        "placeName": "ANCASTER",
        "streetNameDisplayText": "TERRENCE PARK DR, ANCASTER"
      }
    ]
  },
  {
    "postal": "L9G1J3",
    "result": [
      {
        "electoralDistricts": [
          {
            "election": null,
            "id": 39,
            "name": "Hamilton West—Ancaster—Dundas"
          }
        ],
        "pollDivisionIds": [
          10135273
        ],
        "postalCode": "L9G1J3",
        "streetName": "COLLEEN",
        "streetDirectionId": null,
        "streetTypeId": "CRES",
        "placeName": "ANCASTER",
        "streetNameDisplayText": "COLLEEN CRES, ANCASTER"
      }
    ]
  },
  {
    "postal": "L9G5S6",
    "result": []
  },
  {
    "postal": "L9G8P7",
    "result": []
  },
  {
    "postal": "L9G7S7",
    "result": []
  },
  {
    "postal": "L9G4C2",
    "result": [
      {
        "electoralDistricts": [
          {
            "election": null,
            "id": 39,
            "name": "Hamilton West—Ancaster—Dundas"
          }
        ],
        "pollDivisionIds": [
          10135273
        ],
        "postalCode": "L9G4C2",
        "streetName": "BROOKVIEW",
        "streetDirectionId": null,
        "streetTypeId": "CRT",
        "placeName": "ANCASTER",
        "streetNameDisplayText": "BROOKVIEW CRT, ANCASTER"
      }
    ]
  },
  {
    "postal": "L9G5Y0",
    "result": []
  },
  {
    "postal": "L9G2V7",
    "result": [
      {
        "electoralDistricts": [
          {
            "election": null,
            "id": 39,
            "name": "Hamilton West—Ancaster—Dundas"
          }
        ],
        "pollDivisionIds": [
          10135290
        ],
        "postalCode": "L9G2V7",
        "streetName": "APPLEBY",
        "streetDirectionId": null,
        "streetTypeId": "RD",
        "placeName": "ANCASTER",
        "streetNameDisplayText": "APPLEBY RD, ANCASTER"
      }
    ]
  },
  {
    "postal": "L9G8P5",
    "result": []
  },
  {
    "postal": "L9G5P5",
    "result": []
  },
  {
    "postal": "L9G5Z0",
    "result": []
  },
  {
    "postal": "L9G9B0",
    "result": []
  },
  {
    "postal": "L9G1L0",
    "result": []
  },
  {
    "postal": "L9G0B5",
    "result": [
      {
        "electoralDistricts": [
          {
            "election": null,
            "id": 39,
            "name": "Hamilton West—Ancaster—Dundas"
          }
        ],
        "pollDivisionIds": [
          10135289
        ],
        "postalCode": "L9G0B5",
        "streetName": "BOOKJANS",
        "streetDirectionId": null,
        "streetTypeId": "DR",
        "placeName": "ANCASTER",
        "streetNameDisplayText": "BOOKJANS DR, ANCASTER"
      }
    ]
  },
  {
    "postal": "L9G3L2",
    "result": []
  },
  {
    "postal": "L9G3B7",
    "result": [
      {
        "electoralDistricts": [
          {
            "election": null,
            "id": 39,
            "name": "Hamilton West—Ancaster—Dundas"
          }
        ],
        "pollDivisionIds": [
          10135283
        ],
        "postalCode": "L9G3B7",
        "streetName": "SENECA",
        "streetDirectionId": null,
        "streetTypeId": "DR",
        "placeName": "ANCASTER",
        "streetNameDisplayText": "SENECA DR, ANCASTER"
      }
    ]
  },
  {
    "postal": "L9G8L1",
    "result": []
  },
  {
    "postal": "L9G5M4",
    "result": []
  },
  {
    "postal": "L9G4G9",
    "result": []
  },
  {
    "postal": "L9G0P0",
    "result": []
  },
  {
    "postal": "L9G8G2",
    "result": []
  },
  {
    "postal": "L9G1V9",
    "result": [
      {
        "electoralDistricts": [
          {
            "election": null,
            "id": 39,
            "name": "Hamilton West—Ancaster—Dundas"
          }
        ],
        "pollDivisionIds": [
          10135273
        ],
        "postalCode": "L9G1V9",
        "streetName": "FIDDLER'S GREEN",
        "streetDirectionId": null,
        "streetTypeId": "RD",
        "placeName": "ANCASTER",
        "streetNameDisplayText": "FIDDLER'S GREEN RD, ANCASTER"
      }
    ]
  },
  {
    "postal": "L9G8N8",
    "result": []
  },
  {
    "postal": "L9G6S8",
    "result": []
  },
  {
    "postal": "L9G8H2",
    "result": []
  },
  {
    "postal": "L9G5R8",
    "result": []
  },
  {
    "postal": "L9G5L4",
    "result": []
  },
  {
    "postal": "L9G9E1",
    "result": []
  },
  {
    "postal": "L9G1C4",
    "result": [
      {
        "electoralDistricts": [
          {
            "election": null,
            "id": 39,
            "name": "Hamilton West—Ancaster—Dundas"
          }
        ],
        "pollDivisionIds": [
          10135273
        ],
        "postalCode": "L9G1C4",
        "streetName": "TERRENCE PARK",
        "streetDirectionId": null,
        "streetTypeId": "DR",
        "placeName": "ANCASTER",
        "streetNameDisplayText": "TERRENCE PARK DR, ANCASTER"
      }
    ]
  },
  {
    "postal": "L9G8W5",
    "result": []
  },
  {
    "postal": "L9G1Y4",
    "result": [
      {
        "electoralDistricts": [
          {
            "election": null,
            "id": 39,
            "name": "Hamilton West—Ancaster—Dundas"
          }
        ],
        "pollDivisionIds": [
          10135281
        ],
        "postalCode": "L9G1Y4",
        "streetName": "YAHARA",
        "streetDirectionId": null,
        "streetTypeId": "PL",
        "placeName": "ANCASTER",
        "streetNameDisplayText": "YAHARA PL, ANCASTER"
      }
    ]
  },
  {
    "postal": "L9G1C0",
    "result": []
  },
  {
    "postal": "L9G2J2",
    "result": [
      {
        "electoralDistricts": [
          {
            "election": null,
            "id": 39,
            "name": "Hamilton West—Ancaster—Dundas"
          }
        ],
        "pollDivisionIds": [
          10135289
        ],
        "postalCode": "L9G2J2",
        "streetName": "ROSELAWN",
        "streetDirectionId": null,
        "streetTypeId": "AVE",
        "placeName": "ANCASTER",
        "streetNameDisplayText": "ROSELAWN AVE, ANCASTER"
      }
    ]
  },
  {
    "postal": "L9G2J0",
    "result": []
  },
  {
    "postal": "L9G7A3",
    "result": []
  },
  {
    "postal": "L9G8M1",
    "result": []
  },
  {
    "postal": "L9G7T9",
    "result": []
  },
  {
    "postal": "L9G6C0",
    "result": []
  },
  {
    "postal": "L9G7X1",
    "result": []
  },
  {
    "postal": "L9G0G1",
    "result": []
  },
  {
    "postal": "L9G4X2",
    "result": [
      {
        "electoralDistricts": [
          {
            "election": null,
            "id": 36,
            "name": "Hamilton Centre"
          }
        ],
        "pollDivisionIds": [
          10138603
        ],
        "postalCode": "L9G4X2",
        "streetName": "WILSON",
        "streetDirectionId": null,
        "streetTypeId": "ST",
        "placeName": "HAMILTON",
        "streetNameDisplayText": "WILSON ST, HAMILTON"
      }
    ]
  },
  {
    "postal": "L9G0N6",
    "result": []
  },
  {
    "postal": "L9G8E3",
    "result": []
  },
  {
    "postal": "L9G5S8",
    "result": []
  },
  {
    "postal": "L9G0R0",
    "result": []
  },
  {
    "postal": "L9G6J6",
    "result": []
  },
  {
    "postal": "L9G4B4",
    "result": [
      {
        "electoralDistricts": [
          {
            "election": null,
            "id": 39,
            "name": "Hamilton West—Ancaster—Dundas"
          }
        ],
        "pollDivisionIds": [
          10135273
        ],
        "postalCode": "L9G4B4",
        "streetName": "BROOKVIEW",
        "streetDirectionId": null,
        "streetTypeId": "CRT",
        "placeName": "ANCASTER",
        "streetNameDisplayText": "BROOKVIEW CRT, ANCASTER"
      }
    ]
  },
  {
    "postal": "L9G7E3",
    "result": []
  },
  {
    "postal": "L9G3N6",
    "result": []
  },
  {
    "postal": "L9G3X6",
    "result": [
      {
        "electoralDistricts": [
          {
            "election": null,
            "id": 39,
            "name": "Hamilton West—Ancaster—Dundas"
          }
        ],
        "pollDivisionIds": [
          10135281
        ],
        "postalCode": "L9G3X6",
        "streetName": "STADACONA",
        "streetDirectionId": null,
        "streetTypeId": "AVE",
        "placeName": "ANCASTER",
        "streetNameDisplayText": "STADACONA AVE, ANCASTER"
      }
    ]
  },
  {
    "postal": "L9G8L0",
    "result": []
  },
  {
    "postal": "L9G8N1",
    "result": []
  },
  {
    "postal": "L9G4J0",
    "result": []
  },
  {
    "postal": "L9G0X7",
    "result": []
  },
  {
    "postal": "L9G6S4",
    "result": []
  },
  {
    "postal": "L9G0Z0",
    "result": []
  },
  {
    "postal": "L9G9X8",
    "result": []
  },
  {
    "postal": "L9G3H3",
    "result": [
      {
        "electoralDistricts": [
          {
            "election": null,
            "id": 39,
            "name": "Hamilton West—Ancaster—Dundas"
          }
        ],
        "pollDivisionIds": [
          10135270
        ],
        "postalCode": "L9G3H3",
        "streetName": "VERNON",
        "streetDirectionId": null,
        "streetTypeId": "PL",
        "placeName": "ANCASTER",
        "streetNameDisplayText": "VERNON PL, ANCASTER"
      }
    ]
  },
  {
    "postal": "L9G7S2",
    "result": []
  },
  {
    "postal": "L9G3T3",
    "result": [
      {
        "electoralDistricts": [
          {
            "election": null,
            "id": 39,
            "name": "Hamilton West—Ancaster—Dundas"
          }
        ],
        "pollDivisionIds": [
          10135283
        ],
        "postalCode": "L9G3T3",
        "streetName": "MCNIVEN",
        "streetDirectionId": null,
        "streetTypeId": "RD",
        "placeName": "ANCASTER",
        "streetNameDisplayText": "MCNIVEN RD, ANCASTER"
      }
    ]
  },
  {
    "postal": "L9G9P3",
    "result": []
  },
  {
    "postal": "L9G4H8",
    "result": []
  },
  {
    "postal": "L9G6R1",
    "result": []
  },
  {
    "postal": "L9G1S0",
    "result": []
  },
  {
    "postal": "L9G3W8",
    "result": [
      {
        "electoralDistricts": [
          {
            "election": null,
            "id": 39,
            "name": "Hamilton West—Ancaster—Dundas"
          }
        ],
        "pollDivisionIds": [
          10135273
        ],
        "postalCode": "L9G3W8",
        "streetName": "LLOYMINN",
        "streetDirectionId": "S",
        "streetTypeId": "AVE",
        "placeName": "ANCASTER",
        "streetNameDisplayText": "LLOYMINN AVE S, ANCASTER"
      }
    ]
  },
  {
    "postal": "L9G4S3",
    "result": [
      {
        "electoralDistricts": [
          {
            "election": null,
            "id": 39,
            "name": "Hamilton West—Ancaster—Dundas"
          }
        ],
        "pollDivisionIds": [
          10135273
        ],
        "postalCode": "L9G4S3",
        "streetName": "DEERVIEW",
        "streetDirectionId": null,
        "streetTypeId": "PL",
        "placeName": "ANCASTER",
        "streetNameDisplayText": "DEERVIEW PL, ANCASTER"
      },
      {
        "electoralDistricts": [
          {
            "election": null,
            "id": 39,
            "name": "Hamilton West—Ancaster—Dundas"
          }
        ],
        "pollDivisionIds": [
          10135273
        ],
        "postalCode": "L9G4S3",
        "streetName": "WILDERNESS",
        "streetDirectionId": null,
        "streetTypeId": "DR",
        "placeName": "ANCASTER",
        "streetNameDisplayText": "WILDERNESS DR, ANCASTER"
      }
    ]
  },
  {
    "postal": "L9G1B6",
    "result": [
      {
        "electoralDistricts": [
          {
            "election": null,
            "id": 39,
            "name": "Hamilton West—Ancaster—Dundas"
          }
        ],
        "pollDivisionIds": [
          10135273
        ],
        "postalCode": "L9G1B6",
        "streetName": "CHATTERSON",
        "streetDirectionId": null,
        "streetTypeId": "DR",
        "placeName": "ANCASTER",
        "streetNameDisplayText": "CHATTERSON DR, ANCASTER"
      }
    ]
  },
  {
    "postal": "L9G8R3",
    "result": []
  },
  {
    "postal": "L9G4V9",
    "result": [
      {
        "electoralDistricts": [
          {
            "election": null,
            "id": 39,
            "name": "Hamilton West—Ancaster—Dundas"
          }
        ],
        "pollDivisionIds": [
          10135289
        ],
        "postalCode": "L9G4V9",
        "streetName": "GARDEN",
        "streetDirectionId": null,
        "streetTypeId": "AVE",
        "placeName": "ANCASTER",
        "streetNameDisplayText": "GARDEN AVE, ANCASTER"
      }
    ]
  },
  {
    "postal": "L9G9W4",
    "result": []
  },
  {
    "postal": "L9G3T4",
    "result": [
      {
        "electoralDistricts": [
          {
            "election": null,
            "id": 39,
            "name": "Hamilton West—Ancaster—Dundas"
          }
        ],
        "pollDivisionIds": [
          10135283
        ],
        "postalCode": "L9G3T4",
        "streetName": "TOMAHAWK",
        "streetDirectionId": null,
        "streetTypeId": "CRES",
        "placeName": "ANCASTER",
        "streetNameDisplayText": "TOMAHAWK CRES, ANCASTER"
      }
    ]
  },
  {
    "postal": "L9G5C7",
    "result": [
      {
        "electoralDistricts": [
          {
            "election": null,
            "id": 39,
            "name": "Hamilton West—Ancaster—Dundas"
          }
        ],
        "pollDivisionIds": [
          10135280
        ],
        "postalCode": "L9G5C7",
        "streetName": "WESLEYAN",
        "streetDirectionId": null,
        "streetTypeId": "CRT",
        "placeName": "ANCASTER",
        "streetNameDisplayText": "WESLEYAN CRT, ANCASTER"
      }
    ]
  },
  {
    "postal": "L9G3Y1",
    "result": [
      {
        "electoralDistricts": [
          {
            "election": null,
            "id": 39,
            "name": "Hamilton West—Ancaster—Dundas"
          }
        ],
        "pollDivisionIds": [
          10135273
        ],
        "postalCode": "L9G3Y1",
        "streetName": "TINDER",
        "streetDirectionId": null,
        "streetTypeId": "LANE",
        "placeName": "ANCASTER",
        "streetNameDisplayText": "TINDER LANE, ANCASTER"
      }
    ]
  },
  {
    "postal": "L9G5V0",
    "result": []
  },
  {
    "postal": "L9G8G8",
    "result": []
  },
  {
    "postal": "L9G8B1",
    "result": []
  },
  {
    "postal": "L9G4P5",
    "result": [
      {
        "electoralDistricts": [
          {
            "election": null,
            "id": 39,
            "name": "Hamilton West—Ancaster—Dundas"
          }
        ],
        "pollDivisionIds": [
          10135280
        ],
        "postalCode": "L9G4P5",
        "streetName": "ABBEY",
        "streetDirectionId": null,
        "streetTypeId": "CLOSE",
        "placeName": "ANCASTER",
        "streetNameDisplayText": "ABBEY CLOSE, ANCASTER"
      },
      {
        "electoralDistricts": [
          {
            "election": null,
            "id": 39,
            "name": "Hamilton West—Ancaster—Dundas"
          }
        ],
        "pollDivisionIds": [
          10135280
        ],
        "postalCode": "L9G4P5",
        "streetName": "MEADOWBROOK",
        "streetDirectionId": null,
        "streetTypeId": "DR",
        "placeName": "ANCASTER",
        "streetNameDisplayText": "MEADOWBROOK DR, ANCASTER"
      },
      {
        "electoralDistricts": [
          {
            "election": null,
            "id": 39,
            "name": "Hamilton West—Ancaster—Dundas"
          }
        ],
        "pollDivisionIds": [
          10135280
        ],
        "postalCode": "L9G4P5",
        "streetName": "NORMA",
        "streetDirectionId": null,
        "streetTypeId": "CRES",
        "placeName": "ANCASTER",
        "streetNameDisplayText": "NORMA CRES, ANCASTER"
      }
    ]
  },
  {
    "postal": "L9G7B2",
    "result": []
  },
  {
    "postal": "L9G0R2",
    "result": []
  },
  {
    "postal": "L9G4M4",
    "result": [
      {
        "electoralDistricts": [
          {
            "election": null,
            "id": 39,
            "name": "Hamilton West—Ancaster—Dundas"
          }
        ],
        "pollDivisionIds": [
          10135283
        ],
        "postalCode": "L9G4M4",
        "streetName": "CHARTERHOUSE",
        "streetDirectionId": null,
        "streetTypeId": "CRES",
        "placeName": "ANCASTER",
        "streetNameDisplayText": "CHARTERHOUSE CRES, ANCASTER"
      }
    ]
  },
  {
    "postal": "L9G7M4",
    "result": []
  },
  {
    "postal": "L9G9S7",
    "result": []
  },
  {
    "postal": "L9G5Z7",
    "result": []
  },
  {
    "postal": "L9G7J7",
    "result": []
  },
  {
    "postal": "L9G8R8",
    "result": []
  },
  {
    "postal": "L9G9X1",
    "result": []
  },
  {
    "postal": "L9G5M9",
    "result": []
  },
  {
    "postal": "L9G9B4",
    "result": []
  },
  {
    "postal": "L9G0L9",
    "result": []
  },
  {
    "postal": "L9G9G4",
    "result": []
  },
  {
    "postal": "L9G1J4",
    "result": [
      {
        "electoralDistricts": [
          {
            "election": null,
            "id": 39,
            "name": "Hamilton West—Ancaster—Dundas"
          }
        ],
        "pollDivisionIds": [
          10135273
        ],
        "postalCode": "L9G1J4",
        "streetName": "COLLEEN",
        "streetDirectionId": null,
        "streetTypeId": "CRES",
        "placeName": "ANCASTER",
        "streetNameDisplayText": "COLLEEN CRES, ANCASTER"
      }
    ]
  },
  {
    "postal": "L9G0W6",
    "result": []
  }
]
