[
  {
    "postal": "N5Y9J6",
    "result": []
  },
  {
    "postal": "N5Y9Z5",
    "result": []
  },
  {
    "postal": "N5Y7H8",
    "result": []
  },
  {
    "postal": "N5Y0P6",
    "result": []
  },
  {
    "postal": "N5Y0S7",
    "result": []
  },
  {
    "postal": "N5Y8B9",
    "result": []
  },
  {
    "postal": "N5Y2A6",
    "result": [
      {
        "electoralDistricts": [
          {
            "election": null,
            "id": 54,
            "name": "London North Centre"
          }
        ],
        "pollDivisionIds": [
          10135369
        ],
        "postalCode": "N5Y2A6",
        "streetName": "GAMMAGE",
        "streetDirectionId": null,
        "streetTypeId": "ST",
        "placeName": "LONDON",
        "streetNameDisplayText": "GAMMAGE ST, LONDON"
      }
    ]
  },
  {
    "postal": "N5Y7V2",
    "result": []
  },
  {
    "postal": "N5Y9P4",
    "result": []
  },
  {
    "postal": "N5Y6G0",
    "result": []
  },
  {
    "postal": "N5Y2K0",
    "result": []
  },
  {
    "postal": "N5Y7N6",
    "result": []
  },
  {
    "postal": "N5Y5R3",
    "result": [
      {
        "electoralDistricts": [
          {
            "election": null,
            "id": 54,
            "name": "London North Centre"
          }
        ],
        "pollDivisionIds": [
          10135354
        ],
        "postalCode": "N5Y5R3",
        "streetName": "HIGHBURY",
        "streetDirectionId": "N",
        "streetTypeId": "AVE",
        "placeName": "LONDON",
        "streetNameDisplayText": "HIGHBURY AVE N, LONDON"
      }
    ]
  },
  {
    "postal": "N5Y7K0",
    "result": []
  },
  {
    "postal": "N5Y3R2",
    "result": [
      {
        "electoralDistricts": [
          {
            "election": null,
            "id": 54,
            "name": "London North Centre"
          }
        ],
        "pollDivisionIds": [
          10135369
        ],
        "postalCode": "N5Y3R2",
        "streetName": "MINCING",
        "streetDirectionId": null,
        "streetTypeId": "LANE",
        "placeName": "LONDON",
        "streetNameDisplayText": "MINCING LANE, LONDON"
      }
    ]
  },
  {
    "postal": "N5Y0J1",
    "result": []
  },
  {
    "postal": "N5Y0B0",
    "result": []
  },
  {
    "postal": "N5Y5Z2",
    "result": []
  },
  {
    "postal": "N5Y7P3",
    "result": []
  },
  {
    "postal": "N5Y2K3",
    "result": [
      {
        "electoralDistricts": [
          {
            "election": null,
            "id": 54,
            "name": "London North Centre"
          }
        ],
        "pollDivisionIds": [
          10135361,
          10135360
        ],
        "postalCode": "N5Y2K3",
        "streetName": "BELFIELD",
        "streetDirectionId": null,
        "streetTypeId": "ST",
        "placeName": "LONDON",
        "streetNameDisplayText": "BELFIELD ST, LONDON"
      }
    ]
  },
  {
    "postal": "N5Y7Y6",
    "result": []
  },
  {
    "postal": "N5Y1L9",
    "result": [
      {
        "electoralDistricts": [
          {
            "election": null,
            "id": 54,
            "name": "London North Centre"
          }
        ],
        "pollDivisionIds": [
          10135362
        ],
        "postalCode": "N5Y1L9",
        "streetName": "MCNAY",
        "streetDirectionId": null,
        "streetTypeId": "ST",
        "placeName": "LONDON",
        "streetNameDisplayText": "MCNAY ST, LONDON"
      }
    ]
  },
  {
    "postal": "N5Y8T0",
    "result": []
  },
  {
    "postal": "N5Y3K8",
    "result": [
      {
        "electoralDistricts": [
          {
            "election": null,
            "id": 54,
            "name": "London North Centre"
          }
        ],
        "pollDivisionIds": [
          10135377
        ],
        "postalCode": "N5Y3K8",
        "streetName": "OXFORD",
        "streetDirectionId": "E",
        "streetTypeId": "ST",
        "placeName": "LONDON",
        "streetNameDisplayText": "OXFORD ST E, LONDON"
      }
    ]
  },
  {
    "postal": "N5Y5W9",
    "result": []
  },
  {
    "postal": "N5Y6T9",
    "result": []
  },
  {
    "postal": "N5Y4H1",
    "result": [
      {
        "electoralDistricts": [
          {
            "election": null,
            "id": 54,
            "name": "London North Centre"
          }
        ],
        "pollDivisionIds": [
          10135360
        ],
        "postalCode": "N5Y4H1",
        "streetName": "REGENT",
        "streetDirectionId": null,
        "streetTypeId": "ST",
        "placeName": "LONDON",
        "streetNameDisplayText": "REGENT ST, LONDON"
      }
    ]
  },
  {
    "postal": "N5Y7A2",
    "result": []
  },
  {
    "postal": "N5Y5G0",
    "result": []
  },
  {
    "postal": "N5Y8V5",
    "result": []
  },
  {
    "postal": "N5Y2Y8",
    "result": [
      {
        "electoralDistricts": [
          {
            "election": null,
            "id": 54,
            "name": "London North Centre"
          }
        ],
        "pollDivisionIds": [
          10135366
        ],
        "postalCode": "N5Y2Y8",
        "streetName": "THORNTON",
        "streetDirectionId": null,
        "streetTypeId": "AVE",
        "placeName": "LONDON",
        "streetNameDisplayText": "THORNTON AVE, LONDON"
      }
    ]
  },
  {
    "postal": "N5Y2B6",
    "result": [
      {
        "electoralDistricts": [
          {
            "election": null,
            "id": 54,
            "name": "London North Centre"
          }
        ],
        "pollDivisionIds": [
          10135369
        ],
        "postalCode": "N5Y2B6",
        "streetName": "APELDOORN",
        "streetDirectionId": null,
        "streetTypeId": "CRES",
        "placeName": "LONDON",
        "streetNameDisplayText": "APELDOORN CRES, LONDON"
      }
    ]
  },
  {
    "postal": "N5Y4W8",
    "result": []
  },
  {
    "postal": "N5Y8H7",
    "result": []
  },
  {
    "postal": "N5Y5P1",
    "result": [
      {
        "electoralDistricts": [
          {
            "election": null,
            "id": 54,
            "name": "London North Centre"
          }
        ],
        "pollDivisionIds": [
          10135354
        ],
        "postalCode": "N5Y5P1",
        "streetName": "ASPENRIDGE",
        "streetDirectionId": null,
        "streetTypeId": "CRES",
        "placeName": "LONDON",
        "streetNameDisplayText": "ASPENRIDGE CRES, LONDON"
      }
    ]
  },
  {
    "postal": "N5Y2B8",
    "result": [
      {
        "electoralDistricts": [
          {
            "election": null,
            "id": 54,
            "name": "London North Centre"
          }
        ],
        "pollDivisionIds": [
          10135369
        ],
        "postalCode": "N5Y2B8",
        "streetName": "APELDOORN",
        "streetDirectionId": null,
        "streetTypeId": "CRES",
        "placeName": "LONDON",
        "streetNameDisplayText": "APELDOORN CRES, LONDON"
      }
    ]
  },
  {
    "postal": "N5Y0P2",
    "result": []
  },
  {
    "postal": "N5Y9M1",
    "result": []
  },
  {
    "postal": "N5Y3G0",
    "result": []
  },
  {
    "postal": "N5Y9Z2",
    "result": []
  },
  {
    "postal": "N5Y2A0",
    "result": []
  },
  {
    "postal": "N5Y6Y0",
    "result": []
  },
  {
    "postal": "N5Y2Z8",
    "result": [
      {
        "electoralDistricts": [
          {
            "election": null,
            "id": 54,
            "name": "London North Centre"
          }
        ],
        "pollDivisionIds": [
          10135376
        ],
        "postalCode": "N5Y2Z8",
        "streetName": "PALL MALL",
        "streetDirectionId": null,
        "streetTypeId": "ST",
        "placeName": "LONDON",
        "streetNameDisplayText": "PALL MALL ST, LONDON"
      }
    ]
  },
  {
    "postal": "N5Y7Y3",
    "result": []
  },
  {
    "postal": "N5Y6Z5",
    "result": []
  },
  {
    "postal": "N5Y6E0",
    "result": []
  },
  {
    "postal": "N5Y9B7",
    "result": []
  },
  {
    "postal": "N5Y9S5",
    "result": []
  },
  {
    "postal": "N5Y3X3",
    "result": [
      {
        "electoralDistricts": [
          {
            "election": null,
            "id": 54,
            "name": "London North Centre"
          }
        ],
        "pollDivisionIds": [
          10135366
        ],
        "postalCode": "N5Y3X3",
        "streetName": "CHEAPSIDE",
        "streetDirectionId": null,
        "streetTypeId": "ST",
        "placeName": "LONDON",
        "streetNameDisplayText": "CHEAPSIDE ST, LONDON"
      }
    ]
  },
  {
    "postal": "N5Y7R5",
    "result": []
  },
  {
    "postal": "N5Y2X3",
    "result": [
      {
        "electoralDistricts": [
          {
            "election": null,
            "id": 54,
            "name": "London North Centre"
          }
        ],
        "pollDivisionIds": [
          10135366,
          10135349
        ],
        "postalCode": "N5Y2X3",
        "streetName": "MAITLAND",
        "streetDirectionId": null,
        "streetTypeId": "ST",
        "placeName": "LONDON",
        "streetNameDisplayText": "MAITLAND ST, LONDON"
      }
    ]
  },
  {
    "postal": "N5Y8Z9",
    "result": []
  },
  {
    "postal": "N5Y0N4",
    "result": []
  },
  {
    "postal": "N5Y1K1",
    "result": [
      {
        "electoralDistricts": [
          {
            "election": null,
            "id": 54,
            "name": "London North Centre"
          }
        ],
        "pollDivisionIds": [
          10135363
        ],
        "postalCode": "N5Y1K1",
        "streetName": "REGAL",
        "streetDirectionId": null,
        "streetTypeId": "DR",
        "placeName": "LONDON",
        "streetNameDisplayText": "REGAL DR, LONDON"
      }
    ]
  },
  {
    "postal": "N5Y1S3",
    "result": [
      {
        "electoralDistricts": [
          {
            "election": null,
            "id": 54,
            "name": "London North Centre"
          }
        ],
        "pollDivisionIds": [
          10135370
        ],
        "postalCode": "N5Y1S3",
        "streetName": "STUART",
        "streetDirectionId": null,
        "streetTypeId": "ST",
        "placeName": "LONDON",
        "streetNameDisplayText": "STUART ST, LONDON"
      }
    ]
  },
  {
    "postal": "N5Y6M4",
    "result": [
      {
        "electoralDistricts": [
          {
            "election": null,
            "id": 53,
            "name": "Londonâ€”Fanshawe"
          }
        ],
        "pollDivisionIds": [
          10139556
        ],
        "postalCode": "N5Y6M4",
        "streetName": "HIGHBURY",
        "streetDirectionId": "N",
        "streetTypeId": "AVE",
        "placeName": "LONDON",
        "streetNameDisplayText": "HIGHBURY AVE N, LONDON"
      }
    ]
  },
  {
    "postal": "N5Y9A9",
    "result": []
  },
  {
    "postal": "N5Y9Z9",
    "result": []
  },
  {
    "postal": "N5Y6T4",
    "result": []
  },
  {
    "postal": "N5Y0B2",
    "result": [
      {
        "electoralDistricts": [
          {
            "election": null,
            "id": 54,
            "name": "London North Centre"
          }
        ],
        "pollDivisionIds": [
          10135361
        ],
        "postalCode": "N5Y0B2",
        "streetName": "KIPPS",
        "streetDirectionId": null,
        "streetTypeId": "LANE",
        "placeName": "LONDON",
        "streetNameDisplayText": "KIPPS LANE, LONDON"
      }
    ]
  },
  {
    "postal": "N5Y2L9",
    "result": [
      {
        "electoralDistricts": [
          {
            "election": null,
            "id": 54,
            "name": "London North Centre"
          }
        ],
        "pollDivisionIds": [
          10135369
        ],
        "postalCode": "N5Y2L9",
        "streetName": "ADELAIDE",
        "streetDirectionId": "N",
        "streetTypeId": "ST",
        "placeName": "LONDON",
        "streetNameDisplayText": "ADELAIDE ST N, LONDON"
      }
    ]
  },
  {
    "postal": "N5Y8K9",
    "result": []
  },
  {
    "postal": "N5Y2H9",
    "result": [
      {
        "electoralDistricts": [
          {
            "election": null,
            "id": 54,
            "name": "London North Centre"
          }
        ],
        "pollDivisionIds": [
          10135369
        ],
        "postalCode": "N5Y2H9",
        "streetName": "DURHAM",
        "streetDirectionId": null,
        "streetTypeId": "ST",
        "placeName": "LONDON",
        "streetNameDisplayText": "DURHAM ST, LONDON"
      }
    ]
  },
  {
    "postal": "N5Y3Z6",
    "result": [
      {
        "electoralDistricts": [
          {
            "election": null,
            "id": 54,
            "name": "London North Centre"
          }
        ],
        "pollDivisionIds": [
          10135369
        ],
        "postalCode": "N5Y3Z6",
        "streetName": "STRATHMEYER",
        "streetDirectionId": null,
        "streetTypeId": "ST",
        "placeName": "LONDON",
        "streetNameDisplayText": "STRATHMEYER ST, LONDON"
      }
    ]
  },
  {
    "postal": "N5Y3B0",
    "result": []
  },
  {
    "postal": "N5Y2H8",
    "result": [
      {
        "electoralDistricts": [
          {
            "election": null,
            "id": 54,
            "name": "London North Centre"
          }
        ],
        "pollDivisionIds": [
          10135369
        ],
        "postalCode": "N5Y2H8",
        "streetName": "DURHAM",
        "streetDirectionId": null,
        "streetTypeId": "ST",
        "placeName": "LONDON",
        "streetNameDisplayText": "DURHAM ST, LONDON"
      }
    ]
  },
  {
    "postal": "N5Y3X2",
    "result": [
      {
        "electoralDistricts": [
          {
            "election": null,
            "id": 54,
            "name": "London North Centre"
          }
        ],
        "pollDivisionIds": [
          10135366
        ],
        "postalCode": "N5Y3X2",
        "streetName": "CHEAPSIDE",
        "streetDirectionId": null,
        "streetTypeId": "ST",
        "placeName": "LONDON",
        "streetNameDisplayText": "CHEAPSIDE ST, LONDON"
      }
    ]
  },
  {
    "postal": "N5Y2E9",
    "result": [
      {
        "electoralDistricts": [
          {
            "election": null,
            "id": 54,
            "name": "London North Centre"
          }
        ],
        "pollDivisionIds": [
          10135369
        ],
        "postalCode": "N5Y2E9",
        "streetName": "ELLIOTT",
        "streetDirectionId": null,
        "streetTypeId": "ST",
        "placeName": "LONDON",
        "streetNameDisplayText": "ELLIOTT ST, LONDON"
      }
    ]
  },
  {
    "postal": "N5Y9P6",
    "result": []
  },
  {
    "postal": "N5Y9E2",
    "result": []
  },
  {
    "postal": "N5Y9H2",
    "result": []
  },
  {
    "postal": "N5Y1S8",
    "result": [
      {
        "electoralDistricts": [
          {
            "election": null,
            "id": 54,
            "name": "London North Centre"
          }
        ],
        "pollDivisionIds": [
          10135362
        ],
        "postalCode": "N5Y1S8",
        "streetName": "VALLEYVIEW",
        "streetDirectionId": null,
        "streetTypeId": "AVE",
        "placeName": "LONDON",
        "streetNameDisplayText": "VALLEYVIEW AVE, LONDON"
      }
    ]
  },
  {
    "postal": "N5Y3M6",
    "result": [
      {
        "electoralDistricts": [
          {
            "election": null,
            "id": 54,
            "name": "London North Centre"
          }
        ],
        "pollDivisionIds": [
          10135375
        ],
        "postalCode": "N5Y3M6",
        "streetName": "CARLTON",
        "streetDirectionId": null,
        "streetTypeId": "AVE",
        "placeName": "LONDON",
        "streetNameDisplayText": "CARLTON AVE, LONDON"
      }
    ]
  },
  {
    "postal": "N5Y6Z8",
    "result": []
  },
  {
    "postal": "N5Y4J2",
    "result": [
      {
        "electoralDistricts": [
          {
            "election": null,
            "id": 54,
            "name": "London North Centre"
          }
        ],
        "pollDivisionIds": [
          10135359
        ],
        "postalCode": "N5Y4J2",
        "streetName": "HURON",
        "streetDirectionId": null,
        "streetTypeId": "ST",
        "placeName": "LONDON",
        "streetNameDisplayText": "HURON ST, LONDON"
      }
    ]
  },
  {
    "postal": "N5Y9Y1",
    "result": []
  },
  {
    "postal": "N5Y8V6",
    "result": []
  },
  {
    "postal": "N5Y6B2",
    "result": []
  },
  {
    "postal": "N5Y1P8",
    "result": [
      {
        "electoralDistricts": [
          {
            "election": null,
            "id": 54,
            "name": "London North Centre"
          }
        ],
        "pollDivisionIds": [
          10135363
        ],
        "postalCode": "N5Y1P8",
        "streetName": "BRIARHILL",
        "streetDirectionId": null,
        "streetTypeId": "CRT",
        "placeName": "LONDON",
        "streetNameDisplayText": "BRIARHILL CRT, LONDON"
      }
    ]
  },
  {
    "postal": "N5Y0V8",
    "result": []
  },
  {
    "postal": "N5Y4Y0",
    "result": []
  },
  {
    "postal": "N5Y2T4",
    "result": [
      {
        "electoralDistricts": [
          {
            "election": null,
            "id": 54,
            "name": "London North Centre"
          }
        ],
        "pollDivisionIds": [
          10135360
        ],
        "postalCode": "N5Y2T4",
        "streetName": "WILLIAM",
        "streetDirectionId": null,
        "streetTypeId": "ST",
        "placeName": "LONDON",
        "streetNameDisplayText": "WILLIAM ST, LONDON"
      }
    ]
  },
  {
    "postal": "N5Y2S3",
    "result": [
      {
        "electoralDistricts": [
          {
            "election": null,
            "id": 54,
            "name": "London North Centre"
          }
        ],
        "pollDivisionIds": [
          10135375
        ],
        "postalCode": "N5Y2S3",
        "streetName": "WILLIAM",
        "streetDirectionId": null,
        "streetTypeId": "ST",
        "placeName": "LONDON",
        "streetNameDisplayText": "WILLIAM ST, LONDON"
      }
    ]
  },
  {
    "postal": "N5Y0K0",
    "result": []
  },
  {
    "postal": "N5Y5N1",
    "result": [
      {
        "electoralDistricts": [
          {
            "election": null,
            "id": 54,
            "name": "London North Centre"
          }
        ],
        "pollDivisionIds": [
          10135354
        ],
        "postalCode": "N5Y5N1",
        "streetName": "EDGEVALLEY",
        "streetDirectionId": null,
        "streetTypeId": "RD",
        "placeName": "LONDON",
        "streetNameDisplayText": "EDGEVALLEY RD, LONDON"
      }
    ]
  },
  {
    "postal": "N5Y7T0",
    "result": []
  },
  {
    "postal": "N5Y9N2",
    "result": []
  },
  {
    "postal": "N5Y5L1",
    "result": []
  },
  {
    "postal": "N5Y7G5",
    "result": []
  },
  {
    "postal": "N5Y6K2",
    "result": []
  },
  {
    "postal": "N5Y6P9",
    "result": []
  },
  {
    "postal": "N5Y0E6",
    "result": []
  },
  {
    "postal": "N5Y8R9",
    "result": []
  },
  {
    "postal": "N5Y3G9",
    "result": [
      {
        "electoralDistricts": [
          {
            "election": null,
            "id": 54,
            "name": "London North Centre"
          }
        ],
        "pollDivisionIds": [
          10135376
        ],
        "postalCode": "N5Y3G9",
        "streetName": "PICCADILLY",
        "streetDirectionId": null,
        "streetTypeId": "ST",
        "placeName": "LONDON",
        "streetNameDisplayText": "PICCADILLY ST, LONDON"
      }
    ]
  },
  {
    "postal": "N5Y0V7",
    "result": []
  },
  {
    "postal": "N5Y2Z1",
    "result": [
      {
        "electoralDistricts": [
          {
            "election": null,
            "id": 54,
            "name": "London North Centre"
          }
        ],
        "pollDivisionIds": [
          10135359
        ],
        "postalCode": "N5Y2Z1",
        "streetName": "FRASER",
        "streetDirectionId": null,
        "streetTypeId": "AVE",
        "placeName": "LONDON",
        "streetNameDisplayText": "FRASER AVE, LONDON"
      }
    ]
  },
  {
    "postal": "N5Y7N1",
    "result": []
  },
  {
    "postal": "N5Y3C6",
    "result": [
      {
        "electoralDistricts": [
          {
            "election": null,
            "id": 54,
            "name": "London North Centre"
          }
        ],
        "pollDivisionIds": [
          10135377
        ],
        "postalCode": "N5Y3C6",
        "streetName": "MORNINGTON",
        "streetDirectionId": null,
        "streetTypeId": "AVE",
        "placeName": "LONDON",
        "streetNameDisplayText": "MORNINGTON AVE, LONDON"
      }
    ]
  },
  {
    "postal": "N5Y4M1",
    "result": [
      {
        "electoralDistricts": [
          {
            "election": null,
            "id": 54,
            "name": "London North Centre"
          }
        ],
        "pollDivisionIds": [
          10135368
        ],
        "postalCode": "N5Y4M1",
        "streetName": "HURON",
        "streetDirectionId": null,
        "streetTypeId": "ST",
        "placeName": "LONDON",
        "streetNameDisplayText": "HURON ST, LONDON"
      }
    ]
  },
  {
    "postal": "N5Y9K2",
    "result": []
  },
  {
    "postal": "N5Y9S6",
    "result": []
  },
  {
    "postal": "N5Y4X1",
    "result": [
      {
        "electoralDistricts": [
          {
            "election": null,
            "id": 54,
            "name": "London North Centre"
          }
        ],
        "pollDivisionIds": [
          10135391
        ],
        "postalCode": "N5Y4X1",
        "streetName": "MCNAY",
        "streetDirectionId": null,
        "streetTypeId": "ST",
        "placeName": "LONDON",
        "streetNameDisplayText": "MCNAY ST, LONDON"
      }
    ]
  },
  {
    "postal": "N5Y8W2",
    "result": []
  },
  {
    "postal": "N5Y7N2",
    "result": []
  },
  {
    "postal": "N5Y8S3",
    "result": []
  },
  {
    "postal": "N5Y4V0",
    "result": []
  },
  {
    "postal": "N5Y6W4",
    "result": []
  },
  {
    "postal": "N5Y5M1",
    "result": []
  },
  {
    "postal": "N5Y0S4",
    "result": []
  },
  {
    "postal": "N5Y5X6",
    "result": []
  },
  {
    "postal": "N5Y8L5",
    "result": []
  },
  {
    "postal": "N5Y5M8",
    "result": [
      {
        "electoralDistricts": [
          {
            "election": null,
            "id": 54,
            "name": "London North Centre"
          }
        ],
        "pollDivisionIds": [
          10135370
        ],
        "postalCode": "N5Y5M8",
        "streetName": "CHEAPSIDE",
        "streetDirectionId": null,
        "streetTypeId": "ST",
        "placeName": "LONDON",
        "streetNameDisplayText": "CHEAPSIDE ST, LONDON"
      }
    ]
  },
  {
    "postal": "N5Y2G3",
    "result": [
      {
        "electoralDistricts": [
          {
            "election": null,
            "id": 54,
            "name": "London North Centre"
          }
        ],
        "pollDivisionIds": [
          10135369
        ],
        "postalCode": "N5Y2G3",
        "streetName": "ELLIOTT",
        "streetDirectionId": null,
        "streetTypeId": "ST",
        "placeName": "LONDON",
        "streetNameDisplayText": "ELLIOTT ST, LONDON"
      }
    ]
  },
  {
    "postal": "N5Y8E4",
    "result": []
  },
  {
    "postal": "N5Y7S9",
    "result": []
  },
  {
    "postal": "N5Y1K3",
    "result": [
      {
        "electoralDistricts": [
          {
            "election": null,
            "id": 54,
            "name": "London North Centre"
          }
        ],
        "pollDivisionIds": [
          10135363
        ],
        "postalCode": "N5Y1K3",
        "streetName": "REGAL",
        "streetDirectionId": null,
        "streetTypeId": "DR",
        "placeName": "LONDON",
        "streetNameDisplayText": "REGAL DR, LONDON"
      }
    ]
  },
  {
    "postal": "N5Y4E1",
    "result": [
      {
        "electoralDistricts": [
          {
            "election": null,
            "id": 54,
            "name": "London North Centre"
          }
        ],
        "pollDivisionIds": [
          10135368
        ],
        "postalCode": "N5Y4E1",
        "streetName": "VICTORIA",
        "streetDirectionId": null,
        "streetTypeId": "ST",
        "placeName": "LONDON",
        "streetNameDisplayText": "VICTORIA ST, LONDON"
      }
    ]
  },
  {
    "postal": "N5Y4R2",
    "result": [
      {
        "electoralDistricts": [
          {
            "election": null,
            "id": 54,
            "name": "London North Centre"
          }
        ],
        "pollDivisionIds": [
          10135363
        ],
        "postalCode": "N5Y4R2",
        "streetName": "FULLER",
        "streetDirectionId": null,
        "streetTypeId": "ST",
        "placeName": "LONDON",
        "streetNameDisplayText": "FULLER ST, LONDON"
      }
    ]
  },
  {
    "postal": "N5Y6T0",
    "result": []
  },
  {
    "postal": "N5Y3K5",
    "result": [
      {
        "electoralDistricts": [
          {
            "election": null,
            "id": 54,
            "name": "London North Centre"
          }
        ],
        "pollDivisionIds": [
          10135377
        ],
        "postalCode": "N5Y3K5",
        "streetName": "OXFORD",
        "streetDirectionId": "E",
        "streetTypeId": "ST",
        "placeName": "LONDON",
        "streetNameDisplayText": "OXFORD ST E, LONDON"
      }
    ]
  },
  {
    "postal": "N5Y3S3",
    "result": [
      {
        "electoralDistricts": [
          {
            "election": null,
            "id": 54,
            "name": "London North Centre"
          }
        ],
        "pollDivisionIds": [
          10135370
        ],
        "postalCode": "N5Y3S3",
        "streetName": "BUCKE",
        "streetDirectionId": null,
        "streetTypeId": "ST",
        "placeName": "LONDON",
        "streetNameDisplayText": "BUCKE ST, LONDON"
      }
    ]
  },
  {
    "postal": "N5Y3L4",
    "result": [
      {
        "electoralDistricts": [
          {
            "election": null,
            "id": 54,
            "name": "London North Centre"
          }
        ],
        "pollDivisionIds": [
          10135378
        ],
        "postalCode": "N5Y3L4",
        "streetName": "OXFORD",
        "streetDirectionId": "E",
        "streetTypeId": "ST",
        "placeName": "LONDON",
        "streetNameDisplayText": "OXFORD ST E, LONDON"
      }
    ]
  },
  {
    "postal": "N5Y9Y2",
    "result": []
  },
  {
    "postal": "N5Y1E0",
    "result": []
  },
  {
    "postal": "N5Y9A4",
    "result": []
  },
  {
    "postal": "N5Y1L3",
    "result": [
      {
        "electoralDistricts": [
          {
            "election": null,
            "id": 54,
            "name": "London North Centre"
          }
        ],
        "pollDivisionIds": [
          10135368
        ],
        "postalCode": "N5Y1L3",
        "streetName": "MCNAY",
        "streetDirectionId": null,
        "streetTypeId": "ST",
        "placeName": "LONDON",
        "streetNameDisplayText": "MCNAY ST, LONDON"
      }
    ]
  },
  {
    "postal": "N5Y6N1",
    "result": []
  },
  {
    "postal": "N5Y6G7",
    "result": []
  },
  {
    "postal": "N5Y7W1",
    "result": []
  },
  {
    "postal": "N5Y4M6",
    "result": [
      {
        "electoralDistricts": [
          {
            "election": null,
            "id": 54,
            "name": "London North Centre"
          }
        ],
        "pollDivisionIds": [
          10135360
        ],
        "postalCode": "N5Y4M6",
        "streetName": "NORWOOD",
        "streetDirectionId": null,
        "streetTypeId": "AVE",
        "placeName": "LONDON",
        "streetNameDisplayText": "NORWOOD AVE, LONDON"
      }
    ]
  },
  {
    "postal": "N5Y1K0",
    "result": []
  },
  {
    "postal": "N5Y3E2",
    "result": [
      {
        "electoralDistricts": [
          {
            "election": null,
            "id": 54,
            "name": "London North Centre"
          }
        ],
        "pollDivisionIds": [
          10135377
        ],
        "postalCode": "N5Y3E2",
        "streetName": "MORNINGTON",
        "streetDirectionId": null,
        "streetTypeId": "AVE",
        "placeName": "LONDON",
        "streetNameDisplayText": "MORNINGTON AVE, LONDON"
      }
    ]
  },
  {
    "postal": "N5Y5H4",
    "result": [
      {
        "electoralDistricts": [
          {
            "election": null,
            "id": 54,
            "name": "London North Centre"
          }
        ],
        "pollDivisionIds": [
          10135362
        ],
        "postalCode": "N5Y5H4",
        "streetName": "SUSSEX",
        "streetDirectionId": null,
        "streetTypeId": "PL",
        "placeName": "LONDON",
        "streetNameDisplayText": "SUSSEX PL, LONDON"
      }
    ]
  },
  {
    "postal": "N5Y1K7",
    "result": [
      {
        "electoralDistricts": [
          {
            "election": null,
            "id": 54,
            "name": "London North Centre"
          }
        ],
        "pollDivisionIds": [
          10135370
        ],
        "postalCode": "N5Y1K7",
        "streetName": "MCNAY",
        "streetDirectionId": null,
        "streetTypeId": "ST",
        "placeName": "LONDON",
        "streetNameDisplayText": "MCNAY ST, LONDON"
      }
    ]
  },
  {
    "postal": "N5Y0H0",
    "result": []
  },
  {
    "postal": "N5Y0J3",
    "result": []
  },
  {
    "postal": "N5Y1X6",
    "result": [
      {
        "electoralDistricts": [
          {
            "election": null,
            "id": 54,
            "name": "London North Centre"
          }
        ],
        "pollDivisionIds": [
          10135369
        ],
        "postalCode": "N5Y1X6",
        "streetName": "BARKER",
        "streetDirectionId": null,
        "streetTypeId": "ST",
        "placeName": "LONDON",
        "streetNameDisplayText": "BARKER ST, LONDON"
      }
    ]
  },
  {
    "postal": "N5Y2Z6",
    "result": [
      {
        "electoralDistricts": [
          {
            "election": null,
            "id": 54,
            "name": "London North Centre"
          }
        ],
        "pollDivisionIds": [
          10135375
        ],
        "postalCode": "N5Y2Z6",
        "streetName": "PALL MALL",
        "streetDirectionId": null,
        "streetTypeId": "ST",
        "placeName": "LONDON",
        "streetNameDisplayText": "PALL MALL ST, LONDON"
      }
    ]
  },
  {
    "postal": "N5Y4R9",
    "result": [
      {
        "electoralDistricts": [
          {
            "election": null,
            "id": 54,
            "name": "London North Centre"
          }
        ],
        "pollDivisionIds": [
          10135361
        ],
        "postalCode": "N5Y4R9",
        "streetName": "KIPPS",
        "streetDirectionId": null,
        "streetTypeId": "LANE",
        "placeName": "LONDON",
        "streetNameDisplayText": "KIPPS LANE, LONDON"
      }
    ]
  },
  {
    "postal": "N5Y0W8",
    "result": []
  },
  {
    "postal": "N5Y1L4",
    "result": [
      {
        "electoralDistricts": [
          {
            "election": null,
            "id": 54,
            "name": "London North Centre"
          }
        ],
        "pollDivisionIds": [
          10135344,
          10135368,
          10135367
        ],
        "postalCode": "N5Y1L4",
        "streetName": "MCNAY",
        "streetDirectionId": null,
        "streetTypeId": "ST",
        "placeName": "LONDON",
        "streetNameDisplayText": "MCNAY ST, LONDON"
      }
    ]
  },
  {
    "postal": "N5Y0C8",
    "result": []
  },
  {
    "postal": "N5Y9X7",
    "result": []
  },
  {
    "postal": "N5Y4T1",
    "result": [
      {
        "electoralDistricts": [
          {
            "election": null,
            "id": 54,
            "name": "London North Centre"
          }
        ],
        "pollDivisionIds": [
          10135362,
          10135363
        ],
        "postalCode": "N5Y4T1",
        "streetName": "MAGNOLIA",
        "streetDirectionId": null,
        "streetTypeId": "CRES",
        "placeName": "LONDON",
        "streetNameDisplayText": "MAGNOLIA CRES, LONDON"
      }
    ]
  },
  {
    "postal": "N5Y0M0",
    "result": []
  },
  {
    "postal": "N5Y6A2",
    "result": []
  },
  {
    "postal": "N5Y9S8",
    "result": []
  },
  {
    "postal": "N5Y9T4",
    "result": []
  },
  {
    "postal": "N5Y9Y4",
    "result": []
  },
  {
    "postal": "N5Y6G5",
    "result": []
  },
  {
    "postal": "N5Y6H9",
    "result": []
  },
  {
    "postal": "N5Y2P3",
    "result": [
      {
        "electoralDistricts": [
          {
            "election": null,
            "id": 54,
            "name": "London North Centre"
          }
        ],
        "pollDivisionIds": [
          10135376
        ],
        "postalCode": "N5Y2P3",
        "streetName": "ALFRED",
        "streetDirectionId": null,
        "streetTypeId": "ST",
        "placeName": "LONDON",
        "streetNameDisplayText": "ALFRED ST, LONDON"
      }
    ]
  },
  {
    "postal": "N5Y1T6",
    "result": [
      {
        "electoralDistricts": [
          {
            "election": null,
            "id": 54,
            "name": "London North Centre"
          }
        ],
        "pollDivisionIds": [
          10135370
        ],
        "postalCode": "N5Y1T6",
        "streetName": "BOULLEE",
        "streetDirectionId": null,
        "streetTypeId": "ST",
        "placeName": "LONDON",
        "streetNameDisplayText": "BOULLEE ST, LONDON"
      }
    ]
  },
  {
    "postal": "N5Y4P6",
    "result": [
      {
        "electoralDistricts": [
          {
            "election": null,
            "id": 54,
            "name": "London North Centre"
          }
        ],
        "pollDivisionIds": [
          10135362
        ],
        "postalCode": "N5Y4P6",
        "streetName": "FULLER",
        "streetDirectionId": null,
        "streetTypeId": "ST",
        "placeName": "LONDON",
        "streetNameDisplayText": "FULLER ST, LONDON"
      }
    ]
  },
  {
    "postal": "N5Y3K1",
    "result": [
      {
        "electoralDistricts": [
          {
            "election": null,
            "id": 54,
            "name": "London North Centre"
          }
        ],
        "pollDivisionIds": [
          10135377
        ],
        "postalCode": "N5Y3K1",
        "streetName": "OXFORD",
        "streetDirectionId": "E",
        "streetTypeId": "ST",
        "placeName": "LONDON",
        "streetNameDisplayText": "OXFORD ST E, LONDON"
      }
    ]
  },
  {
    "postal": "N5Y6X4",
    "result": []
  },
  {
    "postal": "N5Y4M8",
    "result": [
      {
        "electoralDistricts": [
          {
            "election": null,
            "id": 54,
            "name": "London North Centre"
          }
        ],
        "pollDivisionIds": [
          10135361
        ],
        "postalCode": "N5Y4M8",
        "streetName": "MONSARRAT",
        "streetDirectionId": null,
        "streetTypeId": "AVE",
        "placeName": "LONDON",
        "streetNameDisplayText": "MONSARRAT AVE, LONDON"
      }
    ]
  },
  {
    "postal": "N5Y2Y1",
    "result": [
      {
        "electoralDistricts": [
          {
            "election": null,
            "id": 54,
            "name": "London North Centre"
          }
        ],
        "pollDivisionIds": [
          10135375
        ],
        "postalCode": "N5Y2Y1",
        "streetName": "THORNTON",
        "streetDirectionId": null,
        "streetTypeId": "AVE",
        "placeName": "LONDON",
        "streetNameDisplayText": "THORNTON AVE, LONDON"
      }
    ]
  },
  {
    "postal": "N5Y6M1",
    "result": []
  },
  {
    "postal": "N5Y5L8",
    "result": [
      {
        "electoralDistricts": [
          {
            "election": null,
            "id": 54,
            "name": "London North Centre"
          }
        ],
        "pollDivisionIds": [
          10135370
        ],
        "postalCode": "N5Y5L8",
        "streetName": "KRUPP",
        "streetDirectionId": null,
        "streetTypeId": "ST",
        "placeName": "LONDON",
        "streetNameDisplayText": "KRUPP ST, LONDON"
      }
    ]
  },
  {
    "postal": "N5Y3P6",
    "result": [
      {
        "electoralDistricts": [
          {
            "election": null,
            "id": 54,
            "name": "London North Centre"
          }
        ],
        "pollDivisionIds": [
          10135375
        ],
        "postalCode": "N5Y3P6",
        "streetName": "ST JAMES",
        "streetDirectionId": null,
        "streetTypeId": "ST",
        "placeName": "LONDON",
        "streetNameDisplayText": "ST JAMES ST, LONDON"
      }
    ]
  },
  {
    "postal": "N5Y9A5",
    "result": []
  },
  {
    "postal": "N5Y7K1",
    "result": []
  },
  {
    "postal": "N5Y3J4",
    "result": [
      {
        "electoralDistricts": [
          {
            "election": null,
            "id": 54,
            "name": "London North Centre"
          }
        ],
        "pollDivisionIds": [
          10135369,
          10135374
        ],
        "postalCode": "N5Y3J4",
        "streetName": "OXFORD",
        "streetDirectionId": "E",
        "streetTypeId": "ST",
        "placeName": "LONDON",
        "streetNameDisplayText": "OXFORD ST E, LONDON"
      }
    ]
  },
  {
    "postal": "N5Y5E7",
    "result": [
      {
        "electoralDistricts": [
          {
            "election": null,
            "id": 54,
            "name": "London North Centre"
          }
        ],
        "pollDivisionIds": [
          10135363
        ],
        "postalCode": "N5Y5E7",
        "streetName": "SWEETBRIAR",
        "streetDirectionId": null,
        "streetTypeId": "RD",
        "placeName": "LONDON",
        "streetNameDisplayText": "SWEETBRIAR RD, LONDON"
      }
    ]
  },
  {
    "postal": "N5Y3A7",
    "result": [
      {
        "electoralDistricts": [
          {
            "election": null,
            "id": 54,
            "name": "London North Centre"
          }
        ],
        "pollDivisionIds": [
          10135377
        ],
        "postalCode": "N5Y3A7",
        "streetName": "CONNAUGHT",
        "streetDirectionId": null,
        "streetTypeId": "AVE",
        "placeName": "LONDON",
        "streetNameDisplayText": "CONNAUGHT AVE, LONDON"
      },
      {
        "electoralDistricts": [
          {
            "election": null,
            "id": 54,
            "name": "London North Centre"
          }
        ],
        "pollDivisionIds": [
          10135375
        ],
        "postalCode": "N5Y3A7",
        "streetName": "OXFORD",
        "streetDirectionId": "E",
        "streetTypeId": "ST",
        "placeName": "LONDON,ON",
        "streetNameDisplayText": "OXFORD ST E, LONDON,ON"
      }
    ]
  },
  {
    "postal": "N5Y1B9",
    "result": [
      {
        "electoralDistricts": [
          {
            "election": null,
            "id": 54,
            "name": "London North Centre"
          }
        ],
        "pollDivisionIds": [
          10135370
        ],
        "postalCode": "N5Y1B9",
        "streetName": "PAARDEBERG",
        "streetDirectionId": null,
        "streetTypeId": "CRES",
        "placeName": "LONDON",
        "streetNameDisplayText": "PAARDEBERG CRES, LONDON"
      }
    ]
  },
  {
    "postal": "N5Y9E8",
    "result": []
  },
  {
    "postal": "N5Y1C9",
    "result": [
      {
        "electoralDistricts": [
          {
            "election": null,
            "id": 54,
            "name": "London North Centre"
          }
        ],
        "pollDivisionIds": [
          10135370
        ],
        "postalCode": "N5Y1C9",
        "streetName": "WISTOW",
        "streetDirectionId": null,
        "streetTypeId": "ST",
        "placeName": "LONDON",
        "streetNameDisplayText": "WISTOW ST, LONDON"
      }
    ]
  },
  {
    "postal": "N5Y3B5",
    "result": [
      {
        "electoralDistricts": [
          {
            "election": null,
            "id": 54,
            "name": "London North Centre"
          }
        ],
        "pollDivisionIds": [
          10135377
        ],
        "postalCode": "N5Y3B5",
        "streetName": "SALISBURY",
        "streetDirectionId": null,
        "streetTypeId": "ST",
        "placeName": "LONDON",
        "streetNameDisplayText": "SALISBURY ST, LONDON"
      }
    ]
  },
  {
    "postal": "N5Y8R0",
    "result": []
  },
  {
    "postal": "N5Y3P2",
    "result": [
      {
        "electoralDistricts": [
          {
            "election": null,
            "id": 54,
            "name": "London North Centre"
          }
        ],
        "pollDivisionIds": [
          10135375
        ],
        "postalCode": "N5Y3P2",
        "streetName": "ST JAMES",
        "streetDirectionId": null,
        "streetTypeId": "ST",
        "placeName": "LONDON",
        "streetNameDisplayText": "ST JAMES ST, LONDON"
      }
    ]
  },
  {
    "postal": "N5Y5V4",
    "result": [
      {
        "electoralDistricts": [
          {
            "election": null,
            "id": 54,
            "name": "London North Centre"
          }
        ],
        "pollDivisionIds": [
          10135363
        ],
        "postalCode": "N5Y5V4",
        "streetName": "BLACKMAPLE",
        "streetDirectionId": null,
        "streetTypeId": "DR",
        "placeName": "LONDON",
        "streetNameDisplayText": "BLACKMAPLE DR, LONDON"
      },
      {
        "electoralDistricts": [
          {
            "election": null,
            "id": 54,
            "name": "London North Centre"
          }
        ],
        "pollDivisionIds": [
          10135363
        ],
        "postalCode": "N5Y5V4",
        "streetName": "WINTERGARDEN",
        "streetDirectionId": null,
        "streetTypeId": "RD",
        "placeName": "LONDON",
        "streetNameDisplayText": "WINTERGARDEN RD, LONDON"
      }
    ]
  },
  {
    "postal": "N5Y4H0",
    "result": []
  },
  {
    "postal": "N5Y4S7",
    "result": [
      {
        "electoralDistricts": [
          {
            "election": null,
            "id": 54,
            "name": "London North Centre"
          }
        ],
        "pollDivisionIds": [
          10135363,
          10135362
        ],
        "postalCode": "N5Y4S7",
        "streetName": "KIPPS",
        "streetDirectionId": null,
        "streetTypeId": "LANE",
        "placeName": "LONDON",
        "streetNameDisplayText": "KIPPS LANE, LONDON"
      }
    ]
  },
  {
    "postal": "N5Y6C2",
    "result": []
  },
  {
    "postal": "N5Y8W3",
    "result": []
  },
  {
    "postal": "N5Y4M5",
    "result": [
      {
        "electoralDistricts": [
          {
            "election": null,
            "id": 54,
            "name": "London North Centre"
          }
        ],
        "pollDivisionIds": [
          10135367
        ],
        "postalCode": "N5Y4M5",
        "streetName": "CHEAPSIDE",
        "streetDirectionId": null,
        "streetTypeId": "ST",
        "placeName": "LONDON",
        "streetNameDisplayText": "CHEAPSIDE ST, LONDON"
      }
    ]
  },
  {
    "postal": "N5Y5T1",
    "result": []
  },
  {
    "postal": "N5Y3B3",
    "result": [
      {
        "electoralDistricts": [
          {
            "election": null,
            "id": 54,
            "name": "London North Centre"
          }
        ],
        "pollDivisionIds": [
          10135377
        ],
        "postalCode": "N5Y3B3",
        "streetName": "SALISBURY",
        "streetDirectionId": null,
        "streetTypeId": "ST",
        "placeName": "LONDON",
        "streetNameDisplayText": "SALISBURY ST, LONDON"
      }
    ]
  },
  {
    "postal": "N5Y6C6",
    "result": []
  },
  {
    "postal": "N5Y7N8",
    "result": []
  },
  {
    "postal": "N5Y2Y3",
    "result": [
      {
        "electoralDistricts": [
          {
            "election": null,
            "id": 54,
            "name": "London North Centre"
          }
        ],
        "pollDivisionIds": [
          10135375
        ],
        "postalCode": "N5Y2Y3",
        "streetName": "THORNTON",
        "streetDirectionId": null,
        "streetTypeId": "AVE",
        "placeName": "LONDON",
        "streetNameDisplayText": "THORNTON AVE, LONDON"
      }
    ]
  },
  {
    "postal": "N5Y2R6",
    "result": [
      {
        "electoralDistricts": [
          {
            "election": null,
            "id": 54,
            "name": "London North Centre"
          }
        ],
        "pollDivisionIds": [
          10135376
        ],
        "postalCode": "N5Y2R6",
        "streetName": "WILLIAM",
        "streetDirectionId": null,
        "streetTypeId": "ST",
        "placeName": "LONDON",
        "streetNameDisplayText": "WILLIAM ST, LONDON"
      }
    ]
  },
  {
    "postal": "N5Y7N3",
    "result": []
  },
  {
    "postal": "N5Y8J2",
    "result": []
  },
  {
    "postal": "N5Y6A9",
    "result": []
  },
  {
    "postal": "N5Y3V2",
    "result": [
      {
        "electoralDistricts": [
          {
            "election": null,
            "id": 54,
            "name": "London North Centre"
          }
        ],
        "pollDivisionIds": [
          10135367
        ],
        "postalCode": "N5Y3V2",
        "streetName": "RABB",
        "streetDirectionId": null,
        "streetTypeId": "ST",
        "placeName": "LONDON",
        "streetNameDisplayText": "RABB ST, LONDON"
      }
    ]
  },
  {
    "postal": "N5Y2N3",
    "result": [
      {
        "electoralDistricts": [
          {
            "election": null,
            "id": 54,
            "name": "London North Centre"
          }
        ],
        "pollDivisionIds": [
          10135360
        ],
        "postalCode": "N5Y2N3",
        "streetName": "ADELAIDE",
        "streetDirectionId": "N",
        "streetTypeId": "ST",
        "placeName": "LONDON",
        "streetNameDisplayText": "ADELAIDE ST N, LONDON"
      }
    ]
  },
  {
    "postal": "N5Y1S5",
    "result": [
      {
        "electoralDistricts": [
          {
            "election": null,
            "id": 54,
            "name": "London North Centre"
          }
        ],
        "pollDivisionIds": [
          10135367
        ],
        "postalCode": "N5Y1S5",
        "streetName": "STUART",
        "streetDirectionId": null,
        "streetTypeId": "ST",
        "placeName": "LONDON",
        "streetNameDisplayText": "STUART ST, LONDON"
      }
    ]
  },
  {
    "postal": "N5Y4T7",
    "result": [
      {
        "electoralDistricts": [
          {
            "election": null,
            "id": 54,
            "name": "London North Centre"
          }
        ],
        "pollDivisionIds": [
          10135376
        ],
        "postalCode": "N5Y4T7",
        "streetName": "ELIZABETH",
        "streetDirectionId": "E",
        "streetTypeId": "ST",
        "placeName": "LONDON",
        "streetNameDisplayText": "ELIZABETH ST E, LONDON"
      },
      {
        "electoralDistricts": [
          {
            "election": null,
            "id": 54,
            "name": "London North Centre"
          }
        ],
        "pollDivisionIds": [
          10135376
        ],
        "postalCode": "N5Y4T7",
        "streetName": "OXFORD",
        "streetDirectionId": "E",
        "streetTypeId": "ST",
        "placeName": "LONDON",
        "streetNameDisplayText": "OXFORD ST E, LONDON"
      }
    ]
  },
  {
    "postal": "N5Y6Y7",
    "result": []
  },
  {
    "postal": "N5Y0W7",
    "result": []
  },
  {
    "postal": "N5Y2W9",
    "result": [
      {
        "electoralDistricts": [
          {
            "election": null,
            "id": 54,
            "name": "London North Centre"
          }
        ],
        "pollDivisionIds": [
          10135375
        ],
        "postalCode": "N5Y2W9",
        "streetName": "MAITLAND",
        "streetDirectionId": null,
        "streetTypeId": "ST",
        "placeName": "LONDON",
        "streetNameDisplayText": "MAITLAND ST, LONDON"
      }
    ]
  },
  {
    "postal": "N5Y8V0",
    "result": []
  },
  {
    "postal": "N5Y0H4",
    "result": []
  },
  {
    "postal": "N5Y2T1",
    "result": [
      {
        "electoralDistricts": [
          {
            "election": null,
            "id": 54,
            "name": "London North Centre"
          }
        ],
        "pollDivisionIds": [
          10135360
        ],
        "postalCode": "N5Y2T1",
        "streetName": "WILLIAM",
        "streetDirectionId": null,
        "streetTypeId": "ST",
        "placeName": "LONDON",
        "streetNameDisplayText": "WILLIAM ST, LONDON"
      }
    ]
  },
  {
    "postal": "N5Y1B1",
    "result": []
  },
  {
    "postal": "N5Y8B6",
    "result": []
  },
  {
    "postal": "N5Y6H1",
    "result": []
  },
  {
    "postal": "N5Y8T8",
    "result": []
  },
  {
    "postal": "N5Y0T4",
    "result": []
  },
  {
    "postal": "N5Y2C4",
    "result": [
      {
        "electoralDistricts": [
          {
            "election": null,
            "id": 54,
            "name": "London North Centre"
          }
        ],
        "pollDivisionIds": [
          10135367
        ],
        "postalCode": "N5Y2C4",
        "streetName": "HARLEY",
        "streetDirectionId": null,
        "streetTypeId": "ST",
        "placeName": "LONDON",
        "streetNameDisplayText": "HARLEY ST, LONDON"
      }
    ]
  },
  {
    "postal": "N5Y8N3",
    "result": []
  },
  {
    "postal": "N5Y4L8",
    "result": [
      {
        "electoralDistricts": [
          {
            "election": null,
            "id": 54,
            "name": "London North Centre"
          }
        ],
        "pollDivisionIds": [
          10135368
        ],
        "postalCode": "N5Y4L8",
        "streetName": "HURON",
        "streetDirectionId": null,
        "streetTypeId": "ST",
        "placeName": "LONDON",
        "streetNameDisplayText": "HURON ST, LONDON"
      }
    ]
  },
  {
    "postal": "N5Y2B5",
    "result": [
      {
        "electoralDistricts": [
          {
            "election": null,
            "id": 54,
            "name": "London North Centre"
          }
        ],
        "pollDivisionIds": [
          10135369
        ],
        "postalCode": "N5Y2B5",
        "streetName": "APELDOORN",
        "streetDirectionId": null,
        "streetTypeId": "CRES",
        "placeName": "LONDON",
        "streetNameDisplayText": "APELDOORN CRES, LONDON"
      }
    ]
  },
  {
    "postal": "N5Y3H1",
    "result": [
      {
        "electoralDistricts": [
          {
            "election": null,
            "id": 54,
            "name": "London North Centre"
          }
        ],
        "pollDivisionIds": [
          10135376
        ],
        "postalCode": "N5Y3H1",
        "streetName": "PICCADILLY",
        "streetDirectionId": null,
        "streetTypeId": "ST",
        "placeName": "LONDON",
        "streetNameDisplayText": "PICCADILLY ST, LONDON"
      }
    ]
  },
  {
    "postal": "N5Y4Y1",
    "result": [
      {
        "electoralDistricts": [
          {
            "election": null,
            "id": 54,
            "name": "London North Centre"
          }
        ],
        "pollDivisionIds": [
          10135362,
          10135361
        ],
        "postalCode": "N5Y4Y1",
        "streetName": "KIPPS",
        "streetDirectionId": null,
        "streetTypeId": "LANE",
        "placeName": "LONDON",
        "streetNameDisplayText": "KIPPS LANE, LONDON"
      }
    ]
  },
  {
    "postal": "N5Y7E2",
    "result": []
  },
  {
    "postal": "N5Y2P5",
    "result": [
      {
        "electoralDistricts": [
          {
            "election": null,
            "id": 54,
            "name": "London North Centre"
          }
        ],
        "pollDivisionIds": [
          10135360
        ],
        "postalCode": "N5Y2P5",
        "streetName": "LOGAN",
        "streetDirectionId": null,
        "streetTypeId": "AVE",
        "placeName": "LONDON",
        "streetNameDisplayText": "LOGAN AVE, LONDON"
      }
    ]
  },
  {
    "postal": "N5Y8R7",
    "result": []
  },
  {
    "postal": "N5Y9P1",
    "result": []
  },
  {
    "postal": "N5Y3B8",
    "result": [
      {
        "electoralDistricts": [
          {
            "election": null,
            "id": 54,
            "name": "London North Centre"
          }
        ],
        "pollDivisionIds": [
          10135376
        ],
        "postalCode": "N5Y3B8",
        "streetName": "ARTHUR",
        "streetDirectionId": null,
        "streetTypeId": "ST",
        "placeName": "LONDON",
        "streetNameDisplayText": "ARTHUR ST, LONDON"
      }
    ]
  },
  {
    "postal": "N5Y3P7",
    "result": [
      {
        "electoralDistricts": [
          {
            "election": null,
            "id": 54,
            "name": "London North Centre"
          }
        ],
        "pollDivisionIds": [
          10135369
        ],
        "postalCode": "N5Y3P7",
        "streetName": "ST JAMES",
        "streetDirectionId": null,
        "streetTypeId": "ST",
        "placeName": "LONDON",
        "streetNameDisplayText": "ST JAMES ST, LONDON"
      }
    ]
  },
  {
    "postal": "N5Y9B2",
    "result": []
  },
  {
    "postal": "N5Y6Z3",
    "result": []
  },
  {
    "postal": "N5Y4N5",
    "result": [
      {
        "electoralDistricts": [
          {
            "election": null,
            "id": 54,
            "name": "London North Centre"
          }
        ],
        "pollDivisionIds": [
          10135363
        ],
        "postalCode": "N5Y4N5",
        "streetName": "HILLCREST",
        "streetDirectionId": null,
        "streetTypeId": "AVE",
        "placeName": "LONDON",
        "streetNameDisplayText": "HILLCREST AVE, LONDON"
      }
    ]
  },
  {
    "postal": "N5Y8T3",
    "result": []
  },
  {
    "postal": "N5Y1V2",
    "result": [
      {
        "electoralDistricts": [
          {
            "election": null,
            "id": 54,
            "name": "London North Centre"
          }
        ],
        "pollDivisionIds": [
          10135362
        ],
        "postalCode": "N5Y1V2",
        "streetName": "KENMORE",
        "streetDirectionId": null,
        "streetTypeId": "PL",
        "placeName": "LONDON",
        "streetNameDisplayText": "KENMORE PL, LONDON"
      }
    ]
  },
  {
    "postal": "N5Y1Y0",
    "result": []
  },
  {
    "postal": "N5Y3G6",
    "result": [
      {
        "electoralDistricts": [
          {
            "election": null,
            "id": 54,
            "name": "London North Centre"
          }
        ],
        "pollDivisionIds": [
          10135375
        ],
        "postalCode": "N5Y3G6",
        "streetName": "PICCADILLY",
        "streetDirectionId": null,
        "streetTypeId": "ST",
        "placeName": "LONDON",
        "streetNameDisplayText": "PICCADILLY ST, LONDON"
      }
    ]
  },
  {
    "postal": "N5Y3H7",
    "result": [
      {
        "electoralDistricts": [
          {
            "election": null,
            "id": 54,
            "name": "London North Centre"
          }
        ],
        "pollDivisionIds": [
          10135375
        ],
        "postalCode": "N5Y3H7",
        "streetName": "OXFORD",
        "streetDirectionId": "E",
        "streetTypeId": "ST",
        "placeName": "LONDON",
        "streetNameDisplayText": "OXFORD ST E, LONDON"
      }
    ]
  },
  {
    "postal": "N5Y7X8",
    "result": []
  },
  {
    "postal": "N5Y0C7",
    "result": []
  },
  {
    "postal": "N5Y0W9",
    "result": []
  },
  {
    "postal": "N5Y8E6",
    "result": []
  },
  {
    "postal": "N5Y9Z8",
    "result": []
  },
  {
    "postal": "N5Y3P4",
    "result": [
      {
        "electoralDistricts": [
          {
            "election": null,
            "id": 54,
            "name": "London North Centre"
          }
        ],
        "pollDivisionIds": [
          10135375
        ],
        "postalCode": "N5Y3P4",
        "streetName": "ST JAMES",
        "streetDirectionId": null,
        "streetTypeId": "ST",
        "placeName": "LONDON",
        "streetNameDisplayText": "ST JAMES ST, LONDON"
      }
    ]
  },
  {
    "postal": "N5Y6L8",
    "result": []
  },
  {
    "postal": "N5Y2R4",
    "result": [
      {
        "electoralDistricts": [
          {
            "election": null,
            "id": 54,
            "name": "London North Centre"
          }
        ],
        "pollDivisionIds": [
          10135376
        ],
        "postalCode": "N5Y2R4",
        "streetName": "WILLIAM",
        "streetDirectionId": null,
        "streetTypeId": "ST",
        "placeName": "LONDON",
        "streetNameDisplayText": "WILLIAM ST, LONDON"
      }
    ]
  },
  {
    "postal": "N5Y2W1",
    "result": [
      {
        "electoralDistricts": [
          {
            "election": null,
            "id": 54,
            "name": "London North Centre"
          }
        ],
        "pollDivisionIds": [
          10135375
        ],
        "postalCode": "N5Y2W1",
        "streetName": "MAITLAND",
        "streetDirectionId": null,
        "streetTypeId": "ST",
        "placeName": "LONDON",
        "streetNameDisplayText": "MAITLAND ST, LONDON"
      }
    ]
  },
  {
    "postal": "N5Y9H8",
    "result": []
  },
  {
    "postal": "N5Y8X9",
    "result": []
  },
  {
    "postal": "N5Y7H4",
    "result": []
  },
  {
    "postal": "N5Y3J1",
    "result": [
      {
        "electoralDistricts": [
          {
            "election": null,
            "id": 54,
            "name": "London North Centre"
          }
        ],
        "pollDivisionIds": [
          10135375
        ],
        "postalCode": "N5Y3J1",
        "streetName": "OXFORD",
        "streetDirectionId": "E",
        "streetTypeId": "ST",
        "placeName": "LONDON",
        "streetNameDisplayText": "OXFORD ST E, LONDON"
      }
    ]
  },
  {
    "postal": "N5Y1P4",
    "result": [
      {
        "electoralDistricts": [
          {
            "election": null,
            "id": 54,
            "name": "London North Centre"
          }
        ],
        "pollDivisionIds": [
          10135363
        ],
        "postalCode": "N5Y1P4",
        "streetName": "BRIARHILL",
        "streetDirectionId": null,
        "streetTypeId": "AVE",
        "placeName": "LONDON",
        "streetNameDisplayText": "BRIARHILL AVE, LONDON"
      }
    ]
  },
  {
    "postal": "N5Y2A3",
    "result": [
      {
        "electoralDistricts": [
          {
            "election": null,
            "id": 54,
            "name": "London North Centre"
          }
        ],
        "pollDivisionIds": [
          10135340,
          10135362
        ],
        "postalCode": "N5Y2A3",
        "streetName": "ARBOUR GLEN",
        "streetDirectionId": null,
        "streetTypeId": "CRES",
        "placeName": "LONDON",
        "streetNameDisplayText": "ARBOUR GLEN CRES, LONDON"
      }
    ]
  },
  {
    "postal": "N5Y0Z1",
    "result": []
  },
  {
    "postal": "N5Y1C1",
    "result": [
      {
        "electoralDistricts": [
          {
            "election": null,
            "id": 54,
            "name": "London North Centre"
          }
        ],
        "pollDivisionIds": [
          10135370
        ],
        "postalCode": "N5Y1C1",
        "streetName": "PAARDEBERG",
        "streetDirectionId": null,
        "streetTypeId": "CRES",
        "placeName": "LONDON",
        "streetNameDisplayText": "PAARDEBERG CRES, LONDON"
      }
    ]
  },
  {
    "postal": "N5Y0H3",
    "result": []
  },
  {
    "postal": "N5Y7B0",
    "result": []
  },
  {
    "postal": "N5Y5K2",
    "result": [
      {
        "electoralDistricts": [
          {
            "election": null,
            "id": 54,
            "name": "London North Centre"
          }
        ],
        "pollDivisionIds": [
          10135370
        ],
        "postalCode": "N5Y5K2",
        "streetName": "CHEAPSIDE",
        "streetDirectionId": null,
        "streetTypeId": "ST",
        "placeName": "LONDON",
        "streetNameDisplayText": "CHEAPSIDE ST, LONDON"
      }
    ]
  },
  {
    "postal": "N5Y1E9",
    "result": [
      {
        "electoralDistricts": [
          {
            "election": null,
            "id": 54,
            "name": "London North Centre"
          }
        ],
        "pollDivisionIds": [
          10135363
        ],
        "postalCode": "N5Y1E9",
        "streetName": "VESTA",
        "streetDirectionId": null,
        "streetTypeId": "RD",
        "placeName": "LONDON",
        "streetNameDisplayText": "VESTA RD, LONDON"
      }
    ]
  },
  {
    "postal": "N5Y9W7",
    "result": []
  },
  {
    "postal": "N5Y5W6",
    "result": []
  },
  {
    "postal": "N5Y6S6",
    "result": []
  },
  {
    "postal": "N5Y2P8",
    "result": [
      {
        "electoralDistricts": [
          {
            "election": null,
            "id": 54,
            "name": "London North Centre"
          }
        ],
        "pollDivisionIds": [
          10135360
        ],
        "postalCode": "N5Y2P8",
        "streetName": "LOGAN",
        "streetDirectionId": null,
        "streetTypeId": "AVE",
        "placeName": "LONDON",
        "streetNameDisplayText": "LOGAN AVE, LONDON"
      }
    ]
  },
  {
    "postal": "N5Y4P8",
    "result": [
      {
        "electoralDistricts": [
          {
            "election": null,
            "id": 54,
            "name": "London North Centre"
          }
        ],
        "pollDivisionIds": [
          10135363
        ],
        "postalCode": "N5Y4P8",
        "streetName": "FULLER",
        "streetDirectionId": null,
        "streetTypeId": "ST",
        "placeName": "LONDON",
        "streetNameDisplayText": "FULLER ST, LONDON"
      }
    ]
  },
  {
    "postal": "N5Y0V9",
    "result": []
  },
  {
    "postal": "N5Y5Y2",
    "result": []
  },
  {
    "postal": "N5Y7Z7",
    "result": []
  },
  {
    "postal": "N5Y6Y8",
    "result": []
  },
  {
    "postal": "N5Y2G7",
    "result": [
      {
        "electoralDistricts": [
          {
            "election": null,
            "id": 54,
            "name": "London North Centre"
          }
        ],
        "pollDivisionIds": [
          10135360
        ],
        "postalCode": "N5Y2G7",
        "streetName": "WEDGEWOOD",
        "streetDirectionId": null,
        "streetTypeId": "DR",
        "placeName": "LONDON",
        "streetNameDisplayText": "WEDGEWOOD DR, LONDON"
      }
    ]
  },
  {
    "postal": "N5Y8C1",
    "result": []
  },
  {
    "postal": "N5Y5C5",
    "result": []
  },
  {
    "postal": "N5Y2X8",
    "result": [
      {
        "electoralDistricts": [
          {
            "election": null,
            "id": 54,
            "name": "London North Centre"
          }
        ],
        "pollDivisionIds": [
          10135359
        ],
        "postalCode": "N5Y2X8",
        "streetName": "MAITLAND",
        "streetDirectionId": null,
        "streetTypeId": "ST",
        "placeName": "LONDON",
        "streetNameDisplayText": "MAITLAND ST, LONDON"
      }
    ]
  },
  {
    "postal": "N5Y1W5",
    "result": [
      {
        "electoralDistricts": [
          {
            "election": null,
            "id": 54,
            "name": "London North Centre"
          }
        ],
        "pollDivisionIds": [
          10135367
        ],
        "postalCode": "N5Y1W5",
        "streetName": "LINWOOD",
        "streetDirectionId": null,
        "streetTypeId": "ST",
        "placeName": "LONDON",
        "streetNameDisplayText": "LINWOOD ST, LONDON"
      }
    ]
  },
  {
    "postal": "N5Y7G0",
    "result": []
  },
  {
    "postal": "N5Y8J8",
    "result": []
  },
  {
    "postal": "N5Y3Y0",
    "result": []
  },
  {
    "postal": "N5Y9T7",
    "result": []
  },
  {
    "postal": "N5Y5P4",
    "result": [
      {
        "electoralDistricts": [
          {
            "election": null,
            "id": 54,
            "name": "London North Centre"
          }
        ],
        "pollDivisionIds": [
          10135376
        ],
        "postalCode": "N5Y5P4",
        "streetName": "ADELAIDE",
        "streetDirectionId": "N",
        "streetTypeId": "ST",
        "placeName": "LONDON",
        "streetNameDisplayText": "ADELAIDE ST N, LONDON"
      }
    ]
  },
  {
    "postal": "N5Y4B0",
    "result": []
  },
  {
    "postal": "N5Y9N8",
    "result": []
  },
  {
    "postal": "N5Y4A7",
    "result": [
      {
        "electoralDistricts": [
          {
            "election": null,
            "id": 54,
            "name": "London North Centre"
          }
        ],
        "pollDivisionIds": [
          10135368
        ],
        "postalCode": "N5Y4A7",
        "streetName": "GENEVIVE",
        "streetDirectionId": null,
        "streetTypeId": "CRES",
        "placeName": "LONDON",
        "streetNameDisplayText": "GENEVIVE CRES, LONDON"
      }
    ]
  },
  {
    "postal": "N5Y4H9",
    "result": [
      {
        "electoralDistricts": [
          {
            "election": null,
            "id": 54,
            "name": "London North Centre"
          }
        ],
        "pollDivisionIds": [
          10135367
        ],
        "postalCode": "N5Y4H9",
        "streetName": "SEVILLA PARK",
        "streetDirectionId": null,
        "streetTypeId": "PL",
        "placeName": "LONDON",
        "streetNameDisplayText": "SEVILLA PARK PL, LONDON"
      }
    ]
  },
  {
    "postal": "N5Y6X1",
    "result": []
  },
  {
    "postal": "N5Y9Y7",
    "result": []
  },
  {
    "postal": "N5Y2Y5",
    "result": [
      {
        "electoralDistricts": [
          {
            "election": null,
            "id": 54,
            "name": "London North Centre"
          }
        ],
        "pollDivisionIds": [
          10135366
        ],
        "postalCode": "N5Y2Y5",
        "streetName": "THORNTON",
        "streetDirectionId": null,
        "streetTypeId": "AVE",
        "placeName": "LONDON",
        "streetNameDisplayText": "THORNTON AVE, LONDON"
      }
    ]
  },
  {
    "postal": "N5Y8L7",
    "result": []
  },
  {
    "postal": "N5Y2A8",
    "result": [
      {
        "electoralDistricts": [
          {
            "election": null,
            "id": 54,
            "name": "London North Centre"
          }
        ],
        "pollDivisionIds": [
          10135369
        ],
        "postalCode": "N5Y2A8",
        "streetName": "GAMMAGE",
        "streetDirectionId": null,
        "streetTypeId": "ST",
        "placeName": "LONDON",
        "streetNameDisplayText": "GAMMAGE ST, LONDON"
      }
    ]
  },
  {
    "postal": "N5Y2K9",
    "result": [
      {
        "electoralDistricts": [
          {
            "election": null,
            "id": 54,
            "name": "London North Centre"
          }
        ],
        "pollDivisionIds": [
          10135369
        ],
        "postalCode": "N5Y2K9",
        "streetName": "BALMORAL",
        "streetDirectionId": null,
        "streetTypeId": "AVE",
        "placeName": "LONDON",
        "streetNameDisplayText": "BALMORAL AVE, LONDON"
      }
    ]
  },
  {
    "postal": "N5Y3E5",
    "result": [
      {
        "electoralDistricts": [
          {
            "election": null,
            "id": 54,
            "name": "London North Centre"
          }
        ],
        "pollDivisionIds": [
          10135378,
          10135377
        ],
        "postalCode": "N5Y3E5",
        "streetName": "MORNINGTON",
        "streetDirectionId": null,
        "streetTypeId": "AVE",
        "placeName": "LONDON",
        "streetNameDisplayText": "MORNINGTON AVE, LONDON"
      }
    ]
  },
  {
    "postal": "N5Y8N6",
    "result": []
  },
  {
    "postal": "N5Y8J4",
    "result": []
  },
  {
    "postal": "N5Y4R7",
    "result": [
      {
        "electoralDistricts": [
          {
            "election": null,
            "id": 54,
            "name": "London North Centre"
          }
        ],
        "pollDivisionIds": [
          10135361
        ],
        "postalCode": "N5Y4R7",
        "streetName": "KIPPS",
        "streetDirectionId": null,
        "streetTypeId": "LANE",
        "placeName": "LONDON",
        "streetNameDisplayText": "KIPPS LANE, LONDON"
      }
    ]
  },
  {
    "postal": "N5Y9K1",
    "result": []
  },
  {
    "postal": "N5Y8E1",
    "result": []
  },
  {
    "postal": "N5Y0R1",
    "result": []
  },
  {
    "postal": "N5Y4J3",
    "result": [
      {
        "electoralDistricts": [
          {
            "election": null,
            "id": 54,
            "name": "London North Centre"
          }
        ],
        "pollDivisionIds": [
          10135359
        ],
        "postalCode": "N5Y4J3",
        "streetName": "HURON",
        "streetDirectionId": null,
        "streetTypeId": "ST",
        "placeName": "LONDON",
        "streetNameDisplayText": "HURON ST, LONDON"
      }
    ]
  },
  {
    "postal": "N5Y7E7",
    "result": []
  },
  {
    "postal": "N5Y0J0",
    "result": []
  },
  {
    "postal": "N5Y7R8",
    "result": []
  },
  {
    "postal": "N5Y9X0",
    "result": []
  },
  {
    "postal": "N5Y7P6",
    "result": []
  },
  {
    "postal": "N5Y0R7",
    "result": []
  },
  {
    "postal": "N5Y5W1",
    "result": []
  },
  {
    "postal": "N5Y0K4",
    "result": []
  },
  {
    "postal": "N5Y7N9",
    "result": []
  },
  {
    "postal": "N5Y1N0",
    "result": []
  },
  {
    "postal": "N5Y6P3",
    "result": []
  },
  {
    "postal": "N5Y5A1",
    "result": [
      {
        "electoralDistricts": [
          {
            "election": null,
            "id": 54,
            "name": "London North Centre"
          }
        ],
        "pollDivisionIds": [
          10135369
        ],
        "postalCode": "N5Y5A1",
        "streetName": "OXFORD",
        "streetDirectionId": "E",
        "streetTypeId": "ST",
        "placeName": "LONDON",
        "streetNameDisplayText": "OXFORD ST E, LONDON"
      }
    ]
  },
  {
    "postal": "N5Y9M9",
    "result": []
  },
  {
    "postal": "N5Y7T6",
    "result": []
  },
  {
    "postal": "N5Y3X0",
    "result": []
  },
  {
    "postal": "N5Y2T0",
    "result": []
  },
  {
    "postal": "N5Y5X9",
    "result": []
  },
  {
    "postal": "N5Y2R3",
    "result": [
      {
        "electoralDistricts": [
          {
            "election": null,
            "id": 54,
            "name": "London North Centre"
          }
        ],
        "pollDivisionIds": [
          10135375
        ],
        "postalCode": "N5Y2R3",
        "streetName": "WILLIAM",
        "streetDirectionId": null,
        "streetTypeId": "ST",
        "placeName": "LONDON",
        "streetNameDisplayText": "WILLIAM ST, LONDON"
      }
    ]
  },
  {
    "postal": "N5Y5N2",
    "result": [
      {
        "electoralDistricts": [
          {
            "election": null,
            "id": 54,
            "name": "London North Centre"
          }
        ],
        "pollDivisionIds": [
          10135354
        ],
        "postalCode": "N5Y5N2",
        "streetName": "ASPENRIDGE",
        "streetDirectionId": null,
        "streetTypeId": "CRES",
        "placeName": "LONDON",
        "streetNameDisplayText": "ASPENRIDGE CRES, LONDON"
      },
      {
        "electoralDistricts": [
          {
            "election": null,
            "id": 54,
            "name": "London North Centre"
          }
        ],
        "pollDivisionIds": [
          10135354
        ],
        "postalCode": "N5Y5N2",
        "streetName": "COBBLESTONE",
        "streetDirectionId": null,
        "streetTypeId": "ST",
        "placeName": "LONDON",
        "streetNameDisplayText": "COBBLESTONE ST, LONDON"
      }
    ]
  },
  {
    "postal": "N5Y4Y7",
    "result": [
      {
        "electoralDistricts": [
          {
            "election": null,
            "id": 54,
            "name": "London North Centre"
          }
        ],
        "pollDivisionIds": [
          10135361
        ],
        "postalCode": "N5Y4Y7",
        "streetName": "MONSARRAT",
        "streetDirectionId": null,
        "streetTypeId": "CRES",
        "placeName": "LONDON",
        "streetNameDisplayText": "MONSARRAT CRES, LONDON"
      }
    ]
  },
  {
    "postal": "N5Y7M0",
    "result": []
  },
  {
    "postal": "N5Y8P3",
    "result": []
  },
  {
    "postal": "N5Y3N3",
    "result": [
      {
        "electoralDistricts": [
          {
            "election": null,
            "id": 54,
            "name": "London North Centre"
          }
        ],
        "pollDivisionIds": [
          10135369
        ],
        "postalCode": "N5Y3N3",
        "streetName": "WATLING",
        "streetDirectionId": null,
        "streetTypeId": "ST",
        "placeName": "LONDON",
        "streetNameDisplayText": "WATLING ST, LONDON"
      }
    ]
  },
  {
    "postal": "N5Y7S3",
    "result": []
  },
  {
    "postal": "N5Y3V9",
    "result": [
      {
        "electoralDistricts": [
          {
            "election": null,
            "id": 54,
            "name": "London North Centre"
          }
        ],
        "pollDivisionIds": [
          10135369
        ],
        "postalCode": "N5Y3V9",
        "streetName": "ROSS",
        "streetDirectionId": null,
        "streetTypeId": "ST",
        "placeName": "LONDON",
        "streetNameDisplayText": "ROSS ST, LONDON"
      }
    ]
  },
  {
    "postal": "N5Y9N7",
    "result": []
  },
  {
    "postal": "N5Y0G4",
    "result": []
  },
  {
    "postal": "N5Y2E2",
    "result": [
      {
        "electoralDistricts": [
          {
            "election": null,
            "id": 54,
            "name": "London North Centre"
          }
        ],
        "pollDivisionIds": [
          10135369
        ],
        "postalCode": "N5Y2E2",
        "streetName": "ELLIOTT",
        "streetDirectionId": null,
        "streetTypeId": "ST",
        "placeName": "LONDON",
        "streetNameDisplayText": "ELLIOTT ST, LONDON"
      }
    ]
  },
  {
    "postal": "N5Y7W8",
    "result": []
  },
  {
    "postal": "N5Y7M5",
    "result": []
  },
  {
    "postal": "N5Y5W8",
    "result": []
  },
  {
    "postal": "N5Y5E5",
    "result": [
      {
        "electoralDistricts": [
          {
            "election": null,
            "id": 53,
            "name": "Londonâ€”Fanshawe"
          },
          {
            "election": null,
            "id": 54,
            "name": "London North Centre"
          }
        ],
        "pollDivisionIds": [
          10139558,
          10135363
        ],
        "postalCode": "N5Y5E5",
        "streetName": "HIGHBURY",
        "streetDirectionId": "N",
        "streetTypeId": "AVE",
        "placeName": "LONDON",
        "streetNameDisplayText": "HIGHBURY AVE N, LONDON"
      }
    ]
  },
  {
    "postal": "N5Y1P9",
    "result": [
      {
        "electoralDistricts": [
          {
            "election": null,
            "id": 54,
            "name": "London North Centre"
          }
        ],
        "pollDivisionIds": [
          10135370
        ],
        "postalCode": "N5Y1P9",
        "streetName": "APPEL",
        "streetDirectionId": null,
        "streetTypeId": "ST",
        "placeName": "LONDON",
        "streetNameDisplayText": "APPEL ST, LONDON"
      }
    ]
  },
  {
    "postal": "N5Y8V8",
    "result": []
  },
  {
    "postal": "N5Y9G8",
    "result": []
  },
  {
    "postal": "N5Y8H9",
    "result": []
  },
  {
    "postal": "N5Y1Z1",
    "result": [
      {
        "electoralDistricts": [
          {
            "election": null,
            "id": 54,
            "name": "London North Centre"
          }
        ],
        "pollDivisionIds": [
          10135369
        ],
        "postalCode": "N5Y1Z1",
        "streetName": "STERLING",
        "streetDirectionId": null,
        "streetTypeId": "ST",
        "placeName": "LONDON",
        "streetNameDisplayText": "STERLING ST, LONDON"
      }
    ]
  },
  {
    "postal": "N5Y8M3",
    "result": []
  },
  {
    "postal": "N5Y5H6",
    "result": [
      {
        "electoralDistricts": [
          {
            "election": null,
            "id": 54,
            "name": "London North Centre"
          }
        ],
        "pollDivisionIds": [
          10135367
        ],
        "postalCode": "N5Y5H6",
        "streetName": "BENEDICT",
        "streetDirectionId": null,
        "streetTypeId": "CRT",
        "placeName": "LONDON",
        "streetNameDisplayText": "BENEDICT CRT, LONDON"
      }
    ]
  },
  {
    "postal": "N5Y7W7",
    "result": []
  },
  {
    "postal": "N5Y4L0",
    "result": []
  },
  {
    "postal": "N5Y2N1",
    "result": [
      {
        "electoralDistricts": [
          {
            "election": null,
            "id": 54,
            "name": "London North Centre"
          }
        ],
        "pollDivisionIds": [
          10135360
        ],
        "postalCode": "N5Y2N1",
        "streetName": "ADELAIDE",
        "streetDirectionId": "N",
        "streetTypeId": "ST",
        "placeName": "LONDON",
        "streetNameDisplayText": "ADELAIDE ST N, LONDON"
      }
    ]
  },
  {
    "postal": "N5Y2H4",
    "result": [
      {
        "electoralDistricts": [
          {
            "election": null,
            "id": 54,
            "name": "London North Centre"
          }
        ],
        "pollDivisionIds": [
          10135361
        ],
        "postalCode": "N5Y2H4",
        "streetName": "BRIARHILL",
        "streetDirectionId": null,
        "streetTypeId": "AVE",
        "placeName": "LONDON,ON",
        "streetNameDisplayText": "BRIARHILL AVE, LONDON,ON"
      },
      {
        "electoralDistricts": [
          {
            "election": null,
            "id": 54,
            "name": "London North Centre"
          }
        ],
        "pollDivisionIds": [
          10135361
        ],
        "postalCode": "N5Y2H4",
        "streetName": "COUNTRY",
        "streetDirectionId": null,
        "streetTypeId": "LANE",
        "placeName": "LONDON",
        "streetNameDisplayText": "COUNTRY LANE, LONDON"
      }
    ]
  },
  {
    "postal": "N5Y5C8",
    "result": []
  },
  {
    "postal": "N5Y8B0",
    "result": []
  },
  {
    "postal": "N5Y1T4",
    "result": [
      {
        "electoralDistricts": [
          {
            "election": null,
            "id": 54,
            "name": "London North Centre"
          }
        ],
        "pollDivisionIds": [
          10135370
        ],
        "postalCode": "N5Y1T4",
        "streetName": "BOULLEE",
        "streetDirectionId": null,
        "streetTypeId": "ST",
        "placeName": "LONDON",
        "streetNameDisplayText": "BOULLEE ST, LONDON"
      }
    ]
  },
  {
    "postal": "N5Y7N7",
    "result": []
  },
  {
    "postal": "N5Y4L3",
    "result": [
      {
        "electoralDistricts": [
          {
            "election": null,
            "id": 54,
            "name": "London North Centre"
          }
        ],
        "pollDivisionIds": [
          10135363,
          10135368,
          10135361
        ],
        "postalCode": "N5Y4L3",
        "streetName": "HURON",
        "streetDirectionId": null,
        "streetTypeId": "ST",
        "placeName": "LONDON",
        "streetNameDisplayText": "HURON ST, LONDON"
      }
    ]
  },
  {
    "postal": "N5Y2N2",
    "result": [
      {
        "electoralDistricts": [
          {
            "election": null,
            "id": 54,
            "name": "London North Centre"
          }
        ],
        "pollDivisionIds": [
          10135360
        ],
        "postalCode": "N5Y2N2",
        "streetName": "ADELAIDE",
        "streetDirectionId": "N",
        "streetTypeId": "ST",
        "placeName": "LONDON",
        "streetNameDisplayText": "ADELAIDE ST N, LONDON"
      }
    ]
  },
  {
    "postal": "N5Y4N8",
    "result": [
      {
        "electoralDistricts": [
          {
            "election": null,
            "id": 54,
            "name": "London North Centre"
          }
        ],
        "pollDivisionIds": [
          10135362
        ],
        "postalCode": "N5Y4N8",
        "streetName": "MELSANDRA",
        "streetDirectionId": null,
        "streetTypeId": "AVE",
        "placeName": "LONDON",
        "streetNameDisplayText": "MELSANDRA AVE, LONDON"
      }
    ]
  },
  {
    "postal": "N5Y3M5",
    "result": [
      {
        "electoralDistricts": [
          {
            "election": null,
            "id": 54,
            "name": "London North Centre"
          }
        ],
        "pollDivisionIds": [
          10135375
        ],
        "postalCode": "N5Y3M5",
        "streetName": "CARLTON",
        "streetDirectionId": null,
        "streetTypeId": "AVE",
        "placeName": "LONDON",
        "streetNameDisplayText": "CARLTON AVE, LONDON"
      }
    ]
  },
  {
    "postal": "N5Y6H7",
    "result": [
      {
        "electoralDistricts": [
          {
            "election": null,
            "id": 54,
            "name": "London North Centre"
          }
        ],
        "pollDivisionIds": [
          10135363
        ],
        "postalCode": "N5Y6H7",
        "streetName": "RIDGEVIEW",
        "streetDirectionId": null,
        "streetTypeId": "CRT",
        "placeName": "LONDON",
        "streetNameDisplayText": "RIDGEVIEW CRT, LONDON"
      },
      {
        "electoralDistricts": [
          {
            "election": null,
            "id": 54,
            "name": "London North Centre"
          }
        ],
        "pollDivisionIds": [
          10135362,
          10135359,
          10135363
        ],
        "postalCode": "N5Y6H7",
        "streetName": "RIDGEVIEW",
        "streetDirectionId": null,
        "streetTypeId": "DR",
        "placeName": "LONDON",
        "streetNameDisplayText": "RIDGEVIEW DR, LONDON"
      }
    ]
  },
  {
    "postal": "N5Y8Y8",
    "result": []
  },
  {
    "postal": "N5Y5R9",
    "result": []
  },
  {
    "postal": "N5Y8G3",
    "result": []
  },
  {
    "postal": "N5Y4N7",
    "result": [
      {
        "electoralDistricts": [
          {
            "election": null,
            "id": 54,
            "name": "London North Centre"
          }
        ],
        "pollDivisionIds": [
          10135362
        ],
        "postalCode": "N5Y4N7",
        "streetName": "MELSANDRA",
        "streetDirectionId": null,
        "streetTypeId": "AVE",
        "placeName": "LONDON",
        "streetNameDisplayText": "MELSANDRA AVE, LONDON"
      }
    ]
  },
  {
    "postal": "N5Y0B9",
    "result": []
  },
  {
    "postal": "N5Y9K7",
    "result": []
  },
  {
    "postal": "N5Y9K9",
    "result": []
  },
  {
    "postal": "N5Y3Z2",
    "result": [
      {
        "electoralDistricts": [
          {
            "election": null,
            "id": 54,
            "name": "London North Centre"
          }
        ],
        "pollDivisionIds": [
          10135367
        ],
        "postalCode": "N5Y3Z2",
        "streetName": "CHEAPSIDE",
        "streetDirectionId": null,
        "streetTypeId": "ST",
        "placeName": "LONDON",
        "streetNameDisplayText": "CHEAPSIDE ST, LONDON"
      }
    ]
  },
  {
    "postal": "N5Y6W7",
    "result": []
  },
  {
    "postal": "N5Y0P1",
    "result": []
  },
  {
    "postal": "N5Y3A0",
    "result": []
  },
  {
    "postal": "N5Y8L9",
    "result": []
  },
  {
    "postal": "N5Y6X0",
    "result": []
  },
  {
    "postal": "N5Y3E9",
    "result": [
      {
        "electoralDistricts": [
          {
            "election": null,
            "id": 54,
            "name": "London North Centre"
          }
        ],
        "pollDivisionIds": [
          10135378
        ],
        "postalCode": "N5Y3E9",
        "streetName": "MORNINGTON",
        "streetDirectionId": null,
        "streetTypeId": "AVE",
        "placeName": "LONDON",
        "streetNameDisplayText": "MORNINGTON AVE, LONDON"
      }
    ]
  },
  {
    "postal": "N5Y0S5",
    "result": []
  },
  {
    "postal": "N5Y1A2",
    "result": []
  },
  {
    "postal": "N5Y5V8",
    "result": []
  },
  {
    "postal": "N5Y8C5",
    "result": []
  },
  {
    "postal": "N5Y6N0",
    "result": []
  },
  {
    "postal": "N5Y9E6",
    "result": []
  },
  {
    "postal": "N5Y5J7",
    "result": [
      {
        "electoralDistricts": [
          {
            "election": null,
            "id": 54,
            "name": "London North Centre"
          }
        ],
        "pollDivisionIds": [
          10135370
        ],
        "postalCode": "N5Y5J7",
        "streetName": "CHEAPSIDE",
        "streetDirectionId": null,
        "streetTypeId": "ST",
        "placeName": "LONDON",
        "streetNameDisplayText": "CHEAPSIDE ST, LONDON"
      }
    ]
  },
  {
    "postal": "N5Y2R2",
    "result": [
      {
        "electoralDistricts": [
          {
            "election": null,
            "id": 54,
            "name": "London North Centre"
          }
        ],
        "pollDivisionIds": [
          10135376
        ],
        "postalCode": "N5Y2R2",
        "streetName": "WILLIAM",
        "streetDirectionId": null,
        "streetTypeId": "ST",
        "placeName": "LONDON",
        "streetNameDisplayText": "WILLIAM ST, LONDON"
      }
    ]
  },
  {
    "postal": "N5Y0P5",
    "result": []
  },
  {
    "postal": "N5Y5A7",
    "result": [
      {
        "electoralDistricts": [
          {
            "election": null,
            "id": 54,
            "name": "London North Centre"
          }
        ],
        "pollDivisionIds": [
          10135361
        ],
        "postalCode": "N5Y5A7",
        "streetName": "GATEWOOD",
        "streetDirectionId": null,
        "streetTypeId": "RD",
        "placeName": "LONDON",
        "streetNameDisplayText": "GATEWOOD RD, LONDON"
      }
    ]
  },
  {
    "postal": "N5Y1G1",
    "result": [
      {
        "electoralDistricts": [
          {
            "election": null,
            "id": 54,
            "name": "London North Centre"
          }
        ],
        "pollDivisionIds": [
          10135363
        ],
        "postalCode": "N5Y1G1",
        "streetName": "VESTA",
        "streetDirectionId": null,
        "streetTypeId": "RD",
        "placeName": "LONDON",
        "streetNameDisplayText": "VESTA RD, LONDON"
      }
    ]
  },
  {
    "postal": "N5Y9R6",
    "result": []
  },
  {
    "postal": "N5Y4Z9",
    "result": [
      {
        "electoralDistricts": [
          {
            "election": null,
            "id": 54,
            "name": "London North Centre"
          }
        ],
        "pollDivisionIds": [
          10135363
        ],
        "postalCode": "N5Y4Z9",
        "streetName": "REGAL",
        "streetDirectionId": null,
        "streetTypeId": "DR",
        "placeName": "LONDON",
        "streetNameDisplayText": "REGAL DR, LONDON"
      }
    ]
  },
  {
    "postal": "N5Y1V5",
    "result": [
      {
        "electoralDistricts": [
          {
            "election": null,
            "id": 54,
            "name": "London North Centre"
          }
        ],
        "pollDivisionIds": [
          10135377
        ],
        "postalCode": "N5Y1V5",
        "streetName": "GLASGOW",
        "streetDirectionId": null,
        "streetTypeId": "ST",
        "placeName": "LONDON",
        "streetNameDisplayText": "GLASGOW ST, LONDON"
      }
    ]
  },
  {
    "postal": "N5Y9Y5",
    "result": []
  },
  {
    "postal": "N5Y1P2",
    "result": [
      {
        "electoralDistricts": [
          {
            "election": null,
            "id": 54,
            "name": "London North Centre"
          }
        ],
        "pollDivisionIds": [
          10135363
        ],
        "postalCode": "N5Y1P2",
        "streetName": "BRIARHILL",
        "streetDirectionId": null,
        "streetTypeId": "AVE",
        "placeName": "LONDON",
        "streetNameDisplayText": "BRIARHILL AVE, LONDON"
      }
    ]
  },
  {
    "postal": "N5Y5X0",
    "result": []
  },
  {
    "postal": "N5Y7B8",
    "result": []
  },
  {
    "postal": "N5Y0C6",
    "result": []
  },
  {
    "postal": "N5Y6G1",
    "result": []
  },
  {
    "postal": "N5Y3K3",
    "result": [
      {
        "electoralDistricts": [
          {
            "election": null,
            "id": 54,
            "name": "London North Centre"
          }
        ],
        "pollDivisionIds": [
          10135370
        ],
        "postalCode": "N5Y3K3",
        "streetName": "DOBIE",
        "streetDirectionId": null,
        "streetTypeId": "ST",
        "placeName": "LONDON",
        "streetNameDisplayText": "DOBIE ST, LONDON"
      }
    ]
  },
  {
    "postal": "N5Y9R0",
    "result": []
  },
  {
    "postal": "N5Y4R8",
    "result": [
      {
        "electoralDistricts": [
          {
            "election": null,
            "id": 54,
            "name": "London North Centre"
          }
        ],
        "pollDivisionIds": [
          10135361
        ],
        "postalCode": "N5Y4R8",
        "streetName": "KIPPS",
        "streetDirectionId": null,
        "streetTypeId": "LANE",
        "placeName": "LONDON",
        "streetNameDisplayText": "KIPPS LANE, LONDON"
      }
    ]
  },
  {
    "postal": "N5Y5P9",
    "result": [
      {
        "electoralDistricts": [
          {
            "election": null,
            "id": 54,
            "name": "London North Centre"
          }
        ],
        "pollDivisionIds": [
          10135363,
          10135364
        ],
        "postalCode": "N5Y5P9",
        "streetName": "BLACKMAPLE",
        "streetDirectionId": null,
        "streetTypeId": "CRT",
        "placeName": "LONDON",
        "streetNameDisplayText": "BLACKMAPLE CRT, LONDON"
      }
    ]
  },
  {
    "postal": "N5Y8N4",
    "result": []
  },
  {
    "postal": "N5Y8H4",
    "result": []
  },
  {
    "postal": "N5Y4V1",
    "result": [
      {
        "electoralDistricts": [
          {
            "election": null,
            "id": 54,
            "name": "London North Centre"
          }
        ],
        "pollDivisionIds": [
          10135368
        ],
        "postalCode": "N5Y4V1",
        "streetName": "HURON",
        "streetDirectionId": null,
        "streetTypeId": "ST",
        "placeName": "LONDON",
        "streetNameDisplayText": "HURON ST, LONDON"
      }
    ]
  },
  {
    "postal": "N5Y1K5",
    "result": [
      {
        "electoralDistricts": [
          {
            "election": null,
            "id": 54,
            "name": "London North Centre"
          }
        ],
        "pollDivisionIds": [
          10135370
        ],
        "postalCode": "N5Y1K5",
        "streetName": "MCNAY",
        "streetDirectionId": null,
        "streetTypeId": "ST",
        "placeName": "LONDON",
        "streetNameDisplayText": "MCNAY ST, LONDON"
      }
    ]
  },
  {
    "postal": "N5Y1Z5",
    "result": [
      {
        "electoralDistricts": [
          {
            "election": null,
            "id": 54,
            "name": "London North Centre"
          }
        ],
        "pollDivisionIds": [
          10135369
        ],
        "postalCode": "N5Y1Z5",
        "streetName": "BEDFORD",
        "streetDirectionId": null,
        "streetTypeId": "RD",
        "placeName": "LONDON",
        "streetNameDisplayText": "BEDFORD RD, LONDON"
      }
    ]
  },
  {
    "postal": "N5Y9L9",
    "result": []
  },
  {
    "postal": "N5Y5L2",
    "result": [
      {
        "electoralDistricts": [
          {
            "election": null,
            "id": 54,
            "name": "London North Centre"
          }
        ],
        "pollDivisionIds": [
          10135361,
          10135362
        ],
        "postalCode": "N5Y5L2",
        "streetName": "KIPPS",
        "streetDirectionId": null,
        "streetTypeId": "LANE",
        "placeName": "LONDON",
        "streetNameDisplayText": "KIPPS LANE, LONDON"
      }
    ]
  },
  {
    "postal": "N5Y0M2",
    "result": []
  },
  {
    "postal": "N5Y1K8",
    "result": [
      {
        "electoralDistricts": [
          {
            "election": null,
            "id": 54,
            "name": "London North Centre"
          }
        ],
        "pollDivisionIds": [
          10135370
        ],
        "postalCode": "N5Y1K8",
        "streetName": "MCNAY",
        "streetDirectionId": null,
        "streetTypeId": "ST",
        "placeName": "LONDON",
        "streetNameDisplayText": "MCNAY ST, LONDON"
      }
    ]
  },
  {
    "postal": "N5Y3M7",
    "result": [
      {
        "electoralDistricts": [
          {
            "election": null,
            "id": 54,
            "name": "London North Centre"
          }
        ],
        "pollDivisionIds": [
          10135375
        ],
        "postalCode": "N5Y3M7",
        "streetName": "CARLTON",
        "streetDirectionId": null,
        "streetTypeId": "AVE",
        "placeName": "LONDON",
        "streetNameDisplayText": "CARLTON AVE, LONDON"
      }
    ]
  },
  {
    "postal": "N5Y1B2",
    "result": []
  },
  {
    "postal": "N5Y0H9",
    "result": []
  },
  {
    "postal": "N5Y8M4",
    "result": []
  },
  {
    "postal": "N5Y2M5",
    "result": [
      {
        "electoralDistricts": [
          {
            "election": null,
            "id": 54,
            "name": "London North Centre"
          }
        ],
        "pollDivisionIds": [
          10135369
        ],
        "postalCode": "N5Y2M5",
        "streetName": "ADELAIDE",
        "streetDirectionId": "N",
        "streetTypeId": "ST",
        "placeName": "LONDON",
        "streetNameDisplayText": "ADELAIDE ST N, LONDON"
      }
    ]
  },
  {
    "postal": "N5Y0T9",
    "result": []
  },
  {
    "postal": "N5Y3P1",
    "result": [
      {
        "electoralDistricts": [
          {
            "election": null,
            "id": 54,
            "name": "London North Centre"
          }
        ],
        "pollDivisionIds": [
          10135375
        ],
        "postalCode": "N5Y3P1",
        "streetName": "ST JAMES",
        "streetDirectionId": null,
        "streetTypeId": "ST",
        "placeName": "LONDON",
        "streetNameDisplayText": "ST JAMES ST, LONDON"
      }
    ]
  },
  {
    "postal": "N5Y1R6",
    "result": [
      {
        "electoralDistricts": [
          {
            "election": null,
            "id": 54,
            "name": "London North Centre"
          }
        ],
        "pollDivisionIds": [
          10135377
        ],
        "postalCode": "N5Y1R6",
        "streetName": "FLEET",
        "streetDirectionId": null,
        "streetTypeId": "ST",
        "placeName": "LONDON",
        "streetNameDisplayText": "FLEET ST, LONDON"
      }
    ]
  },
  {
    "postal": "N5Y9V5",
    "result": []
  },
  {
    "postal": "N5Y9T0",
    "result": []
  },
  {
    "postal": "N5Y0A9",
    "result": []
  },
  {
    "postal": "N5Y1M3",
    "result": [
      {
        "electoralDistricts": [
          {
            "election": null,
            "id": 54,
            "name": "London North Centre"
          }
        ],
        "pollDivisionIds": [
          10135378
        ],
        "postalCode": "N5Y1M3",
        "streetName": "HIGH HOLBORN",
        "streetDirectionId": null,
        "streetTypeId": "ST",
        "placeName": "LONDON",
        "streetNameDisplayText": "HIGH HOLBORN ST, LONDON"
      }
    ]
  },
  {
    "postal": "N5Y1W8",
    "result": []
  },
  {
    "postal": "N5Y9J1",
    "result": []
  },
  {
    "postal": "N5Y8N5",
    "result": []
  },
  {
    "postal": "N5Y5X1",
    "result": []
  },
  {
    "postal": "N5Y6S2",
    "result": []
  },
  {
    "postal": "N5Y2A2",
    "result": [
      {
        "electoralDistricts": [
          {
            "election": null,
            "id": 54,
            "name": "London North Centre"
          }
        ],
        "pollDivisionIds": [
          10135361
        ],
        "postalCode": "N5Y2A2",
        "streetName": "ARBOUR GLEN",
        "streetDirectionId": null,
        "streetTypeId": "CRES",
        "placeName": "LONDON",
        "streetNameDisplayText": "ARBOUR GLEN CRES, LONDON"
      }
    ]
  },
  {
    "postal": "N5Y6A6",
    "result": []
  },
  {
    "postal": "N5Y0S3",
    "result": []
  },
  {
    "postal": "N5Y3E7",
    "result": [
      {
        "electoralDistricts": [
          {
            "election": null,
            "id": 54,
            "name": "London North Centre"
          }
        ],
        "pollDivisionIds": [
          10135377
        ],
        "postalCode": "N5Y3E7",
        "streetName": "MORINGTON",
        "streetDirectionId": null,
        "streetTypeId": "AVE",
        "placeName": "LONDON",
        "streetNameDisplayText": "MORINGTON AVE, LONDON"
      },
      {
        "electoralDistricts": [
          {
            "election": null,
            "id": 54,
            "name": "London North Centre"
          }
        ],
        "pollDivisionIds": [
          10135377,
          10135378
        ],
        "postalCode": "N5Y3E7",
        "streetName": "MORNINGTON",
        "streetDirectionId": null,
        "streetTypeId": "AVE",
        "placeName": "LONDON",
        "streetNameDisplayText": "MORNINGTON AVE, LONDON"
      }
    ]
  },
  {
    "postal": "N5Y5R7",
    "result": []
  },
  {
    "postal": "N5Y3R6",
    "result": [
      {
        "electoralDistricts": [
          {
            "election": null,
            "id": 54,
            "name": "London North Centre"
          }
        ],
        "pollDivisionIds": [
          10135375
        ],
        "postalCode": "N5Y3R6",
        "streetName": "PARTRIDGE",
        "streetDirectionId": null,
        "streetTypeId": "ST",
        "placeName": "LONDON",
        "streetNameDisplayText": "PARTRIDGE ST, LONDON"
      }
    ]
  },
  {
    "postal": "N5Y6K4",
    "result": []
  },
  {
    "postal": "N5Y2W5",
    "result": [
      {
        "electoralDistricts": [
          {
            "election": null,
            "id": 54,
            "name": "London North Centre"
          }
        ],
        "pollDivisionIds": [
          10135375
        ],
        "postalCode": "N5Y2W5",
        "streetName": "MAITLAND",
        "streetDirectionId": null,
        "streetTypeId": "ST",
        "placeName": "LONDON",
        "streetNameDisplayText": "MAITLAND ST, LONDON"
      }
    ]
  },
  {
    "postal": "N5Y8W4",
    "result": []
  },
  {
    "postal": "N5Y9C2",
    "result": []
  },
  {
    "postal": "N5Y2C0",
    "result": []
  },
  {
    "postal": "N5Y0E1",
    "result": []
  },
  {
    "postal": "N5Y1K9",
    "result": [
      {
        "electoralDistricts": [
          {
            "election": null,
            "id": 54,
            "name": "London North Centre"
          }
        ],
        "pollDivisionIds": [
          10135370
        ],
        "postalCode": "N5Y1K9",
        "streetName": "MCNAY",
        "streetDirectionId": null,
        "streetTypeId": "ST",
        "placeName": "LONDON",
        "streetNameDisplayText": "MCNAY ST, LONDON"
      }
    ]
  },
  {
    "postal": "N5Y1G7",
    "result": [
      {
        "electoralDistricts": [
          {
            "election": null,
            "id": 54,
            "name": "London North Centre"
          }
        ],
        "pollDivisionIds": [
          10135378
        ],
        "postalCode": "N5Y1G7",
        "streetName": "EMPIRE",
        "streetDirectionId": null,
        "streetTypeId": "ST",
        "placeName": "LONDON",
        "streetNameDisplayText": "EMPIRE ST, LONDON"
      }
    ]
  },
  {
    "postal": "N5Y4E9",
    "result": [
      {
        "electoralDistricts": [
          {
            "election": null,
            "id": 54,
            "name": "London North Centre"
          }
        ],
        "pollDivisionIds": [
          10135360
        ],
        "postalCode": "N5Y4E9",
        "streetName": "CHALMERS",
        "streetDirectionId": null,
        "streetTypeId": "ST",
        "placeName": "LONDON",
        "streetNameDisplayText": "CHALMERS ST, LONDON"
      }
    ]
  },
  {
    "postal": "N5Y9P0",
    "result": []
  },
  {
    "postal": "N5Y5H3",
    "result": [
      {
        "electoralDistricts": [
          {
            "election": null,
            "id": 54,
            "name": "London North Centre"
          }
        ],
        "pollDivisionIds": [
          10135362
        ],
        "postalCode": "N5Y5H3",
        "streetName": "SUSSEX",
        "streetDirectionId": null,
        "streetTypeId": "CRES",
        "placeName": "LONDON",
        "streetNameDisplayText": "SUSSEX CRES, LONDON"
      },
      {
        "electoralDistricts": [
          {
            "election": null,
            "id": 54,
            "name": "London North Centre"
          }
        ],
        "pollDivisionIds": [
          10135362
        ],
        "postalCode": "N5Y5H3",
        "streetName": "SUSSEX",
        "streetDirectionId": null,
        "streetTypeId": "PL",
        "placeName": "LONDON",
        "streetNameDisplayText": "SUSSEX PL, LONDON"
      }
    ]
  },
  {
    "postal": "N5Y9X6",
    "result": []
  },
  {
    "postal": "N5Y5N7",
    "result": [
      {
        "electoralDistricts": [
          {
            "election": null,
            "id": 53,
            "name": "Londonâ€”Fanshawe"
          }
        ],
        "pollDivisionIds": [
          10139556
        ],
        "postalCode": "N5Y5N7",
        "streetName": "HIGHBURY",
        "streetDirectionId": "N",
        "streetTypeId": "AVE",
        "placeName": "LONDON",
        "streetNameDisplayText": "HIGHBURY AVE N, LONDON"
      }
    ]
  },
  {
    "postal": "N5Y5A6",
    "result": [
      {
        "electoralDistricts": [
          {
            "election": null,
            "id": 54,
            "name": "London North Centre"
          }
        ],
        "pollDivisionIds": [
          10135361
        ],
        "postalCode": "N5Y5A6",
        "streetName": "MONSARRAT",
        "streetDirectionId": null,
        "streetTypeId": "AVE",
        "placeName": "LONDON",
        "streetNameDisplayText": "MONSARRAT AVE, LONDON"
      }
    ]
  },
  {
    "postal": "N5Y4M0",
    "result": []
  },
  {
    "postal": "N5Y3V6",
    "result": [
      {
        "electoralDistricts": [
          {
            "election": null,
            "id": 54,
            "name": "London North Centre"
          }
        ],
        "pollDivisionIds": [
          10135360
        ],
        "postalCode": "N5Y3V6",
        "streetName": "ROSS",
        "streetDirectionId": null,
        "streetTypeId": "ST",
        "placeName": "LONDON",
        "streetNameDisplayText": "ROSS ST, LONDON"
      }
    ]
  },
  {
    "postal": "N5Y1L7",
    "result": [
      {
        "electoralDistricts": [
          {
            "election": null,
            "id": 54,
            "name": "London North Centre"
          }
        ],
        "pollDivisionIds": [
          10135363
        ],
        "postalCode": "N5Y1L7",
        "streetName": "MCNAY",
        "streetDirectionId": null,
        "streetTypeId": "ST",
        "placeName": "LONDON",
        "streetNameDisplayText": "MCNAY ST, LONDON"
      }
    ]
  },
  {
    "postal": "N5Y2P9",
    "result": [
      {
        "electoralDistricts": [
          {
            "election": null,
            "id": 54,
            "name": "London North Centre"
          }
        ],
        "pollDivisionIds": [
          10135360
        ],
        "postalCode": "N5Y2P9",
        "streetName": "LOGAN",
        "streetDirectionId": null,
        "streetTypeId": "AVE",
        "placeName": "LONDON",
        "streetNameDisplayText": "LOGAN AVE, LONDON"
      }
    ]
  },
  {
    "postal": "N5Y5T4",
    "result": []
  },
  {
    "postal": "N5Y5Z1",
    "result": []
  },
  {
    "postal": "N5Y2X0",
    "result": []
  },
  {
    "postal": "N5Y6Z2",
    "result": []
  },
  {
    "postal": "N5Y0E0",
    "result": []
  },
  {
    "postal": "N5Y3Z5",
    "result": [
      {
        "electoralDistricts": [
          {
            "election": null,
            "id": 54,
            "name": "London North Centre"
          }
        ],
        "pollDivisionIds": [
          10135369
        ],
        "postalCode": "N5Y3Z5",
        "streetName": "STRATHMEYER",
        "streetDirectionId": null,
        "streetTypeId": "ST",
        "placeName": "LONDON",
        "streetNameDisplayText": "STRATHMEYER ST, LONDON"
      }
    ]
  },
  {
    "postal": "N5Y8H3",
    "result": []
  },
  {
    "postal": "N5Y7S6",
    "result": []
  },
  {
    "postal": "N5Y4C1",
    "result": [
      {
        "electoralDistricts": [
          {
            "election": null,
            "id": 54,
            "name": "London North Centre"
          }
        ],
        "pollDivisionIds": [
          10135360
        ],
        "postalCode": "N5Y4C1",
        "streetName": "VICTORIA",
        "streetDirectionId": null,
        "streetTypeId": "ST",
        "placeName": "LONDON",
        "streetNameDisplayText": "VICTORIA ST, LONDON"
      }
    ]
  },
  {
    "postal": "N5Y3K2",
    "result": [
      {
        "electoralDistricts": [
          {
            "election": null,
            "id": 54,
            "name": "London North Centre"
          }
        ],
        "pollDivisionIds": [
          10135369
        ],
        "postalCode": "N5Y3K2",
        "streetName": "OXFORD",
        "streetDirectionId": "E",
        "streetTypeId": "ST",
        "placeName": "LONDON",
        "streetNameDisplayText": "OXFORD ST E, LONDON"
      }
    ]
  },
  {
    "postal": "N5Y1Y5",
    "result": [
      {
        "electoralDistricts": [
          {
            "election": null,
            "id": 54,
            "name": "London North Centre"
          }
        ],
        "pollDivisionIds": [
          10135377
        ],
        "postalCode": "N5Y1Y5",
        "streetName": "STERLING",
        "streetDirectionId": null,
        "streetTypeId": "ST",
        "placeName": "LONDON",
        "streetNameDisplayText": "STERLING ST, LONDON"
      }
    ]
  },
  {
    "postal": "N5Y6P6",
    "result": []
  },
  {
    "postal": "N5Y3N9",
    "result": []
  },
  {
    "postal": "N5Y3W2",
    "result": [
      {
        "electoralDistricts": [
          {
            "election": null,
            "id": 54,
            "name": "London North Centre"
          }
        ],
        "pollDivisionIds": [
          10135370
        ],
        "postalCode": "N5Y3W2",
        "streetName": "LANDOR",
        "streetDirectionId": null,
        "streetTypeId": "ST",
        "placeName": "LONDON",
        "streetNameDisplayText": "LANDOR ST, LONDON"
      }
    ]
  },
  {
    "postal": "N5Y6H8",
    "result": [
      {
        "electoralDistricts": [
          {
            "election": null,
            "id": 54,
            "name": "London North Centre"
          }
        ],
        "pollDivisionIds": [
          10135363,
          10135362
        ],
        "postalCode": "N5Y6H8",
        "streetName": "RIDGEVIEW",
        "streetDirectionId": null,
        "streetTypeId": "DR",
        "placeName": "LONDON",
        "streetNameDisplayText": "RIDGEVIEW DR, LONDON"
      }
    ]
  },
  {
    "postal": "N5Y9T3",
    "result": []
  },
  {
    "postal": "N5Y5L9",
    "result": [
      {
        "electoralDistricts": [
          {
            "election": null,
            "id": 54,
            "name": "London North Centre"
          }
        ],
        "pollDivisionIds": [
          10135370
        ],
        "postalCode": "N5Y5L9",
        "streetName": "KRUPP",
        "streetDirectionId": null,
        "streetTypeId": "ST",
        "placeName": "LONDON",
        "streetNameDisplayText": "KRUPP ST, LONDON"
      }
    ]
  },
  {
    "postal": "N5Y7X7",
    "result": []
  },
  {
    "postal": "N5Y3J5",
    "result": [
      {
        "electoralDistricts": [
          {
            "election": null,
            "id": 54,
            "name": "London North Centre"
          }
        ],
        "pollDivisionIds": [
          10135369
        ],
        "postalCode": "N5Y3J5",
        "streetName": "OXFORD",
        "streetDirectionId": "E",
        "streetTypeId": "ST",
        "placeName": "LONDON",
        "streetNameDisplayText": "OXFORD ST E, LONDON"
      }
    ]
  },
  {
    "postal": "N5Y4J5",
    "result": [
      {
        "electoralDistricts": [
          {
            "election": null,
            "id": 54,
            "name": "London North Centre"
          }
        ],
        "pollDivisionIds": [
          10135360
        ],
        "postalCode": "N5Y4J5",
        "streetName": "HURON",
        "streetDirectionId": null,
        "streetTypeId": "ST",
        "placeName": "LONDON",
        "streetNameDisplayText": "HURON ST, LONDON"
      }
    ]
  },
  {
    "postal": "N5Y6J2",
    "result": []
  },
  {
    "postal": "N5Y5V6",
    "result": []
  },
  {
    "postal": "N5Y3N2",
    "result": [
      {
        "electoralDistricts": [
          {
            "election": null,
            "id": 54,
            "name": "London North Centre"
          }
        ],
        "pollDivisionIds": [
          10135369
        ],
        "postalCode": "N5Y3N2",
        "streetName": "BRANT",
        "streetDirectionId": null,
        "streetTypeId": "ST",
        "placeName": "LONDON",
        "streetNameDisplayText": "BRANT ST, LONDON"
      }
    ]
  },
  {
    "postal": "N5Y3B1",
    "result": [
      {
        "electoralDistricts": [
          {
            "election": null,
            "id": 54,
            "name": "London North Centre"
          }
        ],
        "pollDivisionIds": [
          10135377
        ],
        "postalCode": "N5Y3B1",
        "streetName": "SALISBURY",
        "streetDirectionId": null,
        "streetTypeId": "ST",
        "placeName": "LONDON",
        "streetNameDisplayText": "SALISBURY ST, LONDON"
      }
    ]
  },
  {
    "postal": "N5Y8B5",
    "result": []
  },
  {
    "postal": "N5Y0K1",
    "result": []
  },
  {
    "postal": "N5Y7M7",
    "result": []
  },
  {
    "postal": "N5Y2M2",
    "result": [
      {
        "electoralDistricts": [
          {
            "election": null,
            "id": 54,
            "name": "London North Centre"
          }
        ],
        "pollDivisionIds": [
          10135360,
          10135375
        ],
        "postalCode": "N5Y2M2",
        "streetName": "ADELAIDE",
        "streetDirectionId": "N",
        "streetTypeId": "ST",
        "placeName": "LONDON",
        "streetNameDisplayText": "ADELAIDE ST N, LONDON"
      }
    ]
  },
  {
    "postal": "N5Y9N3",
    "result": []
  },
  {
    "postal": "N5Y4Y8",
    "result": [
      {
        "electoralDistricts": [
          {
            "election": null,
            "id": 54,
            "name": "London North Centre"
          }
        ],
        "pollDivisionIds": [
          10135361
        ],
        "postalCode": "N5Y4Y8",
        "streetName": "MONSARRAT",
        "streetDirectionId": null,
        "streetTypeId": "CRES",
        "placeName": "LONDON",
        "streetNameDisplayText": "MONSARRAT CRES, LONDON"
      }
    ]
  },
  {
    "postal": "N5Y3V7",
    "result": [
      {
        "electoralDistricts": [
          {
            "election": null,
            "id": 54,
            "name": "London North Centre"
          }
        ],
        "pollDivisionIds": [
          10135369
        ],
        "postalCode": "N5Y3V7",
        "streetName": "ROSS",
        "streetDirectionId": null,
        "streetTypeId": "ST",
        "placeName": "LONDON",
        "streetNameDisplayText": "ROSS ST, LONDON"
      }
    ]
  },
  {
    "postal": "N5Y8Z1",
    "result": []
  },
  {
    "postal": "N5Y7B3",
    "result": []
  },
  {
    "postal": "N5Y3A8",
    "result": [
      {
        "electoralDistricts": [
          {
            "election": null,
            "id": 54,
            "name": "London North Centre"
          }
        ],
        "pollDivisionIds": [
          10135377
        ],
        "postalCode": "N5Y3A8",
        "streetName": "SALISBURY",
        "streetDirectionId": null,
        "streetTypeId": "ST",
        "placeName": "LONDON",
        "streetNameDisplayText": "SALISBURY ST, LONDON"
      }
    ]
  },
  {
    "postal": "N5Y7V5",
    "result": []
  },
  {
    "postal": "N5Y2T2",
    "result": [
      {
        "electoralDistricts": [
          {
            "election": null,
            "id": 54,
            "name": "London North Centre"
          }
        ],
        "pollDivisionIds": [
          10135360
        ],
        "postalCode": "N5Y2T2",
        "streetName": "WILLIAM",
        "streetDirectionId": null,
        "streetTypeId": "ST",
        "placeName": "LONDON",
        "streetNameDisplayText": "WILLIAM ST, LONDON"
      }
    ]
  },
  {
    "postal": "N5Y6L3",
    "result": [
      {
        "electoralDistricts": [
          {
            "election": null,
            "id": 54,
            "name": "London North Centre"
          }
        ],
        "pollDivisionIds": [
          10135376
        ],
        "postalCode": "N5Y6L3",
        "streetName": "ELIZABETH",
        "streetDirectionId": null,
        "streetTypeId": "ST",
        "placeName": "LONDON",
        "streetNameDisplayText": "ELIZABETH ST, LONDON"
      }
    ]
  },
  {
    "postal": "N5Y0L2",
    "result": []
  },
  {
    "postal": "N5Y5Y8",
    "result": []
  },
  {
    "postal": "N5Y0B8",
    "result": []
  },
  {
    "postal": "N5Y6R5",
    "result": []
  },
  {
    "postal": "N5Y8W6",
    "result": []
  },
  {
    "postal": "N5Y8G6",
    "result": []
  },
  {
    "postal": "N5Y6X3",
    "result": []
  },
  {
    "postal": "N5Y7R7",
    "result": []
  },
  {
    "postal": "N5Y4B6",
    "result": [
      {
        "electoralDistricts": [
          {
            "election": null,
            "id": 54,
            "name": "London North Centre"
          }
        ],
        "pollDivisionIds": [
          10135360
        ],
        "postalCode": "N5Y4B6",
        "streetName": "VICTORIA",
        "streetDirectionId": null,
        "streetTypeId": "ST",
        "placeName": "LONDON",
        "streetNameDisplayText": "VICTORIA ST, LONDON"
      }
    ]
  },
  {
    "postal": "N5Y3P9",
    "result": [
      {
        "electoralDistricts": [
          {
            "election": null,
            "id": 54,
            "name": "London North Centre"
          }
        ],
        "pollDivisionIds": [
          10135369
        ],
        "postalCode": "N5Y3P9",
        "streetName": "ST JAMES",
        "streetDirectionId": null,
        "streetTypeId": "ST",
        "placeName": "LONDON",
        "streetNameDisplayText": "ST JAMES ST, LONDON"
      }
    ]
  },
  {
    "postal": "N5Y2T3",
    "result": [
      {
        "electoralDistricts": [
          {
            "election": null,
            "id": 54,
            "name": "London North Centre"
          }
        ],
        "pollDivisionIds": [
          10135360
        ],
        "postalCode": "N5Y2T3",
        "streetName": "WILLIAM",
        "streetDirectionId": null,
        "streetTypeId": "ST",
        "placeName": "LONDON",
        "streetNameDisplayText": "WILLIAM ST, LONDON"
      }
    ]
  },
  {
    "postal": "N5Y1M4",
    "result": [
      {
        "electoralDistricts": [
          {
            "election": null,
            "id": 54,
            "name": "London North Centre"
          }
        ],
        "pollDivisionIds": [
          10135370
        ],
        "postalCode": "N5Y1M4",
        "streetName": "LYMAN",
        "streetDirectionId": null,
        "streetTypeId": "ST",
        "placeName": "LONDON",
        "streetNameDisplayText": "LYMAN ST, LONDON"
      }
    ]
  },
  {
    "postal": "N5Y0H1",
    "result": []
  },
  {
    "postal": "N5Y9W3",
    "result": []
  },
  {
    "postal": "N5Y6P1",
    "result": []
  },
  {
    "postal": "N5Y7G2",
    "result": []
  },
  {
    "postal": "N5Y4J9",
    "result": []
  },
  {
    "postal": "N5Y9E4",
    "result": []
  },
  {
    "postal": "N5Y8H0",
    "result": []
  },
  {
    "postal": "N5Y4M7",
    "result": [
      {
        "electoralDistricts": [
          {
            "election": null,
            "id": 54,
            "name": "London North Centre"
          }
        ],
        "pollDivisionIds": [
          10135361
        ],
        "postalCode": "N5Y4M7",
        "streetName": "NORWOOD",
        "streetDirectionId": null,
        "streetTypeId": "AVE",
        "placeName": "LONDON",
        "streetNameDisplayText": "NORWOOD AVE, LONDON"
      }
    ]
  },
  {
    "postal": "N5Y2G9",
    "result": [
      {
        "electoralDistricts": [
          {
            "election": null,
            "id": 54,
            "name": "London North Centre"
          }
        ],
        "pollDivisionIds": [
          10135361
        ],
        "postalCode": "N5Y2G9",
        "streetName": "NORTHBRAE",
        "streetDirectionId": null,
        "streetTypeId": "DR",
        "placeName": "LONDON",
        "streetNameDisplayText": "NORTHBRAE DR, LONDON"
      }
    ]
  },
  {
    "postal": "N5Y8T2",
    "result": []
  },
  {
    "postal": "N5Y7G7",
    "result": []
  },
  {
    "postal": "N5Y4Z3",
    "result": [
      {
        "electoralDistricts": [
          {
            "election": null,
            "id": 54,
            "name": "London North Centre"
          }
        ],
        "pollDivisionIds": [
          10135360
        ],
        "postalCode": "N5Y4Z3",
        "streetName": "GATEWOOD",
        "streetDirectionId": null,
        "streetTypeId": "RD",
        "placeName": "LONDON",
        "streetNameDisplayText": "GATEWOOD RD, LONDON"
      }
    ]
  },
  {
    "postal": "N5Y5B3",
    "result": [
      {
        "electoralDistricts": [
          {
            "election": null,
            "id": 54,
            "name": "London North Centre"
          }
        ],
        "pollDivisionIds": [
          10135361
        ],
        "postalCode": "N5Y5B3",
        "streetName": "DELPHI",
        "streetDirectionId": null,
        "streetTypeId": "RD",
        "placeName": "LONDON",
        "streetNameDisplayText": "DELPHI RD, LONDON"
      }
    ]
  },
  {
    "postal": "N5Y1S7",
    "result": [
      {
        "electoralDistricts": [
          {
            "election": null,
            "id": 54,
            "name": "London North Centre"
          }
        ],
        "pollDivisionIds": [
          10135362
        ],
        "postalCode": "N5Y1S7",
        "streetName": "VALLEYVIEW",
        "streetDirectionId": null,
        "streetTypeId": "AVE",
        "placeName": "LONDON",
        "streetNameDisplayText": "VALLEYVIEW AVE, LONDON"
      }
    ]
  },
  {
    "postal": "N5Y2N7",
    "result": [
      {
        "electoralDistricts": [
          {
            "election": null,
            "id": 54,
            "name": "London North Centre"
          }
        ],
        "pollDivisionIds": [
          10135360
        ],
        "postalCode": "N5Y2N7",
        "streetName": "ADELAIDE",
        "streetDirectionId": "N",
        "streetTypeId": "ST",
        "placeName": "LONDON",
        "streetNameDisplayText": "ADELAIDE ST N, LONDON"
      }
    ]
  },
  {
    "postal": "N5Y0H8",
    "result": []
  },
  {
    "postal": "N5Y7Z4",
    "result": []
  },
  {
    "postal": "N5Y7B1",
    "result": []
  },
  {
    "postal": "N5Y7P8",
    "result": []
  },
  {
    "postal": "N5Y7N0",
    "result": []
  },
  {
    "postal": "N5Y3Y5",
    "result": [
      {
        "electoralDistricts": [
          {
            "election": null,
            "id": 54,
            "name": "London North Centre"
          }
        ],
        "pollDivisionIds": [
          10135369
        ],
        "postalCode": "N5Y3Y5",
        "streetName": "CHEAPSIDE",
        "streetDirectionId": null,
        "streetTypeId": "ST",
        "placeName": "LONDON",
        "streetNameDisplayText": "CHEAPSIDE ST, LONDON"
      }
    ]
  },
  {
    "postal": "N5Y6K1",
    "result": []
  },
  {
    "postal": "N5Y9X5",
    "result": []
  },
  {
    "postal": "N5Y7S5",
    "result": []
  },
  {
    "postal": "N5Y0A4",
    "result": []
  },
  {
    "postal": "N5Y4T5",
    "result": [
      {
        "electoralDistricts": [
          {
            "election": null,
            "id": 54,
            "name": "London North Centre"
          }
        ],
        "pollDivisionIds": [
          10135361
        ],
        "postalCode": "N5Y4T5",
        "streetName": "KIPPS",
        "streetDirectionId": null,
        "streetTypeId": "LANE",
        "placeName": "LONDON",
        "streetNameDisplayText": "KIPPS LANE, LONDON"
      }
    ]
  },
  {
    "postal": "N5Y5K1",
    "result": [
      {
        "electoralDistricts": [
          {
            "election": null,
            "id": 54,
            "name": "London North Centre"
          }
        ],
        "pollDivisionIds": [
          10135370
        ],
        "postalCode": "N5Y5K1",
        "streetName": "CHEAPSIDE",
        "streetDirectionId": null,
        "streetTypeId": "ST",
        "placeName": "LONDON",
        "streetNameDisplayText": "CHEAPSIDE ST, LONDON"
      }
    ]
  },
  {
    "postal": "N5Y0Z9",
    "result": []
  },
  {
    "postal": "N5Y7T2",
    "result": []
  },
  {
    "postal": "N5Y1L5",
    "result": [
      {
        "electoralDistricts": [
          {
            "election": null,
            "id": 54,
            "name": "London North Centre"
          }
        ],
        "pollDivisionIds": [
          10135368
        ],
        "postalCode": "N5Y1L5",
        "streetName": "MCNAY",
        "streetDirectionId": null,
        "streetTypeId": "ST",
        "placeName": "LONDON",
        "streetNameDisplayText": "MCNAY ST, LONDON"
      }
    ]
  },
  {
    "postal": "N5Y3N5",
    "result": [
      {
        "electoralDistricts": [
          {
            "election": null,
            "id": 54,
            "name": "London North Centre"
          }
        ],
        "pollDivisionIds": [
          10135369
        ],
        "postalCode": "N5Y3N5",
        "streetName": "WATLING",
        "streetDirectionId": null,
        "streetTypeId": "ST",
        "placeName": "LONDON",
        "streetNameDisplayText": "WATLING ST, LONDON"
      }
    ]
  },
  {
    "postal": "N5Y6H4",
    "result": []
  },
  {
    "postal": "N5Y5A5",
    "result": [
      {
        "electoralDistricts": [
          {
            "election": null,
            "id": 54,
            "name": "London North Centre"
          }
        ],
        "pollDivisionIds": [
          10135360
        ],
        "postalCode": "N5Y5A5",
        "streetName": "GATEWOOD",
        "streetDirectionId": null,
        "streetTypeId": "CRES",
        "placeName": "LONDON",
        "streetNameDisplayText": "GATEWOOD CRES, LONDON"
      }
    ]
  },
  {
    "postal": "N5Y3R9",
    "result": [
      {
        "electoralDistricts": [
          {
            "election": null,
            "id": 54,
            "name": "London North Centre"
          }
        ],
        "pollDivisionIds": [
          10135369
        ],
        "postalCode": "N5Y3R9",
        "streetName": "WALBROOK",
        "streetDirectionId": null,
        "streetTypeId": "CRES",
        "placeName": "LONDON",
        "streetNameDisplayText": "WALBROOK CRES, LONDON"
      }
    ]
  },
  {
    "postal": "N5Y7L8",
    "result": []
  },
  {
    "postal": "N5Y6T6",
    "result": []
  },
  {
    "postal": "N5Y7Y7",
    "result": []
  },
  {
    "postal": "N5Y3M8",
    "result": [
      {
        "electoralDistricts": [
          {
            "election": null,
            "id": 54,
            "name": "London North Centre"
          }
        ],
        "pollDivisionIds": [
          10135375
        ],
        "postalCode": "N5Y3M8",
        "streetName": "CARLTON",
        "streetDirectionId": null,
        "streetTypeId": "AVE",
        "placeName": "LONDON",
        "streetNameDisplayText": "CARLTON AVE, LONDON"
      }
    ]
  },
  {
    "postal": "N5Y2E0",
    "result": []
  },
  {
    "postal": "N5Y4B5",
    "result": [
      {
        "electoralDistricts": [
          {
            "election": null,
            "id": 54,
            "name": "London North Centre"
          }
        ],
        "pollDivisionIds": [
          10135360
        ],
        "postalCode": "N5Y4B5",
        "streetName": "VICTORIA",
        "streetDirectionId": null,
        "streetTypeId": "ST",
        "placeName": "LONDON",
        "streetNameDisplayText": "VICTORIA ST, LONDON"
      }
    ]
  },
  {
    "postal": "N5Y1J3",
    "result": [
      {
        "electoralDistricts": [
          {
            "election": null,
            "id": 54,
            "name": "London North Centre"
          }
        ],
        "pollDivisionIds": [
          10135362
        ],
        "postalCode": "N5Y1J3",
        "streetName": "REGAL",
        "streetDirectionId": null,
        "streetTypeId": "DR",
        "placeName": "LONDON",
        "streetNameDisplayText": "REGAL DR, LONDON"
      }
    ]
  },
  {
    "postal": "N5Y5S6",
    "result": []
  },
  {
    "postal": "N5Y8P7",
    "result": []
  },
  {
    "postal": "N5Y7S7",
    "result": []
  },
  {
    "postal": "N5Y4C2",
    "result": [
      {
        "electoralDistricts": [
          {
            "election": null,
            "id": 54,
            "name": "London North Centre"
          }
        ],
        "pollDivisionIds": [
          10135369
        ],
        "postalCode": "N5Y4C2",
        "streetName": "VICTORIA",
        "streetDirectionId": null,
        "streetTypeId": "ST",
        "placeName": "LONDON",
        "streetNameDisplayText": "VICTORIA ST, LONDON"
      }
    ]
  },
  {
    "postal": "N5Y5Y0",
    "result": []
  },
  {
    "postal": "N5Y2V7",
    "result": [
      {
        "electoralDistricts": [
          {
            "election": null,
            "id": 54,
            "name": "London North Centre"
          }
        ],
        "pollDivisionIds": [
          10135375
        ],
        "postalCode": "N5Y2V7",
        "streetName": "MAITLAND",
        "streetDirectionId": null,
        "streetTypeId": "ST",
        "placeName": "LONDON",
        "streetNameDisplayText": "MAITLAND ST, LONDON"
      }
    ]
  },
  {
    "postal": "N5Y8P5",
    "result": []
  },
  {
    "postal": "N5Y5P5",
    "result": [
      {
        "electoralDistricts": [
          {
            "election": null,
            "id": 54,
            "name": "London North Centre"
          }
        ],
        "pollDivisionIds": [
          10135376
        ],
        "postalCode": "N5Y5P5",
        "streetName": "WILLIAM",
        "streetDirectionId": null,
        "streetTypeId": "ST",
        "placeName": "LONDON",
        "streetNameDisplayText": "WILLIAM ST, LONDON"
      }
    ]
  },
  {
    "postal": "N5Y5Z0",
    "result": []
  },
  {
    "postal": "N5Y9B0",
    "result": []
  },
  {
    "postal": "N5Y1L0",
    "result": []
  },
  {
    "postal": "N5Y0B5",
    "result": []
  },
  {
    "postal": "N5Y3L2",
    "result": [
      {
        "electoralDistricts": [
          {
            "election": null,
            "id": 54,
            "name": "London North Centre"
          }
        ],
        "pollDivisionIds": [
          10135377
        ],
        "postalCode": "N5Y3L2",
        "streetName": "OXFORD",
        "streetDirectionId": "E",
        "streetTypeId": "ST",
        "placeName": "LONDON",
        "streetNameDisplayText": "OXFORD ST E, LONDON"
      }
    ]
  },
  {
    "postal": "N5Y3B7",
    "result": [
      {
        "electoralDistricts": [
          {
            "election": null,
            "id": 54,
            "name": "London North Centre"
          }
        ],
        "pollDivisionIds": [
          10135375
        ],
        "postalCode": "N5Y3B7",
        "streetName": "REGINA",
        "streetDirectionId": null,
        "streetTypeId": "ST",
        "placeName": "LONDON",
        "streetNameDisplayText": "REGINA ST, LONDON"
      }
    ]
  },
  {
    "postal": "N5Y8L1",
    "result": []
  },
  {
    "postal": "N5Y5M4",
    "result": [
      {
        "electoralDistricts": [
          {
            "election": null,
            "id": 54,
            "name": "London North Centre"
          }
        ],
        "pollDivisionIds": [
          10135354
        ],
        "postalCode": "N5Y5M4",
        "streetName": "COBBLESTONE",
        "streetDirectionId": null,
        "streetTypeId": "ST",
        "placeName": "LONDON",
        "streetNameDisplayText": "COBBLESTONE ST, LONDON"
      },
      {
        "electoralDistricts": [
          {
            "election": null,
            "id": 54,
            "name": "London North Centre"
          }
        ],
        "pollDivisionIds": [
          10135354
        ],
        "postalCode": "N5Y5M4",
        "streetName": "FARMHOUSE",
        "streetDirectionId": null,
        "streetTypeId": "CRT",
        "placeName": "LONDON",
        "streetNameDisplayText": "FARMHOUSE CRT, LONDON"
      },
      {
        "electoralDistricts": [
          {
            "election": null,
            "id": 54,
            "name": "London North Centre"
          }
        ],
        "pollDivisionIds": [
          10135354
        ],
        "postalCode": "N5Y5M4",
        "streetName": "FARMHOUSE",
        "streetDirectionId": null,
        "streetTypeId": "RD",
        "placeName": "LONDON",
        "streetNameDisplayText": "FARMHOUSE RD, LONDON"
      },
      {
        "electoralDistricts": [
          {
            "election": null,
            "id": 54,
            "name": "London North Centre"
          }
        ],
        "pollDivisionIds": [
          10135354
        ],
        "postalCode": "N5Y5M4",
        "streetName": "WILDFLOWER",
        "streetDirectionId": null,
        "streetTypeId": "PL",
        "placeName": "LONDON",
        "streetNameDisplayText": "WILDFLOWER PL, LONDON"
      }
    ]
  },
  {
    "postal": "N5Y4G9",
    "result": [
      {
        "electoralDistricts": [
          {
            "election": null,
            "id": 54,
            "name": "London North Centre"
          }
        ],
        "pollDivisionIds": [
          10135359
        ],
        "postalCode": "N5Y4G9",
        "streetName": "REGENT",
        "streetDirectionId": null,
        "streetTypeId": "ST",
        "placeName": "LONDON",
        "streetNameDisplayText": "REGENT ST, LONDON"
      }
    ]
  },
  {
    "postal": "N5Y0P0",
    "result": []
  },
  {
    "postal": "N5Y8G2",
    "result": []
  },
  {
    "postal": "N5Y1V9",
    "result": [
      {
        "electoralDistricts": [
          {
            "election": null,
            "id": 54,
            "name": "London North Centre"
          }
        ],
        "pollDivisionIds": [
          10135377
        ],
        "postalCode": "N5Y1V9",
        "streetName": "GLASGOW",
        "streetDirectionId": null,
        "streetTypeId": "ST",
        "placeName": "LONDON",
        "streetNameDisplayText": "GLASGOW ST, LONDON"
      }
    ]
  },
  {
    "postal": "N5Y8N8",
    "result": []
  },
  {
    "postal": "N5Y6S8",
    "result": []
  },
  {
    "postal": "N5Y8H2",
    "result": []
  },
  {
    "postal": "N5Y5R8",
    "result": []
  },
  {
    "postal": "N5Y5L4",
    "result": []
  },
  {
    "postal": "N5Y9E1",
    "result": []
  },
  {
    "postal": "N5Y1C4",
    "result": [
      {
        "electoralDistricts": [
          {
            "election": null,
            "id": 54,
            "name": "London North Centre"
          }
        ],
        "pollDivisionIds": [
          10135370
        ],
        "postalCode": "N5Y1C4",
        "streetName": "FLANDERS",
        "streetDirectionId": null,
        "streetTypeId": "ROW",
        "placeName": "LONDON",
        "streetNameDisplayText": "FLANDERS ROW, LONDON"
      },
      {
        "electoralDistricts": [
          {
            "election": null,
            "id": 54,
            "name": "London North Centre"
          }
        ],
        "pollDivisionIds": [
          10135370
        ],
        "postalCode": "N5Y1C4",
        "streetName": "FLANDERS",
        "streetDirectionId": null,
        "streetTypeId": "ST",
        "placeName": "LONDON",
        "streetNameDisplayText": "FLANDERS ST, LONDON"
      }
    ]
  },
  {
    "postal": "N5Y8W5",
    "result": []
  },
  {
    "postal": "N5Y1Y4",
    "result": [
      {
        "electoralDistricts": [
          {
            "election": null,
            "id": 54,
            "name": "London North Centre"
          }
        ],
        "pollDivisionIds": [
          10135377
        ],
        "postalCode": "N5Y1Y4",
        "streetName": "STERLING",
        "streetDirectionId": null,
        "streetTypeId": "ST",
        "placeName": "LONDON",
        "streetNameDisplayText": "STERLING ST, LONDON"
      }
    ]
  },
  {
    "postal": "N5Y1C0",
    "result": []
  },
  {
    "postal": "N5Y2J2",
    "result": [
      {
        "electoralDistricts": [
          {
            "election": null,
            "id": 54,
            "name": "London North Centre"
          }
        ],
        "pollDivisionIds": [
          10135369
        ],
        "postalCode": "N5Y2J2",
        "streetName": "TAYLOR",
        "streetDirectionId": null,
        "streetTypeId": "ST",
        "placeName": "LONDON",
        "streetNameDisplayText": "TAYLOR ST, LONDON"
      }
    ]
  },
  {
    "postal": "N5Y2J0",
    "result": []
  },
  {
    "postal": "N5Y7A3",
    "result": []
  },
  {
    "postal": "N5Y8M1",
    "result": []
  },
  {
    "postal": "N5Y7T9",
    "result": []
  },
  {
    "postal": "N5Y6C0",
    "result": []
  },
  {
    "postal": "N5Y7X1",
    "result": []
  },
  {
    "postal": "N5Y0G1",
    "result": []
  },
  {
    "postal": "N5Y4X2",
    "result": [
      {
        "electoralDistricts": [
          {
            "election": null,
            "id": 54,
            "name": "London North Centre"
          }
        ],
        "pollDivisionIds": [
          10135368
        ],
        "postalCode": "N5Y4X2",
        "streetName": "GENEVIVE",
        "streetDirectionId": null,
        "streetTypeId": "PL",
        "placeName": "LONDON",
        "streetNameDisplayText": "GENEVIVE PL, LONDON"
      }
    ]
  },
  {
    "postal": "N5Y0N6",
    "result": []
  },
  {
    "postal": "N5Y8E3",
    "result": []
  },
  {
    "postal": "N5Y5S8",
    "result": []
  },
  {
    "postal": "N5Y0R0",
    "result": []
  },
  {
    "postal": "N5Y6J6",
    "result": []
  },
  {
    "postal": "N5Y4B4",
    "result": [
      {
        "electoralDistricts": [
          {
            "election": null,
            "id": 54,
            "name": "London North Centre"
          }
        ],
        "pollDivisionIds": [
          10135366
        ],
        "postalCode": "N5Y4B4",
        "streetName": "VICTORIA",
        "streetDirectionId": null,
        "streetTypeId": "ST",
        "placeName": "LONDON",
        "streetNameDisplayText": "VICTORIA ST, LONDON"
      }
    ]
  },
  {
    "postal": "N5Y7E3",
    "result": []
  },
  {
    "postal": "N5Y3N6",
    "result": [
      {
        "electoralDistricts": [
          {
            "election": null,
            "id": 54,
            "name": "London North Centre"
          }
        ],
        "pollDivisionIds": [
          10135369
        ],
        "postalCode": "N5Y3N6",
        "streetName": "WATLING",
        "streetDirectionId": null,
        "streetTypeId": "ST",
        "placeName": "LONDON",
        "streetNameDisplayText": "WATLING ST, LONDON"
      }
    ]
  },
  {
    "postal": "N5Y3X6",
    "result": [
      {
        "electoralDistricts": [
          {
            "election": null,
            "id": 54,
            "name": "London North Centre"
          }
        ],
        "pollDivisionIds": [
          10135360
        ],
        "postalCode": "N5Y3X6",
        "streetName": "CHEAPSIDE",
        "streetDirectionId": null,
        "streetTypeId": "ST",
        "placeName": "LONDON",
        "streetNameDisplayText": "CHEAPSIDE ST, LONDON"
      }
    ]
  },
  {
    "postal": "N5Y8L0",
    "result": []
  },
  {
    "postal": "N5Y8N1",
    "result": []
  },
  {
    "postal": "N5Y4J0",
    "result": []
  },
  {
    "postal": "N5Y0X7",
    "result": []
  },
  {
    "postal": "N5Y6S4",
    "result": []
  },
  {
    "postal": "N5Y0Z0",
    "result": []
  },
  {
    "postal": "N5Y9X8",
    "result": []
  },
  {
    "postal": "N5Y3H3",
    "result": [
      {
        "electoralDistricts": [
          {
            "election": null,
            "id": 54,
            "name": "London North Centre"
          }
        ],
        "pollDivisionIds": [
          10135376
        ],
        "postalCode": "N5Y3H3",
        "streetName": "PICCADILLY",
        "streetDirectionId": null,
        "streetTypeId": "ST",
        "placeName": "LONDON",
        "streetNameDisplayText": "PICCADILLY ST, LONDON"
      }
    ]
  },
  {
    "postal": "N5Y7S2",
    "result": []
  },
  {
    "postal": "N5Y3T3",
    "result": [
      {
        "electoralDistricts": [
          {
            "election": null,
            "id": 54,
            "name": "London North Centre"
          }
        ],
        "pollDivisionIds": [
          10135369
        ],
        "postalCode": "N5Y3T3",
        "streetName": "GROSVENOR",
        "streetDirectionId": null,
        "streetTypeId": "RD",
        "placeName": "LONDON",
        "streetNameDisplayText": "GROSVENOR RD, LONDON"
      },
      {
        "electoralDistricts": [
          {
            "election": null,
            "id": 54,
            "name": "London North Centre"
          }
        ],
        "pollDivisionIds": [
          10135360
        ],
        "postalCode": "N5Y3T3",
        "streetName": "GROSVENOR",
        "streetDirectionId": null,
        "streetTypeId": "ST",
        "placeName": "LONDON",
        "streetNameDisplayText": "GROSVENOR ST, LONDON"
      }
    ]
  },
  {
    "postal": "N5Y9P3",
    "result": []
  },
  {
    "postal": "N5Y4H8",
    "result": [
      {
        "electoralDistricts": [
          {
            "election": null,
            "id": 54,
            "name": "London North Centre"
          }
        ],
        "pollDivisionIds": [
          10135360
        ],
        "postalCode": "N5Y4H8",
        "streetName": "REGENT",
        "streetDirectionId": null,
        "streetTypeId": "ST",
        "placeName": "LONDON",
        "streetNameDisplayText": "REGENT ST, LONDON"
      }
    ]
  },
  {
    "postal": "N5Y6R1",
    "result": []
  },
  {
    "postal": "N5Y1S0",
    "result": []
  },
  {
    "postal": "N5Y3W8",
    "result": [
      {
        "electoralDistricts": [
          {
            "election": null,
            "id": 54,
            "name": "London North Centre"
          }
        ],
        "pollDivisionIds": [
          10135366
        ],
        "postalCode": "N5Y3W8",
        "streetName": "CHEAPSIDE",
        "streetDirectionId": null,
        "streetTypeId": "ST",
        "placeName": "LONDON",
        "streetNameDisplayText": "CHEAPSIDE ST, LONDON"
      }
    ]
  },
  {
    "postal": "N5Y4S3",
    "result": [
      {
        "electoralDistricts": [
          {
            "election": null,
            "id": 54,
            "name": "London North Centre"
          }
        ],
        "pollDivisionIds": [
          10135361
        ],
        "postalCode": "N5Y4S3",
        "streetName": "KIPPS",
        "streetDirectionId": null,
        "streetTypeId": "LANE",
        "placeName": "LONDON",
        "streetNameDisplayText": "KIPPS LANE, LONDON"
      }
    ]
  },
  {
    "postal": "N5Y1B6",
    "result": [
      {
        "electoralDistricts": [
          {
            "election": null,
            "id": 54,
            "name": "London North Centre"
          }
        ],
        "pollDivisionIds": [
          10135363
        ],
        "postalCode": "N5Y1B6",
        "streetName": "HIGHBURY",
        "streetDirectionId": "N",
        "streetTypeId": "AVE",
        "placeName": "LONDON",
        "streetNameDisplayText": "HIGHBURY AVE N, LONDON"
      }
    ]
  },
  {
    "postal": "N5Y8R3",
    "result": []
  },
  {
    "postal": "N5Y4V9",
    "result": []
  },
  {
    "postal": "N5Y9W4",
    "result": []
  },
  {
    "postal": "N5Y3T4",
    "result": [
      {
        "electoralDistricts": [
          {
            "election": null,
            "id": 54,
            "name": "London North Centre"
          }
        ],
        "pollDivisionIds": [
          10135369
        ],
        "postalCode": "N5Y3T4",
        "streetName": "GROSVENOR",
        "streetDirectionId": null,
        "streetTypeId": "ST",
        "placeName": "LONDON",
        "streetNameDisplayText": "GROSVENOR ST, LONDON"
      }
    ]
  },
  {
    "postal": "N5Y5C7",
    "result": [
      {
        "electoralDistricts": [
          {
            "election": null,
            "id": 54,
            "name": "London North Centre"
          }
        ],
        "pollDivisionIds": [
          10135360
        ],
        "postalCode": "N5Y5C7",
        "streetName": "NORWOOD",
        "streetDirectionId": null,
        "streetTypeId": "AVE",
        "placeName": "LONDON",
        "streetNameDisplayText": "NORWOOD AVE, LONDON"
      }
    ]
  },
  {
    "postal": "N5Y3Y1",
    "result": [
      {
        "electoralDistricts": [
          {
            "election": null,
            "id": 54,
            "name": "London North Centre"
          }
        ],
        "pollDivisionIds": [
          10135369
        ],
        "postalCode": "N5Y3Y1",
        "streetName": "CHEAPSIDE",
        "streetDirectionId": null,
        "streetTypeId": "ST",
        "placeName": "LONDON",
        "streetNameDisplayText": "CHEAPSIDE ST, LONDON"
      }
    ]
  },
  {
    "postal": "N5Y5V0",
    "result": []
  },
  {
    "postal": "N5Y8G8",
    "result": []
  },
  {
    "postal": "N5Y8B1",
    "result": []
  },
  {
    "postal": "N5Y4P5",
    "result": [
      {
        "electoralDistricts": [
          {
            "election": null,
            "id": 54,
            "name": "London North Centre"
          }
        ],
        "pollDivisionIds": [
          10135363
        ],
        "postalCode": "N5Y4P5",
        "streetName": "HONEYSUCKLE",
        "streetDirectionId": null,
        "streetTypeId": "CRES",
        "placeName": "LONDON",
        "streetNameDisplayText": "HONEYSUCKLE CRES, LONDON"
      }
    ]
  },
  {
    "postal": "N5Y7B2",
    "result": []
  },
  {
    "postal": "N5Y0R2",
    "result": []
  },
  {
    "postal": "N5Y4M4",
    "result": [
      {
        "electoralDistricts": [
          {
            "election": null,
            "id": 54,
            "name": "London North Centre"
          }
        ],
        "pollDivisionIds": [
          10135362
        ],
        "postalCode": "N5Y4M4",
        "streetName": "JUSTAMERE",
        "streetDirectionId": null,
        "streetTypeId": "RD",
        "placeName": "LONDON",
        "streetNameDisplayText": "JUSTAMERE RD, LONDON"
      }
    ]
  },
  {
    "postal": "N5Y7M4",
    "result": []
  },
  {
    "postal": "N5Y9S7",
    "result": []
  },
  {
    "postal": "N5Y5Z7",
    "result": []
  },
  {
    "postal": "N5Y7J7",
    "result": []
  },
  {
    "postal": "N5Y8R8",
    "result": []
  },
  {
    "postal": "N5Y9X1",
    "result": []
  },
  {
    "postal": "N5Y5M9",
    "result": [
      {
        "electoralDistricts": [
          {
            "election": null,
            "id": 54,
            "name": "London North Centre"
          }
        ],
        "pollDivisionIds": [
          10135368
        ],
        "postalCode": "N5Y5M9",
        "streetName": "VICTORIA",
        "streetDirectionId": null,
        "streetTypeId": "DR",
        "placeName": "LONDON",
        "streetNameDisplayText": "VICTORIA DR, LONDON"
      }
    ]
  },
  {
    "postal": "N5Y9B4",
    "result": []
  },
  {
    "postal": "N5Y0L9",
    "result": []
  },
  {
    "postal": "N5Y9G4",
    "result": []
  },
  {
    "postal": "N5Y1J4",
    "result": [
      {
        "electoralDistricts": [
          {
            "election": null,
            "id": 54,
            "name": "London North Centre"
          }
        ],
        "pollDivisionIds": [
          10135363
        ],
        "postalCode": "N5Y1J4",
        "streetName": "REGAL",
        "streetDirectionId": null,
        "streetTypeId": "DR",
        "placeName": "LONDON",
        "streetNameDisplayText": "REGAL DR, LONDON"
      }
    ]
  },
  {
    "postal": "N5Y0W6",
    "result": []
  }
]
