[
  {
    "postal": "M8Z9J6",
    "result": []
  },
  {
    "postal": "M8Z9Z5",
    "result": []
  },
  {
    "postal": "M8Z7H8",
    "result": []
  },
  {
    "postal": "M8Z0P6",
    "result": []
  },
  {
    "postal": "M8Z0S7",
    "result": []
  },
  {
    "postal": "M8Z8B9",
    "result": []
  },
  {
    "postal": "M8Z2A6",
    "result": [
      {
        "electoralDistricts": [
          {
            "election": null,
            "id": 29,
            "name": "Etobicoke—Lakeshore"
          }
        ],
        "pollDivisionIds": [
          10138155
        ],
        "postalCode": "M8Z2A6",
        "streetName": "ATHOL",
        "streetDirectionId": null,
        "streetTypeId": "AVE",
        "placeName": "ETOBICOKE",
        "streetNameDisplayText": "ATHOL AVE, ETOBICOKE"
      }
    ]
  },
  {
    "postal": "M8Z7V2",
    "result": []
  },
  {
    "postal": "M8Z9P4",
    "result": []
  },
  {
    "postal": "M8Z6G0",
    "result": []
  },
  {
    "postal": "M8Z2K0",
    "result": []
  },
  {
    "postal": "M8Z7N6",
    "result": []
  },
  {
    "postal": "M8Z5R3",
    "result": []
  },
  {
    "postal": "M8Z7K0",
    "result": []
  },
  {
    "postal": "M8Z3R2",
    "result": [
      {
        "electoralDistricts": [
          {
            "election": null,
            "id": 29,
            "name": "Etobicoke—Lakeshore"
          }
        ],
        "pollDivisionIds": [
          10143883
        ],
        "postalCode": "M8Z3R2",
        "streetName": "KENNY",
        "streetDirectionId": null,
        "streetTypeId": "AVE",
        "placeName": "ETOBICOKE",
        "streetNameDisplayText": "KENNY AVE, ETOBICOKE"
      }
    ]
  },
  {
    "postal": "M8Z0J1",
    "result": []
  },
  {
    "postal": "M8Z0B0",
    "result": []
  },
  {
    "postal": "M8Z5Z2",
    "result": []
  },
  {
    "postal": "M8Z7P3",
    "result": []
  },
  {
    "postal": "M8Z2K3",
    "result": [
      {
        "electoralDistricts": [
          {
            "election": null,
            "id": 29,
            "name": "Etobicoke—Lakeshore"
          }
        ],
        "pollDivisionIds": [
          10138154
        ],
        "postalCode": "M8Z2K3",
        "streetName": "CONEY",
        "streetDirectionId": null,
        "streetTypeId": "RD",
        "placeName": "ETOBICOKE",
        "streetNameDisplayText": "CONEY RD, ETOBICOKE"
      }
    ]
  },
  {
    "postal": "M8Z7Y6",
    "result": []
  },
  {
    "postal": "M8Z1L9",
    "result": [
      {
        "electoralDistricts": [
          {
            "election": null,
            "id": 29,
            "name": "Etobicoke—Lakeshore"
          }
        ],
        "pollDivisionIds": [
          10138155
        ],
        "postalCode": "M8Z1L9",
        "streetName": "QUEEN ELIZABETH",
        "streetDirectionId": null,
        "streetTypeId": "BLVD",
        "placeName": "ETOBICOKE",
        "streetNameDisplayText": "QUEEN ELIZABETH BLVD, ETOBICOKE"
      }
    ]
  },
  {
    "postal": "M8Z8T0",
    "result": []
  },
  {
    "postal": "M8Z3K8",
    "result": [
      {
        "electoralDistricts": [
          {
            "election": null,
            "id": 29,
            "name": "Etobicoke—Lakeshore"
          }
        ],
        "pollDivisionIds": [
          10143891
        ],
        "postalCode": "M8Z3K8",
        "streetName": "MEADOWVALE",
        "streetDirectionId": null,
        "streetTypeId": "DR",
        "placeName": "ETOBICOKE",
        "streetNameDisplayText": "MEADOWVALE DR, ETOBICOKE"
      }
    ]
  },
  {
    "postal": "M8Z5W9",
    "result": []
  },
  {
    "postal": "M8Z6T9",
    "result": []
  },
  {
    "postal": "M8Z4H1",
    "result": [
      {
        "electoralDistricts": [
          {
            "election": null,
            "id": 29,
            "name": "Etobicoke—Lakeshore"
          }
        ],
        "pollDivisionIds": [
          10138154
        ],
        "postalCode": "M8Z4H1",
        "streetName": "CHARTWELL",
        "streetDirectionId": null,
        "streetTypeId": "RD",
        "placeName": "ETOBICOKE",
        "streetNameDisplayText": "CHARTWELL RD, ETOBICOKE"
      }
    ]
  },
  {
    "postal": "M8Z7A2",
    "result": []
  },
  {
    "postal": "M8Z5G0",
    "result": []
  },
  {
    "postal": "M8Z8V5",
    "result": []
  },
  {
    "postal": "M8Z2Y8",
    "result": [
      {
        "electoralDistricts": [
          {
            "election": null,
            "id": 29,
            "name": "Etobicoke—Lakeshore"
          }
        ],
        "pollDivisionIds": [
          10138151
        ],
        "postalCode": "M8Z2Y8",
        "streetName": "MEADOWCREST",
        "streetDirectionId": null,
        "streetTypeId": "RD",
        "placeName": "ETOBICOKE",
        "streetNameDisplayText": "MEADOWCREST RD, ETOBICOKE"
      }
    ]
  },
  {
    "postal": "M8Z2B6",
    "result": [
      {
        "electoralDistricts": [
          {
            "election": null,
            "id": 29,
            "name": "Etobicoke—Lakeshore"
          }
        ],
        "pollDivisionIds": [
          10138155
        ],
        "postalCode": "M8Z2B6",
        "streetName": "EDGECROFT",
        "streetDirectionId": null,
        "streetTypeId": "RD",
        "placeName": "ETOBICOKE",
        "streetNameDisplayText": "EDGECROFT RD, ETOBICOKE"
      }
    ]
  },
  {
    "postal": "M8Z4W8",
    "result": [
      {
        "electoralDistricts": [
          {
            "election": null,
            "id": 29,
            "name": "Etobicoke—Lakeshore"
          }
        ],
        "pollDivisionIds": [
          10143891
        ],
        "postalCode": "M8Z4W8",
        "streetName": "KENWAY",
        "streetDirectionId": null,
        "streetTypeId": "RD",
        "placeName": "ETOBICOKE",
        "streetNameDisplayText": "KENWAY RD, ETOBICOKE"
      }
    ]
  },
  {
    "postal": "M8Z8H7",
    "result": []
  },
  {
    "postal": "M8Z5P1",
    "result": []
  },
  {
    "postal": "M8Z2B8",
    "result": [
      {
        "electoralDistricts": [
          {
            "election": null,
            "id": 29,
            "name": "Etobicoke—Lakeshore"
          }
        ],
        "pollDivisionIds": [
          10138155
        ],
        "postalCode": "M8Z2B8",
        "streetName": "EDGECROFT",
        "streetDirectionId": null,
        "streetTypeId": "RD",
        "placeName": "ETOBICOKE",
        "streetNameDisplayText": "EDGECROFT RD, ETOBICOKE"
      }
    ]
  },
  {
    "postal": "M8Z0P2",
    "result": []
  },
  {
    "postal": "M8Z9M1",
    "result": []
  },
  {
    "postal": "M8Z3G0",
    "result": []
  },
  {
    "postal": "M8Z9Z2",
    "result": []
  },
  {
    "postal": "M8Z2A0",
    "result": []
  },
  {
    "postal": "M8Z6Y0",
    "result": []
  },
  {
    "postal": "M8Z2Z8",
    "result": [
      {
        "electoralDistricts": [
          {
            "election": null,
            "id": 29,
            "name": "Etobicoke—Lakeshore"
          }
        ],
        "pollDivisionIds": [
          10138154
        ],
        "postalCode": "M8Z2Z8",
        "streetName": "OLIVEWOOD",
        "streetDirectionId": null,
        "streetTypeId": "RD",
        "placeName": "ETOBICOKE",
        "streetNameDisplayText": "OLIVEWOOD RD, ETOBICOKE"
      }
    ]
  },
  {
    "postal": "M8Z7Y3",
    "result": []
  },
  {
    "postal": "M8Z6Z5",
    "result": []
  },
  {
    "postal": "M8Z6E0",
    "result": []
  },
  {
    "postal": "M8Z9B7",
    "result": []
  },
  {
    "postal": "M8Z9S5",
    "result": []
  },
  {
    "postal": "M8Z3X3",
    "result": [
      {
        "electoralDistricts": [
          {
            "election": null,
            "id": 29,
            "name": "Etobicoke—Lakeshore"
          }
        ],
        "pollDivisionIds": [
          10138155
        ],
        "postalCode": "M8Z3X3",
        "streetName": "AVON PARK",
        "streetDirectionId": null,
        "streetTypeId": "DR",
        "placeName": "ETOBICOKE",
        "streetNameDisplayText": "AVON PARK DR, ETOBICOKE"
      }
    ]
  },
  {
    "postal": "M8Z7R5",
    "result": []
  },
  {
    "postal": "M8Z2X3",
    "result": [
      {
        "electoralDistricts": [
          {
            "election": null,
            "id": 29,
            "name": "Etobicoke—Lakeshore"
          }
        ],
        "pollDivisionIds": [
          10138154
        ],
        "postalCode": "M8Z2X3",
        "streetName": "SIX POINT",
        "streetDirectionId": null,
        "streetTypeId": "RD",
        "placeName": "ETOBICOKE",
        "streetNameDisplayText": "SIX POINT RD, ETOBICOKE"
      }
    ]
  },
  {
    "postal": "M8Z8Z9",
    "result": []
  },
  {
    "postal": "M8Z0N4",
    "result": []
  },
  {
    "postal": "M8Z1K1",
    "result": []
  },
  {
    "postal": "M8Z1S3",
    "result": [
      {
        "electoralDistricts": [
          {
            "election": null,
            "id": 29,
            "name": "Etobicoke—Lakeshore"
          }
        ],
        "pollDivisionIds": [
          10138154
        ],
        "postalCode": "M8Z1S3",
        "streetName": "THE QUEENSWAY",
        "streetDirectionId": null,
        "streetTypeId": null,
        "placeName": "ETOBICOKE",
        "streetNameDisplayText": "THE QUEENSWAY, ETOBICOKE"
      }
    ]
  },
  {
    "postal": "M8Z6M4",
    "result": []
  },
  {
    "postal": "M8Z9A9",
    "result": []
  },
  {
    "postal": "M8Z9Z9",
    "result": []
  },
  {
    "postal": "M8Z6T4",
    "result": []
  },
  {
    "postal": "M8Z0B2",
    "result": [
      {
        "electoralDistricts": [
          {
            "election": null,
            "id": 29,
            "name": "Etobicoke—Lakeshore"
          }
        ],
        "pollDivisionIds": [
          10143891
        ],
        "postalCode": "M8Z0B2",
        "streetName": "LOBO",
        "streetDirectionId": null,
        "streetTypeId": "MEWS",
        "placeName": "ETOBICOKE",
        "streetNameDisplayText": "LOBO MEWS, ETOBICOKE"
      }
    ]
  },
  {
    "postal": "M8Z2L9",
    "result": []
  },
  {
    "postal": "M8Z8K9",
    "result": []
  },
  {
    "postal": "M8Z2H9",
    "result": [
      {
        "electoralDistricts": [
          {
            "election": null,
            "id": 29,
            "name": "Etobicoke—Lakeshore"
          }
        ],
        "pollDivisionIds": [
          10138154
        ],
        "postalCode": "M8Z2H9",
        "streetName": "AMBLESIDE",
        "streetDirectionId": null,
        "streetTypeId": "AVE",
        "placeName": "ETOBICOKE",
        "streetNameDisplayText": "AMBLESIDE AVE, ETOBICOKE"
      }
    ]
  },
  {
    "postal": "M8Z3Z6",
    "result": [
      {
        "electoralDistricts": [
          {
            "election": null,
            "id": 29,
            "name": "Etobicoke—Lakeshore"
          }
        ],
        "pollDivisionIds": [
          10138155
        ],
        "postalCode": "M8Z3Z6",
        "streetName": "LOMA",
        "streetDirectionId": null,
        "streetTypeId": "RD",
        "placeName": "ETOBICOKE",
        "streetNameDisplayText": "LOMA RD, ETOBICOKE"
      }
    ]
  },
  {
    "postal": "M8Z3B0",
    "result": []
  },
  {
    "postal": "M8Z2H8",
    "result": [
      {
        "electoralDistricts": [
          {
            "election": null,
            "id": 29,
            "name": "Etobicoke—Lakeshore"
          }
        ],
        "pollDivisionIds": [
          10138154
        ],
        "postalCode": "M8Z2H8",
        "streetName": "AMBLESIDE",
        "streetDirectionId": null,
        "streetTypeId": "AVE",
        "placeName": "ETOBICOKE",
        "streetNameDisplayText": "AMBLESIDE AVE, ETOBICOKE"
      }
    ]
  },
  {
    "postal": "M8Z3X2",
    "result": [
      {
        "electoralDistricts": [
          {
            "election": null,
            "id": 29,
            "name": "Etobicoke—Lakeshore"
          }
        ],
        "pollDivisionIds": [
          10138151
        ],
        "postalCode": "M8Z3X2",
        "streetName": "SPRING GARDEN",
        "streetDirectionId": null,
        "streetTypeId": "RD",
        "placeName": "ETOBICOKE",
        "streetNameDisplayText": "SPRING GARDEN RD, ETOBICOKE"
      }
    ]
  },
  {
    "postal": "M8Z2E9",
    "result": [
      {
        "electoralDistricts": [
          {
            "election": null,
            "id": 29,
            "name": "Etobicoke—Lakeshore"
          }
        ],
        "pollDivisionIds": [
          10138154
        ],
        "postalCode": "M8Z2E9",
        "streetName": "YORKVIEW",
        "streetDirectionId": null,
        "streetTypeId": "DR",
        "placeName": "ETOBICOKE",
        "streetNameDisplayText": "YORKVIEW DR, ETOBICOKE"
      }
    ]
  },
  {
    "postal": "M8Z9P6",
    "result": []
  },
  {
    "postal": "M8Z9E2",
    "result": []
  },
  {
    "postal": "M8Z9H2",
    "result": []
  },
  {
    "postal": "M8Z1S8",
    "result": [
      {
        "electoralDistricts": [
          {
            "election": null,
            "id": 29,
            "name": "Etobicoke—Lakeshore"
          }
        ],
        "pollDivisionIds": [
          10138160
        ],
        "postalCode": "M8Z1S8",
        "streetName": "THE QUEENSWAY",
        "streetDirectionId": null,
        "streetTypeId": null,
        "placeName": "ETOBICOKE",
        "streetNameDisplayText": "THE QUEENSWAY, ETOBICOKE"
      }
    ]
  },
  {
    "postal": "M8Z3M6",
    "result": [
      {
        "electoralDistricts": [
          {
            "election": null,
            "id": 29,
            "name": "Etobicoke—Lakeshore"
          }
        ],
        "pollDivisionIds": [
          10138154
        ],
        "postalCode": "M8Z3M6",
        "streetName": "LORAHILL",
        "streetDirectionId": null,
        "streetTypeId": "RD",
        "placeName": "ETOBICOKE",
        "streetNameDisplayText": "LORAHILL RD, ETOBICOKE"
      }
    ]
  },
  {
    "postal": "M8Z6Z8",
    "result": []
  },
  {
    "postal": "M8Z4J2",
    "result": [
      {
        "electoralDistricts": [
          {
            "election": null,
            "id": 29,
            "name": "Etobicoke—Lakeshore"
          }
        ],
        "pollDivisionIds": [
          10138151
        ],
        "postalCode": "M8Z4J2",
        "streetName": "EAGLE",
        "streetDirectionId": null,
        "streetTypeId": "RD",
        "placeName": "ETOBICOKE",
        "streetNameDisplayText": "EAGLE RD, ETOBICOKE"
      }
    ]
  },
  {
    "postal": "M8Z9Y1",
    "result": []
  },
  {
    "postal": "M8Z8V6",
    "result": []
  },
  {
    "postal": "M8Z6B2",
    "result": []
  },
  {
    "postal": "M8Z1P8",
    "result": []
  },
  {
    "postal": "M8Z0V8",
    "result": []
  },
  {
    "postal": "M8Z4Y0",
    "result": []
  },
  {
    "postal": "M8Z2T4",
    "result": [
      {
        "electoralDistricts": [
          {
            "election": null,
            "id": 29,
            "name": "Etobicoke—Lakeshore"
          }
        ],
        "pollDivisionIds": [
          10138154
        ],
        "postalCode": "M8Z2T4",
        "streetName": "ADVANCE",
        "streetDirectionId": null,
        "streetTypeId": "RD",
        "placeName": "ETOBICOKE",
        "streetNameDisplayText": "ADVANCE RD, ETOBICOKE"
      }
    ]
  },
  {
    "postal": "M8Z2S3",
    "result": [
      {
        "electoralDistricts": [
          {
            "election": null,
            "id": 29,
            "name": "Etobicoke—Lakeshore"
          }
        ],
        "pollDivisionIds": [
          10138154
        ],
        "postalCode": "M8Z2S3",
        "streetName": "CLAYMORE",
        "streetDirectionId": null,
        "streetTypeId": "DR",
        "placeName": "ETOBICOKE",
        "streetNameDisplayText": "CLAYMORE DR, ETOBICOKE"
      }
    ]
  },
  {
    "postal": "M8Z0K0",
    "result": []
  },
  {
    "postal": "M8Z5N1",
    "result": []
  },
  {
    "postal": "M8Z7T0",
    "result": []
  },
  {
    "postal": "M8Z9N2",
    "result": []
  },
  {
    "postal": "M8Z5L1",
    "result": [
      {
        "electoralDistricts": [
          {
            "election": null,
            "id": 29,
            "name": "Etobicoke—Lakeshore"
          }
        ],
        "pollDivisionIds": [
          10138160
        ],
        "postalCode": "M8Z5L1",
        "streetName": "ATOMIC",
        "streetDirectionId": null,
        "streetTypeId": "AVE",
        "placeName": "ETOBICOKE",
        "streetNameDisplayText": "ATOMIC AVE, ETOBICOKE"
      }
    ]
  },
  {
    "postal": "M8Z7G5",
    "result": []
  },
  {
    "postal": "M8Z6K2",
    "result": []
  },
  {
    "postal": "M8Z6P9",
    "result": []
  },
  {
    "postal": "M8Z0E6",
    "result": [
      {
        "electoralDistricts": [
          {
            "election": null,
            "id": 29,
            "name": "Etobicoke—Lakeshore"
          }
        ],
        "pollDivisionIds": [
          10138154
        ],
        "postalCode": "M8Z0E6",
        "streetName": "AUGUSTUS",
        "streetDirectionId": null,
        "streetTypeId": "TERR",
        "placeName": "ETOBICOKE",
        "streetNameDisplayText": "AUGUSTUS TERR, ETOBICOKE"
      },
      {
        "electoralDistricts": [
          {
            "election": null,
            "id": 29,
            "name": "Etobicoke—Lakeshore"
          }
        ],
        "pollDivisionIds": [
          10138154
        ],
        "postalCode": "M8Z0E6",
        "streetName": "EDWARD HORTON",
        "streetDirectionId": null,
        "streetTypeId": "CRES",
        "placeName": "ETOBICOKE",
        "streetNameDisplayText": "EDWARD HORTON CRES, ETOBICOKE"
      },
      {
        "electoralDistricts": [
          {
            "election": null,
            "id": 29,
            "name": "Etobicoke—Lakeshore"
          }
        ],
        "pollDivisionIds": [
          10138154
        ],
        "postalCode": "M8Z0E6",
        "streetName": "NORSEMAN",
        "streetDirectionId": null,
        "streetTypeId": "ST",
        "placeName": "ETOBICOKE",
        "streetNameDisplayText": "NORSEMAN ST, ETOBICOKE"
      },
      {
        "electoralDistricts": [
          {
            "election": null,
            "id": 29,
            "name": "Etobicoke—Lakeshore"
          }
        ],
        "pollDivisionIds": [
          10138154
        ],
        "postalCode": "M8Z0E6",
        "streetName": "THOMAS FISHER",
        "streetDirectionId": null,
        "streetTypeId": "DR",
        "placeName": "ETOBICOKE",
        "streetNameDisplayText": "THOMAS FISHER DR, ETOBICOKE"
      }
    ]
  },
  {
    "postal": "M8Z8R9",
    "result": []
  },
  {
    "postal": "M8Z3G9",
    "result": [
      {
        "electoralDistricts": [
          {
            "election": null,
            "id": 29,
            "name": "Etobicoke—Lakeshore"
          }
        ],
        "pollDivisionIds": [
          10138151
        ],
        "postalCode": "M8Z3G9",
        "streetName": "VAN DUSEN",
        "streetDirectionId": null,
        "streetTypeId": "BLVD",
        "placeName": "ETOBICOKE",
        "streetNameDisplayText": "VAN DUSEN BLVD, ETOBICOKE"
      }
    ]
  },
  {
    "postal": "M8Z0V7",
    "result": []
  },
  {
    "postal": "M8Z2Z1",
    "result": [
      {
        "electoralDistricts": [
          {
            "election": null,
            "id": 29,
            "name": "Etobicoke—Lakeshore"
          }
        ],
        "pollDivisionIds": [
          10138151
        ],
        "postalCode": "M8Z2Z1",
        "streetName": "REVERE",
        "streetDirectionId": null,
        "streetTypeId": "PL",
        "placeName": "ETOBICOKE",
        "streetNameDisplayText": "REVERE PL, ETOBICOKE"
      }
    ]
  },
  {
    "postal": "M8Z7N1",
    "result": []
  },
  {
    "postal": "M8Z3C6",
    "result": [
      {
        "electoralDistricts": [
          {
            "election": null,
            "id": 29,
            "name": "Etobicoke—Lakeshore"
          }
        ],
        "pollDivisionIds": [
          10143891
        ],
        "postalCode": "M8Z3C6",
        "streetName": "MUNSTER",
        "streetDirectionId": null,
        "streetTypeId": "AVE",
        "placeName": "ETOBICOKE",
        "streetNameDisplayText": "MUNSTER AVE, ETOBICOKE"
      }
    ]
  },
  {
    "postal": "M8Z4M1",
    "result": [
      {
        "electoralDistricts": [
          {
            "election": null,
            "id": 29,
            "name": "Etobicoke—Lakeshore"
          }
        ],
        "pollDivisionIds": [
          10138155
        ],
        "postalCode": "M8Z4M1",
        "streetName": "ROTHSAY",
        "streetDirectionId": null,
        "streetTypeId": "AVE",
        "placeName": "ETOBICOKE",
        "streetNameDisplayText": "ROTHSAY AVE, ETOBICOKE"
      }
    ]
  },
  {
    "postal": "M8Z9K2",
    "result": []
  },
  {
    "postal": "M8Z9S6",
    "result": []
  },
  {
    "postal": "M8Z4X1",
    "result": [
      {
        "electoralDistricts": [
          {
            "election": null,
            "id": 29,
            "name": "Etobicoke—Lakeshore"
          }
        ],
        "pollDivisionIds": [
          10143891
        ],
        "postalCode": "M8Z4X1",
        "streetName": "CARYSFORT",
        "streetDirectionId": null,
        "streetTypeId": "RD",
        "placeName": "ETOBICOKE",
        "streetNameDisplayText": "CARYSFORT RD, ETOBICOKE"
      }
    ]
  },
  {
    "postal": "M8Z8W2",
    "result": []
  },
  {
    "postal": "M8Z7N2",
    "result": []
  },
  {
    "postal": "M8Z8S3",
    "result": []
  },
  {
    "postal": "M8Z4V0",
    "result": []
  },
  {
    "postal": "M8Z6W4",
    "result": []
  },
  {
    "postal": "M8Z5M1",
    "result": []
  },
  {
    "postal": "M8Z0S4",
    "result": []
  },
  {
    "postal": "M8Z5X6",
    "result": []
  },
  {
    "postal": "M8Z8L5",
    "result": []
  },
  {
    "postal": "M8Z5M8",
    "result": []
  },
  {
    "postal": "M8Z2G3",
    "result": [
      {
        "electoralDistricts": [
          {
            "election": null,
            "id": 29,
            "name": "Etobicoke—Lakeshore"
          }
        ],
        "pollDivisionIds": [
          10138155,
          10138154
        ],
        "postalCode": "M8Z2G3",
        "streetName": "YORKVIEW",
        "streetDirectionId": null,
        "streetTypeId": "DR",
        "placeName": "ETOBICOKE",
        "streetNameDisplayText": "YORKVIEW DR, ETOBICOKE"
      }
    ]
  },
  {
    "postal": "M8Z8E4",
    "result": []
  },
  {
    "postal": "M8Z7S9",
    "result": []
  },
  {
    "postal": "M8Z1K3",
    "result": []
  },
  {
    "postal": "M8Z4E1",
    "result": [
      {
        "electoralDistricts": [
          {
            "election": null,
            "id": 29,
            "name": "Etobicoke—Lakeshore"
          }
        ],
        "pollDivisionIds": [
          10143883
        ],
        "postalCode": "M8Z4E1",
        "streetName": "OURLAND",
        "streetDirectionId": null,
        "streetTypeId": "AVE",
        "placeName": "ETOBICOKE",
        "streetNameDisplayText": "OURLAND AVE, ETOBICOKE"
      }
    ]
  },
  {
    "postal": "M8Z4R2",
    "result": [
      {
        "electoralDistricts": [
          {
            "election": null,
            "id": 29,
            "name": "Etobicoke—Lakeshore"
          }
        ],
        "pollDivisionIds": [
          10138154
        ],
        "postalCode": "M8Z4R2",
        "streetName": "ISLINGTON",
        "streetDirectionId": null,
        "streetTypeId": "AVE",
        "placeName": "ETOBICOKE",
        "streetNameDisplayText": "ISLINGTON AVE, ETOBICOKE"
      }
    ]
  },
  {
    "postal": "M8Z6T0",
    "result": []
  },
  {
    "postal": "M8Z3K5",
    "result": [
      {
        "electoralDistricts": [
          {
            "election": null,
            "id": 29,
            "name": "Etobicoke—Lakeshore"
          }
        ],
        "pollDivisionIds": [
          10138151
        ],
        "postalCode": "M8Z3K5",
        "streetName": "MEADOWVALE",
        "streetDirectionId": null,
        "streetTypeId": "DR",
        "placeName": "ETOBICOKE",
        "streetNameDisplayText": "MEADOWVALE DR, ETOBICOKE"
      }
    ]
  },
  {
    "postal": "M8Z3S3",
    "result": [
      {
        "electoralDistricts": [
          {
            "election": null,
            "id": 29,
            "name": "Etobicoke—Lakeshore"
          }
        ],
        "pollDivisionIds": [
          10138154
        ],
        "postalCode": "M8Z3S3",
        "streetName": "LILLIBET",
        "streetDirectionId": null,
        "streetTypeId": "RD",
        "placeName": "ETOBICOKE",
        "streetNameDisplayText": "LILLIBET RD, ETOBICOKE"
      }
    ]
  },
  {
    "postal": "M8Z3L4",
    "result": [
      {
        "electoralDistricts": [
          {
            "election": null,
            "id": 29,
            "name": "Etobicoke—Lakeshore"
          }
        ],
        "pollDivisionIds": [
          10143891
        ],
        "postalCode": "M8Z3L4",
        "streetName": "FIELDWAY",
        "streetDirectionId": null,
        "streetTypeId": "RD",
        "placeName": "ETOBICOKE",
        "streetNameDisplayText": "FIELDWAY RD, ETOBICOKE"
      }
    ]
  },
  {
    "postal": "M8Z9Y2",
    "result": []
  },
  {
    "postal": "M8Z1E0",
    "result": []
  },
  {
    "postal": "M8Z9A4",
    "result": []
  },
  {
    "postal": "M8Z1L3",
    "result": [
      {
        "electoralDistricts": [
          {
            "election": null,
            "id": 29,
            "name": "Etobicoke—Lakeshore"
          }
        ],
        "pollDivisionIds": [
          10143883
        ],
        "postalCode": "M8Z1L3",
        "streetName": "OXFORD",
        "streetDirectionId": null,
        "streetTypeId": "ST",
        "placeName": "ETOBICOKE",
        "streetNameDisplayText": "OXFORD ST, ETOBICOKE"
      }
    ]
  },
  {
    "postal": "M8Z6N1",
    "result": []
  },
  {
    "postal": "M8Z6G7",
    "result": []
  },
  {
    "postal": "M8Z7W1",
    "result": []
  },
  {
    "postal": "M8Z4M6",
    "result": [
      {
        "electoralDistricts": [
          {
            "election": null,
            "id": 29,
            "name": "Etobicoke—Lakeshore"
          }
        ],
        "pollDivisionIds": [
          10138154
        ],
        "postalCode": "M8Z4M6",
        "streetName": "STOCKBRIDGE",
        "streetDirectionId": null,
        "streetTypeId": "AVE",
        "placeName": "ETOBICOKE",
        "streetNameDisplayText": "STOCKBRIDGE AVE, ETOBICOKE"
      }
    ]
  },
  {
    "postal": "M8Z1K0",
    "result": []
  },
  {
    "postal": "M8Z3E2",
    "result": [
      {
        "electoralDistricts": [
          {
            "election": null,
            "id": 29,
            "name": "Etobicoke—Lakeshore"
          }
        ],
        "pollDivisionIds": [
          10138151
        ],
        "postalCode": "M8Z3E2",
        "streetName": "ORCHARD",
        "streetDirectionId": null,
        "streetTypeId": "CRES",
        "placeName": "ETOBICOKE",
        "streetNameDisplayText": "ORCHARD CRES, ETOBICOKE"
      }
    ]
  },
  {
    "postal": "M8Z5H4",
    "result": [
      {
        "electoralDistricts": [
          {
            "election": null,
            "id": 29,
            "name": "Etobicoke—Lakeshore"
          }
        ],
        "pollDivisionIds": [
          10143891
        ],
        "postalCode": "M8Z5H4",
        "streetName": "KIPLING",
        "streetDirectionId": null,
        "streetTypeId": "AVE",
        "placeName": "ETOBICOKE",
        "streetNameDisplayText": "KIPLING AVE, ETOBICOKE"
      }
    ]
  },
  {
    "postal": "M8Z1K7",
    "result": []
  },
  {
    "postal": "M8Z0H0",
    "result": []
  },
  {
    "postal": "M8Z0J3",
    "result": []
  },
  {
    "postal": "M8Z1X6",
    "result": [
      {
        "electoralDistricts": [
          {
            "election": null,
            "id": 29,
            "name": "Etobicoke—Lakeshore"
          }
        ],
        "pollDivisionIds": [
          10138154
        ],
        "postalCode": "M8Z1X6",
        "streetName": "STANMILLS",
        "streetDirectionId": null,
        "streetTypeId": "RD",
        "placeName": "ETOBICOKE",
        "streetNameDisplayText": "STANMILLS RD, ETOBICOKE"
      }
    ]
  },
  {
    "postal": "M8Z2Z6",
    "result": [
      {
        "electoralDistricts": [
          {
            "election": null,
            "id": 29,
            "name": "Etobicoke—Lakeshore"
          }
        ],
        "pollDivisionIds": [
          10138154
        ],
        "postalCode": "M8Z2Z6",
        "streetName": "OLIVEWOOD",
        "streetDirectionId": null,
        "streetTypeId": "RD",
        "placeName": "ETOBICOKE",
        "streetNameDisplayText": "OLIVEWOOD RD, ETOBICOKE"
      }
    ]
  },
  {
    "postal": "M8Z4R9",
    "result": [
      {
        "electoralDistricts": [
          {
            "election": null,
            "id": 29,
            "name": "Etobicoke—Lakeshore"
          }
        ],
        "pollDivisionIds": [
          10138154
        ],
        "postalCode": "M8Z4R9",
        "streetName": "ISLINGTON",
        "streetDirectionId": null,
        "streetTypeId": "AVE",
        "placeName": "ETOBICOKE",
        "streetNameDisplayText": "ISLINGTON AVE, ETOBICOKE"
      }
    ]
  },
  {
    "postal": "M8Z0W8",
    "result": []
  },
  {
    "postal": "M8Z1L4",
    "result": [
      {
        "electoralDistricts": [
          {
            "election": null,
            "id": 29,
            "name": "Etobicoke—Lakeshore"
          }
        ],
        "pollDivisionIds": [
          10143883
        ],
        "postalCode": "M8Z1L4",
        "streetName": "OXFORD",
        "streetDirectionId": null,
        "streetTypeId": "ST",
        "placeName": "ETOBICOKE",
        "streetNameDisplayText": "OXFORD ST, ETOBICOKE"
      }
    ]
  },
  {
    "postal": "M8Z0C8",
    "result": [
      {
        "electoralDistricts": [
          {
            "election": null,
            "id": 29,
            "name": "Etobicoke—Lakeshore"
          }
        ],
        "pollDivisionIds": [
          10138154
        ],
        "postalCode": "M8Z0C8",
        "streetName": "ZORRA",
        "streetDirectionId": null,
        "streetTypeId": "ST",
        "placeName": "ETOBICOKE",
        "streetNameDisplayText": "ZORRA ST, ETOBICOKE"
      }
    ]
  },
  {
    "postal": "M8Z9X7",
    "result": []
  },
  {
    "postal": "M8Z4T1",
    "result": [
      {
        "electoralDistricts": [
          {
            "election": null,
            "id": 29,
            "name": "Etobicoke—Lakeshore"
          }
        ],
        "pollDivisionIds": [
          10143891
        ],
        "postalCode": "M8Z4T1",
        "streetName": "ISLINGTON",
        "streetDirectionId": null,
        "streetTypeId": "AVE",
        "placeName": "ETOBICOKE",
        "streetNameDisplayText": "ISLINGTON AVE, ETOBICOKE"
      }
    ]
  },
  {
    "postal": "M8Z0M0",
    "result": []
  },
  {
    "postal": "M8Z6A2",
    "result": []
  },
  {
    "postal": "M8Z9S8",
    "result": []
  },
  {
    "postal": "M8Z9T4",
    "result": []
  },
  {
    "postal": "M8Z9Y4",
    "result": []
  },
  {
    "postal": "M8Z6G5",
    "result": []
  },
  {
    "postal": "M8Z6H9",
    "result": []
  },
  {
    "postal": "M8Z2P3",
    "result": [
      {
        "electoralDistricts": [
          {
            "election": null,
            "id": 29,
            "name": "Etobicoke—Lakeshore"
          }
        ],
        "pollDivisionIds": [
          10138154
        ],
        "postalCode": "M8Z2P3",
        "streetName": "NORSEMAN",
        "streetDirectionId": null,
        "streetTypeId": "ST",
        "placeName": "ETOBICOKE",
        "streetNameDisplayText": "NORSEMAN ST, ETOBICOKE"
      }
    ]
  },
  {
    "postal": "M8Z1T6",
    "result": []
  },
  {
    "postal": "M8Z4P6",
    "result": [
      {
        "electoralDistricts": [
          {
            "election": null,
            "id": 29,
            "name": "Etobicoke—Lakeshore"
          }
        ],
        "pollDivisionIds": [
          10138154
        ],
        "postalCode": "M8Z4P6",
        "streetName": "ISLINGTON",
        "streetDirectionId": null,
        "streetTypeId": "AVE",
        "placeName": "ETOBICOKE",
        "streetNameDisplayText": "ISLINGTON AVE, ETOBICOKE"
      }
    ]
  },
  {
    "postal": "M8Z3K1",
    "result": [
      {
        "electoralDistricts": [
          {
            "election": null,
            "id": 29,
            "name": "Etobicoke—Lakeshore"
          }
        ],
        "pollDivisionIds": [
          10138144
        ],
        "postalCode": "M8Z3K1",
        "streetName": "MEADOWVALE",
        "streetDirectionId": null,
        "streetTypeId": "DR",
        "placeName": "ETOBICOKE",
        "streetNameDisplayText": "MEADOWVALE DR, ETOBICOKE"
      }
    ]
  },
  {
    "postal": "M8Z6X4",
    "result": []
  },
  {
    "postal": "M8Z4M8",
    "result": [
      {
        "electoralDistricts": [
          {
            "election": null,
            "id": 29,
            "name": "Etobicoke—Lakeshore"
          }
        ],
        "pollDivisionIds": [
          10138144
        ],
        "postalCode": "M8Z4M8",
        "streetName": "MONKTON",
        "streetDirectionId": null,
        "streetTypeId": "AVE",
        "placeName": "ETOBICOKE",
        "streetNameDisplayText": "MONKTON AVE, ETOBICOKE"
      }
    ]
  },
  {
    "postal": "M8Z2Y1",
    "result": [
      {
        "electoralDistricts": [
          {
            "election": null,
            "id": 29,
            "name": "Etobicoke—Lakeshore"
          }
        ],
        "pollDivisionIds": [
          10138151
        ],
        "postalCode": "M8Z2Y1",
        "streetName": "LELAND",
        "streetDirectionId": null,
        "streetTypeId": "AVE",
        "placeName": "ETOBICOKE",
        "streetNameDisplayText": "LELAND AVE, ETOBICOKE"
      }
    ]
  },
  {
    "postal": "M8Z6M1",
    "result": []
  },
  {
    "postal": "M8Z5L8",
    "result": []
  },
  {
    "postal": "M8Z3P6",
    "result": [
      {
        "electoralDistricts": [
          {
            "election": null,
            "id": 29,
            "name": "Etobicoke—Lakeshore"
          }
        ],
        "pollDivisionIds": [
          10138151
        ],
        "postalCode": "M8Z3P6",
        "streetName": "SEVENOAKS",
        "streetDirectionId": null,
        "streetTypeId": "AVE",
        "placeName": "ETOBICOKE",
        "streetNameDisplayText": "SEVENOAKS AVE, ETOBICOKE"
      }
    ]
  },
  {
    "postal": "M8Z9A5",
    "result": []
  },
  {
    "postal": "M8Z7K1",
    "result": []
  },
  {
    "postal": "M8Z3J4",
    "result": [
      {
        "electoralDistricts": [
          {
            "election": null,
            "id": 29,
            "name": "Etobicoke—Lakeshore"
          }
        ],
        "pollDivisionIds": [
          10138151
        ],
        "postalCode": "M8Z3J4",
        "streetName": "MEADOWVALE",
        "streetDirectionId": null,
        "streetTypeId": "DR",
        "placeName": "ETOBICOKE",
        "streetNameDisplayText": "MEADOWVALE DR, ETOBICOKE"
      }
    ]
  },
  {
    "postal": "M8Z5E7",
    "result": [
      {
        "electoralDistricts": [
          {
            "election": null,
            "id": 29,
            "name": "Etobicoke—Lakeshore"
          }
        ],
        "pollDivisionIds": [
          10143883
        ],
        "postalCode": "M8Z5E7",
        "streetName": "KIPLING",
        "streetDirectionId": null,
        "streetTypeId": "AVE",
        "placeName": "ETOBICOKE",
        "streetNameDisplayText": "KIPLING AVE, ETOBICOKE"
      }
    ]
  },
  {
    "postal": "M8Z3A7",
    "result": [
      {
        "electoralDistricts": [
          {
            "election": null,
            "id": 29,
            "name": "Etobicoke—Lakeshore"
          }
        ],
        "pollDivisionIds": [
          10143891
        ],
        "postalCode": "M8Z3A7",
        "streetName": "BERING",
        "streetDirectionId": null,
        "streetTypeId": "AVE",
        "placeName": "ETOBICOKE",
        "streetNameDisplayText": "BERING AVE, ETOBICOKE"
      }
    ]
  },
  {
    "postal": "M8Z1B9",
    "result": []
  },
  {
    "postal": "M8Z9E8",
    "result": []
  },
  {
    "postal": "M8Z1C9",
    "result": [
      {
        "electoralDistricts": [
          {
            "election": null,
            "id": 29,
            "name": "Etobicoke—Lakeshore"
          }
        ],
        "pollDivisionIds": [
          10143883
        ],
        "postalCode": "M8Z1C9",
        "streetName": "SIMPSON",
        "streetDirectionId": null,
        "streetTypeId": "AVE",
        "placeName": "ETOBICOKE",
        "streetNameDisplayText": "SIMPSON AVE, ETOBICOKE"
      }
    ]
  },
  {
    "postal": "M8Z3B5",
    "result": [
      {
        "electoralDistricts": [
          {
            "election": null,
            "id": 29,
            "name": "Etobicoke—Lakeshore"
          }
        ],
        "pollDivisionIds": [
          10138151
        ],
        "postalCode": "M8Z3B5",
        "streetName": "SPRINGBROOK",
        "streetDirectionId": null,
        "streetTypeId": "GDNS",
        "placeName": "ETOBICOKE",
        "streetNameDisplayText": "SPRINGBROOK GDNS, ETOBICOKE"
      }
    ]
  },
  {
    "postal": "M8Z8R0",
    "result": []
  },
  {
    "postal": "M8Z3P2",
    "result": [
      {
        "electoralDistricts": [
          {
            "election": null,
            "id": 29,
            "name": "Etobicoke—Lakeshore"
          }
        ],
        "pollDivisionIds": [
          10138155
        ],
        "postalCode": "M8Z3P2",
        "streetName": "UNO",
        "streetDirectionId": null,
        "streetTypeId": "DR",
        "placeName": "ETOBICOKE",
        "streetNameDisplayText": "UNO DR, ETOBICOKE"
      }
    ]
  },
  {
    "postal": "M8Z5V4",
    "result": []
  },
  {
    "postal": "M8Z4H0",
    "result": []
  },
  {
    "postal": "M8Z4S7",
    "result": [
      {
        "electoralDistricts": [
          {
            "election": null,
            "id": 29,
            "name": "Etobicoke—Lakeshore"
          }
        ],
        "pollDivisionIds": [
          10143891
        ],
        "postalCode": "M8Z4S7",
        "streetName": "ISLINGTON",
        "streetDirectionId": null,
        "streetTypeId": "AVE",
        "placeName": "ETOBICOKE",
        "streetNameDisplayText": "ISLINGTON AVE, ETOBICOKE"
      }
    ]
  },
  {
    "postal": "M8Z6C2",
    "result": []
  },
  {
    "postal": "M8Z8W3",
    "result": []
  },
  {
    "postal": "M8Z4M5",
    "result": [
      {
        "electoralDistricts": [
          {
            "election": null,
            "id": 29,
            "name": "Etobicoke—Lakeshore"
          }
        ],
        "pollDivisionIds": [
          10138154
        ],
        "postalCode": "M8Z4M5",
        "streetName": "KINGSCROSS",
        "streetDirectionId": null,
        "streetTypeId": "SQ",
        "placeName": "ETOBICOKE",
        "streetNameDisplayText": "KINGSCROSS SQ, ETOBICOKE"
      }
    ]
  },
  {
    "postal": "M8Z5T1",
    "result": [
      {
        "electoralDistricts": [
          {
            "election": null,
            "id": 29,
            "name": "Etobicoke—Lakeshore"
          }
        ],
        "pollDivisionIds": [
          10143883
        ],
        "postalCode": "M8Z5T1",
        "streetName": "OXFORD",
        "streetDirectionId": null,
        "streetTypeId": "ST",
        "placeName": "ETOBICOKE",
        "streetNameDisplayText": "OXFORD ST, ETOBICOKE"
      }
    ]
  },
  {
    "postal": "M8Z3B3",
    "result": [
      {
        "electoralDistricts": [
          {
            "election": null,
            "id": 29,
            "name": "Etobicoke—Lakeshore"
          }
        ],
        "pollDivisionIds": [
          10138151
        ],
        "postalCode": "M8Z3B3",
        "streetName": "SPRINGBROOK",
        "streetDirectionId": null,
        "streetTypeId": "GDNS",
        "placeName": "ETOBICOKE",
        "streetNameDisplayText": "SPRINGBROOK GDNS, ETOBICOKE"
      }
    ]
  },
  {
    "postal": "M8Z6C6",
    "result": [
      {
        "electoralDistricts": [
          {
            "election": null,
            "id": 29,
            "name": "Etobicoke—Lakeshore"
          }
        ],
        "pollDivisionIds": [
          10143883
        ],
        "postalCode": "M8Z6C6",
        "streetName": "JAMES STOCK",
        "streetDirectionId": null,
        "streetTypeId": "PATH",
        "placeName": "ETOBICOKE",
        "streetNameDisplayText": "JAMES STOCK PATH, ETOBICOKE"
      },
      {
        "electoralDistricts": [
          {
            "election": null,
            "id": 29,
            "name": "Etobicoke—Lakeshore"
          }
        ],
        "pollDivisionIds": [
          10143883
        ],
        "postalCode": "M8Z6C6",
        "streetName": "SAN REMO",
        "streetDirectionId": null,
        "streetTypeId": "TERR",
        "placeName": "ETOBICOKE",
        "streetNameDisplayText": "SAN REMO TERR, ETOBICOKE"
      },
      {
        "electoralDistricts": [
          {
            "election": null,
            "id": 29,
            "name": "Etobicoke—Lakeshore"
          }
        ],
        "pollDivisionIds": [
          10143883
        ],
        "postalCode": "M8Z6C6",
        "streetName": "SUPERIOR CREEK",
        "streetDirectionId": null,
        "streetTypeId": "LANE",
        "placeName": "ETOBICOKE",
        "streetNameDisplayText": "SUPERIOR CREEK LANE, ETOBICOKE"
      }
    ]
  },
  {
    "postal": "M8Z7N8",
    "result": []
  },
  {
    "postal": "M8Z2Y3",
    "result": [
      {
        "electoralDistricts": [
          {
            "election": null,
            "id": 29,
            "name": "Etobicoke—Lakeshore"
          }
        ],
        "pollDivisionIds": [
          10138151
        ],
        "postalCode": "M8Z2Y3",
        "streetName": "MEADOWCREST",
        "streetDirectionId": null,
        "streetTypeId": "RD",
        "placeName": "ETOBICOKE",
        "streetNameDisplayText": "MEADOWCREST RD, ETOBICOKE"
      }
    ]
  },
  {
    "postal": "M8Z2R6",
    "result": [
      {
        "electoralDistricts": [
          {
            "election": null,
            "id": 29,
            "name": "Etobicoke—Lakeshore"
          }
        ],
        "pollDivisionIds": [
          10138160
        ],
        "postalCode": "M8Z2R6",
        "streetName": "LOCKPORT",
        "streetDirectionId": null,
        "streetTypeId": "AVE",
        "placeName": "ETOBICOKE",
        "streetNameDisplayText": "LOCKPORT AVE, ETOBICOKE"
      }
    ]
  },
  {
    "postal": "M8Z7N3",
    "result": []
  },
  {
    "postal": "M8Z8J2",
    "result": []
  },
  {
    "postal": "M8Z6A9",
    "result": [
      {
        "electoralDistricts": [
          {
            "election": null,
            "id": 29,
            "name": "Etobicoke—Lakeshore"
          }
        ],
        "pollDivisionIds": [
          10138155
        ],
        "postalCode": "M8Z6A9",
        "streetName": "THE QUEENSWAY",
        "streetDirectionId": null,
        "streetTypeId": null,
        "placeName": "ETOBICOKE",
        "streetNameDisplayText": "THE QUEENSWAY, ETOBICOKE"
      }
    ]
  },
  {
    "postal": "M8Z3V2",
    "result": [
      {
        "electoralDistricts": [
          {
            "election": null,
            "id": 29,
            "name": "Etobicoke—Lakeshore"
          }
        ],
        "pollDivisionIds": [
          10138151
        ],
        "postalCode": "M8Z3V2",
        "streetName": "THOMPSON",
        "streetDirectionId": null,
        "streetTypeId": "AVE",
        "placeName": "ETOBICOKE",
        "streetNameDisplayText": "THOMPSON AVE, ETOBICOKE"
      }
    ]
  },
  {
    "postal": "M8Z2N3",
    "result": [
      {
        "electoralDistricts": [
          {
            "election": null,
            "id": 29,
            "name": "Etobicoke—Lakeshore"
          }
        ],
        "pollDivisionIds": [
          10138154
        ],
        "postalCode": "M8Z2N3",
        "streetName": "VELMA",
        "streetDirectionId": null,
        "streetTypeId": "DR",
        "placeName": "ETOBICOKE",
        "streetNameDisplayText": "VELMA DR, ETOBICOKE"
      }
    ]
  },
  {
    "postal": "M8Z1S5",
    "result": [
      {
        "electoralDistricts": [
          {
            "election": null,
            "id": 29,
            "name": "Etobicoke—Lakeshore"
          }
        ],
        "pollDivisionIds": [
          10138160
        ],
        "postalCode": "M8Z1S5",
        "streetName": "THE QUEENSWAY",
        "streetDirectionId": null,
        "streetTypeId": null,
        "placeName": "ETOBICOKE",
        "streetNameDisplayText": "THE QUEENSWAY, ETOBICOKE"
      }
    ]
  },
  {
    "postal": "M8Z4T7",
    "result": [
      {
        "electoralDistricts": [
          {
            "election": null,
            "id": 29,
            "name": "Etobicoke—Lakeshore"
          }
        ],
        "pollDivisionIds": [
          10143891
        ],
        "postalCode": "M8Z4T7",
        "streetName": "CLISSOLD",
        "streetDirectionId": null,
        "streetTypeId": "RD",
        "placeName": "ETOBICOKE",
        "streetNameDisplayText": "CLISSOLD RD, ETOBICOKE"
      }
    ]
  },
  {
    "postal": "M8Z6Y7",
    "result": []
  },
  {
    "postal": "M8Z0W7",
    "result": []
  },
  {
    "postal": "M8Z2W9",
    "result": [
      {
        "electoralDistricts": [
          {
            "election": null,
            "id": 29,
            "name": "Etobicoke—Lakeshore"
          }
        ],
        "pollDivisionIds": [
          10138154
        ],
        "postalCode": "M8Z2W9",
        "streetName": "SIX POINT",
        "streetDirectionId": null,
        "streetTypeId": "RD",
        "placeName": "ETOBICOKE",
        "streetNameDisplayText": "SIX POINT RD, ETOBICOKE"
      }
    ]
  },
  {
    "postal": "M8Z8V0",
    "result": []
  },
  {
    "postal": "M8Z0H4",
    "result": []
  },
  {
    "postal": "M8Z2T1",
    "result": []
  },
  {
    "postal": "M8Z1B1",
    "result": [
      {
        "electoralDistricts": [
          {
            "election": null,
            "id": 29,
            "name": "Etobicoke—Lakeshore"
          }
        ],
        "pollDivisionIds": [
          10143883
        ],
        "postalCode": "M8Z1B1",
        "streetName": "JUDSON",
        "streetDirectionId": null,
        "streetTypeId": "ST",
        "placeName": "ETOBICOKE",
        "streetNameDisplayText": "JUDSON ST, ETOBICOKE"
      }
    ]
  },
  {
    "postal": "M8Z8B6",
    "result": []
  },
  {
    "postal": "M8Z6H1",
    "result": []
  },
  {
    "postal": "M8Z8T8",
    "result": []
  },
  {
    "postal": "M8Z0T4",
    "result": []
  },
  {
    "postal": "M8Z2C4",
    "result": [
      {
        "electoralDistricts": [
          {
            "election": null,
            "id": 29,
            "name": "Etobicoke—Lakeshore"
          }
        ],
        "pollDivisionIds": [
          10138160
        ],
        "postalCode": "M8Z2C4",
        "streetName": "NORTH QUEEN",
        "streetDirectionId": null,
        "streetTypeId": "ST",
        "placeName": "ETOBICOKE",
        "streetNameDisplayText": "NORTH QUEEN ST, ETOBICOKE"
      }
    ]
  },
  {
    "postal": "M8Z8N3",
    "result": []
  },
  {
    "postal": "M8Z4L8",
    "result": [
      {
        "electoralDistricts": [
          {
            "election": null,
            "id": 29,
            "name": "Etobicoke—Lakeshore"
          }
        ],
        "pollDivisionIds": [
          10138155
        ],
        "postalCode": "M8Z4L8",
        "streetName": "PARKER",
        "streetDirectionId": null,
        "streetTypeId": "AVE",
        "placeName": "ETOBICOKE",
        "streetNameDisplayText": "PARKER AVE, ETOBICOKE"
      }
    ]
  },
  {
    "postal": "M8Z2B5",
    "result": [
      {
        "electoralDistricts": [
          {
            "election": null,
            "id": 29,
            "name": "Etobicoke—Lakeshore"
          }
        ],
        "pollDivisionIds": [
          10138154
        ],
        "postalCode": "M8Z2B5",
        "streetName": "NORDIN",
        "streetDirectionId": null,
        "streetTypeId": "AVE",
        "placeName": "ETOBICOKE",
        "streetNameDisplayText": "NORDIN AVE, ETOBICOKE"
      }
    ]
  },
  {
    "postal": "M8Z3H1",
    "result": [
      {
        "electoralDistricts": [
          {
            "election": null,
            "id": 29,
            "name": "Etobicoke—Lakeshore"
          }
        ],
        "pollDivisionIds": [
          10138151
        ],
        "postalCode": "M8Z3H1",
        "streetName": "VAN DUSEN",
        "streetDirectionId": null,
        "streetTypeId": "BLVD",
        "placeName": "ETOBICOKE",
        "streetNameDisplayText": "VAN DUSEN BLVD, ETOBICOKE"
      }
    ]
  },
  {
    "postal": "M8Z4Y1",
    "result": [
      {
        "electoralDistricts": [
          {
            "election": null,
            "id": 29,
            "name": "Etobicoke—Lakeshore"
          }
        ],
        "pollDivisionIds": [
          10143883
        ],
        "postalCode": "M8Z4Y1",
        "streetName": "HORNER",
        "streetDirectionId": null,
        "streetTypeId": "AVE",
        "placeName": "ETOBICOKE",
        "streetNameDisplayText": "HORNER AVE, ETOBICOKE"
      }
    ]
  },
  {
    "postal": "M8Z7E2",
    "result": []
  },
  {
    "postal": "M8Z2P5",
    "result": [
      {
        "electoralDistricts": [
          {
            "election": null,
            "id": 29,
            "name": "Etobicoke—Lakeshore"
          }
        ],
        "pollDivisionIds": [
          10138154
        ],
        "postalCode": "M8Z2P5",
        "streetName": "NORSEMAN",
        "streetDirectionId": null,
        "streetTypeId": "ST",
        "placeName": "ETOBICOKE",
        "streetNameDisplayText": "NORSEMAN ST, ETOBICOKE"
      }
    ]
  },
  {
    "postal": "M8Z8R7",
    "result": []
  },
  {
    "postal": "M8Z9P1",
    "result": []
  },
  {
    "postal": "M8Z3B8",
    "result": [
      {
        "electoralDistricts": [
          {
            "election": null,
            "id": 29,
            "name": "Etobicoke—Lakeshore"
          }
        ],
        "pollDivisionIds": [
          10138151
        ],
        "postalCode": "M8Z3B8",
        "streetName": "SPRINGBROOK",
        "streetDirectionId": null,
        "streetTypeId": "GDNS",
        "placeName": "ETOBICOKE",
        "streetNameDisplayText": "SPRINGBROOK GDNS, ETOBICOKE"
      }
    ]
  },
  {
    "postal": "M8Z3P7",
    "result": [
      {
        "electoralDistricts": [
          {
            "election": null,
            "id": 29,
            "name": "Etobicoke—Lakeshore"
          }
        ],
        "pollDivisionIds": [
          10138151
        ],
        "postalCode": "M8Z3P7",
        "streetName": "SEVENOAKS",
        "streetDirectionId": null,
        "streetTypeId": "AVE",
        "placeName": "ETOBICOKE",
        "streetNameDisplayText": "SEVENOAKS AVE, ETOBICOKE"
      }
    ]
  },
  {
    "postal": "M8Z9B2",
    "result": []
  },
  {
    "postal": "M8Z6Z3",
    "result": []
  },
  {
    "postal": "M8Z4N5",
    "result": [
      {
        "electoralDistricts": [
          {
            "election": null,
            "id": 29,
            "name": "Etobicoke—Lakeshore"
          }
        ],
        "pollDivisionIds": [
          10138151
        ],
        "postalCode": "M8Z4N5",
        "streetName": "MONKTON",
        "streetDirectionId": null,
        "streetTypeId": "AVE",
        "placeName": "ETOBICOKE",
        "streetNameDisplayText": "MONKTON AVE, ETOBICOKE"
      }
    ]
  },
  {
    "postal": "M8Z8T3",
    "result": []
  },
  {
    "postal": "M8Z1V2",
    "result": []
  },
  {
    "postal": "M8Z1Y0",
    "result": []
  },
  {
    "postal": "M8Z3G6",
    "result": [
      {
        "electoralDistricts": [
          {
            "election": null,
            "id": 29,
            "name": "Etobicoke—Lakeshore"
          }
        ],
        "pollDivisionIds": [
          10138151
        ],
        "postalCode": "M8Z3G6",
        "streetName": "VAN DUSEN",
        "streetDirectionId": null,
        "streetTypeId": "BLVD",
        "placeName": "ETOBICOKE",
        "streetNameDisplayText": "VAN DUSEN BLVD, ETOBICOKE"
      }
    ]
  },
  {
    "postal": "M8Z3H7",
    "result": [
      {
        "electoralDistricts": [
          {
            "election": null,
            "id": 29,
            "name": "Etobicoke—Lakeshore"
          }
        ],
        "pollDivisionIds": [
          10138143,
          10143891
        ],
        "postalCode": "M8Z3H7",
        "streetName": "VAN DUSEN",
        "streetDirectionId": null,
        "streetTypeId": "BLVD",
        "placeName": "ETOBICOKE",
        "streetNameDisplayText": "VAN DUSEN BLVD, ETOBICOKE"
      }
    ]
  },
  {
    "postal": "M8Z7X8",
    "result": []
  },
  {
    "postal": "M8Z0C7",
    "result": []
  },
  {
    "postal": "M8Z0W9",
    "result": []
  },
  {
    "postal": "M8Z8E6",
    "result": []
  },
  {
    "postal": "M8Z9Z8",
    "result": []
  },
  {
    "postal": "M8Z3P4",
    "result": [
      {
        "electoralDistricts": [
          {
            "election": null,
            "id": 29,
            "name": "Etobicoke—Lakeshore"
          }
        ],
        "pollDivisionIds": [
          10138154
        ],
        "postalCode": "M8Z3P4",
        "streetName": "DUMBARTON",
        "streetDirectionId": null,
        "streetTypeId": "RD",
        "placeName": "ETOBICOKE",
        "streetNameDisplayText": "DUMBARTON RD, ETOBICOKE"
      }
    ]
  },
  {
    "postal": "M8Z6L8",
    "result": []
  },
  {
    "postal": "M8Z2R4",
    "result": [
      {
        "electoralDistricts": [
          {
            "election": null,
            "id": 29,
            "name": "Etobicoke—Lakeshore"
          }
        ],
        "pollDivisionIds": [
          10138154
        ],
        "postalCode": "M8Z2R4",
        "streetName": "NORSEMAN",
        "streetDirectionId": null,
        "streetTypeId": "ST",
        "placeName": "ETOBICOKE",
        "streetNameDisplayText": "NORSEMAN ST, ETOBICOKE"
      }
    ]
  },
  {
    "postal": "M8Z2W1",
    "result": [
      {
        "electoralDistricts": [
          {
            "election": null,
            "id": 29,
            "name": "Etobicoke—Lakeshore"
          }
        ],
        "pollDivisionIds": [
          10138154
        ],
        "postalCode": "M8Z2W1",
        "streetName": "CARDIGAN",
        "streetDirectionId": null,
        "streetTypeId": "RD",
        "placeName": "ETOBICOKE",
        "streetNameDisplayText": "CARDIGAN RD, ETOBICOKE"
      }
    ]
  },
  {
    "postal": "M8Z9H8",
    "result": []
  },
  {
    "postal": "M8Z8X9",
    "result": []
  },
  {
    "postal": "M8Z7H4",
    "result": []
  },
  {
    "postal": "M8Z3J1",
    "result": [
      {
        "electoralDistricts": [
          {
            "election": null,
            "id": 29,
            "name": "Etobicoke—Lakeshore"
          }
        ],
        "pollDivisionIds": [
          10143891
        ],
        "postalCode": "M8Z3J1",
        "streetName": "VAN DUSEN",
        "streetDirectionId": null,
        "streetTypeId": "BLVD",
        "placeName": "ETOBICOKE",
        "streetNameDisplayText": "VAN DUSEN BLVD, ETOBICOKE"
      }
    ]
  },
  {
    "postal": "M8Z1P4",
    "result": [
      {
        "electoralDistricts": [
          {
            "election": null,
            "id": 29,
            "name": "Etobicoke—Lakeshore"
          }
        ],
        "pollDivisionIds": [
          10138140,
          10138155
        ],
        "postalCode": "M8Z1P4",
        "streetName": "THE QUEENSWAY",
        "streetDirectionId": null,
        "streetTypeId": null,
        "placeName": "ETOBICOKE",
        "streetNameDisplayText": "THE QUEENSWAY, ETOBICOKE"
      }
    ]
  },
  {
    "postal": "M8Z2A3",
    "result": [
      {
        "electoralDistricts": [
          {
            "election": null,
            "id": 29,
            "name": "Etobicoke—Lakeshore"
          }
        ],
        "pollDivisionIds": [
          10138154
        ],
        "postalCode": "M8Z2A3",
        "streetName": "BRADFIELD",
        "streetDirectionId": null,
        "streetTypeId": "AVE",
        "placeName": "ETOBICOKE",
        "streetNameDisplayText": "BRADFIELD AVE, ETOBICOKE"
      }
    ]
  },
  {
    "postal": "M8Z0Z1",
    "result": []
  },
  {
    "postal": "M8Z1C1",
    "result": []
  },
  {
    "postal": "M8Z0H3",
    "result": []
  },
  {
    "postal": "M8Z7B0",
    "result": []
  },
  {
    "postal": "M8Z5K2",
    "result": [
      {
        "electoralDistricts": [
          {
            "election": null,
            "id": 29,
            "name": "Etobicoke—Lakeshore"
          }
        ],
        "pollDivisionIds": [
          10138160
        ],
        "postalCode": "M8Z5K2",
        "streetName": "SHORNCLIFFE",
        "streetDirectionId": null,
        "streetTypeId": "RD",
        "placeName": "ETOBICOKE",
        "streetNameDisplayText": "SHORNCLIFFE RD, ETOBICOKE"
      }
    ]
  },
  {
    "postal": "M8Z1E9",
    "result": []
  },
  {
    "postal": "M8Z9W7",
    "result": []
  },
  {
    "postal": "M8Z5W6",
    "result": []
  },
  {
    "postal": "M8Z6S6",
    "result": []
  },
  {
    "postal": "M8Z2P8",
    "result": [
      {
        "electoralDistricts": [
          {
            "election": null,
            "id": 29,
            "name": "Etobicoke—Lakeshore"
          }
        ],
        "pollDivisionIds": [
          10138154
        ],
        "postalCode": "M8Z2P8",
        "streetName": "NORSEMAN",
        "streetDirectionId": null,
        "streetTypeId": "ST",
        "placeName": "ETOBICOKE",
        "streetNameDisplayText": "NORSEMAN ST, ETOBICOKE"
      }
    ]
  },
  {
    "postal": "M8Z4P8",
    "result": [
      {
        "electoralDistricts": [
          {
            "election": null,
            "id": 29,
            "name": "Etobicoke—Lakeshore"
          }
        ],
        "pollDivisionIds": [
          10138154
        ],
        "postalCode": "M8Z4P8",
        "streetName": "ISLINGTON",
        "streetDirectionId": null,
        "streetTypeId": "AVE",
        "placeName": "ETOBICOKE",
        "streetNameDisplayText": "ISLINGTON AVE, ETOBICOKE"
      }
    ]
  },
  {
    "postal": "M8Z0V9",
    "result": []
  },
  {
    "postal": "M8Z5Y2",
    "result": [
      {
        "electoralDistricts": [
          {
            "election": null,
            "id": 29,
            "name": "Etobicoke—Lakeshore"
          }
        ],
        "pollDivisionIds": [
          10138154
        ],
        "postalCode": "M8Z5Y2",
        "streetName": "TITAN",
        "streetDirectionId": null,
        "streetTypeId": "RD",
        "placeName": "ETOBICOKE",
        "streetNameDisplayText": "TITAN RD, ETOBICOKE"
      }
    ]
  },
  {
    "postal": "M8Z7Z7",
    "result": []
  },
  {
    "postal": "M8Z6Y8",
    "result": []
  },
  {
    "postal": "M8Z2G7",
    "result": []
  },
  {
    "postal": "M8Z8C1",
    "result": []
  },
  {
    "postal": "M8Z5C5",
    "result": [
      {
        "electoralDistricts": [
          {
            "election": null,
            "id": 29,
            "name": "Etobicoke—Lakeshore"
          }
        ],
        "pollDivisionIds": [
          10138154
        ],
        "postalCode": "M8Z5C5",
        "streetName": "STOCK",
        "streetDirectionId": null,
        "streetTypeId": "AVE",
        "placeName": "ETOBICOKE",
        "streetNameDisplayText": "STOCK AVE, ETOBICOKE"
      }
    ]
  },
  {
    "postal": "M8Z2X8",
    "result": [
      {
        "electoralDistricts": [
          {
            "election": null,
            "id": 29,
            "name": "Etobicoke—Lakeshore"
          }
        ],
        "pollDivisionIds": [
          10138151
        ],
        "postalCode": "M8Z2X8",
        "streetName": "LELAND",
        "streetDirectionId": null,
        "streetTypeId": "AVE",
        "placeName": "ETOBICOKE",
        "streetNameDisplayText": "LELAND AVE, ETOBICOKE"
      }
    ]
  },
  {
    "postal": "M8Z1W5",
    "result": []
  },
  {
    "postal": "M8Z7G0",
    "result": []
  },
  {
    "postal": "M8Z8J8",
    "result": []
  },
  {
    "postal": "M8Z3Y0",
    "result": []
  },
  {
    "postal": "M8Z9T7",
    "result": []
  },
  {
    "postal": "M8Z5P4",
    "result": []
  },
  {
    "postal": "M8Z4B0",
    "result": []
  },
  {
    "postal": "M8Z9N8",
    "result": []
  },
  {
    "postal": "M8Z4A7",
    "result": [
      {
        "electoralDistricts": [
          {
            "election": null,
            "id": 29,
            "name": "Etobicoke—Lakeshore"
          }
        ],
        "pollDivisionIds": [
          10143883
        ],
        "postalCode": "M8Z4A7",
        "streetName": "WILLOWBROOK",
        "streetDirectionId": null,
        "streetTypeId": "RD",
        "placeName": "ETOBICOKE",
        "streetNameDisplayText": "WILLOWBROOK RD, ETOBICOKE"
      }
    ]
  },
  {
    "postal": "M8Z4H9",
    "result": [
      {
        "electoralDistricts": [
          {
            "election": null,
            "id": 29,
            "name": "Etobicoke—Lakeshore"
          }
        ],
        "pollDivisionIds": [
          10138151
        ],
        "postalCode": "M8Z4H9",
        "streetName": "EAGLE",
        "streetDirectionId": null,
        "streetTypeId": "RD",
        "placeName": "ETOBICOKE",
        "streetNameDisplayText": "EAGLE RD, ETOBICOKE"
      }
    ]
  },
  {
    "postal": "M8Z6X1",
    "result": []
  },
  {
    "postal": "M8Z9Y7",
    "result": []
  },
  {
    "postal": "M8Z2Y5",
    "result": [
      {
        "electoralDistricts": [
          {
            "election": null,
            "id": 29,
            "name": "Etobicoke—Lakeshore"
          }
        ],
        "pollDivisionIds": [
          10138151
        ],
        "postalCode": "M8Z2Y5",
        "streetName": "MEADOWCREST",
        "streetDirectionId": null,
        "streetTypeId": "RD",
        "placeName": "ETOBICOKE",
        "streetNameDisplayText": "MEADOWCREST RD, ETOBICOKE"
      }
    ]
  },
  {
    "postal": "M8Z8L7",
    "result": []
  },
  {
    "postal": "M8Z2A8",
    "result": [
      {
        "electoralDistricts": [
          {
            "election": null,
            "id": 29,
            "name": "Etobicoke—Lakeshore"
          }
        ],
        "pollDivisionIds": [
          10138175,
          10138155
        ],
        "postalCode": "M8Z2A8",
        "streetName": "ATHOL",
        "streetDirectionId": null,
        "streetTypeId": "AVE",
        "placeName": "ETOBICOKE",
        "streetNameDisplayText": "ATHOL AVE, ETOBICOKE"
      }
    ]
  },
  {
    "postal": "M8Z2K9",
    "result": [
      {
        "electoralDistricts": [
          {
            "election": null,
            "id": 29,
            "name": "Etobicoke—Lakeshore"
          }
        ],
        "pollDivisionIds": [
          10138154
        ],
        "postalCode": "M8Z2K9",
        "streetName": "CONEY",
        "streetDirectionId": null,
        "streetTypeId": "RD",
        "placeName": "ETOBICOKE",
        "streetNameDisplayText": "CONEY RD, ETOBICOKE"
      }
    ]
  },
  {
    "postal": "M8Z3E5",
    "result": [
      {
        "electoralDistricts": [
          {
            "election": null,
            "id": 29,
            "name": "Etobicoke—Lakeshore"
          }
        ],
        "pollDivisionIds": [
          10138151
        ],
        "postalCode": "M8Z3E5",
        "streetName": "VAN DUSEN",
        "streetDirectionId": null,
        "streetTypeId": "BLVD",
        "placeName": "ETOBICOKE",
        "streetNameDisplayText": "VAN DUSEN BLVD, ETOBICOKE"
      }
    ]
  },
  {
    "postal": "M8Z8N6",
    "result": []
  },
  {
    "postal": "M8Z8J4",
    "result": []
  },
  {
    "postal": "M8Z4R7",
    "result": [
      {
        "electoralDistricts": [
          {
            "election": null,
            "id": 29,
            "name": "Etobicoke—Lakeshore"
          }
        ],
        "pollDivisionIds": [
          10138154
        ],
        "postalCode": "M8Z4R7",
        "streetName": "ISLINGTON",
        "streetDirectionId": null,
        "streetTypeId": "AVE",
        "placeName": "ETOBICOKE",
        "streetNameDisplayText": "ISLINGTON AVE, ETOBICOKE"
      }
    ]
  },
  {
    "postal": "M8Z9K1",
    "result": []
  },
  {
    "postal": "M8Z8E1",
    "result": []
  },
  {
    "postal": "M8Z0R1",
    "result": []
  },
  {
    "postal": "M8Z4J3",
    "result": [
      {
        "electoralDistricts": [
          {
            "election": null,
            "id": 29,
            "name": "Etobicoke—Lakeshore"
          }
        ],
        "pollDivisionIds": [
          10138151
        ],
        "postalCode": "M8Z4J3",
        "streetName": "EAGLE",
        "streetDirectionId": null,
        "streetTypeId": "RD",
        "placeName": "ETOBICOKE",
        "streetNameDisplayText": "EAGLE RD, ETOBICOKE"
      }
    ]
  },
  {
    "postal": "M8Z7E7",
    "result": []
  },
  {
    "postal": "M8Z0J0",
    "result": []
  },
  {
    "postal": "M8Z7R8",
    "result": []
  },
  {
    "postal": "M8Z9X0",
    "result": []
  },
  {
    "postal": "M8Z7P6",
    "result": []
  },
  {
    "postal": "M8Z0R7",
    "result": []
  },
  {
    "postal": "M8Z5W1",
    "result": []
  },
  {
    "postal": "M8Z0K4",
    "result": []
  },
  {
    "postal": "M8Z7N9",
    "result": []
  },
  {
    "postal": "M8Z1N0",
    "result": []
  },
  {
    "postal": "M8Z6P3",
    "result": []
  },
  {
    "postal": "M8Z5A1",
    "result": [
      {
        "electoralDistricts": [
          {
            "election": null,
            "id": 29,
            "name": "Etobicoke—Lakeshore"
          }
        ],
        "pollDivisionIds": [
          10138154
        ],
        "postalCode": "M8Z5A1",
        "streetName": "TRUEMAN",
        "streetDirectionId": null,
        "streetTypeId": "AVE",
        "placeName": "ETOBICOKE",
        "streetNameDisplayText": "TRUEMAN AVE, ETOBICOKE"
      }
    ]
  },
  {
    "postal": "M8Z9M9",
    "result": []
  },
  {
    "postal": "M8Z7T6",
    "result": []
  },
  {
    "postal": "M8Z3X0",
    "result": []
  },
  {
    "postal": "M8Z2T0",
    "result": []
  },
  {
    "postal": "M8Z5X9",
    "result": [
      {
        "electoralDistricts": [
          {
            "election": null,
            "id": 29,
            "name": "Etobicoke—Lakeshore"
          }
        ],
        "pollDivisionIds": [
          10138160
        ],
        "postalCode": "M8Z5X9",
        "streetName": "THE EAST MALL",
        "streetDirectionId": null,
        "streetTypeId": "MALL",
        "placeName": "ETOBICOKE",
        "streetNameDisplayText": "THE EAST MALL MALL, ETOBICOKE"
      }
    ]
  },
  {
    "postal": "M8Z2R3",
    "result": [
      {
        "electoralDistricts": [
          {
            "election": null,
            "id": 29,
            "name": "Etobicoke—Lakeshore"
          }
        ],
        "pollDivisionIds": [
          10138154
        ],
        "postalCode": "M8Z2R3",
        "streetName": "NORSEMAN",
        "streetDirectionId": null,
        "streetTypeId": "ST",
        "placeName": "ETOBICOKE",
        "streetNameDisplayText": "NORSEMAN ST, ETOBICOKE"
      }
    ]
  },
  {
    "postal": "M8Z5N2",
    "result": []
  },
  {
    "postal": "M8Z4Y7",
    "result": [
      {
        "electoralDistricts": [
          {
            "election": null,
            "id": 29,
            "name": "Etobicoke—Lakeshore"
          }
        ],
        "pollDivisionIds": [
          10138154
        ],
        "postalCode": "M8Z4Y7",
        "streetName": "WOOLGAR",
        "streetDirectionId": null,
        "streetTypeId": "AVE",
        "placeName": "ETOBICOKE",
        "streetNameDisplayText": "WOOLGAR AVE, ETOBICOKE"
      }
    ]
  },
  {
    "postal": "M8Z7M0",
    "result": []
  },
  {
    "postal": "M8Z8P3",
    "result": []
  },
  {
    "postal": "M8Z3N3",
    "result": [
      {
        "electoralDistricts": [
          {
            "election": null,
            "id": 29,
            "name": "Etobicoke—Lakeshore"
          }
        ],
        "pollDivisionIds": [
          10138144
        ],
        "postalCode": "M8Z3N3",
        "streetName": "BRENTWOOD",
        "streetDirectionId": "S",
        "streetTypeId": "RD",
        "placeName": "ETOBICOKE",
        "streetNameDisplayText": "BRENTWOOD RD S, ETOBICOKE"
      }
    ]
  },
  {
    "postal": "M8Z7S3",
    "result": []
  },
  {
    "postal": "M8Z3V9",
    "result": [
      {
        "electoralDistricts": [
          {
            "election": null,
            "id": 29,
            "name": "Etobicoke—Lakeshore"
          }
        ],
        "pollDivisionIds": [
          10138154
        ],
        "postalCode": "M8Z3V9",
        "streetName": "FERNALROY",
        "streetDirectionId": null,
        "streetTypeId": "BLVD",
        "placeName": "ETOBICOKE",
        "streetNameDisplayText": "FERNALROY BLVD, ETOBICOKE"
      }
    ]
  },
  {
    "postal": "M8Z9N7",
    "result": []
  },
  {
    "postal": "M8Z0G4",
    "result": []
  },
  {
    "postal": "M8Z2E2",
    "result": [
      {
        "electoralDistricts": [
          {
            "election": null,
            "id": 29,
            "name": "Etobicoke—Lakeshore"
          }
        ],
        "pollDivisionIds": [
          10138160
        ],
        "postalCode": "M8Z2E2",
        "streetName": "NORTH QUEEN",
        "streetDirectionId": null,
        "streetTypeId": "ST",
        "placeName": "ETOBICOKE",
        "streetNameDisplayText": "NORTH QUEEN ST, ETOBICOKE"
      }
    ]
  },
  {
    "postal": "M8Z7W8",
    "result": []
  },
  {
    "postal": "M8Z7M5",
    "result": []
  },
  {
    "postal": "M8Z5W8",
    "result": [
      {
        "electoralDistricts": [
          {
            "election": null,
            "id": 29,
            "name": "Etobicoke—Lakeshore"
          }
        ],
        "pollDivisionIds": [
          10143883
        ],
        "postalCode": "M8Z5W8",
        "streetName": "ISLINGTON",
        "streetDirectionId": null,
        "streetTypeId": "AVE",
        "placeName": "ETOBICOKE",
        "streetNameDisplayText": "ISLINGTON AVE, ETOBICOKE"
      }
    ]
  },
  {
    "postal": "M8Z5E5",
    "result": []
  },
  {
    "postal": "M8Z1P9",
    "result": []
  },
  {
    "postal": "M8Z8V8",
    "result": []
  },
  {
    "postal": "M8Z9G8",
    "result": []
  },
  {
    "postal": "M8Z8H9",
    "result": []
  },
  {
    "postal": "M8Z1Z1",
    "result": [
      {
        "electoralDistricts": [
          {
            "election": null,
            "id": 29,
            "name": "Etobicoke—Lakeshore"
          }
        ],
        "pollDivisionIds": [
          10138155
        ],
        "postalCode": "M8Z1Z1",
        "streetName": "UNO",
        "streetDirectionId": null,
        "streetTypeId": "CRT",
        "placeName": "ETOBICOKE",
        "streetNameDisplayText": "UNO CRT, ETOBICOKE"
      }
    ]
  },
  {
    "postal": "M8Z8M3",
    "result": []
  },
  {
    "postal": "M8Z5H6",
    "result": [
      {
        "electoralDistricts": [
          {
            "election": null,
            "id": 29,
            "name": "Etobicoke—Lakeshore"
          }
        ],
        "pollDivisionIds": [
          10138160
        ],
        "postalCode": "M8Z5H6",
        "streetName": "QUEENSWAY LIONS",
        "streetDirectionId": null,
        "streetTypeId": "CRT",
        "placeName": "ETOBICOKE",
        "streetNameDisplayText": "QUEENSWAY LIONS CRT, ETOBICOKE"
      }
    ]
  },
  {
    "postal": "M8Z7W7",
    "result": []
  },
  {
    "postal": "M8Z4L0",
    "result": []
  },
  {
    "postal": "M8Z2N1",
    "result": [
      {
        "electoralDistricts": [
          {
            "election": null,
            "id": 29,
            "name": "Etobicoke—Lakeshore"
          }
        ],
        "pollDivisionIds": [
          10138154
        ],
        "postalCode": "M8Z2N1",
        "streetName": "BADGER",
        "streetDirectionId": null,
        "streetTypeId": "DR",
        "placeName": "ETOBICOKE",
        "streetNameDisplayText": "BADGER DR, ETOBICOKE"
      }
    ]
  },
  {
    "postal": "M8Z2H4",
    "result": []
  },
  {
    "postal": "M8Z5C8",
    "result": []
  },
  {
    "postal": "M8Z8B0",
    "result": []
  },
  {
    "postal": "M8Z1T4",
    "result": []
  },
  {
    "postal": "M8Z7N7",
    "result": []
  },
  {
    "postal": "M8Z4L3",
    "result": [
      {
        "electoralDistricts": [
          {
            "election": null,
            "id": 29,
            "name": "Etobicoke—Lakeshore"
          }
        ],
        "pollDivisionIds": [
          10138154
        ],
        "postalCode": "M8Z4L3",
        "streetName": "LOTHIAN",
        "streetDirectionId": null,
        "streetTypeId": "AVE",
        "placeName": "ETOBICOKE",
        "streetNameDisplayText": "LOTHIAN AVE, ETOBICOKE"
      }
    ]
  },
  {
    "postal": "M8Z2N2",
    "result": [
      {
        "electoralDistricts": [
          {
            "election": null,
            "id": 29,
            "name": "Etobicoke—Lakeshore"
          }
        ],
        "pollDivisionIds": [
          10138154
        ],
        "postalCode": "M8Z2N2",
        "streetName": "VELMA",
        "streetDirectionId": null,
        "streetTypeId": "DR",
        "placeName": "ETOBICOKE",
        "streetNameDisplayText": "VELMA DR, ETOBICOKE"
      }
    ]
  },
  {
    "postal": "M8Z4N8",
    "result": [
      {
        "electoralDistricts": [
          {
            "election": null,
            "id": 29,
            "name": "Etobicoke—Lakeshore"
          }
        ],
        "pollDivisionIds": [
          10143883
        ],
        "postalCode": "M8Z4N8",
        "streetName": "ISLINGTON",
        "streetDirectionId": null,
        "streetTypeId": "AVE",
        "placeName": "ETOBICOKE",
        "streetNameDisplayText": "ISLINGTON AVE, ETOBICOKE"
      }
    ]
  },
  {
    "postal": "M8Z3M5",
    "result": [
      {
        "electoralDistricts": [
          {
            "election": null,
            "id": 29,
            "name": "Etobicoke—Lakeshore"
          }
        ],
        "pollDivisionIds": [
          10138151
        ],
        "postalCode": "M8Z3M5",
        "streetName": "LORAHILL",
        "streetDirectionId": null,
        "streetTypeId": "RD",
        "placeName": "ETOBICOKE",
        "streetNameDisplayText": "LORAHILL RD, ETOBICOKE"
      }
    ]
  },
  {
    "postal": "M8Z6H7",
    "result": []
  },
  {
    "postal": "M8Z8Y8",
    "result": []
  },
  {
    "postal": "M8Z5R9",
    "result": []
  },
  {
    "postal": "M8Z8G3",
    "result": []
  },
  {
    "postal": "M8Z4N7",
    "result": []
  },
  {
    "postal": "M8Z0B9",
    "result": [
      {
        "electoralDistricts": [
          {
            "election": null,
            "id": 29,
            "name": "Etobicoke—Lakeshore"
          }
        ],
        "pollDivisionIds": [
          10143891
        ],
        "postalCode": "M8Z0B9",
        "streetName": "FIELDWAY",
        "streetDirectionId": null,
        "streetTypeId": "RD",
        "placeName": "ETOBICOKE",
        "streetNameDisplayText": "FIELDWAY RD, ETOBICOKE"
      }
    ]
  },
  {
    "postal": "M8Z9K7",
    "result": []
  },
  {
    "postal": "M8Z9K9",
    "result": []
  },
  {
    "postal": "M8Z3Z2",
    "result": [
      {
        "electoralDistricts": [
          {
            "election": null,
            "id": 29,
            "name": "Etobicoke—Lakeshore"
          }
        ],
        "pollDivisionIds": [
          10138155
        ],
        "postalCode": "M8Z3Z2",
        "streetName": "COCHRANE",
        "streetDirectionId": null,
        "streetTypeId": "DR",
        "placeName": "ETOBICOKE",
        "streetNameDisplayText": "COCHRANE DR, ETOBICOKE"
      }
    ]
  },
  {
    "postal": "M8Z6W7",
    "result": []
  },
  {
    "postal": "M8Z0P1",
    "result": []
  },
  {
    "postal": "M8Z3A0",
    "result": []
  },
  {
    "postal": "M8Z8L9",
    "result": []
  },
  {
    "postal": "M8Z6X0",
    "result": []
  },
  {
    "postal": "M8Z3E9",
    "result": [
      {
        "electoralDistricts": [
          {
            "election": null,
            "id": 29,
            "name": "Etobicoke—Lakeshore"
          }
        ],
        "pollDivisionIds": [
          10138151
        ],
        "postalCode": "M8Z3E9",
        "streetName": "VAN DUSEN",
        "streetDirectionId": null,
        "streetTypeId": "BLVD",
        "placeName": "ETOBICOKE",
        "streetNameDisplayText": "VAN DUSEN BLVD, ETOBICOKE"
      }
    ]
  },
  {
    "postal": "M8Z0S5",
    "result": []
  },
  {
    "postal": "M8Z1A2",
    "result": [
      {
        "electoralDistricts": [
          {
            "election": null,
            "id": 29,
            "name": "Etobicoke—Lakeshore"
          }
        ],
        "pollDivisionIds": [
          10138171
        ],
        "postalCode": "M8Z1A2",
        "streetName": "TOWNS",
        "streetDirectionId": null,
        "streetTypeId": "RD",
        "placeName": "ETOBICOKE",
        "streetNameDisplayText": "TOWNS RD, ETOBICOKE"
      }
    ]
  },
  {
    "postal": "M8Z5V8",
    "result": []
  },
  {
    "postal": "M8Z8C5",
    "result": []
  },
  {
    "postal": "M8Z6N0",
    "result": []
  },
  {
    "postal": "M8Z9E6",
    "result": []
  },
  {
    "postal": "M8Z5J7",
    "result": []
  },
  {
    "postal": "M8Z2R2",
    "result": [
      {
        "electoralDistricts": [
          {
            "election": null,
            "id": 29,
            "name": "Etobicoke—Lakeshore"
          }
        ],
        "pollDivisionIds": [
          10138154
        ],
        "postalCode": "M8Z2R2",
        "streetName": "NORSEMAN",
        "streetDirectionId": null,
        "streetTypeId": "ST",
        "placeName": "ETOBICOKE",
        "streetNameDisplayText": "NORSEMAN ST, ETOBICOKE"
      }
    ]
  },
  {
    "postal": "M8Z0P5",
    "result": []
  },
  {
    "postal": "M8Z5A7",
    "result": []
  },
  {
    "postal": "M8Z1G1",
    "result": [
      {
        "electoralDistricts": [
          {
            "election": null,
            "id": 29,
            "name": "Etobicoke—Lakeshore"
          }
        ],
        "pollDivisionIds": [
          10143883
        ],
        "postalCode": "M8Z1G1",
        "streetName": "HAY",
        "streetDirectionId": null,
        "streetTypeId": "AVE",
        "placeName": "ETOBICOKE",
        "streetNameDisplayText": "HAY AVE, ETOBICOKE"
      }
    ]
  },
  {
    "postal": "M8Z9R6",
    "result": []
  },
  {
    "postal": "M8Z4Z9",
    "result": [
      {
        "electoralDistricts": [
          {
            "election": null,
            "id": 29,
            "name": "Etobicoke—Lakeshore"
          }
        ],
        "pollDivisionIds": [
          10138154
        ],
        "postalCode": "M8Z4Z9",
        "streetName": "TRUEMAN",
        "streetDirectionId": null,
        "streetTypeId": "AVE",
        "placeName": "ETOBICOKE",
        "streetNameDisplayText": "TRUEMAN AVE, ETOBICOKE"
      }
    ]
  },
  {
    "postal": "M8Z1V5",
    "result": []
  },
  {
    "postal": "M8Z9Y5",
    "result": []
  },
  {
    "postal": "M8Z1P2",
    "result": [
      {
        "electoralDistricts": [
          {
            "election": null,
            "id": 29,
            "name": "Etobicoke—Lakeshore"
          }
        ],
        "pollDivisionIds": [
          10138155
        ],
        "postalCode": "M8Z1P2",
        "streetName": "THE QUEENSWAY",
        "streetDirectionId": null,
        "streetTypeId": null,
        "placeName": "ETOBICOKE",
        "streetNameDisplayText": "THE QUEENSWAY, ETOBICOKE"
      }
    ]
  },
  {
    "postal": "M8Z5X0",
    "result": []
  },
  {
    "postal": "M8Z7B8",
    "result": []
  },
  {
    "postal": "M8Z0C6",
    "result": [
      {
        "electoralDistricts": [
          {
            "election": null,
            "id": 29,
            "name": "Etobicoke—Lakeshore"
          }
        ],
        "pollDivisionIds": [
          10138154
        ],
        "postalCode": "M8Z0C6",
        "streetName": "THE QUEENSWAY",
        "streetDirectionId": null,
        "streetTypeId": null,
        "placeName": "ETOBICOKE",
        "streetNameDisplayText": "THE QUEENSWAY, ETOBICOKE"
      }
    ]
  },
  {
    "postal": "M8Z6G1",
    "result": []
  },
  {
    "postal": "M8Z3K3",
    "result": [
      {
        "electoralDistricts": [
          {
            "election": null,
            "id": 29,
            "name": "Etobicoke—Lakeshore"
          }
        ],
        "pollDivisionIds": [
          10138144
        ],
        "postalCode": "M8Z3K3",
        "streetName": "MEADOWVALE",
        "streetDirectionId": null,
        "streetTypeId": "DR",
        "placeName": "ETOBICOKE",
        "streetNameDisplayText": "MEADOWVALE DR, ETOBICOKE"
      }
    ]
  },
  {
    "postal": "M8Z9R0",
    "result": []
  },
  {
    "postal": "M8Z4R8",
    "result": [
      {
        "electoralDistricts": [
          {
            "election": null,
            "id": 29,
            "name": "Etobicoke—Lakeshore"
          }
        ],
        "pollDivisionIds": [
          10138154
        ],
        "postalCode": "M8Z4R8",
        "streetName": "ISLINGTON",
        "streetDirectionId": null,
        "streetTypeId": "AVE",
        "placeName": "ETOBICOKE",
        "streetNameDisplayText": "ISLINGTON AVE, ETOBICOKE"
      }
    ]
  },
  {
    "postal": "M8Z5P9",
    "result": []
  },
  {
    "postal": "M8Z8N4",
    "result": []
  },
  {
    "postal": "M8Z8H4",
    "result": []
  },
  {
    "postal": "M8Z4V1",
    "result": [
      {
        "electoralDistricts": [
          {
            "election": null,
            "id": 29,
            "name": "Etobicoke—Lakeshore"
          }
        ],
        "pollDivisionIds": [
          10138154
        ],
        "postalCode": "M8Z4V1",
        "streetName": "RAMSBURY",
        "streetDirectionId": null,
        "streetTypeId": "RD",
        "placeName": "ETOBICOKE",
        "streetNameDisplayText": "RAMSBURY RD, ETOBICOKE"
      }
    ]
  },
  {
    "postal": "M8Z1K5",
    "result": [
      {
        "electoralDistricts": [
          {
            "election": null,
            "id": 29,
            "name": "Etobicoke—Lakeshore"
          }
        ],
        "pollDivisionIds": [
          10143883
        ],
        "postalCode": "M8Z1K5",
        "streetName": "EVANS",
        "streetDirectionId": null,
        "streetTypeId": "AVE",
        "placeName": "ETOBICOKE",
        "streetNameDisplayText": "EVANS AVE, ETOBICOKE"
      }
    ]
  },
  {
    "postal": "M8Z1Z5",
    "result": [
      {
        "electoralDistricts": [
          {
            "election": null,
            "id": 29,
            "name": "Etobicoke—Lakeshore"
          }
        ],
        "pollDivisionIds": [
          10138154
        ],
        "postalCode": "M8Z1Z5",
        "streetName": "WARNICA",
        "streetDirectionId": null,
        "streetTypeId": "AVE",
        "placeName": "ETOBICOKE",
        "streetNameDisplayText": "WARNICA AVE, ETOBICOKE"
      }
    ]
  },
  {
    "postal": "M8Z9L9",
    "result": []
  },
  {
    "postal": "M8Z5L2",
    "result": []
  },
  {
    "postal": "M8Z0M2",
    "result": []
  },
  {
    "postal": "M8Z1K8",
    "result": [
      {
        "electoralDistricts": [
          {
            "election": null,
            "id": 29,
            "name": "Etobicoke—Lakeshore"
          }
        ],
        "pollDivisionIds": [
          10138171
        ],
        "postalCode": "M8Z1K8",
        "streetName": "EVANS",
        "streetDirectionId": null,
        "streetTypeId": "AVE",
        "placeName": "ETOBICOKE",
        "streetNameDisplayText": "EVANS AVE, ETOBICOKE"
      }
    ]
  },
  {
    "postal": "M8Z3M7",
    "result": [
      {
        "electoralDistricts": [
          {
            "election": null,
            "id": 29,
            "name": "Etobicoke—Lakeshore"
          }
        ],
        "pollDivisionIds": [
          10138144
        ],
        "postalCode": "M8Z3M7",
        "streetName": "CLIVEDEN",
        "streetDirectionId": null,
        "streetTypeId": "AVE",
        "placeName": "ETOBICOKE",
        "streetNameDisplayText": "CLIVEDEN AVE, ETOBICOKE"
      }
    ]
  },
  {
    "postal": "M8Z1B2",
    "result": [
      {
        "electoralDistricts": [
          {
            "election": null,
            "id": 29,
            "name": "Etobicoke—Lakeshore"
          }
        ],
        "pollDivisionIds": [
          10143883
        ],
        "postalCode": "M8Z1B2",
        "streetName": "JUDSON",
        "streetDirectionId": null,
        "streetTypeId": "ST",
        "placeName": "ETOBICOKE",
        "streetNameDisplayText": "JUDSON ST, ETOBICOKE"
      }
    ]
  },
  {
    "postal": "M8Z0H9",
    "result": []
  },
  {
    "postal": "M8Z8M4",
    "result": []
  },
  {
    "postal": "M8Z2M5",
    "result": [
      {
        "electoralDistricts": [
          {
            "election": null,
            "id": 29,
            "name": "Etobicoke—Lakeshore"
          }
        ],
        "pollDivisionIds": [
          10138154
        ],
        "postalCode": "M8Z2M5",
        "streetName": "BADGER",
        "streetDirectionId": null,
        "streetTypeId": "DR",
        "placeName": "ETOBICOKE",
        "streetNameDisplayText": "BADGER DR, ETOBICOKE"
      }
    ]
  },
  {
    "postal": "M8Z0T9",
    "result": []
  },
  {
    "postal": "M8Z3P1",
    "result": [
      {
        "electoralDistricts": [
          {
            "election": null,
            "id": 29,
            "name": "Etobicoke—Lakeshore"
          }
        ],
        "pollDivisionIds": [
          10138155
        ],
        "postalCode": "M8Z3P1",
        "streetName": "UNO",
        "streetDirectionId": null,
        "streetTypeId": "DR",
        "placeName": "ETOBICOKE",
        "streetNameDisplayText": "UNO DR, ETOBICOKE"
      }
    ]
  },
  {
    "postal": "M8Z1R6",
    "result": [
      {
        "electoralDistricts": [
          {
            "election": null,
            "id": 29,
            "name": "Etobicoke—Lakeshore"
          }
        ],
        "pollDivisionIds": [
          10138154
        ],
        "postalCode": "M8Z1R6",
        "streetName": "THE QUEENSWAY",
        "streetDirectionId": null,
        "streetTypeId": null,
        "placeName": "ETOBICOKE",
        "streetNameDisplayText": "THE QUEENSWAY, ETOBICOKE"
      }
    ]
  },
  {
    "postal": "M8Z9V5",
    "result": []
  },
  {
    "postal": "M8Z9T0",
    "result": []
  },
  {
    "postal": "M8Z0A9",
    "result": []
  },
  {
    "postal": "M8Z1M3",
    "result": [
      {
        "electoralDistricts": [
          {
            "election": null,
            "id": 29,
            "name": "Etobicoke—Lakeshore"
          }
        ],
        "pollDivisionIds": [
          10138155
        ],
        "postalCode": "M8Z1M3",
        "streetName": "QUEEN ELIZABETH",
        "streetDirectionId": null,
        "streetTypeId": "BLVD",
        "placeName": "ETOBICOKE",
        "streetNameDisplayText": "QUEEN ELIZABETH BLVD, ETOBICOKE"
      }
    ]
  },
  {
    "postal": "M8Z1W8",
    "result": []
  },
  {
    "postal": "M8Z9J1",
    "result": []
  },
  {
    "postal": "M8Z8N5",
    "result": []
  },
  {
    "postal": "M8Z5X1",
    "result": [
      {
        "electoralDistricts": [
          {
            "election": null,
            "id": 29,
            "name": "Etobicoke—Lakeshore"
          }
        ],
        "pollDivisionIds": [
          10138160
        ],
        "postalCode": "M8Z5X1",
        "streetName": "THE EAST MALL",
        "streetDirectionId": null,
        "streetTypeId": "MALL",
        "placeName": "ETOBICOKE",
        "streetNameDisplayText": "THE EAST MALL MALL, ETOBICOKE"
      }
    ]
  },
  {
    "postal": "M8Z6S2",
    "result": []
  },
  {
    "postal": "M8Z2A2",
    "result": [
      {
        "electoralDistricts": [
          {
            "election": null,
            "id": 29,
            "name": "Etobicoke—Lakeshore"
          }
        ],
        "pollDivisionIds": [
          10138154
        ],
        "postalCode": "M8Z2A2",
        "streetName": "BRADFIELD",
        "streetDirectionId": null,
        "streetTypeId": "AVE",
        "placeName": "ETOBICOKE",
        "streetNameDisplayText": "BRADFIELD AVE, ETOBICOKE"
      }
    ]
  },
  {
    "postal": "M8Z6A6",
    "result": []
  },
  {
    "postal": "M8Z0S3",
    "result": []
  },
  {
    "postal": "M8Z3E7",
    "result": [
      {
        "electoralDistricts": [
          {
            "election": null,
            "id": 29,
            "name": "Etobicoke—Lakeshore"
          }
        ],
        "pollDivisionIds": [
          10138151
        ],
        "postalCode": "M8Z3E7",
        "streetName": "VAN DUSEN",
        "streetDirectionId": null,
        "streetTypeId": "BLVD",
        "placeName": "ETOBICOKE",
        "streetNameDisplayText": "VAN DUSEN BLVD, ETOBICOKE"
      }
    ]
  },
  {
    "postal": "M8Z5R7",
    "result": []
  },
  {
    "postal": "M8Z3R6",
    "result": [
      {
        "electoralDistricts": [
          {
            "election": null,
            "id": 29,
            "name": "Etobicoke—Lakeshore"
          }
        ],
        "pollDivisionIds": [
          10143883
        ],
        "postalCode": "M8Z3R6",
        "streetName": "DISTIN",
        "streetDirectionId": null,
        "streetTypeId": "AVE",
        "placeName": "ETOBICOKE",
        "streetNameDisplayText": "DISTIN AVE, ETOBICOKE"
      }
    ]
  },
  {
    "postal": "M8Z6K4",
    "result": []
  },
  {
    "postal": "M8Z2W5",
    "result": [
      {
        "electoralDistricts": [
          {
            "election": null,
            "id": 29,
            "name": "Etobicoke—Lakeshore"
          }
        ],
        "pollDivisionIds": [
          10138154
        ],
        "postalCode": "M8Z2W5",
        "streetName": "LEAMINGTON",
        "streetDirectionId": null,
        "streetTypeId": "AVE",
        "placeName": "ETOBICOKE",
        "streetNameDisplayText": "LEAMINGTON AVE, ETOBICOKE"
      }
    ]
  },
  {
    "postal": "M8Z8W4",
    "result": []
  },
  {
    "postal": "M8Z9C2",
    "result": []
  },
  {
    "postal": "M8Z2C0",
    "result": []
  },
  {
    "postal": "M8Z0E1",
    "result": [
      {
        "electoralDistricts": [
          {
            "election": null,
            "id": 29,
            "name": "Etobicoke—Lakeshore"
          }
        ],
        "pollDivisionIds": [
          10138155
        ],
        "postalCode": "M8Z0E1",
        "streetName": "THE QUEENSWAY",
        "streetDirectionId": null,
        "streetTypeId": null,
        "placeName": "ETOBICOKE",
        "streetNameDisplayText": "THE QUEENSWAY, ETOBICOKE"
      }
    ]
  },
  {
    "postal": "M8Z1K9",
    "result": [
      {
        "electoralDistricts": [
          {
            "election": null,
            "id": 29,
            "name": "Etobicoke—Lakeshore"
          }
        ],
        "pollDivisionIds": [
          10138171
        ],
        "postalCode": "M8Z1K9",
        "streetName": "EVANS",
        "streetDirectionId": null,
        "streetTypeId": "AVE",
        "placeName": "ETOBICOKE",
        "streetNameDisplayText": "EVANS AVE, ETOBICOKE"
      }
    ]
  },
  {
    "postal": "M8Z1G7",
    "result": [
      {
        "electoralDistricts": [
          {
            "election": null,
            "id": 29,
            "name": "Etobicoke—Lakeshore"
          }
        ],
        "pollDivisionIds": [
          10143883
        ],
        "postalCode": "M8Z1G7",
        "streetName": "MELROSE",
        "streetDirectionId": null,
        "streetTypeId": "ST",
        "placeName": "ETOBICOKE",
        "streetNameDisplayText": "MELROSE ST, ETOBICOKE"
      }
    ]
  },
  {
    "postal": "M8Z4E9",
    "result": [
      {
        "electoralDistricts": [
          {
            "election": null,
            "id": 29,
            "name": "Etobicoke—Lakeshore"
          }
        ],
        "pollDivisionIds": [
          10138155
        ],
        "postalCode": "M8Z4E9",
        "streetName": "CHARTWELL",
        "streetDirectionId": null,
        "streetTypeId": "RD",
        "placeName": "ETOBICOKE",
        "streetNameDisplayText": "CHARTWELL RD, ETOBICOKE"
      }
    ]
  },
  {
    "postal": "M8Z9P0",
    "result": []
  },
  {
    "postal": "M8Z5H3",
    "result": [
      {
        "electoralDistricts": [
          {
            "election": null,
            "id": 29,
            "name": "Etobicoke—Lakeshore"
          }
        ],
        "pollDivisionIds": [
          10143891
        ],
        "postalCode": "M8Z5H3",
        "streetName": "KIPLING",
        "streetDirectionId": null,
        "streetTypeId": "AVE",
        "placeName": "ETOBICOKE",
        "streetNameDisplayText": "KIPLING AVE, ETOBICOKE"
      }
    ]
  },
  {
    "postal": "M8Z9X6",
    "result": []
  },
  {
    "postal": "M8Z5N7",
    "result": []
  },
  {
    "postal": "M8Z5A6",
    "result": [
      {
        "electoralDistricts": [
          {
            "election": null,
            "id": 29,
            "name": "Etobicoke—Lakeshore"
          }
        ],
        "pollDivisionIds": [
          10143883
        ],
        "postalCode": "M8Z5A6",
        "streetName": "ARNOLD",
        "streetDirectionId": null,
        "streetTypeId": "ST",
        "placeName": "ETOBICOKE",
        "streetNameDisplayText": "ARNOLD ST, ETOBICOKE"
      }
    ]
  },
  {
    "postal": "M8Z4M0",
    "result": []
  },
  {
    "postal": "M8Z3V6",
    "result": [
      {
        "electoralDistricts": [
          {
            "election": null,
            "id": 29,
            "name": "Etobicoke—Lakeshore"
          }
        ],
        "pollDivisionIds": [
          10138151
        ],
        "postalCode": "M8Z3V6",
        "streetName": "FERNALROY",
        "streetDirectionId": null,
        "streetTypeId": "BLVD",
        "placeName": "ETOBICOKE",
        "streetNameDisplayText": "FERNALROY BLVD, ETOBICOKE"
      }
    ]
  },
  {
    "postal": "M8Z1L7",
    "result": []
  },
  {
    "postal": "M8Z2P9",
    "result": [
      {
        "electoralDistricts": [
          {
            "election": null,
            "id": 29,
            "name": "Etobicoke—Lakeshore"
          }
        ],
        "pollDivisionIds": [
          10138154
        ],
        "postalCode": "M8Z2P9",
        "streetName": "NORSEMAN",
        "streetDirectionId": null,
        "streetTypeId": "ST",
        "placeName": "ETOBICOKE",
        "streetNameDisplayText": "NORSEMAN ST, ETOBICOKE"
      }
    ]
  },
  {
    "postal": "M8Z5T4",
    "result": []
  },
  {
    "postal": "M8Z5Z1",
    "result": [
      {
        "electoralDistricts": [
          {
            "election": null,
            "id": 29,
            "name": "Etobicoke—Lakeshore"
          }
        ],
        "pollDivisionIds": [
          10138155
        ],
        "postalCode": "M8Z5Z1",
        "streetName": "THE QUEENSWAY",
        "streetDirectionId": null,
        "streetTypeId": null,
        "placeName": "ETOBICOKE",
        "streetNameDisplayText": "THE QUEENSWAY, ETOBICOKE"
      }
    ]
  },
  {
    "postal": "M8Z2X0",
    "result": []
  },
  {
    "postal": "M8Z6Z2",
    "result": []
  },
  {
    "postal": "M8Z0E0",
    "result": []
  },
  {
    "postal": "M8Z3Z5",
    "result": [
      {
        "electoralDistricts": [
          {
            "election": null,
            "id": 29,
            "name": "Etobicoke—Lakeshore"
          }
        ],
        "pollDivisionIds": [
          10138155
        ],
        "postalCode": "M8Z3Z5",
        "streetName": "LOMA",
        "streetDirectionId": null,
        "streetTypeId": "RD",
        "placeName": "ETOBICOKE",
        "streetNameDisplayText": "LOMA RD, ETOBICOKE"
      }
    ]
  },
  {
    "postal": "M8Z8H3",
    "result": []
  },
  {
    "postal": "M8Z7S6",
    "result": []
  },
  {
    "postal": "M8Z4C1",
    "result": [
      {
        "electoralDistricts": [
          {
            "election": null,
            "id": 29,
            "name": "Etobicoke—Lakeshore"
          }
        ],
        "pollDivisionIds": [
          10138144
        ],
        "postalCode": "M8Z4C1",
        "streetName": "GARDENVALE",
        "streetDirectionId": null,
        "streetTypeId": "RD",
        "placeName": "ETOBICOKE",
        "streetNameDisplayText": "GARDENVALE RD, ETOBICOKE"
      }
    ]
  },
  {
    "postal": "M8Z3K2",
    "result": [
      {
        "electoralDistricts": [
          {
            "election": null,
            "id": 29,
            "name": "Etobicoke—Lakeshore"
          }
        ],
        "pollDivisionIds": [
          10138151
        ],
        "postalCode": "M8Z3K2",
        "streetName": "MEADOWVALE",
        "streetDirectionId": null,
        "streetTypeId": "DR",
        "placeName": "ETOBICOKE",
        "streetNameDisplayText": "MEADOWVALE DR, ETOBICOKE"
      }
    ]
  },
  {
    "postal": "M8Z1Y5",
    "result": [
      {
        "electoralDistricts": [
          {
            "election": null,
            "id": 29,
            "name": "Etobicoke—Lakeshore"
          }
        ],
        "pollDivisionIds": [
          10138155
        ],
        "postalCode": "M8Z1Y5",
        "streetName": "INVERNESS",
        "streetDirectionId": null,
        "streetTypeId": "AVE",
        "placeName": "ETOBICOKE",
        "streetNameDisplayText": "INVERNESS AVE, ETOBICOKE"
      }
    ]
  },
  {
    "postal": "M8Z6P6",
    "result": []
  },
  {
    "postal": "M8Z3N9",
    "result": [
      {
        "electoralDistricts": [
          {
            "election": null,
            "id": 29,
            "name": "Etobicoke—Lakeshore"
          }
        ],
        "pollDivisionIds": [
          10138155
        ],
        "postalCode": "M8Z3N9",
        "streetName": "UNO",
        "streetDirectionId": null,
        "streetTypeId": "DR",
        "placeName": "ETOBICOKE",
        "streetNameDisplayText": "UNO DR, ETOBICOKE"
      }
    ]
  },
  {
    "postal": "M8Z3W2",
    "result": [
      {
        "electoralDistricts": [
          {
            "election": null,
            "id": 29,
            "name": "Etobicoke—Lakeshore"
          }
        ],
        "pollDivisionIds": [
          10138154
        ],
        "postalCode": "M8Z3W2",
        "streetName": "FERNALROY",
        "streetDirectionId": null,
        "streetTypeId": "BLVD",
        "placeName": "ETOBICOKE",
        "streetNameDisplayText": "FERNALROY BLVD, ETOBICOKE"
      }
    ]
  },
  {
    "postal": "M8Z6H8",
    "result": []
  },
  {
    "postal": "M8Z9T3",
    "result": []
  },
  {
    "postal": "M8Z5L9",
    "result": [
      {
        "electoralDistricts": [
          {
            "election": null,
            "id": 29,
            "name": "Etobicoke—Lakeshore"
          }
        ],
        "pollDivisionIds": [
          10138160
        ],
        "postalCode": "M8Z5L9",
        "streetName": "MEDULLA",
        "streetDirectionId": null,
        "streetTypeId": "AVE",
        "placeName": "ETOBICOKE",
        "streetNameDisplayText": "MEDULLA AVE, ETOBICOKE"
      }
    ]
  },
  {
    "postal": "M8Z7X7",
    "result": []
  },
  {
    "postal": "M8Z3J5",
    "result": [
      {
        "electoralDistricts": [
          {
            "election": null,
            "id": 29,
            "name": "Etobicoke—Lakeshore"
          }
        ],
        "pollDivisionIds": [
          10138151
        ],
        "postalCode": "M8Z3J5",
        "streetName": "MEADOWVALE",
        "streetDirectionId": null,
        "streetTypeId": "DR",
        "placeName": "ETOBICOKE",
        "streetNameDisplayText": "MEADOWVALE DR, ETOBICOKE"
      }
    ]
  },
  {
    "postal": "M8Z4J5",
    "result": [
      {
        "electoralDistricts": [
          {
            "election": null,
            "id": 29,
            "name": "Etobicoke—Lakeshore"
          }
        ],
        "pollDivisionIds": [
          10138155
        ],
        "postalCode": "M8Z4J5",
        "streetName": "LADY BANK",
        "streetDirectionId": null,
        "streetTypeId": "RD",
        "placeName": "ETOBICOKE",
        "streetNameDisplayText": "LADY BANK RD, ETOBICOKE"
      }
    ]
  },
  {
    "postal": "M8Z6J2",
    "result": []
  },
  {
    "postal": "M8Z5V6",
    "result": []
  },
  {
    "postal": "M8Z3N2",
    "result": [
      {
        "electoralDistricts": [
          {
            "election": null,
            "id": 29,
            "name": "Etobicoke—Lakeshore"
          }
        ],
        "pollDivisionIds": [
          10138144
        ],
        "postalCode": "M8Z3N2",
        "streetName": "BRENTWOOD",
        "streetDirectionId": "S",
        "streetTypeId": "RD",
        "placeName": "ETOBICOKE",
        "streetNameDisplayText": "BRENTWOOD RD S, ETOBICOKE"
      }
    ]
  },
  {
    "postal": "M8Z3B1",
    "result": [
      {
        "electoralDistricts": [
          {
            "election": null,
            "id": 29,
            "name": "Etobicoke—Lakeshore"
          }
        ],
        "pollDivisionIds": [
          10138154
        ],
        "postalCode": "M8Z3B1",
        "streetName": "BERING",
        "streetDirectionId": null,
        "streetTypeId": "AVE",
        "placeName": "ETOBICOKE",
        "streetNameDisplayText": "BERING AVE, ETOBICOKE"
      }
    ]
  },
  {
    "postal": "M8Z8B5",
    "result": []
  },
  {
    "postal": "M8Z0K1",
    "result": []
  },
  {
    "postal": "M8Z7M7",
    "result": []
  },
  {
    "postal": "M8Z2M2",
    "result": []
  },
  {
    "postal": "M8Z9N3",
    "result": []
  },
  {
    "postal": "M8Z4Y8",
    "result": [
      {
        "electoralDistricts": [
          {
            "election": null,
            "id": 29,
            "name": "Etobicoke—Lakeshore"
          }
        ],
        "pollDivisionIds": [
          10138154
        ],
        "postalCode": "M8Z4Y8",
        "streetName": "WOOLGAR",
        "streetDirectionId": null,
        "streetTypeId": "AVE",
        "placeName": "ETOBICOKE",
        "streetNameDisplayText": "WOOLGAR AVE, ETOBICOKE"
      }
    ]
  },
  {
    "postal": "M8Z3V7",
    "result": [
      {
        "electoralDistricts": [
          {
            "election": null,
            "id": 29,
            "name": "Etobicoke—Lakeshore"
          }
        ],
        "pollDivisionIds": [
          10138151
        ],
        "postalCode": "M8Z3V7",
        "streetName": "FERNALROY",
        "streetDirectionId": null,
        "streetTypeId": "BLVD",
        "placeName": "ETOBICOKE",
        "streetNameDisplayText": "FERNALROY BLVD, ETOBICOKE"
      }
    ]
  },
  {
    "postal": "M8Z8Z1",
    "result": []
  },
  {
    "postal": "M8Z7B3",
    "result": []
  },
  {
    "postal": "M8Z3A8",
    "result": [
      {
        "electoralDistricts": [
          {
            "election": null,
            "id": 29,
            "name": "Etobicoke—Lakeshore"
          }
        ],
        "pollDivisionIds": [
          10138154
        ],
        "postalCode": "M8Z3A8",
        "streetName": "BERING",
        "streetDirectionId": null,
        "streetTypeId": "AVE",
        "placeName": "ETOBICOKE",
        "streetNameDisplayText": "BERING AVE, ETOBICOKE"
      }
    ]
  },
  {
    "postal": "M8Z7V5",
    "result": []
  },
  {
    "postal": "M8Z2T2",
    "result": []
  },
  {
    "postal": "M8Z6L3",
    "result": []
  },
  {
    "postal": "M8Z0L2",
    "result": []
  },
  {
    "postal": "M8Z5Y8",
    "result": []
  },
  {
    "postal": "M8Z0B8",
    "result": [
      {
        "electoralDistricts": [
          {
            "election": null,
            "id": 29,
            "name": "Etobicoke—Lakeshore"
          }
        ],
        "pollDivisionIds": [
          10143883
        ],
        "postalCode": "M8Z0B8",
        "streetName": "RUBY LANG",
        "streetDirectionId": null,
        "streetTypeId": "LANE",
        "placeName": "ETOBICOKE",
        "streetNameDisplayText": "RUBY LANG LANE, ETOBICOKE"
      }
    ]
  },
  {
    "postal": "M8Z6R5",
    "result": []
  },
  {
    "postal": "M8Z8W6",
    "result": []
  },
  {
    "postal": "M8Z8G6",
    "result": []
  },
  {
    "postal": "M8Z6X3",
    "result": []
  },
  {
    "postal": "M8Z7R7",
    "result": []
  },
  {
    "postal": "M8Z4B6",
    "result": [
      {
        "electoralDistricts": [
          {
            "election": null,
            "id": 29,
            "name": "Etobicoke—Lakeshore"
          }
        ],
        "pollDivisionIds": [
          10138155
        ],
        "postalCode": "M8Z4B6",
        "streetName": "PLASTICS",
        "streetDirectionId": null,
        "streetTypeId": "AVE",
        "placeName": "ETOBICOKE",
        "streetNameDisplayText": "PLASTICS AVE, ETOBICOKE"
      }
    ]
  },
  {
    "postal": "M8Z3P9",
    "result": [
      {
        "electoralDistricts": [
          {
            "election": null,
            "id": 29,
            "name": "Etobicoke—Lakeshore"
          }
        ],
        "pollDivisionIds": [
          10138154
        ],
        "postalCode": "M8Z3P9",
        "streetName": "SEVENOAKS",
        "streetDirectionId": null,
        "streetTypeId": "AVE",
        "placeName": "ETOBICOKE",
        "streetNameDisplayText": "SEVENOAKS AVE, ETOBICOKE"
      }
    ]
  },
  {
    "postal": "M8Z2T3",
    "result": []
  },
  {
    "postal": "M8Z1M4",
    "result": []
  },
  {
    "postal": "M8Z0H1",
    "result": []
  },
  {
    "postal": "M8Z9W3",
    "result": []
  },
  {
    "postal": "M8Z6P1",
    "result": []
  },
  {
    "postal": "M8Z7G2",
    "result": []
  },
  {
    "postal": "M8Z4J9",
    "result": [
      {
        "electoralDistricts": [
          {
            "election": null,
            "id": 29,
            "name": "Etobicoke—Lakeshore"
          }
        ],
        "pollDivisionIds": [
          10138144
        ],
        "postalCode": "M8Z4J9",
        "streetName": "LOTHIAN",
        "streetDirectionId": null,
        "streetTypeId": "AVE",
        "placeName": "ETOBICOKE",
        "streetNameDisplayText": "LOTHIAN AVE, ETOBICOKE"
      }
    ]
  },
  {
    "postal": "M8Z9E4",
    "result": []
  },
  {
    "postal": "M8Z8H0",
    "result": []
  },
  {
    "postal": "M8Z4M7",
    "result": [
      {
        "electoralDistricts": [
          {
            "election": null,
            "id": 29,
            "name": "Etobicoke—Lakeshore"
          }
        ],
        "pollDivisionIds": [
          10138154
        ],
        "postalCode": "M8Z4M7",
        "streetName": "STOCKBRIDGE",
        "streetDirectionId": null,
        "streetTypeId": "AVE",
        "placeName": "ETOBICOKE",
        "streetNameDisplayText": "STOCKBRIDGE AVE, ETOBICOKE"
      }
    ]
  },
  {
    "postal": "M8Z2G9",
    "result": [
      {
        "electoralDistricts": [
          {
            "election": null,
            "id": 29,
            "name": "Etobicoke—Lakeshore"
          }
        ],
        "pollDivisionIds": [
          10138154
        ],
        "postalCode": "M8Z2G9",
        "streetName": "JUTLAND",
        "streetDirectionId": null,
        "streetTypeId": "RD",
        "placeName": "ETOBICOKE",
        "streetNameDisplayText": "JUTLAND RD, ETOBICOKE"
      }
    ]
  },
  {
    "postal": "M8Z8T2",
    "result": []
  },
  {
    "postal": "M8Z7G7",
    "result": []
  },
  {
    "postal": "M8Z4Z3",
    "result": [
      {
        "electoralDistricts": [
          {
            "election": null,
            "id": 29,
            "name": "Etobicoke—Lakeshore"
          }
        ],
        "pollDivisionIds": [
          10138154
        ],
        "postalCode": "M8Z4Z3",
        "streetName": "BRAWLEY",
        "streetDirectionId": null,
        "streetTypeId": "AVE",
        "placeName": "ETOBICOKE",
        "streetNameDisplayText": "BRAWLEY AVE, ETOBICOKE"
      }
    ]
  },
  {
    "postal": "M8Z5B3",
    "result": [
      {
        "electoralDistricts": [
          {
            "election": null,
            "id": 29,
            "name": "Etobicoke—Lakeshore"
          }
        ],
        "pollDivisionIds": [
          10143891
        ],
        "postalCode": "M8Z5B3",
        "streetName": "JUDGE",
        "streetDirectionId": null,
        "streetTypeId": "RD",
        "placeName": "ETOBICOKE",
        "streetNameDisplayText": "JUDGE RD, ETOBICOKE"
      }
    ]
  },
  {
    "postal": "M8Z1S7",
    "result": []
  },
  {
    "postal": "M8Z2N7",
    "result": [
      {
        "electoralDistricts": [
          {
            "election": null,
            "id": 29,
            "name": "Etobicoke—Lakeshore"
          }
        ],
        "pollDivisionIds": [
          10138154
        ],
        "postalCode": "M8Z2N7",
        "streetName": "LARSTONE",
        "streetDirectionId": null,
        "streetTypeId": "AVE",
        "placeName": "ETOBICOKE",
        "streetNameDisplayText": "LARSTONE AVE, ETOBICOKE"
      }
    ]
  },
  {
    "postal": "M8Z0H8",
    "result": []
  },
  {
    "postal": "M8Z7Z4",
    "result": []
  },
  {
    "postal": "M8Z7B1",
    "result": []
  },
  {
    "postal": "M8Z7P8",
    "result": []
  },
  {
    "postal": "M8Z7N0",
    "result": []
  },
  {
    "postal": "M8Z3Y5",
    "result": [
      {
        "electoralDistricts": [
          {
            "election": null,
            "id": 29,
            "name": "Etobicoke—Lakeshore"
          }
        ],
        "pollDivisionIds": [
          10143883
        ],
        "postalCode": "M8Z3Y5",
        "streetName": "ALAN",
        "streetDirectionId": null,
        "streetTypeId": "AVE",
        "placeName": "ETOBICOKE",
        "streetNameDisplayText": "ALAN AVE, ETOBICOKE"
      }
    ]
  },
  {
    "postal": "M8Z6K1",
    "result": []
  },
  {
    "postal": "M8Z9X5",
    "result": []
  },
  {
    "postal": "M8Z7S5",
    "result": []
  },
  {
    "postal": "M8Z0A4",
    "result": [
      {
        "electoralDistricts": [
          {
            "election": null,
            "id": 29,
            "name": "Etobicoke—Lakeshore"
          }
        ],
        "pollDivisionIds": [
          10138155
        ],
        "postalCode": "M8Z0A4",
        "streetName": "ISLINGTON",
        "streetDirectionId": null,
        "streetTypeId": "AVE",
        "placeName": "ETOBICOKE",
        "streetNameDisplayText": "ISLINGTON AVE, ETOBICOKE"
      }
    ]
  },
  {
    "postal": "M8Z4T5",
    "result": [
      {
        "electoralDistricts": [
          {
            "election": null,
            "id": 29,
            "name": "Etobicoke—Lakeshore"
          }
        ],
        "pollDivisionIds": [
          10143891
        ],
        "postalCode": "M8Z4T5",
        "streetName": "CLISSOLD",
        "streetDirectionId": null,
        "streetTypeId": "RD",
        "placeName": "ETOBICOKE",
        "streetNameDisplayText": "CLISSOLD RD, ETOBICOKE"
      }
    ]
  },
  {
    "postal": "M8Z5K1",
    "result": [
      {
        "electoralDistricts": [
          {
            "election": null,
            "id": 29,
            "name": "Etobicoke—Lakeshore"
          }
        ],
        "pollDivisionIds": [
          10138160
        ],
        "postalCode": "M8Z5K1",
        "streetName": "SHORNCLIFFE",
        "streetDirectionId": null,
        "streetTypeId": "RD",
        "placeName": "ETOBICOKE",
        "streetNameDisplayText": "SHORNCLIFFE RD, ETOBICOKE"
      }
    ]
  },
  {
    "postal": "M8Z0Z9",
    "result": []
  },
  {
    "postal": "M8Z7T2",
    "result": []
  },
  {
    "postal": "M8Z1L5",
    "result": [
      {
        "electoralDistricts": [
          {
            "election": null,
            "id": 29,
            "name": "Etobicoke—Lakeshore"
          }
        ],
        "pollDivisionIds": [
          10143883
        ],
        "postalCode": "M8Z1L5",
        "streetName": "OXFORD",
        "streetDirectionId": null,
        "streetTypeId": "ST",
        "placeName": "ETOBICOKE",
        "streetNameDisplayText": "OXFORD ST, ETOBICOKE"
      }
    ]
  },
  {
    "postal": "M8Z3N5",
    "result": [
      {
        "electoralDistricts": [
          {
            "election": null,
            "id": 29,
            "name": "Etobicoke—Lakeshore"
          }
        ],
        "pollDivisionIds": [
          10138151
        ],
        "postalCode": "M8Z3N5",
        "streetName": "BRENTWOOD",
        "streetDirectionId": "S",
        "streetTypeId": "RD",
        "placeName": "ETOBICOKE",
        "streetNameDisplayText": "BRENTWOOD RD S, ETOBICOKE"
      }
    ]
  },
  {
    "postal": "M8Z6H4",
    "result": []
  },
  {
    "postal": "M8Z5A5",
    "result": [
      {
        "electoralDistricts": [
          {
            "election": null,
            "id": 29,
            "name": "Etobicoke—Lakeshore"
          }
        ],
        "pollDivisionIds": [
          10143883
        ],
        "postalCode": "M8Z5A5",
        "streetName": "ARNOLD",
        "streetDirectionId": null,
        "streetTypeId": "ST",
        "placeName": "ETOBICOKE",
        "streetNameDisplayText": "ARNOLD ST, ETOBICOKE"
      }
    ]
  },
  {
    "postal": "M8Z3R9",
    "result": [
      {
        "electoralDistricts": [
          {
            "election": null,
            "id": 29,
            "name": "Etobicoke—Lakeshore"
          }
        ],
        "pollDivisionIds": [
          10138154
        ],
        "postalCode": "M8Z3R9",
        "streetName": "COLWYN",
        "streetDirectionId": null,
        "streetTypeId": "RD",
        "placeName": "ETOBICOKE",
        "streetNameDisplayText": "COLWYN RD, ETOBICOKE"
      }
    ]
  },
  {
    "postal": "M8Z7L8",
    "result": []
  },
  {
    "postal": "M8Z6T6",
    "result": []
  },
  {
    "postal": "M8Z7Y7",
    "result": []
  },
  {
    "postal": "M8Z3M8",
    "result": [
      {
        "electoralDistricts": [
          {
            "election": null,
            "id": 29,
            "name": "Etobicoke—Lakeshore"
          }
        ],
        "pollDivisionIds": [
          10138144
        ],
        "postalCode": "M8Z3M8",
        "streetName": "CLIVEDEN",
        "streetDirectionId": null,
        "streetTypeId": "AVE",
        "placeName": "ETOBICOKE",
        "streetNameDisplayText": "CLIVEDEN AVE, ETOBICOKE"
      }
    ]
  },
  {
    "postal": "M8Z2E0",
    "result": []
  },
  {
    "postal": "M8Z4B5",
    "result": [
      {
        "electoralDistricts": [
          {
            "election": null,
            "id": 29,
            "name": "Etobicoke—Lakeshore"
          }
        ],
        "pollDivisionIds": [
          10138151
        ],
        "postalCode": "M8Z4B5",
        "streetName": "DURBAN",
        "streetDirectionId": null,
        "streetTypeId": "RD",
        "placeName": "ETOBICOKE",
        "streetNameDisplayText": "DURBAN RD, ETOBICOKE"
      }
    ]
  },
  {
    "postal": "M8Z1J3",
    "result": [
      {
        "electoralDistricts": [
          {
            "election": null,
            "id": 29,
            "name": "Etobicoke—Lakeshore"
          }
        ],
        "pollDivisionIds": [
          10143883
        ],
        "postalCode": "M8Z1J3",
        "streetName": "EVANS",
        "streetDirectionId": null,
        "streetTypeId": "AVE",
        "placeName": "ETOBICOKE",
        "streetNameDisplayText": "EVANS AVE, ETOBICOKE"
      }
    ]
  },
  {
    "postal": "M8Z5S6",
    "result": []
  },
  {
    "postal": "M8Z8P7",
    "result": []
  },
  {
    "postal": "M8Z7S7",
    "result": []
  },
  {
    "postal": "M8Z4C2",
    "result": [
      {
        "electoralDistricts": [
          {
            "election": null,
            "id": 29,
            "name": "Etobicoke—Lakeshore"
          }
        ],
        "pollDivisionIds": [
          10138151
        ],
        "postalCode": "M8Z4C2",
        "streetName": "GARDENVALE",
        "streetDirectionId": null,
        "streetTypeId": "RD",
        "placeName": "ETOBICOKE",
        "streetNameDisplayText": "GARDENVALE RD, ETOBICOKE"
      }
    ]
  },
  {
    "postal": "M8Z5Y0",
    "result": []
  },
  {
    "postal": "M8Z2V7",
    "result": [
      {
        "electoralDistricts": [
          {
            "election": null,
            "id": 29,
            "name": "Etobicoke—Lakeshore"
          }
        ],
        "pollDivisionIds": [
          10138154
        ],
        "postalCode": "M8Z2V7",
        "streetName": "SAYBROOK",
        "streetDirectionId": null,
        "streetTypeId": "AVE",
        "placeName": "ETOBICOKE",
        "streetNameDisplayText": "SAYBROOK AVE, ETOBICOKE"
      }
    ]
  },
  {
    "postal": "M8Z8P5",
    "result": []
  },
  {
    "postal": "M8Z5P5",
    "result": []
  },
  {
    "postal": "M8Z5Z0",
    "result": []
  },
  {
    "postal": "M8Z9B0",
    "result": []
  },
  {
    "postal": "M8Z1L0",
    "result": []
  },
  {
    "postal": "M8Z0B5",
    "result": [
      {
        "electoralDistricts": [
          {
            "election": null,
            "id": 29,
            "name": "Etobicoke—Lakeshore"
          }
        ],
        "pollDivisionIds": [
          10143883
        ],
        "postalCode": "M8Z0B5",
        "streetName": "CORMIER",
        "streetDirectionId": null,
        "streetTypeId": "HTS",
        "placeName": "ETOBICOKE",
        "streetNameDisplayText": "CORMIER HTS, ETOBICOKE"
      }
    ]
  },
  {
    "postal": "M8Z3L2",
    "result": [
      {
        "electoralDistricts": [
          {
            "election": null,
            "id": 29,
            "name": "Etobicoke—Lakeshore"
          }
        ],
        "pollDivisionIds": [
          10143891
        ],
        "postalCode": "M8Z3L2",
        "streetName": "FIELDWAY",
        "streetDirectionId": null,
        "streetTypeId": "RD",
        "placeName": "ETOBICOKE",
        "streetNameDisplayText": "FIELDWAY RD, ETOBICOKE"
      }
    ]
  },
  {
    "postal": "M8Z3B7",
    "result": [
      {
        "electoralDistricts": [
          {
            "election": null,
            "id": 29,
            "name": "Etobicoke—Lakeshore"
          }
        ],
        "pollDivisionIds": [
          10138151
        ],
        "postalCode": "M8Z3B7",
        "streetName": "SPRINGBROOK",
        "streetDirectionId": null,
        "streetTypeId": "GDNS",
        "placeName": "ETOBICOKE",
        "streetNameDisplayText": "SPRINGBROOK GDNS, ETOBICOKE"
      }
    ]
  },
  {
    "postal": "M8Z8L1",
    "result": []
  },
  {
    "postal": "M8Z5M4",
    "result": []
  },
  {
    "postal": "M8Z4G9",
    "result": [
      {
        "electoralDistricts": [
          {
            "election": null,
            "id": 29,
            "name": "Etobicoke—Lakeshore"
          }
        ],
        "pollDivisionIds": [
          10138154
        ],
        "postalCode": "M8Z4G9",
        "streetName": "CHARTWELL",
        "streetDirectionId": null,
        "streetTypeId": "RD",
        "placeName": "ETOBICOKE",
        "streetNameDisplayText": "CHARTWELL RD, ETOBICOKE"
      }
    ]
  },
  {
    "postal": "M8Z0P0",
    "result": []
  },
  {
    "postal": "M8Z8G2",
    "result": []
  },
  {
    "postal": "M8Z1V9",
    "result": []
  },
  {
    "postal": "M8Z8N8",
    "result": []
  },
  {
    "postal": "M8Z6S8",
    "result": []
  },
  {
    "postal": "M8Z8H2",
    "result": []
  },
  {
    "postal": "M8Z5R8",
    "result": []
  },
  {
    "postal": "M8Z5L4",
    "result": []
  },
  {
    "postal": "M8Z9E1",
    "result": []
  },
  {
    "postal": "M8Z1C4",
    "result": [
      {
        "electoralDistricts": [
          {
            "election": null,
            "id": 29,
            "name": "Etobicoke—Lakeshore"
          }
        ],
        "pollDivisionIds": [
          10143883
        ],
        "postalCode": "M8Z1C4",
        "streetName": "ALDEN",
        "streetDirectionId": null,
        "streetTypeId": "AVE",
        "placeName": "ETOBICOKE",
        "streetNameDisplayText": "ALDEN AVE, ETOBICOKE"
      }
    ]
  },
  {
    "postal": "M8Z8W5",
    "result": []
  },
  {
    "postal": "M8Z1Y4",
    "result": [
      {
        "electoralDistricts": [
          {
            "election": null,
            "id": 29,
            "name": "Etobicoke—Lakeshore"
          }
        ],
        "pollDivisionIds": [
          10138155
        ],
        "postalCode": "M8Z1Y4",
        "streetName": "INVERNESS",
        "streetDirectionId": null,
        "streetTypeId": "AVE",
        "placeName": "ETOBICOKE",
        "streetNameDisplayText": "INVERNESS AVE, ETOBICOKE"
      }
    ]
  },
  {
    "postal": "M8Z1C0",
    "result": []
  },
  {
    "postal": "M8Z2J2",
    "result": [
      {
        "electoralDistricts": [
          {
            "election": null,
            "id": 29,
            "name": "Etobicoke—Lakeshore"
          }
        ],
        "pollDivisionIds": [
          10138154
        ],
        "postalCode": "M8Z2J2",
        "streetName": "ABERLADY",
        "streetDirectionId": null,
        "streetTypeId": "RD",
        "placeName": "ETOBICOKE",
        "streetNameDisplayText": "ABERLADY RD, ETOBICOKE"
      }
    ]
  },
  {
    "postal": "M8Z2J0",
    "result": []
  },
  {
    "postal": "M8Z7A3",
    "result": []
  },
  {
    "postal": "M8Z8M1",
    "result": []
  },
  {
    "postal": "M8Z7T9",
    "result": []
  },
  {
    "postal": "M8Z6C0",
    "result": []
  },
  {
    "postal": "M8Z7X1",
    "result": []
  },
  {
    "postal": "M8Z0G1",
    "result": []
  },
  {
    "postal": "M8Z4X2",
    "result": [
      {
        "electoralDistricts": [
          {
            "election": null,
            "id": 29,
            "name": "Etobicoke—Lakeshore"
          }
        ],
        "pollDivisionIds": [
          10143891
        ],
        "postalCode": "M8Z4X2",
        "streetName": "CARYSFORT",
        "streetDirectionId": null,
        "streetTypeId": "RD",
        "placeName": "ETOBICOKE",
        "streetNameDisplayText": "CARYSFORT RD, ETOBICOKE"
      }
    ]
  },
  {
    "postal": "M8Z0N6",
    "result": []
  },
  {
    "postal": "M8Z8E3",
    "result": []
  },
  {
    "postal": "M8Z5S8",
    "result": [
      {
        "electoralDistricts": [
          {
            "election": null,
            "id": 29,
            "name": "Etobicoke—Lakeshore"
          }
        ],
        "pollDivisionIds": [
          10143883
        ],
        "postalCode": "M8Z5S8",
        "streetName": "GOLDTHORNE",
        "streetDirectionId": null,
        "streetTypeId": "AVE",
        "placeName": "ETOBICOKE",
        "streetNameDisplayText": "GOLDTHORNE AVE, ETOBICOKE"
      }
    ]
  },
  {
    "postal": "M8Z0R0",
    "result": []
  },
  {
    "postal": "M8Z6J6",
    "result": []
  },
  {
    "postal": "M8Z4B4",
    "result": [
      {
        "electoralDistricts": [
          {
            "election": null,
            "id": 29,
            "name": "Etobicoke—Lakeshore"
          }
        ],
        "pollDivisionIds": [
          10138151
        ],
        "postalCode": "M8Z4B4",
        "streetName": "DURBAN",
        "streetDirectionId": null,
        "streetTypeId": "RD",
        "placeName": "ETOBICOKE",
        "streetNameDisplayText": "DURBAN RD, ETOBICOKE"
      }
    ]
  },
  {
    "postal": "M8Z7E3",
    "result": []
  },
  {
    "postal": "M8Z3N6",
    "result": [
      {
        "electoralDistricts": [
          {
            "election": null,
            "id": 29,
            "name": "Etobicoke—Lakeshore"
          }
        ],
        "pollDivisionIds": [
          10138155
        ],
        "postalCode": "M8Z3N6",
        "streetName": "UNO",
        "streetDirectionId": null,
        "streetTypeId": "DR",
        "placeName": "ETOBICOKE",
        "streetNameDisplayText": "UNO DR, ETOBICOKE"
      }
    ]
  },
  {
    "postal": "M8Z3X6",
    "result": [
      {
        "electoralDistricts": [
          {
            "election": null,
            "id": 29,
            "name": "Etobicoke—Lakeshore"
          }
        ],
        "pollDivisionIds": [
          10143883
        ],
        "postalCode": "M8Z3X6",
        "streetName": "CARNARVON",
        "streetDirectionId": null,
        "streetTypeId": "AVE",
        "placeName": "ETOBICOKE",
        "streetNameDisplayText": "CARNARVON AVE, ETOBICOKE"
      }
    ]
  },
  {
    "postal": "M8Z8L0",
    "result": []
  },
  {
    "postal": "M8Z8N1",
    "result": []
  },
  {
    "postal": "M8Z4J0",
    "result": []
  },
  {
    "postal": "M8Z0X7",
    "result": []
  },
  {
    "postal": "M8Z6S4",
    "result": []
  },
  {
    "postal": "M8Z0Z0",
    "result": []
  },
  {
    "postal": "M8Z9X8",
    "result": []
  },
  {
    "postal": "M8Z3H3",
    "result": [
      {
        "electoralDistricts": [
          {
            "election": null,
            "id": 29,
            "name": "Etobicoke—Lakeshore"
          }
        ],
        "pollDivisionIds": [
          10143891
        ],
        "postalCode": "M8Z3H3",
        "streetName": "VAN DUSEN",
        "streetDirectionId": null,
        "streetTypeId": "BLVD",
        "placeName": "ETOBICOKE",
        "streetNameDisplayText": "VAN DUSEN BLVD, ETOBICOKE"
      }
    ]
  },
  {
    "postal": "M8Z7S2",
    "result": []
  },
  {
    "postal": "M8Z3T3",
    "result": [
      {
        "electoralDistricts": [
          {
            "election": null,
            "id": 29,
            "name": "Etobicoke—Lakeshore"
          }
        ],
        "pollDivisionIds": [
          10138144
        ],
        "postalCode": "M8Z3T3",
        "streetName": "THOMPSON",
        "streetDirectionId": null,
        "streetTypeId": "AVE",
        "placeName": "ETOBICOKE",
        "streetNameDisplayText": "THOMPSON AVE, ETOBICOKE"
      }
    ]
  },
  {
    "postal": "M8Z9P3",
    "result": []
  },
  {
    "postal": "M8Z4H8",
    "result": [
      {
        "electoralDistricts": [
          {
            "election": null,
            "id": 29,
            "name": "Etobicoke—Lakeshore"
          }
        ],
        "pollDivisionIds": [
          10138151
        ],
        "postalCode": "M8Z4H8",
        "streetName": "EAGLE",
        "streetDirectionId": null,
        "streetTypeId": "RD",
        "placeName": "ETOBICOKE",
        "streetNameDisplayText": "EAGLE RD, ETOBICOKE"
      }
    ]
  },
  {
    "postal": "M8Z6R1",
    "result": []
  },
  {
    "postal": "M8Z1S0",
    "result": []
  },
  {
    "postal": "M8Z3W8",
    "result": [
      {
        "electoralDistricts": [
          {
            "election": null,
            "id": 29,
            "name": "Etobicoke—Lakeshore"
          }
        ],
        "pollDivisionIds": [
          10138151
        ],
        "postalCode": "M8Z3W8",
        "streetName": "SPRING GARDEN",
        "streetDirectionId": null,
        "streetTypeId": "RD",
        "placeName": "ETOBICOKE",
        "streetNameDisplayText": "SPRING GARDEN RD, ETOBICOKE"
      }
    ]
  },
  {
    "postal": "M8Z4S3",
    "result": [
      {
        "electoralDistricts": [
          {
            "election": null,
            "id": 29,
            "name": "Etobicoke—Lakeshore"
          }
        ],
        "pollDivisionIds": [
          10138151
        ],
        "postalCode": "M8Z4S3",
        "streetName": "ISLINGTON",
        "streetDirectionId": null,
        "streetTypeId": "AVE",
        "placeName": "ETOBICOKE",
        "streetNameDisplayText": "ISLINGTON AVE, ETOBICOKE"
      }
    ]
  },
  {
    "postal": "M8Z1B6",
    "result": []
  },
  {
    "postal": "M8Z8R3",
    "result": []
  },
  {
    "postal": "M8Z4V9",
    "result": [
      {
        "electoralDistricts": [
          {
            "election": null,
            "id": 29,
            "name": "Etobicoke—Lakeshore"
          }
        ],
        "pollDivisionIds": [
          10143891
        ],
        "postalCode": "M8Z4V9",
        "streetName": "WILLROD",
        "streetDirectionId": null,
        "streetTypeId": "RD",
        "placeName": "ETOBICOKE",
        "streetNameDisplayText": "WILLROD RD, ETOBICOKE"
      }
    ]
  },
  {
    "postal": "M8Z9W4",
    "result": []
  },
  {
    "postal": "M8Z3T4",
    "result": [
      {
        "electoralDistricts": [
          {
            "election": null,
            "id": 29,
            "name": "Etobicoke—Lakeshore"
          }
        ],
        "pollDivisionIds": [
          10138151
        ],
        "postalCode": "M8Z3T4",
        "streetName": "THOMPSON",
        "streetDirectionId": null,
        "streetTypeId": "AVE",
        "placeName": "ETOBICOKE",
        "streetNameDisplayText": "THOMPSON AVE, ETOBICOKE"
      }
    ]
  },
  {
    "postal": "M8Z5C7",
    "result": [
      {
        "electoralDistricts": [
          {
            "election": null,
            "id": 29,
            "name": "Etobicoke—Lakeshore"
          }
        ],
        "pollDivisionIds": [
          10143883
        ],
        "postalCode": "M8Z5C7",
        "streetName": "KIPLING",
        "streetDirectionId": null,
        "streetTypeId": "AVE",
        "placeName": "ETOBICOKE",
        "streetNameDisplayText": "KIPLING AVE, ETOBICOKE"
      }
    ]
  },
  {
    "postal": "M8Z3Y1",
    "result": [
      {
        "electoralDistricts": [
          {
            "election": null,
            "id": 29,
            "name": "Etobicoke—Lakeshore"
          }
        ],
        "pollDivisionIds": [
          10143883
        ],
        "postalCode": "M8Z3Y1",
        "streetName": "O'DONNELL",
        "streetDirectionId": null,
        "streetTypeId": "AVE",
        "placeName": "ETOBICOKE",
        "streetNameDisplayText": "O'DONNELL AVE, ETOBICOKE"
      }
    ]
  },
  {
    "postal": "M8Z5V0",
    "result": []
  },
  {
    "postal": "M8Z8G8",
    "result": []
  },
  {
    "postal": "M8Z8B1",
    "result": []
  },
  {
    "postal": "M8Z4P5",
    "result": [
      {
        "electoralDistricts": [
          {
            "election": null,
            "id": 29,
            "name": "Etobicoke—Lakeshore"
          }
        ],
        "pollDivisionIds": [
          10138154
        ],
        "postalCode": "M8Z4P5",
        "streetName": "ISLINGTON",
        "streetDirectionId": null,
        "streetTypeId": "AVE",
        "placeName": "ETOBICOKE",
        "streetNameDisplayText": "ISLINGTON AVE, ETOBICOKE"
      }
    ]
  },
  {
    "postal": "M8Z7B2",
    "result": []
  },
  {
    "postal": "M8Z0R2",
    "result": []
  },
  {
    "postal": "M8Z4M4",
    "result": [
      {
        "electoralDistricts": [
          {
            "election": null,
            "id": 29,
            "name": "Etobicoke—Lakeshore"
          }
        ],
        "pollDivisionIds": [
          10138154
        ],
        "postalCode": "M8Z4M4",
        "streetName": "KINGSCROSS",
        "streetDirectionId": null,
        "streetTypeId": "SQ",
        "placeName": "ETOBICOKE",
        "streetNameDisplayText": "KINGSCROSS SQ, ETOBICOKE"
      }
    ]
  },
  {
    "postal": "M8Z7M4",
    "result": []
  },
  {
    "postal": "M8Z9S7",
    "result": []
  },
  {
    "postal": "M8Z5Z7",
    "result": [
      {
        "electoralDistricts": [
          {
            "election": null,
            "id": 29,
            "name": "Etobicoke—Lakeshore"
          }
        ],
        "pollDivisionIds": [
          10138155
        ],
        "postalCode": "M8Z5Z7",
        "streetName": "THE QUEENSWAY",
        "streetDirectionId": null,
        "streetTypeId": null,
        "placeName": "ETOBICOKE",
        "streetNameDisplayText": "THE QUEENSWAY, ETOBICOKE"
      }
    ]
  },
  {
    "postal": "M8Z7J7",
    "result": []
  },
  {
    "postal": "M8Z8R8",
    "result": []
  },
  {
    "postal": "M8Z9X1",
    "result": []
  },
  {
    "postal": "M8Z5M9",
    "result": []
  },
  {
    "postal": "M8Z9B4",
    "result": []
  },
  {
    "postal": "M8Z0L9",
    "result": []
  },
  {
    "postal": "M8Z9G4",
    "result": []
  },
  {
    "postal": "M8Z1J4",
    "result": [
      {
        "electoralDistricts": [
          {
            "election": null,
            "id": 29,
            "name": "Etobicoke—Lakeshore"
          }
        ],
        "pollDivisionIds": [
          10143883
        ],
        "postalCode": "M8Z1J4",
        "streetName": "EVANS",
        "streetDirectionId": null,
        "streetTypeId": "AVE",
        "placeName": "ETOBICOKE",
        "streetNameDisplayText": "EVANS AVE, ETOBICOKE"
      }
    ]
  },
  {
    "postal": "M8Z0W6",
    "result": []
  }
]
