[
  {
    "postal": "N1G9J6",
    "result": []
  },
  {
    "postal": "N1G9Z5",
    "result": []
  },
  {
    "postal": "N1G7H8",
    "result": []
  },
  {
    "postal": "N1G0P6",
    "result": []
  },
  {
    "postal": "N1G0S7",
    "result": []
  },
  {
    "postal": "N1G8B9",
    "result": []
  },
  {
    "postal": "N1G2A6",
    "result": [
      {
        "electoralDistricts": [
          {
            "election": null,
            "id": 33,
            "name": "Guelph"
          }
        ],
        "pollDivisionIds": [
          10138411
        ],
        "postalCode": "N1G2A6",
        "streetName": "MARY",
        "streetDirectionId": null,
        "streetTypeId": "ST",
        "placeName": "GUELPH",
        "streetNameDisplayText": "MARY ST, GUELPH"
      }
    ]
  },
  {
    "postal": "N1G7V2",
    "result": []
  },
  {
    "postal": "N1G9P4",
    "result": []
  },
  {
    "postal": "N1G6G0",
    "result": []
  },
  {
    "postal": "N1G2K0",
    "result": []
  },
  {
    "postal": "N1G7N6",
    "result": []
  },
  {
    "postal": "N1G5R3",
    "result": []
  },
  {
    "postal": "N1G7K0",
    "result": []
  },
  {
    "postal": "N1G3R2",
    "result": [
      {
        "electoralDistricts": [
          {
            "election": null,
            "id": 33,
            "name": "Guelph"
          }
        ],
        "pollDivisionIds": [
          10138419
        ],
        "postalCode": "N1G3R2",
        "streetName": "IRONWOOD",
        "streetDirectionId": null,
        "streetTypeId": "RD",
        "placeName": "GUELPH",
        "streetNameDisplayText": "IRONWOOD RD, GUELPH"
      }
    ]
  },
  {
    "postal": "N1G0J1",
    "result": []
  },
  {
    "postal": "N1G0B0",
    "result": []
  },
  {
    "postal": "N1G5Z2",
    "result": []
  },
  {
    "postal": "N1G7P3",
    "result": []
  },
  {
    "postal": "N1G2K3",
    "result": [
      {
        "electoralDistricts": [
          {
            "election": null,
            "id": 33,
            "name": "Guelph"
          }
        ],
        "pollDivisionIds": [
          10138412
        ],
        "postalCode": "N1G2K3",
        "streetName": "EDINBURGH",
        "streetDirectionId": "S",
        "streetTypeId": "RD",
        "placeName": "GUELPH",
        "streetNameDisplayText": "EDINBURGH RD S, GUELPH"
      }
    ]
  },
  {
    "postal": "N1G7Y6",
    "result": []
  },
  {
    "postal": "N1G1L9",
    "result": [
      {
        "electoralDistricts": [
          {
            "election": null,
            "id": 33,
            "name": "Guelph"
          }
        ],
        "pollDivisionIds": [
          10138412
        ],
        "postalCode": "N1G1L9",
        "streetName": "MAPLEWOOD",
        "streetDirectionId": null,
        "streetTypeId": "DR",
        "placeName": "GUELPH",
        "streetNameDisplayText": "MAPLEWOOD DR, GUELPH"
      }
    ]
  },
  {
    "postal": "N1G8T0",
    "result": []
  },
  {
    "postal": "N1G3K8",
    "result": [
      {
        "electoralDistricts": [
          {
            "election": null,
            "id": 33,
            "name": "Guelph"
          }
        ],
        "pollDivisionIds": [
          10138419
        ],
        "postalCode": "N1G3K8",
        "streetName": "KORTRIGHT",
        "streetDirectionId": "W",
        "streetTypeId": "RD",
        "placeName": "GUELPH",
        "streetNameDisplayText": "KORTRIGHT RD W, GUELPH"
      },
      {
        "electoralDistricts": [
          {
            "election": null,
            "id": 33,
            "name": "Guelph"
          }
        ],
        "pollDivisionIds": [
          10138414
        ],
        "postalCode": "N1G3K8",
        "streetName": "SCOTTSDALE",
        "streetDirectionId": null,
        "streetTypeId": "DR",
        "placeName": "GUEPH",
        "streetNameDisplayText": "SCOTTSDALE DR, GUEPH"
      }
    ]
  },
  {
    "postal": "N1G5W9",
    "result": []
  },
  {
    "postal": "N1G6T9",
    "result": []
  },
  {
    "postal": "N1G4H1",
    "result": [
      {
        "electoralDistricts": [
          {
            "election": null,
            "id": 33,
            "name": "Guelph"
          }
        ],
        "pollDivisionIds": [
          10138415,
          10138419
        ],
        "postalCode": "N1G4H1",
        "streetName": "EDINBURGH",
        "streetDirectionId": "S",
        "streetTypeId": "RD",
        "placeName": "GUELPH",
        "streetNameDisplayText": "EDINBURGH RD S, GUELPH"
      }
    ]
  },
  {
    "postal": "N1G7A2",
    "result": []
  },
  {
    "postal": "N1G5G0",
    "result": []
  },
  {
    "postal": "N1G8V5",
    "result": []
  },
  {
    "postal": "N1G2Y8",
    "result": [
      {
        "electoralDistricts": [
          {
            "election": null,
            "id": 33,
            "name": "Guelph"
          }
        ],
        "pollDivisionIds": [
          10138415
        ],
        "postalCode": "N1G2Y8",
        "streetName": "AUGUSTINE",
        "streetDirectionId": null,
        "streetTypeId": "CRT",
        "placeName": "GUELPH",
        "streetNameDisplayText": "AUGUSTINE CRT, GUELPH"
      }
    ]
  },
  {
    "postal": "N1G2B6",
    "result": [
      {
        "electoralDistricts": [
          {
            "election": null,
            "id": 33,
            "name": "Guelph"
          }
        ],
        "pollDivisionIds": [
          10138412
        ],
        "postalCode": "N1G2B6",
        "streetName": "GRAHAM",
        "streetDirectionId": null,
        "streetTypeId": "ST",
        "placeName": "GUELPH",
        "streetNameDisplayText": "GRAHAM ST, GUELPH"
      }
    ]
  },
  {
    "postal": "N1G4W8",
    "result": []
  },
  {
    "postal": "N1G8H7",
    "result": []
  },
  {
    "postal": "N1G5P1",
    "result": []
  },
  {
    "postal": "N1G2B8",
    "result": [
      {
        "electoralDistricts": [
          {
            "election": null,
            "id": 33,
            "name": "Guelph"
          }
        ],
        "pollDivisionIds": [
          10138411
        ],
        "postalCode": "N1G2B8",
        "streetName": "WOLFOND",
        "streetDirectionId": null,
        "streetTypeId": "CRES",
        "placeName": "GUELPH",
        "streetNameDisplayText": "WOLFOND CRES, GUELPH"
      }
    ]
  },
  {
    "postal": "N1G0P2",
    "result": []
  },
  {
    "postal": "N1G9M1",
    "result": []
  },
  {
    "postal": "N1G3G0",
    "result": []
  },
  {
    "postal": "N1G9Z2",
    "result": []
  },
  {
    "postal": "N1G2A0",
    "result": []
  },
  {
    "postal": "N1G6Y0",
    "result": []
  },
  {
    "postal": "N1G2Z8",
    "result": [
      {
        "electoralDistricts": [
          {
            "election": null,
            "id": 33,
            "name": "Guelph"
          }
        ],
        "pollDivisionIds": [
          10138414
        ],
        "postalCode": "N1G2Z8",
        "streetName": "SCOTTSDALE",
        "streetDirectionId": null,
        "streetTypeId": "DR",
        "placeName": "GUELPH",
        "streetNameDisplayText": "SCOTTSDALE DR, GUELPH"
      }
    ]
  },
  {
    "postal": "N1G7Y3",
    "result": []
  },
  {
    "postal": "N1G6Z5",
    "result": []
  },
  {
    "postal": "N1G6E0",
    "result": []
  },
  {
    "postal": "N1G9B7",
    "result": []
  },
  {
    "postal": "N1G9S5",
    "result": []
  },
  {
    "postal": "N1G3X3",
    "result": []
  },
  {
    "postal": "N1G7R5",
    "result": []
  },
  {
    "postal": "N1G2X3",
    "result": [
      {
        "electoralDistricts": [
          {
            "election": null,
            "id": 33,
            "name": "Guelph"
          }
        ],
        "pollDivisionIds": [
          10138415
        ],
        "postalCode": "N1G2X3",
        "streetName": "HICKORY",
        "streetDirectionId": null,
        "streetTypeId": "ST",
        "placeName": "GUELPH",
        "streetNameDisplayText": "HICKORY ST, GUELPH"
      }
    ]
  },
  {
    "postal": "N1G8Z9",
    "result": []
  },
  {
    "postal": "N1G0N4",
    "result": []
  },
  {
    "postal": "N1G1K1",
    "result": [
      {
        "electoralDistricts": [
          {
            "election": null,
            "id": 33,
            "name": "Guelph"
          }
        ],
        "pollDivisionIds": [
          10138412
        ],
        "postalCode": "N1G1K1",
        "streetName": "LOCKYER",
        "streetDirectionId": null,
        "streetTypeId": "RD",
        "placeName": "GUELPH",
        "streetNameDisplayText": "LOCKYER RD, GUELPH"
      }
    ]
  },
  {
    "postal": "N1G1S3",
    "result": [
      {
        "electoralDistricts": [
          {
            "election": null,
            "id": 33,
            "name": "Guelph"
          }
        ],
        "pollDivisionIds": [
          10138412
        ],
        "postalCode": "N1G1S3",
        "streetName": "COLLEGE",
        "streetDirectionId": "W",
        "streetTypeId": "AVE",
        "placeName": "GUELPH",
        "streetNameDisplayText": "COLLEGE AVE W, GUELPH"
      }
    ]
  },
  {
    "postal": "N1G6M4",
    "result": []
  },
  {
    "postal": "N1G9A9",
    "result": []
  },
  {
    "postal": "N1G9Z9",
    "result": []
  },
  {
    "postal": "N1G6T4",
    "result": []
  },
  {
    "postal": "N1G0B2",
    "result": [
      {
        "electoralDistricts": [
          {
            "election": null,
            "id": 33,
            "name": "Guelph"
          }
        ],
        "pollDivisionIds": [
          10138423
        ],
        "postalCode": "N1G0B2",
        "streetName": "HERITAGE",
        "streetDirectionId": null,
        "streetTypeId": "DR",
        "placeName": "GUELPH",
        "streetNameDisplayText": "HERITAGE DR, GUELPH"
      },
      {
        "electoralDistricts": [
          {
            "election": null,
            "id": 33,
            "name": "Guelph"
          }
        ],
        "pollDivisionIds": [
          10138423
        ],
        "postalCode": "N1G0B2",
        "streetName": "REVELL",
        "streetDirectionId": null,
        "streetTypeId": "DR",
        "placeName": "GUELPH",
        "streetNameDisplayText": "REVELL DR, GUELPH"
      }
    ]
  },
  {
    "postal": "N1G2L9",
    "result": [
      {
        "electoralDistricts": [
          {
            "election": null,
            "id": 33,
            "name": "Guelph"
          }
        ],
        "pollDivisionIds": [
          10143933
        ],
        "postalCode": "N1G2L9",
        "streetName": "MAYFIELD",
        "streetDirectionId": null,
        "streetTypeId": "AVE",
        "placeName": "GUELPH",
        "streetNameDisplayText": "MAYFIELD AVE, GUELPH"
      }
    ]
  },
  {
    "postal": "N1G8K9",
    "result": []
  },
  {
    "postal": "N1G2H9",
    "result": [
      {
        "electoralDistricts": [
          {
            "election": null,
            "id": 33,
            "name": "Guelph"
          }
        ],
        "pollDivisionIds": [
          10138411
        ],
        "postalCode": "N1G2H9",
        "streetName": "EDINBURGH",
        "streetDirectionId": "S",
        "streetTypeId": "RD",
        "placeName": "GUELPH",
        "streetNameDisplayText": "EDINBURGH RD S, GUELPH"
      }
    ]
  },
  {
    "postal": "N1G3Z6",
    "result": [
      {
        "electoralDistricts": [
          {
            "election": null,
            "id": 33,
            "name": "Guelph"
          }
        ],
        "pollDivisionIds": [
          10138419
        ],
        "postalCode": "N1G3Z6",
        "streetName": "WHISPERING RIDGE",
        "streetDirectionId": null,
        "streetTypeId": "DR",
        "placeName": "GUELPH",
        "streetNameDisplayText": "WHISPERING RIDGE DR, GUELPH"
      }
    ]
  },
  {
    "postal": "N1G3B0",
    "result": []
  },
  {
    "postal": "N1G2H8",
    "result": [
      {
        "electoralDistricts": [
          {
            "election": null,
            "id": 33,
            "name": "Guelph"
          }
        ],
        "pollDivisionIds": [
          10138411
        ],
        "postalCode": "N1G2H8",
        "streetName": "EDINBURGH",
        "streetDirectionId": "S",
        "streetTypeId": "RD",
        "placeName": "GUELPH",
        "streetNameDisplayText": "EDINBURGH RD S, GUELPH"
      }
    ]
  },
  {
    "postal": "N1G3X2",
    "result": []
  },
  {
    "postal": "N1G2E9",
    "result": [
      {
        "electoralDistricts": [
          {
            "election": null,
            "id": 33,
            "name": "Guelph"
          }
        ],
        "pollDivisionIds": [
          10138411
        ],
        "postalCode": "N1G2E9",
        "streetName": "TALBOT",
        "streetDirectionId": null,
        "streetTypeId": "ST",
        "placeName": "GUELPH",
        "streetNameDisplayText": "TALBOT ST, GUELPH"
      }
    ]
  },
  {
    "postal": "N1G9P6",
    "result": []
  },
  {
    "postal": "N1G9E2",
    "result": []
  },
  {
    "postal": "N1G9H2",
    "result": []
  },
  {
    "postal": "N1G1S8",
    "result": [
      {
        "electoralDistricts": [
          {
            "election": null,
            "id": 33,
            "name": "Guelph"
          }
        ],
        "pollDivisionIds": [
          10138412,
          10138414
        ],
        "postalCode": "N1G1S8",
        "streetName": "COLLEGE",
        "streetDirectionId": "W",
        "streetTypeId": "AVE",
        "placeName": "GUELPH",
        "streetNameDisplayText": "COLLEGE AVE W, GUELPH"
      }
    ]
  },
  {
    "postal": "N1G3M6",
    "result": [
      {
        "electoralDistricts": [
          {
            "election": null,
            "id": 33,
            "name": "Guelph"
          }
        ],
        "pollDivisionIds": [
          10138419
        ],
        "postalCode": "N1G3M6",
        "streetName": "SAGEWOOD",
        "streetDirectionId": null,
        "streetTypeId": "PL",
        "placeName": "GUELPH",
        "streetNameDisplayText": "SAGEWOOD PL, GUELPH"
      }
    ]
  },
  {
    "postal": "N1G6Z8",
    "result": []
  },
  {
    "postal": "N1G4J2",
    "result": [
      {
        "electoralDistricts": [
          {
            "election": null,
            "id": 33,
            "name": "Guelph"
          }
        ],
        "pollDivisionIds": [
          10138415
        ],
        "postalCode": "N1G4J2",
        "streetName": "MCELDERRY",
        "streetDirectionId": null,
        "streetTypeId": "RD",
        "placeName": "GUELPH",
        "streetNameDisplayText": "MCELDERRY RD, GUELPH"
      }
    ]
  },
  {
    "postal": "N1G9Y1",
    "result": []
  },
  {
    "postal": "N1G8V6",
    "result": []
  },
  {
    "postal": "N1G6B2",
    "result": []
  },
  {
    "postal": "N1G1P8",
    "result": [
      {
        "electoralDistricts": [
          {
            "election": null,
            "id": 33,
            "name": "Guelph"
          }
        ],
        "pollDivisionIds": [
          10138412
        ],
        "postalCode": "N1G1P8",
        "streetName": "LYNWOOD",
        "streetDirectionId": null,
        "streetTypeId": "AVE",
        "placeName": "GUELPH",
        "streetNameDisplayText": "LYNWOOD AVE, GUELPH"
      }
    ]
  },
  {
    "postal": "N1G0V8",
    "result": []
  },
  {
    "postal": "N1G4Y0",
    "result": []
  },
  {
    "postal": "N1G2T4",
    "result": [
      {
        "electoralDistricts": [
          {
            "election": null,
            "id": 33,
            "name": "Guelph"
          }
        ],
        "pollDivisionIds": [
          10138413
        ],
        "postalCode": "N1G2T4",
        "streetName": "DEVERE",
        "streetDirectionId": null,
        "streetTypeId": "DR",
        "placeName": "GUELPH",
        "streetNameDisplayText": "DEVERE DR, GUELPH"
      }
    ]
  },
  {
    "postal": "N1G2S3",
    "result": [
      {
        "electoralDistricts": [
          {
            "election": null,
            "id": 33,
            "name": "Guelph"
          }
        ],
        "pollDivisionIds": [
          10138413
        ],
        "postalCode": "N1G2S3",
        "streetName": "HANLON",
        "streetDirectionId": null,
        "streetTypeId": "RD",
        "placeName": "GUELPH",
        "streetNameDisplayText": "HANLON RD, GUELPH"
      }
    ]
  },
  {
    "postal": "N1G0K0",
    "result": []
  },
  {
    "postal": "N1G5N1",
    "result": []
  },
  {
    "postal": "N1G7T0",
    "result": []
  },
  {
    "postal": "N1G9N2",
    "result": []
  },
  {
    "postal": "N1G5L1",
    "result": [
      {
        "electoralDistricts": [
          {
            "election": null,
            "id": 33,
            "name": "Guelph"
          }
        ],
        "pollDivisionIds": [
          10138415
        ],
        "postalCode": "N1G5L1",
        "streetName": "CHANCELLORS",
        "streetDirectionId": null,
        "streetTypeId": "WAY",
        "placeName": "GUELPH",
        "streetNameDisplayText": "CHANCELLORS WAY, GUELPH"
      }
    ]
  },
  {
    "postal": "N1G7G5",
    "result": []
  },
  {
    "postal": "N1G6K2",
    "result": []
  },
  {
    "postal": "N1G6P9",
    "result": []
  },
  {
    "postal": "N1G0E6",
    "result": [
      {
        "electoralDistricts": [
          {
            "election": null,
            "id": 33,
            "name": "Guelph"
          }
        ],
        "pollDivisionIds": [
          10143933
        ],
        "postalCode": "N1G0E6",
        "streetName": "DUDLEY",
        "streetDirectionId": null,
        "streetTypeId": "DR",
        "placeName": "GUELPH",
        "streetNameDisplayText": "DUDLEY DR, GUELPH"
      },
      {
        "electoralDistricts": [
          {
            "election": null,
            "id": 33,
            "name": "Guelph"
          }
        ],
        "pollDivisionIds": [
          10143933
        ],
        "postalCode": "N1G0E6",
        "streetName": "MACALISTER",
        "streetDirectionId": null,
        "streetTypeId": "BLVD",
        "placeName": "GUELPH",
        "streetNameDisplayText": "MACALISTER BLVD, GUELPH"
      }
    ]
  },
  {
    "postal": "N1G8R9",
    "result": []
  },
  {
    "postal": "N1G3G9",
    "result": [
      {
        "electoralDistricts": [
          {
            "election": null,
            "id": 33,
            "name": "Guelph"
          }
        ],
        "pollDivisionIds": [
          10138414
        ],
        "postalCode": "N1G3G9",
        "streetName": "MASON",
        "streetDirectionId": null,
        "streetTypeId": "CRT",
        "placeName": "GUELPH",
        "streetNameDisplayText": "MASON CRT, GUELPH"
      }
    ]
  },
  {
    "postal": "N1G0V7",
    "result": []
  },
  {
    "postal": "N1G2Z1",
    "result": [
      {
        "electoralDistricts": [
          {
            "election": null,
            "id": 33,
            "name": "Guelph"
          }
        ],
        "pollDivisionIds": [
          10138415
        ],
        "postalCode": "N1G2Z1",
        "streetName": "HARROW",
        "streetDirectionId": null,
        "streetTypeId": "CRT",
        "placeName": "GUELPH",
        "streetNameDisplayText": "HARROW CRT, GUELPH"
      }
    ]
  },
  {
    "postal": "N1G7N1",
    "result": []
  },
  {
    "postal": "N1G3C6",
    "result": [
      {
        "electoralDistricts": [
          {
            "election": null,
            "id": 33,
            "name": "Guelph"
          }
        ],
        "pollDivisionIds": [
          10143933
        ],
        "postalCode": "N1G3C6",
        "streetName": "DIMSON",
        "streetDirectionId": null,
        "streetTypeId": "AVE",
        "placeName": "GUELPH",
        "streetNameDisplayText": "DIMSON AVE, GUELPH"
      }
    ]
  },
  {
    "postal": "N1G4M1",
    "result": [
      {
        "electoralDistricts": [
          {
            "election": null,
            "id": 33,
            "name": "Guelph"
          }
        ],
        "pollDivisionIds": [
          10138415
        ],
        "postalCode": "N1G4M1",
        "streetName": "BRAZOLOT",
        "streetDirectionId": null,
        "streetTypeId": "DR",
        "placeName": "GUELPH",
        "streetNameDisplayText": "BRAZOLOT DR, GUELPH"
      }
    ]
  },
  {
    "postal": "N1G9K2",
    "result": []
  },
  {
    "postal": "N1G9S6",
    "result": []
  },
  {
    "postal": "N1G4X1",
    "result": [
      {
        "electoralDistricts": [
          {
            "election": null,
            "id": 33,
            "name": "Guelph"
          }
        ],
        "pollDivisionIds": [
          10138423
        ],
        "postalCode": "N1G4X1",
        "streetName": "GORDON",
        "streetDirectionId": null,
        "streetTypeId": "ST",
        "placeName": "GUELPH",
        "streetNameDisplayText": "GORDON ST, GUELPH"
      }
    ]
  },
  {
    "postal": "N1G8W2",
    "result": []
  },
  {
    "postal": "N1G7N2",
    "result": []
  },
  {
    "postal": "N1G8S3",
    "result": []
  },
  {
    "postal": "N1G4V0",
    "result": []
  },
  {
    "postal": "N1G6W4",
    "result": []
  },
  {
    "postal": "N1G5M1",
    "result": []
  },
  {
    "postal": "N1G0S4",
    "result": []
  },
  {
    "postal": "N1G5X6",
    "result": []
  },
  {
    "postal": "N1G8L5",
    "result": []
  },
  {
    "postal": "N1G5M8",
    "result": []
  },
  {
    "postal": "N1G2G3",
    "result": [
      {
        "electoralDistricts": [
          {
            "election": null,
            "id": 33,
            "name": "Guelph"
          }
        ],
        "pollDivisionIds": [
          10138411
        ],
        "postalCode": "N1G2G3",
        "streetName": "MAPLE",
        "streetDirectionId": null,
        "streetTypeId": "ST",
        "placeName": "GUELPH",
        "streetNameDisplayText": "MAPLE ST, GUELPH"
      }
    ]
  },
  {
    "postal": "N1G8E4",
    "result": []
  },
  {
    "postal": "N1G7S9",
    "result": []
  },
  {
    "postal": "N1G1K3",
    "result": [
      {
        "electoralDistricts": [
          {
            "election": null,
            "id": 33,
            "name": "Guelph"
          }
        ],
        "pollDivisionIds": [
          10138411
        ],
        "postalCode": "N1G1K3",
        "streetName": "DEAN",
        "streetDirectionId": null,
        "streetTypeId": "AVE",
        "placeName": "GUELPH",
        "streetNameDisplayText": "DEAN AVE, GUELPH"
      }
    ]
  },
  {
    "postal": "N1G4E1",
    "result": [
      {
        "electoralDistricts": [
          {
            "election": null,
            "id": 33,
            "name": "Guelph"
          }
        ],
        "pollDivisionIds": [
          10143933
        ],
        "postalCode": "N1G4E1",
        "streetName": "HALESMANOR",
        "streetDirectionId": null,
        "streetTypeId": "CRT",
        "placeName": "GUELPH",
        "streetNameDisplayText": "HALESMANOR CRT, GUELPH"
      }
    ]
  },
  {
    "postal": "N1G4R2",
    "result": [
      {
        "electoralDistricts": [
          {
            "election": null,
            "id": 33,
            "name": "Guelph"
          }
        ],
        "pollDivisionIds": [
          10138411
        ],
        "postalCode": "N1G4R2",
        "streetName": "MUNICIPAL",
        "streetDirectionId": null,
        "streetTypeId": "ST",
        "placeName": "GUELPH",
        "streetNameDisplayText": "MUNICIPAL ST, GUELPH"
      }
    ]
  },
  {
    "postal": "N1G6T0",
    "result": []
  },
  {
    "postal": "N1G3K5",
    "result": [
      {
        "electoralDistricts": [
          {
            "election": null,
            "id": 33,
            "name": "Guelph"
          }
        ],
        "pollDivisionIds": [
          10138419
        ],
        "postalCode": "N1G3K5",
        "streetName": "WOODBOROUGH",
        "streetDirectionId": null,
        "streetTypeId": "RD",
        "placeName": "GUELPH",
        "streetNameDisplayText": "WOODBOROUGH RD, GUELPH"
      }
    ]
  },
  {
    "postal": "N1G3S3",
    "result": [
      {
        "electoralDistricts": [
          {
            "election": null,
            "id": 33,
            "name": "Guelph"
          }
        ],
        "pollDivisionIds": [
          10138418
        ],
        "postalCode": "N1G3S3",
        "streetName": "WOODLAND GLEN",
        "streetDirectionId": null,
        "streetTypeId": "DR",
        "placeName": "GUELPH",
        "streetNameDisplayText": "WOODLAND GLEN DR, GUELPH"
      }
    ]
  },
  {
    "postal": "N1G3L4",
    "result": [
      {
        "electoralDistricts": [
          {
            "election": null,
            "id": 33,
            "name": "Guelph"
          }
        ],
        "pollDivisionIds": [
          10138419
        ],
        "postalCode": "N1G3L4",
        "streetName": "STEFFLER",
        "streetDirectionId": null,
        "streetTypeId": "DR",
        "placeName": "GUELPH",
        "streetNameDisplayText": "STEFFLER DR, GUELPH"
      }
    ]
  },
  {
    "postal": "N1G9Y2",
    "result": []
  },
  {
    "postal": "N1G1E0",
    "result": []
  },
  {
    "postal": "N1G9A4",
    "result": []
  },
  {
    "postal": "N1G1L3",
    "result": [
      {
        "electoralDistricts": [
          {
            "election": null,
            "id": 33,
            "name": "Guelph"
          }
        ],
        "pollDivisionIds": [
          10138412
        ],
        "postalCode": "N1G1L3",
        "streetName": "DEAN",
        "streetDirectionId": null,
        "streetTypeId": "AVE",
        "placeName": "GUELPH",
        "streetNameDisplayText": "DEAN AVE, GUELPH"
      }
    ]
  },
  {
    "postal": "N1G6N1",
    "result": []
  },
  {
    "postal": "N1G6G7",
    "result": []
  },
  {
    "postal": "N1G7W1",
    "result": []
  },
  {
    "postal": "N1G4M6",
    "result": [
      {
        "electoralDistricts": [
          {
            "election": null,
            "id": 33,
            "name": "Guelph"
          }
        ],
        "pollDivisionIds": [
          10143933
        ],
        "postalCode": "N1G4M6",
        "streetName": "KORTRIGHT",
        "streetDirectionId": "E",
        "streetTypeId": "RD",
        "placeName": "GUELPH",
        "streetNameDisplayText": "KORTRIGHT RD E, GUELPH"
      }
    ]
  },
  {
    "postal": "N1G1K0",
    "result": []
  },
  {
    "postal": "N1G3E2",
    "result": [
      {
        "electoralDistricts": [
          {
            "election": null,
            "id": 33,
            "name": "Guelph"
          }
        ],
        "pollDivisionIds": [
          10138415
        ],
        "postalCode": "N1G3E2",
        "streetName": "KRON",
        "streetDirectionId": null,
        "streetTypeId": "DR",
        "placeName": "GUELPH",
        "streetNameDisplayText": "KRON DR, GUELPH"
      }
    ]
  },
  {
    "postal": "N1G5H4",
    "result": [
      {
        "electoralDistricts": [
          {
            "election": null,
            "id": 33,
            "name": "Guelph"
          }
        ],
        "pollDivisionIds": [
          10138422
        ],
        "postalCode": "N1G5H4",
        "streetName": "TRUESDALE",
        "streetDirectionId": null,
        "streetTypeId": "CRES",
        "placeName": "GUELPH",
        "streetNameDisplayText": "TRUESDALE CRES, GUELPH"
      }
    ]
  },
  {
    "postal": "N1G1K7",
    "result": [
      {
        "electoralDistricts": [
          {
            "election": null,
            "id": 33,
            "name": "Guelph"
          }
        ],
        "pollDivisionIds": [
          10138412
        ],
        "postalCode": "N1G1K7",
        "streetName": "DEAN",
        "streetDirectionId": null,
        "streetTypeId": "AVE",
        "placeName": "GUELPH",
        "streetNameDisplayText": "DEAN AVE, GUELPH"
      }
    ]
  },
  {
    "postal": "N1G0H0",
    "result": []
  },
  {
    "postal": "N1G0J3",
    "result": []
  },
  {
    "postal": "N1G1X6",
    "result": [
      {
        "electoralDistricts": [
          {
            "election": null,
            "id": 33,
            "name": "Guelph"
          }
        ],
        "pollDivisionIds": [
          10138411
        ],
        "postalCode": "N1G1X6",
        "streetName": "GORDON",
        "streetDirectionId": null,
        "streetTypeId": "ST",
        "placeName": "GUELPH",
        "streetNameDisplayText": "GORDON ST, GUELPH"
      }
    ]
  },
  {
    "postal": "N1G2Z6",
    "result": [
      {
        "electoralDistricts": [
          {
            "election": null,
            "id": 33,
            "name": "Guelph"
          }
        ],
        "pollDivisionIds": [
          10138413
        ],
        "postalCode": "N1G2Z6",
        "streetName": "COLLEGE",
        "streetDirectionId": "W",
        "streetTypeId": "AVE",
        "placeName": "GUELPH",
        "streetNameDisplayText": "COLLEGE AVE W, GUELPH"
      }
    ]
  },
  {
    "postal": "N1G4R9",
    "result": [
      {
        "electoralDistricts": [
          {
            "election": null,
            "id": 33,
            "name": "Guelph"
          }
        ],
        "pollDivisionIds": [
          10138415
        ],
        "postalCode": "N1G4R9",
        "streetName": "GORDON",
        "streetDirectionId": null,
        "streetTypeId": "ST",
        "placeName": "GUELPH",
        "streetNameDisplayText": "GORDON ST, GUELPH"
      }
    ]
  },
  {
    "postal": "N1G0W8",
    "result": []
  },
  {
    "postal": "N1G1L4",
    "result": [
      {
        "electoralDistricts": [
          {
            "election": null,
            "id": 33,
            "name": "Guelph"
          }
        ],
        "pollDivisionIds": [
          10138412
        ],
        "postalCode": "N1G1L4",
        "streetName": "DEAN",
        "streetDirectionId": null,
        "streetTypeId": "AVE",
        "placeName": "GUELPH",
        "streetNameDisplayText": "DEAN AVE, GUELPH"
      }
    ]
  },
  {
    "postal": "N1G0C8",
    "result": []
  },
  {
    "postal": "N1G9X7",
    "result": []
  },
  {
    "postal": "N1G4T1",
    "result": [
      {
        "electoralDistricts": [
          {
            "election": null,
            "id": 33,
            "name": "Guelph"
          }
        ],
        "pollDivisionIds": [
          10138415
        ],
        "postalCode": "N1G4T1",
        "streetName": "STONE",
        "streetDirectionId": "W",
        "streetTypeId": "RD",
        "placeName": "GUELPH",
        "streetNameDisplayText": "STONE RD W, GUELPH"
      }
    ]
  },
  {
    "postal": "N1G0M0",
    "result": []
  },
  {
    "postal": "N1G6A2",
    "result": []
  },
  {
    "postal": "N1G9S8",
    "result": []
  },
  {
    "postal": "N1G9T4",
    "result": []
  },
  {
    "postal": "N1G9Y4",
    "result": []
  },
  {
    "postal": "N1G6G5",
    "result": []
  },
  {
    "postal": "N1G6H9",
    "result": []
  },
  {
    "postal": "N1G2P3",
    "result": [
      {
        "electoralDistricts": [
          {
            "election": null,
            "id": 33,
            "name": "Guelph"
          }
        ],
        "pollDivisionIds": [
          10138413
        ],
        "postalCode": "N1G2P3",
        "streetName": "ARGYLE",
        "streetDirectionId": null,
        "streetTypeId": "DR",
        "placeName": "GUELPH",
        "streetNameDisplayText": "ARGYLE DR, GUELPH"
      }
    ]
  },
  {
    "postal": "N1G1T6",
    "result": [
      {
        "electoralDistricts": [
          {
            "election": null,
            "id": 33,
            "name": "Guelph"
          }
        ],
        "pollDivisionIds": [
          10138413
        ],
        "postalCode": "N1G1T6",
        "streetName": "COLLEGE",
        "streetDirectionId": "W",
        "streetTypeId": "AVE",
        "placeName": "GUELPH",
        "streetNameDisplayText": "COLLEGE AVE W, GUELPH"
      }
    ]
  },
  {
    "postal": "N1G4P6",
    "result": [
      {
        "electoralDistricts": [
          {
            "election": null,
            "id": 33,
            "name": "Guelph"
          }
        ],
        "pollDivisionIds": [
          10138424
        ],
        "postalCode": "N1G4P6",
        "streetName": "SOUTHGATE",
        "streetDirectionId": null,
        "streetTypeId": "DR",
        "placeName": "GUELPH",
        "streetNameDisplayText": "SOUTHGATE DR, GUELPH"
      }
    ]
  },
  {
    "postal": "N1G3K1",
    "result": [
      {
        "electoralDistricts": [
          {
            "election": null,
            "id": 33,
            "name": "Guelph"
          }
        ],
        "pollDivisionIds": [
          10138419
        ],
        "postalCode": "N1G3K1",
        "streetName": "COLE",
        "streetDirectionId": null,
        "streetTypeId": "RD",
        "placeName": "GUELPH",
        "streetNameDisplayText": "COLE RD, GUELPH"
      }
    ]
  },
  {
    "postal": "N1G6X4",
    "result": []
  },
  {
    "postal": "N1G4M8",
    "result": [
      {
        "electoralDistricts": [
          {
            "election": null,
            "id": 33,
            "name": "Guelph"
          }
        ],
        "pollDivisionIds": [
          10143933
        ],
        "postalCode": "N1G4M8",
        "streetName": "DOOLEY",
        "streetDirectionId": null,
        "streetTypeId": "PL",
        "placeName": "GUELPH",
        "streetNameDisplayText": "DOOLEY PL, GUELPH"
      },
      {
        "electoralDistricts": [
          {
            "election": null,
            "id": 33,
            "name": "Guelph"
          }
        ],
        "pollDivisionIds": [
          10143933
        ],
        "postalCode": "N1G4M8",
        "streetName": "HANDS",
        "streetDirectionId": null,
        "streetTypeId": "DR",
        "placeName": "GUELPH",
        "streetNameDisplayText": "HANDS DR, GUELPH"
      }
    ]
  },
  {
    "postal": "N1G2Y1",
    "result": [
      {
        "electoralDistricts": [
          {
            "election": null,
            "id": 33,
            "name": "Guelph"
          }
        ],
        "pollDivisionIds": [
          10138415
        ],
        "postalCode": "N1G2Y1",
        "streetName": "RICKSON",
        "streetDirectionId": null,
        "streetTypeId": "AVE",
        "placeName": "GUELPH",
        "streetNameDisplayText": "RICKSON AVE, GUELPH"
      }
    ]
  },
  {
    "postal": "N1G6M1",
    "result": []
  },
  {
    "postal": "N1G5L8",
    "result": []
  },
  {
    "postal": "N1G3P6",
    "result": [
      {
        "electoralDistricts": [
          {
            "election": null,
            "id": 33,
            "name": "Guelph"
          }
        ],
        "pollDivisionIds": [
          10138415
        ],
        "postalCode": "N1G3P6",
        "streetName": "KRON",
        "streetDirectionId": null,
        "streetTypeId": "DR",
        "placeName": "GUELPH",
        "streetNameDisplayText": "KRON DR, GUELPH"
      }
    ]
  },
  {
    "postal": "N1G9A5",
    "result": []
  },
  {
    "postal": "N1G7K1",
    "result": []
  },
  {
    "postal": "N1G3J4",
    "result": [
      {
        "electoralDistricts": [
          {
            "election": null,
            "id": 33,
            "name": "Guelph"
          }
        ],
        "pollDivisionIds": [
          10138419
        ],
        "postalCode": "N1G3J4",
        "streetName": "IRONWOOD",
        "streetDirectionId": null,
        "streetTypeId": "RD",
        "placeName": "GUELPH",
        "streetNameDisplayText": "IRONWOOD RD, GUELPH"
      }
    ]
  },
  {
    "postal": "N1G5E7",
    "result": [
      {
        "electoralDistricts": [
          {
            "election": null,
            "id": 33,
            "name": "Guelph"
          }
        ],
        "pollDivisionIds": [
          10138424
        ],
        "postalCode": "N1G5E7",
        "streetName": "GOSLING",
        "streetDirectionId": null,
        "streetTypeId": "GDNS",
        "placeName": "GUELPH",
        "streetNameDisplayText": "GOSLING GDNS, GUELPH"
      }
    ]
  },
  {
    "postal": "N1G3A7",
    "result": [
      {
        "electoralDistricts": [
          {
            "election": null,
            "id": 33,
            "name": "Guelph"
          }
        ],
        "pollDivisionIds": [
          10138415
        ],
        "postalCode": "N1G3A7",
        "streetName": "COLUMBUS",
        "streetDirectionId": null,
        "streetTypeId": "CRES",
        "placeName": "GUELPH",
        "streetNameDisplayText": "COLUMBUS CRES, GUELPH"
      }
    ]
  },
  {
    "postal": "N1G1B9",
    "result": [
      {
        "electoralDistricts": [
          {
            "election": null,
            "id": 33,
            "name": "Guelph"
          }
        ],
        "pollDivisionIds": [
          10138411
        ],
        "postalCode": "N1G1B9",
        "streetName": "CEDAR",
        "streetDirectionId": null,
        "streetTypeId": "ST",
        "placeName": "GUELPH",
        "streetNameDisplayText": "CEDAR ST, GUELPH"
      }
    ]
  },
  {
    "postal": "N1G9E8",
    "result": []
  },
  {
    "postal": "N1G1C9",
    "result": [
      {
        "electoralDistricts": [
          {
            "election": null,
            "id": 33,
            "name": "Guelph"
          }
        ],
        "pollDivisionIds": [
          10138411
        ],
        "postalCode": "N1G1C9",
        "streetName": "JAMES",
        "streetDirectionId": "E",
        "streetTypeId": "ST",
        "placeName": "GUELPH",
        "streetNameDisplayText": "JAMES ST E, GUELPH"
      }
    ]
  },
  {
    "postal": "N1G3B5",
    "result": [
      {
        "electoralDistricts": [
          {
            "election": null,
            "id": 33,
            "name": "Guelph"
          }
        ],
        "pollDivisionIds": [
          10138415
        ],
        "postalCode": "N1G3B5",
        "streetName": "KRON",
        "streetDirectionId": null,
        "streetTypeId": "DR",
        "placeName": "GUELPH",
        "streetNameDisplayText": "KRON DR, GUELPH"
      }
    ]
  },
  {
    "postal": "N1G8R0",
    "result": []
  },
  {
    "postal": "N1G3P2",
    "result": [
      {
        "electoralDistricts": [
          {
            "election": null,
            "id": 33,
            "name": "Guelph"
          }
        ],
        "pollDivisionIds": [
          10138419
        ],
        "postalCode": "N1G3P2",
        "streetName": "IRONWOOD",
        "streetDirectionId": null,
        "streetTypeId": "RD",
        "placeName": "GUELPH",
        "streetNameDisplayText": "IRONWOOD RD, GUELPH"
      }
    ]
  },
  {
    "postal": "N1G5V4",
    "result": []
  },
  {
    "postal": "N1G4H0",
    "result": []
  },
  {
    "postal": "N1G4S7",
    "result": [
      {
        "electoralDistricts": [
          {
            "election": null,
            "id": 33,
            "name": "Guelph"
          }
        ],
        "pollDivisionIds": [
          10138415
        ],
        "postalCode": "N1G4S7",
        "streetName": "COLLEGE",
        "streetDirectionId": "W",
        "streetTypeId": "AVE",
        "placeName": "GUELPH",
        "streetNameDisplayText": "COLLEGE AVE W, GUELPH"
      }
    ]
  },
  {
    "postal": "N1G6C2",
    "result": []
  },
  {
    "postal": "N1G8W3",
    "result": []
  },
  {
    "postal": "N1G4M5",
    "result": [
      {
        "electoralDistricts": [
          {
            "election": null,
            "id": 33,
            "name": "Guelph"
          }
        ],
        "pollDivisionIds": [
          10138419
        ],
        "postalCode": "N1G4M5",
        "streetName": "SCOTTSDALE",
        "streetDirectionId": null,
        "streetTypeId": "DR",
        "placeName": "GUELPH",
        "streetNameDisplayText": "SCOTTSDALE DR, GUELPH"
      }
    ]
  },
  {
    "postal": "N1G5T1",
    "result": []
  },
  {
    "postal": "N1G3B3",
    "result": [
      {
        "electoralDistricts": [
          {
            "election": null,
            "id": 33,
            "name": "Guelph"
          }
        ],
        "pollDivisionIds": [
          10138415
        ],
        "postalCode": "N1G3B3",
        "streetName": "KORTRIGHT",
        "streetDirectionId": "W",
        "streetTypeId": "RD",
        "placeName": "GUELPH",
        "streetNameDisplayText": "KORTRIGHT RD W, GUELPH"
      }
    ]
  },
  {
    "postal": "N1G6C6",
    "result": []
  },
  {
    "postal": "N1G7N8",
    "result": []
  },
  {
    "postal": "N1G2Y3",
    "result": [
      {
        "electoralDistricts": [
          {
            "election": null,
            "id": 33,
            "name": "Guelph"
          }
        ],
        "pollDivisionIds": [
          10138411
        ],
        "postalCode": "N1G2Y3",
        "streetName": "TERRACE",
        "streetDirectionId": null,
        "streetTypeId": "LANE",
        "placeName": "GUELPH",
        "streetNameDisplayText": "TERRACE LANE, GUELPH"
      }
    ]
  },
  {
    "postal": "N1G2R6",
    "result": [
      {
        "electoralDistricts": [
          {
            "election": null,
            "id": 33,
            "name": "Guelph"
          }
        ],
        "pollDivisionIds": [
          10138413
        ],
        "postalCode": "N1G2R6",
        "streetName": "CARNABY",
        "streetDirectionId": null,
        "streetTypeId": "CRES",
        "placeName": "GUELPH",
        "streetNameDisplayText": "CARNABY CRES, GUELPH"
      }
    ]
  },
  {
    "postal": "N1G7N3",
    "result": []
  },
  {
    "postal": "N1G8J2",
    "result": []
  },
  {
    "postal": "N1G6A9",
    "result": []
  },
  {
    "postal": "N1G3V2",
    "result": []
  },
  {
    "postal": "N1G2N3",
    "result": [
      {
        "electoralDistricts": [
          {
            "election": null,
            "id": 33,
            "name": "Guelph"
          }
        ],
        "pollDivisionIds": [
          10138415
        ],
        "postalCode": "N1G2N3",
        "streetName": "BIRCH",
        "streetDirectionId": null,
        "streetTypeId": "ST",
        "placeName": "GUELPH",
        "streetNameDisplayText": "BIRCH ST, GUELPH"
      }
    ]
  },
  {
    "postal": "N1G1S5",
    "result": [
      {
        "electoralDistricts": [
          {
            "election": null,
            "id": 33,
            "name": "Guelph"
          }
        ],
        "pollDivisionIds": [
          10138412
        ],
        "postalCode": "N1G1S5",
        "streetName": "COLLEGE",
        "streetDirectionId": "W",
        "streetTypeId": "AVE",
        "placeName": "GUELPH",
        "streetNameDisplayText": "COLLEGE AVE W, GUELPH"
      }
    ]
  },
  {
    "postal": "N1G4T7",
    "result": [
      {
        "electoralDistricts": [
          {
            "election": null,
            "id": 33,
            "name": "Guelph"
          }
        ],
        "pollDivisionIds": [
          10138419
        ],
        "postalCode": "N1G4T7",
        "streetName": "SCOTTSDALE",
        "streetDirectionId": null,
        "streetTypeId": "DR",
        "placeName": "GUELPH",
        "streetNameDisplayText": "SCOTTSDALE DR, GUELPH"
      }
    ]
  },
  {
    "postal": "N1G6Y7",
    "result": []
  },
  {
    "postal": "N1G0W7",
    "result": []
  },
  {
    "postal": "N1G2W9",
    "result": [
      {
        "electoralDistricts": [
          {
            "election": null,
            "id": 33,
            "name": "Guelph"
          }
        ],
        "pollDivisionIds": [
          10138415
        ],
        "postalCode": "N1G2W9",
        "streetName": "RICKSON",
        "streetDirectionId": null,
        "streetTypeId": "AVE",
        "placeName": "GUELPH",
        "streetNameDisplayText": "RICKSON AVE, GUELPH"
      }
    ]
  },
  {
    "postal": "N1G8V0",
    "result": []
  },
  {
    "postal": "N1G0H4",
    "result": []
  },
  {
    "postal": "N1G2T1",
    "result": [
      {
        "electoralDistricts": [
          {
            "election": null,
            "id": 33,
            "name": "Guelph"
          }
        ],
        "pollDivisionIds": [
          10138413
        ],
        "postalCode": "N1G2T1",
        "streetName": "DEVERE",
        "streetDirectionId": null,
        "streetTypeId": "DR",
        "placeName": "GUELPH",
        "streetNameDisplayText": "DEVERE DR, GUELPH"
      }
    ]
  },
  {
    "postal": "N1G1B1",
    "result": [
      {
        "electoralDistricts": [
          {
            "election": null,
            "id": 33,
            "name": "Guelph"
          }
        ],
        "pollDivisionIds": [
          10138411
        ],
        "postalCode": "N1G1B1",
        "streetName": "WATER",
        "streetDirectionId": null,
        "streetTypeId": "ST",
        "placeName": "GUELPH",
        "streetNameDisplayText": "WATER ST, GUELPH"
      }
    ]
  },
  {
    "postal": "N1G8B6",
    "result": []
  },
  {
    "postal": "N1G6H1",
    "result": []
  },
  {
    "postal": "N1G8T8",
    "result": []
  },
  {
    "postal": "N1G0T4",
    "result": []
  },
  {
    "postal": "N1G2C4",
    "result": [
      {
        "electoralDistricts": [
          {
            "election": null,
            "id": 33,
            "name": "Guelph"
          }
        ],
        "pollDivisionIds": [
          10138411
        ],
        "postalCode": "N1G2C4",
        "streetName": "CALEDONIA",
        "streetDirectionId": null,
        "streetTypeId": "ST",
        "placeName": "GUELPH",
        "streetNameDisplayText": "CALEDONIA ST, GUELPH"
      }
    ]
  },
  {
    "postal": "N1G8N3",
    "result": []
  },
  {
    "postal": "N1G4L8",
    "result": [
      {
        "electoralDistricts": [
          {
            "election": null,
            "id": 33,
            "name": "Guelph"
          }
        ],
        "pollDivisionIds": [
          10138415
        ],
        "postalCode": "N1G4L8",
        "streetName": "GRYPHON",
        "streetDirectionId": null,
        "streetTypeId": "PL",
        "placeName": "GUELPH",
        "streetNameDisplayText": "GRYPHON PL, GUELPH"
      },
      {
        "electoralDistricts": [
          {
            "election": null,
            "id": 33,
            "name": "Guelph"
          }
        ],
        "pollDivisionIds": [
          10138415
        ],
        "postalCode": "N1G4L8",
        "streetName": "WILFRID LAURIER",
        "streetDirectionId": null,
        "streetTypeId": "CRT",
        "placeName": "GUELPH",
        "streetNameDisplayText": "WILFRID LAURIER CRT, GUELPH"
      }
    ]
  },
  {
    "postal": "N1G2B5",
    "result": [
      {
        "electoralDistricts": [
          {
            "election": null,
            "id": 33,
            "name": "Guelph"
          }
        ],
        "pollDivisionIds": [
          10138412
        ],
        "postalCode": "N1G2B5",
        "streetName": "GRAHAM",
        "streetDirectionId": null,
        "streetTypeId": "ST",
        "placeName": "GUELPH",
        "streetNameDisplayText": "GRAHAM ST, GUELPH"
      }
    ]
  },
  {
    "postal": "N1G3H1",
    "result": [
      {
        "electoralDistricts": [
          {
            "election": null,
            "id": 33,
            "name": "Guelph"
          }
        ],
        "pollDivisionIds": [
          10138415
        ],
        "postalCode": "N1G3H1",
        "streetName": "RICKSON",
        "streetDirectionId": null,
        "streetTypeId": "AVE",
        "placeName": "GUELPH",
        "streetNameDisplayText": "RICKSON AVE, GUELPH"
      }
    ]
  },
  {
    "postal": "N1G4Y1",
    "result": [
      {
        "electoralDistricts": [
          {
            "election": null,
            "id": 33,
            "name": "Guelph"
          }
        ],
        "pollDivisionIds": [
          10138424
        ],
        "postalCode": "N1G4Y1",
        "streetName": "SOUTHGATE",
        "streetDirectionId": null,
        "streetTypeId": "DR",
        "placeName": "GUELPH",
        "streetNameDisplayText": "SOUTHGATE DR, GUELPH"
      }
    ]
  },
  {
    "postal": "N1G7E2",
    "result": []
  },
  {
    "postal": "N1G2P5",
    "result": [
      {
        "electoralDistricts": [
          {
            "election": null,
            "id": 33,
            "name": "Guelph"
          }
        ],
        "pollDivisionIds": [
          10138413
        ],
        "postalCode": "N1G2P5",
        "streetName": "KENDRICK",
        "streetDirectionId": null,
        "streetTypeId": "AVE",
        "placeName": "GUELPH",
        "streetNameDisplayText": "KENDRICK AVE, GUELPH"
      }
    ]
  },
  {
    "postal": "N1G8R7",
    "result": []
  },
  {
    "postal": "N1G9P1",
    "result": []
  },
  {
    "postal": "N1G3B8",
    "result": [
      {
        "electoralDistricts": [
          {
            "election": null,
            "id": 33,
            "name": "Guelph"
          }
        ],
        "pollDivisionIds": [
          10143933
        ],
        "postalCode": "N1G3B8",
        "streetName": "LATENDA",
        "streetDirectionId": null,
        "streetTypeId": "PL",
        "placeName": "GUELPH",
        "streetNameDisplayText": "LATENDA PL, GUELPH"
      }
    ]
  },
  {
    "postal": "N1G3P7",
    "result": [
      {
        "electoralDistricts": [
          {
            "election": null,
            "id": 33,
            "name": "Guelph"
          }
        ],
        "pollDivisionIds": [
          10138419
        ],
        "postalCode": "N1G3P7",
        "streetName": "SCOTTSDALE",
        "streetDirectionId": null,
        "streetTypeId": "DR",
        "placeName": "GUELPH",
        "streetNameDisplayText": "SCOTTSDALE DR, GUELPH"
      }
    ]
  },
  {
    "postal": "N1G9B2",
    "result": []
  },
  {
    "postal": "N1G6Z3",
    "result": []
  },
  {
    "postal": "N1G4N5",
    "result": [
      {
        "electoralDistricts": [
          {
            "election": null,
            "id": 33,
            "name": "Guelph"
          }
        ],
        "pollDivisionIds": [
          10138424
        ],
        "postalCode": "N1G4N5",
        "streetName": "RUTHERFORD",
        "streetDirectionId": null,
        "streetTypeId": "CRT",
        "placeName": "GUELPH",
        "streetNameDisplayText": "RUTHERFORD CRT, GUELPH"
      }
    ]
  },
  {
    "postal": "N1G8T3",
    "result": []
  },
  {
    "postal": "N1G1V2",
    "result": [
      {
        "electoralDistricts": [
          {
            "election": null,
            "id": 33,
            "name": "Guelph"
          }
        ],
        "pollDivisionIds": [
          10138447
        ],
        "postalCode": "N1G1V2",
        "streetName": "JANEFIELD",
        "streetDirectionId": null,
        "streetTypeId": "AVE",
        "placeName": "GUELPH",
        "streetNameDisplayText": "JANEFIELD AVE, GUELPH"
      },
      {
        "electoralDistricts": [
          {
            "election": null,
            "id": 33,
            "name": "Guelph"
          }
        ],
        "pollDivisionIds": [
          10138414
        ],
        "postalCode": "N1G1V2",
        "streetName": "POPPY",
        "streetDirectionId": null,
        "streetTypeId": "LANE",
        "placeName": "GUELPH",
        "streetNameDisplayText": "POPPY LANE, GUELPH"
      }
    ]
  },
  {
    "postal": "N1G1Y0",
    "result": []
  },
  {
    "postal": "N1G3G6",
    "result": [
      {
        "electoralDistricts": [
          {
            "election": null,
            "id": 33,
            "name": "Guelph"
          }
        ],
        "pollDivisionIds": [
          10138419
        ],
        "postalCode": "N1G3G6",
        "streetName": "SHADYBROOK",
        "streetDirectionId": null,
        "streetTypeId": "CRES",
        "placeName": "GUELPH",
        "streetNameDisplayText": "SHADYBROOK CRES, GUELPH"
      }
    ]
  },
  {
    "postal": "N1G3H7",
    "result": [
      {
        "electoralDistricts": [
          {
            "election": null,
            "id": 33,
            "name": "Guelph"
          }
        ],
        "pollDivisionIds": [
          10138415
        ],
        "postalCode": "N1G3H7",
        "streetName": "COLUMBUS",
        "streetDirectionId": null,
        "streetTypeId": "CRES",
        "placeName": "GUELPH",
        "streetNameDisplayText": "COLUMBUS CRES, GUELPH"
      }
    ]
  },
  {
    "postal": "N1G7X8",
    "result": []
  },
  {
    "postal": "N1G0C7",
    "result": [
      {
        "electoralDistricts": [
          {
            "election": null,
            "id": 33,
            "name": "Guelph"
          }
        ],
        "pollDivisionIds": [
          10143933
        ],
        "postalCode": "N1G0C7",
        "streetName": "MACALISTER",
        "streetDirectionId": null,
        "streetTypeId": "BLVD",
        "placeName": "GUELPH",
        "streetNameDisplayText": "MACALISTER BLVD, GUELPH"
      }
    ]
  },
  {
    "postal": "N1G0W9",
    "result": []
  },
  {
    "postal": "N1G8E6",
    "result": []
  },
  {
    "postal": "N1G9Z8",
    "result": []
  },
  {
    "postal": "N1G3P4",
    "result": [
      {
        "electoralDistricts": [
          {
            "election": null,
            "id": 33,
            "name": "Guelph"
          }
        ],
        "pollDivisionIds": [
          10138419
        ],
        "postalCode": "N1G3P4",
        "streetName": "SCOTTSDALE",
        "streetDirectionId": null,
        "streetTypeId": "DR",
        "placeName": "GUELPH",
        "streetNameDisplayText": "SCOTTSDALE DR, GUELPH"
      }
    ]
  },
  {
    "postal": "N1G6L8",
    "result": []
  },
  {
    "postal": "N1G2R4",
    "result": [
      {
        "electoralDistricts": [
          {
            "election": null,
            "id": 33,
            "name": "Guelph"
          }
        ],
        "pollDivisionIds": [
          10138413
        ],
        "postalCode": "N1G2R4",
        "streetName": "LAMBERT",
        "streetDirectionId": null,
        "streetTypeId": "CRES",
        "placeName": "GUELPH",
        "streetNameDisplayText": "LAMBERT CRES, GUELPH"
      }
    ]
  },
  {
    "postal": "N1G2W1",
    "result": [
      {
        "electoralDistricts": [
          {
            "election": null,
            "id": 33,
            "name": "Guelph"
          }
        ],
        "pollDivisionIds": [
          10138415
        ],
        "postalCode": "N1G2W1",
        "streetName": "DUNDAS",
        "streetDirectionId": null,
        "streetTypeId": "LANE",
        "placeName": "GUELPH",
        "streetNameDisplayText": "DUNDAS LANE, GUELPH"
      },
      {
        "electoralDistricts": [
          {
            "election": null,
            "id": 33,
            "name": "Guelph"
          }
        ],
        "pollDivisionIds": [
          10138415
        ],
        "postalCode": "N1G2W1",
        "streetName": "EAST RING",
        "streetDirectionId": "E",
        "streetTypeId": "RD",
        "placeName": "GUELPH",
        "streetNameDisplayText": "EAST RING RD E, GUELPH"
      },
      {
        "electoralDistricts": [
          {
            "election": null,
            "id": 33,
            "name": "Guelph"
          }
        ],
        "pollDivisionIds": [
          10138415
        ],
        "postalCode": "N1G2W1",
        "streetName": "EDINBURGH",
        "streetDirectionId": "S",
        "streetTypeId": "RD",
        "placeName": "GUELPH",
        "streetNameDisplayText": "EDINBURGH RD S, GUELPH"
      },
      {
        "electoralDistricts": [
          {
            "election": null,
            "id": 33,
            "name": "Guelph"
          }
        ],
        "pollDivisionIds": [
          10138411,
          10138415
        ],
        "postalCode": "N1G2W1",
        "streetName": "GORDON",
        "streetDirectionId": null,
        "streetTypeId": "ST",
        "placeName": "GUELPH",
        "streetNameDisplayText": "GORDON ST, GUELPH"
      },
      {
        "electoralDistricts": [
          {
            "election": null,
            "id": 33,
            "name": "Guelph"
          }
        ],
        "pollDivisionIds": [
          10138415
        ],
        "postalCode": "N1G2W1",
        "streetName": "LENNOX",
        "streetDirectionId": null,
        "streetTypeId": "LANE",
        "placeName": "GUELPH",
        "streetNameDisplayText": "LENNOX LANE, GUELPH"
      },
      {
        "electoralDistricts": [
          {
            "election": null,
            "id": 33,
            "name": "Guelph"
          }
        ],
        "pollDivisionIds": [
          10138415
        ],
        "postalCode": "N1G2W1",
        "streetName": "MACDONALD",
        "streetDirectionId": null,
        "streetTypeId": "ST",
        "placeName": "GUELPH",
        "streetNameDisplayText": "MACDONALD ST, GUELPH"
      },
      {
        "electoralDistricts": [
          {
            "election": null,
            "id": 33,
            "name": "Guelph"
          }
        ],
        "pollDivisionIds": [
          10138415
        ],
        "postalCode": "N1G2W1",
        "streetName": "MCGILVRAY",
        "streetDirectionId": "E",
        "streetTypeId": "ST",
        "placeName": "GUELPH",
        "streetNameDisplayText": "MCGILVRAY ST E, GUELPH"
      },
      {
        "electoralDistricts": [
          {
            "election": null,
            "id": 33,
            "name": "Guelph"
          }
        ],
        "pollDivisionIds": [
          10138415
        ],
        "postalCode": "N1G2W1",
        "streetName": "POWERHOUSE",
        "streetDirectionId": null,
        "streetTypeId": "LANE",
        "placeName": "GUELPH",
        "streetNameDisplayText": "POWERHOUSE LANE, GUELPH"
      },
      {
        "electoralDistricts": [
          {
            "election": null,
            "id": 33,
            "name": "Guelph"
          }
        ],
        "pollDivisionIds": [
          10138422
        ],
        "postalCode": "N1G2W1",
        "streetName": "RODGERS",
        "streetDirectionId": "E",
        "streetTypeId": "RD",
        "placeName": "GUELPH",
        "streetNameDisplayText": "RODGERS RD E, GUELPH"
      },
      {
        "electoralDistricts": [
          {
            "election": null,
            "id": 33,
            "name": "Guelph"
          }
        ],
        "pollDivisionIds": [
          10138415
        ],
        "postalCode": "N1G2W1",
        "streetName": "SOUTH RING",
        "streetDirectionId": "E",
        "streetTypeId": "RD",
        "placeName": "GUELPH",
        "streetNameDisplayText": "SOUTH RING RD E, GUELPH"
      },
      {
        "electoralDistricts": [
          {
            "election": null,
            "id": 33,
            "name": "Guelph"
          }
        ],
        "pollDivisionIds": [
          10138415
        ],
        "postalCode": "N1G2W1",
        "streetName": "SOUTH RING",
        "streetDirectionId": "S",
        "streetTypeId": "RD",
        "placeName": "GUELPH",
        "streetNameDisplayText": "SOUTH RING RD S, GUELPH"
      },
      {
        "electoralDistricts": [
          {
            "election": null,
            "id": 33,
            "name": "Guelph"
          }
        ],
        "pollDivisionIds": [
          10138415
        ],
        "postalCode": "N1G2W1",
        "streetName": "STONE",
        "streetDirectionId": "E",
        "streetTypeId": "RD",
        "placeName": "GUELPH",
        "streetNameDisplayText": "STONE RD E, GUELPH"
      },
      {
        "electoralDistricts": [
          {
            "election": null,
            "id": 33,
            "name": "Guelph"
          }
        ],
        "pollDivisionIds": [
          10138415
        ],
        "postalCode": "N1G2W1",
        "streetName": "TRENT",
        "streetDirectionId": null,
        "streetTypeId": "LANE",
        "placeName": "GUELPH",
        "streetNameDisplayText": "TRENT LANE, GUELPH"
      },
      {
        "electoralDistricts": [
          {
            "election": null,
            "id": 33,
            "name": "Guelph"
          }
        ],
        "pollDivisionIds": [
          10138411
        ],
        "postalCode": "N1G2W1",
        "streetName": "UNIVERSITY",
        "streetDirectionId": "E",
        "streetTypeId": "AVE",
        "placeName": "GUELPH",
        "streetNameDisplayText": "UNIVERSITY AVE E, GUELPH"
      },
      {
        "electoralDistricts": [
          {
            "election": null,
            "id": 33,
            "name": "Guelph"
          }
        ],
        "pollDivisionIds": [
          10138415
        ],
        "postalCode": "N1G2W1",
        "streetName": "WATSON",
        "streetDirectionId": null,
        "streetTypeId": "LANE",
        "placeName": "GUELPH",
        "streetNameDisplayText": "WATSON LANE, GUELPH"
      }
    ]
  },
  {
    "postal": "N1G9H8",
    "result": []
  },
  {
    "postal": "N1G8X9",
    "result": []
  },
  {
    "postal": "N1G7H4",
    "result": []
  },
  {
    "postal": "N1G3J1",
    "result": [
      {
        "electoralDistricts": [
          {
            "election": null,
            "id": 33,
            "name": "Guelph"
          }
        ],
        "pollDivisionIds": [
          10138419
        ],
        "postalCode": "N1G3J1",
        "streetName": "IRONWOOD",
        "streetDirectionId": null,
        "streetTypeId": "RD",
        "placeName": "GUELPH",
        "streetNameDisplayText": "IRONWOOD RD, GUELPH"
      }
    ]
  },
  {
    "postal": "N1G1P4",
    "result": [
      {
        "electoralDistricts": [
          {
            "election": null,
            "id": 33,
            "name": "Guelph"
          }
        ],
        "pollDivisionIds": [
          10138412,
          10138415
        ],
        "postalCode": "N1G1P4",
        "streetName": "HALES",
        "streetDirectionId": null,
        "streetTypeId": "CRES",
        "placeName": "GUELPH",
        "streetNameDisplayText": "HALES CRES, GUELPH"
      }
    ]
  },
  {
    "postal": "N1G2A3",
    "result": [
      {
        "electoralDistricts": [
          {
            "election": null,
            "id": 33,
            "name": "Guelph"
          }
        ],
        "pollDivisionIds": [
          10138411
        ],
        "postalCode": "N1G2A3",
        "streetName": "MARTIN",
        "streetDirectionId": null,
        "streetTypeId": "AVE",
        "placeName": "GUELPH",
        "streetNameDisplayText": "MARTIN AVE, GUELPH"
      }
    ]
  },
  {
    "postal": "N1G0Z1",
    "result": []
  },
  {
    "postal": "N1G1C1",
    "result": [
      {
        "electoralDistricts": [
          {
            "election": null,
            "id": 33,
            "name": "Guelph"
          }
        ],
        "pollDivisionIds": [
          10138411
        ],
        "postalCode": "N1G1C1",
        "streetName": "CEDAR",
        "streetDirectionId": null,
        "streetTypeId": "ST",
        "placeName": "GUELPH",
        "streetNameDisplayText": "CEDAR ST, GUELPH"
      }
    ]
  },
  {
    "postal": "N1G0H3",
    "result": []
  },
  {
    "postal": "N1G7B0",
    "result": []
  },
  {
    "postal": "N1G5K2",
    "result": [
      {
        "electoralDistricts": [
          {
            "election": null,
            "id": 33,
            "name": "Guelph"
          }
        ],
        "pollDivisionIds": [
          10138422
        ],
        "postalCode": "N1G5K2",
        "streetName": "CARRINGTON",
        "streetDirectionId": null,
        "streetTypeId": "DR",
        "placeName": "GUELPH",
        "streetNameDisplayText": "CARRINGTON DR, GUELPH"
      },
      {
        "electoralDistricts": [
          {
            "election": null,
            "id": 33,
            "name": "Guelph"
          }
        ],
        "pollDivisionIds": [
          10138422
        ],
        "postalCode": "N1G5K2",
        "streetName": "GEDDES",
        "streetDirectionId": null,
        "streetTypeId": "CRES",
        "placeName": "GUELPH",
        "streetNameDisplayText": "GEDDES CRES, GUELPH"
      },
      {
        "electoralDistricts": [
          {
            "election": null,
            "id": 33,
            "name": "Guelph"
          }
        ],
        "pollDivisionIds": [
          10138422
        ],
        "postalCode": "N1G5K2",
        "streetName": "TRUESDALE",
        "streetDirectionId": null,
        "streetTypeId": "CRES",
        "placeName": "GUELPH",
        "streetNameDisplayText": "TRUESDALE CRES, GUELPH"
      }
    ]
  },
  {
    "postal": "N1G1E9",
    "result": [
      {
        "electoralDistricts": [
          {
            "election": null,
            "id": 33,
            "name": "Guelph"
          }
        ],
        "pollDivisionIds": [
          10138411
        ],
        "postalCode": "N1G1E9",
        "streetName": "BELLEVUE",
        "streetDirectionId": null,
        "streetTypeId": "ST",
        "placeName": "GUELPH",
        "streetNameDisplayText": "BELLEVUE ST, GUELPH"
      }
    ]
  },
  {
    "postal": "N1G9W7",
    "result": []
  },
  {
    "postal": "N1G5W6",
    "result": []
  },
  {
    "postal": "N1G6S6",
    "result": []
  },
  {
    "postal": "N1G2P8",
    "result": [
      {
        "electoralDistricts": [
          {
            "election": null,
            "id": 33,
            "name": "Guelph"
          }
        ],
        "pollDivisionIds": [
          10138413
        ],
        "postalCode": "N1G2P8",
        "streetName": "PICADILLY",
        "streetDirectionId": null,
        "streetTypeId": "PL",
        "placeName": "GUELPH",
        "streetNameDisplayText": "PICADILLY PL, GUELPH"
      }
    ]
  },
  {
    "postal": "N1G4P8",
    "result": [
      {
        "electoralDistricts": [
          {
            "election": null,
            "id": 33,
            "name": "Guelph"
          }
        ],
        "pollDivisionIds": [
          10138418
        ],
        "postalCode": "N1G4P8",
        "streetName": "TRILLIUM",
        "streetDirectionId": null,
        "streetTypeId": "CRT",
        "placeName": "GUELPH",
        "streetNameDisplayText": "TRILLIUM CRT, GUELPH"
      }
    ]
  },
  {
    "postal": "N1G0V9",
    "result": []
  },
  {
    "postal": "N1G5Y2",
    "result": []
  },
  {
    "postal": "N1G7Z7",
    "result": []
  },
  {
    "postal": "N1G6Y8",
    "result": []
  },
  {
    "postal": "N1G2G7",
    "result": [
      {
        "electoralDistricts": [
          {
            "election": null,
            "id": 33,
            "name": "Guelph"
          }
        ],
        "pollDivisionIds": [
          10138412
        ],
        "postalCode": "N1G2G7",
        "streetName": "MAPLE",
        "streetDirectionId": null,
        "streetTypeId": "ST",
        "placeName": "GUELPH",
        "streetNameDisplayText": "MAPLE ST, GUELPH"
      }
    ]
  },
  {
    "postal": "N1G8C1",
    "result": []
  },
  {
    "postal": "N1G5C5",
    "result": [
      {
        "electoralDistricts": [
          {
            "election": null,
            "id": 33,
            "name": "Guelph"
          }
        ],
        "pollDivisionIds": [
          10138422
        ],
        "postalCode": "N1G5C5",
        "streetName": "EDINBURGH",
        "streetDirectionId": "S",
        "streetTypeId": "RD",
        "placeName": "GUELPH",
        "streetNameDisplayText": "EDINBURGH RD S, GUELPH"
      }
    ]
  },
  {
    "postal": "N1G2X8",
    "result": [
      {
        "electoralDistricts": [
          {
            "election": null,
            "id": 33,
            "name": "Guelph"
          }
        ],
        "pollDivisionIds": [
          10138415
        ],
        "postalCode": "N1G2X8",
        "streetName": "HARVARD",
        "streetDirectionId": null,
        "streetTypeId": "RD",
        "placeName": "GUELPH",
        "streetNameDisplayText": "HARVARD RD, GUELPH"
      }
    ]
  },
  {
    "postal": "N1G1W5",
    "result": [
      {
        "electoralDistricts": [
          {
            "election": null,
            "id": 33,
            "name": "Guelph"
          }
        ],
        "pollDivisionIds": [
          10143933
        ],
        "postalCode": "N1G1W5",
        "streetName": "STONE",
        "streetDirectionId": "E",
        "streetTypeId": "RD",
        "placeName": "GUELPH",
        "streetNameDisplayText": "STONE RD E, GUELPH"
      }
    ]
  },
  {
    "postal": "N1G7G0",
    "result": []
  },
  {
    "postal": "N1G8J8",
    "result": []
  },
  {
    "postal": "N1G3Y0",
    "result": []
  },
  {
    "postal": "N1G9T7",
    "result": []
  },
  {
    "postal": "N1G5P4",
    "result": []
  },
  {
    "postal": "N1G4B0",
    "result": []
  },
  {
    "postal": "N1G9N8",
    "result": []
  },
  {
    "postal": "N1G4A7",
    "result": [
      {
        "electoralDistricts": [
          {
            "election": null,
            "id": 33,
            "name": "Guelph"
          }
        ],
        "pollDivisionIds": [
          10138418,
          10138417
        ],
        "postalCode": "N1G4A7",
        "streetName": "OLD COLONY",
        "streetDirectionId": null,
        "streetTypeId": "TRAIL",
        "placeName": "GUELPH",
        "streetNameDisplayText": "OLD COLONY TRAIL, GUELPH"
      }
    ]
  },
  {
    "postal": "N1G4H9",
    "result": [
      {
        "electoralDistricts": [
          {
            "election": null,
            "id": 33,
            "name": "Guelph"
          }
        ],
        "pollDivisionIds": [
          10138419
        ],
        "postalCode": "N1G4H9",
        "streetName": "EDINBURGH",
        "streetDirectionId": "S",
        "streetTypeId": "RD",
        "placeName": "GUELPH",
        "streetNameDisplayText": "EDINBURGH RD S, GUELPH"
      }
    ]
  },
  {
    "postal": "N1G6X1",
    "result": []
  },
  {
    "postal": "N1G9Y7",
    "result": []
  },
  {
    "postal": "N1G2Y5",
    "result": [
      {
        "electoralDistricts": [
          {
            "election": null,
            "id": 33,
            "name": "Guelph"
          }
        ],
        "pollDivisionIds": [
          10138414
        ],
        "postalCode": "N1G2Y5",
        "streetName": "EDINBURGH",
        "streetDirectionId": "S",
        "streetTypeId": "RD",
        "placeName": "GUELPH",
        "streetNameDisplayText": "EDINBURGH RD S, GUELPH"
      }
    ]
  },
  {
    "postal": "N1G8L7",
    "result": []
  },
  {
    "postal": "N1G2A8",
    "result": [
      {
        "electoralDistricts": [
          {
            "election": null,
            "id": 33,
            "name": "Guelph"
          }
        ],
        "pollDivisionIds": [
          10138411
        ],
        "postalCode": "N1G2A8",
        "streetName": "MARY",
        "streetDirectionId": null,
        "streetTypeId": "ST",
        "placeName": "GUELPH",
        "streetNameDisplayText": "MARY ST, GUELPH"
      }
    ]
  },
  {
    "postal": "N1G2K9",
    "result": [
      {
        "electoralDistricts": [
          {
            "election": null,
            "id": 33,
            "name": "Guelph"
          }
        ],
        "pollDivisionIds": [
          10138412
        ],
        "postalCode": "N1G2K9",
        "streetName": "VANIER",
        "streetDirectionId": null,
        "streetTypeId": "DR",
        "placeName": "GUELPH",
        "streetNameDisplayText": "VANIER DR, GUELPH"
      }
    ]
  },
  {
    "postal": "N1G3E5",
    "result": []
  },
  {
    "postal": "N1G8N6",
    "result": []
  },
  {
    "postal": "N1G8J4",
    "result": []
  },
  {
    "postal": "N1G4R7",
    "result": [
      {
        "electoralDistricts": [
          {
            "election": null,
            "id": 115,
            "name": "WellingtonHalton Hills"
          }
        ],
        "pollDivisionIds": [
          10142574
        ],
        "postalCode": "N1G4R7",
        "streetName": "OAK",
        "streetDirectionId": null,
        "streetTypeId": "DR",
        "placeName": "GUELPH",
        "streetNameDisplayText": "OAK DR, GUELPH"
      },
      {
        "electoralDistricts": [
          {
            "election": null,
            "id": 33,
            "name": "Guelph"
          }
        ],
        "pollDivisionIds": [
          10138415
        ],
        "postalCode": "N1G4R7",
        "streetName": "OAK",
        "streetDirectionId": null,
        "streetTypeId": "ST",
        "placeName": "GUELPH",
        "streetNameDisplayText": "OAK ST, GUELPH"
      }
    ]
  },
  {
    "postal": "N1G9K1",
    "result": []
  },
  {
    "postal": "N1G8E1",
    "result": []
  },
  {
    "postal": "N1G0R1",
    "result": []
  },
  {
    "postal": "N1G4J3",
    "result": [
      {
        "electoralDistricts": [
          {
            "election": null,
            "id": 33,
            "name": "Guelph"
          }
        ],
        "pollDivisionIds": [
          10138415
        ],
        "postalCode": "N1G4J3",
        "streetName": "MCELDERRY",
        "streetDirectionId": null,
        "streetTypeId": "RD",
        "placeName": "GUELPH",
        "streetNameDisplayText": "MCELDERRY RD, GUELPH"
      },
      {
        "electoralDistricts": [
          {
            "election": null,
            "id": 33,
            "name": "Guelph"
          }
        ],
        "pollDivisionIds": [
          10138415
        ],
        "postalCode": "N1G4J3",
        "streetName": "THOMASFIELD",
        "streetDirectionId": null,
        "streetTypeId": "DR",
        "placeName": "GUELPH",
        "streetNameDisplayText": "THOMASFIELD DR, GUELPH"
      }
    ]
  },
  {
    "postal": "N1G7E7",
    "result": []
  },
  {
    "postal": "N1G0J0",
    "result": []
  },
  {
    "postal": "N1G7R8",
    "result": []
  },
  {
    "postal": "N1G9X0",
    "result": []
  },
  {
    "postal": "N1G7P6",
    "result": []
  },
  {
    "postal": "N1G0R7",
    "result": []
  },
  {
    "postal": "N1G5W1",
    "result": []
  },
  {
    "postal": "N1G0K4",
    "result": []
  },
  {
    "postal": "N1G7N9",
    "result": []
  },
  {
    "postal": "N1G1N0",
    "result": []
  },
  {
    "postal": "N1G6P3",
    "result": []
  },
  {
    "postal": "N1G5A1",
    "result": [
      {
        "electoralDistricts": [
          {
            "election": null,
            "id": 33,
            "name": "Guelph"
          }
        ],
        "pollDivisionIds": [
          10138424
        ],
        "postalCode": "N1G5A1",
        "streetName": "BOULDER",
        "streetDirectionId": null,
        "streetTypeId": "CRES",
        "placeName": "GUELPH",
        "streetNameDisplayText": "BOULDER CRES, GUELPH"
      },
      {
        "electoralDistricts": [
          {
            "election": null,
            "id": 33,
            "name": "Guelph"
          }
        ],
        "pollDivisionIds": [
          10138424
        ],
        "postalCode": "N1G5A1",
        "streetName": "CLAIRFIELDS",
        "streetDirectionId": "W",
        "streetTypeId": "DR",
        "placeName": "GUELPH",
        "streetNameDisplayText": "CLAIRFIELDS DR W, GUELPH"
      }
    ]
  },
  {
    "postal": "N1G9M9",
    "result": []
  },
  {
    "postal": "N1G7T6",
    "result": []
  },
  {
    "postal": "N1G3X0",
    "result": []
  },
  {
    "postal": "N1G2T0",
    "result": []
  },
  {
    "postal": "N1G5X9",
    "result": []
  },
  {
    "postal": "N1G2R3",
    "result": [
      {
        "electoralDistricts": [
          {
            "election": null,
            "id": 33,
            "name": "Guelph"
          }
        ],
        "pollDivisionIds": [
          10138413
        ],
        "postalCode": "N1G2R3",
        "streetName": "CRANE",
        "streetDirectionId": null,
        "streetTypeId": "AVE",
        "placeName": "GUELPH",
        "streetNameDisplayText": "CRANE AVE, GUELPH"
      }
    ]
  },
  {
    "postal": "N1G5N2",
    "result": []
  },
  {
    "postal": "N1G4Y7",
    "result": [
      {
        "electoralDistricts": [
          {
            "election": null,
            "id": 33,
            "name": "Guelph"
          }
        ],
        "pollDivisionIds": [
          10138422
        ],
        "postalCode": "N1G4Y7",
        "streetName": "EDINBURGH",
        "streetDirectionId": "S",
        "streetTypeId": "RD",
        "placeName": "GUELPH",
        "streetNameDisplayText": "EDINBURGH RD S, GUELPH"
      }
    ]
  },
  {
    "postal": "N1G7M0",
    "result": []
  },
  {
    "postal": "N1G8P3",
    "result": []
  },
  {
    "postal": "N1G3N3",
    "result": [
      {
        "electoralDistricts": [
          {
            "election": null,
            "id": 33,
            "name": "Guelph"
          }
        ],
        "pollDivisionIds": [
          10138419
        ],
        "postalCode": "N1G3N3",
        "streetName": "SAGEWOOD",
        "streetDirectionId": null,
        "streetTypeId": "PL",
        "placeName": "GUELPH",
        "streetNameDisplayText": "SAGEWOOD PL, GUELPH"
      }
    ]
  },
  {
    "postal": "N1G7S3",
    "result": []
  },
  {
    "postal": "N1G3V9",
    "result": []
  },
  {
    "postal": "N1G9N7",
    "result": []
  },
  {
    "postal": "N1G0G4",
    "result": []
  },
  {
    "postal": "N1G2E2",
    "result": [
      {
        "electoralDistricts": [
          {
            "election": null,
            "id": 33,
            "name": "Guelph"
          }
        ],
        "pollDivisionIds": [
          10138411
        ],
        "postalCode": "N1G2E2",
        "streetName": "FOREST HILL",
        "streetDirectionId": null,
        "streetTypeId": "DR",
        "placeName": "GUELPH",
        "streetNameDisplayText": "FOREST HILL DR, GUELPH"
      }
    ]
  },
  {
    "postal": "N1G7W8",
    "result": []
  },
  {
    "postal": "N1G7M5",
    "result": []
  },
  {
    "postal": "N1G5W8",
    "result": []
  },
  {
    "postal": "N1G5E5",
    "result": [
      {
        "electoralDistricts": [
          {
            "election": null,
            "id": 33,
            "name": "Guelph"
          }
        ],
        "pollDivisionIds": [
          10138424
        ],
        "postalCode": "N1G5E5",
        "streetName": "MUNROE",
        "streetDirectionId": null,
        "streetTypeId": "CRES",
        "placeName": "GUELPH",
        "streetNameDisplayText": "MUNROE CRES, GUELPH"
      }
    ]
  },
  {
    "postal": "N1G1P9",
    "result": [
      {
        "electoralDistricts": [
          {
            "election": null,
            "id": 33,
            "name": "Guelph"
          }
        ],
        "pollDivisionIds": [
          10138412
        ],
        "postalCode": "N1G1P9",
        "streetName": "LYNWOOD",
        "streetDirectionId": null,
        "streetTypeId": "AVE",
        "placeName": "GUELPH",
        "streetNameDisplayText": "LYNWOOD AVE, GUELPH"
      }
    ]
  },
  {
    "postal": "N1G8V8",
    "result": []
  },
  {
    "postal": "N1G9G8",
    "result": []
  },
  {
    "postal": "N1G8H9",
    "result": []
  },
  {
    "postal": "N1G1Z1",
    "result": [
      {
        "electoralDistricts": [
          {
            "election": null,
            "id": 33,
            "name": "Guelph"
          }
        ],
        "pollDivisionIds": [
          10138412
        ],
        "postalCode": "N1G1Z1",
        "streetName": "CRAWFORD",
        "streetDirectionId": null,
        "streetTypeId": "ST",
        "placeName": "GUELPH",
        "streetNameDisplayText": "CRAWFORD ST, GUELPH"
      }
    ]
  },
  {
    "postal": "N1G8M3",
    "result": []
  },
  {
    "postal": "N1G5H6",
    "result": [
      {
        "electoralDistricts": [
          {
            "election": null,
            "id": 33,
            "name": "Guelph"
          }
        ],
        "pollDivisionIds": [
          10138424
        ],
        "postalCode": "N1G5H6",
        "streetName": "CLAIRFIELDS",
        "streetDirectionId": "W",
        "streetTypeId": "DR",
        "placeName": "GUELPH",
        "streetNameDisplayText": "CLAIRFIELDS DR W, GUELPH"
      },
      {
        "electoralDistricts": [
          {
            "election": null,
            "id": 33,
            "name": "Guelph"
          }
        ],
        "pollDivisionIds": [
          10138424
        ],
        "postalCode": "N1G5H6",
        "streetName": "DROHAN",
        "streetDirectionId": null,
        "streetTypeId": "DR",
        "placeName": "GUELPH",
        "streetNameDisplayText": "DROHAN DR, GUELPH"
      },
      {
        "electoralDistricts": [
          {
            "election": null,
            "id": 33,
            "name": "Guelph"
          }
        ],
        "pollDivisionIds": [
          10138424
        ],
        "postalCode": "N1G5H6",
        "streetName": "PAULSTOWN",
        "streetDirectionId": null,
        "streetTypeId": "CRES",
        "placeName": "GUELPH",
        "streetNameDisplayText": "PAULSTOWN CRES, GUELPH"
      }
    ]
  },
  {
    "postal": "N1G7W7",
    "result": []
  },
  {
    "postal": "N1G4L0",
    "result": []
  },
  {
    "postal": "N1G2N1",
    "result": [
      {
        "electoralDistricts": [
          {
            "election": null,
            "id": 33,
            "name": "Guelph"
          }
        ],
        "pollDivisionIds": [
          10138415
        ],
        "postalCode": "N1G2N1",
        "streetName": "OAK",
        "streetDirectionId": null,
        "streetTypeId": "ST",
        "placeName": "GUELPH",
        "streetNameDisplayText": "OAK ST, GUELPH"
      }
    ]
  },
  {
    "postal": "N1G2H4",
    "result": [
      {
        "electoralDistricts": [
          {
            "election": null,
            "id": 33,
            "name": "Guelph"
          }
        ],
        "pollDivisionIds": [
          10138412
        ],
        "postalCode": "N1G2H4",
        "streetName": "RODNEY",
        "streetDirectionId": null,
        "streetTypeId": "BLVD",
        "placeName": "GUELPH",
        "streetNameDisplayText": "RODNEY BLVD, GUELPH"
      }
    ]
  },
  {
    "postal": "N1G5C8",
    "result": [
      {
        "electoralDistricts": [
          {
            "election": null,
            "id": 33,
            "name": "Guelph"
          }
        ],
        "pollDivisionIds": [
          10143933
        ],
        "postalCode": "N1G5C8",
        "streetName": "GORDON",
        "streetDirectionId": null,
        "streetTypeId": "ST",
        "placeName": "GUELPH",
        "streetNameDisplayText": "GORDON ST, GUELPH"
      }
    ]
  },
  {
    "postal": "N1G8B0",
    "result": []
  },
  {
    "postal": "N1G1T4",
    "result": [
      {
        "electoralDistricts": [
          {
            "election": null,
            "id": 33,
            "name": "Guelph"
          }
        ],
        "pollDivisionIds": [
          10138413
        ],
        "postalCode": "N1G1T4",
        "streetName": "COLLEGE",
        "streetDirectionId": "W",
        "streetTypeId": "AVE",
        "placeName": "GUELPH",
        "streetNameDisplayText": "COLLEGE AVE W, GUELPH"
      }
    ]
  },
  {
    "postal": "N1G7N7",
    "result": []
  },
  {
    "postal": "N1G4L3",
    "result": [
      {
        "electoralDistricts": [
          {
            "election": null,
            "id": 33,
            "name": "Guelph"
          }
        ],
        "pollDivisionIds": [
          10138415
        ],
        "postalCode": "N1G4L3",
        "streetName": "HARVARD",
        "streetDirectionId": null,
        "streetTypeId": "RD",
        "placeName": "GUELPH",
        "streetNameDisplayText": "HARVARD RD, GUELPH"
      }
    ]
  },
  {
    "postal": "N1G2N2",
    "result": [
      {
        "electoralDistricts": [
          {
            "election": null,
            "id": 33,
            "name": "Guelph"
          }
        ],
        "pollDivisionIds": [
          10138415
        ],
        "postalCode": "N1G2N2",
        "streetName": "BIRCH",
        "streetDirectionId": null,
        "streetTypeId": "ST",
        "placeName": "GUELPH",
        "streetNameDisplayText": "BIRCH ST, GUELPH"
      }
    ]
  },
  {
    "postal": "N1G4N8",
    "result": [
      {
        "electoralDistricts": [
          {
            "election": null,
            "id": 33,
            "name": "Guelph"
          }
        ],
        "pollDivisionIds": [
          10143933
        ],
        "postalCode": "N1G4N8",
        "streetName": "KORTRIGHT",
        "streetDirectionId": "E",
        "streetTypeId": "RD",
        "placeName": "GUELPH",
        "streetNameDisplayText": "KORTRIGHT RD E, GUELPH"
      }
    ]
  },
  {
    "postal": "N1G3M5",
    "result": [
      {
        "electoralDistricts": [
          {
            "election": null,
            "id": 33,
            "name": "Guelph"
          }
        ],
        "pollDivisionIds": [
          10138424
        ],
        "postalCode": "N1G3M5",
        "streetName": "SOUTHGATE",
        "streetDirectionId": null,
        "streetTypeId": "DR",
        "placeName": "GUELPH",
        "streetNameDisplayText": "SOUTHGATE DR, GUELPH"
      },
      {
        "electoralDistricts": [
          {
            "election": null,
            "id": 33,
            "name": "Guelph"
          }
        ],
        "pollDivisionIds": [
          10138427
        ],
        "postalCode": "N1G3M5",
        "streetName": "SUMMERFIELD",
        "streetDirectionId": null,
        "streetTypeId": "DR",
        "placeName": "GUELPH",
        "streetNameDisplayText": "SUMMERFIELD DR, GUELPH"
      }
    ]
  },
  {
    "postal": "N1G6H7",
    "result": []
  },
  {
    "postal": "N1G8Y8",
    "result": []
  },
  {
    "postal": "N1G5R9",
    "result": []
  },
  {
    "postal": "N1G8G3",
    "result": []
  },
  {
    "postal": "N1G4N7",
    "result": [
      {
        "electoralDistricts": [
          {
            "election": null,
            "id": 33,
            "name": "Guelph"
          }
        ],
        "pollDivisionIds": [
          10138419
        ],
        "postalCode": "N1G4N7",
        "streetName": "CHRISTOPHER",
        "streetDirectionId": null,
        "streetTypeId": "CRT",
        "placeName": "GUELPH",
        "streetNameDisplayText": "CHRISTOPHER CRT, GUELPH"
      }
    ]
  },
  {
    "postal": "N1G0B9",
    "result": [
      {
        "electoralDistricts": [
          {
            "election": null,
            "id": 33,
            "name": "Guelph"
          }
        ],
        "pollDivisionIds": [
          10143933
        ],
        "postalCode": "N1G0B9",
        "streetName": "MCCANN",
        "streetDirectionId": null,
        "streetTypeId": "ST",
        "placeName": "GUELPH",
        "streetNameDisplayText": "MCCANN ST, GUELPH"
      }
    ]
  },
  {
    "postal": "N1G9K7",
    "result": []
  },
  {
    "postal": "N1G9K9",
    "result": []
  },
  {
    "postal": "N1G3Z2",
    "result": [
      {
        "electoralDistricts": [
          {
            "election": null,
            "id": 33,
            "name": "Guelph"
          }
        ],
        "pollDivisionIds": [
          10138415
        ],
        "postalCode": "N1G3Z2",
        "streetName": "STONE",
        "streetDirectionId": "W",
        "streetTypeId": "RD",
        "placeName": "GUELPH",
        "streetNameDisplayText": "STONE RD W, GUELPH"
      }
    ]
  },
  {
    "postal": "N1G6W7",
    "result": []
  },
  {
    "postal": "N1G0P1",
    "result": []
  },
  {
    "postal": "N1G3A0",
    "result": []
  },
  {
    "postal": "N1G8L9",
    "result": []
  },
  {
    "postal": "N1G6X0",
    "result": []
  },
  {
    "postal": "N1G3E9",
    "result": [
      {
        "electoralDistricts": [
          {
            "election": null,
            "id": 33,
            "name": "Guelph"
          }
        ],
        "pollDivisionIds": [
          10138419
        ],
        "postalCode": "N1G3E9",
        "streetName": "COLE",
        "streetDirectionId": null,
        "streetTypeId": "RD",
        "placeName": "GUELPH",
        "streetNameDisplayText": "COLE RD, GUELPH"
      }
    ]
  },
  {
    "postal": "N1G0S5",
    "result": []
  },
  {
    "postal": "N1G1A2",
    "result": [
      {
        "electoralDistricts": [
          {
            "election": null,
            "id": 33,
            "name": "Guelph"
          }
        ],
        "pollDivisionIds": [
          10138411
        ],
        "postalCode": "N1G1A2",
        "streetName": "MANOR PARK",
        "streetDirectionId": null,
        "streetTypeId": "CRES",
        "placeName": "GUELPH",
        "streetNameDisplayText": "MANOR PARK CRES, GUELPH"
      }
    ]
  },
  {
    "postal": "N1G5V8",
    "result": []
  },
  {
    "postal": "N1G8C5",
    "result": []
  },
  {
    "postal": "N1G6N0",
    "result": []
  },
  {
    "postal": "N1G9E6",
    "result": []
  },
  {
    "postal": "N1G5J7",
    "result": [
      {
        "electoralDistricts": [
          {
            "election": null,
            "id": 33,
            "name": "Guelph"
          }
        ],
        "pollDivisionIds": [
          10138424
        ],
        "postalCode": "N1G5J7",
        "streetName": "KEYS",
        "streetDirectionId": null,
        "streetTypeId": "CRES",
        "placeName": "GUELPH",
        "streetNameDisplayText": "KEYS CRES, GUELPH"
      }
    ]
  },
  {
    "postal": "N1G2R2",
    "result": [
      {
        "electoralDistricts": [
          {
            "election": null,
            "id": 33,
            "name": "Guelph"
          }
        ],
        "pollDivisionIds": [
          10138413
        ],
        "postalCode": "N1G2R2",
        "streetName": "CRANE",
        "streetDirectionId": null,
        "streetTypeId": "AVE",
        "placeName": "GUELPH",
        "streetNameDisplayText": "CRANE AVE, GUELPH"
      }
    ]
  },
  {
    "postal": "N1G0P5",
    "result": []
  },
  {
    "postal": "N1G5A7",
    "result": [
      {
        "electoralDistricts": [
          {
            "election": null,
            "id": 33,
            "name": "Guelph"
          }
        ],
        "pollDivisionIds": [
          10138422
        ],
        "postalCode": "N1G5A7",
        "streetName": "SOUTHCREEK",
        "streetDirectionId": null,
        "streetTypeId": "TRAIL",
        "placeName": "GUELPH",
        "streetNameDisplayText": "SOUTHCREEK TRAIL, GUELPH"
      },
      {
        "electoralDistricts": [
          {
            "election": null,
            "id": 33,
            "name": "Guelph"
          }
        ],
        "pollDivisionIds": [
          10138422
        ],
        "postalCode": "N1G5A7",
        "streetName": "TERRAVIEW",
        "streetDirectionId": null,
        "streetTypeId": "CRES",
        "placeName": "GUELPH",
        "streetNameDisplayText": "TERRAVIEW CRES, GUELPH"
      }
    ]
  },
  {
    "postal": "N1G1G1",
    "result": [
      {
        "electoralDistricts": [
          {
            "election": null,
            "id": 33,
            "name": "Guelph"
          }
        ],
        "pollDivisionIds": [
          10138411
        ],
        "postalCode": "N1G1G1",
        "streetName": "BELLEVUE",
        "streetDirectionId": null,
        "streetTypeId": "ST",
        "placeName": "GUELPH",
        "streetNameDisplayText": "BELLEVUE ST, GUELPH"
      }
    ]
  },
  {
    "postal": "N1G9R6",
    "result": []
  },
  {
    "postal": "N1G4Z9",
    "result": [
      {
        "electoralDistricts": [
          {
            "election": null,
            "id": 33,
            "name": "Guelph"
          }
        ],
        "pollDivisionIds": [
          10138422
        ],
        "postalCode": "N1G4Z9",
        "streetName": "GINGER",
        "streetDirectionId": null,
        "streetTypeId": "CRT",
        "placeName": "GUELPH",
        "streetNameDisplayText": "GINGER CRT, GUELPH"
      },
      {
        "electoralDistricts": [
          {
            "election": null,
            "id": 33,
            "name": "Guelph"
          }
        ],
        "pollDivisionIds": [
          10138422
        ],
        "postalCode": "N1G4Z9",
        "streetName": "MCCURDY",
        "streetDirectionId": null,
        "streetTypeId": "RD",
        "placeName": "GUELPH",
        "streetNameDisplayText": "MCCURDY RD, GUELPH"
      }
    ]
  },
  {
    "postal": "N1G1V5",
    "result": [
      {
        "electoralDistricts": [
          {
            "election": null,
            "id": 33,
            "name": "Guelph"
          }
        ],
        "pollDivisionIds": [
          10138414
        ],
        "postalCode": "N1G1V5",
        "streetName": "TORCH",
        "streetDirectionId": null,
        "streetTypeId": "LANE",
        "placeName": "GUELPH",
        "streetNameDisplayText": "TORCH LANE, GUELPH"
      }
    ]
  },
  {
    "postal": "N1G9Y5",
    "result": []
  },
  {
    "postal": "N1G1P2",
    "result": [
      {
        "electoralDistricts": [
          {
            "election": null,
            "id": 33,
            "name": "Guelph"
          }
        ],
        "pollDivisionIds": [
          10138412
        ],
        "postalCode": "N1G1P2",
        "streetName": "HEATHER",
        "streetDirectionId": null,
        "streetTypeId": "AVE",
        "placeName": "GUELPH",
        "streetNameDisplayText": "HEATHER AVE, GUELPH"
      }
    ]
  },
  {
    "postal": "N1G5X0",
    "result": []
  },
  {
    "postal": "N1G7B8",
    "result": []
  },
  {
    "postal": "N1G0C6",
    "result": [
      {
        "electoralDistricts": [
          {
            "election": null,
            "id": 33,
            "name": "Guelph"
          }
        ],
        "pollDivisionIds": [
          10138424
        ],
        "postalCode": "N1G0C6",
        "streetName": "SOUTHGATE",
        "streetDirectionId": null,
        "streetTypeId": "DR",
        "placeName": "GUELPH",
        "streetNameDisplayText": "SOUTHGATE DR, GUELPH"
      }
    ]
  },
  {
    "postal": "N1G6G1",
    "result": []
  },
  {
    "postal": "N1G3K3",
    "result": [
      {
        "electoralDistricts": [
          {
            "election": null,
            "id": 33,
            "name": "Guelph"
          }
        ],
        "pollDivisionIds": [
          10138419
        ],
        "postalCode": "N1G3K3",
        "streetName": "IRONWOOD",
        "streetDirectionId": null,
        "streetTypeId": "RD",
        "placeName": "GUELPH",
        "streetNameDisplayText": "IRONWOOD RD, GUELPH"
      }
    ]
  },
  {
    "postal": "N1G9R0",
    "result": []
  },
  {
    "postal": "N1G4R8",
    "result": [
      {
        "electoralDistricts": [
          {
            "election": null,
            "id": 33,
            "name": "Guelph"
          }
        ],
        "pollDivisionIds": [
          10138414
        ],
        "postalCode": "N1G4R8",
        "streetName": "JANEFIELD",
        "streetDirectionId": null,
        "streetTypeId": "AVE",
        "placeName": "GUELPH",
        "streetNameDisplayText": "JANEFIELD AVE, GUELPH"
      }
    ]
  },
  {
    "postal": "N1G5P9",
    "result": []
  },
  {
    "postal": "N1G8N4",
    "result": []
  },
  {
    "postal": "N1G8H4",
    "result": []
  },
  {
    "postal": "N1G4V1",
    "result": [
      {
        "electoralDistricts": [
          {
            "election": null,
            "id": 33,
            "name": "Guelph"
          }
        ],
        "pollDivisionIds": [
          10138422
        ],
        "postalCode": "N1G4V1",
        "streetName": "MOSS",
        "streetDirectionId": null,
        "streetTypeId": "PL",
        "placeName": "GUELPH",
        "streetNameDisplayText": "MOSS PL, GUELPH"
      },
      {
        "electoralDistricts": [
          {
            "election": null,
            "id": 33,
            "name": "Guelph"
          }
        ],
        "pollDivisionIds": [
          10138422
        ],
        "postalCode": "N1G4V1",
        "streetName": "SIDNEY",
        "streetDirectionId": null,
        "streetTypeId": "CRES",
        "placeName": "GUELPH",
        "streetNameDisplayText": "SIDNEY CRES, GUELPH"
      }
    ]
  },
  {
    "postal": "N1G1K5",
    "result": [
      {
        "electoralDistricts": [
          {
            "election": null,
            "id": 33,
            "name": "Guelph"
          }
        ],
        "pollDivisionIds": [
          10138412
        ],
        "postalCode": "N1G1K5",
        "streetName": "DEAN",
        "streetDirectionId": null,
        "streetTypeId": "AVE",
        "placeName": "GUELPH",
        "streetNameDisplayText": "DEAN AVE, GUELPH"
      }
    ]
  },
  {
    "postal": "N1G1Z5",
    "result": [
      {
        "electoralDistricts": [
          {
            "election": null,
            "id": 33,
            "name": "Guelph"
          }
        ],
        "pollDivisionIds": [
          10138412
        ],
        "postalCode": "N1G1Z5",
        "streetName": "BORDEN",
        "streetDirectionId": null,
        "streetTypeId": "ST",
        "placeName": "GUELPH",
        "streetNameDisplayText": "BORDEN ST, GUELPH"
      }
    ]
  },
  {
    "postal": "N1G9L9",
    "result": []
  },
  {
    "postal": "N1G5L2",
    "result": [
      {
        "electoralDistricts": [
          {
            "election": null,
            "id": 33,
            "name": "Guelph"
          }
        ],
        "pollDivisionIds": [
          10138415
        ],
        "postalCode": "N1G5L2",
        "streetName": "CHANCELLORS",
        "streetDirectionId": null,
        "streetTypeId": "WAY",
        "placeName": "GUELPH",
        "streetNameDisplayText": "CHANCELLORS WAY, GUELPH"
      }
    ]
  },
  {
    "postal": "N1G0M2",
    "result": []
  },
  {
    "postal": "N1G1K8",
    "result": [
      {
        "electoralDistricts": [
          {
            "election": null,
            "id": 33,
            "name": "Guelph"
          }
        ],
        "pollDivisionIds": [
          10138412
        ],
        "postalCode": "N1G1K8",
        "streetName": "DEAN",
        "streetDirectionId": null,
        "streetTypeId": "AVE",
        "placeName": "GUELPH",
        "streetNameDisplayText": "DEAN AVE, GUELPH"
      }
    ]
  },
  {
    "postal": "N1G3M7",
    "result": [
      {
        "electoralDistricts": [
          {
            "election": null,
            "id": 33,
            "name": "Guelph"
          }
        ],
        "pollDivisionIds": [
          10138415
        ],
        "postalCode": "N1G3M7",
        "streetName": "GRIERSON",
        "streetDirectionId": null,
        "streetTypeId": "DR",
        "placeName": "GUELPH",
        "streetNameDisplayText": "GRIERSON DR, GUELPH"
      }
    ]
  },
  {
    "postal": "N1G1B2",
    "result": [
      {
        "electoralDistricts": [
          {
            "election": null,
            "id": 33,
            "name": "Guelph"
          }
        ],
        "pollDivisionIds": [
          10138411
        ],
        "postalCode": "N1G1B2",
        "streetName": "WATER",
        "streetDirectionId": null,
        "streetTypeId": "ST",
        "placeName": "GUELPH",
        "streetNameDisplayText": "WATER ST, GUELPH"
      }
    ]
  },
  {
    "postal": "N1G0H9",
    "result": []
  },
  {
    "postal": "N1G8M4",
    "result": []
  },
  {
    "postal": "N1G2M5",
    "result": [
      {
        "electoralDistricts": [
          {
            "election": null,
            "id": 33,
            "name": "Guelph"
          }
        ],
        "pollDivisionIds": [
          10143933
        ],
        "postalCode": "N1G2M5",
        "streetName": "COLBORN",
        "streetDirectionId": null,
        "streetTypeId": "ST",
        "placeName": "GUELPH",
        "streetNameDisplayText": "COLBORN ST, GUELPH"
      }
    ]
  },
  {
    "postal": "N1G0T9",
    "result": []
  },
  {
    "postal": "N1G3P1",
    "result": [
      {
        "electoralDistricts": [
          {
            "election": null,
            "id": 33,
            "name": "Guelph"
          }
        ],
        "pollDivisionIds": [
          10138419
        ],
        "postalCode": "N1G3P1",
        "streetName": "IRONWOOD",
        "streetDirectionId": null,
        "streetTypeId": "RD",
        "placeName": "GUELPH",
        "streetNameDisplayText": "IRONWOOD RD, GUELPH"
      }
    ]
  },
  {
    "postal": "N1G1R6",
    "result": [
      {
        "electoralDistricts": [
          {
            "election": null,
            "id": 33,
            "name": "Guelph"
          }
        ],
        "pollDivisionIds": [
          10138412
        ],
        "postalCode": "N1G1R6",
        "streetName": "MOORE",
        "streetDirectionId": null,
        "streetTypeId": "AVE",
        "placeName": "GUELPH",
        "streetNameDisplayText": "MOORE AVE, GUELPH"
      }
    ]
  },
  {
    "postal": "N1G9V5",
    "result": []
  },
  {
    "postal": "N1G9T0",
    "result": []
  },
  {
    "postal": "N1G0A9",
    "result": [
      {
        "electoralDistricts": [
          {
            "election": null,
            "id": 33,
            "name": "Guelph"
          }
        ],
        "pollDivisionIds": [
          10138415
        ],
        "postalCode": "N1G0A9",
        "streetName": "STONE",
        "streetDirectionId": "W",
        "streetTypeId": "RD",
        "placeName": "GUELPH",
        "streetNameDisplayText": "STONE RD W, GUELPH"
      }
    ]
  },
  {
    "postal": "N1G1M3",
    "result": [
      {
        "electoralDistricts": [
          {
            "election": null,
            "id": 33,
            "name": "Guelph"
          }
        ],
        "pollDivisionIds": [
          10138412
        ],
        "postalCode": "N1G1M3",
        "streetName": "YEADON",
        "streetDirectionId": null,
        "streetTypeId": "DR",
        "placeName": "GUELPH",
        "streetNameDisplayText": "YEADON DR, GUELPH"
      }
    ]
  },
  {
    "postal": "N1G1W8",
    "result": [
      {
        "electoralDistricts": [
          {
            "election": null,
            "id": 33,
            "name": "Guelph"
          }
        ],
        "pollDivisionIds": [
          10138411
        ],
        "postalCode": "N1G1W8",
        "streetName": "VARDON",
        "streetDirectionId": null,
        "streetTypeId": "DR",
        "placeName": "GUELPH",
        "streetNameDisplayText": "VARDON DR, GUELPH"
      }
    ]
  },
  {
    "postal": "N1G9J1",
    "result": []
  },
  {
    "postal": "N1G8N5",
    "result": []
  },
  {
    "postal": "N1G5X1",
    "result": []
  },
  {
    "postal": "N1G6S2",
    "result": []
  },
  {
    "postal": "N1G2A2",
    "result": [
      {
        "electoralDistricts": [
          {
            "election": null,
            "id": 33,
            "name": "Guelph"
          }
        ],
        "pollDivisionIds": [
          10138411
        ],
        "postalCode": "N1G2A2",
        "streetName": "MARTIN",
        "streetDirectionId": null,
        "streetTypeId": "AVE",
        "placeName": "GUELPH",
        "streetNameDisplayText": "MARTIN AVE, GUELPH"
      }
    ]
  },
  {
    "postal": "N1G6A6",
    "result": []
  },
  {
    "postal": "N1G0S3",
    "result": []
  },
  {
    "postal": "N1G3E7",
    "result": [
      {
        "electoralDistricts": [
          {
            "election": null,
            "id": 33,
            "name": "Guelph"
          }
        ],
        "pollDivisionIds": [
          10138414
        ],
        "postalCode": "N1G3E7",
        "streetName": "SCOTTSDALE",
        "streetDirectionId": null,
        "streetTypeId": "DR",
        "placeName": "GUELPH",
        "streetNameDisplayText": "SCOTTSDALE DR, GUELPH"
      }
    ]
  },
  {
    "postal": "N1G5R7",
    "result": []
  },
  {
    "postal": "N1G3R6",
    "result": [
      {
        "electoralDistricts": [
          {
            "election": null,
            "id": 33,
            "name": "Guelph"
          }
        ],
        "pollDivisionIds": [
          10138419
        ],
        "postalCode": "N1G3R6",
        "streetName": "REID",
        "streetDirectionId": null,
        "streetTypeId": "CRT",
        "placeName": "GUELPH",
        "streetNameDisplayText": "REID CRT, GUELPH"
      }
    ]
  },
  {
    "postal": "N1G6K4",
    "result": []
  },
  {
    "postal": "N1G2W5",
    "result": [
      {
        "electoralDistricts": [
          {
            "election": null,
            "id": 33,
            "name": "Guelph"
          }
        ],
        "pollDivisionIds": [
          10138381,
          10138414
        ],
        "postalCode": "N1G2W5",
        "streetName": "WILSONVIEW",
        "streetDirectionId": null,
        "streetTypeId": "AVE",
        "placeName": "GUELPH",
        "streetNameDisplayText": "WILSONVIEW AVE, GUELPH"
      }
    ]
  },
  {
    "postal": "N1G8W4",
    "result": []
  },
  {
    "postal": "N1G9C2",
    "result": []
  },
  {
    "postal": "N1G2C0",
    "result": []
  },
  {
    "postal": "N1G0E1",
    "result": []
  },
  {
    "postal": "N1G1K9",
    "result": [
      {
        "electoralDistricts": [
          {
            "election": null,
            "id": 33,
            "name": "Guelph"
          }
        ],
        "pollDivisionIds": [
          10138412
        ],
        "postalCode": "N1G1K9",
        "streetName": "DEAN",
        "streetDirectionId": null,
        "streetTypeId": "AVE",
        "placeName": "GUELPH",
        "streetNameDisplayText": "DEAN AVE, GUELPH"
      }
    ]
  },
  {
    "postal": "N1G1G7",
    "result": [
      {
        "electoralDistricts": [
          {
            "election": null,
            "id": 33,
            "name": "Guelph"
          }
        ],
        "pollDivisionIds": [
          10138411
        ],
        "postalCode": "N1G1G7",
        "streetName": "DORMIE",
        "streetDirectionId": null,
        "streetTypeId": "LANE",
        "placeName": "GUELPH",
        "streetNameDisplayText": "DORMIE LANE, GUELPH"
      }
    ]
  },
  {
    "postal": "N1G4E9",
    "result": [
      {
        "electoralDistricts": [
          {
            "election": null,
            "id": 33,
            "name": "Guelph"
          }
        ],
        "pollDivisionIds": [
          10138419
        ],
        "postalCode": "N1G4E9",
        "streetName": "IRONWOOD",
        "streetDirectionId": null,
        "streetTypeId": "RD",
        "placeName": "GUELPH",
        "streetNameDisplayText": "IRONWOOD RD, GUELPH"
      }
    ]
  },
  {
    "postal": "N1G9P0",
    "result": []
  },
  {
    "postal": "N1G5H3",
    "result": [
      {
        "electoralDistricts": [
          {
            "election": null,
            "id": 33,
            "name": "Guelph"
          }
        ],
        "pollDivisionIds": [
          10138422
        ],
        "postalCode": "N1G5H3",
        "streetName": "CARRINGTON",
        "streetDirectionId": null,
        "streetTypeId": "DR",
        "placeName": "GUELPH",
        "streetNameDisplayText": "CARRINGTON DR, GUELPH"
      },
      {
        "electoralDistricts": [
          {
            "election": null,
            "id": 33,
            "name": "Guelph"
          }
        ],
        "pollDivisionIds": [
          10138422
        ],
        "postalCode": "N1G5H3",
        "streetName": "CARRINGTON",
        "streetDirectionId": null,
        "streetTypeId": "PL",
        "placeName": "GUELPH",
        "streetNameDisplayText": "CARRINGTON PL, GUELPH"
      },
      {
        "electoralDistricts": [
          {
            "election": null,
            "id": 33,
            "name": "Guelph"
          }
        ],
        "pollDivisionIds": [
          10138422
        ],
        "postalCode": "N1G5H3",
        "streetName": "TRUESDALE",
        "streetDirectionId": null,
        "streetTypeId": "CRES",
        "placeName": "GUELPH",
        "streetNameDisplayText": "TRUESDALE CRES, GUELPH"
      }
    ]
  },
  {
    "postal": "N1G9X6",
    "result": []
  },
  {
    "postal": "N1G5N7",
    "result": []
  },
  {
    "postal": "N1G5A6",
    "result": [
      {
        "electoralDistricts": [
          {
            "election": null,
            "id": 33,
            "name": "Guelph"
          }
        ],
        "pollDivisionIds": [
          10138424
        ],
        "postalCode": "N1G5A6",
        "streetName": "COOPERS",
        "streetDirectionId": null,
        "streetTypeId": "CRT",
        "placeName": "GUELPH",
        "streetNameDisplayText": "COOPERS CRT, GUELPH"
      },
      {
        "electoralDistricts": [
          {
            "election": null,
            "id": 33,
            "name": "Guelph"
          }
        ],
        "pollDivisionIds": [
          10138424
        ],
        "postalCode": "N1G5A6",
        "streetName": "JEAN ANDERSON",
        "streetDirectionId": null,
        "streetTypeId": "CRES",
        "placeName": "GUELPH",
        "streetNameDisplayText": "JEAN ANDERSON CRES, GUELPH"
      }
    ]
  },
  {
    "postal": "N1G4M0",
    "result": []
  },
  {
    "postal": "N1G3V6",
    "result": []
  },
  {
    "postal": "N1G1L7",
    "result": [
      {
        "electoralDistricts": [
          {
            "election": null,
            "id": 33,
            "name": "Guelph"
          }
        ],
        "pollDivisionIds": [
          10138412
        ],
        "postalCode": "N1G1L7",
        "streetName": "DEAN",
        "streetDirectionId": null,
        "streetTypeId": "AVE",
        "placeName": "GUELPH",
        "streetNameDisplayText": "DEAN AVE, GUELPH"
      }
    ]
  },
  {
    "postal": "N1G2P9",
    "result": [
      {
        "electoralDistricts": [
          {
            "election": null,
            "id": 33,
            "name": "Guelph"
          }
        ],
        "pollDivisionIds": [
          10138413
        ],
        "postalCode": "N1G2P9",
        "streetName": "PICADILLY",
        "streetDirectionId": null,
        "streetTypeId": "PL",
        "placeName": "GUELPH",
        "streetNameDisplayText": "PICADILLY PL, GUELPH"
      }
    ]
  },
  {
    "postal": "N1G5T4",
    "result": []
  },
  {
    "postal": "N1G5Z1",
    "result": []
  },
  {
    "postal": "N1G2X0",
    "result": []
  },
  {
    "postal": "N1G6Z2",
    "result": []
  },
  {
    "postal": "N1G0E0",
    "result": []
  },
  {
    "postal": "N1G3Z5",
    "result": [
      {
        "electoralDistricts": [
          {
            "election": null,
            "id": 33,
            "name": "Guelph"
          }
        ],
        "pollDivisionIds": [
          10138419
        ],
        "postalCode": "N1G3Z5",
        "streetName": "COLE",
        "streetDirectionId": null,
        "streetTypeId": "RD",
        "placeName": "GUELPH",
        "streetNameDisplayText": "COLE RD, GUELPH"
      },
      {
        "electoralDistricts": [
          {
            "election": null,
            "id": 33,
            "name": "Guelph"
          }
        ],
        "pollDivisionIds": [
          10138419
        ],
        "postalCode": "N1G3Z5",
        "streetName": "WHISPERING RIDGE",
        "streetDirectionId": null,
        "streetTypeId": "DR",
        "placeName": "GUELPH",
        "streetNameDisplayText": "WHISPERING RIDGE DR, GUELPH"
      }
    ]
  },
  {
    "postal": "N1G8H3",
    "result": []
  },
  {
    "postal": "N1G7S6",
    "result": []
  },
  {
    "postal": "N1G4C1",
    "result": [
      {
        "electoralDistricts": [
          {
            "election": null,
            "id": 33,
            "name": "Guelph"
          }
        ],
        "pollDivisionIds": [
          10138419
        ],
        "postalCode": "N1G4C1",
        "streetName": "BROOKHAVEN",
        "streetDirectionId": null,
        "streetTypeId": "CRT",
        "placeName": "GUELPH",
        "streetNameDisplayText": "BROOKHAVEN CRT, GUELPH"
      },
      {
        "electoralDistricts": [
          {
            "election": null,
            "id": 33,
            "name": "Guelph"
          }
        ],
        "pollDivisionIds": [
          10138419
        ],
        "postalCode": "N1G4C1",
        "streetName": "HILLDALE",
        "streetDirectionId": null,
        "streetTypeId": "CRES",
        "placeName": "GUELPH",
        "streetNameDisplayText": "HILLDALE CRES, GUELPH"
      }
    ]
  },
  {
    "postal": "N1G3K2",
    "result": [
      {
        "electoralDistricts": [
          {
            "election": null,
            "id": 33,
            "name": "Guelph"
          }
        ],
        "pollDivisionIds": [
          10143933
        ],
        "postalCode": "N1G3K2",
        "streetName": "HANDS",
        "streetDirectionId": null,
        "streetTypeId": "DR",
        "placeName": "GUELPH",
        "streetNameDisplayText": "HANDS DR, GUELPH"
      }
    ]
  },
  {
    "postal": "N1G1Y5",
    "result": []
  },
  {
    "postal": "N1G6P6",
    "result": []
  },
  {
    "postal": "N1G3N9",
    "result": [
      {
        "electoralDistricts": [
          {
            "election": null,
            "id": 33,
            "name": "Guelph"
          }
        ],
        "pollDivisionIds": [
          10138415
        ],
        "postalCode": "N1G3N9",
        "streetName": "KORTRIGHT",
        "streetDirectionId": "W",
        "streetTypeId": "RD",
        "placeName": "GUELPH",
        "streetNameDisplayText": "KORTRIGHT RD W, GUELPH"
      }
    ]
  },
  {
    "postal": "N1G3W2",
    "result": []
  },
  {
    "postal": "N1G6H8",
    "result": []
  },
  {
    "postal": "N1G9T3",
    "result": []
  },
  {
    "postal": "N1G5L9",
    "result": []
  },
  {
    "postal": "N1G7X7",
    "result": []
  },
  {
    "postal": "N1G3J5",
    "result": [
      {
        "electoralDistricts": [
          {
            "election": null,
            "id": 33,
            "name": "Guelph"
          }
        ],
        "pollDivisionIds": [
          10138415
        ],
        "postalCode": "N1G3J5",
        "streetName": "RICKSON",
        "streetDirectionId": null,
        "streetTypeId": "AVE",
        "placeName": "GUELPH",
        "streetNameDisplayText": "RICKSON AVE, GUELPH"
      }
    ]
  },
  {
    "postal": "N1G4J5",
    "result": [
      {
        "electoralDistricts": [
          {
            "election": null,
            "id": 33,
            "name": "Guelph"
          }
        ],
        "pollDivisionIds": [
          10138415
        ],
        "postalCode": "N1G4J5",
        "streetName": "MCELDERRY",
        "streetDirectionId": null,
        "streetTypeId": "RD",
        "placeName": "GUELPH",
        "streetNameDisplayText": "MCELDERRY RD, GUELPH"
      }
    ]
  },
  {
    "postal": "N1G6J2",
    "result": []
  },
  {
    "postal": "N1G5V6",
    "result": []
  },
  {
    "postal": "N1G3N2",
    "result": [
      {
        "electoralDistricts": [
          {
            "election": null,
            "id": 33,
            "name": "Guelph"
          }
        ],
        "pollDivisionIds": [
          10138418,
          10138417
        ],
        "postalCode": "N1G3N2",
        "streetName": "WOODLAND GLEN",
        "streetDirectionId": null,
        "streetTypeId": "DR",
        "placeName": "GUELPH",
        "streetNameDisplayText": "WOODLAND GLEN DR, GUELPH"
      }
    ]
  },
  {
    "postal": "N1G3B1",
    "result": [
      {
        "electoralDistricts": [
          {
            "election": null,
            "id": 33,
            "name": "Guelph"
          }
        ],
        "pollDivisionIds": [
          10138415
        ],
        "postalCode": "N1G3B1",
        "streetName": "KEATS",
        "streetDirectionId": null,
        "streetTypeId": "CRES",
        "placeName": "GUELPH",
        "streetNameDisplayText": "KEATS CRES, GUELPH"
      }
    ]
  },
  {
    "postal": "N1G8B5",
    "result": []
  },
  {
    "postal": "N1G0K1",
    "result": []
  },
  {
    "postal": "N1G7M7",
    "result": []
  },
  {
    "postal": "N1G2M2",
    "result": [
      {
        "electoralDistricts": [
          {
            "election": null,
            "id": 33,
            "name": "Guelph"
          }
        ],
        "pollDivisionIds": [
          10143933
        ],
        "postalCode": "N1G2M2",
        "streetName": "MONTICELLO",
        "streetDirectionId": null,
        "streetTypeId": "CRES",
        "placeName": "GUELPH",
        "streetNameDisplayText": "MONTICELLO CRES, GUELPH"
      }
    ]
  },
  {
    "postal": "N1G9N3",
    "result": []
  },
  {
    "postal": "N1G4Y8",
    "result": [
      {
        "electoralDistricts": [
          {
            "election": null,
            "id": 33,
            "name": "Guelph"
          }
        ],
        "pollDivisionIds": [
          10138422
        ],
        "postalCode": "N1G4Y8",
        "streetName": "SOUTHCREEK",
        "streetDirectionId": null,
        "streetTypeId": "TRAIL",
        "placeName": "GUELPH",
        "streetNameDisplayText": "SOUTHCREEK TRAIL, GUELPH"
      }
    ]
  },
  {
    "postal": "N1G3V7",
    "result": []
  },
  {
    "postal": "N1G8Z1",
    "result": []
  },
  {
    "postal": "N1G7B3",
    "result": []
  },
  {
    "postal": "N1G3A8",
    "result": [
      {
        "electoralDistricts": [
          {
            "election": null,
            "id": 33,
            "name": "Guelph"
          }
        ],
        "pollDivisionIds": [
          10138415
        ],
        "postalCode": "N1G3A8",
        "streetName": "COLUMBUS",
        "streetDirectionId": null,
        "streetTypeId": "CRES",
        "placeName": "GUELPH",
        "streetNameDisplayText": "COLUMBUS CRES, GUELPH"
      }
    ]
  },
  {
    "postal": "N1G7V5",
    "result": []
  },
  {
    "postal": "N1G2T2",
    "result": [
      {
        "electoralDistricts": [
          {
            "election": null,
            "id": 33,
            "name": "Guelph"
          }
        ],
        "pollDivisionIds": [
          10138413
        ],
        "postalCode": "N1G2T2",
        "streetName": "DEVERE",
        "streetDirectionId": null,
        "streetTypeId": "DR",
        "placeName": "GUELPH",
        "streetNameDisplayText": "DEVERE DR, GUELPH"
      }
    ]
  },
  {
    "postal": "N1G6L3",
    "result": []
  },
  {
    "postal": "N1G0L2",
    "result": []
  },
  {
    "postal": "N1G5Y8",
    "result": []
  },
  {
    "postal": "N1G0B8",
    "result": [
      {
        "electoralDistricts": [
          {
            "election": null,
            "id": 33,
            "name": "Guelph"
          }
        ],
        "pollDivisionIds": [
          10138423
        ],
        "postalCode": "N1G0B8",
        "streetName": "REVELL",
        "streetDirectionId": null,
        "streetTypeId": "DR",
        "placeName": "GUELPH",
        "streetNameDisplayText": "REVELL DR, GUELPH"
      },
      {
        "electoralDistricts": [
          {
            "election": null,
            "id": 33,
            "name": "Guelph"
          }
        ],
        "pollDivisionIds": [
          10138423
        ],
        "postalCode": "N1G0B8",
        "streetName": "VAUGHAN",
        "streetDirectionId": null,
        "streetTypeId": "ST",
        "placeName": "GUELPH",
        "streetNameDisplayText": "VAUGHAN ST, GUELPH"
      }
    ]
  },
  {
    "postal": "N1G6R5",
    "result": []
  },
  {
    "postal": "N1G8W6",
    "result": []
  },
  {
    "postal": "N1G8G6",
    "result": []
  },
  {
    "postal": "N1G6X3",
    "result": []
  },
  {
    "postal": "N1G7R7",
    "result": []
  },
  {
    "postal": "N1G4B6",
    "result": [
      {
        "electoralDistricts": [
          {
            "election": null,
            "id": 33,
            "name": "Guelph"
          }
        ],
        "pollDivisionIds": [
          10138419
        ],
        "postalCode": "N1G4B6",
        "streetName": "HILLDALE",
        "streetDirectionId": null,
        "streetTypeId": "CRES",
        "placeName": "GUELPH",
        "streetNameDisplayText": "HILLDALE CRES, GUELPH"
      }
    ]
  },
  {
    "postal": "N1G3P9",
    "result": [
      {
        "electoralDistricts": [
          {
            "election": null,
            "id": 33,
            "name": "Guelph"
          }
        ],
        "pollDivisionIds": [
          10138415
        ],
        "postalCode": "N1G3P9",
        "streetName": "HARVARD",
        "streetDirectionId": null,
        "streetTypeId": "RD",
        "placeName": "GUELPH",
        "streetNameDisplayText": "HARVARD RD, GUELPH"
      }
    ]
  },
  {
    "postal": "N1G2T3",
    "result": [
      {
        "electoralDistricts": [
          {
            "election": null,
            "id": 33,
            "name": "Guelph"
          }
        ],
        "pollDivisionIds": [
          10138408,
          10138413
        ],
        "postalCode": "N1G2T3",
        "streetName": "DEVERE",
        "streetDirectionId": null,
        "streetTypeId": "DR",
        "placeName": "GUELPH",
        "streetNameDisplayText": "DEVERE DR, GUELPH"
      }
    ]
  },
  {
    "postal": "N1G1M4",
    "result": [
      {
        "electoralDistricts": [
          {
            "election": null,
            "id": 33,
            "name": "Guelph"
          }
        ],
        "pollDivisionIds": [
          10138412
        ],
        "postalCode": "N1G1M4",
        "streetName": "YEADON",
        "streetDirectionId": null,
        "streetTypeId": "DR",
        "placeName": "GUELPH",
        "streetNameDisplayText": "YEADON DR, GUELPH"
      }
    ]
  },
  {
    "postal": "N1G0H1",
    "result": []
  },
  {
    "postal": "N1G9W3",
    "result": []
  },
  {
    "postal": "N1G6P1",
    "result": []
  },
  {
    "postal": "N1G7G2",
    "result": []
  },
  {
    "postal": "N1G4J9",
    "result": [
      {
        "electoralDistricts": [
          {
            "election": null,
            "id": 33,
            "name": "Guelph"
          }
        ],
        "pollDivisionIds": [
          10138415
        ],
        "postalCode": "N1G4J9",
        "streetName": "MCELDERRY",
        "streetDirectionId": null,
        "streetTypeId": "RD",
        "placeName": "GUELPH",
        "streetNameDisplayText": "MCELDERRY RD, GUELPH"
      }
    ]
  },
  {
    "postal": "N1G9E4",
    "result": []
  },
  {
    "postal": "N1G8H0",
    "result": []
  },
  {
    "postal": "N1G4M7",
    "result": [
      {
        "electoralDistricts": [
          {
            "election": null,
            "id": 33,
            "name": "Guelph"
          }
        ],
        "pollDivisionIds": [
          10143933
        ],
        "postalCode": "N1G4M7",
        "streetName": "DOOLEY",
        "streetDirectionId": null,
        "streetTypeId": "PL",
        "placeName": "GUELPH",
        "streetNameDisplayText": "DOOLEY PL, GUELPH"
      },
      {
        "electoralDistricts": [
          {
            "election": null,
            "id": 33,
            "name": "Guelph"
          }
        ],
        "pollDivisionIds": [
          10143933
        ],
        "postalCode": "N1G4M7",
        "streetName": "HANDS",
        "streetDirectionId": null,
        "streetTypeId": "DR",
        "placeName": "GUELPH",
        "streetNameDisplayText": "HANDS DR, GUELPH"
      }
    ]
  },
  {
    "postal": "N1G2G9",
    "result": [
      {
        "electoralDistricts": [
          {
            "election": null,
            "id": 33,
            "name": "Guelph"
          }
        ],
        "pollDivisionIds": [
          10138412
        ],
        "postalCode": "N1G2G9",
        "streetName": "WOODSIDE",
        "streetDirectionId": null,
        "streetTypeId": "RD",
        "placeName": "GUELPH",
        "streetNameDisplayText": "WOODSIDE RD, GUELPH"
      }
    ]
  },
  {
    "postal": "N1G8T2",
    "result": []
  },
  {
    "postal": "N1G7G7",
    "result": []
  },
  {
    "postal": "N1G4Z3",
    "result": [
      {
        "electoralDistricts": [
          {
            "election": null,
            "id": 33,
            "name": "Guelph"
          }
        ],
        "pollDivisionIds": [
          10138415
        ],
        "postalCode": "N1G4Z3",
        "streetName": "RESEARCH",
        "streetDirectionId": null,
        "streetTypeId": "LANE",
        "placeName": "GUELPH",
        "streetNameDisplayText": "RESEARCH LANE, GUELPH"
      }
    ]
  },
  {
    "postal": "N1G5B3",
    "result": [
      {
        "electoralDistricts": [
          {
            "election": null,
            "id": 33,
            "name": "Guelph"
          }
        ],
        "pollDivisionIds": [
          10138422
        ],
        "postalCode": "N1G5B3",
        "streetName": "GINGER",
        "streetDirectionId": null,
        "streetTypeId": "CRT",
        "placeName": "GUELPH",
        "streetNameDisplayText": "GINGER CRT, GUELPH"
      }
    ]
  },
  {
    "postal": "N1G1S7",
    "result": [
      {
        "electoralDistricts": [
          {
            "election": null,
            "id": 33,
            "name": "Guelph"
          }
        ],
        "pollDivisionIds": [
          10138414
        ],
        "postalCode": "N1G1S7",
        "streetName": "COLLEGE",
        "streetDirectionId": "W",
        "streetTypeId": "AVE",
        "placeName": "GUELPH",
        "streetNameDisplayText": "COLLEGE AVE W, GUELPH"
      }
    ]
  },
  {
    "postal": "N1G2N7",
    "result": [
      {
        "electoralDistricts": [
          {
            "election": null,
            "id": 33,
            "name": "Guelph"
          }
        ],
        "pollDivisionIds": [
          10138415
        ],
        "postalCode": "N1G2N7",
        "streetName": "YEWHOLME",
        "streetDirectionId": null,
        "streetTypeId": "DR",
        "placeName": "GUELPH",
        "streetNameDisplayText": "YEWHOLME DR, GUELPH"
      }
    ]
  },
  {
    "postal": "N1G0H8",
    "result": []
  },
  {
    "postal": "N1G7Z4",
    "result": []
  },
  {
    "postal": "N1G7B1",
    "result": []
  },
  {
    "postal": "N1G7P8",
    "result": []
  },
  {
    "postal": "N1G7N0",
    "result": []
  },
  {
    "postal": "N1G3Y5",
    "result": []
  },
  {
    "postal": "N1G6K1",
    "result": []
  },
  {
    "postal": "N1G9X5",
    "result": []
  },
  {
    "postal": "N1G7S5",
    "result": []
  },
  {
    "postal": "N1G0A4",
    "result": [
      {
        "electoralDistricts": [
          {
            "election": null,
            "id": 33,
            "name": "Guelph"
          }
        ],
        "pollDivisionIds": [
          10143933
        ],
        "postalCode": "N1G0A4",
        "streetName": "LORNA",
        "streetDirectionId": null,
        "streetTypeId": "DR",
        "placeName": "GUELPH",
        "streetNameDisplayText": "LORNA DR, GUELPH"
      }
    ]
  },
  {
    "postal": "N1G4T5",
    "result": []
  },
  {
    "postal": "N1G5K1",
    "result": [
      {
        "electoralDistricts": [
          {
            "election": null,
            "id": 33,
            "name": "Guelph"
          }
        ],
        "pollDivisionIds": [
          10138415
        ],
        "postalCode": "N1G5K1",
        "streetName": "CHANCELLORS",
        "streetDirectionId": null,
        "streetTypeId": "WAY",
        "placeName": "GUELPH",
        "streetNameDisplayText": "CHANCELLORS WAY, GUELPH"
      }
    ]
  },
  {
    "postal": "N1G0Z9",
    "result": []
  },
  {
    "postal": "N1G7T2",
    "result": []
  },
  {
    "postal": "N1G1L5",
    "result": [
      {
        "electoralDistricts": [
          {
            "election": null,
            "id": 33,
            "name": "Guelph"
          }
        ],
        "pollDivisionIds": [
          10138412
        ],
        "postalCode": "N1G1L5",
        "streetName": "DEAN",
        "streetDirectionId": null,
        "streetTypeId": "AVE",
        "placeName": "GUELPH",
        "streetNameDisplayText": "DEAN AVE, GUELPH"
      }
    ]
  },
  {
    "postal": "N1G3N5",
    "result": [
      {
        "electoralDistricts": [
          {
            "election": null,
            "id": 33,
            "name": "Guelph"
          }
        ],
        "pollDivisionIds": [
          10138419
        ],
        "postalCode": "N1G3N5",
        "streetName": "STEFFLER",
        "streetDirectionId": null,
        "streetTypeId": "DR",
        "placeName": "GUELPH",
        "streetNameDisplayText": "STEFFLER DR, GUELPH"
      }
    ]
  },
  {
    "postal": "N1G6H4",
    "result": []
  },
  {
    "postal": "N1G5A5",
    "result": [
      {
        "electoralDistricts": [
          {
            "election": null,
            "id": 33,
            "name": "Guelph"
          }
        ],
        "pollDivisionIds": [
          10138424
        ],
        "postalCode": "N1G5A5",
        "streetName": "CLAIRFIELDS",
        "streetDirectionId": "W",
        "streetTypeId": "DR",
        "placeName": "GUELPH",
        "streetNameDisplayText": "CLAIRFIELDS DR W, GUELPH"
      },
      {
        "electoralDistricts": [
          {
            "election": null,
            "id": 33,
            "name": "Guelph"
          }
        ],
        "pollDivisionIds": [
          10138424
        ],
        "postalCode": "N1G5A5",
        "streetName": "HAYWARD",
        "streetDirectionId": null,
        "streetTypeId": "CRES",
        "placeName": "GUELPH",
        "streetNameDisplayText": "HAYWARD CRES, GUELPH"
      },
      {
        "electoralDistricts": [
          {
            "election": null,
            "id": 33,
            "name": "Guelph"
          }
        ],
        "pollDivisionIds": [
          10138424
        ],
        "postalCode": "N1G5A5",
        "streetName": "JEAN ANDERSON",
        "streetDirectionId": null,
        "streetTypeId": "CRES",
        "placeName": "GUELPH",
        "streetNameDisplayText": "JEAN ANDERSON CRES, GUELPH"
      }
    ]
  },
  {
    "postal": "N1G3R9",
    "result": [
      {
        "electoralDistricts": [
          {
            "election": null,
            "id": 33,
            "name": "Guelph"
          }
        ],
        "pollDivisionIds": [
          10138419
        ],
        "postalCode": "N1G3R9",
        "streetName": "HOSKING",
        "streetDirectionId": null,
        "streetTypeId": "PL",
        "placeName": "GUELPH",
        "streetNameDisplayText": "HOSKING PL, GUELPH"
      }
    ]
  },
  {
    "postal": "N1G7L8",
    "result": []
  },
  {
    "postal": "N1G6T6",
    "result": []
  },
  {
    "postal": "N1G7Y7",
    "result": []
  },
  {
    "postal": "N1G3M8",
    "result": [
      {
        "electoralDistricts": [
          {
            "election": null,
            "id": 33,
            "name": "Guelph"
          }
        ],
        "pollDivisionIds": [
          10138419
        ],
        "postalCode": "N1G3M8",
        "streetName": "SAGEWOOD",
        "streetDirectionId": null,
        "streetTypeId": "PL",
        "placeName": "GUELPH",
        "streetNameDisplayText": "SAGEWOOD PL, GUELPH"
      }
    ]
  },
  {
    "postal": "N1G2E0",
    "result": []
  },
  {
    "postal": "N1G4B5",
    "result": [
      {
        "electoralDistricts": [
          {
            "election": null,
            "id": 33,
            "name": "Guelph"
          }
        ],
        "pollDivisionIds": [
          10138419
        ],
        "postalCode": "N1G4B5",
        "streetName": "HILLDALE",
        "streetDirectionId": null,
        "streetTypeId": "CRES",
        "placeName": "GUELPH",
        "streetNameDisplayText": "HILLDALE CRES, GUELPH"
      }
    ]
  },
  {
    "postal": "N1G1J3",
    "result": [
      {
        "electoralDistricts": [
          {
            "election": null,
            "id": 33,
            "name": "Guelph"
          }
        ],
        "pollDivisionIds": [
          10138412
        ],
        "postalCode": "N1G1J3",
        "streetName": "FOREST",
        "streetDirectionId": null,
        "streetTypeId": "ST",
        "placeName": "GUELPH",
        "streetNameDisplayText": "FOREST ST, GUELPH"
      }
    ]
  },
  {
    "postal": "N1G5S6",
    "result": []
  },
  {
    "postal": "N1G8P7",
    "result": []
  },
  {
    "postal": "N1G7S7",
    "result": []
  },
  {
    "postal": "N1G4C2",
    "result": [
      {
        "electoralDistricts": [
          {
            "election": null,
            "id": 33,
            "name": "Guelph"
          }
        ],
        "pollDivisionIds": [
          10138419
        ],
        "postalCode": "N1G4C2",
        "streetName": "BROOKHAVEN",
        "streetDirectionId": null,
        "streetTypeId": "CRT",
        "placeName": "GUELPH",
        "streetNameDisplayText": "BROOKHAVEN CRT, GUELPH"
      }
    ]
  },
  {
    "postal": "N1G5Y0",
    "result": []
  },
  {
    "postal": "N1G2V7",
    "result": [
      {
        "electoralDistricts": [
          {
            "election": null,
            "id": 33,
            "name": "Guelph"
          }
        ],
        "pollDivisionIds": [
          10138415
        ],
        "postalCode": "N1G2V7",
        "streetName": "STONE",
        "streetDirectionId": "W",
        "streetTypeId": "RD",
        "placeName": "GUELPH",
        "streetNameDisplayText": "STONE RD W, GUELPH"
      }
    ]
  },
  {
    "postal": "N1G8P5",
    "result": []
  },
  {
    "postal": "N1G5P5",
    "result": []
  },
  {
    "postal": "N1G5Z0",
    "result": []
  },
  {
    "postal": "N1G9B0",
    "result": []
  },
  {
    "postal": "N1G1L0",
    "result": []
  },
  {
    "postal": "N1G0B5",
    "result": []
  },
  {
    "postal": "N1G3L2",
    "result": [
      {
        "electoralDistricts": [
          {
            "election": null,
            "id": 33,
            "name": "Guelph"
          }
        ],
        "pollDivisionIds": [
          10138419
        ],
        "postalCode": "N1G3L2",
        "streetName": "ERVIN",
        "streetDirectionId": null,
        "streetTypeId": "CRES",
        "placeName": "GUELPH",
        "streetNameDisplayText": "ERVIN CRES, GUELPH"
      }
    ]
  },
  {
    "postal": "N1G3B7",
    "result": [
      {
        "electoralDistricts": [
          {
            "election": null,
            "id": 33,
            "name": "Guelph"
          }
        ],
        "pollDivisionIds": [
          10143933
        ],
        "postalCode": "N1G3B7",
        "streetName": "HANDS",
        "streetDirectionId": null,
        "streetTypeId": "DR",
        "placeName": "GUELPH",
        "streetNameDisplayText": "HANDS DR, GUELPH"
      }
    ]
  },
  {
    "postal": "N1G8L1",
    "result": []
  },
  {
    "postal": "N1G5M4",
    "result": []
  },
  {
    "postal": "N1G4G9",
    "result": [
      {
        "electoralDistricts": [
          {
            "election": null,
            "id": 33,
            "name": "Guelph"
          }
        ],
        "pollDivisionIds": [
          10138419
        ],
        "postalCode": "N1G4G9",
        "streetName": "EDINBURGH",
        "streetDirectionId": "S",
        "streetTypeId": "RD",
        "placeName": "GUELPH",
        "streetNameDisplayText": "EDINBURGH RD S, GUELPH"
      }
    ]
  },
  {
    "postal": "N1G0P0",
    "result": []
  },
  {
    "postal": "N1G8G2",
    "result": []
  },
  {
    "postal": "N1G1V9",
    "result": [
      {
        "electoralDistricts": [
          {
            "election": null,
            "id": 33,
            "name": "Guelph"
          }
        ],
        "pollDivisionIds": [
          10138413
        ],
        "postalCode": "N1G1V9",
        "streetName": "FLANDERS",
        "streetDirectionId": null,
        "streetTypeId": "RD",
        "placeName": "GUELPH",
        "streetNameDisplayText": "FLANDERS RD, GUELPH"
      }
    ]
  },
  {
    "postal": "N1G8N8",
    "result": []
  },
  {
    "postal": "N1G6S8",
    "result": []
  },
  {
    "postal": "N1G8H2",
    "result": []
  },
  {
    "postal": "N1G5R8",
    "result": []
  },
  {
    "postal": "N1G5L4",
    "result": [
      {
        "electoralDistricts": [
          {
            "election": null,
            "id": 33,
            "name": "Guelph"
          }
        ],
        "pollDivisionIds": [
          10138415
        ],
        "postalCode": "N1G5L4",
        "streetName": "STONE",
        "streetDirectionId": "W",
        "streetTypeId": "RD",
        "placeName": "GUELPH",
        "streetNameDisplayText": "STONE RD W, GUELPH"
      }
    ]
  },
  {
    "postal": "N1G9E1",
    "result": []
  },
  {
    "postal": "N1G1C4",
    "result": [
      {
        "electoralDistricts": [
          {
            "election": null,
            "id": 33,
            "name": "Guelph"
          }
        ],
        "pollDivisionIds": [
          10138411,
          10138415
        ],
        "postalCode": "N1G1C4",
        "streetName": "CEDAR",
        "streetDirectionId": null,
        "streetTypeId": "ST",
        "placeName": "GUELPH",
        "streetNameDisplayText": "CEDAR ST, GUELPH"
      }
    ]
  },
  {
    "postal": "N1G8W5",
    "result": []
  },
  {
    "postal": "N1G1Y4",
    "result": []
  },
  {
    "postal": "N1G1C0",
    "result": []
  },
  {
    "postal": "N1G2J2",
    "result": [
      {
        "electoralDistricts": [
          {
            "election": null,
            "id": 33,
            "name": "Guelph"
          }
        ],
        "pollDivisionIds": [
          10138411
        ],
        "postalCode": "N1G2J2",
        "streetName": "EDINBURGH",
        "streetDirectionId": "S",
        "streetTypeId": "RD",
        "placeName": "GUELPH",
        "streetNameDisplayText": "EDINBURGH RD S, GUELPH"
      }
    ]
  },
  {
    "postal": "N1G2J0",
    "result": []
  },
  {
    "postal": "N1G7A3",
    "result": []
  },
  {
    "postal": "N1G8M1",
    "result": []
  },
  {
    "postal": "N1G7T9",
    "result": []
  },
  {
    "postal": "N1G6C0",
    "result": []
  },
  {
    "postal": "N1G7X1",
    "result": []
  },
  {
    "postal": "N1G0G1",
    "result": [
      {
        "electoralDistricts": [
          {
            "election": null,
            "id": 33,
            "name": "Guelph"
          }
        ],
        "pollDivisionIds": [
          10138423
        ],
        "postalCode": "N1G0G1",
        "streetName": "AMBROUS",
        "streetDirectionId": null,
        "streetTypeId": "CRES",
        "placeName": "GUELPH",
        "streetNameDisplayText": "AMBROUS CRES, GUELPH"
      },
      {
        "electoralDistricts": [
          {
            "election": null,
            "id": 33,
            "name": "Guelph"
          }
        ],
        "pollDivisionIds": [
          10138423
        ],
        "postalCode": "N1G0G1",
        "streetName": "KIRVAN",
        "streetDirectionId": null,
        "streetTypeId": "DR",
        "placeName": "GUELPH",
        "streetNameDisplayText": "KIRVAN DR, GUELPH"
      },
      {
        "electoralDistricts": [
          {
            "election": null,
            "id": 33,
            "name": "Guelph"
          }
        ],
        "pollDivisionIds": [
          10138423
        ],
        "postalCode": "N1G0G1",
        "streetName": "MACALISTER",
        "streetDirectionId": null,
        "streetTypeId": "BLVD",
        "placeName": "GUELPH",
        "streetNameDisplayText": "MACALISTER BLVD, GUELPH"
      }
    ]
  },
  {
    "postal": "N1G4X2",
    "result": [
      {
        "electoralDistricts": [
          {
            "election": null,
            "id": 33,
            "name": "Guelph"
          }
        ],
        "pollDivisionIds": [
          10138423
        ],
        "postalCode": "N1G4X2",
        "streetName": "DAWN",
        "streetDirectionId": null,
        "streetTypeId": "AVE",
        "placeName": "GUELPH",
        "streetNameDisplayText": "DAWN AVE, GUELPH"
      },
      {
        "electoralDistricts": [
          {
            "election": null,
            "id": 33,
            "name": "Guelph"
          }
        ],
        "pollDivisionIds": [
          10138384,
          10138423
        ],
        "postalCode": "N1G4X2",
        "streetName": "LOWES",
        "streetDirectionId": null,
        "streetTypeId": "RD",
        "placeName": "GUELPH",
        "streetNameDisplayText": "LOWES RD, GUELPH"
      }
    ]
  },
  {
    "postal": "N1G0N6",
    "result": []
  },
  {
    "postal": "N1G8E3",
    "result": []
  },
  {
    "postal": "N1G5S8",
    "result": []
  },
  {
    "postal": "N1G0R0",
    "result": []
  },
  {
    "postal": "N1G6J6",
    "result": []
  },
  {
    "postal": "N1G4B4",
    "result": [
      {
        "electoralDistricts": [
          {
            "election": null,
            "id": 33,
            "name": "Guelph"
          }
        ],
        "pollDivisionIds": [
          10143933
        ],
        "postalCode": "N1G4B4",
        "streetName": "HANDS",
        "streetDirectionId": null,
        "streetTypeId": "DR",
        "placeName": "GUELPH",
        "streetNameDisplayText": "HANDS DR, GUELPH"
      },
      {
        "electoralDistricts": [
          {
            "election": null,
            "id": 33,
            "name": "Guelph"
          }
        ],
        "pollDivisionIds": [
          10143933
        ],
        "postalCode": "N1G4B4",
        "streetName": "LORNA",
        "streetDirectionId": null,
        "streetTypeId": "DR",
        "placeName": "GUELPH",
        "streetNameDisplayText": "LORNA DR, GUELPH"
      }
    ]
  },
  {
    "postal": "N1G7E3",
    "result": []
  },
  {
    "postal": "N1G3N6",
    "result": [
      {
        "electoralDistricts": [
          {
            "election": null,
            "id": 33,
            "name": "Guelph"
          }
        ],
        "pollDivisionIds": [
          10138417
        ],
        "postalCode": "N1G3N6",
        "streetName": "WOODLAND GLEN",
        "streetDirectionId": null,
        "streetTypeId": "DR",
        "placeName": "GUELPH",
        "streetNameDisplayText": "WOODLAND GLEN DR, GUELPH"
      }
    ]
  },
  {
    "postal": "N1G3X6",
    "result": [
      {
        "electoralDistricts": [
          {
            "election": null,
            "id": 33,
            "name": "Guelph"
          }
        ],
        "pollDivisionIds": [
          10138415
        ],
        "postalCode": "N1G3X6",
        "streetName": "HARVARD",
        "streetDirectionId": null,
        "streetTypeId": "RD",
        "placeName": "GUELPH",
        "streetNameDisplayText": "HARVARD RD, GUELPH"
      }
    ]
  },
  {
    "postal": "N1G8L0",
    "result": []
  },
  {
    "postal": "N1G8N1",
    "result": []
  },
  {
    "postal": "N1G4J0",
    "result": []
  },
  {
    "postal": "N1G0X7",
    "result": []
  },
  {
    "postal": "N1G6S4",
    "result": []
  },
  {
    "postal": "N1G0Z0",
    "result": []
  },
  {
    "postal": "N1G9X8",
    "result": []
  },
  {
    "postal": "N1G3H3",
    "result": [
      {
        "electoralDistricts": [
          {
            "election": null,
            "id": 33,
            "name": "Guelph"
          }
        ],
        "pollDivisionIds": [
          10143933
        ],
        "postalCode": "N1G3H3",
        "streetName": "HANDS",
        "streetDirectionId": null,
        "streetTypeId": "DR",
        "placeName": "GUELPH",
        "streetNameDisplayText": "HANDS DR, GUELPH"
      },
      {
        "electoralDistricts": [
          {
            "election": null,
            "id": 33,
            "name": "Guelph"
          }
        ],
        "pollDivisionIds": [
          10138403
        ],
        "postalCode": "N1G3H3",
        "streetName": "YORK",
        "streetDirectionId": null,
        "streetTypeId": "RD",
        "placeName": "GUELPH, ON",
        "streetNameDisplayText": "YORK RD, GUELPH, ON"
      }
    ]
  },
  {
    "postal": "N1G7S2",
    "result": []
  },
  {
    "postal": "N1G3T3",
    "result": []
  },
  {
    "postal": "N1G9P3",
    "result": []
  },
  {
    "postal": "N1G4H8",
    "result": [
      {
        "electoralDistricts": [
          {
            "election": null,
            "id": 33,
            "name": "Guelph"
          }
        ],
        "pollDivisionIds": [
          10138415
        ],
        "postalCode": "N1G4H8",
        "streetName": "EDINBURGH",
        "streetDirectionId": "S",
        "streetTypeId": "RD",
        "placeName": "GUELPH",
        "streetNameDisplayText": "EDINBURGH RD S, GUELPH"
      },
      {
        "electoralDistricts": [
          {
            "election": null,
            "id": 33,
            "name": "Guelph"
          }
        ],
        "pollDivisionIds": [
          10138415
        ],
        "postalCode": "N1G4H8",
        "streetName": "MCELDERRY",
        "streetDirectionId": null,
        "streetTypeId": "RD",
        "placeName": "GUELPH",
        "streetNameDisplayText": "MCELDERRY RD, GUELPH"
      }
    ]
  },
  {
    "postal": "N1G6R1",
    "result": []
  },
  {
    "postal": "N1G1S0",
    "result": []
  },
  {
    "postal": "N1G3W8",
    "result": [
      {
        "electoralDistricts": [
          {
            "election": null,
            "id": 33,
            "name": "Guelph"
          }
        ],
        "pollDivisionIds": [
          10138419
        ],
        "postalCode": "N1G3W8",
        "streetName": "KORTRIGHT",
        "streetDirectionId": "W",
        "streetTypeId": "RD",
        "placeName": "GUELPH",
        "streetNameDisplayText": "KORTRIGHT RD W, GUELPH"
      }
    ]
  },
  {
    "postal": "N1G4S3",
    "result": [
      {
        "electoralDistricts": [
          {
            "election": null,
            "id": 33,
            "name": "Guelph"
          }
        ],
        "pollDivisionIds": [
          10138419
        ],
        "postalCode": "N1G4S3",
        "streetName": "COLE",
        "streetDirectionId": null,
        "streetTypeId": "RD",
        "placeName": "GUELPH",
        "streetNameDisplayText": "COLE RD, GUELPH"
      }
    ]
  },
  {
    "postal": "N1G1B6",
    "result": [
      {
        "electoralDistricts": [
          {
            "election": null,
            "id": 33,
            "name": "Guelph"
          }
        ],
        "pollDivisionIds": [
          10138411
        ],
        "postalCode": "N1G1B6",
        "streetName": "WATER",
        "streetDirectionId": null,
        "streetTypeId": "ST",
        "placeName": "GUELPH",
        "streetNameDisplayText": "WATER ST, GUELPH"
      }
    ]
  },
  {
    "postal": "N1G8R3",
    "result": []
  },
  {
    "postal": "N1G4V9",
    "result": [
      {
        "electoralDistricts": [
          {
            "election": null,
            "id": 33,
            "name": "Guelph"
          }
        ],
        "pollDivisionIds": [
          10138419
        ],
        "postalCode": "N1G4V9",
        "streetName": "STONE",
        "streetDirectionId": "W",
        "streetTypeId": "RD",
        "placeName": "GUELPH",
        "streetNameDisplayText": "STONE RD W, GUELPH"
      }
    ]
  },
  {
    "postal": "N1G9W4",
    "result": []
  },
  {
    "postal": "N1G3T4",
    "result": []
  },
  {
    "postal": "N1G5C7",
    "result": [
      {
        "electoralDistricts": [
          {
            "election": null,
            "id": 33,
            "name": "Guelph"
          }
        ],
        "pollDivisionIds": [
          10138422
        ],
        "postalCode": "N1G5C7",
        "streetName": "EDINBURGH",
        "streetDirectionId": "S",
        "streetTypeId": "RD",
        "placeName": "GUELPH",
        "streetNameDisplayText": "EDINBURGH RD S, GUELPH"
      }
    ]
  },
  {
    "postal": "N1G3Y1",
    "result": [
      {
        "electoralDistricts": [
          {
            "election": null,
            "id": 33,
            "name": "Guelph"
          }
        ],
        "pollDivisionIds": [
          10138424
        ],
        "postalCode": "N1G3Y1",
        "streetName": "SOUTHGATE",
        "streetDirectionId": null,
        "streetTypeId": "DR",
        "placeName": "GUELPH",
        "streetNameDisplayText": "SOUTHGATE DR, GUELPH"
      }
    ]
  },
  {
    "postal": "N1G5V0",
    "result": []
  },
  {
    "postal": "N1G8G8",
    "result": []
  },
  {
    "postal": "N1G8B1",
    "result": []
  },
  {
    "postal": "N1G4P5",
    "result": [
      {
        "electoralDistricts": [
          {
            "election": null,
            "id": 33,
            "name": "Guelph"
          }
        ],
        "pollDivisionIds": [
          10138424
        ],
        "postalCode": "N1G4P5",
        "streetName": "SOUTHGATE",
        "streetDirectionId": null,
        "streetTypeId": "DR",
        "placeName": "GUELPH",
        "streetNameDisplayText": "SOUTHGATE DR, GUELPH"
      }
    ]
  },
  {
    "postal": "N1G7B2",
    "result": []
  },
  {
    "postal": "N1G0R2",
    "result": []
  },
  {
    "postal": "N1G4M4",
    "result": [
      {
        "electoralDistricts": [
          {
            "election": null,
            "id": 33,
            "name": "Guelph"
          }
        ],
        "pollDivisionIds": [
          10143933
        ],
        "postalCode": "N1G4M4",
        "streetName": "DIMSON",
        "streetDirectionId": null,
        "streetTypeId": "AVE",
        "placeName": "GUELPH",
        "streetNameDisplayText": "DIMSON AVE, GUELPH"
      }
    ]
  },
  {
    "postal": "N1G7M4",
    "result": []
  },
  {
    "postal": "N1G9S7",
    "result": []
  },
  {
    "postal": "N1G5Z7",
    "result": []
  },
  {
    "postal": "N1G7J7",
    "result": []
  },
  {
    "postal": "N1G8R8",
    "result": []
  },
  {
    "postal": "N1G9X1",
    "result": []
  },
  {
    "postal": "N1G5M9",
    "result": []
  },
  {
    "postal": "N1G9B4",
    "result": []
  },
  {
    "postal": "N1G0L9",
    "result": []
  },
  {
    "postal": "N1G9G4",
    "result": []
  },
  {
    "postal": "N1G1J4",
    "result": [
      {
        "electoralDistricts": [
          {
            "election": null,
            "id": 33,
            "name": "Guelph"
          }
        ],
        "pollDivisionIds": [
          10138412
        ],
        "postalCode": "N1G1J4",
        "streetName": "ORIOLE",
        "streetDirectionId": null,
        "streetTypeId": "CRES",
        "placeName": "GUELPH",
        "streetNameDisplayText": "ORIOLE CRES, GUELPH"
      }
    ]
  },
  {
    "postal": "N1G0W6",
    "result": []
  }
]
