[
  {
    "postal": "L9Z9J6",
    "result": []
  },
  {
    "postal": "L9Z9Z5",
    "result": []
  },
  {
    "postal": "L9Z7H8",
    "result": []
  },
  {
    "postal": "L9Z0P6",
    "result": []
  },
  {
    "postal": "L9Z0S7",
    "result": []
  },
  {
    "postal": "L9Z8B9",
    "result": []
  },
  {
    "postal": "L9Z2A6",
    "result": [
      {
        "electoralDistricts": [
          {
            "election": null,
            "id": 99,
            "name": "Simcoe—Grey"
          }
        ],
        "pollDivisionIds": [
          10141828,
          10141835
        ],
        "postalCode": "L9Z2A6",
        "streetName": "ARNILL",
        "streetDirectionId": null,
        "streetTypeId": "CRES",
        "placeName": "WASAGA BEACH",
        "streetNameDisplayText": "ARNILL CRES, WASAGA BEACH"
      },
      {
        "electoralDistricts": [
          {
            "election": null,
            "id": 99,
            "name": "Simcoe—Grey"
          }
        ],
        "pollDivisionIds": [
          10141835,
          10141834
        ],
        "postalCode": "L9Z2A6",
        "streetName": "RED OAK",
        "streetDirectionId": null,
        "streetTypeId": "DR",
        "placeName": "WASAGA BEACH",
        "streetNameDisplayText": "RED OAK DR, WASAGA BEACH"
      }
    ]
  },
  {
    "postal": "L9Z7V2",
    "result": []
  },
  {
    "postal": "L9Z9P4",
    "result": []
  },
  {
    "postal": "L9Z6G0",
    "result": []
  },
  {
    "postal": "L9Z2K0",
    "result": []
  },
  {
    "postal": "L9Z7N6",
    "result": []
  },
  {
    "postal": "L9Z5R3",
    "result": []
  },
  {
    "postal": "L9Z7K0",
    "result": []
  },
  {
    "postal": "L9Z3R2",
    "result": []
  },
  {
    "postal": "L9Z0J1",
    "result": []
  },
  {
    "postal": "L9Z0B0",
    "result": []
  },
  {
    "postal": "L9Z5Z2",
    "result": []
  },
  {
    "postal": "L9Z7P3",
    "result": []
  },
  {
    "postal": "L9Z2K3",
    "result": [
      {
        "electoralDistricts": [
          {
            "election": null,
            "id": 99,
            "name": "Simcoe—Grey"
          }
        ],
        "pollDivisionIds": [
          10141837
        ],
        "postalCode": "L9Z2K3",
        "streetName": "MAIN",
        "streetDirectionId": null,
        "streetTypeId": "ST",
        "placeName": "WASAGA BEACH",
        "streetNameDisplayText": "MAIN ST, WASAGA BEACH"
      },
      {
        "electoralDistricts": [
          {
            "election": null,
            "id": 99,
            "name": "Simcoe—Grey"
          }
        ],
        "pollDivisionIds": [
          10141837
        ],
        "postalCode": "L9Z2K3",
        "streetName": "MOSLEY",
        "streetDirectionId": null,
        "streetTypeId": "ST",
        "placeName": "WASAGA BEACH",
        "streetNameDisplayText": "MOSLEY ST, WASAGA BEACH"
      }
    ]
  },
  {
    "postal": "L9Z7Y6",
    "result": []
  },
  {
    "postal": "L9Z1L9",
    "result": [
      {
        "electoralDistricts": [
          {
            "election": null,
            "id": 99,
            "name": "Simcoe—Grey"
          }
        ],
        "pollDivisionIds": [
          10141836
        ],
        "postalCode": "L9Z1L9",
        "streetName": "DYER",
        "streetDirectionId": null,
        "streetTypeId": "DR",
        "placeName": "WASAGA BEACH",
        "streetNameDisplayText": "DYER DR, WASAGA BEACH"
      }
    ]
  },
  {
    "postal": "L9Z8T0",
    "result": []
  },
  {
    "postal": "L9Z3K8",
    "result": []
  },
  {
    "postal": "L9Z5W9",
    "result": []
  },
  {
    "postal": "L9Z6T9",
    "result": []
  },
  {
    "postal": "L9Z4H1",
    "result": []
  },
  {
    "postal": "L9Z7A2",
    "result": []
  },
  {
    "postal": "L9Z5G0",
    "result": []
  },
  {
    "postal": "L9Z8V5",
    "result": []
  },
  {
    "postal": "L9Z2Y8",
    "result": [
      {
        "electoralDistricts": [
          {
            "election": null,
            "id": 99,
            "name": "Simcoe—Grey"
          }
        ],
        "pollDivisionIds": [
          10141837
        ],
        "postalCode": "L9Z2Y8",
        "streetName": "10TH",
        "streetDirectionId": "S",
        "streetTypeId": "ST",
        "placeName": "WASAGA BEACH",
        "streetNameDisplayText": "10TH ST S, WASAGA BEACH"
      },
      {
        "electoralDistricts": [
          {
            "election": null,
            "id": 99,
            "name": "Simcoe—Grey"
          }
        ],
        "pollDivisionIds": [
          10141837
        ],
        "postalCode": "L9Z2Y8",
        "streetName": "12TH",
        "streetDirectionId": "N",
        "streetTypeId": "ST",
        "placeName": "WASAGA BEACH",
        "streetNameDisplayText": "12TH ST N, WASAGA BEACH"
      }
    ]
  },
  {
    "postal": "L9Z2B6",
    "result": [
      {
        "electoralDistricts": [
          {
            "election": null,
            "id": 99,
            "name": "Simcoe—Grey"
          }
        ],
        "pollDivisionIds": [
          10141834
        ],
        "postalCode": "L9Z2B6",
        "streetName": "37TH",
        "streetDirectionId": "N",
        "streetTypeId": "ST",
        "placeName": "WASAGA BEACH",
        "streetNameDisplayText": "37TH ST N, WASAGA BEACH"
      },
      {
        "electoralDistricts": [
          {
            "election": null,
            "id": 99,
            "name": "Simcoe—Grey"
          }
        ],
        "pollDivisionIds": [
          10141834
        ],
        "postalCode": "L9Z2B6",
        "streetName": "MOSLEY",
        "streetDirectionId": null,
        "streetTypeId": "ST",
        "placeName": "WASAGA BEACH",
        "streetNameDisplayText": "MOSLEY ST, WASAGA BEACH"
      }
    ]
  },
  {
    "postal": "L9Z4W8",
    "result": []
  },
  {
    "postal": "L9Z8H7",
    "result": []
  },
  {
    "postal": "L9Z5P1",
    "result": []
  },
  {
    "postal": "L9Z2B8",
    "result": [
      {
        "electoralDistricts": [
          {
            "election": null,
            "id": 99,
            "name": "Simcoe—Grey"
          }
        ],
        "pollDivisionIds": [
          10141834
        ],
        "postalCode": "L9Z2B8",
        "streetName": "36TH",
        "streetDirectionId": "N",
        "streetTypeId": "ST",
        "placeName": "WASAGA BEACH",
        "streetNameDisplayText": "36TH ST N, WASAGA BEACH"
      },
      {
        "electoralDistricts": [
          {
            "election": null,
            "id": 99,
            "name": "Simcoe—Grey"
          }
        ],
        "pollDivisionIds": [
          10141834
        ],
        "postalCode": "L9Z2B8",
        "streetName": "SHORE",
        "streetDirectionId": null,
        "streetTypeId": "LANE",
        "placeName": "WASAGA BEACH",
        "streetNameDisplayText": "SHORE LANE, WASAGA BEACH"
      }
    ]
  },
  {
    "postal": "L9Z0P2",
    "result": []
  },
  {
    "postal": "L9Z9M1",
    "result": []
  },
  {
    "postal": "L9Z3G0",
    "result": []
  },
  {
    "postal": "L9Z9Z2",
    "result": []
  },
  {
    "postal": "L9Z2A0",
    "result": []
  },
  {
    "postal": "L9Z6Y0",
    "result": []
  },
  {
    "postal": "L9Z2Z8",
    "result": [
      {
        "electoralDistricts": [
          {
            "election": null,
            "id": 99,
            "name": "Simcoe—Grey"
          }
        ],
        "pollDivisionIds": [
          10141834
        ],
        "postalCode": "L9Z2Z8",
        "streetName": "ASTER",
        "streetDirectionId": null,
        "streetTypeId": "DR",
        "placeName": "WASAGA BEACH",
        "streetNameDisplayText": "ASTER DR, WASAGA BEACH"
      },
      {
        "electoralDistricts": [
          {
            "election": null,
            "id": 99,
            "name": "Simcoe—Grey"
          }
        ],
        "pollDivisionIds": [
          10141834
        ],
        "postalCode": "L9Z2Z8",
        "streetName": "LEE",
        "streetDirectionId": null,
        "streetTypeId": "ST",
        "placeName": "WASAGA BEACH",
        "streetNameDisplayText": "LEE ST, WASAGA BEACH"
      }
    ]
  },
  {
    "postal": "L9Z7Y3",
    "result": []
  },
  {
    "postal": "L9Z6Z5",
    "result": []
  },
  {
    "postal": "L9Z6E0",
    "result": []
  },
  {
    "postal": "L9Z9B7",
    "result": []
  },
  {
    "postal": "L9Z9S5",
    "result": []
  },
  {
    "postal": "L9Z3X3",
    "result": []
  },
  {
    "postal": "L9Z7R5",
    "result": []
  },
  {
    "postal": "L9Z2X3",
    "result": [
      {
        "electoralDistricts": [
          {
            "election": null,
            "id": 99,
            "name": "Simcoe—Grey"
          }
        ],
        "pollDivisionIds": [
          10141833
        ],
        "postalCode": "L9Z2X3",
        "streetName": "JAMES",
        "streetDirectionId": null,
        "streetTypeId": "AVE",
        "placeName": "WASAGA BEACH",
        "streetNameDisplayText": "JAMES AVE, WASAGA BEACH"
      },
      {
        "electoralDistricts": [
          {
            "election": null,
            "id": 99,
            "name": "Simcoe—Grey"
          }
        ],
        "pollDivisionIds": [
          10141833
        ],
        "postalCode": "L9Z2X3",
        "streetName": "MIDDLEBROOK",
        "streetDirectionId": null,
        "streetTypeId": "RD",
        "placeName": "WASAGA BEACH",
        "streetNameDisplayText": "MIDDLEBROOK RD, WASAGA BEACH"
      },
      {
        "electoralDistricts": [
          {
            "election": null,
            "id": 99,
            "name": "Simcoe—Grey"
          }
        ],
        "pollDivisionIds": [
          10141833
        ],
        "postalCode": "L9Z2X3",
        "streetName": "WILLIAM",
        "streetDirectionId": null,
        "streetTypeId": "AVE",
        "placeName": "WASAGA BEACH",
        "streetNameDisplayText": "WILLIAM AVE, WASAGA BEACH"
      }
    ]
  },
  {
    "postal": "L9Z8Z9",
    "result": []
  },
  {
    "postal": "L9Z0N4",
    "result": []
  },
  {
    "postal": "L9Z1K1",
    "result": [
      {
        "electoralDistricts": [
          {
            "election": null,
            "id": 99,
            "name": "Simcoe—Grey"
          }
        ],
        "pollDivisionIds": [
          10141839
        ],
        "postalCode": "L9Z1K1",
        "streetName": "LAMONT CREEK",
        "streetDirectionId": null,
        "streetTypeId": "DR",
        "placeName": "WASAGA BEACH",
        "streetNameDisplayText": "LAMONT CREEK DR, WASAGA BEACH"
      }
    ]
  },
  {
    "postal": "L9Z1S3",
    "result": [
      {
        "electoralDistricts": [
          {
            "election": null,
            "id": 99,
            "name": "Simcoe—Grey"
          }
        ],
        "pollDivisionIds": [
          10141836,
          10141835
        ],
        "postalCode": "L9Z1S3",
        "streetName": "39TH",
        "streetDirectionId": "S",
        "streetTypeId": "ST",
        "placeName": "WASAGA BEACH",
        "streetNameDisplayText": "39TH ST S, WASAGA BEACH"
      }
    ]
  },
  {
    "postal": "L9Z6M4",
    "result": []
  },
  {
    "postal": "L9Z9A9",
    "result": []
  },
  {
    "postal": "L9Z9Z9",
    "result": []
  },
  {
    "postal": "L9Z6T4",
    "result": []
  },
  {
    "postal": "L9Z0B2",
    "result": [
      {
        "electoralDistricts": [
          {
            "election": null,
            "id": 99,
            "name": "Simcoe—Grey"
          }
        ],
        "pollDivisionIds": [
          10141835
        ],
        "postalCode": "L9Z0B2",
        "streetName": "41ST",
        "streetDirectionId": "S",
        "streetTypeId": "ST",
        "placeName": "WASAGA BEACH",
        "streetNameDisplayText": "41ST ST S, WASAGA BEACH"
      },
      {
        "electoralDistricts": [
          {
            "election": null,
            "id": 99,
            "name": "Simcoe—Grey"
          }
        ],
        "pollDivisionIds": [
          10141835
        ],
        "postalCode": "L9Z0B2",
        "streetName": "TANAGER",
        "streetDirectionId": null,
        "streetTypeId": "CRES",
        "placeName": "WASAGA BEACH",
        "streetNameDisplayText": "TANAGER CRES, WASAGA BEACH"
      }
    ]
  },
  {
    "postal": "L9Z2L9",
    "result": [
      {
        "electoralDistricts": [
          {
            "election": null,
            "id": 99,
            "name": "Simcoe—Grey"
          }
        ],
        "pollDivisionIds": [
          10141837
        ],
        "postalCode": "L9Z2L9",
        "streetName": "HIAWATHA",
        "streetDirectionId": null,
        "streetTypeId": "AVE",
        "placeName": "WASAGA BEACH",
        "streetNameDisplayText": "HIAWATHA AVE, WASAGA BEACH"
      },
      {
        "electoralDistricts": [
          {
            "election": null,
            "id": 99,
            "name": "Simcoe—Grey"
          }
        ],
        "pollDivisionIds": [
          10141837
        ],
        "postalCode": "L9Z2L9",
        "streetName": "HURON",
        "streetDirectionId": null,
        "streetTypeId": "AVE",
        "placeName": "WASAGA BEACH",
        "streetNameDisplayText": "HURON AVE, WASAGA BEACH"
      },
      {
        "electoralDistricts": [
          {
            "election": null,
            "id": 99,
            "name": "Simcoe—Grey"
          }
        ],
        "pollDivisionIds": [
          10141837
        ],
        "postalCode": "L9Z2L9",
        "streetName": "RIVER",
        "streetDirectionId": "E",
        "streetTypeId": "RD",
        "placeName": "WASAGA BEACH",
        "streetNameDisplayText": "RIVER RD E, WASAGA BEACH"
      }
    ]
  },
  {
    "postal": "L9Z8K9",
    "result": []
  },
  {
    "postal": "L9Z2H9",
    "result": [
      {
        "electoralDistricts": [
          {
            "election": null,
            "id": 99,
            "name": "Simcoe—Grey"
          }
        ],
        "pollDivisionIds": [
          10141837
        ],
        "postalCode": "L9Z2H9",
        "streetName": "17TH",
        "streetDirectionId": "N",
        "streetTypeId": "ST",
        "placeName": "WASAGA BEACH",
        "streetNameDisplayText": "17TH ST N, WASAGA BEACH"
      },
      {
        "electoralDistricts": [
          {
            "election": null,
            "id": 99,
            "name": "Simcoe—Grey"
          }
        ],
        "pollDivisionIds": [
          10141837
        ],
        "postalCode": "L9Z2H9",
        "streetName": "LINAMENT",
        "streetDirectionId": null,
        "streetTypeId": "LANE",
        "placeName": "WASAGA BEACH",
        "streetNameDisplayText": "LINAMENT LANE, WASAGA BEACH"
      },
      {
        "electoralDistricts": [
          {
            "election": null,
            "id": 99,
            "name": "Simcoe—Grey"
          }
        ],
        "pollDivisionIds": [
          10141837
        ],
        "postalCode": "L9Z2H9",
        "streetName": "MOSLEY",
        "streetDirectionId": null,
        "streetTypeId": "ST",
        "placeName": "WASAGA BEACH",
        "streetNameDisplayText": "MOSLEY ST, WASAGA BEACH"
      }
    ]
  },
  {
    "postal": "L9Z3Z6",
    "result": []
  },
  {
    "postal": "L9Z3B0",
    "result": []
  },
  {
    "postal": "L9Z2H8",
    "result": [
      {
        "electoralDistricts": [
          {
            "election": null,
            "id": 99,
            "name": "Simcoe—Grey"
          }
        ],
        "pollDivisionIds": [
          10141837
        ],
        "postalCode": "L9Z2H8",
        "streetName": "OLD MOSLEY",
        "streetDirectionId": null,
        "streetTypeId": "ST",
        "placeName": "WASAGA BEACH",
        "streetNameDisplayText": "OLD MOSLEY ST, WASAGA BEACH"
      }
    ]
  },
  {
    "postal": "L9Z3X2",
    "result": []
  },
  {
    "postal": "L9Z2E9",
    "result": [
      {
        "electoralDistricts": [
          {
            "election": null,
            "id": 99,
            "name": "Simcoe—Grey"
          }
        ],
        "pollDivisionIds": [
          10141834
        ],
        "postalCode": "L9Z2E9",
        "streetName": "4TH",
        "streetDirectionId": null,
        "streetTypeId": "LANE",
        "placeName": "WASAGA BEACH",
        "streetNameDisplayText": "4TH LANE, WASAGA BEACH"
      },
      {
        "electoralDistricts": [
          {
            "election": null,
            "id": 99,
            "name": "Simcoe—Grey"
          }
        ],
        "pollDivisionIds": [
          10141834
        ],
        "postalCode": "L9Z2E9",
        "streetName": "5TH",
        "streetDirectionId": null,
        "streetTypeId": "LANE",
        "placeName": "WASAGA BEACH",
        "streetNameDisplayText": "5TH LANE, WASAGA BEACH"
      }
    ]
  },
  {
    "postal": "L9Z9P6",
    "result": []
  },
  {
    "postal": "L9Z9E2",
    "result": []
  },
  {
    "postal": "L9Z9H2",
    "result": []
  },
  {
    "postal": "L9Z1S8",
    "result": [
      {
        "electoralDistricts": [
          {
            "election": null,
            "id": 99,
            "name": "Simcoe—Grey"
          }
        ],
        "pollDivisionIds": [
          10141838
        ],
        "postalCode": "L9Z1S8",
        "streetName": "MARLWOOD",
        "streetDirectionId": null,
        "streetTypeId": "AVE",
        "placeName": "WASAGA BEACH",
        "streetNameDisplayText": "MARLWOOD AVE, WASAGA BEACH"
      },
      {
        "electoralDistricts": [
          {
            "election": null,
            "id": 99,
            "name": "Simcoe—Grey"
          }
        ],
        "pollDivisionIds": [
          10141838
        ],
        "postalCode": "L9Z1S8",
        "streetName": "MASTERS",
        "streetDirectionId": null,
        "streetTypeId": "LANE",
        "placeName": "WASAGA BEACH",
        "streetNameDisplayText": "MASTERS LANE, WASAGA BEACH"
      }
    ]
  },
  {
    "postal": "L9Z3M6",
    "result": []
  },
  {
    "postal": "L9Z6Z8",
    "result": []
  },
  {
    "postal": "L9Z4J2",
    "result": []
  },
  {
    "postal": "L9Z9Y1",
    "result": []
  },
  {
    "postal": "L9Z8V6",
    "result": []
  },
  {
    "postal": "L9Z6B2",
    "result": []
  },
  {
    "postal": "L9Z1P8",
    "result": [
      {
        "electoralDistricts": [
          {
            "election": null,
            "id": 99,
            "name": "Simcoe—Grey"
          }
        ],
        "pollDivisionIds": [
          10141836
        ],
        "postalCode": "L9Z1P8",
        "streetName": "SILVER BIRCH",
        "streetDirectionId": null,
        "streetTypeId": "AVE",
        "placeName": "WASAGA BEACH",
        "streetNameDisplayText": "SILVER BIRCH AVE, WASAGA BEACH"
      },
      {
        "electoralDistricts": [
          {
            "election": null,
            "id": 99,
            "name": "Simcoe—Grey"
          }
        ],
        "pollDivisionIds": [
          10141836
        ],
        "postalCode": "L9Z1P8",
        "streetName": "SILVERSANDS",
        "streetDirectionId": null,
        "streetTypeId": "CRES",
        "placeName": "WASAGA BEACH",
        "streetNameDisplayText": "SILVERSANDS CRES, WASAGA BEACH"
      }
    ]
  },
  {
    "postal": "L9Z0V8",
    "result": []
  },
  {
    "postal": "L9Z4Y0",
    "result": []
  },
  {
    "postal": "L9Z2T4",
    "result": [
      {
        "electoralDistricts": [
          {
            "election": null,
            "id": 99,
            "name": "Simcoe—Grey"
          }
        ],
        "pollDivisionIds": [
          10141836
        ],
        "postalCode": "L9Z2T4",
        "streetName": "RAPID",
        "streetDirectionId": null,
        "streetTypeId": "ST",
        "placeName": "WASAGA BEACH",
        "streetNameDisplayText": "RAPID ST, WASAGA BEACH"
      },
      {
        "electoralDistricts": [
          {
            "election": null,
            "id": 99,
            "name": "Simcoe—Grey"
          }
        ],
        "pollDivisionIds": [
          10141836
        ],
        "postalCode": "L9Z2T4",
        "streetName": "SCHOONER",
        "streetDirectionId": null,
        "streetTypeId": "DR",
        "placeName": "WASAGA BEACH",
        "streetNameDisplayText": "SCHOONER DR, WASAGA BEACH"
      },
      {
        "electoralDistricts": [
          {
            "election": null,
            "id": 99,
            "name": "Simcoe—Grey"
          }
        ],
        "pollDivisionIds": [
          10141836
        ],
        "postalCode": "L9Z2T4",
        "streetName": "SUNNIDALE",
        "streetDirectionId": "S",
        "streetTypeId": "RD",
        "placeName": "WASAGA BEACH",
        "streetNameDisplayText": "SUNNIDALE RD S, WASAGA BEACH"
      },
      {
        "electoralDistricts": [
          {
            "election": null,
            "id": 99,
            "name": "Simcoe—Grey"
          }
        ],
        "pollDivisionIds": [
          10141839
        ],
        "postalCode": "L9Z2T4",
        "streetName": "SUNNIDALE",
        "streetDirectionId": null,
        "streetTypeId": "ST",
        "placeName": "WASAGA BEACH",
        "streetNameDisplayText": "SUNNIDALE ST, WASAGA BEACH"
      }
    ]
  },
  {
    "postal": "L9Z2S3",
    "result": [
      {
        "electoralDistricts": [
          {
            "election": null,
            "id": 99,
            "name": "Simcoe—Grey"
          }
        ],
        "pollDivisionIds": [
          10141836
        ],
        "postalCode": "L9Z2S3",
        "streetName": "ANTIGUA",
        "streetDirectionId": null,
        "streetTypeId": "DR",
        "placeName": "WASAGA BEACH",
        "streetNameDisplayText": "ANTIGUA DR, WASAGA BEACH"
      },
      {
        "electoralDistricts": [
          {
            "election": null,
            "id": 99,
            "name": "Simcoe—Grey"
          }
        ],
        "pollDivisionIds": [
          10141836
        ],
        "postalCode": "L9Z2S3",
        "streetName": "OAKTREE",
        "streetDirectionId": null,
        "streetTypeId": "CRT",
        "placeName": "WASAGA BEACH",
        "streetNameDisplayText": "OAKTREE CRT, WASAGA BEACH"
      },
      {
        "electoralDistricts": [
          {
            "election": null,
            "id": 99,
            "name": "Simcoe—Grey"
          }
        ],
        "pollDivisionIds": [
          10141836,
          10141837
        ],
        "postalCode": "L9Z2S3",
        "streetName": "RIVER",
        "streetDirectionId": "W",
        "streetTypeId": "RD",
        "placeName": "WASAGA BEACH",
        "streetNameDisplayText": "RIVER RD W, WASAGA BEACH"
      }
    ]
  },
  {
    "postal": "L9Z0K0",
    "result": []
  },
  {
    "postal": "L9Z5N1",
    "result": []
  },
  {
    "postal": "L9Z7T0",
    "result": []
  },
  {
    "postal": "L9Z9N2",
    "result": []
  },
  {
    "postal": "L9Z5L1",
    "result": []
  },
  {
    "postal": "L9Z7G5",
    "result": []
  },
  {
    "postal": "L9Z6K2",
    "result": []
  },
  {
    "postal": "L9Z6P9",
    "result": []
  },
  {
    "postal": "L9Z0E6",
    "result": [
      {
        "electoralDistricts": [
          {
            "election": null,
            "id": 99,
            "name": "Simcoe—Grey"
          }
        ],
        "pollDivisionIds": [
          10141838
        ],
        "postalCode": "L9Z0E6",
        "streetName": "BLUEGRASS",
        "streetDirectionId": null,
        "streetTypeId": "LANE",
        "placeName": "WASAGA BEACH",
        "streetNameDisplayText": "BLUEGRASS LANE, WASAGA BEACH"
      },
      {
        "electoralDistricts": [
          {
            "election": null,
            "id": 99,
            "name": "Simcoe—Grey"
          }
        ],
        "pollDivisionIds": [
          10141838,
          10141828
        ],
        "postalCode": "L9Z0E6",
        "streetName": "GARDEN GROVE",
        "streetDirectionId": null,
        "streetTypeId": "CRES",
        "placeName": "WASAGA BEACH",
        "streetNameDisplayText": "GARDEN GROVE CRES, WASAGA BEACH"
      },
      {
        "electoralDistricts": [
          {
            "election": null,
            "id": 99,
            "name": "Simcoe—Grey"
          }
        ],
        "pollDivisionIds": [
          10141828
        ],
        "postalCode": "L9Z0E6",
        "streetName": "GREENAWAY",
        "streetDirectionId": null,
        "streetTypeId": "DR",
        "placeName": "WASAGA BEACH",
        "streetNameDisplayText": "GREENAWAY DR, WASAGA BEACH"
      },
      {
        "electoralDistricts": [
          {
            "election": null,
            "id": 99,
            "name": "Simcoe—Grey"
          }
        ],
        "pollDivisionIds": [
          10141838
        ],
        "postalCode": "L9Z0E6",
        "streetName": "GREENWAY",
        "streetDirectionId": null,
        "streetTypeId": "DR",
        "placeName": "WASAGA BEACH",
        "streetNameDisplayText": "GREENWAY DR, WASAGA BEACH"
      }
    ]
  },
  {
    "postal": "L9Z8R9",
    "result": []
  },
  {
    "postal": "L9Z3G9",
    "result": []
  },
  {
    "postal": "L9Z0V7",
    "result": []
  },
  {
    "postal": "L9Z2Z1",
    "result": [
      {
        "electoralDistricts": [
          {
            "election": null,
            "id": 99,
            "name": "Simcoe—Grey"
          }
        ],
        "pollDivisionIds": [
          10141834
        ],
        "postalCode": "L9Z2Z1",
        "streetName": "58TH",
        "streetDirectionId": "S",
        "streetTypeId": "ST",
        "placeName": "WASAGA BEACH",
        "streetNameDisplayText": "58TH ST S, WASAGA BEACH"
      },
      {
        "electoralDistricts": [
          {
            "election": null,
            "id": 99,
            "name": "Simcoe—Grey"
          }
        ],
        "pollDivisionIds": [
          10141834
        ],
        "postalCode": "L9Z2Z1",
        "streetName": "LILY",
        "streetDirectionId": null,
        "streetTypeId": "DR",
        "placeName": "WASAGA BEACH",
        "streetNameDisplayText": "LILY DR, WASAGA BEACH"
      },
      {
        "electoralDistricts": [
          {
            "election": null,
            "id": 99,
            "name": "Simcoe—Grey"
          }
        ],
        "pollDivisionIds": [
          10141834
        ],
        "postalCode": "L9Z2Z1",
        "streetName": "ROBINSON",
        "streetDirectionId": null,
        "streetTypeId": "RD",
        "placeName": "WASAGA BEACH",
        "streetNameDisplayText": "ROBINSON RD, WASAGA BEACH"
      }
    ]
  },
  {
    "postal": "L9Z7N1",
    "result": []
  },
  {
    "postal": "L9Z3C6",
    "result": [
      {
        "electoralDistricts": [
          {
            "election": null,
            "id": 99,
            "name": "Simcoe—Grey"
          }
        ],
        "pollDivisionIds": [
          10141836
        ],
        "postalCode": "L9Z3C6",
        "streetName": "ADMIRAL",
        "streetDirectionId": null,
        "streetTypeId": "RD",
        "placeName": "WASAGA BEACH",
        "streetNameDisplayText": "ADMIRAL RD, WASAGA BEACH"
      },
      {
        "electoralDistricts": [
          {
            "election": null,
            "id": 99,
            "name": "Simcoe—Grey"
          }
        ],
        "pollDivisionIds": [
          10141836
        ],
        "postalCode": "L9Z3C6",
        "streetName": "ROYAL BEECH",
        "streetDirectionId": null,
        "streetTypeId": "DR",
        "placeName": "WASAGA BEACH",
        "streetNameDisplayText": "ROYAL BEECH DR, WASAGA BEACH"
      }
    ]
  },
  {
    "postal": "L9Z4M1",
    "result": []
  },
  {
    "postal": "L9Z9K2",
    "result": []
  },
  {
    "postal": "L9Z9S6",
    "result": []
  },
  {
    "postal": "L9Z4X1",
    "result": []
  },
  {
    "postal": "L9Z8W2",
    "result": []
  },
  {
    "postal": "L9Z7N2",
    "result": []
  },
  {
    "postal": "L9Z8S3",
    "result": []
  },
  {
    "postal": "L9Z4V0",
    "result": []
  },
  {
    "postal": "L9Z6W4",
    "result": []
  },
  {
    "postal": "L9Z5M1",
    "result": []
  },
  {
    "postal": "L9Z0S4",
    "result": []
  },
  {
    "postal": "L9Z5X6",
    "result": []
  },
  {
    "postal": "L9Z8L5",
    "result": []
  },
  {
    "postal": "L9Z5M8",
    "result": []
  },
  {
    "postal": "L9Z2G3",
    "result": [
      {
        "electoralDistricts": [
          {
            "election": null,
            "id": 99,
            "name": "Simcoe—Grey"
          }
        ],
        "pollDivisionIds": [
          10141837
        ],
        "postalCode": "L9Z2G3",
        "streetName": "1ST",
        "streetDirectionId": null,
        "streetTypeId": "LANE",
        "placeName": "WASAGA BEACH",
        "streetNameDisplayText": "1ST LANE, WASAGA BEACH"
      },
      {
        "electoralDistricts": [
          {
            "election": null,
            "id": 99,
            "name": "Simcoe—Grey"
          }
        ],
        "pollDivisionIds": [
          10141837
        ],
        "postalCode": "L9Z2G3",
        "streetName": "2ND",
        "streetDirectionId": null,
        "streetTypeId": "LANE",
        "placeName": "WASAGA BEACH",
        "streetNameDisplayText": "2ND LANE, WASAGA BEACH"
      },
      {
        "electoralDistricts": [
          {
            "election": null,
            "id": 99,
            "name": "Simcoe—Grey"
          }
        ],
        "pollDivisionIds": [
          10141834
        ],
        "postalCode": "L9Z2G3",
        "streetName": "6TH",
        "streetDirectionId": null,
        "streetTypeId": "LANE",
        "placeName": "WASAGA BEACH",
        "streetNameDisplayText": "6TH LANE, WASAGA BEACH"
      },
      {
        "electoralDistricts": [
          {
            "election": null,
            "id": 99,
            "name": "Simcoe—Grey"
          }
        ],
        "pollDivisionIds": [
          10141834,
          10141837
        ],
        "postalCode": "L9Z2G3",
        "streetName": "7TH",
        "streetDirectionId": null,
        "streetTypeId": "LANE",
        "placeName": "WASAGA BEACH",
        "streetNameDisplayText": "7TH LANE, WASAGA BEACH"
      },
      {
        "electoralDistricts": [
          {
            "election": null,
            "id": 99,
            "name": "Simcoe—Grey"
          }
        ],
        "pollDivisionIds": [
          10141837
        ],
        "postalCode": "L9Z2G3",
        "streetName": "NORMAN",
        "streetDirectionId": null,
        "streetTypeId": "AVE",
        "placeName": "WASAGA BEACH",
        "streetNameDisplayText": "NORMAN AVE, WASAGA BEACH"
      }
    ]
  },
  {
    "postal": "L9Z8E4",
    "result": []
  },
  {
    "postal": "L9Z7S9",
    "result": []
  },
  {
    "postal": "L9Z1K3",
    "result": [
      {
        "electoralDistricts": [
          {
            "election": null,
            "id": 99,
            "name": "Simcoe—Grey"
          }
        ],
        "pollDivisionIds": [
          10141838
        ],
        "postalCode": "L9Z1K3",
        "streetName": "MURRAY",
        "streetDirectionId": null,
        "streetTypeId": "DR",
        "placeName": "WASAGA BEACH",
        "streetNameDisplayText": "MURRAY DR, WASAGA BEACH"
      },
      {
        "electoralDistricts": [
          {
            "election": null,
            "id": 99,
            "name": "Simcoe—Grey"
          }
        ],
        "pollDivisionIds": [
          10141838
        ],
        "postalCode": "L9Z1K3",
        "streetName": "SHAW",
        "streetDirectionId": null,
        "streetTypeId": "ST",
        "placeName": "WASAGA BEACH",
        "streetNameDisplayText": "SHAW ST, WASAGA BEACH"
      },
      {
        "electoralDistricts": [
          {
            "election": null,
            "id": 99,
            "name": "Simcoe—Grey"
          }
        ],
        "pollDivisionIds": [
          10141838
        ],
        "postalCode": "L9Z1K3",
        "streetName": "SINCLAIR",
        "streetDirectionId": "S",
        "streetTypeId": "ST",
        "placeName": "WASAGA BEACH",
        "streetNameDisplayText": "SINCLAIR ST S, WASAGA BEACH"
      }
    ]
  },
  {
    "postal": "L9Z4E1",
    "result": []
  },
  {
    "postal": "L9Z4R2",
    "result": []
  },
  {
    "postal": "L9Z6T0",
    "result": []
  },
  {
    "postal": "L9Z3K5",
    "result": []
  },
  {
    "postal": "L9Z3S3",
    "result": []
  },
  {
    "postal": "L9Z3L4",
    "result": []
  },
  {
    "postal": "L9Z9Y2",
    "result": []
  },
  {
    "postal": "L9Z1E0",
    "result": []
  },
  {
    "postal": "L9Z9A4",
    "result": []
  },
  {
    "postal": "L9Z1L3",
    "result": [
      {
        "electoralDistricts": [
          {
            "election": null,
            "id": 99,
            "name": "Simcoe—Grey"
          }
        ],
        "pollDivisionIds": [
          10141836
        ],
        "postalCode": "L9Z1L3",
        "streetName": "SMALLMAN",
        "streetDirectionId": null,
        "streetTypeId": "DR",
        "placeName": "WASAGA BEACH",
        "streetNameDisplayText": "SMALLMAN DR, WASAGA BEACH"
      }
    ]
  },
  {
    "postal": "L9Z6N1",
    "result": []
  },
  {
    "postal": "L9Z6G7",
    "result": []
  },
  {
    "postal": "L9Z7W1",
    "result": []
  },
  {
    "postal": "L9Z4M6",
    "result": []
  },
  {
    "postal": "L9Z1K0",
    "result": []
  },
  {
    "postal": "L9Z3E2",
    "result": []
  },
  {
    "postal": "L9Z5H4",
    "result": []
  },
  {
    "postal": "L9Z1K7",
    "result": [
      {
        "electoralDistricts": [
          {
            "election": null,
            "id": 99,
            "name": "Simcoe—Grey"
          }
        ],
        "pollDivisionIds": [
          10141837
        ],
        "postalCode": "L9Z1K7",
        "streetName": "GEORGIAN GLEN",
        "streetDirectionId": null,
        "streetTypeId": "DR",
        "placeName": "WASAGA BEACH",
        "streetNameDisplayText": "GEORGIAN GLEN DR, WASAGA BEACH"
      }
    ]
  },
  {
    "postal": "L9Z0H0",
    "result": []
  },
  {
    "postal": "L9Z0J3",
    "result": []
  },
  {
    "postal": "L9Z1X6",
    "result": [
      {
        "electoralDistricts": [
          {
            "election": null,
            "id": 99,
            "name": "Simcoe—Grey"
          }
        ],
        "pollDivisionIds": [
          10141834
        ],
        "postalCode": "L9Z1X6",
        "streetName": "51ST",
        "streetDirectionId": "S",
        "streetTypeId": "ST",
        "placeName": "WASAGA BEACH",
        "streetNameDisplayText": "51ST ST S, WASAGA BEACH"
      },
      {
        "electoralDistricts": [
          {
            "election": null,
            "id": 99,
            "name": "Simcoe—Grey"
          }
        ],
        "pollDivisionIds": [
          10141834
        ],
        "postalCode": "L9Z1X6",
        "streetName": "MOSLEY",
        "streetDirectionId": null,
        "streetTypeId": "ST",
        "placeName": "WASAGA BEACH",
        "streetNameDisplayText": "MOSLEY ST, WASAGA BEACH"
      }
    ]
  },
  {
    "postal": "L9Z2Z6",
    "result": [
      {
        "electoralDistricts": [
          {
            "election": null,
            "id": 99,
            "name": "Simcoe—Grey"
          }
        ],
        "pollDivisionIds": [
          10141834
        ],
        "postalCode": "L9Z2Z6",
        "streetName": "ROBINSON",
        "streetDirectionId": null,
        "streetTypeId": "RD",
        "placeName": "WASAGA BEACH",
        "streetNameDisplayText": "ROBINSON RD, WASAGA BEACH"
      }
    ]
  },
  {
    "postal": "L9Z4R9",
    "result": []
  },
  {
    "postal": "L9Z0W8",
    "result": []
  },
  {
    "postal": "L9Z1L4",
    "result": [
      {
        "electoralDistricts": [
          {
            "election": null,
            "id": 99,
            "name": "Simcoe—Grey"
          }
        ],
        "pollDivisionIds": [
          10141836
        ],
        "postalCode": "L9Z1L4",
        "streetName": "BRILLINGER",
        "streetDirectionId": null,
        "streetTypeId": "DR",
        "placeName": "WASAGA BEACH",
        "streetNameDisplayText": "BRILLINGER DR, WASAGA BEACH"
      }
    ]
  },
  {
    "postal": "L9Z0C8",
    "result": [
      {
        "electoralDistricts": [
          {
            "election": null,
            "id": 99,
            "name": "Simcoe—Grey"
          }
        ],
        "pollDivisionIds": [
          10141838
        ],
        "postalCode": "L9Z0C8",
        "streetName": "WHITE SANDS",
        "streetDirectionId": null,
        "streetTypeId": "WAY",
        "placeName": "WASAGA BEACH",
        "streetNameDisplayText": "WHITE SANDS WAY, WASAGA BEACH"
      }
    ]
  },
  {
    "postal": "L9Z9X7",
    "result": []
  },
  {
    "postal": "L9Z4T1",
    "result": []
  },
  {
    "postal": "L9Z0M0",
    "result": []
  },
  {
    "postal": "L9Z6A2",
    "result": []
  },
  {
    "postal": "L9Z9S8",
    "result": []
  },
  {
    "postal": "L9Z9T4",
    "result": []
  },
  {
    "postal": "L9Z9Y4",
    "result": []
  },
  {
    "postal": "L9Z6G5",
    "result": []
  },
  {
    "postal": "L9Z6H9",
    "result": []
  },
  {
    "postal": "L9Z2P3",
    "result": [
      {
        "electoralDistricts": [
          {
            "election": null,
            "id": 99,
            "name": "Simcoe—Grey"
          }
        ],
        "pollDivisionIds": [
          10141837
        ],
        "postalCode": "L9Z2P3",
        "streetName": "RIVER",
        "streetDirectionId": "E",
        "streetTypeId": "RD",
        "placeName": "WASAGA BEACH",
        "streetNameDisplayText": "RIVER RD E, WASAGA BEACH"
      }
    ]
  },
  {
    "postal": "L9Z1T6",
    "result": [
      {
        "electoralDistricts": [
          {
            "election": null,
            "id": 99,
            "name": "Simcoe—Grey"
          }
        ],
        "pollDivisionIds": [
          10141834
        ],
        "postalCode": "L9Z1T6",
        "streetName": "70TH",
        "streetDirectionId": "N",
        "streetTypeId": "ST",
        "placeName": "WASAGA BEACH",
        "streetNameDisplayText": "70TH ST N, WASAGA BEACH"
      },
      {
        "electoralDistricts": [
          {
            "election": null,
            "id": 99,
            "name": "Simcoe—Grey"
          }
        ],
        "pollDivisionIds": [
          10141834
        ],
        "postalCode": "L9Z1T6",
        "streetName": "71ST",
        "streetDirectionId": "N",
        "streetTypeId": "ST",
        "placeName": "WASAGA BEACH",
        "streetNameDisplayText": "71ST ST N, WASAGA BEACH"
      },
      {
        "electoralDistricts": [
          {
            "election": null,
            "id": 99,
            "name": "Simcoe—Grey"
          }
        ],
        "pollDivisionIds": [
          10141834
        ],
        "postalCode": "L9Z1T6",
        "streetName": "MOSLEY",
        "streetDirectionId": null,
        "streetTypeId": "ST",
        "placeName": "WASAGA BEACH",
        "streetNameDisplayText": "MOSLEY ST, WASAGA BEACH"
      }
    ]
  },
  {
    "postal": "L9Z4P6",
    "result": []
  },
  {
    "postal": "L9Z3K1",
    "result": []
  },
  {
    "postal": "L9Z6X4",
    "result": []
  },
  {
    "postal": "L9Z4M8",
    "result": []
  },
  {
    "postal": "L9Z2Y1",
    "result": [
      {
        "electoralDistricts": [
          {
            "election": null,
            "id": 99,
            "name": "Simcoe—Grey"
          }
        ],
        "pollDivisionIds": [
          10141833
        ],
        "postalCode": "L9Z2Y1",
        "streetName": "26",
        "streetDirectionId": null,
        "streetTypeId": "HWY",
        "placeName": "WASAGA BEACH",
        "streetNameDisplayText": "26 HWY, WASAGA BEACH"
      },
      {
        "electoralDistricts": [
          {
            "election": null,
            "id": 99,
            "name": "Simcoe—Grey"
          }
        ],
        "pollDivisionIds": [
          10141833
        ],
        "postalCode": "L9Z2Y1",
        "streetName": "BEACHWOOD",
        "streetDirectionId": null,
        "streetTypeId": "RD",
        "placeName": "WASAGA BEACH",
        "streetNameDisplayText": "BEACHWOOD RD, WASAGA BEACH"
      },
      {
        "electoralDistricts": [
          {
            "election": null,
            "id": 99,
            "name": "Simcoe—Grey"
          }
        ],
        "pollDivisionIds": [
          10141833
        ],
        "postalCode": "L9Z2Y1",
        "streetName": "MARILYN",
        "streetDirectionId": "S",
        "streetTypeId": "AVE",
        "placeName": "WASAGA BEACH",
        "streetNameDisplayText": "MARILYN AVE S, WASAGA BEACH"
      }
    ]
  },
  {
    "postal": "L9Z6M1",
    "result": []
  },
  {
    "postal": "L9Z5L8",
    "result": []
  },
  {
    "postal": "L9Z3P6",
    "result": []
  },
  {
    "postal": "L9Z9A5",
    "result": []
  },
  {
    "postal": "L9Z7K1",
    "result": []
  },
  {
    "postal": "L9Z3J4",
    "result": []
  },
  {
    "postal": "L9Z5E7",
    "result": []
  },
  {
    "postal": "L9Z3A7",
    "result": [
      {
        "electoralDistricts": [
          {
            "election": null,
            "id": 99,
            "name": "Simcoe—Grey"
          }
        ],
        "pollDivisionIds": [
          10141834
        ],
        "postalCode": "L9Z3A7",
        "streetName": "ROBINSON",
        "streetDirectionId": null,
        "streetTypeId": "RD",
        "placeName": "WASAGA BEACH",
        "streetNameDisplayText": "ROBINSON RD, WASAGA BEACH"
      }
    ]
  },
  {
    "postal": "L9Z1B9",
    "result": [
      {
        "electoralDistricts": [
          {
            "election": null,
            "id": 99,
            "name": "Simcoe—Grey"
          }
        ],
        "pollDivisionIds": [
          10141838
        ],
        "postalCode": "L9Z1B9",
        "streetName": "DOWNER",
        "streetDirectionId": null,
        "streetTypeId": "CRES",
        "placeName": "WASAGA BEACH",
        "streetNameDisplayText": "DOWNER CRES, WASAGA BEACH"
      },
      {
        "electoralDistricts": [
          {
            "election": null,
            "id": 99,
            "name": "Simcoe—Grey"
          }
        ],
        "pollDivisionIds": [
          10141838
        ],
        "postalCode": "L9Z1B9",
        "streetName": "FAIRWAY",
        "streetDirectionId": null,
        "streetTypeId": "CRES",
        "placeName": "WASAGA BEACH",
        "streetNameDisplayText": "FAIRWAY CRES, WASAGA BEACH"
      }
    ]
  },
  {
    "postal": "L9Z9E8",
    "result": []
  },
  {
    "postal": "L9Z1C9",
    "result": [
      {
        "electoralDistricts": [
          {
            "election": null,
            "id": 99,
            "name": "Simcoe—Grey"
          }
        ],
        "pollDivisionIds": [
          10141838
        ],
        "postalCode": "L9Z1C9",
        "streetName": "CHRISTY",
        "streetDirectionId": null,
        "streetTypeId": "DR",
        "placeName": "WASAGA BEACH",
        "streetNameDisplayText": "CHRISTY DR, WASAGA BEACH"
      },
      {
        "electoralDistricts": [
          {
            "election": null,
            "id": 99,
            "name": "Simcoe—Grey"
          }
        ],
        "pollDivisionIds": [
          10141838
        ],
        "postalCode": "L9Z1C9",
        "streetName": "DOUGLAS",
        "streetDirectionId": null,
        "streetTypeId": "DR",
        "placeName": "WASAGA BEACH",
        "streetNameDisplayText": "DOUGLAS DR, WASAGA BEACH"
      },
      {
        "electoralDistricts": [
          {
            "election": null,
            "id": 99,
            "name": "Simcoe—Grey"
          }
        ],
        "pollDivisionIds": [
          10141838
        ],
        "postalCode": "L9Z1C9",
        "streetName": "WESLEY",
        "streetDirectionId": null,
        "streetTypeId": "AVE",
        "placeName": "WASAGA BEACH",
        "streetNameDisplayText": "WESLEY AVE, WASAGA BEACH"
      }
    ]
  },
  {
    "postal": "L9Z3B5",
    "result": [
      {
        "electoralDistricts": [
          {
            "election": null,
            "id": 99,
            "name": "Simcoe—Grey"
          }
        ],
        "pollDivisionIds": [
          10141835
        ],
        "postalCode": "L9Z3B5",
        "streetName": "NORTHWOOD",
        "streetDirectionId": null,
        "streetTypeId": "DR",
        "placeName": "WASAGA BEACH",
        "streetNameDisplayText": "NORTHWOOD DR, WASAGA BEACH"
      }
    ]
  },
  {
    "postal": "L9Z8R0",
    "result": []
  },
  {
    "postal": "L9Z3P2",
    "result": []
  },
  {
    "postal": "L9Z5V4",
    "result": []
  },
  {
    "postal": "L9Z4H0",
    "result": []
  },
  {
    "postal": "L9Z4S7",
    "result": []
  },
  {
    "postal": "L9Z6C2",
    "result": []
  },
  {
    "postal": "L9Z8W3",
    "result": []
  },
  {
    "postal": "L9Z4M5",
    "result": []
  },
  {
    "postal": "L9Z5T1",
    "result": []
  },
  {
    "postal": "L9Z3B3",
    "result": [
      {
        "electoralDistricts": [
          {
            "election": null,
            "id": 99,
            "name": "Simcoe—Grey"
          }
        ],
        "pollDivisionIds": [
          10141835
        ],
        "postalCode": "L9Z3B3",
        "streetName": "MEADOWLARK",
        "streetDirectionId": null,
        "streetTypeId": "BLVD",
        "placeName": "WASAGA BEACH",
        "streetNameDisplayText": "MEADOWLARK BLVD, WASAGA BEACH"
      },
      {
        "electoralDistricts": [
          {
            "election": null,
            "id": 99,
            "name": "Simcoe—Grey"
          }
        ],
        "pollDivisionIds": [
          10141835
        ],
        "postalCode": "L9Z3B3",
        "streetName": "RED PINE",
        "streetDirectionId": null,
        "streetTypeId": "CRES",
        "placeName": "WASAGA BEACH",
        "streetNameDisplayText": "RED PINE CRES, WASAGA BEACH"
      }
    ]
  },
  {
    "postal": "L9Z6C6",
    "result": []
  },
  {
    "postal": "L9Z7N8",
    "result": []
  },
  {
    "postal": "L9Z2Y3",
    "result": [
      {
        "electoralDistricts": [
          {
            "election": null,
            "id": 99,
            "name": "Simcoe—Grey"
          }
        ],
        "pollDivisionIds": [
          10141833
        ],
        "postalCode": "L9Z2Y3",
        "streetName": "BAYSWATER",
        "streetDirectionId": null,
        "streetTypeId": "DR",
        "placeName": "WASAGA BEACH",
        "streetNameDisplayText": "BAYSWATER DR, WASAGA BEACH"
      },
      {
        "electoralDistricts": [
          {
            "election": null,
            "id": 99,
            "name": "Simcoe—Grey"
          }
        ],
        "pollDivisionIds": [
          10141833
        ],
        "postalCode": "L9Z2Y3",
        "streetName": "BETTY",
        "streetDirectionId": null,
        "streetTypeId": "BLVD",
        "placeName": "WASAGA BEACH",
        "streetNameDisplayText": "BETTY BLVD, WASAGA BEACH"
      },
      {
        "electoralDistricts": [
          {
            "election": null,
            "id": 99,
            "name": "Simcoe—Grey"
          }
        ],
        "pollDivisionIds": [
          10141833
        ],
        "postalCode": "L9Z2Y3",
        "streetName": "CONSTANCE",
        "streetDirectionId": null,
        "streetTypeId": "BLVD",
        "placeName": "WASAGA BEACH",
        "streetNameDisplayText": "CONSTANCE BLVD, WASAGA BEACH"
      },
      {
        "electoralDistricts": [
          {
            "election": null,
            "id": 99,
            "name": "Simcoe—Grey"
          }
        ],
        "pollDivisionIds": [
          10141833
        ],
        "postalCode": "L9Z2Y3",
        "streetName": "LAKESHORE",
        "streetDirectionId": null,
        "streetTypeId": "RD",
        "placeName": "WASAGA BEACH",
        "streetNameDisplayText": "LAKESHORE RD, WASAGA BEACH"
      }
    ]
  },
  {
    "postal": "L9Z2R6",
    "result": [
      {
        "electoralDistricts": [
          {
            "election": null,
            "id": 99,
            "name": "Simcoe—Grey"
          }
        ],
        "pollDivisionIds": [
          10141837
        ],
        "postalCode": "L9Z2R6",
        "streetName": "RIVER",
        "streetDirectionId": "E",
        "streetTypeId": "RD",
        "placeName": "WASAGA BEACH",
        "streetNameDisplayText": "RIVER RD E, WASAGA BEACH"
      }
    ]
  },
  {
    "postal": "L9Z7N3",
    "result": []
  },
  {
    "postal": "L9Z8J2",
    "result": []
  },
  {
    "postal": "L9Z6A9",
    "result": []
  },
  {
    "postal": "L9Z3V2",
    "result": []
  },
  {
    "postal": "L9Z2N3",
    "result": [
      {
        "electoralDistricts": [
          {
            "election": null,
            "id": 99,
            "name": "Simcoe—Grey"
          }
        ],
        "pollDivisionIds": [
          10141838
        ],
        "postalCode": "L9Z2N3",
        "streetName": "LESLIE ANNE",
        "streetDirectionId": null,
        "streetTypeId": "DR",
        "placeName": "WASAGA BEACH",
        "streetNameDisplayText": "LESLIE ANNE DR, WASAGA BEACH"
      },
      {
        "electoralDistricts": [
          {
            "election": null,
            "id": 99,
            "name": "Simcoe—Grey"
          }
        ],
        "pollDivisionIds": [
          10141836
        ],
        "postalCode": "L9Z2N3",
        "streetName": "ROYAL BEECH",
        "streetDirectionId": null,
        "streetTypeId": "DR",
        "placeName": "WASAGA BEACH",
        "streetNameDisplayText": "ROYAL BEECH DR, WASAGA BEACH"
      }
    ]
  },
  {
    "postal": "L9Z1S5",
    "result": [
      {
        "electoralDistricts": [
          {
            "election": null,
            "id": 99,
            "name": "Simcoe—Grey"
          }
        ],
        "pollDivisionIds": [
          10141838
        ],
        "postalCode": "L9Z1S5",
        "streetName": "GOLF COURSE",
        "streetDirectionId": null,
        "streetTypeId": "RD",
        "placeName": "WASAGA BEACH",
        "streetNameDisplayText": "GOLF COURSE RD, WASAGA BEACH"
      }
    ]
  },
  {
    "postal": "L9Z4T7",
    "result": []
  },
  {
    "postal": "L9Z6Y7",
    "result": []
  },
  {
    "postal": "L9Z0W7",
    "result": []
  },
  {
    "postal": "L9Z2W9",
    "result": [
      {
        "electoralDistricts": [
          {
            "election": null,
            "id": 99,
            "name": "Simcoe—Grey"
          }
        ],
        "pollDivisionIds": [
          10141838
        ],
        "postalCode": "L9Z2W9",
        "streetName": "KLONDIKE PARK",
        "streetDirectionId": null,
        "streetTypeId": "RD",
        "placeName": "WASAGA BEACH",
        "streetNameDisplayText": "KLONDIKE PARK RD, WASAGA BEACH"
      }
    ]
  },
  {
    "postal": "L9Z8V0",
    "result": []
  },
  {
    "postal": "L9Z0H4",
    "result": [
      {
        "electoralDistricts": [
          {
            "election": null,
            "id": 99,
            "name": "Simcoe—Grey"
          }
        ],
        "pollDivisionIds": [
          10141838
        ],
        "postalCode": "L9Z0H4",
        "streetName": "NATURES",
        "streetDirectionId": null,
        "streetTypeId": "TRAIL",
        "placeName": "WASAGA BEACH",
        "streetNameDisplayText": "NATURES TRAIL, WASAGA BEACH"
      }
    ]
  },
  {
    "postal": "L9Z2T1",
    "result": [
      {
        "electoralDistricts": [
          {
            "election": null,
            "id": 99,
            "name": "Simcoe—Grey"
          }
        ],
        "pollDivisionIds": [
          10141836
        ],
        "postalCode": "L9Z2T1",
        "streetName": "GLENDALE",
        "streetDirectionId": null,
        "streetTypeId": "AVE",
        "placeName": "WASAGA BEACH",
        "streetNameDisplayText": "GLENDALE AVE, WASAGA BEACH"
      },
      {
        "electoralDistricts": [
          {
            "election": null,
            "id": 99,
            "name": "Simcoe—Grey"
          }
        ],
        "pollDivisionIds": [
          10141836
        ],
        "postalCode": "L9Z2T1",
        "streetName": "MELROSE",
        "streetDirectionId": null,
        "streetTypeId": "AVE",
        "placeName": "WASAGA BEACH",
        "streetNameDisplayText": "MELROSE AVE, WASAGA BEACH"
      }
    ]
  },
  {
    "postal": "L9Z1B1",
    "result": [
      {
        "electoralDistricts": [
          {
            "election": null,
            "id": 99,
            "name": "Simcoe—Grey"
          }
        ],
        "pollDivisionIds": [
          10141837
        ],
        "postalCode": "L9Z1B1",
        "streetName": "BIRCHWOOD",
        "streetDirectionId": null,
        "streetTypeId": "TRAIL",
        "placeName": "WASAGA BEACH",
        "streetNameDisplayText": "BIRCHWOOD TRAIL, WASAGA BEACH"
      },
      {
        "electoralDistricts": [
          {
            "election": null,
            "id": 99,
            "name": "Simcoe—Grey"
          }
        ],
        "pollDivisionIds": [
          10141837
        ],
        "postalCode": "L9Z1B1",
        "streetName": "WHITEOAK",
        "streetDirectionId": null,
        "streetTypeId": "CRT",
        "placeName": "WASAGA BEACH",
        "streetNameDisplayText": "WHITEOAK CRT, WASAGA BEACH"
      }
    ]
  },
  {
    "postal": "L9Z8B6",
    "result": []
  },
  {
    "postal": "L9Z6H1",
    "result": []
  },
  {
    "postal": "L9Z8T8",
    "result": []
  },
  {
    "postal": "L9Z0T4",
    "result": []
  },
  {
    "postal": "L9Z2C4",
    "result": [
      {
        "electoralDistricts": [
          {
            "election": null,
            "id": 99,
            "name": "Simcoe—Grey"
          }
        ],
        "pollDivisionIds": [
          10141834
        ],
        "postalCode": "L9Z2C4",
        "streetName": "32ND",
        "streetDirectionId": "N",
        "streetTypeId": "ST",
        "placeName": "WASAGA BEACH",
        "streetNameDisplayText": "32ND ST N, WASAGA BEACH"
      }
    ]
  },
  {
    "postal": "L9Z8N3",
    "result": []
  },
  {
    "postal": "L9Z4L8",
    "result": []
  },
  {
    "postal": "L9Z2B5",
    "result": [
      {
        "electoralDistricts": [
          {
            "election": null,
            "id": 99,
            "name": "Simcoe—Grey"
          }
        ],
        "pollDivisionIds": [
          10141834
        ],
        "postalCode": "L9Z2B5",
        "streetName": "37TH",
        "streetDirectionId": "N",
        "streetTypeId": "ST",
        "placeName": "WASAGA BEACH",
        "streetNameDisplayText": "37TH ST N, WASAGA BEACH"
      },
      {
        "electoralDistricts": [
          {
            "election": null,
            "id": 99,
            "name": "Simcoe—Grey"
          }
        ],
        "pollDivisionIds": [
          10141834
        ],
        "postalCode": "L9Z2B5",
        "streetName": "38TH",
        "streetDirectionId": "N",
        "streetTypeId": "ST",
        "placeName": "WASAGA BEACH",
        "streetNameDisplayText": "38TH ST N, WASAGA BEACH"
      }
    ]
  },
  {
    "postal": "L9Z3H1",
    "result": []
  },
  {
    "postal": "L9Z4Y1",
    "result": []
  },
  {
    "postal": "L9Z7E2",
    "result": []
  },
  {
    "postal": "L9Z2P5",
    "result": [
      {
        "electoralDistricts": [
          {
            "election": null,
            "id": 99,
            "name": "Simcoe—Grey"
          }
        ],
        "pollDivisionIds": [
          10141837
        ],
        "postalCode": "L9Z2P5",
        "streetName": "BLUEWATER",
        "streetDirectionId": null,
        "streetTypeId": "LANE",
        "placeName": "WASAGA BEACH",
        "streetNameDisplayText": "BLUEWATER LANE, WASAGA BEACH"
      },
      {
        "electoralDistricts": [
          {
            "election": null,
            "id": 99,
            "name": "Simcoe—Grey"
          }
        ],
        "pollDivisionIds": [
          10141837
        ],
        "postalCode": "L9Z2P5",
        "streetName": "EARL",
        "streetDirectionId": null,
        "streetTypeId": "ST",
        "placeName": "WASAGA BEACH",
        "streetNameDisplayText": "EARL ST, WASAGA BEACH"
      },
      {
        "electoralDistricts": [
          {
            "election": null,
            "id": 99,
            "name": "Simcoe—Grey"
          }
        ],
        "pollDivisionIds": [
          10141837
        ],
        "postalCode": "L9Z2P5",
        "streetName": "EASTDALE",
        "streetDirectionId": null,
        "streetTypeId": "DR",
        "placeName": "WASAGA BEACH",
        "streetNameDisplayText": "EASTDALE DR, WASAGA BEACH"
      }
    ]
  },
  {
    "postal": "L9Z8R7",
    "result": []
  },
  {
    "postal": "L9Z9P1",
    "result": []
  },
  {
    "postal": "L9Z3B8",
    "result": [
      {
        "electoralDistricts": [
          {
            "election": null,
            "id": 99,
            "name": "Simcoe—Grey"
          }
        ],
        "pollDivisionIds": [
          10141838
        ],
        "postalCode": "L9Z3B8",
        "streetName": "BROADPOINT",
        "streetDirectionId": null,
        "streetTypeId": "ST",
        "placeName": "WASAGA BEACH",
        "streetNameDisplayText": "BROADPOINT ST, WASAGA BEACH"
      },
      {
        "electoralDistricts": [
          {
            "election": null,
            "id": 99,
            "name": "Simcoe—Grey"
          }
        ],
        "pollDivisionIds": [
          10141838
        ],
        "postalCode": "L9Z3B8",
        "streetName": "MEADOWOOD",
        "streetDirectionId": null,
        "streetTypeId": "DR",
        "placeName": "WASAGA BEACH",
        "streetNameDisplayText": "MEADOWOOD DR, WASAGA BEACH"
      },
      {
        "electoralDistricts": [
          {
            "election": null,
            "id": 99,
            "name": "Simcoe—Grey"
          }
        ],
        "pollDivisionIds": [
          10141838
        ],
        "postalCode": "L9Z3B8",
        "streetName": "MIDDLEPORT",
        "streetDirectionId": null,
        "streetTypeId": "DR",
        "placeName": "WASAGA BEACH",
        "streetNameDisplayText": "MIDDLEPORT DR, WASAGA BEACH"
      }
    ]
  },
  {
    "postal": "L9Z3P7",
    "result": []
  },
  {
    "postal": "L9Z9B2",
    "result": []
  },
  {
    "postal": "L9Z6Z3",
    "result": []
  },
  {
    "postal": "L9Z4N5",
    "result": []
  },
  {
    "postal": "L9Z8T3",
    "result": []
  },
  {
    "postal": "L9Z1V2",
    "result": [
      {
        "electoralDistricts": [
          {
            "election": null,
            "id": 99,
            "name": "Simcoe—Grey"
          }
        ],
        "pollDivisionIds": [
          10141834
        ],
        "postalCode": "L9Z1V2",
        "streetName": "64TH",
        "streetDirectionId": "N",
        "streetTypeId": "ST",
        "placeName": "WASAGA BEACH",
        "streetNameDisplayText": "64TH ST N, WASAGA BEACH"
      },
      {
        "electoralDistricts": [
          {
            "election": null,
            "id": 99,
            "name": "Simcoe—Grey"
          }
        ],
        "pollDivisionIds": [
          10141834
        ],
        "postalCode": "L9Z1V2",
        "streetName": "65TH",
        "streetDirectionId": "N",
        "streetTypeId": "ST",
        "placeName": "WASAGA BEACH",
        "streetNameDisplayText": "65TH ST N, WASAGA BEACH"
      },
      {
        "electoralDistricts": [
          {
            "election": null,
            "id": 99,
            "name": "Simcoe—Grey"
          }
        ],
        "pollDivisionIds": [
          10141834
        ],
        "postalCode": "L9Z1V2",
        "streetName": "MOSLEY",
        "streetDirectionId": null,
        "streetTypeId": "ST",
        "placeName": "WASAGA BEACH",
        "streetNameDisplayText": "MOSLEY ST, WASAGA BEACH"
      },
      {
        "electoralDistricts": [
          {
            "election": null,
            "id": 99,
            "name": "Simcoe—Grey"
          }
        ],
        "pollDivisionIds": [
          10141834
        ],
        "postalCode": "L9Z1V2",
        "streetName": "SHORE",
        "streetDirectionId": null,
        "streetTypeId": "LANE",
        "placeName": "WASAGA BEACH",
        "streetNameDisplayText": "SHORE LANE, WASAGA BEACH"
      }
    ]
  },
  {
    "postal": "L9Z1Y0",
    "result": []
  },
  {
    "postal": "L9Z3G6",
    "result": []
  },
  {
    "postal": "L9Z3H7",
    "result": []
  },
  {
    "postal": "L9Z7X8",
    "result": []
  },
  {
    "postal": "L9Z0C7",
    "result": [
      {
        "electoralDistricts": [
          {
            "election": null,
            "id": 99,
            "name": "Simcoe—Grey"
          }
        ],
        "pollDivisionIds": [
          10141838
        ],
        "postalCode": "L9Z0C7",
        "streetName": "CULHAM",
        "streetDirectionId": null,
        "streetTypeId": "TRAIL",
        "placeName": "WASAGA BEACH",
        "streetNameDisplayText": "CULHAM TRAIL, WASAGA BEACH"
      },
      {
        "electoralDistricts": [
          {
            "election": null,
            "id": 99,
            "name": "Simcoe—Grey"
          }
        ],
        "pollDivisionIds": [
          10141838
        ],
        "postalCode": "L9Z0C7",
        "streetName": "GRAND POPLAR",
        "streetDirectionId": null,
        "streetTypeId": "LANE",
        "placeName": "WASAGA BEACH",
        "streetNameDisplayText": "GRAND POPLAR LANE, WASAGA BEACH"
      }
    ]
  },
  {
    "postal": "L9Z0W9",
    "result": []
  },
  {
    "postal": "L9Z8E6",
    "result": []
  },
  {
    "postal": "L9Z9Z8",
    "result": []
  },
  {
    "postal": "L9Z3P4",
    "result": []
  },
  {
    "postal": "L9Z6L8",
    "result": []
  },
  {
    "postal": "L9Z2R4",
    "result": [
      {
        "electoralDistricts": [
          {
            "election": null,
            "id": 99,
            "name": "Simcoe—Grey"
          }
        ],
        "pollDivisionIds": [
          10141837
        ],
        "postalCode": "L9Z2R4",
        "streetName": "LESLIE",
        "streetDirectionId": null,
        "streetTypeId": "ST",
        "placeName": "WASAGA BEACH",
        "streetNameDisplayText": "LESLIE ST, WASAGA BEACH"
      },
      {
        "electoralDistricts": [
          {
            "election": null,
            "id": 99,
            "name": "Simcoe—Grey"
          }
        ],
        "pollDivisionIds": [
          10141837
        ],
        "postalCode": "L9Z2R4",
        "streetName": "ROBERTSON",
        "streetDirectionId": null,
        "streetTypeId": "ST",
        "placeName": "WASAGA BEACH",
        "streetNameDisplayText": "ROBERTSON ST, WASAGA BEACH"
      }
    ]
  },
  {
    "postal": "L9Z2W1",
    "result": [
      {
        "electoralDistricts": [
          {
            "election": null,
            "id": 99,
            "name": "Simcoe—Grey"
          }
        ],
        "pollDivisionIds": [
          10141836
        ],
        "postalCode": "L9Z2W1",
        "streetName": "RIVER",
        "streetDirectionId": "W",
        "streetTypeId": "RD",
        "placeName": "WASAGA BEACH",
        "streetNameDisplayText": "RIVER RD W, WASAGA BEACH"
      }
    ]
  },
  {
    "postal": "L9Z9H8",
    "result": []
  },
  {
    "postal": "L9Z8X9",
    "result": []
  },
  {
    "postal": "L9Z7H4",
    "result": []
  },
  {
    "postal": "L9Z3J1",
    "result": []
  },
  {
    "postal": "L9Z1P4",
    "result": [
      {
        "electoralDistricts": [
          {
            "election": null,
            "id": 99,
            "name": "Simcoe—Grey"
          }
        ],
        "pollDivisionIds": [
          10141834
        ],
        "postalCode": "L9Z1P4",
        "streetName": "GREEN PINE",
        "streetDirectionId": null,
        "streetTypeId": "CRES",
        "placeName": "WASAGA BEACH",
        "streetNameDisplayText": "GREEN PINE CRES, WASAGA BEACH"
      },
      {
        "electoralDistricts": [
          {
            "election": null,
            "id": 99,
            "name": "Simcoe—Grey"
          }
        ],
        "pollDivisionIds": [
          10141834
        ],
        "postalCode": "L9Z1P4",
        "streetName": "RAMBLEWOOD",
        "streetDirectionId": null,
        "streetTypeId": "DR",
        "placeName": "WASAGA BEACH",
        "streetNameDisplayText": "RAMBLEWOOD DR, WASAGA BEACH"
      },
      {
        "electoralDistricts": [
          {
            "election": null,
            "id": 99,
            "name": "Simcoe—Grey"
          }
        ],
        "pollDivisionIds": [
          10141834
        ],
        "postalCode": "L9Z1P4",
        "streetName": "SUGAR MAPLE",
        "streetDirectionId": null,
        "streetTypeId": "LANE",
        "placeName": "WASAGA BEACH",
        "streetNameDisplayText": "SUGAR MAPLE LANE, WASAGA BEACH"
      }
    ]
  },
  {
    "postal": "L9Z2A3",
    "result": [
      {
        "electoralDistricts": [
          {
            "election": null,
            "id": 99,
            "name": "Simcoe—Grey"
          }
        ],
        "pollDivisionIds": [
          10141834
        ],
        "postalCode": "L9Z2A3",
        "streetName": "39TH",
        "streetDirectionId": "N",
        "streetTypeId": "ST",
        "placeName": "WASAGA BEACH",
        "streetNameDisplayText": "39TH ST N, WASAGA BEACH"
      },
      {
        "electoralDistricts": [
          {
            "election": null,
            "id": 99,
            "name": "Simcoe—Grey"
          }
        ],
        "pollDivisionIds": [
          10141834
        ],
        "postalCode": "L9Z2A3",
        "streetName": "SHORE",
        "streetDirectionId": null,
        "streetTypeId": "LANE",
        "placeName": "WASAGA BEACH",
        "streetNameDisplayText": "SHORE LANE, WASAGA BEACH"
      }
    ]
  },
  {
    "postal": "L9Z0Z1",
    "result": []
  },
  {
    "postal": "L9Z1C1",
    "result": [
      {
        "electoralDistricts": [
          {
            "election": null,
            "id": 99,
            "name": "Simcoe—Grey"
          }
        ],
        "pollDivisionIds": [
          10141838
        ],
        "postalCode": "L9Z1C1",
        "streetName": "BIRDIE",
        "streetDirectionId": null,
        "streetTypeId": "CRT",
        "placeName": "WASAGA BEACH",
        "streetNameDisplayText": "BIRDIE CRT, WASAGA BEACH"
      },
      {
        "electoralDistricts": [
          {
            "election": null,
            "id": 99,
            "name": "Simcoe—Grey"
          }
        ],
        "pollDivisionIds": [
          10141838
        ],
        "postalCode": "L9Z1C1",
        "streetName": "BRITTON",
        "streetDirectionId": null,
        "streetTypeId": "CRT",
        "placeName": "WASAGA BEACH",
        "streetNameDisplayText": "BRITTON CRT, WASAGA BEACH"
      },
      {
        "electoralDistricts": [
          {
            "election": null,
            "id": 99,
            "name": "Simcoe—Grey"
          }
        ],
        "pollDivisionIds": [
          10141838
        ],
        "postalCode": "L9Z1C1",
        "streetName": "FAIRWAY",
        "streetDirectionId": null,
        "streetTypeId": "CRES",
        "placeName": "WASAGA BEACH",
        "streetNameDisplayText": "FAIRWAY CRES, WASAGA BEACH"
      }
    ]
  },
  {
    "postal": "L9Z0H3",
    "result": [
      {
        "electoralDistricts": [
          {
            "election": null,
            "id": 99,
            "name": "Simcoe—Grey"
          }
        ],
        "pollDivisionIds": [
          10141835,
          10141828,
          10141838
        ],
        "postalCode": "L9Z0H3",
        "streetName": "BLASI",
        "streetDirectionId": null,
        "streetTypeId": "CRT",
        "placeName": "WASAGA BEACH",
        "streetNameDisplayText": "BLASI CRT, WASAGA BEACH"
      },
      {
        "electoralDistricts": [
          {
            "election": null,
            "id": 99,
            "name": "Simcoe—Grey"
          }
        ],
        "pollDivisionIds": [
          10141835
        ],
        "postalCode": "L9Z0H3",
        "streetName": "FARWELL",
        "streetDirectionId": null,
        "streetTypeId": "AVE",
        "placeName": "WASAGA BEACH",
        "streetNameDisplayText": "FARWELL AVE, WASAGA BEACH"
      },
      {
        "electoralDistricts": [
          {
            "election": null,
            "id": 99,
            "name": "Simcoe—Grey"
          }
        ],
        "pollDivisionIds": [
          10141835
        ],
        "postalCode": "L9Z0H3",
        "streetName": "PLASI",
        "streetDirectionId": null,
        "streetTypeId": "CRT",
        "placeName": "WASAGA BEACH",
        "streetNameDisplayText": "PLASI CRT, WASAGA BEACH"
      }
    ]
  },
  {
    "postal": "L9Z7B0",
    "result": []
  },
  {
    "postal": "L9Z5K2",
    "result": []
  },
  {
    "postal": "L9Z1E9",
    "result": [
      {
        "electoralDistricts": [
          {
            "election": null,
            "id": 99,
            "name": "Simcoe—Grey"
          }
        ],
        "pollDivisionIds": [
          10141836
        ],
        "postalCode": "L9Z1E9",
        "streetName": "RIVERDALE",
        "streetDirectionId": null,
        "streetTypeId": "DR",
        "placeName": "WASAGA BEACH",
        "streetNameDisplayText": "RIVERDALE DR, WASAGA BEACH"
      }
    ]
  },
  {
    "postal": "L9Z9W7",
    "result": []
  },
  {
    "postal": "L9Z5W6",
    "result": []
  },
  {
    "postal": "L9Z6S6",
    "result": []
  },
  {
    "postal": "L9Z2P8",
    "result": [
      {
        "electoralDistricts": [
          {
            "election": null,
            "id": 99,
            "name": "Simcoe—Grey"
          }
        ],
        "pollDivisionIds": [
          10141837
        ],
        "postalCode": "L9Z2P8",
        "streetName": "VALERIE",
        "streetDirectionId": null,
        "streetTypeId": "CRES",
        "placeName": "WASAGA BEACH",
        "streetNameDisplayText": "VALERIE CRES, WASAGA BEACH"
      }
    ]
  },
  {
    "postal": "L9Z4P8",
    "result": []
  },
  {
    "postal": "L9Z0V9",
    "result": []
  },
  {
    "postal": "L9Z5Y2",
    "result": []
  },
  {
    "postal": "L9Z7Z7",
    "result": []
  },
  {
    "postal": "L9Z6Y8",
    "result": []
  },
  {
    "postal": "L9Z2G7",
    "result": [
      {
        "electoralDistricts": [
          {
            "election": null,
            "id": 99,
            "name": "Simcoe—Grey"
          }
        ],
        "pollDivisionIds": [
          10141837
        ],
        "postalCode": "L9Z2G7",
        "streetName": "22ND",
        "streetDirectionId": "N",
        "streetTypeId": "ST",
        "placeName": "WASAGA BEACH",
        "streetNameDisplayText": "22ND ST N, WASAGA BEACH"
      },
      {
        "electoralDistricts": [
          {
            "election": null,
            "id": 99,
            "name": "Simcoe—Grey"
          }
        ],
        "pollDivisionIds": [
          10141837
        ],
        "postalCode": "L9Z2G7",
        "streetName": "BAKER",
        "streetDirectionId": null,
        "streetTypeId": "ST",
        "placeName": "WASAGA BEACH",
        "streetNameDisplayText": "BAKER ST, WASAGA BEACH"
      },
      {
        "electoralDistricts": [
          {
            "election": null,
            "id": 99,
            "name": "Simcoe—Grey"
          }
        ],
        "pollDivisionIds": [
          10141837
        ],
        "postalCode": "L9Z2G7",
        "streetName": "LEROY",
        "streetDirectionId": null,
        "streetTypeId": "LANE",
        "placeName": "WASAGA BEACH",
        "streetNameDisplayText": "LEROY LANE, WASAGA BEACH"
      },
      {
        "electoralDistricts": [
          {
            "election": null,
            "id": 99,
            "name": "Simcoe—Grey"
          }
        ],
        "pollDivisionIds": [
          10141837
        ],
        "postalCode": "L9Z2G7",
        "streetName": "MOSLEY",
        "streetDirectionId": null,
        "streetTypeId": "ST",
        "placeName": "WASAGA BEACH",
        "streetNameDisplayText": "MOSLEY ST, WASAGA BEACH"
      }
    ]
  },
  {
    "postal": "L9Z8C1",
    "result": []
  },
  {
    "postal": "L9Z5C5",
    "result": []
  },
  {
    "postal": "L9Z2X8",
    "result": [
      {
        "electoralDistricts": [
          {
            "election": null,
            "id": 99,
            "name": "Simcoe—Grey"
          }
        ],
        "pollDivisionIds": [
          10141833
        ],
        "postalCode": "L9Z2X8",
        "streetName": "BEACHWOOD",
        "streetDirectionId": null,
        "streetTypeId": "RD",
        "placeName": "WASAGA BEACH",
        "streetNameDisplayText": "BEACHWOOD RD, WASAGA BEACH"
      },
      {
        "electoralDistricts": [
          {
            "election": null,
            "id": 99,
            "name": "Simcoe—Grey"
          }
        ],
        "pollDivisionIds": [
          10141833
        ],
        "postalCode": "L9Z2X8",
        "streetName": "BETTY",
        "streetDirectionId": null,
        "streetTypeId": "BLVD",
        "placeName": "WASAGA BEACH",
        "streetNameDisplayText": "BETTY BLVD, WASAGA BEACH"
      },
      {
        "electoralDistricts": [
          {
            "election": null,
            "id": 99,
            "name": "Simcoe—Grey"
          }
        ],
        "pollDivisionIds": [
          10141833
        ],
        "postalCode": "L9Z2X8",
        "streetName": "CONSTANCE",
        "streetDirectionId": null,
        "streetTypeId": "BLVD",
        "placeName": "WASAGA BEACH",
        "streetNameDisplayText": "CONSTANCE BLVD, WASAGA BEACH"
      },
      {
        "electoralDistricts": [
          {
            "election": null,
            "id": 99,
            "name": "Simcoe—Grey"
          }
        ],
        "pollDivisionIds": [
          10141833
        ],
        "postalCode": "L9Z2X8",
        "streetName": "MARILYN",
        "streetDirectionId": "N",
        "streetTypeId": "AVE",
        "placeName": "WASAGA BEACH",
        "streetNameDisplayText": "MARILYN AVE N, WASAGA BEACH"
      }
    ]
  },
  {
    "postal": "L9Z1W5",
    "result": [
      {
        "electoralDistricts": [
          {
            "election": null,
            "id": 99,
            "name": "Simcoe—Grey"
          }
        ],
        "pollDivisionIds": [
          10141834
        ],
        "postalCode": "L9Z1W5",
        "streetName": "56TH",
        "streetDirectionId": "S",
        "streetTypeId": "ST",
        "placeName": "WASAGA BEACH",
        "streetNameDisplayText": "56TH ST S, WASAGA BEACH"
      },
      {
        "electoralDistricts": [
          {
            "election": null,
            "id": 99,
            "name": "Simcoe—Grey"
          }
        ],
        "pollDivisionIds": [
          10141834
        ],
        "postalCode": "L9Z1W5",
        "streetName": "57TH",
        "streetDirectionId": "S",
        "streetTypeId": "ST",
        "placeName": "WASAGA BEACH",
        "streetNameDisplayText": "57TH ST S, WASAGA BEACH"
      }
    ]
  },
  {
    "postal": "L9Z7G0",
    "result": []
  },
  {
    "postal": "L9Z8J8",
    "result": []
  },
  {
    "postal": "L9Z3Y0",
    "result": []
  },
  {
    "postal": "L9Z9T7",
    "result": []
  },
  {
    "postal": "L9Z5P4",
    "result": []
  },
  {
    "postal": "L9Z4B0",
    "result": []
  },
  {
    "postal": "L9Z9N8",
    "result": []
  },
  {
    "postal": "L9Z4A7",
    "result": []
  },
  {
    "postal": "L9Z4H9",
    "result": []
  },
  {
    "postal": "L9Z6X1",
    "result": []
  },
  {
    "postal": "L9Z9Y7",
    "result": []
  },
  {
    "postal": "L9Z2Y5",
    "result": [
      {
        "electoralDistricts": [
          {
            "election": null,
            "id": 99,
            "name": "Simcoe—Grey"
          }
        ],
        "pollDivisionIds": [
          10141833
        ],
        "postalCode": "L9Z2Y5",
        "streetName": "BEACHWOOD",
        "streetDirectionId": null,
        "streetTypeId": "RD",
        "placeName": "WASAGA BEACH",
        "streetNameDisplayText": "BEACHWOOD RD, WASAGA BEACH"
      },
      {
        "electoralDistricts": [
          {
            "election": null,
            "id": 99,
            "name": "Simcoe—Grey"
          }
        ],
        "pollDivisionIds": [
          10141833
        ],
        "postalCode": "L9Z2Y5",
        "streetName": "CONSTANCE",
        "streetDirectionId": null,
        "streetTypeId": "BLVD",
        "placeName": "WASAGA BEACH",
        "streetNameDisplayText": "CONSTANCE BLVD, WASAGA BEACH"
      },
      {
        "electoralDistricts": [
          {
            "election": null,
            "id": 99,
            "name": "Simcoe—Grey"
          }
        ],
        "pollDivisionIds": [
          10141833
        ],
        "postalCode": "L9Z2Y5",
        "streetName": "LAKESHORE",
        "streetDirectionId": null,
        "streetTypeId": "RD",
        "placeName": "WASAGA BEACH",
        "streetNameDisplayText": "LAKESHORE RD, WASAGA BEACH"
      },
      {
        "electoralDistricts": [
          {
            "election": null,
            "id": 99,
            "name": "Simcoe—Grey"
          }
        ],
        "pollDivisionIds": [
          10141833
        ],
        "postalCode": "L9Z2Y5",
        "streetName": "THOMAS",
        "streetDirectionId": null,
        "streetTypeId": "ST",
        "placeName": "WASAGA BEACH",
        "streetNameDisplayText": "THOMAS ST, WASAGA BEACH"
      }
    ]
  },
  {
    "postal": "L9Z8L7",
    "result": []
  },
  {
    "postal": "L9Z2A8",
    "result": [
      {
        "electoralDistricts": [
          {
            "election": null,
            "id": 99,
            "name": "Simcoe—Grey"
          }
        ],
        "pollDivisionIds": [
          10141836,
          10141835
        ],
        "postalCode": "L9Z2A8",
        "streetName": "KNOX",
        "streetDirectionId": "W",
        "streetTypeId": "RD",
        "placeName": "WASAGA BEACH",
        "streetNameDisplayText": "KNOX RD W, WASAGA BEACH"
      }
    ]
  },
  {
    "postal": "L9Z2K9",
    "result": [
      {
        "electoralDistricts": [
          {
            "election": null,
            "id": 99,
            "name": "Simcoe—Grey"
          }
        ],
        "pollDivisionIds": [
          10141837
        ],
        "postalCode": "L9Z2K9",
        "streetName": "BECK",
        "streetDirectionId": null,
        "streetTypeId": "ST",
        "placeName": "WASAGA BEACH",
        "streetNameDisplayText": "BECK ST, WASAGA BEACH"
      },
      {
        "electoralDistricts": [
          {
            "election": null,
            "id": 99,
            "name": "Simcoe—Grey"
          }
        ],
        "pollDivisionIds": [
          10141837
        ],
        "postalCode": "L9Z2K9",
        "streetName": "MAIN",
        "streetDirectionId": null,
        "streetTypeId": "ST",
        "placeName": "WASAGA BEACH",
        "streetNameDisplayText": "MAIN ST, WASAGA BEACH"
      },
      {
        "electoralDistricts": [
          {
            "election": null,
            "id": 99,
            "name": "Simcoe—Grey"
          }
        ],
        "pollDivisionIds": [
          10141837
        ],
        "postalCode": "L9Z2K9",
        "streetName": "RIVER",
        "streetDirectionId": "E",
        "streetTypeId": "RD",
        "placeName": "WASAGA BEACH",
        "streetNameDisplayText": "RIVER RD E, WASAGA BEACH"
      }
    ]
  },
  {
    "postal": "L9Z3E5",
    "result": []
  },
  {
    "postal": "L9Z8N6",
    "result": []
  },
  {
    "postal": "L9Z8J4",
    "result": []
  },
  {
    "postal": "L9Z4R7",
    "result": []
  },
  {
    "postal": "L9Z9K1",
    "result": []
  },
  {
    "postal": "L9Z8E1",
    "result": []
  },
  {
    "postal": "L9Z0R1",
    "result": []
  },
  {
    "postal": "L9Z4J3",
    "result": []
  },
  {
    "postal": "L9Z7E7",
    "result": []
  },
  {
    "postal": "L9Z0J0",
    "result": []
  },
  {
    "postal": "L9Z7R8",
    "result": []
  },
  {
    "postal": "L9Z9X0",
    "result": []
  },
  {
    "postal": "L9Z7P6",
    "result": []
  },
  {
    "postal": "L9Z0R7",
    "result": []
  },
  {
    "postal": "L9Z5W1",
    "result": []
  },
  {
    "postal": "L9Z0K4",
    "result": []
  },
  {
    "postal": "L9Z7N9",
    "result": []
  },
  {
    "postal": "L9Z1N0",
    "result": []
  },
  {
    "postal": "L9Z6P3",
    "result": []
  },
  {
    "postal": "L9Z5A1",
    "result": []
  },
  {
    "postal": "L9Z9M9",
    "result": []
  },
  {
    "postal": "L9Z7T6",
    "result": []
  },
  {
    "postal": "L9Z3X0",
    "result": []
  },
  {
    "postal": "L9Z2T0",
    "result": []
  },
  {
    "postal": "L9Z5X9",
    "result": []
  },
  {
    "postal": "L9Z2R3",
    "result": [
      {
        "electoralDistricts": [
          {
            "election": null,
            "id": 99,
            "name": "Simcoe—Grey"
          }
        ],
        "pollDivisionIds": [
          10141837
        ],
        "postalCode": "L9Z2R3",
        "streetName": "BELVA",
        "streetDirectionId": null,
        "streetTypeId": "AVE",
        "placeName": "WASAGA BEACH",
        "streetNameDisplayText": "BELVA AVE, WASAGA BEACH"
      },
      {
        "electoralDistricts": [
          {
            "election": null,
            "id": 99,
            "name": "Simcoe—Grey"
          }
        ],
        "pollDivisionIds": [
          10141837
        ],
        "postalCode": "L9Z2R3",
        "streetName": "LESLIE",
        "streetDirectionId": null,
        "streetTypeId": "ST",
        "placeName": "WASAGA BEACH",
        "streetNameDisplayText": "LESLIE ST, WASAGA BEACH"
      }
    ]
  },
  {
    "postal": "L9Z5N2",
    "result": []
  },
  {
    "postal": "L9Z4Y7",
    "result": []
  },
  {
    "postal": "L9Z7M0",
    "result": []
  },
  {
    "postal": "L9Z8P3",
    "result": []
  },
  {
    "postal": "L9Z3N3",
    "result": []
  },
  {
    "postal": "L9Z7S3",
    "result": []
  },
  {
    "postal": "L9Z3V9",
    "result": []
  },
  {
    "postal": "L9Z9N7",
    "result": []
  },
  {
    "postal": "L9Z0G4",
    "result": [
      {
        "electoralDistricts": [
          {
            "election": null,
            "id": 99,
            "name": "Simcoe—Grey"
          }
        ],
        "pollDivisionIds": [
          10141837
        ],
        "postalCode": "L9Z0G4",
        "streetName": "CHESTNUT",
        "streetDirectionId": null,
        "streetTypeId": "LANE",
        "placeName": "WASAGA BEACH",
        "streetNameDisplayText": "CHESTNUT LANE, WASAGA BEACH"
      },
      {
        "electoralDistricts": [
          {
            "election": null,
            "id": 99,
            "name": "Simcoe—Grey"
          }
        ],
        "pollDivisionIds": [
          10141837
        ],
        "postalCode": "L9Z0G4",
        "streetName": "CLOVER",
        "streetDirectionId": null,
        "streetTypeId": "CRES",
        "placeName": "WASAGA BEACH",
        "streetNameDisplayText": "CLOVER CRES, WASAGA BEACH"
      }
    ]
  },
  {
    "postal": "L9Z2E2",
    "result": [
      {
        "electoralDistricts": [
          {
            "election": null,
            "id": 99,
            "name": "Simcoe—Grey"
          }
        ],
        "pollDivisionIds": [
          10141834
        ],
        "postalCode": "L9Z2E2",
        "streetName": "28TH",
        "streetDirectionId": "N",
        "streetTypeId": "ST",
        "placeName": "WASAGA BEACH",
        "streetNameDisplayText": "28TH ST N, WASAGA BEACH"
      },
      {
        "electoralDistricts": [
          {
            "election": null,
            "id": 99,
            "name": "Simcoe—Grey"
          }
        ],
        "pollDivisionIds": [
          10141834
        ],
        "postalCode": "L9Z2E2",
        "streetName": "MCCAGUE",
        "streetDirectionId": null,
        "streetTypeId": "ST",
        "placeName": "WASAGA BEACH",
        "streetNameDisplayText": "MCCAGUE ST, WASAGA BEACH"
      },
      {
        "electoralDistricts": [
          {
            "election": null,
            "id": 99,
            "name": "Simcoe—Grey"
          }
        ],
        "pollDivisionIds": [
          10141834
        ],
        "postalCode": "L9Z2E2",
        "streetName": "MOSLEY",
        "streetDirectionId": null,
        "streetTypeId": "ST",
        "placeName": "WASAGA BEACH",
        "streetNameDisplayText": "MOSLEY ST, WASAGA BEACH"
      },
      {
        "electoralDistricts": [
          {
            "election": null,
            "id": 99,
            "name": "Simcoe—Grey"
          }
        ],
        "pollDivisionIds": [
          10141836
        ],
        "postalCode": "L9Z2E2",
        "streetName": "RIVERBEND",
        "streetDirectionId": null,
        "streetTypeId": "AVE",
        "placeName": "WASAGA BEACH",
        "streetNameDisplayText": "RIVERBEND AVE, WASAGA BEACH"
      }
    ]
  },
  {
    "postal": "L9Z7W8",
    "result": []
  },
  {
    "postal": "L9Z7M5",
    "result": []
  },
  {
    "postal": "L9Z5W8",
    "result": []
  },
  {
    "postal": "L9Z5E5",
    "result": []
  },
  {
    "postal": "L9Z1P9",
    "result": [
      {
        "electoralDistricts": [
          {
            "election": null,
            "id": 99,
            "name": "Simcoe—Grey"
          }
        ],
        "pollDivisionIds": [
          10141834
        ],
        "postalCode": "L9Z1P9",
        "streetName": "45TH",
        "streetDirectionId": "S",
        "streetTypeId": "ST",
        "placeName": "WASAGA BEACH",
        "streetNameDisplayText": "45TH ST S, WASAGA BEACH"
      },
      {
        "electoralDistricts": [
          {
            "election": null,
            "id": 99,
            "name": "Simcoe—Grey"
          }
        ],
        "pollDivisionIds": [
          10141834
        ],
        "postalCode": "L9Z1P9",
        "streetName": "FRANK",
        "streetDirectionId": null,
        "streetTypeId": "ST",
        "placeName": "WASAGA BEACH",
        "streetNameDisplayText": "FRANK ST, WASAGA BEACH"
      },
      {
        "electoralDistricts": [
          {
            "election": null,
            "id": 99,
            "name": "Simcoe—Grey"
          }
        ],
        "pollDivisionIds": [
          10141834
        ],
        "postalCode": "L9Z1P9",
        "streetName": "FREDERICK",
        "streetDirectionId": null,
        "streetTypeId": "DR",
        "placeName": "WASAGA BEACH",
        "streetNameDisplayText": "FREDERICK DR, WASAGA BEACH"
      }
    ]
  },
  {
    "postal": "L9Z8V8",
    "result": []
  },
  {
    "postal": "L9Z9G8",
    "result": []
  },
  {
    "postal": "L9Z8H9",
    "result": []
  },
  {
    "postal": "L9Z1Z1",
    "result": [
      {
        "electoralDistricts": [
          {
            "election": null,
            "id": 99,
            "name": "Simcoe—Grey"
          }
        ],
        "pollDivisionIds": [
          10141834
        ],
        "postalCode": "L9Z1Z1",
        "streetName": "43RD",
        "streetDirectionId": "N",
        "streetTypeId": "ST",
        "placeName": "WASAGA BEACH",
        "streetNameDisplayText": "43RD ST N, WASAGA BEACH"
      },
      {
        "electoralDistricts": [
          {
            "election": null,
            "id": 99,
            "name": "Simcoe—Grey"
          }
        ],
        "pollDivisionIds": [
          10141834
        ],
        "postalCode": "L9Z1Z1",
        "streetName": "44TH",
        "streetDirectionId": "N",
        "streetTypeId": "ST",
        "placeName": "WASAGA BEACH",
        "streetNameDisplayText": "44TH ST N, WASAGA BEACH"
      }
    ]
  },
  {
    "postal": "L9Z8M3",
    "result": []
  },
  {
    "postal": "L9Z5H6",
    "result": []
  },
  {
    "postal": "L9Z7W7",
    "result": []
  },
  {
    "postal": "L9Z4L0",
    "result": []
  },
  {
    "postal": "L9Z2N1",
    "result": [
      {
        "electoralDistricts": [
          {
            "election": null,
            "id": 99,
            "name": "Simcoe—Grey"
          }
        ],
        "pollDivisionIds": [
          10141837
        ],
        "postalCode": "L9Z2N1",
        "streetName": "DEERBROOK",
        "streetDirectionId": null,
        "streetTypeId": "DR",
        "placeName": "WASAGA BEACH",
        "streetNameDisplayText": "DEERBROOK DR, WASAGA BEACH"
      },
      {
        "electoralDistricts": [
          {
            "election": null,
            "id": 99,
            "name": "Simcoe—Grey"
          }
        ],
        "pollDivisionIds": [
          10141837
        ],
        "postalCode": "L9Z2N1",
        "streetName": "WASAGA WOODS",
        "streetDirectionId": null,
        "streetTypeId": "CIR",
        "placeName": "WASAGA BEACH",
        "streetNameDisplayText": "WASAGA WOODS CIR, WASAGA BEACH"
      }
    ]
  },
  {
    "postal": "L9Z2H4",
    "result": [
      {
        "electoralDistricts": [
          {
            "election": null,
            "id": 99,
            "name": "Simcoe—Grey"
          }
        ],
        "pollDivisionIds": [
          10141837
        ],
        "postalCode": "L9Z2H4",
        "streetName": "DUNKERRON",
        "streetDirectionId": null,
        "streetTypeId": "AVE",
        "placeName": "WASAGA BEACH",
        "streetNameDisplayText": "DUNKERRON AVE, WASAGA BEACH"
      },
      {
        "electoralDistricts": [
          {
            "election": null,
            "id": 99,
            "name": "Simcoe—Grey"
          }
        ],
        "pollDivisionIds": [
          10141837
        ],
        "postalCode": "L9Z2H4",
        "streetName": "MOSLEY",
        "streetDirectionId": null,
        "streetTypeId": "ST",
        "placeName": "WASAGA BEACH",
        "streetNameDisplayText": "MOSLEY ST, WASAGA BEACH"
      }
    ]
  },
  {
    "postal": "L9Z5C8",
    "result": []
  },
  {
    "postal": "L9Z8B0",
    "result": []
  },
  {
    "postal": "L9Z1T4",
    "result": [
      {
        "electoralDistricts": [
          {
            "election": null,
            "id": 99,
            "name": "Simcoe—Grey"
          }
        ],
        "pollDivisionIds": [
          10141833
        ],
        "postalCode": "L9Z1T4",
        "streetName": "CEDAR GROVE",
        "streetDirectionId": null,
        "streetTypeId": "PKY",
        "placeName": "WASAGA BEACH",
        "streetNameDisplayText": "CEDAR GROVE PKY, WASAGA BEACH"
      }
    ]
  },
  {
    "postal": "L9Z7N7",
    "result": []
  },
  {
    "postal": "L9Z4L3",
    "result": []
  },
  {
    "postal": "L9Z2N2",
    "result": [
      {
        "electoralDistricts": [
          {
            "election": null,
            "id": 99,
            "name": "Simcoe—Grey"
          }
        ],
        "pollDivisionIds": [
          10141836
        ],
        "postalCode": "L9Z2N2",
        "streetName": "FAWNDALE",
        "streetDirectionId": null,
        "streetTypeId": "CRES",
        "placeName": "WASAGA BEACH",
        "streetNameDisplayText": "FAWNDALE CRES, WASAGA BEACH"
      },
      {
        "electoralDistricts": [
          {
            "election": null,
            "id": 99,
            "name": "Simcoe—Grey"
          }
        ],
        "pollDivisionIds": [
          10141836
        ],
        "postalCode": "L9Z2N2",
        "streetName": "REGINA",
        "streetDirectionId": null,
        "streetTypeId": "BLVD",
        "placeName": "WASAGA BEACH",
        "streetNameDisplayText": "REGINA BLVD, WASAGA BEACH"
      },
      {
        "electoralDistricts": [
          {
            "election": null,
            "id": 99,
            "name": "Simcoe—Grey"
          }
        ],
        "pollDivisionIds": [
          10141836
        ],
        "postalCode": "L9Z2N2",
        "streetName": "ROYAL BEECH",
        "streetDirectionId": null,
        "streetTypeId": "DR",
        "placeName": "WASAGA BEACH",
        "streetNameDisplayText": "ROYAL BEECH DR, WASAGA BEACH"
      }
    ]
  },
  {
    "postal": "L9Z4N8",
    "result": []
  },
  {
    "postal": "L9Z3M5",
    "result": []
  },
  {
    "postal": "L9Z6H7",
    "result": []
  },
  {
    "postal": "L9Z8Y8",
    "result": []
  },
  {
    "postal": "L9Z5R9",
    "result": []
  },
  {
    "postal": "L9Z8G3",
    "result": []
  },
  {
    "postal": "L9Z4N7",
    "result": []
  },
  {
    "postal": "L9Z0B9",
    "result": [
      {
        "electoralDistricts": [
          {
            "election": null,
            "id": 99,
            "name": "Simcoe—Grey"
          }
        ],
        "pollDivisionIds": [
          10141838
        ],
        "postalCode": "L9Z0B9",
        "streetName": "CHRISTY",
        "streetDirectionId": null,
        "streetTypeId": "DR",
        "placeName": "WASAGA BEACH",
        "streetNameDisplayText": "CHRISTY DR, WASAGA BEACH"
      },
      {
        "electoralDistricts": [
          {
            "election": null,
            "id": 99,
            "name": "Simcoe—Grey"
          }
        ],
        "pollDivisionIds": [
          10141838
        ],
        "postalCode": "L9Z0B9",
        "streetName": "GOLF COURSE",
        "streetDirectionId": null,
        "streetTypeId": "RD",
        "placeName": "WASAGA BEACH",
        "streetNameDisplayText": "GOLF COURSE RD, WASAGA BEACH"
      },
      {
        "electoralDistricts": [
          {
            "election": null,
            "id": 99,
            "name": "Simcoe—Grey"
          }
        ],
        "pollDivisionIds": [
          10141838
        ],
        "postalCode": "L9Z0B9",
        "streetName": "WESLEY",
        "streetDirectionId": null,
        "streetTypeId": "AVE",
        "placeName": "WASAGA BEACH",
        "streetNameDisplayText": "WESLEY AVE, WASAGA BEACH"
      }
    ]
  },
  {
    "postal": "L9Z9K7",
    "result": []
  },
  {
    "postal": "L9Z9K9",
    "result": []
  },
  {
    "postal": "L9Z3Z2",
    "result": []
  },
  {
    "postal": "L9Z6W7",
    "result": []
  },
  {
    "postal": "L9Z0P1",
    "result": []
  },
  {
    "postal": "L9Z3A0",
    "result": []
  },
  {
    "postal": "L9Z8L9",
    "result": []
  },
  {
    "postal": "L9Z6X0",
    "result": []
  },
  {
    "postal": "L9Z3E9",
    "result": []
  },
  {
    "postal": "L9Z0S5",
    "result": []
  },
  {
    "postal": "L9Z1A2",
    "result": [
      {
        "electoralDistricts": [
          {
            "election": null,
            "id": 99,
            "name": "Simcoe—Grey"
          }
        ],
        "pollDivisionIds": [
          10141837
        ],
        "postalCode": "L9Z1A2",
        "streetName": "MAIN",
        "streetDirectionId": null,
        "streetTypeId": "ST",
        "placeName": "WASAGA BEACH",
        "streetNameDisplayText": "MAIN ST, WASAGA BEACH"
      },
      {
        "electoralDistricts": [
          {
            "election": null,
            "id": 99,
            "name": "Simcoe—Grey"
          }
        ],
        "pollDivisionIds": [
          10141837
        ],
        "postalCode": "L9Z1A2",
        "streetName": "MOSLEY",
        "streetDirectionId": null,
        "streetTypeId": "ST",
        "placeName": "WASAGA BEACH",
        "streetNameDisplayText": "MOSLEY ST, WASAGA BEACH"
      },
      {
        "electoralDistricts": [
          {
            "election": null,
            "id": 99,
            "name": "Simcoe—Grey"
          }
        ],
        "pollDivisionIds": [
          10141837
        ],
        "postalCode": "L9Z1A2",
        "streetName": "TEMAGAMI",
        "streetDirectionId": null,
        "streetTypeId": "TRAIL",
        "placeName": "WASAGA BEACH",
        "streetNameDisplayText": "TEMAGAMI TRAIL, WASAGA BEACH"
      }
    ]
  },
  {
    "postal": "L9Z5V8",
    "result": []
  },
  {
    "postal": "L9Z8C5",
    "result": []
  },
  {
    "postal": "L9Z6N0",
    "result": []
  },
  {
    "postal": "L9Z9E6",
    "result": []
  },
  {
    "postal": "L9Z5J7",
    "result": []
  },
  {
    "postal": "L9Z2R2",
    "result": [
      {
        "electoralDistricts": [
          {
            "election": null,
            "id": 99,
            "name": "Simcoe—Grey"
          }
        ],
        "pollDivisionIds": [
          10141837
        ],
        "postalCode": "L9Z2R2",
        "streetName": "EASTDALE",
        "streetDirectionId": null,
        "streetTypeId": "DR",
        "placeName": "WASAGA BEACH",
        "streetNameDisplayText": "EASTDALE DR, WASAGA BEACH"
      },
      {
        "electoralDistricts": [
          {
            "election": null,
            "id": 99,
            "name": "Simcoe—Grey"
          }
        ],
        "pollDivisionIds": [
          10141837
        ],
        "postalCode": "L9Z2R2",
        "streetName": "RIVER",
        "streetDirectionId": "E",
        "streetTypeId": "RD",
        "placeName": "WASAGA BEACH",
        "streetNameDisplayText": "RIVER RD E, WASAGA BEACH"
      }
    ]
  },
  {
    "postal": "L9Z0P5",
    "result": []
  },
  {
    "postal": "L9Z5A7",
    "result": []
  },
  {
    "postal": "L9Z1G1",
    "result": [
      {
        "electoralDistricts": [
          {
            "election": null,
            "id": 99,
            "name": "Simcoe—Grey"
          }
        ],
        "pollDivisionIds": [
          10141836
        ],
        "postalCode": "L9Z1G1",
        "streetName": "RIVERDALE",
        "streetDirectionId": null,
        "streetTypeId": "DR",
        "placeName": "WASAGA BEACH",
        "streetNameDisplayText": "RIVERDALE DR, WASAGA BEACH"
      }
    ]
  },
  {
    "postal": "L9Z9R6",
    "result": []
  },
  {
    "postal": "L9Z4Z9",
    "result": []
  },
  {
    "postal": "L9Z1V5",
    "result": [
      {
        "electoralDistricts": [
          {
            "election": null,
            "id": 99,
            "name": "Simcoe—Grey"
          }
        ],
        "pollDivisionIds": [
          10141834
        ],
        "postalCode": "L9Z1V5",
        "streetName": "62ND",
        "streetDirectionId": "N",
        "streetTypeId": "ST",
        "placeName": "WASAGA BEACH",
        "streetNameDisplayText": "62ND ST N, WASAGA BEACH"
      },
      {
        "electoralDistricts": [
          {
            "election": null,
            "id": 99,
            "name": "Simcoe—Grey"
          }
        ],
        "pollDivisionIds": [
          10141834
        ],
        "postalCode": "L9Z1V5",
        "streetName": "62ND",
        "streetDirectionId": "S",
        "streetTypeId": "ST",
        "placeName": "WASAGA BEACH",
        "streetNameDisplayText": "62ND ST S, WASAGA BEACH"
      },
      {
        "electoralDistricts": [
          {
            "election": null,
            "id": 99,
            "name": "Simcoe—Grey"
          }
        ],
        "pollDivisionIds": [
          10141834
        ],
        "postalCode": "L9Z1V5",
        "streetName": "63RD",
        "streetDirectionId": "N",
        "streetTypeId": "ST",
        "placeName": "WASAGA BEACH",
        "streetNameDisplayText": "63RD ST N, WASAGA BEACH"
      }
    ]
  },
  {
    "postal": "L9Z9Y5",
    "result": []
  },
  {
    "postal": "L9Z1P2",
    "result": [
      {
        "electoralDistricts": [
          {
            "election": null,
            "id": 99,
            "name": "Simcoe—Grey"
          }
        ],
        "pollDivisionIds": [
          10141834
        ],
        "postalCode": "L9Z1P2",
        "streetName": "BRIARWOOD",
        "streetDirectionId": null,
        "streetTypeId": "PL",
        "placeName": "WASAGA BEACH",
        "streetNameDisplayText": "BRIARWOOD PL, WASAGA BEACH"
      },
      {
        "electoralDistricts": [
          {
            "election": null,
            "id": 99,
            "name": "Simcoe—Grey"
          }
        ],
        "pollDivisionIds": [
          10141834
        ],
        "postalCode": "L9Z1P2",
        "streetName": "DENNIS",
        "streetDirectionId": null,
        "streetTypeId": "DR",
        "placeName": "WASAGA BEACH",
        "streetNameDisplayText": "DENNIS DR, WASAGA BEACH"
      }
    ]
  },
  {
    "postal": "L9Z5X0",
    "result": []
  },
  {
    "postal": "L9Z7B8",
    "result": []
  },
  {
    "postal": "L9Z0C6",
    "result": [
      {
        "electoralDistricts": [
          {
            "election": null,
            "id": 99,
            "name": "Simcoe—Grey"
          }
        ],
        "pollDivisionIds": [
          10141838
        ],
        "postalCode": "L9Z0C6",
        "streetName": "CULHAM",
        "streetDirectionId": null,
        "streetTypeId": "TRAIL",
        "placeName": "WASAGA BEACH",
        "streetNameDisplayText": "CULHAM TRAIL, WASAGA BEACH"
      },
      {
        "electoralDistricts": [
          {
            "election": null,
            "id": 99,
            "name": "Simcoe—Grey"
          }
        ],
        "pollDivisionIds": [
          10141838
        ],
        "postalCode": "L9Z0C6",
        "streetName": "WHITE SANDS",
        "streetDirectionId": null,
        "streetTypeId": "WAY",
        "placeName": "WASAGA BEACH",
        "streetNameDisplayText": "WHITE SANDS WAY, WASAGA BEACH"
      }
    ]
  },
  {
    "postal": "L9Z6G1",
    "result": []
  },
  {
    "postal": "L9Z3K3",
    "result": []
  },
  {
    "postal": "L9Z9R0",
    "result": []
  },
  {
    "postal": "L9Z4R8",
    "result": []
  },
  {
    "postal": "L9Z5P9",
    "result": []
  },
  {
    "postal": "L9Z8N4",
    "result": []
  },
  {
    "postal": "L9Z8H4",
    "result": []
  },
  {
    "postal": "L9Z4V1",
    "result": []
  },
  {
    "postal": "L9Z1K5",
    "result": [
      {
        "electoralDistricts": [
          {
            "election": null,
            "id": 99,
            "name": "Simcoe—Grey"
          }
        ],
        "pollDivisionIds": [
          10141838
        ],
        "postalCode": "L9Z1K5",
        "streetName": "ALLEN",
        "streetDirectionId": "N",
        "streetTypeId": "DR",
        "placeName": "WASAGA BEACH",
        "streetNameDisplayText": "ALLEN DR N, WASAGA BEACH"
      },
      {
        "electoralDistricts": [
          {
            "election": null,
            "id": 99,
            "name": "Simcoe—Grey"
          }
        ],
        "pollDivisionIds": [
          10141838
        ],
        "postalCode": "L9Z1K5",
        "streetName": "ALLEN",
        "streetDirectionId": "S",
        "streetTypeId": "DR",
        "placeName": "WASAGA BEACH",
        "streetNameDisplayText": "ALLEN DR S, WASAGA BEACH"
      },
      {
        "electoralDistricts": [
          {
            "election": null,
            "id": 99,
            "name": "Simcoe—Grey"
          }
        ],
        "pollDivisionIds": [
          10141838
        ],
        "postalCode": "L9Z1K5",
        "streetName": "SHAW",
        "streetDirectionId": null,
        "streetTypeId": "ST",
        "placeName": "WASAGA BEACH",
        "streetNameDisplayText": "SHAW ST, WASAGA BEACH"
      }
    ]
  },
  {
    "postal": "L9Z1Z5",
    "result": [
      {
        "electoralDistricts": [
          {
            "election": null,
            "id": 99,
            "name": "Simcoe—Grey"
          }
        ],
        "pollDivisionIds": [
          10141837
        ],
        "postalCode": "L9Z1Z5",
        "streetName": "MOSLEY",
        "streetDirectionId": null,
        "streetTypeId": "ST",
        "placeName": "WASAGA BEACH",
        "streetNameDisplayText": "MOSLEY ST, WASAGA BEACH"
      },
      {
        "electoralDistricts": [
          {
            "election": null,
            "id": 99,
            "name": "Simcoe—Grey"
          }
        ],
        "pollDivisionIds": [
          10141837
        ],
        "postalCode": "L9Z1Z5",
        "streetName": "SHORE",
        "streetDirectionId": null,
        "streetTypeId": "LANE",
        "placeName": "WASAGA BEACH",
        "streetNameDisplayText": "SHORE LANE, WASAGA BEACH"
      }
    ]
  },
  {
    "postal": "L9Z9L9",
    "result": []
  },
  {
    "postal": "L9Z5L2",
    "result": []
  },
  {
    "postal": "L9Z0M2",
    "result": []
  },
  {
    "postal": "L9Z1K8",
    "result": [
      {
        "electoralDistricts": [
          {
            "election": null,
            "id": 99,
            "name": "Simcoe—Grey"
          }
        ],
        "pollDivisionIds": [
          10141837
        ],
        "postalCode": "L9Z1K8",
        "streetName": "GEORGIAN GLEN",
        "streetDirectionId": null,
        "streetTypeId": "DR",
        "placeName": "WASAGA BEACH",
        "streetNameDisplayText": "GEORGIAN GLEN DR, WASAGA BEACH"
      },
      {
        "electoralDistricts": [
          {
            "election": null,
            "id": 99,
            "name": "Simcoe—Grey"
          }
        ],
        "pollDivisionIds": [
          10141837
        ],
        "postalCode": "L9Z1K8",
        "streetName": "WALLY",
        "streetDirectionId": null,
        "streetTypeId": "DR",
        "placeName": "WASAGA BEACH",
        "streetNameDisplayText": "WALLY DR, WASAGA BEACH"
      }
    ]
  },
  {
    "postal": "L9Z3M7",
    "result": []
  },
  {
    "postal": "L9Z1B2",
    "result": [
      {
        "electoralDistricts": [
          {
            "election": null,
            "id": 99,
            "name": "Simcoe—Grey"
          }
        ],
        "pollDivisionIds": [
          10141837
        ],
        "postalCode": "L9Z1B2",
        "streetName": "BIRCHWOOD",
        "streetDirectionId": null,
        "streetTypeId": "TRAIL",
        "placeName": "WASAGA BEACH",
        "streetNameDisplayText": "BIRCHWOOD TRAIL, WASAGA BEACH"
      },
      {
        "electoralDistricts": [
          {
            "election": null,
            "id": 99,
            "name": "Simcoe—Grey"
          }
        ],
        "pollDivisionIds": [
          10141837
        ],
        "postalCode": "L9Z1B2",
        "streetName": "JALNA",
        "streetDirectionId": null,
        "streetTypeId": "CRT",
        "placeName": "WASAGA BEACH",
        "streetNameDisplayText": "JALNA CRT, WASAGA BEACH"
      }
    ]
  },
  {
    "postal": "L9Z0H9",
    "result": [
      {
        "electoralDistricts": [
          {
            "election": null,
            "id": 99,
            "name": "Simcoe—Grey"
          }
        ],
        "pollDivisionIds": [
          10141837
        ],
        "postalCode": "L9Z0H9",
        "streetName": "ZOO PARK",
        "streetDirectionId": null,
        "streetTypeId": "RD",
        "placeName": "WASAGA BEACH",
        "streetNameDisplayText": "ZOO PARK RD, WASAGA BEACH"
      }
    ]
  },
  {
    "postal": "L9Z8M4",
    "result": []
  },
  {
    "postal": "L9Z2M5",
    "result": [
      {
        "electoralDistricts": [
          {
            "election": null,
            "id": 99,
            "name": "Simcoe—Grey"
          }
        ],
        "pollDivisionIds": [
          10141836
        ],
        "postalCode": "L9Z2M5",
        "streetName": "SUNNIDALE",
        "streetDirectionId": "S",
        "streetTypeId": "RD",
        "placeName": "WASAGA BEACH",
        "streetNameDisplayText": "SUNNIDALE RD S, WASAGA BEACH"
      },
      {
        "electoralDistricts": [
          {
            "election": null,
            "id": 99,
            "name": "Simcoe—Grey"
          }
        ],
        "pollDivisionIds": [
          10141836
        ],
        "postalCode": "L9Z2M5",
        "streetName": "SUNNISIDE RIVER",
        "streetDirectionId": null,
        "streetTypeId": "RD",
        "placeName": "WASAGA BEACH",
        "streetNameDisplayText": "SUNNISIDE RIVER RD, WASAGA BEACH"
      },
      {
        "electoralDistricts": [
          {
            "election": null,
            "id": 99,
            "name": "Simcoe—Grey"
          }
        ],
        "pollDivisionIds": [
          10141836
        ],
        "postalCode": "L9Z2M5",
        "streetName": "SUNNYSIDE",
        "streetDirectionId": null,
        "streetTypeId": "LANE",
        "placeName": "WASAGA BEACH",
        "streetNameDisplayText": "SUNNYSIDE LANE, WASAGA BEACH"
      }
    ]
  },
  {
    "postal": "L9Z0T9",
    "result": []
  },
  {
    "postal": "L9Z3P1",
    "result": []
  },
  {
    "postal": "L9Z1R6",
    "result": [
      {
        "electoralDistricts": [
          {
            "election": null,
            "id": 99,
            "name": "Simcoe—Grey"
          }
        ],
        "pollDivisionIds": [
          10141834
        ],
        "postalCode": "L9Z1R6",
        "streetName": "WILDWOOD",
        "streetDirectionId": null,
        "streetTypeId": "DR",
        "placeName": "WASAGA BEACH",
        "streetNameDisplayText": "WILDWOOD DR, WASAGA BEACH"
      }
    ]
  },
  {
    "postal": "L9Z9V5",
    "result": []
  },
  {
    "postal": "L9Z9T0",
    "result": []
  },
  {
    "postal": "L9Z0A9",
    "result": [
      {
        "electoralDistricts": [
          {
            "election": null,
            "id": 99,
            "name": "Simcoe—Grey"
          }
        ],
        "pollDivisionIds": [
          10141839
        ],
        "postalCode": "L9Z0A9",
        "streetName": "BASSWOOD",
        "streetDirectionId": null,
        "streetTypeId": "DR",
        "placeName": "WASAGA BEACH",
        "streetNameDisplayText": "BASSWOOD DR, WASAGA BEACH"
      },
      {
        "electoralDistricts": [
          {
            "election": null,
            "id": 99,
            "name": "Simcoe—Grey"
          }
        ],
        "pollDivisionIds": [
          10141839
        ],
        "postalCode": "L9Z0A9",
        "streetName": "WALNUT",
        "streetDirectionId": null,
        "streetTypeId": "DR",
        "placeName": "WASAGA BEACH",
        "streetNameDisplayText": "WALNUT DR, WASAGA BEACH"
      },
      {
        "electoralDistricts": [
          {
            "election": null,
            "id": 99,
            "name": "Simcoe—Grey"
          }
        ],
        "pollDivisionIds": [
          10141839
        ],
        "postalCode": "L9Z0A9",
        "streetName": "WALNUT",
        "streetDirectionId": null,
        "streetTypeId": "ST",
        "placeName": "WASAGA BEACH",
        "streetNameDisplayText": "WALNUT ST, WASAGA BEACH"
      }
    ]
  },
  {
    "postal": "L9Z1M3",
    "result": [
      {
        "electoralDistricts": [
          {
            "election": null,
            "id": 99,
            "name": "Simcoe—Grey"
          }
        ],
        "pollDivisionIds": [
          10141836
        ],
        "postalCode": "L9Z1M3",
        "streetName": "BUSH",
        "streetDirectionId": null,
        "streetTypeId": "CRES",
        "placeName": "WASAGA BEACH",
        "streetNameDisplayText": "BUSH CRES, WASAGA BEACH"
      }
    ]
  },
  {
    "postal": "L9Z1W8",
    "result": [
      {
        "electoralDistricts": [
          {
            "election": null,
            "id": 99,
            "name": "Simcoe—Grey"
          }
        ],
        "pollDivisionIds": [
          10141834
        ],
        "postalCode": "L9Z1W8",
        "streetName": "52ND",
        "streetDirectionId": "S",
        "streetTypeId": "ST",
        "placeName": "WASAGA BEACH",
        "streetNameDisplayText": "52ND ST S, WASAGA BEACH"
      },
      {
        "electoralDistricts": [
          {
            "election": null,
            "id": 99,
            "name": "Simcoe—Grey"
          }
        ],
        "pollDivisionIds": [
          10141834
        ],
        "postalCode": "L9Z1W8",
        "streetName": "53RD",
        "streetDirectionId": "S",
        "streetTypeId": "ST",
        "placeName": "WASAGA BEACH",
        "streetNameDisplayText": "53RD ST S, WASAGA BEACH"
      }
    ]
  },
  {
    "postal": "L9Z9J1",
    "result": []
  },
  {
    "postal": "L9Z8N5",
    "result": []
  },
  {
    "postal": "L9Z5X1",
    "result": []
  },
  {
    "postal": "L9Z6S2",
    "result": []
  },
  {
    "postal": "L9Z2A2",
    "result": [
      {
        "electoralDistricts": [
          {
            "election": null,
            "id": 99,
            "name": "Simcoe—Grey"
          }
        ],
        "pollDivisionIds": [
          10141834
        ],
        "postalCode": "L9Z2A2",
        "streetName": "39TH",
        "streetDirectionId": "N",
        "streetTypeId": "ST",
        "placeName": "WASAGA BEACH",
        "streetNameDisplayText": "39TH ST N, WASAGA BEACH"
      },
      {
        "electoralDistricts": [
          {
            "election": null,
            "id": 99,
            "name": "Simcoe—Grey"
          }
        ],
        "pollDivisionIds": [
          10141834
        ],
        "postalCode": "L9Z2A2",
        "streetName": "LINDA",
        "streetDirectionId": null,
        "streetTypeId": "LANE",
        "placeName": "WASAGA BEACH",
        "streetNameDisplayText": "LINDA LANE, WASAGA BEACH"
      },
      {
        "electoralDistricts": [
          {
            "election": null,
            "id": 99,
            "name": "Simcoe—Grey"
          }
        ],
        "pollDivisionIds": [
          10141834
        ],
        "postalCode": "L9Z2A2",
        "streetName": "MOSLEY",
        "streetDirectionId": null,
        "streetTypeId": "ST",
        "placeName": "WASAGA BEACH",
        "streetNameDisplayText": "MOSLEY ST, WASAGA BEACH"
      }
    ]
  },
  {
    "postal": "L9Z6A6",
    "result": []
  },
  {
    "postal": "L9Z0S3",
    "result": []
  },
  {
    "postal": "L9Z3E7",
    "result": []
  },
  {
    "postal": "L9Z5R7",
    "result": []
  },
  {
    "postal": "L9Z3R6",
    "result": []
  },
  {
    "postal": "L9Z6K4",
    "result": []
  },
  {
    "postal": "L9Z2W5",
    "result": [
      {
        "electoralDistricts": [
          {
            "election": null,
            "id": 99,
            "name": "Simcoe—Grey"
          }
        ],
        "pollDivisionIds": [
          10141836,
          10141837
        ],
        "postalCode": "L9Z2W5",
        "streetName": "RIVER",
        "streetDirectionId": "W",
        "streetTypeId": "RD",
        "placeName": "WASAGA BEACH",
        "streetNameDisplayText": "RIVER RD W, WASAGA BEACH"
      }
    ]
  },
  {
    "postal": "L9Z8W4",
    "result": []
  },
  {
    "postal": "L9Z9C2",
    "result": []
  },
  {
    "postal": "L9Z2C0",
    "result": []
  },
  {
    "postal": "L9Z0E1",
    "result": [
      {
        "electoralDistricts": [
          {
            "election": null,
            "id": 99,
            "name": "Simcoe—Grey"
          }
        ],
        "pollDivisionIds": [
          10141838
        ],
        "postalCode": "L9Z0E1",
        "streetName": "WHITE SANDS",
        "streetDirectionId": null,
        "streetTypeId": "WAY",
        "placeName": "WASAGA BEACH",
        "streetNameDisplayText": "WHITE SANDS WAY, WASAGA BEACH"
      }
    ]
  },
  {
    "postal": "L9Z1K9",
    "result": [
      {
        "electoralDistricts": [
          {
            "election": null,
            "id": 99,
            "name": "Simcoe—Grey"
          }
        ],
        "pollDivisionIds": [
          10141836
        ],
        "postalCode": "L9Z1K9",
        "streetName": "AZORES",
        "streetDirectionId": null,
        "streetTypeId": "PL",
        "placeName": "WASAGA BEACH",
        "streetNameDisplayText": "AZORES PL, WASAGA BEACH"
      },
      {
        "electoralDistricts": [
          {
            "election": null,
            "id": 99,
            "name": "Simcoe—Grey"
          }
        ],
        "pollDivisionIds": [
          10141836
        ],
        "postalCode": "L9Z1K9",
        "streetName": "CALDAS",
        "streetDirectionId": null,
        "streetTypeId": "CRT",
        "placeName": "WASAGA BEACH",
        "streetNameDisplayText": "CALDAS CRT, WASAGA BEACH"
      },
      {
        "electoralDistricts": [
          {
            "election": null,
            "id": 99,
            "name": "Simcoe—Grey"
          }
        ],
        "pollDivisionIds": [
          10141836
        ],
        "postalCode": "L9Z1K9",
        "streetName": "FATIMA COURT",
        "streetDirectionId": null,
        "streetTypeId": "CRT",
        "placeName": "WASAGA BEACH",
        "streetNameDisplayText": "FATIMA COURT CRT, WASAGA BEACH"
      },
      {
        "electoralDistricts": [
          {
            "election": null,
            "id": 99,
            "name": "Simcoe—Grey"
          }
        ],
        "pollDivisionIds": [
          10141836
        ],
        "postalCode": "L9Z1K9",
        "streetName": "FATIMA",
        "streetDirectionId": null,
        "streetTypeId": "CRT",
        "placeName": "WASAGA BEACH",
        "streetNameDisplayText": "FATIMA CRT, WASAGA BEACH"
      },
      {
        "electoralDistricts": [
          {
            "election": null,
            "id": 99,
            "name": "Simcoe—Grey"
          }
        ],
        "pollDivisionIds": [
          10141836
        ],
        "postalCode": "L9Z1K9",
        "streetName": "RIVER",
        "streetDirectionId": "W",
        "streetTypeId": "RD",
        "placeName": "WASAGA BEACH",
        "streetNameDisplayText": "RIVER RD W, WASAGA BEACH"
      }
    ]
  },
  {
    "postal": "L9Z1G7",
    "result": [
      {
        "electoralDistricts": [
          {
            "election": null,
            "id": 99,
            "name": "Simcoe—Grey"
          }
        ],
        "pollDivisionIds": [
          10141836
        ],
        "postalCode": "L9Z1G7",
        "streetName": "TIMBERLAND",
        "streetDirectionId": null,
        "streetTypeId": "CRES",
        "placeName": "WASAGA BEACH",
        "streetNameDisplayText": "TIMBERLAND CRES, WASAGA BEACH"
      }
    ]
  },
  {
    "postal": "L9Z4E9",
    "result": []
  },
  {
    "postal": "L9Z9P0",
    "result": []
  },
  {
    "postal": "L9Z5H3",
    "result": []
  },
  {
    "postal": "L9Z9X6",
    "result": []
  },
  {
    "postal": "L9Z5N7",
    "result": []
  },
  {
    "postal": "L9Z5A6",
    "result": []
  },
  {
    "postal": "L9Z4M0",
    "result": []
  },
  {
    "postal": "L9Z3V6",
    "result": []
  },
  {
    "postal": "L9Z1L7",
    "result": [
      {
        "electoralDistricts": [
          {
            "election": null,
            "id": 99,
            "name": "Simcoe—Grey"
          }
        ],
        "pollDivisionIds": [
          10141836
        ],
        "postalCode": "L9Z1L7",
        "streetName": "ACORN",
        "streetDirectionId": null,
        "streetTypeId": "CRES",
        "placeName": "WASAGA BEACH",
        "streetNameDisplayText": "ACORN CRES, WASAGA BEACH"
      }
    ]
  },
  {
    "postal": "L9Z2P9",
    "result": [
      {
        "electoralDistricts": [
          {
            "election": null,
            "id": 99,
            "name": "Simcoe—Grey"
          }
        ],
        "pollDivisionIds": [
          10141837
        ],
        "postalCode": "L9Z2P9",
        "streetName": "ALLENWOOD",
        "streetDirectionId": null,
        "streetTypeId": "DR",
        "placeName": "WASAGA BEACH",
        "streetNameDisplayText": "ALLENWOOD DR, WASAGA BEACH"
      },
      {
        "electoralDistricts": [
          {
            "election": null,
            "id": 99,
            "name": "Simcoe—Grey"
          }
        ],
        "pollDivisionIds": [
          10141837
        ],
        "postalCode": "L9Z2P9",
        "streetName": "BELVA",
        "streetDirectionId": null,
        "streetTypeId": "AVE",
        "placeName": "WASAGA BEACH",
        "streetNameDisplayText": "BELVA AVE, WASAGA BEACH"
      }
    ]
  },
  {
    "postal": "L9Z5T4",
    "result": []
  },
  {
    "postal": "L9Z5Z1",
    "result": []
  },
  {
    "postal": "L9Z2X0",
    "result": []
  },
  {
    "postal": "L9Z6Z2",
    "result": []
  },
  {
    "postal": "L9Z0E0",
    "result": []
  },
  {
    "postal": "L9Z3Z5",
    "result": []
  },
  {
    "postal": "L9Z8H3",
    "result": []
  },
  {
    "postal": "L9Z7S6",
    "result": []
  },
  {
    "postal": "L9Z4C1",
    "result": []
  },
  {
    "postal": "L9Z3K2",
    "result": []
  },
  {
    "postal": "L9Z1Y5",
    "result": [
      {
        "electoralDistricts": [
          {
            "election": null,
            "id": 99,
            "name": "Simcoe—Grey"
          }
        ],
        "pollDivisionIds": [
          10141834
        ],
        "postalCode": "L9Z1Y5",
        "streetName": "47TH",
        "streetDirectionId": "N",
        "streetTypeId": "ST",
        "placeName": "WASAGA BEACH",
        "streetNameDisplayText": "47TH ST N, WASAGA BEACH"
      },
      {
        "electoralDistricts": [
          {
            "election": null,
            "id": 99,
            "name": "Simcoe—Grey"
          }
        ],
        "pollDivisionIds": [
          10141834
        ],
        "postalCode": "L9Z1Y5",
        "streetName": "47TH",
        "streetDirectionId": "S",
        "streetTypeId": "ST",
        "placeName": "WASAGA BEACH",
        "streetNameDisplayText": "47TH ST S, WASAGA BEACH"
      }
    ]
  },
  {
    "postal": "L9Z6P6",
    "result": []
  },
  {
    "postal": "L9Z3N9",
    "result": []
  },
  {
    "postal": "L9Z3W2",
    "result": []
  },
  {
    "postal": "L9Z6H8",
    "result": []
  },
  {
    "postal": "L9Z9T3",
    "result": []
  },
  {
    "postal": "L9Z5L9",
    "result": []
  },
  {
    "postal": "L9Z7X7",
    "result": []
  },
  {
    "postal": "L9Z3J5",
    "result": []
  },
  {
    "postal": "L9Z4J5",
    "result": []
  },
  {
    "postal": "L9Z6J2",
    "result": []
  },
  {
    "postal": "L9Z5V6",
    "result": []
  },
  {
    "postal": "L9Z3N2",
    "result": []
  },
  {
    "postal": "L9Z3B1",
    "result": [
      {
        "electoralDistricts": [
          {
            "election": null,
            "id": 99,
            "name": "Simcoe—Grey"
          }
        ],
        "pollDivisionIds": [
          10141835
        ],
        "postalCode": "L9Z3B1",
        "streetName": "NORTHWOOD",
        "streetDirectionId": null,
        "streetTypeId": "DR",
        "placeName": "WASAGA BEACH",
        "streetNameDisplayText": "NORTHWOOD DR, WASAGA BEACH"
      },
      {
        "electoralDistricts": [
          {
            "election": null,
            "id": 99,
            "name": "Simcoe—Grey"
          }
        ],
        "pollDivisionIds": [
          10141835
        ],
        "postalCode": "L9Z3B1",
        "streetName": "OLD HICKORY",
        "streetDirectionId": null,
        "streetTypeId": "LANE",
        "placeName": "WASAGA BEACH",
        "streetNameDisplayText": "OLD HICKORY LANE, WASAGA BEACH"
      },
      {
        "electoralDistricts": [
          {
            "election": null,
            "id": 99,
            "name": "Simcoe—Grey"
          }
        ],
        "pollDivisionIds": [
          10141835
        ],
        "postalCode": "L9Z3B1",
        "streetName": "WINTERGREEN",
        "streetDirectionId": null,
        "streetTypeId": "WAY",
        "placeName": "WASAGA BEACH",
        "streetNameDisplayText": "WINTERGREEN WAY, WASAGA BEACH"
      }
    ]
  },
  {
    "postal": "L9Z8B5",
    "result": []
  },
  {
    "postal": "L9Z0K1",
    "result": []
  },
  {
    "postal": "L9Z7M7",
    "result": []
  },
  {
    "postal": "L9Z2M2",
    "result": [
      {
        "electoralDistricts": [
          {
            "election": null,
            "id": 99,
            "name": "Simcoe—Grey"
          }
        ],
        "pollDivisionIds": [
          10141837
        ],
        "postalCode": "L9Z2M2",
        "streetName": "ALBERT",
        "streetDirectionId": null,
        "streetTypeId": "ST",
        "placeName": "WASAGA BEACH",
        "streetNameDisplayText": "ALBERT ST, WASAGA BEACH"
      },
      {
        "electoralDistricts": [
          {
            "election": null,
            "id": 99,
            "name": "Simcoe—Grey"
          }
        ],
        "pollDivisionIds": [
          10141837
        ],
        "postalCode": "L9Z2M2",
        "streetName": "HOMEWOOD",
        "streetDirectionId": null,
        "streetTypeId": "AVE",
        "placeName": "WASAGA BEACH",
        "streetNameDisplayText": "HOMEWOOD AVE, WASAGA BEACH"
      },
      {
        "electoralDistricts": [
          {
            "election": null,
            "id": 99,
            "name": "Simcoe—Grey"
          }
        ],
        "pollDivisionIds": [
          10141837
        ],
        "postalCode": "L9Z2M2",
        "streetName": "JOHN",
        "streetDirectionId": null,
        "streetTypeId": "ST",
        "placeName": "WASAGA BEACH",
        "streetNameDisplayText": "JOHN ST, WASAGA BEACH"
      },
      {
        "electoralDistricts": [
          {
            "election": null,
            "id": 99,
            "name": "Simcoe—Grey"
          }
        ],
        "pollDivisionIds": [
          10141837
        ],
        "postalCode": "L9Z2M2",
        "streetName": "RIVER",
        "streetDirectionId": "E",
        "streetTypeId": "RD",
        "placeName": "WASAGA BEACH",
        "streetNameDisplayText": "RIVER RD E, WASAGA BEACH"
      }
    ]
  },
  {
    "postal": "L9Z9N3",
    "result": []
  },
  {
    "postal": "L9Z4Y8",
    "result": []
  },
  {
    "postal": "L9Z3V7",
    "result": []
  },
  {
    "postal": "L9Z8Z1",
    "result": []
  },
  {
    "postal": "L9Z7B3",
    "result": []
  },
  {
    "postal": "L9Z3A8",
    "result": [
      {
        "electoralDistricts": [
          {
            "election": null,
            "id": 99,
            "name": "Simcoe—Grey"
          }
        ],
        "pollDivisionIds": [
          10141838
        ],
        "postalCode": "L9Z3A8",
        "streetName": "ATLANTIC",
        "streetDirectionId": null,
        "streetTypeId": "AVE",
        "placeName": "WASAGA BEACH",
        "streetNameDisplayText": "ATLANTIC AVE, WASAGA BEACH"
      },
      {
        "electoralDistricts": [
          {
            "election": null,
            "id": 99,
            "name": "Simcoe—Grey"
          }
        ],
        "pollDivisionIds": [
          10141838
        ],
        "postalCode": "L9Z3A8",
        "streetName": "GOLF COURSE",
        "streetDirectionId": null,
        "streetTypeId": "RD",
        "placeName": "WASAGA BEACH",
        "streetNameDisplayText": "GOLF COURSE RD, WASAGA BEACH"
      },
      {
        "electoralDistricts": [
          {
            "election": null,
            "id": 99,
            "name": "Simcoe—Grey"
          }
        ],
        "pollDivisionIds": [
          10141838
        ],
        "postalCode": "L9Z3A8",
        "streetName": "ILLINOIS",
        "streetDirectionId": null,
        "streetTypeId": "CRES",
        "placeName": "WASAGA BEACH",
        "streetNameDisplayText": "ILLINOIS CRES, WASAGA BEACH"
      },
      {
        "electoralDistricts": [
          {
            "election": null,
            "id": 99,
            "name": "Simcoe—Grey"
          }
        ],
        "pollDivisionIds": [
          10141838
        ],
        "postalCode": "L9Z3A8",
        "streetName": "INDIANA",
        "streetDirectionId": null,
        "streetTypeId": "AVE",
        "placeName": "WASAGA BEACH",
        "streetNameDisplayText": "INDIANA AVE, WASAGA BEACH"
      },
      {
        "electoralDistricts": [
          {
            "election": null,
            "id": 99,
            "name": "Simcoe—Grey"
          }
        ],
        "pollDivisionIds": [
          10141838
        ],
        "postalCode": "L9Z3A8",
        "streetName": "KENTUCKY",
        "streetDirectionId": null,
        "streetTypeId": "AVE",
        "placeName": "WASAGA BEACH",
        "streetNameDisplayText": "KENTUCKY AVE, WASAGA BEACH"
      },
      {
        "electoralDistricts": [
          {
            "election": null,
            "id": 99,
            "name": "Simcoe—Grey"
          }
        ],
        "pollDivisionIds": [
          10141838
        ],
        "postalCode": "L9Z3A8",
        "streetName": "MALTA",
        "streetDirectionId": null,
        "streetTypeId": "AVE",
        "placeName": "WASAGA BEACH",
        "streetNameDisplayText": "MALTA AVE, WASAGA BEACH"
      },
      {
        "electoralDistricts": [
          {
            "election": null,
            "id": 99,
            "name": "Simcoe—Grey"
          }
        ],
        "pollDivisionIds": [
          10141838
        ],
        "postalCode": "L9Z3A8",
        "streetName": "MARVIN GARDENS",
        "streetDirectionId": null,
        "streetTypeId": "BLVD",
        "placeName": "WASAGA BEACH",
        "streetNameDisplayText": "MARVIN GARDENS BLVD, WASAGA BEACH"
      },
      {
        "electoralDistricts": [
          {
            "election": null,
            "id": 99,
            "name": "Simcoe—Grey"
          }
        ],
        "pollDivisionIds": [
          10141838
        ],
        "postalCode": "L9Z3A8",
        "streetName": "NEW YORK",
        "streetDirectionId": null,
        "streetTypeId": "AVE",
        "placeName": "WASAGA BEACH",
        "streetNameDisplayText": "NEW YORK AVE, WASAGA BEACH"
      },
      {
        "electoralDistricts": [
          {
            "election": null,
            "id": 99,
            "name": "Simcoe—Grey"
          }
        ],
        "pollDivisionIds": [
          10141838
        ],
        "postalCode": "L9Z3A8",
        "streetName": "NORTH CAROLINA",
        "streetDirectionId": null,
        "streetTypeId": "AVE",
        "placeName": "WASAGA BEACH",
        "streetNameDisplayText": "NORTH CAROLINA AVE, WASAGA BEACH"
      },
      {
        "electoralDistricts": [
          {
            "election": null,
            "id": 99,
            "name": "Simcoe—Grey"
          }
        ],
        "pollDivisionIds": [
          10141838
        ],
        "postalCode": "L9Z3A8",
        "streetName": "PACIFIC",
        "streetDirectionId": null,
        "streetTypeId": "AVE",
        "placeName": "WASAGA BEACH",
        "streetNameDisplayText": "PACIFIC AVE, WASAGA BEACH"
      },
      {
        "electoralDistricts": [
          {
            "election": null,
            "id": 99,
            "name": "Simcoe—Grey"
          }
        ],
        "pollDivisionIds": [
          10141838
        ],
        "postalCode": "L9Z3A8",
        "streetName": "PENNSYLVANIA",
        "streetDirectionId": null,
        "streetTypeId": "AVE",
        "placeName": "WASAGA BEACH",
        "streetNameDisplayText": "PENNSYLVANIA AVE, WASAGA BEACH"
      },
      {
        "electoralDistricts": [
          {
            "election": null,
            "id": 99,
            "name": "Simcoe—Grey"
          }
        ],
        "pollDivisionIds": [
          10141838
        ],
        "postalCode": "L9Z3A8",
        "streetName": "SAINT JAMES",
        "streetDirectionId": null,
        "streetTypeId": "PL",
        "placeName": "WASAGA BEACH",
        "streetNameDisplayText": "SAINT JAMES PL, WASAGA BEACH"
      },
      {
        "electoralDistricts": [
          {
            "election": null,
            "id": 99,
            "name": "Simcoe—Grey"
          }
        ],
        "pollDivisionIds": [
          10141838
        ],
        "postalCode": "L9Z3A8",
        "streetName": "ST JAMES",
        "streetDirectionId": null,
        "streetTypeId": "PL",
        "placeName": "WASAGA BEACH",
        "streetNameDisplayText": "ST JAMES PL, WASAGA BEACH"
      },
      {
        "electoralDistricts": [
          {
            "election": null,
            "id": 99,
            "name": "Simcoe—Grey"
          }
        ],
        "pollDivisionIds": [
          10141838
        ],
        "postalCode": "L9Z3A8",
        "streetName": "ST. JAMES",
        "streetDirectionId": null,
        "streetTypeId": "PL",
        "placeName": "WASAGA BEACH",
        "streetNameDisplayText": "ST. JAMES PL, WASAGA BEACH"
      },
      {
        "electoralDistricts": [
          {
            "election": null,
            "id": 99,
            "name": "Simcoe—Grey"
          }
        ],
        "pollDivisionIds": [
          10141838
        ],
        "postalCode": "L9Z3A8",
        "streetName": "TENNESSEE",
        "streetDirectionId": null,
        "streetTypeId": "AVE",
        "placeName": "WASAGA BEACH",
        "streetNameDisplayText": "TENNESSEE AVE, WASAGA BEACH"
      },
      {
        "electoralDistricts": [
          {
            "election": null,
            "id": 99,
            "name": "Simcoe—Grey"
          }
        ],
        "pollDivisionIds": [
          10141838
        ],
        "postalCode": "L9Z3A8",
        "streetName": "THE BOARDWALK",
        "streetDirectionId": null,
        "streetTypeId": null,
        "placeName": "WASAGA BEACH",
        "streetNameDisplayText": "THE BOARDWALK, WASAGA BEACH"
      },
      {
        "electoralDistricts": [
          {
            "election": null,
            "id": 99,
            "name": "Simcoe—Grey"
          }
        ],
        "pollDivisionIds": [
          10141838
        ],
        "postalCode": "L9Z3A8",
        "streetName": "VENTNOR",
        "streetDirectionId": null,
        "streetTypeId": "CRES",
        "placeName": "WASAGA BEACH",
        "streetNameDisplayText": "VENTNOR CRES, WASAGA BEACH"
      },
      {
        "electoralDistricts": [
          {
            "election": null,
            "id": 99,
            "name": "Simcoe—Grey"
          }
        ],
        "pollDivisionIds": [
          10141838
        ],
        "postalCode": "L9Z3A8",
        "streetName": "VERMONT",
        "streetDirectionId": null,
        "streetTypeId": "AVE",
        "placeName": "WASAGA BEACH",
        "streetNameDisplayText": "VERMONT AVE, WASAGA BEACH"
      },
      {
        "electoralDistricts": [
          {
            "election": null,
            "id": 99,
            "name": "Simcoe—Grey"
          }
        ],
        "pollDivisionIds": [
          10141838
        ],
        "postalCode": "L9Z3A8",
        "streetName": "VIRGINIA",
        "streetDirectionId": null,
        "streetTypeId": "AVE",
        "placeName": "WASAGA BEACH",
        "streetNameDisplayText": "VIRGINIA AVE, WASAGA BEACH"
      },
      {
        "electoralDistricts": [
          {
            "election": null,
            "id": 99,
            "name": "Simcoe—Grey"
          }
        ],
        "pollDivisionIds": [
          10141838
        ],
        "postalCode": "L9Z3A8",
        "streetName": "YORK",
        "streetDirectionId": null,
        "streetTypeId": "AVE",
        "placeName": "WASAGA BEACH",
        "streetNameDisplayText": "YORK AVE, WASAGA BEACH"
      }
    ]
  },
  {
    "postal": "L9Z7V5",
    "result": []
  },
  {
    "postal": "L9Z2T2",
    "result": [
      {
        "electoralDistricts": [
          {
            "election": null,
            "id": 99,
            "name": "Simcoe—Grey"
          }
        ],
        "pollDivisionIds": [
          10141836
        ],
        "postalCode": "L9Z2T2",
        "streetName": "MELROSE",
        "streetDirectionId": null,
        "streetTypeId": "AVE",
        "placeName": "WASAGA BEACH",
        "streetNameDisplayText": "MELROSE AVE, WASAGA BEACH"
      },
      {
        "electoralDistricts": [
          {
            "election": null,
            "id": 99,
            "name": "Simcoe—Grey"
          }
        ],
        "pollDivisionIds": [
          10141836
        ],
        "postalCode": "L9Z2T2",
        "streetName": "PARKWOOD",
        "streetDirectionId": null,
        "streetTypeId": "DR",
        "placeName": "WASAGA BEACH",
        "streetNameDisplayText": "PARKWOOD DR, WASAGA BEACH"
      }
    ]
  },
  {
    "postal": "L9Z6L3",
    "result": []
  },
  {
    "postal": "L9Z0L2",
    "result": []
  },
  {
    "postal": "L9Z5Y8",
    "result": []
  },
  {
    "postal": "L9Z0B8",
    "result": [
      {
        "electoralDistricts": [
          {
            "election": null,
            "id": 99,
            "name": "Simcoe—Grey"
          }
        ],
        "pollDivisionIds": [
          10141838
        ],
        "postalCode": "L9Z0B8",
        "streetName": "WESTBURY",
        "streetDirectionId": null,
        "streetTypeId": "RD",
        "placeName": "WASAGA BEACH",
        "streetNameDisplayText": "WESTBURY RD, WASAGA BEACH"
      }
    ]
  },
  {
    "postal": "L9Z6R5",
    "result": []
  },
  {
    "postal": "L9Z8W6",
    "result": []
  },
  {
    "postal": "L9Z8G6",
    "result": []
  },
  {
    "postal": "L9Z6X3",
    "result": []
  },
  {
    "postal": "L9Z7R7",
    "result": []
  },
  {
    "postal": "L9Z4B6",
    "result": []
  },
  {
    "postal": "L9Z3P9",
    "result": []
  },
  {
    "postal": "L9Z2T3",
    "result": [
      {
        "electoralDistricts": [
          {
            "election": null,
            "id": 99,
            "name": "Simcoe—Grey"
          }
        ],
        "pollDivisionIds": [
          10141836
        ],
        "postalCode": "L9Z2T3",
        "streetName": "PARKWOOD",
        "streetDirectionId": null,
        "streetTypeId": "DR",
        "placeName": "WASAGA BEACH",
        "streetNameDisplayText": "PARKWOOD DR, WASAGA BEACH"
      },
      {
        "electoralDistricts": [
          {
            "election": null,
            "id": 99,
            "name": "Simcoe—Grey"
          }
        ],
        "pollDivisionIds": [
          10141836
        ],
        "postalCode": "L9Z2T3",
        "streetName": "SPRINGDALE",
        "streetDirectionId": null,
        "streetTypeId": "AVE",
        "placeName": "WASAGA BEACH",
        "streetNameDisplayText": "SPRINGDALE AVE, WASAGA BEACH"
      },
      {
        "electoralDistricts": [
          {
            "election": null,
            "id": 99,
            "name": "Simcoe—Grey"
          }
        ],
        "pollDivisionIds": [
          10141836
        ],
        "postalCode": "L9Z2T3",
        "streetName": "SUMMERHILL",
        "streetDirectionId": null,
        "streetTypeId": "CRES",
        "placeName": "WASAGA BEACH",
        "streetNameDisplayText": "SUMMERHILL CRES, WASAGA BEACH"
      },
      {
        "electoralDistricts": [
          {
            "election": null,
            "id": 99,
            "name": "Simcoe—Grey"
          }
        ],
        "pollDivisionIds": [
          10141836
        ],
        "postalCode": "L9Z2T3",
        "streetName": "SUNNIDALE",
        "streetDirectionId": "S",
        "streetTypeId": "RD",
        "placeName": "WASAGA BEACH",
        "streetNameDisplayText": "SUNNIDALE RD S, WASAGA BEACH"
      }
    ]
  },
  {
    "postal": "L9Z1M4",
    "result": [
      {
        "electoralDistricts": [
          {
            "election": null,
            "id": 99,
            "name": "Simcoe—Grey"
          }
        ],
        "pollDivisionIds": [
          10141839
        ],
        "postalCode": "L9Z1M4",
        "streetName": "CLUB",
        "streetDirectionId": null,
        "streetTypeId": "CRT",
        "placeName": "WASAGA BEACH",
        "streetNameDisplayText": "CLUB CRT, WASAGA BEACH"
      },
      {
        "electoralDistricts": [
          {
            "election": null,
            "id": 99,
            "name": "Simcoe—Grey"
          }
        ],
        "pollDivisionIds": [
          10141839
        ],
        "postalCode": "L9Z1M4",
        "streetName": "PRIDHAM",
        "streetDirectionId": null,
        "streetTypeId": "CRT",
        "placeName": "WASAGA BEACH",
        "streetNameDisplayText": "PRIDHAM CRT, WASAGA BEACH"
      }
    ]
  },
  {
    "postal": "L9Z0H1",
    "result": [
      {
        "electoralDistricts": [
          {
            "election": null,
            "id": 99,
            "name": "Simcoe—Grey"
          }
        ],
        "pollDivisionIds": [
          10141834
        ],
        "postalCode": "L9Z0H1",
        "streetName": "ALLEGRA",
        "streetDirectionId": null,
        "streetTypeId": "DR",
        "placeName": "WASAGA BEACH",
        "streetNameDisplayText": "ALLEGRA DR, WASAGA BEACH"
      }
    ]
  },
  {
    "postal": "L9Z9W3",
    "result": []
  },
  {
    "postal": "L9Z6P1",
    "result": []
  },
  {
    "postal": "L9Z7G2",
    "result": []
  },
  {
    "postal": "L9Z4J9",
    "result": []
  },
  {
    "postal": "L9Z9E4",
    "result": []
  },
  {
    "postal": "L9Z8H0",
    "result": []
  },
  {
    "postal": "L9Z4M7",
    "result": []
  },
  {
    "postal": "L9Z2G9",
    "result": [
      {
        "electoralDistricts": [
          {
            "election": null,
            "id": 99,
            "name": "Simcoe—Grey"
          }
        ],
        "pollDivisionIds": [
          10141837
        ],
        "postalCode": "L9Z2G9",
        "streetName": "21ST",
        "streetDirectionId": "N",
        "streetTypeId": "ST",
        "placeName": "WASAGA BEACH",
        "streetNameDisplayText": "21ST ST N, WASAGA BEACH"
      },
      {
        "electoralDistricts": [
          {
            "election": null,
            "id": 99,
            "name": "Simcoe—Grey"
          }
        ],
        "pollDivisionIds": [
          10141837
        ],
        "postalCode": "L9Z2G9",
        "streetName": "MOSLEY",
        "streetDirectionId": null,
        "streetTypeId": "ST",
        "placeName": "WASAGA BEACH",
        "streetNameDisplayText": "MOSLEY ST, WASAGA BEACH"
      },
      {
        "electoralDistricts": [
          {
            "election": null,
            "id": 99,
            "name": "Simcoe—Grey"
          }
        ],
        "pollDivisionIds": [
          10141837
        ],
        "postalCode": "L9Z2G9",
        "streetName": "SHORE",
        "streetDirectionId": null,
        "streetTypeId": "LANE",
        "placeName": "WASAGA BEACH",
        "streetNameDisplayText": "SHORE LANE, WASAGA BEACH"
      }
    ]
  },
  {
    "postal": "L9Z8T2",
    "result": []
  },
  {
    "postal": "L9Z7G7",
    "result": []
  },
  {
    "postal": "L9Z4Z3",
    "result": []
  },
  {
    "postal": "L9Z5B3",
    "result": []
  },
  {
    "postal": "L9Z1S7",
    "result": [
      {
        "electoralDistricts": [
          {
            "election": null,
            "id": 99,
            "name": "Simcoe—Grey"
          }
        ],
        "pollDivisionIds": [
          10141838,
          10141837
        ],
        "postalCode": "L9Z1S7",
        "streetName": "ZOO PARK",
        "streetDirectionId": null,
        "streetTypeId": "RD",
        "placeName": "WASAGA BEACH",
        "streetNameDisplayText": "ZOO PARK RD, WASAGA BEACH"
      }
    ]
  },
  {
    "postal": "L9Z2N7",
    "result": [
      {
        "electoralDistricts": [
          {
            "election": null,
            "id": 99,
            "name": "Simcoe—Grey"
          }
        ],
        "pollDivisionIds": [
          10141838
        ],
        "postalCode": "L9Z2N7",
        "streetName": "NORTHGATE",
        "streetDirectionId": null,
        "streetTypeId": "RD",
        "placeName": "WASAGA BEACH",
        "streetNameDisplayText": "NORTHGATE RD, WASAGA BEACH"
      },
      {
        "electoralDistricts": [
          {
            "election": null,
            "id": 99,
            "name": "Simcoe—Grey"
          }
        ],
        "pollDivisionIds": [
          10141838,
          10141837
        ],
        "postalCode": "L9Z2N7",
        "streetName": "RIVER",
        "streetDirectionId": "W",
        "streetTypeId": "RD",
        "placeName": "WASAGA BEACH",
        "streetNameDisplayText": "RIVER RD W, WASAGA BEACH"
      },
      {
        "electoralDistricts": [
          {
            "election": null,
            "id": 99,
            "name": "Simcoe—Grey"
          }
        ],
        "pollDivisionIds": [
          10141838
        ],
        "postalCode": "L9Z2N7",
        "streetName": "SAVARIN",
        "streetDirectionId": null,
        "streetTypeId": "ST",
        "placeName": "WASAGA BEACH",
        "streetNameDisplayText": "SAVARIN ST, WASAGA BEACH"
      }
    ]
  },
  {
    "postal": "L9Z0H8",
    "result": []
  },
  {
    "postal": "L9Z7Z4",
    "result": []
  },
  {
    "postal": "L9Z7B1",
    "result": []
  },
  {
    "postal": "L9Z7P8",
    "result": []
  },
  {
    "postal": "L9Z7N0",
    "result": []
  },
  {
    "postal": "L9Z3Y5",
    "result": []
  },
  {
    "postal": "L9Z6K1",
    "result": []
  },
  {
    "postal": "L9Z9X5",
    "result": []
  },
  {
    "postal": "L9Z7S5",
    "result": []
  },
  {
    "postal": "L9Z0A4",
    "result": [
      {
        "electoralDistricts": [
          {
            "election": null,
            "id": 99,
            "name": "Simcoe—Grey"
          }
        ],
        "pollDivisionIds": [
          10141837
        ],
        "postalCode": "L9Z0A4",
        "streetName": "MEADOW",
        "streetDirectionId": null,
        "streetTypeId": "LANE",
        "placeName": "WASAGA BEACH",
        "streetNameDisplayText": "MEADOW LANE, WASAGA BEACH"
      }
    ]
  },
  {
    "postal": "L9Z4T5",
    "result": []
  },
  {
    "postal": "L9Z5K1",
    "result": []
  },
  {
    "postal": "L9Z0Z9",
    "result": []
  },
  {
    "postal": "L9Z7T2",
    "result": []
  },
  {
    "postal": "L9Z1L5",
    "result": [
      {
        "electoralDistricts": [
          {
            "election": null,
            "id": 99,
            "name": "Simcoe—Grey"
          }
        ],
        "pollDivisionIds": [
          10141836
        ],
        "postalCode": "L9Z1L5",
        "streetName": "BRILLINGER",
        "streetDirectionId": null,
        "streetTypeId": "DR",
        "placeName": "WASAGA BEACH",
        "streetNameDisplayText": "BRILLINGER DR, WASAGA BEACH"
      }
    ]
  },
  {
    "postal": "L9Z3N5",
    "result": []
  },
  {
    "postal": "L9Z6H4",
    "result": []
  },
  {
    "postal": "L9Z5A5",
    "result": []
  },
  {
    "postal": "L9Z3R9",
    "result": []
  },
  {
    "postal": "L9Z7L8",
    "result": []
  },
  {
    "postal": "L9Z6T6",
    "result": []
  },
  {
    "postal": "L9Z7Y7",
    "result": []
  },
  {
    "postal": "L9Z3M8",
    "result": []
  },
  {
    "postal": "L9Z2E0",
    "result": []
  },
  {
    "postal": "L9Z4B5",
    "result": []
  },
  {
    "postal": "L9Z1J3",
    "result": [
      {
        "electoralDistricts": [
          {
            "election": null,
            "id": 99,
            "name": "Simcoe—Grey"
          }
        ],
        "pollDivisionIds": [
          10141835
        ],
        "postalCode": "L9Z1J3",
        "streetName": "KELLEY",
        "streetDirectionId": null,
        "streetTypeId": "CRES",
        "placeName": "WASAGA BEACH",
        "streetNameDisplayText": "KELLEY CRES, WASAGA BEACH"
      }
    ]
  },
  {
    "postal": "L9Z5S6",
    "result": []
  },
  {
    "postal": "L9Z8P7",
    "result": []
  },
  {
    "postal": "L9Z7S7",
    "result": []
  },
  {
    "postal": "L9Z4C2",
    "result": []
  },
  {
    "postal": "L9Z5Y0",
    "result": []
  },
  {
    "postal": "L9Z2V7",
    "result": [
      {
        "electoralDistricts": [
          {
            "election": null,
            "id": 99,
            "name": "Simcoe—Grey"
          }
        ],
        "pollDivisionIds": [
          10141836
        ],
        "postalCode": "L9Z2V7",
        "streetName": "OXBOW PARK",
        "streetDirectionId": null,
        "streetTypeId": "DR",
        "placeName": "WASAGA BEACH",
        "streetNameDisplayText": "OXBOW PARK DR, WASAGA BEACH"
      }
    ]
  },
  {
    "postal": "L9Z8P5",
    "result": []
  },
  {
    "postal": "L9Z5P5",
    "result": []
  },
  {
    "postal": "L9Z5Z0",
    "result": []
  },
  {
    "postal": "L9Z9B0",
    "result": []
  },
  {
    "postal": "L9Z1L0",
    "result": []
  },
  {
    "postal": "L9Z0B5",
    "result": [
      {
        "electoralDistricts": [
          {
            "election": null,
            "id": 99,
            "name": "Simcoe—Grey"
          }
        ],
        "pollDivisionIds": [
          10141835
        ],
        "postalCode": "L9Z0B5",
        "streetName": "BLUE JAY",
        "streetDirectionId": null,
        "streetTypeId": "PL",
        "placeName": "WASAGA BEACH",
        "streetNameDisplayText": "BLUE JAY PL, WASAGA BEACH"
      },
      {
        "electoralDistricts": [
          {
            "election": null,
            "id": 99,
            "name": "Simcoe—Grey"
          }
        ],
        "pollDivisionIds": [
          10141835
        ],
        "postalCode": "L9Z0B5",
        "streetName": "MEADOWLARK",
        "streetDirectionId": null,
        "streetTypeId": "BLVD",
        "placeName": "WASAGA BEACH",
        "streetNameDisplayText": "MEADOWLARK BLVD, WASAGA BEACH"
      }
    ]
  },
  {
    "postal": "L9Z3L2",
    "result": []
  },
  {
    "postal": "L9Z3B7",
    "result": [
      {
        "electoralDistricts": [
          {
            "election": null,
            "id": 99,
            "name": "Simcoe—Grey"
          }
        ],
        "pollDivisionIds": [
          10141835
        ],
        "postalCode": "L9Z3B7",
        "streetName": "41ST",
        "streetDirectionId": "S",
        "streetTypeId": "ST",
        "placeName": "WASAGA BEACH",
        "streetNameDisplayText": "41ST ST S, WASAGA BEACH"
      },
      {
        "electoralDistricts": [
          {
            "election": null,
            "id": 99,
            "name": "Simcoe—Grey"
          }
        ],
        "pollDivisionIds": [
          10141835
        ],
        "postalCode": "L9Z3B7",
        "streetName": "GOLD FINCH",
        "streetDirectionId": null,
        "streetTypeId": "DR",
        "placeName": "WASAGA BEACH",
        "streetNameDisplayText": "GOLD FINCH DR, WASAGA BEACH"
      }
    ]
  },
  {
    "postal": "L9Z8L1",
    "result": []
  },
  {
    "postal": "L9Z5M4",
    "result": []
  },
  {
    "postal": "L9Z4G9",
    "result": []
  },
  {
    "postal": "L9Z0P0",
    "result": []
  },
  {
    "postal": "L9Z8G2",
    "result": []
  },
  {
    "postal": "L9Z1V9",
    "result": [
      {
        "electoralDistricts": [
          {
            "election": null,
            "id": 99,
            "name": "Simcoe—Grey"
          }
        ],
        "pollDivisionIds": [
          10141834
        ],
        "postalCode": "L9Z1V9",
        "streetName": "60TH",
        "streetDirectionId": "S",
        "streetTypeId": "ST",
        "placeName": "WASAGA BEACH",
        "streetNameDisplayText": "60TH ST S, WASAGA BEACH"
      }
    ]
  },
  {
    "postal": "L9Z8N8",
    "result": []
  },
  {
    "postal": "L9Z6S8",
    "result": []
  },
  {
    "postal": "L9Z8H2",
    "result": []
  },
  {
    "postal": "L9Z5R8",
    "result": []
  },
  {
    "postal": "L9Z5L4",
    "result": []
  },
  {
    "postal": "L9Z9E1",
    "result": []
  },
  {
    "postal": "L9Z1C4",
    "result": [
      {
        "electoralDistricts": [
          {
            "election": null,
            "id": 99,
            "name": "Simcoe—Grey"
          }
        ],
        "pollDivisionIds": [
          10141838
        ],
        "postalCode": "L9Z1C4",
        "streetName": "FAIRWAY",
        "streetDirectionId": null,
        "streetTypeId": "CRES",
        "placeName": "WASAGA BEACH",
        "streetNameDisplayText": "FAIRWAY CRES, WASAGA BEACH"
      },
      {
        "electoralDistricts": [
          {
            "election": null,
            "id": 99,
            "name": "Simcoe—Grey"
          }
        ],
        "pollDivisionIds": [
          10141838
        ],
        "postalCode": "L9Z1C4",
        "streetName": "MULLIGAN",
        "streetDirectionId": null,
        "streetTypeId": "LANE",
        "placeName": "WASAGA BEACH",
        "streetNameDisplayText": "MULLIGAN LANE, WASAGA BEACH"
      }
    ]
  },
  {
    "postal": "L9Z8W5",
    "result": []
  },
  {
    "postal": "L9Z1Y4",
    "result": [
      {
        "electoralDistricts": [
          {
            "election": null,
            "id": 99,
            "name": "Simcoe—Grey"
          }
        ],
        "pollDivisionIds": [
          10141834
        ],
        "postalCode": "L9Z1Y4",
        "streetName": "48TH",
        "streetDirectionId": "S",
        "streetTypeId": "ST",
        "placeName": "WASAGA BEACH",
        "streetNameDisplayText": "48TH ST S, WASAGA BEACH"
      },
      {
        "electoralDistricts": [
          {
            "election": null,
            "id": 99,
            "name": "Simcoe—Grey"
          }
        ],
        "pollDivisionIds": [
          10141834
        ],
        "postalCode": "L9Z1Y4",
        "streetName": "MOSLEY",
        "streetDirectionId": null,
        "streetTypeId": "ST",
        "placeName": "WASAGA BEACH",
        "streetNameDisplayText": "MOSLEY ST, WASAGA BEACH"
      }
    ]
  },
  {
    "postal": "L9Z1C0",
    "result": []
  },
  {
    "postal": "L9Z2J2",
    "result": [
      {
        "electoralDistricts": [
          {
            "election": null,
            "id": 99,
            "name": "Simcoe—Grey"
          }
        ],
        "pollDivisionIds": [
          10141837
        ],
        "postalCode": "L9Z2J2",
        "streetName": "15TH",
        "streetDirectionId": "N",
        "streetTypeId": "ST",
        "placeName": "WASAGA BEACH",
        "streetNameDisplayText": "15TH ST N, WASAGA BEACH"
      },
      {
        "electoralDistricts": [
          {
            "election": null,
            "id": 99,
            "name": "Simcoe—Grey"
          }
        ],
        "pollDivisionIds": [
          10141837
        ],
        "postalCode": "L9Z2J2",
        "streetName": "15TH",
        "streetDirectionId": "S",
        "streetTypeId": "ST",
        "placeName": "WASAGA BEACH",
        "streetNameDisplayText": "15TH ST S, WASAGA BEACH"
      },
      {
        "electoralDistricts": [
          {
            "election": null,
            "id": 99,
            "name": "Simcoe—Grey"
          }
        ],
        "pollDivisionIds": [
          10141837
        ],
        "postalCode": "L9Z2J2",
        "streetName": "GILLIES",
        "streetDirectionId": null,
        "streetTypeId": "LANE",
        "placeName": "WASAGA BEACH",
        "streetNameDisplayText": "GILLIES LANE, WASAGA BEACH"
      },
      {
        "electoralDistricts": [
          {
            "election": null,
            "id": 99,
            "name": "Simcoe—Grey"
          }
        ],
        "pollDivisionIds": [
          10141837
        ],
        "postalCode": "L9Z2J2",
        "streetName": "MOSLEY",
        "streetDirectionId": null,
        "streetTypeId": "ST",
        "placeName": "WASAGA BEACH",
        "streetNameDisplayText": "MOSLEY ST, WASAGA BEACH"
      },
      {
        "electoralDistricts": [
          {
            "election": null,
            "id": 99,
            "name": "Simcoe—Grey"
          }
        ],
        "pollDivisionIds": [
          10141837
        ],
        "postalCode": "L9Z2J2",
        "streetName": "OLD MOSLEY",
        "streetDirectionId": null,
        "streetTypeId": "ST",
        "placeName": "WASAGA BEACH",
        "streetNameDisplayText": "OLD MOSLEY ST, WASAGA BEACH"
      },
      {
        "electoralDistricts": [
          {
            "election": null,
            "id": 99,
            "name": "Simcoe—Grey"
          }
        ],
        "pollDivisionIds": [
          10141837
        ],
        "postalCode": "L9Z2J2",
        "streetName": "RIVER OAK",
        "streetDirectionId": null,
        "streetTypeId": "LANE",
        "placeName": "WASAGA BEACH",
        "streetNameDisplayText": "RIVER OAK LANE, WASAGA BEACH"
      },
      {
        "electoralDistricts": [
          {
            "election": null,
            "id": 99,
            "name": "Simcoe—Grey"
          }
        ],
        "pollDivisionIds": [
          10141837
        ],
        "postalCode": "L9Z2J2",
        "streetName": "SHORE",
        "streetDirectionId": null,
        "streetTypeId": "LANE",
        "placeName": "WASAGA BEACH",
        "streetNameDisplayText": "SHORE LANE, WASAGA BEACH"
      }
    ]
  },
  {
    "postal": "L9Z2J0",
    "result": []
  },
  {
    "postal": "L9Z7A3",
    "result": []
  },
  {
    "postal": "L9Z8M1",
    "result": []
  },
  {
    "postal": "L9Z7T9",
    "result": []
  },
  {
    "postal": "L9Z6C0",
    "result": []
  },
  {
    "postal": "L9Z7X1",
    "result": []
  },
  {
    "postal": "L9Z0G1",
    "result": [
      {
        "electoralDistricts": [
          {
            "election": null,
            "id": 99,
            "name": "Simcoe—Grey"
          }
        ],
        "pollDivisionIds": [
          10141837
        ],
        "postalCode": "L9Z0G1",
        "streetName": "BEACHWAY",
        "streetDirectionId": null,
        "streetTypeId": "TRAIL",
        "placeName": "WASAGA BEACH",
        "streetNameDisplayText": "BEACHWAY TRAIL, WASAGA BEACH"
      },
      {
        "electoralDistricts": [
          {
            "election": null,
            "id": 99,
            "name": "Simcoe—Grey"
          }
        ],
        "pollDivisionIds": [
          10141837
        ],
        "postalCode": "L9Z0G1",
        "streetName": "SANDY COAST",
        "streetDirectionId": null,
        "streetTypeId": "CRES",
        "placeName": "WASAGA BEACH",
        "streetNameDisplayText": "SANDY COAST CRES, WASAGA BEACH"
      }
    ]
  },
  {
    "postal": "L9Z4X2",
    "result": []
  },
  {
    "postal": "L9Z0N6",
    "result": []
  },
  {
    "postal": "L9Z8E3",
    "result": []
  },
  {
    "postal": "L9Z5S8",
    "result": []
  },
  {
    "postal": "L9Z0R0",
    "result": []
  },
  {
    "postal": "L9Z6J6",
    "result": []
  },
  {
    "postal": "L9Z4B4",
    "result": []
  },
  {
    "postal": "L9Z7E3",
    "result": []
  },
  {
    "postal": "L9Z3N6",
    "result": []
  },
  {
    "postal": "L9Z3X6",
    "result": []
  },
  {
    "postal": "L9Z8L0",
    "result": []
  },
  {
    "postal": "L9Z8N1",
    "result": []
  },
  {
    "postal": "L9Z4J0",
    "result": []
  },
  {
    "postal": "L9Z0X7",
    "result": []
  },
  {
    "postal": "L9Z6S4",
    "result": []
  },
  {
    "postal": "L9Z0Z0",
    "result": []
  },
  {
    "postal": "L9Z9X8",
    "result": []
  },
  {
    "postal": "L9Z3H3",
    "result": []
  },
  {
    "postal": "L9Z7S2",
    "result": []
  },
  {
    "postal": "L9Z3T3",
    "result": []
  },
  {
    "postal": "L9Z9P3",
    "result": []
  },
  {
    "postal": "L9Z4H8",
    "result": []
  },
  {
    "postal": "L9Z6R1",
    "result": []
  },
  {
    "postal": "L9Z1S0",
    "result": []
  },
  {
    "postal": "L9Z3W8",
    "result": []
  },
  {
    "postal": "L9Z4S3",
    "result": []
  },
  {
    "postal": "L9Z1B6",
    "result": [
      {
        "electoralDistricts": [
          {
            "election": null,
            "id": 99,
            "name": "Simcoe—Grey"
          }
        ],
        "pollDivisionIds": [
          10141836
        ],
        "postalCode": "L9Z1B6",
        "streetName": "EVERGREEN",
        "streetDirectionId": null,
        "streetTypeId": "CRES",
        "placeName": "WASAGA BEACH",
        "streetNameDisplayText": "EVERGREEN CRES, WASAGA BEACH"
      }
    ]
  },
  {
    "postal": "L9Z8R3",
    "result": []
  },
  {
    "postal": "L9Z4V9",
    "result": []
  },
  {
    "postal": "L9Z9W4",
    "result": []
  },
  {
    "postal": "L9Z3T4",
    "result": []
  },
  {
    "postal": "L9Z5C7",
    "result": []
  },
  {
    "postal": "L9Z3Y1",
    "result": []
  },
  {
    "postal": "L9Z5V0",
    "result": []
  },
  {
    "postal": "L9Z8G8",
    "result": []
  },
  {
    "postal": "L9Z8B1",
    "result": []
  },
  {
    "postal": "L9Z4P5",
    "result": []
  },
  {
    "postal": "L9Z7B2",
    "result": []
  },
  {
    "postal": "L9Z0R2",
    "result": []
  },
  {
    "postal": "L9Z4M4",
    "result": []
  },
  {
    "postal": "L9Z7M4",
    "result": []
  },
  {
    "postal": "L9Z9S7",
    "result": []
  },
  {
    "postal": "L9Z5Z7",
    "result": []
  },
  {
    "postal": "L9Z7J7",
    "result": []
  },
  {
    "postal": "L9Z8R8",
    "result": []
  },
  {
    "postal": "L9Z9X1",
    "result": []
  },
  {
    "postal": "L9Z5M9",
    "result": []
  },
  {
    "postal": "L9Z9B4",
    "result": []
  },
  {
    "postal": "L9Z0L9",
    "result": []
  },
  {
    "postal": "L9Z9G4",
    "result": []
  },
  {
    "postal": "L9Z1J4",
    "result": [
      {
        "electoralDistricts": [
          {
            "election": null,
            "id": 99,
            "name": "Simcoe—Grey"
          }
        ],
        "pollDivisionIds": [
          10141835
        ],
        "postalCode": "L9Z1J4",
        "streetName": "KELLEY",
        "streetDirectionId": null,
        "streetTypeId": "CRES",
        "placeName": "WASAGA BEACH",
        "streetNameDisplayText": "KELLEY CRES, WASAGA BEACH"
      },
      {
        "electoralDistricts": [
          {
            "election": null,
            "id": 99,
            "name": "Simcoe—Grey"
          }
        ],
        "pollDivisionIds": [
          10141835,
          10141834
        ],
        "postalCode": "L9Z1J4",
        "streetName": "WASAGA SANDS",
        "streetDirectionId": null,
        "streetTypeId": "DR",
        "placeName": "WASAGA BEACH",
        "streetNameDisplayText": "WASAGA SANDS DR, WASAGA BEACH"
      }
    ]
  },
  {
    "postal": "L9Z0W6",
    "result": []
  }
]
