[
  {
    "postal": "M9V9J6",
    "result": []
  },
  {
    "postal": "M9V9Z5",
    "result": []
  },
  {
    "postal": "M9V7H8",
    "result": []
  },
  {
    "postal": "M9V0P6",
    "result": []
  },
  {
    "postal": "M9V0S7",
    "result": []
  },
  {
    "postal": "M9V8B9",
    "result": []
  },
  {
    "postal": "M9V2A6",
    "result": [
      {
        "electoralDistricts": [
          {
            "election": null,
            "id": 30,
            "name": "Etobicoke North"
          }
        ],
        "pollDivisionIds": [
          10138220
        ],
        "postalCode": "M9V2A6",
        "streetName": "FARR",
        "streetDirectionId": null,
        "streetTypeId": "AVE",
        "placeName": "ETOBICOKE",
        "streetNameDisplayText": "FARR AVE, ETOBICOKE"
      }
    ]
  },
  {
    "postal": "M9V7V2",
    "result": []
  },
  {
    "postal": "M9V9P4",
    "result": []
  },
  {
    "postal": "M9V6G0",
    "result": []
  },
  {
    "postal": "M9V2K0",
    "result": []
  },
  {
    "postal": "M9V7N6",
    "result": []
  },
  {
    "postal": "M9V5R3",
    "result": []
  },
  {
    "postal": "M9V7K0",
    "result": []
  },
  {
    "postal": "M9V3R2",
    "result": [
      {
        "electoralDistricts": [
          {
            "election": null,
            "id": 30,
            "name": "Etobicoke North"
          }
        ],
        "pollDivisionIds": [
          10138215
        ],
        "postalCode": "M9V3R2",
        "streetName": "COLLINGDALE",
        "streetDirectionId": null,
        "streetTypeId": "RD",
        "placeName": "ETOBICOKE",
        "streetNameDisplayText": "COLLINGDALE RD, ETOBICOKE"
      }
    ]
  },
  {
    "postal": "M9V0J1",
    "result": []
  },
  {
    "postal": "M9V0B0",
    "result": []
  },
  {
    "postal": "M9V5Z2",
    "result": []
  },
  {
    "postal": "M9V7P3",
    "result": []
  },
  {
    "postal": "M9V2K3",
    "result": [
      {
        "electoralDistricts": [
          {
            "election": null,
            "id": 30,
            "name": "Etobicoke North"
          }
        ],
        "pollDivisionIds": [
          10138223
        ],
        "postalCode": "M9V2K3",
        "streetName": "WICKHAM",
        "streetDirectionId": null,
        "streetTypeId": "CRT",
        "placeName": "ETOBICOKE",
        "streetNameDisplayText": "WICKHAM CRT, ETOBICOKE"
      }
    ]
  },
  {
    "postal": "M9V7Y6",
    "result": []
  },
  {
    "postal": "M9V1L9",
    "result": [
      {
        "electoralDistricts": [
          {
            "election": null,
            "id": 30,
            "name": "Etobicoke North"
          }
        ],
        "pollDivisionIds": [
          10138214
        ],
        "postalCode": "M9V1L9",
        "streetName": "TURNVALE",
        "streetDirectionId": null,
        "streetTypeId": "RD",
        "placeName": "ETOBICOKE",
        "streetNameDisplayText": "TURNVALE RD, ETOBICOKE"
      }
    ]
  },
  {
    "postal": "M9V8T0",
    "result": []
  },
  {
    "postal": "M9V3K8",
    "result": [
      {
        "electoralDistricts": [
          {
            "election": null,
            "id": 30,
            "name": "Etobicoke North"
          }
        ],
        "pollDivisionIds": [
          10138224
        ],
        "postalCode": "M9V3K8",
        "streetName": "SILVERSTONE",
        "streetDirectionId": null,
        "streetTypeId": "DR",
        "placeName": "ETOBICOKE",
        "streetNameDisplayText": "SILVERSTONE DR, ETOBICOKE"
      },
      {
        "electoralDistricts": [
          {
            "election": null,
            "id": 96,
            "name": "Scarborough North"
          }
        ],
        "pollDivisionIds": [
          10143247
        ],
        "postalCode": "M9V3K8",
        "streetName": "SILVERSTONE",
        "streetDirectionId": null,
        "streetTypeId": "DR",
        "placeName": "SCARBOROUGH",
        "streetNameDisplayText": "SILVERSTONE DR, SCARBOROUGH"
      }
    ]
  },
  {
    "postal": "M9V5W9",
    "result": []
  },
  {
    "postal": "M9V6T9",
    "result": []
  },
  {
    "postal": "M9V4H1",
    "result": [
      {
        "electoralDistricts": [
          {
            "election": null,
            "id": 30,
            "name": "Etobicoke North"
          }
        ],
        "pollDivisionIds": [
          10138224
        ],
        "postalCode": "M9V4H1",
        "streetName": "SILVERSTONE",
        "streetDirectionId": null,
        "streetTypeId": "DR",
        "placeName": "ETOBICOKE",
        "streetNameDisplayText": "SILVERSTONE DR, ETOBICOKE"
      }
    ]
  },
  {
    "postal": "M9V7A2",
    "result": []
  },
  {
    "postal": "M9V5G0",
    "result": []
  },
  {
    "postal": "M9V8V5",
    "result": []
  },
  {
    "postal": "M9V2Y8",
    "result": [
      {
        "electoralDistricts": [
          {
            "election": null,
            "id": 30,
            "name": "Etobicoke North"
          }
        ],
        "pollDivisionIds": [
          10138220
        ],
        "postalCode": "M9V2Y8",
        "streetName": "HARLOW",
        "streetDirectionId": null,
        "streetTypeId": "CRES",
        "placeName": "ETOBICOKE",
        "streetNameDisplayText": "HARLOW CRES, ETOBICOKE"
      }
    ]
  },
  {
    "postal": "M9V2B6",
    "result": [
      {
        "electoralDistricts": [
          {
            "election": null,
            "id": 30,
            "name": "Etobicoke North"
          }
        ],
        "pollDivisionIds": [
          10138223
        ],
        "postalCode": "M9V2B6",
        "streetName": "STEVENSON",
        "streetDirectionId": null,
        "streetTypeId": "RD",
        "placeName": "ETOBICOKE",
        "streetNameDisplayText": "STEVENSON RD, ETOBICOKE"
      }
    ]
  },
  {
    "postal": "M9V4W8",
    "result": [
      {
        "electoralDistricts": [
          {
            "election": null,
            "id": 30,
            "name": "Etobicoke North"
          }
        ],
        "pollDivisionIds": [
          10138222
        ],
        "postalCode": "M9V4W8",
        "streetName": "MINGLEHAZE",
        "streetDirectionId": null,
        "streetTypeId": "DR",
        "placeName": "ETOBICOKE",
        "streetNameDisplayText": "MINGLEHAZE DR, ETOBICOKE"
      }
    ]
  },
  {
    "postal": "M9V8H7",
    "result": []
  },
  {
    "postal": "M9V5P1",
    "result": []
  },
  {
    "postal": "M9V2B8",
    "result": [
      {
        "electoralDistricts": [
          {
            "election": null,
            "id": 30,
            "name": "Etobicoke North"
          }
        ],
        "pollDivisionIds": [
          10138224
        ],
        "postalCode": "M9V2B8",
        "streetName": "ELMVALE",
        "streetDirectionId": null,
        "streetTypeId": "CRES",
        "placeName": "ETOBICOKE",
        "streetNameDisplayText": "ELMVALE CRES, ETOBICOKE"
      }
    ]
  },
  {
    "postal": "M9V0P2",
    "result": []
  },
  {
    "postal": "M9V9M1",
    "result": []
  },
  {
    "postal": "M9V3G0",
    "result": []
  },
  {
    "postal": "M9V9Z2",
    "result": []
  },
  {
    "postal": "M9V2A0",
    "result": []
  },
  {
    "postal": "M9V6Y0",
    "result": []
  },
  {
    "postal": "M9V2Z8",
    "result": [
      {
        "electoralDistricts": [
          {
            "election": null,
            "id": 30,
            "name": "Etobicoke North"
          }
        ],
        "pollDivisionIds": [
          10138220
        ],
        "postalCode": "M9V2Z8",
        "streetName": "BENSTROW",
        "streetDirectionId": null,
        "streetTypeId": "AVE",
        "placeName": "ETOBICOKE",
        "streetNameDisplayText": "BENSTROW AVE, ETOBICOKE"
      }
    ]
  },
  {
    "postal": "M9V7Y3",
    "result": []
  },
  {
    "postal": "M9V6Z5",
    "result": []
  },
  {
    "postal": "M9V6E0",
    "result": []
  },
  {
    "postal": "M9V9B7",
    "result": []
  },
  {
    "postal": "M9V9S5",
    "result": []
  },
  {
    "postal": "M9V3X3",
    "result": [
      {
        "electoralDistricts": [
          {
            "election": null,
            "id": 30,
            "name": "Etobicoke North"
          }
        ],
        "pollDivisionIds": [
          10138214
        ],
        "postalCode": "M9V3X3",
        "streetName": "LYNMONT",
        "streetDirectionId": null,
        "streetTypeId": "RD",
        "placeName": "ETOBICOKE",
        "streetNameDisplayText": "LYNMONT RD, ETOBICOKE"
      }
    ]
  },
  {
    "postal": "M9V7R5",
    "result": []
  },
  {
    "postal": "M9V2X3",
    "result": [
      {
        "electoralDistricts": [
          {
            "election": null,
            "id": 30,
            "name": "Etobicoke North"
          }
        ],
        "pollDivisionIds": [
          10138216
        ],
        "postalCode": "M9V2X3",
        "streetName": "ISLINGTON",
        "streetDirectionId": null,
        "streetTypeId": "AVE",
        "placeName": "ETOBICOKE",
        "streetNameDisplayText": "ISLINGTON AVE, ETOBICOKE"
      }
    ]
  },
  {
    "postal": "M9V8Z9",
    "result": []
  },
  {
    "postal": "M9V0N4",
    "result": []
  },
  {
    "postal": "M9V1K1",
    "result": [
      {
        "electoralDistricts": [
          {
            "election": null,
            "id": 30,
            "name": "Etobicoke North"
          }
        ],
        "pollDivisionIds": [
          10138219
        ],
        "postalCode": "M9V1K1",
        "streetName": "THISTLE DOWN",
        "streetDirectionId": null,
        "streetTypeId": "BLVD",
        "placeName": "ETOBICOKE",
        "streetNameDisplayText": "THISTLE DOWN BLVD, ETOBICOKE"
      }
    ]
  },
  {
    "postal": "M9V1S3",
    "result": [
      {
        "electoralDistricts": [
          {
            "election": null,
            "id": 30,
            "name": "Etobicoke North"
          }
        ],
        "pollDivisionIds": [
          10138214
        ],
        "postalCode": "M9V1S3",
        "streetName": "TAMARISK",
        "streetDirectionId": null,
        "streetTypeId": "DR",
        "placeName": "ETOBICOKE",
        "streetNameDisplayText": "TAMARISK DR, ETOBICOKE"
      }
    ]
  },
  {
    "postal": "M9V6M4",
    "result": []
  },
  {
    "postal": "M9V9A9",
    "result": []
  },
  {
    "postal": "M9V9Z9",
    "result": []
  },
  {
    "postal": "M9V6T4",
    "result": []
  },
  {
    "postal": "M9V0B2",
    "result": []
  },
  {
    "postal": "M9V2L9",
    "result": [
      {
        "electoralDistricts": [
          {
            "election": null,
            "id": 30,
            "name": "Etobicoke North"
          }
        ],
        "pollDivisionIds": [
          10138219
        ],
        "postalCode": "M9V2L9",
        "streetName": "BONDHEAD",
        "streetDirectionId": null,
        "streetTypeId": "PL",
        "placeName": "ETOBICOKE",
        "streetNameDisplayText": "BONDHEAD PL, ETOBICOKE"
      }
    ]
  },
  {
    "postal": "M9V8K9",
    "result": []
  },
  {
    "postal": "M9V2H9",
    "result": [
      {
        "electoralDistricts": [
          {
            "election": null,
            "id": 30,
            "name": "Etobicoke North"
          }
        ],
        "pollDivisionIds": [
          10138224
        ],
        "postalCode": "M9V2H9",
        "streetName": "TINTON",
        "streetDirectionId": null,
        "streetTypeId": "CRES",
        "placeName": "ETOBICOKE",
        "streetNameDisplayText": "TINTON CRES, ETOBICOKE"
      }
    ]
  },
  {
    "postal": "M9V3Z6",
    "result": [
      {
        "electoralDistricts": [
          {
            "election": null,
            "id": 30,
            "name": "Etobicoke North"
          }
        ],
        "pollDivisionIds": [
          10138224
        ],
        "postalCode": "M9V3Z6",
        "streetName": "FINCH",
        "streetDirectionId": "W",
        "streetTypeId": "AVE",
        "placeName": "ETOBICOKE",
        "streetNameDisplayText": "FINCH AVE W, ETOBICOKE"
      }
    ]
  },
  {
    "postal": "M9V3B0",
    "result": []
  },
  {
    "postal": "M9V2H8",
    "result": [
      {
        "electoralDistricts": [
          {
            "election": null,
            "id": 30,
            "name": "Etobicoke North"
          }
        ],
        "pollDivisionIds": [
          10138223
        ],
        "postalCode": "M9V2H8",
        "streetName": "MARCHBANK",
        "streetDirectionId": null,
        "streetTypeId": "CRT",
        "placeName": "ETOBICOKE",
        "streetNameDisplayText": "MARCHBANK CRT, ETOBICOKE"
      }
    ]
  },
  {
    "postal": "M9V3X2",
    "result": [
      {
        "electoralDistricts": [
          {
            "election": null,
            "id": 30,
            "name": "Etobicoke North"
          }
        ],
        "pollDivisionIds": [
          10138214
        ],
        "postalCode": "M9V3X2",
        "streetName": "LYNMONT",
        "streetDirectionId": null,
        "streetTypeId": "RD",
        "placeName": "ETOBICOKE",
        "streetNameDisplayText": "LYNMONT RD, ETOBICOKE"
      }
    ]
  },
  {
    "postal": "M9V2E9",
    "result": [
      {
        "electoralDistricts": [
          {
            "election": null,
            "id": 30,
            "name": "Etobicoke North"
          }
        ],
        "pollDivisionIds": [
          10138223
        ],
        "postalCode": "M9V2E9",
        "streetName": "GARFELLA",
        "streetDirectionId": null,
        "streetTypeId": "DR",
        "placeName": "ETOBICOKE",
        "streetNameDisplayText": "GARFELLA DR, ETOBICOKE"
      }
    ]
  },
  {
    "postal": "M9V9P6",
    "result": []
  },
  {
    "postal": "M9V9E2",
    "result": []
  },
  {
    "postal": "M9V9H2",
    "result": []
  },
  {
    "postal": "M9V1S8",
    "result": [
      {
        "electoralDistricts": [
          {
            "election": null,
            "id": 30,
            "name": "Etobicoke North"
          }
        ],
        "pollDivisionIds": [
          10138220
        ],
        "postalCode": "M9V1S8",
        "streetName": "MONTERREY",
        "streetDirectionId": null,
        "streetTypeId": "DR",
        "placeName": "ETOBICOKE",
        "streetNameDisplayText": "MONTERREY DR, ETOBICOKE"
      }
    ]
  },
  {
    "postal": "M9V3M6",
    "result": [
      {
        "electoralDistricts": [
          {
            "election": null,
            "id": 30,
            "name": "Etobicoke North"
          }
        ],
        "pollDivisionIds": [
          10138215
        ],
        "postalCode": "M9V3M6",
        "streetName": "JAMESTOWN",
        "streetDirectionId": null,
        "streetTypeId": "CRES",
        "placeName": "ETOBICOKE",
        "streetNameDisplayText": "JAMESTOWN CRES, ETOBICOKE"
      }
    ]
  },
  {
    "postal": "M9V6Z8",
    "result": []
  },
  {
    "postal": "M9V4J2",
    "result": [
      {
        "electoralDistricts": [
          {
            "election": null,
            "id": 30,
            "name": "Etobicoke North"
          }
        ],
        "pollDivisionIds": [
          10138214
        ],
        "postalCode": "M9V4J2",
        "streetName": "MOSQUE",
        "streetDirectionId": null,
        "streetTypeId": "CRES",
        "placeName": "ETOBICOKE",
        "streetNameDisplayText": "MOSQUE CRES, ETOBICOKE"
      }
    ]
  },
  {
    "postal": "M9V9Y1",
    "result": []
  },
  {
    "postal": "M9V8V6",
    "result": []
  },
  {
    "postal": "M9V6B2",
    "result": []
  },
  {
    "postal": "M9V1P8",
    "result": [
      {
        "electoralDistricts": [
          {
            "election": null,
            "id": 30,
            "name": "Etobicoke North"
          }
        ],
        "pollDivisionIds": [
          10138215
        ],
        "postalCode": "M9V1P8",
        "streetName": "RADWINTER",
        "streetDirectionId": null,
        "streetTypeId": "DR",
        "placeName": "ETOBICOKE",
        "streetNameDisplayText": "RADWINTER DR, ETOBICOKE"
      }
    ]
  },
  {
    "postal": "M9V0V8",
    "result": []
  },
  {
    "postal": "M9V4Y0",
    "result": []
  },
  {
    "postal": "M9V2T4",
    "result": [
      {
        "electoralDistricts": [
          {
            "election": null,
            "id": 30,
            "name": "Etobicoke North"
          }
        ],
        "pollDivisionIds": [
          10138216
        ],
        "postalCode": "M9V2T4",
        "streetName": "RIVERDALE",
        "streetDirectionId": null,
        "streetTypeId": "DR",
        "placeName": "ETOBICOKE",
        "streetNameDisplayText": "RIVERDALE DR, ETOBICOKE"
      }
    ]
  },
  {
    "postal": "M9V2S3",
    "result": [
      {
        "electoralDistricts": [
          {
            "election": null,
            "id": 30,
            "name": "Etobicoke North"
          }
        ],
        "pollDivisionIds": [
          10138219
        ],
        "postalCode": "M9V2S3",
        "streetName": "ALLCROFT",
        "streetDirectionId": null,
        "streetTypeId": "DR",
        "placeName": "ETOBICOKE",
        "streetNameDisplayText": "ALLCROFT DR, ETOBICOKE"
      }
    ]
  },
  {
    "postal": "M9V0K0",
    "result": []
  },
  {
    "postal": "M9V5N1",
    "result": []
  },
  {
    "postal": "M9V7T0",
    "result": []
  },
  {
    "postal": "M9V9N2",
    "result": []
  },
  {
    "postal": "M9V5L1",
    "result": []
  },
  {
    "postal": "M9V7G5",
    "result": []
  },
  {
    "postal": "M9V6K2",
    "result": []
  },
  {
    "postal": "M9V6P9",
    "result": []
  },
  {
    "postal": "M9V0E6",
    "result": []
  },
  {
    "postal": "M9V8R9",
    "result": []
  },
  {
    "postal": "M9V3G9",
    "result": [
      {
        "electoralDistricts": [
          {
            "election": null,
            "id": 30,
            "name": "Etobicoke North"
          }
        ],
        "pollDivisionIds": [
          10138223
        ],
        "postalCode": "M9V3G9",
        "streetName": "SILVERSTONE",
        "streetDirectionId": null,
        "streetTypeId": "DR",
        "placeName": "ETOBICOKE",
        "streetNameDisplayText": "SILVERSTONE DR, ETOBICOKE"
      }
    ]
  },
  {
    "postal": "M9V0V7",
    "result": []
  },
  {
    "postal": "M9V2Z1",
    "result": [
      {
        "electoralDistricts": [
          {
            "election": null,
            "id": 30,
            "name": "Etobicoke North"
          }
        ],
        "pollDivisionIds": [
          10138215
        ],
        "postalCode": "M9V2Z1",
        "streetName": "LIGHTWOOD",
        "streetDirectionId": null,
        "streetTypeId": "DR",
        "placeName": "ETOBICOKE",
        "streetNameDisplayText": "LIGHTWOOD DR, ETOBICOKE"
      }
    ]
  },
  {
    "postal": "M9V7N1",
    "result": []
  },
  {
    "postal": "M9V3C6",
    "result": [
      {
        "electoralDistricts": [
          {
            "election": null,
            "id": 30,
            "name": "Etobicoke North"
          }
        ],
        "pollDivisionIds": [
          10138223
        ],
        "postalCode": "M9V3C6",
        "streetName": "VALETTA",
        "streetDirectionId": null,
        "streetTypeId": "CRT",
        "placeName": "ETOBICOKE",
        "streetNameDisplayText": "VALETTA CRT, ETOBICOKE"
      }
    ]
  },
  {
    "postal": "M9V4M1",
    "result": [
      {
        "electoralDistricts": [
          {
            "election": null,
            "id": 30,
            "name": "Etobicoke North"
          }
        ],
        "pollDivisionIds": [
          10138220,
          10138216
        ],
        "postalCode": "M9V4M1",
        "streetName": "PANORAMA",
        "streetDirectionId": null,
        "streetTypeId": "CRT",
        "placeName": "ETOBICOKE",
        "streetNameDisplayText": "PANORAMA CRT, ETOBICOKE"
      }
    ]
  },
  {
    "postal": "M9V9K2",
    "result": []
  },
  {
    "postal": "M9V9S6",
    "result": []
  },
  {
    "postal": "M9V4X1",
    "result": [
      {
        "electoralDistricts": [
          {
            "election": null,
            "id": 30,
            "name": "Etobicoke North"
          }
        ],
        "pollDivisionIds": [
          10138223
        ],
        "postalCode": "M9V4X1",
        "streetName": "OVERSKATE",
        "streetDirectionId": null,
        "streetTypeId": "CRT",
        "placeName": "ETOBICOKE",
        "streetNameDisplayText": "OVERSKATE CRT, ETOBICOKE"
      }
    ]
  },
  {
    "postal": "M9V8W2",
    "result": []
  },
  {
    "postal": "M9V7N2",
    "result": []
  },
  {
    "postal": "M9V8S3",
    "result": []
  },
  {
    "postal": "M9V4V0",
    "result": []
  },
  {
    "postal": "M9V6W4",
    "result": []
  },
  {
    "postal": "M9V5M1",
    "result": []
  },
  {
    "postal": "M9V0S4",
    "result": []
  },
  {
    "postal": "M9V5X6",
    "result": []
  },
  {
    "postal": "M9V8L5",
    "result": []
  },
  {
    "postal": "M9V5M8",
    "result": []
  },
  {
    "postal": "M9V2G3",
    "result": [
      {
        "electoralDistricts": [
          {
            "election": null,
            "id": 30,
            "name": "Etobicoke North"
          }
        ],
        "pollDivisionIds": [
          10138223
        ],
        "postalCode": "M9V2G3",
        "streetName": "GARFELLA",
        "streetDirectionId": null,
        "streetTypeId": "DR",
        "placeName": "ETOBICOKE",
        "streetNameDisplayText": "GARFELLA DR, ETOBICOKE"
      }
    ]
  },
  {
    "postal": "M9V8E4",
    "result": []
  },
  {
    "postal": "M9V7S9",
    "result": []
  },
  {
    "postal": "M9V1K3",
    "result": [
      {
        "electoralDistricts": [
          {
            "election": null,
            "id": 30,
            "name": "Etobicoke North"
          }
        ],
        "pollDivisionIds": [
          10138219
        ],
        "postalCode": "M9V1K3",
        "streetName": "THISTLE DOWN",
        "streetDirectionId": null,
        "streetTypeId": "BLVD",
        "placeName": "ETOBICOKE",
        "streetNameDisplayText": "THISTLE DOWN BLVD, ETOBICOKE"
      }
    ]
  },
  {
    "postal": "M9V4E1",
    "result": [
      {
        "electoralDistricts": [
          {
            "election": null,
            "id": 30,
            "name": "Etobicoke North"
          }
        ],
        "pollDivisionIds": [
          10138222
        ],
        "postalCode": "M9V4E1",
        "streetName": "MOFFAT",
        "streetDirectionId": null,
        "streetTypeId": "CRT",
        "placeName": "ETOBICOKE",
        "streetNameDisplayText": "MOFFAT CRT, ETOBICOKE"
      },
      {
        "electoralDistricts": [
          {
            "election": null,
            "id": 30,
            "name": "Etobicoke North"
          }
        ],
        "pollDivisionIds": [
          10138222
        ],
        "postalCode": "M9V4E1",
        "streetName": "MOFFATT",
        "streetDirectionId": null,
        "streetTypeId": "CRT",
        "placeName": "ETOBICOKE",
        "streetNameDisplayText": "MOFFATT CRT, ETOBICOKE"
      }
    ]
  },
  {
    "postal": "M9V4R2",
    "result": [
      {
        "electoralDistricts": [
          {
            "election": null,
            "id": 30,
            "name": "Etobicoke North"
          }
        ],
        "pollDivisionIds": [
          10138214
        ],
        "postalCode": "M9V4R2",
        "streetName": "SARABAND",
        "streetDirectionId": null,
        "streetTypeId": "ST",
        "placeName": "ETOBICOKE",
        "streetNameDisplayText": "SARABAND ST, ETOBICOKE"
      }
    ]
  },
  {
    "postal": "M9V6T0",
    "result": []
  },
  {
    "postal": "M9V3K5",
    "result": [
      {
        "electoralDistricts": [
          {
            "election": null,
            "id": 30,
            "name": "Etobicoke North"
          }
        ],
        "pollDivisionIds": [
          10138224,
          10138223
        ],
        "postalCode": "M9V3K5",
        "streetName": "SILVERSTONE",
        "streetDirectionId": null,
        "streetTypeId": "DR",
        "placeName": "ETOBICOKE",
        "streetNameDisplayText": "SILVERSTONE DR, ETOBICOKE"
      }
    ]
  },
  {
    "postal": "M9V3S3",
    "result": [
      {
        "electoralDistricts": [
          {
            "election": null,
            "id": 30,
            "name": "Etobicoke North"
          }
        ],
        "pollDivisionIds": [
          10138215
        ],
        "postalCode": "M9V3S3",
        "streetName": "MARTIN GROVE",
        "streetDirectionId": null,
        "streetTypeId": "RD",
        "placeName": "ETOBICOKE",
        "streetNameDisplayText": "MARTIN GROVE RD, ETOBICOKE"
      }
    ]
  },
  {
    "postal": "M9V3L4",
    "result": [
      {
        "electoralDistricts": [
          {
            "election": null,
            "id": 30,
            "name": "Etobicoke North"
          }
        ],
        "pollDivisionIds": [
          10138224
        ],
        "postalCode": "M9V3L4",
        "streetName": "SILVERSTONE",
        "streetDirectionId": null,
        "streetTypeId": "DR",
        "placeName": "ETOBICOKE",
        "streetNameDisplayText": "SILVERSTONE DR, ETOBICOKE"
      }
    ]
  },
  {
    "postal": "M9V9Y2",
    "result": []
  },
  {
    "postal": "M9V1E0",
    "result": []
  },
  {
    "postal": "M9V9A4",
    "result": []
  },
  {
    "postal": "M9V1L3",
    "result": [
      {
        "electoralDistricts": [
          {
            "election": null,
            "id": 30,
            "name": "Etobicoke North"
          }
        ],
        "pollDivisionIds": [
          10138219
        ],
        "postalCode": "M9V1L3",
        "streetName": "WARDLAW",
        "streetDirectionId": null,
        "streetTypeId": "CRES",
        "placeName": "ETOBICOKE",
        "streetNameDisplayText": "WARDLAW CRES, ETOBICOKE"
      }
    ]
  },
  {
    "postal": "M9V6N1",
    "result": []
  },
  {
    "postal": "M9V6G7",
    "result": []
  },
  {
    "postal": "M9V7W1",
    "result": []
  },
  {
    "postal": "M9V4M6",
    "result": [
      {
        "electoralDistricts": [
          {
            "election": null,
            "id": 30,
            "name": "Etobicoke North"
          }
        ],
        "pollDivisionIds": [
          10138214
        ],
        "postalCode": "M9V4M6",
        "streetName": "CHANNING",
        "streetDirectionId": null,
        "streetTypeId": "PL",
        "placeName": "ETOBICOKE",
        "streetNameDisplayText": "CHANNING PL, ETOBICOKE"
      }
    ]
  },
  {
    "postal": "M9V1K0",
    "result": []
  },
  {
    "postal": "M9V3E2",
    "result": [
      {
        "electoralDistricts": [
          {
            "election": null,
            "id": 30,
            "name": "Etobicoke North"
          }
        ],
        "pollDivisionIds": [
          10138215
        ],
        "postalCode": "M9V3E2",
        "streetName": "ORPINGTON",
        "streetDirectionId": null,
        "streetTypeId": "CRES",
        "placeName": "ETOBICOKE",
        "streetNameDisplayText": "ORPINGTON CRES, ETOBICOKE"
      }
    ]
  },
  {
    "postal": "M9V5H4",
    "result": []
  },
  {
    "postal": "M9V1K7",
    "result": [
      {
        "electoralDistricts": [
          {
            "election": null,
            "id": 30,
            "name": "Etobicoke North"
          }
        ],
        "pollDivisionIds": [
          10138219
        ],
        "postalCode": "M9V1K7",
        "streetName": "THISTLE DOWN",
        "streetDirectionId": null,
        "streetTypeId": "BLVD",
        "placeName": "ETOBICOKE",
        "streetNameDisplayText": "THISTLE DOWN BLVD, ETOBICOKE"
      }
    ]
  },
  {
    "postal": "M9V0H0",
    "result": []
  },
  {
    "postal": "M9V0J3",
    "result": []
  },
  {
    "postal": "M9V1X6",
    "result": [
      {
        "electoralDistricts": [
          {
            "election": null,
            "id": 30,
            "name": "Etobicoke North"
          }
        ],
        "pollDivisionIds": [
          10138220
        ],
        "postalCode": "M9V1X6",
        "streetName": "TAYSHAM",
        "streetDirectionId": null,
        "streetTypeId": "CRES",
        "placeName": "ETOBICOKE",
        "streetNameDisplayText": "TAYSHAM CRES, ETOBICOKE"
      }
    ]
  },
  {
    "postal": "M9V2Z6",
    "result": [
      {
        "electoralDistricts": [
          {
            "election": null,
            "id": 30,
            "name": "Etobicoke North"
          }
        ],
        "pollDivisionIds": [
          10138220
        ],
        "postalCode": "M9V2Z6",
        "streetName": "BENSTROW",
        "streetDirectionId": null,
        "streetTypeId": "AVE",
        "placeName": "ETOBICOKE",
        "streetNameDisplayText": "BENSTROW AVE, ETOBICOKE"
      }
    ]
  },
  {
    "postal": "M9V4R9",
    "result": [
      {
        "electoralDistricts": [
          {
            "election": null,
            "id": 30,
            "name": "Etobicoke North"
          }
        ],
        "pollDivisionIds": [
          10138224
        ],
        "postalCode": "M9V4R9",
        "streetName": "STEELES",
        "streetDirectionId": "W",
        "streetTypeId": "AVE",
        "placeName": "ETOBICOKE",
        "streetNameDisplayText": "STEELES AVE W, ETOBICOKE"
      }
    ]
  },
  {
    "postal": "M9V0W8",
    "result": []
  },
  {
    "postal": "M9V1L4",
    "result": [
      {
        "electoralDistricts": [
          {
            "election": null,
            "id": 30,
            "name": "Etobicoke North"
          }
        ],
        "pollDivisionIds": [
          10138219
        ],
        "postalCode": "M9V1L4",
        "streetName": "FOREST PATH",
        "streetDirectionId": null,
        "streetTypeId": "CRT",
        "placeName": "ETOBICOKE",
        "streetNameDisplayText": "FOREST PATH CRT, ETOBICOKE"
      }
    ]
  },
  {
    "postal": "M9V0C8",
    "result": []
  },
  {
    "postal": "M9V9X7",
    "result": []
  },
  {
    "postal": "M9V4T1",
    "result": [
      {
        "electoralDistricts": [
          {
            "election": null,
            "id": 30,
            "name": "Etobicoke North"
          }
        ],
        "pollDivisionIds": [
          10138222
        ],
        "postalCode": "M9V4T1",
        "streetName": "BEULAH",
        "streetDirectionId": null,
        "streetTypeId": "ST",
        "placeName": "ETOBICOKE",
        "streetNameDisplayText": "BEULAH ST, ETOBICOKE"
      }
    ]
  },
  {
    "postal": "M9V0M0",
    "result": []
  },
  {
    "postal": "M9V6A2",
    "result": []
  },
  {
    "postal": "M9V9S8",
    "result": []
  },
  {
    "postal": "M9V9T4",
    "result": []
  },
  {
    "postal": "M9V9Y4",
    "result": []
  },
  {
    "postal": "M9V6G5",
    "result": []
  },
  {
    "postal": "M9V6H9",
    "result": []
  },
  {
    "postal": "M9V2P3",
    "result": [
      {
        "electoralDistricts": [
          {
            "election": null,
            "id": 30,
            "name": "Etobicoke North"
          }
        ],
        "pollDivisionIds": [
          10138219
        ],
        "postalCode": "M9V2P3",
        "streetName": "BUCKHORN",
        "streetDirectionId": null,
        "streetTypeId": "PL",
        "placeName": "ETOBICOKE",
        "streetNameDisplayText": "BUCKHORN PL, ETOBICOKE"
      }
    ]
  },
  {
    "postal": "M9V1T6",
    "result": [
      {
        "electoralDistricts": [
          {
            "election": null,
            "id": 30,
            "name": "Etobicoke North"
          }
        ],
        "pollDivisionIds": [
          10138215
        ],
        "postalCode": "M9V1T6",
        "streetName": "KENDLETON",
        "streetDirectionId": null,
        "streetTypeId": "DR",
        "placeName": "ETOBICOKE",
        "streetNameDisplayText": "KENDLETON DR, ETOBICOKE"
      }
    ]
  },
  {
    "postal": "M9V4P6",
    "result": [
      {
        "electoralDistricts": [
          {
            "election": null,
            "id": 30,
            "name": "Etobicoke North"
          }
        ],
        "pollDivisionIds": [
          10138214
        ],
        "postalCode": "M9V4P6",
        "streetName": "KITTIWAKE",
        "streetDirectionId": null,
        "streetTypeId": "AVE",
        "placeName": "ETOBICOKE",
        "streetNameDisplayText": "KITTIWAKE AVE, ETOBICOKE"
      }
    ]
  },
  {
    "postal": "M9V3K1",
    "result": [
      {
        "electoralDistricts": [
          {
            "election": null,
            "id": 30,
            "name": "Etobicoke North"
          }
        ],
        "pollDivisionIds": [
          10138224
        ],
        "postalCode": "M9V3K1",
        "streetName": "SILVERSTONE",
        "streetDirectionId": null,
        "streetTypeId": "DR",
        "placeName": "ETOBICOKE",
        "streetNameDisplayText": "SILVERSTONE DR, ETOBICOKE"
      }
    ]
  },
  {
    "postal": "M9V6X4",
    "result": []
  },
  {
    "postal": "M9V4M8",
    "result": [
      {
        "electoralDistricts": [
          {
            "election": null,
            "id": 30,
            "name": "Etobicoke North"
          }
        ],
        "pollDivisionIds": [
          10138214
        ],
        "postalCode": "M9V4M8",
        "streetName": "COUNTRYMAN",
        "streetDirectionId": null,
        "streetTypeId": "CIR",
        "placeName": "ETOBICOKE",
        "streetNameDisplayText": "COUNTRYMAN CIR, ETOBICOKE"
      }
    ]
  },
  {
    "postal": "M9V2Y1",
    "result": [
      {
        "electoralDistricts": [
          {
            "election": null,
            "id": 30,
            "name": "Etobicoke North"
          }
        ],
        "pollDivisionIds": [
          10138216
        ],
        "postalCode": "M9V2Y1",
        "streetName": "GROVETREE",
        "streetDirectionId": null,
        "streetTypeId": "RD",
        "placeName": "ETOBICOKE",
        "streetNameDisplayText": "GROVETREE RD, ETOBICOKE"
      }
    ]
  },
  {
    "postal": "M9V6M1",
    "result": []
  },
  {
    "postal": "M9V5L8",
    "result": []
  },
  {
    "postal": "M9V3P6",
    "result": [
      {
        "electoralDistricts": [
          {
            "election": null,
            "id": 30,
            "name": "Etobicoke North"
          }
        ],
        "pollDivisionIds": [
          10138223
        ],
        "postalCode": "M9V3P6",
        "streetName": "MURCHISON",
        "streetDirectionId": null,
        "streetTypeId": "CRES",
        "placeName": "ETOBICOKE",
        "streetNameDisplayText": "MURCHISON CRES, ETOBICOKE"
      }
    ]
  },
  {
    "postal": "M9V9A5",
    "result": []
  },
  {
    "postal": "M9V7K1",
    "result": []
  },
  {
    "postal": "M9V3J4",
    "result": [
      {
        "electoralDistricts": [
          {
            "election": null,
            "id": 30,
            "name": "Etobicoke North"
          }
        ],
        "pollDivisionIds": [
          10138224,
          10138223
        ],
        "postalCode": "M9V3J4",
        "streetName": "SILVERSTONE",
        "streetDirectionId": null,
        "streetTypeId": "DR",
        "placeName": "ETOBICOKE",
        "streetNameDisplayText": "SILVERSTONE DR, ETOBICOKE"
      }
    ]
  },
  {
    "postal": "M9V5E7",
    "result": [
      {
        "electoralDistricts": [
          {
            "election": null,
            "id": 30,
            "name": "Etobicoke North"
          }
        ],
        "pollDivisionIds": [
          10138221
        ],
        "postalCode": "M9V5E7",
        "streetName": "MARKBROOK LANE",
        "streetDirectionId": null,
        "streetTypeId": "LANE",
        "placeName": "ETOBICOKE",
        "streetNameDisplayText": "MARKBROOK LANE LANE, ETOBICOKE"
      },
      {
        "electoralDistricts": [
          {
            "election": null,
            "id": 30,
            "name": "Etobicoke North"
          }
        ],
        "pollDivisionIds": [
          10138221
        ],
        "postalCode": "M9V5E7",
        "streetName": "MARKBROOK",
        "streetDirectionId": null,
        "streetTypeId": "LANE",
        "placeName": "ETOBICOKE",
        "streetNameDisplayText": "MARKBROOK LANE, ETOBICOKE"
      }
    ]
  },
  {
    "postal": "M9V3A7",
    "result": [
      {
        "electoralDistricts": [
          {
            "election": null,
            "id": 30,
            "name": "Etobicoke North"
          }
        ],
        "pollDivisionIds": [
          10138215
        ],
        "postalCode": "M9V3A7",
        "streetName": "KIPLING",
        "streetDirectionId": null,
        "streetTypeId": "AVE",
        "placeName": "ETOBICOKE",
        "streetNameDisplayText": "KIPLING AVE, ETOBICOKE"
      }
    ]
  },
  {
    "postal": "M9V1B9",
    "result": [
      {
        "electoralDistricts": [
          {
            "election": null,
            "id": 30,
            "name": "Etobicoke North"
          }
        ],
        "pollDivisionIds": [
          10138224
        ],
        "postalCode": "M9V1B9",
        "streetName": "ALBION",
        "streetDirectionId": null,
        "streetTypeId": "RD",
        "placeName": "ETOBICOKE",
        "streetNameDisplayText": "ALBION RD, ETOBICOKE"
      }
    ]
  },
  {
    "postal": "M9V9E8",
    "result": []
  },
  {
    "postal": "M9V1C9",
    "result": [
      {
        "electoralDistricts": [
          {
            "election": null,
            "id": 30,
            "name": "Etobicoke North"
          }
        ],
        "pollDivisionIds": [
          10138216
        ],
        "postalCode": "M9V1C9",
        "streetName": "BRADSHAW",
        "streetDirectionId": null,
        "streetTypeId": "AVE",
        "placeName": "ETOBICOKE",
        "streetNameDisplayText": "BRADSHAW AVE, ETOBICOKE"
      }
    ]
  },
  {
    "postal": "M9V3B5",
    "result": [
      {
        "electoralDistricts": [
          {
            "election": null,
            "id": 30,
            "name": "Etobicoke North"
          }
        ],
        "pollDivisionIds": [
          10138223
        ],
        "postalCode": "M9V3B5",
        "streetName": "ANNABELLE",
        "streetDirectionId": null,
        "streetTypeId": "DR",
        "placeName": "ETOBICOKE",
        "streetNameDisplayText": "ANNABELLE DR, ETOBICOKE"
      }
    ]
  },
  {
    "postal": "M9V8R0",
    "result": []
  },
  {
    "postal": "M9V3P2",
    "result": [
      {
        "electoralDistricts": [
          {
            "election": null,
            "id": 30,
            "name": "Etobicoke North"
          }
        ],
        "pollDivisionIds": [
          10138223
        ],
        "postalCode": "M9V3P2",
        "streetName": "BLACKBUSH",
        "streetDirectionId": null,
        "streetTypeId": "DR",
        "placeName": "ETOBICOKE",
        "streetNameDisplayText": "BLACKBUSH DR, ETOBICOKE"
      }
    ]
  },
  {
    "postal": "M9V5V4",
    "result": []
  },
  {
    "postal": "M9V4H0",
    "result": []
  },
  {
    "postal": "M9V4S7",
    "result": [
      {
        "electoralDistricts": [
          {
            "election": null,
            "id": 30,
            "name": "Etobicoke North"
          }
        ],
        "pollDivisionIds": [
          10138222
        ],
        "postalCode": "M9V4S7",
        "streetName": "MAGDALENA",
        "streetDirectionId": null,
        "streetTypeId": "CRT",
        "placeName": "ETOBICOKE",
        "streetNameDisplayText": "MAGDALENA CRT, ETOBICOKE"
      }
    ]
  },
  {
    "postal": "M9V6C2",
    "result": []
  },
  {
    "postal": "M9V8W3",
    "result": []
  },
  {
    "postal": "M9V4M5",
    "result": [
      {
        "electoralDistricts": [
          {
            "election": null,
            "id": 30,
            "name": "Etobicoke North"
          }
        ],
        "pollDivisionIds": [
          10138214
        ],
        "postalCode": "M9V4M5",
        "streetName": "BROWNRIDGE",
        "streetDirectionId": null,
        "streetTypeId": "CRES",
        "placeName": "ETOBICOKE",
        "streetNameDisplayText": "BROWNRIDGE CRES, ETOBICOKE"
      }
    ]
  },
  {
    "postal": "M9V5T1",
    "result": []
  },
  {
    "postal": "M9V3B3",
    "result": [
      {
        "electoralDistricts": [
          {
            "election": null,
            "id": 30,
            "name": "Etobicoke North"
          }
        ],
        "pollDivisionIds": [
          10138215
        ],
        "postalCode": "M9V3B3",
        "streetName": "DELROSA",
        "streetDirectionId": null,
        "streetTypeId": "CRT",
        "placeName": "ETOBICOKE",
        "streetNameDisplayText": "DELROSA CRT, ETOBICOKE"
      }
    ]
  },
  {
    "postal": "M9V6C6",
    "result": []
  },
  {
    "postal": "M9V7N8",
    "result": []
  },
  {
    "postal": "M9V2Y3",
    "result": [
      {
        "electoralDistricts": [
          {
            "election": null,
            "id": 30,
            "name": "Etobicoke North"
          }
        ],
        "pollDivisionIds": [
          10138216
        ],
        "postalCode": "M9V2Y3",
        "streetName": "GROVETREE",
        "streetDirectionId": null,
        "streetTypeId": "RD",
        "placeName": "ETOBICOKE",
        "streetNameDisplayText": "GROVETREE RD, ETOBICOKE"
      }
    ]
  },
  {
    "postal": "M9V2R6",
    "result": [
      {
        "electoralDistricts": [
          {
            "election": null,
            "id": 30,
            "name": "Etobicoke North"
          }
        ],
        "pollDivisionIds": [
          10138219
        ],
        "postalCode": "M9V2R6",
        "streetName": "DEANLEA",
        "streetDirectionId": null,
        "streetTypeId": "CRT",
        "placeName": "ETOBICOKE",
        "streetNameDisplayText": "DEANLEA CRT, ETOBICOKE"
      }
    ]
  },
  {
    "postal": "M9V7N3",
    "result": []
  },
  {
    "postal": "M9V8J2",
    "result": []
  },
  {
    "postal": "M9V6A9",
    "result": []
  },
  {
    "postal": "M9V3V2",
    "result": [
      {
        "electoralDistricts": [
          {
            "election": null,
            "id": 30,
            "name": "Etobicoke North"
          }
        ],
        "pollDivisionIds": [
          10138224
        ],
        "postalCode": "M9V3V2",
        "streetName": "BUCKSBURN",
        "streetDirectionId": null,
        "streetTypeId": "RD",
        "placeName": "ETOBICOKE",
        "streetNameDisplayText": "BUCKSBURN RD, ETOBICOKE"
      }
    ]
  },
  {
    "postal": "M9V2N3",
    "result": [
      {
        "electoralDistricts": [
          {
            "election": null,
            "id": 30,
            "name": "Etobicoke North"
          }
        ],
        "pollDivisionIds": [
          10138219
        ],
        "postalCode": "M9V2N3",
        "streetName": "ALHART",
        "streetDirectionId": null,
        "streetTypeId": "DR",
        "placeName": "ETOBICOKE",
        "streetNameDisplayText": "ALHART DR, ETOBICOKE"
      }
    ]
  },
  {
    "postal": "M9V1S5",
    "result": [
      {
        "electoralDistricts": [
          {
            "election": null,
            "id": 30,
            "name": "Etobicoke North"
          }
        ],
        "pollDivisionIds": [
          10138220
        ],
        "postalCode": "M9V1S5",
        "streetName": "WALTHAM",
        "streetDirectionId": null,
        "streetTypeId": "DR",
        "placeName": "ETOBICOKE",
        "streetNameDisplayText": "WALTHAM DR, ETOBICOKE"
      }
    ]
  },
  {
    "postal": "M9V4T7",
    "result": [
      {
        "electoralDistricts": [
          {
            "election": null,
            "id": 30,
            "name": "Etobicoke North"
          }
        ],
        "pollDivisionIds": [
          10138222
        ],
        "postalCode": "M9V4T7",
        "streetName": "FRANCA",
        "streetDirectionId": null,
        "streetTypeId": "CRES",
        "placeName": "ETOBICOKE",
        "streetNameDisplayText": "FRANCA CRES, ETOBICOKE"
      }
    ]
  },
  {
    "postal": "M9V6Y7",
    "result": []
  },
  {
    "postal": "M9V0W7",
    "result": []
  },
  {
    "postal": "M9V2W9",
    "result": [
      {
        "electoralDistricts": [
          {
            "election": null,
            "id": 30,
            "name": "Etobicoke North"
          }
        ],
        "pollDivisionIds": [
          10138216
        ],
        "postalCode": "M9V2W9",
        "streetName": "HENTOB",
        "streetDirectionId": null,
        "streetTypeId": "CRT",
        "placeName": "ETOBICOKE",
        "streetNameDisplayText": "HENTOB CRT, ETOBICOKE"
      }
    ]
  },
  {
    "postal": "M9V8V0",
    "result": []
  },
  {
    "postal": "M9V0H4",
    "result": []
  },
  {
    "postal": "M9V2T1",
    "result": []
  },
  {
    "postal": "M9V1B1",
    "result": [
      {
        "electoralDistricts": [
          {
            "election": null,
            "id": 30,
            "name": "Etobicoke North"
          }
        ],
        "pollDivisionIds": [
          10138215
        ],
        "postalCode": "M9V1B1",
        "streetName": "ALBION",
        "streetDirectionId": null,
        "streetTypeId": "RD",
        "placeName": "ETOBICOKE",
        "streetNameDisplayText": "ALBION RD, ETOBICOKE"
      }
    ]
  },
  {
    "postal": "M9V8B6",
    "result": []
  },
  {
    "postal": "M9V6H1",
    "result": []
  },
  {
    "postal": "M9V8T8",
    "result": []
  },
  {
    "postal": "M9V0T4",
    "result": []
  },
  {
    "postal": "M9V2C4",
    "result": [
      {
        "electoralDistricts": [
          {
            "election": null,
            "id": 30,
            "name": "Etobicoke North"
          }
        ],
        "pollDivisionIds": [
          10138223
        ],
        "postalCode": "M9V2C4",
        "streetName": "SEGUIN",
        "streetDirectionId": null,
        "streetTypeId": "CRT",
        "placeName": "ETOBICOKE",
        "streetNameDisplayText": "SEGUIN CRT, ETOBICOKE"
      }
    ]
  },
  {
    "postal": "M9V8N3",
    "result": []
  },
  {
    "postal": "M9V4L8",
    "result": [
      {
        "electoralDistricts": [
          {
            "election": null,
            "id": 30,
            "name": "Etobicoke North"
          }
        ],
        "pollDivisionIds": [
          10138220
        ],
        "postalCode": "M9V4L8",
        "streetName": "PANORAMA",
        "streetDirectionId": null,
        "streetTypeId": "CRT",
        "placeName": "ETOBICOKE",
        "streetNameDisplayText": "PANORAMA CRT, ETOBICOKE"
      }
    ]
  },
  {
    "postal": "M9V2B5",
    "result": [
      {
        "electoralDistricts": [
          {
            "election": null,
            "id": 30,
            "name": "Etobicoke North"
          }
        ],
        "pollDivisionIds": [
          10138223
        ],
        "postalCode": "M9V2B5",
        "streetName": "STEVENSON",
        "streetDirectionId": null,
        "streetTypeId": "RD",
        "placeName": "ETOBICOKE",
        "streetNameDisplayText": "STEVENSON RD, ETOBICOKE"
      }
    ]
  },
  {
    "postal": "M9V3H1",
    "result": [
      {
        "electoralDistricts": [
          {
            "election": null,
            "id": 30,
            "name": "Etobicoke North"
          }
        ],
        "pollDivisionIds": [
          10138222
        ],
        "postalCode": "M9V3H1",
        "streetName": "SILVERSTONE",
        "streetDirectionId": null,
        "streetTypeId": "DR",
        "placeName": "ETOBICOKE",
        "streetNameDisplayText": "SILVERSTONE DR, ETOBICOKE"
      }
    ]
  },
  {
    "postal": "M9V4Y1",
    "result": [
      {
        "electoralDistricts": [
          {
            "election": null,
            "id": 30,
            "name": "Etobicoke North"
          }
        ],
        "pollDivisionIds": [
          10138222,
          10138221
        ],
        "postalCode": "M9V4Y1",
        "streetName": "PLOWSHARE",
        "streetDirectionId": null,
        "streetTypeId": "CRES",
        "placeName": "ETOBICOKE",
        "streetNameDisplayText": "PLOWSHARE CRES, ETOBICOKE"
      }
    ]
  },
  {
    "postal": "M9V7E2",
    "result": []
  },
  {
    "postal": "M9V2P5",
    "result": [
      {
        "electoralDistricts": [
          {
            "election": null,
            "id": 30,
            "name": "Etobicoke North"
          }
        ],
        "pollDivisionIds": [
          10138219
        ],
        "postalCode": "M9V2P5",
        "streetName": "BANKFIELD",
        "streetDirectionId": null,
        "streetTypeId": "DR",
        "placeName": "ETOBICOKE",
        "streetNameDisplayText": "BANKFIELD DR, ETOBICOKE"
      }
    ]
  },
  {
    "postal": "M9V8R7",
    "result": []
  },
  {
    "postal": "M9V9P1",
    "result": []
  },
  {
    "postal": "M9V3B8",
    "result": [
      {
        "electoralDistricts": [
          {
            "election": null,
            "id": 30,
            "name": "Etobicoke North"
          }
        ],
        "pollDivisionIds": [
          10138223
        ],
        "postalCode": "M9V3B8",
        "streetName": "ANNABELLE",
        "streetDirectionId": null,
        "streetTypeId": "DR",
        "placeName": "ETOBICOKE",
        "streetNameDisplayText": "ANNABELLE DR, ETOBICOKE"
      }
    ]
  },
  {
    "postal": "M9V3P7",
    "result": [
      {
        "electoralDistricts": [
          {
            "election": null,
            "id": 30,
            "name": "Etobicoke North"
          }
        ],
        "pollDivisionIds": [
          10138223
        ],
        "postalCode": "M9V3P7",
        "streetName": "ELMCLIFFE",
        "streetDirectionId": null,
        "streetTypeId": "CRT",
        "placeName": "ETOBICOKE",
        "streetNameDisplayText": "ELMCLIFFE CRT, ETOBICOKE"
      }
    ]
  },
  {
    "postal": "M9V9B2",
    "result": []
  },
  {
    "postal": "M9V6Z3",
    "result": []
  },
  {
    "postal": "M9V4N5",
    "result": [
      {
        "electoralDistricts": [
          {
            "election": null,
            "id": 30,
            "name": "Etobicoke North"
          }
        ],
        "pollDivisionIds": [
          10138215
        ],
        "postalCode": "M9V4N5",
        "streetName": "GRACEHILL",
        "streetDirectionId": null,
        "streetTypeId": "CRT",
        "placeName": "ETOBICOKE",
        "streetNameDisplayText": "GRACEHILL CRT, ETOBICOKE"
      }
    ]
  },
  {
    "postal": "M9V8T3",
    "result": []
  },
  {
    "postal": "M9V1V2",
    "result": [
      {
        "electoralDistricts": [
          {
            "election": null,
            "id": 30,
            "name": "Etobicoke North"
          }
        ],
        "pollDivisionIds": [
          10138215
        ],
        "postalCode": "M9V1V2",
        "streetName": "KENDLETON",
        "streetDirectionId": null,
        "streetTypeId": "DR",
        "placeName": "ETOBICOKE",
        "streetNameDisplayText": "KENDLETON DR, ETOBICOKE"
      }
    ]
  },
  {
    "postal": "M9V1Y0",
    "result": []
  },
  {
    "postal": "M9V3G6",
    "result": [
      {
        "electoralDistricts": [
          {
            "election": null,
            "id": 30,
            "name": "Etobicoke North"
          }
        ],
        "pollDivisionIds": [
          10138223
        ],
        "postalCode": "M9V3G6",
        "streetName": "SILVERSTONE",
        "streetDirectionId": null,
        "streetTypeId": "DR",
        "placeName": "ETOBICOKE",
        "streetNameDisplayText": "SILVERSTONE DR, ETOBICOKE"
      }
    ]
  },
  {
    "postal": "M9V3H7",
    "result": [
      {
        "electoralDistricts": [
          {
            "election": null,
            "id": 30,
            "name": "Etobicoke North"
          }
        ],
        "pollDivisionIds": [
          10138223
        ],
        "postalCode": "M9V3H7",
        "streetName": "SILVERSTONE",
        "streetDirectionId": null,
        "streetTypeId": "DR",
        "placeName": "ETOBICOKE",
        "streetNameDisplayText": "SILVERSTONE DR, ETOBICOKE"
      }
    ]
  },
  {
    "postal": "M9V7X8",
    "result": []
  },
  {
    "postal": "M9V0C7",
    "result": []
  },
  {
    "postal": "M9V0W9",
    "result": []
  },
  {
    "postal": "M9V8E6",
    "result": []
  },
  {
    "postal": "M9V9Z8",
    "result": []
  },
  {
    "postal": "M9V3P4",
    "result": [
      {
        "electoralDistricts": [
          {
            "election": null,
            "id": 30,
            "name": "Etobicoke North"
          }
        ],
        "pollDivisionIds": [
          10138223
        ],
        "postalCode": "M9V3P4",
        "streetName": "GRACELAND",
        "streetDirectionId": null,
        "streetTypeId": "CRT",
        "placeName": "ETOBICOKE",
        "streetNameDisplayText": "GRACELAND CRT, ETOBICOKE"
      },
      {
        "electoralDistricts": [
          {
            "election": null,
            "id": 30,
            "name": "Etobicoke North"
          }
        ],
        "pollDivisionIds": [
          10138223
        ],
        "postalCode": "M9V3P4",
        "streetName": "GRACELAND",
        "streetDirectionId": null,
        "streetTypeId": "CRT",
        "placeName": "TORONTO",
        "streetNameDisplayText": "GRACELAND CRT, TORONTO"
      }
    ]
  },
  {
    "postal": "M9V6L8",
    "result": []
  },
  {
    "postal": "M9V2R4",
    "result": [
      {
        "electoralDistricts": [
          {
            "election": null,
            "id": 30,
            "name": "Etobicoke North"
          }
        ],
        "pollDivisionIds": [
          10138219
        ],
        "postalCode": "M9V2R4",
        "streetName": "DEANLEA",
        "streetDirectionId": null,
        "streetTypeId": "CRT",
        "placeName": "ETOBICOKE",
        "streetNameDisplayText": "DEANLEA CRT, ETOBICOKE"
      }
    ]
  },
  {
    "postal": "M9V2W1",
    "result": [
      {
        "electoralDistricts": [
          {
            "election": null,
            "id": 30,
            "name": "Etobicoke North"
          }
        ],
        "pollDivisionIds": [
          10138219
        ],
        "postalCode": "M9V2W1",
        "streetName": "BARKWIN",
        "streetDirectionId": null,
        "streetTypeId": "DR",
        "placeName": "ETOBICOKE",
        "streetNameDisplayText": "BARKWIN DR, ETOBICOKE"
      }
    ]
  },
  {
    "postal": "M9V9H8",
    "result": []
  },
  {
    "postal": "M9V8X9",
    "result": []
  },
  {
    "postal": "M9V7H4",
    "result": []
  },
  {
    "postal": "M9V3J1",
    "result": [
      {
        "electoralDistricts": [
          {
            "election": null,
            "id": 30,
            "name": "Etobicoke North"
          }
        ],
        "pollDivisionIds": [
          10138223
        ],
        "postalCode": "M9V3J1",
        "streetName": "SILVERSTONE",
        "streetDirectionId": null,
        "streetTypeId": "DR",
        "placeName": "ETOBICOKE",
        "streetNameDisplayText": "SILVERSTONE DR, ETOBICOKE"
      }
    ]
  },
  {
    "postal": "M9V1P4",
    "result": [
      {
        "electoralDistricts": [
          {
            "election": null,
            "id": 30,
            "name": "Etobicoke North"
          }
        ],
        "pollDivisionIds": [
          10138214
        ],
        "postalCode": "M9V1P4",
        "streetName": "HUMBER COLLEGE",
        "streetDirectionId": null,
        "streetTypeId": "BLVD",
        "placeName": "ETOBICOKE",
        "streetNameDisplayText": "HUMBER COLLEGE BLVD, ETOBICOKE"
      }
    ]
  },
  {
    "postal": "M9V2A3",
    "result": [
      {
        "electoralDistricts": [
          {
            "election": null,
            "id": 30,
            "name": "Etobicoke North"
          }
        ],
        "pollDivisionIds": [
          10138224
        ],
        "postalCode": "M9V2A3",
        "streetName": "CHARNLEIGH",
        "streetDirectionId": null,
        "streetTypeId": "CRT",
        "placeName": "ETOBICOKE",
        "streetNameDisplayText": "CHARNLEIGH CRT, ETOBICOKE"
      }
    ]
  },
  {
    "postal": "M9V0Z1",
    "result": []
  },
  {
    "postal": "M9V1C1",
    "result": [
      {
        "electoralDistricts": [
          {
            "election": null,
            "id": 30,
            "name": "Etobicoke North"
          }
        ],
        "pollDivisionIds": [
          10138224
        ],
        "postalCode": "M9V1C1",
        "streetName": "ALBION",
        "streetDirectionId": null,
        "streetTypeId": "RD",
        "placeName": "ETOBICOKE",
        "streetNameDisplayText": "ALBION RD, ETOBICOKE"
      }
    ]
  },
  {
    "postal": "M9V0H3",
    "result": []
  },
  {
    "postal": "M9V7B0",
    "result": []
  },
  {
    "postal": "M9V5K2",
    "result": []
  },
  {
    "postal": "M9V1E9",
    "result": [
      {
        "electoralDistricts": [
          {
            "election": null,
            "id": 30,
            "name": "Etobicoke North"
          }
        ],
        "pollDivisionIds": [
          10138216
        ],
        "postalCode": "M9V1E9",
        "streetName": "LUND",
        "streetDirectionId": null,
        "streetTypeId": "AVE",
        "placeName": "ETOBICOKE",
        "streetNameDisplayText": "LUND AVE, ETOBICOKE"
      }
    ]
  },
  {
    "postal": "M9V9W7",
    "result": []
  },
  {
    "postal": "M9V5W6",
    "result": []
  },
  {
    "postal": "M9V6S6",
    "result": []
  },
  {
    "postal": "M9V2P8",
    "result": [
      {
        "electoralDistricts": [
          {
            "election": null,
            "id": 30,
            "name": "Etobicoke North"
          }
        ],
        "pollDivisionIds": [
          10138219
        ],
        "postalCode": "M9V2P8",
        "streetName": "BANKFIELD",
        "streetDirectionId": null,
        "streetTypeId": "DR",
        "placeName": "ETOBICOKE",
        "streetNameDisplayText": "BANKFIELD DR, ETOBICOKE"
      }
    ]
  },
  {
    "postal": "M9V4P8",
    "result": [
      {
        "electoralDistricts": [
          {
            "election": null,
            "id": 30,
            "name": "Etobicoke North"
          }
        ],
        "pollDivisionIds": [
          10138214
        ],
        "postalCode": "M9V4P8",
        "streetName": "NORBROOK",
        "streetDirectionId": null,
        "streetTypeId": "CRES",
        "placeName": "ETOBICOKE",
        "streetNameDisplayText": "NORBROOK CRES, ETOBICOKE"
      }
    ]
  },
  {
    "postal": "M9V0V9",
    "result": []
  },
  {
    "postal": "M9V5Y2",
    "result": []
  },
  {
    "postal": "M9V7Z7",
    "result": []
  },
  {
    "postal": "M9V6Y8",
    "result": []
  },
  {
    "postal": "M9V2G7",
    "result": [
      {
        "electoralDistricts": [
          {
            "election": null,
            "id": 30,
            "name": "Etobicoke North"
          }
        ],
        "pollDivisionIds": [
          10138224
        ],
        "postalCode": "M9V2G7",
        "streetName": "LEXINGTON",
        "streetDirectionId": null,
        "streetTypeId": "AVE",
        "placeName": "ETOBICOKE",
        "streetNameDisplayText": "LEXINGTON AVE, ETOBICOKE"
      }
    ]
  },
  {
    "postal": "M9V8C1",
    "result": []
  },
  {
    "postal": "M9V5C5",
    "result": []
  },
  {
    "postal": "M9V2X8",
    "result": [
      {
        "electoralDistricts": [
          {
            "election": null,
            "id": 30,
            "name": "Etobicoke North"
          }
        ],
        "pollDivisionIds": [
          10138220
        ],
        "postalCode": "M9V2X8",
        "streetName": "ISLINGTON",
        "streetDirectionId": null,
        "streetTypeId": "AVE",
        "placeName": "ETOBICOKE",
        "streetNameDisplayText": "ISLINGTON AVE, ETOBICOKE"
      }
    ]
  },
  {
    "postal": "M9V1W5",
    "result": [
      {
        "electoralDistricts": [
          {
            "election": null,
            "id": 30,
            "name": "Etobicoke North"
          }
        ],
        "pollDivisionIds": [
          10138220
        ],
        "postalCode": "M9V1W5",
        "streetName": "HONBURY",
        "streetDirectionId": null,
        "streetTypeId": "RD",
        "placeName": "ETOBICOKE",
        "streetNameDisplayText": "HONBURY RD, ETOBICOKE"
      }
    ]
  },
  {
    "postal": "M9V7G0",
    "result": []
  },
  {
    "postal": "M9V8J8",
    "result": []
  },
  {
    "postal": "M9V3Y0",
    "result": []
  },
  {
    "postal": "M9V9T7",
    "result": []
  },
  {
    "postal": "M9V5P4",
    "result": []
  },
  {
    "postal": "M9V4B0",
    "result": []
  },
  {
    "postal": "M9V9N8",
    "result": []
  },
  {
    "postal": "M9V4A7",
    "result": [
      {
        "electoralDistricts": [
          {
            "election": null,
            "id": 30,
            "name": "Etobicoke North"
          }
        ],
        "pollDivisionIds": [
          10138219
        ],
        "postalCode": "M9V4A7",
        "streetName": "DISAN",
        "streetDirectionId": null,
        "streetTypeId": "CRT",
        "placeName": "ETOBICOKE",
        "streetNameDisplayText": "DISAN CRT, ETOBICOKE"
      }
    ]
  },
  {
    "postal": "M9V4H9",
    "result": [
      {
        "electoralDistricts": [
          {
            "election": null,
            "id": 30,
            "name": "Etobicoke North"
          }
        ],
        "pollDivisionIds": [
          10138214
        ],
        "postalCode": "M9V4H9",
        "streetName": "MILKWOOD",
        "streetDirectionId": null,
        "streetTypeId": "AVE",
        "placeName": "ETOBICOKE",
        "streetNameDisplayText": "MILKWOOD AVE, ETOBICOKE"
      }
    ]
  },
  {
    "postal": "M9V6X1",
    "result": []
  },
  {
    "postal": "M9V9Y7",
    "result": []
  },
  {
    "postal": "M9V2Y5",
    "result": [
      {
        "electoralDistricts": [
          {
            "election": null,
            "id": 30,
            "name": "Etobicoke North"
          }
        ],
        "pollDivisionIds": [
          10138220
        ],
        "postalCode": "M9V2Y5",
        "streetName": "HARLOW",
        "streetDirectionId": null,
        "streetTypeId": "CRES",
        "placeName": "ETOBICOKE",
        "streetNameDisplayText": "HARLOW CRES, ETOBICOKE"
      }
    ]
  },
  {
    "postal": "M9V8L7",
    "result": []
  },
  {
    "postal": "M9V2A8",
    "result": [
      {
        "electoralDistricts": [
          {
            "election": null,
            "id": 30,
            "name": "Etobicoke North"
          }
        ],
        "pollDivisionIds": [
          10138224
        ],
        "postalCode": "M9V2A8",
        "streetName": "LITCHFIELD",
        "streetDirectionId": null,
        "streetTypeId": "CRT",
        "placeName": "ETOBICOKE",
        "streetNameDisplayText": "LITCHFIELD CRT, ETOBICOKE"
      }
    ]
  },
  {
    "postal": "M9V2K9",
    "result": [
      {
        "electoralDistricts": [
          {
            "election": null,
            "id": 30,
            "name": "Etobicoke North"
          }
        ],
        "pollDivisionIds": [
          10138222
        ],
        "postalCode": "M9V2K9",
        "streetName": "BEACONHILL",
        "streetDirectionId": null,
        "streetTypeId": "RD",
        "placeName": "ETOBICOKE",
        "streetNameDisplayText": "BEACONHILL RD, ETOBICOKE"
      }
    ]
  },
  {
    "postal": "M9V3E5",
    "result": [
      {
        "electoralDistricts": [
          {
            "election": null,
            "id": 30,
            "name": "Etobicoke North"
          }
        ],
        "pollDivisionIds": [
          10138215
        ],
        "postalCode": "M9V3E5",
        "streetName": "ORPINGTON",
        "streetDirectionId": null,
        "streetTypeId": "CRES",
        "placeName": "ETOBICOKE",
        "streetNameDisplayText": "ORPINGTON CRES, ETOBICOKE"
      }
    ]
  },
  {
    "postal": "M9V8N6",
    "result": []
  },
  {
    "postal": "M9V8J4",
    "result": []
  },
  {
    "postal": "M9V4R7",
    "result": [
      {
        "electoralDistricts": [
          {
            "election": null,
            "id": 30,
            "name": "Etobicoke North"
          }
        ],
        "pollDivisionIds": [
          10138214
        ],
        "postalCode": "M9V4R7",
        "streetName": "WOOLENSCOTE",
        "streetDirectionId": null,
        "streetTypeId": "CIR",
        "placeName": "ETOBICOKE",
        "streetNameDisplayText": "WOOLENSCOTE CIR, ETOBICOKE"
      }
    ]
  },
  {
    "postal": "M9V9K1",
    "result": []
  },
  {
    "postal": "M9V8E1",
    "result": []
  },
  {
    "postal": "M9V0R1",
    "result": []
  },
  {
    "postal": "M9V4J3",
    "result": [
      {
        "electoralDistricts": [
          {
            "election": null,
            "id": 30,
            "name": "Etobicoke North"
          }
        ],
        "pollDivisionIds": [
          10138214
        ],
        "postalCode": "M9V4J3",
        "streetName": "SHALOM",
        "streetDirectionId": null,
        "streetTypeId": "CRES",
        "placeName": "ETOBICOKE",
        "streetNameDisplayText": "SHALOM CRES, ETOBICOKE"
      }
    ]
  },
  {
    "postal": "M9V7E7",
    "result": []
  },
  {
    "postal": "M9V0J0",
    "result": []
  },
  {
    "postal": "M9V7R8",
    "result": []
  },
  {
    "postal": "M9V9X0",
    "result": []
  },
  {
    "postal": "M9V7P6",
    "result": []
  },
  {
    "postal": "M9V0R7",
    "result": []
  },
  {
    "postal": "M9V5W1",
    "result": []
  },
  {
    "postal": "M9V0K4",
    "result": []
  },
  {
    "postal": "M9V7N9",
    "result": []
  },
  {
    "postal": "M9V1N0",
    "result": []
  },
  {
    "postal": "M9V6P3",
    "result": []
  },
  {
    "postal": "M9V5A1",
    "result": [
      {
        "electoralDistricts": [
          {
            "election": null,
            "id": 30,
            "name": "Etobicoke North"
          }
        ],
        "pollDivisionIds": [
          10138224
        ],
        "postalCode": "M9V5A1",
        "streetName": "CABERNET",
        "streetDirectionId": null,
        "streetTypeId": "CIR",
        "placeName": "ETOBICOKE",
        "streetNameDisplayText": "CABERNET CIR, ETOBICOKE"
      }
    ]
  },
  {
    "postal": "M9V9M9",
    "result": []
  },
  {
    "postal": "M9V7T6",
    "result": []
  },
  {
    "postal": "M9V3X0",
    "result": []
  },
  {
    "postal": "M9V2T0",
    "result": []
  },
  {
    "postal": "M9V5X9",
    "result": []
  },
  {
    "postal": "M9V2R3",
    "result": [
      {
        "electoralDistricts": [
          {
            "election": null,
            "id": 30,
            "name": "Etobicoke North"
          }
        ],
        "pollDivisionIds": [
          10138219
        ],
        "postalCode": "M9V2R3",
        "streetName": "BANKFIELD",
        "streetDirectionId": null,
        "streetTypeId": "DR",
        "placeName": "ETOBICOKE",
        "streetNameDisplayText": "BANKFIELD DR, ETOBICOKE"
      }
    ]
  },
  {
    "postal": "M9V5N2",
    "result": []
  },
  {
    "postal": "M9V4Y7",
    "result": [
      {
        "electoralDistricts": [
          {
            "election": null,
            "id": 30,
            "name": "Etobicoke North"
          }
        ],
        "pollDivisionIds": [
          10138224
        ],
        "postalCode": "M9V4Y7",
        "streetName": "CABERNET",
        "streetDirectionId": null,
        "streetTypeId": "CIR",
        "placeName": "ETOBICOKE",
        "streetNameDisplayText": "CABERNET CIR, ETOBICOKE"
      }
    ]
  },
  {
    "postal": "M9V7M0",
    "result": []
  },
  {
    "postal": "M9V8P3",
    "result": []
  },
  {
    "postal": "M9V3N3",
    "result": [
      {
        "electoralDistricts": [
          {
            "election": null,
            "id": 30,
            "name": "Etobicoke North"
          }
        ],
        "pollDivisionIds": [
          10138215
        ],
        "postalCode": "M9V3N3",
        "streetName": "OPAL",
        "streetDirectionId": null,
        "streetTypeId": "CRT",
        "placeName": "ETOBICOKE",
        "streetNameDisplayText": "OPAL CRT, ETOBICOKE"
      }
    ]
  },
  {
    "postal": "M9V7S3",
    "result": []
  },
  {
    "postal": "M9V3V9",
    "result": [
      {
        "electoralDistricts": [
          {
            "election": null,
            "id": 30,
            "name": "Etobicoke North"
          }
        ],
        "pollDivisionIds": [
          10138224
        ],
        "postalCode": "M9V3V9",
        "streetName": "MARLEBON",
        "streetDirectionId": null,
        "streetTypeId": "RD",
        "placeName": "ETOBICOKE",
        "streetNameDisplayText": "MARLEBON RD, ETOBICOKE"
      }
    ]
  },
  {
    "postal": "M9V9N7",
    "result": []
  },
  {
    "postal": "M9V0G4",
    "result": []
  },
  {
    "postal": "M9V2E2",
    "result": [
      {
        "electoralDistricts": [
          {
            "election": null,
            "id": 30,
            "name": "Etobicoke North"
          }
        ],
        "pollDivisionIds": [
          10138223
        ],
        "postalCode": "M9V2E2",
        "streetName": "MOUNT OLIVE",
        "streetDirectionId": null,
        "streetTypeId": "DR",
        "placeName": "ETOBICOKE",
        "streetNameDisplayText": "MOUNT OLIVE DR, ETOBICOKE"
      }
    ]
  },
  {
    "postal": "M9V7W8",
    "result": []
  },
  {
    "postal": "M9V7M5",
    "result": []
  },
  {
    "postal": "M9V5W8",
    "result": []
  },
  {
    "postal": "M9V5E5",
    "result": [
      {
        "electoralDistricts": [
          {
            "election": null,
            "id": 30,
            "name": "Etobicoke North"
          }
        ],
        "pollDivisionIds": [
          10138221
        ],
        "postalCode": "M9V5E5",
        "streetName": "KIPLING",
        "streetDirectionId": null,
        "streetTypeId": "AVE",
        "placeName": "ETOBICOKE",
        "streetNameDisplayText": "KIPLING AVE, ETOBICOKE"
      }
    ]
  },
  {
    "postal": "M9V1P9",
    "result": [
      {
        "electoralDistricts": [
          {
            "election": null,
            "id": 30,
            "name": "Etobicoke North"
          }
        ],
        "pollDivisionIds": [
          10138215
        ],
        "postalCode": "M9V1P9",
        "streetName": "WARRENDALE",
        "streetDirectionId": null,
        "streetTypeId": "CRT",
        "placeName": "ETOBICOKE",
        "streetNameDisplayText": "WARRENDALE CRT, ETOBICOKE"
      },
      {
        "electoralDistricts": [
          {
            "election": null,
            "id": 30,
            "name": "Etobicoke North"
          }
        ],
        "pollDivisionIds": [
          10138215
        ],
        "postalCode": "M9V1P9",
        "streetName": "WARRENDALE",
        "streetDirectionId": null,
        "streetTypeId": "CRT",
        "placeName": "TORONTO",
        "streetNameDisplayText": "WARRENDALE CRT, TORONTO"
      }
    ]
  },
  {
    "postal": "M9V8V8",
    "result": []
  },
  {
    "postal": "M9V9G8",
    "result": []
  },
  {
    "postal": "M9V8H9",
    "result": []
  },
  {
    "postal": "M9V1Z1",
    "result": [
      {
        "electoralDistricts": [
          {
            "election": null,
            "id": 30,
            "name": "Etobicoke North"
          }
        ],
        "pollDivisionIds": [
          10138220
        ],
        "postalCode": "M9V1Z1",
        "streetName": "AMARON",
        "streetDirectionId": null,
        "streetTypeId": "AVE",
        "placeName": "ETOBICOKE",
        "streetNameDisplayText": "AMARON AVE, ETOBICOKE"
      }
    ]
  },
  {
    "postal": "M9V8M3",
    "result": []
  },
  {
    "postal": "M9V5H6",
    "result": [
      {
        "electoralDistricts": [
          {
            "election": null,
            "id": 30,
            "name": "Etobicoke North"
          }
        ],
        "pollDivisionIds": [
          10138224
        ],
        "postalCode": "M9V5H6",
        "streetName": "ROYAL CREST",
        "streetDirectionId": null,
        "streetTypeId": "RD",
        "placeName": "ETOBICOKE",
        "streetNameDisplayText": "ROYAL CREST RD, ETOBICOKE"
      },
      {
        "electoralDistricts": [
          {
            "election": null,
            "id": 30,
            "name": "Etobicoke North"
          }
        ],
        "pollDivisionIds": [
          10138224
        ],
        "postalCode": "M9V5H6",
        "streetName": "ROYALCREST",
        "streetDirectionId": null,
        "streetTypeId": "RD",
        "placeName": "ETOBICOKE",
        "streetNameDisplayText": "ROYALCREST RD, ETOBICOKE"
      }
    ]
  },
  {
    "postal": "M9V7W7",
    "result": []
  },
  {
    "postal": "M9V4L0",
    "result": []
  },
  {
    "postal": "M9V2N1",
    "result": [
      {
        "electoralDistricts": [
          {
            "election": null,
            "id": 30,
            "name": "Etobicoke North"
          }
        ],
        "pollDivisionIds": [
          10138219
        ],
        "postalCode": "M9V2N1",
        "streetName": "ALHART",
        "streetDirectionId": null,
        "streetTypeId": "DR",
        "placeName": "ETOBICOKE",
        "streetNameDisplayText": "ALHART DR, ETOBICOKE"
      }
    ]
  },
  {
    "postal": "M9V2H4",
    "result": [
      {
        "electoralDistricts": [
          {
            "election": null,
            "id": 30,
            "name": "Etobicoke North"
          }
        ],
        "pollDivisionIds": [
          10138223
        ],
        "postalCode": "M9V2H4",
        "streetName": "STRATHAVON",
        "streetDirectionId": null,
        "streetTypeId": "DR",
        "placeName": "ETOBICOKE",
        "streetNameDisplayText": "STRATHAVON DR, ETOBICOKE"
      }
    ]
  },
  {
    "postal": "M9V5C8",
    "result": [
      {
        "electoralDistricts": [
          {
            "election": null,
            "id": 30,
            "name": "Etobicoke North"
          }
        ],
        "pollDivisionIds": [
          10138215
        ],
        "postalCode": "M9V5C8",
        "streetName": "JOHN GARLAND",
        "streetDirectionId": null,
        "streetTypeId": "BLVD",
        "placeName": "ETOBICOKE",
        "streetNameDisplayText": "JOHN GARLAND BLVD, ETOBICOKE"
      }
    ]
  },
  {
    "postal": "M9V8B0",
    "result": []
  },
  {
    "postal": "M9V1T4",
    "result": [
      {
        "electoralDistricts": [
          {
            "election": null,
            "id": 30,
            "name": "Etobicoke North"
          }
        ],
        "pollDivisionIds": [
          10138215
        ],
        "postalCode": "M9V1T4",
        "streetName": "FINCH",
        "streetDirectionId": "W",
        "streetTypeId": "AVE",
        "placeName": "ETOBICOKE",
        "streetNameDisplayText": "FINCH AVE W, ETOBICOKE"
      }
    ]
  },
  {
    "postal": "M9V7N7",
    "result": []
  },
  {
    "postal": "M9V4L3",
    "result": [
      {
        "electoralDistricts": [
          {
            "election": null,
            "id": 30,
            "name": "Etobicoke North"
          }
        ],
        "pollDivisionIds": [
          10138222
        ],
        "postalCode": "M9V4L3",
        "streetName": "KIDRON VALLEY",
        "streetDirectionId": null,
        "streetTypeId": "DR",
        "placeName": "ETOBICOKE",
        "streetNameDisplayText": "KIDRON VALLEY DR, ETOBICOKE"
      }
    ]
  },
  {
    "postal": "M9V2N2",
    "result": [
      {
        "electoralDistricts": [
          {
            "election": null,
            "id": 30,
            "name": "Etobicoke North"
          }
        ],
        "pollDivisionIds": [
          10138219
        ],
        "postalCode": "M9V2N2",
        "streetName": "ALHART",
        "streetDirectionId": null,
        "streetTypeId": "DR",
        "placeName": "ETOBICOKE",
        "streetNameDisplayText": "ALHART DR, ETOBICOKE"
      }
    ]
  },
  {
    "postal": "M9V4N8",
    "result": [
      {
        "electoralDistricts": [
          {
            "election": null,
            "id": 30,
            "name": "Etobicoke North"
          }
        ],
        "pollDivisionIds": [
          10138215
        ],
        "postalCode": "M9V4N8",
        "streetName": "NOTTAWASAGA",
        "streetDirectionId": null,
        "streetTypeId": "CRT",
        "placeName": "ETOBICOKE",
        "streetNameDisplayText": "NOTTAWASAGA CRT, ETOBICOKE"
      }
    ]
  },
  {
    "postal": "M9V3M5",
    "result": [
      {
        "electoralDistricts": [
          {
            "election": null,
            "id": 30,
            "name": "Etobicoke North"
          }
        ],
        "pollDivisionIds": [
          10138215
        ],
        "postalCode": "M9V3M5",
        "streetName": "JAMESTOWN",
        "streetDirectionId": null,
        "streetTypeId": "CRES",
        "placeName": "ETOBICOKE",
        "streetNameDisplayText": "JAMESTOWN CRES, ETOBICOKE"
      }
    ]
  },
  {
    "postal": "M9V6H7",
    "result": []
  },
  {
    "postal": "M9V8Y8",
    "result": []
  },
  {
    "postal": "M9V5R9",
    "result": []
  },
  {
    "postal": "M9V8G3",
    "result": []
  },
  {
    "postal": "M9V4N7",
    "result": [
      {
        "electoralDistricts": [
          {
            "election": null,
            "id": 30,
            "name": "Etobicoke North"
          }
        ],
        "pollDivisionIds": [
          10138215
        ],
        "postalCode": "M9V4N7",
        "streetName": "NOTTAWASAGA",
        "streetDirectionId": null,
        "streetTypeId": "CRT",
        "placeName": "ETOBICOKE",
        "streetNameDisplayText": "NOTTAWASAGA CRT, ETOBICOKE"
      }
    ]
  },
  {
    "postal": "M9V0B9",
    "result": []
  },
  {
    "postal": "M9V9K7",
    "result": []
  },
  {
    "postal": "M9V9K9",
    "result": []
  },
  {
    "postal": "M9V3Z2",
    "result": [
      {
        "electoralDistricts": [
          {
            "election": null,
            "id": 30,
            "name": "Etobicoke North"
          }
        ],
        "pollDivisionIds": [
          10138224
        ],
        "postalCode": "M9V3Z2",
        "streetName": "BAYWOOD",
        "streetDirectionId": null,
        "streetTypeId": "RD",
        "placeName": "ETOBICOKE",
        "streetNameDisplayText": "BAYWOOD RD, ETOBICOKE"
      }
    ]
  },
  {
    "postal": "M9V6W7",
    "result": []
  },
  {
    "postal": "M9V0P1",
    "result": []
  },
  {
    "postal": "M9V3A0",
    "result": []
  },
  {
    "postal": "M9V8L9",
    "result": []
  },
  {
    "postal": "M9V6X0",
    "result": []
  },
  {
    "postal": "M9V3E9",
    "result": [
      {
        "electoralDistricts": [
          {
            "election": null,
            "id": 30,
            "name": "Etobicoke North"
          }
        ],
        "pollDivisionIds": [
          10138215
        ],
        "postalCode": "M9V3E9",
        "streetName": "DAVISTOW",
        "streetDirectionId": null,
        "streetTypeId": "CRES",
        "placeName": "ETOBICOKE",
        "streetNameDisplayText": "DAVISTOW CRES, ETOBICOKE"
      }
    ]
  },
  {
    "postal": "M9V0S5",
    "result": []
  },
  {
    "postal": "M9V1A2",
    "result": [
      {
        "electoralDistricts": [
          {
            "election": null,
            "id": 30,
            "name": "Etobicoke North"
          }
        ],
        "pollDivisionIds": [
          10138216
        ],
        "postalCode": "M9V1A2",
        "streetName": "ALBION",
        "streetDirectionId": null,
        "streetTypeId": "RD",
        "placeName": "ETOBICOKE",
        "streetNameDisplayText": "ALBION RD, ETOBICOKE"
      }
    ]
  },
  {
    "postal": "M9V5V8",
    "result": []
  },
  {
    "postal": "M9V8C5",
    "result": []
  },
  {
    "postal": "M9V6N0",
    "result": []
  },
  {
    "postal": "M9V9E6",
    "result": []
  },
  {
    "postal": "M9V5J7",
    "result": []
  },
  {
    "postal": "M9V2R2",
    "result": [
      {
        "electoralDistricts": [
          {
            "election": null,
            "id": 30,
            "name": "Etobicoke North"
          }
        ],
        "pollDivisionIds": [
          10138219
        ],
        "postalCode": "M9V2R2",
        "streetName": "BANKFIELD",
        "streetDirectionId": null,
        "streetTypeId": "DR",
        "placeName": "ETOBICOKE",
        "streetNameDisplayText": "BANKFIELD DR, ETOBICOKE"
      }
    ]
  },
  {
    "postal": "M9V0P5",
    "result": []
  },
  {
    "postal": "M9V5A7",
    "result": [
      {
        "electoralDistricts": [
          {
            "election": null,
            "id": 30,
            "name": "Etobicoke North"
          }
        ],
        "pollDivisionIds": [
          10138224
        ],
        "postalCode": "M9V5A7",
        "streetName": "MOSELLE",
        "streetDirectionId": null,
        "streetTypeId": "DR",
        "placeName": "ETOBICOKE",
        "streetNameDisplayText": "MOSELLE DR, ETOBICOKE"
      }
    ]
  },
  {
    "postal": "M9V1G1",
    "result": [
      {
        "electoralDistricts": [
          {
            "election": null,
            "id": 30,
            "name": "Etobicoke North"
          }
        ],
        "pollDivisionIds": [
          10138216
        ],
        "postalCode": "M9V1G1",
        "streetName": "LUND",
        "streetDirectionId": null,
        "streetTypeId": "AVE",
        "placeName": "ETOBICOKE",
        "streetNameDisplayText": "LUND AVE, ETOBICOKE"
      }
    ]
  },
  {
    "postal": "M9V9R6",
    "result": []
  },
  {
    "postal": "M9V4Z9",
    "result": [
      {
        "electoralDistricts": [
          {
            "election": null,
            "id": 30,
            "name": "Etobicoke North"
          }
        ],
        "pollDivisionIds": [
          10138224
        ],
        "postalCode": "M9V4Z9",
        "streetName": "CHIANTI",
        "streetDirectionId": null,
        "streetTypeId": "SQ",
        "placeName": "ETOBICOKE",
        "streetNameDisplayText": "CHIANTI SQ, ETOBICOKE"
      }
    ]
  },
  {
    "postal": "M9V1V5",
    "result": [
      {
        "electoralDistricts": [
          {
            "election": null,
            "id": 30,
            "name": "Etobicoke North"
          }
        ],
        "pollDivisionIds": [
          10138215
        ],
        "postalCode": "M9V1V5",
        "streetName": "KENDLETON",
        "streetDirectionId": null,
        "streetTypeId": "DR",
        "placeName": "ETOBICOKE",
        "streetNameDisplayText": "KENDLETON DR, ETOBICOKE"
      }
    ]
  },
  {
    "postal": "M9V9Y5",
    "result": []
  },
  {
    "postal": "M9V1P2",
    "result": [
      {
        "electoralDistricts": [
          {
            "election": null,
            "id": 30,
            "name": "Etobicoke North"
          }
        ],
        "pollDivisionIds": [
          10138214
        ],
        "postalCode": "M9V1P2",
        "streetName": "HUMBER COLLEGE",
        "streetDirectionId": null,
        "streetTypeId": "BLVD",
        "placeName": "ETOBICOKE",
        "streetNameDisplayText": "HUMBER COLLEGE BLVD, ETOBICOKE"
      }
    ]
  },
  {
    "postal": "M9V5X0",
    "result": []
  },
  {
    "postal": "M9V7B8",
    "result": []
  },
  {
    "postal": "M9V0C6",
    "result": []
  },
  {
    "postal": "M9V6G1",
    "result": []
  },
  {
    "postal": "M9V3K3",
    "result": [
      {
        "electoralDistricts": [
          {
            "election": null,
            "id": 30,
            "name": "Etobicoke North"
          }
        ],
        "pollDivisionIds": [
          10138224
        ],
        "postalCode": "M9V3K3",
        "streetName": "SILVERSTONE",
        "streetDirectionId": null,
        "streetTypeId": "DR",
        "placeName": "ETOBICOKE",
        "streetNameDisplayText": "SILVERSTONE DR, ETOBICOKE"
      }
    ]
  },
  {
    "postal": "M9V9R0",
    "result": []
  },
  {
    "postal": "M9V4R8",
    "result": [
      {
        "electoralDistricts": [
          {
            "election": null,
            "id": 30,
            "name": "Etobicoke North"
          }
        ],
        "pollDivisionIds": [
          10138214
        ],
        "postalCode": "M9V4R8",
        "streetName": "WOOLENSCOTE",
        "streetDirectionId": null,
        "streetTypeId": "CIR",
        "placeName": "ETOBICOKE",
        "streetNameDisplayText": "WOOLENSCOTE CIR, ETOBICOKE"
      }
    ]
  },
  {
    "postal": "M9V5P9",
    "result": []
  },
  {
    "postal": "M9V8N4",
    "result": []
  },
  {
    "postal": "M9V8H4",
    "result": []
  },
  {
    "postal": "M9V4V1",
    "result": [
      {
        "electoralDistricts": [
          {
            "election": null,
            "id": 30,
            "name": "Etobicoke North"
          }
        ],
        "pollDivisionIds": [
          10138222
        ],
        "postalCode": "M9V4V1",
        "streetName": "GIHON SPRING",
        "streetDirectionId": null,
        "streetTypeId": "DR",
        "placeName": "ETOBICOKE",
        "streetNameDisplayText": "GIHON SPRING DR, ETOBICOKE"
      }
    ]
  },
  {
    "postal": "M9V1K5",
    "result": [
      {
        "electoralDistricts": [
          {
            "election": null,
            "id": 30,
            "name": "Etobicoke North"
          }
        ],
        "pollDivisionIds": [
          10138219
        ],
        "postalCode": "M9V1K5",
        "streetName": "THISTLE DOWN",
        "streetDirectionId": null,
        "streetTypeId": "BLVD",
        "placeName": "ETOBICOKE",
        "streetNameDisplayText": "THISTLE DOWN BLVD, ETOBICOKE"
      }
    ]
  },
  {
    "postal": "M9V1Z5",
    "result": [
      {
        "electoralDistricts": [
          {
            "election": null,
            "id": 30,
            "name": "Etobicoke North"
          }
        ],
        "pollDivisionIds": [
          10138224
        ],
        "postalCode": "M9V1Z5",
        "streetName": "BANDA",
        "streetDirectionId": null,
        "streetTypeId": "SQ",
        "placeName": "ETOBICOKE",
        "streetNameDisplayText": "BANDA SQ, ETOBICOKE"
      }
    ]
  },
  {
    "postal": "M9V9L9",
    "result": []
  },
  {
    "postal": "M9V5L2",
    "result": []
  },
  {
    "postal": "M9V0M2",
    "result": []
  },
  {
    "postal": "M9V1K8",
    "result": [
      {
        "electoralDistricts": [
          {
            "election": null,
            "id": 30,
            "name": "Etobicoke North"
          }
        ],
        "pollDivisionIds": [
          10138219
        ],
        "postalCode": "M9V1K8",
        "streetName": "LADYWOOD",
        "streetDirectionId": null,
        "streetTypeId": "DR",
        "placeName": "ETOBICOKE",
        "streetNameDisplayText": "LADYWOOD DR, ETOBICOKE"
      }
    ]
  },
  {
    "postal": "M9V3M7",
    "result": [
      {
        "electoralDistricts": [
          {
            "election": null,
            "id": 30,
            "name": "Etobicoke North"
          }
        ],
        "pollDivisionIds": [
          10138215
        ],
        "postalCode": "M9V3M7",
        "streetName": "JAMESTOWN",
        "streetDirectionId": null,
        "streetTypeId": "CRES",
        "placeName": "ETOBICOKE",
        "streetNameDisplayText": "JAMESTOWN CRES, ETOBICOKE"
      }
    ]
  },
  {
    "postal": "M9V1B2",
    "result": [
      {
        "electoralDistricts": [
          {
            "election": null,
            "id": 30,
            "name": "Etobicoke North"
          }
        ],
        "pollDivisionIds": [
          10138215
        ],
        "postalCode": "M9V1B2",
        "streetName": "ALBION",
        "streetDirectionId": null,
        "streetTypeId": "RD",
        "placeName": "ETOBICOKE",
        "streetNameDisplayText": "ALBION RD, ETOBICOKE"
      }
    ]
  },
  {
    "postal": "M9V0H9",
    "result": []
  },
  {
    "postal": "M9V8M4",
    "result": []
  },
  {
    "postal": "M9V2M5",
    "result": [
      {
        "electoralDistricts": [
          {
            "election": null,
            "id": 30,
            "name": "Etobicoke North"
          }
        ],
        "pollDivisionIds": [
          10138219
        ],
        "postalCode": "M9V2M5",
        "streetName": "BRIDGENORTH",
        "streetDirectionId": null,
        "streetTypeId": "CRES",
        "placeName": "ETOBICOKE",
        "streetNameDisplayText": "BRIDGENORTH CRES, ETOBICOKE"
      }
    ]
  },
  {
    "postal": "M9V0T9",
    "result": []
  },
  {
    "postal": "M9V3P1",
    "result": [
      {
        "electoralDistricts": [
          {
            "election": null,
            "id": 30,
            "name": "Etobicoke North"
          }
        ],
        "pollDivisionIds": [
          10138223
        ],
        "postalCode": "M9V3P1",
        "streetName": "BLACKBUSH",
        "streetDirectionId": null,
        "streetTypeId": "DR",
        "placeName": "ETOBICOKE",
        "streetNameDisplayText": "BLACKBUSH DR, ETOBICOKE"
      }
    ]
  },
  {
    "postal": "M9V1R6",
    "result": [
      {
        "electoralDistricts": [
          {
            "election": null,
            "id": 30,
            "name": "Etobicoke North"
          }
        ],
        "pollDivisionIds": [
          10138215
        ],
        "postalCode": "M9V1R6",
        "streetName": "SANAGAN",
        "streetDirectionId": null,
        "streetTypeId": "RD",
        "placeName": "ETOBICOKE",
        "streetNameDisplayText": "SANAGAN RD, ETOBICOKE"
      }
    ]
  },
  {
    "postal": "M9V9V5",
    "result": []
  },
  {
    "postal": "M9V9T0",
    "result": []
  },
  {
    "postal": "M9V0A9",
    "result": []
  },
  {
    "postal": "M9V1M3",
    "result": [
      {
        "electoralDistricts": [
          {
            "election": null,
            "id": 30,
            "name": "Etobicoke North"
          }
        ],
        "pollDivisionIds": [
          10138214
        ],
        "postalCode": "M9V1M3",
        "streetName": "MOSSWOOD",
        "streetDirectionId": null,
        "streetTypeId": "LANE",
        "placeName": "ETOBICOKE",
        "streetNameDisplayText": "MOSSWOOD LANE, ETOBICOKE"
      }
    ]
  },
  {
    "postal": "M9V1W8",
    "result": [
      {
        "electoralDistricts": [
          {
            "election": null,
            "id": 30,
            "name": "Etobicoke North"
          }
        ],
        "pollDivisionIds": [
          10138220
        ],
        "postalCode": "M9V1W8",
        "streetName": "TAYSHAM",
        "streetDirectionId": null,
        "streetTypeId": "CRES",
        "placeName": "ETOBICOKE",
        "streetNameDisplayText": "TAYSHAM CRES, ETOBICOKE"
      }
    ]
  },
  {
    "postal": "M9V9J1",
    "result": []
  },
  {
    "postal": "M9V8N5",
    "result": []
  },
  {
    "postal": "M9V5X1",
    "result": []
  },
  {
    "postal": "M9V6S2",
    "result": []
  },
  {
    "postal": "M9V2A2",
    "result": [
      {
        "electoralDistricts": [
          {
            "election": null,
            "id": 30,
            "name": "Etobicoke North"
          }
        ],
        "pollDivisionIds": [
          10138224
        ],
        "postalCode": "M9V2A2",
        "streetName": "DUNTROON",
        "streetDirectionId": null,
        "streetTypeId": "CRES",
        "placeName": "ETOBICOKE",
        "streetNameDisplayText": "DUNTROON CRES, ETOBICOKE"
      }
    ]
  },
  {
    "postal": "M9V6A6",
    "result": []
  },
  {
    "postal": "M9V0S3",
    "result": []
  },
  {
    "postal": "M9V3E7",
    "result": [
      {
        "electoralDistricts": [
          {
            "election": null,
            "id": 30,
            "name": "Etobicoke North"
          }
        ],
        "pollDivisionIds": [
          10138215
        ],
        "postalCode": "M9V3E7",
        "streetName": "ORPINGTON",
        "streetDirectionId": null,
        "streetTypeId": "CRES",
        "placeName": "ETOBICOKE",
        "streetNameDisplayText": "ORPINGTON CRES, ETOBICOKE"
      }
    ]
  },
  {
    "postal": "M9V5R7",
    "result": []
  },
  {
    "postal": "M9V3R6",
    "result": [
      {
        "electoralDistricts": [
          {
            "election": null,
            "id": 30,
            "name": "Etobicoke North"
          }
        ],
        "pollDivisionIds": [
          10138223
        ],
        "postalCode": "M9V3R6",
        "streetName": "BURBAGE",
        "streetDirectionId": null,
        "streetTypeId": "CRT",
        "placeName": "ETOBICOKE",
        "streetNameDisplayText": "BURBAGE CRT, ETOBICOKE"
      }
    ]
  },
  {
    "postal": "M9V6K4",
    "result": []
  },
  {
    "postal": "M9V2W5",
    "result": [
      {
        "electoralDistricts": [
          {
            "election": null,
            "id": 30,
            "name": "Etobicoke North"
          }
        ],
        "pollDivisionIds": [
          10138219
        ],
        "postalCode": "M9V2W5",
        "streetName": "BARKWIN",
        "streetDirectionId": null,
        "streetTypeId": "DR",
        "placeName": "ETOBICOKE",
        "streetNameDisplayText": "BARKWIN DR, ETOBICOKE"
      }
    ]
  },
  {
    "postal": "M9V8W4",
    "result": []
  },
  {
    "postal": "M9V9C2",
    "result": []
  },
  {
    "postal": "M9V2C0",
    "result": []
  },
  {
    "postal": "M9V0E1",
    "result": []
  },
  {
    "postal": "M9V1K9",
    "result": [
      {
        "electoralDistricts": [
          {
            "election": null,
            "id": 30,
            "name": "Etobicoke North"
          }
        ],
        "pollDivisionIds": [
          10138219
        ],
        "postalCode": "M9V1K9",
        "streetName": "LADYWOOD",
        "streetDirectionId": null,
        "streetTypeId": "DR",
        "placeName": "ETOBICOKE",
        "streetNameDisplayText": "LADYWOOD DR, ETOBICOKE"
      }
    ]
  },
  {
    "postal": "M9V1G7",
    "result": [
      {
        "electoralDistricts": [
          {
            "election": null,
            "id": 30,
            "name": "Etobicoke North"
          }
        ],
        "pollDivisionIds": [
          10138219
        ],
        "postalCode": "M9V1G7",
        "streetName": "CALSTOCK",
        "streetDirectionId": null,
        "streetTypeId": "DR",
        "placeName": "ETOBICOKE",
        "streetNameDisplayText": "CALSTOCK DR, ETOBICOKE"
      }
    ]
  },
  {
    "postal": "M9V4E9",
    "result": [
      {
        "electoralDistricts": [
          {
            "election": null,
            "id": 30,
            "name": "Etobicoke North"
          }
        ],
        "pollDivisionIds": [
          10138224
        ],
        "postalCode": "M9V4E9",
        "streetName": "DAMASCUS",
        "streetDirectionId": null,
        "streetTypeId": "DR",
        "placeName": "ETOBICOKE",
        "streetNameDisplayText": "DAMASCUS DR, ETOBICOKE"
      }
    ]
  },
  {
    "postal": "M9V9P0",
    "result": []
  },
  {
    "postal": "M9V5H3",
    "result": [
      {
        "electoralDistricts": [
          {
            "election": null,
            "id": 30,
            "name": "Etobicoke North"
          }
        ],
        "pollDivisionIds": [
          55209,
          10138220
        ],
        "postalCode": "M9V5H3",
        "streetName": "ISLINGTON",
        "streetDirectionId": null,
        "streetTypeId": "AVE",
        "placeName": "ETOBICOKE",
        "streetNameDisplayText": "ISLINGTON AVE, ETOBICOKE"
      }
    ]
  },
  {
    "postal": "M9V9X6",
    "result": []
  },
  {
    "postal": "M9V5N7",
    "result": []
  },
  {
    "postal": "M9V5A6",
    "result": [
      {
        "electoralDistricts": [
          {
            "election": null,
            "id": 30,
            "name": "Etobicoke North"
          }
        ],
        "pollDivisionIds": [
          10138224
        ],
        "postalCode": "M9V5A6",
        "streetName": "MOSELLE",
        "streetDirectionId": null,
        "streetTypeId": "DR",
        "placeName": "ETOBICOKE",
        "streetNameDisplayText": "MOSELLE DR, ETOBICOKE"
      }
    ]
  },
  {
    "postal": "M9V4M0",
    "result": []
  },
  {
    "postal": "M9V3V6",
    "result": [
      {
        "electoralDistricts": [
          {
            "election": null,
            "id": 30,
            "name": "Etobicoke North"
          }
        ],
        "pollDivisionIds": [
          10138224
        ],
        "postalCode": "M9V3V6",
        "streetName": "RATHLYN",
        "streetDirectionId": null,
        "streetTypeId": "CRT",
        "placeName": "ETOBICOKE",
        "streetNameDisplayText": "RATHLYN CRT, ETOBICOKE"
      }
    ]
  },
  {
    "postal": "M9V1L7",
    "result": [
      {
        "electoralDistricts": [
          {
            "election": null,
            "id": 30,
            "name": "Etobicoke North"
          }
        ],
        "pollDivisionIds": [
          10138214
        ],
        "postalCode": "M9V1L7",
        "streetName": "TURNVALE",
        "streetDirectionId": null,
        "streetTypeId": "RD",
        "placeName": "ETOBICOKE",
        "streetNameDisplayText": "TURNVALE RD, ETOBICOKE"
      }
    ]
  },
  {
    "postal": "M9V2P9",
    "result": [
      {
        "electoralDistricts": [
          {
            "election": null,
            "id": 30,
            "name": "Etobicoke North"
          }
        ],
        "pollDivisionIds": [
          10138219
        ],
        "postalCode": "M9V2P9",
        "streetName": "BANKFIELD",
        "streetDirectionId": null,
        "streetTypeId": "DR",
        "placeName": "ETOBICOKE",
        "streetNameDisplayText": "BANKFIELD DR, ETOBICOKE"
      }
    ]
  },
  {
    "postal": "M9V5T4",
    "result": []
  },
  {
    "postal": "M9V5Z1",
    "result": []
  },
  {
    "postal": "M9V2X0",
    "result": []
  },
  {
    "postal": "M9V6Z2",
    "result": []
  },
  {
    "postal": "M9V0E0",
    "result": []
  },
  {
    "postal": "M9V3Z5",
    "result": [
      {
        "electoralDistricts": [
          {
            "election": null,
            "id": 30,
            "name": "Etobicoke North"
          }
        ],
        "pollDivisionIds": [
          10138223,
          10138222
        ],
        "postalCode": "M9V3Z5",
        "streetName": "MOUNT OLIVE",
        "streetDirectionId": null,
        "streetTypeId": "DR",
        "placeName": "ETOBICOKE",
        "streetNameDisplayText": "MOUNT OLIVE DR, ETOBICOKE"
      }
    ]
  },
  {
    "postal": "M9V8H3",
    "result": []
  },
  {
    "postal": "M9V7S6",
    "result": []
  },
  {
    "postal": "M9V4C1",
    "result": [
      {
        "electoralDistricts": [
          {
            "election": null,
            "id": 30,
            "name": "Etobicoke North"
          }
        ],
        "pollDivisionIds": [
          10138224
        ],
        "postalCode": "M9V4C1",
        "streetName": "ROYALCREST",
        "streetDirectionId": null,
        "streetTypeId": "RD",
        "placeName": "ETOBICOKE",
        "streetNameDisplayText": "ROYALCREST RD, ETOBICOKE"
      }
    ]
  },
  {
    "postal": "M9V3K2",
    "result": [
      {
        "electoralDistricts": [
          {
            "election": null,
            "id": 30,
            "name": "Etobicoke North"
          }
        ],
        "pollDivisionIds": [
          10138224
        ],
        "postalCode": "M9V3K2",
        "streetName": "SILVERSTONE",
        "streetDirectionId": null,
        "streetTypeId": "DR",
        "placeName": "ETOBICOKE",
        "streetNameDisplayText": "SILVERSTONE DR, ETOBICOKE"
      }
    ]
  },
  {
    "postal": "M9V1Y5",
    "result": [
      {
        "electoralDistricts": [
          {
            "election": null,
            "id": 30,
            "name": "Etobicoke North"
          }
        ],
        "pollDivisionIds": [
          10138220
        ],
        "postalCode": "M9V1Y5",
        "streetName": "PENLEA",
        "streetDirectionId": null,
        "streetTypeId": "AVE",
        "placeName": "ETOBICOKE",
        "streetNameDisplayText": "PENLEA AVE, ETOBICOKE"
      }
    ]
  },
  {
    "postal": "M9V6P6",
    "result": []
  },
  {
    "postal": "M9V3N9",
    "result": [
      {
        "electoralDistricts": [
          {
            "election": null,
            "id": 30,
            "name": "Etobicoke North"
          }
        ],
        "pollDivisionIds": [
          10138223
        ],
        "postalCode": "M9V3N9",
        "streetName": "BLACKBUSH",
        "streetDirectionId": null,
        "streetTypeId": "DR",
        "placeName": "ETOBICOKE",
        "streetNameDisplayText": "BLACKBUSH DR, ETOBICOKE"
      }
    ]
  },
  {
    "postal": "M9V3W2",
    "result": [
      {
        "electoralDistricts": [
          {
            "election": null,
            "id": 30,
            "name": "Etobicoke North"
          }
        ],
        "pollDivisionIds": [
          10138224
        ],
        "postalCode": "M9V3W2",
        "streetName": "MARLEBON",
        "streetDirectionId": null,
        "streetTypeId": "RD",
        "placeName": "ETOBICOKE",
        "streetNameDisplayText": "MARLEBON RD, ETOBICOKE"
      }
    ]
  },
  {
    "postal": "M9V6H8",
    "result": []
  },
  {
    "postal": "M9V9T3",
    "result": []
  },
  {
    "postal": "M9V5L9",
    "result": []
  },
  {
    "postal": "M9V7X7",
    "result": []
  },
  {
    "postal": "M9V3J5",
    "result": [
      {
        "electoralDistricts": [
          {
            "election": null,
            "id": 30,
            "name": "Etobicoke North"
          }
        ],
        "pollDivisionIds": [
          10138223
        ],
        "postalCode": "M9V3J5",
        "streetName": "STEVENSON",
        "streetDirectionId": null,
        "streetTypeId": "RD",
        "placeName": "ETOBICOKE",
        "streetNameDisplayText": "STEVENSON RD, ETOBICOKE"
      }
    ]
  },
  {
    "postal": "M9V4J5",
    "result": [
      {
        "electoralDistricts": [
          {
            "election": null,
            "id": 30,
            "name": "Etobicoke North"
          }
        ],
        "pollDivisionIds": [
          10138214
        ],
        "postalCode": "M9V4J5",
        "streetName": "STONECROP",
        "streetDirectionId": null,
        "streetTypeId": "LANE",
        "placeName": "ETOBICOKE",
        "streetNameDisplayText": "STONECROP LANE, ETOBICOKE"
      }
    ]
  },
  {
    "postal": "M9V6J2",
    "result": []
  },
  {
    "postal": "M9V5V6",
    "result": []
  },
  {
    "postal": "M9V3N2",
    "result": [
      {
        "electoralDistricts": [
          {
            "election": null,
            "id": 30,
            "name": "Etobicoke North"
          }
        ],
        "pollDivisionIds": [
          10138215
        ],
        "postalCode": "M9V3N2",
        "streetName": "OPAL",
        "streetDirectionId": null,
        "streetTypeId": "CRT",
        "placeName": "ETOBICOKE",
        "streetNameDisplayText": "OPAL CRT, ETOBICOKE"
      }
    ]
  },
  {
    "postal": "M9V3B1",
    "result": [
      {
        "electoralDistricts": [
          {
            "election": null,
            "id": 30,
            "name": "Etobicoke North"
          }
        ],
        "pollDivisionIds": [
          10138223
        ],
        "postalCode": "M9V3B1",
        "streetName": "KIPLING",
        "streetDirectionId": null,
        "streetTypeId": "AVE",
        "placeName": "ETOBICOKE",
        "streetNameDisplayText": "KIPLING AVE, ETOBICOKE"
      }
    ]
  },
  {
    "postal": "M9V8B5",
    "result": []
  },
  {
    "postal": "M9V0K1",
    "result": []
  },
  {
    "postal": "M9V7M7",
    "result": []
  },
  {
    "postal": "M9V2M2",
    "result": [
      {
        "electoralDistricts": [
          {
            "election": null,
            "id": 30,
            "name": "Etobicoke North"
          }
        ],
        "pollDivisionIds": [
          10138219
        ],
        "postalCode": "M9V2M2",
        "streetName": "KENHILL",
        "streetDirectionId": null,
        "streetTypeId": "DR",
        "placeName": "ETOBICOKE",
        "streetNameDisplayText": "KENHILL DR, ETOBICOKE"
      }
    ]
  },
  {
    "postal": "M9V9N3",
    "result": []
  },
  {
    "postal": "M9V4Y8",
    "result": [
      {
        "electoralDistricts": [
          {
            "election": null,
            "id": 30,
            "name": "Etobicoke North"
          }
        ],
        "pollDivisionIds": [
          10138224
        ],
        "postalCode": "M9V4Y8",
        "streetName": "CABERNET",
        "streetDirectionId": null,
        "streetTypeId": "CIR",
        "placeName": "ETOBICOKE",
        "streetNameDisplayText": "CABERNET CIR, ETOBICOKE"
      }
    ]
  },
  {
    "postal": "M9V3V7",
    "result": [
      {
        "electoralDistricts": [
          {
            "election": null,
            "id": 30,
            "name": "Etobicoke North"
          }
        ],
        "pollDivisionIds": [
          10138224
        ],
        "postalCode": "M9V3V7",
        "streetName": "RATHLYN",
        "streetDirectionId": null,
        "streetTypeId": "CRT",
        "placeName": "ETOBICOKE",
        "streetNameDisplayText": "RATHLYN CRT, ETOBICOKE"
      }
    ]
  },
  {
    "postal": "M9V8Z1",
    "result": []
  },
  {
    "postal": "M9V7B3",
    "result": []
  },
  {
    "postal": "M9V3A8",
    "result": [
      {
        "electoralDistricts": [
          {
            "election": null,
            "id": 30,
            "name": "Etobicoke North"
          }
        ],
        "pollDivisionIds": [
          10138220
        ],
        "postalCode": "M9V3A8",
        "streetName": "KIPLING",
        "streetDirectionId": null,
        "streetTypeId": "AVE",
        "placeName": "ETOBICOKE",
        "streetNameDisplayText": "KIPLING AVE, ETOBICOKE"
      }
    ]
  },
  {
    "postal": "M9V7V5",
    "result": []
  },
  {
    "postal": "M9V2T2",
    "result": [
      {
        "electoralDistricts": [
          {
            "election": null,
            "id": 30,
            "name": "Etobicoke North"
          }
        ],
        "pollDivisionIds": [
          10138216
        ],
        "postalCode": "M9V2T2",
        "streetName": "RIVERDALE",
        "streetDirectionId": null,
        "streetTypeId": "DR",
        "placeName": "ETOBICOKE",
        "streetNameDisplayText": "RIVERDALE DR, ETOBICOKE"
      }
    ]
  },
  {
    "postal": "M9V6L3",
    "result": []
  },
  {
    "postal": "M9V0L2",
    "result": []
  },
  {
    "postal": "M9V5Y8",
    "result": []
  },
  {
    "postal": "M9V0B8",
    "result": []
  },
  {
    "postal": "M9V6R5",
    "result": []
  },
  {
    "postal": "M9V8W6",
    "result": []
  },
  {
    "postal": "M9V8G6",
    "result": []
  },
  {
    "postal": "M9V6X3",
    "result": []
  },
  {
    "postal": "M9V7R7",
    "result": []
  },
  {
    "postal": "M9V4B6",
    "result": [
      {
        "electoralDistricts": [
          {
            "election": null,
            "id": 30,
            "name": "Etobicoke North"
          }
        ],
        "pollDivisionIds": [
          10138224
        ],
        "postalCode": "M9V4B6",
        "streetName": "MARTIN GROVE",
        "streetDirectionId": null,
        "streetTypeId": "RD",
        "placeName": "ETOBICOKE",
        "streetNameDisplayText": "MARTIN GROVE RD, ETOBICOKE"
      }
    ]
  },
  {
    "postal": "M9V3P9",
    "result": [
      {
        "electoralDistricts": [
          {
            "election": null,
            "id": 30,
            "name": "Etobicoke North"
          }
        ],
        "pollDivisionIds": [
          10138215
        ],
        "postalCode": "M9V3P9",
        "streetName": "COLLINGDALE",
        "streetDirectionId": null,
        "streetTypeId": "RD",
        "placeName": "ETOBICOKE",
        "streetNameDisplayText": "COLLINGDALE RD, ETOBICOKE"
      }
    ]
  },
  {
    "postal": "M9V2T3",
    "result": [
      {
        "electoralDistricts": [
          {
            "election": null,
            "id": 30,
            "name": "Etobicoke North"
          }
        ],
        "pollDivisionIds": [
          10138216
        ],
        "postalCode": "M9V2T3",
        "streetName": "RIVERDALE",
        "streetDirectionId": null,
        "streetTypeId": "DR",
        "placeName": "ETOBICOKE",
        "streetNameDisplayText": "RIVERDALE DR, ETOBICOKE"
      }
    ]
  },
  {
    "postal": "M9V1M4",
    "result": [
      {
        "electoralDistricts": [
          {
            "election": null,
            "id": 30,
            "name": "Etobicoke North"
          }
        ],
        "pollDivisionIds": [
          10138214
        ],
        "postalCode": "M9V1M4",
        "streetName": "MOSSWOOD",
        "streetDirectionId": null,
        "streetTypeId": "LANE",
        "placeName": "ETOBICOKE",
        "streetNameDisplayText": "MOSSWOOD LANE, ETOBICOKE"
      }
    ]
  },
  {
    "postal": "M9V0H1",
    "result": []
  },
  {
    "postal": "M9V9W3",
    "result": []
  },
  {
    "postal": "M9V6P1",
    "result": []
  },
  {
    "postal": "M9V7G2",
    "result": []
  },
  {
    "postal": "M9V4J9",
    "result": [
      {
        "electoralDistricts": [
          {
            "election": null,
            "id": 30,
            "name": "Etobicoke North"
          }
        ],
        "pollDivisionIds": [
          10138224
        ],
        "postalCode": "M9V4J9",
        "streetName": "ALBION",
        "streetDirectionId": null,
        "streetTypeId": "RD",
        "placeName": "ETOBICOKE",
        "streetNameDisplayText": "ALBION RD, ETOBICOKE"
      }
    ]
  },
  {
    "postal": "M9V9E4",
    "result": []
  },
  {
    "postal": "M9V8H0",
    "result": []
  },
  {
    "postal": "M9V4M7",
    "result": [
      {
        "electoralDistricts": [
          {
            "election": null,
            "id": 30,
            "name": "Etobicoke North"
          }
        ],
        "pollDivisionIds": [
          10138214
        ],
        "postalCode": "M9V4M7",
        "streetName": "CHANNING",
        "streetDirectionId": null,
        "streetTypeId": "PL",
        "placeName": "ETOBICOKE",
        "streetNameDisplayText": "CHANNING PL, ETOBICOKE"
      }
    ]
  },
  {
    "postal": "M9V2G9",
    "result": [
      {
        "electoralDistricts": [
          {
            "election": null,
            "id": 30,
            "name": "Etobicoke North"
          }
        ],
        "pollDivisionIds": [
          10138224,
          10138214
        ],
        "postalCode": "M9V2G9",
        "streetName": "LEXINGTON",
        "streetDirectionId": null,
        "streetTypeId": "AVE",
        "placeName": "ETOBICOKE",
        "streetNameDisplayText": "LEXINGTON AVE, ETOBICOKE"
      },
      {
        "electoralDistricts": [
          {
            "election": null,
            "id": 30,
            "name": "Etobicoke North"
          }
        ],
        "pollDivisionIds": [
          10138221
        ],
        "postalCode": "M9V2G9",
        "streetName": "LEXINGTON",
        "streetDirectionId": null,
        "streetTypeId": "AVE",
        "placeName": "TORONTO",
        "streetNameDisplayText": "LEXINGTON AVE, TORONTO"
      }
    ]
  },
  {
    "postal": "M9V8T2",
    "result": []
  },
  {
    "postal": "M9V7G7",
    "result": []
  },
  {
    "postal": "M9V4Z3",
    "result": [
      {
        "electoralDistricts": [
          {
            "election": null,
            "id": 30,
            "name": "Etobicoke North"
          }
        ],
        "pollDivisionIds": [
          10138224
        ],
        "postalCode": "M9V4Z3",
        "streetName": "CABERNET",
        "streetDirectionId": null,
        "streetTypeId": "CIR",
        "placeName": "ETOBICOKE",
        "streetNameDisplayText": "CABERNET CIR, ETOBICOKE"
      }
    ]
  },
  {
    "postal": "M9V5B3",
    "result": [
      {
        "electoralDistricts": [
          {
            "election": null,
            "id": 30,
            "name": "Etobicoke North"
          }
        ],
        "pollDivisionIds": [
          10138224
        ],
        "postalCode": "M9V5B3",
        "streetName": "CABERNET",
        "streetDirectionId": null,
        "streetTypeId": "CIR",
        "placeName": "ETOBICOKE",
        "streetNameDisplayText": "CABERNET CIR, ETOBICOKE"
      }
    ]
  },
  {
    "postal": "M9V1S7",
    "result": [
      {
        "electoralDistricts": [
          {
            "election": null,
            "id": 30,
            "name": "Etobicoke North"
          }
        ],
        "pollDivisionIds": [
          10138220
        ],
        "postalCode": "M9V1S7",
        "streetName": "MONTERREY",
        "streetDirectionId": null,
        "streetTypeId": "DR",
        "placeName": "ETOBICOKE",
        "streetNameDisplayText": "MONTERREY DR, ETOBICOKE"
      }
    ]
  },
  {
    "postal": "M9V2N7",
    "result": [
      {
        "electoralDistricts": [
          {
            "election": null,
            "id": 30,
            "name": "Etobicoke North"
          }
        ],
        "pollDivisionIds": [
          10138219
        ],
        "postalCode": "M9V2N7",
        "streetName": "DASHWOOD",
        "streetDirectionId": null,
        "streetTypeId": "CRES",
        "placeName": "ETOBICOKE",
        "streetNameDisplayText": "DASHWOOD CRES, ETOBICOKE"
      }
    ]
  },
  {
    "postal": "M9V0H8",
    "result": []
  },
  {
    "postal": "M9V7Z4",
    "result": []
  },
  {
    "postal": "M9V7B1",
    "result": []
  },
  {
    "postal": "M9V7P8",
    "result": []
  },
  {
    "postal": "M9V7N0",
    "result": []
  },
  {
    "postal": "M9V3Y5",
    "result": [
      {
        "electoralDistricts": [
          {
            "election": null,
            "id": 30,
            "name": "Etobicoke North"
          }
        ],
        "pollDivisionIds": [
          10138214
        ],
        "postalCode": "M9V3Y5",
        "streetName": "ALICEWOOD",
        "streetDirectionId": null,
        "streetTypeId": "CRT",
        "placeName": "ETOBICOKE",
        "streetNameDisplayText": "ALICEWOOD CRT, ETOBICOKE"
      }
    ]
  },
  {
    "postal": "M9V6K1",
    "result": []
  },
  {
    "postal": "M9V9X5",
    "result": []
  },
  {
    "postal": "M9V7S5",
    "result": []
  },
  {
    "postal": "M9V0A4",
    "result": []
  },
  {
    "postal": "M9V4T5",
    "result": [
      {
        "electoralDistricts": [
          {
            "election": null,
            "id": 30,
            "name": "Etobicoke North"
          }
        ],
        "pollDivisionIds": [
          10138222
        ],
        "postalCode": "M9V4T5",
        "streetName": "MERCEDES",
        "streetDirectionId": null,
        "streetTypeId": "DR",
        "placeName": "ETOBICOKE",
        "streetNameDisplayText": "MERCEDES DR, ETOBICOKE"
      }
    ]
  },
  {
    "postal": "M9V5K1",
    "result": []
  },
  {
    "postal": "M9V0Z9",
    "result": []
  },
  {
    "postal": "M9V7T2",
    "result": []
  },
  {
    "postal": "M9V1L5",
    "result": [
      {
        "electoralDistricts": [
          {
            "election": null,
            "id": 30,
            "name": "Etobicoke North"
          }
        ],
        "pollDivisionIds": [
          10138219
        ],
        "postalCode": "M9V1L5",
        "streetName": "FOREST PATH",
        "streetDirectionId": null,
        "streetTypeId": "CRT",
        "placeName": "ETOBICOKE",
        "streetNameDisplayText": "FOREST PATH CRT, ETOBICOKE"
      }
    ]
  },
  {
    "postal": "M9V3N5",
    "result": [
      {
        "electoralDistricts": [
          {
            "election": null,
            "id": 30,
            "name": "Etobicoke North"
          }
        ],
        "pollDivisionIds": [
          10138223
        ],
        "postalCode": "M9V3N5",
        "streetName": "BULBOURNE",
        "streetDirectionId": null,
        "streetTypeId": "RD",
        "placeName": "ETOBICOKE",
        "streetNameDisplayText": "BULBOURNE RD, ETOBICOKE"
      }
    ]
  },
  {
    "postal": "M9V6H4",
    "result": []
  },
  {
    "postal": "M9V5A5",
    "result": [
      {
        "electoralDistricts": [
          {
            "election": null,
            "id": 30,
            "name": "Etobicoke North"
          }
        ],
        "pollDivisionIds": [
          10138224
        ],
        "postalCode": "M9V5A5",
        "streetName": "ST EMILION",
        "streetDirectionId": null,
        "streetTypeId": "WAY",
        "placeName": "ETOBICOKE",
        "streetNameDisplayText": "ST EMILION WAY, ETOBICOKE"
      }
    ]
  },
  {
    "postal": "M9V3R9",
    "result": [
      {
        "electoralDistricts": [
          {
            "election": null,
            "id": 30,
            "name": "Etobicoke North"
          }
        ],
        "pollDivisionIds": [
          10138223
        ],
        "postalCode": "M9V3R9",
        "streetName": "TINEHAM",
        "streetDirectionId": null,
        "streetTypeId": "CRT",
        "placeName": "ETOBICOKE",
        "streetNameDisplayText": "TINEHAM CRT, ETOBICOKE"
      }
    ]
  },
  {
    "postal": "M9V7L8",
    "result": []
  },
  {
    "postal": "M9V6T6",
    "result": []
  },
  {
    "postal": "M9V7Y7",
    "result": []
  },
  {
    "postal": "M9V3M8",
    "result": [
      {
        "electoralDistricts": [
          {
            "election": null,
            "id": 30,
            "name": "Etobicoke North"
          }
        ],
        "pollDivisionIds": [
          10138215
        ],
        "postalCode": "M9V3M8",
        "streetName": "JAMESTOWN",
        "streetDirectionId": null,
        "streetTypeId": "CRES",
        "placeName": "ETOBICOKE",
        "streetNameDisplayText": "JAMESTOWN CRES, ETOBICOKE"
      }
    ]
  },
  {
    "postal": "M9V2E0",
    "result": []
  },
  {
    "postal": "M9V4B5",
    "result": [
      {
        "electoralDistricts": [
          {
            "election": null,
            "id": 30,
            "name": "Etobicoke North"
          }
        ],
        "pollDivisionIds": [
          10138224
        ],
        "postalCode": "M9V4B5",
        "streetName": "LEADING",
        "streetDirectionId": null,
        "streetTypeId": "RD",
        "placeName": "ETOBICOKE",
        "streetNameDisplayText": "LEADING RD, ETOBICOKE"
      }
    ]
  },
  {
    "postal": "M9V1J3",
    "result": [
      {
        "electoralDistricts": [
          {
            "election": null,
            "id": 30,
            "name": "Etobicoke North"
          }
        ],
        "pollDivisionIds": [
          10138219
        ],
        "postalCode": "M9V1J3",
        "streetName": "THISTLE DOWN",
        "streetDirectionId": null,
        "streetTypeId": "BLVD",
        "placeName": "ETOBICOKE",
        "streetNameDisplayText": "THISTLE DOWN BLVD, ETOBICOKE"
      }
    ]
  },
  {
    "postal": "M9V5S6",
    "result": []
  },
  {
    "postal": "M9V8P7",
    "result": []
  },
  {
    "postal": "M9V7S7",
    "result": []
  },
  {
    "postal": "M9V4C2",
    "result": [
      {
        "electoralDistricts": [
          {
            "election": null,
            "id": 30,
            "name": "Etobicoke North"
          }
        ],
        "pollDivisionIds": [
          10138224
        ],
        "postalCode": "M9V4C2",
        "streetName": "WESTMORE",
        "streetDirectionId": null,
        "streetTypeId": "DR",
        "placeName": "ETOBICOKE",
        "streetNameDisplayText": "WESTMORE DR, ETOBICOKE"
      }
    ]
  },
  {
    "postal": "M9V5Y0",
    "result": []
  },
  {
    "postal": "M9V2V7",
    "result": [
      {
        "electoralDistricts": [
          {
            "election": null,
            "id": 30,
            "name": "Etobicoke North"
          }
        ],
        "pollDivisionIds": [
          10138219
        ],
        "postalCode": "M9V2V7",
        "streetName": "BATAWA",
        "streetDirectionId": null,
        "streetTypeId": "CRES",
        "placeName": "ETOBICOKE",
        "streetNameDisplayText": "BATAWA CRES, ETOBICOKE"
      }
    ]
  },
  {
    "postal": "M9V8P5",
    "result": []
  },
  {
    "postal": "M9V5P5",
    "result": []
  },
  {
    "postal": "M9V5Z0",
    "result": []
  },
  {
    "postal": "M9V9B0",
    "result": []
  },
  {
    "postal": "M9V1L0",
    "result": []
  },
  {
    "postal": "M9V0B5",
    "result": []
  },
  {
    "postal": "M9V3L2",
    "result": [
      {
        "electoralDistricts": [
          {
            "election": null,
            "id": 30,
            "name": "Etobicoke North"
          }
        ],
        "pollDivisionIds": [
          10138224
        ],
        "postalCode": "M9V3L2",
        "streetName": "SILVERSTONE",
        "streetDirectionId": null,
        "streetTypeId": "DR",
        "placeName": "ETOBICOKE",
        "streetNameDisplayText": "SILVERSTONE DR, ETOBICOKE"
      }
    ]
  },
  {
    "postal": "M9V3B7",
    "result": [
      {
        "electoralDistricts": [
          {
            "election": null,
            "id": 30,
            "name": "Etobicoke North"
          }
        ],
        "pollDivisionIds": [
          10138223
        ],
        "postalCode": "M9V3B7",
        "streetName": "ANNABELLE",
        "streetDirectionId": null,
        "streetTypeId": "DR",
        "placeName": "ETOBICOKE",
        "streetNameDisplayText": "ANNABELLE DR, ETOBICOKE"
      }
    ]
  },
  {
    "postal": "M9V8L1",
    "result": []
  },
  {
    "postal": "M9V5M4",
    "result": []
  },
  {
    "postal": "M9V4G9",
    "result": [
      {
        "electoralDistricts": [
          {
            "election": null,
            "id": 30,
            "name": "Etobicoke North"
          }
        ],
        "pollDivisionIds": [
          10138224
        ],
        "postalCode": "M9V4G9",
        "streetName": "SILVERSTONE",
        "streetDirectionId": null,
        "streetTypeId": "DR",
        "placeName": "ETOBICOKE",
        "streetNameDisplayText": "SILVERSTONE DR, ETOBICOKE"
      }
    ]
  },
  {
    "postal": "M9V0P0",
    "result": []
  },
  {
    "postal": "M9V8G2",
    "result": []
  },
  {
    "postal": "M9V1V9",
    "result": [
      {
        "electoralDistricts": [
          {
            "election": null,
            "id": 30,
            "name": "Etobicoke North"
          }
        ],
        "pollDivisionIds": [
          10138220
        ],
        "postalCode": "M9V1V9",
        "streetName": "BEAUMONDE HEIGHTS",
        "streetDirectionId": null,
        "streetTypeId": "DR",
        "placeName": "ETOBICOKE",
        "streetNameDisplayText": "BEAUMONDE HEIGHTS DR, ETOBICOKE"
      }
    ]
  },
  {
    "postal": "M9V8N8",
    "result": []
  },
  {
    "postal": "M9V6S8",
    "result": []
  },
  {
    "postal": "M9V8H2",
    "result": []
  },
  {
    "postal": "M9V5R8",
    "result": []
  },
  {
    "postal": "M9V5L4",
    "result": []
  },
  {
    "postal": "M9V9E1",
    "result": []
  },
  {
    "postal": "M9V1C4",
    "result": [
      {
        "electoralDistricts": [
          {
            "election": null,
            "id": 30,
            "name": "Etobicoke North"
          }
        ],
        "pollDivisionIds": [
          10138216
        ],
        "postalCode": "M9V1C4",
        "streetName": "JASON",
        "streetDirectionId": null,
        "streetTypeId": "RD",
        "placeName": "ETOBICOKE",
        "streetNameDisplayText": "JASON RD, ETOBICOKE"
      }
    ]
  },
  {
    "postal": "M9V8W5",
    "result": []
  },
  {
    "postal": "M9V1Y4",
    "result": [
      {
        "electoralDistricts": [
          {
            "election": null,
            "id": 30,
            "name": "Etobicoke North"
          }
        ],
        "pollDivisionIds": [
          10138224
        ],
        "postalCode": "M9V1Y4",
        "streetName": "AVENING",
        "streetDirectionId": null,
        "streetTypeId": "DR",
        "placeName": "ETOBICOKE",
        "streetNameDisplayText": "AVENING DR, ETOBICOKE"
      }
    ]
  },
  {
    "postal": "M9V1C0",
    "result": []
  },
  {
    "postal": "M9V2J2",
    "result": [
      {
        "electoralDistricts": [
          {
            "election": null,
            "id": 30,
            "name": "Etobicoke North"
          }
        ],
        "pollDivisionIds": [
          10138223
        ],
        "postalCode": "M9V2J2",
        "streetName": "DORWARD",
        "streetDirectionId": null,
        "streetTypeId": "DR",
        "placeName": "ETOBICOKE",
        "streetNameDisplayText": "DORWARD DR, ETOBICOKE"
      }
    ]
  },
  {
    "postal": "M9V2J0",
    "result": []
  },
  {
    "postal": "M9V7A3",
    "result": []
  },
  {
    "postal": "M9V8M1",
    "result": []
  },
  {
    "postal": "M9V7T9",
    "result": []
  },
  {
    "postal": "M9V6C0",
    "result": []
  },
  {
    "postal": "M9V7X1",
    "result": []
  },
  {
    "postal": "M9V0G1",
    "result": []
  },
  {
    "postal": "M9V4X2",
    "result": [
      {
        "electoralDistricts": [
          {
            "election": null,
            "id": 30,
            "name": "Etobicoke North"
          }
        ],
        "pollDivisionIds": [
          10138223
        ],
        "postalCode": "M9V4X2",
        "streetName": "SCULLION",
        "streetDirectionId": null,
        "streetTypeId": "CRT",
        "placeName": "ETOBICOKE",
        "streetNameDisplayText": "SCULLION CRT, ETOBICOKE"
      }
    ]
  },
  {
    "postal": "M9V0N6",
    "result": []
  },
  {
    "postal": "M9V8E3",
    "result": []
  },
  {
    "postal": "M9V5S8",
    "result": []
  },
  {
    "postal": "M9V0R0",
    "result": []
  },
  {
    "postal": "M9V6J6",
    "result": []
  },
  {
    "postal": "M9V4B4",
    "result": [
      {
        "electoralDistricts": [
          {
            "election": null,
            "id": 30,
            "name": "Etobicoke North"
          }
        ],
        "pollDivisionIds": [
          10138223
        ],
        "postalCode": "M9V4B4",
        "streetName": "ALBION",
        "streetDirectionId": null,
        "streetTypeId": "RD",
        "placeName": "ETOBICOKE",
        "streetNameDisplayText": "ALBION RD, ETOBICOKE"
      }
    ]
  },
  {
    "postal": "M9V7E3",
    "result": []
  },
  {
    "postal": "M9V3N6",
    "result": [
      {
        "electoralDistricts": [
          {
            "election": null,
            "id": 30,
            "name": "Etobicoke North"
          }
        ],
        "pollDivisionIds": [
          10138223
        ],
        "postalCode": "M9V3N6",
        "streetName": "VANGE",
        "streetDirectionId": null,
        "streetTypeId": "CRES",
        "placeName": "ETOBICOKE",
        "streetNameDisplayText": "VANGE CRES, ETOBICOKE"
      }
    ]
  },
  {
    "postal": "M9V3X6",
    "result": [
      {
        "electoralDistricts": [
          {
            "election": null,
            "id": 30,
            "name": "Etobicoke North"
          }
        ],
        "pollDivisionIds": [
          10138214
        ],
        "postalCode": "M9V3X6",
        "streetName": "THYME",
        "streetDirectionId": null,
        "streetTypeId": "CRT",
        "placeName": "ETOBICOKE",
        "streetNameDisplayText": "THYME CRT, ETOBICOKE"
      }
    ]
  },
  {
    "postal": "M9V8L0",
    "result": []
  },
  {
    "postal": "M9V8N1",
    "result": []
  },
  {
    "postal": "M9V4J0",
    "result": []
  },
  {
    "postal": "M9V0X7",
    "result": []
  },
  {
    "postal": "M9V6S4",
    "result": []
  },
  {
    "postal": "M9V0Z0",
    "result": []
  },
  {
    "postal": "M9V9X8",
    "result": []
  },
  {
    "postal": "M9V3H3",
    "result": [
      {
        "electoralDistricts": [
          {
            "election": null,
            "id": 30,
            "name": "Etobicoke North"
          }
        ],
        "pollDivisionIds": [
          10138223
        ],
        "postalCode": "M9V3H3",
        "streetName": "SILVERSTONE",
        "streetDirectionId": null,
        "streetTypeId": "DR",
        "placeName": "ETOBICOKE",
        "streetNameDisplayText": "SILVERSTONE DR, ETOBICOKE"
      }
    ]
  },
  {
    "postal": "M9V7S2",
    "result": []
  },
  {
    "postal": "M9V3T3",
    "result": [
      {
        "electoralDistricts": [
          {
            "election": null,
            "id": 30,
            "name": "Etobicoke North"
          }
        ],
        "pollDivisionIds": [
          10138224
        ],
        "postalCode": "M9V3T3",
        "streetName": "MARTIN GROVE",
        "streetDirectionId": null,
        "streetTypeId": "RD",
        "placeName": "ETOBICOKE",
        "streetNameDisplayText": "MARTIN GROVE RD, ETOBICOKE"
      },
      {
        "electoralDistricts": [
          {
            "election": null,
            "id": 30,
            "name": "Etobicoke North"
          }
        ],
        "pollDivisionIds": [
          10138224
        ],
        "postalCode": "M9V3T3",
        "streetName": "MARTINGROVE",
        "streetDirectionId": null,
        "streetTypeId": "RD",
        "placeName": "ETOBICOKE",
        "streetNameDisplayText": "MARTINGROVE RD, ETOBICOKE"
      }
    ]
  },
  {
    "postal": "M9V9P3",
    "result": []
  },
  {
    "postal": "M9V4H8",
    "result": [
      {
        "electoralDistricts": [
          {
            "election": null,
            "id": 30,
            "name": "Etobicoke North"
          }
        ],
        "pollDivisionIds": [
          10138214
        ],
        "postalCode": "M9V4H8",
        "streetName": "JOHN GARLAND",
        "streetDirectionId": null,
        "streetTypeId": "BLVD",
        "placeName": "ETOBICOKE",
        "streetNameDisplayText": "JOHN GARLAND BLVD, ETOBICOKE"
      }
    ]
  },
  {
    "postal": "M9V6R1",
    "result": []
  },
  {
    "postal": "M9V1S0",
    "result": []
  },
  {
    "postal": "M9V3W8",
    "result": [
      {
        "electoralDistricts": [
          {
            "election": null,
            "id": 30,
            "name": "Etobicoke North"
          }
        ],
        "pollDivisionIds": [
          10138214
        ],
        "postalCode": "M9V3W8",
        "streetName": "LYNMONT",
        "streetDirectionId": null,
        "streetTypeId": "RD",
        "placeName": "ETOBICOKE",
        "streetNameDisplayText": "LYNMONT RD, ETOBICOKE"
      }
    ]
  },
  {
    "postal": "M9V4S3",
    "result": [
      {
        "electoralDistricts": [
          {
            "election": null,
            "id": 30,
            "name": "Etobicoke North"
          }
        ],
        "pollDivisionIds": [
          10138222
        ],
        "postalCode": "M9V4S3",
        "streetName": "FRANCA",
        "streetDirectionId": null,
        "streetTypeId": "CRES",
        "placeName": "ETOBICOKE",
        "streetNameDisplayText": "FRANCA CRES, ETOBICOKE"
      }
    ]
  },
  {
    "postal": "M9V1B6",
    "result": [
      {
        "electoralDistricts": [
          {
            "election": null,
            "id": 30,
            "name": "Etobicoke North"
          }
        ],
        "pollDivisionIds": [
          10138215
        ],
        "postalCode": "M9V1B6",
        "streetName": "ALBION",
        "streetDirectionId": null,
        "streetTypeId": "RD",
        "placeName": "ETOBICOKE",
        "streetNameDisplayText": "ALBION RD, ETOBICOKE"
      }
    ]
  },
  {
    "postal": "M9V8R3",
    "result": []
  },
  {
    "postal": "M9V4V9",
    "result": [
      {
        "electoralDistricts": [
          {
            "election": null,
            "id": 30,
            "name": "Etobicoke North"
          }
        ],
        "pollDivisionIds": [
          10138222
        ],
        "postalCode": "M9V4V9",
        "streetName": "MAXINE",
        "streetDirectionId": null,
        "streetTypeId": "RD",
        "placeName": "ETOBICOKE",
        "streetNameDisplayText": "MAXINE RD, ETOBICOKE"
      }
    ]
  },
  {
    "postal": "M9V9W4",
    "result": []
  },
  {
    "postal": "M9V3T4",
    "result": [
      {
        "electoralDistricts": [
          {
            "election": null,
            "id": 30,
            "name": "Etobicoke North"
          }
        ],
        "pollDivisionIds": [
          10138224
        ],
        "postalCode": "M9V3T4",
        "streetName": "TEALHAM",
        "streetDirectionId": null,
        "streetTypeId": "DR",
        "placeName": "ETOBICOKE",
        "streetNameDisplayText": "TEALHAM DR, ETOBICOKE"
      }
    ]
  },
  {
    "postal": "M9V5C7",
    "result": [
      {
        "electoralDistricts": [
          {
            "election": null,
            "id": 30,
            "name": "Etobicoke North"
          }
        ],
        "pollDivisionIds": [
          10138221
        ],
        "postalCode": "M9V5C7",
        "streetName": "ROWNTREE",
        "streetDirectionId": null,
        "streetTypeId": "RD",
        "placeName": "ETOBICOKE",
        "streetNameDisplayText": "ROWNTREE RD, ETOBICOKE"
      }
    ]
  },
  {
    "postal": "M9V3Y1",
    "result": [
      {
        "electoralDistricts": [
          {
            "election": null,
            "id": 30,
            "name": "Etobicoke North"
          }
        ],
        "pollDivisionIds": [
          10138214
        ],
        "postalCode": "M9V3Y1",
        "streetName": "ALICEWOOD",
        "streetDirectionId": null,
        "streetTypeId": "CRT",
        "placeName": "ETOBICOKE",
        "streetNameDisplayText": "ALICEWOOD CRT, ETOBICOKE"
      }
    ]
  },
  {
    "postal": "M9V5V0",
    "result": []
  },
  {
    "postal": "M9V8G8",
    "result": []
  },
  {
    "postal": "M9V8B1",
    "result": []
  },
  {
    "postal": "M9V4P5",
    "result": [
      {
        "electoralDistricts": [
          {
            "election": null,
            "id": 30,
            "name": "Etobicoke North"
          }
        ],
        "pollDivisionIds": [
          10138214
        ],
        "postalCode": "M9V4P5",
        "streetName": "KITTIWAKE",
        "streetDirectionId": null,
        "streetTypeId": "AVE",
        "placeName": "ETOBICOKE",
        "streetNameDisplayText": "KITTIWAKE AVE, ETOBICOKE"
      }
    ]
  },
  {
    "postal": "M9V7B2",
    "result": []
  },
  {
    "postal": "M9V0R2",
    "result": []
  },
  {
    "postal": "M9V4M4",
    "result": [
      {
        "electoralDistricts": [
          {
            "election": null,
            "id": 30,
            "name": "Etobicoke North"
          }
        ],
        "pollDivisionIds": [
          10138214
        ],
        "postalCode": "M9V4M4",
        "streetName": "BROWNRIDGE",
        "streetDirectionId": null,
        "streetTypeId": "CRES",
        "placeName": "ETOBICOKE",
        "streetNameDisplayText": "BROWNRIDGE CRES, ETOBICOKE"
      }
    ]
  },
  {
    "postal": "M9V7M4",
    "result": []
  },
  {
    "postal": "M9V9S7",
    "result": []
  },
  {
    "postal": "M9V5Z7",
    "result": []
  },
  {
    "postal": "M9V7J7",
    "result": []
  },
  {
    "postal": "M9V8R8",
    "result": []
  },
  {
    "postal": "M9V9X1",
    "result": []
  },
  {
    "postal": "M9V5M9",
    "result": []
  },
  {
    "postal": "M9V9B4",
    "result": []
  },
  {
    "postal": "M9V0L9",
    "result": []
  },
  {
    "postal": "M9V9G4",
    "result": []
  },
  {
    "postal": "M9V1J4",
    "result": [
      {
        "electoralDistricts": [
          {
            "election": null,
            "id": 30,
            "name": "Etobicoke North"
          }
        ],
        "pollDivisionIds": [
          10138219
        ],
        "postalCode": "M9V1J4",
        "streetName": "THISTLE DOWN",
        "streetDirectionId": null,
        "streetTypeId": "BLVD",
        "placeName": "ETOBICOKE",
        "streetNameDisplayText": "THISTLE DOWN BLVD, ETOBICOKE"
      }
    ]
  },
  {
    "postal": "M9V0W6",
    "result": []
  }
]
