[
  {
    "postal": "P6C9J6",
    "result": []
  },
  {
    "postal": "P6C9Z5",
    "result": []
  },
  {
    "postal": "P6C7H8",
    "result": []
  },
  {
    "postal": "P6C0P6",
    "result": []
  },
  {
    "postal": "P6C0S7",
    "result": []
  },
  {
    "postal": "P6C8B9",
    "result": []
  },
  {
    "postal": "P6C2A6",
    "result": [
      {
        "electoralDistricts": [
          {
            "election": null,
            "id": 92,
            "name": "Sault Ste. Marie"
          }
        ],
        "pollDivisionIds": [
          10141462
        ],
        "postalCode": "P6C2A6",
        "streetName": "PATRICIA",
        "streetDirectionId": null,
        "streetTypeId": "AVE",
        "placeName": "SAULT STE. MARIE",
        "streetNameDisplayText": "PATRICIA AVE, SAULT STE. MARIE"
      }
    ]
  },
  {
    "postal": "P6C7V2",
    "result": []
  },
  {
    "postal": "P6C9P4",
    "result": []
  },
  {
    "postal": "P6C6G0",
    "result": []
  },
  {
    "postal": "P6C2K0",
    "result": []
  },
  {
    "postal": "P6C7N6",
    "result": []
  },
  {
    "postal": "P6C5R3",
    "result": [
      {
        "electoralDistricts": [
          {
            "election": null,
            "id": 92,
            "name": "Sault Ste. Marie"
          }
        ],
        "pollDivisionIds": [
          10141459
        ],
        "postalCode": "P6C5R3",
        "streetName": "ROSITA",
        "streetDirectionId": null,
        "streetTypeId": "ST",
        "placeName": "SAULT STE. MARIE",
        "streetNameDisplayText": "ROSITA ST, SAULT STE. MARIE"
      }
    ]
  },
  {
    "postal": "P6C7K0",
    "result": []
  },
  {
    "postal": "P6C3R2",
    "result": [
      {
        "electoralDistricts": [
          {
            "election": null,
            "id": 92,
            "name": "Sault Ste. Marie"
          }
        ],
        "pollDivisionIds": [
          10141464
        ],
        "postalCode": "P6C3R2",
        "streetName": "LENNOX",
        "streetDirectionId": null,
        "streetTypeId": "AVE",
        "placeName": "SAULT STE. MARIE",
        "streetNameDisplayText": "LENNOX AVE, SAULT STE. MARIE"
      }
    ]
  },
  {
    "postal": "P6C0J1",
    "result": []
  },
  {
    "postal": "P6C0B0",
    "result": []
  },
  {
    "postal": "P6C5Z2",
    "result": [
      {
        "electoralDistricts": [
          {
            "election": null,
            "id": 92,
            "name": "Sault Ste. Marie"
          }
        ],
        "pollDivisionIds": [
          10141464
        ],
        "postalCode": "P6C5Z2",
        "streetName": "ROSSMORE",
        "streetDirectionId": null,
        "streetTypeId": "RD",
        "placeName": "SAULT STE. MARIE",
        "streetNameDisplayText": "ROSSMORE RD, SAULT STE. MARIE"
      }
    ]
  },
  {
    "postal": "P6C7P3",
    "result": []
  },
  {
    "postal": "P6C2K3",
    "result": [
      {
        "electoralDistricts": [
          {
            "election": null,
            "id": 92,
            "name": "Sault Ste. Marie"
          }
        ],
        "pollDivisionIds": [
          10141462
        ],
        "postalCode": "P6C2K3",
        "streetName": "SECOND",
        "streetDirectionId": "W",
        "streetTypeId": "LINE",
        "placeName": "SAULT STE.  MARIE",
        "streetNameDisplayText": "SECOND LINE W, SAULT STE.  MARIE"
      },
      {
        "electoralDistricts": [
          {
            "election": null,
            "id": 92,
            "name": "Sault Ste. Marie"
          }
        ],
        "pollDivisionIds": [
          10141462
        ],
        "postalCode": "P6C2K3",
        "streetName": "SECOND",
        "streetDirectionId": "W",
        "streetTypeId": "LINE",
        "placeName": "SAULT STE. MARIE",
        "streetNameDisplayText": "SECOND LINE W, SAULT STE. MARIE"
      }
    ]
  },
  {
    "postal": "P6C7Y6",
    "result": []
  },
  {
    "postal": "P6C1L9",
    "result": [
      {
        "electoralDistricts": [
          {
            "election": null,
            "id": 92,
            "name": "Sault Ste. Marie"
          }
        ],
        "pollDivisionIds": [
          10141460
        ],
        "postalCode": "P6C1L9",
        "streetName": "WALLACE",
        "streetDirectionId": null,
        "streetTypeId": "TERR",
        "placeName": "SAULT STE. MARIE",
        "streetNameDisplayText": "WALLACE TERR, SAULT STE. MARIE"
      }
    ]
  },
  {
    "postal": "P6C8T0",
    "result": []
  },
  {
    "postal": "P6C3K8",
    "result": [
      {
        "electoralDistricts": [
          {
            "election": null,
            "id": 92,
            "name": "Sault Ste. Marie"
          }
        ],
        "pollDivisionIds": [
          10141467
        ],
        "postalCode": "P6C3K8",
        "streetName": "JOHN",
        "streetDirectionId": null,
        "streetTypeId": "ST",
        "placeName": "SAULT STE. MARIE",
        "streetNameDisplayText": "JOHN ST, SAULT STE. MARIE"
      }
    ]
  },
  {
    "postal": "P6C5W9",
    "result": [
      {
        "electoralDistricts": [
          {
            "election": null,
            "id": 92,
            "name": "Sault Ste. Marie"
          }
        ],
        "pollDivisionIds": [
          10141468
        ],
        "postalCode": "P6C5W9",
        "streetName": "WESTRIDGE",
        "streetDirectionId": null,
        "streetTypeId": "RD",
        "placeName": "SAULT STE. MARIE",
        "streetNameDisplayText": "WESTRIDGE RD, SAULT STE. MARIE"
      }
    ]
  },
  {
    "postal": "P6C6T9",
    "result": []
  },
  {
    "postal": "P6C4H1",
    "result": [
      {
        "electoralDistricts": [
          {
            "election": null,
            "id": 92,
            "name": "Sault Ste. Marie"
          }
        ],
        "pollDivisionIds": [
          10141466
        ],
        "postalCode": "P6C4H1",
        "streetName": "KORAH",
        "streetDirectionId": null,
        "streetTypeId": "RD",
        "placeName": "SAULT STE. MARIE",
        "streetNameDisplayText": "KORAH RD, SAULT STE. MARIE"
      }
    ]
  },
  {
    "postal": "P6C7A2",
    "result": []
  },
  {
    "postal": "P6C5G0",
    "result": []
  },
  {
    "postal": "P6C8V5",
    "result": []
  },
  {
    "postal": "P6C2Y8",
    "result": [
      {
        "electoralDistricts": [
          {
            "election": null,
            "id": 92,
            "name": "Sault Ste. Marie"
          }
        ],
        "pollDivisionIds": [
          10141456
        ],
        "postalCode": "P6C2Y8",
        "streetName": "ROSSMORE",
        "streetDirectionId": null,
        "streetTypeId": "RD",
        "placeName": "SAULT STE. MARIE",
        "streetNameDisplayText": "ROSSMORE RD, SAULT STE. MARIE"
      }
    ]
  },
  {
    "postal": "P6C2B6",
    "result": [
      {
        "electoralDistricts": [
          {
            "election": null,
            "id": 92,
            "name": "Sault Ste. Marie"
          }
        ],
        "pollDivisionIds": [
          10141465
        ],
        "postalCode": "P6C2B6",
        "streetName": "CUMBERLAND",
        "streetDirectionId": null,
        "streetTypeId": "AVE",
        "placeName": "SAULT STE. MARIE",
        "streetNameDisplayText": "CUMBERLAND AVE, SAULT STE. MARIE"
      }
    ]
  },
  {
    "postal": "P6C4W8",
    "result": [
      {
        "electoralDistricts": [
          {
            "election": null,
            "id": 92,
            "name": "Sault Ste. Marie"
          }
        ],
        "pollDivisionIds": [
          10141460
        ],
        "postalCode": "P6C4W8",
        "streetName": "CENTRAL",
        "streetDirectionId": null,
        "streetTypeId": "ST",
        "placeName": "SAULT STE. MARIE",
        "streetNameDisplayText": "CENTRAL ST, SAULT STE. MARIE"
      }
    ]
  },
  {
    "postal": "P6C8H7",
    "result": []
  },
  {
    "postal": "P6C5P1",
    "result": [
      {
        "electoralDistricts": [
          {
            "election": null,
            "id": 92,
            "name": "Sault Ste. Marie"
          }
        ],
        "pollDivisionIds": [
          10141459
        ],
        "postalCode": "P6C5P1",
        "streetName": "BROOKFIELD",
        "streetDirectionId": null,
        "streetTypeId": "AVE",
        "placeName": "SAULT STE. MARIE",
        "streetNameDisplayText": "BROOKFIELD AVE, SAULT STE. MARIE"
      }
    ]
  },
  {
    "postal": "P6C2B8",
    "result": [
      {
        "electoralDistricts": [
          {
            "election": null,
            "id": 92,
            "name": "Sault Ste. Marie"
          }
        ],
        "pollDivisionIds": [
          10141465
        ],
        "postalCode": "P6C2B8",
        "streetName": "HAWKING",
        "streetDirectionId": null,
        "streetTypeId": "AVE",
        "placeName": "SAULT STE. MARIE",
        "streetNameDisplayText": "HAWKING AVE, SAULT STE. MARIE"
      },
      {
        "electoralDistricts": [
          {
            "election": null,
            "id": 92,
            "name": "Sault Ste. Marie"
          }
        ],
        "pollDivisionIds": [
          10141465
        ],
        "postalCode": "P6C2B8",
        "streetName": "HOCKING",
        "streetDirectionId": null,
        "streetTypeId": "AVE",
        "placeName": "SAULT STE. MARIE",
        "streetNameDisplayText": "HOCKING AVE, SAULT STE. MARIE"
      }
    ]
  },
  {
    "postal": "P6C0P2",
    "result": []
  },
  {
    "postal": "P6C9M1",
    "result": []
  },
  {
    "postal": "P6C3G0",
    "result": []
  },
  {
    "postal": "P6C9Z2",
    "result": []
  },
  {
    "postal": "P6C2A0",
    "result": []
  },
  {
    "postal": "P6C6Y0",
    "result": []
  },
  {
    "postal": "P6C2Z8",
    "result": [
      {
        "electoralDistricts": [
          {
            "election": null,
            "id": 92,
            "name": "Sault Ste. Marie"
          }
        ],
        "pollDivisionIds": [
          10141468
        ],
        "postalCode": "P6C2Z8",
        "streetName": "PENNO",
        "streetDirectionId": null,
        "streetTypeId": "RD",
        "placeName": "SAULT STE. MARIE",
        "streetNameDisplayText": "PENNO RD, SAULT STE. MARIE"
      }
    ]
  },
  {
    "postal": "P6C7Y3",
    "result": []
  },
  {
    "postal": "P6C6Z5",
    "result": []
  },
  {
    "postal": "P6C6E0",
    "result": []
  },
  {
    "postal": "P6C9B7",
    "result": []
  },
  {
    "postal": "P6C9S5",
    "result": []
  },
  {
    "postal": "P6C3X3",
    "result": [
      {
        "electoralDistricts": [
          {
            "election": null,
            "id": 92,
            "name": "Sault Ste. Marie"
          }
        ],
        "pollDivisionIds": [
          10141466
        ],
        "postalCode": "P6C3X3",
        "streetName": "SHERBOURNE",
        "streetDirectionId": null,
        "streetTypeId": "ST",
        "placeName": "SAULT STE. MARIE",
        "streetNameDisplayText": "SHERBOURNE ST, SAULT STE. MARIE"
      }
    ]
  },
  {
    "postal": "P6C7R5",
    "result": []
  },
  {
    "postal": "P6C2X3",
    "result": [
      {
        "electoralDistricts": [
          {
            "election": null,
            "id": 92,
            "name": "Sault Ste. Marie"
          }
        ],
        "pollDivisionIds": [
          10141461
        ],
        "postalCode": "P6C2X3",
        "streetName": "WESTGATE",
        "streetDirectionId": null,
        "streetTypeId": "DR",
        "placeName": "SAULT STE. MARIE",
        "streetNameDisplayText": "WESTGATE DR, SAULT STE. MARIE"
      }
    ]
  },
  {
    "postal": "P6C8Z9",
    "result": []
  },
  {
    "postal": "P6C0N4",
    "result": []
  },
  {
    "postal": "P6C1K1",
    "result": [
      {
        "electoralDistricts": [
          {
            "election": null,
            "id": 92,
            "name": "Sault Ste. Marie"
          }
        ],
        "pollDivisionIds": [
          10141466
        ],
        "postalCode": "P6C1K1",
        "streetName": "WALLACE",
        "streetDirectionId": null,
        "streetTypeId": "TERR",
        "placeName": "SAULT STE. MARIE",
        "streetNameDisplayText": "WALLACE TERR, SAULT STE. MARIE"
      }
    ]
  },
  {
    "postal": "P6C1S3",
    "result": [
      {
        "electoralDistricts": [
          {
            "election": null,
            "id": 92,
            "name": "Sault Ste. Marie"
          }
        ],
        "pollDivisionIds": [
          10141465
        ],
        "postalCode": "P6C1S3",
        "streetName": "DOUGLAS",
        "streetDirectionId": null,
        "streetTypeId": "ST",
        "placeName": "SAULT STE. MARIE",
        "streetNameDisplayText": "DOUGLAS ST, SAULT STE. MARIE"
      }
    ]
  },
  {
    "postal": "P6C6M4",
    "result": []
  },
  {
    "postal": "P6C9A9",
    "result": []
  },
  {
    "postal": "P6C9Z9",
    "result": []
  },
  {
    "postal": "P6C6T4",
    "result": []
  },
  {
    "postal": "P6C0B2",
    "result": [
      {
        "electoralDistricts": [
          {
            "election": null,
            "id": 92,
            "name": "Sault Ste. Marie"
          }
        ],
        "pollDivisionIds": [
          10141464
        ],
        "postalCode": "P6C0B2",
        "streetName": "EVERETT",
        "streetDirectionId": null,
        "streetTypeId": "ST",
        "placeName": "SAULT STE. MARIE",
        "streetNameDisplayText": "EVERETT ST, SAULT STE. MARIE"
      }
    ]
  },
  {
    "postal": "P6C2L9",
    "result": [
      {
        "electoralDistricts": [
          {
            "election": null,
            "id": 92,
            "name": "Sault Ste. Marie"
          }
        ],
        "pollDivisionIds": [
          10141459,
          10141460
        ],
        "postalCode": "P6C2L9",
        "streetName": "SECOND",
        "streetDirectionId": "W",
        "streetTypeId": "LINE",
        "placeName": "SAULT STE. MARIE",
        "streetNameDisplayText": "SECOND LINE W, SAULT STE. MARIE"
      }
    ]
  },
  {
    "postal": "P6C8K9",
    "result": []
  },
  {
    "postal": "P6C2H9",
    "result": [
      {
        "electoralDistricts": [
          {
            "election": null,
            "id": 92,
            "name": "Sault Ste. Marie"
          }
        ],
        "pollDivisionIds": [
          10141463
        ],
        "postalCode": "P6C2H9",
        "streetName": "KORAH",
        "streetDirectionId": null,
        "streetTypeId": "RD",
        "placeName": "SAULT SAINTE MARIE",
        "streetNameDisplayText": "KORAH RD, SAULT SAINTE MARIE"
      },
      {
        "electoralDistricts": [
          {
            "election": null,
            "id": 92,
            "name": "Sault Ste. Marie"
          }
        ],
        "pollDivisionIds": [
          10141468
        ],
        "postalCode": "P6C2H9",
        "streetName": "SECOND",
        "streetDirectionId": "E",
        "streetTypeId": "LINE",
        "placeName": "SAULT STE. MARIE",
        "streetNameDisplayText": "SECOND LINE E, SAULT STE. MARIE"
      },
      {
        "electoralDistricts": [
          {
            "election": null,
            "id": 92,
            "name": "Sault Ste. Marie"
          }
        ],
        "pollDivisionIds": [
          10141464
        ],
        "postalCode": "P6C2H9",
        "streetName": "SECOND",
        "streetDirectionId": "W",
        "streetTypeId": "LINE",
        "placeName": "SAULT STE. MARIE",
        "streetNameDisplayText": "SECOND LINE W, SAULT STE. MARIE"
      },
      {
        "electoralDistricts": [
          {
            "election": null,
            "id": 92,
            "name": "Sault Ste. Marie"
          }
        ],
        "pollDivisionIds": [
          10141464
        ],
        "postalCode": "P6C2H9",
        "streetName": "SECOND LINE WEST",
        "streetDirectionId": "W",
        "streetTypeId": "LINE",
        "placeName": "SAULT STE. MARIE",
        "streetNameDisplayText": "SECOND LINE WEST LINE W, SAULT STE. MARIE"
      }
    ]
  },
  {
    "postal": "P6C3Z6",
    "result": [
      {
        "electoralDistricts": [
          {
            "election": null,
            "id": 92,
            "name": "Sault Ste. Marie"
          }
        ],
        "pollDivisionIds": [
          10141466
        ],
        "postalCode": "P6C3Z6",
        "streetName": "GILLIES",
        "streetDirectionId": null,
        "streetTypeId": "ST",
        "placeName": "SAULT STE. MARIE",
        "streetNameDisplayText": "GILLIES ST, SAULT STE. MARIE"
      }
    ]
  },
  {
    "postal": "P6C3B0",
    "result": []
  },
  {
    "postal": "P6C2H8",
    "result": [
      {
        "electoralDistricts": [
          {
            "election": null,
            "id": 92,
            "name": "Sault Ste. Marie"
          }
        ],
        "pollDivisionIds": [
          10141467
        ],
        "postalCode": "P6C2H8",
        "streetName": "WHITE OAK",
        "streetDirectionId": "W",
        "streetTypeId": "DR",
        "placeName": "SAULT STE. MARIE",
        "streetNameDisplayText": "WHITE OAK DR W, SAULT STE. MARIE"
      }
    ]
  },
  {
    "postal": "P6C3X2",
    "result": [
      {
        "electoralDistricts": [
          {
            "election": null,
            "id": 92,
            "name": "Sault Ste. Marie"
          }
        ],
        "pollDivisionIds": [
          10141466
        ],
        "postalCode": "P6C3X2",
        "streetName": "SHERBOURNE",
        "streetDirectionId": null,
        "streetTypeId": "ST",
        "placeName": "SAULT STE. MARIE",
        "streetNameDisplayText": "SHERBOURNE ST, SAULT STE. MARIE"
      }
    ]
  },
  {
    "postal": "P6C2E9",
    "result": [
      {
        "electoralDistricts": [
          {
            "election": null,
            "id": 92,
            "name": "Sault Ste. Marie"
          }
        ],
        "pollDivisionIds": [
          10141462
        ],
        "postalCode": "P6C2E9",
        "streetName": "VIVIAN",
        "streetDirectionId": null,
        "streetTypeId": "AVE",
        "placeName": "SAULT STE. MARIE",
        "streetNameDisplayText": "VIVIAN AVE, SAULT STE. MARIE"
      }
    ]
  },
  {
    "postal": "P6C9P6",
    "result": []
  },
  {
    "postal": "P6C9E2",
    "result": []
  },
  {
    "postal": "P6C9H2",
    "result": []
  },
  {
    "postal": "P6C1S8",
    "result": [
      {
        "electoralDistricts": [
          {
            "election": null,
            "id": 92,
            "name": "Sault Ste. Marie"
          }
        ],
        "pollDivisionIds": [
          10141465
        ],
        "postalCode": "P6C1S8",
        "streetName": "DOUGLAS",
        "streetDirectionId": null,
        "streetTypeId": "ST",
        "placeName": "SAULT STE. MARIE",
        "streetNameDisplayText": "DOUGLAS ST, SAULT STE. MARIE"
      }
    ]
  },
  {
    "postal": "P6C3M6",
    "result": [
      {
        "electoralDistricts": [
          {
            "election": null,
            "id": 92,
            "name": "Sault Ste. Marie"
          }
        ],
        "pollDivisionIds": [
          10141466
        ],
        "postalCode": "P6C3M6",
        "streetName": "PARLIAMENT",
        "streetDirectionId": null,
        "streetTypeId": "ST",
        "placeName": "SAULT STE. MARIE",
        "streetNameDisplayText": "PARLIAMENT ST, SAULT STE. MARIE"
      }
    ]
  },
  {
    "postal": "P6C6Z8",
    "result": []
  },
  {
    "postal": "P6C4J2",
    "result": [
      {
        "electoralDistricts": [
          {
            "election": null,
            "id": 92,
            "name": "Sault Ste. Marie"
          }
        ],
        "pollDivisionIds": [
          10141465
        ],
        "postalCode": "P6C4J2",
        "streetName": "KORAH",
        "streetDirectionId": null,
        "streetTypeId": "RD",
        "placeName": "SAULT STE. MARIE",
        "streetNameDisplayText": "KORAH RD, SAULT STE. MARIE"
      }
    ]
  },
  {
    "postal": "P6C9Y1",
    "result": []
  },
  {
    "postal": "P6C8V6",
    "result": []
  },
  {
    "postal": "P6C6B2",
    "result": [
      {
        "electoralDistricts": [
          {
            "election": null,
            "id": 92,
            "name": "Sault Ste. Marie"
          }
        ],
        "pollDivisionIds": [
          10141464
        ],
        "postalCode": "P6C6B2",
        "streetName": "DIANE",
        "streetDirectionId": null,
        "streetTypeId": "ST",
        "placeName": "SAULT STE. MARIE",
        "streetNameDisplayText": "DIANE ST, SAULT STE. MARIE"
      }
    ]
  },
  {
    "postal": "P6C1P8",
    "result": [
      {
        "electoralDistricts": [
          {
            "election": null,
            "id": 92,
            "name": "Sault Ste. Marie"
          }
        ],
        "pollDivisionIds": [
          10141460
        ],
        "postalCode": "P6C1P8",
        "streetName": "ASQUITH",
        "streetDirectionId": null,
        "streetTypeId": "ST",
        "placeName": "SAULT STE. MARIE",
        "streetNameDisplayText": "ASQUITH ST, SAULT STE. MARIE"
      }
    ]
  },
  {
    "postal": "P6C0V8",
    "result": []
  },
  {
    "postal": "P6C4Y0",
    "result": []
  },
  {
    "postal": "P6C2T4",
    "result": [
      {
        "electoralDistricts": [
          {
            "election": null,
            "id": 92,
            "name": "Sault Ste. Marie"
          }
        ],
        "pollDivisionIds": [
          10141461
        ],
        "postalCode": "P6C2T4",
        "streetName": "RUSHMERE",
        "streetDirectionId": null,
        "streetTypeId": "DR",
        "placeName": "SAULT STE. MARIE",
        "streetNameDisplayText": "RUSHMERE DR, SAULT STE. MARIE"
      }
    ]
  },
  {
    "postal": "P6C2S3",
    "result": [
      {
        "electoralDistricts": [
          {
            "election": null,
            "id": 92,
            "name": "Sault Ste. Marie"
          }
        ],
        "pollDivisionIds": [
          10141463
        ],
        "postalCode": "P6C2S3",
        "streetName": "SUSSEX",
        "streetDirectionId": null,
        "streetTypeId": "RD",
        "placeName": "SAULT STE. MARIE",
        "streetNameDisplayText": "SUSSEX RD, SAULT STE. MARIE"
      }
    ]
  },
  {
    "postal": "P6C0K0",
    "result": []
  },
  {
    "postal": "P6C5N1",
    "result": [
      {
        "electoralDistricts": [
          {
            "election": null,
            "id": 92,
            "name": "Sault Ste. Marie"
          }
        ],
        "pollDivisionIds": [
          10141460
        ],
        "postalCode": "P6C5N1",
        "streetName": "ROOSEVELT",
        "streetDirectionId": null,
        "streetTypeId": "AVE",
        "placeName": "SAULT STE. MARIE",
        "streetNameDisplayText": "ROOSEVELT AVE, SAULT STE. MARIE"
      }
    ]
  },
  {
    "postal": "P6C7T0",
    "result": []
  },
  {
    "postal": "P6C9N2",
    "result": []
  },
  {
    "postal": "P6C5L1",
    "result": [
      {
        "electoralDistricts": [
          {
            "election": null,
            "id": 92,
            "name": "Sault Ste. Marie"
          }
        ],
        "pollDivisionIds": [
          10141460
        ],
        "postalCode": "P6C5L1",
        "streetName": "ROWELL",
        "streetDirectionId": null,
        "streetTypeId": "AVE",
        "placeName": "SAULT STE. MARIE",
        "streetNameDisplayText": "ROWELL AVE, SAULT STE. MARIE"
      }
    ]
  },
  {
    "postal": "P6C7G5",
    "result": []
  },
  {
    "postal": "P6C6K2",
    "result": []
  },
  {
    "postal": "P6C6P9",
    "result": []
  },
  {
    "postal": "P6C0E6",
    "result": []
  },
  {
    "postal": "P6C8R9",
    "result": []
  },
  {
    "postal": "P6C3G9",
    "result": [
      {
        "electoralDistricts": [
          {
            "election": null,
            "id": 92,
            "name": "Sault Ste. Marie"
          }
        ],
        "pollDivisionIds": [
          10141472
        ],
        "postalCode": "P6C3G9",
        "streetName": "BUSH",
        "streetDirectionId": null,
        "streetTypeId": "ST",
        "placeName": "SAULT STE. MARIE",
        "streetNameDisplayText": "BUSH ST, SAULT STE. MARIE"
      }
    ]
  },
  {
    "postal": "P6C0V7",
    "result": []
  },
  {
    "postal": "P6C2Z1",
    "result": [
      {
        "electoralDistricts": [
          {
            "election": null,
            "id": 92,
            "name": "Sault Ste. Marie"
          }
        ],
        "pollDivisionIds": [
          10141463
        ],
        "postalCode": "P6C2Z1",
        "streetName": "ROSSMORE",
        "streetDirectionId": null,
        "streetTypeId": "RD",
        "placeName": "SAULT STE. MARIE",
        "streetNameDisplayText": "ROSSMORE RD, SAULT STE. MARIE"
      }
    ]
  },
  {
    "postal": "P6C7N1",
    "result": []
  },
  {
    "postal": "P6C3C6",
    "result": [
      {
        "electoralDistricts": [
          {
            "election": null,
            "id": 92,
            "name": "Sault Ste. Marie"
          }
        ],
        "pollDivisionIds": [
          10141467
        ],
        "postalCode": "P6C3C6",
        "streetName": "NELSON",
        "streetDirectionId": null,
        "streetTypeId": "ST",
        "placeName": "SAULT STE. MARIE",
        "streetNameDisplayText": "NELSON ST, SAULT STE. MARIE"
      }
    ]
  },
  {
    "postal": "P6C4M1",
    "result": [
      {
        "electoralDistricts": [
          {
            "election": null,
            "id": 92,
            "name": "Sault Ste. Marie"
          }
        ],
        "pollDivisionIds": [
          10141465
        ],
        "postalCode": "P6C4M1",
        "streetName": "THIRD",
        "streetDirectionId": null,
        "streetTypeId": "AVE",
        "placeName": "SAULT STE. MARIE",
        "streetNameDisplayText": "THIRD AVE, SAULT STE. MARIE"
      }
    ]
  },
  {
    "postal": "P6C9K2",
    "result": []
  },
  {
    "postal": "P6C9S6",
    "result": []
  },
  {
    "postal": "P6C4X1",
    "result": [
      {
        "electoralDistricts": [
          {
            "election": null,
            "id": 92,
            "name": "Sault Ste. Marie"
          }
        ],
        "pollDivisionIds": [
          10141460
        ],
        "postalCode": "P6C4X1",
        "streetName": "CENTRAL",
        "streetDirectionId": null,
        "streetTypeId": "ST",
        "placeName": "SAULT STE. MARIE",
        "streetNameDisplayText": "CENTRAL ST, SAULT STE. MARIE"
      }
    ]
  },
  {
    "postal": "P6C8W2",
    "result": []
  },
  {
    "postal": "P6C7N2",
    "result": []
  },
  {
    "postal": "P6C8S3",
    "result": []
  },
  {
    "postal": "P6C4V0",
    "result": []
  },
  {
    "postal": "P6C6W4",
    "result": []
  },
  {
    "postal": "P6C5M1",
    "result": [
      {
        "electoralDistricts": [
          {
            "election": null,
            "id": 92,
            "name": "Sault Ste. Marie"
          }
        ],
        "pollDivisionIds": [
          10141460
        ],
        "postalCode": "P6C5M1",
        "streetName": "WHITNEY",
        "streetDirectionId": null,
        "streetTypeId": "AVE",
        "placeName": "SAULT STE. MARIE",
        "streetNameDisplayText": "WHITNEY AVE, SAULT STE. MARIE"
      }
    ]
  },
  {
    "postal": "P6C0S4",
    "result": []
  },
  {
    "postal": "P6C5X6",
    "result": [
      {
        "electoralDistricts": [
          {
            "election": null,
            "id": 92,
            "name": "Sault Ste. Marie"
          }
        ],
        "pollDivisionIds": [
          10141463
        ],
        "postalCode": "P6C5X6",
        "streetName": "SUSSEX",
        "streetDirectionId": null,
        "streetTypeId": "RD",
        "placeName": "SAULT STE. MARIE",
        "streetNameDisplayText": "SUSSEX RD, SAULT STE. MARIE"
      }
    ]
  },
  {
    "postal": "P6C8L5",
    "result": []
  },
  {
    "postal": "P6C5M8",
    "result": [
      {
        "electoralDistricts": [
          {
            "election": null,
            "id": 92,
            "name": "Sault Ste. Marie"
          }
        ],
        "pollDivisionIds": [
          10141460
        ],
        "postalCode": "P6C5M8",
        "streetName": "ROOSEVELT",
        "streetDirectionId": null,
        "streetTypeId": "AVE",
        "placeName": "SAULT STE. MARIE",
        "streetNameDisplayText": "ROOSEVELT AVE, SAULT STE. MARIE"
      }
    ]
  },
  {
    "postal": "P6C2G3",
    "result": [
      {
        "electoralDistricts": [
          {
            "election": null,
            "id": 92,
            "name": "Sault Ste. Marie"
          }
        ],
        "pollDivisionIds": [
          10141465
        ],
        "postalCode": "P6C2G3",
        "streetName": "WOODCROFT",
        "streetDirectionId": null,
        "streetTypeId": "AVE",
        "placeName": "SAULT STE. MARIE",
        "streetNameDisplayText": "WOODCROFT AVE, SAULT STE. MARIE"
      }
    ]
  },
  {
    "postal": "P6C8E4",
    "result": []
  },
  {
    "postal": "P6C7S9",
    "result": []
  },
  {
    "postal": "P6C1K3",
    "result": [
      {
        "electoralDistricts": [
          {
            "election": null,
            "id": 92,
            "name": "Sault Ste. Marie"
          }
        ],
        "pollDivisionIds": [
          10141466
        ],
        "postalCode": "P6C1K3",
        "streetName": "WALLACE",
        "streetDirectionId": null,
        "streetTypeId": "TERR",
        "placeName": "SAULT STE. MARIE",
        "streetNameDisplayText": "WALLACE TERR, SAULT STE. MARIE"
      }
    ]
  },
  {
    "postal": "P6C4E1",
    "result": [
      {
        "electoralDistricts": [
          {
            "election": null,
            "id": 92,
            "name": "Sault Ste. Marie"
          }
        ],
        "pollDivisionIds": [
          10141456
        ],
        "postalCode": "P6C4E1",
        "streetName": "FARWELL",
        "streetDirectionId": null,
        "streetTypeId": "TERR",
        "placeName": "SAULT STE. MARIE",
        "streetNameDisplayText": "FARWELL TERR, SAULT STE. MARIE"
      }
    ]
  },
  {
    "postal": "P6C4R2",
    "result": [
      {
        "electoralDistricts": [
          {
            "election": null,
            "id": 92,
            "name": "Sault Ste. Marie"
          }
        ],
        "pollDivisionIds": [
          10141463
        ],
        "postalCode": "P6C4R2",
        "streetName": "PRENTICE",
        "streetDirectionId": null,
        "streetTypeId": "AVE",
        "placeName": "SAULT STE. MARIE",
        "streetNameDisplayText": "PRENTICE AVE, SAULT STE. MARIE"
      }
    ]
  },
  {
    "postal": "P6C6T0",
    "result": []
  },
  {
    "postal": "P6C3K5",
    "result": [
      {
        "electoralDistricts": [
          {
            "election": null,
            "id": 92,
            "name": "Sault Ste. Marie"
          }
        ],
        "pollDivisionIds": [
          10141467
        ],
        "postalCode": "P6C3K5",
        "streetName": "JOHN",
        "streetDirectionId": null,
        "streetTypeId": "ST",
        "placeName": "SAULT STE. MARIE",
        "streetNameDisplayText": "JOHN ST, SAULT STE. MARIE"
      }
    ]
  },
  {
    "postal": "P6C3S3",
    "result": [
      {
        "electoralDistricts": [
          {
            "election": null,
            "id": 92,
            "name": "Sault Ste. Marie"
          }
        ],
        "pollDivisionIds": [
          10141464
        ],
        "postalCode": "P6C3S3",
        "streetName": "SHAFER",
        "streetDirectionId": null,
        "streetTypeId": "AVE",
        "placeName": "SAULT STE. MARIE",
        "streetNameDisplayText": "SHAFER AVE, SAULT STE. MARIE"
      }
    ]
  },
  {
    "postal": "P6C3L4",
    "result": [
      {
        "electoralDistricts": [
          {
            "election": null,
            "id": 92,
            "name": "Sault Ste. Marie"
          }
        ],
        "pollDivisionIds": [
          10141471
        ],
        "postalCode": "P6C3L4",
        "streetName": "CHARLES",
        "streetDirectionId": null,
        "streetTypeId": "ST",
        "placeName": "SAULT STE. MARIE",
        "streetNameDisplayText": "CHARLES ST, SAULT STE. MARIE"
      }
    ]
  },
  {
    "postal": "P6C9Y2",
    "result": []
  },
  {
    "postal": "P6C1E0",
    "result": []
  },
  {
    "postal": "P6C9A4",
    "result": []
  },
  {
    "postal": "P6C1L3",
    "result": [
      {
        "electoralDistricts": [
          {
            "election": null,
            "id": 92,
            "name": "Sault Ste. Marie"
          }
        ],
        "pollDivisionIds": [
          10141465
        ],
        "postalCode": "P6C1L3",
        "streetName": "WALLACE",
        "streetDirectionId": null,
        "streetTypeId": "TERR",
        "placeName": "SAULT STE. MARIE",
        "streetNameDisplayText": "WALLACE TERR, SAULT STE. MARIE"
      }
    ]
  },
  {
    "postal": "P6C6N1",
    "result": []
  },
  {
    "postal": "P6C6G7",
    "result": []
  },
  {
    "postal": "P6C7W1",
    "result": []
  },
  {
    "postal": "P6C4M6",
    "result": [
      {
        "electoralDistricts": [
          {
            "election": null,
            "id": 92,
            "name": "Sault Ste. Marie"
          }
        ],
        "pollDivisionIds": [
          10141465
        ],
        "postalCode": "P6C4M6",
        "streetName": "THIRD",
        "streetDirectionId": null,
        "streetTypeId": "AVE",
        "placeName": "SAULT STE. MARIE",
        "streetNameDisplayText": "THIRD AVE, SAULT STE. MARIE"
      }
    ]
  },
  {
    "postal": "P6C1K0",
    "result": []
  },
  {
    "postal": "P6C3E2",
    "result": [
      {
        "electoralDistricts": [
          {
            "election": null,
            "id": 92,
            "name": "Sault Ste. Marie"
          }
        ],
        "pollDivisionIds": [
          10141467
        ],
        "postalCode": "P6C3E2",
        "streetName": "NORTHERN",
        "streetDirectionId": "W",
        "streetTypeId": "AVE",
        "placeName": "SAULT STE. MARIE",
        "streetNameDisplayText": "NORTHERN AVE W, SAULT STE. MARIE"
      }
    ]
  },
  {
    "postal": "P6C5H4",
    "result": [
      {
        "electoralDistricts": [
          {
            "election": null,
            "id": 92,
            "name": "Sault Ste. Marie"
          }
        ],
        "pollDivisionIds": [
          10141460
        ],
        "postalCode": "P6C5H4",
        "streetName": "DRYDEN",
        "streetDirectionId": null,
        "streetTypeId": "AVE",
        "placeName": "SAULT STE. MARIE",
        "streetNameDisplayText": "DRYDEN AVE, SAULT STE. MARIE"
      }
    ]
  },
  {
    "postal": "P6C1K7",
    "result": [
      {
        "electoralDistricts": [
          {
            "election": null,
            "id": 92,
            "name": "Sault Ste. Marie"
          }
        ],
        "pollDivisionIds": [
          10141466
        ],
        "postalCode": "P6C1K7",
        "streetName": "WALLACE",
        "streetDirectionId": null,
        "streetTypeId": "TERR",
        "placeName": "SAULT STE. MARIE",
        "streetNameDisplayText": "WALLACE TERR, SAULT STE. MARIE"
      }
    ]
  },
  {
    "postal": "P6C0H0",
    "result": []
  },
  {
    "postal": "P6C0J3",
    "result": []
  },
  {
    "postal": "P6C1X6",
    "result": [
      {
        "electoralDistricts": [
          {
            "election": null,
            "id": 92,
            "name": "Sault Ste. Marie"
          }
        ],
        "pollDivisionIds": [
          10141460
        ],
        "postalCode": "P6C1X6",
        "streetName": "EAST BALFOUR",
        "streetDirectionId": null,
        "streetTypeId": "ST",
        "placeName": "SAULT STE. MARIE",
        "streetNameDisplayText": "EAST BALFOUR ST, SAULT STE. MARIE"
      }
    ]
  },
  {
    "postal": "P6C2Z6",
    "result": [
      {
        "electoralDistricts": [
          {
            "election": null,
            "id": 92,
            "name": "Sault Ste. Marie"
          }
        ],
        "pollDivisionIds": [
          10141464
        ],
        "postalCode": "P6C2Z6",
        "streetName": "ELLIOTT",
        "streetDirectionId": null,
        "streetTypeId": "RD",
        "placeName": "SAULT STE. MARIE",
        "streetNameDisplayText": "ELLIOTT RD, SAULT STE. MARIE"
      }
    ]
  },
  {
    "postal": "P6C4R9",
    "result": [
      {
        "electoralDistricts": [
          {
            "election": null,
            "id": 92,
            "name": "Sault Ste. Marie"
          }
        ],
        "pollDivisionIds": [
          10141465
        ],
        "postalCode": "P6C4R9",
        "streetName": "TURNER",
        "streetDirectionId": null,
        "streetTypeId": "AVE",
        "placeName": "SAULT STE. MARIE",
        "streetNameDisplayText": "TURNER AVE, SAULT STE. MARIE"
      }
    ]
  },
  {
    "postal": "P6C0W8",
    "result": []
  },
  {
    "postal": "P6C1L4",
    "result": [
      {
        "electoralDistricts": [
          {
            "election": null,
            "id": 92,
            "name": "Sault Ste. Marie"
          }
        ],
        "pollDivisionIds": [
          10141465
        ],
        "postalCode": "P6C1L4",
        "streetName": "WALLACE",
        "streetDirectionId": null,
        "streetTypeId": "TERR",
        "placeName": "SAULT STE. MARIE",
        "streetNameDisplayText": "WALLACE TERR, SAULT STE. MARIE"
      }
    ]
  },
  {
    "postal": "P6C0C8",
    "result": []
  },
  {
    "postal": "P6C9X7",
    "result": []
  },
  {
    "postal": "P6C4T1",
    "result": [
      {
        "electoralDistricts": [
          {
            "election": null,
            "id": 92,
            "name": "Sault Ste. Marie"
          }
        ],
        "pollDivisionIds": [
          10141465
        ],
        "postalCode": "P6C4T1",
        "streetName": "MCFADDEN",
        "streetDirectionId": null,
        "streetTypeId": "AVE",
        "placeName": "SAULT STE. MARIE",
        "streetNameDisplayText": "MCFADDEN AVE, SAULT STE. MARIE"
      }
    ]
  },
  {
    "postal": "P6C0M0",
    "result": []
  },
  {
    "postal": "P6C6A2",
    "result": [
      {
        "electoralDistricts": [
          {
            "election": null,
            "id": 92,
            "name": "Sault Ste. Marie"
          }
        ],
        "pollDivisionIds": [
          10141460
        ],
        "postalCode": "P6C6A2",
        "streetName": "WALLACE",
        "streetDirectionId": null,
        "streetTypeId": "TERR",
        "placeName": "SAULT STE. MARIE",
        "streetNameDisplayText": "WALLACE TERR, SAULT STE. MARIE"
      }
    ]
  },
  {
    "postal": "P6C9S8",
    "result": []
  },
  {
    "postal": "P6C9T4",
    "result": []
  },
  {
    "postal": "P6C9Y4",
    "result": []
  },
  {
    "postal": "P6C6G5",
    "result": [
      {
        "electoralDistricts": [
          {
            "election": null,
            "id": 92,
            "name": "Sault Ste. Marie"
          }
        ],
        "pollDivisionIds": [
          10141459
        ],
        "postalCode": "P6C6G5",
        "streetName": "ANDERSON",
        "streetDirectionId": null,
        "streetTypeId": "RD",
        "placeName": "SAULT STE. MARIE",
        "streetNameDisplayText": "ANDERSON RD, SAULT STE. MARIE"
      }
    ]
  },
  {
    "postal": "P6C6H9",
    "result": []
  },
  {
    "postal": "P6C2P3",
    "result": [
      {
        "electoralDistricts": [
          {
            "election": null,
            "id": 92,
            "name": "Sault Ste. Marie"
          }
        ],
        "pollDivisionIds": [
          10141461
        ],
        "postalCode": "P6C2P3",
        "streetName": "ST BASIL'S",
        "streetDirectionId": null,
        "streetTypeId": "DR",
        "placeName": "SAULT STE. MARIE",
        "streetNameDisplayText": "ST BASIL'S DR, SAULT STE. MARIE"
      },
      {
        "electoralDistricts": [
          {
            "election": null,
            "id": 92,
            "name": "Sault Ste. Marie"
          }
        ],
        "pollDivisionIds": [
          10141461
        ],
        "postalCode": "P6C2P3",
        "streetName": "ST. BASIL'S",
        "streetDirectionId": null,
        "streetTypeId": "DR",
        "placeName": "SAULT STE. MARIE",
        "streetNameDisplayText": "ST. BASIL'S DR, SAULT STE. MARIE"
      }
    ]
  },
  {
    "postal": "P6C1T6",
    "result": [
      {
        "electoralDistricts": [
          {
            "election": null,
            "id": 92,
            "name": "Sault Ste. Marie"
          }
        ],
        "pollDivisionIds": [
          10141462
        ],
        "postalCode": "P6C1T6",
        "streetName": "DOUGLAS",
        "streetDirectionId": null,
        "streetTypeId": "ST",
        "placeName": "SAULT STE. MARIE",
        "streetNameDisplayText": "DOUGLAS ST, SAULT STE. MARIE"
      }
    ]
  },
  {
    "postal": "P6C4P6",
    "result": [
      {
        "electoralDistricts": [
          {
            "election": null,
            "id": 92,
            "name": "Sault Ste. Marie"
          }
        ],
        "pollDivisionIds": [
          10141462
        ],
        "postalCode": "P6C4P6",
        "streetName": "PRENTICE",
        "streetDirectionId": null,
        "streetTypeId": "AVE",
        "placeName": "SAULT STE. MARIE",
        "streetNameDisplayText": "PRENTICE AVE, SAULT STE. MARIE"
      }
    ]
  },
  {
    "postal": "P6C3K1",
    "result": [
      {
        "electoralDistricts": [
          {
            "election": null,
            "id": 92,
            "name": "Sault Ste. Marie"
          }
        ],
        "pollDivisionIds": [
          10141471
        ],
        "postalCode": "P6C3K1",
        "streetName": "JOHN",
        "streetDirectionId": null,
        "streetTypeId": "ST",
        "placeName": "SAULT STE. MARIE",
        "streetNameDisplayText": "JOHN ST, SAULT STE. MARIE"
      }
    ]
  },
  {
    "postal": "P6C6X4",
    "result": []
  },
  {
    "postal": "P6C4M8",
    "result": [
      {
        "electoralDistricts": [
          {
            "election": null,
            "id": 92,
            "name": "Sault Ste. Marie"
          }
        ],
        "pollDivisionIds": [
          10141463
        ],
        "postalCode": "P6C4M8",
        "streetName": "THIRD",
        "streetDirectionId": null,
        "streetTypeId": "AVE",
        "placeName": "SAULT STE. MARIE",
        "streetNameDisplayText": "THIRD AVE, SAULT STE. MARIE"
      }
    ]
  },
  {
    "postal": "P6C2Y1",
    "result": [
      {
        "electoralDistricts": [
          {
            "election": null,
            "id": 92,
            "name": "Sault Ste. Marie"
          }
        ],
        "pollDivisionIds": [
          10141456
        ],
        "postalCode": "P6C2Y1",
        "streetName": "LANGDON",
        "streetDirectionId": null,
        "streetTypeId": "RD",
        "placeName": "SAULT STE. MARIE",
        "streetNameDisplayText": "LANGDON RD, SAULT STE. MARIE"
      }
    ]
  },
  {
    "postal": "P6C6M1",
    "result": []
  },
  {
    "postal": "P6C5L8",
    "result": [
      {
        "electoralDistricts": [
          {
            "election": null,
            "id": 92,
            "name": "Sault Ste. Marie"
          }
        ],
        "pollDivisionIds": [
          10141460
        ],
        "postalCode": "P6C5L8",
        "streetName": "WHITNEY",
        "streetDirectionId": null,
        "streetTypeId": "AVE",
        "placeName": "SAULT STE. MARIE",
        "streetNameDisplayText": "WHITNEY AVE, SAULT STE. MARIE"
      }
    ]
  },
  {
    "postal": "P6C3P6",
    "result": []
  },
  {
    "postal": "P6C9A5",
    "result": []
  },
  {
    "postal": "P6C7K1",
    "result": []
  },
  {
    "postal": "P6C3J4",
    "result": [
      {
        "electoralDistricts": [
          {
            "election": null,
            "id": 92,
            "name": "Sault Ste. Marie"
          }
        ],
        "pollDivisionIds": [
          10141471
        ],
        "postalCode": "P6C3J4",
        "streetName": "JOHN",
        "streetDirectionId": null,
        "streetTypeId": "ST",
        "placeName": "SAULT STE. MARIE",
        "streetNameDisplayText": "JOHN ST, SAULT STE. MARIE"
      }
    ]
  },
  {
    "postal": "P6C5E7",
    "result": []
  },
  {
    "postal": "P6C3A7",
    "result": [
      {
        "electoralDistricts": [
          {
            "election": null,
            "id": 92,
            "name": "Sault Ste. Marie"
          }
        ],
        "pollDivisionIds": [
          10141457
        ],
        "postalCode": "P6C3A7",
        "streetName": "HILLSIDE",
        "streetDirectionId": null,
        "streetTypeId": "DR",
        "placeName": "SAULT STE. MARIE",
        "streetNameDisplayText": "HILLSIDE DR, SAULT STE. MARIE"
      }
    ]
  },
  {
    "postal": "P6C1B9",
    "result": [
      {
        "electoralDistricts": [
          {
            "election": null,
            "id": 92,
            "name": "Sault Ste. Marie"
          }
        ],
        "pollDivisionIds": [
          10141460
        ],
        "postalCode": "P6C1B9",
        "streetName": "METZGER",
        "streetDirectionId": null,
        "streetTypeId": "ST",
        "placeName": "SAULT STE. MARIE",
        "streetNameDisplayText": "METZGER ST, SAULT STE. MARIE"
      }
    ]
  },
  {
    "postal": "P6C9E8",
    "result": []
  },
  {
    "postal": "P6C1C9",
    "result": [
      {
        "electoralDistricts": [
          {
            "election": null,
            "id": 92,
            "name": "Sault Ste. Marie"
          }
        ],
        "pollDivisionIds": [
          10141460
        ],
        "postalCode": "P6C1C9",
        "streetName": "MCALLEN",
        "streetDirectionId": null,
        "streetTypeId": "ST",
        "placeName": "SAULT STE. MARIE",
        "streetNameDisplayText": "MCALLEN ST, SAULT STE. MARIE"
      }
    ]
  },
  {
    "postal": "P6C3B5",
    "result": [
      {
        "electoralDistricts": [
          {
            "election": null,
            "id": 92,
            "name": "Sault Ste. Marie"
          }
        ],
        "pollDivisionIds": [
          10141457
        ],
        "postalCode": "P6C3B5",
        "streetName": "THIRD",
        "streetDirectionId": "W",
        "streetTypeId": "LINE",
        "placeName": "SAULT STE. MARIE",
        "streetNameDisplayText": "THIRD LINE W, SAULT STE. MARIE"
      }
    ]
  },
  {
    "postal": "P6C8R0",
    "result": []
  },
  {
    "postal": "P6C3P2",
    "result": [
      {
        "electoralDistricts": [
          {
            "election": null,
            "id": 92,
            "name": "Sault Ste. Marie"
          }
        ],
        "pollDivisionIds": [
          10141466
        ],
        "postalCode": "P6C3P2",
        "streetName": "NORTHLAND",
        "streetDirectionId": null,
        "streetTypeId": "RD",
        "placeName": "SAULT STE. MARIE",
        "streetNameDisplayText": "NORTHLAND RD, SAULT STE. MARIE"
      }
    ]
  },
  {
    "postal": "P6C5V4",
    "result": [
      {
        "electoralDistricts": [
          {
            "election": null,
            "id": 92,
            "name": "Sault Ste. Marie"
          }
        ],
        "pollDivisionIds": [
          10141461
        ],
        "postalCode": "P6C5V4",
        "streetName": "AMHERST",
        "streetDirectionId": null,
        "streetTypeId": "ST",
        "placeName": "SAULT STE. MARIE",
        "streetNameDisplayText": "AMHERST ST, SAULT STE. MARIE"
      }
    ]
  },
  {
    "postal": "P6C4H0",
    "result": []
  },
  {
    "postal": "P6C4S7",
    "result": [
      {
        "electoralDistricts": [
          {
            "election": null,
            "id": 92,
            "name": "Sault Ste. Marie"
          }
        ],
        "pollDivisionIds": [
          10141462
        ],
        "postalCode": "P6C4S7",
        "streetName": "TURNER",
        "streetDirectionId": null,
        "streetTypeId": "AVE",
        "placeName": "SAULT STE. MARIE",
        "streetNameDisplayText": "TURNER AVE, SAULT STE. MARIE"
      }
    ]
  },
  {
    "postal": "P6C6C2",
    "result": []
  },
  {
    "postal": "P6C8W3",
    "result": []
  },
  {
    "postal": "P6C4M5",
    "result": [
      {
        "electoralDistricts": [
          {
            "election": null,
            "id": 92,
            "name": "Sault Ste. Marie"
          }
        ],
        "pollDivisionIds": [
          10141465
        ],
        "postalCode": "P6C4M5",
        "streetName": "THIRD",
        "streetDirectionId": null,
        "streetTypeId": "AVE",
        "placeName": "SAULT STE. MARIE",
        "streetNameDisplayText": "THIRD AVE, SAULT STE. MARIE"
      }
    ]
  },
  {
    "postal": "P6C5T1",
    "result": [
      {
        "electoralDistricts": [
          {
            "election": null,
            "id": 92,
            "name": "Sault Ste. Marie"
          }
        ],
        "pollDivisionIds": [
          10141461
        ],
        "postalCode": "P6C5T1",
        "streetName": "BROADVIEW",
        "streetDirectionId": null,
        "streetTypeId": "DR",
        "placeName": "SAULT STE. MARIE",
        "streetNameDisplayText": "BROADVIEW DR, SAULT STE. MARIE"
      }
    ]
  },
  {
    "postal": "P6C3B3",
    "result": [
      {
        "electoralDistricts": [
          {
            "election": null,
            "id": 92,
            "name": "Sault Ste. Marie"
          }
        ],
        "pollDivisionIds": [
          10141457
        ],
        "postalCode": "P6C3B3",
        "streetName": "FAIRVIEW",
        "streetDirectionId": null,
        "streetTypeId": "AVE",
        "placeName": "SAULT STE. MARIE",
        "streetNameDisplayText": "FAIRVIEW AVE, SAULT STE. MARIE"
      }
    ]
  },
  {
    "postal": "P6C6C6",
    "result": [
      {
        "electoralDistricts": [
          {
            "election": null,
            "id": 92,
            "name": "Sault Ste. Marie"
          }
        ],
        "pollDivisionIds": [
          10141461
        ],
        "postalCode": "P6C6C6",
        "streetName": "ALPINE",
        "streetDirectionId": null,
        "streetTypeId": "ST",
        "placeName": "SAULT STE. MARIE",
        "streetNameDisplayText": "ALPINE ST, SAULT STE. MARIE"
      }
    ]
  },
  {
    "postal": "P6C7N8",
    "result": []
  },
  {
    "postal": "P6C2Y3",
    "result": [
      {
        "electoralDistricts": [
          {
            "election": null,
            "id": 92,
            "name": "Sault Ste. Marie"
          }
        ],
        "pollDivisionIds": [
          10141456
        ],
        "postalCode": "P6C2Y3",
        "streetName": "LANGDON",
        "streetDirectionId": null,
        "streetTypeId": "RD",
        "placeName": "SAULT STE. MARIE",
        "streetNameDisplayText": "LANGDON RD, SAULT STE. MARIE"
      }
    ]
  },
  {
    "postal": "P6C2R6",
    "result": [
      {
        "electoralDistricts": [
          {
            "election": null,
            "id": 92,
            "name": "Sault Ste. Marie"
          }
        ],
        "pollDivisionIds": [
          10141461
        ],
        "postalCode": "P6C2R6",
        "streetName": "DIGBY",
        "streetDirectionId": null,
        "streetTypeId": "CRES",
        "placeName": "SAULT STE. MARIE",
        "streetNameDisplayText": "DIGBY CRES, SAULT STE. MARIE"
      }
    ]
  },
  {
    "postal": "P6C7N3",
    "result": []
  },
  {
    "postal": "P6C8J2",
    "result": []
  },
  {
    "postal": "P6C6A9",
    "result": [
      {
        "electoralDistricts": [
          {
            "election": null,
            "id": 92,
            "name": "Sault Ste. Marie"
          }
        ],
        "pollDivisionIds": [
          10141464
        ],
        "postalCode": "P6C6A9",
        "streetName": "BITONTI",
        "streetDirectionId": null,
        "streetTypeId": "CRES",
        "placeName": "SAULT STE.  MARIE",
        "streetNameDisplayText": "BITONTI CRES, SAULT STE.  MARIE"
      },
      {
        "electoralDistricts": [
          {
            "election": null,
            "id": 92,
            "name": "Sault Ste. Marie"
          }
        ],
        "pollDivisionIds": [
          10141464
        ],
        "postalCode": "P6C6A9",
        "streetName": "BITONTI",
        "streetDirectionId": null,
        "streetTypeId": "CRES",
        "placeName": "SAULT STE. MARIE",
        "streetNameDisplayText": "BITONTI CRES, SAULT STE. MARIE"
      }
    ]
  },
  {
    "postal": "P6C3V2",
    "result": [
      {
        "electoralDistricts": [
          {
            "election": null,
            "id": 92,
            "name": "Sault Ste. Marie"
          }
        ],
        "pollDivisionIds": [
          10141464
        ],
        "postalCode": "P6C3V2",
        "streetName": "WELLINGTON",
        "streetDirectionId": "W",
        "streetTypeId": "ST",
        "placeName": "SAULT STE. MARIE",
        "streetNameDisplayText": "WELLINGTON ST W, SAULT STE. MARIE"
      }
    ]
  },
  {
    "postal": "P6C2N3",
    "result": [
      {
        "electoralDistricts": [
          {
            "election": null,
            "id": 92,
            "name": "Sault Ste. Marie"
          }
        ],
        "pollDivisionIds": [
          10141464
        ],
        "postalCode": "P6C2N3",
        "streetName": "HAMPTON",
        "streetDirectionId": null,
        "streetTypeId": "RD",
        "placeName": "SAULT STE.  MARIE",
        "streetNameDisplayText": "HAMPTON RD, SAULT STE.  MARIE"
      },
      {
        "electoralDistricts": [
          {
            "election": null,
            "id": 92,
            "name": "Sault Ste. Marie"
          }
        ],
        "pollDivisionIds": [
          10141464
        ],
        "postalCode": "P6C2N3",
        "streetName": "HAMPTON",
        "streetDirectionId": null,
        "streetTypeId": "RD",
        "placeName": "SAULT STE. MARIE",
        "streetNameDisplayText": "HAMPTON RD, SAULT STE. MARIE"
      }
    ]
  },
  {
    "postal": "P6C1S5",
    "result": []
  },
  {
    "postal": "P6C4T7",
    "result": [
      {
        "electoralDistricts": [
          {
            "election": null,
            "id": 92,
            "name": "Sault Ste. Marie"
          }
        ],
        "pollDivisionIds": [
          10141463
        ],
        "postalCode": "P6C4T7",
        "streetName": "EDISON",
        "streetDirectionId": null,
        "streetTypeId": "AVE",
        "placeName": "SAULT STE. MARIE",
        "streetNameDisplayText": "EDISON AVE, SAULT STE. MARIE"
      }
    ]
  },
  {
    "postal": "P6C6Y7",
    "result": []
  },
  {
    "postal": "P6C0W7",
    "result": []
  },
  {
    "postal": "P6C2W9",
    "result": [
      {
        "electoralDistricts": [
          {
            "election": null,
            "id": 92,
            "name": "Sault Ste. Marie"
          }
        ],
        "pollDivisionIds": [
          10141464
        ],
        "postalCode": "P6C2W9",
        "streetName": "CHESHIRE",
        "streetDirectionId": null,
        "streetTypeId": "RD",
        "placeName": "SAULT STE. MARIE",
        "streetNameDisplayText": "CHESHIRE RD, SAULT STE. MARIE"
      }
    ]
  },
  {
    "postal": "P6C8V0",
    "result": []
  },
  {
    "postal": "P6C0H4",
    "result": []
  },
  {
    "postal": "P6C2T1",
    "result": [
      {
        "electoralDistricts": [
          {
            "election": null,
            "id": 92,
            "name": "Sault Ste. Marie"
          }
        ],
        "pollDivisionIds": [
          10141461
        ],
        "postalCode": "P6C2T1",
        "streetName": "RUSHMERE",
        "streetDirectionId": null,
        "streetTypeId": "DR",
        "placeName": "SAULT STE. MARIE",
        "streetNameDisplayText": "RUSHMERE DR, SAULT STE. MARIE"
      }
    ]
  },
  {
    "postal": "P6C1B1",
    "result": [
      {
        "electoralDistricts": [
          {
            "election": null,
            "id": 92,
            "name": "Sault Ste. Marie"
          }
        ],
        "pollDivisionIds": [
          10141472
        ],
        "postalCode": "P6C1B1",
        "streetName": "ST ANDREW'S",
        "streetDirectionId": null,
        "streetTypeId": "TERR",
        "placeName": "SAULT STE. MARIE",
        "streetNameDisplayText": "ST ANDREW'S TERR, SAULT STE. MARIE"
      },
      {
        "electoralDistricts": [
          {
            "election": null,
            "id": 92,
            "name": "Sault Ste. Marie"
          }
        ],
        "pollDivisionIds": [
          10141471
        ],
        "postalCode": "P6C1B1",
        "streetName": "ST. ANDREW'S",
        "streetDirectionId": null,
        "streetTypeId": "TERR",
        "placeName": "SAULT STE. MARIE",
        "streetNameDisplayText": "ST. ANDREW'S TERR, SAULT STE. MARIE"
      }
    ]
  },
  {
    "postal": "P6C8B6",
    "result": []
  },
  {
    "postal": "P6C6H1",
    "result": [
      {
        "electoralDistricts": [
          {
            "election": null,
            "id": 92,
            "name": "Sault Ste. Marie"
          }
        ],
        "pollDivisionIds": [
          10141457
        ],
        "postalCode": "P6C6H1",
        "streetName": "GREENFIELD",
        "streetDirectionId": null,
        "streetTypeId": "DR",
        "placeName": "SAULT STE. MARIE",
        "streetNameDisplayText": "GREENFIELD DR, SAULT STE. MARIE"
      }
    ]
  },
  {
    "postal": "P6C8T8",
    "result": []
  },
  {
    "postal": "P6C0T4",
    "result": []
  },
  {
    "postal": "P6C2C4",
    "result": [
      {
        "electoralDistricts": [
          {
            "election": null,
            "id": 92,
            "name": "Sault Ste. Marie"
          }
        ],
        "pollDivisionIds": [
          10141465
        ],
        "postalCode": "P6C2C4",
        "streetName": "ESTELLE",
        "streetDirectionId": null,
        "streetTypeId": "AVE",
        "placeName": "SAULT STE. MARIE",
        "streetNameDisplayText": "ESTELLE AVE, SAULT STE. MARIE"
      },
      {
        "electoralDistricts": [
          {
            "election": null,
            "id": 92,
            "name": "Sault Ste. Marie"
          }
        ],
        "pollDivisionIds": [
          10141465
        ],
        "postalCode": "P6C2C4",
        "streetName": "ESTELLE",
        "streetDirectionId": null,
        "streetTypeId": "ST",
        "placeName": "SAULT STE. MARIE",
        "streetNameDisplayText": "ESTELLE ST, SAULT STE. MARIE"
      }
    ]
  },
  {
    "postal": "P6C8N3",
    "result": []
  },
  {
    "postal": "P6C4L8",
    "result": [
      {
        "electoralDistricts": [
          {
            "election": null,
            "id": 92,
            "name": "Sault Ste. Marie"
          }
        ],
        "pollDivisionIds": [
          10141465
        ],
        "postalCode": "P6C4L8",
        "streetName": "FOURTH",
        "streetDirectionId": null,
        "streetTypeId": "AVE",
        "placeName": "SAULT STE. MARIE",
        "streetNameDisplayText": "FOURTH AVE, SAULT STE. MARIE"
      }
    ]
  },
  {
    "postal": "P6C2B5",
    "result": [
      {
        "electoralDistricts": [
          {
            "election": null,
            "id": 92,
            "name": "Sault Ste. Marie"
          }
        ],
        "pollDivisionIds": [
          10141465
        ],
        "postalCode": "P6C2B5",
        "streetName": "CUMBERLAND",
        "streetDirectionId": null,
        "streetTypeId": "AVE",
        "placeName": "SAULT STE. MARIE",
        "streetNameDisplayText": "CUMBERLAND AVE, SAULT STE. MARIE"
      }
    ]
  },
  {
    "postal": "P6C3H1",
    "result": [
      {
        "electoralDistricts": [
          {
            "election": null,
            "id": 92,
            "name": "Sault Ste. Marie"
          }
        ],
        "pollDivisionIds": [
          10141472
        ],
        "postalCode": "P6C3H1",
        "streetName": "BUSH",
        "streetDirectionId": null,
        "streetTypeId": "ST",
        "placeName": "SAULT STE. MARIE",
        "streetNameDisplayText": "BUSH ST, SAULT STE. MARIE"
      }
    ]
  },
  {
    "postal": "P6C4Y1",
    "result": [
      {
        "electoralDistricts": [
          {
            "election": null,
            "id": 92,
            "name": "Sault Ste. Marie"
          }
        ],
        "pollDivisionIds": [
          10141460
        ],
        "postalCode": "P6C4Y1",
        "streetName": "LETCHER",
        "streetDirectionId": null,
        "streetTypeId": "ST",
        "placeName": "SAULT STE. MARIE",
        "streetNameDisplayText": "LETCHER ST, SAULT STE. MARIE"
      }
    ]
  },
  {
    "postal": "P6C7E2",
    "result": []
  },
  {
    "postal": "P6C2P5",
    "result": [
      {
        "electoralDistricts": [
          {
            "election": null,
            "id": 92,
            "name": "Sault Ste. Marie"
          }
        ],
        "pollDivisionIds": [
          10141461
        ],
        "postalCode": "P6C2P5",
        "streetName": "ST. BASIL'S",
        "streetDirectionId": null,
        "streetTypeId": "DR",
        "placeName": "SAULT STE. MARIE",
        "streetNameDisplayText": "ST. BASIL'S DR, SAULT STE. MARIE"
      }
    ]
  },
  {
    "postal": "P6C8R7",
    "result": []
  },
  {
    "postal": "P6C9P1",
    "result": []
  },
  {
    "postal": "P6C3B8",
    "result": [
      {
        "electoralDistricts": [
          {
            "election": null,
            "id": 92,
            "name": "Sault Ste. Marie"
          }
        ],
        "pollDivisionIds": [
          10141457
        ],
        "postalCode": "P6C3B8",
        "streetName": "THIRD",
        "streetDirectionId": "E",
        "streetTypeId": "LINE",
        "placeName": "SAULT STE. MARIE",
        "streetNameDisplayText": "THIRD LINE E, SAULT STE. MARIE"
      }
    ]
  },
  {
    "postal": "P6C3P7",
    "result": [
      {
        "electoralDistricts": [
          {
            "election": null,
            "id": 92,
            "name": "Sault Ste. Marie"
          }
        ],
        "pollDivisionIds": [
          10141466
        ],
        "postalCode": "P6C3P7",
        "streetName": "LENNOX",
        "streetDirectionId": null,
        "streetTypeId": "AVE",
        "placeName": "SAULT STE. MARIE",
        "streetNameDisplayText": "LENNOX AVE, SAULT STE. MARIE"
      }
    ]
  },
  {
    "postal": "P6C9B2",
    "result": []
  },
  {
    "postal": "P6C6Z3",
    "result": []
  },
  {
    "postal": "P6C4N5",
    "result": [
      {
        "electoralDistricts": [
          {
            "election": null,
            "id": 92,
            "name": "Sault Ste. Marie"
          }
        ],
        "pollDivisionIds": [
          10141463
        ],
        "postalCode": "P6C4N5",
        "streetName": "SECOND",
        "streetDirectionId": null,
        "streetTypeId": "AVE",
        "placeName": "SAULT STE. MARIE",
        "streetNameDisplayText": "SECOND AVE, SAULT STE. MARIE"
      }
    ]
  },
  {
    "postal": "P6C8T3",
    "result": []
  },
  {
    "postal": "P6C1V2",
    "result": [
      {
        "electoralDistricts": [
          {
            "election": null,
            "id": 92,
            "name": "Sault Ste. Marie"
          }
        ],
        "pollDivisionIds": [
          10141462
        ],
        "postalCode": "P6C1V2",
        "streetName": "DOUGLAS",
        "streetDirectionId": null,
        "streetTypeId": "ST",
        "placeName": "SAULT STE. MARIE",
        "streetNameDisplayText": "DOUGLAS ST, SAULT STE. MARIE"
      }
    ]
  },
  {
    "postal": "P6C1Y0",
    "result": []
  },
  {
    "postal": "P6C3G6",
    "result": [
      {
        "electoralDistricts": [
          {
            "election": null,
            "id": 92,
            "name": "Sault Ste. Marie"
          }
        ],
        "pollDivisionIds": [
          10141467
        ],
        "postalCode": "P6C3G6",
        "streetName": "LANGDON",
        "streetDirectionId": null,
        "streetTypeId": "CRES",
        "placeName": "SAULT STE. MARIE",
        "streetNameDisplayText": "LANGDON CRES, SAULT STE. MARIE"
      }
    ]
  },
  {
    "postal": "P6C3H7",
    "result": [
      {
        "electoralDistricts": [
          {
            "election": null,
            "id": 92,
            "name": "Sault Ste. Marie"
          }
        ],
        "pollDivisionIds": [
          10141467
        ],
        "postalCode": "P6C3H7",
        "streetName": "BUSH",
        "streetDirectionId": null,
        "streetTypeId": "ST",
        "placeName": "SAULT STE. MARIE",
        "streetNameDisplayText": "BUSH ST, SAULT STE. MARIE"
      }
    ]
  },
  {
    "postal": "P6C7X8",
    "result": []
  },
  {
    "postal": "P6C0C7",
    "result": []
  },
  {
    "postal": "P6C0W9",
    "result": []
  },
  {
    "postal": "P6C8E6",
    "result": []
  },
  {
    "postal": "P6C9Z8",
    "result": []
  },
  {
    "postal": "P6C3P4",
    "result": []
  },
  {
    "postal": "P6C6L8",
    "result": []
  },
  {
    "postal": "P6C2R4",
    "result": [
      {
        "electoralDistricts": [
          {
            "election": null,
            "id": 92,
            "name": "Sault Ste. Marie"
          }
        ],
        "pollDivisionIds": [
          10141461
        ],
        "postalCode": "P6C2R4",
        "streetName": "ASCOT",
        "streetDirectionId": null,
        "streetTypeId": "AVE",
        "placeName": "SAULT STE. MARIE",
        "streetNameDisplayText": "ASCOT AVE, SAULT STE. MARIE"
      }
    ]
  },
  {
    "postal": "P6C2W1",
    "result": [
      {
        "electoralDistricts": [
          {
            "election": null,
            "id": 92,
            "name": "Sault Ste. Marie"
          }
        ],
        "pollDivisionIds": [
          10141464
        ],
        "postalCode": "P6C2W1",
        "streetName": "KINGSFORD",
        "streetDirectionId": null,
        "streetTypeId": "RD",
        "placeName": "SAULT STE. MARIE",
        "streetNameDisplayText": "KINGSFORD RD, SAULT STE. MARIE"
      }
    ]
  },
  {
    "postal": "P6C9H8",
    "result": []
  },
  {
    "postal": "P6C8X9",
    "result": []
  },
  {
    "postal": "P6C7H4",
    "result": []
  },
  {
    "postal": "P6C3J1",
    "result": [
      {
        "electoralDistricts": [
          {
            "election": null,
            "id": 92,
            "name": "Sault Ste. Marie"
          }
        ],
        "pollDivisionIds": [
          10141467
        ],
        "postalCode": "P6C3J1",
        "streetName": "BUSH",
        "streetDirectionId": null,
        "streetTypeId": "ST",
        "placeName": "SAULT STE. MARIE",
        "streetNameDisplayText": "BUSH ST, SAULT STE. MARIE"
      }
    ]
  },
  {
    "postal": "P6C1P4",
    "result": [
      {
        "electoralDistricts": [
          {
            "election": null,
            "id": 92,
            "name": "Sault Ste. Marie"
          }
        ],
        "pollDivisionIds": [
          10141460
        ],
        "postalCode": "P6C1P4",
        "streetName": "ASQUITH",
        "streetDirectionId": null,
        "streetTypeId": "ST",
        "placeName": "SAULT STE. MARIE",
        "streetNameDisplayText": "ASQUITH ST, SAULT STE. MARIE"
      }
    ]
  },
  {
    "postal": "P6C2A3",
    "result": [
      {
        "electoralDistricts": [
          {
            "election": null,
            "id": 92,
            "name": "Sault Ste. Marie"
          }
        ],
        "pollDivisionIds": [
          10141465
        ],
        "postalCode": "P6C2A3",
        "streetName": "HENRIETTA",
        "streetDirectionId": null,
        "streetTypeId": "AVE",
        "placeName": "SAULT STE. MARIE",
        "streetNameDisplayText": "HENRIETTA AVE, SAULT STE. MARIE"
      }
    ]
  },
  {
    "postal": "P6C0Z1",
    "result": []
  },
  {
    "postal": "P6C1C1",
    "result": [
      {
        "electoralDistricts": [
          {
            "election": null,
            "id": 92,
            "name": "Sault Ste. Marie"
          }
        ],
        "pollDivisionIds": [
          10141460
        ],
        "postalCode": "P6C1C1",
        "streetName": "METZGER",
        "streetDirectionId": null,
        "streetTypeId": "ST",
        "placeName": "SAULT STE. MARIE",
        "streetNameDisplayText": "METZGER ST, SAULT STE. MARIE"
      }
    ]
  },
  {
    "postal": "P6C0H3",
    "result": []
  },
  {
    "postal": "P6C7B0",
    "result": []
  },
  {
    "postal": "P6C5K2",
    "result": [
      {
        "electoralDistricts": [
          {
            "election": null,
            "id": 92,
            "name": "Sault Ste. Marie"
          }
        ],
        "pollDivisionIds": [
          10141461
        ],
        "postalCode": "P6C5K2",
        "streetName": "ARDEN",
        "streetDirectionId": null,
        "streetTypeId": "ST",
        "placeName": "SAULT STE. MARIE",
        "streetNameDisplayText": "ARDEN ST, SAULT STE. MARIE"
      }
    ]
  },
  {
    "postal": "P6C1E9",
    "result": [
      {
        "electoralDistricts": [
          {
            "election": null,
            "id": 92,
            "name": "Sault Ste. Marie"
          }
        ],
        "pollDivisionIds": [
          10141460
        ],
        "postalCode": "P6C1E9",
        "streetName": "YATES",
        "streetDirectionId": null,
        "streetTypeId": "AVE",
        "placeName": "SAULT STE. MARIE",
        "streetNameDisplayText": "YATES AVE, SAULT STE. MARIE"
      }
    ]
  },
  {
    "postal": "P6C9W7",
    "result": []
  },
  {
    "postal": "P6C5W6",
    "result": [
      {
        "electoralDistricts": [
          {
            "election": null,
            "id": 92,
            "name": "Sault Ste. Marie"
          }
        ],
        "pollDivisionIds": [
          10141468
        ],
        "postalCode": "P6C5W6",
        "streetName": "WESTRIDGE",
        "streetDirectionId": null,
        "streetTypeId": "RD",
        "placeName": "SAULT STE. MARIE",
        "streetNameDisplayText": "WESTRIDGE RD, SAULT STE. MARIE"
      }
    ]
  },
  {
    "postal": "P6C6S6",
    "result": []
  },
  {
    "postal": "P6C2P8",
    "result": [
      {
        "electoralDistricts": [
          {
            "election": null,
            "id": 92,
            "name": "Sault Ste. Marie"
          }
        ],
        "pollDivisionIds": [
          10141463
        ],
        "postalCode": "P6C2P8",
        "streetName": "SELBY",
        "streetDirectionId": null,
        "streetTypeId": "RD",
        "placeName": "SAULT STE. MARIE",
        "streetNameDisplayText": "SELBY RD, SAULT STE. MARIE"
      }
    ]
  },
  {
    "postal": "P6C4P8",
    "result": [
      {
        "electoralDistricts": [
          {
            "election": null,
            "id": 92,
            "name": "Sault Ste. Marie"
          }
        ],
        "pollDivisionIds": [
          10141462
        ],
        "postalCode": "P6C4P8",
        "streetName": "PRENTICE",
        "streetDirectionId": null,
        "streetTypeId": "AVE",
        "placeName": "SAULT STE. MARIE",
        "streetNameDisplayText": "PRENTICE AVE, SAULT STE. MARIE"
      }
    ]
  },
  {
    "postal": "P6C0V9",
    "result": []
  },
  {
    "postal": "P6C5Y2",
    "result": [
      {
        "electoralDistricts": [
          {
            "election": null,
            "id": 92,
            "name": "Sault Ste. Marie"
          }
        ],
        "pollDivisionIds": [
          10141463
        ],
        "postalCode": "P6C5Y2",
        "streetName": "DONNA",
        "streetDirectionId": null,
        "streetTypeId": "DR",
        "placeName": "SAULT STE. MARIE",
        "streetNameDisplayText": "DONNA DR, SAULT STE. MARIE"
      }
    ]
  },
  {
    "postal": "P6C7Z7",
    "result": []
  },
  {
    "postal": "P6C6Y8",
    "result": []
  },
  {
    "postal": "P6C2G7",
    "result": [
      {
        "electoralDistricts": [
          {
            "election": null,
            "id": 92,
            "name": "Sault Ste. Marie"
          }
        ],
        "pollDivisionIds": [
          10141465
        ],
        "postalCode": "P6C2G7",
        "streetName": "LAURA ST",
        "streetDirectionId": null,
        "streetTypeId": "ST",
        "placeName": "SAULT STE. MARIE",
        "streetNameDisplayText": "LAURA ST ST, SAULT STE. MARIE"
      },
      {
        "electoralDistricts": [
          {
            "election": null,
            "id": 92,
            "name": "Sault Ste. Marie"
          }
        ],
        "pollDivisionIds": [
          10141465
        ],
        "postalCode": "P6C2G7",
        "streetName": "LAURA",
        "streetDirectionId": null,
        "streetTypeId": "ST",
        "placeName": "SAULT STE. MARIE",
        "streetNameDisplayText": "LAURA ST, SAULT STE. MARIE"
      }
    ]
  },
  {
    "postal": "P6C8C1",
    "result": []
  },
  {
    "postal": "P6C5C5",
    "result": [
      {
        "electoralDistricts": [
          {
            "election": null,
            "id": 92,
            "name": "Sault Ste. Marie"
          }
        ],
        "pollDivisionIds": [
          10141460
        ],
        "postalCode": "P6C5C5",
        "streetName": "SPADINA",
        "streetDirectionId": null,
        "streetTypeId": "AVE",
        "placeName": "SAULT STE. MARIE",
        "streetNameDisplayText": "SPADINA AVE, SAULT STE. MARIE"
      }
    ]
  },
  {
    "postal": "P6C2X8",
    "result": [
      {
        "electoralDistricts": [
          {
            "election": null,
            "id": 92,
            "name": "Sault Ste. Marie"
          }
        ],
        "pollDivisionIds": [
          10141463
        ],
        "postalCode": "P6C2X8",
        "streetName": "SYDENHAM",
        "streetDirectionId": null,
        "streetTypeId": "RD",
        "placeName": "SAULT STE. MARIE",
        "streetNameDisplayText": "SYDENHAM RD, SAULT STE. MARIE"
      }
    ]
  },
  {
    "postal": "P6C1W5",
    "result": [
      {
        "electoralDistricts": [
          {
            "election": null,
            "id": 92,
            "name": "Sault Ste. Marie"
          }
        ],
        "pollDivisionIds": [
          10141466
        ],
        "postalCode": "P6C1W5",
        "streetName": "CONMEE",
        "streetDirectionId": null,
        "streetTypeId": "AVE",
        "placeName": "SAULT STE. MARIE",
        "streetNameDisplayText": "CONMEE AVE, SAULT STE. MARIE"
      }
    ]
  },
  {
    "postal": "P6C7G0",
    "result": []
  },
  {
    "postal": "P6C8J8",
    "result": []
  },
  {
    "postal": "P6C3Y0",
    "result": []
  },
  {
    "postal": "P6C9T7",
    "result": []
  },
  {
    "postal": "P6C5P4",
    "result": [
      {
        "electoralDistricts": [
          {
            "election": null,
            "id": 92,
            "name": "Sault Ste. Marie"
          }
        ],
        "pollDivisionIds": [
          10141460
        ],
        "postalCode": "P6C5P4",
        "streetName": "ALLENS SIDE",
        "streetDirectionId": null,
        "streetTypeId": "RD",
        "placeName": "SAULT STE. MARIE",
        "streetNameDisplayText": "ALLENS SIDE RD, SAULT STE. MARIE"
      },
      {
        "electoralDistricts": [
          {
            "election": null,
            "id": 92,
            "name": "Sault Ste. Marie"
          }
        ],
        "pollDivisionIds": [
          10141460
        ],
        "postalCode": "P6C5P4",
        "streetName": "ALLEN'S SIDE",
        "streetDirectionId": null,
        "streetTypeId": "RD",
        "placeName": "SAULT STE. MARIE",
        "streetNameDisplayText": "ALLEN'S SIDE RD, SAULT STE. MARIE"
      }
    ]
  },
  {
    "postal": "P6C4B0",
    "result": []
  },
  {
    "postal": "P6C9N8",
    "result": []
  },
  {
    "postal": "P6C4A7",
    "result": [
      {
        "electoralDistricts": [
          {
            "election": null,
            "id": 92,
            "name": "Sault Ste. Marie"
          }
        ],
        "pollDivisionIds": [
          10141466
        ],
        "postalCode": "P6C4A7",
        "streetName": "MARETTA",
        "streetDirectionId": null,
        "streetTypeId": "ST",
        "placeName": "SAULT STE. MARIE",
        "streetNameDisplayText": "MARETTA ST, SAULT STE. MARIE"
      }
    ]
  },
  {
    "postal": "P6C4H9",
    "result": [
      {
        "electoralDistricts": [
          {
            "election": null,
            "id": 92,
            "name": "Sault Ste. Marie"
          }
        ],
        "pollDivisionIds": [
          10141465
        ],
        "postalCode": "P6C4H9",
        "streetName": "KORAH",
        "streetDirectionId": null,
        "streetTypeId": "RD",
        "placeName": "SAULT STE. MARIE",
        "streetNameDisplayText": "KORAH RD, SAULT STE. MARIE"
      }
    ]
  },
  {
    "postal": "P6C6X1",
    "result": []
  },
  {
    "postal": "P6C9Y7",
    "result": []
  },
  {
    "postal": "P6C2Y5",
    "result": [
      {
        "electoralDistricts": [
          {
            "election": null,
            "id": 92,
            "name": "Sault Ste. Marie"
          }
        ],
        "pollDivisionIds": [
          10141463
        ],
        "postalCode": "P6C2Y5",
        "streetName": "LANGDON",
        "streetDirectionId": null,
        "streetTypeId": "RD",
        "placeName": "SAULT STE. MARIE",
        "streetNameDisplayText": "LANGDON RD, SAULT STE. MARIE"
      }
    ]
  },
  {
    "postal": "P6C8L7",
    "result": []
  },
  {
    "postal": "P6C2A8",
    "result": [
      {
        "electoralDistricts": [
          {
            "election": null,
            "id": 92,
            "name": "Sault Ste. Marie"
          }
        ],
        "pollDivisionIds": [
          10141499,
          10141465
        ],
        "postalCode": "P6C2A8",
        "streetName": "DOVERCOURT",
        "streetDirectionId": null,
        "streetTypeId": "RD",
        "placeName": "SAULT STE. MARIE",
        "streetNameDisplayText": "DOVERCOURT RD, SAULT STE. MARIE"
      }
    ]
  },
  {
    "postal": "P6C2K9",
    "result": [
      {
        "electoralDistricts": [
          {
            "election": null,
            "id": 92,
            "name": "Sault Ste. Marie"
          }
        ],
        "pollDivisionIds": [
          10141460,
          10141461
        ],
        "postalCode": "P6C2K9",
        "streetName": "SECOND",
        "streetDirectionId": "W",
        "streetTypeId": "LINE",
        "placeName": "SAULT STE. MARIE",
        "streetNameDisplayText": "SECOND LINE W, SAULT STE. MARIE"
      },
      {
        "electoralDistricts": [
          {
            "election": null,
            "id": 92,
            "name": "Sault Ste. Marie"
          }
        ],
        "pollDivisionIds": [
          10141460
        ],
        "postalCode": "P6C2K9",
        "streetName": "SECOND LINE WEST",
        "streetDirectionId": "W",
        "streetTypeId": "LINE",
        "placeName": "SAULT STE. MARIE",
        "streetNameDisplayText": "SECOND LINE WEST LINE W, SAULT STE. MARIE"
      }
    ]
  },
  {
    "postal": "P6C3E5",
    "result": [
      {
        "electoralDistricts": [
          {
            "election": null,
            "id": 92,
            "name": "Sault Ste. Marie"
          }
        ],
        "pollDivisionIds": [
          10141472
        ],
        "postalCode": "P6C3E5",
        "streetName": "MORIN",
        "streetDirectionId": null,
        "streetTypeId": "ST",
        "placeName": "SAULT STE. MARIE",
        "streetNameDisplayText": "MORIN ST, SAULT STE. MARIE"
      }
    ]
  },
  {
    "postal": "P6C8N6",
    "result": []
  },
  {
    "postal": "P6C8J4",
    "result": []
  },
  {
    "postal": "P6C4R7",
    "result": [
      {
        "electoralDistricts": [
          {
            "election": null,
            "id": 92,
            "name": "Sault Ste. Marie"
          }
        ],
        "pollDivisionIds": [
          10141463
        ],
        "postalCode": "P6C4R7",
        "streetName": "PRENTICE",
        "streetDirectionId": null,
        "streetTypeId": "AVE",
        "placeName": "SAULT STE. MARIE",
        "streetNameDisplayText": "PRENTICE AVE, SAULT STE. MARIE"
      }
    ]
  },
  {
    "postal": "P6C9K1",
    "result": []
  },
  {
    "postal": "P6C8E1",
    "result": []
  },
  {
    "postal": "P6C0R1",
    "result": []
  },
  {
    "postal": "P6C4J3",
    "result": [
      {
        "electoralDistricts": [
          {
            "election": null,
            "id": 92,
            "name": "Sault Ste. Marie"
          }
        ],
        "pollDivisionIds": [
          10141463
        ],
        "postalCode": "P6C4J3",
        "streetName": "KORAH",
        "streetDirectionId": null,
        "streetTypeId": "RD",
        "placeName": "SAULT STE. MARIE",
        "streetNameDisplayText": "KORAH RD, SAULT STE. MARIE"
      }
    ]
  },
  {
    "postal": "P6C7E7",
    "result": []
  },
  {
    "postal": "P6C0J0",
    "result": []
  },
  {
    "postal": "P6C7R8",
    "result": []
  },
  {
    "postal": "P6C9X0",
    "result": []
  },
  {
    "postal": "P6C7P6",
    "result": []
  },
  {
    "postal": "P6C0R7",
    "result": []
  },
  {
    "postal": "P6C5W1",
    "result": [
      {
        "electoralDistricts": [
          {
            "election": null,
            "id": 92,
            "name": "Sault Ste. Marie"
          }
        ],
        "pollDivisionIds": [
          10141463
        ],
        "postalCode": "P6C5W1",
        "streetName": "SELBY",
        "streetDirectionId": null,
        "streetTypeId": "RD",
        "placeName": "SAULT STE. MARIE",
        "streetNameDisplayText": "SELBY RD, SAULT STE. MARIE"
      }
    ]
  },
  {
    "postal": "P6C0K4",
    "result": []
  },
  {
    "postal": "P6C7N9",
    "result": []
  },
  {
    "postal": "P6C1N0",
    "result": []
  },
  {
    "postal": "P6C6P3",
    "result": []
  },
  {
    "postal": "P6C5A1",
    "result": [
      {
        "electoralDistricts": [
          {
            "election": null,
            "id": 92,
            "name": "Sault Ste. Marie"
          }
        ],
        "pollDivisionIds": [
          10141462
        ],
        "postalCode": "P6C5A1",
        "streetName": "GOULAIS",
        "streetDirectionId": null,
        "streetTypeId": "AVE",
        "placeName": "SAULT STE. MARIE",
        "streetNameDisplayText": "GOULAIS AVE, SAULT STE. MARIE"
      }
    ]
  },
  {
    "postal": "P6C9M9",
    "result": []
  },
  {
    "postal": "P6C7T6",
    "result": []
  },
  {
    "postal": "P6C3X0",
    "result": []
  },
  {
    "postal": "P6C2T0",
    "result": []
  },
  {
    "postal": "P6C5X9",
    "result": [
      {
        "electoralDistricts": [
          {
            "election": null,
            "id": 92,
            "name": "Sault Ste. Marie"
          }
        ],
        "pollDivisionIds": [
          10141468
        ],
        "postalCode": "P6C5X9",
        "streetName": "HIGHLAND",
        "streetDirectionId": null,
        "streetTypeId": "CRT",
        "placeName": "SAULT STE. MARIE",
        "streetNameDisplayText": "HIGHLAND CRT, SAULT STE. MARIE"
      }
    ]
  },
  {
    "postal": "P6C2R3",
    "result": [
      {
        "electoralDistricts": [
          {
            "election": null,
            "id": 92,
            "name": "Sault Ste. Marie"
          }
        ],
        "pollDivisionIds": [
          10141464
        ],
        "postalCode": "P6C2R3",
        "streetName": "CHURCHILL",
        "streetDirectionId": null,
        "streetTypeId": "AVE",
        "placeName": "SAULT STE. MARIE",
        "streetNameDisplayText": "CHURCHILL AVE, SAULT STE. MARIE"
      }
    ]
  },
  {
    "postal": "P6C5N2",
    "result": [
      {
        "electoralDistricts": [
          {
            "election": null,
            "id": 92,
            "name": "Sault Ste. Marie"
          }
        ],
        "pollDivisionIds": [
          10141459
        ],
        "postalCode": "P6C5N2",
        "streetName": "SOUTH EDEN",
        "streetDirectionId": null,
        "streetTypeId": "AVE",
        "placeName": "SAULT STE. MARIE",
        "streetNameDisplayText": "SOUTH EDEN AVE, SAULT STE. MARIE"
      }
    ]
  },
  {
    "postal": "P6C4Y7",
    "result": [
      {
        "electoralDistricts": [
          {
            "election": null,
            "id": 92,
            "name": "Sault Ste. Marie"
          }
        ],
        "pollDivisionIds": [
          10141460
        ],
        "postalCode": "P6C4Y7",
        "streetName": "LETCHER",
        "streetDirectionId": null,
        "streetTypeId": "ST",
        "placeName": "SAULT STE. MARIE",
        "streetNameDisplayText": "LETCHER ST, SAULT STE. MARIE"
      }
    ]
  },
  {
    "postal": "P6C7M0",
    "result": []
  },
  {
    "postal": "P6C8P3",
    "result": []
  },
  {
    "postal": "P6C3N3",
    "result": [
      {
        "electoralDistricts": [
          {
            "election": null,
            "id": 92,
            "name": "Sault Ste. Marie"
          }
        ],
        "pollDivisionIds": [
          10141471
        ],
        "postalCode": "P6C3N3",
        "streetName": "NORTHLAND",
        "streetDirectionId": null,
        "streetTypeId": "RD",
        "placeName": "SAULT STE. MARIE",
        "streetNameDisplayText": "NORTHLAND RD, SAULT STE. MARIE"
      }
    ]
  },
  {
    "postal": "P6C7S3",
    "result": []
  },
  {
    "postal": "P6C3V9",
    "result": [
      {
        "electoralDistricts": [
          {
            "election": null,
            "id": 92,
            "name": "Sault Ste. Marie"
          }
        ],
        "pollDivisionIds": [
          10141464
        ],
        "postalCode": "P6C3V9",
        "streetName": "PEOPLES",
        "streetDirectionId": null,
        "streetTypeId": "RD",
        "placeName": "SAULT STE. MARIE",
        "streetNameDisplayText": "PEOPLES RD, SAULT STE. MARIE"
      }
    ]
  },
  {
    "postal": "P6C9N7",
    "result": []
  },
  {
    "postal": "P6C0G4",
    "result": []
  },
  {
    "postal": "P6C2E2",
    "result": [
      {
        "electoralDistricts": [
          {
            "election": null,
            "id": 92,
            "name": "Sault Ste. Marie"
          }
        ],
        "pollDivisionIds": [
          10141462
        ],
        "postalCode": "P6C2E2",
        "streetName": "CONNAUGHT",
        "streetDirectionId": null,
        "streetTypeId": "AVE",
        "placeName": "SAULT STE.  MARIE",
        "streetNameDisplayText": "CONNAUGHT AVE, SAULT STE.  MARIE"
      },
      {
        "electoralDistricts": [
          {
            "election": null,
            "id": 92,
            "name": "Sault Ste. Marie"
          }
        ],
        "pollDivisionIds": [
          10141462
        ],
        "postalCode": "P6C2E2",
        "streetName": "CONNAUGHT",
        "streetDirectionId": null,
        "streetTypeId": "AVE",
        "placeName": "SAULT STE. MARIE",
        "streetNameDisplayText": "CONNAUGHT AVE, SAULT STE. MARIE"
      }
    ]
  },
  {
    "postal": "P6C7W8",
    "result": []
  },
  {
    "postal": "P6C7M5",
    "result": []
  },
  {
    "postal": "P6C5W8",
    "result": [
      {
        "electoralDistricts": [
          {
            "election": null,
            "id": 92,
            "name": "Sault Ste. Marie"
          }
        ],
        "pollDivisionIds": [
          10141468
        ],
        "postalCode": "P6C5W8",
        "streetName": "WESTRIDGE",
        "streetDirectionId": null,
        "streetTypeId": "RD",
        "placeName": "SAULT STE. MARIE",
        "streetNameDisplayText": "WESTRIDGE RD, SAULT STE. MARIE"
      }
    ]
  },
  {
    "postal": "P6C5E5",
    "result": [
      {
        "electoralDistricts": [
          {
            "election": null,
            "id": 92,
            "name": "Sault Ste. Marie"
          }
        ],
        "pollDivisionIds": [
          10141460
        ],
        "postalCode": "P6C5E5",
        "streetName": "SPADINA",
        "streetDirectionId": null,
        "streetTypeId": "AVE",
        "placeName": "SAULT STE. MARIE",
        "streetNameDisplayText": "SPADINA AVE, SAULT STE. MARIE"
      }
    ]
  },
  {
    "postal": "P6C1P9",
    "result": [
      {
        "electoralDistricts": [
          {
            "election": null,
            "id": 92,
            "name": "Sault Ste. Marie"
          }
        ],
        "pollDivisionIds": [
          10141460
        ],
        "postalCode": "P6C1P9",
        "streetName": "ASQUITH",
        "streetDirectionId": null,
        "streetTypeId": "ST",
        "placeName": "SAULT STE. MARIE",
        "streetNameDisplayText": "ASQUITH ST, SAULT STE. MARIE"
      }
    ]
  },
  {
    "postal": "P6C8V8",
    "result": []
  },
  {
    "postal": "P6C9G8",
    "result": []
  },
  {
    "postal": "P6C8H9",
    "result": []
  },
  {
    "postal": "P6C1Z1",
    "result": [
      {
        "electoralDistricts": [
          {
            "election": null,
            "id": 92,
            "name": "Sault Ste. Marie"
          }
        ],
        "pollDivisionIds": [
          10141467
        ],
        "postalCode": "P6C1Z1",
        "streetName": "ELM",
        "streetDirectionId": null,
        "streetTypeId": "AVE",
        "placeName": "SAULT STE. MARIE",
        "streetNameDisplayText": "ELM AVE, SAULT STE. MARIE"
      }
    ]
  },
  {
    "postal": "P6C8M3",
    "result": []
  },
  {
    "postal": "P6C5H6",
    "result": [
      {
        "electoralDistricts": [
          {
            "election": null,
            "id": 92,
            "name": "Sault Ste. Marie"
          }
        ],
        "pollDivisionIds": [
          10141460
        ],
        "postalCode": "P6C5H6",
        "streetName": "DRYDEN",
        "streetDirectionId": null,
        "streetTypeId": "AVE",
        "placeName": "SAULT STE. MARIE",
        "streetNameDisplayText": "DRYDEN AVE, SAULT STE. MARIE"
      }
    ]
  },
  {
    "postal": "P6C7W7",
    "result": []
  },
  {
    "postal": "P6C4L0",
    "result": []
  },
  {
    "postal": "P6C2N1",
    "result": [
      {
        "electoralDistricts": [
          {
            "election": null,
            "id": 92,
            "name": "Sault Ste. Marie"
          }
        ],
        "pollDivisionIds": [
          10141461
        ],
        "postalCode": "P6C2N1",
        "streetName": "WINFIELD",
        "streetDirectionId": null,
        "streetTypeId": "DR",
        "placeName": "SAULT STE. MARIE",
        "streetNameDisplayText": "WINFIELD DR, SAULT STE. MARIE"
      }
    ]
  },
  {
    "postal": "P6C2H4",
    "result": [
      {
        "electoralDistricts": [
          {
            "election": null,
            "id": 92,
            "name": "Sault Ste. Marie"
          }
        ],
        "pollDivisionIds": [
          10141464
        ],
        "postalCode": "P6C2H4",
        "streetName": "BAINBRIDGE",
        "streetDirectionId": null,
        "streetTypeId": "ST",
        "placeName": "SAULT STE. MARIE",
        "streetNameDisplayText": "BAINBRIDGE ST, SAULT STE. MARIE"
      }
    ]
  },
  {
    "postal": "P6C5C8",
    "result": [
      {
        "electoralDistricts": [
          {
            "election": null,
            "id": 92,
            "name": "Sault Ste. Marie"
          }
        ],
        "pollDivisionIds": [
          10141460
        ],
        "postalCode": "P6C5C8",
        "streetName": "SPADINA",
        "streetDirectionId": null,
        "streetTypeId": "AVE",
        "placeName": "SAULT STE. MARIE",
        "streetNameDisplayText": "SPADINA AVE, SAULT STE. MARIE"
      }
    ]
  },
  {
    "postal": "P6C8B0",
    "result": []
  },
  {
    "postal": "P6C1T4",
    "result": [
      {
        "electoralDistricts": [
          {
            "election": null,
            "id": 92,
            "name": "Sault Ste. Marie"
          }
        ],
        "pollDivisionIds": [
          10141462
        ],
        "postalCode": "P6C1T4",
        "streetName": "DOUGLAS",
        "streetDirectionId": null,
        "streetTypeId": "ST",
        "placeName": "SAULT STE. MARIE",
        "streetNameDisplayText": "DOUGLAS ST, SAULT STE. MARIE"
      }
    ]
  },
  {
    "postal": "P6C7N7",
    "result": []
  },
  {
    "postal": "P6C4L3",
    "result": [
      {
        "electoralDistricts": [
          {
            "election": null,
            "id": 92,
            "name": "Sault Ste. Marie"
          }
        ],
        "pollDivisionIds": [
          10141465
        ],
        "postalCode": "P6C4L3",
        "streetName": "FIFTH",
        "streetDirectionId": null,
        "streetTypeId": "AVE",
        "placeName": "SAULT STE. MARIE",
        "streetNameDisplayText": "FIFTH AVE, SAULT STE. MARIE"
      }
    ]
  },
  {
    "postal": "P6C2N2",
    "result": [
      {
        "electoralDistricts": [
          {
            "election": null,
            "id": 92,
            "name": "Sault Ste. Marie"
          }
        ],
        "pollDivisionIds": [
          10141461
        ],
        "postalCode": "P6C2N2",
        "streetName": "WINFIELD",
        "streetDirectionId": null,
        "streetTypeId": "DR",
        "placeName": "SAULT STE. MARIE",
        "streetNameDisplayText": "WINFIELD DR, SAULT STE. MARIE"
      }
    ]
  },
  {
    "postal": "P6C4N8",
    "result": [
      {
        "electoralDistricts": [
          {
            "election": null,
            "id": 92,
            "name": "Sault Ste. Marie"
          }
        ],
        "pollDivisionIds": [
          10141465
        ],
        "postalCode": "P6C4N8",
        "streetName": "FIRST",
        "streetDirectionId": null,
        "streetTypeId": "AVE",
        "placeName": "SAULT STE. MARIE",
        "streetNameDisplayText": "FIRST AVE, SAULT STE. MARIE"
      }
    ]
  },
  {
    "postal": "P6C3M5",
    "result": [
      {
        "electoralDistricts": [
          {
            "election": null,
            "id": 92,
            "name": "Sault Ste. Marie"
          }
        ],
        "pollDivisionIds": [
          10141466
        ],
        "postalCode": "P6C3M5",
        "streetName": "PARLIAMENT",
        "streetDirectionId": null,
        "streetTypeId": "ST",
        "placeName": "SAULT STE. MARIE",
        "streetNameDisplayText": "PARLIAMENT ST, SAULT STE. MARIE"
      }
    ]
  },
  {
    "postal": "P6C6H7",
    "result": [
      {
        "electoralDistricts": [
          {
            "election": null,
            "id": 92,
            "name": "Sault Ste. Marie"
          }
        ],
        "pollDivisionIds": [
          10141463
        ],
        "postalCode": "P6C6H7",
        "streetName": "SUSSEX",
        "streetDirectionId": null,
        "streetTypeId": "RD",
        "placeName": "SAULT STE. MARIE",
        "streetNameDisplayText": "SUSSEX RD, SAULT STE. MARIE"
      }
    ]
  },
  {
    "postal": "P6C8Y8",
    "result": []
  },
  {
    "postal": "P6C5R9",
    "result": [
      {
        "electoralDistricts": [
          {
            "election": null,
            "id": 92,
            "name": "Sault Ste. Marie"
          }
        ],
        "pollDivisionIds": [
          10141460
        ],
        "postalCode": "P6C5R9",
        "streetName": "NIXON",
        "streetDirectionId": null,
        "streetTypeId": "RD",
        "placeName": "SAULT STE. MARIE",
        "streetNameDisplayText": "NIXON RD, SAULT STE. MARIE"
      }
    ]
  },
  {
    "postal": "P6C8G3",
    "result": []
  },
  {
    "postal": "P6C4N7",
    "result": [
      {
        "electoralDistricts": [
          {
            "election": null,
            "id": 92,
            "name": "Sault Ste. Marie"
          }
        ],
        "pollDivisionIds": [
          10141465
        ],
        "postalCode": "P6C4N7",
        "streetName": "FIRST",
        "streetDirectionId": null,
        "streetTypeId": "AVE",
        "placeName": "SAULT STE. MARIE",
        "streetNameDisplayText": "FIRST AVE, SAULT STE. MARIE"
      }
    ]
  },
  {
    "postal": "P6C0B9",
    "result": []
  },
  {
    "postal": "P6C9K7",
    "result": []
  },
  {
    "postal": "P6C9K9",
    "result": []
  },
  {
    "postal": "P6C3Z2",
    "result": [
      {
        "electoralDistricts": [
          {
            "election": null,
            "id": 92,
            "name": "Sault Ste. Marie"
          }
        ],
        "pollDivisionIds": [
          10141457
        ],
        "postalCode": "P6C3Z2",
        "streetName": "EAST BRAEMAR",
        "streetDirectionId": null,
        "streetTypeId": "BAY",
        "placeName": "SAULT STE. MARIE",
        "streetNameDisplayText": "EAST BRAEMAR BAY, SAULT STE. MARIE"
      }
    ]
  },
  {
    "postal": "P6C6W7",
    "result": []
  },
  {
    "postal": "P6C0P1",
    "result": []
  },
  {
    "postal": "P6C3A0",
    "result": []
  },
  {
    "postal": "P6C8L9",
    "result": []
  },
  {
    "postal": "P6C6X0",
    "result": []
  },
  {
    "postal": "P6C3E9",
    "result": [
      {
        "electoralDistricts": [
          {
            "election": null,
            "id": 92,
            "name": "Sault Ste. Marie"
          }
        ],
        "pollDivisionIds": [
          10141467
        ],
        "postalCode": "P6C3E9",
        "streetName": "MORIN",
        "streetDirectionId": null,
        "streetTypeId": "ST",
        "placeName": "SAULT STE. MARIE",
        "streetNameDisplayText": "MORIN ST, SAULT STE. MARIE"
      }
    ]
  },
  {
    "postal": "P6C0S5",
    "result": []
  },
  {
    "postal": "P6C1A2",
    "result": [
      {
        "electoralDistricts": [
          {
            "election": null,
            "id": 92,
            "name": "Sault Ste. Marie"
          }
        ],
        "pollDivisionIds": [
          10141460
        ],
        "postalCode": "P6C1A2",
        "streetName": "BONNEY",
        "streetDirectionId": null,
        "streetTypeId": "ST",
        "placeName": "SAULT STE. MARIE",
        "streetNameDisplayText": "BONNEY ST, SAULT STE. MARIE"
      }
    ]
  },
  {
    "postal": "P6C5V8",
    "result": [
      {
        "electoralDistricts": [
          {
            "election": null,
            "id": 92,
            "name": "Sault Ste. Marie"
          }
        ],
        "pollDivisionIds": [
          10141462
        ],
        "postalCode": "P6C5V8",
        "streetName": "WILDING",
        "streetDirectionId": null,
        "streetTypeId": "AVE",
        "placeName": "SAULT STE.  MARIE",
        "streetNameDisplayText": "WILDING AVE, SAULT STE.  MARIE"
      },
      {
        "electoralDistricts": [
          {
            "election": null,
            "id": 92,
            "name": "Sault Ste. Marie"
          }
        ],
        "pollDivisionIds": [
          10141462
        ],
        "postalCode": "P6C5V8",
        "streetName": "WILDING",
        "streetDirectionId": null,
        "streetTypeId": "AVE",
        "placeName": "SAULT STE. MARIE",
        "streetNameDisplayText": "WILDING AVE, SAULT STE. MARIE"
      }
    ]
  },
  {
    "postal": "P6C8C5",
    "result": []
  },
  {
    "postal": "P6C6N0",
    "result": []
  },
  {
    "postal": "P6C9E6",
    "result": []
  },
  {
    "postal": "P6C5J7",
    "result": [
      {
        "electoralDistricts": [
          {
            "election": null,
            "id": 92,
            "name": "Sault Ste. Marie"
          }
        ],
        "pollDivisionIds": [
          10141460
        ],
        "postalCode": "P6C5J7",
        "streetName": "BORDEN",
        "streetDirectionId": null,
        "streetTypeId": "AVE",
        "placeName": "SAULT STE. MARIE",
        "streetNameDisplayText": "BORDEN AVE, SAULT STE. MARIE"
      }
    ]
  },
  {
    "postal": "P6C2R2",
    "result": [
      {
        "electoralDistricts": [
          {
            "election": null,
            "id": 92,
            "name": "Sault Ste. Marie"
          }
        ],
        "pollDivisionIds": [
          10141464
        ],
        "postalCode": "P6C2R2",
        "streetName": "CHURCHILL",
        "streetDirectionId": null,
        "streetTypeId": "AVE",
        "placeName": "SAULT STE. MARIE",
        "streetNameDisplayText": "CHURCHILL AVE, SAULT STE. MARIE"
      }
    ]
  },
  {
    "postal": "P6C0P5",
    "result": []
  },
  {
    "postal": "P6C5A7",
    "result": [
      {
        "electoralDistricts": [
          {
            "election": null,
            "id": 92,
            "name": "Sault Ste. Marie"
          }
        ],
        "pollDivisionIds": [
          10141462,
          10141460,
          10141456
        ],
        "postalCode": "P6C5A7",
        "streetName": "GOULAIS",
        "streetDirectionId": null,
        "streetTypeId": "AVE",
        "placeName": "SAULT STE. MARIE",
        "streetNameDisplayText": "GOULAIS AVE, SAULT STE. MARIE"
      }
    ]
  },
  {
    "postal": "P6C1G1",
    "result": [
      {
        "electoralDistricts": [
          {
            "election": null,
            "id": 92,
            "name": "Sault Ste. Marie"
          }
        ],
        "pollDivisionIds": [
          10141460
        ],
        "postalCode": "P6C1G1",
        "streetName": "YATES",
        "streetDirectionId": null,
        "streetTypeId": "AVE",
        "placeName": "SAULT STE. MARIE",
        "streetNameDisplayText": "YATES AVE, SAULT STE. MARIE"
      }
    ]
  },
  {
    "postal": "P6C9R6",
    "result": []
  },
  {
    "postal": "P6C4Z9",
    "result": [
      {
        "electoralDistricts": [
          {
            "election": null,
            "id": 92,
            "name": "Sault Ste. Marie"
          }
        ],
        "pollDivisionIds": [
          10141460
        ],
        "postalCode": "P6C4Z9",
        "streetName": "GOULAIS",
        "streetDirectionId": null,
        "streetTypeId": "AVE",
        "placeName": "SAULT STE. MARIE",
        "streetNameDisplayText": "GOULAIS AVE, SAULT STE. MARIE"
      }
    ]
  },
  {
    "postal": "P6C1V5",
    "result": [
      {
        "electoralDistricts": [
          {
            "election": null,
            "id": 92,
            "name": "Sault Ste. Marie"
          }
        ],
        "pollDivisionIds": [
          10141462
        ],
        "postalCode": "P6C1V5",
        "streetName": "DOUGLAS",
        "streetDirectionId": null,
        "streetTypeId": "ST",
        "placeName": "SAULT STE. MARIE",
        "streetNameDisplayText": "DOUGLAS ST, SAULT STE. MARIE"
      }
    ]
  },
  {
    "postal": "P6C9Y5",
    "result": []
  },
  {
    "postal": "P6C1P2",
    "result": [
      {
        "electoralDistricts": [
          {
            "election": null,
            "id": 92,
            "name": "Sault Ste. Marie"
          }
        ],
        "pollDivisionIds": [
          10141460
        ],
        "postalCode": "P6C1P2",
        "streetName": "ASQUITH",
        "streetDirectionId": null,
        "streetTypeId": "ST",
        "placeName": "SAULT STE. MARIE",
        "streetNameDisplayText": "ASQUITH ST, SAULT STE. MARIE"
      }
    ]
  },
  {
    "postal": "P6C5X0",
    "result": []
  },
  {
    "postal": "P6C7B8",
    "result": []
  },
  {
    "postal": "P6C0C6",
    "result": []
  },
  {
    "postal": "P6C6G1",
    "result": [
      {
        "electoralDistricts": [
          {
            "election": null,
            "id": 92,
            "name": "Sault Ste. Marie"
          }
        ],
        "pollDivisionIds": [
          10141465
        ],
        "postalCode": "P6C6G1",
        "streetName": "CREEKSIDE",
        "streetDirectionId": null,
        "streetTypeId": "LANE",
        "placeName": "SAULT STE. MARIE",
        "streetNameDisplayText": "CREEKSIDE LANE, SAULT STE. MARIE"
      },
      {
        "electoralDistricts": [
          {
            "election": null,
            "id": 92,
            "name": "Sault Ste. Marie"
          }
        ],
        "pollDivisionIds": [
          10141465
        ],
        "postalCode": "P6C6G1",
        "streetName": "VESTA",
        "streetDirectionId": null,
        "streetTypeId": "PL",
        "placeName": "SAULT STE. MARIE",
        "streetNameDisplayText": "VESTA PL, SAULT STE. MARIE"
      }
    ]
  },
  {
    "postal": "P6C3K3",
    "result": [
      {
        "electoralDistricts": [
          {
            "election": null,
            "id": 92,
            "name": "Sault Ste. Marie"
          }
        ],
        "pollDivisionIds": [
          10141460,
          10141467
        ],
        "postalCode": "P6C3K3",
        "streetName": "JOHN",
        "streetDirectionId": null,
        "streetTypeId": "ST",
        "placeName": "SAULT STE. MARIE",
        "streetNameDisplayText": "JOHN ST, SAULT STE. MARIE"
      }
    ]
  },
  {
    "postal": "P6C9R0",
    "result": []
  },
  {
    "postal": "P6C4R8",
    "result": [
      {
        "electoralDistricts": [
          {
            "election": null,
            "id": 92,
            "name": "Sault Ste. Marie"
          }
        ],
        "pollDivisionIds": [
          10141456
        ],
        "postalCode": "P6C4R8",
        "streetName": "POND",
        "streetDirectionId": null,
        "streetTypeId": "ST",
        "placeName": "SAULT STE. MARIE",
        "streetNameDisplayText": "POND ST, SAULT STE. MARIE"
      }
    ]
  },
  {
    "postal": "P6C5P9",
    "result": []
  },
  {
    "postal": "P6C8N4",
    "result": []
  },
  {
    "postal": "P6C8H4",
    "result": []
  },
  {
    "postal": "P6C4V1",
    "result": [
      {
        "electoralDistricts": [
          {
            "election": null,
            "id": 92,
            "name": "Sault Ste. Marie"
          }
        ],
        "pollDivisionIds": [
          10141462
        ],
        "postalCode": "P6C4V1",
        "streetName": "WILDING",
        "streetDirectionId": null,
        "streetTypeId": "AVE",
        "placeName": "SAULT STE. MARIE",
        "streetNameDisplayText": "WILDING AVE, SAULT STE. MARIE"
      }
    ]
  },
  {
    "postal": "P6C1K5",
    "result": [
      {
        "electoralDistricts": [
          {
            "election": null,
            "id": 92,
            "name": "Sault Ste. Marie"
          }
        ],
        "pollDivisionIds": [
          10141466
        ],
        "postalCode": "P6C1K5",
        "streetName": "WALLACE",
        "streetDirectionId": null,
        "streetTypeId": "TERR",
        "placeName": "SAULT STE. MARIE",
        "streetNameDisplayText": "WALLACE TERR, SAULT STE. MARIE"
      }
    ]
  },
  {
    "postal": "P6C1Z5",
    "result": [
      {
        "electoralDistricts": [
          {
            "election": null,
            "id": 92,
            "name": "Sault Ste. Marie"
          }
        ],
        "pollDivisionIds": [
          10141465
        ],
        "postalCode": "P6C1Z5",
        "streetName": "HENRIETTA",
        "streetDirectionId": null,
        "streetTypeId": "AVE",
        "placeName": "SAULT STE. MARIE",
        "streetNameDisplayText": "HENRIETTA AVE, SAULT STE. MARIE"
      }
    ]
  },
  {
    "postal": "P6C9L9",
    "result": []
  },
  {
    "postal": "P6C5L2",
    "result": [
      {
        "electoralDistricts": [
          {
            "election": null,
            "id": 92,
            "name": "Sault Ste. Marie"
          }
        ],
        "pollDivisionIds": [
          10141460
        ],
        "postalCode": "P6C5L2",
        "streetName": "ROWELL",
        "streetDirectionId": null,
        "streetTypeId": "AVE",
        "placeName": "SAULT STE. MARIE",
        "streetNameDisplayText": "ROWELL AVE, SAULT STE. MARIE"
      }
    ]
  },
  {
    "postal": "P6C0M2",
    "result": []
  },
  {
    "postal": "P6C1K8",
    "result": [
      {
        "electoralDistricts": [
          {
            "election": null,
            "id": 92,
            "name": "Sault Ste. Marie"
          }
        ],
        "pollDivisionIds": [
          10141466
        ],
        "postalCode": "P6C1K8",
        "streetName": "WALLACE",
        "streetDirectionId": null,
        "streetTypeId": "TERR",
        "placeName": "SAULT STE. MARIE",
        "streetNameDisplayText": "WALLACE TERR, SAULT STE. MARIE"
      }
    ]
  },
  {
    "postal": "P6C3M7",
    "result": [
      {
        "electoralDistricts": [
          {
            "election": null,
            "id": 92,
            "name": "Sault Ste. Marie"
          }
        ],
        "pollDivisionIds": [
          10141466
        ],
        "postalCode": "P6C3M7",
        "streetName": "PARLIAMENT",
        "streetDirectionId": null,
        "streetTypeId": "ST",
        "placeName": "SAULT STE. MARIE",
        "streetNameDisplayText": "PARLIAMENT ST, SAULT STE. MARIE"
      }
    ]
  },
  {
    "postal": "P6C1B2",
    "result": [
      {
        "electoralDistricts": [
          {
            "election": null,
            "id": 92,
            "name": "Sault Ste. Marie"
          }
        ],
        "pollDivisionIds": [
          10141472
        ],
        "postalCode": "P6C1B2",
        "streetName": "ST ANDREWS",
        "streetDirectionId": null,
        "streetTypeId": "TERR",
        "placeName": "SAULT STE. MARIE",
        "streetNameDisplayText": "ST ANDREWS TERR, SAULT STE. MARIE"
      },
      {
        "electoralDistricts": [
          {
            "election": null,
            "id": 92,
            "name": "Sault Ste. Marie"
          }
        ],
        "pollDivisionIds": [
          10141472
        ],
        "postalCode": "P6C1B2",
        "streetName": "ST ANDREW'S",
        "streetDirectionId": null,
        "streetTypeId": "TERR",
        "placeName": "SAULT STE. MARIE",
        "streetNameDisplayText": "ST ANDREW'S TERR, SAULT STE. MARIE"
      },
      {
        "electoralDistricts": [
          {
            "election": null,
            "id": 92,
            "name": "Sault Ste. Marie"
          }
        ],
        "pollDivisionIds": [
          10141472
        ],
        "postalCode": "P6C1B2",
        "streetName": "ST. ANDREW'S",
        "streetDirectionId": null,
        "streetTypeId": "TERR",
        "placeName": "SAULT STE. MARIE",
        "streetNameDisplayText": "ST. ANDREW'S TERR, SAULT STE. MARIE"
      }
    ]
  },
  {
    "postal": "P6C0H9",
    "result": []
  },
  {
    "postal": "P6C8M4",
    "result": []
  },
  {
    "postal": "P6C2M5",
    "result": [
      {
        "electoralDistricts": [
          {
            "election": null,
            "id": 92,
            "name": "Sault Ste. Marie"
          }
        ],
        "pollDivisionIds": [
          10141467
        ],
        "postalCode": "P6C2M5",
        "streetName": "SECOND",
        "streetDirectionId": "E",
        "streetTypeId": "LINE",
        "placeName": "SAULT STE. MARIE",
        "streetNameDisplayText": "SECOND LINE E, SAULT STE. MARIE"
      }
    ]
  },
  {
    "postal": "P6C0T9",
    "result": []
  },
  {
    "postal": "P6C3P1",
    "result": [
      {
        "electoralDistricts": [
          {
            "election": null,
            "id": 92,
            "name": "Sault Ste. Marie"
          }
        ],
        "pollDivisionIds": [
          10141466
        ],
        "postalCode": "P6C3P1",
        "streetName": "NORTHLAND",
        "streetDirectionId": null,
        "streetTypeId": "RD",
        "placeName": "SAULT STE. MARIE",
        "streetNameDisplayText": "NORTHLAND RD, SAULT STE. MARIE"
      }
    ]
  },
  {
    "postal": "P6C1R6",
    "result": [
      {
        "electoralDistricts": [
          {
            "election": null,
            "id": 92,
            "name": "Sault Ste. Marie"
          }
        ],
        "pollDivisionIds": [
          10141466
        ],
        "postalCode": "P6C1R6",
        "streetName": "DOUGLAS",
        "streetDirectionId": null,
        "streetTypeId": "ST",
        "placeName": "SAULT STE. MARIE",
        "streetNameDisplayText": "DOUGLAS ST, SAULT STE. MARIE"
      }
    ]
  },
  {
    "postal": "P6C9V5",
    "result": []
  },
  {
    "postal": "P6C9T0",
    "result": []
  },
  {
    "postal": "P6C0A9",
    "result": [
      {
        "electoralDistricts": [
          {
            "election": null,
            "id": 92,
            "name": "Sault Ste. Marie"
          }
        ],
        "pollDivisionIds": [
          10141457
        ],
        "postalCode": "P6C0A9",
        "streetName": "SHERBROOK",
        "streetDirectionId": null,
        "streetTypeId": "DR",
        "placeName": "SAULT STE. MARIE",
        "streetNameDisplayText": "SHERBROOK DR, SAULT STE. MARIE"
      }
    ]
  },
  {
    "postal": "P6C1M3",
    "result": [
      {
        "electoralDistricts": [
          {
            "election": null,
            "id": 92,
            "name": "Sault Ste. Marie"
          }
        ],
        "pollDivisionIds": [
          10141460
        ],
        "postalCode": "P6C1M3",
        "streetName": "WALLACE",
        "streetDirectionId": null,
        "streetTypeId": "TERR",
        "placeName": "SAULT STE.  MARIE",
        "streetNameDisplayText": "WALLACE TERR, SAULT STE.  MARIE"
      },
      {
        "electoralDistricts": [
          {
            "election": null,
            "id": 92,
            "name": "Sault Ste. Marie"
          }
        ],
        "pollDivisionIds": [
          10141460
        ],
        "postalCode": "P6C1M3",
        "streetName": "WALLACE",
        "streetDirectionId": null,
        "streetTypeId": "TERR",
        "placeName": "SAULT STE. MARIE",
        "streetNameDisplayText": "WALLACE TERR, SAULT STE. MARIE"
      }
    ]
  },
  {
    "postal": "P6C1W8",
    "result": [
      {
        "electoralDistricts": [
          {
            "election": null,
            "id": 92,
            "name": "Sault Ste. Marie"
          }
        ],
        "pollDivisionIds": [
          10141459,
          10141460
        ],
        "postalCode": "P6C1W8",
        "streetName": "EDEN",
        "streetDirectionId": null,
        "streetTypeId": "SQ",
        "placeName": "SAULT STE. MARIE",
        "streetNameDisplayText": "EDEN SQ, SAULT STE. MARIE"
      }
    ]
  },
  {
    "postal": "P6C9J1",
    "result": []
  },
  {
    "postal": "P6C8N5",
    "result": []
  },
  {
    "postal": "P6C5X1",
    "result": [
      {
        "electoralDistricts": [
          {
            "election": null,
            "id": 92,
            "name": "Sault Ste. Marie"
          }
        ],
        "pollDivisionIds": [
          10141468
        ],
        "postalCode": "P6C5X1",
        "streetName": "CABOT",
        "streetDirectionId": null,
        "streetTypeId": "CRES",
        "placeName": "SAULT STE. MARIE",
        "streetNameDisplayText": "CABOT CRES, SAULT STE. MARIE"
      }
    ]
  },
  {
    "postal": "P6C6S2",
    "result": []
  },
  {
    "postal": "P6C2A2",
    "result": [
      {
        "electoralDistricts": [
          {
            "election": null,
            "id": 92,
            "name": "Sault Ste. Marie"
          }
        ],
        "pollDivisionIds": [
          10141466
        ],
        "postalCode": "P6C2A2",
        "streetName": "HENRIETTA",
        "streetDirectionId": null,
        "streetTypeId": "AVE",
        "placeName": "SAULT STE. MARIE",
        "streetNameDisplayText": "HENRIETTA AVE, SAULT STE. MARIE"
      }
    ]
  },
  {
    "postal": "P6C6A6",
    "result": [
      {
        "electoralDistricts": [
          {
            "election": null,
            "id": 92,
            "name": "Sault Ste. Marie"
          }
        ],
        "pollDivisionIds": [
          10141464
        ],
        "postalCode": "P6C6A6",
        "streetName": "POZZEBON",
        "streetDirectionId": null,
        "streetTypeId": "CRES",
        "placeName": "SAULT STE. MARIE",
        "streetNameDisplayText": "POZZEBON CRES, SAULT STE. MARIE"
      }
    ]
  },
  {
    "postal": "P6C0S3",
    "result": []
  },
  {
    "postal": "P6C3E7",
    "result": [
      {
        "electoralDistricts": [
          {
            "election": null,
            "id": 92,
            "name": "Sault Ste. Marie"
          }
        ],
        "pollDivisionIds": [
          10141472
        ],
        "postalCode": "P6C3E7",
        "streetName": "MORIN",
        "streetDirectionId": null,
        "streetTypeId": "ST",
        "placeName": "SAULT STE. MARIE",
        "streetNameDisplayText": "MORIN ST, SAULT STE. MARIE"
      }
    ]
  },
  {
    "postal": "P6C5R7",
    "result": [
      {
        "electoralDistricts": [
          {
            "election": null,
            "id": 92,
            "name": "Sault Ste. Marie"
          }
        ],
        "pollDivisionIds": [
          10141460
        ],
        "postalCode": "P6C5R7",
        "streetName": "NIXON",
        "streetDirectionId": null,
        "streetTypeId": "RD",
        "placeName": "SAULT STE.  MARIE",
        "streetNameDisplayText": "NIXON RD, SAULT STE.  MARIE"
      },
      {
        "electoralDistricts": [
          {
            "election": null,
            "id": 92,
            "name": "Sault Ste. Marie"
          }
        ],
        "pollDivisionIds": [
          10141460
        ],
        "postalCode": "P6C5R7",
        "streetName": "NIXON",
        "streetDirectionId": null,
        "streetTypeId": "RD",
        "placeName": "SAULT STE. MARIE",
        "streetNameDisplayText": "NIXON RD, SAULT STE. MARIE"
      }
    ]
  },
  {
    "postal": "P6C3R6",
    "result": [
      {
        "electoralDistricts": [
          {
            "election": null,
            "id": 92,
            "name": "Sault Ste. Marie"
          }
        ],
        "pollDivisionIds": [
          10141466
        ],
        "postalCode": "P6C3R6",
        "streetName": "DUNDAS",
        "streetDirectionId": null,
        "streetTypeId": "ST",
        "placeName": "SAULT STE. MARIE",
        "streetNameDisplayText": "DUNDAS ST, SAULT STE. MARIE"
      }
    ]
  },
  {
    "postal": "P6C6K4",
    "result": []
  },
  {
    "postal": "P6C2W5",
    "result": [
      {
        "electoralDistricts": [
          {
            "election": null,
            "id": 92,
            "name": "Sault Ste. Marie"
          }
        ],
        "pollDivisionIds": [
          10141463
        ],
        "postalCode": "P6C2W5",
        "streetName": "HENRY",
        "streetDirectionId": null,
        "streetTypeId": "ST",
        "placeName": "SAULT STE. MARIE",
        "streetNameDisplayText": "HENRY ST, SAULT STE. MARIE"
      }
    ]
  },
  {
    "postal": "P6C8W4",
    "result": []
  },
  {
    "postal": "P6C9C2",
    "result": []
  },
  {
    "postal": "P6C2C0",
    "result": []
  },
  {
    "postal": "P6C0E1",
    "result": []
  },
  {
    "postal": "P6C1K9",
    "result": [
      {
        "electoralDistricts": [
          {
            "election": null,
            "id": 92,
            "name": "Sault Ste. Marie"
          }
        ],
        "pollDivisionIds": [
          10141465
        ],
        "postalCode": "P6C1K9",
        "streetName": "WALLACE",
        "streetDirectionId": null,
        "streetTypeId": "TERR",
        "placeName": "SAULT STE. MARIE",
        "streetNameDisplayText": "WALLACE TERR, SAULT STE. MARIE"
      }
    ]
  },
  {
    "postal": "P6C1G7",
    "result": [
      {
        "electoralDistricts": [
          {
            "election": null,
            "id": 92,
            "name": "Sault Ste. Marie"
          }
        ],
        "pollDivisionIds": [
          10141460
        ],
        "postalCode": "P6C1G7",
        "streetName": "YOUNG",
        "streetDirectionId": null,
        "streetTypeId": "ST",
        "placeName": "SAULT STE. MARIE",
        "streetNameDisplayText": "YOUNG ST, SAULT STE. MARIE"
      }
    ]
  },
  {
    "postal": "P6C4E9",
    "result": [
      {
        "electoralDistricts": [
          {
            "election": null,
            "id": 92,
            "name": "Sault Ste. Marie"
          }
        ],
        "pollDivisionIds": [
          10141463
        ],
        "postalCode": "P6C4E9",
        "streetName": "BRUNSWICK",
        "streetDirectionId": null,
        "streetTypeId": "AVE",
        "placeName": "SAULT STE. MARIE",
        "streetNameDisplayText": "BRUNSWICK AVE, SAULT STE. MARIE"
      }
    ]
  },
  {
    "postal": "P6C9P0",
    "result": []
  },
  {
    "postal": "P6C5H3",
    "result": [
      {
        "electoralDistricts": [
          {
            "election": null,
            "id": 92,
            "name": "Sault Ste. Marie"
          }
        ],
        "pollDivisionIds": [
          10141460
        ],
        "postalCode": "P6C5H3",
        "streetName": "DRYDEN",
        "streetDirectionId": null,
        "streetTypeId": "AVE",
        "placeName": "SAULT STE. MARIE",
        "streetNameDisplayText": "DRYDEN AVE, SAULT STE. MARIE"
      }
    ]
  },
  {
    "postal": "P6C9X6",
    "result": []
  },
  {
    "postal": "P6C5N7",
    "result": [
      {
        "electoralDistricts": [
          {
            "election": null,
            "id": 92,
            "name": "Sault Ste. Marie"
          }
        ],
        "pollDivisionIds": [
          10141459
        ],
        "postalCode": "P6C5N7",
        "streetName": "NORTH EDEN",
        "streetDirectionId": null,
        "streetTypeId": "AVE",
        "placeName": "SAULT STE. MARIE",
        "streetNameDisplayText": "NORTH EDEN AVE, SAULT STE. MARIE"
      }
    ]
  },
  {
    "postal": "P6C5A6",
    "result": [
      {
        "electoralDistricts": [
          {
            "election": null,
            "id": 92,
            "name": "Sault Ste. Marie"
          }
        ],
        "pollDivisionIds": [
          10141460
        ],
        "postalCode": "P6C5A6",
        "streetName": "GOULAIS",
        "streetDirectionId": null,
        "streetTypeId": "AVE",
        "placeName": "SAULT STE. MARIE",
        "streetNameDisplayText": "GOULAIS AVE, SAULT STE. MARIE"
      }
    ]
  },
  {
    "postal": "P6C4M0",
    "result": []
  },
  {
    "postal": "P6C3V6",
    "result": [
      {
        "electoralDistricts": [
          {
            "election": null,
            "id": 92,
            "name": "Sault Ste. Marie"
          }
        ],
        "pollDivisionIds": [
          10141464
        ],
        "postalCode": "P6C3V6",
        "streetName": "PEOPLES",
        "streetDirectionId": null,
        "streetTypeId": "RD",
        "placeName": "SAULT STE. MARIE",
        "streetNameDisplayText": "PEOPLES RD, SAULT STE. MARIE"
      }
    ]
  },
  {
    "postal": "P6C1L7",
    "result": [
      {
        "electoralDistricts": [
          {
            "election": null,
            "id": 92,
            "name": "Sault Ste. Marie"
          }
        ],
        "pollDivisionIds": [
          10141465
        ],
        "postalCode": "P6C1L7",
        "streetName": "WALLACE",
        "streetDirectionId": null,
        "streetTypeId": "TERR",
        "placeName": "SAULT STE. MARIE",
        "streetNameDisplayText": "WALLACE TERR, SAULT STE. MARIE"
      }
    ]
  },
  {
    "postal": "P6C2P9",
    "result": [
      {
        "electoralDistricts": [
          {
            "election": null,
            "id": 92,
            "name": "Sault Ste. Marie"
          }
        ],
        "pollDivisionIds": [
          10141464
        ],
        "postalCode": "P6C2P9",
        "streetName": "CHURCHILL",
        "streetDirectionId": null,
        "streetTypeId": "AVE",
        "placeName": "SAULT STE.  MARIE",
        "streetNameDisplayText": "CHURCHILL AVE, SAULT STE.  MARIE"
      },
      {
        "electoralDistricts": [
          {
            "election": null,
            "id": 92,
            "name": "Sault Ste. Marie"
          }
        ],
        "pollDivisionIds": [
          10141464,
          10141456
        ],
        "postalCode": "P6C2P9",
        "streetName": "CHURCHILL",
        "streetDirectionId": null,
        "streetTypeId": "AVE",
        "placeName": "SAULT STE. MARIE",
        "streetNameDisplayText": "CHURCHILL AVE, SAULT STE. MARIE"
      }
    ]
  },
  {
    "postal": "P6C5T4",
    "result": [
      {
        "electoralDistricts": [
          {
            "election": null,
            "id": 92,
            "name": "Sault Ste. Marie"
          }
        ],
        "pollDivisionIds": [
          10141457
        ],
        "postalCode": "P6C5T4",
        "streetName": "EAST DUNROBIN",
        "streetDirectionId": null,
        "streetTypeId": "BAY",
        "placeName": "SAULT STE. MARIE",
        "streetNameDisplayText": "EAST DUNROBIN BAY, SAULT STE. MARIE"
      }
    ]
  },
  {
    "postal": "P6C5Z1",
    "result": [
      {
        "electoralDistricts": [
          {
            "election": null,
            "id": 92,
            "name": "Sault Ste. Marie"
          }
        ],
        "pollDivisionIds": [
          10141457
        ],
        "postalCode": "P6C5Z1",
        "streetName": "HILLSIDE",
        "streetDirectionId": null,
        "streetTypeId": "DR",
        "placeName": "SAULT STE. MARIE",
        "streetNameDisplayText": "HILLSIDE DR, SAULT STE. MARIE"
      }
    ]
  },
  {
    "postal": "P6C2X0",
    "result": []
  },
  {
    "postal": "P6C6Z2",
    "result": []
  },
  {
    "postal": "P6C0E0",
    "result": []
  },
  {
    "postal": "P6C3Z5",
    "result": [
      {
        "electoralDistricts": [
          {
            "election": null,
            "id": 92,
            "name": "Sault Ste. Marie"
          }
        ],
        "pollDivisionIds": [
          10141457
        ],
        "postalCode": "P6C3Z5",
        "streetName": "WEST BRAEMAR",
        "streetDirectionId": null,
        "streetTypeId": "BAY",
        "placeName": "SAULT STE. MARIE",
        "streetNameDisplayText": "WEST BRAEMAR BAY, SAULT STE. MARIE"
      },
      {
        "electoralDistricts": [
          {
            "election": null,
            "id": 92,
            "name": "Sault Ste. Marie"
          }
        ],
        "pollDivisionIds": [
          10141457
        ],
        "postalCode": "P6C3Z5",
        "streetName": "WEST BRAEMER",
        "streetDirectionId": null,
        "streetTypeId": "BAY",
        "placeName": "SAULT STE. MARIE",
        "streetNameDisplayText": "WEST BRAEMER BAY, SAULT STE. MARIE"
      }
    ]
  },
  {
    "postal": "P6C8H3",
    "result": []
  },
  {
    "postal": "P6C7S6",
    "result": []
  },
  {
    "postal": "P6C4C1",
    "result": [
      {
        "electoralDistricts": [
          {
            "election": null,
            "id": 92,
            "name": "Sault Ste. Marie"
          }
        ],
        "pollDivisionIds": [
          10141464
        ],
        "postalCode": "P6C4C1",
        "streetName": "FARWELL",
        "streetDirectionId": null,
        "streetTypeId": "TERR",
        "placeName": "SAULT STE. MARIE",
        "streetNameDisplayText": "FARWELL TERR, SAULT STE. MARIE"
      }
    ]
  },
  {
    "postal": "P6C3K2",
    "result": [
      {
        "electoralDistricts": [
          {
            "election": null,
            "id": 92,
            "name": "Sault Ste. Marie"
          }
        ],
        "pollDivisionIds": [
          10141467
        ],
        "postalCode": "P6C3K2",
        "streetName": "JOHN",
        "streetDirectionId": null,
        "streetTypeId": "ST",
        "placeName": "SAULT STE. MARIE",
        "streetNameDisplayText": "JOHN ST, SAULT STE. MARIE"
      }
    ]
  },
  {
    "postal": "P6C1Y5",
    "result": [
      {
        "electoralDistricts": [
          {
            "election": null,
            "id": 92,
            "name": "Sault Ste. Marie"
          }
        ],
        "pollDivisionIds": [
          10141465
        ],
        "postalCode": "P6C1Y5",
        "streetName": "DEVON",
        "streetDirectionId": null,
        "streetTypeId": "RD",
        "placeName": "SAULT STE. MARIE",
        "streetNameDisplayText": "DEVON RD, SAULT STE. MARIE"
      }
    ]
  },
  {
    "postal": "P6C6P6",
    "result": []
  },
  {
    "postal": "P6C3N9",
    "result": [
      {
        "electoralDistricts": [
          {
            "election": null,
            "id": 92,
            "name": "Sault Ste. Marie"
          }
        ],
        "pollDivisionIds": [
          10141466
        ],
        "postalCode": "P6C3N9",
        "streetName": "NORTHLAND",
        "streetDirectionId": null,
        "streetTypeId": "RD",
        "placeName": "SAULT STE. MARIE",
        "streetNameDisplayText": "NORTHLAND RD, SAULT STE. MARIE"
      }
    ]
  },
  {
    "postal": "P6C3W2",
    "result": [
      {
        "electoralDistricts": [
          {
            "election": null,
            "id": 92,
            "name": "Sault Ste. Marie"
          }
        ],
        "pollDivisionIds": [
          10141468
        ],
        "postalCode": "P6C3W2",
        "streetName": "PEOPLES",
        "streetDirectionId": null,
        "streetTypeId": "RD",
        "placeName": "SAULT STE. MARIE",
        "streetNameDisplayText": "PEOPLES RD, SAULT STE. MARIE"
      }
    ]
  },
  {
    "postal": "P6C6H8",
    "result": [
      {
        "electoralDistricts": [
          {
            "election": null,
            "id": 92,
            "name": "Sault Ste. Marie"
          }
        ],
        "pollDivisionIds": [
          10141461
        ],
        "postalCode": "P6C6H8",
        "streetName": "BROADVIEW",
        "streetDirectionId": null,
        "streetTypeId": "DR",
        "placeName": "SAULT STE. MARIE",
        "streetNameDisplayText": "BROADVIEW DR, SAULT STE. MARIE"
      }
    ]
  },
  {
    "postal": "P6C9T3",
    "result": []
  },
  {
    "postal": "P6C5L9",
    "result": [
      {
        "electoralDistricts": [
          {
            "election": null,
            "id": 92,
            "name": "Sault Ste. Marie"
          }
        ],
        "pollDivisionIds": [
          10141460
        ],
        "postalCode": "P6C5L9",
        "streetName": "WHITNEY",
        "streetDirectionId": null,
        "streetTypeId": "AVE",
        "placeName": "SAULT STE. MARIE",
        "streetNameDisplayText": "WHITNEY AVE, SAULT STE. MARIE"
      }
    ]
  },
  {
    "postal": "P6C7X7",
    "result": []
  },
  {
    "postal": "P6C3J5",
    "result": [
      {
        "electoralDistricts": [
          {
            "election": null,
            "id": 92,
            "name": "Sault Ste. Marie"
          }
        ],
        "pollDivisionIds": [
          10141471
        ],
        "postalCode": "P6C3J5",
        "streetName": "JOHN",
        "streetDirectionId": null,
        "streetTypeId": "ST",
        "placeName": "SAULT STE. MARIE",
        "streetNameDisplayText": "JOHN ST, SAULT STE. MARIE"
      }
    ]
  },
  {
    "postal": "P6C4J5",
    "result": [
      {
        "electoralDistricts": [
          {
            "election": null,
            "id": 92,
            "name": "Sault Ste. Marie"
          }
        ],
        "pollDivisionIds": [
          10141463
        ],
        "postalCode": "P6C4J5",
        "streetName": "KORAH",
        "streetDirectionId": null,
        "streetTypeId": "RD",
        "placeName": "SAULT STE. MARIE",
        "streetNameDisplayText": "KORAH RD, SAULT STE. MARIE"
      }
    ]
  },
  {
    "postal": "P6C6J2",
    "result": []
  },
  {
    "postal": "P6C5V6",
    "result": [
      {
        "electoralDistricts": [
          {
            "election": null,
            "id": 92,
            "name": "Sault Ste. Marie"
          }
        ],
        "pollDivisionIds": [
          10141461
        ],
        "postalCode": "P6C5V6",
        "streetName": "AVON",
        "streetDirectionId": null,
        "streetTypeId": "AVE",
        "placeName": "SAULT STE. MARIE",
        "streetNameDisplayText": "AVON AVE, SAULT STE. MARIE"
      }
    ]
  },
  {
    "postal": "P6C3N2",
    "result": [
      {
        "electoralDistricts": [
          {
            "election": null,
            "id": 92,
            "name": "Sault Ste. Marie"
          }
        ],
        "pollDivisionIds": [
          10141471
        ],
        "postalCode": "P6C3N2",
        "streetName": "NORTHLAND",
        "streetDirectionId": null,
        "streetTypeId": "RD",
        "placeName": "SAULT STE. MARIE",
        "streetNameDisplayText": "NORTHLAND RD, SAULT STE. MARIE"
      }
    ]
  },
  {
    "postal": "P6C3B1",
    "result": [
      {
        "electoralDistricts": [
          {
            "election": null,
            "id": 92,
            "name": "Sault Ste. Marie"
          }
        ],
        "pollDivisionIds": [
          10141468
        ],
        "postalCode": "P6C3B1",
        "streetName": "SHERWOOD",
        "streetDirectionId": null,
        "streetTypeId": "PKY",
        "placeName": "SAULT STE. MARIE",
        "streetNameDisplayText": "SHERWOOD PKY, SAULT STE. MARIE"
      }
    ]
  },
  {
    "postal": "P6C8B5",
    "result": []
  },
  {
    "postal": "P6C0K1",
    "result": []
  },
  {
    "postal": "P6C7M7",
    "result": []
  },
  {
    "postal": "P6C2M2",
    "result": [
      {
        "electoralDistricts": [
          {
            "election": null,
            "id": 92,
            "name": "Sault Ste. Marie"
          }
        ],
        "pollDivisionIds": [
          10141459
        ],
        "postalCode": "P6C2M2",
        "streetName": "SECOND",
        "streetDirectionId": "W",
        "streetTypeId": "LINE",
        "placeName": "SAULT STE. MARIE",
        "streetNameDisplayText": "SECOND LINE W, SAULT STE. MARIE"
      }
    ]
  },
  {
    "postal": "P6C9N3",
    "result": []
  },
  {
    "postal": "P6C4Y8",
    "result": [
      {
        "electoralDistricts": [
          {
            "election": null,
            "id": 92,
            "name": "Sault Ste. Marie"
          }
        ],
        "pollDivisionIds": [
          10141462
        ],
        "postalCode": "P6C4Y8",
        "streetName": "WALTERS",
        "streetDirectionId": null,
        "streetTypeId": "ST",
        "placeName": "SAULT STE. MARIE",
        "streetNameDisplayText": "WALTERS ST, SAULT STE. MARIE"
      }
    ]
  },
  {
    "postal": "P6C3V7",
    "result": [
      {
        "electoralDistricts": [
          {
            "election": null,
            "id": 92,
            "name": "Sault Ste. Marie"
          }
        ],
        "pollDivisionIds": [
          10141468
        ],
        "postalCode": "P6C3V7",
        "streetName": "PEOPLES",
        "streetDirectionId": null,
        "streetTypeId": "RD",
        "placeName": "SAULT STE.  MARIE",
        "streetNameDisplayText": "PEOPLES RD, SAULT STE.  MARIE"
      },
      {
        "electoralDistricts": [
          {
            "election": null,
            "id": 92,
            "name": "Sault Ste. Marie"
          }
        ],
        "pollDivisionIds": [
          10141468
        ],
        "postalCode": "P6C3V7",
        "streetName": "PEOPLES",
        "streetDirectionId": null,
        "streetTypeId": "RD",
        "placeName": "SAULT STE. MARIE",
        "streetNameDisplayText": "PEOPLES RD, SAULT STE. MARIE"
      }
    ]
  },
  {
    "postal": "P6C8Z1",
    "result": []
  },
  {
    "postal": "P6C7B3",
    "result": []
  },
  {
    "postal": "P6C3A8",
    "result": [
      {
        "electoralDistricts": [
          {
            "election": null,
            "id": 92,
            "name": "Sault Ste. Marie"
          }
        ],
        "pollDivisionIds": [
          10141468
        ],
        "postalCode": "P6C3A8",
        "streetName": "HOLDEN",
        "streetDirectionId": null,
        "streetTypeId": "ST",
        "placeName": "SAULT STE. MARIE",
        "streetNameDisplayText": "HOLDEN ST, SAULT STE. MARIE"
      }
    ]
  },
  {
    "postal": "P6C7V5",
    "result": []
  },
  {
    "postal": "P6C2T2",
    "result": [
      {
        "electoralDistricts": [
          {
            "election": null,
            "id": 92,
            "name": "Sault Ste. Marie"
          }
        ],
        "pollDivisionIds": [
          10141461
        ],
        "postalCode": "P6C2T2",
        "streetName": "RUSHMERE",
        "streetDirectionId": null,
        "streetTypeId": "DR",
        "placeName": "SAULT STE. MARIE",
        "streetNameDisplayText": "RUSHMERE DR, SAULT STE. MARIE"
      }
    ]
  },
  {
    "postal": "P6C6L3",
    "result": []
  },
  {
    "postal": "P6C0L2",
    "result": []
  },
  {
    "postal": "P6C5Y8",
    "result": [
      {
        "electoralDistricts": [
          {
            "election": null,
            "id": 92,
            "name": "Sault Ste. Marie"
          }
        ],
        "pollDivisionIds": [
          10141463
        ],
        "postalCode": "P6C5Y8",
        "streetName": "DONCASTER",
        "streetDirectionId": null,
        "streetTypeId": "RD",
        "placeName": "SAULT STE. MARIE",
        "streetNameDisplayText": "DONCASTER RD, SAULT STE. MARIE"
      }
    ]
  },
  {
    "postal": "P6C0B8",
    "result": []
  },
  {
    "postal": "P6C6R5",
    "result": []
  },
  {
    "postal": "P6C8W6",
    "result": []
  },
  {
    "postal": "P6C8G6",
    "result": []
  },
  {
    "postal": "P6C6X3",
    "result": []
  },
  {
    "postal": "P6C7R7",
    "result": []
  },
  {
    "postal": "P6C4B6",
    "result": [
      {
        "electoralDistricts": [
          {
            "election": null,
            "id": 92,
            "name": "Sault Ste. Marie"
          }
        ],
        "pollDivisionIds": [
          10141466
        ],
        "postalCode": "P6C4B6",
        "streetName": "FARWELL",
        "streetDirectionId": null,
        "streetTypeId": "TERR",
        "placeName": "SAULT STE. MARIE",
        "streetNameDisplayText": "FARWELL TERR, SAULT STE. MARIE"
      }
    ]
  },
  {
    "postal": "P6C3P9",
    "result": [
      {
        "electoralDistricts": [
          {
            "election": null,
            "id": 92,
            "name": "Sault Ste. Marie"
          }
        ],
        "pollDivisionIds": [
          10141464
        ],
        "postalCode": "P6C3P9",
        "streetName": "LENNOX",
        "streetDirectionId": null,
        "streetTypeId": "AVE",
        "placeName": "SAULT STE. MARIE",
        "streetNameDisplayText": "LENNOX AVE, SAULT STE. MARIE"
      }
    ]
  },
  {
    "postal": "P6C2T3",
    "result": [
      {
        "electoralDistricts": [
          {
            "election": null,
            "id": 92,
            "name": "Sault Ste. Marie"
          }
        ],
        "pollDivisionIds": [
          10141461
        ],
        "postalCode": "P6C2T3",
        "streetName": "RUSHMERE",
        "streetDirectionId": null,
        "streetTypeId": "DR",
        "placeName": "SAULT STE. MARIE",
        "streetNameDisplayText": "RUSHMERE DR, SAULT STE. MARIE"
      }
    ]
  },
  {
    "postal": "P6C1M4",
    "result": [
      {
        "electoralDistricts": [
          {
            "election": null,
            "id": 92,
            "name": "Sault Ste. Marie"
          }
        ],
        "pollDivisionIds": [
          10141460
        ],
        "postalCode": "P6C1M4",
        "streetName": "WALLACE",
        "streetDirectionId": null,
        "streetTypeId": "TERR",
        "placeName": "SAULT STE. MARIE",
        "streetNameDisplayText": "WALLACE TERR, SAULT STE. MARIE"
      }
    ]
  },
  {
    "postal": "P6C0H1",
    "result": []
  },
  {
    "postal": "P6C9W3",
    "result": []
  },
  {
    "postal": "P6C6P1",
    "result": []
  },
  {
    "postal": "P6C7G2",
    "result": []
  },
  {
    "postal": "P6C4J9",
    "result": [
      {
        "electoralDistricts": [
          {
            "election": null,
            "id": 92,
            "name": "Sault Ste. Marie"
          }
        ],
        "pollDivisionIds": [
          10141463
        ],
        "postalCode": "P6C4J9",
        "streetName": "KORAH",
        "streetDirectionId": null,
        "streetTypeId": "RD",
        "placeName": "SAULT STE. MARIE",
        "streetNameDisplayText": "KORAH RD, SAULT STE. MARIE"
      }
    ]
  },
  {
    "postal": "P6C9E4",
    "result": []
  },
  {
    "postal": "P6C8H0",
    "result": []
  },
  {
    "postal": "P6C4M7",
    "result": [
      {
        "electoralDistricts": [
          {
            "election": null,
            "id": 92,
            "name": "Sault Ste. Marie"
          }
        ],
        "pollDivisionIds": [
          10141465
        ],
        "postalCode": "P6C4M7",
        "streetName": "THIRD",
        "streetDirectionId": null,
        "streetTypeId": "AVE",
        "placeName": "SAULT STE. MARIE",
        "streetNameDisplayText": "THIRD AVE, SAULT STE. MARIE"
      }
    ]
  },
  {
    "postal": "P6C2G9",
    "result": [
      {
        "electoralDistricts": [
          {
            "election": null,
            "id": 92,
            "name": "Sault Ste. Marie"
          }
        ],
        "pollDivisionIds": [
          10141467
        ],
        "postalCode": "P6C2G9",
        "streetName": "BAINBRIDGE",
        "streetDirectionId": null,
        "streetTypeId": "ST",
        "placeName": "SAULT STE. MARIE",
        "streetNameDisplayText": "BAINBRIDGE ST, SAULT STE. MARIE"
      }
    ]
  },
  {
    "postal": "P6C8T2",
    "result": []
  },
  {
    "postal": "P6C7G7",
    "result": []
  },
  {
    "postal": "P6C4Z3",
    "result": [
      {
        "electoralDistricts": [
          {
            "election": null,
            "id": 92,
            "name": "Sault Ste. Marie"
          }
        ],
        "pollDivisionIds": [
          10141460
        ],
        "postalCode": "P6C4Z3",
        "streetName": "GOULAIS",
        "streetDirectionId": null,
        "streetTypeId": "AVE",
        "placeName": "SAULT STE. MARIE",
        "streetNameDisplayText": "GOULAIS AVE, SAULT STE. MARIE"
      }
    ]
  },
  {
    "postal": "P6C5B3",
    "result": [
      {
        "electoralDistricts": [
          {
            "election": null,
            "id": 92,
            "name": "Sault Ste. Marie"
          }
        ],
        "pollDivisionIds": [
          10141460
        ],
        "postalCode": "P6C5B3",
        "streetName": "PITTSBURG",
        "streetDirectionId": null,
        "streetTypeId": "AVE",
        "placeName": "SAULT STE. MARIE",
        "streetNameDisplayText": "PITTSBURG AVE, SAULT STE. MARIE"
      }
    ]
  },
  {
    "postal": "P6C1S7",
    "result": [
      {
        "electoralDistricts": [
          {
            "election": null,
            "id": 92,
            "name": "Sault Ste. Marie"
          }
        ],
        "pollDivisionIds": [
          10141465
        ],
        "postalCode": "P6C1S7",
        "streetName": "DOUGLAS",
        "streetDirectionId": null,
        "streetTypeId": "ST",
        "placeName": "SAULT STE. MARIE",
        "streetNameDisplayText": "DOUGLAS ST, SAULT STE. MARIE"
      }
    ]
  },
  {
    "postal": "P6C2N7",
    "result": [
      {
        "electoralDistricts": [
          {
            "election": null,
            "id": 92,
            "name": "Sault Ste. Marie"
          }
        ],
        "pollDivisionIds": [
          10141463
        ],
        "postalCode": "P6C2N7",
        "streetName": "HAMPTON",
        "streetDirectionId": null,
        "streetTypeId": "RD",
        "placeName": "SAULT STE. MARIE",
        "streetNameDisplayText": "HAMPTON RD, SAULT STE. MARIE"
      }
    ]
  },
  {
    "postal": "P6C0H8",
    "result": []
  },
  {
    "postal": "P6C7Z4",
    "result": []
  },
  {
    "postal": "P6C7B1",
    "result": []
  },
  {
    "postal": "P6C7P8",
    "result": []
  },
  {
    "postal": "P6C7N0",
    "result": []
  },
  {
    "postal": "P6C3Y5",
    "result": [
      {
        "electoralDistricts": [
          {
            "election": null,
            "id": 92,
            "name": "Sault Ste. Marie"
          }
        ],
        "pollDivisionIds": [
          10141466
        ],
        "postalCode": "P6C3Y5",
        "streetName": "ADELAIDE",
        "streetDirectionId": null,
        "streetTypeId": "ST",
        "placeName": "SAULT STE. MARIE",
        "streetNameDisplayText": "ADELAIDE ST, SAULT STE. MARIE"
      }
    ]
  },
  {
    "postal": "P6C6K1",
    "result": []
  },
  {
    "postal": "P6C9X5",
    "result": []
  },
  {
    "postal": "P6C7S5",
    "result": []
  },
  {
    "postal": "P6C0A4",
    "result": [
      {
        "electoralDistricts": [
          {
            "election": null,
            "id": 92,
            "name": "Sault Ste. Marie"
          }
        ],
        "pollDivisionIds": [
          10141457
        ],
        "postalCode": "P6C0A4",
        "streetName": "THIRD",
        "streetDirectionId": "E",
        "streetTypeId": "LINE",
        "placeName": "SAULT STE. MARIE",
        "streetNameDisplayText": "THIRD LINE E, SAULT STE. MARIE"
      }
    ]
  },
  {
    "postal": "P6C4T5",
    "result": [
      {
        "electoralDistricts": [
          {
            "election": null,
            "id": 92,
            "name": "Sault Ste. Marie"
          }
        ],
        "pollDivisionIds": [
          10141462
        ],
        "postalCode": "P6C4T5",
        "streetName": "CARUFEL",
        "streetDirectionId": null,
        "streetTypeId": "AVE",
        "placeName": "SAULT STE.  MARIE",
        "streetNameDisplayText": "CARUFEL AVE, SAULT STE.  MARIE"
      },
      {
        "electoralDistricts": [
          {
            "election": null,
            "id": 92,
            "name": "Sault Ste. Marie"
          }
        ],
        "pollDivisionIds": [
          10141462
        ],
        "postalCode": "P6C4T5",
        "streetName": "CARUFEL",
        "streetDirectionId": null,
        "streetTypeId": "AVE",
        "placeName": "SAULT STE. MARIE",
        "streetNameDisplayText": "CARUFEL AVE, SAULT STE. MARIE"
      }
    ]
  },
  {
    "postal": "P6C5K1",
    "result": [
      {
        "electoralDistricts": [
          {
            "election": null,
            "id": 92,
            "name": "Sault Ste. Marie"
          }
        ],
        "pollDivisionIds": [
          10141460
        ],
        "postalCode": "P6C5K1",
        "streetName": "BORDEN",
        "streetDirectionId": null,
        "streetTypeId": "AVE",
        "placeName": "SAULT STE. MARIE",
        "streetNameDisplayText": "BORDEN AVE, SAULT STE. MARIE"
      }
    ]
  },
  {
    "postal": "P6C0Z9",
    "result": []
  },
  {
    "postal": "P6C7T2",
    "result": []
  },
  {
    "postal": "P6C1L5",
    "result": [
      {
        "electoralDistricts": [
          {
            "election": null,
            "id": 92,
            "name": "Sault Ste. Marie"
          }
        ],
        "pollDivisionIds": [
          10141465
        ],
        "postalCode": "P6C1L5",
        "streetName": "WALLACE",
        "streetDirectionId": null,
        "streetTypeId": "TERR",
        "placeName": "SAULT STE. MARIE",
        "streetNameDisplayText": "WALLACE TERR, SAULT STE. MARIE"
      }
    ]
  },
  {
    "postal": "P6C3N5",
    "result": [
      {
        "electoralDistricts": [
          {
            "election": null,
            "id": 92,
            "name": "Sault Ste. Marie"
          }
        ],
        "pollDivisionIds": [
          10141471
        ],
        "postalCode": "P6C3N5",
        "streetName": "NORTHLAND",
        "streetDirectionId": null,
        "streetTypeId": "RD",
        "placeName": "SAULT STE. MARIE",
        "streetNameDisplayText": "NORTHLAND RD, SAULT STE. MARIE"
      }
    ]
  },
  {
    "postal": "P6C6H4",
    "result": [
      {
        "electoralDistricts": [
          {
            "election": null,
            "id": 92,
            "name": "Sault Ste. Marie"
          }
        ],
        "pollDivisionIds": [
          10141459
        ],
        "postalCode": "P6C6H4",
        "streetName": "ALLEN'S SIDE",
        "streetDirectionId": null,
        "streetTypeId": "RD",
        "placeName": "SAULT STE. MARIE",
        "streetNameDisplayText": "ALLEN'S SIDE RD, SAULT STE. MARIE"
      }
    ]
  },
  {
    "postal": "P6C5A5",
    "result": [
      {
        "electoralDistricts": [
          {
            "election": null,
            "id": 92,
            "name": "Sault Ste. Marie"
          }
        ],
        "pollDivisionIds": [
          10141462
        ],
        "postalCode": "P6C5A5",
        "streetName": "GOULAIS",
        "streetDirectionId": null,
        "streetTypeId": "AVE",
        "placeName": "SAULT STE. MARIE",
        "streetNameDisplayText": "GOULAIS AVE, SAULT STE. MARIE"
      }
    ]
  },
  {
    "postal": "P6C3R9",
    "result": [
      {
        "electoralDistricts": [
          {
            "election": null,
            "id": 92,
            "name": "Sault Ste. Marie"
          }
        ],
        "pollDivisionIds": [
          10141466
        ],
        "postalCode": "P6C3R9",
        "streetName": "SHAFER",
        "streetDirectionId": null,
        "streetTypeId": "AVE",
        "placeName": "SAULT STE. MARIE",
        "streetNameDisplayText": "SHAFER AVE, SAULT STE. MARIE"
      }
    ]
  },
  {
    "postal": "P6C7L8",
    "result": []
  },
  {
    "postal": "P6C6T6",
    "result": []
  },
  {
    "postal": "P6C7Y7",
    "result": []
  },
  {
    "postal": "P6C3M8",
    "result": [
      {
        "electoralDistricts": [
          {
            "election": null,
            "id": 92,
            "name": "Sault Ste. Marie"
          }
        ],
        "pollDivisionIds": [
          10141466
        ],
        "postalCode": "P6C3M8",
        "streetName": "PARLIAMENT",
        "streetDirectionId": null,
        "streetTypeId": "ST",
        "placeName": "SAULT STE. MARIE",
        "streetNameDisplayText": "PARLIAMENT ST, SAULT STE. MARIE"
      }
    ]
  },
  {
    "postal": "P6C2E0",
    "result": []
  },
  {
    "postal": "P6C4B5",
    "result": [
      {
        "electoralDistricts": [
          {
            "election": null,
            "id": 92,
            "name": "Sault Ste. Marie"
          }
        ],
        "pollDivisionIds": [
          10141466
        ],
        "postalCode": "P6C4B5",
        "streetName": "FARWELL",
        "streetDirectionId": null,
        "streetTypeId": "TERR",
        "placeName": "SAULT STE. MARIE",
        "streetNameDisplayText": "FARWELL TERR, SAULT STE. MARIE"
      }
    ]
  },
  {
    "postal": "P6C1J3",
    "result": [
      {
        "electoralDistricts": [
          {
            "election": null,
            "id": 92,
            "name": "Sault Ste. Marie"
          }
        ],
        "pollDivisionIds": [
          10141466
        ],
        "postalCode": "P6C1J3",
        "streetName": "BLOOR",
        "streetDirectionId": "W",
        "streetTypeId": "ST",
        "placeName": "SAULT STE. MARIE",
        "streetNameDisplayText": "BLOOR ST W, SAULT STE. MARIE"
      }
    ]
  },
  {
    "postal": "P6C5S6",
    "result": [
      {
        "electoralDistricts": [
          {
            "election": null,
            "id": 92,
            "name": "Sault Ste. Marie"
          }
        ],
        "pollDivisionIds": [
          10141461
        ],
        "postalCode": "P6C5S6",
        "streetName": "WESTGATE",
        "streetDirectionId": null,
        "streetTypeId": "DR",
        "placeName": "SAULT STE. MARIE",
        "streetNameDisplayText": "WESTGATE DR, SAULT STE. MARIE"
      }
    ]
  },
  {
    "postal": "P6C8P7",
    "result": []
  },
  {
    "postal": "P6C7S7",
    "result": []
  },
  {
    "postal": "P6C4C2",
    "result": [
      {
        "electoralDistricts": [
          {
            "election": null,
            "id": 92,
            "name": "Sault Ste. Marie"
          }
        ],
        "pollDivisionIds": [
          10141464
        ],
        "postalCode": "P6C4C2",
        "streetName": "FARWELL",
        "streetDirectionId": null,
        "streetTypeId": "TERR",
        "placeName": "SAULT STE. MARIE",
        "streetNameDisplayText": "FARWELL TERR, SAULT STE. MARIE"
      }
    ]
  },
  {
    "postal": "P6C5Y0",
    "result": []
  },
  {
    "postal": "P6C2V7",
    "result": [
      {
        "electoralDistricts": [
          {
            "election": null,
            "id": 92,
            "name": "Sault Ste. Marie"
          }
        ],
        "pollDivisionIds": [
          10141461
        ],
        "postalCode": "P6C2V7",
        "streetName": "ST MICHAEL'S",
        "streetDirectionId": null,
        "streetTypeId": "SQ",
        "placeName": "SAULT STE. MARIE",
        "streetNameDisplayText": "ST MICHAEL'S SQ, SAULT STE. MARIE"
      }
    ]
  },
  {
    "postal": "P6C8P5",
    "result": []
  },
  {
    "postal": "P6C5P5",
    "result": [
      {
        "electoralDistricts": [
          {
            "election": null,
            "id": 92,
            "name": "Sault Ste. Marie"
          }
        ],
        "pollDivisionIds": [
          10141460
        ],
        "postalCode": "P6C5P5",
        "streetName": "ALLEN'S SIDE",
        "streetDirectionId": null,
        "streetTypeId": "RD",
        "placeName": "SAULT STE. MARIE",
        "streetNameDisplayText": "ALLEN'S SIDE RD, SAULT STE. MARIE"
      }
    ]
  },
  {
    "postal": "P6C5Z0",
    "result": []
  },
  {
    "postal": "P6C9B0",
    "result": []
  },
  {
    "postal": "P6C1L0",
    "result": []
  },
  {
    "postal": "P6C0B5",
    "result": []
  },
  {
    "postal": "P6C3L2",
    "result": [
      {
        "electoralDistricts": [
          {
            "election": null,
            "id": 92,
            "name": "Sault Ste. Marie"
          }
        ],
        "pollDivisionIds": [
          10141467
        ],
        "postalCode": "P6C3L2",
        "streetName": "CARMEN'S",
        "streetDirectionId": null,
        "streetTypeId": "WAY",
        "placeName": "SAULT STE. MARIE",
        "streetNameDisplayText": "CARMEN'S WAY, SAULT STE. MARIE"
      }
    ]
  },
  {
    "postal": "P6C3B7",
    "result": [
      {
        "electoralDistricts": [
          {
            "election": null,
            "id": 92,
            "name": "Sault Ste. Marie"
          }
        ],
        "pollDivisionIds": [
          10141457
        ],
        "postalCode": "P6C3B7",
        "streetName": "THIRD",
        "streetDirectionId": "E",
        "streetTypeId": "LINE",
        "placeName": "SAULT STE. MARIE",
        "streetNameDisplayText": "THIRD LINE E, SAULT STE. MARIE"
      }
    ]
  },
  {
    "postal": "P6C8L1",
    "result": []
  },
  {
    "postal": "P6C5M4",
    "result": [
      {
        "electoralDistricts": [
          {
            "election": null,
            "id": 92,
            "name": "Sault Ste. Marie"
          }
        ],
        "pollDivisionIds": [
          10141460
        ],
        "postalCode": "P6C5M4",
        "streetName": "ROOSEVELT",
        "streetDirectionId": null,
        "streetTypeId": "AVE",
        "placeName": "SAULT STE. MARIE",
        "streetNameDisplayText": "ROOSEVELT AVE, SAULT STE. MARIE"
      }
    ]
  },
  {
    "postal": "P6C4G9",
    "result": [
      {
        "electoralDistricts": [
          {
            "election": null,
            "id": 92,
            "name": "Sault Ste. Marie"
          }
        ],
        "pollDivisionIds": [
          10141466
        ],
        "postalCode": "P6C4G9",
        "streetName": "KORAH",
        "streetDirectionId": null,
        "streetTypeId": "RD",
        "placeName": "SAULT STE. MARIE",
        "streetNameDisplayText": "KORAH RD, SAULT STE. MARIE"
      }
    ]
  },
  {
    "postal": "P6C0P0",
    "result": []
  },
  {
    "postal": "P6C8G2",
    "result": []
  },
  {
    "postal": "P6C1V9",
    "result": [
      {
        "electoralDistricts": [
          {
            "election": null,
            "id": 92,
            "name": "Sault Ste. Marie"
          }
        ],
        "pollDivisionIds": [
          10141467
        ],
        "postalCode": "P6C1V9",
        "streetName": "CONMEE",
        "streetDirectionId": null,
        "streetTypeId": "AVE",
        "placeName": "SAULT STE. MARIE",
        "streetNameDisplayText": "CONMEE AVE, SAULT STE. MARIE"
      }
    ]
  },
  {
    "postal": "P6C8N8",
    "result": []
  },
  {
    "postal": "P6C6S8",
    "result": []
  },
  {
    "postal": "P6C8H2",
    "result": []
  },
  {
    "postal": "P6C5R8",
    "result": [
      {
        "electoralDistricts": [
          {
            "election": null,
            "id": 92,
            "name": "Sault Ste. Marie"
          }
        ],
        "pollDivisionIds": [
          10141460
        ],
        "postalCode": "P6C5R8",
        "streetName": "NIXON",
        "streetDirectionId": null,
        "streetTypeId": "RD",
        "placeName": "SAULT STE. MARIE",
        "streetNameDisplayText": "NIXON RD, SAULT STE. MARIE"
      }
    ]
  },
  {
    "postal": "P6C5L4",
    "result": [
      {
        "electoralDistricts": [
          {
            "election": null,
            "id": 92,
            "name": "Sault Ste. Marie"
          }
        ],
        "pollDivisionIds": [
          10141460
        ],
        "postalCode": "P6C5L4",
        "streetName": "ROWELL",
        "streetDirectionId": null,
        "streetTypeId": "AVE",
        "placeName": "SAULT STE. MARIE",
        "streetNameDisplayText": "ROWELL AVE, SAULT STE. MARIE"
      }
    ]
  },
  {
    "postal": "P6C9E1",
    "result": []
  },
  {
    "postal": "P6C1C4",
    "result": [
      {
        "electoralDistricts": [
          {
            "election": null,
            "id": 92,
            "name": "Sault Ste. Marie"
          }
        ],
        "pollDivisionIds": [
          10141472
        ],
        "postalCode": "P6C1C4",
        "streetName": "CORNWALL",
        "streetDirectionId": null,
        "streetTypeId": "ST",
        "placeName": "SAULT STE. MARIE",
        "streetNameDisplayText": "CORNWALL ST, SAULT STE. MARIE"
      }
    ]
  },
  {
    "postal": "P6C8W5",
    "result": []
  },
  {
    "postal": "P6C1Y4",
    "result": [
      {
        "electoralDistricts": [
          {
            "election": null,
            "id": 92,
            "name": "Sault Ste. Marie"
          }
        ],
        "pollDivisionIds": [
          10141466
        ],
        "postalCode": "P6C1Y4",
        "streetName": "DEVON",
        "streetDirectionId": null,
        "streetTypeId": "RD",
        "placeName": "SAULT STE. MARIE",
        "streetNameDisplayText": "DEVON RD, SAULT STE. MARIE"
      }
    ]
  },
  {
    "postal": "P6C1C0",
    "result": []
  },
  {
    "postal": "P6C2J2",
    "result": [
      {
        "electoralDistricts": [
          {
            "election": null,
            "id": 92,
            "name": "Sault Ste. Marie"
          }
        ],
        "pollDivisionIds": [
          10141465
        ],
        "postalCode": "P6C2J2",
        "streetName": "SECOND",
        "streetDirectionId": "W",
        "streetTypeId": "LINE",
        "placeName": "SAULT STE. MARIE",
        "streetNameDisplayText": "SECOND LINE W, SAULT STE. MARIE"
      }
    ]
  },
  {
    "postal": "P6C2J0",
    "result": []
  },
  {
    "postal": "P6C7A3",
    "result": []
  },
  {
    "postal": "P6C8M1",
    "result": []
  },
  {
    "postal": "P6C7T9",
    "result": []
  },
  {
    "postal": "P6C6C0",
    "result": []
  },
  {
    "postal": "P6C7X1",
    "result": []
  },
  {
    "postal": "P6C0G1",
    "result": []
  },
  {
    "postal": "P6C4X2",
    "result": [
      {
        "electoralDistricts": [
          {
            "election": null,
            "id": 92,
            "name": "Sault Ste. Marie"
          }
        ],
        "pollDivisionIds": [
          10141460
        ],
        "postalCode": "P6C4X2",
        "streetName": "CENTRAL",
        "streetDirectionId": null,
        "streetTypeId": "ST",
        "placeName": "SAULT STE. MARIE",
        "streetNameDisplayText": "CENTRAL ST, SAULT STE. MARIE"
      }
    ]
  },
  {
    "postal": "P6C0N6",
    "result": []
  },
  {
    "postal": "P6C8E3",
    "result": []
  },
  {
    "postal": "P6C5S8",
    "result": [
      {
        "electoralDistricts": [
          {
            "election": null,
            "id": 92,
            "name": "Sault Ste. Marie"
          }
        ],
        "pollDivisionIds": [
          10141461
        ],
        "postalCode": "P6C5S8",
        "streetName": "ROCKPORT",
        "streetDirectionId": null,
        "streetTypeId": "RD",
        "placeName": "SAULT STE. MARIE",
        "streetNameDisplayText": "ROCKPORT RD, SAULT STE. MARIE"
      }
    ]
  },
  {
    "postal": "P6C0R0",
    "result": []
  },
  {
    "postal": "P6C6J6",
    "result": []
  },
  {
    "postal": "P6C4B4",
    "result": [
      {
        "electoralDistricts": [
          {
            "election": null,
            "id": 92,
            "name": "Sault Ste. Marie"
          }
        ],
        "pollDivisionIds": [
          10141466
        ],
        "postalCode": "P6C4B4",
        "streetName": "FARWELL",
        "streetDirectionId": null,
        "streetTypeId": "TERR",
        "placeName": "SAULT STE. MARIE",
        "streetNameDisplayText": "FARWELL TERR, SAULT STE. MARIE"
      }
    ]
  },
  {
    "postal": "P6C7E3",
    "result": []
  },
  {
    "postal": "P6C3N6",
    "result": [
      {
        "electoralDistricts": [
          {
            "election": null,
            "id": 92,
            "name": "Sault Ste. Marie"
          }
        ],
        "pollDivisionIds": [
          10141471
        ],
        "postalCode": "P6C3N6",
        "streetName": "NORTHLAND",
        "streetDirectionId": null,
        "streetTypeId": "RD",
        "placeName": "SAULT STE. MARIE",
        "streetNameDisplayText": "NORTHLAND RD, SAULT STE. MARIE"
      }
    ]
  },
  {
    "postal": "P6C3X6",
    "result": [
      {
        "electoralDistricts": [
          {
            "election": null,
            "id": 92,
            "name": "Sault Ste. Marie"
          }
        ],
        "pollDivisionIds": [
          10141466
        ],
        "postalCode": "P6C3X6",
        "streetName": "SHERBOURNE",
        "streetDirectionId": null,
        "streetTypeId": "ST",
        "placeName": "SAULT STE. MARIE",
        "streetNameDisplayText": "SHERBOURNE ST, SAULT STE. MARIE"
      }
    ]
  },
  {
    "postal": "P6C8L0",
    "result": []
  },
  {
    "postal": "P6C8N1",
    "result": []
  },
  {
    "postal": "P6C4J0",
    "result": []
  },
  {
    "postal": "P6C0X7",
    "result": []
  },
  {
    "postal": "P6C6S4",
    "result": []
  },
  {
    "postal": "P6C0Z0",
    "result": []
  },
  {
    "postal": "P6C9X8",
    "result": []
  },
  {
    "postal": "P6C3H3",
    "result": [
      {
        "electoralDistricts": [
          {
            "election": null,
            "id": 92,
            "name": "Sault Ste. Marie"
          }
        ],
        "pollDivisionIds": [
          10141472
        ],
        "postalCode": "P6C3H3",
        "streetName": "BUSH",
        "streetDirectionId": null,
        "streetTypeId": "ST",
        "placeName": "SAULT STE. MARIE",
        "streetNameDisplayText": "BUSH ST, SAULT STE. MARIE"
      }
    ]
  },
  {
    "postal": "P6C7S2",
    "result": []
  },
  {
    "postal": "P6C3T3",
    "result": [
      {
        "electoralDistricts": [
          {
            "election": null,
            "id": 92,
            "name": "Sault Ste. Marie"
          }
        ],
        "pollDivisionIds": [
          10141457
        ],
        "postalCode": "P6C3T3",
        "streetName": "GREENFIELD",
        "streetDirectionId": null,
        "streetTypeId": "DR",
        "placeName": "SAULT STE. MARIE",
        "streetNameDisplayText": "GREENFIELD DR, SAULT STE. MARIE"
      }
    ]
  },
  {
    "postal": "P6C9P3",
    "result": []
  },
  {
    "postal": "P6C4H8",
    "result": [
      {
        "electoralDistricts": [
          {
            "election": null,
            "id": 92,
            "name": "Sault Ste. Marie"
          }
        ],
        "pollDivisionIds": [
          10141465
        ],
        "postalCode": "P6C4H8",
        "streetName": "KORAH",
        "streetDirectionId": null,
        "streetTypeId": "RD",
        "placeName": "SAULT STE. MARIE",
        "streetNameDisplayText": "KORAH RD, SAULT STE. MARIE"
      }
    ]
  },
  {
    "postal": "P6C6R1",
    "result": []
  },
  {
    "postal": "P6C1S0",
    "result": []
  },
  {
    "postal": "P6C3W8",
    "result": [
      {
        "electoralDistricts": [
          {
            "election": null,
            "id": 92,
            "name": "Sault Ste. Marie"
          }
        ],
        "pollDivisionIds": [
          10141457
        ],
        "postalCode": "P6C3W8",
        "streetName": "PEOPLES",
        "streetDirectionId": null,
        "streetTypeId": "RD",
        "placeName": "SAULT STE. MARIE",
        "streetNameDisplayText": "PEOPLES RD, SAULT STE. MARIE"
      }
    ]
  },
  {
    "postal": "P6C4S3",
    "result": [
      {
        "electoralDistricts": [
          {
            "election": null,
            "id": 92,
            "name": "Sault Ste. Marie"
          }
        ],
        "pollDivisionIds": [
          10141462
        ],
        "postalCode": "P6C4S3",
        "streetName": "TURNER",
        "streetDirectionId": null,
        "streetTypeId": "AVE",
        "placeName": "SAULT STE. MARIE",
        "streetNameDisplayText": "TURNER AVE, SAULT STE. MARIE"
      }
    ]
  },
  {
    "postal": "P6C1B6",
    "result": []
  },
  {
    "postal": "P6C8R3",
    "result": []
  },
  {
    "postal": "P6C4V9",
    "result": [
      {
        "electoralDistricts": [
          {
            "election": null,
            "id": 92,
            "name": "Sault Ste. Marie"
          }
        ],
        "pollDivisionIds": [
          10141460
        ],
        "postalCode": "P6C4V9",
        "streetName": "GOETZ",
        "streetDirectionId": null,
        "streetTypeId": "ST",
        "placeName": "SAULT STE. MARIE",
        "streetNameDisplayText": "GOETZ ST, SAULT STE. MARIE"
      }
    ]
  },
  {
    "postal": "P6C9W4",
    "result": []
  },
  {
    "postal": "P6C3T4",
    "result": [
      {
        "electoralDistricts": [
          {
            "election": null,
            "id": 92,
            "name": "Sault Ste. Marie"
          }
        ],
        "pollDivisionIds": [
          10141466
        ],
        "postalCode": "P6C3T4",
        "streetName": "WELLINGTON",
        "streetDirectionId": "W",
        "streetTypeId": "ST",
        "placeName": "SAULT STE. MARIE",
        "streetNameDisplayText": "WELLINGTON ST W, SAULT STE. MARIE"
      }
    ]
  },
  {
    "postal": "P6C5C7",
    "result": [
      {
        "electoralDistricts": [
          {
            "election": null,
            "id": 92,
            "name": "Sault Ste. Marie"
          }
        ],
        "pollDivisionIds": [
          10141460
        ],
        "postalCode": "P6C5C7",
        "streetName": "SPADINA",
        "streetDirectionId": null,
        "streetTypeId": "AVE",
        "placeName": "SAULT STE. MARIE",
        "streetNameDisplayText": "SPADINA AVE, SAULT STE. MARIE"
      }
    ]
  },
  {
    "postal": "P6C3Y1",
    "result": [
      {
        "electoralDistricts": [
          {
            "election": null,
            "id": 2,
            "name": "AlgomaManitoulin"
          }
        ],
        "pollDivisionIds": [
          10136736
        ],
        "postalCode": "P6C3Y1",
        "streetName": "HILL",
        "streetDirectionId": null,
        "streetTypeId": "RD",
        "placeName": "SAULT STE. MARIE",
        "streetNameDisplayText": "HILL RD, SAULT STE. MARIE"
      },
      {
        "electoralDistricts": [
          {
            "election": null,
            "id": 92,
            "name": "Sault Ste. Marie"
          }
        ],
        "pollDivisionIds": [
          10141464
        ],
        "postalCode": "P6C3Y1",
        "streetName": "HILL",
        "streetDirectionId": null,
        "streetTypeId": "ST",
        "placeName": "SAULT STE. MARIE",
        "streetNameDisplayText": "HILL ST, SAULT STE. MARIE"
      }
    ]
  },
  {
    "postal": "P6C5V0",
    "result": []
  },
  {
    "postal": "P6C8G8",
    "result": []
  },
  {
    "postal": "P6C8B1",
    "result": []
  },
  {
    "postal": "P6C4P5",
    "result": [
      {
        "electoralDistricts": [
          {
            "election": null,
            "id": 92,
            "name": "Sault Ste. Marie"
          }
        ],
        "pollDivisionIds": [
          10141465
        ],
        "postalCode": "P6C4P5",
        "streetName": "PRENTICE",
        "streetDirectionId": null,
        "streetTypeId": "AVE",
        "placeName": "SAULT STE. MARIE",
        "streetNameDisplayText": "PRENTICE AVE, SAULT STE. MARIE"
      }
    ]
  },
  {
    "postal": "P6C7B2",
    "result": []
  },
  {
    "postal": "P6C0R2",
    "result": []
  },
  {
    "postal": "P6C4M4",
    "result": [
      {
        "electoralDistricts": [
          {
            "election": null,
            "id": 92,
            "name": "Sault Ste. Marie"
          }
        ],
        "pollDivisionIds": [
          10141465
        ],
        "postalCode": "P6C4M4",
        "streetName": "THIRD",
        "streetDirectionId": null,
        "streetTypeId": "AVE",
        "placeName": "SAULT STE. MARIE",
        "streetNameDisplayText": "THIRD AVE, SAULT STE. MARIE"
      }
    ]
  },
  {
    "postal": "P6C7M4",
    "result": []
  },
  {
    "postal": "P6C9S7",
    "result": []
  },
  {
    "postal": "P6C5Z7",
    "result": [
      {
        "electoralDistricts": [
          {
            "election": null,
            "id": 92,
            "name": "Sault Ste. Marie"
          }
        ],
        "pollDivisionIds": [
          10141457
        ],
        "postalCode": "P6C5Z7",
        "streetName": "WEST DUNROBIN",
        "streetDirectionId": null,
        "streetTypeId": "BAY",
        "placeName": "SAULT STE. MARIE",
        "streetNameDisplayText": "WEST DUNROBIN BAY, SAULT STE. MARIE"
      }
    ]
  },
  {
    "postal": "P6C7J7",
    "result": []
  },
  {
    "postal": "P6C8R8",
    "result": []
  },
  {
    "postal": "P6C9X1",
    "result": []
  },
  {
    "postal": "P6C5M9",
    "result": [
      {
        "electoralDistricts": [
          {
            "election": null,
            "id": 92,
            "name": "Sault Ste. Marie"
          }
        ],
        "pollDivisionIds": [
          10141459
        ],
        "postalCode": "P6C5M9",
        "streetName": "ROOSEVELT",
        "streetDirectionId": null,
        "streetTypeId": "AVE",
        "placeName": "SAULT STE. MARIE",
        "streetNameDisplayText": "ROOSEVELT AVE, SAULT STE. MARIE"
      }
    ]
  },
  {
    "postal": "P6C9B4",
    "result": []
  },
  {
    "postal": "P6C0L9",
    "result": []
  },
  {
    "postal": "P6C9G4",
    "result": []
  },
  {
    "postal": "P6C1J4",
    "result": [
      {
        "electoralDistricts": [
          {
            "election": null,
            "id": 92,
            "name": "Sault Ste. Marie"
          }
        ],
        "pollDivisionIds": [
          10141466
        ],
        "postalCode": "P6C1J4",
        "streetName": "BLOOR",
        "streetDirectionId": "W",
        "streetTypeId": "ST",
        "placeName": "SAULT STE. MARIE",
        "streetNameDisplayText": "BLOOR ST W, SAULT STE. MARIE"
      }
    ]
  },
  {
    "postal": "P6C0W6",
    "result": []
  }
]
