[
  {
    "postal": "K7P9J6",
    "result": []
  },
  {
    "postal": "K7P9Z5",
    "result": []
  },
  {
    "postal": "K7P7H8",
    "result": []
  },
  {
    "postal": "K7P0P6",
    "result": []
  },
  {
    "postal": "K7P0S7",
    "result": []
  },
  {
    "postal": "K7P8B9",
    "result": []
  },
  {
    "postal": "K7P2A6",
    "result": [
      {
        "electoralDistricts": [
          {
            "election": null,
            "id": 46,
            "name": "Kingston and the Islands"
          }
        ],
        "pollDivisionIds": [
          10139120
        ],
        "postalCode": "K7P2A6",
        "streetName": "RIDLEY",
        "streetDirectionId": null,
        "streetTypeId": "DR",
        "placeName": "KINGSTON",
        "streetNameDisplayText": "RIDLEY DR, KINGSTON"
      }
    ]
  },
  {
    "postal": "K7P7V2",
    "result": []
  },
  {
    "postal": "K7P9P4",
    "result": []
  },
  {
    "postal": "K7P6G0",
    "result": []
  },
  {
    "postal": "K7P2K0",
    "result": []
  },
  {
    "postal": "K7P7N6",
    "result": []
  },
  {
    "postal": "K7P5R3",
    "result": []
  },
  {
    "postal": "K7P7K0",
    "result": []
  },
  {
    "postal": "K7P3R2",
    "result": []
  },
  {
    "postal": "K7P0J1",
    "result": [
      {
        "electoralDistricts": [
          {
            "election": null,
            "id": 46,
            "name": "Kingston and the Islands"
          }
        ],
        "pollDivisionIds": [
          10139107
        ],
        "postalCode": "K7P0J1",
        "streetName": "DELMAR",
        "streetDirectionId": null,
        "streetTypeId": "ST",
        "placeName": "KINGSTON",
        "streetNameDisplayText": "DELMAR ST, KINGSTON"
      },
      {
        "electoralDistricts": [
          {
            "election": null,
            "id": 46,
            "name": "Kingston and the Islands"
          }
        ],
        "pollDivisionIds": [
          10139107
        ],
        "postalCode": "K7P0J1",
        "streetName": "MONACO",
        "streetDirectionId": null,
        "streetTypeId": "CRT",
        "placeName": "KINGSTON",
        "streetNameDisplayText": "MONACO CRT, KINGSTON"
      }
    ]
  },
  {
    "postal": "K7P0B0",
    "result": []
  },
  {
    "postal": "K7P5Z2",
    "result": []
  },
  {
    "postal": "K7P7P3",
    "result": []
  },
  {
    "postal": "K7P2K3",
    "result": [
      {
        "electoralDistricts": [
          {
            "election": null,
            "id": 46,
            "name": "Kingston and the Islands"
          }
        ],
        "pollDivisionIds": [
          10139105
        ],
        "postalCode": "K7P2K3",
        "streetName": "DUNHAM",
        "streetDirectionId": null,
        "streetTypeId": "ST",
        "placeName": "KINGSTON",
        "streetNameDisplayText": "DUNHAM ST, KINGSTON"
      },
      {
        "electoralDistricts": [
          {
            "election": null,
            "id": 46,
            "name": "Kingston and the Islands"
          }
        ],
        "pollDivisionIds": [
          10139105
        ],
        "postalCode": "K7P2K3",
        "streetName": "PLAINVIEW",
        "streetDirectionId": null,
        "streetTypeId": "PL",
        "placeName": "KINGSTON",
        "streetNameDisplayText": "PLAINVIEW PL, KINGSTON"
      }
    ]
  },
  {
    "postal": "K7P7Y6",
    "result": []
  },
  {
    "postal": "K7P1L9",
    "result": [
      {
        "electoralDistricts": [
          {
            "election": null,
            "id": 46,
            "name": "Kingston and the Islands"
          }
        ],
        "pollDivisionIds": [
          10139119
        ],
        "postalCode": "K7P1L9",
        "streetName": "KENSHAW",
        "streetDirectionId": null,
        "streetTypeId": "ST",
        "placeName": "KINGSTON",
        "streetNameDisplayText": "KENSHAW ST, KINGSTON"
      }
    ]
  },
  {
    "postal": "K7P8T0",
    "result": []
  },
  {
    "postal": "K7P3K8",
    "result": []
  },
  {
    "postal": "K7P5W9",
    "result": []
  },
  {
    "postal": "K7P6T9",
    "result": []
  },
  {
    "postal": "K7P4H1",
    "result": []
  },
  {
    "postal": "K7P7A2",
    "result": []
  },
  {
    "postal": "K7P5G0",
    "result": []
  },
  {
    "postal": "K7P8V5",
    "result": []
  },
  {
    "postal": "K7P2Y8",
    "result": []
  },
  {
    "postal": "K7P2B6",
    "result": [
      {
        "electoralDistricts": [
          {
            "election": null,
            "id": 46,
            "name": "Kingston and the Islands"
          }
        ],
        "pollDivisionIds": [
          10139120
        ],
        "postalCode": "K7P2B6",
        "streetName": "AMBLESIDE",
        "streetDirectionId": null,
        "streetTypeId": "CRES",
        "placeName": "KINGSTON",
        "streetNameDisplayText": "AMBLESIDE CRES, KINGSTON"
      }
    ]
  },
  {
    "postal": "K7P4W8",
    "result": []
  },
  {
    "postal": "K7P8H7",
    "result": []
  },
  {
    "postal": "K7P5P1",
    "result": []
  },
  {
    "postal": "K7P2B8",
    "result": [
      {
        "electoralDistricts": [
          {
            "election": null,
            "id": 46,
            "name": "Kingston and the Islands"
          }
        ],
        "pollDivisionIds": [
          10139120
        ],
        "postalCode": "K7P2B8",
        "streetName": "NOTTINGHILL",
        "streetDirectionId": null,
        "streetTypeId": "AVE",
        "placeName": "KINGSTON",
        "streetNameDisplayText": "NOTTINGHILL AVE, KINGSTON"
      }
    ]
  },
  {
    "postal": "K7P0P2",
    "result": []
  },
  {
    "postal": "K7P9M1",
    "result": []
  },
  {
    "postal": "K7P3G0",
    "result": []
  },
  {
    "postal": "K7P9Z2",
    "result": []
  },
  {
    "postal": "K7P2A0",
    "result": []
  },
  {
    "postal": "K7P6Y0",
    "result": []
  },
  {
    "postal": "K7P2Z8",
    "result": [
      {
        "electoralDistricts": [
          {
            "election": null,
            "id": 46,
            "name": "Kingston and the Islands"
          }
        ],
        "pollDivisionIds": [
          10139106,
          10139105
        ],
        "postalCode": "K7P2Z8",
        "streetName": "CREEKFORD",
        "streetDirectionId": null,
        "streetTypeId": "RD",
        "placeName": "WESTBROOK",
        "streetNameDisplayText": "CREEKFORD RD, WESTBROOK"
      }
    ]
  },
  {
    "postal": "K7P7Y3",
    "result": []
  },
  {
    "postal": "K7P6Z5",
    "result": []
  },
  {
    "postal": "K7P6E0",
    "result": []
  },
  {
    "postal": "K7P9B7",
    "result": []
  },
  {
    "postal": "K7P9S5",
    "result": []
  },
  {
    "postal": "K7P3X3",
    "result": []
  },
  {
    "postal": "K7P7R5",
    "result": []
  },
  {
    "postal": "K7P2X3",
    "result": [
      {
        "electoralDistricts": [
          {
            "election": null,
            "id": 46,
            "name": "Kingston and the Islands"
          }
        ],
        "pollDivisionIds": [
          10139120,
          10139105
        ],
        "postalCode": "K7P2X3",
        "streetName": "WOODBINE",
        "streetDirectionId": null,
        "streetTypeId": "RD",
        "placeName": "KINGSTON",
        "streetNameDisplayText": "WOODBINE RD, KINGSTON"
      }
    ]
  },
  {
    "postal": "K7P8Z9",
    "result": []
  },
  {
    "postal": "K7P0N4",
    "result": [
      {
        "electoralDistricts": [
          {
            "election": null,
            "id": 46,
            "name": "Kingston and the Islands"
          }
        ],
        "pollDivisionIds": [
          10139105
        ],
        "postalCode": "K7P0N4",
        "streetName": "MANDARA",
        "streetDirectionId": null,
        "streetTypeId": "DR",
        "placeName": "KINGSTON",
        "streetNameDisplayText": "MANDARA DR, KINGSTON"
      },
      {
        "electoralDistricts": [
          {
            "election": null,
            "id": 46,
            "name": "Kingston and the Islands"
          }
        ],
        "pollDivisionIds": [
          10139105
        ],
        "postalCode": "K7P0N4",
        "streetName": "SQUIRREL HILL",
        "streetDirectionId": null,
        "streetTypeId": "DR",
        "placeName": "KINGSTON",
        "streetNameDisplayText": "SQUIRREL HILL DR, KINGSTON"
      }
    ]
  },
  {
    "postal": "K7P1K1",
    "result": []
  },
  {
    "postal": "K7P1S3",
    "result": [
      {
        "electoralDistricts": [
          {
            "election": null,
            "id": 46,
            "name": "Kingston and the Islands"
          }
        ],
        "pollDivisionIds": [
          10139105
        ],
        "postalCode": "K7P1S3",
        "streetName": "MONA",
        "streetDirectionId": null,
        "streetTypeId": "DR",
        "placeName": "KINGSTON",
        "streetNameDisplayText": "MONA DR, KINGSTON"
      }
    ]
  },
  {
    "postal": "K7P6M4",
    "result": []
  },
  {
    "postal": "K7P9A9",
    "result": []
  },
  {
    "postal": "K7P9Z9",
    "result": []
  },
  {
    "postal": "K7P6T4",
    "result": []
  },
  {
    "postal": "K7P0B2",
    "result": [
      {
        "electoralDistricts": [
          {
            "election": null,
            "id": 46,
            "name": "Kingston and the Islands"
          }
        ],
        "pollDivisionIds": [
          10139105
        ],
        "postalCode": "K7P0B2",
        "streetName": "ROSHAN",
        "streetDirectionId": null,
        "streetTypeId": "DR",
        "placeName": "KINGSTON",
        "streetNameDisplayText": "ROSHAN DR, KINGSTON"
      },
      {
        "electoralDistricts": [
          {
            "election": null,
            "id": 46,
            "name": "Kingston and the Islands"
          }
        ],
        "pollDivisionIds": [
          10139105
        ],
        "postalCode": "K7P0B2",
        "streetName": "STONEHENGE",
        "streetDirectionId": null,
        "streetTypeId": "ST",
        "placeName": "KINGSTON",
        "streetNameDisplayText": "STONEHENGE ST, KINGSTON"
      }
    ]
  },
  {
    "postal": "K7P2L9",
    "result": [
      {
        "electoralDistricts": [
          {
            "election": null,
            "id": 46,
            "name": "Kingston and the Islands"
          }
        ],
        "pollDivisionIds": [
          10139105
        ],
        "postalCode": "K7P2L9",
        "streetName": "BENTLEY",
        "streetDirectionId": null,
        "streetTypeId": "TERR",
        "placeName": "KINGSTON",
        "streetNameDisplayText": "BENTLEY TERR, KINGSTON"
      }
    ]
  },
  {
    "postal": "K7P8K9",
    "result": []
  },
  {
    "postal": "K7P2H9",
    "result": [
      {
        "electoralDistricts": [
          {
            "election": null,
            "id": 46,
            "name": "Kingston and the Islands"
          }
        ],
        "pollDivisionIds": [
          10139107,
          10139106
        ],
        "postalCode": "K7P2H9",
        "streetName": "CEDARWOOD",
        "streetDirectionId": null,
        "streetTypeId": "DR",
        "placeName": "KINGSTON",
        "streetNameDisplayText": "CEDARWOOD DR, KINGSTON"
      }
    ]
  },
  {
    "postal": "K7P3Z6",
    "result": []
  },
  {
    "postal": "K7P3B0",
    "result": []
  },
  {
    "postal": "K7P2H8",
    "result": [
      {
        "electoralDistricts": [
          {
            "election": null,
            "id": 46,
            "name": "Kingston and the Islands"
          }
        ],
        "pollDivisionIds": [
          10139107
        ],
        "postalCode": "K7P2H8",
        "streetName": "CEDARWOOD",
        "streetDirectionId": null,
        "streetTypeId": "DR",
        "placeName": "KINGSTON",
        "streetNameDisplayText": "CEDARWOOD DR, KINGSTON"
      }
    ]
  },
  {
    "postal": "K7P3X2",
    "result": []
  },
  {
    "postal": "K7P2E9",
    "result": [
      {
        "electoralDistricts": [
          {
            "election": null,
            "id": 46,
            "name": "Kingston and the Islands"
          }
        ],
        "pollDivisionIds": [
          10139106
        ],
        "postalCode": "K7P2E9",
        "streetName": "WINTERGREEN",
        "streetDirectionId": null,
        "streetTypeId": "CRES",
        "placeName": "KINGSTON",
        "streetNameDisplayText": "WINTERGREEN CRES, KINGSTON"
      }
    ]
  },
  {
    "postal": "K7P9P6",
    "result": []
  },
  {
    "postal": "K7P9E2",
    "result": []
  },
  {
    "postal": "K7P9H2",
    "result": []
  },
  {
    "postal": "K7P1S8",
    "result": []
  },
  {
    "postal": "K7P3M6",
    "result": []
  },
  {
    "postal": "K7P6Z8",
    "result": []
  },
  {
    "postal": "K7P4J2",
    "result": []
  },
  {
    "postal": "K7P9Y1",
    "result": []
  },
  {
    "postal": "K7P8V6",
    "result": []
  },
  {
    "postal": "K7P6B2",
    "result": []
  },
  {
    "postal": "K7P1P8",
    "result": [
      {
        "electoralDistricts": [
          {
            "election": null,
            "id": 46,
            "name": "Kingston and the Islands"
          }
        ],
        "pollDivisionIds": [
          10139105
        ],
        "postalCode": "K7P1P8",
        "streetName": "BRIDLE PATH",
        "streetDirectionId": null,
        "streetTypeId": "CRES",
        "placeName": "KINGSTON",
        "streetNameDisplayText": "BRIDLE PATH CRES, KINGSTON"
      }
    ]
  },
  {
    "postal": "K7P0V8",
    "result": []
  },
  {
    "postal": "K7P4Y0",
    "result": []
  },
  {
    "postal": "K7P2T4",
    "result": [
      {
        "electoralDistricts": [
          {
            "election": null,
            "id": 46,
            "name": "Kingston and the Islands"
          }
        ],
        "pollDivisionIds": [
          10139107
        ],
        "postalCode": "K7P2T4",
        "streetName": "FORTUNE",
        "streetDirectionId": null,
        "streetTypeId": "CRES",
        "placeName": "KINGSTON",
        "streetNameDisplayText": "FORTUNE CRES, KINGSTON"
      }
    ]
  },
  {
    "postal": "K7P2S3",
    "result": [
      {
        "electoralDistricts": [
          {
            "election": null,
            "id": 46,
            "name": "Kingston and the Islands"
          }
        ],
        "pollDivisionIds": [
          10139105
        ],
        "postalCode": "K7P2S3",
        "streetName": "CAITLIN",
        "streetDirectionId": null,
        "streetTypeId": "CRES",
        "placeName": "KINGSTON",
        "streetNameDisplayText": "CAITLIN CRES, KINGSTON"
      },
      {
        "electoralDistricts": [
          {
            "election": null,
            "id": 46,
            "name": "Kingston and the Islands"
          }
        ],
        "pollDivisionIds": [
          10139105
        ],
        "postalCode": "K7P2S3",
        "streetName": "LANCASTER",
        "streetDirectionId": null,
        "streetTypeId": "DR",
        "placeName": "KINGSTON",
        "streetNameDisplayText": "LANCASTER DR, KINGSTON"
      },
      {
        "electoralDistricts": [
          {
            "election": null,
            "id": 46,
            "name": "Kingston and the Islands"
          }
        ],
        "pollDivisionIds": [
          10139105
        ],
        "postalCode": "K7P2S3",
        "streetName": "MONA",
        "streetDirectionId": null,
        "streetTypeId": "DR",
        "placeName": "KINGSTON",
        "streetNameDisplayText": "MONA DR, KINGSTON"
      }
    ]
  },
  {
    "postal": "K7P0K0",
    "result": []
  },
  {
    "postal": "K7P5N1",
    "result": []
  },
  {
    "postal": "K7P7T0",
    "result": []
  },
  {
    "postal": "K7P9N2",
    "result": []
  },
  {
    "postal": "K7P5L1",
    "result": []
  },
  {
    "postal": "K7P7G5",
    "result": []
  },
  {
    "postal": "K7P6K2",
    "result": []
  },
  {
    "postal": "K7P6P9",
    "result": []
  },
  {
    "postal": "K7P0E6",
    "result": [
      {
        "electoralDistricts": [
          {
            "election": null,
            "id": 46,
            "name": "Kingston and the Islands"
          }
        ],
        "pollDivisionIds": [
          10139167
        ],
        "postalCode": "K7P0E6",
        "streetName": "CATARAQUI WOODS",
        "streetDirectionId": null,
        "streetTypeId": "DR",
        "placeName": "KINGSTON",
        "streetNameDisplayText": "CATARAQUI WOODS DR, KINGSTON"
      }
    ]
  },
  {
    "postal": "K7P8R9",
    "result": []
  },
  {
    "postal": "K7P3G9",
    "result": [
      {
        "electoralDistricts": [
          {
            "election": null,
            "id": 46,
            "name": "Kingston and the Islands"
          }
        ],
        "pollDivisionIds": [
          10139106
        ],
        "postalCode": "K7P3G9",
        "streetName": "BERRYWOOD",
        "streetDirectionId": null,
        "streetTypeId": "CRES",
        "placeName": "KINGSTON",
        "streetNameDisplayText": "BERRYWOOD CRES, KINGSTON"
      }
    ]
  },
  {
    "postal": "K7P0V7",
    "result": []
  },
  {
    "postal": "K7P2Z1",
    "result": [
      {
        "electoralDistricts": [
          {
            "election": null,
            "id": 46,
            "name": "Kingston and the Islands"
          }
        ],
        "pollDivisionIds": [
          10139107
        ],
        "postalCode": "K7P2Z1",
        "streetName": "CLOGGS",
        "streetDirectionId": null,
        "streetTypeId": "RD",
        "placeName": "WESTBROOK",
        "streetNameDisplayText": "CLOGGS RD, WESTBROOK"
      }
    ]
  },
  {
    "postal": "K7P7N1",
    "result": []
  },
  {
    "postal": "K7P3C6",
    "result": [
      {
        "electoralDistricts": [
          {
            "election": null,
            "id": 46,
            "name": "Kingston and the Islands"
          }
        ],
        "pollDivisionIds": [
          10139107,
          10139108
        ],
        "postalCode": "K7P3C6",
        "streetName": "ELLESMEER",
        "streetDirectionId": null,
        "streetTypeId": "AVE",
        "placeName": "KINGSTON",
        "streetNameDisplayText": "ELLESMEER AVE, KINGSTON"
      },
      {
        "electoralDistricts": [
          {
            "election": null,
            "id": 46,
            "name": "Kingston and the Islands"
          }
        ],
        "pollDivisionIds": [
          10139107
        ],
        "postalCode": "K7P3C6",
        "streetName": "SHERIDAN",
        "streetDirectionId": null,
        "streetTypeId": "ST",
        "placeName": "KINGSTON",
        "streetNameDisplayText": "SHERIDAN ST, KINGSTON"
      }
    ]
  },
  {
    "postal": "K7P4M1",
    "result": []
  },
  {
    "postal": "K7P9K2",
    "result": []
  },
  {
    "postal": "K7P9S6",
    "result": []
  },
  {
    "postal": "K7P4X1",
    "result": []
  },
  {
    "postal": "K7P8W2",
    "result": []
  },
  {
    "postal": "K7P7N2",
    "result": []
  },
  {
    "postal": "K7P8S3",
    "result": []
  },
  {
    "postal": "K7P4V0",
    "result": []
  },
  {
    "postal": "K7P6W4",
    "result": []
  },
  {
    "postal": "K7P5M1",
    "result": []
  },
  {
    "postal": "K7P0S4",
    "result": []
  },
  {
    "postal": "K7P5X6",
    "result": []
  },
  {
    "postal": "K7P8L5",
    "result": []
  },
  {
    "postal": "K7P5M8",
    "result": []
  },
  {
    "postal": "K7P2G3",
    "result": [
      {
        "electoralDistricts": [
          {
            "election": null,
            "id": 46,
            "name": "Kingston and the Islands"
          }
        ],
        "pollDivisionIds": [
          10139106
        ],
        "postalCode": "K7P2G3",
        "streetName": "CEDARWOOD",
        "streetDirectionId": null,
        "streetTypeId": "DR",
        "placeName": "KINGSTON",
        "streetNameDisplayText": "CEDARWOOD DR, KINGSTON"
      },
      {
        "electoralDistricts": [
          {
            "election": null,
            "id": 46,
            "name": "Kingston and the Islands"
          }
        ],
        "pollDivisionIds": [
          10139106
        ],
        "postalCode": "K7P2G3",
        "streetName": "WINTERGREEN",
        "streetDirectionId": null,
        "streetTypeId": "CRES",
        "placeName": "KINGSTON",
        "streetNameDisplayText": "WINTERGREEN CRES, KINGSTON"
      }
    ]
  },
  {
    "postal": "K7P8E4",
    "result": []
  },
  {
    "postal": "K7P7S9",
    "result": []
  },
  {
    "postal": "K7P1K3",
    "result": [
      {
        "electoralDistricts": [
          {
            "election": null,
            "id": 46,
            "name": "Kingston and the Islands"
          }
        ],
        "pollDivisionIds": [
          10139120
        ],
        "postalCode": "K7P1K3",
        "streetName": "OLD COLONY",
        "streetDirectionId": null,
        "streetTypeId": "RD",
        "placeName": "KINGSTON",
        "streetNameDisplayText": "OLD COLONY RD, KINGSTON"
      }
    ]
  },
  {
    "postal": "K7P4E1",
    "result": []
  },
  {
    "postal": "K7P4R2",
    "result": []
  },
  {
    "postal": "K7P6T0",
    "result": []
  },
  {
    "postal": "K7P3K5",
    "result": [
      {
        "electoralDistricts": [
          {
            "election": null,
            "id": 46,
            "name": "Kingston and the Islands"
          }
        ],
        "pollDivisionIds": [
          10139107
        ],
        "postalCode": "K7P3K5",
        "streetName": "APOLLO",
        "streetDirectionId": null,
        "streetTypeId": "TERR",
        "placeName": "KINGSTON",
        "streetNameDisplayText": "APOLLO TERR, KINGSTON"
      },
      {
        "electoralDistricts": [
          {
            "election": null,
            "id": 46,
            "name": "Kingston and the Islands"
          }
        ],
        "pollDivisionIds": [
          10139107
        ],
        "postalCode": "K7P3K5",
        "streetName": "PEARL",
        "streetDirectionId": null,
        "streetTypeId": "RD",
        "placeName": "KINGSTON",
        "streetNameDisplayText": "PEARL RD, KINGSTON"
      },
      {
        "electoralDistricts": [
          {
            "election": null,
            "id": 46,
            "name": "Kingston and the Islands"
          }
        ],
        "pollDivisionIds": [
          10139107
        ],
        "postalCode": "K7P3K5",
        "streetName": "SIERRA",
        "streetDirectionId": null,
        "streetTypeId": "AVE",
        "placeName": "KINGSTON",
        "streetNameDisplayText": "SIERRA AVE, KINGSTON"
      }
    ]
  },
  {
    "postal": "K7P3S3",
    "result": []
  },
  {
    "postal": "K7P3L4",
    "result": []
  },
  {
    "postal": "K7P9Y2",
    "result": []
  },
  {
    "postal": "K7P1E0",
    "result": []
  },
  {
    "postal": "K7P9A4",
    "result": []
  },
  {
    "postal": "K7P1L3",
    "result": [
      {
        "electoralDistricts": [
          {
            "election": null,
            "id": 46,
            "name": "Kingston and the Islands"
          }
        ],
        "pollDivisionIds": [
          10139106
        ],
        "postalCode": "K7P1L3",
        "streetName": "PINEWOOD",
        "streetDirectionId": null,
        "streetTypeId": "CRES",
        "placeName": "KINGSTON",
        "streetNameDisplayText": "PINEWOOD CRES, KINGSTON"
      },
      {
        "electoralDistricts": [
          {
            "election": null,
            "id": 46,
            "name": "Kingston and the Islands"
          }
        ],
        "pollDivisionIds": [
          10139106
        ],
        "postalCode": "K7P1L3",
        "streetName": "PINEWOOD",
        "streetDirectionId": null,
        "streetTypeId": "PL",
        "placeName": "KINGSTON",
        "streetNameDisplayText": "PINEWOOD PL, KINGSTON"
      }
    ]
  },
  {
    "postal": "K7P6N1",
    "result": []
  },
  {
    "postal": "K7P6G7",
    "result": []
  },
  {
    "postal": "K7P7W1",
    "result": []
  },
  {
    "postal": "K7P4M6",
    "result": []
  },
  {
    "postal": "K7P1K0",
    "result": []
  },
  {
    "postal": "K7P3E2",
    "result": [
      {
        "electoralDistricts": [
          {
            "election": null,
            "id": 46,
            "name": "Kingston and the Islands"
          }
        ],
        "pollDivisionIds": [
          10139107
        ],
        "postalCode": "K7P3E2",
        "streetName": "CAVENDISH",
        "streetDirectionId": null,
        "streetTypeId": "CRES",
        "placeName": "KINGSTON",
        "streetNameDisplayText": "CAVENDISH CRES, KINGSTON"
      },
      {
        "electoralDistricts": [
          {
            "election": null,
            "id": 46,
            "name": "Kingston and the Islands"
          }
        ],
        "pollDivisionIds": [
          10139107
        ],
        "postalCode": "K7P3E2",
        "streetName": "EMERALD",
        "streetDirectionId": null,
        "streetTypeId": "ST",
        "placeName": "KINGSTON",
        "streetNameDisplayText": "EMERALD ST, KINGSTON"
      }
    ]
  },
  {
    "postal": "K7P5H4",
    "result": []
  },
  {
    "postal": "K7P1K7",
    "result": [
      {
        "electoralDistricts": [
          {
            "election": null,
            "id": 46,
            "name": "Kingston and the Islands"
          }
        ],
        "pollDivisionIds": [
          10139106
        ],
        "postalCode": "K7P1K7",
        "streetName": "CEDARWOOD",
        "streetDirectionId": null,
        "streetTypeId": "DR",
        "placeName": "KINGSTON",
        "streetNameDisplayText": "CEDARWOOD DR, KINGSTON"
      }
    ]
  },
  {
    "postal": "K7P0H0",
    "result": []
  },
  {
    "postal": "K7P0J3",
    "result": [
      {
        "electoralDistricts": [
          {
            "election": null,
            "id": 46,
            "name": "Kingston and the Islands"
          }
        ],
        "pollDivisionIds": [
          10139106
        ],
        "postalCode": "K7P0J3",
        "streetName": "CRIMSON",
        "streetDirectionId": null,
        "streetTypeId": "CRES",
        "placeName": "KINGSTON",
        "streetNameDisplayText": "CRIMSON CRES, KINGSTON"
      }
    ]
  },
  {
    "postal": "K7P1X6",
    "result": []
  },
  {
    "postal": "K7P2Z6",
    "result": [
      {
        "electoralDistricts": [
          {
            "election": null,
            "id": 46,
            "name": "Kingston and the Islands"
          }
        ],
        "pollDivisionIds": [
          10139106
        ],
        "postalCode": "K7P2Z6",
        "streetName": "CREEKFORD",
        "streetDirectionId": null,
        "streetTypeId": "RD",
        "placeName": "WESTBROOK",
        "streetNameDisplayText": "CREEKFORD RD, WESTBROOK"
      }
    ]
  },
  {
    "postal": "K7P4R9",
    "result": []
  },
  {
    "postal": "K7P0W8",
    "result": []
  },
  {
    "postal": "K7P1L4",
    "result": []
  },
  {
    "postal": "K7P0C8",
    "result": [
      {
        "electoralDistricts": [
          {
            "election": null,
            "id": 46,
            "name": "Kingston and the Islands"
          }
        ],
        "pollDivisionIds": [
          10139108
        ],
        "postalCode": "K7P0C8",
        "streetName": "BALDWIN",
        "streetDirectionId": null,
        "streetTypeId": "CRT",
        "placeName": "KINGSTON",
        "streetNameDisplayText": "BALDWIN CRT, KINGSTON"
      },
      {
        "electoralDistricts": [
          {
            "election": null,
            "id": 46,
            "name": "Kingston and the Islands"
          }
        ],
        "pollDivisionIds": [
          10139108
        ],
        "postalCode": "K7P0C8",
        "streetName": "SYDNEY",
        "streetDirectionId": null,
        "streetTypeId": "ST",
        "placeName": "KINGSTON",
        "streetNameDisplayText": "SYDNEY ST, KINGSTON"
      }
    ]
  },
  {
    "postal": "K7P9X7",
    "result": []
  },
  {
    "postal": "K7P4T1",
    "result": []
  },
  {
    "postal": "K7P0M0",
    "result": []
  },
  {
    "postal": "K7P6A2",
    "result": []
  },
  {
    "postal": "K7P9S8",
    "result": []
  },
  {
    "postal": "K7P9T4",
    "result": []
  },
  {
    "postal": "K7P9Y4",
    "result": []
  },
  {
    "postal": "K7P6G5",
    "result": []
  },
  {
    "postal": "K7P6H9",
    "result": []
  },
  {
    "postal": "K7P2P3",
    "result": [
      {
        "electoralDistricts": [
          {
            "election": null,
            "id": 46,
            "name": "Kingston and the Islands"
          }
        ],
        "pollDivisionIds": [
          10139105
        ],
        "postalCode": "K7P2P3",
        "streetName": "DILLINGHAM",
        "streetDirectionId": null,
        "streetTypeId": "ST",
        "placeName": "KINGSTON",
        "streetNameDisplayText": "DILLINGHAM ST, KINGSTON"
      },
      {
        "electoralDistricts": [
          {
            "election": null,
            "id": 46,
            "name": "Kingston and the Islands"
          }
        ],
        "pollDivisionIds": [
          10139105
        ],
        "postalCode": "K7P2P3",
        "streetName": "HUMBERSIDE",
        "streetDirectionId": null,
        "streetTypeId": "DR",
        "placeName": "KINGSTON",
        "streetNameDisplayText": "HUMBERSIDE DR, KINGSTON"
      }
    ]
  },
  {
    "postal": "K7P1T6",
    "result": []
  },
  {
    "postal": "K7P4P6",
    "result": []
  },
  {
    "postal": "K7P3K1",
    "result": [
      {
        "electoralDistricts": [
          {
            "election": null,
            "id": 46,
            "name": "Kingston and the Islands"
          }
        ],
        "pollDivisionIds": [
          10139107
        ],
        "postalCode": "K7P3K1",
        "streetName": "JENNIFER",
        "streetDirectionId": null,
        "streetTypeId": "CRT",
        "placeName": "KINGSTON",
        "streetNameDisplayText": "JENNIFER CRT, KINGSTON"
      }
    ]
  },
  {
    "postal": "K7P6X4",
    "result": []
  },
  {
    "postal": "K7P4M8",
    "result": []
  },
  {
    "postal": "K7P2Y1",
    "result": [
      {
        "electoralDistricts": [
          {
            "election": null,
            "id": 46,
            "name": "Kingston and the Islands"
          }
        ],
        "pollDivisionIds": [
          10139107
        ],
        "postalCode": "K7P2Y1",
        "streetName": "MIDLAND",
        "streetDirectionId": null,
        "streetTypeId": "AVE",
        "placeName": "KINGSTON",
        "streetNameDisplayText": "MIDLAND AVE, KINGSTON"
      }
    ]
  },
  {
    "postal": "K7P6M1",
    "result": []
  },
  {
    "postal": "K7P5L8",
    "result": []
  },
  {
    "postal": "K7P3P6",
    "result": []
  },
  {
    "postal": "K7P9A5",
    "result": []
  },
  {
    "postal": "K7P7K1",
    "result": []
  },
  {
    "postal": "K7P3J4",
    "result": [
      {
        "electoralDistricts": [
          {
            "election": null,
            "id": 46,
            "name": "Kingston and the Islands"
          }
        ],
        "pollDivisionIds": [
          10139108
        ],
        "postalCode": "K7P3J4",
        "streetName": "ABBOT",
        "streetDirectionId": null,
        "streetTypeId": "ST",
        "placeName": "KINGSTON",
        "streetNameDisplayText": "ABBOT ST, KINGSTON"
      },
      {
        "electoralDistricts": [
          {
            "election": null,
            "id": 46,
            "name": "Kingston and the Islands"
          }
        ],
        "pollDivisionIds": [
          10139108
        ],
        "postalCode": "K7P3J4",
        "streetName": "BRADSTONE",
        "streetDirectionId": null,
        "streetTypeId": "ST",
        "placeName": "KINGSTON",
        "streetNameDisplayText": "BRADSTONE ST, KINGSTON"
      }
    ]
  },
  {
    "postal": "K7P5E7",
    "result": []
  },
  {
    "postal": "K7P3A7",
    "result": [
      {
        "electoralDistricts": [
          {
            "election": null,
            "id": 46,
            "name": "Kingston and the Islands"
          }
        ],
        "pollDivisionIds": [
          10139105
        ],
        "postalCode": "K7P3A7",
        "streetName": "PRINCESS",
        "streetDirectionId": null,
        "streetTypeId": "ST",
        "placeName": "WESTBROOK",
        "streetNameDisplayText": "PRINCESS ST, WESTBROOK"
      }
    ]
  },
  {
    "postal": "K7P1B9",
    "result": [
      {
        "electoralDistricts": [
          {
            "election": null,
            "id": 46,
            "name": "Kingston and the Islands"
          }
        ],
        "pollDivisionIds": [
          10139119
        ],
        "postalCode": "K7P1B9",
        "streetName": "PURCELL",
        "streetDirectionId": null,
        "streetTypeId": "CRES",
        "placeName": "KINGSTON",
        "streetNameDisplayText": "PURCELL CRES, KINGSTON"
      }
    ]
  },
  {
    "postal": "K7P9E8",
    "result": []
  },
  {
    "postal": "K7P1C9",
    "result": [
      {
        "electoralDistricts": [
          {
            "election": null,
            "id": 46,
            "name": "Kingston and the Islands"
          }
        ],
        "pollDivisionIds": [
          10139120
        ],
        "postalCode": "K7P1C9",
        "streetName": "APPLE DOWN",
        "streetDirectionId": null,
        "streetTypeId": "DR",
        "placeName": "KINGSTON",
        "streetNameDisplayText": "APPLE DOWN DR, KINGSTON"
      }
    ]
  },
  {
    "postal": "K7P3B5",
    "result": [
      {
        "electoralDistricts": [
          {
            "election": null,
            "id": 46,
            "name": "Kingston and the Islands"
          }
        ],
        "pollDivisionIds": [
          10139106
        ],
        "postalCode": "K7P3B5",
        "streetName": "THORNWOOD",
        "streetDirectionId": null,
        "streetTypeId": "CRES",
        "placeName": "KINGSTON",
        "streetNameDisplayText": "THORNWOOD CRES, KINGSTON"
      }
    ]
  },
  {
    "postal": "K7P8R0",
    "result": []
  },
  {
    "postal": "K7P3P2",
    "result": []
  },
  {
    "postal": "K7P5V4",
    "result": []
  },
  {
    "postal": "K7P4H0",
    "result": []
  },
  {
    "postal": "K7P4S7",
    "result": []
  },
  {
    "postal": "K7P6C2",
    "result": []
  },
  {
    "postal": "K7P8W3",
    "result": []
  },
  {
    "postal": "K7P4M5",
    "result": []
  },
  {
    "postal": "K7P5T1",
    "result": []
  },
  {
    "postal": "K7P3B3",
    "result": []
  },
  {
    "postal": "K7P6C6",
    "result": []
  },
  {
    "postal": "K7P7N8",
    "result": []
  },
  {
    "postal": "K7P2Y3",
    "result": [
      {
        "electoralDistricts": [
          {
            "election": null,
            "id": 46,
            "name": "Kingston and the Islands"
          }
        ],
        "pollDivisionIds": [
          10139107
        ],
        "postalCode": "K7P2Y3",
        "streetName": "CATARAQUI WOODS",
        "streetDirectionId": null,
        "streetTypeId": "DR",
        "placeName": "KINGSTON",
        "streetNameDisplayText": "CATARAQUI WOODS DR, KINGSTON"
      }
    ]
  },
  {
    "postal": "K7P2R6",
    "result": [
      {
        "electoralDistricts": [
          {
            "election": null,
            "id": 46,
            "name": "Kingston and the Islands"
          }
        ],
        "pollDivisionIds": [
          10139105
        ],
        "postalCode": "K7P2R6",
        "streetName": "IRVING",
        "streetDirectionId": null,
        "streetTypeId": "CRT",
        "placeName": "KINGSTON",
        "streetNameDisplayText": "IRVING CRT, KINGSTON"
      },
      {
        "electoralDistricts": [
          {
            "election": null,
            "id": 46,
            "name": "Kingston and the Islands"
          }
        ],
        "pollDivisionIds": [
          10139105
        ],
        "postalCode": "K7P2R6",
        "streetName": "KEENAN",
        "streetDirectionId": null,
        "streetTypeId": "DR",
        "placeName": "KINGSTON",
        "streetNameDisplayText": "KEENAN DR, KINGSTON"
      }
    ]
  },
  {
    "postal": "K7P7N3",
    "result": []
  },
  {
    "postal": "K7P8J2",
    "result": []
  },
  {
    "postal": "K7P6A9",
    "result": []
  },
  {
    "postal": "K7P3V2",
    "result": []
  },
  {
    "postal": "K7P2N3",
    "result": [
      {
        "electoralDistricts": [
          {
            "election": null,
            "id": 46,
            "name": "Kingston and the Islands"
          }
        ],
        "pollDivisionIds": [
          10139120
        ],
        "postalCode": "K7P2N3",
        "streetName": "NORWEST",
        "streetDirectionId": null,
        "streetTypeId": "RD",
        "placeName": "KINGSTON",
        "streetNameDisplayText": "NORWEST RD, KINGSTON"
      }
    ]
  },
  {
    "postal": "K7P1S5",
    "result": [
      {
        "electoralDistricts": [
          {
            "election": null,
            "id": 46,
            "name": "Kingston and the Islands"
          }
        ],
        "pollDivisionIds": [
          10139120
        ],
        "postalCode": "K7P1S5",
        "streetName": "OLD COLONY",
        "streetDirectionId": null,
        "streetTypeId": "RD",
        "placeName": "KINGSTON",
        "streetNameDisplayText": "OLD COLONY RD, KINGSTON"
      }
    ]
  },
  {
    "postal": "K7P4T7",
    "result": []
  },
  {
    "postal": "K7P6Y7",
    "result": []
  },
  {
    "postal": "K7P0W7",
    "result": []
  },
  {
    "postal": "K7P2W9",
    "result": [
      {
        "electoralDistricts": [
          {
            "election": null,
            "id": 46,
            "name": "Kingston and the Islands"
          }
        ],
        "pollDivisionIds": [
          10139120
        ],
        "postalCode": "K7P2W9",
        "streetName": "PRINCESS",
        "streetDirectionId": null,
        "streetTypeId": "ST",
        "placeName": "KINGSTON",
        "streetNameDisplayText": "PRINCESS ST, KINGSTON"
      }
    ]
  },
  {
    "postal": "K7P8V0",
    "result": []
  },
  {
    "postal": "K7P0H4",
    "result": [
      {
        "electoralDistricts": [
          {
            "election": null,
            "id": 46,
            "name": "Kingston and the Islands"
          }
        ],
        "pollDivisionIds": [
          10139106
        ],
        "postalCode": "K7P0H4",
        "streetName": "CRIMSON",
        "streetDirectionId": null,
        "streetTypeId": "CRES",
        "placeName": "KINGSTON",
        "streetNameDisplayText": "CRIMSON CRES, KINGSTON"
      },
      {
        "electoralDistricts": [
          {
            "election": null,
            "id": 46,
            "name": "Kingston and the Islands"
          }
        ],
        "pollDivisionIds": [
          10139106
        ],
        "postalCode": "K7P0H4",
        "streetName": "ESCALA",
        "streetDirectionId": null,
        "streetTypeId": "CRES",
        "placeName": "KINGSTON",
        "streetNameDisplayText": "ESCALA CRES, KINGSTON"
      }
    ]
  },
  {
    "postal": "K7P2T1",
    "result": [
      {
        "electoralDistricts": [
          {
            "election": null,
            "id": 46,
            "name": "Kingston and the Islands"
          }
        ],
        "pollDivisionIds": [
          10139120
        ],
        "postalCode": "K7P2T1",
        "streetName": "SUTTON MILLS",
        "streetDirectionId": null,
        "streetTypeId": "CRT",
        "placeName": "KINGSTON",
        "streetNameDisplayText": "SUTTON MILLS CRT, KINGSTON"
      }
    ]
  },
  {
    "postal": "K7P1B1",
    "result": [
      {
        "electoralDistricts": [
          {
            "election": null,
            "id": 46,
            "name": "Kingston and the Islands"
          }
        ],
        "pollDivisionIds": [
          10139119
        ],
        "postalCode": "K7P1B1",
        "streetName": "MILFORD",
        "streetDirectionId": null,
        "streetTypeId": "DR",
        "placeName": "KINGSTON",
        "streetNameDisplayText": "MILFORD DR, KINGSTON"
      }
    ]
  },
  {
    "postal": "K7P8B6",
    "result": []
  },
  {
    "postal": "K7P6H1",
    "result": []
  },
  {
    "postal": "K7P8T8",
    "result": []
  },
  {
    "postal": "K7P0T4",
    "result": []
  },
  {
    "postal": "K7P2C4",
    "result": [
      {
        "electoralDistricts": [
          {
            "election": null,
            "id": 46,
            "name": "Kingston and the Islands"
          }
        ],
        "pollDivisionIds": [
          10139105,
          10139140
        ],
        "postalCode": "K7P2C4",
        "streetName": "EDINBOROUGH",
        "streetDirectionId": null,
        "streetTypeId": "CRES",
        "placeName": "KINGSTON",
        "streetNameDisplayText": "EDINBOROUGH CRES, KINGSTON"
      }
    ]
  },
  {
    "postal": "K7P8N3",
    "result": []
  },
  {
    "postal": "K7P4L8",
    "result": []
  },
  {
    "postal": "K7P2B5",
    "result": [
      {
        "electoralDistricts": [
          {
            "election": null,
            "id": 46,
            "name": "Kingston and the Islands"
          }
        ],
        "pollDivisionIds": [
          10139120
        ],
        "postalCode": "K7P2B5",
        "streetName": "AMBLESIDE",
        "streetDirectionId": null,
        "streetTypeId": "CRES",
        "placeName": "KINGSTON",
        "streetNameDisplayText": "AMBLESIDE CRES, KINGSTON"
      }
    ]
  },
  {
    "postal": "K7P3H1",
    "result": [
      {
        "electoralDistricts": [
          {
            "election": null,
            "id": 46,
            "name": "Kingston and the Islands"
          }
        ],
        "pollDivisionIds": [
          10139106
        ],
        "postalCode": "K7P3H1",
        "streetName": "PEACHWOOD",
        "streetDirectionId": null,
        "streetTypeId": "ST",
        "placeName": "KINGSTON",
        "streetNameDisplayText": "PEACHWOOD ST, KINGSTON"
      },
      {
        "electoralDistricts": [
          {
            "election": null,
            "id": 46,
            "name": "Kingston and the Islands"
          }
        ],
        "pollDivisionIds": [
          10139106
        ],
        "postalCode": "K7P3H1",
        "streetName": "SPINDLEWOOD",
        "streetDirectionId": null,
        "streetTypeId": "ST",
        "placeName": "KINGSTON",
        "streetNameDisplayText": "SPINDLEWOOD ST, KINGSTON"
      }
    ]
  },
  {
    "postal": "K7P4Y1",
    "result": []
  },
  {
    "postal": "K7P7E2",
    "result": []
  },
  {
    "postal": "K7P2P5",
    "result": [
      {
        "electoralDistricts": [
          {
            "election": null,
            "id": 46,
            "name": "Kingston and the Islands"
          }
        ],
        "pollDivisionIds": [
          10139105
        ],
        "postalCode": "K7P2P5",
        "streetName": "PALMERSTON",
        "streetDirectionId": null,
        "streetTypeId": "CRES",
        "placeName": "KINGSTON",
        "streetNameDisplayText": "PALMERSTON CRES, KINGSTON"
      }
    ]
  },
  {
    "postal": "K7P8R7",
    "result": []
  },
  {
    "postal": "K7P9P1",
    "result": []
  },
  {
    "postal": "K7P3B8",
    "result": [
      {
        "electoralDistricts": [
          {
            "election": null,
            "id": 46,
            "name": "Kingston and the Islands"
          }
        ],
        "pollDivisionIds": [
          10139106
        ],
        "postalCode": "K7P3B8",
        "streetName": "BAYRIDGE",
        "streetDirectionId": null,
        "streetTypeId": "DR",
        "placeName": "KINGSTON",
        "streetNameDisplayText": "BAYRIDGE DR, KINGSTON"
      }
    ]
  },
  {
    "postal": "K7P3P7",
    "result": []
  },
  {
    "postal": "K7P9B2",
    "result": []
  },
  {
    "postal": "K7P6Z3",
    "result": []
  },
  {
    "postal": "K7P4N5",
    "result": []
  },
  {
    "postal": "K7P8T3",
    "result": []
  },
  {
    "postal": "K7P1V2",
    "result": []
  },
  {
    "postal": "K7P1Y0",
    "result": []
  },
  {
    "postal": "K7P3G6",
    "result": [
      {
        "electoralDistricts": [
          {
            "election": null,
            "id": 46,
            "name": "Kingston and the Islands"
          }
        ],
        "pollDivisionIds": [
          10139106
        ],
        "postalCode": "K7P3G6",
        "streetName": "PEACHWOOD",
        "streetDirectionId": null,
        "streetTypeId": "ST",
        "placeName": "KINGSTON",
        "streetNameDisplayText": "PEACHWOOD ST, KINGSTON"
      }
    ]
  },
  {
    "postal": "K7P3H7",
    "result": [
      {
        "electoralDistricts": [
          {
            "election": null,
            "id": 46,
            "name": "Kingston and the Islands"
          }
        ],
        "pollDivisionIds": [
          10139108
        ],
        "postalCode": "K7P3H7",
        "streetName": "SHERIDAN",
        "streetDirectionId": null,
        "streetTypeId": "ST",
        "placeName": "KINGSTON",
        "streetNameDisplayText": "SHERIDAN ST, KINGSTON"
      }
    ]
  },
  {
    "postal": "K7P7X8",
    "result": []
  },
  {
    "postal": "K7P0C7",
    "result": [
      {
        "electoralDistricts": [
          {
            "election": null,
            "id": 46,
            "name": "Kingston and the Islands"
          }
        ],
        "pollDivisionIds": [
          10139107
        ],
        "postalCode": "K7P0C7",
        "streetName": "CENTENNIAL",
        "streetDirectionId": null,
        "streetTypeId": "DR",
        "placeName": "KINGSTON",
        "streetNameDisplayText": "CENTENNIAL DR, KINGSTON"
      }
    ]
  },
  {
    "postal": "K7P0W9",
    "result": []
  },
  {
    "postal": "K7P8E6",
    "result": []
  },
  {
    "postal": "K7P9Z8",
    "result": []
  },
  {
    "postal": "K7P3P4",
    "result": []
  },
  {
    "postal": "K7P6L8",
    "result": []
  },
  {
    "postal": "K7P2R4",
    "result": [
      {
        "electoralDistricts": [
          {
            "election": null,
            "id": 46,
            "name": "Kingston and the Islands"
          }
        ],
        "pollDivisionIds": [
          10139105
        ],
        "postalCode": "K7P2R4",
        "streetName": "FRIENDSHIP",
        "streetDirectionId": null,
        "streetTypeId": "CRT",
        "placeName": "KINGSTON",
        "streetNameDisplayText": "FRIENDSHIP CRT, KINGSTON"
      },
      {
        "electoralDistricts": [
          {
            "election": null,
            "id": 46,
            "name": "Kingston and the Islands"
          }
        ],
        "pollDivisionIds": [
          10139105
        ],
        "postalCode": "K7P2R4",
        "streetName": "KEENAN",
        "streetDirectionId": null,
        "streetTypeId": "DR",
        "placeName": "KINGSTON",
        "streetNameDisplayText": "KEENAN DR, KINGSTON"
      },
      {
        "electoralDistricts": [
          {
            "election": null,
            "id": 46,
            "name": "Kingston and the Islands"
          }
        ],
        "pollDivisionIds": [
          10139105
        ],
        "postalCode": "K7P2R4",
        "streetName": "WOODSIDE",
        "streetDirectionId": null,
        "streetTypeId": "DR",
        "placeName": "KINGSTON",
        "streetNameDisplayText": "WOODSIDE DR, KINGSTON"
      }
    ]
  },
  {
    "postal": "K7P2W1",
    "result": [
      {
        "electoralDistricts": [
          {
            "election": null,
            "id": 46,
            "name": "Kingston and the Islands"
          }
        ],
        "pollDivisionIds": [
          10139107
        ],
        "postalCode": "K7P2W1",
        "streetName": "BRACKENWOOD",
        "streetDirectionId": null,
        "streetTypeId": "CRES",
        "placeName": "KINGSTON",
        "streetNameDisplayText": "BRACKENWOOD CRES, KINGSTON"
      }
    ]
  },
  {
    "postal": "K7P9H8",
    "result": []
  },
  {
    "postal": "K7P8X9",
    "result": []
  },
  {
    "postal": "K7P7H4",
    "result": []
  },
  {
    "postal": "K7P3J1",
    "result": [
      {
        "electoralDistricts": [
          {
            "election": null,
            "id": 46,
            "name": "Kingston and the Islands"
          }
        ],
        "pollDivisionIds": [
          10139108
        ],
        "postalCode": "K7P3J1",
        "streetName": "ELLESMEER",
        "streetDirectionId": null,
        "streetTypeId": "AVE",
        "placeName": "KINGSTON",
        "streetNameDisplayText": "ELLESMEER AVE, KINGSTON"
      },
      {
        "electoralDistricts": [
          {
            "election": null,
            "id": 46,
            "name": "Kingston and the Islands"
          }
        ],
        "pollDivisionIds": [
          10139108
        ],
        "postalCode": "K7P3J1",
        "streetName": "RICHWOOD",
        "streetDirectionId": null,
        "streetTypeId": "CRT",
        "placeName": "KINGSTON",
        "streetNameDisplayText": "RICHWOOD CRT, KINGSTON"
      }
    ]
  },
  {
    "postal": "K7P1P4",
    "result": [
      {
        "electoralDistricts": [
          {
            "election": null,
            "id": 46,
            "name": "Kingston and the Islands"
          }
        ],
        "pollDivisionIds": [
          10139119
        ],
        "postalCode": "K7P1P4",
        "streetName": "BELLWOOD",
        "streetDirectionId": null,
        "streetTypeId": "PL",
        "placeName": "KINGSTON",
        "streetNameDisplayText": "BELLWOOD PL, KINGSTON"
      }
    ]
  },
  {
    "postal": "K7P2A3",
    "result": [
      {
        "electoralDistricts": [
          {
            "election": null,
            "id": 46,
            "name": "Kingston and the Islands"
          }
        ],
        "pollDivisionIds": [
          10139120
        ],
        "postalCode": "K7P2A3",
        "streetName": "RIDLEY",
        "streetDirectionId": null,
        "streetTypeId": "DR",
        "placeName": "KINGSTON",
        "streetNameDisplayText": "RIDLEY DR, KINGSTON"
      }
    ]
  },
  {
    "postal": "K7P0Z1",
    "result": []
  },
  {
    "postal": "K7P1C1",
    "result": [
      {
        "electoralDistricts": [
          {
            "election": null,
            "id": 46,
            "name": "Kingston and the Islands"
          }
        ],
        "pollDivisionIds": [
          10139120,
          10139119
        ],
        "postalCode": "K7P1C1",
        "streetName": "PURCELL",
        "streetDirectionId": null,
        "streetTypeId": "CRES",
        "placeName": "KINGSTON",
        "streetNameDisplayText": "PURCELL CRES, KINGSTON"
      }
    ]
  },
  {
    "postal": "K7P0H3",
    "result": []
  },
  {
    "postal": "K7P7B0",
    "result": []
  },
  {
    "postal": "K7P5K2",
    "result": []
  },
  {
    "postal": "K7P1E9",
    "result": []
  },
  {
    "postal": "K7P9W7",
    "result": []
  },
  {
    "postal": "K7P5W6",
    "result": []
  },
  {
    "postal": "K7P6S6",
    "result": []
  },
  {
    "postal": "K7P2P8",
    "result": [
      {
        "electoralDistricts": [
          {
            "election": null,
            "id": 46,
            "name": "Kingston and the Islands"
          }
        ],
        "pollDivisionIds": [
          10139106
        ],
        "postalCode": "K7P2P8",
        "streetName": "LARCHWOOD",
        "streetDirectionId": null,
        "streetTypeId": "CRES",
        "placeName": "KINGSTON",
        "streetNameDisplayText": "LARCHWOOD CRES, KINGSTON"
      }
    ]
  },
  {
    "postal": "K7P4P8",
    "result": []
  },
  {
    "postal": "K7P0V9",
    "result": []
  },
  {
    "postal": "K7P5Y2",
    "result": []
  },
  {
    "postal": "K7P7Z7",
    "result": []
  },
  {
    "postal": "K7P6Y8",
    "result": []
  },
  {
    "postal": "K7P2G7",
    "result": [
      {
        "electoralDistricts": [
          {
            "election": null,
            "id": 46,
            "name": "Kingston and the Islands"
          }
        ],
        "pollDivisionIds": [
          10139107
        ],
        "postalCode": "K7P2G7",
        "streetName": "BITTERSWEET",
        "streetDirectionId": null,
        "streetTypeId": "PL",
        "placeName": "KINGSTON",
        "streetNameDisplayText": "BITTERSWEET PL, KINGSTON"
      }
    ]
  },
  {
    "postal": "K7P8C1",
    "result": []
  },
  {
    "postal": "K7P5C5",
    "result": []
  },
  {
    "postal": "K7P2X8",
    "result": [
      {
        "electoralDistricts": [
          {
            "election": null,
            "id": 46,
            "name": "Kingston and the Islands"
          }
        ],
        "pollDivisionIds": [
          10139106,
          10139107
        ],
        "postalCode": "K7P2X8",
        "streetName": "MIDLAND",
        "streetDirectionId": null,
        "streetTypeId": "AVE",
        "placeName": "KINGSTON",
        "streetNameDisplayText": "MIDLAND AVE, KINGSTON"
      }
    ]
  },
  {
    "postal": "K7P1W5",
    "result": []
  },
  {
    "postal": "K7P7G0",
    "result": []
  },
  {
    "postal": "K7P8J8",
    "result": []
  },
  {
    "postal": "K7P3Y0",
    "result": []
  },
  {
    "postal": "K7P9T7",
    "result": []
  },
  {
    "postal": "K7P5P4",
    "result": []
  },
  {
    "postal": "K7P4B0",
    "result": []
  },
  {
    "postal": "K7P9N8",
    "result": []
  },
  {
    "postal": "K7P4A7",
    "result": []
  },
  {
    "postal": "K7P4H9",
    "result": []
  },
  {
    "postal": "K7P6X1",
    "result": []
  },
  {
    "postal": "K7P9Y7",
    "result": []
  },
  {
    "postal": "K7P2Y5",
    "result": [
      {
        "electoralDistricts": [
          {
            "election": null,
            "id": 46,
            "name": "Kingston and the Islands"
          }
        ],
        "pollDivisionIds": [
          10139107
        ],
        "postalCode": "K7P2Y5",
        "streetName": "CATARAQUI WOODS",
        "streetDirectionId": null,
        "streetTypeId": "DR",
        "placeName": "KINGSTON",
        "streetNameDisplayText": "CATARAQUI WOODS DR, KINGSTON"
      }
    ]
  },
  {
    "postal": "K7P8L7",
    "result": []
  },
  {
    "postal": "K7P2A8",
    "result": [
      {
        "electoralDistricts": [
          {
            "election": null,
            "id": 46,
            "name": "Kingston and the Islands"
          }
        ],
        "pollDivisionIds": [
          10139120
        ],
        "postalCode": "K7P2A8",
        "streetName": "BEACONHILL",
        "streetDirectionId": null,
        "streetTypeId": "CRT",
        "placeName": "KINGSTON",
        "streetNameDisplayText": "BEACONHILL CRT, KINGSTON"
      }
    ]
  },
  {
    "postal": "K7P2K9",
    "result": [
      {
        "electoralDistricts": [
          {
            "election": null,
            "id": 46,
            "name": "Kingston and the Islands"
          }
        ],
        "pollDivisionIds": [
          10139105
        ],
        "postalCode": "K7P2K9",
        "streetName": "MONA",
        "streetDirectionId": null,
        "streetTypeId": "DR",
        "placeName": "KINGSTON",
        "streetNameDisplayText": "MONA DR, KINGSTON"
      }
    ]
  },
  {
    "postal": "K7P3E5",
    "result": [
      {
        "electoralDistricts": [
          {
            "election": null,
            "id": 46,
            "name": "Kingston and the Islands"
          }
        ],
        "pollDivisionIds": [
          10139105
        ],
        "postalCode": "K7P3E5",
        "streetName": "WISE",
        "streetDirectionId": null,
        "streetTypeId": "ST",
        "placeName": "KINGSTON",
        "streetNameDisplayText": "WISE ST, KINGSTON"
      }
    ]
  },
  {
    "postal": "K7P8N6",
    "result": []
  },
  {
    "postal": "K7P8J4",
    "result": []
  },
  {
    "postal": "K7P4R7",
    "result": []
  },
  {
    "postal": "K7P9K1",
    "result": []
  },
  {
    "postal": "K7P8E1",
    "result": []
  },
  {
    "postal": "K7P0R1",
    "result": []
  },
  {
    "postal": "K7P4J3",
    "result": []
  },
  {
    "postal": "K7P7E7",
    "result": []
  },
  {
    "postal": "K7P0J0",
    "result": []
  },
  {
    "postal": "K7P7R8",
    "result": []
  },
  {
    "postal": "K7P9X0",
    "result": []
  },
  {
    "postal": "K7P7P6",
    "result": []
  },
  {
    "postal": "K7P0R7",
    "result": [
      {
        "electoralDistricts": [
          {
            "election": null,
            "id": 46,
            "name": "Kingston and the Islands"
          }
        ],
        "pollDivisionIds": [
          10139120,
          10139106
        ],
        "postalCode": "K7P0R7",
        "streetName": "WOODHAVEN",
        "streetDirectionId": null,
        "streetTypeId": "DR",
        "placeName": "KINGSTON",
        "streetNameDisplayText": "WOODHAVEN DR, KINGSTON"
      }
    ]
  },
  {
    "postal": "K7P5W1",
    "result": []
  },
  {
    "postal": "K7P0K4",
    "result": [
      {
        "electoralDistricts": [
          {
            "election": null,
            "id": 46,
            "name": "Kingston and the Islands"
          }
        ],
        "pollDivisionIds": [
          10139107
        ],
        "postalCode": "K7P0K4",
        "streetName": "CENTENNIAL",
        "streetDirectionId": null,
        "streetTypeId": "DR",
        "placeName": "KINGSTON",
        "streetNameDisplayText": "CENTENNIAL DR, KINGSTON"
      },
      {
        "electoralDistricts": [
          {
            "election": null,
            "id": 46,
            "name": "Kingston and the Islands"
          }
        ],
        "pollDivisionIds": [
          10139107
        ],
        "postalCode": "K7P0K4",
        "streetName": "ROBINSON",
        "streetDirectionId": null,
        "streetTypeId": "CRT",
        "placeName": "KINGSTON",
        "streetNameDisplayText": "ROBINSON CRT, KINGSTON"
      }
    ]
  },
  {
    "postal": "K7P7N9",
    "result": []
  },
  {
    "postal": "K7P1N0",
    "result": []
  },
  {
    "postal": "K7P6P3",
    "result": []
  },
  {
    "postal": "K7P5A1",
    "result": []
  },
  {
    "postal": "K7P9M9",
    "result": []
  },
  {
    "postal": "K7P7T6",
    "result": []
  },
  {
    "postal": "K7P3X0",
    "result": []
  },
  {
    "postal": "K7P2T0",
    "result": []
  },
  {
    "postal": "K7P5X9",
    "result": []
  },
  {
    "postal": "K7P2R3",
    "result": [
      {
        "electoralDistricts": [
          {
            "election": null,
            "id": 46,
            "name": "Kingston and the Islands"
          }
        ],
        "pollDivisionIds": [
          10139105
        ],
        "postalCode": "K7P2R3",
        "streetName": "MARSH",
        "streetDirectionId": null,
        "streetTypeId": "CRES",
        "placeName": "KINGSTON",
        "streetNameDisplayText": "MARSH CRES, KINGSTON"
      },
      {
        "electoralDistricts": [
          {
            "election": null,
            "id": 46,
            "name": "Kingston and the Islands"
          }
        ],
        "pollDivisionIds": [
          10139105
        ],
        "postalCode": "K7P2R3",
        "streetName": "WOODSIDE",
        "streetDirectionId": null,
        "streetTypeId": "DR",
        "placeName": "KINGSTON",
        "streetNameDisplayText": "WOODSIDE DR, KINGSTON"
      }
    ]
  },
  {
    "postal": "K7P5N2",
    "result": []
  },
  {
    "postal": "K7P4Y7",
    "result": []
  },
  {
    "postal": "K7P7M0",
    "result": []
  },
  {
    "postal": "K7P8P3",
    "result": []
  },
  {
    "postal": "K7P3N3",
    "result": []
  },
  {
    "postal": "K7P7S3",
    "result": []
  },
  {
    "postal": "K7P3V9",
    "result": []
  },
  {
    "postal": "K7P9N7",
    "result": []
  },
  {
    "postal": "K7P0G4",
    "result": []
  },
  {
    "postal": "K7P2E2",
    "result": [
      {
        "electoralDistricts": [
          {
            "election": null,
            "id": 46,
            "name": "Kingston and the Islands"
          }
        ],
        "pollDivisionIds": [
          10139120
        ],
        "postalCode": "K7P2E2",
        "streetName": "CHATSWORTH",
        "streetDirectionId": null,
        "streetTypeId": "PL",
        "placeName": "KINGSTON",
        "streetNameDisplayText": "CHATSWORTH PL, KINGSTON"
      }
    ]
  },
  {
    "postal": "K7P7W8",
    "result": []
  },
  {
    "postal": "K7P7M5",
    "result": []
  },
  {
    "postal": "K7P5W8",
    "result": []
  },
  {
    "postal": "K7P5E5",
    "result": []
  },
  {
    "postal": "K7P1P9",
    "result": [
      {
        "electoralDistricts": [
          {
            "election": null,
            "id": 46,
            "name": "Kingston and the Islands"
          }
        ],
        "pollDivisionIds": [
          10139105
        ],
        "postalCode": "K7P1P9",
        "streetName": "LANCASTER",
        "streetDirectionId": null,
        "streetTypeId": "DR",
        "placeName": "KINGSTON",
        "streetNameDisplayText": "LANCASTER DR, KINGSTON"
      }
    ]
  },
  {
    "postal": "K7P8V8",
    "result": []
  },
  {
    "postal": "K7P9G8",
    "result": []
  },
  {
    "postal": "K7P8H9",
    "result": []
  },
  {
    "postal": "K7P1Z1",
    "result": [
      {
        "electoralDistricts": [
          {
            "election": null,
            "id": 46,
            "name": "Kingston and the Islands"
          }
        ],
        "pollDivisionIds": [
          10139106
        ],
        "postalCode": "K7P1Z1",
        "streetName": "REDWOOD",
        "streetDirectionId": null,
        "streetTypeId": "CRES",
        "placeName": "KINGSTON",
        "streetNameDisplayText": "REDWOOD CRES, KINGSTON"
      }
    ]
  },
  {
    "postal": "K7P8M3",
    "result": []
  },
  {
    "postal": "K7P5H6",
    "result": []
  },
  {
    "postal": "K7P7W7",
    "result": []
  },
  {
    "postal": "K7P4L0",
    "result": []
  },
  {
    "postal": "K7P2N1",
    "result": [
      {
        "electoralDistricts": [
          {
            "election": null,
            "id": 46,
            "name": "Kingston and the Islands"
          }
        ],
        "pollDivisionIds": [
          10139105
        ],
        "postalCode": "K7P2N1",
        "streetName": "HUMBERSIDE",
        "streetDirectionId": null,
        "streetTypeId": "DR",
        "placeName": "KINGSTON",
        "streetNameDisplayText": "HUMBERSIDE DR, KINGSTON"
      },
      {
        "electoralDistricts": [
          {
            "election": null,
            "id": 46,
            "name": "Kingston and the Islands"
          }
        ],
        "pollDivisionIds": [
          10139105
        ],
        "postalCode": "K7P2N1",
        "streetName": "RYAN",
        "streetDirectionId": null,
        "streetTypeId": "CRT",
        "placeName": "KINGSTON",
        "streetNameDisplayText": "RYAN CRT, KINGSTON"
      }
    ]
  },
  {
    "postal": "K7P2H4",
    "result": [
      {
        "electoralDistricts": [
          {
            "election": null,
            "id": 46,
            "name": "Kingston and the Islands"
          }
        ],
        "pollDivisionIds": [
          10139168
        ],
        "postalCode": "K7P2H4",
        "streetName": "RIDLEY",
        "streetDirectionId": null,
        "streetTypeId": "DR",
        "placeName": "KINGSTON",
        "streetNameDisplayText": "RIDLEY DR, KINGSTON"
      }
    ]
  },
  {
    "postal": "K7P5C8",
    "result": []
  },
  {
    "postal": "K7P8B0",
    "result": []
  },
  {
    "postal": "K7P1T4",
    "result": [
      {
        "electoralDistricts": [
          {
            "election": null,
            "id": 46,
            "name": "Kingston and the Islands"
          }
        ],
        "pollDivisionIds": [
          10139120
        ],
        "postalCode": "K7P1T4",
        "streetName": "APPLE DOWN",
        "streetDirectionId": null,
        "streetTypeId": "DR",
        "placeName": "KINGSTON",
        "streetNameDisplayText": "APPLE DOWN DR, KINGSTON"
      }
    ]
  },
  {
    "postal": "K7P7N7",
    "result": []
  },
  {
    "postal": "K7P4L3",
    "result": []
  },
  {
    "postal": "K7P2N2",
    "result": [
      {
        "electoralDistricts": [
          {
            "election": null,
            "id": 46,
            "name": "Kingston and the Islands"
          }
        ],
        "pollDivisionIds": [
          10139120
        ],
        "postalCode": "K7P2N2",
        "streetName": "NORWEST",
        "streetDirectionId": null,
        "streetTypeId": "RD",
        "placeName": "KINGSTON",
        "streetNameDisplayText": "NORWEST RD, KINGSTON"
      }
    ]
  },
  {
    "postal": "K7P4N8",
    "result": []
  },
  {
    "postal": "K7P3M5",
    "result": []
  },
  {
    "postal": "K7P6H7",
    "result": []
  },
  {
    "postal": "K7P8Y8",
    "result": []
  },
  {
    "postal": "K7P5R9",
    "result": []
  },
  {
    "postal": "K7P8G3",
    "result": []
  },
  {
    "postal": "K7P4N7",
    "result": []
  },
  {
    "postal": "K7P0B9",
    "result": [
      {
        "electoralDistricts": [
          {
            "election": null,
            "id": 46,
            "name": "Kingston and the Islands"
          }
        ],
        "pollDivisionIds": [
          10139107
        ],
        "postalCode": "K7P0B9",
        "streetName": "ADAMS",
        "streetDirectionId": null,
        "streetTypeId": "AVE",
        "placeName": "KINGSTON",
        "streetNameDisplayText": "ADAMS AVE, KINGSTON"
      },
      {
        "electoralDistricts": [
          {
            "election": null,
            "id": 46,
            "name": "Kingston and the Islands"
          }
        ],
        "pollDivisionIds": [
          10139107
        ],
        "postalCode": "K7P0B9",
        "streetName": "GRACE",
        "streetDirectionId": null,
        "streetTypeId": "AVE",
        "placeName": "KINGSTON",
        "streetNameDisplayText": "GRACE AVE, KINGSTON"
      },
      {
        "electoralDistricts": [
          {
            "election": null,
            "id": 46,
            "name": "Kingston and the Islands"
          }
        ],
        "pollDivisionIds": [
          10139107
        ],
        "postalCode": "K7P0B9",
        "streetName": "HANOVER",
        "streetDirectionId": null,
        "streetTypeId": "DR",
        "placeName": "KINGSTON",
        "streetNameDisplayText": "HANOVER DR, KINGSTON"
      }
    ]
  },
  {
    "postal": "K7P9K7",
    "result": []
  },
  {
    "postal": "K7P9K9",
    "result": []
  },
  {
    "postal": "K7P3Z2",
    "result": []
  },
  {
    "postal": "K7P6W7",
    "result": []
  },
  {
    "postal": "K7P0P1",
    "result": [
      {
        "electoralDistricts": [
          {
            "election": null,
            "id": 46,
            "name": "Kingston and the Islands"
          }
        ],
        "pollDivisionIds": [
          10139105
        ],
        "postalCode": "K7P0P1",
        "streetName": "WOODBINE",
        "streetDirectionId": null,
        "streetTypeId": "RD",
        "placeName": "KINGSTON",
        "streetNameDisplayText": "WOODBINE RD, KINGSTON"
      }
    ]
  },
  {
    "postal": "K7P3A0",
    "result": []
  },
  {
    "postal": "K7P8L9",
    "result": []
  },
  {
    "postal": "K7P6X0",
    "result": []
  },
  {
    "postal": "K7P3E9",
    "result": [
      {
        "electoralDistricts": [
          {
            "election": null,
            "id": 46,
            "name": "Kingston and the Islands"
          }
        ],
        "pollDivisionIds": [
          10139108
        ],
        "postalCode": "K7P3E9",
        "streetName": "CHADWICK",
        "streetDirectionId": null,
        "streetTypeId": "CRT",
        "placeName": "KINGSTON",
        "streetNameDisplayText": "CHADWICK CRT, KINGSTON"
      },
      {
        "electoralDistricts": [
          {
            "election": null,
            "id": 46,
            "name": "Kingston and the Islands"
          }
        ],
        "pollDivisionIds": [
          10139108
        ],
        "postalCode": "K7P3E9",
        "streetName": "CHADWICK",
        "streetDirectionId": null,
        "streetTypeId": "DR",
        "placeName": "KINGSTON",
        "streetNameDisplayText": "CHADWICK DR, KINGSTON"
      },
      {
        "electoralDistricts": [
          {
            "election": null,
            "id": 46,
            "name": "Kingston and the Islands"
          }
        ],
        "pollDivisionIds": [
          10139108
        ],
        "postalCode": "K7P3E9",
        "streetName": "SHERIDAN",
        "streetDirectionId": null,
        "streetTypeId": "ST",
        "placeName": "KINGSTON",
        "streetNameDisplayText": "SHERIDAN ST, KINGSTON"
      }
    ]
  },
  {
    "postal": "K7P0S5",
    "result": []
  },
  {
    "postal": "K7P1A2",
    "result": [
      {
        "electoralDistricts": [
          {
            "election": null,
            "id": 46,
            "name": "Kingston and the Islands"
          }
        ],
        "pollDivisionIds": [
          10139119
        ],
        "postalCode": "K7P1A2",
        "streetName": "GROUSE",
        "streetDirectionId": null,
        "streetTypeId": "CRES",
        "placeName": "KINGSTON",
        "streetNameDisplayText": "GROUSE CRES, KINGSTON"
      }
    ]
  },
  {
    "postal": "K7P5V8",
    "result": []
  },
  {
    "postal": "K7P8C5",
    "result": []
  },
  {
    "postal": "K7P6N0",
    "result": []
  },
  {
    "postal": "K7P9E6",
    "result": []
  },
  {
    "postal": "K7P5J7",
    "result": []
  },
  {
    "postal": "K7P2R2",
    "result": [
      {
        "electoralDistricts": [
          {
            "election": null,
            "id": 46,
            "name": "Kingston and the Islands"
          }
        ],
        "pollDivisionIds": [
          10139105
        ],
        "postalCode": "K7P2R2",
        "streetName": "MARSH",
        "streetDirectionId": null,
        "streetTypeId": "CRES",
        "placeName": "KINGSTON",
        "streetNameDisplayText": "MARSH CRES, KINGSTON"
      }
    ]
  },
  {
    "postal": "K7P0P5",
    "result": []
  },
  {
    "postal": "K7P5A7",
    "result": []
  },
  {
    "postal": "K7P1G1",
    "result": []
  },
  {
    "postal": "K7P9R6",
    "result": []
  },
  {
    "postal": "K7P4Z9",
    "result": []
  },
  {
    "postal": "K7P1V5",
    "result": [
      {
        "electoralDistricts": [
          {
            "election": null,
            "id": 46,
            "name": "Kingston and the Islands"
          }
        ],
        "pollDivisionIds": [
          10139106
        ],
        "postalCode": "K7P1V5",
        "streetName": "CEDARWOOD",
        "streetDirectionId": null,
        "streetTypeId": "DR",
        "placeName": "KINGSTON",
        "streetNameDisplayText": "CEDARWOOD DR, KINGSTON"
      }
    ]
  },
  {
    "postal": "K7P9Y5",
    "result": []
  },
  {
    "postal": "K7P1P2",
    "result": [
      {
        "electoralDistricts": [
          {
            "election": null,
            "id": 46,
            "name": "Kingston and the Islands"
          }
        ],
        "pollDivisionIds": [
          10139119
        ],
        "postalCode": "K7P1P2",
        "streetName": "PEMBRIDGE",
        "streetDirectionId": null,
        "streetTypeId": "CRES",
        "placeName": "KINGSTON",
        "streetNameDisplayText": "PEMBRIDGE CRES, KINGSTON"
      }
    ]
  },
  {
    "postal": "K7P5X0",
    "result": []
  },
  {
    "postal": "K7P7B8",
    "result": []
  },
  {
    "postal": "K7P0C6",
    "result": [
      {
        "electoralDistricts": [
          {
            "election": null,
            "id": 46,
            "name": "Kingston and the Islands"
          }
        ],
        "pollDivisionIds": [
          10139108
        ],
        "postalCode": "K7P0C6",
        "streetName": "ANDERSEN",
        "streetDirectionId": null,
        "streetTypeId": "DR",
        "placeName": "KINGSTON",
        "streetNameDisplayText": "ANDERSEN DR, KINGSTON"
      },
      {
        "electoralDistricts": [
          {
            "election": null,
            "id": 46,
            "name": "Kingston and the Islands"
          }
        ],
        "pollDivisionIds": [
          10139108
        ],
        "postalCode": "K7P0C6",
        "streetName": "ANDERSON",
        "streetDirectionId": null,
        "streetTypeId": "DR",
        "placeName": "KINGSTON",
        "streetNameDisplayText": "ANDERSON DR, KINGSTON"
      },
      {
        "electoralDistricts": [
          {
            "election": null,
            "id": 46,
            "name": "Kingston and the Islands"
          }
        ],
        "pollDivisionIds": [
          10139108
        ],
        "postalCode": "K7P0C6",
        "streetName": "CROSSFIELD",
        "streetDirectionId": null,
        "streetTypeId": "AVE",
        "placeName": "KINGSTON",
        "streetNameDisplayText": "CROSSFIELD AVE, KINGSTON"
      }
    ]
  },
  {
    "postal": "K7P6G1",
    "result": []
  },
  {
    "postal": "K7P3K3",
    "result": [
      {
        "electoralDistricts": [
          {
            "election": null,
            "id": 46,
            "name": "Kingston and the Islands"
          }
        ],
        "pollDivisionIds": [
          10139144
        ],
        "postalCode": "K7P3K3",
        "streetName": "NORWEST",
        "streetDirectionId": null,
        "streetTypeId": "RD",
        "placeName": "KINGSTON",
        "streetNameDisplayText": "NORWEST RD, KINGSTON"
      }
    ]
  },
  {
    "postal": "K7P9R0",
    "result": []
  },
  {
    "postal": "K7P4R8",
    "result": []
  },
  {
    "postal": "K7P5P9",
    "result": []
  },
  {
    "postal": "K7P8N4",
    "result": []
  },
  {
    "postal": "K7P8H4",
    "result": []
  },
  {
    "postal": "K7P4V1",
    "result": []
  },
  {
    "postal": "K7P1K5",
    "result": [
      {
        "electoralDistricts": [
          {
            "election": null,
            "id": 46,
            "name": "Kingston and the Islands"
          }
        ],
        "pollDivisionIds": [
          10139106
        ],
        "postalCode": "K7P1K5",
        "streetName": "BASSWOOD",
        "streetDirectionId": null,
        "streetTypeId": "PL",
        "placeName": "KINGSTON",
        "streetNameDisplayText": "BASSWOOD PL, KINGSTON"
      }
    ]
  },
  {
    "postal": "K7P1Z5",
    "result": [
      {
        "electoralDistricts": [
          {
            "election": null,
            "id": 46,
            "name": "Kingston and the Islands"
          }
        ],
        "pollDivisionIds": [
          10139120
        ],
        "postalCode": "K7P1Z5",
        "streetName": "CLEARFIELD",
        "streetDirectionId": null,
        "streetTypeId": "CRES",
        "placeName": "KINGSTON",
        "streetNameDisplayText": "CLEARFIELD CRES, KINGSTON"
      }
    ]
  },
  {
    "postal": "K7P9L9",
    "result": []
  },
  {
    "postal": "K7P5L2",
    "result": []
  },
  {
    "postal": "K7P0M2",
    "result": [
      {
        "electoralDistricts": [
          {
            "election": null,
            "id": 46,
            "name": "Kingston and the Islands"
          }
        ],
        "pollDivisionIds": [
          10139106
        ],
        "postalCode": "K7P0M2",
        "streetName": "GWEN",
        "streetDirectionId": null,
        "streetTypeId": "AVE",
        "placeName": "KINGSTON",
        "streetNameDisplayText": "GWEN AVE, KINGSTON"
      },
      {
        "electoralDistricts": [
          {
            "election": null,
            "id": 46,
            "name": "Kingston and the Islands"
          }
        ],
        "pollDivisionIds": [
          10139106
        ],
        "postalCode": "K7P0M2",
        "streetName": "HOLDEN",
        "streetDirectionId": null,
        "streetTypeId": "ST",
        "placeName": "KINGSTON",
        "streetNameDisplayText": "HOLDEN ST, KINGSTON"
      }
    ]
  },
  {
    "postal": "K7P1K8",
    "result": [
      {
        "electoralDistricts": [
          {
            "election": null,
            "id": 46,
            "name": "Kingston and the Islands"
          }
        ],
        "pollDivisionIds": [
          10139106
        ],
        "postalCode": "K7P1K8",
        "streetName": "CEDARWOOD",
        "streetDirectionId": null,
        "streetTypeId": "DR",
        "placeName": "KINGSTON",
        "streetNameDisplayText": "CEDARWOOD DR, KINGSTON"
      }
    ]
  },
  {
    "postal": "K7P3M7",
    "result": []
  },
  {
    "postal": "K7P1B2",
    "result": [
      {
        "electoralDistricts": [
          {
            "election": null,
            "id": 46,
            "name": "Kingston and the Islands"
          }
        ],
        "pollDivisionIds": [
          10139119
        ],
        "postalCode": "K7P1B2",
        "streetName": "MILFORD",
        "streetDirectionId": null,
        "streetTypeId": "DR",
        "placeName": "KINGSTON",
        "streetNameDisplayText": "MILFORD DR, KINGSTON"
      }
    ]
  },
  {
    "postal": "K7P0H9",
    "result": [
      {
        "electoralDistricts": [
          {
            "election": null,
            "id": 46,
            "name": "Kingston and the Islands"
          }
        ],
        "pollDivisionIds": [
          10139107
        ],
        "postalCode": "K7P0H9",
        "streetName": "DELMAR",
        "streetDirectionId": null,
        "streetTypeId": "ST",
        "placeName": "KINGSTON",
        "streetNameDisplayText": "DELMAR ST, KINGSTON"
      },
      {
        "electoralDistricts": [
          {
            "election": null,
            "id": 46,
            "name": "Kingston and the Islands"
          }
        ],
        "pollDivisionIds": [
          10139107
        ],
        "postalCode": "K7P0H9",
        "streetName": "PROVIDENCE",
        "streetDirectionId": null,
        "streetTypeId": "CRES",
        "placeName": "KINGSTON",
        "streetNameDisplayText": "PROVIDENCE CRES, KINGSTON"
      }
    ]
  },
  {
    "postal": "K7P8M4",
    "result": []
  },
  {
    "postal": "K7P2M5",
    "result": [
      {
        "electoralDistricts": [
          {
            "election": null,
            "id": 46,
            "name": "Kingston and the Islands"
          }
        ],
        "pollDivisionIds": [
          10139105
        ],
        "postalCode": "K7P2M5",
        "streetName": "MCCARTHY",
        "streetDirectionId": null,
        "streetTypeId": "CRT",
        "placeName": "KINGSTON",
        "streetNameDisplayText": "MCCARTHY CRT, KINGSTON"
      },
      {
        "electoralDistricts": [
          {
            "election": null,
            "id": 46,
            "name": "Kingston and the Islands"
          }
        ],
        "pollDivisionIds": [
          10139105
        ],
        "postalCode": "K7P2M5",
        "streetName": "ROCKWOOD",
        "streetDirectionId": null,
        "streetTypeId": "DR",
        "placeName": "KINGSTON",
        "streetNameDisplayText": "ROCKWOOD DR, KINGSTON"
      }
    ]
  },
  {
    "postal": "K7P0T9",
    "result": []
  },
  {
    "postal": "K7P3P1",
    "result": []
  },
  {
    "postal": "K7P1R6",
    "result": [
      {
        "electoralDistricts": [
          {
            "election": null,
            "id": 40,
            "name": "HastingsLennox and Addington"
          },
          {
            "election": null,
            "id": 46,
            "name": "Kingston and the Islands"
          }
        ],
        "pollDivisionIds": [
          10138773,
          10139119
        ],
        "postalCode": "K7P1R6",
        "streetName": "LANCASTER",
        "streetDirectionId": null,
        "streetTypeId": "DR",
        "placeName": "KINGSTON",
        "streetNameDisplayText": "LANCASTER DR, KINGSTON"
      }
    ]
  },
  {
    "postal": "K7P9V5",
    "result": []
  },
  {
    "postal": "K7P9T0",
    "result": []
  },
  {
    "postal": "K7P0A9",
    "result": [
      {
        "electoralDistricts": [
          {
            "election": null,
            "id": 46,
            "name": "Kingston and the Islands"
          }
        ],
        "pollDivisionIds": [
          10139105
        ],
        "postalCode": "K7P0A9",
        "streetName": "AMARYLLIS",
        "streetDirectionId": null,
        "streetTypeId": "ST",
        "placeName": "KINGSTON",
        "streetNameDisplayText": "AMARYLLIS ST, KINGSTON"
      },
      {
        "electoralDistricts": [
          {
            "election": null,
            "id": 46,
            "name": "Kingston and the Islands"
          }
        ],
        "pollDivisionIds": [
          10139105
        ],
        "postalCode": "K7P0A9",
        "streetName": "KANANASKIS",
        "streetDirectionId": null,
        "streetTypeId": "DR",
        "placeName": "KINGSTON",
        "streetNameDisplayText": "KANANASKIS DR, KINGSTON"
      },
      {
        "electoralDistricts": [
          {
            "election": null,
            "id": 46,
            "name": "Kingston and the Islands"
          }
        ],
        "pollDivisionIds": [
          10139105
        ],
        "postalCode": "K7P0A9",
        "streetName": "ROSHAN",
        "streetDirectionId": null,
        "streetTypeId": "DR",
        "placeName": "KINGSTON",
        "streetNameDisplayText": "ROSHAN DR, KINGSTON"
      }
    ]
  },
  {
    "postal": "K7P1M3",
    "result": [
      {
        "electoralDistricts": [
          {
            "election": null,
            "id": 46,
            "name": "Kingston and the Islands"
          }
        ],
        "pollDivisionIds": [
          10139119
        ],
        "postalCode": "K7P1M3",
        "streetName": "OLD COLONY",
        "streetDirectionId": null,
        "streetTypeId": "RD",
        "placeName": "KINGSTON",
        "streetNameDisplayText": "OLD COLONY RD, KINGSTON"
      }
    ]
  },
  {
    "postal": "K7P1W8",
    "result": []
  },
  {
    "postal": "K7P9J1",
    "result": []
  },
  {
    "postal": "K7P8N5",
    "result": []
  },
  {
    "postal": "K7P5X1",
    "result": []
  },
  {
    "postal": "K7P6S2",
    "result": []
  },
  {
    "postal": "K7P2A2",
    "result": [
      {
        "electoralDistricts": [
          {
            "election": null,
            "id": 46,
            "name": "Kingston and the Islands"
          }
        ],
        "pollDivisionIds": [
          10139105
        ],
        "postalCode": "K7P2A2",
        "streetName": "JASPER",
        "streetDirectionId": null,
        "streetTypeId": "CRT",
        "placeName": "KINGSTON ON",
        "streetNameDisplayText": "JASPER CRT, KINGSTON ON"
      },
      {
        "electoralDistricts": [
          {
            "election": null,
            "id": 46,
            "name": "Kingston and the Islands"
          }
        ],
        "pollDivisionIds": [
          10139120
        ],
        "postalCode": "K7P2A2",
        "streetName": "RIDLEY",
        "streetDirectionId": null,
        "streetTypeId": "DR",
        "placeName": "KINGSTON",
        "streetNameDisplayText": "RIDLEY DR, KINGSTON"
      }
    ]
  },
  {
    "postal": "K7P6A6",
    "result": []
  },
  {
    "postal": "K7P0S3",
    "result": []
  },
  {
    "postal": "K7P3E7",
    "result": [
      {
        "electoralDistricts": [
          {
            "election": null,
            "id": 46,
            "name": "Kingston and the Islands"
          }
        ],
        "pollDivisionIds": [
          10139108
        ],
        "postalCode": "K7P3E7",
        "streetName": "ELLESMEER",
        "streetDirectionId": null,
        "streetTypeId": "AVE",
        "placeName": "KINGSTON",
        "streetNameDisplayText": "ELLESMEER AVE, KINGSTON"
      },
      {
        "electoralDistricts": [
          {
            "election": null,
            "id": 46,
            "name": "Kingston and the Islands"
          }
        ],
        "pollDivisionIds": [
          10139108
        ],
        "postalCode": "K7P3E7",
        "streetName": "SHERIDAN",
        "streetDirectionId": null,
        "streetTypeId": "ST",
        "placeName": "KINGSTON",
        "streetNameDisplayText": "SHERIDAN ST, KINGSTON"
      }
    ]
  },
  {
    "postal": "K7P5R7",
    "result": []
  },
  {
    "postal": "K7P3R6",
    "result": []
  },
  {
    "postal": "K7P6K4",
    "result": []
  },
  {
    "postal": "K7P2W5",
    "result": [
      {
        "electoralDistricts": [
          {
            "election": null,
            "id": 46,
            "name": "Kingston and the Islands"
          }
        ],
        "pollDivisionIds": [
          10139107
        ],
        "postalCode": "K7P2W5",
        "streetName": "MIDLAND",
        "streetDirectionId": null,
        "streetTypeId": "AVE",
        "placeName": "KINGSTON",
        "streetNameDisplayText": "MIDLAND AVE, KINGSTON"
      }
    ]
  },
  {
    "postal": "K7P8W4",
    "result": []
  },
  {
    "postal": "K7P9C2",
    "result": []
  },
  {
    "postal": "K7P2C0",
    "result": []
  },
  {
    "postal": "K7P0E1",
    "result": [
      {
        "electoralDistricts": [
          {
            "election": null,
            "id": 46,
            "name": "Kingston and the Islands"
          }
        ],
        "pollDivisionIds": [
          10139105,
          10139108
        ],
        "postalCode": "K7P0E1",
        "streetName": "ATKINSON",
        "streetDirectionId": null,
        "streetTypeId": "ST",
        "placeName": "KINGSTON",
        "streetNameDisplayText": "ATKINSON ST, KINGSTON"
      }
    ]
  },
  {
    "postal": "K7P1K9",
    "result": [
      {
        "electoralDistricts": [
          {
            "election": null,
            "id": 46,
            "name": "Kingston and the Islands"
          }
        ],
        "pollDivisionIds": [
          10139106
        ],
        "postalCode": "K7P1K9",
        "streetName": "PINEWOOD",
        "streetDirectionId": null,
        "streetTypeId": "PL",
        "placeName": "KINGSTON",
        "streetNameDisplayText": "PINEWOOD PL, KINGSTON"
      }
    ]
  },
  {
    "postal": "K7P1G7",
    "result": []
  },
  {
    "postal": "K7P4E9",
    "result": []
  },
  {
    "postal": "K7P9P0",
    "result": []
  },
  {
    "postal": "K7P5H3",
    "result": []
  },
  {
    "postal": "K7P9X6",
    "result": []
  },
  {
    "postal": "K7P5N7",
    "result": []
  },
  {
    "postal": "K7P5A6",
    "result": []
  },
  {
    "postal": "K7P4M0",
    "result": []
  },
  {
    "postal": "K7P3V6",
    "result": []
  },
  {
    "postal": "K7P1L7",
    "result": [
      {
        "electoralDistricts": [
          {
            "election": null,
            "id": 46,
            "name": "Kingston and the Islands"
          }
        ],
        "pollDivisionIds": [
          10139119
        ],
        "postalCode": "K7P1L7",
        "streetName": "KENSHAW",
        "streetDirectionId": null,
        "streetTypeId": "ST",
        "placeName": "KINGSTON",
        "streetNameDisplayText": "KENSHAW ST, KINGSTON"
      }
    ]
  },
  {
    "postal": "K7P2P9",
    "result": [
      {
        "electoralDistricts": [
          {
            "election": null,
            "id": 46,
            "name": "Kingston and the Islands"
          }
        ],
        "pollDivisionIds": [
          10139106
        ],
        "postalCode": "K7P2P9",
        "streetName": "CATARAQUI WOODS",
        "streetDirectionId": null,
        "streetTypeId": "DR",
        "placeName": "KINGSTON",
        "streetNameDisplayText": "CATARAQUI WOODS DR, KINGSTON"
      },
      {
        "electoralDistricts": [
          {
            "election": null,
            "id": 46,
            "name": "Kingston and the Islands"
          }
        ],
        "pollDivisionIds": [
          10139106
        ],
        "postalCode": "K7P2P9",
        "streetName": "LARCHWOOD",
        "streetDirectionId": null,
        "streetTypeId": "CRES",
        "placeName": "KINGSTON",
        "streetNameDisplayText": "LARCHWOOD CRES, KINGSTON"
      }
    ]
  },
  {
    "postal": "K7P5T4",
    "result": []
  },
  {
    "postal": "K7P5Z1",
    "result": []
  },
  {
    "postal": "K7P2X0",
    "result": []
  },
  {
    "postal": "K7P6Z2",
    "result": []
  },
  {
    "postal": "K7P0E0",
    "result": []
  },
  {
    "postal": "K7P3Z5",
    "result": []
  },
  {
    "postal": "K7P8H3",
    "result": []
  },
  {
    "postal": "K7P7S6",
    "result": []
  },
  {
    "postal": "K7P4C1",
    "result": []
  },
  {
    "postal": "K7P3K2",
    "result": [
      {
        "electoralDistricts": [
          {
            "election": null,
            "id": 46,
            "name": "Kingston and the Islands"
          }
        ],
        "pollDivisionIds": [
          10139108
        ],
        "postalCode": "K7P3K2",
        "streetName": "ANDERSON",
        "streetDirectionId": null,
        "streetTypeId": "DR",
        "placeName": "KINGSTON",
        "streetNameDisplayText": "ANDERSON DR, KINGSTON"
      }
    ]
  },
  {
    "postal": "K7P1Y5",
    "result": []
  },
  {
    "postal": "K7P6P6",
    "result": []
  },
  {
    "postal": "K7P3N9",
    "result": []
  },
  {
    "postal": "K7P3W2",
    "result": []
  },
  {
    "postal": "K7P6H8",
    "result": []
  },
  {
    "postal": "K7P9T3",
    "result": []
  },
  {
    "postal": "K7P5L9",
    "result": []
  },
  {
    "postal": "K7P7X7",
    "result": []
  },
  {
    "postal": "K7P3J5",
    "result": [
      {
        "electoralDistricts": [
          {
            "election": null,
            "id": 46,
            "name": "Kingston and the Islands"
          }
        ],
        "pollDivisionIds": [
          10139107
        ],
        "postalCode": "K7P3J5",
        "streetName": "COOKE",
        "streetDirectionId": null,
        "streetTypeId": "CRES",
        "placeName": "KINGSTON",
        "streetNameDisplayText": "COOKE CRES, KINGSTON"
      },
      {
        "electoralDistricts": [
          {
            "election": null,
            "id": 46,
            "name": "Kingston and the Islands"
          }
        ],
        "pollDivisionIds": [
          10139107
        ],
        "postalCode": "K7P3J5",
        "streetName": "LANGFIELD",
        "streetDirectionId": null,
        "streetTypeId": "ST",
        "placeName": "KINGSTON",
        "streetNameDisplayText": "LANGFIELD ST, KINGSTON"
      }
    ]
  },
  {
    "postal": "K7P4J5",
    "result": []
  },
  {
    "postal": "K7P6J2",
    "result": []
  },
  {
    "postal": "K7P5V6",
    "result": []
  },
  {
    "postal": "K7P3N2",
    "result": []
  },
  {
    "postal": "K7P3B1",
    "result": []
  },
  {
    "postal": "K7P8B5",
    "result": []
  },
  {
    "postal": "K7P0K1",
    "result": []
  },
  {
    "postal": "K7P7M7",
    "result": []
  },
  {
    "postal": "K7P2M2",
    "result": [
      {
        "electoralDistricts": [
          {
            "election": null,
            "id": 46,
            "name": "Kingston and the Islands"
          }
        ],
        "pollDivisionIds": [
          10139105
        ],
        "postalCode": "K7P2M2",
        "streetName": "RICK HANSEN",
        "streetDirectionId": null,
        "streetTypeId": "CRES",
        "placeName": "KINGSTON",
        "streetNameDisplayText": "RICK HANSEN CRES, KINGSTON"
      }
    ]
  },
  {
    "postal": "K7P9N3",
    "result": []
  },
  {
    "postal": "K7P4Y8",
    "result": []
  },
  {
    "postal": "K7P3V7",
    "result": []
  },
  {
    "postal": "K7P8Z1",
    "result": []
  },
  {
    "postal": "K7P7B3",
    "result": []
  },
  {
    "postal": "K7P3A8",
    "result": [
      {
        "electoralDistricts": [
          {
            "election": null,
            "id": 46,
            "name": "Kingston and the Islands"
          }
        ],
        "pollDivisionIds": [
          10139106,
          10139105
        ],
        "postalCode": "K7P3A8",
        "streetName": "PRINCESS",
        "streetDirectionId": null,
        "streetTypeId": "ST",
        "placeName": "WESTBROOK",
        "streetNameDisplayText": "PRINCESS ST, WESTBROOK"
      }
    ]
  },
  {
    "postal": "K7P7V5",
    "result": []
  },
  {
    "postal": "K7P2T2",
    "result": [
      {
        "electoralDistricts": [
          {
            "election": null,
            "id": 46,
            "name": "Kingston and the Islands"
          }
        ],
        "pollDivisionIds": [
          10139105
        ],
        "postalCode": "K7P2T2",
        "streetName": "WOODSIDE",
        "streetDirectionId": null,
        "streetTypeId": "DR",
        "placeName": "KINGSTON",
        "streetNameDisplayText": "WOODSIDE DR, KINGSTON"
      }
    ]
  },
  {
    "postal": "K7P6L3",
    "result": []
  },
  {
    "postal": "K7P0L2",
    "result": [
      {
        "electoralDistricts": [
          {
            "election": null,
            "id": 46,
            "name": "Kingston and the Islands"
          }
        ],
        "pollDivisionIds": [
          10139106
        ],
        "postalCode": "K7P0L2",
        "streetName": "GWEN",
        "streetDirectionId": null,
        "streetTypeId": "AVE",
        "placeName": "KINGSTON",
        "streetNameDisplayText": "GWEN AVE, KINGSTON"
      }
    ]
  },
  {
    "postal": "K7P5Y8",
    "result": []
  },
  {
    "postal": "K7P0B8",
    "result": [
      {
        "electoralDistricts": [
          {
            "election": null,
            "id": 46,
            "name": "Kingston and the Islands"
          }
        ],
        "pollDivisionIds": [
          10139107
        ],
        "postalCode": "K7P0B8",
        "streetName": "ADAMS",
        "streetDirectionId": null,
        "streetTypeId": "AVE",
        "placeName": "KINGSTON",
        "streetNameDisplayText": "ADAMS AVE, KINGSTON"
      },
      {
        "electoralDistricts": [
          {
            "election": null,
            "id": 46,
            "name": "Kingston and the Islands"
          }
        ],
        "pollDivisionIds": [
          10139107
        ],
        "postalCode": "K7P0B8",
        "streetName": "ALBANY",
        "streetDirectionId": null,
        "streetTypeId": "DR",
        "placeName": "KINGSTON",
        "streetNameDisplayText": "ALBANY DR, KINGSTON"
      },
      {
        "electoralDistricts": [
          {
            "election": null,
            "id": 46,
            "name": "Kingston and the Islands"
          }
        ],
        "pollDivisionIds": [
          10139107
        ],
        "postalCode": "K7P0B8",
        "streetName": "GRACE",
        "streetDirectionId": null,
        "streetTypeId": "AVE",
        "placeName": "KINGSTON",
        "streetNameDisplayText": "GRACE AVE, KINGSTON"
      }
    ]
  },
  {
    "postal": "K7P6R5",
    "result": []
  },
  {
    "postal": "K7P8W6",
    "result": []
  },
  {
    "postal": "K7P8G6",
    "result": []
  },
  {
    "postal": "K7P6X3",
    "result": []
  },
  {
    "postal": "K7P7R7",
    "result": []
  },
  {
    "postal": "K7P4B6",
    "result": []
  },
  {
    "postal": "K7P3P9",
    "result": []
  },
  {
    "postal": "K7P2T3",
    "result": [
      {
        "electoralDistricts": [
          {
            "election": null,
            "id": 46,
            "name": "Kingston and the Islands"
          }
        ],
        "pollDivisionIds": [
          10139107
        ],
        "postalCode": "K7P2T3",
        "streetName": "FORTUNE",
        "streetDirectionId": null,
        "streetTypeId": "CRES",
        "placeName": "KINGSTON",
        "streetNameDisplayText": "FORTUNE CRES, KINGSTON"
      }
    ]
  },
  {
    "postal": "K7P1M4",
    "result": []
  },
  {
    "postal": "K7P0H1",
    "result": [
      {
        "electoralDistricts": [
          {
            "election": null,
            "id": 46,
            "name": "Kingston and the Islands"
          }
        ],
        "pollDivisionIds": [
          10139120
        ],
        "postalCode": "K7P0H1",
        "streetName": "PRINCESS",
        "streetDirectionId": null,
        "streetTypeId": "ST",
        "placeName": "KINGSTON",
        "streetNameDisplayText": "PRINCESS ST, KINGSTON"
      }
    ]
  },
  {
    "postal": "K7P9W3",
    "result": []
  },
  {
    "postal": "K7P6P1",
    "result": []
  },
  {
    "postal": "K7P7G2",
    "result": []
  },
  {
    "postal": "K7P4J9",
    "result": []
  },
  {
    "postal": "K7P9E4",
    "result": []
  },
  {
    "postal": "K7P8H0",
    "result": []
  },
  {
    "postal": "K7P4M7",
    "result": []
  },
  {
    "postal": "K7P2G9",
    "result": [
      {
        "electoralDistricts": [
          {
            "election": null,
            "id": 46,
            "name": "Kingston and the Islands"
          }
        ],
        "pollDivisionIds": [
          10139107,
          10139121
        ],
        "postalCode": "K7P2G9",
        "streetName": "BITTERSWEET",
        "streetDirectionId": null,
        "streetTypeId": "PL",
        "placeName": "KINGSTON",
        "streetNameDisplayText": "BITTERSWEET PL, KINGSTON"
      }
    ]
  },
  {
    "postal": "K7P8T2",
    "result": []
  },
  {
    "postal": "K7P7G7",
    "result": []
  },
  {
    "postal": "K7P4Z3",
    "result": []
  },
  {
    "postal": "K7P5B3",
    "result": []
  },
  {
    "postal": "K7P1S7",
    "result": [
      {
        "electoralDistricts": [
          {
            "election": null,
            "id": 46,
            "name": "Kingston and the Islands"
          }
        ],
        "pollDivisionIds": [
          10139105
        ],
        "postalCode": "K7P1S7",
        "streetName": "CRESTWOOD",
        "streetDirectionId": null,
        "streetTypeId": "AVE",
        "placeName": "KINGSTON",
        "streetNameDisplayText": "CRESTWOOD AVE, KINGSTON"
      }
    ]
  },
  {
    "postal": "K7P2N7",
    "result": [
      {
        "electoralDistricts": [
          {
            "election": null,
            "id": 46,
            "name": "Kingston and the Islands"
          }
        ],
        "pollDivisionIds": [
          10139120
        ],
        "postalCode": "K7P2N7",
        "streetName": "BLACKBURN",
        "streetDirectionId": null,
        "streetTypeId": "MEWS",
        "placeName": "KINGSTON",
        "streetNameDisplayText": "BLACKBURN MEWS, KINGSTON"
      }
    ]
  },
  {
    "postal": "K7P0H8",
    "result": [
      {
        "electoralDistricts": [
          {
            "election": null,
            "id": 46,
            "name": "Kingston and the Islands"
          }
        ],
        "pollDivisionIds": [
          10139107
        ],
        "postalCode": "K7P0H8",
        "streetName": "PROVIDENCE",
        "streetDirectionId": null,
        "streetTypeId": "CRES",
        "placeName": "KINGSTON",
        "streetNameDisplayText": "PROVIDENCE CRES, KINGSTON"
      }
    ]
  },
  {
    "postal": "K7P7Z4",
    "result": []
  },
  {
    "postal": "K7P7B1",
    "result": []
  },
  {
    "postal": "K7P7P8",
    "result": []
  },
  {
    "postal": "K7P7N0",
    "result": []
  },
  {
    "postal": "K7P3Y5",
    "result": []
  },
  {
    "postal": "K7P6K1",
    "result": []
  },
  {
    "postal": "K7P9X5",
    "result": []
  },
  {
    "postal": "K7P7S5",
    "result": []
  },
  {
    "postal": "K7P0A4",
    "result": [
      {
        "electoralDistricts": [
          {
            "election": null,
            "id": 46,
            "name": "Kingston and the Islands"
          }
        ],
        "pollDivisionIds": [
          10139108
        ],
        "postalCode": "K7P0A4",
        "streetName": "ANDERSEN",
        "streetDirectionId": null,
        "streetTypeId": "DR",
        "placeName": "KINGSTON",
        "streetNameDisplayText": "ANDERSEN DR, KINGSTON"
      },
      {
        "electoralDistricts": [
          {
            "election": null,
            "id": 46,
            "name": "Kingston and the Islands"
          }
        ],
        "pollDivisionIds": [
          10139108
        ],
        "postalCode": "K7P0A4",
        "streetName": "DEERFIELD",
        "streetDirectionId": null,
        "streetTypeId": "DR",
        "placeName": "KINGSTON",
        "streetNameDisplayText": "DEERFIELD DR, KINGSTON"
      }
    ]
  },
  {
    "postal": "K7P4T5",
    "result": []
  },
  {
    "postal": "K7P5K1",
    "result": []
  },
  {
    "postal": "K7P0Z9",
    "result": []
  },
  {
    "postal": "K7P7T2",
    "result": []
  },
  {
    "postal": "K7P1L5",
    "result": [
      {
        "electoralDistricts": [
          {
            "election": null,
            "id": 46,
            "name": "Kingston and the Islands"
          }
        ],
        "pollDivisionIds": [
          10139106
        ],
        "postalCode": "K7P1L5",
        "streetName": "PINEWOOD",
        "streetDirectionId": null,
        "streetTypeId": "PL",
        "placeName": "KINGSTON",
        "streetNameDisplayText": "PINEWOOD PL, KINGSTON"
      }
    ]
  },
  {
    "postal": "K7P3N5",
    "result": []
  },
  {
    "postal": "K7P6H4",
    "result": []
  },
  {
    "postal": "K7P5A5",
    "result": []
  },
  {
    "postal": "K7P3R9",
    "result": []
  },
  {
    "postal": "K7P7L8",
    "result": []
  },
  {
    "postal": "K7P6T6",
    "result": []
  },
  {
    "postal": "K7P7Y7",
    "result": []
  },
  {
    "postal": "K7P3M8",
    "result": []
  },
  {
    "postal": "K7P2E0",
    "result": []
  },
  {
    "postal": "K7P4B5",
    "result": []
  },
  {
    "postal": "K7P1J3",
    "result": []
  },
  {
    "postal": "K7P5S6",
    "result": []
  },
  {
    "postal": "K7P8P7",
    "result": []
  },
  {
    "postal": "K7P7S7",
    "result": []
  },
  {
    "postal": "K7P4C2",
    "result": []
  },
  {
    "postal": "K7P5Y0",
    "result": []
  },
  {
    "postal": "K7P2V7",
    "result": [
      {
        "electoralDistricts": [
          {
            "election": null,
            "id": 46,
            "name": "Kingston and the Islands"
          }
        ],
        "pollDivisionIds": [
          10139105
        ],
        "postalCode": "K7P2V7",
        "streetName": "WESTBROOK",
        "streetDirectionId": null,
        "streetTypeId": "RD",
        "placeName": "KINGSTON",
        "streetNameDisplayText": "WESTBROOK RD, KINGSTON"
      }
    ]
  },
  {
    "postal": "K7P8P5",
    "result": []
  },
  {
    "postal": "K7P5P5",
    "result": []
  },
  {
    "postal": "K7P5Z0",
    "result": []
  },
  {
    "postal": "K7P9B0",
    "result": []
  },
  {
    "postal": "K7P1L0",
    "result": []
  },
  {
    "postal": "K7P0B5",
    "result": [
      {
        "electoralDistricts": [
          {
            "election": null,
            "id": 46,
            "name": "Kingston and the Islands"
          }
        ],
        "pollDivisionIds": [
          10139107
        ],
        "postalCode": "K7P0B5",
        "streetName": "HANOVER",
        "streetDirectionId": null,
        "streetTypeId": "DR",
        "placeName": "KINGSTON",
        "streetNameDisplayText": "HANOVER DR, KINGSTON"
      },
      {
        "electoralDistricts": [
          {
            "election": null,
            "id": 46,
            "name": "Kingston and the Islands"
          }
        ],
        "pollDivisionIds": [
          10139107
        ],
        "postalCode": "K7P0B5",
        "streetName": "SIERRA",
        "streetDirectionId": null,
        "streetTypeId": "AVE",
        "placeName": "KINGSTON",
        "streetNameDisplayText": "SIERRA AVE, KINGSTON"
      }
    ]
  },
  {
    "postal": "K7P3L2",
    "result": []
  },
  {
    "postal": "K7P3B7",
    "result": [
      {
        "electoralDistricts": [
          {
            "election": null,
            "id": 46,
            "name": "Kingston and the Islands"
          }
        ],
        "pollDivisionIds": [
          10139107
        ],
        "postalCode": "K7P3B7",
        "streetName": "CENTENNIAL",
        "streetDirectionId": null,
        "streetTypeId": "DR",
        "placeName": "KINGSTON",
        "streetNameDisplayText": "CENTENNIAL DR, KINGSTON"
      }
    ]
  },
  {
    "postal": "K7P8L1",
    "result": []
  },
  {
    "postal": "K7P5M4",
    "result": []
  },
  {
    "postal": "K7P4G9",
    "result": []
  },
  {
    "postal": "K7P0P0",
    "result": []
  },
  {
    "postal": "K7P8G2",
    "result": []
  },
  {
    "postal": "K7P1V9",
    "result": []
  },
  {
    "postal": "K7P8N8",
    "result": []
  },
  {
    "postal": "K7P6S8",
    "result": []
  },
  {
    "postal": "K7P8H2",
    "result": []
  },
  {
    "postal": "K7P5R8",
    "result": []
  },
  {
    "postal": "K7P5L4",
    "result": []
  },
  {
    "postal": "K7P9E1",
    "result": []
  },
  {
    "postal": "K7P1C4",
    "result": [
      {
        "electoralDistricts": [
          {
            "election": null,
            "id": 46,
            "name": "Kingston and the Islands"
          }
        ],
        "pollDivisionIds": [
          10139119
        ],
        "postalCode": "K7P1C4",
        "streetName": "KIMBERLEY",
        "streetDirectionId": null,
        "streetTypeId": "ST",
        "placeName": "KINGSTON",
        "streetNameDisplayText": "KIMBERLEY ST, KINGSTON"
      }
    ]
  },
  {
    "postal": "K7P8W5",
    "result": []
  },
  {
    "postal": "K7P1Y4",
    "result": []
  },
  {
    "postal": "K7P1C0",
    "result": []
  },
  {
    "postal": "K7P2J2",
    "result": [
      {
        "electoralDistricts": [
          {
            "election": null,
            "id": 46,
            "name": "Kingston and the Islands"
          }
        ],
        "pollDivisionIds": [
          10139105
        ],
        "postalCode": "K7P2J2",
        "streetName": "DILLINGHAM",
        "streetDirectionId": null,
        "streetTypeId": "ST",
        "placeName": "KINGSTON",
        "streetNameDisplayText": "DILLINGHAM ST, KINGSTON"
      },
      {
        "electoralDistricts": [
          {
            "election": null,
            "id": 46,
            "name": "Kingston and the Islands"
          }
        ],
        "pollDivisionIds": [
          10139105
        ],
        "postalCode": "K7P2J2",
        "streetName": "HUMBERSIDE",
        "streetDirectionId": null,
        "streetTypeId": "DR",
        "placeName": "KINGSTON",
        "streetNameDisplayText": "HUMBERSIDE DR, KINGSTON"
      },
      {
        "electoralDistricts": [
          {
            "election": null,
            "id": 46,
            "name": "Kingston and the Islands"
          }
        ],
        "pollDivisionIds": [
          10139105
        ],
        "postalCode": "K7P2J2",
        "streetName": "MONA",
        "streetDirectionId": null,
        "streetTypeId": "DR",
        "placeName": "KINGSTON",
        "streetNameDisplayText": "MONA DR, KINGSTON"
      }
    ]
  },
  {
    "postal": "K7P2J0",
    "result": []
  },
  {
    "postal": "K7P7A3",
    "result": []
  },
  {
    "postal": "K7P8M1",
    "result": []
  },
  {
    "postal": "K7P7T9",
    "result": []
  },
  {
    "postal": "K7P6C0",
    "result": []
  },
  {
    "postal": "K7P7X1",
    "result": []
  },
  {
    "postal": "K7P0G1",
    "result": [
      {
        "electoralDistricts": [
          {
            "election": null,
            "id": 46,
            "name": "Kingston and the Islands"
          }
        ],
        "pollDivisionIds": [
          10139107
        ],
        "postalCode": "K7P0G1",
        "streetName": "GARDINERS",
        "streetDirectionId": null,
        "streetTypeId": "RD",
        "placeName": "KINGSTON",
        "streetNameDisplayText": "GARDINERS RD, KINGSTON"
      }
    ]
  },
  {
    "postal": "K7P4X2",
    "result": []
  },
  {
    "postal": "K7P0N6",
    "result": [
      {
        "electoralDistricts": [
          {
            "election": null,
            "id": 46,
            "name": "Kingston and the Islands"
          }
        ],
        "pollDivisionIds": [
          10139105
        ],
        "postalCode": "K7P0N6",
        "streetName": "WESTBROOK",
        "streetDirectionId": null,
        "streetTypeId": "RD",
        "placeName": "KINGSTON",
        "streetNameDisplayText": "WESTBROOK RD, KINGSTON"
      }
    ]
  },
  {
    "postal": "K7P8E3",
    "result": []
  },
  {
    "postal": "K7P5S8",
    "result": []
  },
  {
    "postal": "K7P0R0",
    "result": []
  },
  {
    "postal": "K7P6J6",
    "result": []
  },
  {
    "postal": "K7P4B4",
    "result": []
  },
  {
    "postal": "K7P7E3",
    "result": []
  },
  {
    "postal": "K7P3N6",
    "result": []
  },
  {
    "postal": "K7P3X6",
    "result": []
  },
  {
    "postal": "K7P8L0",
    "result": []
  },
  {
    "postal": "K7P8N1",
    "result": []
  },
  {
    "postal": "K7P4J0",
    "result": []
  },
  {
    "postal": "K7P0X7",
    "result": []
  },
  {
    "postal": "K7P6S4",
    "result": []
  },
  {
    "postal": "K7P0Z0",
    "result": []
  },
  {
    "postal": "K7P9X8",
    "result": []
  },
  {
    "postal": "K7P3H3",
    "result": [
      {
        "electoralDistricts": [
          {
            "election": null,
            "id": 46,
            "name": "Kingston and the Islands"
          }
        ],
        "pollDivisionIds": [
          10139107
        ],
        "postalCode": "K7P3H3",
        "streetName": "BIRCHWOOD",
        "streetDirectionId": null,
        "streetTypeId": "DR",
        "placeName": "KINGSTON",
        "streetNameDisplayText": "BIRCHWOOD DR, KINGSTON"
      },
      {
        "electoralDistricts": [
          {
            "election": null,
            "id": 46,
            "name": "Kingston and the Islands"
          }
        ],
        "pollDivisionIds": [
          10139107
        ],
        "postalCode": "K7P3H3",
        "streetName": "SIERRA",
        "streetDirectionId": null,
        "streetTypeId": "AVE",
        "placeName": "KINGSTON",
        "streetNameDisplayText": "SIERRA AVE, KINGSTON"
      }
    ]
  },
  {
    "postal": "K7P7S2",
    "result": []
  },
  {
    "postal": "K7P3T3",
    "result": []
  },
  {
    "postal": "K7P9P3",
    "result": []
  },
  {
    "postal": "K7P4H8",
    "result": []
  },
  {
    "postal": "K7P6R1",
    "result": []
  },
  {
    "postal": "K7P1S0",
    "result": []
  },
  {
    "postal": "K7P3W8",
    "result": []
  },
  {
    "postal": "K7P4S3",
    "result": []
  },
  {
    "postal": "K7P1B6",
    "result": [
      {
        "electoralDistricts": [
          {
            "election": null,
            "id": 46,
            "name": "Kingston and the Islands"
          }
        ],
        "pollDivisionIds": [
          10139119
        ],
        "postalCode": "K7P1B6",
        "streetName": "SELKIRK",
        "streetDirectionId": null,
        "streetTypeId": "RD",
        "placeName": "KINGSTON",
        "streetNameDisplayText": "SELKIRK RD, KINGSTON"
      }
    ]
  },
  {
    "postal": "K7P8R3",
    "result": []
  },
  {
    "postal": "K7P4V9",
    "result": []
  },
  {
    "postal": "K7P9W4",
    "result": []
  },
  {
    "postal": "K7P3T4",
    "result": []
  },
  {
    "postal": "K7P5C7",
    "result": []
  },
  {
    "postal": "K7P3Y1",
    "result": []
  },
  {
    "postal": "K7P5V0",
    "result": []
  },
  {
    "postal": "K7P8G8",
    "result": []
  },
  {
    "postal": "K7P8B1",
    "result": []
  },
  {
    "postal": "K7P4P5",
    "result": []
  },
  {
    "postal": "K7P7B2",
    "result": []
  },
  {
    "postal": "K7P0R2",
    "result": []
  },
  {
    "postal": "K7P4M4",
    "result": []
  },
  {
    "postal": "K7P7M4",
    "result": []
  },
  {
    "postal": "K7P9S7",
    "result": []
  },
  {
    "postal": "K7P5Z7",
    "result": []
  },
  {
    "postal": "K7P7J7",
    "result": []
  },
  {
    "postal": "K7P8R8",
    "result": []
  },
  {
    "postal": "K7P9X1",
    "result": []
  },
  {
    "postal": "K7P5M9",
    "result": []
  },
  {
    "postal": "K7P9B4",
    "result": []
  },
  {
    "postal": "K7P0L9",
    "result": [
      {
        "electoralDistricts": [
          {
            "election": null,
            "id": 46,
            "name": "Kingston and the Islands"
          }
        ],
        "pollDivisionIds": [
          10139106,
          10139105,
          10139107
        ],
        "postalCode": "K7P0L9",
        "streetName": "ALBANY",
        "streetDirectionId": null,
        "streetTypeId": "DR",
        "placeName": "KINGSTON",
        "streetNameDisplayText": "ALBANY DR, KINGSTON"
      },
      {
        "electoralDistricts": [
          {
            "election": null,
            "id": 46,
            "name": "Kingston and the Islands"
          }
        ],
        "pollDivisionIds": [
          10139107
        ],
        "postalCode": "K7P0L9",
        "streetName": "EXECUTIVE",
        "streetDirectionId": null,
        "streetTypeId": "AVE",
        "placeName": "KINGSTON",
        "streetNameDisplayText": "EXECUTIVE AVE, KINGSTON"
      }
    ]
  },
  {
    "postal": "K7P9G4",
    "result": []
  },
  {
    "postal": "K7P1J4",
    "result": []
  },
  {
    "postal": "K7P0W6",
    "result": []
  }
]
