[
  {
    "postal": "L7C9J6",
    "result": []
  },
  {
    "postal": "L7C9Z5",
    "result": []
  },
  {
    "postal": "L7C7H8",
    "result": []
  },
  {
    "postal": "L7C0P6",
    "result": [
      {
        "electoralDistricts": [
          {
            "election": null,
            "id": 23,
            "name": "Dufferin—Caledon"
          }
        ],
        "pollDivisionIds": [
          10137809
        ],
        "postalCode": "L7C0P6",
        "streetName": "CASTLEDERG",
        "streetDirectionId": null,
        "streetTypeId": "SIDERD",
        "placeName": "CALEDON EAST",
        "streetNameDisplayText": "CASTLEDERG SIDERD, CALEDON EAST"
      }
    ]
  },
  {
    "postal": "L7C0S7",
    "result": [
      {
        "electoralDistricts": [
          {
            "election": null,
            "id": 23,
            "name": "Dufferin—Caledon"
          }
        ],
        "pollDivisionIds": [
          10137807
        ],
        "postalCode": "L7C0S7",
        "streetName": "KING",
        "streetDirectionId": null,
        "streetTypeId": "ST",
        "placeName": "CHELTENHAM",
        "streetNameDisplayText": "KING ST, CHELTENHAM"
      }
    ]
  },
  {
    "postal": "L7C8B9",
    "result": []
  },
  {
    "postal": "L7C2A6",
    "result": [
      {
        "electoralDistricts": [
          {
            "election": null,
            "id": 23,
            "name": "Dufferin—Caledon"
          }
        ],
        "pollDivisionIds": [
          10137807
        ],
        "postalCode": "L7C2A6",
        "streetName": "MCLAUGHLIN",
        "streetDirectionId": null,
        "streetTypeId": "RD",
        "placeName": "CHELTENHAM",
        "streetNameDisplayText": "MCLAUGHLIN RD, CHELTENHAM"
      }
    ]
  },
  {
    "postal": "L7C7V2",
    "result": []
  },
  {
    "postal": "L7C9P4",
    "result": []
  },
  {
    "postal": "L7C6G0",
    "result": []
  },
  {
    "postal": "L7C2K0",
    "result": []
  },
  {
    "postal": "L7C7N6",
    "result": []
  },
  {
    "postal": "L7C5R3",
    "result": []
  },
  {
    "postal": "L7C7K0",
    "result": []
  },
  {
    "postal": "L7C3R2",
    "result": [
      {
        "electoralDistricts": [
          {
            "election": null,
            "id": 23,
            "name": "Dufferin—Caledon"
          }
        ],
        "pollDivisionIds": [
          10137807
        ],
        "postalCode": "L7C3R2",
        "streetName": "LARSON PEAK",
        "streetDirectionId": null,
        "streetTypeId": "RD",
        "placeName": "CALEDON",
        "streetNameDisplayText": "LARSON PEAK RD, CALEDON"
      },
      {
        "electoralDistricts": [
          {
            "election": null,
            "id": 23,
            "name": "Dufferin—Caledon"
          }
        ],
        "pollDivisionIds": [
          10137807
        ],
        "postalCode": "L7C3R2",
        "streetName": "LEARMONT",
        "streetDirectionId": null,
        "streetTypeId": "AVE",
        "placeName": "CALEDON",
        "streetNameDisplayText": "LEARMONT AVE, CALEDON"
      },
      {
        "electoralDistricts": [
          {
            "election": null,
            "id": 23,
            "name": "Dufferin—Caledon"
          }
        ],
        "pollDivisionIds": [
          10137807
        ],
        "postalCode": "L7C3R2",
        "streetName": "WISHING WELL",
        "streetDirectionId": null,
        "streetTypeId": "CRES",
        "placeName": "CALEDON",
        "streetNameDisplayText": "WISHING WELL CRES, CALEDON"
      },
      {
        "electoralDistricts": [
          {
            "election": null,
            "id": 23,
            "name": "Dufferin—Caledon"
          }
        ],
        "pollDivisionIds": [
          10137807
        ],
        "postalCode": "L7C3R2",
        "streetName": "WISHING WELL",
        "streetDirectionId": null,
        "streetTypeId": "CRES",
        "placeName": "INGLEWOOD",
        "streetNameDisplayText": "WISHING WELL CRES, INGLEWOOD"
      }
    ]
  },
  {
    "postal": "L7C0J1",
    "result": [
      {
        "electoralDistricts": [
          {
            "election": null,
            "id": 23,
            "name": "Dufferin—Caledon"
          }
        ],
        "pollDivisionIds": [
          10137803
        ],
        "postalCode": "L7C0J1",
        "streetName": "OLDE BASE LINE",
        "streetDirectionId": null,
        "streetTypeId": "RD",
        "placeName": "TERRA COTTA",
        "streetNameDisplayText": "OLDE BASE LINE RD, TERRA COTTA"
      }
    ]
  },
  {
    "postal": "L7C0B0",
    "result": []
  },
  {
    "postal": "L7C5Z2",
    "result": []
  },
  {
    "postal": "L7C7P3",
    "result": []
  },
  {
    "postal": "L7C2K3",
    "result": [
      {
        "electoralDistricts": [
          {
            "election": null,
            "id": 23,
            "name": "Dufferin—Caledon"
          }
        ],
        "pollDivisionIds": [
          10137777
        ],
        "postalCode": "L7C2K3",
        "streetName": "HEART LAKE",
        "streetDirectionId": null,
        "streetTypeId": "RD",
        "placeName": "CALDON",
        "streetNameDisplayText": "HEART LAKE RD, CALDON"
      },
      {
        "electoralDistricts": [
          {
            "election": null,
            "id": 23,
            "name": "Dufferin—Caledon"
          }
        ],
        "pollDivisionIds": [
          10137801
        ],
        "postalCode": "L7C2K3",
        "streetName": "HEART LAKE",
        "streetDirectionId": null,
        "streetTypeId": "RD",
        "placeName": "CALEDON VILLAGE",
        "streetNameDisplayText": "HEART LAKE RD, CALEDON VILLAGE"
      }
    ]
  },
  {
    "postal": "L7C7Y6",
    "result": []
  },
  {
    "postal": "L7C1L9",
    "result": [
      {
        "electoralDistricts": [
          {
            "election": null,
            "id": 23,
            "name": "Dufferin—Caledon"
          }
        ],
        "pollDivisionIds": [
          10137802
        ],
        "postalCode": "L7C1L9",
        "streetName": "MCLAUGHLIN",
        "streetDirectionId": null,
        "streetTypeId": "RD",
        "placeName": "INGLEWOOD",
        "streetNameDisplayText": "MCLAUGHLIN RD, INGLEWOOD"
      }
    ]
  },
  {
    "postal": "L7C8T0",
    "result": []
  },
  {
    "postal": "L7C3K8",
    "result": [
      {
        "electoralDistricts": [
          {
            "election": null,
            "id": 23,
            "name": "Dufferin—Caledon"
          }
        ],
        "pollDivisionIds": [
          10137806
        ],
        "postalCode": "L7C3K8",
        "streetName": "MILL",
        "streetDirectionId": null,
        "streetTypeId": "ST",
        "placeName": "CHELTENHAM",
        "streetNameDisplayText": "MILL ST, CHELTENHAM"
      }
    ]
  },
  {
    "postal": "L7C5W9",
    "result": []
  },
  {
    "postal": "L7C6T9",
    "result": []
  },
  {
    "postal": "L7C4H1",
    "result": []
  },
  {
    "postal": "L7C7A2",
    "result": []
  },
  {
    "postal": "L7C5G0",
    "result": []
  },
  {
    "postal": "L7C8V5",
    "result": []
  },
  {
    "postal": "L7C2Y8",
    "result": [
      {
        "electoralDistricts": [
          {
            "election": null,
            "id": 23,
            "name": "Dufferin—Caledon"
          }
        ],
        "pollDivisionIds": [
          10137809
        ],
        "postalCode": "L7C2Y8",
        "streetName": "INNIS LAKE",
        "streetDirectionId": null,
        "streetTypeId": "RD",
        "placeName": "CALEDON",
        "streetNameDisplayText": "INNIS LAKE RD, CALEDON"
      },
      {
        "electoralDistricts": [
          {
            "election": null,
            "id": 23,
            "name": "Dufferin—Caledon"
          }
        ],
        "pollDivisionIds": [
          10137809
        ],
        "postalCode": "L7C2Y8",
        "streetName": "INNIS LAKE",
        "streetDirectionId": null,
        "streetTypeId": "RD",
        "placeName": "CALEDON EAST",
        "streetNameDisplayText": "INNIS LAKE RD, CALEDON EAST"
      }
    ]
  },
  {
    "postal": "L7C2B6",
    "result": [
      {
        "electoralDistricts": [
          {
            "election": null,
            "id": 23,
            "name": "Dufferin—Caledon"
          }
        ],
        "pollDivisionIds": [
          10137806
        ],
        "postalCode": "L7C2B6",
        "streetName": "HURONTARIO",
        "streetDirectionId": null,
        "streetTypeId": "ST",
        "placeName": "CALEDON",
        "streetNameDisplayText": "HURONTARIO ST, CALEDON"
      }
    ]
  },
  {
    "postal": "L7C4W8",
    "result": []
  },
  {
    "postal": "L7C8H7",
    "result": []
  },
  {
    "postal": "L7C5P1",
    "result": []
  },
  {
    "postal": "L7C2B8",
    "result": [
      {
        "electoralDistricts": [
          {
            "election": null,
            "id": 23,
            "name": "Dufferin—Caledon"
          }
        ],
        "pollDivisionIds": [
          10137807
        ],
        "postalCode": "L7C2B8",
        "streetName": "HURONTARIO",
        "streetDirectionId": null,
        "streetTypeId": "ST",
        "placeName": "INGLEWOOD",
        "streetNameDisplayText": "HURONTARIO ST, INGLEWOOD"
      }
    ]
  },
  {
    "postal": "L7C0P2",
    "result": [
      {
        "electoralDistricts": [
          {
            "election": null,
            "id": 23,
            "name": "Dufferin—Caledon"
          }
        ],
        "pollDivisionIds": [
          10143845
        ],
        "postalCode": "L7C0P2",
        "streetName": "CASTLEDERG",
        "streetDirectionId": null,
        "streetTypeId": "SIDERD",
        "placeName": "CALEDON EAST",
        "streetNameDisplayText": "CASTLEDERG SIDERD, CALEDON EAST"
      }
    ]
  },
  {
    "postal": "L7C9M1",
    "result": []
  },
  {
    "postal": "L7C3G0",
    "result": []
  },
  {
    "postal": "L7C9Z2",
    "result": []
  },
  {
    "postal": "L7C2A0",
    "result": []
  },
  {
    "postal": "L7C6Y0",
    "result": []
  },
  {
    "postal": "L7C2Z8",
    "result": [
      {
        "electoralDistricts": [
          {
            "election": null,
            "id": 23,
            "name": "Dufferin—Caledon"
          }
        ],
        "pollDivisionIds": [
          10137809
        ],
        "postalCode": "L7C2Z8",
        "streetName": "INNIS LAKE",
        "streetDirectionId": null,
        "streetTypeId": "RD",
        "placeName": "CALEDON EAST",
        "streetNameDisplayText": "INNIS LAKE RD, CALEDON EAST"
      }
    ]
  },
  {
    "postal": "L7C7Y3",
    "result": []
  },
  {
    "postal": "L7C6Z5",
    "result": []
  },
  {
    "postal": "L7C6E0",
    "result": []
  },
  {
    "postal": "L7C9B7",
    "result": []
  },
  {
    "postal": "L7C9S5",
    "result": []
  },
  {
    "postal": "L7C3X3",
    "result": [
      {
        "electoralDistricts": [
          {
            "election": null,
            "id": 23,
            "name": "Dufferin—Caledon"
          }
        ],
        "pollDivisionIds": [
          10143845
        ],
        "postalCode": "L7C3X3",
        "streetName": "BILLY",
        "streetDirectionId": null,
        "streetTypeId": "CRT",
        "placeName": "CALEDON EAST",
        "streetNameDisplayText": "BILLY CRT, CALEDON EAST"
      }
    ]
  },
  {
    "postal": "L7C7R5",
    "result": []
  },
  {
    "postal": "L7C2X3",
    "result": [
      {
        "electoralDistricts": [
          {
            "election": null,
            "id": 23,
            "name": "Dufferin—Caledon"
          }
        ],
        "pollDivisionIds": [
          10137809
        ],
        "postalCode": "L7C2X3",
        "streetName": "AIRPORT",
        "streetDirectionId": null,
        "streetTypeId": "RD",
        "placeName": "CALEDON",
        "streetNameDisplayText": "AIRPORT RD, CALEDON"
      }
    ]
  },
  {
    "postal": "L7C8Z9",
    "result": []
  },
  {
    "postal": "L7C0N4",
    "result": [
      {
        "electoralDistricts": [
          {
            "election": null,
            "id": 23,
            "name": "Dufferin—Caledon"
          }
        ],
        "pollDivisionIds": [
          10137807
        ],
        "postalCode": "L7C0N4",
        "streetName": "BOSTON MILLS",
        "streetDirectionId": null,
        "streetTypeId": "RD",
        "placeName": "CALEDON",
        "streetNameDisplayText": "BOSTON MILLS RD, CALEDON"
      }
    ]
  },
  {
    "postal": "L7C1K1",
    "result": [
      {
        "electoralDistricts": [
          {
            "election": null,
            "id": 23,
            "name": "Dufferin—Caledon"
          }
        ],
        "pollDivisionIds": [
          10137807
        ],
        "postalCode": "L7C1K1",
        "streetName": "OLDE BASE LINE",
        "streetDirectionId": null,
        "streetTypeId": "RD",
        "placeName": "CALEDON EAST",
        "streetNameDisplayText": "OLDE BASE LINE RD, CALEDON EAST"
      }
    ]
  },
  {
    "postal": "L7C1S3",
    "result": [
      {
        "electoralDistricts": [
          {
            "election": null,
            "id": 23,
            "name": "Dufferin—Caledon"
          }
        ],
        "pollDivisionIds": [
          10137806
        ],
        "postalCode": "L7C1S3",
        "streetName": "WINSTON CHURCHILL",
        "streetDirectionId": null,
        "streetTypeId": "BLVD",
        "placeName": "CALEDON",
        "streetNameDisplayText": "WINSTON CHURCHILL BLVD, CALEDON"
      }
    ]
  },
  {
    "postal": "L7C6M4",
    "result": []
  },
  {
    "postal": "L7C9A9",
    "result": []
  },
  {
    "postal": "L7C9Z9",
    "result": []
  },
  {
    "postal": "L7C6T4",
    "result": []
  },
  {
    "postal": "L7C0B2",
    "result": [
      {
        "electoralDistricts": [
          {
            "election": null,
            "id": 23,
            "name": "Dufferin—Caledon"
          }
        ],
        "pollDivisionIds": [
          10143845
        ],
        "postalCode": "L7C0B2",
        "streetName": "PATTERSON",
        "streetDirectionId": null,
        "streetTypeId": "SIDERD",
        "placeName": "CALEDON EAST",
        "streetNameDisplayText": "PATTERSON SIDERD, CALEDON EAST"
      }
    ]
  },
  {
    "postal": "L7C2L9",
    "result": [
      {
        "electoralDistricts": [
          {
            "election": null,
            "id": 23,
            "name": "Dufferin—Caledon"
          }
        ],
        "pollDivisionIds": [
          10137807
        ],
        "postalCode": "L7C2L9",
        "streetName": "DIXIE",
        "streetDirectionId": null,
        "streetTypeId": "RD",
        "placeName": "INGLEWOOD",
        "streetNameDisplayText": "DIXIE RD, INGLEWOOD"
      }
    ]
  },
  {
    "postal": "L7C8K9",
    "result": []
  },
  {
    "postal": "L7C2H9",
    "result": [
      {
        "electoralDistricts": [
          {
            "election": null,
            "id": 23,
            "name": "Dufferin—Caledon"
          }
        ],
        "pollDivisionIds": [
          10137801
        ],
        "postalCode": "L7C2H9",
        "streetName": "KENNEDY",
        "streetDirectionId": null,
        "streetTypeId": "RD",
        "placeName": "CALEDON VILLAGE",
        "streetNameDisplayText": "KENNEDY RD, CALEDON VILLAGE"
      }
    ]
  },
  {
    "postal": "L7C3Z6",
    "result": [
      {
        "electoralDistricts": [
          {
            "election": null,
            "id": 23,
            "name": "Dufferin—Caledon"
          }
        ],
        "pollDivisionIds": [
          10137808
        ],
        "postalCode": "L7C3Z6",
        "streetName": "DEER RIDGE",
        "streetDirectionId": null,
        "streetTypeId": "TRAIL",
        "placeName": "CALEDON",
        "streetNameDisplayText": "DEER RIDGE TRAIL, CALEDON"
      },
      {
        "electoralDistricts": [
          {
            "election": null,
            "id": 23,
            "name": "Dufferin—Caledon"
          }
        ],
        "pollDivisionIds": [
          10137808
        ],
        "postalCode": "L7C3Z6",
        "streetName": "PINEDALE",
        "streetDirectionId": null,
        "streetTypeId": "AVE",
        "placeName": "CALEDON",
        "streetNameDisplayText": "PINEDALE AVE, CALEDON"
      }
    ]
  },
  {
    "postal": "L7C3B0",
    "result": []
  },
  {
    "postal": "L7C2H8",
    "result": [
      {
        "electoralDistricts": [
          {
            "election": null,
            "id": 23,
            "name": "Dufferin—Caledon"
          }
        ],
        "pollDivisionIds": [
          10137801
        ],
        "postalCode": "L7C2H8",
        "streetName": "KENNEDY",
        "streetDirectionId": null,
        "streetTypeId": "RD",
        "placeName": "CALEDON VILLAGE",
        "streetNameDisplayText": "KENNEDY RD, CALEDON VILLAGE"
      }
    ]
  },
  {
    "postal": "L7C3X2",
    "result": [
      {
        "electoralDistricts": [
          {
            "election": null,
            "id": 23,
            "name": "Dufferin—Caledon"
          }
        ],
        "pollDivisionIds": [
          10143845,
          10137809
        ],
        "postalCode": "L7C3X2",
        "streetName": "FALLIS",
        "streetDirectionId": null,
        "streetTypeId": "CRES",
        "placeName": "CALEDON EAST",
        "streetNameDisplayText": "FALLIS CRES, CALEDON EAST"
      },
      {
        "electoralDistricts": [
          {
            "election": null,
            "id": 23,
            "name": "Dufferin—Caledon"
          }
        ],
        "pollDivisionIds": [
          10143845
        ],
        "postalCode": "L7C3X2",
        "streetName": "MCELROY",
        "streetDirectionId": null,
        "streetTypeId": "CRT",
        "placeName": "CALEDON EAST",
        "streetNameDisplayText": "MCELROY CRT, CALEDON EAST"
      }
    ]
  },
  {
    "postal": "L7C2E9",
    "result": [
      {
        "electoralDistricts": [
          {
            "election": null,
            "id": 23,
            "name": "Dufferin—Caledon"
          }
        ],
        "pollDivisionIds": [
          10137808
        ],
        "postalCode": "L7C2E9",
        "streetName": "KENNEDY",
        "streetDirectionId": null,
        "streetTypeId": "RD",
        "placeName": "CALEDON",
        "streetNameDisplayText": "KENNEDY RD, CALEDON"
      },
      {
        "electoralDistricts": [
          {
            "election": null,
            "id": 23,
            "name": "Dufferin—Caledon"
          }
        ],
        "pollDivisionIds": [
          10137808
        ],
        "postalCode": "L7C2E9",
        "streetName": "OLD KENNEDY",
        "streetDirectionId": null,
        "streetTypeId": "RD",
        "placeName": "CALEDON",
        "streetNameDisplayText": "OLD KENNEDY RD, CALEDON"
      },
      {
        "electoralDistricts": [
          {
            "election": null,
            "id": 23,
            "name": "Dufferin—Caledon"
          }
        ],
        "pollDivisionIds": [
          10137808
        ],
        "postalCode": "L7C2E9",
        "streetName": "OLD KENNEDY",
        "streetDirectionId": null,
        "streetTypeId": "RD",
        "placeName": "INGLEWOOD",
        "streetNameDisplayText": "OLD KENNEDY RD, INGLEWOOD"
      }
    ]
  },
  {
    "postal": "L7C9P6",
    "result": []
  },
  {
    "postal": "L7C9E2",
    "result": []
  },
  {
    "postal": "L7C9H2",
    "result": []
  },
  {
    "postal": "L7C1S8",
    "result": [
      {
        "electoralDistricts": [
          {
            "election": null,
            "id": 23,
            "name": "Dufferin—Caledon"
          }
        ],
        "pollDivisionIds": [
          10137806
        ],
        "postalCode": "L7C1S8",
        "streetName": "WINSTON CHURCHILL",
        "streetDirectionId": null,
        "streetTypeId": "BLVD",
        "placeName": "TERRA COTTA",
        "streetNameDisplayText": "WINSTON CHURCHILL BLVD, TERRA COTTA"
      }
    ]
  },
  {
    "postal": "L7C3M6",
    "result": [
      {
        "electoralDistricts": [
          {
            "election": null,
            "id": 23,
            "name": "Dufferin—Caledon"
          }
        ],
        "pollDivisionIds": [
          10137807
        ],
        "postalCode": "L7C3M6",
        "streetName": "PERDUE",
        "streetDirectionId": null,
        "streetTypeId": "CRT",
        "placeName": "CALEDON",
        "streetNameDisplayText": "PERDUE CRT, CALEDON"
      }
    ]
  },
  {
    "postal": "L7C6Z8",
    "result": []
  },
  {
    "postal": "L7C4J2",
    "result": []
  },
  {
    "postal": "L7C9Y1",
    "result": []
  },
  {
    "postal": "L7C8V6",
    "result": []
  },
  {
    "postal": "L7C6B2",
    "result": []
  },
  {
    "postal": "L7C1P8",
    "result": [
      {
        "electoralDistricts": [
          {
            "election": null,
            "id": 23,
            "name": "Dufferin—Caledon"
          }
        ],
        "pollDivisionIds": [
          10143845
        ],
        "postalCode": "L7C1P8",
        "streetName": "CRANSTON",
        "streetDirectionId": null,
        "streetTypeId": "DR",
        "placeName": "CALEDON EAST",
        "streetNameDisplayText": "CRANSTON DR, CALEDON EAST"
      },
      {
        "electoralDistricts": [
          {
            "election": null,
            "id": 23,
            "name": "Dufferin—Caledon"
          }
        ],
        "pollDivisionIds": [
          10143845
        ],
        "postalCode": "L7C1P8",
        "streetName": "SUMMERGATE",
        "streetDirectionId": null,
        "streetTypeId": "CRT",
        "placeName": "CALEDON EAST",
        "streetNameDisplayText": "SUMMERGATE CRT, CALEDON EAST"
      }
    ]
  },
  {
    "postal": "L7C0V8",
    "result": [
      {
        "electoralDistricts": [
          {
            "election": null,
            "id": 23,
            "name": "Dufferin—Caledon"
          }
        ],
        "pollDivisionIds": [
          10137806
        ],
        "postalCode": "L7C0V8",
        "streetName": "OLD SCHOOL",
        "streetDirectionId": null,
        "streetTypeId": "RD",
        "placeName": "CALEDON",
        "streetNameDisplayText": "OLD SCHOOL RD, CALEDON"
      }
    ]
  },
  {
    "postal": "L7C4Y0",
    "result": []
  },
  {
    "postal": "L7C2T4",
    "result": [
      {
        "electoralDistricts": [
          {
            "election": null,
            "id": 23,
            "name": "Dufferin—Caledon"
          }
        ],
        "pollDivisionIds": [
          10137807
        ],
        "postalCode": "L7C2T4",
        "streetName": "TORBRAM",
        "streetDirectionId": null,
        "streetTypeId": "RD",
        "placeName": "CALEDON EAST",
        "streetNameDisplayText": "TORBRAM RD, CALEDON EAST"
      }
    ]
  },
  {
    "postal": "L7C2S3",
    "result": [
      {
        "electoralDistricts": [
          {
            "election": null,
            "id": 23,
            "name": "Dufferin—Caledon"
          }
        ],
        "pollDivisionIds": [
          10143845
        ],
        "postalCode": "L7C2S3",
        "streetName": "ST ANDREW'S",
        "streetDirectionId": null,
        "streetTypeId": "RD",
        "placeName": "CALEDON EAST",
        "streetNameDisplayText": "ST ANDREW'S RD, CALEDON EAST"
      }
    ]
  },
  {
    "postal": "L7C0K0",
    "result": []
  },
  {
    "postal": "L7C5N1",
    "result": []
  },
  {
    "postal": "L7C7T0",
    "result": []
  },
  {
    "postal": "L7C9N2",
    "result": []
  },
  {
    "postal": "L7C5L1",
    "result": []
  },
  {
    "postal": "L7C7G5",
    "result": []
  },
  {
    "postal": "L7C6K2",
    "result": []
  },
  {
    "postal": "L7C6P9",
    "result": []
  },
  {
    "postal": "L7C0E6",
    "result": [
      {
        "electoralDistricts": [
          {
            "election": null,
            "id": 23,
            "name": "Dufferin—Caledon"
          }
        ],
        "pollDivisionIds": [
          10137803
        ],
        "postalCode": "L7C0E6",
        "streetName": "THE GRANGE",
        "streetDirectionId": null,
        "streetTypeId": "SIDERD",
        "placeName": "TERRA COTTA",
        "streetNameDisplayText": "THE GRANGE SIDERD, TERRA COTTA"
      }
    ]
  },
  {
    "postal": "L7C8R9",
    "result": []
  },
  {
    "postal": "L7C3G9",
    "result": [
      {
        "electoralDistricts": [
          {
            "election": null,
            "id": 23,
            "name": "Dufferin—Caledon"
          }
        ],
        "pollDivisionIds": [
          10137806
        ],
        "postalCode": "L7C3G9",
        "streetName": "CREDITVIEW",
        "streetDirectionId": null,
        "streetTypeId": "RD",
        "placeName": "CALEDON",
        "streetNameDisplayText": "CREDITVIEW RD, CALEDON"
      },
      {
        "electoralDistricts": [
          {
            "election": null,
            "id": 23,
            "name": "Dufferin—Caledon"
          }
        ],
        "pollDivisionIds": [
          10137803
        ],
        "postalCode": "L7C3G9",
        "streetName": "CREDITVIEW",
        "streetDirectionId": null,
        "streetTypeId": "RD",
        "placeName": "TERRA COTTA",
        "streetNameDisplayText": "CREDITVIEW RD, TERRA COTTA"
      }
    ]
  },
  {
    "postal": "L7C0V7",
    "result": [
      {
        "electoralDistricts": [
          {
            "election": null,
            "id": 23,
            "name": "Dufferin—Caledon"
          }
        ],
        "pollDivisionIds": [
          10137806
        ],
        "postalCode": "L7C0V7",
        "streetName": "OLD SCHOOL",
        "streetDirectionId": null,
        "streetTypeId": "RD",
        "placeName": "CHELTENHAM",
        "streetNameDisplayText": "OLD SCHOOL RD, CHELTENHAM"
      }
    ]
  },
  {
    "postal": "L7C2Z1",
    "result": [
      {
        "electoralDistricts": [
          {
            "election": null,
            "id": 23,
            "name": "Dufferin—Caledon"
          }
        ],
        "pollDivisionIds": [
          10143845
        ],
        "postalCode": "L7C2Z1",
        "streetName": "INNIS LAKE",
        "streetDirectionId": null,
        "streetTypeId": "RD",
        "placeName": "CALEDON EAST",
        "streetNameDisplayText": "INNIS LAKE RD, CALEDON EAST"
      }
    ]
  },
  {
    "postal": "L7C7N1",
    "result": []
  },
  {
    "postal": "L7C3C6",
    "result": [
      {
        "electoralDistricts": [
          {
            "election": null,
            "id": 23,
            "name": "Dufferin—Caledon"
          }
        ],
        "pollDivisionIds": [
          10143845
        ],
        "postalCode": "L7C3C6",
        "streetName": "CENTREVILLE CREEK",
        "streetDirectionId": null,
        "streetTypeId": "RD",
        "placeName": "CALEDON EAST",
        "streetNameDisplayText": "CENTREVILLE CREEK RD, CALEDON EAST"
      }
    ]
  },
  {
    "postal": "L7C4M1",
    "result": []
  },
  {
    "postal": "L7C9K2",
    "result": []
  },
  {
    "postal": "L7C9S6",
    "result": []
  },
  {
    "postal": "L7C4X1",
    "result": []
  },
  {
    "postal": "L7C8W2",
    "result": []
  },
  {
    "postal": "L7C7N2",
    "result": []
  },
  {
    "postal": "L7C8S3",
    "result": []
  },
  {
    "postal": "L7C4V0",
    "result": []
  },
  {
    "postal": "L7C6W4",
    "result": []
  },
  {
    "postal": "L7C5M1",
    "result": []
  },
  {
    "postal": "L7C0S4",
    "result": [
      {
        "electoralDistricts": [
          {
            "election": null,
            "id": 23,
            "name": "Dufferin—Caledon"
          }
        ],
        "pollDivisionIds": [
          10137806
        ],
        "postalCode": "L7C0S4",
        "streetName": "KING",
        "streetDirectionId": null,
        "streetTypeId": "ST",
        "placeName": "TERRA COTTA",
        "streetNameDisplayText": "KING ST, TERRA COTTA"
      }
    ]
  },
  {
    "postal": "L7C5X6",
    "result": []
  },
  {
    "postal": "L7C8L5",
    "result": []
  },
  {
    "postal": "L7C5M8",
    "result": []
  },
  {
    "postal": "L7C2G3",
    "result": [
      {
        "electoralDistricts": [
          {
            "election": null,
            "id": 23,
            "name": "Dufferin—Caledon"
          }
        ],
        "pollDivisionIds": [
          10137807
        ],
        "postalCode": "L7C2G3",
        "streetName": "KENNEDY",
        "streetDirectionId": null,
        "streetTypeId": "RD",
        "placeName": "INGLEWOOD",
        "streetNameDisplayText": "KENNEDY RD, INGLEWOOD"
      }
    ]
  },
  {
    "postal": "L7C8E4",
    "result": []
  },
  {
    "postal": "L7C7S9",
    "result": []
  },
  {
    "postal": "L7C1K3",
    "result": [
      {
        "electoralDistricts": [
          {
            "election": null,
            "id": 23,
            "name": "Dufferin—Caledon"
          }
        ],
        "pollDivisionIds": [
          10143845
        ],
        "postalCode": "L7C1K3",
        "streetName": "OLIVER'S",
        "streetDirectionId": null,
        "streetTypeId": "LANE",
        "placeName": "CALEDON EAST",
        "streetNameDisplayText": "OLIVER'S LANE, CALEDON EAST"
      }
    ]
  },
  {
    "postal": "L7C4E1",
    "result": [
      {
        "electoralDistricts": [
          {
            "election": null,
            "id": 23,
            "name": "Dufferin—Caledon"
          }
        ],
        "pollDivisionIds": [
          10137808
        ],
        "postalCode": "L7C4E1",
        "streetName": "LOST HOLLOW",
        "streetDirectionId": null,
        "streetTypeId": "RD",
        "placeName": "CALEDON",
        "streetNameDisplayText": "LOST HOLLOW RD, CALEDON"
      },
      {
        "electoralDistricts": [
          {
            "election": null,
            "id": 23,
            "name": "Dufferin—Caledon"
          }
        ],
        "pollDivisionIds": [
          10137808
        ],
        "postalCode": "L7C4E1",
        "streetName": "NEWHOUSE",
        "streetDirectionId": null,
        "streetTypeId": "BLVD",
        "placeName": "CALEDON",
        "streetNameDisplayText": "NEWHOUSE BLVD, CALEDON"
      },
      {
        "electoralDistricts": [
          {
            "election": null,
            "id": 23,
            "name": "Dufferin—Caledon"
          }
        ],
        "pollDivisionIds": [
          10137808
        ],
        "postalCode": "L7C4E1",
        "streetName": "SPARROWBROOK",
        "streetDirectionId": null,
        "streetTypeId": "ST",
        "placeName": "CALEDON",
        "streetNameDisplayText": "SPARROWBROOK ST, CALEDON"
      }
    ]
  },
  {
    "postal": "L7C4R2",
    "result": []
  },
  {
    "postal": "L7C6T0",
    "result": []
  },
  {
    "postal": "L7C3K5",
    "result": [
      {
        "electoralDistricts": [
          {
            "election": null,
            "id": 23,
            "name": "Dufferin—Caledon"
          }
        ],
        "pollDivisionIds": [
          10137806
        ],
        "postalCode": "L7C3K5",
        "streetName": "ISABELLA",
        "streetDirectionId": null,
        "streetTypeId": "ST",
        "placeName": "TERRA COTTA",
        "streetNameDisplayText": "ISABELLA ST, TERRA COTTA"
      }
    ]
  },
  {
    "postal": "L7C3S3",
    "result": [
      {
        "electoralDistricts": [
          {
            "election": null,
            "id": 23,
            "name": "Dufferin—Caledon"
          }
        ],
        "pollDivisionIds": [
          10143845
        ],
        "postalCode": "L7C3S3",
        "streetName": "BOYCES CREEK",
        "streetDirectionId": null,
        "streetTypeId": "CRT",
        "placeName": "CALEDON EAST",
        "streetNameDisplayText": "BOYCES CREEK CRT, CALEDON EAST"
      }
    ]
  },
  {
    "postal": "L7C3L4",
    "result": [
      {
        "electoralDistricts": [
          {
            "election": null,
            "id": 23,
            "name": "Dufferin—Caledon"
          }
        ],
        "pollDivisionIds": [
          10137806
        ],
        "postalCode": "L7C3L4",
        "streetName": "MILL",
        "streetDirectionId": null,
        "streetTypeId": "ST",
        "placeName": "CHELTENHAM",
        "streetNameDisplayText": "MILL ST, CHELTENHAM"
      }
    ]
  },
  {
    "postal": "L7C9Y2",
    "result": []
  },
  {
    "postal": "L7C1E0",
    "result": []
  },
  {
    "postal": "L7C9A4",
    "result": []
  },
  {
    "postal": "L7C1L3",
    "result": [
      {
        "electoralDistricts": [
          {
            "election": null,
            "id": 23,
            "name": "Dufferin—Caledon"
          }
        ],
        "pollDivisionIds": [
          10137802
        ],
        "postalCode": "L7C1L3",
        "streetName": "LORNE",
        "streetDirectionId": null,
        "streetTypeId": "ST",
        "placeName": "INGLEWOOD",
        "streetNameDisplayText": "LORNE ST, INGLEWOOD"
      }
    ]
  },
  {
    "postal": "L7C6N1",
    "result": []
  },
  {
    "postal": "L7C6G7",
    "result": []
  },
  {
    "postal": "L7C7W1",
    "result": []
  },
  {
    "postal": "L7C4M6",
    "result": []
  },
  {
    "postal": "L7C1K0",
    "result": []
  },
  {
    "postal": "L7C3E2",
    "result": [
      {
        "electoralDistricts": [
          {
            "election": null,
            "id": 23,
            "name": "Dufferin—Caledon"
          }
        ],
        "pollDivisionIds": [
          10137809
        ],
        "postalCode": "L7C3E2",
        "streetName": "THE GORE",
        "streetDirectionId": null,
        "streetTypeId": "RD",
        "placeName": "BOLTON",
        "streetNameDisplayText": "THE GORE RD, BOLTON"
      }
    ]
  },
  {
    "postal": "L7C5H4",
    "result": []
  },
  {
    "postal": "L7C1K7",
    "result": [
      {
        "electoralDistricts": [
          {
            "election": null,
            "id": 23,
            "name": "Dufferin—Caledon"
          }
        ],
        "pollDivisionIds": [
          10143845
        ],
        "postalCode": "L7C1K7",
        "streetName": "AIRPORT",
        "streetDirectionId": null,
        "streetTypeId": "RD",
        "placeName": "CALEDON EAST",
        "streetNameDisplayText": "AIRPORT RD, CALEDON EAST"
      },
      {
        "electoralDistricts": [
          {
            "election": null,
            "id": 23,
            "name": "Dufferin—Caledon"
          }
        ],
        "pollDivisionIds": [
          10143845
        ],
        "postalCode": "L7C1K7",
        "streetName": "HILLTOP",
        "streetDirectionId": null,
        "streetTypeId": "DR",
        "placeName": "CALEDON EAST",
        "streetNameDisplayText": "HILLTOP DR, CALEDON EAST"
      },
      {
        "electoralDistricts": [
          {
            "election": null,
            "id": 23,
            "name": "Dufferin—Caledon"
          }
        ],
        "pollDivisionIds": [
          10143845
        ],
        "postalCode": "L7C1K7",
        "streetName": "JEAN",
        "streetDirectionId": null,
        "streetTypeId": "ST",
        "placeName": "CALEDON EAST",
        "streetNameDisplayText": "JEAN ST, CALEDON EAST"
      },
      {
        "electoralDistricts": [
          {
            "election": null,
            "id": 23,
            "name": "Dufferin—Caledon"
          }
        ],
        "pollDivisionIds": [
          10143845
        ],
        "postalCode": "L7C1K7",
        "streetName": "MARION",
        "streetDirectionId": null,
        "streetTypeId": "ST",
        "placeName": "CALEDON EAST",
        "streetNameDisplayText": "MARION ST, CALEDON EAST"
      }
    ]
  },
  {
    "postal": "L7C0H0",
    "result": []
  },
  {
    "postal": "L7C0J3",
    "result": [
      {
        "electoralDistricts": [
          {
            "election": null,
            "id": 23,
            "name": "Dufferin—Caledon"
          }
        ],
        "pollDivisionIds": [
          10137802
        ],
        "postalCode": "L7C0J3",
        "streetName": "OLDE BASE LINE",
        "streetDirectionId": null,
        "streetTypeId": "RD",
        "placeName": "INGLEWOOD",
        "streetNameDisplayText": "OLDE BASE LINE RD, INGLEWOOD"
      }
    ]
  },
  {
    "postal": "L7C1X6",
    "result": [
      {
        "electoralDistricts": [
          {
            "election": null,
            "id": 23,
            "name": "Dufferin—Caledon"
          }
        ],
        "pollDivisionIds": [
          10137806
        ],
        "postalCode": "L7C1X6",
        "streetName": "MISSISSAUGA",
        "streetDirectionId": null,
        "streetTypeId": "RD",
        "placeName": "TERRA COTTA",
        "streetNameDisplayText": "MISSISSAUGA RD, TERRA COTTA"
      }
    ]
  },
  {
    "postal": "L7C2Z6",
    "result": [
      {
        "electoralDistricts": [
          {
            "election": null,
            "id": 23,
            "name": "Dufferin—Caledon"
          }
        ],
        "pollDivisionIds": [
          10137809
        ],
        "postalCode": "L7C2Z6",
        "streetName": "INNIS LAKE",
        "streetDirectionId": null,
        "streetTypeId": "RD",
        "placeName": "CALEDON EAST",
        "streetNameDisplayText": "INNIS LAKE RD, CALEDON EAST"
      }
    ]
  },
  {
    "postal": "L7C4R9",
    "result": []
  },
  {
    "postal": "L7C0W8",
    "result": [
      {
        "electoralDistricts": [
          {
            "election": null,
            "id": 23,
            "name": "Dufferin—Caledon"
          }
        ],
        "pollDivisionIds": [
          10137809
        ],
        "postalCode": "L7C0W8",
        "streetName": "HEALEY",
        "streetDirectionId": null,
        "streetTypeId": "RD",
        "placeName": "CALEDON",
        "streetNameDisplayText": "HEALEY RD, CALEDON"
      }
    ]
  },
  {
    "postal": "L7C1L4",
    "result": [
      {
        "electoralDistricts": [
          {
            "election": null,
            "id": 23,
            "name": "Dufferin—Caledon"
          }
        ],
        "pollDivisionIds": [
          10137802
        ],
        "postalCode": "L7C1L4",
        "streetName": "LORNE",
        "streetDirectionId": null,
        "streetTypeId": "ST",
        "placeName": "INGLEWOOD",
        "streetNameDisplayText": "LORNE ST, INGLEWOOD"
      }
    ]
  },
  {
    "postal": "L7C0C8",
    "result": [
      {
        "electoralDistricts": [
          {
            "election": null,
            "id": 23,
            "name": "Dufferin—Caledon"
          }
        ],
        "pollDivisionIds": [
          10137801
        ],
        "postalCode": "L7C0C8",
        "streetName": "THE GRANGE SIDERD",
        "streetDirectionId": null,
        "streetTypeId": "SIDERD",
        "placeName": "CALEDON EAST",
        "streetNameDisplayText": "THE GRANGE SIDERD SIDERD, CALEDON EAST"
      },
      {
        "electoralDistricts": [
          {
            "election": null,
            "id": 23,
            "name": "Dufferin—Caledon"
          }
        ],
        "pollDivisionIds": [
          10137801
        ],
        "postalCode": "L7C0C8",
        "streetName": "THE GRANGE",
        "streetDirectionId": null,
        "streetTypeId": "SIDERD",
        "placeName": "CALEDON EAST",
        "streetNameDisplayText": "THE GRANGE SIDERD, CALEDON EAST"
      }
    ]
  },
  {
    "postal": "L7C9X7",
    "result": []
  },
  {
    "postal": "L7C4T1",
    "result": []
  },
  {
    "postal": "L7C0M0",
    "result": []
  },
  {
    "postal": "L7C6A2",
    "result": []
  },
  {
    "postal": "L7C9S8",
    "result": []
  },
  {
    "postal": "L7C9T4",
    "result": []
  },
  {
    "postal": "L7C9Y4",
    "result": []
  },
  {
    "postal": "L7C6G5",
    "result": []
  },
  {
    "postal": "L7C6H9",
    "result": []
  },
  {
    "postal": "L7C2P3",
    "result": [
      {
        "electoralDistricts": [
          {
            "election": null,
            "id": 23,
            "name": "Dufferin—Caledon"
          }
        ],
        "pollDivisionIds": [
          10137807
        ],
        "postalCode": "L7C2P3",
        "streetName": "BRAMALEA",
        "streetDirectionId": null,
        "streetTypeId": "RD",
        "placeName": "CALEDON EAST",
        "streetNameDisplayText": "BRAMALEA RD, CALEDON EAST"
      }
    ]
  },
  {
    "postal": "L7C1T6",
    "result": [
      {
        "electoralDistricts": [
          {
            "election": null,
            "id": 23,
            "name": "Dufferin—Caledon"
          }
        ],
        "pollDivisionIds": [
          10137806
        ],
        "postalCode": "L7C1T6",
        "streetName": "HERITAGE",
        "streetDirectionId": null,
        "streetTypeId": "RD",
        "placeName": "TERRA COTTA",
        "streetNameDisplayText": "HERITAGE RD, TERRA COTTA"
      }
    ]
  },
  {
    "postal": "L7C4P6",
    "result": []
  },
  {
    "postal": "L7C3K1",
    "result": [
      {
        "electoralDistricts": [
          {
            "election": null,
            "id": 23,
            "name": "Dufferin—Caledon"
          }
        ],
        "pollDivisionIds": [
          10137806
        ],
        "postalCode": "L7C3K1",
        "streetName": "STROLLERS",
        "streetDirectionId": null,
        "streetTypeId": "LANE",
        "placeName": "CHELTENHAM",
        "streetNameDisplayText": "STROLLERS LANE, CHELTENHAM"
      }
    ]
  },
  {
    "postal": "L7C6X4",
    "result": []
  },
  {
    "postal": "L7C4M8",
    "result": []
  },
  {
    "postal": "L7C2Y1",
    "result": [
      {
        "electoralDistricts": [
          {
            "election": null,
            "id": 23,
            "name": "Dufferin—Caledon"
          }
        ],
        "pollDivisionIds": [
          10143845
        ],
        "postalCode": "L7C2Y1",
        "streetName": "AIRPORT",
        "streetDirectionId": null,
        "streetTypeId": "RD",
        "placeName": "CALEDON EAST",
        "streetNameDisplayText": "AIRPORT RD, CALEDON EAST"
      }
    ]
  },
  {
    "postal": "L7C6M1",
    "result": []
  },
  {
    "postal": "L7C5L8",
    "result": []
  },
  {
    "postal": "L7C3P6",
    "result": [
      {
        "electoralDistricts": [
          {
            "election": null,
            "id": 23,
            "name": "Dufferin—Caledon"
          }
        ],
        "pollDivisionIds": [
          10137807
        ],
        "postalCode": "L7C3P6",
        "streetName": "ALNWICK",
        "streetDirectionId": null,
        "streetTypeId": "AVE",
        "placeName": "CALEDON",
        "streetNameDisplayText": "ALNWICK AVE, CALEDON"
      },
      {
        "electoralDistricts": [
          {
            "election": null,
            "id": 23,
            "name": "Dufferin—Caledon"
          }
        ],
        "pollDivisionIds": [
          10137807
        ],
        "postalCode": "L7C3P6",
        "streetName": "BIRCHFIELD",
        "streetDirectionId": null,
        "streetTypeId": "CRES",
        "placeName": "CALEDON",
        "streetNameDisplayText": "BIRCHFIELD CRES, CALEDON"
      },
      {
        "electoralDistricts": [
          {
            "election": null,
            "id": 23,
            "name": "Dufferin—Caledon"
          }
        ],
        "pollDivisionIds": [
          10137807
        ],
        "postalCode": "L7C3P6",
        "streetName": "KENNEDY",
        "streetDirectionId": null,
        "streetTypeId": "RD",
        "placeName": "CALEDON",
        "streetNameDisplayText": "KENNEDY RD, CALEDON"
      },
      {
        "electoralDistricts": [
          {
            "election": null,
            "id": 23,
            "name": "Dufferin—Caledon"
          }
        ],
        "pollDivisionIds": [
          10137807
        ],
        "postalCode": "L7C3P6",
        "streetName": "WATERVILLE",
        "streetDirectionId": null,
        "streetTypeId": "WAY",
        "placeName": "CALEDON",
        "streetNameDisplayText": "WATERVILLE WAY, CALEDON"
      }
    ]
  },
  {
    "postal": "L7C9A5",
    "result": []
  },
  {
    "postal": "L7C7K1",
    "result": []
  },
  {
    "postal": "L7C3J4",
    "result": [
      {
        "electoralDistricts": [
          {
            "election": null,
            "id": 23,
            "name": "Dufferin—Caledon"
          }
        ],
        "pollDivisionIds": [
          10137806
        ],
        "postalCode": "L7C3J4",
        "streetName": "CREDIT",
        "streetDirectionId": null,
        "streetTypeId": "RD",
        "placeName": "CHELTENHAM",
        "streetNameDisplayText": "CREDIT RD, CHELTENHAM"
      }
    ]
  },
  {
    "postal": "L7C5E7",
    "result": []
  },
  {
    "postal": "L7C3A7",
    "result": [
      {
        "electoralDistricts": [
          {
            "election": null,
            "id": 23,
            "name": "Dufferin—Caledon"
          }
        ],
        "pollDivisionIds": [
          10137809
        ],
        "postalCode": "L7C3A7",
        "streetName": "CENTREVILLE CREEK",
        "streetDirectionId": null,
        "streetTypeId": "RD",
        "placeName": "BOLTON",
        "streetNameDisplayText": "CENTREVILLE CREEK RD, BOLTON"
      }
    ]
  },
  {
    "postal": "L7C1B9",
    "result": [
      {
        "electoralDistricts": [
          {
            "election": null,
            "id": 23,
            "name": "Dufferin—Caledon"
          }
        ],
        "pollDivisionIds": [
          10137808
        ],
        "postalCode": "L7C1B9",
        "streetName": "KIRKWOOD",
        "streetDirectionId": null,
        "streetTypeId": "CRES",
        "placeName": "CALEDON",
        "streetNameDisplayText": "KIRKWOOD CRES, CALEDON"
      }
    ]
  },
  {
    "postal": "L7C9E8",
    "result": []
  },
  {
    "postal": "L7C1C9",
    "result": [
      {
        "electoralDistricts": [
          {
            "election": null,
            "id": 23,
            "name": "Dufferin—Caledon"
          }
        ],
        "pollDivisionIds": [
          10137808
        ],
        "postalCode": "L7C1C9",
        "streetName": "BROOKSTONE",
        "streetDirectionId": null,
        "streetTypeId": "CRT",
        "placeName": "CALEDON",
        "streetNameDisplayText": "BROOKSTONE CRT, CALEDON"
      },
      {
        "electoralDistricts": [
          {
            "election": null,
            "id": 23,
            "name": "Dufferin—Caledon"
          }
        ],
        "pollDivisionIds": [
          10137808
        ],
        "postalCode": "L7C1C9",
        "streetName": "ROYAL VALLEY",
        "streetDirectionId": null,
        "streetTypeId": "DR",
        "placeName": "CALEDON",
        "streetNameDisplayText": "ROYAL VALLEY DR, CALEDON"
      }
    ]
  },
  {
    "postal": "L7C3B5",
    "result": [
      {
        "electoralDistricts": [
          {
            "election": null,
            "id": 23,
            "name": "Dufferin—Caledon"
          }
        ],
        "pollDivisionIds": [
          10143845
        ],
        "postalCode": "L7C3B5",
        "streetName": "CENTREVILLE CREEK",
        "streetDirectionId": null,
        "streetTypeId": "RD",
        "placeName": "CALEDON EAST",
        "streetNameDisplayText": "CENTREVILLE CREEK RD, CALEDON EAST"
      }
    ]
  },
  {
    "postal": "L7C8R0",
    "result": []
  },
  {
    "postal": "L7C3P2",
    "result": [
      {
        "electoralDistricts": [
          {
            "election": null,
            "id": 23,
            "name": "Dufferin—Caledon"
          }
        ],
        "pollDivisionIds": [
          10137807
        ],
        "postalCode": "L7C3P2",
        "streetName": "LARSON PEAK",
        "streetDirectionId": null,
        "streetTypeId": "RD",
        "placeName": "CALEDON",
        "streetNameDisplayText": "LARSON PEAK RD, CALEDON"
      },
      {
        "electoralDistricts": [
          {
            "election": null,
            "id": 23,
            "name": "Dufferin—Caledon"
          }
        ],
        "pollDivisionIds": [
          10137807
        ],
        "postalCode": "L7C3P2",
        "streetName": "WATERVILLE",
        "streetDirectionId": null,
        "streetTypeId": "WAY",
        "placeName": "CALEDON",
        "streetNameDisplayText": "WATERVILLE WAY, CALEDON"
      }
    ]
  },
  {
    "postal": "L7C5V4",
    "result": []
  },
  {
    "postal": "L7C4H0",
    "result": []
  },
  {
    "postal": "L7C4S7",
    "result": []
  },
  {
    "postal": "L7C6C2",
    "result": []
  },
  {
    "postal": "L7C8W3",
    "result": []
  },
  {
    "postal": "L7C4M5",
    "result": []
  },
  {
    "postal": "L7C5T1",
    "result": []
  },
  {
    "postal": "L7C3B3",
    "result": [
      {
        "electoralDistricts": [
          {
            "election": null,
            "id": 23,
            "name": "Dufferin—Caledon"
          }
        ],
        "pollDivisionIds": [
          10143845
        ],
        "postalCode": "L7C3B3",
        "streetName": "CENTREVILLE CREEK",
        "streetDirectionId": null,
        "streetTypeId": "RD",
        "placeName": "CALEDON EAST",
        "streetNameDisplayText": "CENTREVILLE CREEK RD, CALEDON EAST"
      }
    ]
  },
  {
    "postal": "L7C6C6",
    "result": []
  },
  {
    "postal": "L7C7N8",
    "result": []
  },
  {
    "postal": "L7C2Y3",
    "result": [
      {
        "electoralDistricts": [
          {
            "election": null,
            "id": 23,
            "name": "Dufferin—Caledon"
          }
        ],
        "pollDivisionIds": [
          10137809
        ],
        "postalCode": "L7C2Y3",
        "streetName": "INNIS LAKE",
        "streetDirectionId": null,
        "streetTypeId": "RD",
        "placeName": "CALEDON EAST",
        "streetNameDisplayText": "INNIS LAKE RD, CALEDON EAST"
      }
    ]
  },
  {
    "postal": "L7C2R6",
    "result": [
      {
        "electoralDistricts": [
          {
            "election": null,
            "id": 23,
            "name": "Dufferin—Caledon"
          }
        ],
        "pollDivisionIds": [
          10137807
        ],
        "postalCode": "L7C2R6",
        "streetName": "BRAMALEA",
        "streetDirectionId": null,
        "streetTypeId": "RD",
        "placeName": "CALEDON EAST",
        "streetNameDisplayText": "BRAMALEA RD, CALEDON EAST"
      }
    ]
  },
  {
    "postal": "L7C7N3",
    "result": []
  },
  {
    "postal": "L7C8J2",
    "result": []
  },
  {
    "postal": "L7C6A9",
    "result": []
  },
  {
    "postal": "L7C3V2",
    "result": [
      {
        "electoralDistricts": [
          {
            "election": null,
            "id": 23,
            "name": "Dufferin—Caledon"
          }
        ],
        "pollDivisionIds": [
          10137807
        ],
        "postalCode": "L7C3V2",
        "streetName": "HELDERMAN",
        "streetDirectionId": null,
        "streetTypeId": "ST",
        "placeName": "CALEDON",
        "streetNameDisplayText": "HELDERMAN ST, CALEDON"
      },
      {
        "electoralDistricts": [
          {
            "election": null,
            "id": 23,
            "name": "Dufferin—Caledon"
          }
        ],
        "pollDivisionIds": [
          10137807
        ],
        "postalCode": "L7C3V2",
        "streetName": "HELDERMAN ST.",
        "streetDirectionId": null,
        "streetTypeId": "ST",
        "placeName": "CALEDON",
        "streetNameDisplayText": "HELDERMAN ST. ST, CALEDON"
      },
      {
        "electoralDistricts": [
          {
            "election": null,
            "id": 23,
            "name": "Dufferin—Caledon"
          }
        ],
        "pollDivisionIds": [
          10137807
        ],
        "postalCode": "L7C3V2",
        "streetName": "LEARMONT",
        "streetDirectionId": null,
        "streetTypeId": "AVE",
        "placeName": "CALEDON",
        "streetNameDisplayText": "LEARMONT AVE, CALEDON"
      },
      {
        "electoralDistricts": [
          {
            "election": null,
            "id": 23,
            "name": "Dufferin—Caledon"
          }
        ],
        "pollDivisionIds": [
          10137807
        ],
        "postalCode": "L7C3V2",
        "streetName": "MAPLE CIDER",
        "streetDirectionId": null,
        "streetTypeId": "ST",
        "placeName": "CALEDON",
        "streetNameDisplayText": "MAPLE CIDER ST, CALEDON"
      }
    ]
  },
  {
    "postal": "L7C2N3",
    "result": [
      {
        "electoralDistricts": [
          {
            "election": null,
            "id": 23,
            "name": "Dufferin—Caledon"
          }
        ],
        "pollDivisionIds": [
          10137801
        ],
        "postalCode": "L7C2N3",
        "streetName": "HORSESHOE HILL",
        "streetDirectionId": null,
        "streetTypeId": "RD",
        "placeName": "CALEDON VILLAGE",
        "streetNameDisplayText": "HORSESHOE HILL RD, CALEDON VILLAGE"
      }
    ]
  },
  {
    "postal": "L7C1S5",
    "result": [
      {
        "electoralDistricts": [
          {
            "election": null,
            "id": 23,
            "name": "Dufferin—Caledon"
          }
        ],
        "pollDivisionIds": [
          10137806
        ],
        "postalCode": "L7C1S5",
        "streetName": "WINSTON CHURCHILL",
        "streetDirectionId": null,
        "streetTypeId": "BLVD",
        "placeName": "TERRA COTTA",
        "streetNameDisplayText": "WINSTON CHURCHILL BLVD, TERRA COTTA"
      }
    ]
  },
  {
    "postal": "L7C4T7",
    "result": []
  },
  {
    "postal": "L7C6Y7",
    "result": []
  },
  {
    "postal": "L7C0W7",
    "result": [
      {
        "electoralDistricts": [
          {
            "election": null,
            "id": 23,
            "name": "Dufferin—Caledon"
          }
        ],
        "pollDivisionIds": [
          10137809
        ],
        "postalCode": "L7C0W7",
        "streetName": "HEALEY",
        "streetDirectionId": null,
        "streetTypeId": "RD",
        "placeName": "CALEDON EAST",
        "streetNameDisplayText": "HEALEY RD, CALEDON EAST"
      }
    ]
  },
  {
    "postal": "L7C2W9",
    "result": [
      {
        "electoralDistricts": [
          {
            "election": null,
            "id": 23,
            "name": "Dufferin—Caledon"
          }
        ],
        "pollDivisionIds": [
          10137801,
          10143845
        ],
        "postalCode": "L7C2W9",
        "streetName": "AIRPORT",
        "streetDirectionId": null,
        "streetTypeId": "RD",
        "placeName": "CALEDON EAST",
        "streetNameDisplayText": "AIRPORT RD, CALEDON EAST"
      }
    ]
  },
  {
    "postal": "L7C8V0",
    "result": []
  },
  {
    "postal": "L7C0H4",
    "result": [
      {
        "electoralDistricts": [
          {
            "election": null,
            "id": 23,
            "name": "Dufferin—Caledon"
          }
        ],
        "pollDivisionIds": [
          10143845
        ],
        "postalCode": "L7C0H4",
        "streetName": "OLD CHURCH",
        "streetDirectionId": null,
        "streetTypeId": "RD",
        "placeName": "CALEDON EAST",
        "streetNameDisplayText": "OLD CHURCH RD, CALEDON EAST"
      }
    ]
  },
  {
    "postal": "L7C2T1",
    "result": [
      {
        "electoralDistricts": [
          {
            "election": null,
            "id": 23,
            "name": "Dufferin—Caledon"
          }
        ],
        "pollDivisionIds": [
          10137807
        ],
        "postalCode": "L7C2T1",
        "streetName": "TORBRAM",
        "streetDirectionId": null,
        "streetTypeId": "RD",
        "placeName": "CALEDON",
        "streetNameDisplayText": "TORBRAM RD, CALEDON"
      },
      {
        "electoralDistricts": [
          {
            "election": null,
            "id": 23,
            "name": "Dufferin—Caledon"
          }
        ],
        "pollDivisionIds": [
          10137807
        ],
        "postalCode": "L7C2T1",
        "streetName": "TORBRAM",
        "streetDirectionId": null,
        "streetTypeId": "RD",
        "placeName": "CALEDON EAST",
        "streetNameDisplayText": "TORBRAM RD, CALEDON EAST"
      }
    ]
  },
  {
    "postal": "L7C1B1",
    "result": [
      {
        "electoralDistricts": [
          {
            "election": null,
            "id": 23,
            "name": "Dufferin—Caledon"
          }
        ],
        "pollDivisionIds": [
          10137808
        ],
        "postalCode": "L7C1B1",
        "streetName": "GARDENIA",
        "streetDirectionId": null,
        "streetTypeId": "WAY",
        "placeName": "CALEDON",
        "streetNameDisplayText": "GARDENIA WAY, CALEDON"
      },
      {
        "electoralDistricts": [
          {
            "election": null,
            "id": 23,
            "name": "Dufferin—Caledon"
          }
        ],
        "pollDivisionIds": [
          10137808,
          10137807
        ],
        "postalCode": "L7C1B1",
        "streetName": "HUTTON",
        "streetDirectionId": null,
        "streetTypeId": "CRES",
        "placeName": "CALEDON",
        "streetNameDisplayText": "HUTTON CRES, CALEDON"
      }
    ]
  },
  {
    "postal": "L7C8B6",
    "result": []
  },
  {
    "postal": "L7C6H1",
    "result": []
  },
  {
    "postal": "L7C8T8",
    "result": []
  },
  {
    "postal": "L7C0T4",
    "result": [
      {
        "electoralDistricts": [
          {
            "election": null,
            "id": 23,
            "name": "Dufferin—Caledon"
          }
        ],
        "pollDivisionIds": [
          10137807
        ],
        "postalCode": "L7C0T4",
        "streetName": "ANDREW",
        "streetDirectionId": null,
        "streetTypeId": "ST",
        "placeName": "INGLEWOOD",
        "streetNameDisplayText": "ANDREW ST, INGLEWOOD"
      }
    ]
  },
  {
    "postal": "L7C2C4",
    "result": [
      {
        "electoralDistricts": [
          {
            "election": null,
            "id": 23,
            "name": "Dufferin—Caledon"
          }
        ],
        "pollDivisionIds": [
          10137801
        ],
        "postalCode": "L7C2C4",
        "streetName": "ESCARPMENT",
        "streetDirectionId": null,
        "streetTypeId": "SIDERD",
        "placeName": "CALEDON VILLAGE",
        "streetNameDisplayText": "ESCARPMENT SIDERD, CALEDON VILLAGE"
      },
      {
        "electoralDistricts": [
          {
            "election": null,
            "id": 23,
            "name": "Dufferin—Caledon"
          }
        ],
        "pollDivisionIds": [
          10137802
        ],
        "postalCode": "L7C2C4",
        "streetName": "HURONTARIO",
        "streetDirectionId": null,
        "streetTypeId": "ST",
        "placeName": "CALEDON VILLAGE",
        "streetNameDisplayText": "HURONTARIO ST, CALEDON VILLAGE"
      }
    ]
  },
  {
    "postal": "L7C8N3",
    "result": []
  },
  {
    "postal": "L7C4L8",
    "result": []
  },
  {
    "postal": "L7C2B5",
    "result": [
      {
        "electoralDistricts": [
          {
            "election": null,
            "id": 23,
            "name": "Dufferin—Caledon"
          }
        ],
        "pollDivisionIds": [
          10137807
        ],
        "postalCode": "L7C2B5",
        "streetName": "MCLAUGHLIN",
        "streetDirectionId": null,
        "streetTypeId": "RD",
        "placeName": "CHELTENHAM",
        "streetNameDisplayText": "MCLAUGHLIN RD, CHELTENHAM"
      }
    ]
  },
  {
    "postal": "L7C3H1",
    "result": [
      {
        "electoralDistricts": [
          {
            "election": null,
            "id": 23,
            "name": "Dufferin—Caledon"
          }
        ],
        "pollDivisionIds": [
          10137806
        ],
        "postalCode": "L7C3H1",
        "streetName": "CHINGUACOUSY",
        "streetDirectionId": null,
        "streetTypeId": "RD",
        "placeName": "CALEDON",
        "streetNameDisplayText": "CHINGUACOUSY RD, CALEDON"
      }
    ]
  },
  {
    "postal": "L7C4Y1",
    "result": []
  },
  {
    "postal": "L7C7E2",
    "result": []
  },
  {
    "postal": "L7C2P5",
    "result": [
      {
        "electoralDistricts": [
          {
            "election": null,
            "id": 23,
            "name": "Dufferin—Caledon"
          }
        ],
        "pollDivisionIds": [
          10137807
        ],
        "postalCode": "L7C2P5",
        "streetName": "BRAMALEA",
        "streetDirectionId": null,
        "streetTypeId": "RD",
        "placeName": "CALEDON EAST",
        "streetNameDisplayText": "BRAMALEA RD, CALEDON EAST"
      }
    ]
  },
  {
    "postal": "L7C8R7",
    "result": []
  },
  {
    "postal": "L7C9P1",
    "result": []
  },
  {
    "postal": "L7C3B8",
    "result": [
      {
        "electoralDistricts": [
          {
            "election": null,
            "id": 23,
            "name": "Dufferin—Caledon"
          }
        ],
        "pollDivisionIds": [
          10137809
        ],
        "postalCode": "L7C3B8",
        "streetName": "CENTREVILLE CREEK",
        "streetDirectionId": null,
        "streetTypeId": "RD",
        "placeName": "BOLTON",
        "streetNameDisplayText": "CENTREVILLE CREEK RD, BOLTON"
      }
    ]
  },
  {
    "postal": "L7C3P7",
    "result": [
      {
        "electoralDistricts": [
          {
            "election": null,
            "id": 23,
            "name": "Dufferin—Caledon"
          }
        ],
        "pollDivisionIds": [
          10137807
        ],
        "postalCode": "L7C3P7",
        "streetName": "ALNWICK",
        "streetDirectionId": null,
        "streetTypeId": "AVE",
        "placeName": "CALEDON",
        "streetNameDisplayText": "ALNWICK AVE, CALEDON"
      },
      {
        "electoralDistricts": [
          {
            "election": null,
            "id": 23,
            "name": "Dufferin—Caledon"
          }
        ],
        "pollDivisionIds": [
          10137807
        ],
        "postalCode": "L7C3P7",
        "streetName": "LARSON PEAK",
        "streetDirectionId": null,
        "streetTypeId": "RD",
        "placeName": "CALEDON",
        "streetNameDisplayText": "LARSON PEAK RD, CALEDON"
      },
      {
        "electoralDistricts": [
          {
            "election": null,
            "id": 23,
            "name": "Dufferin—Caledon"
          }
        ],
        "pollDivisionIds": [
          10137807
        ],
        "postalCode": "L7C3P7",
        "streetName": "OLD KENNEDY",
        "streetDirectionId": null,
        "streetTypeId": "RD",
        "placeName": "CALEDON",
        "streetNameDisplayText": "OLD KENNEDY RD, CALEDON"
      },
      {
        "electoralDistricts": [
          {
            "election": null,
            "id": 23,
            "name": "Dufferin—Caledon"
          }
        ],
        "pollDivisionIds": [
          10137807
        ],
        "postalCode": "L7C3P7",
        "streetName": "STELLAR",
        "streetDirectionId": null,
        "streetTypeId": "AVE",
        "placeName": "CALEDON",
        "streetNameDisplayText": "STELLAR AVE, CALEDON"
      }
    ]
  },
  {
    "postal": "L7C9B2",
    "result": []
  },
  {
    "postal": "L7C6Z3",
    "result": []
  },
  {
    "postal": "L7C4N5",
    "result": []
  },
  {
    "postal": "L7C8T3",
    "result": []
  },
  {
    "postal": "L7C1V2",
    "result": [
      {
        "electoralDistricts": [
          {
            "election": null,
            "id": 23,
            "name": "Dufferin—Caledon"
          }
        ],
        "pollDivisionIds": [
          10137806
        ],
        "postalCode": "L7C1V2",
        "streetName": "HERITAGE",
        "streetDirectionId": null,
        "streetTypeId": "RD",
        "placeName": "TERRA COTTA",
        "streetNameDisplayText": "HERITAGE RD, TERRA COTTA"
      }
    ]
  },
  {
    "postal": "L7C1Y0",
    "result": []
  },
  {
    "postal": "L7C3G6",
    "result": [
      {
        "electoralDistricts": [
          {
            "election": null,
            "id": 23,
            "name": "Dufferin—Caledon"
          }
        ],
        "pollDivisionIds": [
          10137806
        ],
        "postalCode": "L7C3G6",
        "streetName": "CREDITVIEW",
        "streetDirectionId": null,
        "streetTypeId": "RD",
        "placeName": "CHELTENHAM",
        "streetNameDisplayText": "CREDITVIEW RD, CHELTENHAM"
      }
    ]
  },
  {
    "postal": "L7C3H7",
    "result": [
      {
        "electoralDistricts": [
          {
            "election": null,
            "id": 23,
            "name": "Dufferin—Caledon"
          }
        ],
        "pollDivisionIds": [
          10137807
        ],
        "postalCode": "L7C3H7",
        "streetName": "CHINGUACOUSY",
        "streetDirectionId": null,
        "streetTypeId": "RD",
        "placeName": "CHELTENHAM",
        "streetNameDisplayText": "CHINGUACOUSY RD, CHELTENHAM"
      }
    ]
  },
  {
    "postal": "L7C7X8",
    "result": []
  },
  {
    "postal": "L7C0C7",
    "result": [
      {
        "electoralDistricts": [
          {
            "election": null,
            "id": 23,
            "name": "Dufferin—Caledon"
          }
        ],
        "pollDivisionIds": [
          10137801
        ],
        "postalCode": "L7C0C7",
        "streetName": "THE GRANGE SIDERD",
        "streetDirectionId": null,
        "streetTypeId": "SIDERD",
        "placeName": "CALEDON VILLAGE",
        "streetNameDisplayText": "THE GRANGE SIDERD SIDERD, CALEDON VILLAGE"
      },
      {
        "electoralDistricts": [
          {
            "election": null,
            "id": 23,
            "name": "Dufferin—Caledon"
          }
        ],
        "pollDivisionIds": [
          10137801
        ],
        "postalCode": "L7C0C7",
        "streetName": "THE GRANGE",
        "streetDirectionId": null,
        "streetTypeId": "SIDERD",
        "placeName": "CALEDON VILLAGE",
        "streetNameDisplayText": "THE GRANGE SIDERD, CALEDON VILLAGE"
      }
    ]
  },
  {
    "postal": "L7C0W9",
    "result": [
      {
        "electoralDistricts": [
          {
            "election": null,
            "id": 23,
            "name": "Dufferin—Caledon"
          }
        ],
        "pollDivisionIds": [
          10137809
        ],
        "postalCode": "L7C0W9",
        "streetName": "HEALEY",
        "streetDirectionId": null,
        "streetTypeId": "RD",
        "placeName": "CALEDON",
        "streetNameDisplayText": "HEALEY RD, CALEDON"
      }
    ]
  },
  {
    "postal": "L7C8E6",
    "result": []
  },
  {
    "postal": "L7C9Z8",
    "result": []
  },
  {
    "postal": "L7C3P4",
    "result": [
      {
        "electoralDistricts": [
          {
            "election": null,
            "id": 23,
            "name": "Dufferin—Caledon"
          }
        ],
        "pollDivisionIds": [
          10137807
        ],
        "postalCode": "L7C3P4",
        "streetName": "KENNEDY",
        "streetDirectionId": null,
        "streetTypeId": "RD",
        "placeName": "CALEDON",
        "streetNameDisplayText": "KENNEDY RD, CALEDON"
      },
      {
        "electoralDistricts": [
          {
            "election": null,
            "id": 23,
            "name": "Dufferin—Caledon"
          }
        ],
        "pollDivisionIds": [
          10137807
        ],
        "postalCode": "L7C3P4",
        "streetName": "TOKARA",
        "streetDirectionId": null,
        "streetTypeId": "AVE",
        "placeName": "CALEDON",
        "streetNameDisplayText": "TOKARA AVE, CALEDON"
      },
      {
        "electoralDistricts": [
          {
            "election": null,
            "id": 23,
            "name": "Dufferin—Caledon"
          }
        ],
        "pollDivisionIds": [
          10137807
        ],
        "postalCode": "L7C3P4",
        "streetName": "WATERVILLE",
        "streetDirectionId": null,
        "streetTypeId": "WAY",
        "placeName": "CALEDON",
        "streetNameDisplayText": "WATERVILLE WAY, CALEDON"
      }
    ]
  },
  {
    "postal": "L7C6L8",
    "result": []
  },
  {
    "postal": "L7C2R4",
    "result": [
      {
        "electoralDistricts": [
          {
            "election": null,
            "id": 23,
            "name": "Dufferin—Caledon"
          }
        ],
        "pollDivisionIds": [
          10137807
        ],
        "postalCode": "L7C2R4",
        "streetName": "BRAMALEA",
        "streetDirectionId": null,
        "streetTypeId": "RD",
        "placeName": "CALEDON EAST",
        "streetNameDisplayText": "BRAMALEA RD, CALEDON EAST"
      }
    ]
  },
  {
    "postal": "L7C2W1",
    "result": [
      {
        "electoralDistricts": [
          {
            "election": null,
            "id": 23,
            "name": "Dufferin—Caledon"
          }
        ],
        "pollDivisionIds": [
          10137807
        ],
        "postalCode": "L7C2W1",
        "streetName": "AIRPORT",
        "streetDirectionId": null,
        "streetTypeId": "RD",
        "placeName": "CALEDON",
        "streetNameDisplayText": "AIRPORT RD, CALEDON"
      }
    ]
  },
  {
    "postal": "L7C9H8",
    "result": []
  },
  {
    "postal": "L7C8X9",
    "result": []
  },
  {
    "postal": "L7C7H4",
    "result": []
  },
  {
    "postal": "L7C3J1",
    "result": [
      {
        "electoralDistricts": [
          {
            "election": null,
            "id": 23,
            "name": "Dufferin—Caledon"
          }
        ],
        "pollDivisionIds": [
          10137806
        ],
        "postalCode": "L7C3J1",
        "streetName": "CREDIT",
        "streetDirectionId": null,
        "streetTypeId": "RD",
        "placeName": "CHELTENHAM",
        "streetNameDisplayText": "CREDIT RD, CHELTENHAM"
      }
    ]
  },
  {
    "postal": "L7C1P4",
    "result": [
      {
        "electoralDistricts": [
          {
            "election": null,
            "id": 23,
            "name": "Dufferin—Caledon"
          }
        ],
        "pollDivisionIds": [
          10137802
        ],
        "postalCode": "L7C1P4",
        "streetName": "INGLEVIEW",
        "streetDirectionId": null,
        "streetTypeId": "DR",
        "placeName": "INGLEWOOD",
        "streetNameDisplayText": "INGLEVIEW DR, INGLEWOOD"
      }
    ]
  },
  {
    "postal": "L7C2A3",
    "result": [
      {
        "electoralDistricts": [
          {
            "election": null,
            "id": 23,
            "name": "Dufferin—Caledon"
          }
        ],
        "pollDivisionIds": [
          10137807
        ],
        "postalCode": "L7C2A3",
        "streetName": "MCLAUGHLIN",
        "streetDirectionId": null,
        "streetTypeId": "RD",
        "placeName": "CHELTENHAM",
        "streetNameDisplayText": "MCLAUGHLIN RD, CHELTENHAM"
      }
    ]
  },
  {
    "postal": "L7C0Z1",
    "result": []
  },
  {
    "postal": "L7C1C1",
    "result": [
      {
        "electoralDistricts": [
          {
            "election": null,
            "id": 23,
            "name": "Dufferin—Caledon"
          }
        ],
        "pollDivisionIds": [
          10137808
        ],
        "postalCode": "L7C1C1",
        "streetName": "CLIFFCREST",
        "streetDirectionId": null,
        "streetTypeId": "CRT",
        "placeName": "CALEDON",
        "streetNameDisplayText": "CLIFFCREST CRT, CALEDON"
      },
      {
        "electoralDistricts": [
          {
            "election": null,
            "id": 23,
            "name": "Dufferin—Caledon"
          }
        ],
        "pollDivisionIds": [
          10137808
        ],
        "postalCode": "L7C1C1",
        "streetName": "KIRKWOOD",
        "streetDirectionId": null,
        "streetTypeId": "CRES",
        "placeName": "CALEDON",
        "streetNameDisplayText": "KIRKWOOD CRES, CALEDON"
      }
    ]
  },
  {
    "postal": "L7C0H3",
    "result": [
      {
        "electoralDistricts": [
          {
            "election": null,
            "id": 23,
            "name": "Dufferin—Caledon"
          }
        ],
        "pollDivisionIds": [
          10143845
        ],
        "postalCode": "L7C0H3",
        "streetName": "OLD CHURCH",
        "streetDirectionId": null,
        "streetTypeId": "RD",
        "placeName": "CALEDON EAST",
        "streetNameDisplayText": "OLD CHURCH RD, CALEDON EAST"
      }
    ]
  },
  {
    "postal": "L7C7B0",
    "result": []
  },
  {
    "postal": "L7C5K2",
    "result": []
  },
  {
    "postal": "L7C1E9",
    "result": [
      {
        "electoralDistricts": [
          {
            "election": null,
            "id": 23,
            "name": "Dufferin—Caledon"
          }
        ],
        "pollDivisionIds": [
          10143845,
          10137807
        ],
        "postalCode": "L7C1E9",
        "streetName": "GREER",
        "streetDirectionId": null,
        "streetTypeId": "ST",
        "placeName": "CALEDON EAST",
        "streetNameDisplayText": "GREER ST, CALEDON EAST"
      },
      {
        "electoralDistricts": [
          {
            "election": null,
            "id": 23,
            "name": "Dufferin—Caledon"
          }
        ],
        "pollDivisionIds": [
          10143845
        ],
        "postalCode": "L7C1E9",
        "streetName": "OLD CHURCH",
        "streetDirectionId": null,
        "streetTypeId": "RD",
        "placeName": "CALEDON EAST",
        "streetNameDisplayText": "OLD CHURCH RD, CALEDON EAST"
      }
    ]
  },
  {
    "postal": "L7C9W7",
    "result": []
  },
  {
    "postal": "L7C5W6",
    "result": []
  },
  {
    "postal": "L7C6S6",
    "result": []
  },
  {
    "postal": "L7C2P8",
    "result": [
      {
        "electoralDistricts": [
          {
            "election": null,
            "id": 23,
            "name": "Dufferin—Caledon"
          }
        ],
        "pollDivisionIds": [
          10137807
        ],
        "postalCode": "L7C2P8",
        "streetName": "BRAMALEA",
        "streetDirectionId": null,
        "streetTypeId": "RD",
        "placeName": "CALEDON EAST",
        "streetNameDisplayText": "BRAMALEA RD, CALEDON EAST"
      }
    ]
  },
  {
    "postal": "L7C4P8",
    "result": []
  },
  {
    "postal": "L7C0V9",
    "result": [
      {
        "electoralDistricts": [
          {
            "election": null,
            "id": 23,
            "name": "Dufferin—Caledon"
          }
        ],
        "pollDivisionIds": [
          10137807
        ],
        "postalCode": "L7C0V9",
        "streetName": "OLD SCHOOL",
        "streetDirectionId": null,
        "streetTypeId": "RD",
        "placeName": "CALEDON",
        "streetNameDisplayText": "OLD SCHOOL RD, CALEDON"
      }
    ]
  },
  {
    "postal": "L7C5Y2",
    "result": []
  },
  {
    "postal": "L7C7Z7",
    "result": []
  },
  {
    "postal": "L7C6Y8",
    "result": []
  },
  {
    "postal": "L7C2G7",
    "result": [
      {
        "electoralDistricts": [
          {
            "election": null,
            "id": 23,
            "name": "Dufferin—Caledon"
          }
        ],
        "pollDivisionIds": [
          10137801
        ],
        "postalCode": "L7C2G7",
        "streetName": "KENNEDY",
        "streetDirectionId": null,
        "streetTypeId": "RD",
        "placeName": "CALEDON",
        "streetNameDisplayText": "KENNEDY RD, CALEDON"
      },
      {
        "electoralDistricts": [
          {
            "election": null,
            "id": 23,
            "name": "Dufferin—Caledon"
          }
        ],
        "pollDivisionIds": [
          10137801
        ],
        "postalCode": "L7C2G7",
        "streetName": "KENNEDY",
        "streetDirectionId": null,
        "streetTypeId": "RD",
        "placeName": "CALEDON VILLAGE",
        "streetNameDisplayText": "KENNEDY RD, CALEDON VILLAGE"
      }
    ]
  },
  {
    "postal": "L7C8C1",
    "result": []
  },
  {
    "postal": "L7C5C5",
    "result": []
  },
  {
    "postal": "L7C2X8",
    "result": [
      {
        "electoralDistricts": [
          {
            "election": null,
            "id": 23,
            "name": "Dufferin—Caledon"
          }
        ],
        "pollDivisionIds": [
          10137809
        ],
        "postalCode": "L7C2X8",
        "streetName": "AIRPORT",
        "streetDirectionId": null,
        "streetTypeId": "RD",
        "placeName": "CALEDON EAST",
        "streetNameDisplayText": "AIRPORT RD, CALEDON EAST"
      }
    ]
  },
  {
    "postal": "L7C1W5",
    "result": [
      {
        "electoralDistricts": [
          {
            "election": null,
            "id": 23,
            "name": "Dufferin—Caledon"
          }
        ],
        "pollDivisionIds": [
          10137806
        ],
        "postalCode": "L7C1W5",
        "streetName": "MISSISSAUGA",
        "streetDirectionId": null,
        "streetTypeId": "RD",
        "placeName": "CHELTENHAM",
        "streetNameDisplayText": "MISSISSAUGA RD, CHELTENHAM"
      }
    ]
  },
  {
    "postal": "L7C7G0",
    "result": []
  },
  {
    "postal": "L7C8J8",
    "result": []
  },
  {
    "postal": "L7C3Y0",
    "result": []
  },
  {
    "postal": "L7C9T7",
    "result": []
  },
  {
    "postal": "L7C5P4",
    "result": []
  },
  {
    "postal": "L7C4B0",
    "result": []
  },
  {
    "postal": "L7C9N8",
    "result": []
  },
  {
    "postal": "L7C4A7",
    "result": [
      {
        "electoralDistricts": [
          {
            "election": null,
            "id": 23,
            "name": "Dufferin—Caledon"
          }
        ],
        "pollDivisionIds": [
          10137808
        ],
        "postalCode": "L7C4A7",
        "streetName": "MCPHERSON",
        "streetDirectionId": null,
        "streetTypeId": "RD",
        "placeName": "CALEDON",
        "streetNameDisplayText": "MCPHERSON RD, CALEDON"
      }
    ]
  },
  {
    "postal": "L7C4H9",
    "result": []
  },
  {
    "postal": "L7C6X1",
    "result": []
  },
  {
    "postal": "L7C9Y7",
    "result": []
  },
  {
    "postal": "L7C2Y5",
    "result": [
      {
        "electoralDistricts": [
          {
            "election": null,
            "id": 23,
            "name": "Dufferin—Caledon"
          }
        ],
        "pollDivisionIds": [
          10137809
        ],
        "postalCode": "L7C2Y5",
        "streetName": "INNIS LAKE",
        "streetDirectionId": null,
        "streetTypeId": "RD",
        "placeName": "CALEDON EAST",
        "streetNameDisplayText": "INNIS LAKE RD, CALEDON EAST"
      }
    ]
  },
  {
    "postal": "L7C8L7",
    "result": []
  },
  {
    "postal": "L7C2A8",
    "result": [
      {
        "electoralDistricts": [
          {
            "election": null,
            "id": 23,
            "name": "Dufferin—Caledon"
          }
        ],
        "pollDivisionIds": [
          10137806
        ],
        "postalCode": "L7C2A8",
        "streetName": "MCLAUGHLIN",
        "streetDirectionId": null,
        "streetTypeId": "RD",
        "placeName": "CHELTENHAM",
        "streetNameDisplayText": "MCLAUGHLIN RD, CHELTENHAM"
      }
    ]
  },
  {
    "postal": "L7C2K9",
    "result": [
      {
        "electoralDistricts": [
          {
            "election": null,
            "id": 23,
            "name": "Dufferin—Caledon"
          }
        ],
        "pollDivisionIds": [
          10137807
        ],
        "postalCode": "L7C2K9",
        "streetName": "HEART LAKE",
        "streetDirectionId": null,
        "streetTypeId": "RD",
        "placeName": "INGLEWOOD",
        "streetNameDisplayText": "HEART LAKE RD, INGLEWOOD"
      }
    ]
  },
  {
    "postal": "L7C3E5",
    "result": [
      {
        "electoralDistricts": [
          {
            "election": null,
            "id": 23,
            "name": "Dufferin—Caledon"
          }
        ],
        "pollDivisionIds": [
          10143845
        ],
        "postalCode": "L7C3E5",
        "streetName": "THE GORE",
        "streetDirectionId": null,
        "streetTypeId": "RD",
        "placeName": "CALEDON EAST",
        "streetNameDisplayText": "THE GORE RD, CALEDON EAST"
      }
    ]
  },
  {
    "postal": "L7C8N6",
    "result": []
  },
  {
    "postal": "L7C8J4",
    "result": []
  },
  {
    "postal": "L7C4R7",
    "result": []
  },
  {
    "postal": "L7C9K1",
    "result": []
  },
  {
    "postal": "L7C8E1",
    "result": []
  },
  {
    "postal": "L7C0R1",
    "result": [
      {
        "electoralDistricts": [
          {
            "election": null,
            "id": 23,
            "name": "Dufferin—Caledon"
          }
        ],
        "pollDivisionIds": [
          10137806
        ],
        "postalCode": "L7C0R1",
        "streetName": "KING",
        "streetDirectionId": null,
        "streetTypeId": "ST",
        "placeName": "CHELTENHAM",
        "streetNameDisplayText": "KING ST, CHELTENHAM"
      }
    ]
  },
  {
    "postal": "L7C4J3",
    "result": []
  },
  {
    "postal": "L7C7E7",
    "result": []
  },
  {
    "postal": "L7C0J0",
    "result": []
  },
  {
    "postal": "L7C7R8",
    "result": []
  },
  {
    "postal": "L7C9X0",
    "result": []
  },
  {
    "postal": "L7C7P6",
    "result": []
  },
  {
    "postal": "L7C0R7",
    "result": [
      {
        "electoralDistricts": [
          {
            "election": null,
            "id": 23,
            "name": "Dufferin—Caledon"
          }
        ],
        "pollDivisionIds": [
          10137807
        ],
        "postalCode": "L7C0R7",
        "streetName": "KING",
        "streetDirectionId": null,
        "streetTypeId": "ST",
        "placeName": "CALEDON EAST",
        "streetNameDisplayText": "KING ST, CALEDON EAST"
      }
    ]
  },
  {
    "postal": "L7C5W1",
    "result": []
  },
  {
    "postal": "L7C0K4",
    "result": [
      {
        "electoralDistricts": [
          {
            "election": null,
            "id": 23,
            "name": "Dufferin—Caledon"
          }
        ],
        "pollDivisionIds": [
          10137806
        ],
        "postalCode": "L7C0K4",
        "streetName": "OLDE BASE LINE",
        "streetDirectionId": null,
        "streetTypeId": "RD",
        "placeName": "TERRA COTTA",
        "streetNameDisplayText": "OLDE BASE LINE RD, TERRA COTTA"
      }
    ]
  },
  {
    "postal": "L7C7N9",
    "result": []
  },
  {
    "postal": "L7C1N0",
    "result": []
  },
  {
    "postal": "L7C6P3",
    "result": []
  },
  {
    "postal": "L7C5A1",
    "result": []
  },
  {
    "postal": "L7C9M9",
    "result": []
  },
  {
    "postal": "L7C7T6",
    "result": []
  },
  {
    "postal": "L7C3X0",
    "result": []
  },
  {
    "postal": "L7C2T0",
    "result": []
  },
  {
    "postal": "L7C5X9",
    "result": []
  },
  {
    "postal": "L7C2R3",
    "result": [
      {
        "electoralDistricts": [
          {
            "election": null,
            "id": 23,
            "name": "Dufferin—Caledon"
          }
        ],
        "pollDivisionIds": [
          10137807
        ],
        "postalCode": "L7C2R3",
        "streetName": "BRAMALEA",
        "streetDirectionId": null,
        "streetTypeId": "RD",
        "placeName": "CALEDON EAST",
        "streetNameDisplayText": "BRAMALEA RD, CALEDON EAST"
      }
    ]
  },
  {
    "postal": "L7C5N2",
    "result": []
  },
  {
    "postal": "L7C4Y7",
    "result": []
  },
  {
    "postal": "L7C7M0",
    "result": []
  },
  {
    "postal": "L7C8P3",
    "result": []
  },
  {
    "postal": "L7C3N3",
    "result": [
      {
        "electoralDistricts": [
          {
            "election": null,
            "id": 23,
            "name": "Dufferin—Caledon"
          }
        ],
        "pollDivisionIds": [
          10137807
        ],
        "postalCode": "L7C3N3",
        "streetName": "BENADIR",
        "streetDirectionId": null,
        "streetTypeId": "AVE",
        "placeName": "CALEDON",
        "streetNameDisplayText": "BENADIR AVE, CALEDON"
      },
      {
        "electoralDistricts": [
          {
            "election": null,
            "id": 23,
            "name": "Dufferin—Caledon"
          }
        ],
        "pollDivisionIds": [
          10137807
        ],
        "postalCode": "L7C3N3",
        "streetName": "LEARMONT",
        "streetDirectionId": null,
        "streetTypeId": "AVE",
        "placeName": "CALEDON",
        "streetNameDisplayText": "LEARMONT AVE, CALEDON"
      }
    ]
  },
  {
    "postal": "L7C7S3",
    "result": []
  },
  {
    "postal": "L7C3V9",
    "result": [
      {
        "electoralDistricts": [
          {
            "election": null,
            "id": 23,
            "name": "Dufferin—Caledon"
          }
        ],
        "pollDivisionIds": [
          10137807
        ],
        "postalCode": "L7C3V9",
        "streetName": "KAMORI",
        "streetDirectionId": null,
        "streetTypeId": "RD",
        "placeName": "CALEDON",
        "streetNameDisplayText": "KAMORI RD, CALEDON"
      },
      {
        "electoralDistricts": [
          {
            "election": null,
            "id": 23,
            "name": "Dufferin—Caledon"
          }
        ],
        "pollDivisionIds": [
          10137807
        ],
        "postalCode": "L7C3V9",
        "streetName": "TWISTLETON",
        "streetDirectionId": null,
        "streetTypeId": "ST",
        "placeName": "CALEDON",
        "streetNameDisplayText": "TWISTLETON ST, CALEDON"
      },
      {
        "electoralDistricts": [
          {
            "election": null,
            "id": 23,
            "name": "Dufferin—Caledon"
          }
        ],
        "pollDivisionIds": [
          10137807
        ],
        "postalCode": "L7C3V9",
        "streetName": "ZEPHYR",
        "streetDirectionId": null,
        "streetTypeId": "RD",
        "placeName": "CALEDON",
        "streetNameDisplayText": "ZEPHYR RD, CALEDON"
      }
    ]
  },
  {
    "postal": "L7C9N7",
    "result": []
  },
  {
    "postal": "L7C0G4",
    "result": [
      {
        "electoralDistricts": [
          {
            "election": null,
            "id": 23,
            "name": "Dufferin—Caledon"
          }
        ],
        "pollDivisionIds": [
          10137801,
          10143845
        ],
        "postalCode": "L7C0G4",
        "streetName": "THE GRANGE",
        "streetDirectionId": null,
        "streetTypeId": "SIDERD",
        "placeName": "CALEDON EAST",
        "streetNameDisplayText": "THE GRANGE SIDERD, CALEDON EAST"
      }
    ]
  },
  {
    "postal": "L7C2E2",
    "result": [
      {
        "electoralDistricts": [
          {
            "election": null,
            "id": 23,
            "name": "Dufferin—Caledon"
          }
        ],
        "pollDivisionIds": [
          10137807
        ],
        "postalCode": "L7C2E2",
        "streetName": "HURONTARIO",
        "streetDirectionId": null,
        "streetTypeId": "ST",
        "placeName": "INGLEWOOD",
        "streetNameDisplayText": "HURONTARIO ST, INGLEWOOD"
      }
    ]
  },
  {
    "postal": "L7C7W8",
    "result": []
  },
  {
    "postal": "L7C7M5",
    "result": []
  },
  {
    "postal": "L7C5W8",
    "result": []
  },
  {
    "postal": "L7C5E5",
    "result": []
  },
  {
    "postal": "L7C1P9",
    "result": [
      {
        "electoralDistricts": [
          {
            "election": null,
            "id": 23,
            "name": "Dufferin—Caledon"
          }
        ],
        "pollDivisionIds": [
          10143845
        ],
        "postalCode": "L7C1P9",
        "streetName": "SUMMERGATE",
        "streetDirectionId": null,
        "streetTypeId": "CRT",
        "placeName": "CALEDON EAST",
        "streetNameDisplayText": "SUMMERGATE CRT, CALEDON EAST"
      }
    ]
  },
  {
    "postal": "L7C8V8",
    "result": []
  },
  {
    "postal": "L7C9G8",
    "result": []
  },
  {
    "postal": "L7C8H9",
    "result": []
  },
  {
    "postal": "L7C1Z1",
    "result": [
      {
        "electoralDistricts": [
          {
            "election": null,
            "id": 23,
            "name": "Dufferin—Caledon"
          }
        ],
        "pollDivisionIds": [
          10137806
        ],
        "postalCode": "L7C1Z1",
        "streetName": "CHINGUACOUSY",
        "streetDirectionId": null,
        "streetTypeId": "RD",
        "placeName": "CALEDON",
        "streetNameDisplayText": "CHINGUACOUSY RD, CALEDON"
      }
    ]
  },
  {
    "postal": "L7C8M3",
    "result": []
  },
  {
    "postal": "L7C5H6",
    "result": []
  },
  {
    "postal": "L7C7W7",
    "result": []
  },
  {
    "postal": "L7C4L0",
    "result": []
  },
  {
    "postal": "L7C2N1",
    "result": [
      {
        "electoralDistricts": [
          {
            "election": null,
            "id": 23,
            "name": "Dufferin—Caledon"
          }
        ],
        "pollDivisionIds": [
          10137807
        ],
        "postalCode": "L7C2N1",
        "streetName": "DIXIE",
        "streetDirectionId": null,
        "streetTypeId": "RD",
        "placeName": "INGLEWOOD",
        "streetNameDisplayText": "DIXIE RD, INGLEWOOD"
      }
    ]
  },
  {
    "postal": "L7C2H4",
    "result": [
      {
        "electoralDistricts": [
          {
            "election": null,
            "id": 23,
            "name": "Dufferin—Caledon"
          }
        ],
        "pollDivisionIds": [
          10137807
        ],
        "postalCode": "L7C2H4",
        "streetName": "KENNEDY",
        "streetDirectionId": null,
        "streetTypeId": "RD",
        "placeName": "INGLEWOOD",
        "streetNameDisplayText": "KENNEDY RD, INGLEWOOD"
      }
    ]
  },
  {
    "postal": "L7C5C8",
    "result": []
  },
  {
    "postal": "L7C8B0",
    "result": []
  },
  {
    "postal": "L7C1T4",
    "result": [
      {
        "electoralDistricts": [
          {
            "election": null,
            "id": 23,
            "name": "Dufferin—Caledon"
          }
        ],
        "pollDivisionIds": [
          10137806
        ],
        "postalCode": "L7C1T4",
        "streetName": "HERITAGE",
        "streetDirectionId": null,
        "streetTypeId": "RD",
        "placeName": "TERRA COTTA",
        "streetNameDisplayText": "HERITAGE RD, TERRA COTTA"
      }
    ]
  },
  {
    "postal": "L7C7N7",
    "result": []
  },
  {
    "postal": "L7C4L3",
    "result": []
  },
  {
    "postal": "L7C2N2",
    "result": [
      {
        "electoralDistricts": [
          {
            "election": null,
            "id": 23,
            "name": "Dufferin—Caledon"
          }
        ],
        "pollDivisionIds": [
          10137801
        ],
        "postalCode": "L7C2N2",
        "streetName": "HORSESHOE HILL",
        "streetDirectionId": null,
        "streetTypeId": "RD",
        "placeName": "CALEDON VILLAGE",
        "streetNameDisplayText": "HORSESHOE HILL RD, CALEDON VILLAGE"
      }
    ]
  },
  {
    "postal": "L7C4N8",
    "result": []
  },
  {
    "postal": "L7C3M5",
    "result": []
  },
  {
    "postal": "L7C6H7",
    "result": []
  },
  {
    "postal": "L7C8Y8",
    "result": []
  },
  {
    "postal": "L7C5R9",
    "result": []
  },
  {
    "postal": "L7C8G3",
    "result": []
  },
  {
    "postal": "L7C4N7",
    "result": []
  },
  {
    "postal": "L7C0B9",
    "result": [
      {
        "electoralDistricts": [
          {
            "election": null,
            "id": 23,
            "name": "Dufferin—Caledon"
          }
        ],
        "pollDivisionIds": [
          10137801,
          10143845
        ],
        "postalCode": "L7C0B9",
        "streetName": "BERNEY",
        "streetDirectionId": null,
        "streetTypeId": "DR",
        "placeName": "CALEDON EAST",
        "streetNameDisplayText": "BERNEY DR, CALEDON EAST"
      }
    ]
  },
  {
    "postal": "L7C9K7",
    "result": []
  },
  {
    "postal": "L7C9K9",
    "result": []
  },
  {
    "postal": "L7C3Z2",
    "result": [
      {
        "electoralDistricts": [
          {
            "election": null,
            "id": 23,
            "name": "Dufferin—Caledon"
          }
        ],
        "pollDivisionIds": [
          10137808
        ],
        "postalCode": "L7C3Z2",
        "streetName": "VALLEYSCAPE",
        "streetDirectionId": null,
        "streetTypeId": "TRAIL",
        "placeName": "CALEDON",
        "streetNameDisplayText": "VALLEYSCAPE TRAIL, CALEDON"
      }
    ]
  },
  {
    "postal": "L7C6W7",
    "result": []
  },
  {
    "postal": "L7C0P1",
    "result": [
      {
        "electoralDistricts": [
          {
            "election": null,
            "id": 23,
            "name": "Dufferin—Caledon"
          }
        ],
        "pollDivisionIds": [
          10137807
        ],
        "postalCode": "L7C0P1",
        "streetName": "BOSTON MILLS",
        "streetDirectionId": null,
        "streetTypeId": "RD",
        "placeName": "CALEDON EAST",
        "streetNameDisplayText": "BOSTON MILLS RD, CALEDON EAST"
      }
    ]
  },
  {
    "postal": "L7C3A0",
    "result": []
  },
  {
    "postal": "L7C8L9",
    "result": []
  },
  {
    "postal": "L7C6X0",
    "result": []
  },
  {
    "postal": "L7C3E9",
    "result": [
      {
        "electoralDistricts": [
          {
            "election": null,
            "id": 23,
            "name": "Dufferin—Caledon"
          }
        ],
        "pollDivisionIds": [
          10137806
        ],
        "postalCode": "L7C3E9",
        "streetName": "HERITAGE",
        "streetDirectionId": null,
        "streetTypeId": "RD",
        "placeName": "TERRA COTTA",
        "streetNameDisplayText": "HERITAGE RD, TERRA COTTA"
      }
    ]
  },
  {
    "postal": "L7C0S5",
    "result": [
      {
        "electoralDistricts": [
          {
            "election": null,
            "id": 23,
            "name": "Dufferin—Caledon"
          }
        ],
        "pollDivisionIds": [
          10137806
        ],
        "postalCode": "L7C0S5",
        "streetName": "KING",
        "streetDirectionId": null,
        "streetTypeId": "ST",
        "placeName": "CHELTENHAM",
        "streetNameDisplayText": "KING ST, CHELTENHAM"
      }
    ]
  },
  {
    "postal": "L7C1A2",
    "result": [
      {
        "electoralDistricts": [
          {
            "election": null,
            "id": 23,
            "name": "Dufferin—Caledon"
          }
        ],
        "pollDivisionIds": [
          10137808
        ],
        "postalCode": "L7C1A2",
        "streetName": "CLIFFVIEW",
        "streetDirectionId": null,
        "streetTypeId": "CRT",
        "placeName": "CALEDON",
        "streetNameDisplayText": "CLIFFVIEW CRT, CALEDON"
      },
      {
        "electoralDistricts": [
          {
            "election": null,
            "id": 23,
            "name": "Dufferin—Caledon"
          }
        ],
        "pollDivisionIds": [
          10137808
        ],
        "postalCode": "L7C1A2",
        "streetName": "GARDEN WOOD",
        "streetDirectionId": null,
        "streetTypeId": "AVE",
        "placeName": "CALEDON",
        "streetNameDisplayText": "GARDEN WOOD AVE, CALEDON"
      },
      {
        "electoralDistricts": [
          {
            "election": null,
            "id": 23,
            "name": "Dufferin—Caledon"
          }
        ],
        "pollDivisionIds": [
          10137808
        ],
        "postalCode": "L7C1A2",
        "streetName": "ROYAL VALLEY",
        "streetDirectionId": null,
        "streetTypeId": "DR",
        "placeName": "CALEDON",
        "streetNameDisplayText": "ROYAL VALLEY DR, CALEDON"
      }
    ]
  },
  {
    "postal": "L7C5V8",
    "result": []
  },
  {
    "postal": "L7C8C5",
    "result": []
  },
  {
    "postal": "L7C6N0",
    "result": []
  },
  {
    "postal": "L7C9E6",
    "result": []
  },
  {
    "postal": "L7C5J7",
    "result": []
  },
  {
    "postal": "L7C2R2",
    "result": [
      {
        "electoralDistricts": [
          {
            "election": null,
            "id": 23,
            "name": "Dufferin—Caledon"
          }
        ],
        "pollDivisionIds": [
          10137807
        ],
        "postalCode": "L7C2R2",
        "streetName": "BRAMALEA",
        "streetDirectionId": null,
        "streetTypeId": "RD",
        "placeName": "CALEDON EAST",
        "streetNameDisplayText": "BRAMALEA RD, CALEDON EAST"
      }
    ]
  },
  {
    "postal": "L7C0P5",
    "result": [
      {
        "electoralDistricts": [
          {
            "election": null,
            "id": 23,
            "name": "Dufferin—Caledon"
          }
        ],
        "pollDivisionIds": [
          10137809
        ],
        "postalCode": "L7C0P5",
        "streetName": "CASTLEDERG",
        "streetDirectionId": null,
        "streetTypeId": "SIDERD",
        "placeName": "CALEDON EAST",
        "streetNameDisplayText": "CASTLEDERG SIDERD, CALEDON EAST"
      }
    ]
  },
  {
    "postal": "L7C5A7",
    "result": []
  },
  {
    "postal": "L7C1G1",
    "result": [
      {
        "electoralDistricts": [
          {
            "election": null,
            "id": 23,
            "name": "Dufferin—Caledon"
          }
        ],
        "pollDivisionIds": [
          10143845
        ],
        "postalCode": "L7C1G1",
        "streetName": "ELLA",
        "streetDirectionId": null,
        "streetTypeId": "ST",
        "placeName": "CALEDON EAST",
        "streetNameDisplayText": "ELLA ST, CALEDON EAST"
      },
      {
        "electoralDistricts": [
          {
            "election": null,
            "id": 23,
            "name": "Dufferin—Caledon"
          }
        ],
        "pollDivisionIds": [
          10143845
        ],
        "postalCode": "L7C1G1",
        "streetName": "IVAN",
        "streetDirectionId": null,
        "streetTypeId": "AVE",
        "placeName": "CALEDON EAST",
        "streetNameDisplayText": "IVAN AVE, CALEDON EAST"
      },
      {
        "electoralDistricts": [
          {
            "election": null,
            "id": 23,
            "name": "Dufferin—Caledon"
          }
        ],
        "pollDivisionIds": [
          10143845
        ],
        "postalCode": "L7C1G1",
        "streetName": "PARSONS",
        "streetDirectionId": null,
        "streetTypeId": "AVE",
        "placeName": "CALEDON EAST",
        "streetNameDisplayText": "PARSONS AVE, CALEDON EAST"
      }
    ]
  },
  {
    "postal": "L7C9R6",
    "result": []
  },
  {
    "postal": "L7C4Z9",
    "result": []
  },
  {
    "postal": "L7C1V5",
    "result": [
      {
        "electoralDistricts": [
          {
            "election": null,
            "id": 23,
            "name": "Dufferin—Caledon"
          }
        ],
        "pollDivisionIds": [
          10137806
        ],
        "postalCode": "L7C1V5",
        "streetName": "ROCKSIDE",
        "streetDirectionId": null,
        "streetTypeId": "RD",
        "placeName": "TERRA COTTA",
        "streetNameDisplayText": "ROCKSIDE RD, TERRA COTTA"
      }
    ]
  },
  {
    "postal": "L7C9Y5",
    "result": []
  },
  {
    "postal": "L7C1P2",
    "result": [
      {
        "electoralDistricts": [
          {
            "election": null,
            "id": 23,
            "name": "Dufferin—Caledon"
          }
        ],
        "pollDivisionIds": [
          10137806
        ],
        "postalCode": "L7C1P2",
        "streetName": "27TH",
        "streetDirectionId": null,
        "streetTypeId": "SIDERD",
        "placeName": "TERRA COTTA",
        "streetNameDisplayText": "27TH SIDERD, TERRA COTTA"
      },
      {
        "electoralDistricts": [
          {
            "election": null,
            "id": 23,
            "name": "Dufferin—Caledon"
          }
        ],
        "pollDivisionIds": [
          10137806
        ],
        "postalCode": "L7C1P2",
        "streetName": "HIGH",
        "streetDirectionId": null,
        "streetTypeId": "ST",
        "placeName": "TERRA COTTA",
        "streetNameDisplayText": "HIGH ST, TERRA COTTA"
      },
      {
        "electoralDistricts": [
          {
            "election": null,
            "id": 23,
            "name": "Dufferin—Caledon"
          }
        ],
        "pollDivisionIds": [
          10137806
        ],
        "postalCode": "L7C1P2",
        "streetName": "KING",
        "streetDirectionId": null,
        "streetTypeId": "ST",
        "placeName": "TERRA COTTA",
        "streetNameDisplayText": "KING ST, TERRA COTTA"
      },
      {
        "electoralDistricts": [
          {
            "election": null,
            "id": 23,
            "name": "Dufferin—Caledon"
          },
          {
            "election": null,
            "id": 115,
            "name": "Wellington—Halton Hills"
          }
        ],
        "pollDivisionIds": [
          10137803,
          10137806,
          10142573
        ],
        "postalCode": "L7C1P2",
        "streetName": "WINSTON CHURCHILL",
        "streetDirectionId": null,
        "streetTypeId": "BLVD",
        "placeName": "TERRA COTTA",
        "streetNameDisplayText": "WINSTON CHURCHILL BLVD, TERRA COTTA"
      }
    ]
  },
  {
    "postal": "L7C5X0",
    "result": []
  },
  {
    "postal": "L7C7B8",
    "result": []
  },
  {
    "postal": "L7C0C6",
    "result": [
      {
        "electoralDistricts": [
          {
            "election": null,
            "id": 23,
            "name": "Dufferin—Caledon"
          }
        ],
        "pollDivisionIds": [
          10137801
        ],
        "postalCode": "L7C0C6",
        "streetName": "THE GRANGE",
        "streetDirectionId": null,
        "streetTypeId": "SIDERD",
        "placeName": "CALEDON VILLAGE",
        "streetNameDisplayText": "THE GRANGE SIDERD, CALEDON VILLAGE"
      }
    ]
  },
  {
    "postal": "L7C6G1",
    "result": []
  },
  {
    "postal": "L7C3K3",
    "result": [
      {
        "electoralDistricts": [
          {
            "election": null,
            "id": 23,
            "name": "Dufferin—Caledon"
          }
        ],
        "pollDivisionIds": [
          10137802
        ],
        "postalCode": "L7C3K3",
        "streetName": "EAST VILLAGE",
        "streetDirectionId": null,
        "streetTypeId": "DR",
        "placeName": "INGLEWOOD",
        "streetNameDisplayText": "EAST VILLAGE DR, INGLEWOOD"
      },
      {
        "electoralDistricts": [
          {
            "election": null,
            "id": 23,
            "name": "Dufferin—Caledon"
          }
        ],
        "pollDivisionIds": [
          10137802
        ],
        "postalCode": "L7C3K3",
        "streetName": "MCLAUGHLIN",
        "streetDirectionId": null,
        "streetTypeId": "RD",
        "placeName": "CALEDON",
        "streetNameDisplayText": "MCLAUGHLIN RD, CALEDON"
      },
      {
        "electoralDistricts": [
          {
            "election": null,
            "id": 23,
            "name": "Dufferin—Caledon"
          }
        ],
        "pollDivisionIds": [
          10137802,
          10137777
        ],
        "postalCode": "L7C3K3",
        "streetName": "MCLAUGHLIN",
        "streetDirectionId": null,
        "streetTypeId": "RD",
        "placeName": "INGLEWOOD",
        "streetNameDisplayText": "MCLAUGHLIN RD, INGLEWOOD"
      },
      {
        "electoralDistricts": [
          {
            "election": null,
            "id": 23,
            "name": "Dufferin—Caledon"
          }
        ],
        "pollDivisionIds": [
          10137802
        ],
        "postalCode": "L7C3K3",
        "streetName": "NORTH RIVERDALE",
        "streetDirectionId": null,
        "streetTypeId": "DR",
        "placeName": "INGLEWOOD",
        "streetNameDisplayText": "NORTH RIVERDALE DR, INGLEWOOD"
      },
      {
        "electoralDistricts": [
          {
            "election": null,
            "id": 23,
            "name": "Dufferin—Caledon"
          }
        ],
        "pollDivisionIds": [
          10137802
        ],
        "postalCode": "L7C3K3",
        "streetName": "NORTH RIVERDALE",
        "streetDirectionId": null,
        "streetTypeId": "RD",
        "placeName": "INGLEWOOD",
        "streetNameDisplayText": "NORTH RIVERDALE RD, INGLEWOOD"
      }
    ]
  },
  {
    "postal": "L7C9R0",
    "result": []
  },
  {
    "postal": "L7C4R8",
    "result": []
  },
  {
    "postal": "L7C5P9",
    "result": []
  },
  {
    "postal": "L7C8N4",
    "result": []
  },
  {
    "postal": "L7C8H4",
    "result": []
  },
  {
    "postal": "L7C4V1",
    "result": []
  },
  {
    "postal": "L7C1K5",
    "result": [
      {
        "electoralDistricts": [
          {
            "election": null,
            "id": 23,
            "name": "Dufferin—Caledon"
          }
        ],
        "pollDivisionIds": [
          10143845
        ],
        "postalCode": "L7C1K5",
        "streetName": "AIRPORT",
        "streetDirectionId": null,
        "streetTypeId": "RD",
        "placeName": "CALEDON EAST",
        "streetNameDisplayText": "AIRPORT RD, CALEDON EAST"
      },
      {
        "electoralDistricts": [
          {
            "election": null,
            "id": 23,
            "name": "Dufferin—Caledon"
          }
        ],
        "pollDivisionIds": [
          10143845
        ],
        "postalCode": "L7C1K5",
        "streetName": "CEDAR",
        "streetDirectionId": null,
        "streetTypeId": "ST",
        "placeName": "CALEDON EAST",
        "streetNameDisplayText": "CEDAR ST, CALEDON EAST"
      },
      {
        "electoralDistricts": [
          {
            "election": null,
            "id": 23,
            "name": "Dufferin—Caledon"
          }
        ],
        "pollDivisionIds": [
          10143845
        ],
        "postalCode": "L7C1K5",
        "streetName": "DUFFERIN",
        "streetDirectionId": null,
        "streetTypeId": "ST",
        "placeName": "CALEDON EAST",
        "streetNameDisplayText": "DUFFERIN ST, CALEDON EAST"
      },
      {
        "electoralDistricts": [
          {
            "election": null,
            "id": 23,
            "name": "Dufferin—Caledon"
          }
        ],
        "pollDivisionIds": [
          10143845
        ],
        "postalCode": "L7C1K5",
        "streetName": "EMMA",
        "streetDirectionId": null,
        "streetTypeId": "ST",
        "placeName": "CALEDON EAST",
        "streetNameDisplayText": "EMMA ST, CALEDON EAST"
      },
      {
        "electoralDistricts": [
          {
            "election": null,
            "id": 23,
            "name": "Dufferin—Caledon"
          }
        ],
        "pollDivisionIds": [
          10143845
        ],
        "postalCode": "L7C1K5",
        "streetName": "MAPLE",
        "streetDirectionId": null,
        "streetTypeId": "ST",
        "placeName": "CALEDON EAST",
        "streetNameDisplayText": "MAPLE ST, CALEDON EAST"
      }
    ]
  },
  {
    "postal": "L7C1Z5",
    "result": [
      {
        "electoralDistricts": [
          {
            "election": null,
            "id": 23,
            "name": "Dufferin—Caledon"
          }
        ],
        "pollDivisionIds": [
          10137806
        ],
        "postalCode": "L7C1Z5",
        "streetName": "CHINGUACOUSY",
        "streetDirectionId": null,
        "streetTypeId": "RD",
        "placeName": "CHELTENHAM",
        "streetNameDisplayText": "CHINGUACOUSY RD, CHELTENHAM"
      }
    ]
  },
  {
    "postal": "L7C9L9",
    "result": []
  },
  {
    "postal": "L7C5L2",
    "result": []
  },
  {
    "postal": "L7C0M2",
    "result": [
      {
        "electoralDistricts": [
          {
            "election": null,
            "id": 23,
            "name": "Dufferin—Caledon"
          }
        ],
        "pollDivisionIds": [
          10137807
        ],
        "postalCode": "L7C0M2",
        "streetName": "BOSTON MILLS",
        "streetDirectionId": null,
        "streetTypeId": "RD",
        "placeName": "CALEDON",
        "streetNameDisplayText": "BOSTON MILLS RD, CALEDON"
      }
    ]
  },
  {
    "postal": "L7C1K8",
    "result": [
      {
        "electoralDistricts": [
          {
            "election": null,
            "id": 23,
            "name": "Dufferin—Caledon"
          }
        ],
        "pollDivisionIds": [
          10143845
        ],
        "postalCode": "L7C1K8",
        "streetName": "LARRY",
        "streetDirectionId": null,
        "streetTypeId": "ST",
        "placeName": "CALEDON EAST",
        "streetNameDisplayText": "LARRY ST, CALEDON EAST"
      },
      {
        "electoralDistricts": [
          {
            "election": null,
            "id": 23,
            "name": "Dufferin—Caledon"
          }
        ],
        "pollDivisionIds": [
          10143845
        ],
        "postalCode": "L7C1K8",
        "streetName": "MARION",
        "streetDirectionId": null,
        "streetTypeId": "ST",
        "placeName": "CALEDON EAST",
        "streetNameDisplayText": "MARION ST, CALEDON EAST"
      },
      {
        "electoralDistricts": [
          {
            "election": null,
            "id": 23,
            "name": "Dufferin—Caledon"
          }
        ],
        "pollDivisionIds": [
          10143845
        ],
        "postalCode": "L7C1K8",
        "streetName": "ORSI",
        "streetDirectionId": null,
        "streetTypeId": "RD",
        "placeName": "CALEDON EAST",
        "streetNameDisplayText": "ORSI RD, CALEDON EAST"
      }
    ]
  },
  {
    "postal": "L7C3M7",
    "result": [
      {
        "electoralDistricts": [
          {
            "election": null,
            "id": 23,
            "name": "Dufferin—Caledon"
          }
        ],
        "pollDivisionIds": [
          10137807
        ],
        "postalCode": "L7C3M7",
        "streetName": "AUTUMN ARBOUR",
        "streetDirectionId": null,
        "streetTypeId": "RD",
        "placeName": "CALEDON",
        "streetNameDisplayText": "AUTUMN ARBOUR RD, CALEDON"
      },
      {
        "electoralDistricts": [
          {
            "election": null,
            "id": 23,
            "name": "Dufferin—Caledon"
          }
        ],
        "pollDivisionIds": [
          10137807
        ],
        "postalCode": "L7C3M7",
        "streetName": "DOUGALL",
        "streetDirectionId": null,
        "streetTypeId": "AVE",
        "placeName": "CALEDON",
        "streetNameDisplayText": "DOUGALL AVE, CALEDON"
      },
      {
        "electoralDistricts": [
          {
            "election": null,
            "id": 23,
            "name": "Dufferin—Caledon"
          }
        ],
        "pollDivisionIds": [
          10137807
        ],
        "postalCode": "L7C3M7",
        "streetName": "ROUGEBANK",
        "streetDirectionId": null,
        "streetTypeId": "AVE",
        "placeName": "CALEDON",
        "streetNameDisplayText": "ROUGEBANK AVE, CALEDON"
      }
    ]
  },
  {
    "postal": "L7C1B2",
    "result": [
      {
        "electoralDistricts": [
          {
            "election": null,
            "id": 23,
            "name": "Dufferin—Caledon"
          }
        ],
        "pollDivisionIds": [
          10137808
        ],
        "postalCode": "L7C1B2",
        "streetName": "GARDENIA",
        "streetDirectionId": null,
        "streetTypeId": "WAY",
        "placeName": "CALEDON",
        "streetNameDisplayText": "GARDENIA WAY, CALEDON"
      },
      {
        "electoralDistricts": [
          {
            "election": null,
            "id": 23,
            "name": "Dufferin—Caledon"
          }
        ],
        "pollDivisionIds": [
          10137808
        ],
        "postalCode": "L7C1B2",
        "streetName": "ROYAL VALLEY",
        "streetDirectionId": null,
        "streetTypeId": "DR",
        "placeName": "CALEDON",
        "streetNameDisplayText": "ROYAL VALLEY DR, CALEDON"
      }
    ]
  },
  {
    "postal": "L7C0H9",
    "result": [
      {
        "electoralDistricts": [
          {
            "election": null,
            "id": 23,
            "name": "Dufferin—Caledon"
          }
        ],
        "pollDivisionIds": [
          10137803
        ],
        "postalCode": "L7C0H9",
        "streetName": "OLD BASE LINE RD.",
        "streetDirectionId": "E",
        "streetTypeId": "RD",
        "placeName": "TERRA COTTA",
        "streetNameDisplayText": "OLD BASE LINE RD. RD E, TERRA COTTA"
      },
      {
        "electoralDistricts": [
          {
            "election": null,
            "id": 23,
            "name": "Dufferin—Caledon"
          }
        ],
        "pollDivisionIds": [
          10137803
        ],
        "postalCode": "L7C0H9",
        "streetName": "OLDE BASE LINE",
        "streetDirectionId": null,
        "streetTypeId": "RD",
        "placeName": "TERRA COTTA",
        "streetNameDisplayText": "OLDE BASE LINE RD, TERRA COTTA"
      }
    ]
  },
  {
    "postal": "L7C8M4",
    "result": []
  },
  {
    "postal": "L7C2M5",
    "result": [
      {
        "electoralDistricts": [
          {
            "election": null,
            "id": 23,
            "name": "Dufferin—Caledon"
          }
        ],
        "pollDivisionIds": [
          10137807
        ],
        "postalCode": "L7C2M5",
        "streetName": "DIXIE",
        "streetDirectionId": null,
        "streetTypeId": "RD",
        "placeName": "CALEDON",
        "streetNameDisplayText": "DIXIE RD, CALEDON"
      }
    ]
  },
  {
    "postal": "L7C0T9",
    "result": [
      {
        "electoralDistricts": [
          {
            "election": null,
            "id": 23,
            "name": "Dufferin—Caledon"
          }
        ],
        "pollDivisionIds": [
          10137807
        ],
        "postalCode": "L7C0T9",
        "streetName": "KING",
        "streetDirectionId": null,
        "streetTypeId": "ST",
        "placeName": "CALEDON EAST",
        "streetNameDisplayText": "KING ST, CALEDON EAST"
      },
      {
        "electoralDistricts": [
          {
            "election": null,
            "id": 23,
            "name": "Dufferin—Caledon"
          }
        ],
        "pollDivisionIds": [
          10137807
        ],
        "postalCode": "L7C0T9",
        "streetName": "KING STREET WEST",
        "streetDirectionId": null,
        "streetTypeId": "ST",
        "placeName": "CALEDON EAST",
        "streetNameDisplayText": "KING STREET WEST ST, CALEDON EAST"
      }
    ]
  },
  {
    "postal": "L7C3P1",
    "result": [
      {
        "electoralDistricts": [
          {
            "election": null,
            "id": 23,
            "name": "Dufferin—Caledon"
          }
        ],
        "pollDivisionIds": [
          10137807
        ],
        "postalCode": "L7C3P1",
        "streetName": "KEARNY",
        "streetDirectionId": null,
        "streetTypeId": "AVE",
        "placeName": "CALEDON",
        "streetNameDisplayText": "KEARNY AVE, CALEDON"
      },
      {
        "electoralDistricts": [
          {
            "election": null,
            "id": 23,
            "name": "Dufferin—Caledon"
          }
        ],
        "pollDivisionIds": [
          10137807
        ],
        "postalCode": "L7C3P1",
        "streetName": "LARSON PEAK",
        "streetDirectionId": null,
        "streetTypeId": "RD",
        "placeName": "CALEDON",
        "streetNameDisplayText": "LARSON PEAK RD, CALEDON"
      },
      {
        "electoralDistricts": [
          {
            "election": null,
            "id": 23,
            "name": "Dufferin—Caledon"
          }
        ],
        "pollDivisionIds": [
          10137807
        ],
        "postalCode": "L7C3P1",
        "streetName": "LEARMONT",
        "streetDirectionId": null,
        "streetTypeId": "AVE",
        "placeName": "CALEDON",
        "streetNameDisplayText": "LEARMONT AVE, CALEDON"
      }
    ]
  },
  {
    "postal": "L7C1R6",
    "result": [
      {
        "electoralDistricts": [
          {
            "election": null,
            "id": 23,
            "name": "Dufferin—Caledon"
          }
        ],
        "pollDivisionIds": [
          10137806
        ],
        "postalCode": "L7C1R6",
        "streetName": "BATURYN",
        "streetDirectionId": null,
        "streetTypeId": "RD",
        "placeName": "TERRA COTTA",
        "streetNameDisplayText": "BATURYN RD, TERRA COTTA"
      },
      {
        "electoralDistricts": [
          {
            "election": null,
            "id": 23,
            "name": "Dufferin—Caledon"
          }
        ],
        "pollDivisionIds": [
          10137806
        ],
        "postalCode": "L7C1R6",
        "streetName": "KIEV",
        "streetDirectionId": null,
        "streetTypeId": "RD",
        "placeName": "TERRA COTTA",
        "streetNameDisplayText": "KIEV RD, TERRA COTTA"
      },
      {
        "electoralDistricts": [
          {
            "election": null,
            "id": 23,
            "name": "Dufferin—Caledon"
          }
        ],
        "pollDivisionIds": [
          10137806
        ],
        "postalCode": "L7C1R6",
        "streetName": "LEMKO",
        "streetDirectionId": null,
        "streetTypeId": "RD",
        "placeName": "TERRA COTTA",
        "streetNameDisplayText": "LEMKO RD, TERRA COTTA"
      },
      {
        "electoralDistricts": [
          {
            "election": null,
            "id": 23,
            "name": "Dufferin—Caledon"
          }
        ],
        "pollDivisionIds": [
          10137806
        ],
        "postalCode": "L7C1R6",
        "streetName": "LWIW",
        "streetDirectionId": null,
        "streetTypeId": "RD",
        "placeName": "TERRA COTTA",
        "streetNameDisplayText": "LWIW RD, TERRA COTTA"
      },
      {
        "electoralDistricts": [
          {
            "election": null,
            "id": 23,
            "name": "Dufferin—Caledon"
          }
        ],
        "pollDivisionIds": [
          10137806
        ],
        "postalCode": "L7C1R6",
        "streetName": "ZAPOROZE",
        "streetDirectionId": null,
        "streetTypeId": "RD",
        "placeName": "TERRA COTTA",
        "streetNameDisplayText": "ZAPOROZE RD, TERRA COTTA"
      }
    ]
  },
  {
    "postal": "L7C9V5",
    "result": []
  },
  {
    "postal": "L7C9T0",
    "result": []
  },
  {
    "postal": "L7C0A9",
    "result": [
      {
        "electoralDistricts": [
          {
            "election": null,
            "id": 23,
            "name": "Dufferin—Caledon"
          }
        ],
        "pollDivisionIds": [
          10137801
        ],
        "postalCode": "L7C0A9",
        "streetName": "ESCARPMENT",
        "streetDirectionId": null,
        "streetTypeId": "SIDERD",
        "placeName": "CALEDON EAST",
        "streetNameDisplayText": "ESCARPMENT SIDERD, CALEDON EAST"
      }
    ]
  },
  {
    "postal": "L7C1M3",
    "result": [
      {
        "electoralDistricts": [
          {
            "election": null,
            "id": 23,
            "name": "Dufferin—Caledon"
          }
        ],
        "pollDivisionIds": [
          10137802
        ],
        "postalCode": "L7C1M3",
        "streetName": "MCLAUGHLIN",
        "streetDirectionId": null,
        "streetTypeId": "RD",
        "placeName": "INGLEWOOD",
        "streetNameDisplayText": "MCLAUGHLIN RD, INGLEWOOD"
      }
    ]
  },
  {
    "postal": "L7C1W8",
    "result": [
      {
        "electoralDistricts": [
          {
            "election": null,
            "id": 23,
            "name": "Dufferin—Caledon"
          }
        ],
        "pollDivisionIds": [
          10137803
        ],
        "postalCode": "L7C1W8",
        "streetName": "MISSISSAUGA",
        "streetDirectionId": null,
        "streetTypeId": "RD",
        "placeName": "TERRA COTTA",
        "streetNameDisplayText": "MISSISSAUGA RD, TERRA COTTA"
      }
    ]
  },
  {
    "postal": "L7C9J1",
    "result": []
  },
  {
    "postal": "L7C8N5",
    "result": []
  },
  {
    "postal": "L7C5X1",
    "result": []
  },
  {
    "postal": "L7C6S2",
    "result": []
  },
  {
    "postal": "L7C2A2",
    "result": [
      {
        "electoralDistricts": [
          {
            "election": null,
            "id": 23,
            "name": "Dufferin—Caledon"
          }
        ],
        "pollDivisionIds": [
          10137807
        ],
        "postalCode": "L7C2A2",
        "streetName": "MCLAUGHLIN",
        "streetDirectionId": null,
        "streetTypeId": "RD",
        "placeName": "CHELTENHAM",
        "streetNameDisplayText": "MCLAUGHLIN RD, CHELTENHAM"
      }
    ]
  },
  {
    "postal": "L7C6A6",
    "result": []
  },
  {
    "postal": "L7C0S3",
    "result": [
      {
        "electoralDistricts": [
          {
            "election": null,
            "id": 23,
            "name": "Dufferin—Caledon"
          }
        ],
        "pollDivisionIds": [
          10137809
        ],
        "postalCode": "L7C0S3",
        "streetName": "KING",
        "streetDirectionId": null,
        "streetTypeId": "ST",
        "placeName": "BOLTON",
        "streetNameDisplayText": "KING ST, BOLTON"
      }
    ]
  },
  {
    "postal": "L7C3E7",
    "result": [
      {
        "electoralDistricts": [
          {
            "election": null,
            "id": 23,
            "name": "Dufferin—Caledon"
          }
        ],
        "pollDivisionIds": [
          10143845
        ],
        "postalCode": "L7C3E7",
        "streetName": "THE GORE",
        "streetDirectionId": null,
        "streetTypeId": "RD",
        "placeName": "CALEDON EAST",
        "streetNameDisplayText": "THE GORE RD, CALEDON EAST"
      }
    ]
  },
  {
    "postal": "L7C5R7",
    "result": []
  },
  {
    "postal": "L7C3R6",
    "result": [
      {
        "electoralDistricts": [
          {
            "election": null,
            "id": 23,
            "name": "Dufferin—Caledon"
          }
        ],
        "pollDivisionIds": [
          10143845
        ],
        "postalCode": "L7C3R6",
        "streetName": "MCCANDLESS",
        "streetDirectionId": null,
        "streetTypeId": "CRT",
        "placeName": "CALEDON EAST",
        "streetNameDisplayText": "MCCANDLESS CRT, CALEDON EAST"
      }
    ]
  },
  {
    "postal": "L7C6K4",
    "result": []
  },
  {
    "postal": "L7C2W5",
    "result": [
      {
        "electoralDistricts": [
          {
            "election": null,
            "id": 23,
            "name": "Dufferin—Caledon"
          }
        ],
        "pollDivisionIds": [
          10137807
        ],
        "postalCode": "L7C2W5",
        "streetName": "AIRPORT",
        "streetDirectionId": null,
        "streetTypeId": "RD",
        "placeName": "CALEDON EAST",
        "streetNameDisplayText": "AIRPORT RD, CALEDON EAST"
      }
    ]
  },
  {
    "postal": "L7C8W4",
    "result": []
  },
  {
    "postal": "L7C9C2",
    "result": []
  },
  {
    "postal": "L7C2C0",
    "result": []
  },
  {
    "postal": "L7C0E1",
    "result": [
      {
        "electoralDistricts": [
          {
            "election": null,
            "id": 23,
            "name": "Dufferin—Caledon"
          }
        ],
        "pollDivisionIds": [
          10137801
        ],
        "postalCode": "L7C0E1",
        "streetName": "GRANITE STONES",
        "streetDirectionId": null,
        "streetTypeId": "DR",
        "placeName": "CALEDON EAST",
        "streetNameDisplayText": "GRANITE STONES DR, CALEDON EAST"
      }
    ]
  },
  {
    "postal": "L7C1K9",
    "result": [
      {
        "electoralDistricts": [
          {
            "election": null,
            "id": 23,
            "name": "Dufferin—Caledon"
          }
        ],
        "pollDivisionIds": [
          10143845
        ],
        "postalCode": "L7C1K9",
        "streetName": "ANGELA",
        "streetDirectionId": null,
        "streetTypeId": "CRT",
        "placeName": "CALEDON EAST",
        "streetNameDisplayText": "ANGELA CRT, CALEDON EAST"
      },
      {
        "electoralDistricts": [
          {
            "election": null,
            "id": 23,
            "name": "Dufferin—Caledon"
          }
        ],
        "pollDivisionIds": [
          10143845
        ],
        "postalCode": "L7C1K9",
        "streetName": "ORSI",
        "streetDirectionId": null,
        "streetTypeId": "RD",
        "placeName": "CALEDON EAST",
        "streetNameDisplayText": "ORSI RD, CALEDON EAST"
      }
    ]
  },
  {
    "postal": "L7C1G7",
    "result": [
      {
        "electoralDistricts": [
          {
            "election": null,
            "id": 23,
            "name": "Dufferin—Caledon"
          }
        ],
        "pollDivisionIds": [
          10137802
        ],
        "postalCode": "L7C1G7",
        "streetName": "INGLENOOK",
        "streetDirectionId": null,
        "streetTypeId": "CRT",
        "placeName": "INGLEWOOD",
        "streetNameDisplayText": "INGLENOOK CRT, INGLEWOOD"
      },
      {
        "electoralDistricts": [
          {
            "election": null,
            "id": 23,
            "name": "Dufferin—Caledon"
          }
        ],
        "pollDivisionIds": [
          10137802
        ],
        "postalCode": "L7C1G7",
        "streetName": "KAUFMAN",
        "streetDirectionId": null,
        "streetTypeId": "RD",
        "placeName": "INGLEWOOD",
        "streetNameDisplayText": "KAUFMAN RD, INGLEWOOD"
      },
      {
        "electoralDistricts": [
          {
            "election": null,
            "id": 23,
            "name": "Dufferin—Caledon"
          }
        ],
        "pollDivisionIds": [
          10137802
        ],
        "postalCode": "L7C1G7",
        "streetName": "MACDONALD",
        "streetDirectionId": null,
        "streetTypeId": "ST",
        "placeName": "INGLEWOOD",
        "streetNameDisplayText": "MACDONALD ST, INGLEWOOD"
      },
      {
        "electoralDistricts": [
          {
            "election": null,
            "id": 23,
            "name": "Dufferin—Caledon"
          }
        ],
        "pollDivisionIds": [
          10137802
        ],
        "postalCode": "L7C1G7",
        "streetName": "MCKENZIE",
        "streetDirectionId": null,
        "streetTypeId": "ST",
        "placeName": "INGLEWOOD",
        "streetNameDisplayText": "MCKENZIE ST, INGLEWOOD"
      },
      {
        "electoralDistricts": [
          {
            "election": null,
            "id": 23,
            "name": "Dufferin—Caledon"
          }
        ],
        "pollDivisionIds": [
          10137802,
          10137807
        ],
        "postalCode": "L7C1G7",
        "streetName": "VICTORIA",
        "streetDirectionId": null,
        "streetTypeId": "ST",
        "placeName": "INGLEWOOD",
        "streetNameDisplayText": "VICTORIA ST, INGLEWOOD"
      }
    ]
  },
  {
    "postal": "L7C4E9",
    "result": []
  },
  {
    "postal": "L7C9P0",
    "result": []
  },
  {
    "postal": "L7C5H3",
    "result": []
  },
  {
    "postal": "L7C9X6",
    "result": []
  },
  {
    "postal": "L7C5N7",
    "result": []
  },
  {
    "postal": "L7C5A6",
    "result": []
  },
  {
    "postal": "L7C4M0",
    "result": []
  },
  {
    "postal": "L7C3V6",
    "result": [
      {
        "electoralDistricts": [
          {
            "election": null,
            "id": 23,
            "name": "Dufferin—Caledon"
          }
        ],
        "pollDivisionIds": [
          10137807
        ],
        "postalCode": "L7C3V6",
        "streetName": "ARCADIA",
        "streetDirectionId": null,
        "streetTypeId": "RD",
        "placeName": "CALEDON",
        "streetNameDisplayText": "ARCADIA RD, CALEDON"
      },
      {
        "electoralDistricts": [
          {
            "election": null,
            "id": 23,
            "name": "Dufferin—Caledon"
          }
        ],
        "pollDivisionIds": [
          10137807
        ],
        "postalCode": "L7C3V6",
        "streetName": "KENNEDY",
        "streetDirectionId": null,
        "streetTypeId": "RD",
        "placeName": "CALEDON",
        "streetNameDisplayText": "KENNEDY RD, CALEDON"
      },
      {
        "electoralDistricts": [
          {
            "election": null,
            "id": 23,
            "name": "Dufferin—Caledon"
          }
        ],
        "pollDivisionIds": [
          10137807
        ],
        "postalCode": "L7C3V6",
        "streetName": "TWISTLETON",
        "streetDirectionId": null,
        "streetTypeId": "ST",
        "placeName": "CALEDON",
        "streetNameDisplayText": "TWISTLETON ST, CALEDON"
      }
    ]
  },
  {
    "postal": "L7C1L7",
    "result": [
      {
        "electoralDistricts": [
          {
            "election": null,
            "id": 23,
            "name": "Dufferin—Caledon"
          }
        ],
        "pollDivisionIds": [
          10137802,
          10143845
        ],
        "postalCode": "L7C1L7",
        "streetName": "MACDONALD",
        "streetDirectionId": null,
        "streetTypeId": "ST",
        "placeName": "INGLEWOOD",
        "streetNameDisplayText": "MACDONALD ST, INGLEWOOD"
      }
    ]
  },
  {
    "postal": "L7C2P9",
    "result": [
      {
        "electoralDistricts": [
          {
            "election": null,
            "id": 23,
            "name": "Dufferin—Caledon"
          }
        ],
        "pollDivisionIds": [
          10137807
        ],
        "postalCode": "L7C2P9",
        "streetName": "BRAMALEA",
        "streetDirectionId": null,
        "streetTypeId": "RD",
        "placeName": "CALEDON EAST",
        "streetNameDisplayText": "BRAMALEA RD, CALEDON EAST"
      }
    ]
  },
  {
    "postal": "L7C5T4",
    "result": []
  },
  {
    "postal": "L7C5Z1",
    "result": []
  },
  {
    "postal": "L7C2X0",
    "result": []
  },
  {
    "postal": "L7C6Z2",
    "result": []
  },
  {
    "postal": "L7C0E0",
    "result": []
  },
  {
    "postal": "L7C3Z5",
    "result": [
      {
        "electoralDistricts": [
          {
            "election": null,
            "id": 23,
            "name": "Dufferin—Caledon"
          }
        ],
        "pollDivisionIds": [
          10137808
        ],
        "postalCode": "L7C3Z5",
        "streetName": "DEER RIDGE",
        "streetDirectionId": null,
        "streetTypeId": "TRAIL",
        "placeName": "CALEDON",
        "streetNameDisplayText": "DEER RIDGE TRAIL, CALEDON"
      },
      {
        "electoralDistricts": [
          {
            "election": null,
            "id": 23,
            "name": "Dufferin—Caledon"
          }
        ],
        "pollDivisionIds": [
          10137808
        ],
        "postalCode": "L7C3Z5",
        "streetName": "JUDGE",
        "streetDirectionId": null,
        "streetTypeId": "ST",
        "placeName": "CALEDON",
        "streetNameDisplayText": "JUDGE ST, CALEDON"
      },
      {
        "electoralDistricts": [
          {
            "election": null,
            "id": 23,
            "name": "Dufferin—Caledon"
          }
        ],
        "pollDivisionIds": [
          10137808
        ],
        "postalCode": "L7C3Z5",
        "streetName": "PINEDALE",
        "streetDirectionId": null,
        "streetTypeId": "AVE",
        "placeName": "CALEDON",
        "streetNameDisplayText": "PINEDALE AVE, CALEDON"
      }
    ]
  },
  {
    "postal": "L7C8H3",
    "result": []
  },
  {
    "postal": "L7C7S6",
    "result": []
  },
  {
    "postal": "L7C4C1",
    "result": [
      {
        "electoralDistricts": [
          {
            "election": null,
            "id": 23,
            "name": "Dufferin—Caledon"
          }
        ],
        "pollDivisionIds": [
          10137807
        ],
        "postalCode": "L7C4C1",
        "streetName": "BONNIEGLEN FARM",
        "streetDirectionId": null,
        "streetTypeId": "BLVD",
        "placeName": "CALEDON",
        "streetNameDisplayText": "BONNIEGLEN FARM BLVD, CALEDON"
      }
    ]
  },
  {
    "postal": "L7C3K2",
    "result": [
      {
        "electoralDistricts": [
          {
            "election": null,
            "id": 23,
            "name": "Dufferin—Caledon"
          }
        ],
        "pollDivisionIds": [
          10143845
        ],
        "postalCode": "L7C3K2",
        "streetName": "WALKER",
        "streetDirectionId": "E",
        "streetTypeId": "RD",
        "placeName": "CALEDON EAST",
        "streetNameDisplayText": "WALKER RD E, CALEDON EAST"
      }
    ]
  },
  {
    "postal": "L7C1Y5",
    "result": [
      {
        "electoralDistricts": [
          {
            "election": null,
            "id": 23,
            "name": "Dufferin—Caledon"
          }
        ],
        "pollDivisionIds": [
          10137806
        ],
        "postalCode": "L7C1Y5",
        "streetName": "CREDITVIEW",
        "streetDirectionId": null,
        "streetTypeId": "RD",
        "placeName": "TERRA COTTA",
        "streetNameDisplayText": "CREDITVIEW RD, TERRA COTTA"
      }
    ]
  },
  {
    "postal": "L7C6P6",
    "result": []
  },
  {
    "postal": "L7C3N9",
    "result": [
      {
        "electoralDistricts": [
          {
            "election": null,
            "id": 23,
            "name": "Dufferin—Caledon"
          }
        ],
        "pollDivisionIds": [
          10137807
        ],
        "postalCode": "L7C3N9",
        "streetName": "KEARNY",
        "streetDirectionId": null,
        "streetTypeId": "AVE",
        "placeName": "CALEDON",
        "streetNameDisplayText": "KEARNY AVE, CALEDON"
      },
      {
        "electoralDistricts": [
          {
            "election": null,
            "id": 23,
            "name": "Dufferin—Caledon"
          }
        ],
        "pollDivisionIds": [
          10137807
        ],
        "postalCode": "L7C3N9",
        "streetName": "KENNEDY",
        "streetDirectionId": null,
        "streetTypeId": "RD",
        "placeName": "CALEDON",
        "streetNameDisplayText": "KENNEDY RD, CALEDON"
      }
    ]
  },
  {
    "postal": "L7C3W2",
    "result": [
      {
        "electoralDistricts": [
          {
            "election": null,
            "id": 23,
            "name": "Dufferin—Caledon"
          }
        ],
        "pollDivisionIds": [
          10137807
        ],
        "postalCode": "L7C3W2",
        "streetName": "BRETHBY",
        "streetDirectionId": null,
        "streetTypeId": "CRES",
        "placeName": "CALEDON",
        "streetNameDisplayText": "BRETHBY CRES, CALEDON"
      },
      {
        "electoralDistricts": [
          {
            "election": null,
            "id": 23,
            "name": "Dufferin—Caledon"
          }
        ],
        "pollDivisionIds": [
          10137807
        ],
        "postalCode": "L7C3W2",
        "streetName": "BRETHBY",
        "streetDirectionId": null,
        "streetTypeId": "ST",
        "placeName": "CALEDON",
        "streetNameDisplayText": "BRETHBY ST, CALEDON"
      },
      {
        "electoralDistricts": [
          {
            "election": null,
            "id": 23,
            "name": "Dufferin—Caledon"
          }
        ],
        "pollDivisionIds": [
          10137807
        ],
        "postalCode": "L7C3W2",
        "streetName": "BRETHBY ST.",
        "streetDirectionId": null,
        "streetTypeId": "ST",
        "placeName": "CALEDON",
        "streetNameDisplayText": "BRETHBY ST. ST, CALEDON"
      },
      {
        "electoralDistricts": [
          {
            "election": null,
            "id": 23,
            "name": "Dufferin—Caledon"
          }
        ],
        "pollDivisionIds": [
          10137807
        ],
        "postalCode": "L7C3W2",
        "streetName": "HAMILTON",
        "streetDirectionId": null,
        "streetTypeId": "CRT",
        "placeName": "CALEDON",
        "streetNameDisplayText": "HAMILTON CRT, CALEDON"
      },
      {
        "electoralDistricts": [
          {
            "election": null,
            "id": 23,
            "name": "Dufferin—Caledon"
          }
        ],
        "pollDivisionIds": [
          10137807
        ],
        "postalCode": "L7C3W2",
        "streetName": "LEARMONT",
        "streetDirectionId": null,
        "streetTypeId": "AVE",
        "placeName": "CALEDON",
        "streetNameDisplayText": "LEARMONT AVE, CALEDON"
      }
    ]
  },
  {
    "postal": "L7C6H8",
    "result": []
  },
  {
    "postal": "L7C9T3",
    "result": []
  },
  {
    "postal": "L7C5L9",
    "result": []
  },
  {
    "postal": "L7C7X7",
    "result": []
  },
  {
    "postal": "L7C3J5",
    "result": [
      {
        "electoralDistricts": [
          {
            "election": null,
            "id": 23,
            "name": "Dufferin—Caledon"
          }
        ],
        "pollDivisionIds": [
          10137806
        ],
        "postalCode": "L7C3J5",
        "streetName": "COPPERHEAD",
        "streetDirectionId": null,
        "streetTypeId": "RD",
        "placeName": "CHELTENHAM",
        "streetNameDisplayText": "COPPERHEAD RD, CHELTENHAM"
      }
    ]
  },
  {
    "postal": "L7C4J5",
    "result": []
  },
  {
    "postal": "L7C6J2",
    "result": []
  },
  {
    "postal": "L7C5V6",
    "result": []
  },
  {
    "postal": "L7C3N2",
    "result": [
      {
        "electoralDistricts": [
          {
            "election": null,
            "id": 23,
            "name": "Dufferin—Caledon"
          }
        ],
        "pollDivisionIds": [
          10137807
        ],
        "postalCode": "L7C3N2",
        "streetName": "BENADIR",
        "streetDirectionId": null,
        "streetTypeId": "AVE",
        "placeName": "CALEDON",
        "streetNameDisplayText": "BENADIR AVE, CALEDON"
      },
      {
        "electoralDistricts": [
          {
            "election": null,
            "id": 23,
            "name": "Dufferin—Caledon"
          }
        ],
        "pollDivisionIds": [
          10137807
        ],
        "postalCode": "L7C3N2",
        "streetName": "CASPIAN",
        "streetDirectionId": null,
        "streetTypeId": "ST",
        "placeName": "CALEDON",
        "streetNameDisplayText": "CASPIAN ST, CALEDON"
      },
      {
        "electoralDistricts": [
          {
            "election": null,
            "id": 23,
            "name": "Dufferin—Caledon"
          }
        ],
        "pollDivisionIds": [
          10137807
        ],
        "postalCode": "L7C3N2",
        "streetName": "KENNEDY",
        "streetDirectionId": null,
        "streetTypeId": "RD",
        "placeName": "CALEDON",
        "streetNameDisplayText": "KENNEDY RD, CALEDON"
      },
      {
        "electoralDistricts": [
          {
            "election": null,
            "id": 23,
            "name": "Dufferin—Caledon"
          }
        ],
        "pollDivisionIds": [
          10137807
        ],
        "postalCode": "L7C3N2",
        "streetName": "LOSINO",
        "streetDirectionId": null,
        "streetTypeId": "ST",
        "placeName": "CALEDON",
        "streetNameDisplayText": "LOSINO ST, CALEDON"
      }
    ]
  },
  {
    "postal": "L7C3B1",
    "result": [
      {
        "electoralDistricts": [
          {
            "election": null,
            "id": 23,
            "name": "Dufferin—Caledon"
          }
        ],
        "pollDivisionIds": [
          10137809
        ],
        "postalCode": "L7C3B1",
        "streetName": "CENTREVILLE CREEK",
        "streetDirectionId": null,
        "streetTypeId": "RD",
        "placeName": "BOLTON",
        "streetNameDisplayText": "CENTREVILLE CREEK RD, BOLTON"
      }
    ]
  },
  {
    "postal": "L7C8B5",
    "result": []
  },
  {
    "postal": "L7C0K1",
    "result": [
      {
        "electoralDistricts": [
          {
            "election": null,
            "id": 23,
            "name": "Dufferin—Caledon"
          }
        ],
        "pollDivisionIds": [
          10143845
        ],
        "postalCode": "L7C0K1",
        "streetName": "OLDE BASE LINE",
        "streetDirectionId": null,
        "streetTypeId": "RD",
        "placeName": "CALEDON EAST",
        "streetNameDisplayText": "OLDE BASE LINE RD, CALEDON EAST"
      }
    ]
  },
  {
    "postal": "L7C7M7",
    "result": []
  },
  {
    "postal": "L7C2M2",
    "result": [
      {
        "electoralDistricts": [
          {
            "election": null,
            "id": 23,
            "name": "Dufferin—Caledon"
          }
        ],
        "pollDivisionIds": [
          10137807
        ],
        "postalCode": "L7C2M2",
        "streetName": "DIXIE",
        "streetDirectionId": null,
        "streetTypeId": "RD",
        "placeName": "INGLEWOOD",
        "streetNameDisplayText": "DIXIE RD, INGLEWOOD"
      }
    ]
  },
  {
    "postal": "L7C9N3",
    "result": []
  },
  {
    "postal": "L7C4Y8",
    "result": []
  },
  {
    "postal": "L7C3V7",
    "result": [
      {
        "electoralDistricts": [
          {
            "election": null,
            "id": 23,
            "name": "Dufferin—Caledon"
          }
        ],
        "pollDivisionIds": [
          10137807
        ],
        "postalCode": "L7C3V7",
        "streetName": "ARCADIA",
        "streetDirectionId": null,
        "streetTypeId": "RD",
        "placeName": "CALEDON",
        "streetNameDisplayText": "ARCADIA RD, CALEDON"
      },
      {
        "electoralDistricts": [
          {
            "election": null,
            "id": 23,
            "name": "Dufferin—Caledon"
          }
        ],
        "pollDivisionIds": [
          10137807
        ],
        "postalCode": "L7C3V7",
        "streetName": "KENNEDY",
        "streetDirectionId": null,
        "streetTypeId": "RD",
        "placeName": "CALEDON",
        "streetNameDisplayText": "KENNEDY RD, CALEDON"
      },
      {
        "electoralDistricts": [
          {
            "election": null,
            "id": 23,
            "name": "Dufferin—Caledon"
          }
        ],
        "pollDivisionIds": [
          10137807
        ],
        "postalCode": "L7C3V7",
        "streetName": "LEARMONT",
        "streetDirectionId": null,
        "streetTypeId": "AVE",
        "placeName": "CALEDON",
        "streetNameDisplayText": "LEARMONT AVE, CALEDON"
      }
    ]
  },
  {
    "postal": "L7C8Z1",
    "result": []
  },
  {
    "postal": "L7C7B3",
    "result": []
  },
  {
    "postal": "L7C3A8",
    "result": [
      {
        "electoralDistricts": [
          {
            "election": null,
            "id": 23,
            "name": "Dufferin—Caledon"
          }
        ],
        "pollDivisionIds": [
          10137809
        ],
        "postalCode": "L7C3A8",
        "streetName": "CENTREVILLE CREEK",
        "streetDirectionId": null,
        "streetTypeId": "RD",
        "placeName": "BOLTON",
        "streetNameDisplayText": "CENTREVILLE CREEK RD, BOLTON"
      }
    ]
  },
  {
    "postal": "L7C7V5",
    "result": []
  },
  {
    "postal": "L7C2T2",
    "result": [
      {
        "electoralDistricts": [
          {
            "election": null,
            "id": 23,
            "name": "Dufferin—Caledon"
          }
        ],
        "pollDivisionIds": [
          10137807
        ],
        "postalCode": "L7C2T2",
        "streetName": "TORBRAM",
        "streetDirectionId": null,
        "streetTypeId": "RD",
        "placeName": "CALEDON EAST",
        "streetNameDisplayText": "TORBRAM RD, CALEDON EAST"
      }
    ]
  },
  {
    "postal": "L7C6L3",
    "result": []
  },
  {
    "postal": "L7C0L2",
    "result": [
      {
        "electoralDistricts": [
          {
            "election": null,
            "id": 23,
            "name": "Dufferin—Caledon"
          }
        ],
        "pollDivisionIds": [
          10137807
        ],
        "postalCode": "L7C0L2",
        "streetName": "OLDE BASE LINE",
        "streetDirectionId": null,
        "streetTypeId": "RD",
        "placeName": "INGLEWOOD",
        "streetNameDisplayText": "OLDE BASE LINE RD, INGLEWOOD"
      }
    ]
  },
  {
    "postal": "L7C5Y8",
    "result": []
  },
  {
    "postal": "L7C0B8",
    "result": [
      {
        "electoralDistricts": [
          {
            "election": null,
            "id": 23,
            "name": "Dufferin—Caledon"
          }
        ],
        "pollDivisionIds": [
          10137801
        ],
        "postalCode": "L7C0B8",
        "streetName": "BERNEY",
        "streetDirectionId": null,
        "streetTypeId": "DR",
        "placeName": "CALEDON EAST",
        "streetNameDisplayText": "BERNEY DR, CALEDON EAST"
      }
    ]
  },
  {
    "postal": "L7C6R5",
    "result": []
  },
  {
    "postal": "L7C8W6",
    "result": []
  },
  {
    "postal": "L7C8G6",
    "result": []
  },
  {
    "postal": "L7C6X3",
    "result": []
  },
  {
    "postal": "L7C7R7",
    "result": []
  },
  {
    "postal": "L7C4B6",
    "result": []
  },
  {
    "postal": "L7C3P9",
    "result": [
      {
        "electoralDistricts": [
          {
            "election": null,
            "id": 23,
            "name": "Dufferin—Caledon"
          }
        ],
        "pollDivisionIds": [
          10137807
        ],
        "postalCode": "L7C3P9",
        "streetName": "ASPENVIEW",
        "streetDirectionId": null,
        "streetTypeId": "AVE",
        "placeName": "CALEDON",
        "streetNameDisplayText": "ASPENVIEW AVE, CALEDON"
      },
      {
        "electoralDistricts": [
          {
            "election": null,
            "id": 23,
            "name": "Dufferin—Caledon"
          }
        ],
        "pollDivisionIds": [
          10137807
        ],
        "postalCode": "L7C3P9",
        "streetName": "CEDARCREST",
        "streetDirectionId": null,
        "streetTypeId": "ST",
        "placeName": "CALEDON",
        "streetNameDisplayText": "CEDARCREST ST, CALEDON"
      },
      {
        "electoralDistricts": [
          {
            "election": null,
            "id": 23,
            "name": "Dufferin—Caledon"
          }
        ],
        "pollDivisionIds": [
          10137807
        ],
        "postalCode": "L7C3P9",
        "streetName": "MAPLERUN",
        "streetDirectionId": null,
        "streetTypeId": "ST",
        "placeName": "CALEDON",
        "streetNameDisplayText": "MAPLERUN ST, CALEDON"
      },
      {
        "electoralDistricts": [
          {
            "election": null,
            "id": 23,
            "name": "Dufferin—Caledon"
          }
        ],
        "pollDivisionIds": [
          10137807
        ],
        "postalCode": "L7C3P9",
        "streetName": "NECTARLANE",
        "streetDirectionId": null,
        "streetTypeId": "AVE",
        "placeName": "CALEDON",
        "streetNameDisplayText": "NECTARLANE AVE, CALEDON"
      }
    ]
  },
  {
    "postal": "L7C2T3",
    "result": [
      {
        "electoralDistricts": [
          {
            "election": null,
            "id": 23,
            "name": "Dufferin—Caledon"
          }
        ],
        "pollDivisionIds": [
          10137807
        ],
        "postalCode": "L7C2T3",
        "streetName": "TORBRAM",
        "streetDirectionId": null,
        "streetTypeId": "RD",
        "placeName": "CALEDON EAST",
        "streetNameDisplayText": "TORBRAM RD, CALEDON EAST"
      }
    ]
  },
  {
    "postal": "L7C1M4",
    "result": [
      {
        "electoralDistricts": [
          {
            "election": null,
            "id": 23,
            "name": "Dufferin—Caledon"
          }
        ],
        "pollDivisionIds": [
          10137802
        ],
        "postalCode": "L7C1M4",
        "streetName": "MCKENZIE",
        "streetDirectionId": null,
        "streetTypeId": "ST",
        "placeName": "INGLEWOOD",
        "streetNameDisplayText": "MCKENZIE ST, INGLEWOOD"
      }
    ]
  },
  {
    "postal": "L7C0H1",
    "result": [
      {
        "electoralDistricts": [
          {
            "election": null,
            "id": 23,
            "name": "Dufferin—Caledon"
          }
        ],
        "pollDivisionIds": [
          10143845
        ],
        "postalCode": "L7C0H1",
        "streetName": "WALKER",
        "streetDirectionId": "W",
        "streetTypeId": "RD",
        "placeName": "CALEDON EAST",
        "streetNameDisplayText": "WALKER RD W, CALEDON EAST"
      }
    ]
  },
  {
    "postal": "L7C9W3",
    "result": []
  },
  {
    "postal": "L7C6P1",
    "result": []
  },
  {
    "postal": "L7C7G2",
    "result": []
  },
  {
    "postal": "L7C4J9",
    "result": []
  },
  {
    "postal": "L7C9E4",
    "result": []
  },
  {
    "postal": "L7C8H0",
    "result": []
  },
  {
    "postal": "L7C4M7",
    "result": []
  },
  {
    "postal": "L7C2G9",
    "result": [
      {
        "electoralDistricts": [
          {
            "election": null,
            "id": 23,
            "name": "Dufferin—Caledon"
          }
        ],
        "pollDivisionIds": [
          10137807
        ],
        "postalCode": "L7C2G9",
        "streetName": "KENNEDY",
        "streetDirectionId": null,
        "streetTypeId": "RD",
        "placeName": "CALEDON",
        "streetNameDisplayText": "KENNEDY RD, CALEDON"
      },
      {
        "electoralDistricts": [
          {
            "election": null,
            "id": 23,
            "name": "Dufferin—Caledon"
          }
        ],
        "pollDivisionIds": [
          10137807
        ],
        "postalCode": "L7C2G9",
        "streetName": "KENNEDY",
        "streetDirectionId": null,
        "streetTypeId": "RD",
        "placeName": "INGLEWOOD",
        "streetNameDisplayText": "KENNEDY RD, INGLEWOOD"
      },
      {
        "electoralDistricts": [
          {
            "election": null,
            "id": 23,
            "name": "Dufferin—Caledon"
          }
        ],
        "pollDivisionIds": [
          10137807
        ],
        "postalCode": "L7C2G9",
        "streetName": "OLD KENNEDY",
        "streetDirectionId": null,
        "streetTypeId": "RD",
        "placeName": "CALEDON",
        "streetNameDisplayText": "OLD KENNEDY RD, CALEDON"
      },
      {
        "electoralDistricts": [
          {
            "election": null,
            "id": 23,
            "name": "Dufferin—Caledon"
          }
        ],
        "pollDivisionIds": [
          10137807
        ],
        "postalCode": "L7C2G9",
        "streetName": "OLD KENNEDY",
        "streetDirectionId": null,
        "streetTypeId": "RD",
        "placeName": "INGLEWOOD",
        "streetNameDisplayText": "OLD KENNEDY RD, INGLEWOOD"
      }
    ]
  },
  {
    "postal": "L7C8T2",
    "result": []
  },
  {
    "postal": "L7C7G7",
    "result": []
  },
  {
    "postal": "L7C4Z3",
    "result": []
  },
  {
    "postal": "L7C5B3",
    "result": []
  },
  {
    "postal": "L7C1S7",
    "result": [
      {
        "electoralDistricts": [
          {
            "election": null,
            "id": 23,
            "name": "Dufferin—Caledon"
          }
        ],
        "pollDivisionIds": [
          10137806
        ],
        "postalCode": "L7C1S7",
        "streetName": "WINSTON CHURCHILL",
        "streetDirectionId": null,
        "streetTypeId": "BLVD",
        "placeName": "TERRA COTTA",
        "streetNameDisplayText": "WINSTON CHURCHILL BLVD, TERRA COTTA"
      }
    ]
  },
  {
    "postal": "L7C2N7",
    "result": [
      {
        "electoralDistricts": [
          {
            "election": null,
            "id": 23,
            "name": "Dufferin—Caledon"
          }
        ],
        "pollDivisionIds": [
          10137801
        ],
        "postalCode": "L7C2N7",
        "streetName": "HORSESHOE HILL",
        "streetDirectionId": null,
        "streetTypeId": "RD",
        "placeName": "CALEDON VILLAGE",
        "streetNameDisplayText": "HORSESHOE HILL RD, CALEDON VILLAGE"
      }
    ]
  },
  {
    "postal": "L7C0H8",
    "result": [
      {
        "electoralDistricts": [
          {
            "election": null,
            "id": 23,
            "name": "Dufferin—Caledon"
          }
        ],
        "pollDivisionIds": [
          10137803
        ],
        "postalCode": "L7C0H8",
        "streetName": "OLDE BASE LINE",
        "streetDirectionId": null,
        "streetTypeId": "RD",
        "placeName": "TERRA COTTA",
        "streetNameDisplayText": "OLDE BASE LINE RD, TERRA COTTA"
      }
    ]
  },
  {
    "postal": "L7C7Z4",
    "result": []
  },
  {
    "postal": "L7C7B1",
    "result": []
  },
  {
    "postal": "L7C7P8",
    "result": []
  },
  {
    "postal": "L7C7N0",
    "result": []
  },
  {
    "postal": "L7C3Y5",
    "result": [
      {
        "electoralDistricts": [
          {
            "election": null,
            "id": 23,
            "name": "Dufferin—Caledon"
          }
        ],
        "pollDivisionIds": [
          10137808,
          10137807
        ],
        "postalCode": "L7C3Y5",
        "streetName": "KENNEDY",
        "streetDirectionId": null,
        "streetTypeId": "RD",
        "placeName": "CALEDON",
        "streetNameDisplayText": "KENNEDY RD, CALEDON"
      },
      {
        "electoralDistricts": [
          {
            "election": null,
            "id": 23,
            "name": "Dufferin—Caledon"
          }
        ],
        "pollDivisionIds": [
          10137807
        ],
        "postalCode": "L7C3Y5",
        "streetName": "STOWMARKET",
        "streetDirectionId": null,
        "streetTypeId": "ST",
        "placeName": "CALEDON",
        "streetNameDisplayText": "STOWMARKET ST, CALEDON"
      }
    ]
  },
  {
    "postal": "L7C6K1",
    "result": []
  },
  {
    "postal": "L7C9X5",
    "result": []
  },
  {
    "postal": "L7C7S5",
    "result": []
  },
  {
    "postal": "L7C0A4",
    "result": [
      {
        "electoralDistricts": [
          {
            "election": null,
            "id": 23,
            "name": "Dufferin—Caledon"
          }
        ],
        "pollDivisionIds": [
          10143845
        ],
        "postalCode": "L7C0A4",
        "streetName": "DAMASCUS",
        "streetDirectionId": null,
        "streetTypeId": "DR",
        "placeName": "CALEDON EAST",
        "streetNameDisplayText": "DAMASCUS DR, CALEDON EAST"
      },
      {
        "electoralDistricts": [
          {
            "election": null,
            "id": 23,
            "name": "Dufferin—Caledon"
          }
        ],
        "pollDivisionIds": [
          10143845
        ],
        "postalCode": "L7C0A4",
        "streetName": "MAN O WAR",
        "streetDirectionId": null,
        "streetTypeId": "CRT",
        "placeName": "CALEDON EAST",
        "streetNameDisplayText": "MAN O WAR CRT, CALEDON EAST"
      }
    ]
  },
  {
    "postal": "L7C4T5",
    "result": []
  },
  {
    "postal": "L7C5K1",
    "result": []
  },
  {
    "postal": "L7C0Z9",
    "result": [
      {
        "electoralDistricts": [
          {
            "election": null,
            "id": 23,
            "name": "Dufferin—Caledon"
          }
        ],
        "pollDivisionIds": [
          10137809
        ],
        "postalCode": "L7C0Z9",
        "streetName": "MAYFIELD",
        "streetDirectionId": null,
        "streetTypeId": "RD",
        "placeName": "CALEDON",
        "streetNameDisplayText": "MAYFIELD RD, CALEDON"
      }
    ]
  },
  {
    "postal": "L7C7T2",
    "result": []
  },
  {
    "postal": "L7C1L5",
    "result": [
      {
        "electoralDistricts": [
          {
            "election": null,
            "id": 23,
            "name": "Dufferin—Caledon"
          }
        ],
        "pollDivisionIds": [
          10137802
        ],
        "postalCode": "L7C1L5",
        "streetName": "LOUISE",
        "streetDirectionId": null,
        "streetTypeId": "ST",
        "placeName": "INGLEWOOD",
        "streetNameDisplayText": "LOUISE ST, INGLEWOOD"
      }
    ]
  },
  {
    "postal": "L7C3N5",
    "result": [
      {
        "electoralDistricts": [
          {
            "election": null,
            "id": 23,
            "name": "Dufferin—Caledon"
          }
        ],
        "pollDivisionIds": [
          10137807
        ],
        "postalCode": "L7C3N5",
        "streetName": "LEARMONT",
        "streetDirectionId": null,
        "streetTypeId": "AVE",
        "placeName": "CALEDON",
        "streetNameDisplayText": "LEARMONT AVE, CALEDON"
      },
      {
        "electoralDistricts": [
          {
            "election": null,
            "id": 23,
            "name": "Dufferin—Caledon"
          }
        ],
        "pollDivisionIds": [
          10137807
        ],
        "postalCode": "L7C3N5",
        "streetName": "LOSINO",
        "streetDirectionId": null,
        "streetTypeId": "ST",
        "placeName": "CALEDON",
        "streetNameDisplayText": "LOSINO ST, CALEDON"
      }
    ]
  },
  {
    "postal": "L7C6H4",
    "result": []
  },
  {
    "postal": "L7C5A5",
    "result": []
  },
  {
    "postal": "L7C3R9",
    "result": [
      {
        "electoralDistricts": [
          {
            "election": null,
            "id": 23,
            "name": "Dufferin—Caledon"
          }
        ],
        "pollDivisionIds": [
          10143845
        ],
        "postalCode": "L7C3R9",
        "streetName": "PAISLEY GREEN",
        "streetDirectionId": null,
        "streetTypeId": "AVE",
        "placeName": "CALEDON EAST",
        "streetNameDisplayText": "PAISLEY GREEN AVE, CALEDON EAST"
      }
    ]
  },
  {
    "postal": "L7C7L8",
    "result": []
  },
  {
    "postal": "L7C6T6",
    "result": []
  },
  {
    "postal": "L7C7Y7",
    "result": []
  },
  {
    "postal": "L7C3M8",
    "result": [
      {
        "electoralDistricts": [
          {
            "election": null,
            "id": 23,
            "name": "Dufferin—Caledon"
          }
        ],
        "pollDivisionIds": [
          10137807
        ],
        "postalCode": "L7C3M8",
        "streetName": "BENADIR",
        "streetDirectionId": null,
        "streetTypeId": "AVE",
        "placeName": "CALEDON",
        "streetNameDisplayText": "BENADIR AVE, CALEDON"
      },
      {
        "electoralDistricts": [
          {
            "election": null,
            "id": 23,
            "name": "Dufferin—Caledon"
          }
        ],
        "pollDivisionIds": [
          10137807
        ],
        "postalCode": "L7C3M8",
        "streetName": "COTTONFIELD",
        "streetDirectionId": null,
        "streetTypeId": "CIR",
        "placeName": "CALEDON",
        "streetNameDisplayText": "COTTONFIELD CIR, CALEDON"
      },
      {
        "electoralDistricts": [
          {
            "election": null,
            "id": 23,
            "name": "Dufferin—Caledon"
          }
        ],
        "pollDivisionIds": [
          10137807
        ],
        "postalCode": "L7C3M8",
        "streetName": "KENNEDY",
        "streetDirectionId": null,
        "streetTypeId": "RD",
        "placeName": "CALEDON",
        "streetNameDisplayText": "KENNEDY RD, CALEDON"
      }
    ]
  },
  {
    "postal": "L7C2E0",
    "result": []
  },
  {
    "postal": "L7C4B5",
    "result": [
      {
        "electoralDistricts": [
          {
            "election": null,
            "id": 23,
            "name": "Dufferin—Caledon"
          }
        ],
        "pollDivisionIds": [
          10137807
        ],
        "postalCode": "L7C4B5",
        "streetName": "BONNIEGLEN FARM",
        "streetDirectionId": null,
        "streetTypeId": "BLVD",
        "placeName": "CALEDON",
        "streetNameDisplayText": "BONNIEGLEN FARM BLVD, CALEDON"
      },
      {
        "electoralDistricts": [
          {
            "election": null,
            "id": 23,
            "name": "Dufferin—Caledon"
          }
        ],
        "pollDivisionIds": [
          10137807
        ],
        "postalCode": "L7C4B5",
        "streetName": "BONNIEGLEN FARM",
        "streetDirectionId": null,
        "streetTypeId": "BLVD",
        "placeName": "CALEDON VILLAGE",
        "streetNameDisplayText": "BONNIEGLEN FARM BLVD, CALEDON VILLAGE"
      },
      {
        "electoralDistricts": [
          {
            "election": null,
            "id": 23,
            "name": "Dufferin—Caledon"
          }
        ],
        "pollDivisionIds": [
          10137807,
          10137798
        ],
        "postalCode": "L7C4B5",
        "streetName": "HAMILTON",
        "streetDirectionId": null,
        "streetTypeId": "CRT",
        "placeName": "CALEDON",
        "streetNameDisplayText": "HAMILTON CRT, CALEDON"
      },
      {
        "electoralDistricts": [
          {
            "election": null,
            "id": 23,
            "name": "Dufferin—Caledon"
          }
        ],
        "pollDivisionIds": [
          10137807
        ],
        "postalCode": "L7C4B5",
        "streetName": "TWISTLETON",
        "streetDirectionId": null,
        "streetTypeId": "ST",
        "placeName": "CALEDON",
        "streetNameDisplayText": "TWISTLETON ST, CALEDON"
      }
    ]
  },
  {
    "postal": "L7C1J3",
    "result": [
      {
        "electoralDistricts": [
          {
            "election": null,
            "id": 23,
            "name": "Dufferin—Caledon"
          }
        ],
        "pollDivisionIds": [
          10143845
        ],
        "postalCode": "L7C1J3",
        "streetName": "AIRPORT",
        "streetDirectionId": null,
        "streetTypeId": "RD",
        "placeName": "CALEDON EAST",
        "streetNameDisplayText": "AIRPORT RD, CALEDON EAST"
      },
      {
        "electoralDistricts": [
          {
            "election": null,
            "id": 23,
            "name": "Dufferin—Caledon"
          }
        ],
        "pollDivisionIds": [
          10143845
        ],
        "postalCode": "L7C1J3",
        "streetName": "VALEWOOD",
        "streetDirectionId": null,
        "streetTypeId": "DR",
        "placeName": "CALEDON EAST",
        "streetNameDisplayText": "VALEWOOD DR, CALEDON EAST"
      },
      {
        "electoralDistricts": [
          {
            "election": null,
            "id": 23,
            "name": "Dufferin—Caledon"
          }
        ],
        "pollDivisionIds": [
          10143845
        ],
        "postalCode": "L7C1J3",
        "streetName": "VALLEYGREEN",
        "streetDirectionId": null,
        "streetTypeId": "CRES",
        "placeName": "CALEDON EAST",
        "streetNameDisplayText": "VALLEYGREEN CRES, CALEDON EAST"
      }
    ]
  },
  {
    "postal": "L7C5S6",
    "result": []
  },
  {
    "postal": "L7C8P7",
    "result": []
  },
  {
    "postal": "L7C7S7",
    "result": []
  },
  {
    "postal": "L7C4C2",
    "result": [
      {
        "electoralDistricts": [
          {
            "election": null,
            "id": 23,
            "name": "Dufferin—Caledon"
          }
        ],
        "pollDivisionIds": [
          10137807
        ],
        "postalCode": "L7C4C2",
        "streetName": "FALLVIEW",
        "streetDirectionId": null,
        "streetTypeId": "CIR",
        "placeName": "CALEDON",
        "streetNameDisplayText": "FALLVIEW CIR, CALEDON"
      }
    ]
  },
  {
    "postal": "L7C5Y0",
    "result": []
  },
  {
    "postal": "L7C2V7",
    "result": [
      {
        "electoralDistricts": [
          {
            "election": null,
            "id": 23,
            "name": "Dufferin—Caledon"
          }
        ],
        "pollDivisionIds": [
          10143845
        ],
        "postalCode": "L7C2V7",
        "streetName": "MOUNTAINVIEW",
        "streetDirectionId": null,
        "streetTypeId": "RD",
        "placeName": "CALEDON EAST",
        "streetNameDisplayText": "MOUNTAINVIEW RD, CALEDON EAST"
      }
    ]
  },
  {
    "postal": "L7C8P5",
    "result": []
  },
  {
    "postal": "L7C5P5",
    "result": []
  },
  {
    "postal": "L7C5Z0",
    "result": []
  },
  {
    "postal": "L7C9B0",
    "result": []
  },
  {
    "postal": "L7C1L0",
    "result": []
  },
  {
    "postal": "L7C0B5",
    "result": [
      {
        "electoralDistricts": [
          {
            "election": null,
            "id": 23,
            "name": "Dufferin—Caledon"
          }
        ],
        "pollDivisionIds": [
          10137801
        ],
        "postalCode": "L7C0B5",
        "streetName": "RUTLAND HILL",
        "streetDirectionId": null,
        "streetTypeId": "CRT",
        "placeName": "CALEDON EAST",
        "streetNameDisplayText": "RUTLAND HILL CRT, CALEDON EAST"
      }
    ]
  },
  {
    "postal": "L7C3L2",
    "result": [
      {
        "electoralDistricts": [
          {
            "election": null,
            "id": 23,
            "name": "Dufferin—Caledon"
          }
        ],
        "pollDivisionIds": [
          10137806
        ],
        "postalCode": "L7C3L2",
        "streetName": "STATION",
        "streetDirectionId": null,
        "streetTypeId": "RD",
        "placeName": "CHELTENHAM",
        "streetNameDisplayText": "STATION RD, CHELTENHAM"
      }
    ]
  },
  {
    "postal": "L7C3B7",
    "result": [
      {
        "electoralDistricts": [
          {
            "election": null,
            "id": 23,
            "name": "Dufferin—Caledon"
          }
        ],
        "pollDivisionIds": [
          10137809
        ],
        "postalCode": "L7C3B7",
        "streetName": "CENTREVILLE CREEK",
        "streetDirectionId": null,
        "streetTypeId": "RD",
        "placeName": "BOLTON",
        "streetNameDisplayText": "CENTREVILLE CREEK RD, BOLTON"
      }
    ]
  },
  {
    "postal": "L7C8L1",
    "result": []
  },
  {
    "postal": "L7C5M4",
    "result": []
  },
  {
    "postal": "L7C4G9",
    "result": []
  },
  {
    "postal": "L7C0P0",
    "result": []
  },
  {
    "postal": "L7C8G2",
    "result": []
  },
  {
    "postal": "L7C1V9",
    "result": [
      {
        "electoralDistricts": [
          {
            "election": null,
            "id": 23,
            "name": "Dufferin—Caledon"
          }
        ],
        "pollDivisionIds": [
          10137803
        ],
        "postalCode": "L7C1V9",
        "streetName": "SHAWS CREEK",
        "streetDirectionId": null,
        "streetTypeId": "RD",
        "placeName": "TERRA COTTA",
        "streetNameDisplayText": "SHAWS CREEK RD, TERRA COTTA"
      }
    ]
  },
  {
    "postal": "L7C8N8",
    "result": []
  },
  {
    "postal": "L7C6S8",
    "result": []
  },
  {
    "postal": "L7C8H2",
    "result": []
  },
  {
    "postal": "L7C5R8",
    "result": []
  },
  {
    "postal": "L7C5L4",
    "result": []
  },
  {
    "postal": "L7C9E1",
    "result": []
  },
  {
    "postal": "L7C1C4",
    "result": [
      {
        "electoralDistricts": [
          {
            "election": null,
            "id": 23,
            "name": "Dufferin—Caledon"
          }
        ],
        "pollDivisionIds": [
          10137808
        ],
        "postalCode": "L7C1C4",
        "streetName": "AMBERDALE",
        "streetDirectionId": null,
        "streetTypeId": "CRT",
        "placeName": "CALEDON",
        "streetNameDisplayText": "AMBERDALE CRT, CALEDON"
      },
      {
        "electoralDistricts": [
          {
            "election": null,
            "id": 23,
            "name": "Dufferin—Caledon"
          }
        ],
        "pollDivisionIds": [
          10137808
        ],
        "postalCode": "L7C1C4",
        "streetName": "PINEBROOK",
        "streetDirectionId": null,
        "streetTypeId": "CIR",
        "placeName": "CALEDON",
        "streetNameDisplayText": "PINEBROOK CIR, CALEDON"
      }
    ]
  },
  {
    "postal": "L7C8W5",
    "result": []
  },
  {
    "postal": "L7C1Y4",
    "result": [
      {
        "electoralDistricts": [
          {
            "election": null,
            "id": 23,
            "name": "Dufferin—Caledon"
          }
        ],
        "pollDivisionIds": [
          10137806
        ],
        "postalCode": "L7C1Y4",
        "streetName": "CREDITVIEW",
        "streetDirectionId": null,
        "streetTypeId": "RD",
        "placeName": "CHELTENHAM",
        "streetNameDisplayText": "CREDITVIEW RD, CHELTENHAM"
      }
    ]
  },
  {
    "postal": "L7C1C0",
    "result": []
  },
  {
    "postal": "L7C2J2",
    "result": [
      {
        "electoralDistricts": [
          {
            "election": null,
            "id": 23,
            "name": "Dufferin—Caledon"
          }
        ],
        "pollDivisionIds": [
          10137807
        ],
        "postalCode": "L7C2J2",
        "streetName": "HEART LAKE",
        "streetDirectionId": null,
        "streetTypeId": "RD",
        "placeName": "CALEDON",
        "streetNameDisplayText": "HEART LAKE RD, CALEDON"
      }
    ]
  },
  {
    "postal": "L7C2J0",
    "result": []
  },
  {
    "postal": "L7C7A3",
    "result": []
  },
  {
    "postal": "L7C8M1",
    "result": []
  },
  {
    "postal": "L7C7T9",
    "result": []
  },
  {
    "postal": "L7C6C0",
    "result": []
  },
  {
    "postal": "L7C7X1",
    "result": []
  },
  {
    "postal": "L7C0G1",
    "result": [
      {
        "electoralDistricts": [
          {
            "election": null,
            "id": 23,
            "name": "Dufferin—Caledon"
          }
        ],
        "pollDivisionIds": [
          10137801
        ],
        "postalCode": "L7C0G1",
        "streetName": "THE GRANGE",
        "streetDirectionId": null,
        "streetTypeId": "SIDERD",
        "placeName": "CALEDON VILLAGE",
        "streetNameDisplayText": "THE GRANGE SIDERD, CALEDON VILLAGE"
      }
    ]
  },
  {
    "postal": "L7C4X2",
    "result": []
  },
  {
    "postal": "L7C0N6",
    "result": [
      {
        "electoralDistricts": [
          {
            "election": null,
            "id": 23,
            "name": "Dufferin—Caledon"
          }
        ],
        "pollDivisionIds": [
          10137807
        ],
        "postalCode": "L7C0N6",
        "streetName": "BOSTON MILLS",
        "streetDirectionId": null,
        "streetTypeId": "RD",
        "placeName": "INGLEWOOD",
        "streetNameDisplayText": "BOSTON MILLS RD, INGLEWOOD"
      }
    ]
  },
  {
    "postal": "L7C8E3",
    "result": []
  },
  {
    "postal": "L7C5S8",
    "result": []
  },
  {
    "postal": "L7C0R0",
    "result": []
  },
  {
    "postal": "L7C6J6",
    "result": []
  },
  {
    "postal": "L7C4B4",
    "result": [
      {
        "electoralDistricts": [
          {
            "election": null,
            "id": 23,
            "name": "Dufferin—Caledon"
          }
        ],
        "pollDivisionIds": [
          10143845,
          10137784,
          10137807,
          10137808
        ],
        "postalCode": "L7C4B4",
        "streetName": "MAPLE CIDER",
        "streetDirectionId": null,
        "streetTypeId": "ST",
        "placeName": "CALEDON",
        "streetNameDisplayText": "MAPLE CIDER ST, CALEDON"
      }
    ]
  },
  {
    "postal": "L7C7E3",
    "result": []
  },
  {
    "postal": "L7C3N6",
    "result": [
      {
        "electoralDistricts": [
          {
            "election": null,
            "id": 23,
            "name": "Dufferin—Caledon"
          }
        ],
        "pollDivisionIds": [
          10137807
        ],
        "postalCode": "L7C3N6",
        "streetName": "BENADIR",
        "streetDirectionId": null,
        "streetTypeId": "AVE",
        "placeName": "CALEDON",
        "streetNameDisplayText": "BENADIR AVE, CALEDON"
      },
      {
        "electoralDistricts": [
          {
            "election": null,
            "id": 23,
            "name": "Dufferin—Caledon"
          }
        ],
        "pollDivisionIds": [
          10137807
        ],
        "postalCode": "L7C3N6",
        "streetName": "LEARMONT",
        "streetDirectionId": null,
        "streetTypeId": "AVE",
        "placeName": "CALEDON",
        "streetNameDisplayText": "LEARMONT AVE, CALEDON"
      }
    ]
  },
  {
    "postal": "L7C3X6",
    "result": [
      {
        "electoralDistricts": [
          {
            "election": null,
            "id": 23,
            "name": "Dufferin—Caledon"
          }
        ],
        "pollDivisionIds": [
          10143845
        ],
        "postalCode": "L7C3X6",
        "streetName": "LIZZIE",
        "streetDirectionId": null,
        "streetTypeId": "CRT",
        "placeName": "CALEDON EAST",
        "streetNameDisplayText": "LIZZIE CRT, CALEDON EAST"
      }
    ]
  },
  {
    "postal": "L7C8L0",
    "result": []
  },
  {
    "postal": "L7C8N1",
    "result": []
  },
  {
    "postal": "L7C4J0",
    "result": []
  },
  {
    "postal": "L7C0X7",
    "result": [
      {
        "electoralDistricts": [
          {
            "election": null,
            "id": 23,
            "name": "Dufferin—Caledon"
          }
        ],
        "pollDivisionIds": [
          10137806
        ],
        "postalCode": "L7C0X7",
        "streetName": "OLD SCHOOL",
        "streetDirectionId": null,
        "streetTypeId": "RD",
        "placeName": "CALEDON",
        "streetNameDisplayText": "OLD SCHOOL RD, CALEDON"
      },
      {
        "electoralDistricts": [
          {
            "election": null,
            "id": 23,
            "name": "Dufferin—Caledon"
          }
        ],
        "pollDivisionIds": [
          10137806
        ],
        "postalCode": "L7C0X7",
        "streetName": "OLDSCHOOL RD",
        "streetDirectionId": null,
        "streetTypeId": "RD",
        "placeName": "CALEDON",
        "streetNameDisplayText": "OLDSCHOOL RD RD, CALEDON"
      },
      {
        "electoralDistricts": [
          {
            "election": null,
            "id": 23,
            "name": "Dufferin—Caledon"
          }
        ],
        "pollDivisionIds": [
          10137806
        ],
        "postalCode": "L7C0X7",
        "streetName": "OLDSCHOOL",
        "streetDirectionId": null,
        "streetTypeId": "RD",
        "placeName": "CALEDON",
        "streetNameDisplayText": "OLDSCHOOL RD, CALEDON"
      }
    ]
  },
  {
    "postal": "L7C6S4",
    "result": []
  },
  {
    "postal": "L7C0Z0",
    "result": []
  },
  {
    "postal": "L7C9X8",
    "result": []
  },
  {
    "postal": "L7C3H3",
    "result": [
      {
        "electoralDistricts": [
          {
            "election": null,
            "id": 23,
            "name": "Dufferin—Caledon"
          }
        ],
        "pollDivisionIds": [
          10137807
        ],
        "postalCode": "L7C3H3",
        "streetName": "CHINGUACOUSY",
        "streetDirectionId": null,
        "streetTypeId": "RD",
        "placeName": "CHELTENHAM",
        "streetNameDisplayText": "CHINGUACOUSY RD, CHELTENHAM"
      }
    ]
  },
  {
    "postal": "L7C7S2",
    "result": []
  },
  {
    "postal": "L7C3T3",
    "result": [
      {
        "electoralDistricts": [
          {
            "election": null,
            "id": 23,
            "name": "Dufferin—Caledon"
          }
        ],
        "pollDivisionIds": [
          10137808
        ],
        "postalCode": "L7C3T3",
        "streetName": "SNELLVIEW",
        "streetDirectionId": null,
        "streetTypeId": "BLVD",
        "placeName": "CALEDON",
        "streetNameDisplayText": "SNELLVIEW BLVD, CALEDON"
      }
    ]
  },
  {
    "postal": "L7C9P3",
    "result": []
  },
  {
    "postal": "L7C4H8",
    "result": []
  },
  {
    "postal": "L7C6R1",
    "result": []
  },
  {
    "postal": "L7C1S0",
    "result": []
  },
  {
    "postal": "L7C3W8",
    "result": []
  },
  {
    "postal": "L7C4S3",
    "result": []
  },
  {
    "postal": "L7C1B6",
    "result": [
      {
        "electoralDistricts": [
          {
            "election": null,
            "id": 23,
            "name": "Dufferin—Caledon"
          }
        ],
        "pollDivisionIds": [
          10137808
        ],
        "postalCode": "L7C1B6",
        "streetName": "ASPENWOOD",
        "streetDirectionId": null,
        "streetTypeId": "TRAIL",
        "placeName": "CALEDON",
        "streetNameDisplayText": "ASPENWOOD TRAIL, CALEDON"
      },
      {
        "electoralDistricts": [
          {
            "election": null,
            "id": 23,
            "name": "Dufferin—Caledon"
          }
        ],
        "pollDivisionIds": [
          10137808
        ],
        "postalCode": "L7C1B6",
        "streetName": "BRADWICK",
        "streetDirectionId": null,
        "streetTypeId": "CRT",
        "placeName": "CALEDON",
        "streetNameDisplayText": "BRADWICK CRT, CALEDON"
      }
    ]
  },
  {
    "postal": "L7C8R3",
    "result": []
  },
  {
    "postal": "L7C4V9",
    "result": []
  },
  {
    "postal": "L7C9W4",
    "result": []
  },
  {
    "postal": "L7C3T4",
    "result": [
      {
        "electoralDistricts": [
          {
            "election": null,
            "id": 23,
            "name": "Dufferin—Caledon"
          }
        ],
        "pollDivisionIds": [
          10137808
        ],
        "postalCode": "L7C3T4",
        "streetName": "GENTLE FOX",
        "streetDirectionId": null,
        "streetTypeId": "DR",
        "placeName": "CALEDON",
        "streetNameDisplayText": "GENTLE FOX DR, CALEDON"
      },
      {
        "electoralDistricts": [
          {
            "election": null,
            "id": 23,
            "name": "Dufferin—Caledon"
          }
        ],
        "pollDivisionIds": [
          10137808
        ],
        "postalCode": "L7C3T4",
        "streetName": "PRINCE PHILIP",
        "streetDirectionId": null,
        "streetTypeId": "CRT",
        "placeName": "CALEDON",
        "streetNameDisplayText": "PRINCE PHILIP CRT, CALEDON"
      },
      {
        "electoralDistricts": [
          {
            "election": null,
            "id": 23,
            "name": "Dufferin—Caledon"
          }
        ],
        "pollDivisionIds": [
          10137808
        ],
        "postalCode": "L7C3T4",
        "streetName": "SNELLVIEW",
        "streetDirectionId": null,
        "streetTypeId": "BLVD",
        "placeName": "CALEDON",
        "streetNameDisplayText": "SNELLVIEW BLVD, CALEDON"
      }
    ]
  },
  {
    "postal": "L7C5C7",
    "result": []
  },
  {
    "postal": "L7C3Y1",
    "result": []
  },
  {
    "postal": "L7C5V0",
    "result": []
  },
  {
    "postal": "L7C8G8",
    "result": []
  },
  {
    "postal": "L7C8B1",
    "result": []
  },
  {
    "postal": "L7C4P5",
    "result": []
  },
  {
    "postal": "L7C7B2",
    "result": []
  },
  {
    "postal": "L7C0R2",
    "result": [
      {
        "electoralDistricts": [
          {
            "election": null,
            "id": 23,
            "name": "Dufferin—Caledon"
          }
        ],
        "pollDivisionIds": [
          10137807
        ],
        "postalCode": "L7C0R2",
        "streetName": "KING",
        "streetDirectionId": null,
        "streetTypeId": "ST",
        "placeName": "CHELTENHAM",
        "streetNameDisplayText": "KING ST, CHELTENHAM"
      }
    ]
  },
  {
    "postal": "L7C4M4",
    "result": []
  },
  {
    "postal": "L7C7M4",
    "result": []
  },
  {
    "postal": "L7C9S7",
    "result": []
  },
  {
    "postal": "L7C5Z7",
    "result": []
  },
  {
    "postal": "L7C7J7",
    "result": []
  },
  {
    "postal": "L7C8R8",
    "result": []
  },
  {
    "postal": "L7C9X1",
    "result": []
  },
  {
    "postal": "L7C5M9",
    "result": []
  },
  {
    "postal": "L7C9B4",
    "result": []
  },
  {
    "postal": "L7C0L9",
    "result": [
      {
        "electoralDistricts": [
          {
            "election": null,
            "id": 23,
            "name": "Dufferin—Caledon"
          }
        ],
        "pollDivisionIds": [
          10137806
        ],
        "postalCode": "L7C0L9",
        "streetName": "BOSTON MILLS",
        "streetDirectionId": null,
        "streetTypeId": "RD",
        "placeName": "CALEDON",
        "streetNameDisplayText": "BOSTON MILLS RD, CALEDON"
      }
    ]
  },
  {
    "postal": "L7C9G4",
    "result": []
  },
  {
    "postal": "L7C1J4",
    "result": [
      {
        "electoralDistricts": [
          {
            "election": null,
            "id": 23,
            "name": "Dufferin—Caledon"
          }
        ],
        "pollDivisionIds": [
          10137802
        ],
        "postalCode": "L7C1J4",
        "streetName": "MCCOLL",
        "streetDirectionId": null,
        "streetTypeId": "DR",
        "placeName": "INGLEWOOD",
        "streetNameDisplayText": "MCCOLL DR, INGLEWOOD"
      },
      {
        "electoralDistricts": [
          {
            "election": null,
            "id": 23,
            "name": "Dufferin—Caledon"
          }
        ],
        "pollDivisionIds": [
          10137802
        ],
        "postalCode": "L7C1J4",
        "streetName": "MCLAUGHLIN",
        "streetDirectionId": null,
        "streetTypeId": "RD",
        "placeName": "INGLEWOOD",
        "streetNameDisplayText": "MCLAUGHLIN RD, INGLEWOOD"
      }
    ]
  },
  {
    "postal": "L7C0W6",
    "result": [
      {
        "electoralDistricts": [
          {
            "election": null,
            "id": 23,
            "name": "Dufferin—Caledon"
          }
        ],
        "pollDivisionIds": [
          10137807
        ],
        "postalCode": "L7C0W6",
        "streetName": "OLD SCHOOL",
        "streetDirectionId": null,
        "streetTypeId": "RD",
        "placeName": "CALEDON EAST",
        "streetNameDisplayText": "OLD SCHOOL RD, CALEDON EAST"
      }
    ]
  }
]
