[
  {
    "postal": "L0H1A0",
    "result": [
      {
        "electoralDistricts": [
          {
            "election": null,
            "id": 87,
            "name": "Pickering—Uxbridge"
          }
        ],
        "pollDivisionIds": [
          10143374
        ],
        "postalCode": "L0H1A0",
        "streetName": "7",
        "streetDirectionId": null,
        "streetTypeId": "HWY",
        "placeName": "BROUGHAM",
        "streetNameDisplayText": "7 HWY, BROUGHAM"
      },
      {
        "electoralDistricts": [
          {
            "election": null,
            "id": 87,
            "name": "Pickering—Uxbridge"
          }
        ],
        "pollDivisionIds": [
          10143374
        ],
        "postalCode": "L0H1A0",
        "streetName": "BROCK",
        "streetDirectionId": null,
        "streetTypeId": "RD",
        "placeName": "BROUGHAM",
        "streetNameDisplayText": "BROCK RD, BROUGHAM"
      },
      {
        "electoralDistricts": [
          {
            "election": null,
            "id": 87,
            "name": "Pickering—Uxbridge"
          }
        ],
        "pollDivisionIds": [
          10143374
        ],
        "postalCode": "L0H1A0",
        "streetName": "BROUGHAM",
        "streetDirectionId": null,
        "streetTypeId": "RD",
        "placeName": "BROUGHAM",
        "streetNameDisplayText": "BROUGHAM RD, BROUGHAM"
      },
      {
        "electoralDistricts": [
          {
            "election": null,
            "id": 87,
            "name": "Pickering—Uxbridge"
          }
        ],
        "pollDivisionIds": [
          10143373
        ],
        "postalCode": "L0H1A0",
        "streetName": "CONCESSION ROAD 7",
        "streetDirectionId": null,
        "streetTypeId": "CONC",
        "placeName": "LOCUST HILL",
        "streetNameDisplayText": "CONCESSION ROAD 7 CONC, LOCUST HILL"
      },
      {
        "electoralDistricts": [
          {
            "election": null,
            "id": 87,
            "name": "Pickering—Uxbridge"
          }
        ],
        "pollDivisionIds": [
          10143374
        ],
        "postalCode": "L0H1A0",
        "streetName": "COUNTRY",
        "streetDirectionId": null,
        "streetTypeId": "LANE",
        "placeName": "BROUGHAM",
        "streetNameDisplayText": "COUNTRY LANE, BROUGHAM"
      },
      {
        "electoralDistricts": [
          {
            "election": null,
            "id": 87,
            "name": "Pickering—Uxbridge"
          }
        ],
        "pollDivisionIds": [
          10143374
        ],
        "postalCode": "L0H1A0",
        "streetName": "DELMEADE",
        "streetDirectionId": null,
        "streetTypeId": "RD",
        "placeName": "BROUGHAM",
        "streetNameDisplayText": "DELMEADE RD, BROUGHAM"
      },
      {
        "electoralDistricts": [
          {
            "election": null,
            "id": 87,
            "name": "Pickering—Uxbridge"
          }
        ],
        "pollDivisionIds": [
          10143374
        ],
        "postalCode": "L0H1A0",
        "streetName": "DONNALEA",
        "streetDirectionId": null,
        "streetTypeId": "AVE",
        "placeName": "BROUGHAM",
        "streetNameDisplayText": "DONNALEA AVE, BROUGHAM"
      },
      {
        "electoralDistricts": [
          {
            "election": null,
            "id": 87,
            "name": "Pickering—Uxbridge"
          }
        ],
        "pollDivisionIds": [
          10143374
        ],
        "postalCode": "L0H1A0",
        "streetName": "MOWBRAY",
        "streetDirectionId": null,
        "streetTypeId": "RD",
        "placeName": "BROUGHAM",
        "streetNameDisplayText": "MOWBRAY RD, BROUGHAM"
      },
      {
        "electoralDistricts": [
          {
            "election": null,
            "id": 87,
            "name": "Pickering—Uxbridge"
          }
        ],
        "pollDivisionIds": [
          10143374
        ],
        "postalCode": "L0H1A0",
        "streetName": "MOWBRAY",
        "streetDirectionId": null,
        "streetTypeId": "ST",
        "placeName": "BROUGHAM",
        "streetNameDisplayText": "MOWBRAY ST, BROUGHAM"
      },
      {
        "electoralDistricts": [
          {
            "election": null,
            "id": 87,
            "name": "Pickering—Uxbridge"
          }
        ],
        "pollDivisionIds": [
          10143374
        ],
        "postalCode": "L0H1A0",
        "streetName": "ORCHARD HEIGHTS",
        "streetDirectionId": null,
        "streetTypeId": "DR",
        "placeName": "BROUGHAM",
        "streetNameDisplayText": "ORCHARD HEIGHTS DR, BROUGHAM"
      },
      {
        "electoralDistricts": [
          {
            "election": null,
            "id": 87,
            "name": "Pickering—Uxbridge"
          }
        ],
        "pollDivisionIds": [
          10143374
        ],
        "postalCode": "L0H1A0",
        "streetName": "SIDELINE 16",
        "streetDirectionId": null,
        "streetTypeId": null,
        "placeName": "BROUGHAM",
        "streetNameDisplayText": "SIDELINE 16, BROUGHAM"
      }
    ]
  },
  {
    "postal": "L0H1C0",
    "result": []
  },
  {
    "postal": "L0H1E0",
    "result": []
  },
  {
    "postal": "L0H1G0",
    "result": [
      {
        "electoralDistricts": [
          {
            "election": null,
            "id": 56,
            "name": "Markham—Stouffville"
          }
        ],
        "pollDivisionIds": [
          10134338
        ],
        "postalCode": "L0H1G0",
        "streetName": "AURORA",
        "streetDirectionId": null,
        "streetTypeId": "RD",
        "placeName": "GORMLEY",
        "streetNameDisplayText": "AURORA RD, GORMLEY"
      },
      {
        "electoralDistricts": [
          {
            "election": null,
            "id": 56,
            "name": "Markham—Stouffville"
          }
        ],
        "pollDivisionIds": [
          10134338
        ],
        "postalCode": "L0H1G0",
        "streetName": "AURORA",
        "streetDirectionId": null,
        "streetTypeId": "RD",
        "placeName": "NEWMARKET",
        "streetNameDisplayText": "AURORA RD, NEWMARKET"
      },
      {
        "electoralDistricts": [
          {
            "election": null,
            "id": 56,
            "name": "Markham—Stouffville"
          }
        ],
        "pollDivisionIds": [
          10134338
        ],
        "postalCode": "L0H1G0",
        "streetName": "BEACH",
        "streetDirectionId": null,
        "streetTypeId": "RD",
        "placeName": "GORMLEY",
        "streetNameDisplayText": "BEACH RD, GORMLEY"
      },
      {
        "electoralDistricts": [
          {
            "election": null,
            "id": 56,
            "name": "Markham—Stouffville"
          }
        ],
        "pollDivisionIds": [
          10134345
        ],
        "postalCode": "L0H1G0",
        "streetName": "BETHESDA",
        "streetDirectionId": null,
        "streetTypeId": "RD",
        "placeName": "GORMLEY",
        "streetNameDisplayText": "BETHESDA RD, GORMLEY"
      },
      {
        "electoralDistricts": [
          {
            "election": null,
            "id": 3,
            "name": "Aurora—Oak Ridges—Richmond Hill"
          }
        ],
        "pollDivisionIds": [
          10136827
        ],
        "postalCode": "L0H1G0",
        "streetName": "BETHESDA",
        "streetDirectionId": null,
        "streetTypeId": "SIDERD",
        "placeName": "RICHMOND HILL",
        "streetNameDisplayText": "BETHESDA SIDERD, RICHMOND HILL"
      },
      {
        "electoralDistricts": [
          {
            "election": null,
            "id": 56,
            "name": "Markham—Stouffville"
          }
        ],
        "pollDivisionIds": [
          10134338,
          10134345
        ],
        "postalCode": "L0H1G0",
        "streetName": "BLOOMINGTON",
        "streetDirectionId": null,
        "streetTypeId": "RD",
        "placeName": "GORMLEY",
        "streetNameDisplayText": "BLOOMINGTON RD, GORMLEY"
      },
      {
        "electoralDistricts": [
          {
            "election": null,
            "id": 3,
            "name": "Aurora—Oak Ridges—Richmond Hill"
          }
        ],
        "pollDivisionIds": [
          10136821
        ],
        "postalCode": "L0H1G0",
        "streetName": "BLOOMINGTON",
        "streetDirectionId": null,
        "streetTypeId": "RD",
        "placeName": "RICHMOND HILL",
        "streetNameDisplayText": "BLOOMINGTON RD, RICHMOND HILL"
      },
      {
        "electoralDistricts": [
          {
            "election": null,
            "id": 56,
            "name": "Markham—Stouffville"
          }
        ],
        "pollDivisionIds": [
          10134345
        ],
        "postalCode": "L0H1G0",
        "streetName": "DONER",
        "streetDirectionId": null,
        "streetTypeId": "AVE",
        "placeName": "GORMLEY",
        "streetNameDisplayText": "DONER AVE, GORMLEY"
      },
      {
        "electoralDistricts": [
          {
            "election": null,
            "id": 56,
            "name": "Markham—Stouffville"
          }
        ],
        "pollDivisionIds": [
          10134345
        ],
        "postalCode": "L0H1G0",
        "streetName": "DONER",
        "streetDirectionId": null,
        "streetTypeId": "ST",
        "placeName": "GORMLEY",
        "streetNameDisplayText": "DONER ST, GORMLEY"
      },
      {
        "electoralDistricts": [
          {
            "election": null,
            "id": 56,
            "name": "Markham—Stouffville"
          }
        ],
        "pollDivisionIds": [
          10134338
        ],
        "postalCode": "L0H1G0",
        "streetName": "FORTECON",
        "streetDirectionId": null,
        "streetTypeId": "DR",
        "placeName": "GORMLEY",
        "streetNameDisplayText": "FORTECON DR, GORMLEY"
      },
      {
        "electoralDistricts": [
          {
            "election": null,
            "id": 56,
            "name": "Markham—Stouffville"
          }
        ],
        "pollDivisionIds": [
          10134345
        ],
        "postalCode": "L0H1G0",
        "streetName": "GORMLEY INDUSTRIAL",
        "streetDirectionId": null,
        "streetTypeId": "AVE",
        "placeName": "GORMLEY",
        "streetNameDisplayText": "GORMLEY INDUSTRIAL AVE, GORMLEY"
      },
      {
        "electoralDistricts": [
          {
            "election": null,
            "id": 56,
            "name": "Markham—Stouffville"
          }
        ],
        "pollDivisionIds": [
          10134345
        ],
        "postalCode": "L0H1G0",
        "streetName": "KENNEDY",
        "streetDirectionId": null,
        "streetTypeId": "LANE",
        "placeName": "GORMLEY",
        "streetNameDisplayText": "KENNEDY LANE, GORMLEY"
      },
      {
        "electoralDistricts": [
          {
            "election": null,
            "id": 3,
            "name": "Aurora—Oak Ridges—Richmond Hill"
          }
        ],
        "pollDivisionIds": [
          10136836
        ],
        "postalCode": "L0H1G0",
        "streetName": "LESLIE",
        "streetDirectionId": null,
        "streetTypeId": "ST",
        "placeName": "GORMLEY",
        "streetNameDisplayText": "LESLIE ST, GORMLEY"
      },
      {
        "electoralDistricts": [
          {
            "election": null,
            "id": 56,
            "name": "Markham—Stouffville"
          }
        ],
        "pollDivisionIds": [
          10134345
        ],
        "postalCode": "L0H1G0",
        "streetName": "MCCOWAN",
        "streetDirectionId": null,
        "streetTypeId": "RD",
        "placeName": "MARKHAM",
        "streetNameDisplayText": "MCCOWAN RD, MARKHAM"
      },
      {
        "electoralDistricts": [
          {
            "election": null,
            "id": 56,
            "name": "Markham—Stouffville"
          }
        ],
        "pollDivisionIds": [
          10134338
        ],
        "postalCode": "L0H1G0",
        "streetName": "NORBETT",
        "streetDirectionId": null,
        "streetTypeId": "DR",
        "placeName": "GORMLEY",
        "streetNameDisplayText": "NORBETT DR, GORMLEY"
      },
      {
        "electoralDistricts": [
          {
            "election": null,
            "id": 56,
            "name": "Markham—Stouffville"
          }
        ],
        "pollDivisionIds": [
          10134338
        ],
        "postalCode": "L0H1G0",
        "streetName": "RAM FOREST",
        "streetDirectionId": null,
        "streetTypeId": "RD",
        "placeName": "GORMLEY",
        "streetNameDisplayText": "RAM FOREST RD, GORMLEY"
      },
      {
        "electoralDistricts": [
          {
            "election": null,
            "id": 56,
            "name": "Markham—Stouffville"
          }
        ],
        "pollDivisionIds": [
          10134338
        ],
        "postalCode": "L0H1G0",
        "streetName": "ROSEWOOD",
        "streetDirectionId": null,
        "streetTypeId": "CRT",
        "placeName": "GORMLEY",
        "streetNameDisplayText": "ROSEWOOD CRT, GORMLEY"
      },
      {
        "electoralDistricts": [
          {
            "election": null,
            "id": 56,
            "name": "Markham—Stouffville"
          }
        ],
        "pollDivisionIds": [
          10134345
        ],
        "postalCode": "L0H1G0",
        "streetName": "SHERRICK",
        "streetDirectionId": null,
        "streetTypeId": "DR",
        "placeName": "GORMLEY",
        "streetNameDisplayText": "SHERRICK DR, GORMLEY"
      },
      {
        "electoralDistricts": [
          {
            "election": null,
            "id": 56,
            "name": "Markham—Stouffville"
          }
        ],
        "pollDivisionIds": [
          10134338
        ],
        "postalCode": "L0H1G0",
        "streetName": "SLATERS",
        "streetDirectionId": null,
        "streetTypeId": "RD",
        "placeName": "GORMLEY",
        "streetNameDisplayText": "SLATERS RD, GORMLEY"
      },
      {
        "electoralDistricts": [
          {
            "election": null,
            "id": 56,
            "name": "Markham—Stouffville"
          }
        ],
        "pollDivisionIds": [
          10134338
        ],
        "postalCode": "L0H1G0",
        "streetName": "ST JOHN'S",
        "streetDirectionId": null,
        "streetTypeId": "SIDERD",
        "placeName": "GORMLEY",
        "streetNameDisplayText": "ST JOHN'S SIDERD, GORMLEY"
      },
      {
        "electoralDistricts": [
          {
            "election": null,
            "id": 56,
            "name": "Markham—Stouffville"
          }
        ],
        "pollDivisionIds": [
          10134345
        ],
        "postalCode": "L0H1G0",
        "streetName": "STALWART INDUSTRIAL",
        "streetDirectionId": null,
        "streetTypeId": "DR",
        "placeName": "GORMLEY",
        "streetNameDisplayText": "STALWART INDUSTRIAL DR, GORMLEY"
      },
      {
        "electoralDistricts": [
          {
            "election": null,
            "id": 56,
            "name": "Markham—Stouffville"
          }
        ],
        "pollDivisionIds": [
          10134345
        ],
        "postalCode": "L0H1G0",
        "streetName": "STOUFFVILLE",
        "streetDirectionId": "W",
        "streetTypeId": "RD",
        "placeName": "GORMLEY",
        "streetNameDisplayText": "STOUFFVILLE RD W, GORMLEY"
      },
      {
        "electoralDistricts": [
          {
            "election": null,
            "id": 56,
            "name": "Markham—Stouffville"
          }
        ],
        "pollDivisionIds": [
          10134345
        ],
        "postalCode": "L0H1G0",
        "streetName": "STOUFFVILLE",
        "streetDirectionId": null,
        "streetTypeId": "RD",
        "placeName": "GORMLEY",
        "streetNameDisplayText": "STOUFFVILLE RD, GORMLEY"
      },
      {
        "electoralDistricts": [
          {
            "election": null,
            "id": 56,
            "name": "Markham—Stouffville"
          }
        ],
        "pollDivisionIds": [
          10134345
        ],
        "postalCode": "L0H1G0",
        "streetName": "UNION",
        "streetDirectionId": null,
        "streetTypeId": "ST",
        "placeName": "GORMLEY",
        "streetNameDisplayText": "UNION ST, GORMLEY"
      },
      {
        "electoralDistricts": [
          {
            "election": null,
            "id": 56,
            "name": "Markham—Stouffville"
          }
        ],
        "pollDivisionIds": [
          10134338
        ],
        "postalCode": "L0H1G0",
        "streetName": "VANDORF",
        "streetDirectionId": null,
        "streetTypeId": "SIDERD",
        "placeName": "GORMLEY",
        "streetNameDisplayText": "VANDORF SIDERD, GORMLEY"
      },
      {
        "electoralDistricts": [
          {
            "election": null,
            "id": 56,
            "name": "Markham—Stouffville"
          }
        ],
        "pollDivisionIds": [
          10134345
        ],
        "postalCode": "L0H1G0",
        "streetName": "WARDEN",
        "streetDirectionId": null,
        "streetTypeId": "AVE",
        "placeName": "GORMLEY",
        "streetNameDisplayText": "WARDEN AVE, GORMLEY"
      },
      {
        "electoralDistricts": [
          {
            "election": null,
            "id": 56,
            "name": "Markham—Stouffville"
          }
        ],
        "pollDivisionIds": [
          10134345,
          10134338
        ],
        "postalCode": "L0H1G0",
        "streetName": "WOODBINE",
        "streetDirectionId": "S",
        "streetTypeId": "AVE",
        "placeName": "GORMLEY",
        "streetNameDisplayText": "WOODBINE AVE S, GORMLEY"
      },
      {
        "electoralDistricts": [
          {
            "election": null,
            "id": 56,
            "name": "Markham—Stouffville"
          }
        ],
        "pollDivisionIds": [
          10134345,
          10134338
        ],
        "postalCode": "L0H1G0",
        "streetName": "WOODBINE",
        "streetDirectionId": null,
        "streetTypeId": "AVE",
        "placeName": "GORMLEY",
        "streetNameDisplayText": "WOODBINE AVE, GORMLEY"
      },
      {
        "electoralDistricts": [
          {
            "election": null,
            "id": 56,
            "name": "Markham—Stouffville"
          }
        ],
        "pollDivisionIds": [
          10134345
        ],
        "postalCode": "L0H1G0",
        "streetName": "WOODBINE",
        "streetDirectionId": null,
        "streetTypeId": "AVE",
        "placeName": "MARKHAM",
        "streetNameDisplayText": "WOODBINE AVE, MARKHAM"
      },
      {
        "electoralDistricts": [
          {
            "election": null,
            "id": 56,
            "name": "Markham—Stouffville"
          }
        ],
        "pollDivisionIds": [
          10134345
        ],
        "postalCode": "L0H1G0",
        "streetName": "WOODBINE",
        "streetDirectionId": null,
        "streetTypeId": "AVE",
        "placeName": "STOUFFVILE",
        "streetNameDisplayText": "WOODBINE AVE, STOUFFVILE"
      },
      {
        "electoralDistricts": [
          {
            "election": null,
            "id": 56,
            "name": "Markham—Stouffville"
          }
        ],
        "pollDivisionIds": [
          10134345
        ],
        "postalCode": "L0H1G0",
        "streetName": "WOODBINE",
        "streetDirectionId": null,
        "streetTypeId": "AVE",
        "placeName": "WHITCHURCH-STOUFFVILLE",
        "streetNameDisplayText": "WOODBINE AVE, WHITCHURCH-STOUFFVILLE"
      }
    ]
  },
  {
    "postal": "L0H1H0",
    "result": [
      {
        "electoralDistricts": [
          {
            "election": null,
            "id": 87,
            "name": "Pickering—Uxbridge"
          }
        ],
        "pollDivisionIds": [
          10143374
        ],
        "postalCode": "L0H1H0",
        "streetName": "7",
        "streetDirectionId": null,
        "streetTypeId": "HWY",
        "placeName": "GREENWOOD",
        "streetNameDisplayText": "7 HWY, GREENWOOD"
      },
      {
        "electoralDistricts": [
          {
            "election": null,
            "id": 87,
            "name": "Pickering—Uxbridge"
          }
        ],
        "pollDivisionIds": [
          10143374
        ],
        "postalCode": "L0H1H0",
        "streetName": "7",
        "streetDirectionId": null,
        "streetTypeId": "HWY",
        "placeName": "PICKERING",
        "streetNameDisplayText": "7 HWY, PICKERING"
      },
      {
        "electoralDistricts": [
          {
            "election": null,
            "id": 87,
            "name": "Pickering—Uxbridge"
          }
        ],
        "pollDivisionIds": [
          10143368,
          10143440
        ],
        "postalCode": "L0H1H0",
        "streetName": "CONCESSION 6",
        "streetDirectionId": null,
        "streetTypeId": "CONC",
        "placeName": "GREENWOOD",
        "streetNameDisplayText": "CONCESSION 6 CONC, GREENWOOD"
      },
      {
        "electoralDistricts": [
          {
            "election": null,
            "id": 87,
            "name": "Pickering—Uxbridge"
          }
        ],
        "pollDivisionIds": [
          10143374
        ],
        "postalCode": "L0H1H0",
        "streetName": "CONCESSION ROAD 5",
        "streetDirectionId": null,
        "streetTypeId": "CONC",
        "placeName": "LOCUST HILL",
        "streetNameDisplayText": "CONCESSION ROAD 5 CONC, LOCUST HILL"
      },
      {
        "electoralDistricts": [
          {
            "election": null,
            "id": 87,
            "name": "Pickering—Uxbridge"
          }
        ],
        "pollDivisionIds": [
          10143374
        ],
        "postalCode": "L0H1H0",
        "streetName": "CONCESSION ROAD 5",
        "streetDirectionId": null,
        "streetTypeId": "CONC",
        "placeName": "PICKERING",
        "streetNameDisplayText": "CONCESSION ROAD 5 CONC, PICKERING"
      },
      {
        "electoralDistricts": [
          {
            "election": null,
            "id": 87,
            "name": "Pickering—Uxbridge"
          }
        ],
        "pollDivisionIds": [
          10143374
        ],
        "postalCode": "L0H1H0",
        "streetName": "CONCESSION ROAD 6",
        "streetDirectionId": null,
        "streetTypeId": "CONC",
        "placeName": "CLAREMONT",
        "streetNameDisplayText": "CONCESSION ROAD 6 CONC, CLAREMONT"
      },
      {
        "electoralDistricts": [
          {
            "election": null,
            "id": 87,
            "name": "Pickering—Uxbridge"
          }
        ],
        "pollDivisionIds": [
          10143374
        ],
        "postalCode": "L0H1H0",
        "streetName": "CONCESSION ROAD 6",
        "streetDirectionId": null,
        "streetTypeId": "CONC",
        "placeName": "GREENWOOD",
        "streetNameDisplayText": "CONCESSION ROAD 6 CONC, GREENWOOD"
      },
      {
        "electoralDistricts": [
          {
            "election": null,
            "id": 87,
            "name": "Pickering—Uxbridge"
          }
        ],
        "pollDivisionIds": [
          10143374
        ],
        "postalCode": "L0H1H0",
        "streetName": "CONCESSION ROAD 6",
        "streetDirectionId": null,
        "streetTypeId": "CONC",
        "placeName": "LOCUST HILL",
        "streetNameDisplayText": "CONCESSION ROAD 6 CONC, LOCUST HILL"
      },
      {
        "electoralDistricts": [
          {
            "election": null,
            "id": 87,
            "name": "Pickering—Uxbridge"
          }
        ],
        "pollDivisionIds": [
          10143373
        ],
        "postalCode": "L0H1H0",
        "streetName": "CONCESSION ROAD 7",
        "streetDirectionId": null,
        "streetTypeId": "CONC",
        "placeName": "CLAREMONT",
        "streetNameDisplayText": "CONCESSION ROAD 7 CONC, CLAREMONT"
      },
      {
        "electoralDistricts": [
          {
            "election": null,
            "id": 87,
            "name": "Pickering—Uxbridge"
          }
        ],
        "pollDivisionIds": [
          10143374
        ],
        "postalCode": "L0H1H0",
        "streetName": "GREENRIDGE",
        "streetDirectionId": null,
        "streetTypeId": "DR",
        "placeName": "GREENWOOD",
        "streetNameDisplayText": "GREENRIDGE DR, GREENWOOD"
      },
      {
        "electoralDistricts": [
          {
            "election": null,
            "id": 87,
            "name": "Pickering—Uxbridge"
          }
        ],
        "pollDivisionIds": [
          10143374
        ],
        "postalCode": "L0H1H0",
        "streetName": "GREENWOOD",
        "streetDirectionId": null,
        "streetTypeId": "RD",
        "placeName": "GREENWOOD",
        "streetNameDisplayText": "GREENWOOD RD, GREENWOOD"
      },
      {
        "electoralDistricts": [
          {
            "election": null,
            "id": 87,
            "name": "Pickering—Uxbridge"
          }
        ],
        "pollDivisionIds": [
          10143374
        ],
        "postalCode": "L0H1H0",
        "streetName": "LAKE RIDGE",
        "streetDirectionId": "N",
        "streetTypeId": "RD",
        "placeName": "PICKERING",
        "streetNameDisplayText": "LAKE RIDGE RD N, PICKERING"
      },
      {
        "electoralDistricts": [
          {
            "election": null,
            "id": 87,
            "name": "Pickering—Uxbridge"
          }
        ],
        "pollDivisionIds": [
          10143374
        ],
        "postalCode": "L0H1H0",
        "streetName": "PADDOCK",
        "streetDirectionId": null,
        "streetTypeId": "RD",
        "placeName": "GREENWOOD",
        "streetNameDisplayText": "PADDOCK RD, GREENWOOD"
      },
      {
        "electoralDistricts": [
          {
            "election": null,
            "id": 87,
            "name": "Pickering—Uxbridge"
          }
        ],
        "pollDivisionIds": [
          10143374
        ],
        "postalCode": "L0H1H0",
        "streetName": "SALEM",
        "streetDirectionId": null,
        "streetTypeId": "RD",
        "placeName": "LOCUST HILL",
        "streetNameDisplayText": "SALEM RD, LOCUST HILL"
      },
      {
        "electoralDistricts": [
          {
            "election": null,
            "id": 87,
            "name": "Pickering—Uxbridge"
          }
        ],
        "pollDivisionIds": [
          10143374
        ],
        "postalCode": "L0H1H0",
        "streetName": "SIDELINE 4",
        "streetDirectionId": null,
        "streetTypeId": null,
        "placeName": "LOCUST HILL",
        "streetNameDisplayText": "SIDELINE 4, LOCUST HILL"
      },
      {
        "electoralDistricts": [
          {
            "election": null,
            "id": 87,
            "name": "Pickering—Uxbridge"
          }
        ],
        "pollDivisionIds": [
          10143374
        ],
        "postalCode": "L0H1H0",
        "streetName": "TRIMBLE'S",
        "streetDirectionId": null,
        "streetTypeId": "LANE",
        "placeName": "GREENWOOD",
        "streetNameDisplayText": "TRIMBLE'S LANE, GREENWOOD"
      },
      {
        "electoralDistricts": [
          {
            "election": null,
            "id": 87,
            "name": "Pickering—Uxbridge"
          }
        ],
        "pollDivisionIds": [
          10143374,
          10143366
        ],
        "postalCode": "L0H1H0",
        "streetName": "WESTNEY",
        "streetDirectionId": null,
        "streetTypeId": "RD",
        "placeName": "GREENWOOD",
        "streetNameDisplayText": "WESTNEY RD, GREENWOOD"
      }
    ]
  },
  {
    "postal": "L0H1J0",
    "result": [
      {
        "electoralDistricts": [
          {
            "election": null,
            "id": 56,
            "name": "Markham—Stouffville"
          }
        ],
        "pollDivisionIds": [
          10134360
        ],
        "postalCode": "L0H1J0",
        "streetName": "11TH",
        "streetDirectionId": null,
        "streetTypeId": "CONC",
        "placeName": "LOCUST HILL",
        "streetNameDisplayText": "11TH CONC, LOCUST HILL"
      },
      {
        "electoralDistricts": [
          {
            "election": null,
            "id": 87,
            "name": "Pickering—Uxbridge"
          }
        ],
        "pollDivisionIds": [
          10143374
        ],
        "postalCode": "L0H1J0",
        "streetName": "5",
        "streetDirectionId": null,
        "streetTypeId": "CONC",
        "placeName": "LOCUST HILL",
        "streetNameDisplayText": "5 CONC, LOCUST HILL"
      },
      {
        "electoralDistricts": [
          {
            "election": null,
            "id": 56,
            "name": "Markham—Stouffville"
          }
        ],
        "pollDivisionIds": [
          10134360
        ],
        "postalCode": "L0H1J0",
        "streetName": "7",
        "streetDirectionId": "E",
        "streetTypeId": "HWY",
        "placeName": "LOCUST HILL",
        "streetNameDisplayText": "7 HWY E, LOCUST HILL"
      },
      {
        "electoralDistricts": [
          {
            "election": null,
            "id": 56,
            "name": "Markham—Stouffville"
          }
        ],
        "pollDivisionIds": [
          10134359
        ],
        "postalCode": "L0H1J0",
        "streetName": "7",
        "streetDirectionId": "E",
        "streetTypeId": "HWY",
        "placeName": "MARKHAM",
        "streetNameDisplayText": "7 HWY E, MARKHAM"
      },
      {
        "electoralDistricts": [
          {
            "election": null,
            "id": 87,
            "name": "Pickering—Uxbridge"
          }
        ],
        "pollDivisionIds": [
          10143374
        ],
        "postalCode": "L0H1J0",
        "streetName": "7",
        "streetDirectionId": null,
        "streetTypeId": "HWY",
        "placeName": "BROUGHAM",
        "streetNameDisplayText": "7 HWY, BROUGHAM"
      },
      {
        "electoralDistricts": [
          {
            "election": null,
            "id": 87,
            "name": "Pickering—Uxbridge"
          },
          {
            "election": null,
            "id": 56,
            "name": "Markham—Stouffville"
          }
        ],
        "pollDivisionIds": [
          10143374,
          10134360,
          10134351
        ],
        "postalCode": "L0H1J0",
        "streetName": "7",
        "streetDirectionId": null,
        "streetTypeId": "HWY",
        "placeName": "LOCUST HILL",
        "streetNameDisplayText": "7 HWY, LOCUST HILL"
      },
      {
        "electoralDistricts": [
          {
            "election": null,
            "id": 56,
            "name": "Markham—Stouffville"
          }
        ],
        "pollDivisionIds": [
          10134351
        ],
        "postalCode": "L0H1J0",
        "streetName": "7",
        "streetDirectionId": null,
        "streetTypeId": "HWY",
        "placeName": "MARKHAM",
        "streetNameDisplayText": "7 HWY, MARKHAM"
      },
      {
        "electoralDistricts": [
          {
            "election": null,
            "id": 87,
            "name": "Pickering—Uxbridge"
          }
        ],
        "pollDivisionIds": [
          10143374
        ],
        "postalCode": "L0H1J0",
        "streetName": "ALTONA",
        "streetDirectionId": null,
        "streetTypeId": "RD",
        "placeName": "LOCUST HILL",
        "streetNameDisplayText": "ALTONA RD, LOCUST HILL"
      },
      {
        "electoralDistricts": [
          {
            "election": null,
            "id": 87,
            "name": "Pickering—Uxbridge"
          }
        ],
        "pollDivisionIds": [
          10143374
        ],
        "postalCode": "L0H1J0",
        "streetName": "BROCK",
        "streetDirectionId": null,
        "streetTypeId": "RD",
        "placeName": "LOCUST HILL",
        "streetNameDisplayText": "BROCK RD, LOCUST HILL"
      },
      {
        "electoralDistricts": [
          {
            "election": null,
            "id": 87,
            "name": "Pickering—Uxbridge"
          }
        ],
        "pollDivisionIds": [
          10143374
        ],
        "postalCode": "L0H1J0",
        "streetName": "CONCESSION 5",
        "streetDirectionId": null,
        "streetTypeId": "CONC",
        "placeName": "LOCUST HILL",
        "streetNameDisplayText": "CONCESSION 5 CONC, LOCUST HILL"
      },
      {
        "electoralDistricts": [
          {
            "election": null,
            "id": 87,
            "name": "Pickering—Uxbridge"
          }
        ],
        "pollDivisionIds": [
          10143374
        ],
        "postalCode": "L0H1J0",
        "streetName": "CONCESSION 5",
        "streetDirectionId": null,
        "streetTypeId": "CONC",
        "placeName": "PICKERING",
        "streetNameDisplayText": "CONCESSION 5 CONC, PICKERING"
      },
      {
        "electoralDistricts": [
          {
            "election": null,
            "id": 87,
            "name": "Pickering—Uxbridge"
          }
        ],
        "pollDivisionIds": [
          10143374
        ],
        "postalCode": "L0H1J0",
        "streetName": "CONCESSION 5",
        "streetDirectionId": null,
        "streetTypeId": "RD",
        "placeName": "LOCUST HILL",
        "streetNameDisplayText": "CONCESSION 5 RD, LOCUST HILL"
      },
      {
        "electoralDistricts": [
          {
            "election": null,
            "id": 87,
            "name": "Pickering—Uxbridge"
          }
        ],
        "pollDivisionIds": [
          10143374,
          10143376
        ],
        "postalCode": "L0H1J0",
        "streetName": "CONCESSION ROAD 5",
        "streetDirectionId": null,
        "streetTypeId": "CONC",
        "placeName": "LOCUST HILL",
        "streetNameDisplayText": "CONCESSION ROAD 5 CONC, LOCUST HILL"
      },
      {
        "electoralDistricts": [
          {
            "election": null,
            "id": 87,
            "name": "Pickering—Uxbridge"
          }
        ],
        "pollDivisionIds": [
          10143376
        ],
        "postalCode": "L0H1J0",
        "streetName": "CONCESSION ROAD 5",
        "streetDirectionId": null,
        "streetTypeId": "CONC",
        "placeName": "PICKERING",
        "streetNameDisplayText": "CONCESSION ROAD 5 CONC, PICKERING"
      },
      {
        "electoralDistricts": [
          {
            "election": null,
            "id": 87,
            "name": "Pickering—Uxbridge"
          }
        ],
        "pollDivisionIds": [
          10143374
        ],
        "postalCode": "L0H1J0",
        "streetName": "CONCESSION ROAD 6",
        "streetDirectionId": null,
        "streetTypeId": "CONC",
        "placeName": "GREENWOOD",
        "streetNameDisplayText": "CONCESSION ROAD 6 CONC, GREENWOOD"
      },
      {
        "electoralDistricts": [
          {
            "election": null,
            "id": 87,
            "name": "Pickering—Uxbridge"
          }
        ],
        "pollDivisionIds": [
          10143374
        ],
        "postalCode": "L0H1J0",
        "streetName": "CONCESSION ROAD 6",
        "streetDirectionId": null,
        "streetTypeId": "CONC",
        "placeName": "LOCUST HILL",
        "streetNameDisplayText": "CONCESSION ROAD 6 CONC, LOCUST HILL"
      },
      {
        "electoralDistricts": [
          {
            "election": null,
            "id": 87,
            "name": "Pickering—Uxbridge"
          }
        ],
        "pollDivisionIds": [
          10143374
        ],
        "postalCode": "L0H1J0",
        "streetName": "ELSA STORRY",
        "streetDirectionId": null,
        "streetTypeId": "AVE",
        "placeName": "LOCUST HILL",
        "streetNameDisplayText": "ELSA STORRY AVE, LOCUST HILL"
      },
      {
        "electoralDistricts": [
          {
            "election": null,
            "id": 87,
            "name": "Pickering—Uxbridge"
          }
        ],
        "pollDivisionIds": [
          10143374
        ],
        "postalCode": "L0H1J0",
        "streetName": "GREENBURN",
        "streetDirectionId": null,
        "streetTypeId": "PL",
        "placeName": "LOCUST HILL",
        "streetNameDisplayText": "GREENBURN PL, LOCUST HILL"
      },
      {
        "electoralDistricts": [
          {
            "election": null,
            "id": 87,
            "name": "Pickering—Uxbridge"
          }
        ],
        "pollDivisionIds": [
          10143374
        ],
        "postalCode": "L0H1J0",
        "streetName": "GREENWOOD",
        "streetDirectionId": null,
        "streetTypeId": "RD",
        "placeName": "LOCUST HILL",
        "streetNameDisplayText": "GREENWOOD RD, LOCUST HILL"
      },
      {
        "electoralDistricts": [
          {
            "election": null,
            "id": 56,
            "name": "Markham—Stouffville"
          }
        ],
        "pollDivisionIds": [
          10134360
        ],
        "postalCode": "L0H1J0",
        "streetName": "HIGHWAY 7",
        "streetDirectionId": null,
        "streetTypeId": null,
        "placeName": "LOCUST HILL",
        "streetNameDisplayText": "HIGHWAY 7, LOCUST HILL"
      },
      {
        "electoralDistricts": [
          {
            "election": null,
            "id": 87,
            "name": "Pickering—Uxbridge"
          }
        ],
        "pollDivisionIds": [
          10143374
        ],
        "postalCode": "L0H1J0",
        "streetName": "MULBERRY",
        "streetDirectionId": null,
        "streetTypeId": "LANE",
        "placeName": "LOCUST HILL",
        "streetNameDisplayText": "MULBERRY LANE, LOCUST HILL"
      },
      {
        "electoralDistricts": [
          {
            "election": null,
            "id": 87,
            "name": "Pickering—Uxbridge"
          }
        ],
        "pollDivisionIds": [
          10143374
        ],
        "postalCode": "L0H1J0",
        "streetName": "NORTH",
        "streetDirectionId": null,
        "streetTypeId": "RD",
        "placeName": "LOCUST HILL",
        "streetNameDisplayText": "NORTH RD, LOCUST HILL"
      },
      {
        "electoralDistricts": [
          {
            "election": null,
            "id": 87,
            "name": "Pickering—Uxbridge"
          }
        ],
        "pollDivisionIds": [
          10143374
        ],
        "postalCode": "L0H1J0",
        "streetName": "SALEM",
        "streetDirectionId": null,
        "streetTypeId": "RD",
        "placeName": "LOCUST HILL",
        "streetNameDisplayText": "SALEM RD, LOCUST HILL"
      },
      {
        "electoralDistricts": [
          {
            "election": null,
            "id": 87,
            "name": "Pickering—Uxbridge"
          }
        ],
        "pollDivisionIds": [
          10143374
        ],
        "postalCode": "L0H1J0",
        "streetName": "SIDELINE 14",
        "streetDirectionId": null,
        "streetTypeId": null,
        "placeName": "LOCUST HILL",
        "streetNameDisplayText": "SIDELINE 14, LOCUST HILL"
      },
      {
        "electoralDistricts": [
          {
            "election": null,
            "id": 87,
            "name": "Pickering—Uxbridge"
          }
        ],
        "pollDivisionIds": [
          10143374
        ],
        "postalCode": "L0H1J0",
        "streetName": "SIDELINE 20",
        "streetDirectionId": null,
        "streetTypeId": null,
        "placeName": "LOCUST HILL",
        "streetNameDisplayText": "SIDELINE 20, LOCUST HILL"
      },
      {
        "electoralDistricts": [
          {
            "election": null,
            "id": 87,
            "name": "Pickering—Uxbridge"
          }
        ],
        "pollDivisionIds": [
          10143374
        ],
        "postalCode": "L0H1J0",
        "streetName": "SIDELINE 24",
        "streetDirectionId": null,
        "streetTypeId": null,
        "placeName": "LOCUST HILL",
        "streetNameDisplayText": "SIDELINE 24, LOCUST HILL"
      },
      {
        "electoralDistricts": [
          {
            "election": null,
            "id": 87,
            "name": "Pickering—Uxbridge"
          }
        ],
        "pollDivisionIds": [
          10143440
        ],
        "postalCode": "L0H1J0",
        "streetName": "SIDELINE 26 R.R. 1",
        "streetDirectionId": null,
        "streetTypeId": null,
        "placeName": "LOCUST HILL",
        "streetNameDisplayText": "SIDELINE 26 R.R. 1, LOCUST HILL"
      },
      {
        "electoralDistricts": [
          {
            "election": null,
            "id": 87,
            "name": "Pickering—Uxbridge"
          }
        ],
        "pollDivisionIds": [
          10143374
        ],
        "postalCode": "L0H1J0",
        "streetName": "SIDELINE 26",
        "streetDirectionId": null,
        "streetTypeId": null,
        "placeName": "LOCUST HILL",
        "streetNameDisplayText": "SIDELINE 26, LOCUST HILL"
      },
      {
        "electoralDistricts": [
          {
            "election": null,
            "id": 87,
            "name": "Pickering—Uxbridge"
          }
        ],
        "pollDivisionIds": [
          10143374
        ],
        "postalCode": "L0H1J0",
        "streetName": "SIDELINE 32",
        "streetDirectionId": null,
        "streetTypeId": null,
        "placeName": "LOCUST HILL",
        "streetNameDisplayText": "SIDELINE 32, LOCUST HILL"
      },
      {
        "electoralDistricts": [
          {
            "election": null,
            "id": 87,
            "name": "Pickering—Uxbridge"
          }
        ],
        "pollDivisionIds": [
          10143374
        ],
        "postalCode": "L0H1J0",
        "streetName": "SIDELINE 34",
        "streetDirectionId": null,
        "streetTypeId": null,
        "placeName": "LOCUST HILL",
        "streetNameDisplayText": "SIDELINE 34, LOCUST HILL"
      },
      {
        "electoralDistricts": [
          {
            "election": null,
            "id": 87,
            "name": "Pickering—Uxbridge"
          }
        ],
        "pollDivisionIds": [
          10143374
        ],
        "postalCode": "L0H1J0",
        "streetName": "SIDELINE 8",
        "streetDirectionId": null,
        "streetTypeId": null,
        "placeName": "LOCUST HILL",
        "streetNameDisplayText": "SIDELINE 8, LOCUST HILL"
      },
      {
        "electoralDistricts": [
          {
            "election": null,
            "id": 87,
            "name": "Pickering—Uxbridge"
          }
        ],
        "pollDivisionIds": [
          10143374
        ],
        "postalCode": "L0H1J0",
        "streetName": "WESTNEY",
        "streetDirectionId": null,
        "streetTypeId": "RD",
        "placeName": "LOCUST HILL",
        "streetNameDisplayText": "WESTNEY RD, LOCUST HILL"
      },
      {
        "electoralDistricts": [
          {
            "election": null,
            "id": 87,
            "name": "Pickering—Uxbridge"
          }
        ],
        "pollDivisionIds": [
          10143374
        ],
        "postalCode": "L0H1J0",
        "streetName": "WHITEVALE",
        "streetDirectionId": null,
        "streetTypeId": "RD",
        "placeName": "LOCUST HILL",
        "streetNameDisplayText": "WHITEVALE RD, LOCUST HILL"
      },
      {
        "electoralDistricts": [
          {
            "election": null,
            "id": 56,
            "name": "Markham—Stouffville"
          }
        ],
        "pollDivisionIds": [
          10134360
        ],
        "postalCode": "L0H1J0",
        "streetName": "YORK DURHAM",
        "streetDirectionId": null,
        "streetTypeId": "LINE",
        "placeName": "LOCUST HILL",
        "streetNameDisplayText": "YORK DURHAM LINE, LOCUST HILL"
      },
      {
        "electoralDistricts": [
          {
            "election": null,
            "id": 56,
            "name": "Markham—Stouffville"
          },
          {
            "election": null,
            "id": 87,
            "name": "Pickering—Uxbridge"
          }
        ],
        "pollDivisionIds": [
          10134347,
          10143374,
          10134360
        ],
        "postalCode": "L0H1J0",
        "streetName": "YORK-DURHAM",
        "streetDirectionId": null,
        "streetTypeId": "LINE",
        "placeName": "LOCUST HILL",
        "streetNameDisplayText": "YORK-DURHAM LINE, LOCUST HILL"
      },
      {
        "electoralDistricts": [
          {
            "election": null,
            "id": 56,
            "name": "Markham—Stouffville"
          }
        ],
        "pollDivisionIds": [
          10134347,
          10134360
        ],
        "postalCode": "L0H1J0",
        "streetName": "YORK-DURHAM",
        "streetDirectionId": null,
        "streetTypeId": "LINE",
        "placeName": "MARKHAM",
        "streetNameDisplayText": "YORK-DURHAM LINE, MARKHAM"
      }
    ]
  },
  {
    "postal": "L0H1K0",
    "result": []
  },
  {
    "postal": "L0H1L0",
    "result": []
  },
  {
    "postal": "L0H1M0",
    "result": [
      {
        "electoralDistricts": [
          {
            "election": null,
            "id": 87,
            "name": "Pickering—Uxbridge"
          }
        ],
        "pollDivisionIds": [
          10143374
        ],
        "postalCode": "L0H1M0",
        "streetName": "BYRON",
        "streetDirectionId": null,
        "streetTypeId": "ST",
        "placeName": "WHITEVALE",
        "streetNameDisplayText": "BYRON ST, WHITEVALE"
      },
      {
        "electoralDistricts": [
          {
            "election": null,
            "id": 87,
            "name": "Pickering—Uxbridge"
          }
        ],
        "pollDivisionIds": [
          10143374
        ],
        "postalCode": "L0H1M0",
        "streetName": "CHURCHWIN",
        "streetDirectionId": null,
        "streetTypeId": "ST",
        "placeName": "WHITEVALE",
        "streetNameDisplayText": "CHURCHWIN ST, WHITEVALE"
      },
      {
        "electoralDistricts": [
          {
            "election": null,
            "id": 87,
            "name": "Pickering—Uxbridge"
          }
        ],
        "pollDivisionIds": [
          10143374
        ],
        "postalCode": "L0H1M0",
        "streetName": "FACTORY",
        "streetDirectionId": null,
        "streetTypeId": "ST",
        "placeName": "WHITEVALE",
        "streetNameDisplayText": "FACTORY ST, WHITEVALE"
      },
      {
        "electoralDistricts": [
          {
            "election": null,
            "id": 87,
            "name": "Pickering—Uxbridge"
          }
        ],
        "pollDivisionIds": [
          10143374
        ],
        "postalCode": "L0H1M0",
        "streetName": "GLADSTONE",
        "streetDirectionId": null,
        "streetTypeId": "ST",
        "placeName": "WHITEVALE",
        "streetNameDisplayText": "GLADSTONE ST, WHITEVALE"
      },
      {
        "electoralDistricts": [
          {
            "election": null,
            "id": 87,
            "name": "Pickering—Uxbridge"
          }
        ],
        "pollDivisionIds": [
          10143374
        ],
        "postalCode": "L0H1M0",
        "streetName": "GOLF CLUB",
        "streetDirectionId": null,
        "streetTypeId": "RD",
        "placeName": "WHITEVALE",
        "streetNameDisplayText": "GOLF CLUB RD, WHITEVALE"
      },
      {
        "electoralDistricts": [
          {
            "election": null,
            "id": 87,
            "name": "Pickering—Uxbridge"
          }
        ],
        "pollDivisionIds": [
          10143374
        ],
        "postalCode": "L0H1M0",
        "streetName": "NORTH",
        "streetDirectionId": null,
        "streetTypeId": "RD",
        "placeName": "WHITEVALE",
        "streetNameDisplayText": "NORTH RD, WHITEVALE"
      },
      {
        "electoralDistricts": [
          {
            "election": null,
            "id": 87,
            "name": "Pickering—Uxbridge"
          }
        ],
        "pollDivisionIds": [
          10143374
        ],
        "postalCode": "L0H1M0",
        "streetName": "SIDELINE 28",
        "streetDirectionId": null,
        "streetTypeId": null,
        "placeName": "WHITEVALE",
        "streetNameDisplayText": "SIDELINE 28, WHITEVALE"
      },
      {
        "electoralDistricts": [
          {
            "election": null,
            "id": 87,
            "name": "Pickering—Uxbridge"
          }
        ],
        "pollDivisionIds": [
          10143374
        ],
        "postalCode": "L0H1M0",
        "streetName": "WHITEVALE",
        "streetDirectionId": null,
        "streetTypeId": "RD",
        "placeName": "WHITEVALE",
        "streetNameDisplayText": "WHITEVALE RD, WHITEVALE"
      }
    ]
  }
]
