[
  {
    "postal": "L1Z9J6",
    "result": []
  },
  {
    "postal": "L1Z9Z5",
    "result": []
  },
  {
    "postal": "L1Z7H8",
    "result": []
  },
  {
    "postal": "L1Z0P6",
    "result": [
      {
        "electoralDistricts": [
          {
            "election": null,
            "id": 1,
            "name": "Ajax"
          }
        ],
        "pollDivisionIds": [
          10136685
        ],
        "postalCode": "L1Z0P6",
        "streetName": "BIGNELL",
        "streetDirectionId": null,
        "streetTypeId": "CRES",
        "placeName": "AJAX",
        "streetNameDisplayText": "BIGNELL CRES, AJAX"
      },
      {
        "electoralDistricts": [
          {
            "election": null,
            "id": 1,
            "name": "Ajax"
          }
        ],
        "pollDivisionIds": [
          10136685
        ],
        "postalCode": "L1Z0P6",
        "streetName": "GROGAN",
        "streetDirectionId": null,
        "streetTypeId": "ST",
        "placeName": "AJAX",
        "streetNameDisplayText": "GROGAN ST, AJAX"
      },
      {
        "electoralDistricts": [
          {
            "election": null,
            "id": 1,
            "name": "Ajax"
          }
        ],
        "pollDivisionIds": [
          10136685
        ],
        "postalCode": "L1Z0P6",
        "streetName": "HARPER-HILL",
        "streetDirectionId": null,
        "streetTypeId": "DR",
        "placeName": "AJAX",
        "streetNameDisplayText": "HARPER-HILL DR, AJAX"
      },
      {
        "electoralDistricts": [
          {
            "election": null,
            "id": 1,
            "name": "Ajax"
          }
        ],
        "pollDivisionIds": [
          10136685
        ],
        "postalCode": "L1Z0P6",
        "streetName": "MAWBY",
        "streetDirectionId": null,
        "streetTypeId": "ST",
        "placeName": "AJAX",
        "streetNameDisplayText": "MAWBY ST, AJAX"
      },
      {
        "electoralDistricts": [
          {
            "election": null,
            "id": 1,
            "name": "Ajax"
          }
        ],
        "pollDivisionIds": [
          10136685
        ],
        "postalCode": "L1Z0P6",
        "streetName": "SALIBA",
        "streetDirectionId": null,
        "streetTypeId": "AVE",
        "placeName": "AJAX",
        "streetNameDisplayText": "SALIBA AVE, AJAX"
      }
    ]
  },
  {
    "postal": "L1Z0S7",
    "result": [
      {
        "electoralDistricts": [
          {
            "election": null,
            "id": 1,
            "name": "Ajax"
          }
        ],
        "pollDivisionIds": [
          10136685
        ],
        "postalCode": "L1Z0S7",
        "streetName": "AINLEY",
        "streetDirectionId": null,
        "streetTypeId": "RD",
        "placeName": "AJAX",
        "streetNameDisplayText": "AINLEY RD, AJAX"
      },
      {
        "electoralDistricts": [
          {
            "election": null,
            "id": 1,
            "name": "Ajax"
          }
        ],
        "pollDivisionIds": [
          10136685
        ],
        "postalCode": "L1Z0S7",
        "streetName": "AINSBURY",
        "streetDirectionId": null,
        "streetTypeId": "AVE",
        "placeName": "AJAX",
        "streetNameDisplayText": "AINSBURY AVE, AJAX"
      },
      {
        "electoralDistricts": [
          {
            "election": null,
            "id": 1,
            "name": "Ajax"
          }
        ],
        "pollDivisionIds": [
          10136685
        ],
        "postalCode": "L1Z0S7",
        "streetName": "HEADON",
        "streetDirectionId": null,
        "streetTypeId": "AVE",
        "placeName": "AJAX",
        "streetNameDisplayText": "HEADON AVE, AJAX"
      }
    ]
  },
  {
    "postal": "L1Z8B9",
    "result": []
  },
  {
    "postal": "L1Z2A6",
    "result": [
      {
        "electoralDistricts": [
          {
            "election": null,
            "id": 1,
            "name": "Ajax"
          }
        ],
        "pollDivisionIds": [
          10136684
        ],
        "postalCode": "L1Z2A6",
        "streetName": "HOLLIER",
        "streetDirectionId": null,
        "streetTypeId": "DR",
        "placeName": "AJAX",
        "streetNameDisplayText": "HOLLIER DR, AJAX"
      },
      {
        "electoralDistricts": [
          {
            "election": null,
            "id": 1,
            "name": "Ajax"
          }
        ],
        "pollDivisionIds": [
          10136684
        ],
        "postalCode": "L1Z2A6",
        "streetName": "SIVYER",
        "streetDirectionId": null,
        "streetTypeId": "CRES",
        "placeName": "AJAX",
        "streetNameDisplayText": "SIVYER CRES, AJAX"
      },
      {
        "electoralDistricts": [
          {
            "election": null,
            "id": 1,
            "name": "Ajax"
          }
        ],
        "pollDivisionIds": [
          10136684
        ],
        "postalCode": "L1Z2A6",
        "streetName": "TEASDALE",
        "streetDirectionId": null,
        "streetTypeId": "ST",
        "placeName": "AJAX",
        "streetNameDisplayText": "TEASDALE ST, AJAX"
      }
    ]
  },
  {
    "postal": "L1Z7V2",
    "result": []
  },
  {
    "postal": "L1Z9P4",
    "result": []
  },
  {
    "postal": "L1Z6G0",
    "result": []
  },
  {
    "postal": "L1Z2K0",
    "result": []
  },
  {
    "postal": "L1Z7N6",
    "result": []
  },
  {
    "postal": "L1Z5R3",
    "result": []
  },
  {
    "postal": "L1Z7K0",
    "result": []
  },
  {
    "postal": "L1Z3R2",
    "result": []
  },
  {
    "postal": "L1Z0J1",
    "result": []
  },
  {
    "postal": "L1Z0B0",
    "result": []
  },
  {
    "postal": "L1Z5Z2",
    "result": []
  },
  {
    "postal": "L1Z7P3",
    "result": []
  },
  {
    "postal": "L1Z2K3",
    "result": []
  },
  {
    "postal": "L1Z7Y6",
    "result": []
  },
  {
    "postal": "L1Z1L9",
    "result": [
      {
        "electoralDistricts": [
          {
            "election": null,
            "id": 1,
            "name": "Ajax"
          }
        ],
        "pollDivisionIds": [
          10136696
        ],
        "postalCode": "L1Z1L9",
        "streetName": "HARWOOD",
        "streetDirectionId": "N",
        "streetTypeId": "AVE",
        "placeName": "AJAX",
        "streetNameDisplayText": "HARWOOD AVE N, AJAX"
      }
    ]
  },
  {
    "postal": "L1Z8T0",
    "result": []
  },
  {
    "postal": "L1Z3K8",
    "result": []
  },
  {
    "postal": "L1Z5W9",
    "result": []
  },
  {
    "postal": "L1Z6T9",
    "result": []
  },
  {
    "postal": "L1Z4H1",
    "result": []
  },
  {
    "postal": "L1Z7A2",
    "result": []
  },
  {
    "postal": "L1Z5G0",
    "result": []
  },
  {
    "postal": "L1Z8V5",
    "result": []
  },
  {
    "postal": "L1Z2Y8",
    "result": []
  },
  {
    "postal": "L1Z2B6",
    "result": [
      {
        "electoralDistricts": [
          {
            "election": null,
            "id": 1,
            "name": "Ajax"
          }
        ],
        "pollDivisionIds": [
          10136684
        ],
        "postalCode": "L1Z2B6",
        "streetName": "CARPENDALE",
        "streetDirectionId": null,
        "streetTypeId": "CRES",
        "placeName": "AJAX",
        "streetNameDisplayText": "CARPENDALE CRES, AJAX"
      },
      {
        "electoralDistricts": [
          {
            "election": null,
            "id": 1,
            "name": "Ajax"
          }
        ],
        "pollDivisionIds": [
          10136684
        ],
        "postalCode": "L1Z2B6",
        "streetName": "CRANSTON",
        "streetDirectionId": null,
        "streetTypeId": "AVE",
        "placeName": "AJAX",
        "streetNameDisplayText": "CRANSTON AVE, AJAX"
      },
      {
        "electoralDistricts": [
          {
            "election": null,
            "id": 1,
            "name": "Ajax"
          }
        ],
        "pollDivisionIds": [
          10136684
        ],
        "postalCode": "L1Z2B6",
        "streetName": "SEWARD",
        "streetDirectionId": null,
        "streetTypeId": "CRES",
        "placeName": "AJAX",
        "streetNameDisplayText": "SEWARD CRES, AJAX"
      }
    ]
  },
  {
    "postal": "L1Z4W8",
    "result": []
  },
  {
    "postal": "L1Z8H7",
    "result": []
  },
  {
    "postal": "L1Z5P1",
    "result": []
  },
  {
    "postal": "L1Z2B8",
    "result": [
      {
        "electoralDistricts": [
          {
            "election": null,
            "id": 1,
            "name": "Ajax"
          }
        ],
        "pollDivisionIds": [
          10136684
        ],
        "postalCode": "L1Z2B8",
        "streetName": "SEWARD",
        "streetDirectionId": null,
        "streetTypeId": "CRES",
        "placeName": "AJAX",
        "streetNameDisplayText": "SEWARD CRES, AJAX"
      },
      {
        "electoralDistricts": [
          {
            "election": null,
            "id": 1,
            "name": "Ajax"
          }
        ],
        "pollDivisionIds": [
          10136684
        ],
        "postalCode": "L1Z2B8",
        "streetName": "WESTRAY",
        "streetDirectionId": null,
        "streetTypeId": "CRES",
        "placeName": "AJAX",
        "streetNameDisplayText": "WESTRAY CRES, AJAX"
      }
    ]
  },
  {
    "postal": "L1Z0P2",
    "result": [
      {
        "electoralDistricts": [
          {
            "election": null,
            "id": 1,
            "name": "Ajax"
          }
        ],
        "pollDivisionIds": [
          10136705
        ],
        "postalCode": "L1Z0P2",
        "streetName": "AUDLEY",
        "streetDirectionId": "S",
        "streetTypeId": "RD",
        "placeName": "AJAX",
        "streetNameDisplayText": "AUDLEY RD S, AJAX"
      },
      {
        "electoralDistricts": [
          {
            "election": null,
            "id": 1,
            "name": "Ajax"
          }
        ],
        "pollDivisionIds": [
          10136705
        ],
        "postalCode": "L1Z0P2",
        "streetName": "SHARPLIN",
        "streetDirectionId": null,
        "streetTypeId": "DR",
        "placeName": "AJAX",
        "streetNameDisplayText": "SHARPLIN DR, AJAX"
      }
    ]
  },
  {
    "postal": "L1Z9M1",
    "result": []
  },
  {
    "postal": "L1Z3G0",
    "result": []
  },
  {
    "postal": "L1Z9Z2",
    "result": []
  },
  {
    "postal": "L1Z2A0",
    "result": []
  },
  {
    "postal": "L1Z6Y0",
    "result": []
  },
  {
    "postal": "L1Z2Z8",
    "result": []
  },
  {
    "postal": "L1Z7Y3",
    "result": []
  },
  {
    "postal": "L1Z6Z5",
    "result": []
  },
  {
    "postal": "L1Z6E0",
    "result": []
  },
  {
    "postal": "L1Z9B7",
    "result": []
  },
  {
    "postal": "L1Z9S5",
    "result": []
  },
  {
    "postal": "L1Z3X3",
    "result": []
  },
  {
    "postal": "L1Z7R5",
    "result": []
  },
  {
    "postal": "L1Z2X3",
    "result": []
  },
  {
    "postal": "L1Z8Z9",
    "result": []
  },
  {
    "postal": "L1Z0N4",
    "result": []
  },
  {
    "postal": "L1Z1K1",
    "result": [
      {
        "electoralDistricts": [
          {
            "election": null,
            "id": 1,
            "name": "Ajax"
          }
        ],
        "pollDivisionIds": [
          10136688
        ],
        "postalCode": "L1Z1K1",
        "streetName": "KERRISON",
        "streetDirectionId": "W",
        "streetTypeId": "DR",
        "placeName": "AJAX",
        "streetNameDisplayText": "KERRISON DR W, AJAX"
      }
    ]
  },
  {
    "postal": "L1Z1S3",
    "result": [
      {
        "electoralDistricts": [
          {
            "election": null,
            "id": 1,
            "name": "Ajax"
          }
        ],
        "pollDivisionIds": [
          10136684
        ],
        "postalCode": "L1Z1S3",
        "streetName": "MANSBRIDGE",
        "streetDirectionId": null,
        "streetTypeId": "CRES",
        "placeName": "AJAX",
        "streetNameDisplayText": "MANSBRIDGE CRES, AJAX"
      }
    ]
  },
  {
    "postal": "L1Z6M4",
    "result": []
  },
  {
    "postal": "L1Z9A9",
    "result": []
  },
  {
    "postal": "L1Z9Z9",
    "result": []
  },
  {
    "postal": "L1Z6T4",
    "result": []
  },
  {
    "postal": "L1Z0B2",
    "result": [
      {
        "electoralDistricts": [
          {
            "election": null,
            "id": 1,
            "name": "Ajax"
          }
        ],
        "pollDivisionIds": [
          10136705
        ],
        "postalCode": "L1Z0B2",
        "streetName": "BAYLY",
        "streetDirectionId": "E",
        "streetTypeId": "ST",
        "placeName": "AJAX",
        "streetNameDisplayText": "BAYLY ST E, AJAX"
      }
    ]
  },
  {
    "postal": "L1Z2L9",
    "result": []
  },
  {
    "postal": "L1Z8K9",
    "result": []
  },
  {
    "postal": "L1Z2H9",
    "result": []
  },
  {
    "postal": "L1Z3Z6",
    "result": []
  },
  {
    "postal": "L1Z3B0",
    "result": []
  },
  {
    "postal": "L1Z2H8",
    "result": []
  },
  {
    "postal": "L1Z3X2",
    "result": []
  },
  {
    "postal": "L1Z2E9",
    "result": []
  },
  {
    "postal": "L1Z9P6",
    "result": []
  },
  {
    "postal": "L1Z9E2",
    "result": []
  },
  {
    "postal": "L1Z9H2",
    "result": []
  },
  {
    "postal": "L1Z1S8",
    "result": [
      {
        "electoralDistricts": [
          {
            "election": null,
            "id": 1,
            "name": "Ajax"
          }
        ],
        "pollDivisionIds": [
          10136688
        ],
        "postalCode": "L1Z1S8",
        "streetName": "ROSSLAND",
        "streetDirectionId": "W",
        "streetTypeId": "RD",
        "placeName": "AJAX",
        "streetNameDisplayText": "ROSSLAND RD W, AJAX"
      }
    ]
  },
  {
    "postal": "L1Z3M6",
    "result": []
  },
  {
    "postal": "L1Z6Z8",
    "result": []
  },
  {
    "postal": "L1Z4J2",
    "result": []
  },
  {
    "postal": "L1Z9Y1",
    "result": []
  },
  {
    "postal": "L1Z8V6",
    "result": []
  },
  {
    "postal": "L1Z6B2",
    "result": []
  },
  {
    "postal": "L1Z1P8",
    "result": [
      {
        "electoralDistricts": [
          {
            "election": null,
            "id": 1,
            "name": "Ajax"
          }
        ],
        "pollDivisionIds": [
          10136696
        ],
        "postalCode": "L1Z1P8",
        "streetName": "LOUGHLIN HILL",
        "streetDirectionId": null,
        "streetTypeId": "CRES",
        "placeName": "AJAX",
        "streetNameDisplayText": "LOUGHLIN HILL CRES, AJAX"
      },
      {
        "electoralDistricts": [
          {
            "election": null,
            "id": 1,
            "name": "Ajax"
          }
        ],
        "pollDivisionIds": [
          10136696
        ],
        "postalCode": "L1Z1P8",
        "streetName": "SLADER HEIGHTS",
        "streetDirectionId": null,
        "streetTypeId": "ST",
        "placeName": "AJAX",
        "streetNameDisplayText": "SLADER HEIGHTS ST, AJAX"
      },
      {
        "electoralDistricts": [
          {
            "election": null,
            "id": 1,
            "name": "Ajax"
          }
        ],
        "pollDivisionIds": [
          10136696
        ],
        "postalCode": "L1Z1P8",
        "streetName": "TURNERBURY",
        "streetDirectionId": null,
        "streetTypeId": "AVE",
        "placeName": "AJAX",
        "streetNameDisplayText": "TURNERBURY AVE, AJAX"
      }
    ]
  },
  {
    "postal": "L1Z0V8",
    "result": []
  },
  {
    "postal": "L1Z4Y0",
    "result": []
  },
  {
    "postal": "L1Z2T4",
    "result": []
  },
  {
    "postal": "L1Z2S3",
    "result": []
  },
  {
    "postal": "L1Z0K0",
    "result": []
  },
  {
    "postal": "L1Z5N1",
    "result": []
  },
  {
    "postal": "L1Z7T0",
    "result": []
  },
  {
    "postal": "L1Z9N2",
    "result": []
  },
  {
    "postal": "L1Z5L1",
    "result": []
  },
  {
    "postal": "L1Z7G5",
    "result": []
  },
  {
    "postal": "L1Z6K2",
    "result": []
  },
  {
    "postal": "L1Z6P9",
    "result": []
  },
  {
    "postal": "L1Z0E6",
    "result": []
  },
  {
    "postal": "L1Z8R9",
    "result": []
  },
  {
    "postal": "L1Z3G9",
    "result": []
  },
  {
    "postal": "L1Z0V7",
    "result": []
  },
  {
    "postal": "L1Z2Z1",
    "result": []
  },
  {
    "postal": "L1Z7N1",
    "result": []
  },
  {
    "postal": "L1Z3C6",
    "result": []
  },
  {
    "postal": "L1Z4M1",
    "result": []
  },
  {
    "postal": "L1Z9K2",
    "result": []
  },
  {
    "postal": "L1Z9S6",
    "result": []
  },
  {
    "postal": "L1Z4X1",
    "result": []
  },
  {
    "postal": "L1Z8W2",
    "result": []
  },
  {
    "postal": "L1Z7N2",
    "result": []
  },
  {
    "postal": "L1Z8S3",
    "result": []
  },
  {
    "postal": "L1Z4V0",
    "result": []
  },
  {
    "postal": "L1Z6W4",
    "result": []
  },
  {
    "postal": "L1Z5M1",
    "result": []
  },
  {
    "postal": "L1Z0S4",
    "result": [
      {
        "electoralDistricts": [
          {
            "election": null,
            "id": 1,
            "name": "Ajax"
          }
        ],
        "pollDivisionIds": [
          10136685
        ],
        "postalCode": "L1Z0S4",
        "streetName": "AINLEY",
        "streetDirectionId": null,
        "streetTypeId": "RD",
        "placeName": "AJAX",
        "streetNameDisplayText": "AINLEY RD, AJAX"
      },
      {
        "electoralDistricts": [
          {
            "election": null,
            "id": 1,
            "name": "Ajax"
          }
        ],
        "pollDivisionIds": [
          10136685
        ],
        "postalCode": "L1Z0S4",
        "streetName": "DEWSNAP",
        "streetDirectionId": null,
        "streetTypeId": "RD",
        "placeName": "AJAX",
        "streetNameDisplayText": "DEWSNAP RD, AJAX"
      },
      {
        "electoralDistricts": [
          {
            "election": null,
            "id": 1,
            "name": "Ajax"
          }
        ],
        "pollDivisionIds": [
          10136685
        ],
        "postalCode": "L1Z0S4",
        "streetName": "WESTGATE",
        "streetDirectionId": null,
        "streetTypeId": "AVE",
        "placeName": "AJAX",
        "streetNameDisplayText": "WESTGATE AVE, AJAX"
      }
    ]
  },
  {
    "postal": "L1Z5X6",
    "result": []
  },
  {
    "postal": "L1Z8L5",
    "result": []
  },
  {
    "postal": "L1Z5M8",
    "result": []
  },
  {
    "postal": "L1Z2G3",
    "result": []
  },
  {
    "postal": "L1Z8E4",
    "result": []
  },
  {
    "postal": "L1Z7S9",
    "result": []
  },
  {
    "postal": "L1Z1K3",
    "result": [
      {
        "electoralDistricts": [
          {
            "election": null,
            "id": 1,
            "name": "Ajax"
          }
        ],
        "pollDivisionIds": [
          10136688
        ],
        "postalCode": "L1Z1K3",
        "streetName": "INGOLD",
        "streetDirectionId": null,
        "streetTypeId": "LANE",
        "placeName": "AJAX",
        "streetNameDisplayText": "INGOLD LANE, AJAX"
      }
    ]
  },
  {
    "postal": "L1Z4E1",
    "result": []
  },
  {
    "postal": "L1Z4R2",
    "result": []
  },
  {
    "postal": "L1Z6T0",
    "result": []
  },
  {
    "postal": "L1Z3K5",
    "result": []
  },
  {
    "postal": "L1Z3S3",
    "result": []
  },
  {
    "postal": "L1Z3L4",
    "result": []
  },
  {
    "postal": "L1Z9Y2",
    "result": []
  },
  {
    "postal": "L1Z1E0",
    "result": []
  },
  {
    "postal": "L1Z9A4",
    "result": []
  },
  {
    "postal": "L1Z1L3",
    "result": [
      {
        "electoralDistricts": [
          {
            "election": null,
            "id": 1,
            "name": "Ajax"
          }
        ],
        "pollDivisionIds": [
          10136704
        ],
        "postalCode": "L1Z1L3",
        "streetName": "ASHBURY",
        "streetDirectionId": null,
        "streetTypeId": "BLVD",
        "placeName": "AJAX",
        "streetNameDisplayText": "ASHBURY BLVD, AJAX"
      },
      {
        "electoralDistricts": [
          {
            "election": null,
            "id": 1,
            "name": "Ajax"
          }
        ],
        "pollDivisionIds": [
          10136704
        ],
        "postalCode": "L1Z1L3",
        "streetName": "WARWICK",
        "streetDirectionId": null,
        "streetTypeId": "AVE",
        "placeName": "AJAX",
        "streetNameDisplayText": "WARWICK AVE, AJAX"
      }
    ]
  },
  {
    "postal": "L1Z6N1",
    "result": []
  },
  {
    "postal": "L1Z6G7",
    "result": []
  },
  {
    "postal": "L1Z7W1",
    "result": []
  },
  {
    "postal": "L1Z4M6",
    "result": []
  },
  {
    "postal": "L1Z1K0",
    "result": []
  },
  {
    "postal": "L1Z3E2",
    "result": []
  },
  {
    "postal": "L1Z5H4",
    "result": []
  },
  {
    "postal": "L1Z1K7",
    "result": [
      {
        "electoralDistricts": [
          {
            "election": null,
            "id": 1,
            "name": "Ajax"
          }
        ],
        "pollDivisionIds": [
          10136704
        ],
        "postalCode": "L1Z1K7",
        "streetName": "COCKBURN",
        "streetDirectionId": null,
        "streetTypeId": "ST",
        "placeName": "AJAX",
        "streetNameDisplayText": "COCKBURN ST, AJAX"
      },
      {
        "electoralDistricts": [
          {
            "election": null,
            "id": 1,
            "name": "Ajax"
          }
        ],
        "pollDivisionIds": [
          10136704
        ],
        "postalCode": "L1Z1K7",
        "streetName": "LILLEY",
        "streetDirectionId": null,
        "streetTypeId": "AVE",
        "placeName": "AJAX",
        "streetNameDisplayText": "LILLEY AVE, AJAX"
      },
      {
        "electoralDistricts": [
          {
            "election": null,
            "id": 1,
            "name": "Ajax"
          }
        ],
        "pollDivisionIds": [
          10136704
        ],
        "postalCode": "L1Z1K7",
        "streetName": "MULLORD",
        "streetDirectionId": null,
        "streetTypeId": "AVE",
        "placeName": "AJAX",
        "streetNameDisplayText": "MULLORD AVE, AJAX"
      },
      {
        "electoralDistricts": [
          {
            "election": null,
            "id": 1,
            "name": "Ajax"
          }
        ],
        "pollDivisionIds": [
          10136704
        ],
        "postalCode": "L1Z1K7",
        "streetName": "WARWICK",
        "streetDirectionId": null,
        "streetTypeId": "AVE",
        "placeName": "AJAX",
        "streetNameDisplayText": "WARWICK AVE, AJAX"
      }
    ]
  },
  {
    "postal": "L1Z0H0",
    "result": []
  },
  {
    "postal": "L1Z0J3",
    "result": [
      {
        "electoralDistricts": [
          {
            "election": null,
            "id": 1,
            "name": "Ajax"
          }
        ],
        "pollDivisionIds": [
          10136683
        ],
        "postalCode": "L1Z0J3",
        "streetName": "GILLETT",
        "streetDirectionId": null,
        "streetTypeId": "DR",
        "placeName": "AJAX",
        "streetNameDisplayText": "GILLETT DR, AJAX"
      },
      {
        "electoralDistricts": [
          {
            "election": null,
            "id": 1,
            "name": "Ajax"
          }
        ],
        "pollDivisionIds": [
          10136683
        ],
        "postalCode": "L1Z0J3",
        "streetName": "HALLIDAY",
        "streetDirectionId": null,
        "streetTypeId": "ST",
        "placeName": "AJAX",
        "streetNameDisplayText": "HALLIDAY ST, AJAX"
      },
      {
        "electoralDistricts": [
          {
            "election": null,
            "id": 1,
            "name": "Ajax"
          }
        ],
        "pollDivisionIds": [
          10136683
        ],
        "postalCode": "L1Z0J3",
        "streetName": "OSWELL",
        "streetDirectionId": null,
        "streetTypeId": "DR",
        "placeName": "AJAX",
        "streetNameDisplayText": "OSWELL DR, AJAX"
      },
      {
        "electoralDistricts": [
          {
            "election": null,
            "id": 1,
            "name": "Ajax"
          }
        ],
        "pollDivisionIds": [
          10136683
        ],
        "postalCode": "L1Z0J3",
        "streetName": "WILLIAMSON",
        "streetDirectionId": "E",
        "streetTypeId": "DR",
        "placeName": "AJAX",
        "streetNameDisplayText": "WILLIAMSON DR E, AJAX"
      }
    ]
  },
  {
    "postal": "L1Z1X6",
    "result": [
      {
        "electoralDistricts": [
          {
            "election": null,
            "id": 1,
            "name": "Ajax"
          }
        ],
        "pollDivisionIds": [
          10136705
        ],
        "postalCode": "L1Z1X6",
        "streetName": "LAKE RIDGE",
        "streetDirectionId": "S",
        "streetTypeId": "RD",
        "placeName": "AJAX",
        "streetNameDisplayText": "LAKE RIDGE RD S, AJAX"
      },
      {
        "electoralDistricts": [
          {
            "election": null,
            "id": 1,
            "name": "Ajax"
          }
        ],
        "pollDivisionIds": [
          10136705
        ],
        "postalCode": "L1Z1X6",
        "streetName": "ONTORO",
        "streetDirectionId": null,
        "streetTypeId": "BLVD",
        "placeName": "AJAX",
        "streetNameDisplayText": "ONTORO BLVD, AJAX"
      }
    ]
  },
  {
    "postal": "L1Z2Z6",
    "result": []
  },
  {
    "postal": "L1Z4R9",
    "result": []
  },
  {
    "postal": "L1Z0W8",
    "result": []
  },
  {
    "postal": "L1Z1L4",
    "result": [
      {
        "electoralDistricts": [
          {
            "election": null,
            "id": 1,
            "name": "Ajax"
          }
        ],
        "pollDivisionIds": [
          10136705
        ],
        "postalCode": "L1Z1L4",
        "streetName": "BAYLY",
        "streetDirectionId": "E",
        "streetTypeId": "ST",
        "placeName": "AJAX",
        "streetNameDisplayText": "BAYLY ST E, AJAX"
      }
    ]
  },
  {
    "postal": "L1Z0C8",
    "result": []
  },
  {
    "postal": "L1Z9X7",
    "result": []
  },
  {
    "postal": "L1Z4T1",
    "result": []
  },
  {
    "postal": "L1Z0M0",
    "result": []
  },
  {
    "postal": "L1Z6A2",
    "result": []
  },
  {
    "postal": "L1Z9S8",
    "result": []
  },
  {
    "postal": "L1Z9T4",
    "result": []
  },
  {
    "postal": "L1Z9Y4",
    "result": []
  },
  {
    "postal": "L1Z6G5",
    "result": []
  },
  {
    "postal": "L1Z6H9",
    "result": []
  },
  {
    "postal": "L1Z2P3",
    "result": []
  },
  {
    "postal": "L1Z1T6",
    "result": [
      {
        "electoralDistricts": [
          {
            "election": null,
            "id": 1,
            "name": "Ajax"
          }
        ],
        "pollDivisionIds": [
          10136683
        ],
        "postalCode": "L1Z1T6",
        "streetName": "AUDLEY",
        "streetDirectionId": "N",
        "streetTypeId": "RD",
        "placeName": "AJAX",
        "streetNameDisplayText": "AUDLEY RD N, AJAX"
      }
    ]
  },
  {
    "postal": "L1Z4P6",
    "result": []
  },
  {
    "postal": "L1Z3K1",
    "result": []
  },
  {
    "postal": "L1Z6X4",
    "result": []
  },
  {
    "postal": "L1Z4M8",
    "result": []
  },
  {
    "postal": "L1Z2Y1",
    "result": []
  },
  {
    "postal": "L1Z6M1",
    "result": []
  },
  {
    "postal": "L1Z5L8",
    "result": []
  },
  {
    "postal": "L1Z3P6",
    "result": []
  },
  {
    "postal": "L1Z9A5",
    "result": []
  },
  {
    "postal": "L1Z7K1",
    "result": []
  },
  {
    "postal": "L1Z3J4",
    "result": []
  },
  {
    "postal": "L1Z5E7",
    "result": []
  },
  {
    "postal": "L1Z3A7",
    "result": []
  },
  {
    "postal": "L1Z1B9",
    "result": [
      {
        "electoralDistricts": [
          {
            "election": null,
            "id": 1,
            "name": "Ajax"
          }
        ],
        "pollDivisionIds": [
          10136696
        ],
        "postalCode": "L1Z1B9",
        "streetName": "MILES",
        "streetDirectionId": null,
        "streetTypeId": "DR",
        "placeName": "AJAX",
        "streetNameDisplayText": "MILES DR, AJAX"
      }
    ]
  },
  {
    "postal": "L1Z9E8",
    "result": []
  },
  {
    "postal": "L1Z1C9",
    "result": [
      {
        "electoralDistricts": [
          {
            "election": null,
            "id": 1,
            "name": "Ajax"
          }
        ],
        "pollDivisionIds": [
          10136696
        ],
        "postalCode": "L1Z1C9",
        "streetName": "BECK",
        "streetDirectionId": null,
        "streetTypeId": "CRES",
        "placeName": "AJAX",
        "streetNameDisplayText": "BECK CRES, AJAX"
      }
    ]
  },
  {
    "postal": "L1Z3B5",
    "result": []
  },
  {
    "postal": "L1Z8R0",
    "result": []
  },
  {
    "postal": "L1Z3P2",
    "result": []
  },
  {
    "postal": "L1Z5V4",
    "result": []
  },
  {
    "postal": "L1Z4H0",
    "result": []
  },
  {
    "postal": "L1Z4S7",
    "result": []
  },
  {
    "postal": "L1Z6C2",
    "result": []
  },
  {
    "postal": "L1Z8W3",
    "result": []
  },
  {
    "postal": "L1Z4M5",
    "result": []
  },
  {
    "postal": "L1Z5T1",
    "result": []
  },
  {
    "postal": "L1Z3B3",
    "result": []
  },
  {
    "postal": "L1Z6C6",
    "result": []
  },
  {
    "postal": "L1Z7N8",
    "result": []
  },
  {
    "postal": "L1Z2Y3",
    "result": []
  },
  {
    "postal": "L1Z2R6",
    "result": []
  },
  {
    "postal": "L1Z7N3",
    "result": []
  },
  {
    "postal": "L1Z8J2",
    "result": []
  },
  {
    "postal": "L1Z6A9",
    "result": []
  },
  {
    "postal": "L1Z3V2",
    "result": []
  },
  {
    "postal": "L1Z2N3",
    "result": []
  },
  {
    "postal": "L1Z1S5",
    "result": [
      {
        "electoralDistricts": [
          {
            "election": null,
            "id": 1,
            "name": "Ajax"
          }
        ],
        "pollDivisionIds": [
          10136684
        ],
        "postalCode": "L1Z1S5",
        "streetName": "DURLING ROCK",
        "streetDirectionId": null,
        "streetTypeId": "ST",
        "placeName": "AJAX",
        "streetNameDisplayText": "DURLING ROCK ST, AJAX"
      },
      {
        "electoralDistricts": [
          {
            "election": null,
            "id": 1,
            "name": "Ajax"
          }
        ],
        "pollDivisionIds": [
          10136684
        ],
        "postalCode": "L1Z1S5",
        "streetName": "SALVAGE",
        "streetDirectionId": null,
        "streetTypeId": "ST",
        "placeName": "AJAX",
        "streetNameDisplayText": "SALVAGE ST, AJAX"
      },
      {
        "electoralDistricts": [
          {
            "election": null,
            "id": 1,
            "name": "Ajax"
          }
        ],
        "pollDivisionIds": [
          10136684
        ],
        "postalCode": "L1Z1S5",
        "streetName": "STYLES",
        "streetDirectionId": null,
        "streetTypeId": "CRES",
        "placeName": "AJAX",
        "streetNameDisplayText": "STYLES CRES, AJAX"
      }
    ]
  },
  {
    "postal": "L1Z4T7",
    "result": []
  },
  {
    "postal": "L1Z6Y7",
    "result": []
  },
  {
    "postal": "L1Z0W7",
    "result": []
  },
  {
    "postal": "L1Z2W9",
    "result": []
  },
  {
    "postal": "L1Z8V0",
    "result": []
  },
  {
    "postal": "L1Z0H4",
    "result": [
      {
        "electoralDistricts": [
          {
            "election": null,
            "id": 1,
            "name": "Ajax"
          }
        ],
        "pollDivisionIds": [
          10136683
        ],
        "postalCode": "L1Z0H4",
        "streetName": "BOOKER",
        "streetDirectionId": null,
        "streetTypeId": "DR",
        "placeName": "AJAX",
        "streetNameDisplayText": "BOOKER DR, AJAX"
      }
    ]
  },
  {
    "postal": "L1Z2T1",
    "result": []
  },
  {
    "postal": "L1Z1B1",
    "result": [
      {
        "electoralDistricts": [
          {
            "election": null,
            "id": 1,
            "name": "Ajax"
          }
        ],
        "pollDivisionIds": [
          10136696
        ],
        "postalCode": "L1Z1B1",
        "streetName": "ALLARD",
        "streetDirectionId": null,
        "streetTypeId": "AVE",
        "placeName": "AJAX",
        "streetNameDisplayText": "ALLARD AVE, AJAX"
      },
      {
        "electoralDistricts": [
          {
            "election": null,
            "id": 1,
            "name": "Ajax"
          }
        ],
        "pollDivisionIds": [
          10136696
        ],
        "postalCode": "L1Z1B1",
        "streetName": "FIELD",
        "streetDirectionId": null,
        "streetTypeId": "CRES",
        "placeName": "AJAX",
        "streetNameDisplayText": "FIELD CRES, AJAX"
      }
    ]
  },
  {
    "postal": "L1Z8B6",
    "result": []
  },
  {
    "postal": "L1Z6H1",
    "result": []
  },
  {
    "postal": "L1Z8T8",
    "result": []
  },
  {
    "postal": "L1Z0T4",
    "result": []
  },
  {
    "postal": "L1Z2C4",
    "result": [
      {
        "electoralDistricts": [
          {
            "election": null,
            "id": 1,
            "name": "Ajax"
          }
        ],
        "pollDivisionIds": [
          10136684
        ],
        "postalCode": "L1Z2C4",
        "streetName": "CREE",
        "streetDirectionId": null,
        "streetTypeId": "DR",
        "placeName": "AJAX",
        "streetNameDisplayText": "CREE DR, AJAX"
      },
      {
        "electoralDistricts": [
          {
            "election": null,
            "id": 1,
            "name": "Ajax"
          }
        ],
        "pollDivisionIds": [
          10136684
        ],
        "postalCode": "L1Z2C4",
        "streetName": "LEGGETT",
        "streetDirectionId": null,
        "streetTypeId": "DR",
        "placeName": "AJAX",
        "streetNameDisplayText": "LEGGETT DR, AJAX"
      },
      {
        "electoralDistricts": [
          {
            "election": null,
            "id": 1,
            "name": "Ajax"
          }
        ],
        "pollDivisionIds": [
          10136684
        ],
        "postalCode": "L1Z2C4",
        "streetName": "RUSHBROOKE",
        "streetDirectionId": null,
        "streetTypeId": "WAY",
        "placeName": "AJAX",
        "streetNameDisplayText": "RUSHBROOKE WAY, AJAX"
      }
    ]
  },
  {
    "postal": "L1Z8N3",
    "result": []
  },
  {
    "postal": "L1Z4L8",
    "result": []
  },
  {
    "postal": "L1Z2B5",
    "result": [
      {
        "electoralDistricts": [
          {
            "election": null,
            "id": 1,
            "name": "Ajax"
          }
        ],
        "pollDivisionIds": [
          10136684
        ],
        "postalCode": "L1Z2B5",
        "streetName": "CARPENDALE",
        "streetDirectionId": null,
        "streetTypeId": "CRES",
        "placeName": "AJAX",
        "streetNameDisplayText": "CARPENDALE CRES, AJAX"
      },
      {
        "electoralDistricts": [
          {
            "election": null,
            "id": 1,
            "name": "Ajax"
          }
        ],
        "pollDivisionIds": [
          10136684
        ],
        "postalCode": "L1Z2B5",
        "streetName": "CRANSTON",
        "streetDirectionId": null,
        "streetTypeId": "AVE",
        "placeName": "AJAX",
        "streetNameDisplayText": "CRANSTON AVE, AJAX"
      }
    ]
  },
  {
    "postal": "L1Z3H1",
    "result": []
  },
  {
    "postal": "L1Z4Y1",
    "result": []
  },
  {
    "postal": "L1Z7E2",
    "result": []
  },
  {
    "postal": "L1Z2P5",
    "result": []
  },
  {
    "postal": "L1Z8R7",
    "result": []
  },
  {
    "postal": "L1Z9P1",
    "result": []
  },
  {
    "postal": "L1Z3B8",
    "result": []
  },
  {
    "postal": "L1Z3P7",
    "result": []
  },
  {
    "postal": "L1Z9B2",
    "result": []
  },
  {
    "postal": "L1Z6Z3",
    "result": []
  },
  {
    "postal": "L1Z4N5",
    "result": []
  },
  {
    "postal": "L1Z8T3",
    "result": []
  },
  {
    "postal": "L1Z1V2",
    "result": [
      {
        "electoralDistricts": [
          {
            "election": null,
            "id": 1,
            "name": "Ajax"
          }
        ],
        "pollDivisionIds": [
          10136683
        ],
        "postalCode": "L1Z1V2",
        "streetName": "TAUNTON",
        "streetDirectionId": "W",
        "streetTypeId": "RD",
        "placeName": "AJAX",
        "streetNameDisplayText": "TAUNTON RD W, AJAX"
      }
    ]
  },
  {
    "postal": "L1Z1Y0",
    "result": []
  },
  {
    "postal": "L1Z3G6",
    "result": []
  },
  {
    "postal": "L1Z3H7",
    "result": []
  },
  {
    "postal": "L1Z7X8",
    "result": []
  },
  {
    "postal": "L1Z0C7",
    "result": []
  },
  {
    "postal": "L1Z0W9",
    "result": []
  },
  {
    "postal": "L1Z8E6",
    "result": []
  },
  {
    "postal": "L1Z9Z8",
    "result": []
  },
  {
    "postal": "L1Z3P4",
    "result": []
  },
  {
    "postal": "L1Z6L8",
    "result": []
  },
  {
    "postal": "L1Z2R4",
    "result": []
  },
  {
    "postal": "L1Z2W1",
    "result": []
  },
  {
    "postal": "L1Z9H8",
    "result": []
  },
  {
    "postal": "L1Z8X9",
    "result": []
  },
  {
    "postal": "L1Z7H4",
    "result": []
  },
  {
    "postal": "L1Z3J1",
    "result": []
  },
  {
    "postal": "L1Z1P4",
    "result": [
      {
        "electoralDistricts": [
          {
            "election": null,
            "id": 1,
            "name": "Ajax"
          }
        ],
        "pollDivisionIds": [
          10136704
        ],
        "postalCode": "L1Z1P4",
        "streetName": "AUDLEY",
        "streetDirectionId": "S",
        "streetTypeId": "RD",
        "placeName": "AJAX",
        "streetNameDisplayText": "AUDLEY RD S, AJAX"
      },
      {
        "electoralDistricts": [
          {
            "election": null,
            "id": 1,
            "name": "Ajax"
          }
        ],
        "pollDivisionIds": [
          10136704
        ],
        "postalCode": "L1Z1P4",
        "streetName": "DONAHOE",
        "streetDirectionId": null,
        "streetTypeId": "AVE",
        "placeName": "AJAX",
        "streetNameDisplayText": "DONAHOE AVE, AJAX"
      },
      {
        "electoralDistricts": [
          {
            "election": null,
            "id": 1,
            "name": "Ajax"
          }
        ],
        "pollDivisionIds": [
          10136704
        ],
        "postalCode": "L1Z1P4",
        "streetName": "MOYNAHAN",
        "streetDirectionId": null,
        "streetTypeId": "CRES",
        "placeName": "AJAX",
        "streetNameDisplayText": "MOYNAHAN CRES, AJAX"
      }
    ]
  },
  {
    "postal": "L1Z2A3",
    "result": [
      {
        "electoralDistricts": [
          {
            "election": null,
            "id": 1,
            "name": "Ajax"
          }
        ],
        "pollDivisionIds": [
          10136684
        ],
        "postalCode": "L1Z2A3",
        "streetName": "HOLLIER",
        "streetDirectionId": null,
        "streetTypeId": "DR",
        "placeName": "AJAX",
        "streetNameDisplayText": "HOLLIER DR, AJAX"
      },
      {
        "electoralDistricts": [
          {
            "election": null,
            "id": 1,
            "name": "Ajax"
          }
        ],
        "pollDivisionIds": [
          10136684
        ],
        "postalCode": "L1Z2A3",
        "streetName": "RUSHWORTH",
        "streetDirectionId": null,
        "streetTypeId": "DR",
        "placeName": "AJAX",
        "streetNameDisplayText": "RUSHWORTH DR, AJAX"
      }
    ]
  },
  {
    "postal": "L1Z0Z1",
    "result": []
  },
  {
    "postal": "L1Z1C1",
    "result": [
      {
        "electoralDistricts": [
          {
            "election": null,
            "id": 1,
            "name": "Ajax"
          }
        ],
        "pollDivisionIds": [
          10136696
        ],
        "postalCode": "L1Z1C1",
        "streetName": "MILES",
        "streetDirectionId": null,
        "streetTypeId": "DR",
        "placeName": "AJAX",
        "streetNameDisplayText": "MILES DR, AJAX"
      },
      {
        "electoralDistricts": [
          {
            "election": null,
            "id": 1,
            "name": "Ajax"
          }
        ],
        "pollDivisionIds": [
          10136696
        ],
        "postalCode": "L1Z1C1",
        "streetName": "NOBLE",
        "streetDirectionId": null,
        "streetTypeId": "DR",
        "placeName": "AJAX",
        "streetNameDisplayText": "NOBLE DR, AJAX"
      }
    ]
  },
  {
    "postal": "L1Z0H3",
    "result": [
      {
        "electoralDistricts": [
          {
            "election": null,
            "id": 1,
            "name": "Ajax"
          }
        ],
        "pollDivisionIds": [
          10136683
        ],
        "postalCode": "L1Z0H3",
        "streetName": "BOOKER",
        "streetDirectionId": null,
        "streetTypeId": "DR",
        "placeName": "AJAX",
        "streetNameDisplayText": "BOOKER DR, AJAX"
      },
      {
        "electoralDistricts": [
          {
            "election": null,
            "id": 1,
            "name": "Ajax"
          }
        ],
        "pollDivisionIds": [
          10136683
        ],
        "postalCode": "L1Z0H3",
        "streetName": "ELLIOTTGLEN",
        "streetDirectionId": null,
        "streetTypeId": "DR",
        "placeName": "AJAX",
        "streetNameDisplayText": "ELLIOTTGLEN DR, AJAX"
      }
    ]
  },
  {
    "postal": "L1Z7B0",
    "result": []
  },
  {
    "postal": "L1Z5K2",
    "result": []
  },
  {
    "postal": "L1Z1E9",
    "result": [
      {
        "electoralDistricts": [
          {
            "election": null,
            "id": 1,
            "name": "Ajax"
          }
        ],
        "pollDivisionIds": [
          10136696
        ],
        "postalCode": "L1Z1E9",
        "streetName": "KINGSTON",
        "streetDirectionId": "E",
        "streetTypeId": "RD",
        "placeName": "AJAX",
        "streetNameDisplayText": "KINGSTON RD E, AJAX"
      }
    ]
  },
  {
    "postal": "L1Z9W7",
    "result": []
  },
  {
    "postal": "L1Z5W6",
    "result": []
  },
  {
    "postal": "L1Z6S6",
    "result": []
  },
  {
    "postal": "L1Z2P8",
    "result": []
  },
  {
    "postal": "L1Z4P8",
    "result": []
  },
  {
    "postal": "L1Z0V9",
    "result": []
  },
  {
    "postal": "L1Z5Y2",
    "result": []
  },
  {
    "postal": "L1Z7Z7",
    "result": []
  },
  {
    "postal": "L1Z6Y8",
    "result": []
  },
  {
    "postal": "L1Z2G7",
    "result": []
  },
  {
    "postal": "L1Z8C1",
    "result": []
  },
  {
    "postal": "L1Z5C5",
    "result": []
  },
  {
    "postal": "L1Z2X8",
    "result": []
  },
  {
    "postal": "L1Z1W5",
    "result": []
  },
  {
    "postal": "L1Z7G0",
    "result": []
  },
  {
    "postal": "L1Z8J8",
    "result": []
  },
  {
    "postal": "L1Z3Y0",
    "result": []
  },
  {
    "postal": "L1Z9T7",
    "result": []
  },
  {
    "postal": "L1Z5P4",
    "result": []
  },
  {
    "postal": "L1Z4B0",
    "result": []
  },
  {
    "postal": "L1Z9N8",
    "result": []
  },
  {
    "postal": "L1Z4A7",
    "result": []
  },
  {
    "postal": "L1Z4H9",
    "result": []
  },
  {
    "postal": "L1Z6X1",
    "result": []
  },
  {
    "postal": "L1Z9Y7",
    "result": []
  },
  {
    "postal": "L1Z2Y5",
    "result": []
  },
  {
    "postal": "L1Z8L7",
    "result": []
  },
  {
    "postal": "L1Z2A8",
    "result": [
      {
        "electoralDistricts": [
          {
            "election": null,
            "id": 1,
            "name": "Ajax"
          }
        ],
        "pollDivisionIds": [
          10136683,
          10136684
        ],
        "postalCode": "L1Z2A8",
        "streetName": "BARDEN",
        "streetDirectionId": null,
        "streetTypeId": "CRES",
        "placeName": "AJAX",
        "streetNameDisplayText": "BARDEN CRES, AJAX"
      },
      {
        "electoralDistricts": [
          {
            "election": null,
            "id": 1,
            "name": "Ajax"
          }
        ],
        "pollDivisionIds": [
          10136684
        ],
        "postalCode": "L1Z2A8",
        "streetName": "TEASDALE",
        "streetDirectionId": null,
        "streetTypeId": "ST",
        "placeName": "AJAX",
        "streetNameDisplayText": "TEASDALE ST, AJAX"
      }
    ]
  },
  {
    "postal": "L1Z2K9",
    "result": []
  },
  {
    "postal": "L1Z3E5",
    "result": []
  },
  {
    "postal": "L1Z8N6",
    "result": []
  },
  {
    "postal": "L1Z8J4",
    "result": []
  },
  {
    "postal": "L1Z4R7",
    "result": []
  },
  {
    "postal": "L1Z9K1",
    "result": []
  },
  {
    "postal": "L1Z8E1",
    "result": []
  },
  {
    "postal": "L1Z0R1",
    "result": [
      {
        "electoralDistricts": [
          {
            "election": null,
            "id": 1,
            "name": "Ajax"
          }
        ],
        "pollDivisionIds": [
          10136683
        ],
        "postalCode": "L1Z0R1",
        "streetName": "KEITH-WRIGHT",
        "streetDirectionId": null,
        "streetTypeId": "CRES",
        "placeName": "AJAX",
        "streetNameDisplayText": "KEITH-WRIGHT CRES, AJAX"
      }
    ]
  },
  {
    "postal": "L1Z4J3",
    "result": []
  },
  {
    "postal": "L1Z7E7",
    "result": []
  },
  {
    "postal": "L1Z0J0",
    "result": []
  },
  {
    "postal": "L1Z7R8",
    "result": []
  },
  {
    "postal": "L1Z9X0",
    "result": []
  },
  {
    "postal": "L1Z7P6",
    "result": []
  },
  {
    "postal": "L1Z0R7",
    "result": [
      {
        "electoralDistricts": [
          {
            "election": null,
            "id": 1,
            "name": "Ajax"
          }
        ],
        "pollDivisionIds": [
          10136685
        ],
        "postalCode": "L1Z0R7",
        "streetName": "AUDLEY",
        "streetDirectionId": "N",
        "streetTypeId": "RD",
        "placeName": "AJAX",
        "streetNameDisplayText": "AUDLEY RD N, AJAX"
      },
      {
        "electoralDistricts": [
          {
            "election": null,
            "id": 1,
            "name": "Ajax"
          }
        ],
        "pollDivisionIds": [
          10136704
        ],
        "postalCode": "L1Z0R7",
        "streetName": "AUDLEY",
        "streetDirectionId": "S",
        "streetTypeId": "RD",
        "placeName": "AJAX",
        "streetNameDisplayText": "AUDLEY RD S, AJAX"
      },
      {
        "electoralDistricts": [
          {
            "election": null,
            "id": 1,
            "name": "Ajax"
          }
        ],
        "pollDivisionIds": [
          10136685
        ],
        "postalCode": "L1Z0R7",
        "streetName": "DEVINERIDGE",
        "streetDirectionId": null,
        "streetTypeId": "AVE",
        "placeName": "AJAX",
        "streetNameDisplayText": "DEVINERIDGE AVE, AJAX"
      },
      {
        "electoralDistricts": [
          {
            "election": null,
            "id": 1,
            "name": "Ajax"
          }
        ],
        "pollDivisionIds": [
          10136685
        ],
        "postalCode": "L1Z0R7",
        "streetName": "HOLROYD",
        "streetDirectionId": null,
        "streetTypeId": "ST",
        "placeName": "AJAX",
        "streetNameDisplayText": "HOLROYD ST, AJAX"
      },
      {
        "electoralDistricts": [
          {
            "election": null,
            "id": 1,
            "name": "Ajax"
          }
        ],
        "pollDivisionIds": [
          10136685
        ],
        "postalCode": "L1Z0R7",
        "streetName": "TURNERBURY",
        "streetDirectionId": null,
        "streetTypeId": "AVE",
        "placeName": "AJAX",
        "streetNameDisplayText": "TURNERBURY AVE, AJAX"
      }
    ]
  },
  {
    "postal": "L1Z5W1",
    "result": []
  },
  {
    "postal": "L1Z0K4",
    "result": [
      {
        "electoralDistricts": [
          {
            "election": null,
            "id": 1,
            "name": "Ajax"
          }
        ],
        "pollDivisionIds": [
          10136685
        ],
        "postalCode": "L1Z0K4",
        "streetName": "HARWOOD",
        "streetDirectionId": "N",
        "streetTypeId": "AVE",
        "placeName": "AJAX",
        "streetNameDisplayText": "HARWOOD AVE N, AJAX"
      },
      {
        "electoralDistricts": [
          {
            "election": null,
            "id": 1,
            "name": "Ajax"
          }
        ],
        "pollDivisionIds": [
          10136685
        ],
        "postalCode": "L1Z0K4",
        "streetName": "KEENSFORD",
        "streetDirectionId": null,
        "streetTypeId": "CRT",
        "placeName": "AJAX",
        "streetNameDisplayText": "KEENSFORD CRT, AJAX"
      }
    ]
  },
  {
    "postal": "L1Z7N9",
    "result": []
  },
  {
    "postal": "L1Z1N0",
    "result": []
  },
  {
    "postal": "L1Z6P3",
    "result": []
  },
  {
    "postal": "L1Z5A1",
    "result": []
  },
  {
    "postal": "L1Z9M9",
    "result": []
  },
  {
    "postal": "L1Z7T6",
    "result": []
  },
  {
    "postal": "L1Z3X0",
    "result": []
  },
  {
    "postal": "L1Z2T0",
    "result": []
  },
  {
    "postal": "L1Z5X9",
    "result": []
  },
  {
    "postal": "L1Z2R3",
    "result": []
  },
  {
    "postal": "L1Z5N2",
    "result": []
  },
  {
    "postal": "L1Z4Y7",
    "result": []
  },
  {
    "postal": "L1Z7M0",
    "result": []
  },
  {
    "postal": "L1Z8P3",
    "result": []
  },
  {
    "postal": "L1Z3N3",
    "result": []
  },
  {
    "postal": "L1Z7S3",
    "result": []
  },
  {
    "postal": "L1Z3V9",
    "result": []
  },
  {
    "postal": "L1Z9N7",
    "result": []
  },
  {
    "postal": "L1Z0G4",
    "result": [
      {
        "electoralDistricts": [
          {
            "election": null,
            "id": 1,
            "name": "Ajax"
          }
        ],
        "pollDivisionIds": [
          10136684
        ],
        "postalCode": "L1Z0G4",
        "streetName": "DARLET",
        "streetDirectionId": null,
        "streetTypeId": "AVE",
        "placeName": "AJAX",
        "streetNameDisplayText": "DARLET AVE, AJAX"
      },
      {
        "electoralDistricts": [
          {
            "election": null,
            "id": 1,
            "name": "Ajax"
          }
        ],
        "pollDivisionIds": [
          10136684,
          10136683
        ],
        "postalCode": "L1Z0G4",
        "streetName": "SNOWLING",
        "streetDirectionId": null,
        "streetTypeId": "DR",
        "placeName": "AJAX",
        "streetNameDisplayText": "SNOWLING DR, AJAX"
      }
    ]
  },
  {
    "postal": "L1Z2E2",
    "result": [
      {
        "electoralDistricts": [
          {
            "election": null,
            "id": 1,
            "name": "Ajax"
          }
        ],
        "pollDivisionIds": [
          10136705
        ],
        "postalCode": "L1Z2E2",
        "streetName": "WHITEFOOT",
        "streetDirectionId": null,
        "streetTypeId": "CRES",
        "placeName": "AJAX",
        "streetNameDisplayText": "WHITEFOOT CRES, AJAX"
      }
    ]
  },
  {
    "postal": "L1Z7W8",
    "result": []
  },
  {
    "postal": "L1Z7M5",
    "result": []
  },
  {
    "postal": "L1Z5W8",
    "result": []
  },
  {
    "postal": "L1Z5E5",
    "result": []
  },
  {
    "postal": "L1Z1P9",
    "result": [
      {
        "electoralDistricts": [
          {
            "election": null,
            "id": 1,
            "name": "Ajax"
          }
        ],
        "pollDivisionIds": [
          10136696
        ],
        "postalCode": "L1Z1P9",
        "streetName": "BYRAM DOWNS",
        "streetDirectionId": null,
        "streetTypeId": "ST",
        "placeName": "AJAX",
        "streetNameDisplayText": "BYRAM DOWNS ST, AJAX"
      },
      {
        "electoralDistricts": [
          {
            "election": null,
            "id": 1,
            "name": "Ajax"
          }
        ],
        "pollDivisionIds": [
          10136696
        ],
        "postalCode": "L1Z1P9",
        "streetName": "LOUGHLIN HILL",
        "streetDirectionId": null,
        "streetTypeId": "CRES",
        "placeName": "AJAX",
        "streetNameDisplayText": "LOUGHLIN HILL CRES, AJAX"
      },
      {
        "electoralDistricts": [
          {
            "election": null,
            "id": 1,
            "name": "Ajax"
          }
        ],
        "pollDivisionIds": [
          10136696
        ],
        "postalCode": "L1Z1P9",
        "streetName": "TURNERBURY",
        "streetDirectionId": null,
        "streetTypeId": "AVE",
        "placeName": "AJAX",
        "streetNameDisplayText": "TURNERBURY AVE, AJAX"
      }
    ]
  },
  {
    "postal": "L1Z8V8",
    "result": []
  },
  {
    "postal": "L1Z9G8",
    "result": []
  },
  {
    "postal": "L1Z8H9",
    "result": []
  },
  {
    "postal": "L1Z1Z1",
    "result": [
      {
        "electoralDistricts": [
          {
            "election": null,
            "id": 1,
            "name": "Ajax"
          }
        ],
        "pollDivisionIds": [
          10136684
        ],
        "postalCode": "L1Z1Z1",
        "streetName": "MARRINER",
        "streetDirectionId": null,
        "streetTypeId": "CRES",
        "placeName": "AJAX",
        "streetNameDisplayText": "MARRINER CRES, AJAX"
      },
      {
        "electoralDistricts": [
          {
            "election": null,
            "id": 1,
            "name": "Ajax"
          }
        ],
        "pollDivisionIds": [
          10136683,
          10136684
        ],
        "postalCode": "L1Z1Z1",
        "streetName": "SEWARD",
        "streetDirectionId": null,
        "streetTypeId": "CRES",
        "placeName": "AJAX",
        "streetNameDisplayText": "SEWARD CRES, AJAX"
      }
    ]
  },
  {
    "postal": "L1Z8M3",
    "result": []
  },
  {
    "postal": "L1Z5H6",
    "result": []
  },
  {
    "postal": "L1Z7W7",
    "result": []
  },
  {
    "postal": "L1Z4L0",
    "result": []
  },
  {
    "postal": "L1Z2N1",
    "result": []
  },
  {
    "postal": "L1Z2H4",
    "result": []
  },
  {
    "postal": "L1Z5C8",
    "result": []
  },
  {
    "postal": "L1Z8B0",
    "result": []
  },
  {
    "postal": "L1Z1T4",
    "result": [
      {
        "electoralDistricts": [
          {
            "election": null,
            "id": 1,
            "name": "Ajax"
          }
        ],
        "pollDivisionIds": [
          10136683
        ],
        "postalCode": "L1Z1T4",
        "streetName": "AUDLEY",
        "streetDirectionId": "N",
        "streetTypeId": "RD",
        "placeName": "AJAX",
        "streetNameDisplayText": "AUDLEY RD N, AJAX"
      }
    ]
  },
  {
    "postal": "L1Z7N7",
    "result": []
  },
  {
    "postal": "L1Z4L3",
    "result": []
  },
  {
    "postal": "L1Z2N2",
    "result": []
  },
  {
    "postal": "L1Z4N8",
    "result": []
  },
  {
    "postal": "L1Z3M5",
    "result": []
  },
  {
    "postal": "L1Z6H7",
    "result": []
  },
  {
    "postal": "L1Z8Y8",
    "result": []
  },
  {
    "postal": "L1Z5R9",
    "result": []
  },
  {
    "postal": "L1Z8G3",
    "result": []
  },
  {
    "postal": "L1Z4N7",
    "result": []
  },
  {
    "postal": "L1Z0B9",
    "result": [
      {
        "electoralDistricts": [
          {
            "election": null,
            "id": 1,
            "name": "Ajax"
          }
        ],
        "pollDivisionIds": [
          10136683
        ],
        "postalCode": "L1Z0B9",
        "streetName": "MUSCAT",
        "streetDirectionId": null,
        "streetTypeId": "CRES",
        "placeName": "AJAX",
        "streetNameDisplayText": "MUSCAT CRES, AJAX"
      },
      {
        "electoralDistricts": [
          {
            "election": null,
            "id": 1,
            "name": "Ajax"
          }
        ],
        "pollDivisionIds": [
          10136683
        ],
        "postalCode": "L1Z0B9",
        "streetName": "STAINES",
        "streetDirectionId": null,
        "streetTypeId": "AVE",
        "placeName": "AJAX",
        "streetNameDisplayText": "STAINES AVE, AJAX"
      }
    ]
  },
  {
    "postal": "L1Z9K7",
    "result": []
  },
  {
    "postal": "L1Z9K9",
    "result": []
  },
  {
    "postal": "L1Z3Z2",
    "result": []
  },
  {
    "postal": "L1Z6W7",
    "result": []
  },
  {
    "postal": "L1Z0P1",
    "result": [
      {
        "electoralDistricts": [
          {
            "election": null,
            "id": 1,
            "name": "Ajax"
          }
        ],
        "pollDivisionIds": [
          10136704,
          10136705
        ],
        "postalCode": "L1Z0P1",
        "streetName": "AUDLEY",
        "streetDirectionId": "S",
        "streetTypeId": "RD",
        "placeName": "AJAX",
        "streetNameDisplayText": "AUDLEY RD S, AJAX"
      },
      {
        "electoralDistricts": [
          {
            "election": null,
            "id": 1,
            "name": "Ajax"
          }
        ],
        "pollDivisionIds": [
          10136705
        ],
        "postalCode": "L1Z0P1",
        "streetName": "CRELLIN",
        "streetDirectionId": null,
        "streetTypeId": "ST",
        "placeName": "AJAX",
        "streetNameDisplayText": "CRELLIN ST, AJAX"
      },
      {
        "electoralDistricts": [
          {
            "election": null,
            "id": 1,
            "name": "Ajax"
          }
        ],
        "pollDivisionIds": [
          10136705
        ],
        "postalCode": "L1Z0P1",
        "streetName": "MCCOURT",
        "streetDirectionId": null,
        "streetTypeId": "DR",
        "placeName": "AJAX",
        "streetNameDisplayText": "MCCOURT DR, AJAX"
      }
    ]
  },
  {
    "postal": "L1Z3A0",
    "result": []
  },
  {
    "postal": "L1Z8L9",
    "result": []
  },
  {
    "postal": "L1Z6X0",
    "result": []
  },
  {
    "postal": "L1Z3E9",
    "result": []
  },
  {
    "postal": "L1Z0S5",
    "result": [
      {
        "electoralDistricts": [
          {
            "election": null,
            "id": 1,
            "name": "Ajax"
          }
        ],
        "pollDivisionIds": [
          10136685
        ],
        "postalCode": "L1Z0S5",
        "streetName": "DEWSNAP",
        "streetDirectionId": null,
        "streetTypeId": "RD",
        "placeName": "AJAX",
        "streetNameDisplayText": "DEWSNAP RD, AJAX"
      },
      {
        "electoralDistricts": [
          {
            "election": null,
            "id": 1,
            "name": "Ajax"
          }
        ],
        "pollDivisionIds": [
          10136685
        ],
        "postalCode": "L1Z0S5",
        "streetName": "HALLAM",
        "streetDirectionId": null,
        "streetTypeId": "RD",
        "placeName": "AJAX",
        "streetNameDisplayText": "HALLAM RD, AJAX"
      },
      {
        "electoralDistricts": [
          {
            "election": null,
            "id": 1,
            "name": "Ajax"
          }
        ],
        "pollDivisionIds": [
          10136685
        ],
        "postalCode": "L1Z0S5",
        "streetName": "WESTGATE",
        "streetDirectionId": null,
        "streetTypeId": "AVE",
        "placeName": "AJAX",
        "streetNameDisplayText": "WESTGATE AVE, AJAX"
      }
    ]
  },
  {
    "postal": "L1Z1A2",
    "result": [
      {
        "electoralDistricts": [
          {
            "election": null,
            "id": 1,
            "name": "Ajax"
          }
        ],
        "pollDivisionIds": [
          10136696
        ],
        "postalCode": "L1Z1A2",
        "streetName": "TAMS",
        "streetDirectionId": null,
        "streetTypeId": "DR",
        "placeName": "AJAX",
        "streetNameDisplayText": "TAMS DR, AJAX"
      }
    ]
  },
  {
    "postal": "L1Z5V8",
    "result": []
  },
  {
    "postal": "L1Z8C5",
    "result": []
  },
  {
    "postal": "L1Z6N0",
    "result": []
  },
  {
    "postal": "L1Z9E6",
    "result": []
  },
  {
    "postal": "L1Z5J7",
    "result": []
  },
  {
    "postal": "L1Z2R2",
    "result": []
  },
  {
    "postal": "L1Z0P5",
    "result": [
      {
        "electoralDistricts": [
          {
            "election": null,
            "id": 1,
            "name": "Ajax"
          }
        ],
        "pollDivisionIds": [
          10136705
        ],
        "postalCode": "L1Z0P5",
        "streetName": "CRELLIN",
        "streetDirectionId": null,
        "streetTypeId": "ST",
        "placeName": "AJAX",
        "streetNameDisplayText": "CRELLIN ST, AJAX"
      },
      {
        "electoralDistricts": [
          {
            "election": null,
            "id": 1,
            "name": "Ajax"
          }
        ],
        "pollDivisionIds": [
          10136705
        ],
        "postalCode": "L1Z0P5",
        "streetName": "SHARPLIN",
        "streetDirectionId": null,
        "streetTypeId": "DR",
        "placeName": "AJAX",
        "streetNameDisplayText": "SHARPLIN DR, AJAX"
      }
    ]
  },
  {
    "postal": "L1Z5A7",
    "result": []
  },
  {
    "postal": "L1Z1G1",
    "result": [
      {
        "electoralDistricts": [
          {
            "election": null,
            "id": 1,
            "name": "Ajax"
          }
        ],
        "pollDivisionIds": [
          10136696,
          10136685
        ],
        "postalCode": "L1Z1G1",
        "streetName": "KINGSTON",
        "streetDirectionId": "E",
        "streetTypeId": "RD",
        "placeName": "AJAX",
        "streetNameDisplayText": "KINGSTON RD E, AJAX"
      }
    ]
  },
  {
    "postal": "L1Z9R6",
    "result": []
  },
  {
    "postal": "L1Z4Z9",
    "result": []
  },
  {
    "postal": "L1Z1V5",
    "result": []
  },
  {
    "postal": "L1Z9Y5",
    "result": []
  },
  {
    "postal": "L1Z1P2",
    "result": []
  },
  {
    "postal": "L1Z5X0",
    "result": []
  },
  {
    "postal": "L1Z7B8",
    "result": []
  },
  {
    "postal": "L1Z0C6",
    "result": [
      {
        "electoralDistricts": [
          {
            "election": null,
            "id": 1,
            "name": "Ajax"
          }
        ],
        "pollDivisionIds": [
          10136705
        ],
        "postalCode": "L1Z0C6",
        "streetName": "AUDLEY",
        "streetDirectionId": "S",
        "streetTypeId": "RD",
        "placeName": "AJAX",
        "streetNameDisplayText": "AUDLEY RD S, AJAX"
      }
    ]
  },
  {
    "postal": "L1Z6G1",
    "result": []
  },
  {
    "postal": "L1Z3K3",
    "result": []
  },
  {
    "postal": "L1Z9R0",
    "result": []
  },
  {
    "postal": "L1Z4R8",
    "result": []
  },
  {
    "postal": "L1Z5P9",
    "result": []
  },
  {
    "postal": "L1Z8N4",
    "result": []
  },
  {
    "postal": "L1Z8H4",
    "result": []
  },
  {
    "postal": "L1Z4V1",
    "result": []
  },
  {
    "postal": "L1Z1K5",
    "result": [
      {
        "electoralDistricts": [
          {
            "election": null,
            "id": 1,
            "name": "Ajax"
          }
        ],
        "pollDivisionIds": [
          10136704
        ],
        "postalCode": "L1Z1K5",
        "streetName": "SHOAL POINT",
        "streetDirectionId": null,
        "streetTypeId": "RD",
        "placeName": "AJAX",
        "streetNameDisplayText": "SHOAL POINT RD, AJAX"
      },
      {
        "electoralDistricts": [
          {
            "election": null,
            "id": 1,
            "name": "Ajax"
          }
        ],
        "pollDivisionIds": [
          10136704
        ],
        "postalCode": "L1Z1K5",
        "streetName": "WARWICK",
        "streetDirectionId": null,
        "streetTypeId": "AVE",
        "placeName": "AJAX",
        "streetNameDisplayText": "WARWICK AVE, AJAX"
      },
      {
        "electoralDistricts": [
          {
            "election": null,
            "id": 1,
            "name": "Ajax"
          }
        ],
        "pollDivisionIds": [
          10136704
        ],
        "postalCode": "L1Z1K5",
        "streetName": "WISEMAN",
        "streetDirectionId": null,
        "streetTypeId": "DR",
        "placeName": "AJAX",
        "streetNameDisplayText": "WISEMAN DR, AJAX"
      }
    ]
  },
  {
    "postal": "L1Z1Z5",
    "result": []
  },
  {
    "postal": "L1Z9L9",
    "result": []
  },
  {
    "postal": "L1Z5L2",
    "result": []
  },
  {
    "postal": "L1Z0M2",
    "result": [
      {
        "electoralDistricts": [
          {
            "election": null,
            "id": 1,
            "name": "Ajax"
          }
        ],
        "pollDivisionIds": [
          10136683,
          10136684
        ],
        "postalCode": "L1Z0M2",
        "streetName": "BELLOTTI",
        "streetDirectionId": null,
        "streetTypeId": "CRES",
        "placeName": "AJAX",
        "streetNameDisplayText": "BELLOTTI CRES, AJAX"
      },
      {
        "electoralDistricts": [
          {
            "election": null,
            "id": 1,
            "name": "Ajax"
          }
        ],
        "pollDivisionIds": [
          10136684
        ],
        "postalCode": "L1Z0M2",
        "streetName": "RUSHWORTH",
        "streetDirectionId": null,
        "streetTypeId": "DR",
        "placeName": "AJAX",
        "streetNameDisplayText": "RUSHWORTH DR, AJAX"
      },
      {
        "electoralDistricts": [
          {
            "election": null,
            "id": 1,
            "name": "Ajax"
          }
        ],
        "pollDivisionIds": [
          10136684
        ],
        "postalCode": "L1Z0M2",
        "streetName": "SNOWLING",
        "streetDirectionId": null,
        "streetTypeId": "DR",
        "placeName": "AJAX",
        "streetNameDisplayText": "SNOWLING DR, AJAX"
      }
    ]
  },
  {
    "postal": "L1Z1K8",
    "result": [
      {
        "electoralDistricts": [
          {
            "election": null,
            "id": 1,
            "name": "Ajax"
          }
        ],
        "pollDivisionIds": [
          10136704,
          10136703
        ],
        "postalCode": "L1Z1K8",
        "streetName": "DAVEY",
        "streetDirectionId": null,
        "streetTypeId": "ST",
        "placeName": "AJAX",
        "streetNameDisplayText": "DAVEY ST, AJAX"
      },
      {
        "electoralDistricts": [
          {
            "election": null,
            "id": 1,
            "name": "Ajax"
          }
        ],
        "pollDivisionIds": [
          10136704
        ],
        "postalCode": "L1Z1K8",
        "streetName": "LILLEY",
        "streetDirectionId": null,
        "streetTypeId": "AVE",
        "placeName": "AJAX",
        "streetNameDisplayText": "LILLEY AVE, AJAX"
      },
      {
        "electoralDistricts": [
          {
            "election": null,
            "id": 1,
            "name": "Ajax"
          }
        ],
        "pollDivisionIds": [
          10136704
        ],
        "postalCode": "L1Z1K8",
        "streetName": "WARWICK",
        "streetDirectionId": null,
        "streetTypeId": "AVE",
        "placeName": "AJAX",
        "streetNameDisplayText": "WARWICK AVE, AJAX"
      }
    ]
  },
  {
    "postal": "L1Z3M7",
    "result": []
  },
  {
    "postal": "L1Z1B2",
    "result": [
      {
        "electoralDistricts": [
          {
            "election": null,
            "id": 1,
            "name": "Ajax"
          }
        ],
        "pollDivisionIds": [
          10136696
        ],
        "postalCode": "L1Z1B2",
        "streetName": "FIELD",
        "streetDirectionId": null,
        "streetTypeId": "CRES",
        "placeName": "AJAX",
        "streetNameDisplayText": "FIELD CRES, AJAX"
      }
    ]
  },
  {
    "postal": "L1Z0H9",
    "result": []
  },
  {
    "postal": "L1Z8M4",
    "result": []
  },
  {
    "postal": "L1Z2M5",
    "result": []
  },
  {
    "postal": "L1Z0T9",
    "result": []
  },
  {
    "postal": "L1Z3P1",
    "result": []
  },
  {
    "postal": "L1Z1R6",
    "result": [
      {
        "electoralDistricts": [
          {
            "election": null,
            "id": 1,
            "name": "Ajax"
          }
        ],
        "pollDivisionIds": [
          10136696
        ],
        "postalCode": "L1Z1R6",
        "streetName": "AINSBURY",
        "streetDirectionId": null,
        "streetTypeId": "AVE",
        "placeName": "AJAX",
        "streetNameDisplayText": "AINSBURY AVE, AJAX"
      },
      {
        "electoralDistricts": [
          {
            "election": null,
            "id": 1,
            "name": "Ajax"
          }
        ],
        "pollDivisionIds": [
          10136696
        ],
        "postalCode": "L1Z1R6",
        "streetName": "SLADER HEIGHTS",
        "streetDirectionId": null,
        "streetTypeId": "ST",
        "placeName": "AJAX",
        "streetNameDisplayText": "SLADER HEIGHTS ST, AJAX"
      },
      {
        "electoralDistricts": [
          {
            "election": null,
            "id": 1,
            "name": "Ajax"
          }
        ],
        "pollDivisionIds": [
          10136696
        ],
        "postalCode": "L1Z1R6",
        "streetName": "SOUTHAM",
        "streetDirectionId": null,
        "streetTypeId": "ST",
        "placeName": "AJAX",
        "streetNameDisplayText": "SOUTHAM ST, AJAX"
      },
      {
        "electoralDistricts": [
          {
            "election": null,
            "id": 1,
            "name": "Ajax"
          }
        ],
        "pollDivisionIds": [
          10136696
        ],
        "postalCode": "L1Z1R6",
        "streetName": "TURNERBURY",
        "streetDirectionId": null,
        "streetTypeId": "AVE",
        "placeName": "AJAX",
        "streetNameDisplayText": "TURNERBURY AVE, AJAX"
      }
    ]
  },
  {
    "postal": "L1Z9V5",
    "result": []
  },
  {
    "postal": "L1Z9T0",
    "result": []
  },
  {
    "postal": "L1Z0A9",
    "result": [
      {
        "electoralDistricts": [
          {
            "election": null,
            "id": 1,
            "name": "Ajax"
          }
        ],
        "pollDivisionIds": [
          10136684
        ],
        "postalCode": "L1Z0A9",
        "streetName": "ABRAHAM",
        "streetDirectionId": null,
        "streetTypeId": "CRT",
        "placeName": "AJAX",
        "streetNameDisplayText": "ABRAHAM CRT, AJAX"
      }
    ]
  },
  {
    "postal": "L1Z1M3",
    "result": [
      {
        "electoralDistricts": [
          {
            "election": null,
            "id": 1,
            "name": "Ajax"
          }
        ],
        "pollDivisionIds": [
          10136704
        ],
        "postalCode": "L1Z1M3",
        "streetName": "HANDLEY",
        "streetDirectionId": null,
        "streetTypeId": "CRES",
        "placeName": "AJAX",
        "streetNameDisplayText": "HANDLEY CRES, AJAX"
      }
    ]
  },
  {
    "postal": "L1Z1W8",
    "result": [
      {
        "electoralDistricts": [
          {
            "election": null,
            "id": 1,
            "name": "Ajax"
          }
        ],
        "pollDivisionIds": [
          10136705
        ],
        "postalCode": "L1Z1W8",
        "streetName": "BAYLY",
        "streetDirectionId": "E",
        "streetTypeId": "ST",
        "placeName": "AJAX",
        "streetNameDisplayText": "BAYLY ST E, AJAX"
      },
      {
        "electoralDistricts": [
          {
            "election": null,
            "id": 1,
            "name": "Ajax"
          }
        ],
        "pollDivisionIds": [
          10136701
        ],
        "postalCode": "L1Z1W8",
        "streetName": "BAYLY",
        "streetDirectionId": "W",
        "streetTypeId": "ST",
        "placeName": "AJAX",
        "streetNameDisplayText": "BAYLY ST W, AJAX"
      }
    ]
  },
  {
    "postal": "L1Z9J1",
    "result": []
  },
  {
    "postal": "L1Z8N5",
    "result": []
  },
  {
    "postal": "L1Z5X1",
    "result": []
  },
  {
    "postal": "L1Z6S2",
    "result": []
  },
  {
    "postal": "L1Z2A2",
    "result": []
  },
  {
    "postal": "L1Z6A6",
    "result": []
  },
  {
    "postal": "L1Z0S3",
    "result": [
      {
        "electoralDistricts": [
          {
            "election": null,
            "id": 1,
            "name": "Ajax"
          }
        ],
        "pollDivisionIds": [
          10136705
        ],
        "postalCode": "L1Z0S3",
        "streetName": "DENNY",
        "streetDirectionId": null,
        "streetTypeId": "ST",
        "placeName": "AJAX",
        "streetNameDisplayText": "DENNY ST, AJAX"
      },
      {
        "electoralDistricts": [
          {
            "election": null,
            "id": 1,
            "name": "Ajax"
          }
        ],
        "pollDivisionIds": [
          10136705,
          10136703
        ],
        "postalCode": "L1Z0S3",
        "streetName": "MCCOURT",
        "streetDirectionId": null,
        "streetTypeId": "DR",
        "placeName": "AJAX",
        "streetNameDisplayText": "MCCOURT DR, AJAX"
      },
      {
        "electoralDistricts": [
          {
            "election": null,
            "id": 1,
            "name": "Ajax"
          }
        ],
        "pollDivisionIds": [
          10136705
        ],
        "postalCode": "L1Z0S3",
        "streetName": "SHARPLIN",
        "streetDirectionId": null,
        "streetTypeId": "DR",
        "placeName": "AJAX",
        "streetNameDisplayText": "SHARPLIN DR, AJAX"
      }
    ]
  },
  {
    "postal": "L1Z3E7",
    "result": []
  },
  {
    "postal": "L1Z5R7",
    "result": []
  },
  {
    "postal": "L1Z3R6",
    "result": []
  },
  {
    "postal": "L1Z6K4",
    "result": []
  },
  {
    "postal": "L1Z2W5",
    "result": []
  },
  {
    "postal": "L1Z8W4",
    "result": []
  },
  {
    "postal": "L1Z9C2",
    "result": []
  },
  {
    "postal": "L1Z2C0",
    "result": []
  },
  {
    "postal": "L1Z0E1",
    "result": [
      {
        "electoralDistricts": [
          {
            "election": null,
            "id": 1,
            "name": "Ajax"
          }
        ],
        "pollDivisionIds": [
          10136683
        ],
        "postalCode": "L1Z0E1",
        "streetName": "BISSLAND",
        "streetDirectionId": null,
        "streetTypeId": "DR",
        "placeName": "AJAX",
        "streetNameDisplayText": "BISSLAND DR, AJAX"
      },
      {
        "electoralDistricts": [
          {
            "election": null,
            "id": 1,
            "name": "Ajax"
          }
        ],
        "pollDivisionIds": [
          10136683
        ],
        "postalCode": "L1Z0E1",
        "streetName": "DOLBY",
        "streetDirectionId": null,
        "streetTypeId": "CRES",
        "placeName": "AJAX",
        "streetNameDisplayText": "DOLBY CRES, AJAX"
      },
      {
        "electoralDistricts": [
          {
            "election": null,
            "id": 1,
            "name": "Ajax"
          }
        ],
        "pollDivisionIds": [
          10136683
        ],
        "postalCode": "L1Z0E1",
        "streetName": "GILLETT",
        "streetDirectionId": null,
        "streetTypeId": "DR",
        "placeName": "AJAX",
        "streetNameDisplayText": "GILLETT DR, AJAX"
      }
    ]
  },
  {
    "postal": "L1Z1K9",
    "result": [
      {
        "electoralDistricts": [
          {
            "election": null,
            "id": 1,
            "name": "Ajax"
          }
        ],
        "pollDivisionIds": [
          10136704
        ],
        "postalCode": "L1Z1K9",
        "streetName": "ASHBURY",
        "streetDirectionId": null,
        "streetTypeId": "BLVD",
        "placeName": "AJAX",
        "streetNameDisplayText": "ASHBURY BLVD, AJAX"
      },
      {
        "electoralDistricts": [
          {
            "election": null,
            "id": 1,
            "name": "Ajax"
          }
        ],
        "pollDivisionIds": [
          10136704
        ],
        "postalCode": "L1Z1K9",
        "streetName": "HOLLIMAN",
        "streetDirectionId": null,
        "streetTypeId": "LANE",
        "placeName": "AJAX",
        "streetNameDisplayText": "HOLLIMAN LANE, AJAX"
      },
      {
        "electoralDistricts": [
          {
            "election": null,
            "id": 1,
            "name": "Ajax"
          }
        ],
        "pollDivisionIds": [
          10136704
        ],
        "postalCode": "L1Z1K9",
        "streetName": "PLUMB",
        "streetDirectionId": null,
        "streetTypeId": "ST",
        "placeName": "AJAX",
        "streetNameDisplayText": "PLUMB ST, AJAX"
      },
      {
        "electoralDistricts": [
          {
            "election": null,
            "id": 1,
            "name": "Ajax"
          }
        ],
        "pollDivisionIds": [
          10136704
        ],
        "postalCode": "L1Z1K9",
        "streetName": "SHOAL POINT",
        "streetDirectionId": null,
        "streetTypeId": "RD",
        "placeName": "AJAX",
        "streetNameDisplayText": "SHOAL POINT RD, AJAX"
      },
      {
        "electoralDistricts": [
          {
            "election": null,
            "id": 1,
            "name": "Ajax"
          }
        ],
        "pollDivisionIds": [
          10136704
        ],
        "postalCode": "L1Z1K9",
        "streetName": "WISEMAN",
        "streetDirectionId": null,
        "streetTypeId": "DR",
        "placeName": "AJAX",
        "streetNameDisplayText": "WISEMAN DR, AJAX"
      }
    ]
  },
  {
    "postal": "L1Z1G7",
    "result": [
      {
        "electoralDistricts": [
          {
            "election": null,
            "id": 1,
            "name": "Ajax"
          }
        ],
        "pollDivisionIds": [
          10136688
        ],
        "postalCode": "L1Z1G7",
        "streetName": "LAX",
        "streetDirectionId": null,
        "streetTypeId": "AVE",
        "placeName": "AJAX",
        "streetNameDisplayText": "LAX AVE, AJAX"
      },
      {
        "electoralDistricts": [
          {
            "election": null,
            "id": 1,
            "name": "Ajax"
          }
        ],
        "pollDivisionIds": [
          10136688
        ],
        "postalCode": "L1Z1G7",
        "streetName": "SMALES",
        "streetDirectionId": null,
        "streetTypeId": "DR",
        "placeName": "AJAX",
        "streetNameDisplayText": "SMALES DR, AJAX"
      }
    ]
  },
  {
    "postal": "L1Z4E9",
    "result": []
  },
  {
    "postal": "L1Z9P0",
    "result": []
  },
  {
    "postal": "L1Z5H3",
    "result": []
  },
  {
    "postal": "L1Z9X6",
    "result": []
  },
  {
    "postal": "L1Z5N7",
    "result": []
  },
  {
    "postal": "L1Z5A6",
    "result": []
  },
  {
    "postal": "L1Z4M0",
    "result": []
  },
  {
    "postal": "L1Z3V6",
    "result": []
  },
  {
    "postal": "L1Z1L7",
    "result": [
      {
        "electoralDistricts": [
          {
            "election": null,
            "id": 1,
            "name": "Ajax"
          }
        ],
        "pollDivisionIds": [
          10136704
        ],
        "postalCode": "L1Z1L7",
        "streetName": "AUDLEY",
        "streetDirectionId": "S",
        "streetTypeId": "RD",
        "placeName": "AJAX",
        "streetNameDisplayText": "AUDLEY RD S, AJAX"
      },
      {
        "electoralDistricts": [
          {
            "election": null,
            "id": 1,
            "name": "Ajax"
          }
        ],
        "pollDivisionIds": [
          10136704
        ],
        "postalCode": "L1Z1L7",
        "streetName": "HANDLEY",
        "streetDirectionId": null,
        "streetTypeId": "CRES",
        "placeName": "AJAX",
        "streetNameDisplayText": "HANDLEY CRES, AJAX"
      },
      {
        "electoralDistricts": [
          {
            "election": null,
            "id": 1,
            "name": "Ajax"
          }
        ],
        "pollDivisionIds": [
          10136704
        ],
        "postalCode": "L1Z1L7",
        "streetName": "HOILE",
        "streetDirectionId": null,
        "streetTypeId": "DR",
        "placeName": "AJAX",
        "streetNameDisplayText": "HOILE DR, AJAX"
      },
      {
        "electoralDistricts": [
          {
            "election": null,
            "id": 1,
            "name": "Ajax"
          }
        ],
        "pollDivisionIds": [
          10136704
        ],
        "postalCode": "L1Z1L7",
        "streetName": "LILLEY",
        "streetDirectionId": null,
        "streetTypeId": "AVE",
        "placeName": "AJAX",
        "streetNameDisplayText": "LILLEY AVE, AJAX"
      }
    ]
  },
  {
    "postal": "L1Z2P9",
    "result": []
  },
  {
    "postal": "L1Z5T4",
    "result": []
  },
  {
    "postal": "L1Z5Z1",
    "result": []
  },
  {
    "postal": "L1Z2X0",
    "result": []
  },
  {
    "postal": "L1Z6Z2",
    "result": []
  },
  {
    "postal": "L1Z0E0",
    "result": []
  },
  {
    "postal": "L1Z3Z5",
    "result": []
  },
  {
    "postal": "L1Z8H3",
    "result": []
  },
  {
    "postal": "L1Z7S6",
    "result": []
  },
  {
    "postal": "L1Z4C1",
    "result": []
  },
  {
    "postal": "L1Z3K2",
    "result": []
  },
  {
    "postal": "L1Z1Y5",
    "result": [
      {
        "electoralDistricts": [
          {
            "election": null,
            "id": 1,
            "name": "Ajax"
          }
        ],
        "pollDivisionIds": [
          10136684
        ],
        "postalCode": "L1Z1Y5",
        "streetName": "TANSLEY",
        "streetDirectionId": null,
        "streetTypeId": "CRES",
        "placeName": "AJAX",
        "streetNameDisplayText": "TANSLEY CRES, AJAX"
      }
    ]
  },
  {
    "postal": "L1Z6P6",
    "result": []
  },
  {
    "postal": "L1Z3N9",
    "result": []
  },
  {
    "postal": "L1Z3W2",
    "result": []
  },
  {
    "postal": "L1Z6H8",
    "result": []
  },
  {
    "postal": "L1Z9T3",
    "result": []
  },
  {
    "postal": "L1Z5L9",
    "result": []
  },
  {
    "postal": "L1Z7X7",
    "result": []
  },
  {
    "postal": "L1Z3J5",
    "result": []
  },
  {
    "postal": "L1Z4J5",
    "result": []
  },
  {
    "postal": "L1Z6J2",
    "result": []
  },
  {
    "postal": "L1Z5V6",
    "result": []
  },
  {
    "postal": "L1Z3N2",
    "result": []
  },
  {
    "postal": "L1Z3B1",
    "result": []
  },
  {
    "postal": "L1Z8B5",
    "result": []
  },
  {
    "postal": "L1Z0K1",
    "result": [
      {
        "electoralDistricts": [
          {
            "election": null,
            "id": 1,
            "name": "Ajax"
          }
        ],
        "pollDivisionIds": [
          10136683
        ],
        "postalCode": "L1Z0K1",
        "streetName": "CAMILL",
        "streetDirectionId": null,
        "streetTypeId": "AVE",
        "placeName": "AJAX",
        "streetNameDisplayText": "CAMILL AVE, AJAX"
      },
      {
        "electoralDistricts": [
          {
            "election": null,
            "id": 1,
            "name": "Ajax"
          }
        ],
        "pollDivisionIds": [
          10136683
        ],
        "postalCode": "L1Z0K1",
        "streetName": "GILLETT",
        "streetDirectionId": null,
        "streetTypeId": "DR",
        "placeName": "AJAX",
        "streetNameDisplayText": "GILLETT DR, AJAX"
      },
      {
        "electoralDistricts": [
          {
            "election": null,
            "id": 1,
            "name": "Ajax"
          }
        ],
        "pollDivisionIds": [
          10136683
        ],
        "postalCode": "L1Z0K1",
        "streetName": "LUCE",
        "streetDirectionId": null,
        "streetTypeId": "DR",
        "placeName": "AJAX",
        "streetNameDisplayText": "LUCE DR, AJAX"
      },
      {
        "electoralDistricts": [
          {
            "election": null,
            "id": 1,
            "name": "Ajax"
          }
        ],
        "pollDivisionIds": [
          10136683
        ],
        "postalCode": "L1Z0K1",
        "streetName": "LUCERNE",
        "streetDirectionId": null,
        "streetTypeId": "DR",
        "placeName": "AJAX",
        "streetNameDisplayText": "LUCERNE DR, AJAX"
      },
      {
        "electoralDistricts": [
          {
            "election": null,
            "id": 1,
            "name": "Ajax"
          }
        ],
        "pollDivisionIds": [
          10136683
        ],
        "postalCode": "L1Z0K1",
        "streetName": "TODHUNTER",
        "streetDirectionId": null,
        "streetTypeId": "CRES",
        "placeName": "AJAX",
        "streetNameDisplayText": "TODHUNTER CRES, AJAX"
      }
    ]
  },
  {
    "postal": "L1Z7M7",
    "result": []
  },
  {
    "postal": "L1Z2M2",
    "result": []
  },
  {
    "postal": "L1Z9N3",
    "result": []
  },
  {
    "postal": "L1Z4Y8",
    "result": []
  },
  {
    "postal": "L1Z3V7",
    "result": []
  },
  {
    "postal": "L1Z8Z1",
    "result": []
  },
  {
    "postal": "L1Z7B3",
    "result": []
  },
  {
    "postal": "L1Z3A8",
    "result": []
  },
  {
    "postal": "L1Z7V5",
    "result": []
  },
  {
    "postal": "L1Z2T2",
    "result": []
  },
  {
    "postal": "L1Z6L3",
    "result": []
  },
  {
    "postal": "L1Z0L2",
    "result": [
      {
        "electoralDistricts": [
          {
            "election": null,
            "id": 1,
            "name": "Ajax"
          }
        ],
        "pollDivisionIds": [
          10136684
        ],
        "postalCode": "L1Z0L2",
        "streetName": "AUDLEY",
        "streetDirectionId": "N",
        "streetTypeId": "RD",
        "placeName": "AJAX",
        "streetNameDisplayText": "AUDLEY RD N, AJAX"
      }
    ]
  },
  {
    "postal": "L1Z5Y8",
    "result": []
  },
  {
    "postal": "L1Z0B8",
    "result": [
      {
        "electoralDistricts": [
          {
            "election": null,
            "id": 1,
            "name": "Ajax"
          }
        ],
        "pollDivisionIds": [
          10136683
        ],
        "postalCode": "L1Z0B8",
        "streetName": "MUSCAT",
        "streetDirectionId": null,
        "streetTypeId": "CRES",
        "placeName": "AJAX",
        "streetNameDisplayText": "MUSCAT CRES, AJAX"
      },
      {
        "electoralDistricts": [
          {
            "election": null,
            "id": 1,
            "name": "Ajax"
          }
        ],
        "pollDivisionIds": [
          10136683
        ],
        "postalCode": "L1Z0B8",
        "streetName": "STAINES",
        "streetDirectionId": null,
        "streetTypeId": "AVE",
        "placeName": "AJAX",
        "streetNameDisplayText": "STAINES AVE, AJAX"
      }
    ]
  },
  {
    "postal": "L1Z6R5",
    "result": []
  },
  {
    "postal": "L1Z8W6",
    "result": []
  },
  {
    "postal": "L1Z8G6",
    "result": []
  },
  {
    "postal": "L1Z6X3",
    "result": []
  },
  {
    "postal": "L1Z7R7",
    "result": []
  },
  {
    "postal": "L1Z4B6",
    "result": []
  },
  {
    "postal": "L1Z3P9",
    "result": []
  },
  {
    "postal": "L1Z2T3",
    "result": []
  },
  {
    "postal": "L1Z1M4",
    "result": [
      {
        "electoralDistricts": [
          {
            "election": null,
            "id": 1,
            "name": "Ajax"
          }
        ],
        "pollDivisionIds": [
          10136704
        ],
        "postalCode": "L1Z1M4",
        "streetName": "AUDLEY",
        "streetDirectionId": "S",
        "streetTypeId": "RD",
        "placeName": "AJAX",
        "streetNameDisplayText": "AUDLEY RD S, AJAX"
      },
      {
        "electoralDistricts": [
          {
            "election": null,
            "id": 1,
            "name": "Ajax"
          }
        ],
        "pollDivisionIds": [
          10136704
        ],
        "postalCode": "L1Z1M4",
        "streetName": "MOYNAHAN",
        "streetDirectionId": null,
        "streetTypeId": "CRES",
        "placeName": "AJAX",
        "streetNameDisplayText": "MOYNAHAN CRES, AJAX"
      }
    ]
  },
  {
    "postal": "L1Z0H1",
    "result": [
      {
        "electoralDistricts": [
          {
            "election": null,
            "id": 1,
            "name": "Ajax"
          }
        ],
        "pollDivisionIds": [
          10136683
        ],
        "postalCode": "L1Z0H1",
        "streetName": "ELLIOTTGLEN",
        "streetDirectionId": null,
        "streetTypeId": "DR",
        "placeName": "AJAX",
        "streetNameDisplayText": "ELLIOTTGLEN DR, AJAX"
      },
      {
        "electoralDistricts": [
          {
            "election": null,
            "id": 1,
            "name": "Ajax"
          }
        ],
        "pollDivisionIds": [
          10136683
        ],
        "postalCode": "L1Z0H1",
        "streetName": "SARGEANT",
        "streetDirectionId": null,
        "streetTypeId": "AVE",
        "placeName": "AJAX",
        "streetNameDisplayText": "SARGEANT AVE, AJAX"
      }
    ]
  },
  {
    "postal": "L1Z9W3",
    "result": []
  },
  {
    "postal": "L1Z6P1",
    "result": []
  },
  {
    "postal": "L1Z7G2",
    "result": []
  },
  {
    "postal": "L1Z4J9",
    "result": []
  },
  {
    "postal": "L1Z9E4",
    "result": []
  },
  {
    "postal": "L1Z8H0",
    "result": []
  },
  {
    "postal": "L1Z4M7",
    "result": []
  },
  {
    "postal": "L1Z2G9",
    "result": []
  },
  {
    "postal": "L1Z8T2",
    "result": []
  },
  {
    "postal": "L1Z7G7",
    "result": []
  },
  {
    "postal": "L1Z4Z3",
    "result": []
  },
  {
    "postal": "L1Z5B3",
    "result": []
  },
  {
    "postal": "L1Z1S7",
    "result": [
      {
        "electoralDistricts": [
          {
            "election": null,
            "id": 1,
            "name": "Ajax"
          }
        ],
        "pollDivisionIds": [
          10136684
        ],
        "postalCode": "L1Z1S7",
        "streetName": "DURLING ROCK",
        "streetDirectionId": null,
        "streetTypeId": "ST",
        "placeName": "AJAX",
        "streetNameDisplayText": "DURLING ROCK ST, AJAX"
      },
      {
        "electoralDistricts": [
          {
            "election": null,
            "id": 1,
            "name": "Ajax"
          }
        ],
        "pollDivisionIds": [
          10136684
        ],
        "postalCode": "L1Z1S7",
        "streetName": "HOLLIER",
        "streetDirectionId": null,
        "streetTypeId": "DR",
        "placeName": "AJAX",
        "streetNameDisplayText": "HOLLIER DR, AJAX"
      },
      {
        "electoralDistricts": [
          {
            "election": null,
            "id": 1,
            "name": "Ajax"
          }
        ],
        "pollDivisionIds": [
          10136684
        ],
        "postalCode": "L1Z1S7",
        "streetName": "SALVAGE",
        "streetDirectionId": null,
        "streetTypeId": "ST",
        "placeName": "AJAX",
        "streetNameDisplayText": "SALVAGE ST, AJAX"
      },
      {
        "electoralDistricts": [
          {
            "election": null,
            "id": 1,
            "name": "Ajax"
          }
        ],
        "pollDivisionIds": [
          10136684
        ],
        "postalCode": "L1Z1S7",
        "streetName": "TEASDALE",
        "streetDirectionId": null,
        "streetTypeId": "ST",
        "placeName": "AJAX",
        "streetNameDisplayText": "TEASDALE ST, AJAX"
      }
    ]
  },
  {
    "postal": "L1Z2N7",
    "result": []
  },
  {
    "postal": "L1Z0H8",
    "result": []
  },
  {
    "postal": "L1Z7Z4",
    "result": []
  },
  {
    "postal": "L1Z7B1",
    "result": []
  },
  {
    "postal": "L1Z7P8",
    "result": []
  },
  {
    "postal": "L1Z7N0",
    "result": []
  },
  {
    "postal": "L1Z3Y5",
    "result": []
  },
  {
    "postal": "L1Z6K1",
    "result": []
  },
  {
    "postal": "L1Z9X5",
    "result": []
  },
  {
    "postal": "L1Z7S5",
    "result": []
  },
  {
    "postal": "L1Z0A4",
    "result": [
      {
        "electoralDistricts": [
          {
            "election": null,
            "id": 1,
            "name": "Ajax"
          }
        ],
        "pollDivisionIds": [
          10136696
        ],
        "postalCode": "L1Z0A4",
        "streetName": "SILVERWOOD",
        "streetDirectionId": null,
        "streetTypeId": "CIR",
        "placeName": "AJAX",
        "streetNameDisplayText": "SILVERWOOD CIR, AJAX"
      }
    ]
  },
  {
    "postal": "L1Z4T5",
    "result": []
  },
  {
    "postal": "L1Z5K1",
    "result": []
  },
  {
    "postal": "L1Z0Z9",
    "result": []
  },
  {
    "postal": "L1Z7T2",
    "result": []
  },
  {
    "postal": "L1Z1L5",
    "result": [
      {
        "electoralDistricts": [
          {
            "election": null,
            "id": 1,
            "name": "Ajax"
          }
        ],
        "pollDivisionIds": [
          10136704,
          10136701
        ],
        "postalCode": "L1Z1L5",
        "streetName": "LILLEY",
        "streetDirectionId": null,
        "streetTypeId": "AVE",
        "placeName": "AJAX",
        "streetNameDisplayText": "LILLEY AVE, AJAX"
      },
      {
        "electoralDistricts": [
          {
            "election": null,
            "id": 1,
            "name": "Ajax"
          }
        ],
        "pollDivisionIds": [
          10136704
        ],
        "postalCode": "L1Z1L5",
        "streetName": "WARWICK",
        "streetDirectionId": null,
        "streetTypeId": "AVE",
        "placeName": "AJAX",
        "streetNameDisplayText": "WARWICK AVE, AJAX"
      }
    ]
  },
  {
    "postal": "L1Z3N5",
    "result": []
  },
  {
    "postal": "L1Z6H4",
    "result": []
  },
  {
    "postal": "L1Z5A5",
    "result": []
  },
  {
    "postal": "L1Z3R9",
    "result": []
  },
  {
    "postal": "L1Z7L8",
    "result": []
  },
  {
    "postal": "L1Z6T6",
    "result": []
  },
  {
    "postal": "L1Z7Y7",
    "result": []
  },
  {
    "postal": "L1Z3M8",
    "result": []
  },
  {
    "postal": "L1Z2E0",
    "result": []
  },
  {
    "postal": "L1Z4B5",
    "result": []
  },
  {
    "postal": "L1Z1J3",
    "result": [
      {
        "electoralDistricts": [
          {
            "election": null,
            "id": 1,
            "name": "Ajax"
          }
        ],
        "pollDivisionIds": [
          10136688
        ],
        "postalCode": "L1Z1J3",
        "streetName": "PERFITT",
        "streetDirectionId": null,
        "streetTypeId": "CRES",
        "placeName": "AJAX",
        "streetNameDisplayText": "PERFITT CRES, AJAX"
      }
    ]
  },
  {
    "postal": "L1Z5S6",
    "result": []
  },
  {
    "postal": "L1Z8P7",
    "result": []
  },
  {
    "postal": "L1Z7S7",
    "result": []
  },
  {
    "postal": "L1Z4C2",
    "result": []
  },
  {
    "postal": "L1Z5Y0",
    "result": []
  },
  {
    "postal": "L1Z2V7",
    "result": []
  },
  {
    "postal": "L1Z8P5",
    "result": []
  },
  {
    "postal": "L1Z5P5",
    "result": []
  },
  {
    "postal": "L1Z5Z0",
    "result": []
  },
  {
    "postal": "L1Z9B0",
    "result": []
  },
  {
    "postal": "L1Z1L0",
    "result": []
  },
  {
    "postal": "L1Z0B5",
    "result": [
      {
        "electoralDistricts": [
          {
            "election": null,
            "id": 1,
            "name": "Ajax"
          }
        ],
        "pollDivisionIds": [
          10136684
        ],
        "postalCode": "L1Z0B5",
        "streetName": "WESTRAY",
        "streetDirectionId": null,
        "streetTypeId": "CRES",
        "placeName": "AJAX",
        "streetNameDisplayText": "WESTRAY CRES, AJAX"
      }
    ]
  },
  {
    "postal": "L1Z3L2",
    "result": []
  },
  {
    "postal": "L1Z3B7",
    "result": []
  },
  {
    "postal": "L1Z8L1",
    "result": []
  },
  {
    "postal": "L1Z5M4",
    "result": []
  },
  {
    "postal": "L1Z4G9",
    "result": []
  },
  {
    "postal": "L1Z0P0",
    "result": []
  },
  {
    "postal": "L1Z8G2",
    "result": []
  },
  {
    "postal": "L1Z1V9",
    "result": [
      {
        "electoralDistricts": [
          {
            "election": null,
            "id": 1,
            "name": "Ajax"
          }
        ],
        "pollDivisionIds": [
          10136696
        ],
        "postalCode": "L1Z1V9",
        "streetName": "KINGSTON",
        "streetDirectionId": "E",
        "streetTypeId": "RD",
        "placeName": "AJAX",
        "streetNameDisplayText": "KINGSTON RD E, AJAX"
      },
      {
        "electoralDistricts": [
          {
            "election": null,
            "id": 1,
            "name": "Ajax"
          }
        ],
        "pollDivisionIds": [
          10136700
        ],
        "postalCode": "L1Z1V9",
        "streetName": "KINGSTON",
        "streetDirectionId": "W",
        "streetTypeId": "RD",
        "placeName": "AJAX",
        "streetNameDisplayText": "KINGSTON RD W, AJAX"
      }
    ]
  },
  {
    "postal": "L1Z8N8",
    "result": []
  },
  {
    "postal": "L1Z6S8",
    "result": []
  },
  {
    "postal": "L1Z8H2",
    "result": []
  },
  {
    "postal": "L1Z5R8",
    "result": []
  },
  {
    "postal": "L1Z5L4",
    "result": []
  },
  {
    "postal": "L1Z9E1",
    "result": []
  },
  {
    "postal": "L1Z1C4",
    "result": [
      {
        "electoralDistricts": [
          {
            "election": null,
            "id": 1,
            "name": "Ajax"
          }
        ],
        "pollDivisionIds": [
          10136696
        ],
        "postalCode": "L1Z1C4",
        "streetName": "WICKS",
        "streetDirectionId": null,
        "streetTypeId": "DR",
        "placeName": "AJAX",
        "streetNameDisplayText": "WICKS DR, AJAX"
      }
    ]
  },
  {
    "postal": "L1Z8W5",
    "result": []
  },
  {
    "postal": "L1Z1Y4",
    "result": [
      {
        "electoralDistricts": [
          {
            "election": null,
            "id": 1,
            "name": "Ajax"
          }
        ],
        "pollDivisionIds": [
          10136684
        ],
        "postalCode": "L1Z1Y4",
        "streetName": "FENTON",
        "streetDirectionId": null,
        "streetTypeId": "ST",
        "placeName": "AJAX",
        "streetNameDisplayText": "FENTON ST, AJAX"
      },
      {
        "electoralDistricts": [
          {
            "election": null,
            "id": 1,
            "name": "Ajax"
          }
        ],
        "pollDivisionIds": [
          10136684
        ],
        "postalCode": "L1Z1Y4",
        "streetName": "TANSLEY",
        "streetDirectionId": null,
        "streetTypeId": "CRES",
        "placeName": "AJAX",
        "streetNameDisplayText": "TANSLEY CRES, AJAX"
      },
      {
        "electoralDistricts": [
          {
            "election": null,
            "id": 1,
            "name": "Ajax"
          }
        ],
        "pollDivisionIds": [
          10136684
        ],
        "postalCode": "L1Z1Y4",
        "streetName": "WARNER",
        "streetDirectionId": null,
        "streetTypeId": "DR",
        "placeName": "AJAX",
        "streetNameDisplayText": "WARNER DR, AJAX"
      }
    ]
  },
  {
    "postal": "L1Z1C0",
    "result": [
      {
        "electoralDistricts": [
          {
            "election": null,
            "id": 1,
            "name": "Ajax"
          }
        ],
        "pollDivisionIds": [
          10136683
        ],
        "postalCode": "L1Z1C0",
        "streetName": "EYREGLEN",
        "streetDirectionId": null,
        "streetTypeId": "CRT",
        "placeName": "AJAX,ON",
        "streetNameDisplayText": "EYREGLEN CRT, AJAX,ON"
      }
    ]
  },
  {
    "postal": "L1Z2J2",
    "result": []
  },
  {
    "postal": "L1Z2J0",
    "result": []
  },
  {
    "postal": "L1Z7A3",
    "result": []
  },
  {
    "postal": "L1Z8M1",
    "result": []
  },
  {
    "postal": "L1Z7T9",
    "result": []
  },
  {
    "postal": "L1Z6C0",
    "result": []
  },
  {
    "postal": "L1Z7X1",
    "result": []
  },
  {
    "postal": "L1Z0G1",
    "result": [
      {
        "electoralDistricts": [
          {
            "election": null,
            "id": 1,
            "name": "Ajax"
          }
        ],
        "pollDivisionIds": [
          10136685,
          10136684
        ],
        "postalCode": "L1Z0G1",
        "streetName": "CATER",
        "streetDirectionId": null,
        "streetTypeId": "AVE",
        "placeName": "AJAX",
        "streetNameDisplayText": "CATER AVE, AJAX"
      },
      {
        "electoralDistricts": [
          {
            "election": null,
            "id": 1,
            "name": "Ajax"
          }
        ],
        "pollDivisionIds": [
          10136684
        ],
        "postalCode": "L1Z0G1",
        "streetName": "SNOWLING",
        "streetDirectionId": null,
        "streetTypeId": "DR",
        "placeName": "AJAX",
        "streetNameDisplayText": "SNOWLING DR, AJAX"
      }
    ]
  },
  {
    "postal": "L1Z4X2",
    "result": []
  },
  {
    "postal": "L1Z0N6",
    "result": [
      {
        "electoralDistricts": [
          {
            "election": null,
            "id": 1,
            "name": "Ajax"
          }
        ],
        "pollDivisionIds": [
          10136683
        ],
        "postalCode": "L1Z0N6",
        "streetName": "GARRARDVIEW",
        "streetDirectionId": null,
        "streetTypeId": "ST",
        "placeName": "AJAX",
        "streetNameDisplayText": "GARRARDVIEW ST, AJAX"
      },
      {
        "electoralDistricts": [
          {
            "election": null,
            "id": 1,
            "name": "Ajax"
          }
        ],
        "pollDivisionIds": [
          10136683
        ],
        "postalCode": "L1Z0N6",
        "streetName": "SEWELL",
        "streetDirectionId": null,
        "streetTypeId": "CRES",
        "placeName": "AJAX",
        "streetNameDisplayText": "SEWELL CRES, AJAX"
      }
    ]
  },
  {
    "postal": "L1Z8E3",
    "result": []
  },
  {
    "postal": "L1Z5S8",
    "result": []
  },
  {
    "postal": "L1Z0R0",
    "result": []
  },
  {
    "postal": "L1Z6J6",
    "result": []
  },
  {
    "postal": "L1Z4B4",
    "result": []
  },
  {
    "postal": "L1Z7E3",
    "result": []
  },
  {
    "postal": "L1Z3N6",
    "result": []
  },
  {
    "postal": "L1Z3X6",
    "result": []
  },
  {
    "postal": "L1Z8L0",
    "result": []
  },
  {
    "postal": "L1Z8N1",
    "result": []
  },
  {
    "postal": "L1Z4J0",
    "result": []
  },
  {
    "postal": "L1Z0X7",
    "result": []
  },
  {
    "postal": "L1Z6S4",
    "result": []
  },
  {
    "postal": "L1Z0Z0",
    "result": []
  },
  {
    "postal": "L1Z9X8",
    "result": []
  },
  {
    "postal": "L1Z3H3",
    "result": []
  },
  {
    "postal": "L1Z7S2",
    "result": []
  },
  {
    "postal": "L1Z3T3",
    "result": []
  },
  {
    "postal": "L1Z9P3",
    "result": []
  },
  {
    "postal": "L1Z4H8",
    "result": []
  },
  {
    "postal": "L1Z6R1",
    "result": []
  },
  {
    "postal": "L1Z1S0",
    "result": []
  },
  {
    "postal": "L1Z3W8",
    "result": []
  },
  {
    "postal": "L1Z4S3",
    "result": []
  },
  {
    "postal": "L1Z1B6",
    "result": [
      {
        "electoralDistricts": [
          {
            "election": null,
            "id": 1,
            "name": "Ajax"
          }
        ],
        "pollDivisionIds": [
          10136696
        ],
        "postalCode": "L1Z1B6",
        "streetName": "ALLARD",
        "streetDirectionId": null,
        "streetTypeId": "AVE",
        "placeName": "AJAX",
        "streetNameDisplayText": "ALLARD AVE, AJAX"
      },
      {
        "electoralDistricts": [
          {
            "election": null,
            "id": 1,
            "name": "Ajax"
          }
        ],
        "pollDivisionIds": [
          10136696
        ],
        "postalCode": "L1Z1B6",
        "streetName": "NOBLE",
        "streetDirectionId": null,
        "streetTypeId": "DR",
        "placeName": "AJAX",
        "streetNameDisplayText": "NOBLE DR, AJAX"
      }
    ]
  },
  {
    "postal": "L1Z8R3",
    "result": []
  },
  {
    "postal": "L1Z4V9",
    "result": []
  },
  {
    "postal": "L1Z9W4",
    "result": []
  },
  {
    "postal": "L1Z3T4",
    "result": []
  },
  {
    "postal": "L1Z5C7",
    "result": []
  },
  {
    "postal": "L1Z3Y1",
    "result": []
  },
  {
    "postal": "L1Z5V0",
    "result": []
  },
  {
    "postal": "L1Z8G8",
    "result": []
  },
  {
    "postal": "L1Z8B1",
    "result": []
  },
  {
    "postal": "L1Z4P5",
    "result": []
  },
  {
    "postal": "L1Z7B2",
    "result": []
  },
  {
    "postal": "L1Z0R2",
    "result": [
      {
        "electoralDistricts": [
          {
            "election": null,
            "id": 1,
            "name": "Ajax"
          }
        ],
        "pollDivisionIds": [
          10136683,
          10136684
        ],
        "postalCode": "L1Z0R2",
        "streetName": "GARRARDVIEW",
        "streetDirectionId": null,
        "streetTypeId": "ST",
        "placeName": "AJAX",
        "streetNameDisplayText": "GARRARDVIEW ST, AJAX"
      },
      {
        "electoralDistricts": [
          {
            "election": null,
            "id": 1,
            "name": "Ajax"
          }
        ],
        "pollDivisionIds": [
          10136683
        ],
        "postalCode": "L1Z0R2",
        "streetName": "TAMPSETT",
        "streetDirectionId": null,
        "streetTypeId": "AVE",
        "placeName": "AJAX",
        "streetNameDisplayText": "TAMPSETT AVE, AJAX"
      }
    ]
  },
  {
    "postal": "L1Z4M4",
    "result": []
  },
  {
    "postal": "L1Z7M4",
    "result": []
  },
  {
    "postal": "L1Z9S7",
    "result": []
  },
  {
    "postal": "L1Z5Z7",
    "result": []
  },
  {
    "postal": "L1Z7J7",
    "result": []
  },
  {
    "postal": "L1Z8R8",
    "result": []
  },
  {
    "postal": "L1Z9X1",
    "result": []
  },
  {
    "postal": "L1Z5M9",
    "result": []
  },
  {
    "postal": "L1Z9B4",
    "result": []
  },
  {
    "postal": "L1Z0L9",
    "result": []
  },
  {
    "postal": "L1Z9G4",
    "result": []
  },
  {
    "postal": "L1Z1J4",
    "result": [
      {
        "electoralDistricts": [
          {
            "election": null,
            "id": 1,
            "name": "Ajax"
          }
        ],
        "pollDivisionIds": [
          10136688
        ],
        "postalCode": "L1Z1J4",
        "streetName": "PERFITT",
        "streetDirectionId": null,
        "streetTypeId": "CRES",
        "placeName": "AJAX",
        "streetNameDisplayText": "PERFITT CRES, AJAX"
      }
    ]
  },
  {
    "postal": "L1Z0W6",
    "result": []
  }
]
