[
  {
    "postal": "M6H9J6",
    "result": []
  },
  {
    "postal": "M6H9Z5",
    "result": []
  },
  {
    "postal": "M6H7H8",
    "result": []
  },
  {
    "postal": "M6H0P6",
    "result": []
  },
  {
    "postal": "M6H0S7",
    "result": []
  },
  {
    "postal": "M6H8B9",
    "result": []
  },
  {
    "postal": "M6H2A6",
    "result": [
      {
        "electoralDistricts": [
          {
            "election": null,
            "id": 19,
            "name": "Davenport"
          }
        ],
        "pollDivisionIds": [
          10136091
        ],
        "postalCode": "M6H2A6",
        "streetName": "DUPONT",
        "streetDirectionId": null,
        "streetTypeId": "ST",
        "placeName": "TORONTO",
        "streetNameDisplayText": "DUPONT ST, TORONTO"
      }
    ]
  },
  {
    "postal": "M6H7V2",
    "result": []
  },
  {
    "postal": "M6H9P4",
    "result": []
  },
  {
    "postal": "M6H6G0",
    "result": []
  },
  {
    "postal": "M6H2K0",
    "result": []
  },
  {
    "postal": "M6H7N6",
    "result": []
  },
  {
    "postal": "M6H5R3",
    "result": []
  },
  {
    "postal": "M6H7K0",
    "result": []
  },
  {
    "postal": "M6H3R2",
    "result": [
      {
        "electoralDistricts": [
          {
            "election": null,
            "id": 19,
            "name": "Davenport"
          }
        ],
        "pollDivisionIds": [
          10136086
        ],
        "postalCode": "M6H3R2",
        "streetName": "ITALIA",
        "streetDirectionId": null,
        "streetTypeId": "VIA",
        "placeName": "TORONTO",
        "streetNameDisplayText": "ITALIA VIA, TORONTO"
      },
      {
        "electoralDistricts": [
          {
            "election": null,
            "id": 19,
            "name": "Davenport"
          }
        ],
        "pollDivisionIds": [
          10136086
        ],
        "postalCode": "M6H3R2",
        "streetName": "VIA ITALIA",
        "streetDirectionId": null,
        "streetTypeId": null,
        "placeName": "TORONTO",
        "streetNameDisplayText": "VIA ITALIA, TORONTO"
      }
    ]
  },
  {
    "postal": "M6H0J1",
    "result": []
  },
  {
    "postal": "M6H0B0",
    "result": []
  },
  {
    "postal": "M6H5Z2",
    "result": []
  },
  {
    "postal": "M6H7P3",
    "result": []
  },
  {
    "postal": "M6H2K3",
    "result": [
      {
        "electoralDistricts": [
          {
            "election": null,
            "id": 19,
            "name": "Davenport"
          }
        ],
        "pollDivisionIds": [
          10136086
        ],
        "postalCode": "M6H2K3",
        "streetName": "ASHBURNHAM",
        "streetDirectionId": null,
        "streetTypeId": "RD",
        "placeName": "TORONTO",
        "streetNameDisplayText": "ASHBURNHAM RD, TORONTO"
      }
    ]
  },
  {
    "postal": "M6H7Y6",
    "result": []
  },
  {
    "postal": "M6H1L9",
    "result": [
      {
        "electoralDistricts": [
          {
            "election": null,
            "id": 19,
            "name": "Davenport"
          }
        ],
        "pollDivisionIds": [
          10136094
        ],
        "postalCode": "M6H1L9",
        "streetName": "SHANLY",
        "streetDirectionId": null,
        "streetTypeId": "ST",
        "placeName": "TORONTO",
        "streetNameDisplayText": "SHANLY ST, TORONTO"
      }
    ]
  },
  {
    "postal": "M6H8T0",
    "result": []
  },
  {
    "postal": "M6H3K8",
    "result": [
      {
        "electoralDistricts": [
          {
            "election": null,
            "id": 19,
            "name": "Davenport"
          }
        ],
        "pollDivisionIds": [
          10136100
        ],
        "postalCode": "M6H3K8",
        "streetName": "DUFFERIN",
        "streetDirectionId": null,
        "streetTypeId": "ST",
        "placeName": "TORONTO",
        "streetNameDisplayText": "DUFFERIN ST, TORONTO"
      }
    ]
  },
  {
    "postal": "M6H5W9",
    "result": []
  },
  {
    "postal": "M6H6T9",
    "result": []
  },
  {
    "postal": "M6H4H1",
    "result": [
      {
        "electoralDistricts": [
          {
            "election": null,
            "id": 19,
            "name": "Davenport"
          }
        ],
        "pollDivisionIds": [
          10136088
        ],
        "postalCode": "M6H4H1",
        "streetName": "GEARY",
        "streetDirectionId": null,
        "streetTypeId": "AVE",
        "placeName": "TORONTO",
        "streetNameDisplayText": "GEARY AVE, TORONTO"
      }
    ]
  },
  {
    "postal": "M6H7A2",
    "result": []
  },
  {
    "postal": "M6H5G0",
    "result": []
  },
  {
    "postal": "M6H8V5",
    "result": []
  },
  {
    "postal": "M6H2Y8",
    "result": [
      {
        "electoralDistricts": [
          {
            "election": null,
            "id": 19,
            "name": "Davenport"
          }
        ],
        "pollDivisionIds": [
          10136100,
          10136103
        ],
        "postalCode": "M6H2Y8",
        "streetName": "RUSHOLME",
        "streetDirectionId": null,
        "streetTypeId": "RD",
        "placeName": "TORONTO",
        "streetNameDisplayText": "RUSHOLME RD, TORONTO"
      }
    ]
  },
  {
    "postal": "M6H2B6",
    "result": [
      {
        "electoralDistricts": [
          {
            "election": null,
            "id": 19,
            "name": "Davenport"
          }
        ],
        "pollDivisionIds": [
          10136088
        ],
        "postalCode": "M6H2B6",
        "streetName": "GEARY",
        "streetDirectionId": null,
        "streetTypeId": "AVE",
        "placeName": "TORONTO",
        "streetNameDisplayText": "GEARY AVE, TORONTO"
      }
    ]
  },
  {
    "postal": "M6H4W8",
    "result": []
  },
  {
    "postal": "M6H8H7",
    "result": []
  },
  {
    "postal": "M6H5P1",
    "result": []
  },
  {
    "postal": "M6H2B8",
    "result": [
      {
        "electoralDistricts": [
          {
            "election": null,
            "id": 19,
            "name": "Davenport"
          }
        ],
        "pollDivisionIds": [
          10136088
        ],
        "postalCode": "M6H2B8",
        "streetName": "GEARY",
        "streetDirectionId": null,
        "streetTypeId": "AVE",
        "placeName": "TORONTO",
        "streetNameDisplayText": "GEARY AVE, TORONTO"
      }
    ]
  },
  {
    "postal": "M6H0P2",
    "result": []
  },
  {
    "postal": "M6H9M1",
    "result": []
  },
  {
    "postal": "M6H3G0",
    "result": []
  },
  {
    "postal": "M6H9Z2",
    "result": []
  },
  {
    "postal": "M6H2A0",
    "result": []
  },
  {
    "postal": "M6H6Y0",
    "result": []
  },
  {
    "postal": "M6H2Z8",
    "result": [
      {
        "electoralDistricts": [
          {
            "election": null,
            "id": 19,
            "name": "Davenport"
          }
        ],
        "pollDivisionIds": [
          10136097
        ],
        "postalCode": "M6H2Z8",
        "streetName": "WESTMORELAND",
        "streetDirectionId": null,
        "streetTypeId": "AVE",
        "placeName": "TORONTO",
        "streetNameDisplayText": "WESTMORELAND AVE, TORONTO"
      }
    ]
  },
  {
    "postal": "M6H7Y3",
    "result": []
  },
  {
    "postal": "M6H6Z5",
    "result": []
  },
  {
    "postal": "M6H6E0",
    "result": []
  },
  {
    "postal": "M6H9B7",
    "result": []
  },
  {
    "postal": "M6H9S5",
    "result": []
  },
  {
    "postal": "M6H3X3",
    "result": [
      {
        "electoralDistricts": [
          {
            "election": null,
            "id": 19,
            "name": "Davenport"
          }
        ],
        "pollDivisionIds": [
          10136091
        ],
        "postalCode": "M6H3X3",
        "streetName": "SAINT CLARENS",
        "streetDirectionId": null,
        "streetTypeId": "AVE",
        "placeName": "TORONTO",
        "streetNameDisplayText": "SAINT CLARENS AVE, TORONTO"
      }
    ]
  },
  {
    "postal": "M6H7R5",
    "result": []
  },
  {
    "postal": "M6H2X3",
    "result": [
      {
        "electoralDistricts": [
          {
            "election": null,
            "id": 19,
            "name": "Davenport"
          }
        ],
        "pollDivisionIds": [
          10136097
        ],
        "postalCode": "M6H2X3",
        "streetName": "DOVERCOURT",
        "streetDirectionId": null,
        "streetTypeId": "RD",
        "placeName": "TORONTO",
        "streetNameDisplayText": "DOVERCOURT RD, TORONTO"
      }
    ]
  },
  {
    "postal": "M6H8Z9",
    "result": []
  },
  {
    "postal": "M6H0N4",
    "result": []
  },
  {
    "postal": "M6H1K1",
    "result": [
      {
        "electoralDistricts": [
          {
            "election": null,
            "id": 19,
            "name": "Davenport"
          }
        ],
        "pollDivisionIds": [
          10136101
        ],
        "postalCode": "M6H1K1",
        "streetName": "HEPBOURNE",
        "streetDirectionId": null,
        "streetTypeId": "ST",
        "placeName": "TORONTO",
        "streetNameDisplayText": "HEPBOURNE ST, TORONTO"
      }
    ]
  },
  {
    "postal": "M6H1S3",
    "result": [
      {
        "electoralDistricts": [
          {
            "election": null,
            "id": 19,
            "name": "Davenport"
          }
        ],
        "pollDivisionIds": [
          10136093
        ],
        "postalCode": "M6H1S3",
        "streetName": "SHANLY",
        "streetDirectionId": null,
        "streetTypeId": "ST",
        "placeName": "TORONTO",
        "streetNameDisplayText": "SHANLY ST, TORONTO"
      }
    ]
  },
  {
    "postal": "M6H6M4",
    "result": []
  },
  {
    "postal": "M6H9A9",
    "result": []
  },
  {
    "postal": "M6H9Z9",
    "result": []
  },
  {
    "postal": "M6H6T4",
    "result": []
  },
  {
    "postal": "M6H0B2",
    "result": [
      {
        "electoralDistricts": [
          {
            "election": null,
            "id": 19,
            "name": "Davenport"
          }
        ],
        "pollDivisionIds": [
          10136083
        ],
        "postalCode": "M6H0B2",
        "streetName": "CALEDONIA PARK",
        "streetDirectionId": null,
        "streetTypeId": "RD",
        "placeName": "TORONTO",
        "streetNameDisplayText": "CALEDONIA PARK RD, TORONTO"
      },
      {
        "electoralDistricts": [
          {
            "election": null,
            "id": 19,
            "name": "Davenport"
          }
        ],
        "pollDivisionIds": [
          10136078
        ],
        "postalCode": "M6H0B2",
        "streetName": "CALEDONIA",
        "streetDirectionId": null,
        "streetTypeId": "RD",
        "placeName": "TORONTO",
        "streetNameDisplayText": "CALEDONIA RD, TORONTO"
      }
    ]
  },
  {
    "postal": "M6H2L9",
    "result": [
      {
        "electoralDistricts": [
          {
            "election": null,
            "id": 19,
            "name": "Davenport"
          }
        ],
        "pollDivisionIds": [
          10136086
        ],
        "postalCode": "M6H2L9",
        "streetName": "AUBURN",
        "streetDirectionId": null,
        "streetTypeId": "AVE",
        "placeName": "TORONTO",
        "streetNameDisplayText": "AUBURN AVE, TORONTO"
      }
    ]
  },
  {
    "postal": "M6H8K9",
    "result": []
  },
  {
    "postal": "M6H2H9",
    "result": [
      {
        "electoralDistricts": [
          {
            "election": null,
            "id": 19,
            "name": "Davenport"
          },
          {
            "election": null,
            "id": 112,
            "name": "University—Rosedale"
          }
        ],
        "pollDivisionIds": [
          10136088,
          10143757
        ],
        "postalCode": "M6H2H9",
        "streetName": "DAVENPORT",
        "streetDirectionId": null,
        "streetTypeId": "RD",
        "placeName": "TORONTO",
        "streetNameDisplayText": "DAVENPORT RD, TORONTO"
      }
    ]
  },
  {
    "postal": "M6H3Z6",
    "result": [
      {
        "electoralDistricts": [
          {
            "election": null,
            "id": 19,
            "name": "Davenport"
          }
        ],
        "pollDivisionIds": [
          10136084
        ],
        "postalCode": "M6H3Z6",
        "streetName": "LANSDOWNE",
        "streetDirectionId": null,
        "streetTypeId": "AVE",
        "placeName": "TORONTO",
        "streetNameDisplayText": "LANSDOWNE AVE, TORONTO"
      }
    ]
  },
  {
    "postal": "M6H3B0",
    "result": []
  },
  {
    "postal": "M6H2H8",
    "result": [
      {
        "electoralDistricts": [
          {
            "election": null,
            "id": 19,
            "name": "Davenport"
          }
        ],
        "pollDivisionIds": [
          10136086
        ],
        "postalCode": "M6H2H8",
        "streetName": "DAVENPORT",
        "streetDirectionId": null,
        "streetTypeId": "RD",
        "placeName": "TORONTO",
        "streetNameDisplayText": "DAVENPORT RD, TORONTO"
      }
    ]
  },
  {
    "postal": "M6H3X2",
    "result": [
      {
        "electoralDistricts": [
          {
            "election": null,
            "id": 19,
            "name": "Davenport"
          }
        ],
        "pollDivisionIds": [
          10136091
        ],
        "postalCode": "M6H3X2",
        "streetName": "SAINT CLARENS",
        "streetDirectionId": null,
        "streetTypeId": "AVE",
        "placeName": "TORONTO",
        "streetNameDisplayText": "SAINT CLARENS AVE, TORONTO"
      },
      {
        "electoralDistricts": [
          {
            "election": null,
            "id": 19,
            "name": "Davenport"
          }
        ],
        "pollDivisionIds": [
          10136091
        ],
        "postalCode": "M6H3X2",
        "streetName": "ST CLARENS",
        "streetDirectionId": null,
        "streetTypeId": "AVE",
        "placeName": "TORONTO",
        "streetNameDisplayText": "ST CLARENS AVE, TORONTO"
      }
    ]
  },
  {
    "postal": "M6H2E9",
    "result": [
      {
        "electoralDistricts": [
          {
            "election": null,
            "id": 19,
            "name": "Davenport"
          }
        ],
        "pollDivisionIds": [
          10136088
        ],
        "postalCode": "M6H2E9",
        "streetName": "BEAVER",
        "streetDirectionId": null,
        "streetTypeId": "AVE",
        "placeName": "TORONTO",
        "streetNameDisplayText": "BEAVER AVE, TORONTO"
      }
    ]
  },
  {
    "postal": "M6H9P6",
    "result": []
  },
  {
    "postal": "M6H9E2",
    "result": []
  },
  {
    "postal": "M6H9H2",
    "result": []
  },
  {
    "postal": "M6H1S8",
    "result": [
      {
        "electoralDistricts": [
          {
            "election": null,
            "id": 19,
            "name": "Davenport"
          }
        ],
        "pollDivisionIds": [
          10136094
        ],
        "postalCode": "M6H1S8",
        "streetName": "SHANLY",
        "streetDirectionId": null,
        "streetTypeId": "ST",
        "placeName": "TORONTO",
        "streetNameDisplayText": "SHANLY ST, TORONTO"
      }
    ]
  },
  {
    "postal": "M6H3M6",
    "result": [
      {
        "electoralDistricts": [
          {
            "election": null,
            "id": 19,
            "name": "Davenport"
          }
        ],
        "pollDivisionIds": [
          10136099
        ],
        "postalCode": "M6H3M6",
        "streetName": "SHERIDAN",
        "streetDirectionId": null,
        "streetTypeId": "AVE",
        "placeName": "TORONTO",
        "streetNameDisplayText": "SHERIDAN AVE, TORONTO"
      }
    ]
  },
  {
    "postal": "M6H6Z8",
    "result": []
  },
  {
    "postal": "M6H4J2",
    "result": [
      {
        "electoralDistricts": [
          {
            "election": null,
            "id": 19,
            "name": "Davenport"
          }
        ],
        "pollDivisionIds": [
          10136114
        ],
        "postalCode": "M6H4J2",
        "streetName": "DORA",
        "streetDirectionId": null,
        "streetTypeId": "AVE",
        "placeName": "TORONTO",
        "streetNameDisplayText": "DORA AVE, TORONTO"
      }
    ]
  },
  {
    "postal": "M6H9Y1",
    "result": []
  },
  {
    "postal": "M6H8V6",
    "result": []
  },
  {
    "postal": "M6H6B2",
    "result": []
  },
  {
    "postal": "M6H1P8",
    "result": [
      {
        "electoralDistricts": [
          {
            "election": null,
            "id": 19,
            "name": "Davenport"
          }
        ],
        "pollDivisionIds": [
          10136097
        ],
        "postalCode": "M6H1P8",
        "streetName": "NORTHUMBERLAND",
        "streetDirectionId": null,
        "streetTypeId": "ST",
        "placeName": "TORONTO",
        "streetNameDisplayText": "NORTHUMBERLAND ST, TORONTO"
      }
    ]
  },
  {
    "postal": "M6H0V8",
    "result": []
  },
  {
    "postal": "M6H4Y0",
    "result": []
  },
  {
    "postal": "M6H2T4",
    "result": [
      {
        "electoralDistricts": [
          {
            "election": null,
            "id": 19,
            "name": "Davenport"
          }
        ],
        "pollDivisionIds": [
          10136097
        ],
        "postalCode": "M6H2T4",
        "streetName": "DELAWARE",
        "streetDirectionId": null,
        "streetTypeId": "AVE",
        "placeName": "TORONTO",
        "streetNameDisplayText": "DELAWARE AVE, TORONTO"
      }
    ]
  },
  {
    "postal": "M6H2S3",
    "result": [
      {
        "electoralDistricts": [
          {
            "election": null,
            "id": 19,
            "name": "Davenport"
          }
        ],
        "pollDivisionIds": [
          10136087
        ],
        "postalCode": "M6H2S3",
        "streetName": "MOUNT ROYAL",
        "streetDirectionId": null,
        "streetTypeId": "AVE",
        "placeName": "TORONTO",
        "streetNameDisplayText": "MOUNT ROYAL AVE, TORONTO"
      }
    ]
  },
  {
    "postal": "M6H0K0",
    "result": []
  },
  {
    "postal": "M6H5N1",
    "result": []
  },
  {
    "postal": "M6H7T0",
    "result": []
  },
  {
    "postal": "M6H9N2",
    "result": []
  },
  {
    "postal": "M6H5L1",
    "result": []
  },
  {
    "postal": "M6H7G5",
    "result": []
  },
  {
    "postal": "M6H6K2",
    "result": []
  },
  {
    "postal": "M6H6P9",
    "result": []
  },
  {
    "postal": "M6H0E6",
    "result": []
  },
  {
    "postal": "M6H8R9",
    "result": []
  },
  {
    "postal": "M6H3G9",
    "result": [
      {
        "electoralDistricts": [
          {
            "election": null,
            "id": 19,
            "name": "Davenport"
          }
        ],
        "pollDivisionIds": [
          10136087
        ],
        "postalCode": "M6H3G9",
        "streetName": "NORTHCLIFFE",
        "streetDirectionId": null,
        "streetTypeId": "BLVD",
        "placeName": "TORONTO",
        "streetNameDisplayText": "NORTHCLIFFE BLVD, TORONTO"
      }
    ]
  },
  {
    "postal": "M6H0V7",
    "result": []
  },
  {
    "postal": "M6H2Z1",
    "result": [
      {
        "electoralDistricts": [
          {
            "election": null,
            "id": 19,
            "name": "Davenport"
          }
        ],
        "pollDivisionIds": [
          10136094,
          10136101
        ],
        "postalCode": "M6H2Z1",
        "streetName": "RUSHOLME",
        "streetDirectionId": null,
        "streetTypeId": "RD",
        "placeName": "TORONTO",
        "streetNameDisplayText": "RUSHOLME RD, TORONTO"
      }
    ]
  },
  {
    "postal": "M6H7N1",
    "result": []
  },
  {
    "postal": "M6H3C6",
    "result": [
      {
        "electoralDistricts": [
          {
            "election": null,
            "id": 19,
            "name": "Davenport"
          }
        ],
        "pollDivisionIds": [
          10136092
        ],
        "postalCode": "M6H3C6",
        "streetName": "SALEM",
        "streetDirectionId": null,
        "streetTypeId": "AVE",
        "placeName": "TORONTO",
        "streetNameDisplayText": "SALEM AVE, TORONTO"
      }
    ]
  },
  {
    "postal": "M6H4M1",
    "result": []
  },
  {
    "postal": "M6H9K2",
    "result": []
  },
  {
    "postal": "M6H9S6",
    "result": []
  },
  {
    "postal": "M6H4X1",
    "result": []
  },
  {
    "postal": "M6H8W2",
    "result": []
  },
  {
    "postal": "M6H7N2",
    "result": []
  },
  {
    "postal": "M6H8S3",
    "result": []
  },
  {
    "postal": "M6H4V0",
    "result": []
  },
  {
    "postal": "M6H6W4",
    "result": []
  },
  {
    "postal": "M6H5M1",
    "result": []
  },
  {
    "postal": "M6H0S4",
    "result": []
  },
  {
    "postal": "M6H5X6",
    "result": []
  },
  {
    "postal": "M6H8L5",
    "result": []
  },
  {
    "postal": "M6H5M8",
    "result": []
  },
  {
    "postal": "M6H2G3",
    "result": [
      {
        "electoralDistricts": [
          {
            "election": null,
            "id": 19,
            "name": "Davenport"
          }
        ],
        "pollDivisionIds": [
          10136088
        ],
        "postalCode": "M6H2G3",
        "streetName": "BEAVER",
        "streetDirectionId": null,
        "streetTypeId": "AVE",
        "placeName": "TORONTO",
        "streetNameDisplayText": "BEAVER AVE, TORONTO"
      }
    ]
  },
  {
    "postal": "M6H8E4",
    "result": []
  },
  {
    "postal": "M6H7S9",
    "result": []
  },
  {
    "postal": "M6H1K3",
    "result": [
      {
        "electoralDistricts": [
          {
            "election": null,
            "id": 19,
            "name": "Davenport"
          }
        ],
        "pollDivisionIds": [
          10136101
        ],
        "postalCode": "M6H1K3",
        "streetName": "HEPBOURNE",
        "streetDirectionId": null,
        "streetTypeId": "ST",
        "placeName": "TORONTO",
        "streetNameDisplayText": "HEPBOURNE ST, TORONTO"
      }
    ]
  },
  {
    "postal": "M6H4E1",
    "result": []
  },
  {
    "postal": "M6H4R2",
    "result": []
  },
  {
    "postal": "M6H6T0",
    "result": []
  },
  {
    "postal": "M6H3K5",
    "result": [
      {
        "electoralDistricts": [
          {
            "election": null,
            "id": 19,
            "name": "Davenport"
          }
        ],
        "pollDivisionIds": [
          10136100
        ],
        "postalCode": "M6H3K5",
        "streetName": "DUFFERIN",
        "streetDirectionId": null,
        "streetTypeId": "ST",
        "placeName": "TORONTO",
        "streetNameDisplayText": "DUFFERIN ST, TORONTO"
      }
    ]
  },
  {
    "postal": "M6H3S3",
    "result": [
      {
        "electoralDistricts": [
          {
            "election": null,
            "id": 19,
            "name": "Davenport"
          }
        ],
        "pollDivisionIds": [
          10136099,
          10136078
        ],
        "postalCode": "M6H3S3",
        "streetName": "MARGUERETTA",
        "streetDirectionId": null,
        "streetTypeId": "ST",
        "placeName": "TORONTO",
        "streetNameDisplayText": "MARGUERETTA ST, TORONTO"
      }
    ]
  },
  {
    "postal": "M6H3L4",
    "result": [
      {
        "electoralDistricts": [
          {
            "election": null,
            "id": 19,
            "name": "Davenport"
          }
        ],
        "pollDivisionIds": [
          10136086
        ],
        "postalCode": "M6H3L4",
        "streetName": "DUFFERIN",
        "streetDirectionId": null,
        "streetTypeId": "ST",
        "placeName": "TORONTO",
        "streetNameDisplayText": "DUFFERIN ST, TORONTO"
      }
    ]
  },
  {
    "postal": "M6H9Y2",
    "result": []
  },
  {
    "postal": "M6H1E0",
    "result": []
  },
  {
    "postal": "M6H9A4",
    "result": []
  },
  {
    "postal": "M6H1L3",
    "result": []
  },
  {
    "postal": "M6H6N1",
    "result": []
  },
  {
    "postal": "M6H6G7",
    "result": []
  },
  {
    "postal": "M6H7W1",
    "result": []
  },
  {
    "postal": "M6H4M6",
    "result": []
  },
  {
    "postal": "M6H1K0",
    "result": []
  },
  {
    "postal": "M6H3E2",
    "result": [
      {
        "electoralDistricts": [
          {
            "election": null,
            "id": 19,
            "name": "Davenport"
          }
        ],
        "pollDivisionIds": [
          10136087
        ],
        "postalCode": "M6H3E2",
        "streetName": "LAUDER",
        "streetDirectionId": null,
        "streetTypeId": "AVE",
        "placeName": "TORONTO",
        "streetNameDisplayText": "LAUDER AVE, TORONTO"
      }
    ]
  },
  {
    "postal": "M6H5H4",
    "result": []
  },
  {
    "postal": "M6H1K7",
    "result": [
      {
        "electoralDistricts": [
          {
            "election": null,
            "id": 19,
            "name": "Davenport"
          }
        ],
        "pollDivisionIds": [
          10136100
        ],
        "postalCode": "M6H1K7",
        "streetName": "HEPBOURNE",
        "streetDirectionId": null,
        "streetTypeId": "ST",
        "placeName": "TORONTO",
        "streetNameDisplayText": "HEPBOURNE ST, TORONTO"
      }
    ]
  },
  {
    "postal": "M6H0H0",
    "result": []
  },
  {
    "postal": "M6H0J3",
    "result": []
  },
  {
    "postal": "M6H1X6",
    "result": [
      {
        "electoralDistricts": [
          {
            "election": null,
            "id": 19,
            "name": "Davenport"
          }
        ],
        "pollDivisionIds": [
          10136092
        ],
        "postalCode": "M6H1X6",
        "streetName": "HALLAM",
        "streetDirectionId": null,
        "streetTypeId": "ST",
        "placeName": "TORONTO",
        "streetNameDisplayText": "HALLAM ST, TORONTO"
      }
    ]
  },
  {
    "postal": "M6H2Z6",
    "result": [
      {
        "electoralDistricts": [
          {
            "election": null,
            "id": 19,
            "name": "Davenport"
          }
        ],
        "pollDivisionIds": [
          10136097
        ],
        "postalCode": "M6H2Z6",
        "streetName": "WESTMORELAND",
        "streetDirectionId": null,
        "streetTypeId": "AVE",
        "placeName": "TORONTO",
        "streetNameDisplayText": "WESTMORELAND AVE, TORONTO"
      }
    ]
  },
  {
    "postal": "M6H4R9",
    "result": []
  },
  {
    "postal": "M6H0W8",
    "result": []
  },
  {
    "postal": "M6H1L4",
    "result": [
      {
        "electoralDistricts": [
          {
            "election": null,
            "id": 19,
            "name": "Davenport"
          }
        ],
        "pollDivisionIds": [
          10136097
        ],
        "postalCode": "M6H1L4",
        "streetName": "BLOOR",
        "streetDirectionId": "W",
        "streetTypeId": "ST",
        "placeName": "TORONTO",
        "streetNameDisplayText": "BLOOR ST W, TORONTO"
      }
    ]
  },
  {
    "postal": "M6H0C8",
    "result": []
  },
  {
    "postal": "M6H9X7",
    "result": []
  },
  {
    "postal": "M6H4T1",
    "result": []
  },
  {
    "postal": "M6H0M0",
    "result": []
  },
  {
    "postal": "M6H6A2",
    "result": []
  },
  {
    "postal": "M6H9S8",
    "result": []
  },
  {
    "postal": "M6H9T4",
    "result": []
  },
  {
    "postal": "M6H9Y4",
    "result": []
  },
  {
    "postal": "M6H6G5",
    "result": []
  },
  {
    "postal": "M6H6H9",
    "result": []
  },
  {
    "postal": "M6H2P3",
    "result": [
      {
        "electoralDistricts": [
          {
            "election": null,
            "id": 19,
            "name": "Davenport"
          }
        ],
        "pollDivisionIds": [
          10136101
        ],
        "postalCode": "M6H2P3",
        "streetName": "CONCORD",
        "streetDirectionId": null,
        "streetTypeId": "AVE",
        "placeName": "TORONTO",
        "streetNameDisplayText": "CONCORD AVE, TORONTO"
      }
    ]
  },
  {
    "postal": "M6H1T6",
    "result": [
      {
        "electoralDistricts": [
          {
            "election": null,
            "id": 19,
            "name": "Davenport"
          }
        ],
        "pollDivisionIds": [
          10136096
        ],
        "postalCode": "M6H1T6",
        "streetName": "WALLACE",
        "streetDirectionId": null,
        "streetTypeId": "AVE",
        "placeName": "TORONTO",
        "streetNameDisplayText": "WALLACE AVE, TORONTO"
      }
    ]
  },
  {
    "postal": "M6H4P6",
    "result": []
  },
  {
    "postal": "M6H3K1",
    "result": [
      {
        "electoralDistricts": [
          {
            "election": null,
            "id": 19,
            "name": "Davenport"
          }
        ],
        "pollDivisionIds": [
          10136087
        ],
        "postalCode": "M6H3K1",
        "streetName": "WESTMOUNT",
        "streetDirectionId": null,
        "streetTypeId": "AVE",
        "placeName": "TORONTO",
        "streetNameDisplayText": "WESTMOUNT AVE, TORONTO"
      }
    ]
  },
  {
    "postal": "M6H6X4",
    "result": []
  },
  {
    "postal": "M6H4M8",
    "result": []
  },
  {
    "postal": "M6H2Y1",
    "result": [
      {
        "electoralDistricts": [
          {
            "election": null,
            "id": 19,
            "name": "Davenport"
          }
        ],
        "pollDivisionIds": [
          10136088
        ],
        "postalCode": "M6H2Y1",
        "streetName": "DOVERCOURT",
        "streetDirectionId": null,
        "streetTypeId": "RD",
        "placeName": "TORONTO",
        "streetNameDisplayText": "DOVERCOURT RD, TORONTO"
      }
    ]
  },
  {
    "postal": "M6H6M1",
    "result": []
  },
  {
    "postal": "M6H5L8",
    "result": []
  },
  {
    "postal": "M6H3P6",
    "result": [
      {
        "electoralDistricts": [
          {
            "election": null,
            "id": 19,
            "name": "Davenport"
          }
        ],
        "pollDivisionIds": [
          10136088
        ],
        "postalCode": "M6H3P6",
        "streetName": "LIGHTBOURN",
        "streetDirectionId": null,
        "streetTypeId": "AVE",
        "placeName": "TORONTO",
        "streetNameDisplayText": "LIGHTBOURN AVE, TORONTO"
      }
    ]
  },
  {
    "postal": "M6H9A5",
    "result": []
  },
  {
    "postal": "M6H7K1",
    "result": []
  },
  {
    "postal": "M6H3J4",
    "result": [
      {
        "electoralDistricts": [
          {
            "election": null,
            "id": 19,
            "name": "Davenport"
          }
        ],
        "pollDivisionIds": [
          10136094
        ],
        "postalCode": "M6H3J4",
        "streetName": "GLADSTONE",
        "streetDirectionId": null,
        "streetTypeId": "AVE",
        "placeName": "TORONTO",
        "streetNameDisplayText": "GLADSTONE AVE, TORONTO"
      }
    ]
  },
  {
    "postal": "M6H5E7",
    "result": []
  },
  {
    "postal": "M6H3A7",
    "result": [
      {
        "electoralDistricts": [
          {
            "election": null,
            "id": 19,
            "name": "Davenport"
          }
        ],
        "pollDivisionIds": [
          10136088,
          10136076
        ],
        "postalCode": "M6H3A7",
        "streetName": "WESTMORELAND",
        "streetDirectionId": "N",
        "streetTypeId": "AVE",
        "placeName": "TORONTO",
        "streetNameDisplayText": "WESTMORELAND AVE N, TORONTO"
      }
    ]
  },
  {
    "postal": "M6H1B9",
    "result": [
      {
        "electoralDistricts": [
          {
            "election": null,
            "id": 101,
            "name": "Spadina—Fort York"
          },
          {
            "election": null,
            "id": 19,
            "name": "Davenport"
          }
        ],
        "pollDivisionIds": [
          10141948,
          10136099
        ],
        "postalCode": "M6H1B9",
        "streetName": "COLLEGE",
        "streetDirectionId": null,
        "streetTypeId": "ST",
        "placeName": "TORONTO",
        "streetNameDisplayText": "COLLEGE ST, TORONTO"
      }
    ]
  },
  {
    "postal": "M6H9E8",
    "result": []
  },
  {
    "postal": "M6H1C9",
    "result": [
      {
        "electoralDistricts": [
          {
            "election": null,
            "id": 19,
            "name": "Davenport"
          }
        ],
        "pollDivisionIds": [
          10136100
        ],
        "postalCode": "M6H1C9",
        "streetName": "LINDSEY",
        "streetDirectionId": null,
        "streetTypeId": "AVE",
        "placeName": "TORONTO",
        "streetNameDisplayText": "LINDSEY AVE, TORONTO"
      }
    ]
  },
  {
    "postal": "M6H3B5",
    "result": [
      {
        "electoralDistricts": [
          {
            "election": null,
            "id": 19,
            "name": "Davenport"
          }
        ],
        "pollDivisionIds": [
          10136100
        ],
        "postalCode": "M6H3B5",
        "streetName": "HAVELOCK",
        "streetDirectionId": null,
        "streetTypeId": "ST",
        "placeName": "TORONTO",
        "streetNameDisplayText": "HAVELOCK ST, TORONTO"
      }
    ]
  },
  {
    "postal": "M6H8R0",
    "result": []
  },
  {
    "postal": "M6H3P2",
    "result": [
      {
        "electoralDistricts": [
          {
            "election": null,
            "id": 19,
            "name": "Davenport"
          }
        ],
        "pollDivisionIds": [
          10136096
        ],
        "postalCode": "M6H3P2",
        "streetName": "BROCK",
        "streetDirectionId": null,
        "streetTypeId": "AVE",
        "placeName": "TORONTO",
        "streetNameDisplayText": "BROCK AVE, TORONTO"
      }
    ]
  },
  {
    "postal": "M6H5V4",
    "result": []
  },
  {
    "postal": "M6H4H0",
    "result": []
  },
  {
    "postal": "M6H4S7",
    "result": []
  },
  {
    "postal": "M6H6C2",
    "result": []
  },
  {
    "postal": "M6H8W3",
    "result": []
  },
  {
    "postal": "M6H4M5",
    "result": []
  },
  {
    "postal": "M6H5T1",
    "result": []
  },
  {
    "postal": "M6H3B3",
    "result": [
      {
        "electoralDistricts": [
          {
            "election": null,
            "id": 19,
            "name": "Davenport"
          }
        ],
        "pollDivisionIds": [
          10136100,
          10136099
        ],
        "postalCode": "M6H3B3",
        "streetName": "HAVELOCK",
        "streetDirectionId": null,
        "streetTypeId": "ST",
        "placeName": "TORONTO",
        "streetNameDisplayText": "HAVELOCK ST, TORONTO"
      }
    ]
  },
  {
    "postal": "M6H6C6",
    "result": []
  },
  {
    "postal": "M6H7N8",
    "result": []
  },
  {
    "postal": "M6H2Y3",
    "result": [
      {
        "electoralDistricts": [
          {
            "election": null,
            "id": 19,
            "name": "Davenport"
          }
        ],
        "pollDivisionIds": [
          10136087
        ],
        "postalCode": "M6H2Y3",
        "streetName": "HIGHVIEW",
        "streetDirectionId": null,
        "streetTypeId": "CRES",
        "placeName": "TORONTO",
        "streetNameDisplayText": "HIGHVIEW CRES, TORONTO"
      }
    ]
  },
  {
    "postal": "M6H2R6",
    "result": [
      {
        "electoralDistricts": [
          {
            "election": null,
            "id": 19,
            "name": "Davenport"
          }
        ],
        "pollDivisionIds": [
          10136087
        ],
        "postalCode": "M6H2R6",
        "streetName": "ALBERTA",
        "streetDirectionId": null,
        "streetTypeId": "AVE",
        "placeName": "TORONTO",
        "streetNameDisplayText": "ALBERTA AVE, TORONTO"
      }
    ]
  },
  {
    "postal": "M6H7N3",
    "result": []
  },
  {
    "postal": "M6H8J2",
    "result": []
  },
  {
    "postal": "M6H6A9",
    "result": []
  },
  {
    "postal": "M6H3V2",
    "result": [
      {
        "electoralDistricts": [
          {
            "election": null,
            "id": 19,
            "name": "Davenport"
          }
        ],
        "pollDivisionIds": [
          10136088
        ],
        "postalCode": "M6H3V2",
        "streetName": "PRIMROSE",
        "streetDirectionId": null,
        "streetTypeId": "AVE",
        "placeName": "TORONTO",
        "streetNameDisplayText": "PRIMROSE AVE, TORONTO"
      }
    ]
  },
  {
    "postal": "M6H2N3",
    "result": [
      {
        "electoralDistricts": [
          {
            "election": null,
            "id": 19,
            "name": "Davenport"
          }
        ],
        "pollDivisionIds": [
          10136086
        ],
        "postalCode": "M6H2N3",
        "streetName": "ROSEMOUNT",
        "streetDirectionId": null,
        "streetTypeId": "AVE",
        "placeName": "TORONTO",
        "streetNameDisplayText": "ROSEMOUNT AVE, TORONTO"
      }
    ]
  },
  {
    "postal": "M6H1S5",
    "result": [
      {
        "electoralDistricts": [
          {
            "election": null,
            "id": 19,
            "name": "Davenport"
          }
        ],
        "pollDivisionIds": [
          10136093,
          10136094
        ],
        "postalCode": "M6H1S5",
        "streetName": "SHANLY",
        "streetDirectionId": null,
        "streetTypeId": "ST",
        "placeName": "TORONTO",
        "streetNameDisplayText": "SHANLY ST, TORONTO"
      }
    ]
  },
  {
    "postal": "M6H4T7",
    "result": []
  },
  {
    "postal": "M6H6Y7",
    "result": []
  },
  {
    "postal": "M6H0W7",
    "result": []
  },
  {
    "postal": "M6H2W9",
    "result": [
      {
        "electoralDistricts": [
          {
            "election": null,
            "id": 19,
            "name": "Davenport"
          },
          {
            "election": null,
            "id": 101,
            "name": "Spadina—Fort York"
          }
        ],
        "pollDivisionIds": [
          10136101,
          10143934
        ],
        "postalCode": "M6H2W9",
        "streetName": "DOVERCOURT",
        "streetDirectionId": null,
        "streetTypeId": "RD",
        "placeName": "TORONTO",
        "streetNameDisplayText": "DOVERCOURT RD, TORONTO"
      }
    ]
  },
  {
    "postal": "M6H8V0",
    "result": []
  },
  {
    "postal": "M6H0H4",
    "result": []
  },
  {
    "postal": "M6H2T1",
    "result": [
      {
        "electoralDistricts": [
          {
            "election": null,
            "id": 19,
            "name": "Davenport"
          }
        ],
        "pollDivisionIds": [
          10136101
        ],
        "postalCode": "M6H2T1",
        "streetName": "DELAWARE",
        "streetDirectionId": null,
        "streetTypeId": "AVE",
        "placeName": "TORONTO",
        "streetNameDisplayText": "DELAWARE AVE, TORONTO"
      }
    ]
  },
  {
    "postal": "M6H1B1",
    "result": [
      {
        "electoralDistricts": [
          {
            "election": null,
            "id": 19,
            "name": "Davenport"
          }
        ],
        "pollDivisionIds": [
          10136103,
          10136100
        ],
        "postalCode": "M6H1B1",
        "streetName": "COLLEGE",
        "streetDirectionId": null,
        "streetTypeId": "ST",
        "placeName": "TORONTO",
        "streetNameDisplayText": "COLLEGE ST, TORONTO"
      }
    ]
  },
  {
    "postal": "M6H8B6",
    "result": []
  },
  {
    "postal": "M6H6H1",
    "result": []
  },
  {
    "postal": "M6H8T8",
    "result": []
  },
  {
    "postal": "M6H0T4",
    "result": []
  },
  {
    "postal": "M6H2C4",
    "result": []
  },
  {
    "postal": "M6H8N3",
    "result": []
  },
  {
    "postal": "M6H4L8",
    "result": []
  },
  {
    "postal": "M6H2B5",
    "result": [
      {
        "electoralDistricts": [
          {
            "election": null,
            "id": 19,
            "name": "Davenport"
          }
        ],
        "pollDivisionIds": [
          10136088
        ],
        "postalCode": "M6H2B5",
        "streetName": "GEARY",
        "streetDirectionId": null,
        "streetTypeId": "AVE",
        "placeName": "TORONTO",
        "streetNameDisplayText": "GEARY AVE, TORONTO"
      }
    ]
  },
  {
    "postal": "M6H3H1",
    "result": [
      {
        "electoralDistricts": [
          {
            "election": null,
            "id": 19,
            "name": "Davenport"
          }
        ],
        "pollDivisionIds": [
          10136087
        ],
        "postalCode": "M6H3H1",
        "streetName": "NORTHCLIFFE",
        "streetDirectionId": null,
        "streetTypeId": "BLVD",
        "placeName": "TORONTO",
        "streetNameDisplayText": "NORTHCLIFFE BLVD, TORONTO"
      }
    ]
  },
  {
    "postal": "M6H4Y1",
    "result": []
  },
  {
    "postal": "M6H7E2",
    "result": []
  },
  {
    "postal": "M6H2P5",
    "result": [
      {
        "electoralDistricts": [
          {
            "election": null,
            "id": 19,
            "name": "Davenport"
          }
        ],
        "pollDivisionIds": [
          10136101
        ],
        "postalCode": "M6H2P5",
        "streetName": "CONCORD",
        "streetDirectionId": null,
        "streetTypeId": "AVE",
        "placeName": "TORONTO",
        "streetNameDisplayText": "CONCORD AVE, TORONTO"
      }
    ]
  },
  {
    "postal": "M6H8R7",
    "result": []
  },
  {
    "postal": "M6H9P1",
    "result": []
  },
  {
    "postal": "M6H3B8",
    "result": [
      {
        "electoralDistricts": [
          {
            "election": null,
            "id": 19,
            "name": "Davenport"
          }
        ],
        "pollDivisionIds": [
          10136100
        ],
        "postalCode": "M6H3B8",
        "streetName": "HAVELOCK",
        "streetDirectionId": null,
        "streetTypeId": "ST",
        "placeName": "TORONTO",
        "streetNameDisplayText": "HAVELOCK ST, TORONTO"
      }
    ]
  },
  {
    "postal": "M6H3P7",
    "result": []
  },
  {
    "postal": "M6H9B2",
    "result": []
  },
  {
    "postal": "M6H6Z3",
    "result": []
  },
  {
    "postal": "M6H4N5",
    "result": []
  },
  {
    "postal": "M6H8T3",
    "result": []
  },
  {
    "postal": "M6H1V2",
    "result": [
      {
        "electoralDistricts": [
          {
            "election": null,
            "id": 19,
            "name": "Davenport"
          }
        ],
        "pollDivisionIds": [
          10136091
        ],
        "postalCode": "M6H1V2",
        "streetName": "WALLACE",
        "streetDirectionId": null,
        "streetTypeId": "AVE",
        "placeName": "TORONTO",
        "streetNameDisplayText": "WALLACE AVE, TORONTO"
      }
    ]
  },
  {
    "postal": "M6H1Y0",
    "result": []
  },
  {
    "postal": "M6H3G6",
    "result": [
      {
        "electoralDistricts": [
          {
            "election": null,
            "id": 19,
            "name": "Davenport"
          }
        ],
        "pollDivisionIds": [
          10136091
        ],
        "postalCode": "M6H3G6",
        "streetName": "BARTLETT",
        "streetDirectionId": null,
        "streetTypeId": "AVE",
        "placeName": "TORONTO",
        "streetNameDisplayText": "BARTLETT AVE, TORONTO"
      }
    ]
  },
  {
    "postal": "M6H3H7",
    "result": [
      {
        "electoralDistricts": [
          {
            "election": null,
            "id": 19,
            "name": "Davenport"
          }
        ],
        "pollDivisionIds": [
          10136100
        ],
        "postalCode": "M6H3H7",
        "streetName": "GLADSTONE",
        "streetDirectionId": null,
        "streetTypeId": "AVE",
        "placeName": "TORONTO",
        "streetNameDisplayText": "GLADSTONE AVE, TORONTO"
      }
    ]
  },
  {
    "postal": "M6H7X8",
    "result": []
  },
  {
    "postal": "M6H0C7",
    "result": [
      {
        "electoralDistricts": [
          {
            "election": null,
            "id": 19,
            "name": "Davenport"
          }
        ],
        "pollDivisionIds": [
          10136084
        ],
        "postalCode": "M6H0C7",
        "streetName": "POWERHOUSE",
        "streetDirectionId": null,
        "streetTypeId": "ST",
        "placeName": "TORONTO",
        "streetNameDisplayText": "POWERHOUSE ST, TORONTO"
      }
    ]
  },
  {
    "postal": "M6H0W9",
    "result": []
  },
  {
    "postal": "M6H8E6",
    "result": []
  },
  {
    "postal": "M6H9Z8",
    "result": []
  },
  {
    "postal": "M6H3P4",
    "result": []
  },
  {
    "postal": "M6H6L8",
    "result": []
  },
  {
    "postal": "M6H2R4",
    "result": [
      {
        "electoralDistricts": [
          {
            "election": null,
            "id": 19,
            "name": "Davenport"
          }
        ],
        "pollDivisionIds": [
          10136088,
          10136087
        ],
        "postalCode": "M6H2R4",
        "streetName": "SOMERSET",
        "streetDirectionId": null,
        "streetTypeId": "AVE",
        "placeName": "TORONTO",
        "streetNameDisplayText": "SOMERSET AVE, TORONTO"
      }
    ]
  },
  {
    "postal": "M6H2W1",
    "result": [
      {
        "electoralDistricts": [
          {
            "election": null,
            "id": 19,
            "name": "Davenport"
          }
        ],
        "pollDivisionIds": [
          10136082
        ],
        "postalCode": "M6H2W1",
        "streetName": "OAKWOOD",
        "streetDirectionId": null,
        "streetTypeId": "AVE",
        "placeName": "TORONTO",
        "streetNameDisplayText": "OAKWOOD AVE, TORONTO"
      }
    ]
  },
  {
    "postal": "M6H9H8",
    "result": []
  },
  {
    "postal": "M6H8X9",
    "result": []
  },
  {
    "postal": "M6H7H4",
    "result": []
  },
  {
    "postal": "M6H3J1",
    "result": [
      {
        "electoralDistricts": [
          {
            "election": null,
            "id": 19,
            "name": "Davenport"
          }
        ],
        "pollDivisionIds": [
          10136100
        ],
        "postalCode": "M6H3J1",
        "streetName": "GLADSTONE",
        "streetDirectionId": null,
        "streetTypeId": "AVE",
        "placeName": "TORONTO",
        "streetNameDisplayText": "GLADSTONE AVE, TORONTO"
      }
    ]
  },
  {
    "postal": "M6H1P4",
    "result": [
      {
        "electoralDistricts": [
          {
            "election": null,
            "id": 19,
            "name": "Davenport"
          }
        ],
        "pollDivisionIds": [
          10136096
        ],
        "postalCode": "M6H1P4",
        "streetName": "WADE",
        "streetDirectionId": null,
        "streetTypeId": "AVE",
        "placeName": "TORONTO",
        "streetNameDisplayText": "WADE AVE, TORONTO"
      }
    ]
  },
  {
    "postal": "M6H2A3",
    "result": [
      {
        "electoralDistricts": [
          {
            "election": null,
            "id": 19,
            "name": "Davenport"
          }
        ],
        "pollDivisionIds": [
          10136092
        ],
        "postalCode": "M6H2A3",
        "streetName": "DUPONT",
        "streetDirectionId": null,
        "streetTypeId": "ST",
        "placeName": "TORONTO",
        "streetNameDisplayText": "DUPONT ST, TORONTO"
      }
    ]
  },
  {
    "postal": "M6H0Z1",
    "result": []
  },
  {
    "postal": "M6H1C1",
    "result": [
      {
        "electoralDistricts": [
          {
            "election": null,
            "id": 19,
            "name": "Davenport"
          }
        ],
        "pollDivisionIds": [
          10136099
        ],
        "postalCode": "M6H1C1",
        "streetName": "COLLEGE",
        "streetDirectionId": null,
        "streetTypeId": "ST",
        "placeName": "TORONTO",
        "streetNameDisplayText": "COLLEGE ST, TORONTO"
      }
    ]
  },
  {
    "postal": "M6H0H3",
    "result": []
  },
  {
    "postal": "M6H7B0",
    "result": []
  },
  {
    "postal": "M6H5K2",
    "result": []
  },
  {
    "postal": "M6H1E9",
    "result": [
      {
        "electoralDistricts": [
          {
            "election": null,
            "id": 19,
            "name": "Davenport"
          }
        ],
        "pollDivisionIds": [
          10136099
        ],
        "postalCode": "M6H1E9",
        "streetName": "MUIR",
        "streetDirectionId": null,
        "streetTypeId": "AVE",
        "placeName": "TORONTO",
        "streetNameDisplayText": "MUIR AVE, TORONTO"
      }
    ]
  },
  {
    "postal": "M6H9W7",
    "result": []
  },
  {
    "postal": "M6H5W6",
    "result": []
  },
  {
    "postal": "M6H6S6",
    "result": []
  },
  {
    "postal": "M6H2P8",
    "result": [
      {
        "electoralDistricts": [
          {
            "election": null,
            "id": 19,
            "name": "Davenport"
          }
        ],
        "pollDivisionIds": [
          10136102,
          10136097,
          10136093
        ],
        "postalCode": "M6H2P8",
        "streetName": "CONCORD",
        "streetDirectionId": null,
        "streetTypeId": "AVE",
        "placeName": "TORONTO",
        "streetNameDisplayText": "CONCORD AVE, TORONTO"
      }
    ]
  },
  {
    "postal": "M6H4P8",
    "result": []
  },
  {
    "postal": "M6H0V9",
    "result": []
  },
  {
    "postal": "M6H5Y2",
    "result": []
  },
  {
    "postal": "M6H7Z7",
    "result": []
  },
  {
    "postal": "M6H6Y8",
    "result": []
  },
  {
    "postal": "M6H2G7",
    "result": [
      {
        "electoralDistricts": [
          {
            "election": null,
            "id": 19,
            "name": "Davenport"
          }
        ],
        "pollDivisionIds": [
          10136088
        ],
        "postalCode": "M6H2G7",
        "streetName": "DAVENPORT",
        "streetDirectionId": null,
        "streetTypeId": "RD",
        "placeName": "TORONTO",
        "streetNameDisplayText": "DAVENPORT RD, TORONTO"
      }
    ]
  },
  {
    "postal": "M6H8C1",
    "result": []
  },
  {
    "postal": "M6H5C5",
    "result": []
  },
  {
    "postal": "M6H2X8",
    "result": [
      {
        "electoralDistricts": [
          {
            "election": null,
            "id": 19,
            "name": "Davenport"
          }
        ],
        "pollDivisionIds": [
          10136092
        ],
        "postalCode": "M6H2X8",
        "streetName": "DOVERCOURT",
        "streetDirectionId": null,
        "streetTypeId": "RD",
        "placeName": "TORONTO",
        "streetNameDisplayText": "DOVERCOURT RD, TORONTO"
      }
    ]
  },
  {
    "postal": "M6H1W5",
    "result": [
      {
        "electoralDistricts": [
          {
            "election": null,
            "id": 19,
            "name": "Davenport"
          }
        ],
        "pollDivisionIds": [
          10136093
        ],
        "postalCode": "M6H1W5",
        "streetName": "HALLAM",
        "streetDirectionId": null,
        "streetTypeId": "ST",
        "placeName": "TORONTO",
        "streetNameDisplayText": "HALLAM ST, TORONTO"
      }
    ]
  },
  {
    "postal": "M6H7G0",
    "result": []
  },
  {
    "postal": "M6H8J8",
    "result": []
  },
  {
    "postal": "M6H3Y0",
    "result": []
  },
  {
    "postal": "M6H9T7",
    "result": []
  },
  {
    "postal": "M6H5P4",
    "result": []
  },
  {
    "postal": "M6H4B0",
    "result": []
  },
  {
    "postal": "M6H9N8",
    "result": []
  },
  {
    "postal": "M6H4A7",
    "result": []
  },
  {
    "postal": "M6H4H9",
    "result": []
  },
  {
    "postal": "M6H6X1",
    "result": []
  },
  {
    "postal": "M6H9Y7",
    "result": []
  },
  {
    "postal": "M6H2Y5",
    "result": [
      {
        "electoralDistricts": [
          {
            "election": null,
            "id": 19,
            "name": "Davenport"
          }
        ],
        "pollDivisionIds": [
          10136087
        ],
        "postalCode": "M6H2Y5",
        "streetName": "SPRINGMOUNT",
        "streetDirectionId": null,
        "streetTypeId": "AVE",
        "placeName": "TORONTO",
        "streetNameDisplayText": "SPRINGMOUNT AVE, TORONTO"
      }
    ]
  },
  {
    "postal": "M6H8L7",
    "result": []
  },
  {
    "postal": "M6H2A8",
    "result": [
      {
        "electoralDistricts": [
          {
            "election": null,
            "id": 19,
            "name": "Davenport"
          }
        ],
        "pollDivisionIds": [
          10136091
        ],
        "postalCode": "M6H2A8",
        "streetName": "DUPONT",
        "streetDirectionId": null,
        "streetTypeId": "ST",
        "placeName": "TORONTO",
        "streetNameDisplayText": "DUPONT ST, TORONTO"
      }
    ]
  },
  {
    "postal": "M6H2K9",
    "result": [
      {
        "electoralDistricts": [
          {
            "election": null,
            "id": 19,
            "name": "Davenport"
          }
        ],
        "pollDivisionIds": [
          10136086
        ],
        "postalCode": "M6H2K9",
        "streetName": "PETERBOROUGH",
        "streetDirectionId": null,
        "streetTypeId": "AVE",
        "placeName": "TORONTO",
        "streetNameDisplayText": "PETERBOROUGH AVE, TORONTO"
      }
    ]
  },
  {
    "postal": "M6H3E5",
    "result": [
      {
        "electoralDistricts": [
          {
            "election": null,
            "id": 19,
            "name": "Davenport"
          }
        ],
        "pollDivisionIds": [
          10136082
        ],
        "postalCode": "M6H3E5",
        "streetName": "LAUDER",
        "streetDirectionId": null,
        "streetTypeId": "AVE",
        "placeName": "TORONTO",
        "streetNameDisplayText": "LAUDER AVE, TORONTO"
      }
    ]
  },
  {
    "postal": "M6H8N6",
    "result": []
  },
  {
    "postal": "M6H8J4",
    "result": []
  },
  {
    "postal": "M6H4R7",
    "result": []
  },
  {
    "postal": "M6H9K1",
    "result": []
  },
  {
    "postal": "M6H8E1",
    "result": []
  },
  {
    "postal": "M6H0R1",
    "result": []
  },
  {
    "postal": "M6H4J3",
    "result": []
  },
  {
    "postal": "M6H7E7",
    "result": []
  },
  {
    "postal": "M6H0J0",
    "result": []
  },
  {
    "postal": "M6H7R8",
    "result": []
  },
  {
    "postal": "M6H9X0",
    "result": []
  },
  {
    "postal": "M6H7P6",
    "result": []
  },
  {
    "postal": "M6H0R7",
    "result": []
  },
  {
    "postal": "M6H5W1",
    "result": []
  },
  {
    "postal": "M6H0K4",
    "result": []
  },
  {
    "postal": "M6H7N9",
    "result": []
  },
  {
    "postal": "M6H1N0",
    "result": []
  },
  {
    "postal": "M6H6P3",
    "result": []
  },
  {
    "postal": "M6H5A1",
    "result": []
  },
  {
    "postal": "M6H9M9",
    "result": []
  },
  {
    "postal": "M6H7T6",
    "result": []
  },
  {
    "postal": "M6H3X0",
    "result": []
  },
  {
    "postal": "M6H2T0",
    "result": []
  },
  {
    "postal": "M6H5X9",
    "result": []
  },
  {
    "postal": "M6H2R3",
    "result": [
      {
        "electoralDistricts": [
          {
            "election": null,
            "id": 19,
            "name": "Davenport"
          }
        ],
        "pollDivisionIds": [
          10136088
        ],
        "postalCode": "M6H2R3",
        "streetName": "SOMERSET",
        "streetDirectionId": null,
        "streetTypeId": "AVE",
        "placeName": "TORONTO",
        "streetNameDisplayText": "SOMERSET AVE, TORONTO"
      }
    ]
  },
  {
    "postal": "M6H5N2",
    "result": []
  },
  {
    "postal": "M6H4Y7",
    "result": []
  },
  {
    "postal": "M6H7M0",
    "result": []
  },
  {
    "postal": "M6H8P3",
    "result": []
  },
  {
    "postal": "M6H3N3",
    "result": [
      {
        "electoralDistricts": [
          {
            "election": null,
            "id": 19,
            "name": "Davenport"
          }
        ],
        "pollDivisionIds": [
          10136099
        ],
        "postalCode": "M6H3N3",
        "streetName": "BROCK",
        "streetDirectionId": null,
        "streetTypeId": "AVE",
        "placeName": "TORONTO",
        "streetNameDisplayText": "BROCK AVE, TORONTO"
      }
    ]
  },
  {
    "postal": "M6H7S3",
    "result": []
  },
  {
    "postal": "M6H3V9",
    "result": [
      {
        "electoralDistricts": [
          {
            "election": null,
            "id": 19,
            "name": "Davenport"
          }
        ],
        "pollDivisionIds": [
          10136086
        ],
        "postalCode": "M6H3V9",
        "streetName": "GREENLAW",
        "streetDirectionId": null,
        "streetTypeId": "AVE",
        "placeName": "TORONTO",
        "streetNameDisplayText": "GREENLAW AVE, TORONTO"
      }
    ]
  },
  {
    "postal": "M6H9N7",
    "result": []
  },
  {
    "postal": "M6H0G4",
    "result": []
  },
  {
    "postal": "M6H2E2",
    "result": [
      {
        "electoralDistricts": [
          {
            "election": null,
            "id": 19,
            "name": "Davenport"
          }
        ],
        "pollDivisionIds": [
          10136088
        ],
        "postalCode": "M6H2E2",
        "streetName": "BRANDON",
        "streetDirectionId": null,
        "streetTypeId": "AVE",
        "placeName": "TORONTO",
        "streetNameDisplayText": "BRANDON AVE, TORONTO"
      }
    ]
  },
  {
    "postal": "M6H7W8",
    "result": []
  },
  {
    "postal": "M6H7M5",
    "result": []
  },
  {
    "postal": "M6H5W8",
    "result": []
  },
  {
    "postal": "M6H5E5",
    "result": []
  },
  {
    "postal": "M6H1P9",
    "result": [
      {
        "electoralDistricts": [
          {
            "election": null,
            "id": 19,
            "name": "Davenport"
          }
        ],
        "pollDivisionIds": [
          10136093
        ],
        "postalCode": "M6H1P9",
        "streetName": "NORTHUMBERLAND",
        "streetDirectionId": null,
        "streetTypeId": "ST",
        "placeName": "TORONTO",
        "streetNameDisplayText": "NORTHUMBERLAND ST, TORONTO"
      }
    ]
  },
  {
    "postal": "M6H8V8",
    "result": []
  },
  {
    "postal": "M6H9G8",
    "result": []
  },
  {
    "postal": "M6H8H9",
    "result": []
  },
  {
    "postal": "M6H1Z1",
    "result": [
      {
        "electoralDistricts": [
          {
            "election": null,
            "id": 19,
            "name": "Davenport"
          }
        ],
        "pollDivisionIds": [
          10136092
        ],
        "postalCode": "M6H1Z1",
        "streetName": "DUPONT",
        "streetDirectionId": null,
        "streetTypeId": "ST",
        "placeName": "TORONTO",
        "streetNameDisplayText": "DUPONT ST, TORONTO"
      }
    ]
  },
  {
    "postal": "M6H8M3",
    "result": []
  },
  {
    "postal": "M6H5H6",
    "result": []
  },
  {
    "postal": "M6H7W7",
    "result": []
  },
  {
    "postal": "M6H4L0",
    "result": []
  },
  {
    "postal": "M6H2N1",
    "result": [
      {
        "electoralDistricts": [
          {
            "election": null,
            "id": 19,
            "name": "Davenport"
          }
        ],
        "pollDivisionIds": [
          10136086
        ],
        "postalCode": "M6H2N1",
        "streetName": "ROSEMOUNT",
        "streetDirectionId": null,
        "streetTypeId": "AVE",
        "placeName": "TORONTO",
        "streetNameDisplayText": "ROSEMOUNT AVE, TORONTO"
      }
    ]
  },
  {
    "postal": "M6H2H4",
    "result": [
      {
        "electoralDistricts": [
          {
            "election": null,
            "id": 19,
            "name": "Davenport"
          }
        ],
        "pollDivisionIds": [
          10136088
        ],
        "postalCode": "M6H2H4",
        "streetName": "DAVENPORT",
        "streetDirectionId": null,
        "streetTypeId": "RD",
        "placeName": "TORONTO",
        "streetNameDisplayText": "DAVENPORT RD, TORONTO"
      }
    ]
  },
  {
    "postal": "M6H5C8",
    "result": []
  },
  {
    "postal": "M6H8B0",
    "result": []
  },
  {
    "postal": "M6H1T4",
    "result": [
      {
        "electoralDistricts": [
          {
            "election": null,
            "id": 19,
            "name": "Davenport"
          }
        ],
        "pollDivisionIds": [
          10136096
        ],
        "postalCode": "M6H1T4",
        "streetName": "WALLACE",
        "streetDirectionId": null,
        "streetTypeId": "AVE",
        "placeName": "TORONTO",
        "streetNameDisplayText": "WALLACE AVE, TORONTO"
      }
    ]
  },
  {
    "postal": "M6H7N7",
    "result": []
  },
  {
    "postal": "M6H4L3",
    "result": []
  },
  {
    "postal": "M6H2N2",
    "result": [
      {
        "electoralDistricts": [
          {
            "election": null,
            "id": 19,
            "name": "Davenport"
          }
        ],
        "pollDivisionIds": [
          10136086
        ],
        "postalCode": "M6H2N2",
        "streetName": "ROSEMOUNT",
        "streetDirectionId": null,
        "streetTypeId": "AVE",
        "placeName": "TORONTO",
        "streetNameDisplayText": "ROSEMOUNT AVE, TORONTO"
      }
    ]
  },
  {
    "postal": "M6H4N8",
    "result": []
  },
  {
    "postal": "M6H3M5",
    "result": [
      {
        "electoralDistricts": [
          {
            "election": null,
            "id": 19,
            "name": "Davenport"
          }
        ],
        "pollDivisionIds": [
          10136099
        ],
        "postalCode": "M6H3M5",
        "streetName": "SHERIDAN",
        "streetDirectionId": null,
        "streetTypeId": "AVE",
        "placeName": "TORONTO",
        "streetNameDisplayText": "SHERIDAN AVE, TORONTO"
      }
    ]
  },
  {
    "postal": "M6H6H7",
    "result": []
  },
  {
    "postal": "M6H8Y8",
    "result": []
  },
  {
    "postal": "M6H5R9",
    "result": []
  },
  {
    "postal": "M6H8G3",
    "result": []
  },
  {
    "postal": "M6H4N7",
    "result": []
  },
  {
    "postal": "M6H0B9",
    "result": []
  },
  {
    "postal": "M6H9K7",
    "result": []
  },
  {
    "postal": "M6H9K9",
    "result": []
  },
  {
    "postal": "M6H3Z2",
    "result": [
      {
        "electoralDistricts": [
          {
            "election": null,
            "id": 19,
            "name": "Davenport"
          }
        ],
        "pollDivisionIds": [
          10136091
        ],
        "postalCode": "M6H3Z2",
        "streetName": "LANSDOWNE",
        "streetDirectionId": null,
        "streetTypeId": "AVE",
        "placeName": "TORONTO",
        "streetNameDisplayText": "LANSDOWNE AVE, TORONTO"
      }
    ]
  },
  {
    "postal": "M6H6W7",
    "result": []
  },
  {
    "postal": "M6H0P1",
    "result": []
  },
  {
    "postal": "M6H3A0",
    "result": []
  },
  {
    "postal": "M6H8L9",
    "result": []
  },
  {
    "postal": "M6H6X0",
    "result": []
  },
  {
    "postal": "M6H3E9",
    "result": [
      {
        "electoralDistricts": [
          {
            "election": null,
            "id": 19,
            "name": "Davenport"
          }
        ],
        "pollDivisionIds": [
          10136094
        ],
        "postalCode": "M6H3E9",
        "streetName": "BARTLETT",
        "streetDirectionId": null,
        "streetTypeId": "AVE",
        "placeName": "TORONTO",
        "streetNameDisplayText": "BARTLETT AVE, TORONTO"
      }
    ]
  },
  {
    "postal": "M6H0S5",
    "result": []
  },
  {
    "postal": "M6H1A2",
    "result": [
      {
        "electoralDistricts": [
          {
            "election": null,
            "id": 19,
            "name": "Davenport"
          }
        ],
        "pollDivisionIds": [
          10136102
        ],
        "postalCode": "M6H1A2",
        "streetName": "COLLEGE",
        "streetDirectionId": null,
        "streetTypeId": "ST",
        "placeName": "TORONTO",
        "streetNameDisplayText": "COLLEGE ST, TORONTO"
      }
    ]
  },
  {
    "postal": "M6H5V8",
    "result": []
  },
  {
    "postal": "M6H8C5",
    "result": []
  },
  {
    "postal": "M6H6N0",
    "result": []
  },
  {
    "postal": "M6H9E6",
    "result": []
  },
  {
    "postal": "M6H5J7",
    "result": []
  },
  {
    "postal": "M6H2R2",
    "result": [
      {
        "electoralDistricts": [
          {
            "election": null,
            "id": 19,
            "name": "Davenport"
          }
        ],
        "pollDivisionIds": [
          10136092
        ],
        "postalCode": "M6H2R2",
        "streetName": "CONCORD",
        "streetDirectionId": null,
        "streetTypeId": "AVE",
        "placeName": "TORONTO",
        "streetNameDisplayText": "CONCORD AVE, TORONTO"
      }
    ]
  },
  {
    "postal": "M6H0P5",
    "result": []
  },
  {
    "postal": "M6H5A7",
    "result": []
  },
  {
    "postal": "M6H1G1",
    "result": [
      {
        "electoralDistricts": [
          {
            "election": null,
            "id": 19,
            "name": "Davenport"
          }
        ],
        "pollDivisionIds": [
          10136099
        ],
        "postalCode": "M6H1G1",
        "streetName": "MUIR",
        "streetDirectionId": null,
        "streetTypeId": "AVE",
        "placeName": "TORONTO",
        "streetNameDisplayText": "MUIR AVE, TORONTO"
      }
    ]
  },
  {
    "postal": "M6H9R6",
    "result": []
  },
  {
    "postal": "M6H4Z9",
    "result": []
  },
  {
    "postal": "M6H1V5",
    "result": [
      {
        "electoralDistricts": [
          {
            "election": null,
            "id": 19,
            "name": "Davenport"
          }
        ],
        "pollDivisionIds": [
          10136096
        ],
        "postalCode": "M6H1V5",
        "streetName": "WALLACE",
        "streetDirectionId": null,
        "streetTypeId": "AVE",
        "placeName": "TORONTO",
        "streetNameDisplayText": "WALLACE AVE, TORONTO"
      }
    ]
  },
  {
    "postal": "M6H9Y5",
    "result": []
  },
  {
    "postal": "M6H1P2",
    "result": [
      {
        "electoralDistricts": [
          {
            "election": null,
            "id": 19,
            "name": "Davenport"
          }
        ],
        "pollDivisionIds": [
          10136096
        ],
        "postalCode": "M6H1P2",
        "streetName": "BLOOR",
        "streetDirectionId": "W",
        "streetTypeId": "ST",
        "placeName": "TORONTO",
        "streetNameDisplayText": "BLOOR ST W, TORONTO"
      }
    ]
  },
  {
    "postal": "M6H5X0",
    "result": []
  },
  {
    "postal": "M6H7B8",
    "result": []
  },
  {
    "postal": "M6H0C6",
    "result": []
  },
  {
    "postal": "M6H6G1",
    "result": []
  },
  {
    "postal": "M6H3K3",
    "result": [
      {
        "electoralDistricts": [
          {
            "election": null,
            "id": 19,
            "name": "Davenport"
          }
        ],
        "pollDivisionIds": [
          10136087
        ],
        "postalCode": "M6H3K3",
        "streetName": "WESTMOUNT",
        "streetDirectionId": null,
        "streetTypeId": "AVE",
        "placeName": "TORONTO",
        "streetNameDisplayText": "WESTMOUNT AVE, TORONTO"
      }
    ]
  },
  {
    "postal": "M6H9R0",
    "result": []
  },
  {
    "postal": "M6H4R8",
    "result": []
  },
  {
    "postal": "M6H5P9",
    "result": []
  },
  {
    "postal": "M6H8N4",
    "result": []
  },
  {
    "postal": "M6H8H4",
    "result": []
  },
  {
    "postal": "M6H4V1",
    "result": []
  },
  {
    "postal": "M6H1K5",
    "result": [
      {
        "electoralDistricts": [
          {
            "election": null,
            "id": 19,
            "name": "Davenport"
          }
        ],
        "pollDivisionIds": [
          10136101
        ],
        "postalCode": "M6H1K5",
        "streetName": "HEPBOURNE",
        "streetDirectionId": null,
        "streetTypeId": "ST",
        "placeName": "TORONTO",
        "streetNameDisplayText": "HEPBOURNE ST, TORONTO"
      }
    ]
  },
  {
    "postal": "M6H1Z5",
    "result": [
      {
        "electoralDistricts": [
          {
            "election": null,
            "id": 19,
            "name": "Davenport"
          }
        ],
        "pollDivisionIds": [
          10136092
        ],
        "postalCode": "M6H1Z5",
        "streetName": "DUPONT",
        "streetDirectionId": null,
        "streetTypeId": "ST",
        "placeName": "TORONTO",
        "streetNameDisplayText": "DUPONT ST, TORONTO"
      }
    ]
  },
  {
    "postal": "M6H9L9",
    "result": []
  },
  {
    "postal": "M6H5L2",
    "result": []
  },
  {
    "postal": "M6H0M2",
    "result": []
  },
  {
    "postal": "M6H1K8",
    "result": [
      {
        "electoralDistricts": [
          {
            "election": null,
            "id": 19,
            "name": "Davenport"
          }
        ],
        "pollDivisionIds": [
          10136099
        ],
        "postalCode": "M6H1K8",
        "streetName": "CROATIA",
        "streetDirectionId": null,
        "streetTypeId": "ST",
        "placeName": "TORONTO",
        "streetNameDisplayText": "CROATIA ST, TORONTO"
      }
    ]
  },
  {
    "postal": "M6H3M7",
    "result": [
      {
        "electoralDistricts": [
          {
            "election": null,
            "id": 19,
            "name": "Davenport"
          }
        ],
        "pollDivisionIds": [
          10136096
        ],
        "postalCode": "M6H3M7",
        "streetName": "PAULINE",
        "streetDirectionId": null,
        "streetTypeId": "AVE",
        "placeName": "TORONTO",
        "streetNameDisplayText": "PAULINE AVE, TORONTO"
      }
    ]
  },
  {
    "postal": "M6H1B2",
    "result": [
      {
        "electoralDistricts": [
          {
            "election": null,
            "id": 19,
            "name": "Davenport"
          }
        ],
        "pollDivisionIds": [
          10136103
        ],
        "postalCode": "M6H1B2",
        "streetName": "COLLEGE",
        "streetDirectionId": null,
        "streetTypeId": "ST",
        "placeName": "TORONTO",
        "streetNameDisplayText": "COLLEGE ST, TORONTO"
      }
    ]
  },
  {
    "postal": "M6H0H9",
    "result": []
  },
  {
    "postal": "M6H8M4",
    "result": []
  },
  {
    "postal": "M6H2M5",
    "result": []
  },
  {
    "postal": "M6H0T9",
    "result": []
  },
  {
    "postal": "M6H3P1",
    "result": [
      {
        "electoralDistricts": [
          {
            "election": null,
            "id": 19,
            "name": "Davenport"
          }
        ],
        "pollDivisionIds": [
          10136096
        ],
        "postalCode": "M6H3P1",
        "streetName": "BROCK",
        "streetDirectionId": null,
        "streetTypeId": "AVE",
        "placeName": "TORONTO",
        "streetNameDisplayText": "BROCK AVE, TORONTO"
      }
    ]
  },
  {
    "postal": "M6H1R6",
    "result": [
      {
        "electoralDistricts": [
          {
            "election": null,
            "id": 19,
            "name": "Davenport"
          }
        ],
        "pollDivisionIds": [
          10136096
        ],
        "postalCode": "M6H1R6",
        "streetName": "PATON",
        "streetDirectionId": null,
        "streetTypeId": "RD",
        "placeName": "TORONTO",
        "streetNameDisplayText": "PATON RD, TORONTO"
      }
    ]
  },
  {
    "postal": "M6H9V5",
    "result": []
  },
  {
    "postal": "M6H9T0",
    "result": []
  },
  {
    "postal": "M6H0A9",
    "result": [
      {
        "electoralDistricts": [
          {
            "election": null,
            "id": 19,
            "name": "Davenport"
          }
        ],
        "pollDivisionIds": [
          10136084
        ],
        "postalCode": "M6H0A9",
        "streetName": "FOUNDRY",
        "streetDirectionId": null,
        "streetTypeId": "AVE",
        "placeName": "TORONTO",
        "streetNameDisplayText": "FOUNDRY AVE, TORONTO"
      }
    ]
  },
  {
    "postal": "M6H1M3",
    "result": [
      {
        "electoralDistricts": [
          {
            "election": null,
            "id": 19,
            "name": "Davenport"
          }
        ],
        "pollDivisionIds": [
          10136094
        ],
        "postalCode": "M6H1M3",
        "streetName": "BLOOR",
        "streetDirectionId": "W",
        "streetTypeId": "ST",
        "placeName": "TORONTO",
        "streetNameDisplayText": "BLOOR ST W, TORONTO"
      }
    ]
  },
  {
    "postal": "M6H1W8",
    "result": [
      {
        "electoralDistricts": [
          {
            "election": null,
            "id": 19,
            "name": "Davenport"
          }
        ],
        "pollDivisionIds": [
          10136093
        ],
        "postalCode": "M6H1W8",
        "streetName": "HALLAM",
        "streetDirectionId": null,
        "streetTypeId": "ST",
        "placeName": "TORONTO",
        "streetNameDisplayText": "HALLAM ST, TORONTO"
      }
    ]
  },
  {
    "postal": "M6H9J1",
    "result": []
  },
  {
    "postal": "M6H8N5",
    "result": []
  },
  {
    "postal": "M6H5X1",
    "result": []
  },
  {
    "postal": "M6H6S2",
    "result": []
  },
  {
    "postal": "M6H2A2",
    "result": [
      {
        "electoralDistricts": [
          {
            "election": null,
            "id": 19,
            "name": "Davenport"
          }
        ],
        "pollDivisionIds": [
          10136091
        ],
        "postalCode": "M6H2A2",
        "streetName": "DUPONT",
        "streetDirectionId": null,
        "streetTypeId": "ST",
        "placeName": "TORONTO",
        "streetNameDisplayText": "DUPONT ST, TORONTO"
      }
    ]
  },
  {
    "postal": "M6H6A6",
    "result": []
  },
  {
    "postal": "M6H0S3",
    "result": []
  },
  {
    "postal": "M6H3E7",
    "result": []
  },
  {
    "postal": "M6H5R7",
    "result": []
  },
  {
    "postal": "M6H3R6",
    "result": [
      {
        "electoralDistricts": [
          {
            "election": null,
            "id": 19,
            "name": "Davenport"
          }
        ],
        "pollDivisionIds": [
          10136086
        ],
        "postalCode": "M6H3R6",
        "streetName": "ITALIA",
        "streetDirectionId": null,
        "streetTypeId": "VIA",
        "placeName": "TORONTO",
        "streetNameDisplayText": "ITALIA VIA, TORONTO"
      },
      {
        "electoralDistricts": [
          {
            "election": null,
            "id": 19,
            "name": "Davenport"
          }
        ],
        "pollDivisionIds": [
          10136086
        ],
        "postalCode": "M6H3R6",
        "streetName": "VIA ITALIA",
        "streetDirectionId": null,
        "streetTypeId": null,
        "placeName": "TORONTO",
        "streetNameDisplayText": "VIA ITALIA, TORONTO"
      }
    ]
  },
  {
    "postal": "M6H6K4",
    "result": []
  },
  {
    "postal": "M6H2W5",
    "result": [
      {
        "electoralDistricts": [
          {
            "election": null,
            "id": 19,
            "name": "Davenport"
          }
        ],
        "pollDivisionIds": [
          10136101
        ],
        "postalCode": "M6H2W5",
        "streetName": "DOVERCOURT",
        "streetDirectionId": null,
        "streetTypeId": "RD",
        "placeName": "TORONTO",
        "streetNameDisplayText": "DOVERCOURT RD, TORONTO"
      }
    ]
  },
  {
    "postal": "M6H8W4",
    "result": []
  },
  {
    "postal": "M6H9C2",
    "result": []
  },
  {
    "postal": "M6H2C0",
    "result": []
  },
  {
    "postal": "M6H0E1",
    "result": []
  },
  {
    "postal": "M6H1K9",
    "result": [
      {
        "electoralDistricts": [
          {
            "election": null,
            "id": 19,
            "name": "Davenport"
          }
        ],
        "pollDivisionIds": [
          10136099
        ],
        "postalCode": "M6H1K9",
        "streetName": "CROATIA",
        "streetDirectionId": null,
        "streetTypeId": "ST",
        "placeName": "TORONTO",
        "streetNameDisplayText": "CROATIA ST, TORONTO"
      }
    ]
  },
  {
    "postal": "M6H1G7",
    "result": [
      {
        "electoralDistricts": [
          {
            "election": null,
            "id": 19,
            "name": "Davenport"
          }
        ],
        "pollDivisionIds": [
          10136101,
          10136102
        ],
        "postalCode": "M6H1G7",
        "streetName": "DEWSON",
        "streetDirectionId": null,
        "streetTypeId": "ST",
        "placeName": "TORONTO",
        "streetNameDisplayText": "DEWSON ST, TORONTO"
      }
    ]
  },
  {
    "postal": "M6H4E9",
    "result": [
      {
        "electoralDistricts": [
          {
            "election": null,
            "id": 19,
            "name": "Davenport"
          }
        ],
        "pollDivisionIds": [
          10136091
        ],
        "postalCode": "M6H4E9",
        "streetName": "LANSDOWNE",
        "streetDirectionId": null,
        "streetTypeId": "AVE",
        "placeName": "TORONTO",
        "streetNameDisplayText": "LANSDOWNE AVE, TORONTO"
      }
    ]
  },
  {
    "postal": "M6H9P0",
    "result": []
  },
  {
    "postal": "M6H5H3",
    "result": []
  },
  {
    "postal": "M6H9X6",
    "result": []
  },
  {
    "postal": "M6H5N7",
    "result": []
  },
  {
    "postal": "M6H5A6",
    "result": []
  },
  {
    "postal": "M6H4M0",
    "result": []
  },
  {
    "postal": "M6H3V6",
    "result": [
      {
        "electoralDistricts": [
          {
            "election": null,
            "id": 19,
            "name": "Davenport"
          }
        ],
        "pollDivisionIds": [
          10136086
        ],
        "postalCode": "M6H3V6",
        "streetName": "GREENLAW",
        "streetDirectionId": null,
        "streetTypeId": "AVE",
        "placeName": "TORONTO",
        "streetNameDisplayText": "GREENLAW AVE, TORONTO"
      }
    ]
  },
  {
    "postal": "M6H1L7",
    "result": [
      {
        "electoralDistricts": [
          {
            "election": null,
            "id": 19,
            "name": "Davenport"
          }
        ],
        "pollDivisionIds": [
          10136101
        ],
        "postalCode": "M6H1L7",
        "streetName": "BLOOR",
        "streetDirectionId": "W",
        "streetTypeId": "ST",
        "placeName": "TORONTO",
        "streetNameDisplayText": "BLOOR ST W, TORONTO"
      }
    ]
  },
  {
    "postal": "M6H2P9",
    "result": [
      {
        "electoralDistricts": [
          {
            "election": null,
            "id": 19,
            "name": "Davenport"
          }
        ],
        "pollDivisionIds": [
          10136093
        ],
        "postalCode": "M6H2P9",
        "streetName": "CONCORD",
        "streetDirectionId": null,
        "streetTypeId": "AVE",
        "placeName": "TORONTO",
        "streetNameDisplayText": "CONCORD AVE, TORONTO"
      }
    ]
  },
  {
    "postal": "M6H5T4",
    "result": []
  },
  {
    "postal": "M6H5Z1",
    "result": []
  },
  {
    "postal": "M6H2X0",
    "result": []
  },
  {
    "postal": "M6H6Z2",
    "result": []
  },
  {
    "postal": "M6H0E0",
    "result": []
  },
  {
    "postal": "M6H3Z5",
    "result": [
      {
        "electoralDistricts": [
          {
            "election": null,
            "id": 19,
            "name": "Davenport"
          }
        ],
        "pollDivisionIds": [
          10136091
        ],
        "postalCode": "M6H3Z5",
        "streetName": "LANSDOWNE",
        "streetDirectionId": null,
        "streetTypeId": "AVE",
        "placeName": "TORONTO",
        "streetNameDisplayText": "LANSDOWNE AVE, TORONTO"
      }
    ]
  },
  {
    "postal": "M6H8H3",
    "result": []
  },
  {
    "postal": "M6H7S6",
    "result": []
  },
  {
    "postal": "M6H4C1",
    "result": [
      {
        "electoralDistricts": [
          {
            "election": null,
            "id": 19,
            "name": "Davenport"
          }
        ],
        "pollDivisionIds": [
          10136091
        ],
        "postalCode": "M6H4C1",
        "streetName": "DUFFERIN",
        "streetDirectionId": null,
        "streetTypeId": "ST",
        "placeName": "TORONTO",
        "streetNameDisplayText": "DUFFERIN ST, TORONTO"
      }
    ]
  },
  {
    "postal": "M6H3K2",
    "result": [
      {
        "electoralDistricts": [
          {
            "election": null,
            "id": 19,
            "name": "Davenport"
          }
        ],
        "pollDivisionIds": [
          10136087
        ],
        "postalCode": "M6H3K2",
        "streetName": "WESTMOUNT",
        "streetDirectionId": null,
        "streetTypeId": "AVE",
        "placeName": "TORONTO",
        "streetNameDisplayText": "WESTMOUNT AVE, TORONTO"
      }
    ]
  },
  {
    "postal": "M6H1Y5",
    "result": [
      {
        "electoralDistricts": [
          {
            "election": null,
            "id": 19,
            "name": "Davenport"
          }
        ],
        "pollDivisionIds": [
          10136091
        ],
        "postalCode": "M6H1Y5",
        "streetName": "LAPPIN",
        "streetDirectionId": null,
        "streetTypeId": "AVE",
        "placeName": "TORONTO",
        "streetNameDisplayText": "LAPPIN AVE, TORONTO"
      }
    ]
  },
  {
    "postal": "M6H6P6",
    "result": []
  },
  {
    "postal": "M6H3N9",
    "result": [
      {
        "electoralDistricts": [
          {
            "election": null,
            "id": 19,
            "name": "Davenport"
          }
        ],
        "pollDivisionIds": [
          10136099
        ],
        "postalCode": "M6H3N9",
        "streetName": "BROCK",
        "streetDirectionId": null,
        "streetTypeId": "AVE",
        "placeName": "TORONTO",
        "streetNameDisplayText": "BROCK AVE, TORONTO"
      }
    ]
  },
  {
    "postal": "M6H3W2",
    "result": [
      {
        "electoralDistricts": [
          {
            "election": null,
            "id": 19,
            "name": "Davenport"
          }
        ],
        "pollDivisionIds": [
          10136099
        ],
        "postalCode": "M6H3W2",
        "streetName": "SAINT CLARENS",
        "streetDirectionId": null,
        "streetTypeId": "AVE",
        "placeName": "TORONTO",
        "streetNameDisplayText": "SAINT CLARENS AVE, TORONTO"
      },
      {
        "electoralDistricts": [
          {
            "election": null,
            "id": 19,
            "name": "Davenport"
          }
        ],
        "pollDivisionIds": [
          10136099,
          10136098
        ],
        "postalCode": "M6H3W2",
        "streetName": "ST CLARENS",
        "streetDirectionId": null,
        "streetTypeId": "AVE",
        "placeName": "TORONTO",
        "streetNameDisplayText": "ST CLARENS AVE, TORONTO"
      }
    ]
  },
  {
    "postal": "M6H6H8",
    "result": []
  },
  {
    "postal": "M6H9T3",
    "result": []
  },
  {
    "postal": "M6H5L9",
    "result": []
  },
  {
    "postal": "M6H7X7",
    "result": []
  },
  {
    "postal": "M6H3J5",
    "result": [
      {
        "electoralDistricts": [
          {
            "election": null,
            "id": 19,
            "name": "Davenport"
          }
        ],
        "pollDivisionIds": [
          10136094
        ],
        "postalCode": "M6H3J5",
        "streetName": "GLADSTONE",
        "streetDirectionId": null,
        "streetTypeId": "AVE",
        "placeName": "TORONTO",
        "streetNameDisplayText": "GLADSTONE AVE, TORONTO"
      }
    ]
  },
  {
    "postal": "M6H4J5",
    "result": [
      {
        "electoralDistricts": [
          {
            "election": null,
            "id": 19,
            "name": "Davenport"
          }
        ],
        "pollDivisionIds": [
          10136092
        ],
        "postalCode": "M6H4J5",
        "streetName": "CRAFTSMAN",
        "streetDirectionId": null,
        "streetTypeId": "LANE",
        "placeName": "TORONTO",
        "streetNameDisplayText": "CRAFTSMAN LANE, TORONTO"
      }
    ]
  },
  {
    "postal": "M6H6J2",
    "result": []
  },
  {
    "postal": "M6H5V6",
    "result": []
  },
  {
    "postal": "M6H3N2",
    "result": [
      {
        "electoralDistricts": [
          {
            "election": null,
            "id": 19,
            "name": "Davenport"
          }
        ],
        "pollDivisionIds": [
          10136086
        ],
        "postalCode": "M6H3N2",
        "streetName": "MCFARLAND",
        "streetDirectionId": null,
        "streetTypeId": "AVE",
        "placeName": "TORONTO",
        "streetNameDisplayText": "MCFARLAND AVE, TORONTO"
      }
    ]
  },
  {
    "postal": "M6H3B1",
    "result": [
      {
        "electoralDistricts": [
          {
            "election": null,
            "id": 19,
            "name": "Davenport"
          }
        ],
        "pollDivisionIds": [
          10136082
        ],
        "postalCode": "M6H3B1",
        "streetName": "GLENHOLME",
        "streetDirectionId": null,
        "streetTypeId": "AVE",
        "placeName": "TORONTO",
        "streetNameDisplayText": "GLENHOLME AVE, TORONTO"
      }
    ]
  },
  {
    "postal": "M6H8B5",
    "result": []
  },
  {
    "postal": "M6H0K1",
    "result": []
  },
  {
    "postal": "M6H7M7",
    "result": []
  },
  {
    "postal": "M6H2M2",
    "result": [
      {
        "electoralDistricts": [
          {
            "election": null,
            "id": 19,
            "name": "Davenport"
          }
        ],
        "pollDivisionIds": [
          10136082
        ],
        "postalCode": "M6H2M2",
        "streetName": "ROSEMOUNT",
        "streetDirectionId": null,
        "streetTypeId": "AVE",
        "placeName": "TORONTO",
        "streetNameDisplayText": "ROSEMOUNT AVE, TORONTO"
      }
    ]
  },
  {
    "postal": "M6H9N3",
    "result": []
  },
  {
    "postal": "M6H4Y8",
    "result": []
  },
  {
    "postal": "M6H3V7",
    "result": [
      {
        "electoralDistricts": [
          {
            "election": null,
            "id": 19,
            "name": "Davenport"
          }
        ],
        "pollDivisionIds": [
          10136086
        ],
        "postalCode": "M6H3V7",
        "streetName": "GREENLAW",
        "streetDirectionId": null,
        "streetTypeId": "AVE",
        "placeName": "TORONTO",
        "streetNameDisplayText": "GREENLAW AVE, TORONTO"
      }
    ]
  },
  {
    "postal": "M6H8Z1",
    "result": []
  },
  {
    "postal": "M6H7B3",
    "result": []
  },
  {
    "postal": "M6H3A8",
    "result": [
      {
        "electoralDistricts": [
          {
            "election": null,
            "id": 19,
            "name": "Davenport"
          }
        ],
        "pollDivisionIds": [
          10136087
        ],
        "postalCode": "M6H3A8",
        "streetName": "GLENHOLME",
        "streetDirectionId": null,
        "streetTypeId": "AVE",
        "placeName": "TORONTO",
        "streetNameDisplayText": "GLENHOLME AVE, TORONTO"
      }
    ]
  },
  {
    "postal": "M6H7V5",
    "result": []
  },
  {
    "postal": "M6H2T2",
    "result": [
      {
        "electoralDistricts": [
          {
            "election": null,
            "id": 19,
            "name": "Davenport"
          }
        ],
        "pollDivisionIds": [
          10136101
        ],
        "postalCode": "M6H2T2",
        "streetName": "DELAWARE",
        "streetDirectionId": null,
        "streetTypeId": "AVE",
        "placeName": "TORONTO",
        "streetNameDisplayText": "DELAWARE AVE, TORONTO"
      }
    ]
  },
  {
    "postal": "M6H6L3",
    "result": []
  },
  {
    "postal": "M6H0L2",
    "result": []
  },
  {
    "postal": "M6H5Y8",
    "result": []
  },
  {
    "postal": "M6H0B8",
    "result": [
      {
        "electoralDistricts": [
          {
            "election": null,
            "id": 19,
            "name": "Davenport"
          }
        ],
        "pollDivisionIds": [
          10136098
        ],
        "postalCode": "M6H0B8",
        "streetName": "ST HELENS",
        "streetDirectionId": null,
        "streetTypeId": "AVE",
        "placeName": "TORONTO",
        "streetNameDisplayText": "ST HELENS AVE, TORONTO"
      }
    ]
  },
  {
    "postal": "M6H6R5",
    "result": []
  },
  {
    "postal": "M6H8W6",
    "result": []
  },
  {
    "postal": "M6H8G6",
    "result": []
  },
  {
    "postal": "M6H6X3",
    "result": []
  },
  {
    "postal": "M6H7R7",
    "result": []
  },
  {
    "postal": "M6H4B6",
    "result": [
      {
        "electoralDistricts": [
          {
            "election": null,
            "id": 19,
            "name": "Davenport"
          }
        ],
        "pollDivisionIds": [
          10136096
        ],
        "postalCode": "M6H4B6",
        "streetName": "DUFFERIN",
        "streetDirectionId": null,
        "streetTypeId": "ST",
        "placeName": "TORONTO",
        "streetNameDisplayText": "DUFFERIN ST, TORONTO"
      }
    ]
  },
  {
    "postal": "M6H3P9",
    "result": [
      {
        "electoralDistricts": [
          {
            "election": null,
            "id": 19,
            "name": "Davenport"
          }
        ],
        "pollDivisionIds": [
          10136088
        ],
        "postalCode": "M6H3P9",
        "streetName": "LIGHTBOURN",
        "streetDirectionId": null,
        "streetTypeId": "AVE",
        "placeName": "TORONTO",
        "streetNameDisplayText": "LIGHTBOURN AVE, TORONTO"
      }
    ]
  },
  {
    "postal": "M6H2T3",
    "result": [
      {
        "electoralDistricts": [
          {
            "election": null,
            "id": 19,
            "name": "Davenport"
          }
        ],
        "pollDivisionIds": [
          10136101
        ],
        "postalCode": "M6H2T3",
        "streetName": "DELAWARE",
        "streetDirectionId": "N",
        "streetTypeId": "AVE",
        "placeName": "TORONTO",
        "streetNameDisplayText": "DELAWARE AVE N, TORONTO"
      },
      {
        "electoralDistricts": [
          {
            "election": null,
            "id": 19,
            "name": "Davenport"
          }
        ],
        "pollDivisionIds": [
          10136101
        ],
        "postalCode": "M6H2T3",
        "streetName": "DELAWARE",
        "streetDirectionId": null,
        "streetTypeId": "AVE",
        "placeName": "TORONTO",
        "streetNameDisplayText": "DELAWARE AVE, TORONTO"
      }
    ]
  },
  {
    "postal": "M6H1M4",
    "result": [
      {
        "electoralDistricts": [
          {
            "election": null,
            "id": 19,
            "name": "Davenport"
          },
          {
            "election": null,
            "id": 83,
            "name": "Parkdale—High Park"
          }
        ],
        "pollDivisionIds": [
          10136100,
          10140949,
          10136101
        ],
        "postalCode": "M6H1M4",
        "streetName": "BLOOR",
        "streetDirectionId": "W",
        "streetTypeId": "ST",
        "placeName": "TORONTO",
        "streetNameDisplayText": "BLOOR ST W, TORONTO"
      }
    ]
  },
  {
    "postal": "M6H0H1",
    "result": []
  },
  {
    "postal": "M6H9W3",
    "result": []
  },
  {
    "postal": "M6H6P1",
    "result": []
  },
  {
    "postal": "M6H7G2",
    "result": []
  },
  {
    "postal": "M6H4J9",
    "result": [
      {
        "electoralDistricts": [
          {
            "election": null,
            "id": 19,
            "name": "Davenport"
          }
        ],
        "pollDivisionIds": [
          10136088
        ],
        "postalCode": "M6H4J9",
        "streetName": "GROGAN",
        "streetDirectionId": null,
        "streetTypeId": "MEWS",
        "placeName": "TORONTO",
        "streetNameDisplayText": "GROGAN MEWS, TORONTO"
      }
    ]
  },
  {
    "postal": "M6H9E4",
    "result": []
  },
  {
    "postal": "M6H8H0",
    "result": []
  },
  {
    "postal": "M6H4M7",
    "result": []
  },
  {
    "postal": "M6H2G9",
    "result": [
      {
        "electoralDistricts": [
          {
            "election": null,
            "id": 19,
            "name": "Davenport"
          }
        ],
        "pollDivisionIds": [
          10136087
        ],
        "postalCode": "M6H2G9",
        "streetName": "DAVENPORT",
        "streetDirectionId": null,
        "streetTypeId": "RD",
        "placeName": "TORONTO",
        "streetNameDisplayText": "DAVENPORT RD, TORONTO"
      }
    ]
  },
  {
    "postal": "M6H8T2",
    "result": []
  },
  {
    "postal": "M6H7G7",
    "result": []
  },
  {
    "postal": "M6H4Z3",
    "result": []
  },
  {
    "postal": "M6H5B3",
    "result": []
  },
  {
    "postal": "M6H1S7",
    "result": [
      {
        "electoralDistricts": [
          {
            "election": null,
            "id": 19,
            "name": "Davenport"
          }
        ],
        "pollDivisionIds": [
          10136094
        ],
        "postalCode": "M6H1S7",
        "streetName": "SHANLY",
        "streetDirectionId": null,
        "streetTypeId": "ST",
        "placeName": "TORONTO",
        "streetNameDisplayText": "SHANLY ST, TORONTO"
      }
    ]
  },
  {
    "postal": "M6H2N7",
    "result": [
      {
        "electoralDistricts": [
          {
            "election": null,
            "id": 19,
            "name": "Davenport"
          }
        ],
        "pollDivisionIds": [
          10136086
        ],
        "postalCode": "M6H2N7",
        "streetName": "MACKAY",
        "streetDirectionId": null,
        "streetTypeId": "AVE",
        "placeName": "TORONTO",
        "streetNameDisplayText": "MACKAY AVE, TORONTO"
      }
    ]
  },
  {
    "postal": "M6H0H8",
    "result": []
  },
  {
    "postal": "M6H7Z4",
    "result": []
  },
  {
    "postal": "M6H7B1",
    "result": []
  },
  {
    "postal": "M6H7P8",
    "result": []
  },
  {
    "postal": "M6H7N0",
    "result": []
  },
  {
    "postal": "M6H3Y5",
    "result": [
      {
        "electoralDistricts": [
          {
            "election": null,
            "id": 19,
            "name": "Davenport"
          }
        ],
        "pollDivisionIds": [
          10136096
        ],
        "postalCode": "M6H3Y5",
        "streetName": "LANSDOWNE",
        "streetDirectionId": null,
        "streetTypeId": "AVE",
        "placeName": "TORONTO",
        "streetNameDisplayText": "LANSDOWNE AVE, TORONTO"
      }
    ]
  },
  {
    "postal": "M6H6K1",
    "result": []
  },
  {
    "postal": "M6H9X5",
    "result": []
  },
  {
    "postal": "M6H7S5",
    "result": []
  },
  {
    "postal": "M6H0A4",
    "result": [
      {
        "electoralDistricts": [
          {
            "election": null,
            "id": 19,
            "name": "Davenport"
          }
        ],
        "pollDivisionIds": [
          10136084
        ],
        "postalCode": "M6H0A4",
        "streetName": "FOUNDRY",
        "streetDirectionId": null,
        "streetTypeId": "AVE",
        "placeName": "TORONTO",
        "streetNameDisplayText": "FOUNDRY AVE, TORONTO"
      }
    ]
  },
  {
    "postal": "M6H4T5",
    "result": []
  },
  {
    "postal": "M6H5K1",
    "result": []
  },
  {
    "postal": "M6H0Z9",
    "result": []
  },
  {
    "postal": "M6H7T2",
    "result": []
  },
  {
    "postal": "M6H1L5",
    "result": [
      {
        "electoralDistricts": [
          {
            "election": null,
            "id": 19,
            "name": "Davenport"
          }
        ],
        "pollDivisionIds": [
          10136101
        ],
        "postalCode": "M6H1L5",
        "streetName": "BLOOR",
        "streetDirectionId": "W",
        "streetTypeId": "ST",
        "placeName": "TORONTO",
        "streetNameDisplayText": "BLOOR ST W, TORONTO"
      }
    ]
  },
  {
    "postal": "M6H3N5",
    "result": [
      {
        "electoralDistricts": [
          {
            "election": null,
            "id": 19,
            "name": "Davenport"
          }
        ],
        "pollDivisionIds": [
          10136099
        ],
        "postalCode": "M6H3N5",
        "streetName": "BROCK",
        "streetDirectionId": null,
        "streetTypeId": "AVE",
        "placeName": "TORONTO",
        "streetNameDisplayText": "BROCK AVE, TORONTO"
      }
    ]
  },
  {
    "postal": "M6H6H4",
    "result": []
  },
  {
    "postal": "M6H5A5",
    "result": []
  },
  {
    "postal": "M6H3R9",
    "result": [
      {
        "electoralDistricts": [
          {
            "election": null,
            "id": 19,
            "name": "Davenport"
          }
        ],
        "pollDivisionIds": [
          10136086
        ],
        "postalCode": "M6H3R9",
        "streetName": "VIA ITALIA",
        "streetDirectionId": null,
        "streetTypeId": null,
        "placeName": "TORONTO",
        "streetNameDisplayText": "VIA ITALIA, TORONTO"
      }
    ]
  },
  {
    "postal": "M6H7L8",
    "result": []
  },
  {
    "postal": "M6H6T6",
    "result": []
  },
  {
    "postal": "M6H7Y7",
    "result": []
  },
  {
    "postal": "M6H3M8",
    "result": [
      {
        "electoralDistricts": [
          {
            "election": null,
            "id": 19,
            "name": "Davenport"
          }
        ],
        "pollDivisionIds": [
          10136096
        ],
        "postalCode": "M6H3M8",
        "streetName": "PAULINE",
        "streetDirectionId": null,
        "streetTypeId": "AVE",
        "placeName": "TORONTO",
        "streetNameDisplayText": "PAULINE AVE, TORONTO"
      }
    ]
  },
  {
    "postal": "M6H2E0",
    "result": []
  },
  {
    "postal": "M6H4B5",
    "result": [
      {
        "electoralDistricts": [
          {
            "election": null,
            "id": 19,
            "name": "Davenport"
          }
        ],
        "pollDivisionIds": [
          10136094
        ],
        "postalCode": "M6H4B5",
        "streetName": "DUFFERIN",
        "streetDirectionId": null,
        "streetTypeId": "ST",
        "placeName": "TORONTO",
        "streetNameDisplayText": "DUFFERIN ST, TORONTO"
      }
    ]
  },
  {
    "postal": "M6H1J3",
    "result": [
      {
        "electoralDistricts": [
          {
            "election": null,
            "id": 19,
            "name": "Davenport"
          }
        ],
        "pollDivisionIds": [
          10136098
        ],
        "postalCode": "M6H1J3",
        "streetName": "DUBLIN",
        "streetDirectionId": null,
        "streetTypeId": "ST",
        "placeName": "TORONTO",
        "streetNameDisplayText": "DUBLIN ST, TORONTO"
      }
    ]
  },
  {
    "postal": "M6H5S6",
    "result": []
  },
  {
    "postal": "M6H8P7",
    "result": []
  },
  {
    "postal": "M6H7S7",
    "result": []
  },
  {
    "postal": "M6H4C2",
    "result": [
      {
        "electoralDistricts": [
          {
            "election": null,
            "id": 19,
            "name": "Davenport"
          }
        ],
        "pollDivisionIds": [
          10136092
        ],
        "postalCode": "M6H4C2",
        "streetName": "DUFFERIN",
        "streetDirectionId": null,
        "streetTypeId": "ST",
        "placeName": "TORONTO",
        "streetNameDisplayText": "DUFFERIN ST, TORONTO"
      }
    ]
  },
  {
    "postal": "M6H5Y0",
    "result": []
  },
  {
    "postal": "M6H2V7",
    "result": [
      {
        "electoralDistricts": [
          {
            "election": null,
            "id": 19,
            "name": "Davenport"
          }
        ],
        "pollDivisionIds": [
          10136087
        ],
        "postalCode": "M6H2V7",
        "streetName": "OAKWOOD",
        "streetDirectionId": null,
        "streetTypeId": "AVE",
        "placeName": "TORONTO",
        "streetNameDisplayText": "OAKWOOD AVE, TORONTO"
      }
    ]
  },
  {
    "postal": "M6H8P5",
    "result": []
  },
  {
    "postal": "M6H5P5",
    "result": []
  },
  {
    "postal": "M6H5Z0",
    "result": []
  },
  {
    "postal": "M6H9B0",
    "result": []
  },
  {
    "postal": "M6H1L0",
    "result": []
  },
  {
    "postal": "M6H0B5",
    "result": [
      {
        "electoralDistricts": [
          {
            "election": null,
            "id": 19,
            "name": "Davenport"
          }
        ],
        "pollDivisionIds": [
          10136101
        ],
        "postalCode": "M6H0B5",
        "streetName": "DOVERCOURT",
        "streetDirectionId": null,
        "streetTypeId": "RD",
        "placeName": "TORONTO",
        "streetNameDisplayText": "DOVERCOURT RD, TORONTO"
      }
    ]
  },
  {
    "postal": "M6H3L2",
    "result": [
      {
        "electoralDistricts": [
          {
            "election": null,
            "id": 19,
            "name": "Davenport"
          }
        ],
        "pollDivisionIds": [
          10136088
        ],
        "postalCode": "M6H3L2",
        "streetName": "DUFFERIN",
        "streetDirectionId": null,
        "streetTypeId": "ST",
        "placeName": "TORONTO",
        "streetNameDisplayText": "DUFFERIN ST, TORONTO"
      }
    ]
  },
  {
    "postal": "M6H3B7",
    "result": [
      {
        "electoralDistricts": [
          {
            "election": null,
            "id": 19,
            "name": "Davenport"
          }
        ],
        "pollDivisionIds": [
          10136100
        ],
        "postalCode": "M6H3B7",
        "streetName": "HAVELOCK",
        "streetDirectionId": null,
        "streetTypeId": "ST",
        "placeName": "TORONTO",
        "streetNameDisplayText": "HAVELOCK ST, TORONTO"
      }
    ]
  },
  {
    "postal": "M6H8L1",
    "result": []
  },
  {
    "postal": "M6H5M4",
    "result": []
  },
  {
    "postal": "M6H4G9",
    "result": []
  },
  {
    "postal": "M6H0P0",
    "result": []
  },
  {
    "postal": "M6H8G2",
    "result": []
  },
  {
    "postal": "M6H1V9",
    "result": [
      {
        "electoralDistricts": [
          {
            "election": null,
            "id": 19,
            "name": "Davenport"
          }
        ],
        "pollDivisionIds": [
          10136091
        ],
        "postalCode": "M6H1V9",
        "streetName": "ARMSTRONG",
        "streetDirectionId": null,
        "streetTypeId": "AVE",
        "placeName": "TORONTO",
        "streetNameDisplayText": "ARMSTRONG AVE, TORONTO"
      }
    ]
  },
  {
    "postal": "M6H8N8",
    "result": []
  },
  {
    "postal": "M6H6S8",
    "result": []
  },
  {
    "postal": "M6H8H2",
    "result": []
  },
  {
    "postal": "M6H5R8",
    "result": []
  },
  {
    "postal": "M6H5L4",
    "result": []
  },
  {
    "postal": "M6H9E1",
    "result": []
  },
  {
    "postal": "M6H1C4",
    "result": [
      {
        "electoralDistricts": [
          {
            "election": null,
            "id": 19,
            "name": "Davenport"
          }
        ],
        "pollDivisionIds": [
          10136098
        ],
        "postalCode": "M6H1C4",
        "streetName": "COLLEGE",
        "streetDirectionId": null,
        "streetTypeId": "ST",
        "placeName": "TORONTO",
        "streetNameDisplayText": "COLLEGE ST, TORONTO"
      }
    ]
  },
  {
    "postal": "M6H8W5",
    "result": []
  },
  {
    "postal": "M6H1Y4",
    "result": [
      {
        "electoralDistricts": [
          {
            "election": null,
            "id": 19,
            "name": "Davenport"
          }
        ],
        "pollDivisionIds": [
          10136091
        ],
        "postalCode": "M6H1Y4",
        "streetName": "LAPPIN",
        "streetDirectionId": null,
        "streetTypeId": "AVE",
        "placeName": "TORONTO",
        "streetNameDisplayText": "LAPPIN AVE, TORONTO"
      }
    ]
  },
  {
    "postal": "M6H1C0",
    "result": []
  },
  {
    "postal": "M6H2J2",
    "result": [
      {
        "electoralDistricts": [
          {
            "election": null,
            "id": 19,
            "name": "Davenport"
          }
        ],
        "pollDivisionIds": [
          10136083
        ],
        "postalCode": "M6H2J2",
        "streetName": "DAVENPORT",
        "streetDirectionId": null,
        "streetTypeId": "RD",
        "placeName": "TORONTO",
        "streetNameDisplayText": "DAVENPORT RD, TORONTO"
      }
    ]
  },
  {
    "postal": "M6H2J0",
    "result": []
  },
  {
    "postal": "M6H7A3",
    "result": []
  },
  {
    "postal": "M6H8M1",
    "result": []
  },
  {
    "postal": "M6H7T9",
    "result": []
  },
  {
    "postal": "M6H6C0",
    "result": []
  },
  {
    "postal": "M6H7X1",
    "result": []
  },
  {
    "postal": "M6H0G1",
    "result": []
  },
  {
    "postal": "M6H4X2",
    "result": []
  },
  {
    "postal": "M6H0N6",
    "result": []
  },
  {
    "postal": "M6H8E3",
    "result": []
  },
  {
    "postal": "M6H5S8",
    "result": []
  },
  {
    "postal": "M6H0R0",
    "result": []
  },
  {
    "postal": "M6H6J6",
    "result": []
  },
  {
    "postal": "M6H4B4",
    "result": [
      {
        "electoralDistricts": [
          {
            "election": null,
            "id": 19,
            "name": "Davenport"
          }
        ],
        "pollDivisionIds": [
          10136099
        ],
        "postalCode": "M6H4B4",
        "streetName": "DUFFERIN",
        "streetDirectionId": null,
        "streetTypeId": "ST",
        "placeName": "TORONTO",
        "streetNameDisplayText": "DUFFERIN ST, TORONTO"
      }
    ]
  },
  {
    "postal": "M6H7E3",
    "result": []
  },
  {
    "postal": "M6H3N6",
    "result": [
      {
        "electoralDistricts": [
          {
            "election": null,
            "id": 19,
            "name": "Davenport"
          }
        ],
        "pollDivisionIds": [
          10136099
        ],
        "postalCode": "M6H3N6",
        "streetName": "BROCK",
        "streetDirectionId": null,
        "streetTypeId": "AVE",
        "placeName": "TORONTO",
        "streetNameDisplayText": "BROCK AVE, TORONTO"
      }
    ]
  },
  {
    "postal": "M6H3X6",
    "result": [
      {
        "electoralDistricts": [
          {
            "election": null,
            "id": 19,
            "name": "Davenport"
          }
        ],
        "pollDivisionIds": [
          10136084
        ],
        "postalCode": "M6H3X6",
        "streetName": "ST CLARENS",
        "streetDirectionId": null,
        "streetTypeId": "AVE",
        "placeName": "TORONTO",
        "streetNameDisplayText": "ST CLARENS AVE, TORONTO"
      }
    ]
  },
  {
    "postal": "M6H8L0",
    "result": []
  },
  {
    "postal": "M6H8N1",
    "result": []
  },
  {
    "postal": "M6H4J0",
    "result": []
  },
  {
    "postal": "M6H0X7",
    "result": []
  },
  {
    "postal": "M6H6S4",
    "result": []
  },
  {
    "postal": "M6H0Z0",
    "result": []
  },
  {
    "postal": "M6H9X8",
    "result": []
  },
  {
    "postal": "M6H3H3",
    "result": [
      {
        "electoralDistricts": [
          {
            "election": null,
            "id": 19,
            "name": "Davenport"
          }
        ],
        "pollDivisionIds": [
          10136082
        ],
        "postalCode": "M6H3H3",
        "streetName": "NORTHCLIFFE",
        "streetDirectionId": null,
        "streetTypeId": "BLVD",
        "placeName": "TORONTO",
        "streetNameDisplayText": "NORTHCLIFFE BLVD, TORONTO"
      }
    ]
  },
  {
    "postal": "M6H7S2",
    "result": []
  },
  {
    "postal": "M6H3T3",
    "result": [
      {
        "electoralDistricts": [
          {
            "election": null,
            "id": 111,
            "name": "Toronto—St. Paul's"
          },
          {
            "election": null,
            "id": 19,
            "name": "Davenport"
          }
        ],
        "pollDivisionIds": [
          10136065,
          10136086
        ],
        "postalCode": "M6H3T3",
        "streetName": "MACKAY",
        "streetDirectionId": null,
        "streetTypeId": "AVE",
        "placeName": "TORONTO",
        "streetNameDisplayText": "MACKAY AVE, TORONTO"
      }
    ]
  },
  {
    "postal": "M6H9P3",
    "result": []
  },
  {
    "postal": "M6H4H8",
    "result": []
  },
  {
    "postal": "M6H6R1",
    "result": []
  },
  {
    "postal": "M6H1S0",
    "result": []
  },
  {
    "postal": "M6H3W8",
    "result": [
      {
        "electoralDistricts": [
          {
            "election": null,
            "id": 19,
            "name": "Davenport"
          }
        ],
        "pollDivisionIds": [
          10136091
        ],
        "postalCode": "M6H3W8",
        "streetName": "SAINT CLARENS",
        "streetDirectionId": null,
        "streetTypeId": "AVE",
        "placeName": "TORONTO",
        "streetNameDisplayText": "SAINT CLARENS AVE, TORONTO"
      },
      {
        "electoralDistricts": [
          {
            "election": null,
            "id": 19,
            "name": "Davenport"
          }
        ],
        "pollDivisionIds": [
          10136091
        ],
        "postalCode": "M6H3W8",
        "streetName": "ST CLARENS",
        "streetDirectionId": null,
        "streetTypeId": "AVE",
        "placeName": "TORONTO",
        "streetNameDisplayText": "ST CLARENS AVE, TORONTO"
      }
    ]
  },
  {
    "postal": "M6H4S3",
    "result": []
  },
  {
    "postal": "M6H1B6",
    "result": [
      {
        "electoralDistricts": [
          {
            "election": null,
            "id": 19,
            "name": "Davenport"
          }
        ],
        "pollDivisionIds": [
          10136099
        ],
        "postalCode": "M6H1B6",
        "streetName": "COLLEGE",
        "streetDirectionId": null,
        "streetTypeId": "ST",
        "placeName": "TORONTO",
        "streetNameDisplayText": "COLLEGE ST, TORONTO"
      }
    ]
  },
  {
    "postal": "M6H8R3",
    "result": []
  },
  {
    "postal": "M6H4V9",
    "result": []
  },
  {
    "postal": "M6H9W4",
    "result": []
  },
  {
    "postal": "M6H3T4",
    "result": [
      {
        "electoralDistricts": [
          {
            "election": null,
            "id": 19,
            "name": "Davenport"
          }
        ],
        "pollDivisionIds": [
          10136091
        ],
        "postalCode": "M6H3T4",
        "streetName": "EMERSON",
        "streetDirectionId": null,
        "streetTypeId": "AVE",
        "placeName": "TORONTO",
        "streetNameDisplayText": "EMERSON AVE, TORONTO"
      }
    ]
  },
  {
    "postal": "M6H5C7",
    "result": []
  },
  {
    "postal": "M6H3Y1",
    "result": [
      {
        "electoralDistricts": [
          {
            "election": null,
            "id": 19,
            "name": "Davenport"
          }
        ],
        "pollDivisionIds": [
          10136098
        ],
        "postalCode": "M6H3Y1",
        "streetName": "LANSDOWNE",
        "streetDirectionId": null,
        "streetTypeId": "AVE",
        "placeName": "TORONTO",
        "streetNameDisplayText": "LANSDOWNE AVE, TORONTO"
      }
    ]
  },
  {
    "postal": "M6H5V0",
    "result": []
  },
  {
    "postal": "M6H8G8",
    "result": []
  },
  {
    "postal": "M6H8B1",
    "result": []
  },
  {
    "postal": "M6H4P5",
    "result": []
  },
  {
    "postal": "M6H7B2",
    "result": []
  },
  {
    "postal": "M6H0R2",
    "result": []
  },
  {
    "postal": "M6H4M4",
    "result": []
  },
  {
    "postal": "M6H7M4",
    "result": []
  },
  {
    "postal": "M6H9S7",
    "result": []
  },
  {
    "postal": "M6H5Z7",
    "result": []
  },
  {
    "postal": "M6H7J7",
    "result": []
  },
  {
    "postal": "M6H8R8",
    "result": []
  },
  {
    "postal": "M6H9X1",
    "result": []
  },
  {
    "postal": "M6H5M9",
    "result": []
  },
  {
    "postal": "M6H9B4",
    "result": []
  },
  {
    "postal": "M6H0L9",
    "result": []
  },
  {
    "postal": "M6H9G4",
    "result": []
  },
  {
    "postal": "M6H1J4",
    "result": [
      {
        "electoralDistricts": [
          {
            "election": null,
            "id": 19,
            "name": "Davenport"
          }
        ],
        "pollDivisionIds": [
          10136098
        ],
        "postalCode": "M6H1J4",
        "streetName": "DUBLIN",
        "streetDirectionId": null,
        "streetTypeId": "ST",
        "placeName": "TORONTO",
        "streetNameDisplayText": "DUBLIN ST, TORONTO"
      }
    ]
  },
  {
    "postal": "M6H0W6",
    "result": []
  }
]
