[
  {
    "postal": "M1W9J6",
    "result": []
  },
  {
    "postal": "M1W9Z5",
    "result": []
  },
  {
    "postal": "M1W7H8",
    "result": []
  },
  {
    "postal": "M1W0P6",
    "result": []
  },
  {
    "postal": "M1W0S7",
    "result": []
  },
  {
    "postal": "M1W8B9",
    "result": []
  },
  {
    "postal": "M1W2A6",
    "result": [
      {
        "electoralDistricts": [
          {
            "election": null,
            "id": 93,
            "name": "Scarborough—Agincourt"
          }
        ],
        "pollDivisionIds": [
          10141528
        ],
        "postalCode": "M1W2A6",
        "streetName": "TIMBERBANK",
        "streetDirectionId": null,
        "streetTypeId": "BLVD",
        "placeName": "SCARBOROUGH",
        "streetNameDisplayText": "TIMBERBANK BLVD, SCARBOROUGH"
      }
    ]
  },
  {
    "postal": "M1W7V2",
    "result": []
  },
  {
    "postal": "M1W9P4",
    "result": []
  },
  {
    "postal": "M1W6G0",
    "result": []
  },
  {
    "postal": "M1W2K0",
    "result": []
  },
  {
    "postal": "M1W7N6",
    "result": []
  },
  {
    "postal": "M1W5R3",
    "result": []
  },
  {
    "postal": "M1W7K0",
    "result": []
  },
  {
    "postal": "M1W3R2",
    "result": [
      {
        "electoralDistricts": [
          {
            "election": null,
            "id": 93,
            "name": "Scarborough—Agincourt"
          }
        ],
        "pollDivisionIds": [
          10141514
        ],
        "postalCode": "M1W3R2",
        "streetName": "CARL",
        "streetDirectionId": null,
        "streetTypeId": "CRES",
        "placeName": "SCARBOROUGH",
        "streetNameDisplayText": "CARL CRES, SCARBOROUGH"
      }
    ]
  },
  {
    "postal": "M1W0J1",
    "result": []
  },
  {
    "postal": "M1W0B0",
    "result": []
  },
  {
    "postal": "M1W5Z2",
    "result": []
  },
  {
    "postal": "M1W7P3",
    "result": []
  },
  {
    "postal": "M1W2K3",
    "result": [
      {
        "electoralDistricts": [
          {
            "election": null,
            "id": 93,
            "name": "Scarborough—Agincourt"
          }
        ],
        "pollDivisionIds": [
          10141527
        ],
        "postalCode": "M1W2K3",
        "streetName": "SPRUCEWOOD",
        "streetDirectionId": null,
        "streetTypeId": "CRT",
        "placeName": "SCARBOROUGH",
        "streetNameDisplayText": "SPRUCEWOOD CRT, SCARBOROUGH"
      }
    ]
  },
  {
    "postal": "M1W7Y6",
    "result": []
  },
  {
    "postal": "M1W1L9",
    "result": [
      {
        "electoralDistricts": [
          {
            "election": null,
            "id": 93,
            "name": "Scarborough—Agincourt"
          }
        ],
        "pollDivisionIds": [
          10141527
        ],
        "postalCode": "M1W1L9",
        "streetName": "COLLINGSBROOK",
        "streetDirectionId": null,
        "streetTypeId": "BLVD",
        "placeName": "SCARBOROUGH",
        "streetNameDisplayText": "COLLINGSBROOK BLVD, SCARBOROUGH"
      }
    ]
  },
  {
    "postal": "M1W8T0",
    "result": []
  },
  {
    "postal": "M1W3K8",
    "result": [
      {
        "electoralDistricts": [
          {
            "election": null,
            "id": 93,
            "name": "Scarborough—Agincourt"
          }
        ],
        "pollDivisionIds": [
          10141519,
          10141513
        ],
        "postalCode": "M1W3K8",
        "streetName": "AMBERCROFT",
        "streetDirectionId": null,
        "streetTypeId": "BLVD",
        "placeName": "SCARBOROUGH",
        "streetNameDisplayText": "AMBERCROFT BLVD, SCARBOROUGH"
      }
    ]
  },
  {
    "postal": "M1W5W9",
    "result": []
  },
  {
    "postal": "M1W6T9",
    "result": []
  },
  {
    "postal": "M1W4H1",
    "result": []
  },
  {
    "postal": "M1W7A2",
    "result": []
  },
  {
    "postal": "M1W5G0",
    "result": []
  },
  {
    "postal": "M1W8V5",
    "result": []
  },
  {
    "postal": "M1W2Y8",
    "result": [
      {
        "electoralDistricts": [
          {
            "election": null,
            "id": 93,
            "name": "Scarborough—Agincourt"
          }
        ],
        "pollDivisionIds": [
          10141513
        ],
        "postalCode": "M1W2Y8",
        "streetName": "HUNTSMILL",
        "streetDirectionId": null,
        "streetTypeId": "BLVD",
        "placeName": "SCARBOROUGH",
        "streetNameDisplayText": "HUNTSMILL BLVD, SCARBOROUGH"
      }
    ]
  },
  {
    "postal": "M1W2B6",
    "result": [
      {
        "electoralDistricts": [
          {
            "election": null,
            "id": 93,
            "name": "Scarborough—Agincourt"
          }
        ],
        "pollDivisionIds": [
          10141528
        ],
        "postalCode": "M1W2B6",
        "streetName": "CHALDEAN",
        "streetDirectionId": null,
        "streetTypeId": "ST",
        "placeName": "SCARBOROUGH",
        "streetNameDisplayText": "CHALDEAN ST, SCARBOROUGH"
      },
      {
        "electoralDistricts": [
          {
            "election": null,
            "id": 93,
            "name": "Scarborough—Agincourt"
          }
        ],
        "pollDivisionIds": [
          10141515
        ],
        "postalCode": "M1W2B6",
        "streetName": "CHERRY",
        "streetDirectionId": null,
        "streetTypeId": "ST",
        "placeName": "SCARBOROUGH",
        "streetNameDisplayText": "CHERRY ST, SCARBOROUGH"
      }
    ]
  },
  {
    "postal": "M1W4W8",
    "result": []
  },
  {
    "postal": "M1W8H7",
    "result": []
  },
  {
    "postal": "M1W5P1",
    "result": []
  },
  {
    "postal": "M1W2B8",
    "result": [
      {
        "electoralDistricts": [
          {
            "election": null,
            "id": 93,
            "name": "Scarborough—Agincourt"
          }
        ],
        "pollDivisionIds": [
          10141528
        ],
        "postalCode": "M1W2B8",
        "streetName": "CHALDEAN",
        "streetDirectionId": null,
        "streetTypeId": "ST",
        "placeName": "SCARBOROUGH",
        "streetNameDisplayText": "CHALDEAN ST, SCARBOROUGH"
      }
    ]
  },
  {
    "postal": "M1W0P2",
    "result": []
  },
  {
    "postal": "M1W9M1",
    "result": []
  },
  {
    "postal": "M1W3G0",
    "result": []
  },
  {
    "postal": "M1W9Z2",
    "result": []
  },
  {
    "postal": "M1W2A0",
    "result": []
  },
  {
    "postal": "M1W6Y0",
    "result": []
  },
  {
    "postal": "M1W2Z8",
    "result": [
      {
        "electoralDistricts": [
          {
            "election": null,
            "id": 93,
            "name": "Scarborough—Agincourt"
          }
        ],
        "pollDivisionIds": [
          10141514,
          10141513
        ],
        "postalCode": "M1W2Z8",
        "streetName": "HUNTSMILL",
        "streetDirectionId": null,
        "streetTypeId": "BLVD",
        "placeName": "SCARBOROUGH",
        "streetNameDisplayText": "HUNTSMILL BLVD, SCARBOROUGH"
      }
    ]
  },
  {
    "postal": "M1W7Y3",
    "result": []
  },
  {
    "postal": "M1W6Z5",
    "result": []
  },
  {
    "postal": "M1W6E0",
    "result": []
  },
  {
    "postal": "M1W9B7",
    "result": []
  },
  {
    "postal": "M1W9S5",
    "result": []
  },
  {
    "postal": "M1W3X3",
    "result": [
      {
        "electoralDistricts": [
          {
            "election": null,
            "id": 93,
            "name": "Scarborough—Agincourt"
          }
        ],
        "pollDivisionIds": [
          10141517
        ],
        "postalCode": "M1W3X3",
        "streetName": "BAMBURGH",
        "streetDirectionId": null,
        "streetTypeId": "CIR",
        "placeName": "SCARBOROUGH",
        "streetNameDisplayText": "BAMBURGH CIR, SCARBOROUGH"
      }
    ]
  },
  {
    "postal": "M1W7R5",
    "result": []
  },
  {
    "postal": "M1W2X3",
    "result": [
      {
        "electoralDistricts": [
          {
            "election": null,
            "id": 93,
            "name": "Scarborough—Agincourt"
          }
        ],
        "pollDivisionIds": [
          10141514
        ],
        "postalCode": "M1W2X3",
        "streetName": "FAWNDALE",
        "streetDirectionId": null,
        "streetTypeId": "CRES",
        "placeName": "SCARBOROUGH",
        "streetNameDisplayText": "FAWNDALE CRES, SCARBOROUGH"
      }
    ]
  },
  {
    "postal": "M1W8Z9",
    "result": []
  },
  {
    "postal": "M1W0N4",
    "result": []
  },
  {
    "postal": "M1W1K1",
    "result": [
      {
        "electoralDistricts": [
          {
            "election": null,
            "id": 93,
            "name": "Scarborough—Agincourt"
          }
        ],
        "pollDivisionIds": [
          10141527
        ],
        "postalCode": "M1W1K1",
        "streetName": "KILKENNY",
        "streetDirectionId": null,
        "streetTypeId": "DR",
        "placeName": "SCARBOROUGH",
        "streetNameDisplayText": "KILKENNY DR, SCARBOROUGH"
      }
    ]
  },
  {
    "postal": "M1W1S3",
    "result": [
      {
        "electoralDistricts": [
          {
            "election": null,
            "id": 93,
            "name": "Scarborough—Agincourt"
          }
        ],
        "pollDivisionIds": [
          10141527,
          10141513
        ],
        "postalCode": "M1W1S3",
        "streetName": "MORGANDALE",
        "streetDirectionId": null,
        "streetTypeId": "CRES",
        "placeName": "SCARBOROUGH",
        "streetNameDisplayText": "MORGANDALE CRES, SCARBOROUGH"
      }
    ]
  },
  {
    "postal": "M1W6M4",
    "result": []
  },
  {
    "postal": "M1W9A9",
    "result": []
  },
  {
    "postal": "M1W9Z9",
    "result": []
  },
  {
    "postal": "M1W6T4",
    "result": []
  },
  {
    "postal": "M1W0B2",
    "result": []
  },
  {
    "postal": "M1W2L9",
    "result": [
      {
        "electoralDistricts": [
          {
            "election": null,
            "id": 93,
            "name": "Scarborough—Agincourt"
          }
        ],
        "pollDivisionIds": [
          10141524
        ],
        "postalCode": "M1W2L9",
        "streetName": "L'AMOREAUX",
        "streetDirectionId": null,
        "streetTypeId": "DR",
        "placeName": "SCARBOROUGH",
        "streetNameDisplayText": "L'AMOREAUX DR, SCARBOROUGH"
      }
    ]
  },
  {
    "postal": "M1W8K9",
    "result": []
  },
  {
    "postal": "M1W2H9",
    "result": [
      {
        "electoralDistricts": [
          {
            "election": null,
            "id": 93,
            "name": "Scarborough—Agincourt"
          }
        ],
        "pollDivisionIds": [
          10141520
        ],
        "postalCode": "M1W2H9",
        "streetName": "IANGROVE",
        "streetDirectionId": null,
        "streetTypeId": "TERR",
        "placeName": "SCARBOROUGH",
        "streetNameDisplayText": "IANGROVE TERR, SCARBOROUGH"
      }
    ]
  },
  {
    "postal": "M1W3Z6",
    "result": [
      {
        "electoralDistricts": [
          {
            "election": null,
            "id": 93,
            "name": "Scarborough—Agincourt"
          }
        ],
        "pollDivisionIds": [
          10141547
        ],
        "postalCode": "M1W3Z6",
        "streetName": "WARDEN",
        "streetDirectionId": null,
        "streetTypeId": "AVE",
        "placeName": "SCARBOROUGH",
        "streetNameDisplayText": "WARDEN AVE, SCARBOROUGH"
      }
    ]
  },
  {
    "postal": "M1W3B0",
    "result": []
  },
  {
    "postal": "M1W2H8",
    "result": [
      {
        "electoralDistricts": [
          {
            "election": null,
            "id": 93,
            "name": "Scarborough—Agincourt"
          }
        ],
        "pollDivisionIds": [
          10141528
        ],
        "postalCode": "M1W2H8",
        "streetName": "BRIDLETOWNE",
        "streetDirectionId": null,
        "streetTypeId": "CIR",
        "placeName": "SCARBOROUGH",
        "streetNameDisplayText": "BRIDLETOWNE CIR, SCARBOROUGH"
      }
    ]
  },
  {
    "postal": "M1W3X2",
    "result": []
  },
  {
    "postal": "M1W2E9",
    "result": [
      {
        "electoralDistricts": [
          {
            "election": null,
            "id": 93,
            "name": "Scarborough—Agincourt"
          }
        ],
        "pollDivisionIds": [
          10141524
        ],
        "postalCode": "M1W2E9",
        "streetName": "STALEY",
        "streetDirectionId": null,
        "streetTypeId": "TERR",
        "placeName": "SCARBOROUGH",
        "streetNameDisplayText": "STALEY TERR, SCARBOROUGH"
      }
    ]
  },
  {
    "postal": "M1W9P6",
    "result": []
  },
  {
    "postal": "M1W9E2",
    "result": []
  },
  {
    "postal": "M1W9H2",
    "result": []
  },
  {
    "postal": "M1W1S8",
    "result": [
      {
        "electoralDistricts": [
          {
            "election": null,
            "id": 93,
            "name": "Scarborough—Agincourt"
          }
        ],
        "pollDivisionIds": [
          10141522
        ],
        "postalCode": "M1W1S8",
        "streetName": "BRIDELTOWNE",
        "streetDirectionId": null,
        "streetTypeId": "CIR",
        "placeName": "SCARBOROUGH",
        "streetNameDisplayText": "BRIDELTOWNE CIR, SCARBOROUGH"
      },
      {
        "electoralDistricts": [
          {
            "election": null,
            "id": 93,
            "name": "Scarborough—Agincourt"
          }
        ],
        "pollDivisionIds": [
          10141513
        ],
        "postalCode": "M1W1S8",
        "streetName": "BRIDLETOWN",
        "streetDirectionId": null,
        "streetTypeId": "CIR",
        "placeName": "SCARBOROUGH",
        "streetNameDisplayText": "BRIDLETOWN CIR, SCARBOROUGH"
      },
      {
        "electoralDistricts": [
          {
            "election": null,
            "id": 93,
            "name": "Scarborough—Agincourt"
          }
        ],
        "pollDivisionIds": [
          10141522
        ],
        "postalCode": "M1W1S8",
        "streetName": "BRIDLETOWNE",
        "streetDirectionId": null,
        "streetTypeId": "CIR",
        "placeName": "SCARBOROUGH",
        "streetNameDisplayText": "BRIDLETOWNE CIR, SCARBOROUGH"
      }
    ]
  },
  {
    "postal": "M1W3M6",
    "result": [
      {
        "electoralDistricts": [
          {
            "election": null,
            "id": 93,
            "name": "Scarborough—Agincourt"
          }
        ],
        "pollDivisionIds": [
          10141517
        ],
        "postalCode": "M1W3M6",
        "streetName": "WINTERMUTE",
        "streetDirectionId": null,
        "streetTypeId": "BLVD",
        "placeName": "SCARBOROUGH",
        "streetNameDisplayText": "WINTERMUTE BLVD, SCARBOROUGH"
      }
    ]
  },
  {
    "postal": "M1W6Z8",
    "result": []
  },
  {
    "postal": "M1W4J2",
    "result": []
  },
  {
    "postal": "M1W9Y1",
    "result": []
  },
  {
    "postal": "M1W8V6",
    "result": []
  },
  {
    "postal": "M1W6B2",
    "result": []
  },
  {
    "postal": "M1W1P8",
    "result": [
      {
        "electoralDistricts": [
          {
            "election": null,
            "id": 93,
            "name": "Scarborough—Agincourt"
          }
        ],
        "pollDivisionIds": [
          10141527
        ],
        "postalCode": "M1W1P8",
        "streetName": "SPRUCEWOOD",
        "streetDirectionId": null,
        "streetTypeId": "CRT",
        "placeName": "SCARBOROUGH",
        "streetNameDisplayText": "SPRUCEWOOD CRT, SCARBOROUGH"
      }
    ]
  },
  {
    "postal": "M1W0V8",
    "result": []
  },
  {
    "postal": "M1W4Y0",
    "result": []
  },
  {
    "postal": "M1W2T4",
    "result": [
      {
        "electoralDistricts": [
          {
            "election": null,
            "id": 93,
            "name": "Scarborough—Agincourt"
          }
        ],
        "pollDivisionIds": [
          10141520
        ],
        "postalCode": "M1W2T4",
        "streetName": "FINCH",
        "streetDirectionId": "E",
        "streetTypeId": "AVE",
        "placeName": "SCARBOROUGH",
        "streetNameDisplayText": "FINCH AVE E, SCARBOROUGH"
      }
    ]
  },
  {
    "postal": "M1W2S3",
    "result": []
  },
  {
    "postal": "M1W0K0",
    "result": []
  },
  {
    "postal": "M1W5N1",
    "result": []
  },
  {
    "postal": "M1W7T0",
    "result": []
  },
  {
    "postal": "M1W9N2",
    "result": []
  },
  {
    "postal": "M1W5L1",
    "result": []
  },
  {
    "postal": "M1W7G5",
    "result": []
  },
  {
    "postal": "M1W6K2",
    "result": []
  },
  {
    "postal": "M1W6P9",
    "result": []
  },
  {
    "postal": "M1W0E6",
    "result": []
  },
  {
    "postal": "M1W8R9",
    "result": []
  },
  {
    "postal": "M1W3G9",
    "result": [
      {
        "electoralDistricts": [
          {
            "election": null,
            "id": 93,
            "name": "Scarborough—Agincourt"
          }
        ],
        "pollDivisionIds": [
          10141517
        ],
        "postalCode": "M1W3G9",
        "streetName": "FUNDY BAY",
        "streetDirectionId": null,
        "streetTypeId": "BLVD",
        "placeName": "SCARBOROUGH",
        "streetNameDisplayText": "FUNDY BAY BLVD, SCARBOROUGH"
      }
    ]
  },
  {
    "postal": "M1W0V7",
    "result": []
  },
  {
    "postal": "M1W2Z1",
    "result": [
      {
        "electoralDistricts": [
          {
            "election": null,
            "id": 93,
            "name": "Scarborough—Agincourt"
          }
        ],
        "pollDivisionIds": [
          10141513
        ],
        "postalCode": "M1W2Z1",
        "streetName": "GLENCOYNE",
        "streetDirectionId": null,
        "streetTypeId": "CRES",
        "placeName": "SCARBOROUGH",
        "streetNameDisplayText": "GLENCOYNE CRES, SCARBOROUGH"
      }
    ]
  },
  {
    "postal": "M1W7N1",
    "result": []
  },
  {
    "postal": "M1W3C6",
    "result": [
      {
        "electoralDistricts": [
          {
            "election": null,
            "id": 93,
            "name": "Scarborough—Agincourt"
          }
        ],
        "pollDivisionIds": [
          10141517
        ],
        "postalCode": "M1W3C6",
        "streetName": "ELMARTIN",
        "streetDirectionId": null,
        "streetTypeId": "DR",
        "placeName": "SCARBOROUGH",
        "streetNameDisplayText": "ELMARTIN DR, SCARBOROUGH"
      }
    ]
  },
  {
    "postal": "M1W4M1",
    "result": []
  },
  {
    "postal": "M1W9K2",
    "result": []
  },
  {
    "postal": "M1W9S6",
    "result": []
  },
  {
    "postal": "M1W4X1",
    "result": []
  },
  {
    "postal": "M1W8W2",
    "result": []
  },
  {
    "postal": "M1W7N2",
    "result": []
  },
  {
    "postal": "M1W8S3",
    "result": []
  },
  {
    "postal": "M1W4V0",
    "result": []
  },
  {
    "postal": "M1W6W4",
    "result": []
  },
  {
    "postal": "M1W5M1",
    "result": []
  },
  {
    "postal": "M1W0S4",
    "result": []
  },
  {
    "postal": "M1W5X6",
    "result": []
  },
  {
    "postal": "M1W8L5",
    "result": []
  },
  {
    "postal": "M1W5M8",
    "result": []
  },
  {
    "postal": "M1W2G3",
    "result": [
      {
        "electoralDistricts": [
          {
            "election": null,
            "id": 93,
            "name": "Scarborough—Agincourt"
          }
        ],
        "pollDivisionIds": [
          10141524
        ],
        "postalCode": "M1W2G3",
        "streetName": "WESTWATER",
        "streetDirectionId": null,
        "streetTypeId": "DR",
        "placeName": "SCARBOROUGH",
        "streetNameDisplayText": "WESTWATER DR, SCARBOROUGH"
      }
    ]
  },
  {
    "postal": "M1W8E4",
    "result": []
  },
  {
    "postal": "M1W7S9",
    "result": []
  },
  {
    "postal": "M1W1K3",
    "result": [
      {
        "electoralDistricts": [
          {
            "election": null,
            "id": 93,
            "name": "Scarborough—Agincourt"
          }
        ],
        "pollDivisionIds": [
          10141527
        ],
        "postalCode": "M1W1K3",
        "streetName": "CASTLEMERE",
        "streetDirectionId": null,
        "streetTypeId": "CRES",
        "placeName": "SCARBOROUGH",
        "streetNameDisplayText": "CASTLEMERE CRES, SCARBOROUGH"
      }
    ]
  },
  {
    "postal": "M1W4E1",
    "result": []
  },
  {
    "postal": "M1W4R2",
    "result": []
  },
  {
    "postal": "M1W6T0",
    "result": []
  },
  {
    "postal": "M1W3K5",
    "result": [
      {
        "electoralDistricts": [
          {
            "election": null,
            "id": 93,
            "name": "Scarborough—Agincourt"
          }
        ],
        "pollDivisionIds": [
          10141513
        ],
        "postalCode": "M1W3K5",
        "streetName": "VICTORIA PARK",
        "streetDirectionId": null,
        "streetTypeId": "AVE",
        "placeName": "SCARBOROUGH",
        "streetNameDisplayText": "VICTORIA PARK AVE, SCARBOROUGH"
      }
    ]
  },
  {
    "postal": "M1W3S3",
    "result": []
  },
  {
    "postal": "M1W3L4",
    "result": [
      {
        "electoralDistricts": [
          {
            "election": null,
            "id": 93,
            "name": "Scarborough—Agincourt"
          }
        ],
        "pollDivisionIds": [
          10141517
        ],
        "postalCode": "M1W3L4",
        "streetName": "WINTERMUTE",
        "streetDirectionId": null,
        "streetTypeId": "BLVD",
        "placeName": "SCARBOROUGH",
        "streetNameDisplayText": "WINTERMUTE BLVD, SCARBOROUGH"
      }
    ]
  },
  {
    "postal": "M1W9Y2",
    "result": []
  },
  {
    "postal": "M1W1E0",
    "result": []
  },
  {
    "postal": "M1W9A4",
    "result": []
  },
  {
    "postal": "M1W1L3",
    "result": [
      {
        "electoralDistricts": [
          {
            "election": null,
            "id": 93,
            "name": "Scarborough—Agincourt"
          }
        ],
        "pollDivisionIds": [
          10141527
        ],
        "postalCode": "M1W1L3",
        "streetName": "CHESTERGROVE",
        "streetDirectionId": null,
        "streetTypeId": "CRES",
        "placeName": "SCARBOROUGH",
        "streetNameDisplayText": "CHESTERGROVE CRES, SCARBOROUGH"
      }
    ]
  },
  {
    "postal": "M1W6N1",
    "result": []
  },
  {
    "postal": "M1W6G7",
    "result": []
  },
  {
    "postal": "M1W7W1",
    "result": []
  },
  {
    "postal": "M1W4M6",
    "result": []
  },
  {
    "postal": "M1W1K0",
    "result": []
  },
  {
    "postal": "M1W3E2",
    "result": [
      {
        "electoralDistricts": [
          {
            "election": null,
            "id": 93,
            "name": "Scarborough—Agincourt"
          }
        ],
        "pollDivisionIds": [
          10141513
        ],
        "postalCode": "M1W3E2",
        "streetName": "GLENDINNING",
        "streetDirectionId": null,
        "streetTypeId": "AVE",
        "placeName": "SCARBOROUGH",
        "streetNameDisplayText": "GLENDINNING AVE, SCARBOROUGH"
      }
    ]
  },
  {
    "postal": "M1W5H4",
    "result": []
  },
  {
    "postal": "M1W1K7",
    "result": [
      {
        "electoralDistricts": [
          {
            "election": null,
            "id": 93,
            "name": "Scarborough—Agincourt"
          }
        ],
        "pollDivisionIds": [
          10141527
        ],
        "postalCode": "M1W1K7",
        "streetName": "ROSSCOWAN",
        "streetDirectionId": null,
        "streetTypeId": "CRES",
        "placeName": "SCARBOROUGH",
        "streetNameDisplayText": "ROSSCOWAN CRES, SCARBOROUGH"
      }
    ]
  },
  {
    "postal": "M1W0H0",
    "result": []
  },
  {
    "postal": "M1W0J3",
    "result": []
  },
  {
    "postal": "M1W1X6",
    "result": []
  },
  {
    "postal": "M1W2Z6",
    "result": [
      {
        "electoralDistricts": [
          {
            "election": null,
            "id": 93,
            "name": "Scarborough—Agincourt"
          }
        ],
        "pollDivisionIds": [
          10141519
        ],
        "postalCode": "M1W2Z6",
        "streetName": "AMBERCROFT",
        "streetDirectionId": null,
        "streetTypeId": "BLVD",
        "placeName": "SCARBOROUGH",
        "streetNameDisplayText": "AMBERCROFT BLVD, SCARBOROUGH"
      }
    ]
  },
  {
    "postal": "M1W4R9",
    "result": []
  },
  {
    "postal": "M1W0W8",
    "result": []
  },
  {
    "postal": "M1W1L4",
    "result": [
      {
        "electoralDistricts": [
          {
            "election": null,
            "id": 93,
            "name": "Scarborough—Agincourt"
          }
        ],
        "pollDivisionIds": [
          10141527
        ],
        "postalCode": "M1W1L4",
        "streetName": "CHESTERGROVE",
        "streetDirectionId": null,
        "streetTypeId": "CRES",
        "placeName": "SCARBOROUGH",
        "streetNameDisplayText": "CHESTERGROVE CRES, SCARBOROUGH"
      }
    ]
  },
  {
    "postal": "M1W0C8",
    "result": []
  },
  {
    "postal": "M1W9X7",
    "result": []
  },
  {
    "postal": "M1W4T1",
    "result": []
  },
  {
    "postal": "M1W0M0",
    "result": []
  },
  {
    "postal": "M1W6A2",
    "result": []
  },
  {
    "postal": "M1W9S8",
    "result": []
  },
  {
    "postal": "M1W9T4",
    "result": []
  },
  {
    "postal": "M1W9Y4",
    "result": []
  },
  {
    "postal": "M1W6G5",
    "result": []
  },
  {
    "postal": "M1W6H9",
    "result": []
  },
  {
    "postal": "M1W2P3",
    "result": [
      {
        "electoralDistricts": [
          {
            "election": null,
            "id": 93,
            "name": "Scarborough—Agincourt"
          }
        ],
        "pollDivisionIds": [
          10141513
        ],
        "postalCode": "M1W2P3",
        "streetName": "GORDON BAKER",
        "streetDirectionId": null,
        "streetTypeId": "RD",
        "placeName": "SCARBOROUGH",
        "streetNameDisplayText": "GORDON BAKER RD, SCARBOROUGH"
      }
    ]
  },
  {
    "postal": "M1W1T6",
    "result": [
      {
        "electoralDistricts": [
          {
            "election": null,
            "id": 93,
            "name": "Scarborough—Agincourt"
          }
        ],
        "pollDivisionIds": [
          10141522
        ],
        "postalCode": "M1W1T6",
        "streetName": "HEATHERSIDE",
        "streetDirectionId": null,
        "streetTypeId": "DR",
        "placeName": "SCARBOROUGH",
        "streetNameDisplayText": "HEATHERSIDE DR, SCARBOROUGH"
      }
    ]
  },
  {
    "postal": "M1W4P6",
    "result": []
  },
  {
    "postal": "M1W3K1",
    "result": [
      {
        "electoralDistricts": [
          {
            "election": null,
            "id": 93,
            "name": "Scarborough—Agincourt"
          }
        ],
        "pollDivisionIds": [
          10141514,
          10141513
        ],
        "postalCode": "M1W3K1",
        "streetName": "FAWNDALE",
        "streetDirectionId": null,
        "streetTypeId": "CRES",
        "placeName": "SCARBOROUGH",
        "streetNameDisplayText": "FAWNDALE CRES, SCARBOROUGH"
      }
    ]
  },
  {
    "postal": "M1W6X4",
    "result": []
  },
  {
    "postal": "M1W4M8",
    "result": []
  },
  {
    "postal": "M1W2Y1",
    "result": [
      {
        "electoralDistricts": [
          {
            "election": null,
            "id": 93,
            "name": "Scarborough—Agincourt"
          }
        ],
        "pollDivisionIds": [
          10141522
        ],
        "postalCode": "M1W2Y1",
        "streetName": "FINCH",
        "streetDirectionId": "E",
        "streetTypeId": "AVE",
        "placeName": "SCARBOROUGH",
        "streetNameDisplayText": "FINCH AVE E, SCARBOROUGH"
      }
    ]
  },
  {
    "postal": "M1W6M1",
    "result": []
  },
  {
    "postal": "M1W5L8",
    "result": []
  },
  {
    "postal": "M1W3P6",
    "result": [
      {
        "electoralDistricts": [
          {
            "election": null,
            "id": 93,
            "name": "Scarborough—Agincourt"
          }
        ],
        "pollDivisionIds": [
          10141523
        ],
        "postalCode": "M1W3P6",
        "streetName": "BRIDLETOWNE",
        "streetDirectionId": null,
        "streetTypeId": "CIR",
        "placeName": "SCARBOROUGH",
        "streetNameDisplayText": "BRIDLETOWNE CIR, SCARBOROUGH"
      }
    ]
  },
  {
    "postal": "M1W9A5",
    "result": []
  },
  {
    "postal": "M1W7K1",
    "result": []
  },
  {
    "postal": "M1W3J4",
    "result": [
      {
        "electoralDistricts": [
          {
            "election": null,
            "id": 93,
            "name": "Scarborough—Agincourt"
          }
        ],
        "pollDivisionIds": [
          10141518
        ],
        "postalCode": "M1W3J4",
        "streetName": "BIRCHMOUNT",
        "streetDirectionId": null,
        "streetTypeId": "RD",
        "placeName": "SCARBOROUGH",
        "streetNameDisplayText": "BIRCHMOUNT RD, SCARBOROUGH"
      }
    ]
  },
  {
    "postal": "M1W5E7",
    "result": []
  },
  {
    "postal": "M1W3A7",
    "result": [
      {
        "electoralDistricts": [
          {
            "election": null,
            "id": 93,
            "name": "Scarborough—Agincourt"
          }
        ],
        "pollDivisionIds": [
          10141513
        ],
        "postalCode": "M1W3A7",
        "streetName": "CHAPELTOWN",
        "streetDirectionId": null,
        "streetTypeId": "CRES",
        "placeName": "SCARBOROUGH",
        "streetNameDisplayText": "CHAPELTOWN CRES, SCARBOROUGH"
      }
    ]
  },
  {
    "postal": "M1W1B9",
    "result": [
      {
        "electoralDistricts": [
          {
            "election": null,
            "id": 93,
            "name": "Scarborough—Agincourt"
          }
        ],
        "pollDivisionIds": [
          10141526
        ],
        "postalCode": "M1W1B9",
        "streetName": "CORINTHIAN",
        "streetDirectionId": null,
        "streetTypeId": "BLVD",
        "placeName": "SCARBOROUGH",
        "streetNameDisplayText": "CORINTHIAN BLVD, SCARBOROUGH"
      }
    ]
  },
  {
    "postal": "M1W9E8",
    "result": []
  },
  {
    "postal": "M1W1C9",
    "result": [
      {
        "electoralDistricts": [
          {
            "election": null,
            "id": 93,
            "name": "Scarborough—Agincourt"
          }
        ],
        "pollDivisionIds": [
          10141526
        ],
        "postalCode": "M1W1C9",
        "streetName": "HEPSCOTT",
        "streetDirectionId": null,
        "streetTypeId": "TERR",
        "placeName": "SCARBOROUGH",
        "streetNameDisplayText": "HEPSCOTT TERR, SCARBOROUGH"
      }
    ]
  },
  {
    "postal": "M1W3B5",
    "result": [
      {
        "electoralDistricts": [
          {
            "election": null,
            "id": 93,
            "name": "Scarborough—Agincourt"
          }
        ],
        "pollDivisionIds": [
          10141513
        ],
        "postalCode": "M1W3B5",
        "streetName": "CRAYFORD",
        "streetDirectionId": null,
        "streetTypeId": "DR",
        "placeName": "SCARBOROUGH",
        "streetNameDisplayText": "CRAYFORD DR, SCARBOROUGH"
      }
    ]
  },
  {
    "postal": "M1W8R0",
    "result": []
  },
  {
    "postal": "M1W3P2",
    "result": []
  },
  {
    "postal": "M1W5V4",
    "result": []
  },
  {
    "postal": "M1W4H0",
    "result": []
  },
  {
    "postal": "M1W4S7",
    "result": []
  },
  {
    "postal": "M1W6C2",
    "result": []
  },
  {
    "postal": "M1W8W3",
    "result": []
  },
  {
    "postal": "M1W4M5",
    "result": []
  },
  {
    "postal": "M1W5T1",
    "result": []
  },
  {
    "postal": "M1W3B3",
    "result": [
      {
        "electoralDistricts": [
          {
            "election": null,
            "id": 93,
            "name": "Scarborough—Agincourt"
          }
        ],
        "pollDivisionIds": [
          10141513
        ],
        "postalCode": "M1W3B3",
        "streetName": "LAMBETH",
        "streetDirectionId": null,
        "streetTypeId": "SQ",
        "placeName": "SCARBOROUGH",
        "streetNameDisplayText": "LAMBETH SQ, SCARBOROUGH"
      }
    ]
  },
  {
    "postal": "M1W6C6",
    "result": []
  },
  {
    "postal": "M1W7N8",
    "result": []
  },
  {
    "postal": "M1W2Y3",
    "result": [
      {
        "electoralDistricts": [
          {
            "election": null,
            "id": 93,
            "name": "Scarborough—Agincourt"
          }
        ],
        "pollDivisionIds": [
          10141513
        ],
        "postalCode": "M1W2Y3",
        "streetName": "ECCLESFIELD",
        "streetDirectionId": null,
        "streetTypeId": "DR",
        "placeName": "SCARBOROUGH",
        "streetNameDisplayText": "ECCLESFIELD DR, SCARBOROUGH"
      }
    ]
  },
  {
    "postal": "M1W2R6",
    "result": [
      {
        "electoralDistricts": [
          {
            "election": null,
            "id": 93,
            "name": "Scarborough—Agincourt"
          }
        ],
        "pollDivisionIds": [
          10141524
        ],
        "postalCode": "M1W2R6",
        "streetName": "FINCH",
        "streetDirectionId": "E",
        "streetTypeId": "AVE",
        "placeName": "SCARBOROUGH",
        "streetNameDisplayText": "FINCH AVE E, SCARBOROUGH"
      }
    ]
  },
  {
    "postal": "M1W7N3",
    "result": []
  },
  {
    "postal": "M1W8J2",
    "result": []
  },
  {
    "postal": "M1W6A9",
    "result": []
  },
  {
    "postal": "M1W3V2",
    "result": [
      {
        "electoralDistricts": [
          {
            "election": null,
            "id": 93,
            "name": "Scarborough—Agincourt"
          }
        ],
        "pollDivisionIds": [
          10141517
        ],
        "postalCode": "M1W3V2",
        "streetName": "SYLVESTRE",
        "streetDirectionId": null,
        "streetTypeId": "SQ",
        "placeName": "SCARBOROUGH",
        "streetNameDisplayText": "SYLVESTRE SQ, SCARBOROUGH"
      }
    ]
  },
  {
    "postal": "M1W2N3",
    "result": [
      {
        "electoralDistricts": [
          {
            "election": null,
            "id": 93,
            "name": "Scarborough—Agincourt"
          }
        ],
        "pollDivisionIds": [
          10141520
        ],
        "postalCode": "M1W2N3",
        "streetName": "CHESTER LE",
        "streetDirectionId": null,
        "streetTypeId": "BLVD",
        "placeName": "SCARBOROUGH",
        "streetNameDisplayText": "CHESTER LE BLVD, SCARBOROUGH"
      }
    ]
  },
  {
    "postal": "M1W1S5",
    "result": [
      {
        "electoralDistricts": [
          {
            "election": null,
            "id": 93,
            "name": "Scarborough—Agincourt"
          }
        ],
        "pollDivisionIds": [
          10141527
        ],
        "postalCode": "M1W1S5",
        "streetName": "ALLANGROVE",
        "streetDirectionId": null,
        "streetTypeId": "CRES",
        "placeName": "SCARBOROUGH",
        "streetNameDisplayText": "ALLANGROVE CRES, SCARBOROUGH"
      }
    ]
  },
  {
    "postal": "M1W4T7",
    "result": []
  },
  {
    "postal": "M1W6Y7",
    "result": []
  },
  {
    "postal": "M1W0W7",
    "result": []
  },
  {
    "postal": "M1W2W9",
    "result": [
      {
        "electoralDistricts": [
          {
            "election": null,
            "id": 93,
            "name": "Scarborough—Agincourt"
          }
        ],
        "pollDivisionIds": [
          10141514
        ],
        "postalCode": "M1W2W9",
        "streetName": "MOSSBROOK",
        "streetDirectionId": null,
        "streetTypeId": "CRES",
        "placeName": "SCARBOROUGH",
        "streetNameDisplayText": "MOSSBROOK CRES, SCARBOROUGH"
      }
    ]
  },
  {
    "postal": "M1W8V0",
    "result": []
  },
  {
    "postal": "M1W0H4",
    "result": []
  },
  {
    "postal": "M1W2T1",
    "result": [
      {
        "electoralDistricts": [
          {
            "election": null,
            "id": 93,
            "name": "Scarborough—Agincourt"
          }
        ],
        "pollDivisionIds": [
          10141544
        ],
        "postalCode": "M1W2T1",
        "streetName": "BRIDLETOWNE",
        "streetDirectionId": null,
        "streetTypeId": "CIR",
        "placeName": "SCARBOROUGH",
        "streetNameDisplayText": "BRIDLETOWNE CIR, SCARBOROUGH"
      }
    ]
  },
  {
    "postal": "M1W1B1",
    "result": [
      {
        "electoralDistricts": [
          {
            "election": null,
            "id": 93,
            "name": "Scarborough—Agincourt"
          }
        ],
        "pollDivisionIds": [
          10141526
        ],
        "postalCode": "M1W1B1",
        "streetName": "FAIRGLEN",
        "streetDirectionId": null,
        "streetTypeId": "AVE",
        "placeName": "SCARBOROUGH",
        "streetNameDisplayText": "FAIRGLEN AVE, SCARBOROUGH"
      }
    ]
  },
  {
    "postal": "M1W8B6",
    "result": []
  },
  {
    "postal": "M1W6H1",
    "result": []
  },
  {
    "postal": "M1W8T8",
    "result": []
  },
  {
    "postal": "M1W0T4",
    "result": []
  },
  {
    "postal": "M1W2C4",
    "result": [
      {
        "electoralDistricts": [
          {
            "election": null,
            "id": 93,
            "name": "Scarborough—Agincourt"
          }
        ],
        "pollDivisionIds": [
          10141528
        ],
        "postalCode": "M1W2C4",
        "streetName": "GLOXINIA",
        "streetDirectionId": null,
        "streetTypeId": "CRES",
        "placeName": "SCARBOROUGH",
        "streetNameDisplayText": "GLOXINIA CRES, SCARBOROUGH"
      }
    ]
  },
  {
    "postal": "M1W8N3",
    "result": []
  },
  {
    "postal": "M1W4L8",
    "result": []
  },
  {
    "postal": "M1W2B5",
    "result": [
      {
        "electoralDistricts": [
          {
            "election": null,
            "id": 93,
            "name": "Scarborough—Agincourt"
          }
        ],
        "pollDivisionIds": [
          10141528
        ],
        "postalCode": "M1W2B5",
        "streetName": "TEMPLE BAR",
        "streetDirectionId": null,
        "streetTypeId": "CRES",
        "placeName": "SCARBOROUGH",
        "streetNameDisplayText": "TEMPLE BAR CRES, SCARBOROUGH"
      }
    ]
  },
  {
    "postal": "M1W3H1",
    "result": [
      {
        "electoralDistricts": [
          {
            "election": null,
            "id": 93,
            "name": "Scarborough—Agincourt"
          }
        ],
        "pollDivisionIds": [
          10141517
        ],
        "postalCode": "M1W3H1",
        "streetName": "FUNDY BAY",
        "streetDirectionId": null,
        "streetTypeId": "BLVD",
        "placeName": "SCARBOROUGH",
        "streetNameDisplayText": "FUNDY BAY BLVD, SCARBOROUGH"
      }
    ]
  },
  {
    "postal": "M1W4Y1",
    "result": []
  },
  {
    "postal": "M1W7E2",
    "result": []
  },
  {
    "postal": "M1W2P5",
    "result": [
      {
        "electoralDistricts": [
          {
            "election": null,
            "id": 93,
            "name": "Scarborough—Agincourt"
          }
        ],
        "pollDivisionIds": [
          10141528
        ],
        "postalCode": "M1W2P5",
        "streetName": "BIRCHMOUNT",
        "streetDirectionId": null,
        "streetTypeId": "RD",
        "placeName": "SCARBOROUGH",
        "streetNameDisplayText": "BIRCHMOUNT RD, SCARBOROUGH"
      }
    ]
  },
  {
    "postal": "M1W8R7",
    "result": []
  },
  {
    "postal": "M1W9P1",
    "result": []
  },
  {
    "postal": "M1W3B8",
    "result": [
      {
        "electoralDistricts": [
          {
            "election": null,
            "id": 93,
            "name": "Scarborough—Agincourt"
          }
        ],
        "pollDivisionIds": [
          10141519
        ],
        "postalCode": "M1W3B8",
        "streetName": "AMBERCROFT",
        "streetDirectionId": null,
        "streetTypeId": "BLVD",
        "placeName": "SCARBOROUGH",
        "streetNameDisplayText": "AMBERCROFT BLVD, SCARBOROUGH"
      }
    ]
  },
  {
    "postal": "M1W3P7",
    "result": [
      {
        "electoralDistricts": [
          {
            "election": null,
            "id": 93,
            "name": "Scarborough—Agincourt"
          }
        ],
        "pollDivisionIds": [
          10141522
        ],
        "postalCode": "M1W3P7",
        "streetName": "FINCH",
        "streetDirectionId": "E",
        "streetTypeId": "AVE",
        "placeName": "SCARBOROUGH",
        "streetNameDisplayText": "FINCH AVE E, SCARBOROUGH"
      }
    ]
  },
  {
    "postal": "M1W9B2",
    "result": []
  },
  {
    "postal": "M1W6Z3",
    "result": []
  },
  {
    "postal": "M1W4N5",
    "result": []
  },
  {
    "postal": "M1W8T3",
    "result": []
  },
  {
    "postal": "M1W1V2",
    "result": [
      {
        "electoralDistricts": [
          {
            "election": null,
            "id": 93,
            "name": "Scarborough—Agincourt"
          }
        ],
        "pollDivisionIds": [
          10141522
        ],
        "postalCode": "M1W1V2",
        "streetName": "FOXWOOD",
        "streetDirectionId": null,
        "streetTypeId": "GROVE",
        "placeName": "SCARBOROUGH",
        "streetNameDisplayText": "FOXWOOD GROVE, SCARBOROUGH"
      }
    ]
  },
  {
    "postal": "M1W1Y0",
    "result": []
  },
  {
    "postal": "M1W3G6",
    "result": [
      {
        "electoralDistricts": [
          {
            "election": null,
            "id": 93,
            "name": "Scarborough—Agincourt"
          }
        ],
        "pollDivisionIds": [
          10141513
        ],
        "postalCode": "M1W3G6",
        "streetName": "HUNTSMILL",
        "streetDirectionId": null,
        "streetTypeId": "BLVD",
        "placeName": "SCARBOROUGH",
        "streetNameDisplayText": "HUNTSMILL BLVD, SCARBOROUGH"
      }
    ]
  },
  {
    "postal": "M1W3H7",
    "result": [
      {
        "electoralDistricts": [
          {
            "election": null,
            "id": 93,
            "name": "Scarborough—Agincourt"
          }
        ],
        "pollDivisionIds": [
          10141517
        ],
        "postalCode": "M1W3H7",
        "streetName": "SEAGRAVE",
        "streetDirectionId": null,
        "streetTypeId": "CRES",
        "placeName": "SCARBOROUGH",
        "streetNameDisplayText": "SEAGRAVE CRES, SCARBOROUGH"
      }
    ]
  },
  {
    "postal": "M1W7X8",
    "result": []
  },
  {
    "postal": "M1W0C7",
    "result": []
  },
  {
    "postal": "M1W0W9",
    "result": []
  },
  {
    "postal": "M1W8E6",
    "result": []
  },
  {
    "postal": "M1W9Z8",
    "result": []
  },
  {
    "postal": "M1W3P4",
    "result": []
  },
  {
    "postal": "M1W6L8",
    "result": []
  },
  {
    "postal": "M1W2R4",
    "result": [
      {
        "electoralDistricts": [
          {
            "election": null,
            "id": 93,
            "name": "Scarborough—Agincourt"
          }
        ],
        "pollDivisionIds": [
          10141526
        ],
        "postalCode": "M1W2R4",
        "streetName": "SESAME",
        "streetDirectionId": null,
        "streetTypeId": "ST",
        "placeName": "SCARBOROUGH",
        "streetNameDisplayText": "SESAME ST, SCARBOROUGH"
      }
    ]
  },
  {
    "postal": "M1W2W1",
    "result": [
      {
        "electoralDistricts": [
          {
            "election": null,
            "id": 93,
            "name": "Scarborough—Agincourt"
          }
        ],
        "pollDivisionIds": [
          10141514
        ],
        "postalCode": "M1W2W1",
        "streetName": "HUNTSMILL",
        "streetDirectionId": null,
        "streetTypeId": "BLVD",
        "placeName": "SCARBOROUGH",
        "streetNameDisplayText": "HUNTSMILL BLVD, SCARBOROUGH"
      }
    ]
  },
  {
    "postal": "M1W9H8",
    "result": []
  },
  {
    "postal": "M1W8X9",
    "result": []
  },
  {
    "postal": "M1W7H4",
    "result": []
  },
  {
    "postal": "M1W3J1",
    "result": [
      {
        "electoralDistricts": [
          {
            "election": null,
            "id": 93,
            "name": "Scarborough—Agincourt"
          }
        ],
        "pollDivisionIds": [
          10141517
        ],
        "postalCode": "M1W3J1",
        "streetName": "INNISLAWN",
        "streetDirectionId": null,
        "streetTypeId": "RD",
        "placeName": "SCARBOROUGH",
        "streetNameDisplayText": "INNISLAWN RD, SCARBOROUGH"
      }
    ]
  },
  {
    "postal": "M1W1P4",
    "result": [
      {
        "electoralDistricts": [
          {
            "election": null,
            "id": 93,
            "name": "Scarborough—Agincourt"
          }
        ],
        "pollDivisionIds": [
          10141527
        ],
        "postalCode": "M1W1P4",
        "streetName": "LONGFORD",
        "streetDirectionId": null,
        "streetTypeId": "CRES",
        "placeName": "SCARBOROUGH",
        "streetNameDisplayText": "LONGFORD CRES, SCARBOROUGH"
      }
    ]
  },
  {
    "postal": "M1W2A3",
    "result": [
      {
        "electoralDistricts": [
          {
            "election": null,
            "id": 93,
            "name": "Scarborough—Agincourt"
          }
        ],
        "pollDivisionIds": [
          10141528
        ],
        "postalCode": "M1W2A3",
        "streetName": "TIMBERBANK",
        "streetDirectionId": null,
        "streetTypeId": "BLVD",
        "placeName": "SCARBOROUGH",
        "streetNameDisplayText": "TIMBERBANK BLVD, SCARBOROUGH"
      }
    ]
  },
  {
    "postal": "M1W0Z1",
    "result": []
  },
  {
    "postal": "M1W1C1",
    "result": [
      {
        "electoralDistricts": [
          {
            "election": null,
            "id": 93,
            "name": "Scarborough—Agincourt"
          }
        ],
        "pollDivisionIds": [
          10141526
        ],
        "postalCode": "M1W1C1",
        "streetName": "FERNCREST",
        "streetDirectionId": null,
        "streetTypeId": "GATE",
        "placeName": "SCARBOROUGH",
        "streetNameDisplayText": "FERNCREST GATE, SCARBOROUGH"
      }
    ]
  },
  {
    "postal": "M1W0H3",
    "result": []
  },
  {
    "postal": "M1W7B0",
    "result": []
  },
  {
    "postal": "M1W5K2",
    "result": []
  },
  {
    "postal": "M1W1E9",
    "result": [
      {
        "electoralDistricts": [
          {
            "election": null,
            "id": 93,
            "name": "Scarborough—Agincourt"
          }
        ],
        "pollDivisionIds": [
          10141527
        ],
        "postalCode": "M1W1E9",
        "streetName": "HUNTINGWOOD",
        "streetDirectionId": null,
        "streetTypeId": "DR",
        "placeName": "SCARBOROUGH",
        "streetNameDisplayText": "HUNTINGWOOD DR, SCARBOROUGH"
      }
    ]
  },
  {
    "postal": "M1W9W7",
    "result": []
  },
  {
    "postal": "M1W5W6",
    "result": []
  },
  {
    "postal": "M1W6S6",
    "result": []
  },
  {
    "postal": "M1W2P8",
    "result": [
      {
        "electoralDistricts": [
          {
            "election": null,
            "id": 93,
            "name": "Scarborough—Agincourt"
          }
        ],
        "pollDivisionIds": [
          10141513
        ],
        "postalCode": "M1W2P8",
        "streetName": "PHARMACY",
        "streetDirectionId": null,
        "streetTypeId": "AVE",
        "placeName": "SCARBOROUGH",
        "streetNameDisplayText": "PHARMACY AVE, SCARBOROUGH"
      }
    ]
  },
  {
    "postal": "M1W4P8",
    "result": []
  },
  {
    "postal": "M1W0V9",
    "result": []
  },
  {
    "postal": "M1W5Y2",
    "result": []
  },
  {
    "postal": "M1W7Z7",
    "result": []
  },
  {
    "postal": "M1W6Y8",
    "result": []
  },
  {
    "postal": "M1W2G7",
    "result": [
      {
        "electoralDistricts": [
          {
            "election": null,
            "id": 93,
            "name": "Scarborough—Agincourt"
          }
        ],
        "pollDivisionIds": [
          10141524
        ],
        "postalCode": "M1W2G7",
        "streetName": "LA PEER",
        "streetDirectionId": null,
        "streetTypeId": "BLVD",
        "placeName": "SCARBOROUGH",
        "streetNameDisplayText": "LA PEER BLVD, SCARBOROUGH"
      }
    ]
  },
  {
    "postal": "M1W8C1",
    "result": []
  },
  {
    "postal": "M1W5C5",
    "result": []
  },
  {
    "postal": "M1W2X8",
    "result": [
      {
        "electoralDistricts": [
          {
            "election": null,
            "id": 93,
            "name": "Scarborough—Agincourt"
          }
        ],
        "pollDivisionIds": [
          10141528
        ],
        "postalCode": "M1W2X8",
        "streetName": "STONEHILL",
        "streetDirectionId": null,
        "streetTypeId": "CRT",
        "placeName": "SCARBOROUGH",
        "streetNameDisplayText": "STONEHILL CRT, SCARBOROUGH"
      }
    ]
  },
  {
    "postal": "M1W1W5",
    "result": [
      {
        "electoralDistricts": [
          {
            "election": null,
            "id": 93,
            "name": "Scarborough—Agincourt"
          }
        ],
        "pollDivisionIds": [
          10141522
        ],
        "postalCode": "M1W1W5",
        "streetName": "BEVERLY GLEN",
        "streetDirectionId": null,
        "streetTypeId": "BLVD",
        "placeName": "SCARBOROUGH",
        "streetNameDisplayText": "BEVERLY GLEN BLVD, SCARBOROUGH"
      }
    ]
  },
  {
    "postal": "M1W7G0",
    "result": []
  },
  {
    "postal": "M1W8J8",
    "result": []
  },
  {
    "postal": "M1W3Y0",
    "result": []
  },
  {
    "postal": "M1W9T7",
    "result": []
  },
  {
    "postal": "M1W5P4",
    "result": []
  },
  {
    "postal": "M1W4B0",
    "result": []
  },
  {
    "postal": "M1W9N8",
    "result": []
  },
  {
    "postal": "M1W4A7",
    "result": [
      {
        "electoralDistricts": [
          {
            "election": null,
            "id": 93,
            "name": "Scarborough—Agincourt"
          }
        ],
        "pollDivisionIds": [
          10141522
        ],
        "postalCode": "M1W4A7",
        "streetName": "STONEBRIDGE",
        "streetDirectionId": null,
        "streetTypeId": "BLVD",
        "placeName": "SCARBOROUGH",
        "streetNameDisplayText": "STONEBRIDGE BLVD, SCARBOROUGH"
      }
    ]
  },
  {
    "postal": "M1W4H9",
    "result": []
  },
  {
    "postal": "M1W6X1",
    "result": []
  },
  {
    "postal": "M1W9Y7",
    "result": []
  },
  {
    "postal": "M1W2Y5",
    "result": [
      {
        "electoralDistricts": [
          {
            "election": null,
            "id": 93,
            "name": "Scarborough—Agincourt"
          }
        ],
        "pollDivisionIds": [
          10141524
        ],
        "postalCode": "M1W2Y5",
        "streetName": "BROOKMILL",
        "streetDirectionId": null,
        "streetTypeId": "BLVD",
        "placeName": "SCARBOROUGH",
        "streetNameDisplayText": "BROOKMILL BLVD, SCARBOROUGH"
      }
    ]
  },
  {
    "postal": "M1W8L7",
    "result": []
  },
  {
    "postal": "M1W2A8",
    "result": [
      {
        "electoralDistricts": [
          {
            "election": null,
            "id": 93,
            "name": "Scarborough—Agincourt"
          }
        ],
        "pollDivisionIds": [
          10141528
        ],
        "postalCode": "M1W2A8",
        "streetName": "TIMBERBANK",
        "streetDirectionId": null,
        "streetTypeId": "BLVD",
        "placeName": "SCARBOROUGH",
        "streetNameDisplayText": "TIMBERBANK BLVD, SCARBOROUGH"
      }
    ]
  },
  {
    "postal": "M1W2K9",
    "result": [
      {
        "electoralDistricts": [
          {
            "election": null,
            "id": 93,
            "name": "Scarborough—Agincourt"
          }
        ],
        "pollDivisionIds": [
          10141520
        ],
        "postalCode": "M1W2K9",
        "streetName": "CHESTER LE",
        "streetDirectionId": null,
        "streetTypeId": "BLVD",
        "placeName": "SCARBOROUGH",
        "streetNameDisplayText": "CHESTER LE BLVD, SCARBOROUGH"
      }
    ]
  },
  {
    "postal": "M1W3E5",
    "result": [
      {
        "electoralDistricts": [
          {
            "election": null,
            "id": 93,
            "name": "Scarborough—Agincourt"
          }
        ],
        "pollDivisionIds": [
          10141513
        ],
        "postalCode": "M1W3E5",
        "streetName": "HUNTSMILL",
        "streetDirectionId": null,
        "streetTypeId": "BLVD",
        "placeName": "SCARBOROUGH",
        "streetNameDisplayText": "HUNTSMILL BLVD, SCARBOROUGH"
      }
    ]
  },
  {
    "postal": "M1W8N6",
    "result": []
  },
  {
    "postal": "M1W8J4",
    "result": []
  },
  {
    "postal": "M1W4R7",
    "result": []
  },
  {
    "postal": "M1W9K1",
    "result": []
  },
  {
    "postal": "M1W8E1",
    "result": []
  },
  {
    "postal": "M1W0R1",
    "result": []
  },
  {
    "postal": "M1W4J3",
    "result": []
  },
  {
    "postal": "M1W7E7",
    "result": []
  },
  {
    "postal": "M1W0J0",
    "result": []
  },
  {
    "postal": "M1W7R8",
    "result": []
  },
  {
    "postal": "M1W9X0",
    "result": []
  },
  {
    "postal": "M1W7P6",
    "result": []
  },
  {
    "postal": "M1W0R7",
    "result": []
  },
  {
    "postal": "M1W5W1",
    "result": []
  },
  {
    "postal": "M1W0K4",
    "result": []
  },
  {
    "postal": "M1W7N9",
    "result": []
  },
  {
    "postal": "M1W1N0",
    "result": []
  },
  {
    "postal": "M1W6P3",
    "result": []
  },
  {
    "postal": "M1W5A1",
    "result": []
  },
  {
    "postal": "M1W9M9",
    "result": []
  },
  {
    "postal": "M1W7T6",
    "result": []
  },
  {
    "postal": "M1W3X0",
    "result": []
  },
  {
    "postal": "M1W2T0",
    "result": []
  },
  {
    "postal": "M1W5X9",
    "result": []
  },
  {
    "postal": "M1W2R3",
    "result": [
      {
        "electoralDistricts": [
          {
            "election": null,
            "id": 93,
            "name": "Scarborough—Agincourt"
          }
        ],
        "pollDivisionIds": [
          10141526
        ],
        "postalCode": "M1W2R3",
        "streetName": "SESAME",
        "streetDirectionId": null,
        "streetTypeId": "ST",
        "placeName": "SCARBOROUGH",
        "streetNameDisplayText": "SESAME ST, SCARBOROUGH"
      }
    ]
  },
  {
    "postal": "M1W5N2",
    "result": []
  },
  {
    "postal": "M1W4Y7",
    "result": []
  },
  {
    "postal": "M1W7M0",
    "result": []
  },
  {
    "postal": "M1W8P3",
    "result": []
  },
  {
    "postal": "M1W3N3",
    "result": [
      {
        "electoralDistricts": [
          {
            "election": null,
            "id": 93,
            "name": "Scarborough—Agincourt"
          }
        ],
        "pollDivisionIds": [
          10141514
        ],
        "postalCode": "M1W3N3",
        "streetName": "FRANK RIVERS",
        "streetDirectionId": null,
        "streetTypeId": "DR",
        "placeName": "SCARBOROUGH",
        "streetNameDisplayText": "FRANK RIVERS DR, SCARBOROUGH"
      }
    ]
  },
  {
    "postal": "M1W7S3",
    "result": []
  },
  {
    "postal": "M1W3V9",
    "result": []
  },
  {
    "postal": "M1W9N7",
    "result": []
  },
  {
    "postal": "M1W0G4",
    "result": []
  },
  {
    "postal": "M1W2E2",
    "result": [
      {
        "electoralDistricts": [
          {
            "election": null,
            "id": 93,
            "name": "Scarborough—Agincourt"
          }
        ],
        "pollDivisionIds": [
          10141524
        ],
        "postalCode": "M1W2E2",
        "streetName": "LOFTHOUSE",
        "streetDirectionId": null,
        "streetTypeId": "SQ",
        "placeName": "SCARBOROUGH",
        "streetNameDisplayText": "LOFTHOUSE SQ, SCARBOROUGH"
      }
    ]
  },
  {
    "postal": "M1W7W8",
    "result": []
  },
  {
    "postal": "M1W7M5",
    "result": []
  },
  {
    "postal": "M1W5W8",
    "result": []
  },
  {
    "postal": "M1W5E5",
    "result": []
  },
  {
    "postal": "M1W1P9",
    "result": [
      {
        "electoralDistricts": [
          {
            "election": null,
            "id": 93,
            "name": "Scarborough—Agincourt"
          }
        ],
        "pollDivisionIds": [
          10141527
        ],
        "postalCode": "M1W1P9",
        "streetName": "SPRUCEWOOD",
        "streetDirectionId": null,
        "streetTypeId": "CRT",
        "placeName": "SCARBOROUGH",
        "streetNameDisplayText": "SPRUCEWOOD CRT, SCARBOROUGH"
      }
    ]
  },
  {
    "postal": "M1W8V8",
    "result": []
  },
  {
    "postal": "M1W9G8",
    "result": []
  },
  {
    "postal": "M1W8H9",
    "result": []
  },
  {
    "postal": "M1W1Z1",
    "result": [
      {
        "electoralDistricts": [
          {
            "election": null,
            "id": 93,
            "name": "Scarborough—Agincourt"
          }
        ],
        "pollDivisionIds": [
          10141528
        ],
        "postalCode": "M1W1Z1",
        "streetName": "GARRYBROOK",
        "streetDirectionId": null,
        "streetTypeId": "DR",
        "placeName": "SCARBOROUGH",
        "streetNameDisplayText": "GARRYBROOK DR, SCARBOROUGH"
      }
    ]
  },
  {
    "postal": "M1W8M3",
    "result": []
  },
  {
    "postal": "M1W5H6",
    "result": []
  },
  {
    "postal": "M1W7W7",
    "result": []
  },
  {
    "postal": "M1W4L0",
    "result": []
  },
  {
    "postal": "M1W2N1",
    "result": [
      {
        "electoralDistricts": [
          {
            "election": null,
            "id": 93,
            "name": "Scarborough—Agincourt"
          }
        ],
        "pollDivisionIds": [
          10141513,
          10141520
        ],
        "postalCode": "M1W2N1",
        "streetName": "CHESTER LE",
        "streetDirectionId": null,
        "streetTypeId": "BLVD",
        "placeName": "SCARBOROUGH",
        "streetNameDisplayText": "CHESTER LE BLVD, SCARBOROUGH"
      }
    ]
  },
  {
    "postal": "M1W2H4",
    "result": [
      {
        "electoralDistricts": [
          {
            "election": null,
            "id": 93,
            "name": "Scarborough—Agincourt"
          }
        ],
        "pollDivisionIds": [
          10141524
        ],
        "postalCode": "M1W2H4",
        "streetName": "LA PEER",
        "streetDirectionId": null,
        "streetTypeId": "BLVD",
        "placeName": "SCARBOROUGH",
        "streetNameDisplayText": "LA PEER BLVD, SCARBOROUGH"
      }
    ]
  },
  {
    "postal": "M1W5C8",
    "result": []
  },
  {
    "postal": "M1W8B0",
    "result": []
  },
  {
    "postal": "M1W1T4",
    "result": [
      {
        "electoralDistricts": [
          {
            "election": null,
            "id": 93,
            "name": "Scarborough—Agincourt"
          }
        ],
        "pollDivisionIds": [
          10141522
        ],
        "postalCode": "M1W1T4",
        "streetName": "REDBIRD",
        "streetDirectionId": null,
        "streetTypeId": "GATE",
        "placeName": "SCARBOROUGH",
        "streetNameDisplayText": "REDBIRD GATE, SCARBOROUGH"
      }
    ]
  },
  {
    "postal": "M1W7N7",
    "result": []
  },
  {
    "postal": "M1W4L3",
    "result": []
  },
  {
    "postal": "M1W2N2",
    "result": [
      {
        "electoralDistricts": [
          {
            "election": null,
            "id": 93,
            "name": "Scarborough—Agincourt"
          }
        ],
        "pollDivisionIds": [
          10141520
        ],
        "postalCode": "M1W2N2",
        "streetName": "DUSAY",
        "streetDirectionId": null,
        "streetTypeId": "PL",
        "placeName": "SCARBOROUGH",
        "streetNameDisplayText": "DUSAY PL, SCARBOROUGH"
      }
    ]
  },
  {
    "postal": "M1W4N8",
    "result": []
  },
  {
    "postal": "M1W3M5",
    "result": [
      {
        "electoralDistricts": [
          {
            "election": null,
            "id": 93,
            "name": "Scarborough—Agincourt"
          }
        ],
        "pollDivisionIds": [
          10141517
        ],
        "postalCode": "M1W3M5",
        "streetName": "WINTERMUTE",
        "streetDirectionId": null,
        "streetTypeId": "BLVD",
        "placeName": "SCARBOROUGH",
        "streetNameDisplayText": "WINTERMUTE BLVD, SCARBOROUGH"
      }
    ]
  },
  {
    "postal": "M1W6H7",
    "result": []
  },
  {
    "postal": "M1W8Y8",
    "result": []
  },
  {
    "postal": "M1W5R9",
    "result": []
  },
  {
    "postal": "M1W8G3",
    "result": []
  },
  {
    "postal": "M1W4N7",
    "result": []
  },
  {
    "postal": "M1W0B9",
    "result": []
  },
  {
    "postal": "M1W9K7",
    "result": []
  },
  {
    "postal": "M1W9K9",
    "result": []
  },
  {
    "postal": "M1W3Z2",
    "result": []
  },
  {
    "postal": "M1W6W7",
    "result": []
  },
  {
    "postal": "M1W0P1",
    "result": []
  },
  {
    "postal": "M1W3A0",
    "result": []
  },
  {
    "postal": "M1W8L9",
    "result": []
  },
  {
    "postal": "M1W6X0",
    "result": []
  },
  {
    "postal": "M1W3E9",
    "result": [
      {
        "electoralDistricts": [
          {
            "election": null,
            "id": 93,
            "name": "Scarborough—Agincourt"
          }
        ],
        "pollDivisionIds": [
          10141517
        ],
        "postalCode": "M1W3E9",
        "streetName": "AMBERCROFT",
        "streetDirectionId": null,
        "streetTypeId": "BLVD",
        "placeName": "SCARBOROUGH",
        "streetNameDisplayText": "AMBERCROFT BLVD, SCARBOROUGH"
      }
    ]
  },
  {
    "postal": "M1W0S5",
    "result": []
  },
  {
    "postal": "M1W1A2",
    "result": [
      {
        "electoralDistricts": [
          {
            "election": null,
            "id": 93,
            "name": "Scarborough—Agincourt"
          }
        ],
        "pollDivisionIds": [
          10141526
        ],
        "postalCode": "M1W1A2",
        "streetName": "HUNTINGWOOD",
        "streetDirectionId": null,
        "streetTypeId": "DR",
        "placeName": "SCARBOROUGH",
        "streetNameDisplayText": "HUNTINGWOOD DR, SCARBOROUGH"
      }
    ]
  },
  {
    "postal": "M1W5V8",
    "result": []
  },
  {
    "postal": "M1W8C5",
    "result": []
  },
  {
    "postal": "M1W6N0",
    "result": []
  },
  {
    "postal": "M1W9E6",
    "result": []
  },
  {
    "postal": "M1W5J7",
    "result": []
  },
  {
    "postal": "M1W2R2",
    "result": [
      {
        "electoralDistricts": [
          {
            "election": null,
            "id": 93,
            "name": "Scarborough—Agincourt"
          }
        ],
        "pollDivisionIds": [
          10141526
        ],
        "postalCode": "M1W2R2",
        "streetName": "LEAFIELD",
        "streetDirectionId": null,
        "streetTypeId": "DR",
        "placeName": "SCARBOROUGH",
        "streetNameDisplayText": "LEAFIELD DR, SCARBOROUGH"
      }
    ]
  },
  {
    "postal": "M1W0P5",
    "result": []
  },
  {
    "postal": "M1W5A7",
    "result": []
  },
  {
    "postal": "M1W1G1",
    "result": [
      {
        "electoralDistricts": [
          {
            "election": null,
            "id": 93,
            "name": "Scarborough—Agincourt"
          }
        ],
        "pollDivisionIds": [
          10141532
        ],
        "postalCode": "M1W1G1",
        "streetName": "HUNTINGWOOD",
        "streetDirectionId": null,
        "streetTypeId": "DR",
        "placeName": "SCARBOROUGH",
        "streetNameDisplayText": "HUNTINGWOOD DR, SCARBOROUGH"
      }
    ]
  },
  {
    "postal": "M1W9R6",
    "result": []
  },
  {
    "postal": "M1W4Z9",
    "result": []
  },
  {
    "postal": "M1W1V5",
    "result": [
      {
        "electoralDistricts": [
          {
            "election": null,
            "id": 93,
            "name": "Scarborough—Agincourt"
          }
        ],
        "pollDivisionIds": [
          10141522
        ],
        "postalCode": "M1W1V5",
        "streetName": "SILVER SPRUCE",
        "streetDirectionId": null,
        "streetTypeId": "DR",
        "placeName": "SCARBOROUGH",
        "streetNameDisplayText": "SILVER SPRUCE DR, SCARBOROUGH"
      }
    ]
  },
  {
    "postal": "M1W9Y5",
    "result": []
  },
  {
    "postal": "M1W1P2",
    "result": [
      {
        "electoralDistricts": [
          {
            "election": null,
            "id": 93,
            "name": "Scarborough—Agincourt"
          }
        ],
        "pollDivisionIds": [
          10141527
        ],
        "postalCode": "M1W1P2",
        "streetName": "PINEMEADOW",
        "streetDirectionId": null,
        "streetTypeId": "BLVD",
        "placeName": "SCARBOROUGH",
        "streetNameDisplayText": "PINEMEADOW BLVD, SCARBOROUGH"
      }
    ]
  },
  {
    "postal": "M1W5X0",
    "result": []
  },
  {
    "postal": "M1W7B8",
    "result": []
  },
  {
    "postal": "M1W0C6",
    "result": []
  },
  {
    "postal": "M1W6G1",
    "result": []
  },
  {
    "postal": "M1W3K3",
    "result": [
      {
        "electoralDistricts": [
          {
            "election": null,
            "id": 93,
            "name": "Scarborough—Agincourt"
          }
        ],
        "pollDivisionIds": [
          10141524
        ],
        "postalCode": "M1W3K3",
        "streetName": "BIRCHMOUNT",
        "streetDirectionId": null,
        "streetTypeId": "RD",
        "placeName": "SCARBOROUGH",
        "streetNameDisplayText": "BIRCHMOUNT RD, SCARBOROUGH"
      }
    ]
  },
  {
    "postal": "M1W9R0",
    "result": []
  },
  {
    "postal": "M1W4R8",
    "result": []
  },
  {
    "postal": "M1W5P9",
    "result": []
  },
  {
    "postal": "M1W8N4",
    "result": []
  },
  {
    "postal": "M1W8H4",
    "result": []
  },
  {
    "postal": "M1W4V1",
    "result": []
  },
  {
    "postal": "M1W1K5",
    "result": [
      {
        "electoralDistricts": [
          {
            "election": null,
            "id": 93,
            "name": "Scarborough—Agincourt"
          }
        ],
        "pollDivisionIds": [
          10141527
        ],
        "postalCode": "M1W1K5",
        "streetName": "ROSSCOWAN",
        "streetDirectionId": null,
        "streetTypeId": "CRES",
        "placeName": "SCARBOROUGH",
        "streetNameDisplayText": "ROSSCOWAN CRES, SCARBOROUGH"
      }
    ]
  },
  {
    "postal": "M1W1Z5",
    "result": [
      {
        "electoralDistricts": [
          {
            "election": null,
            "id": 93,
            "name": "Scarborough—Agincourt"
          }
        ],
        "pollDivisionIds": [
          10141528
        ],
        "postalCode": "M1W1Z5",
        "streetName": "TIMBERBANK",
        "streetDirectionId": null,
        "streetTypeId": "BLVD",
        "placeName": "SCARBOROUGH",
        "streetNameDisplayText": "TIMBERBANK BLVD, SCARBOROUGH"
      }
    ]
  },
  {
    "postal": "M1W9L9",
    "result": []
  },
  {
    "postal": "M1W5L2",
    "result": []
  },
  {
    "postal": "M1W0M2",
    "result": []
  },
  {
    "postal": "M1W1K8",
    "result": [
      {
        "electoralDistricts": [
          {
            "election": null,
            "id": 93,
            "name": "Scarborough—Agincourt"
          }
        ],
        "pollDivisionIds": [
          10141527
        ],
        "postalCode": "M1W1K8",
        "streetName": "SHELDONBURY",
        "streetDirectionId": null,
        "streetTypeId": "CRES",
        "placeName": "SCARBOROUGH",
        "streetNameDisplayText": "SHELDONBURY CRES, SCARBOROUGH"
      }
    ]
  },
  {
    "postal": "M1W3M7",
    "result": [
      {
        "electoralDistricts": [
          {
            "election": null,
            "id": 93,
            "name": "Scarborough—Agincourt"
          }
        ],
        "pollDivisionIds": [
          10141517
        ],
        "postalCode": "M1W3M7",
        "streetName": "WINTERMUTE",
        "streetDirectionId": null,
        "streetTypeId": "BLVD",
        "placeName": "SCARBOROUGH",
        "streetNameDisplayText": "WINTERMUTE BLVD, SCARBOROUGH"
      }
    ]
  },
  {
    "postal": "M1W1B2",
    "result": [
      {
        "electoralDistricts": [
          {
            "election": null,
            "id": 93,
            "name": "Scarborough—Agincourt"
          }
        ],
        "pollDivisionIds": [
          10141526
        ],
        "postalCode": "M1W1B2",
        "streetName": "CORINTHIAN",
        "streetDirectionId": null,
        "streetTypeId": "BLVD",
        "placeName": "SCARBOROUGH",
        "streetNameDisplayText": "CORINTHIAN BLVD, SCARBOROUGH"
      }
    ]
  },
  {
    "postal": "M1W0H9",
    "result": []
  },
  {
    "postal": "M1W8M4",
    "result": []
  },
  {
    "postal": "M1W2M5",
    "result": [
      {
        "electoralDistricts": [
          {
            "election": null,
            "id": 93,
            "name": "Scarborough—Agincourt"
          }
        ],
        "pollDivisionIds": [
          10141527
        ],
        "postalCode": "M1W2M5",
        "streetName": "AURORA",
        "streetDirectionId": null,
        "streetTypeId": "CRT",
        "placeName": "SCARBOROUGH",
        "streetNameDisplayText": "AURORA CRT, SCARBOROUGH"
      }
    ]
  },
  {
    "postal": "M1W0T9",
    "result": []
  },
  {
    "postal": "M1W3P1",
    "result": []
  },
  {
    "postal": "M1W1R6",
    "result": [
      {
        "electoralDistricts": [
          {
            "election": null,
            "id": 93,
            "name": "Scarborough—Agincourt"
          }
        ],
        "pollDivisionIds": [
          10141527
        ],
        "postalCode": "M1W1R6",
        "streetName": "KENMANOR",
        "streetDirectionId": null,
        "streetTypeId": "BLVD",
        "placeName": "SCARBOROUGH",
        "streetNameDisplayText": "KENMANOR BLVD, SCARBOROUGH"
      }
    ]
  },
  {
    "postal": "M1W9V5",
    "result": []
  },
  {
    "postal": "M1W9T0",
    "result": []
  },
  {
    "postal": "M1W0A9",
    "result": []
  },
  {
    "postal": "M1W1M3",
    "result": [
      {
        "electoralDistricts": [
          {
            "election": null,
            "id": 93,
            "name": "Scarborough—Agincourt"
          }
        ],
        "pollDivisionIds": [
          10141527
        ],
        "postalCode": "M1W1M3",
        "streetName": "COLLINGSBROOK",
        "streetDirectionId": null,
        "streetTypeId": "BLVD",
        "placeName": "SCARBOROUGH",
        "streetNameDisplayText": "COLLINGSBROOK BLVD, SCARBOROUGH"
      }
    ]
  },
  {
    "postal": "M1W1W8",
    "result": [
      {
        "electoralDistricts": [
          {
            "election": null,
            "id": 93,
            "name": "Scarborough—Agincourt"
          }
        ],
        "pollDivisionIds": [
          10141522
        ],
        "postalCode": "M1W1W8",
        "streetName": "BLAIRWOOD",
        "streetDirectionId": null,
        "streetTypeId": "TERR",
        "placeName": "SCARBOROUGH",
        "streetNameDisplayText": "BLAIRWOOD TERR, SCARBOROUGH"
      }
    ]
  },
  {
    "postal": "M1W9J1",
    "result": []
  },
  {
    "postal": "M1W8N5",
    "result": []
  },
  {
    "postal": "M1W5X1",
    "result": []
  },
  {
    "postal": "M1W6S2",
    "result": []
  },
  {
    "postal": "M1W2A2",
    "result": [
      {
        "electoralDistricts": [
          {
            "election": null,
            "id": 93,
            "name": "Scarborough—Agincourt"
          }
        ],
        "pollDivisionIds": [
          10141528
        ],
        "postalCode": "M1W2A2",
        "streetName": "TIMBERBANK",
        "streetDirectionId": null,
        "streetTypeId": "BLVD",
        "placeName": "SCARBOROUGH",
        "streetNameDisplayText": "TIMBERBANK BLVD, SCARBOROUGH"
      }
    ]
  },
  {
    "postal": "M1W6A6",
    "result": []
  },
  {
    "postal": "M1W0S3",
    "result": []
  },
  {
    "postal": "M1W3E7",
    "result": [
      {
        "electoralDistricts": [
          {
            "election": null,
            "id": 93,
            "name": "Scarborough—Agincourt"
          }
        ],
        "pollDivisionIds": [
          10141524
        ],
        "postalCode": "M1W3E7",
        "streetName": "BROOKMILL",
        "streetDirectionId": null,
        "streetTypeId": "BLVD",
        "placeName": "SCARBOROUGH",
        "streetNameDisplayText": "BROOKMILL BLVD, SCARBOROUGH"
      }
    ]
  },
  {
    "postal": "M1W5R7",
    "result": []
  },
  {
    "postal": "M1W3R6",
    "result": [
      {
        "electoralDistricts": [
          {
            "election": null,
            "id": 93,
            "name": "Scarborough—Agincourt"
          }
        ],
        "pollDivisionIds": [
          10141514
        ],
        "postalCode": "M1W3R6",
        "streetName": "MANILOW",
        "streetDirectionId": null,
        "streetTypeId": "ST",
        "placeName": "SCARBOROUGH",
        "streetNameDisplayText": "MANILOW ST, SCARBOROUGH"
      }
    ]
  },
  {
    "postal": "M1W6K4",
    "result": []
  },
  {
    "postal": "M1W2W5",
    "result": [
      {
        "electoralDistricts": [
          {
            "election": null,
            "id": 93,
            "name": "Scarborough—Agincourt"
          }
        ],
        "pollDivisionIds": [
          10141513
        ],
        "postalCode": "M1W2W5",
        "streetName": "HUNTSMILL",
        "streetDirectionId": null,
        "streetTypeId": "BLVD",
        "placeName": "SCARBOROUGH",
        "streetNameDisplayText": "HUNTSMILL BLVD, SCARBOROUGH"
      }
    ]
  },
  {
    "postal": "M1W8W4",
    "result": []
  },
  {
    "postal": "M1W9C2",
    "result": []
  },
  {
    "postal": "M1W2C0",
    "result": []
  },
  {
    "postal": "M1W0E1",
    "result": []
  },
  {
    "postal": "M1W1K9",
    "result": [
      {
        "electoralDistricts": [
          {
            "election": null,
            "id": 93,
            "name": "Scarborough—Agincourt"
          }
        ],
        "pollDivisionIds": [
          10141527
        ],
        "postalCode": "M1W1K9",
        "streetName": "SHELDONBURY",
        "streetDirectionId": null,
        "streetTypeId": "CRES",
        "placeName": "SCARBOROUGH",
        "streetNameDisplayText": "SHELDONBURY CRES, SCARBOROUGH"
      }
    ]
  },
  {
    "postal": "M1W1G7",
    "result": [
      {
        "electoralDistricts": [
          {
            "election": null,
            "id": 93,
            "name": "Scarborough—Agincourt"
          }
        ],
        "pollDivisionIds": [
          10141527
        ],
        "postalCode": "M1W1G7",
        "streetName": "HUNTINGWOOD",
        "streetDirectionId": null,
        "streetTypeId": "DR",
        "placeName": "SCARBOROUGH",
        "streetNameDisplayText": "HUNTINGWOOD DR, SCARBOROUGH"
      }
    ]
  },
  {
    "postal": "M1W4E9",
    "result": []
  },
  {
    "postal": "M1W9P0",
    "result": []
  },
  {
    "postal": "M1W5H3",
    "result": []
  },
  {
    "postal": "M1W9X6",
    "result": []
  },
  {
    "postal": "M1W5N7",
    "result": []
  },
  {
    "postal": "M1W5A6",
    "result": []
  },
  {
    "postal": "M1W4M0",
    "result": []
  },
  {
    "postal": "M1W3V6",
    "result": [
      {
        "electoralDistricts": [
          {
            "election": null,
            "id": 93,
            "name": "Scarborough—Agincourt"
          }
        ],
        "pollDivisionIds": [
          10141528
        ],
        "postalCode": "M1W3V6",
        "streetName": "BRIDLETOWNE",
        "streetDirectionId": null,
        "streetTypeId": "CIR",
        "placeName": "SCARBOROUGH",
        "streetNameDisplayText": "BRIDLETOWNE CIR, SCARBOROUGH"
      },
      {
        "electoralDistricts": [
          {
            "election": null,
            "id": 93,
            "name": "Scarborough—Agincourt"
          }
        ],
        "pollDivisionIds": [
          10141513
        ],
        "postalCode": "M1W3V6",
        "streetName": "BRINDLETOWNE",
        "streetDirectionId": null,
        "streetTypeId": "CIR",
        "placeName": "SCARBOROUGH",
        "streetNameDisplayText": "BRINDLETOWNE CIR, SCARBOROUGH"
      }
    ]
  },
  {
    "postal": "M1W1L7",
    "result": [
      {
        "electoralDistricts": [
          {
            "election": null,
            "id": 93,
            "name": "Scarborough—Agincourt"
          }
        ],
        "pollDivisionIds": [
          10141527
        ],
        "postalCode": "M1W1L7",
        "streetName": "COLLINGSBROOK",
        "streetDirectionId": null,
        "streetTypeId": "BLVD",
        "placeName": "SCARBOROUGH",
        "streetNameDisplayText": "COLLINGSBROOK BLVD, SCARBOROUGH"
      }
    ]
  },
  {
    "postal": "M1W2P9",
    "result": []
  },
  {
    "postal": "M1W5T4",
    "result": []
  },
  {
    "postal": "M1W5Z1",
    "result": []
  },
  {
    "postal": "M1W2X0",
    "result": []
  },
  {
    "postal": "M1W6Z2",
    "result": []
  },
  {
    "postal": "M1W0E0",
    "result": []
  },
  {
    "postal": "M1W3Z5",
    "result": [
      {
        "electoralDistricts": [
          {
            "election": null,
            "id": 93,
            "name": "Scarborough—Agincourt"
          }
        ],
        "pollDivisionIds": [
          10141513
        ],
        "postalCode": "M1W3Z5",
        "streetName": "VICTORIA PARK",
        "streetDirectionId": null,
        "streetTypeId": "AVE",
        "placeName": "SCARBOROUGH",
        "streetNameDisplayText": "VICTORIA PARK AVE, SCARBOROUGH"
      }
    ]
  },
  {
    "postal": "M1W8H3",
    "result": []
  },
  {
    "postal": "M1W7S6",
    "result": []
  },
  {
    "postal": "M1W4C1",
    "result": [
      {
        "electoralDistricts": [
          {
            "election": null,
            "id": 93,
            "name": "Scarborough—Agincourt"
          }
        ],
        "pollDivisionIds": [
          10141527
        ],
        "postalCode": "M1W4C1",
        "streetName": "FINCH",
        "streetDirectionId": "E",
        "streetTypeId": "AVE",
        "placeName": "SCARBOROUGH",
        "streetNameDisplayText": "FINCH AVE E, SCARBOROUGH"
      }
    ]
  },
  {
    "postal": "M1W3K2",
    "result": [
      {
        "electoralDistricts": [
          {
            "election": null,
            "id": 93,
            "name": "Scarborough—Agincourt"
          }
        ],
        "pollDivisionIds": [
          10141519
        ],
        "postalCode": "M1W3K2",
        "streetName": "BIRDWOOD",
        "streetDirectionId": null,
        "streetTypeId": "CRT",
        "placeName": "SCARBOROUGH",
        "streetNameDisplayText": "BIRDWOOD CRT, SCARBOROUGH"
      }
    ]
  },
  {
    "postal": "M1W1Y5",
    "result": [
      {
        "electoralDistricts": [
          {
            "election": null,
            "id": 93,
            "name": "Scarborough—Agincourt"
          }
        ],
        "pollDivisionIds": [
          10141528
        ],
        "postalCode": "M1W1Y5",
        "streetName": "KIMBERDALE",
        "streetDirectionId": null,
        "streetTypeId": "CRES",
        "placeName": "SCARBOROUGH",
        "streetNameDisplayText": "KIMBERDALE CRES, SCARBOROUGH"
      }
    ]
  },
  {
    "postal": "M1W6P6",
    "result": []
  },
  {
    "postal": "M1W3N9",
    "result": [
      {
        "electoralDistricts": [
          {
            "election": null,
            "id": 93,
            "name": "Scarborough—Agincourt"
          }
        ],
        "pollDivisionIds": [
          10141517
        ],
        "postalCode": "M1W3N9",
        "streetName": "WINTERMUTE",
        "streetDirectionId": null,
        "streetTypeId": "BLVD",
        "placeName": "SCARBOROUGH",
        "streetNameDisplayText": "WINTERMUTE BLVD, SCARBOROUGH"
      }
    ]
  },
  {
    "postal": "M1W3W2",
    "result": [
      {
        "electoralDistricts": [
          {
            "election": null,
            "id": 93,
            "name": "Scarborough—Agincourt"
          }
        ],
        "pollDivisionIds": [
          10141515
        ],
        "postalCode": "M1W3W2",
        "streetName": "BAMBURGH",
        "streetDirectionId": null,
        "streetTypeId": "CIR",
        "placeName": "SCARBOROUGH",
        "streetNameDisplayText": "BAMBURGH CIR, SCARBOROUGH"
      }
    ]
  },
  {
    "postal": "M1W6H8",
    "result": []
  },
  {
    "postal": "M1W9T3",
    "result": []
  },
  {
    "postal": "M1W5L9",
    "result": []
  },
  {
    "postal": "M1W7X7",
    "result": []
  },
  {
    "postal": "M1W3J5",
    "result": [
      {
        "electoralDistricts": [
          {
            "election": null,
            "id": 93,
            "name": "Scarborough—Agincourt"
          }
        ],
        "pollDivisionIds": [
          10141520
        ],
        "postalCode": "M1W3J5",
        "streetName": "PHARMACY",
        "streetDirectionId": null,
        "streetTypeId": "AVE",
        "placeName": "SCARBOROUGH",
        "streetNameDisplayText": "PHARMACY AVE, SCARBOROUGH"
      }
    ]
  },
  {
    "postal": "M1W4J5",
    "result": []
  },
  {
    "postal": "M1W6J2",
    "result": []
  },
  {
    "postal": "M1W5V6",
    "result": []
  },
  {
    "postal": "M1W3N2",
    "result": [
      {
        "electoralDistricts": [
          {
            "election": null,
            "id": 93,
            "name": "Scarborough—Agincourt"
          }
        ],
        "pollDivisionIds": [
          10141517
        ],
        "postalCode": "M1W3N2",
        "streetName": "EAGLEVIEW",
        "streetDirectionId": null,
        "streetTypeId": "CRES",
        "placeName": "SCARBOROUGH",
        "streetNameDisplayText": "EAGLEVIEW CRES, SCARBOROUGH"
      }
    ]
  },
  {
    "postal": "M1W3B1",
    "result": [
      {
        "electoralDistricts": [
          {
            "election": null,
            "id": 93,
            "name": "Scarborough—Agincourt"
          }
        ],
        "pollDivisionIds": [
          10141513
        ],
        "postalCode": "M1W3B1",
        "streetName": "ELLENHALL",
        "streetDirectionId": null,
        "streetTypeId": "SQ",
        "placeName": "SCARBOROUGH",
        "streetNameDisplayText": "ELLENHALL SQ, SCARBOROUGH"
      }
    ]
  },
  {
    "postal": "M1W8B5",
    "result": []
  },
  {
    "postal": "M1W0K1",
    "result": []
  },
  {
    "postal": "M1W7M7",
    "result": []
  },
  {
    "postal": "M1W2M2",
    "result": [
      {
        "electoralDistricts": [
          {
            "election": null,
            "id": 93,
            "name": "Scarborough—Agincourt"
          }
        ],
        "pollDivisionIds": [
          10141527
        ],
        "postalCode": "M1W2M2",
        "streetName": "AURORA",
        "streetDirectionId": null,
        "streetTypeId": "CRT",
        "placeName": "SCARBOROUGH",
        "streetNameDisplayText": "AURORA CRT, SCARBOROUGH"
      }
    ]
  },
  {
    "postal": "M1W9N3",
    "result": []
  },
  {
    "postal": "M1W4Y8",
    "result": []
  },
  {
    "postal": "M1W3V7",
    "result": [
      {
        "electoralDistricts": [
          {
            "election": null,
            "id": 93,
            "name": "Scarborough—Agincourt"
          }
        ],
        "pollDivisionIds": [
          10141514
        ],
        "postalCode": "M1W3V7",
        "streetName": "BAMBURGH",
        "streetDirectionId": null,
        "streetTypeId": "CIR",
        "placeName": "SCARBOROUGH",
        "streetNameDisplayText": "BAMBURGH CIR, SCARBOROUGH"
      }
    ]
  },
  {
    "postal": "M1W8Z1",
    "result": []
  },
  {
    "postal": "M1W7B3",
    "result": []
  },
  {
    "postal": "M1W3A8",
    "result": [
      {
        "electoralDistricts": [
          {
            "election": null,
            "id": 93,
            "name": "Scarborough—Agincourt"
          }
        ],
        "pollDivisionIds": [
          10141513
        ],
        "postalCode": "M1W3A8",
        "streetName": "CHAPELTOWN",
        "streetDirectionId": null,
        "streetTypeId": "CRES",
        "placeName": "SCARBOROUGH",
        "streetNameDisplayText": "CHAPELTOWN CRES, SCARBOROUGH"
      }
    ]
  },
  {
    "postal": "M1W7V5",
    "result": []
  },
  {
    "postal": "M1W2T2",
    "result": [
      {
        "electoralDistricts": [
          {
            "election": null,
            "id": 93,
            "name": "Scarborough—Agincourt"
          }
        ],
        "pollDivisionIds": [
          10141526
        ],
        "postalCode": "M1W2T2",
        "streetName": "LEAFIELD",
        "streetDirectionId": null,
        "streetTypeId": "DR",
        "placeName": "SCARBOROUGH",
        "streetNameDisplayText": "LEAFIELD DR, SCARBOROUGH"
      }
    ]
  },
  {
    "postal": "M1W6L3",
    "result": []
  },
  {
    "postal": "M1W0L2",
    "result": []
  },
  {
    "postal": "M1W5Y8",
    "result": []
  },
  {
    "postal": "M1W0B8",
    "result": []
  },
  {
    "postal": "M1W6R5",
    "result": []
  },
  {
    "postal": "M1W8W6",
    "result": []
  },
  {
    "postal": "M1W8G6",
    "result": []
  },
  {
    "postal": "M1W6X3",
    "result": []
  },
  {
    "postal": "M1W7R7",
    "result": []
  },
  {
    "postal": "M1W4B6",
    "result": []
  },
  {
    "postal": "M1W3P9",
    "result": [
      {
        "electoralDistricts": [
          {
            "election": null,
            "id": 93,
            "name": "Scarborough—Agincourt"
          }
        ],
        "pollDivisionIds": [
          10141517
        ],
        "postalCode": "M1W3P9",
        "streetName": "WINTERMUTE",
        "streetDirectionId": null,
        "streetTypeId": "BLVD",
        "placeName": "SCARBOROUGH",
        "streetNameDisplayText": "WINTERMUTE BLVD, SCARBOROUGH"
      }
    ]
  },
  {
    "postal": "M1W2T3",
    "result": [
      {
        "electoralDistricts": [
          {
            "election": null,
            "id": 93,
            "name": "Scarborough—Agincourt"
          }
        ],
        "pollDivisionIds": [
          10141526
        ],
        "postalCode": "M1W2T3",
        "streetName": "VICTORIA PARK",
        "streetDirectionId": null,
        "streetTypeId": "AVE",
        "placeName": "SCARBOROUGH",
        "streetNameDisplayText": "VICTORIA PARK AVE, SCARBOROUGH"
      }
    ]
  },
  {
    "postal": "M1W1M4",
    "result": [
      {
        "electoralDistricts": [
          {
            "election": null,
            "id": 93,
            "name": "Scarborough—Agincourt"
          }
        ],
        "pollDivisionIds": [
          10141527
        ],
        "postalCode": "M1W1M4",
        "streetName": "COLLINGSBROOK",
        "streetDirectionId": null,
        "streetTypeId": "BLVD",
        "placeName": "SCARBOROUGH",
        "streetNameDisplayText": "COLLINGSBROOK BLVD, SCARBOROUGH"
      }
    ]
  },
  {
    "postal": "M1W0H1",
    "result": []
  },
  {
    "postal": "M1W9W3",
    "result": []
  },
  {
    "postal": "M1W6P1",
    "result": []
  },
  {
    "postal": "M1W7G2",
    "result": []
  },
  {
    "postal": "M1W4J9",
    "result": []
  },
  {
    "postal": "M1W9E4",
    "result": []
  },
  {
    "postal": "M1W8H0",
    "result": []
  },
  {
    "postal": "M1W4M7",
    "result": []
  },
  {
    "postal": "M1W2G9",
    "result": [
      {
        "electoralDistricts": [
          {
            "election": null,
            "id": 93,
            "name": "Scarborough—Agincourt"
          }
        ],
        "pollDivisionIds": [
          10141528
        ],
        "postalCode": "M1W2G9",
        "streetName": "TIMBERBANK",
        "streetDirectionId": null,
        "streetTypeId": "BLVD",
        "placeName": "SCARBOROUGH",
        "streetNameDisplayText": "TIMBERBANK BLVD, SCARBOROUGH"
      }
    ]
  },
  {
    "postal": "M1W8T2",
    "result": []
  },
  {
    "postal": "M1W7G7",
    "result": []
  },
  {
    "postal": "M1W4Z3",
    "result": []
  },
  {
    "postal": "M1W5B3",
    "result": []
  },
  {
    "postal": "M1W1S7",
    "result": []
  },
  {
    "postal": "M1W2N7",
    "result": [
      {
        "electoralDistricts": [
          {
            "election": null,
            "id": 93,
            "name": "Scarborough—Agincourt"
          }
        ],
        "pollDivisionIds": [
          10141520
        ],
        "postalCode": "M1W2N7",
        "streetName": "PHARMACY",
        "streetDirectionId": null,
        "streetTypeId": "AVE",
        "placeName": "SCARBOROUGH",
        "streetNameDisplayText": "PHARMACY AVE, SCARBOROUGH"
      }
    ]
  },
  {
    "postal": "M1W0H8",
    "result": []
  },
  {
    "postal": "M1W7Z4",
    "result": []
  },
  {
    "postal": "M1W7B1",
    "result": []
  },
  {
    "postal": "M1W7P8",
    "result": []
  },
  {
    "postal": "M1W7N0",
    "result": []
  },
  {
    "postal": "M1W3Y5",
    "result": [
      {
        "electoralDistricts": [
          {
            "election": null,
            "id": 93,
            "name": "Scarborough—Agincourt"
          }
        ],
        "pollDivisionIds": [
          10141514
        ],
        "postalCode": "M1W3Y5",
        "streetName": "BAMBURGH",
        "streetDirectionId": null,
        "streetTypeId": "CIR",
        "placeName": "SCARBOROUGH",
        "streetNameDisplayText": "BAMBURGH CIR, SCARBOROUGH"
      }
    ]
  },
  {
    "postal": "M1W6K1",
    "result": []
  },
  {
    "postal": "M1W9X5",
    "result": []
  },
  {
    "postal": "M1W7S5",
    "result": []
  },
  {
    "postal": "M1W0A4",
    "result": [
      {
        "electoralDistricts": [
          {
            "election": null,
            "id": 93,
            "name": "Scarborough—Agincourt"
          }
        ],
        "pollDivisionIds": [
          10141513
        ],
        "postalCode": "M1W0A4",
        "streetName": "MCNICOLL",
        "streetDirectionId": null,
        "streetTypeId": "AVE",
        "placeName": "SCARBOROUGH",
        "streetNameDisplayText": "MCNICOLL AVE, SCARBOROUGH"
      }
    ]
  },
  {
    "postal": "M1W4T5",
    "result": []
  },
  {
    "postal": "M1W5K1",
    "result": []
  },
  {
    "postal": "M1W0Z9",
    "result": []
  },
  {
    "postal": "M1W7T2",
    "result": []
  },
  {
    "postal": "M1W1L5",
    "result": [
      {
        "electoralDistricts": [
          {
            "election": null,
            "id": 93,
            "name": "Scarborough—Agincourt"
          }
        ],
        "pollDivisionIds": [
          10141527
        ],
        "postalCode": "M1W1L5",
        "streetName": "COLLINGSBROOK",
        "streetDirectionId": null,
        "streetTypeId": "BLVD",
        "placeName": "SCARBOROUGH",
        "streetNameDisplayText": "COLLINGSBROOK BLVD, SCARBOROUGH"
      }
    ]
  },
  {
    "postal": "M1W3N5",
    "result": [
      {
        "electoralDistricts": [
          {
            "election": null,
            "id": 93,
            "name": "Scarborough—Agincourt"
          }
        ],
        "pollDivisionIds": [
          10141517
        ],
        "postalCode": "M1W3N5",
        "streetName": "SANDYHOOK",
        "streetDirectionId": null,
        "streetTypeId": "SQ",
        "placeName": "SCARBOROUGH",
        "streetNameDisplayText": "SANDYHOOK SQ, SCARBOROUGH"
      }
    ]
  },
  {
    "postal": "M1W6H4",
    "result": []
  },
  {
    "postal": "M1W5A5",
    "result": []
  },
  {
    "postal": "M1W3R9",
    "result": [
      {
        "electoralDistricts": [
          {
            "election": null,
            "id": 93,
            "name": "Scarborough—Agincourt"
          }
        ],
        "pollDivisionIds": [
          10141514
        ],
        "postalCode": "M1W3R9",
        "streetName": "FRANK RIVERS",
        "streetDirectionId": null,
        "streetTypeId": "DR",
        "placeName": "SCARBOROUGH",
        "streetNameDisplayText": "FRANK RIVERS DR, SCARBOROUGH"
      }
    ]
  },
  {
    "postal": "M1W7L8",
    "result": []
  },
  {
    "postal": "M1W6T6",
    "result": []
  },
  {
    "postal": "M1W7Y7",
    "result": []
  },
  {
    "postal": "M1W3M8",
    "result": [
      {
        "electoralDistricts": [
          {
            "election": null,
            "id": 93,
            "name": "Scarborough—Agincourt"
          }
        ],
        "pollDivisionIds": [
          10141517
        ],
        "postalCode": "M1W3M8",
        "streetName": "WINTERMUTE",
        "streetDirectionId": null,
        "streetTypeId": "BLVD",
        "placeName": "SCARBOROUGH",
        "streetNameDisplayText": "WINTERMUTE BLVD, SCARBOROUGH"
      }
    ]
  },
  {
    "postal": "M1W2E0",
    "result": []
  },
  {
    "postal": "M1W4B5",
    "result": [
      {
        "electoralDistricts": [
          {
            "election": null,
            "id": 93,
            "name": "Scarborough—Agincourt"
          }
        ],
        "pollDivisionIds": [
          10141522
        ],
        "postalCode": "M1W4B5",
        "streetName": "STONEBRIDGE",
        "streetDirectionId": null,
        "streetTypeId": "BLVD",
        "placeName": "SCARBOROUGH",
        "streetNameDisplayText": "STONEBRIDGE BLVD, SCARBOROUGH"
      }
    ]
  },
  {
    "postal": "M1W1J3",
    "result": [
      {
        "electoralDistricts": [
          {
            "election": null,
            "id": 93,
            "name": "Scarborough—Agincourt"
          }
        ],
        "pollDivisionIds": [
          10141527
        ],
        "postalCode": "M1W1J3",
        "streetName": "KILKENNY",
        "streetDirectionId": null,
        "streetTypeId": "DR",
        "placeName": "SCARBOROUGH",
        "streetNameDisplayText": "KILKENNY DR, SCARBOROUGH"
      }
    ]
  },
  {
    "postal": "M1W5S6",
    "result": []
  },
  {
    "postal": "M1W8P7",
    "result": []
  },
  {
    "postal": "M1W7S7",
    "result": []
  },
  {
    "postal": "M1W4C2",
    "result": []
  },
  {
    "postal": "M1W5Y0",
    "result": []
  },
  {
    "postal": "M1W2V7",
    "result": [
      {
        "electoralDistricts": [
          {
            "election": null,
            "id": 93,
            "name": "Scarborough—Agincourt"
          }
        ],
        "pollDivisionIds": [
          10141513
        ],
        "postalCode": "M1W2V7",
        "streetName": "ARNALL",
        "streetDirectionId": null,
        "streetTypeId": "AVE",
        "placeName": "SCARBOROUGH",
        "streetNameDisplayText": "ARNALL AVE, SCARBOROUGH"
      }
    ]
  },
  {
    "postal": "M1W8P5",
    "result": []
  },
  {
    "postal": "M1W5P5",
    "result": []
  },
  {
    "postal": "M1W5Z0",
    "result": []
  },
  {
    "postal": "M1W9B0",
    "result": []
  },
  {
    "postal": "M1W1L0",
    "result": []
  },
  {
    "postal": "M1W0B5",
    "result": []
  },
  {
    "postal": "M1W3L2",
    "result": [
      {
        "electoralDistricts": [
          {
            "election": null,
            "id": 93,
            "name": "Scarborough—Agincourt"
          }
        ],
        "pollDivisionIds": [
          10141517
        ],
        "postalCode": "M1W3L2",
        "streetName": "TRIANGLE VILLAS",
        "streetDirectionId": null,
        "streetTypeId": "DR",
        "placeName": "SCARBOROUGH",
        "streetNameDisplayText": "TRIANGLE VILLAS DR, SCARBOROUGH"
      }
    ]
  },
  {
    "postal": "M1W3B7",
    "result": [
      {
        "electoralDistricts": [
          {
            "election": null,
            "id": 93,
            "name": "Scarborough—Agincourt"
          }
        ],
        "pollDivisionIds": [
          10141513
        ],
        "postalCode": "M1W3B7",
        "streetName": "CRAYFORD",
        "streetDirectionId": null,
        "streetTypeId": "DR",
        "placeName": "SCARBOROUGH",
        "streetNameDisplayText": "CRAYFORD DR, SCARBOROUGH"
      }
    ]
  },
  {
    "postal": "M1W8L1",
    "result": []
  },
  {
    "postal": "M1W5M4",
    "result": []
  },
  {
    "postal": "M1W4G9",
    "result": []
  },
  {
    "postal": "M1W0P0",
    "result": []
  },
  {
    "postal": "M1W8G2",
    "result": []
  },
  {
    "postal": "M1W1V9",
    "result": [
      {
        "electoralDistricts": [
          {
            "election": null,
            "id": 93,
            "name": "Scarborough—Agincourt"
          }
        ],
        "pollDivisionIds": [
          10141522
        ],
        "postalCode": "M1W1V9",
        "streetName": "BEVERLY GLEN",
        "streetDirectionId": null,
        "streetTypeId": "BLVD",
        "placeName": "SCARBOROUGH",
        "streetNameDisplayText": "BEVERLY GLEN BLVD, SCARBOROUGH"
      }
    ]
  },
  {
    "postal": "M1W8N8",
    "result": []
  },
  {
    "postal": "M1W6S8",
    "result": []
  },
  {
    "postal": "M1W8H2",
    "result": []
  },
  {
    "postal": "M1W5R8",
    "result": []
  },
  {
    "postal": "M1W5L4",
    "result": []
  },
  {
    "postal": "M1W9E1",
    "result": []
  },
  {
    "postal": "M1W1C4",
    "result": [
      {
        "electoralDistricts": [
          {
            "election": null,
            "id": 93,
            "name": "Scarborough—Agincourt"
          }
        ],
        "pollDivisionIds": [
          10141526
        ],
        "postalCode": "M1W1C4",
        "streetName": "CORTON",
        "streetDirectionId": null,
        "streetTypeId": "GATE",
        "placeName": "SCARBOROUGH",
        "streetNameDisplayText": "CORTON GATE, SCARBOROUGH"
      }
    ]
  },
  {
    "postal": "M1W8W5",
    "result": []
  },
  {
    "postal": "M1W1Y4",
    "result": [
      {
        "electoralDistricts": [
          {
            "election": null,
            "id": 93,
            "name": "Scarborough—Agincourt"
          }
        ],
        "pollDivisionIds": [
          10141528
        ],
        "postalCode": "M1W1Y4",
        "streetName": "KIMBERDALE",
        "streetDirectionId": null,
        "streetTypeId": "CRES",
        "placeName": "SCARBOROUGH",
        "streetNameDisplayText": "KIMBERDALE CRES, SCARBOROUGH"
      }
    ]
  },
  {
    "postal": "M1W1C0",
    "result": []
  },
  {
    "postal": "M1W2J2",
    "result": [
      {
        "electoralDistricts": [
          {
            "election": null,
            "id": 93,
            "name": "Scarborough—Agincourt"
          }
        ],
        "pollDivisionIds": [
          10141520
        ],
        "postalCode": "M1W2J2",
        "streetName": "PETTIBONE",
        "streetDirectionId": null,
        "streetTypeId": "SQ",
        "placeName": "SCARBOROUGH",
        "streetNameDisplayText": "PETTIBONE SQ, SCARBOROUGH"
      }
    ]
  },
  {
    "postal": "M1W2J0",
    "result": []
  },
  {
    "postal": "M1W7A3",
    "result": []
  },
  {
    "postal": "M1W8M1",
    "result": []
  },
  {
    "postal": "M1W7T9",
    "result": []
  },
  {
    "postal": "M1W6C0",
    "result": []
  },
  {
    "postal": "M1W7X1",
    "result": []
  },
  {
    "postal": "M1W0G1",
    "result": []
  },
  {
    "postal": "M1W4X2",
    "result": []
  },
  {
    "postal": "M1W0N6",
    "result": []
  },
  {
    "postal": "M1W8E3",
    "result": []
  },
  {
    "postal": "M1W5S8",
    "result": []
  },
  {
    "postal": "M1W0R0",
    "result": []
  },
  {
    "postal": "M1W6J6",
    "result": []
  },
  {
    "postal": "M1W4B4",
    "result": [
      {
        "electoralDistricts": [
          {
            "election": null,
            "id": 93,
            "name": "Scarborough—Agincourt"
          }
        ],
        "pollDivisionIds": [
          10141522
        ],
        "postalCode": "M1W4B4",
        "streetName": "CANDLEBROOK",
        "streetDirectionId": null,
        "streetTypeId": "CRES",
        "placeName": "SCARBOROUGH",
        "streetNameDisplayText": "CANDLEBROOK CRES, SCARBOROUGH"
      }
    ]
  },
  {
    "postal": "M1W7E3",
    "result": []
  },
  {
    "postal": "M1W3N6",
    "result": [
      {
        "electoralDistricts": [
          {
            "election": null,
            "id": 93,
            "name": "Scarborough—Agincourt"
          }
        ],
        "pollDivisionIds": [
          10141517
        ],
        "postalCode": "M1W3N6",
        "streetName": "SANDYHOOK",
        "streetDirectionId": null,
        "streetTypeId": "SQ",
        "placeName": "SCARBOROUGH",
        "streetNameDisplayText": "SANDYHOOK SQ, SCARBOROUGH"
      }
    ]
  },
  {
    "postal": "M1W3X6",
    "result": [
      {
        "electoralDistricts": [
          {
            "election": null,
            "id": 93,
            "name": "Scarborough—Agincourt"
          }
        ],
        "pollDivisionIds": [
          10141514
        ],
        "postalCode": "M1W3X6",
        "streetName": "HUNTSMILL",
        "streetDirectionId": null,
        "streetTypeId": "BLVD",
        "placeName": "SCARBOROUGH",
        "streetNameDisplayText": "HUNTSMILL BLVD, SCARBOROUGH"
      }
    ]
  },
  {
    "postal": "M1W8L0",
    "result": []
  },
  {
    "postal": "M1W8N1",
    "result": []
  },
  {
    "postal": "M1W4J0",
    "result": []
  },
  {
    "postal": "M1W0X7",
    "result": []
  },
  {
    "postal": "M1W6S4",
    "result": []
  },
  {
    "postal": "M1W0Z0",
    "result": []
  },
  {
    "postal": "M1W9X8",
    "result": []
  },
  {
    "postal": "M1W3H3",
    "result": [
      {
        "electoralDistricts": [
          {
            "election": null,
            "id": 93,
            "name": "Scarborough—Agincourt"
          }
        ],
        "pollDivisionIds": [
          10141517
        ],
        "postalCode": "M1W3H3",
        "streetName": "FUNDY BAY",
        "streetDirectionId": null,
        "streetTypeId": "BLVD",
        "placeName": "SCARBOROUGH",
        "streetNameDisplayText": "FUNDY BAY BLVD, SCARBOROUGH"
      }
    ]
  },
  {
    "postal": "M1W7S2",
    "result": []
  },
  {
    "postal": "M1W3T3",
    "result": [
      {
        "electoralDistricts": [
          {
            "election": null,
            "id": 93,
            "name": "Scarborough—Agincourt"
          }
        ],
        "pollDivisionIds": [
          10141514
        ],
        "postalCode": "M1W3T3",
        "streetName": "SHARROWBAY",
        "streetDirectionId": null,
        "streetTypeId": "CRT",
        "placeName": "SCARBOROUGH",
        "streetNameDisplayText": "SHARROWBAY CRT, SCARBOROUGH"
      }
    ]
  },
  {
    "postal": "M1W9P3",
    "result": []
  },
  {
    "postal": "M1W4H8",
    "result": []
  },
  {
    "postal": "M1W6R1",
    "result": []
  },
  {
    "postal": "M1W1S0",
    "result": []
  },
  {
    "postal": "M1W3W8",
    "result": []
  },
  {
    "postal": "M1W4S3",
    "result": []
  },
  {
    "postal": "M1W1B6",
    "result": [
      {
        "electoralDistricts": [
          {
            "election": null,
            "id": 93,
            "name": "Scarborough—Agincourt"
          }
        ],
        "pollDivisionIds": [
          10141526
        ],
        "postalCode": "M1W1B6",
        "streetName": "CORINTHIAN",
        "streetDirectionId": null,
        "streetTypeId": "BLVD",
        "placeName": "SCARBOROUGH",
        "streetNameDisplayText": "CORINTHIAN BLVD, SCARBOROUGH"
      }
    ]
  },
  {
    "postal": "M1W8R3",
    "result": []
  },
  {
    "postal": "M1W4V9",
    "result": []
  },
  {
    "postal": "M1W9W4",
    "result": []
  },
  {
    "postal": "M1W3T4",
    "result": [
      {
        "electoralDistricts": [
          {
            "election": null,
            "id": 93,
            "name": "Scarborough—Agincourt"
          }
        ],
        "pollDivisionIds": [
          10141517
        ],
        "postalCode": "M1W3T4",
        "streetName": "STEELES",
        "streetDirectionId": "E",
        "streetTypeId": "AVE",
        "placeName": "SCARBOROUGH",
        "streetNameDisplayText": "STEELES AVE E, SCARBOROUGH"
      }
    ]
  },
  {
    "postal": "M1W5C7",
    "result": []
  },
  {
    "postal": "M1W3Y1",
    "result": [
      {
        "electoralDistricts": [
          {
            "election": null,
            "id": 93,
            "name": "Scarborough—Agincourt"
          }
        ],
        "pollDivisionIds": [
          10141517
        ],
        "postalCode": "M1W3Y1",
        "streetName": "BAMBURGH",
        "streetDirectionId": null,
        "streetTypeId": "CIR",
        "placeName": "SCARBOROUGH",
        "streetNameDisplayText": "BAMBURGH CIR, SCARBOROUGH"
      }
    ]
  },
  {
    "postal": "M1W5V0",
    "result": []
  },
  {
    "postal": "M1W8G8",
    "result": []
  },
  {
    "postal": "M1W8B1",
    "result": []
  },
  {
    "postal": "M1W4P5",
    "result": []
  },
  {
    "postal": "M1W7B2",
    "result": []
  },
  {
    "postal": "M1W0R2",
    "result": []
  },
  {
    "postal": "M1W4M4",
    "result": []
  },
  {
    "postal": "M1W7M4",
    "result": []
  },
  {
    "postal": "M1W9S7",
    "result": []
  },
  {
    "postal": "M1W5Z7",
    "result": []
  },
  {
    "postal": "M1W7J7",
    "result": []
  },
  {
    "postal": "M1W8R8",
    "result": []
  },
  {
    "postal": "M1W9X1",
    "result": []
  },
  {
    "postal": "M1W5M9",
    "result": []
  },
  {
    "postal": "M1W9B4",
    "result": []
  },
  {
    "postal": "M1W0L9",
    "result": []
  },
  {
    "postal": "M1W9G4",
    "result": []
  },
  {
    "postal": "M1W1J4",
    "result": [
      {
        "electoralDistricts": [
          {
            "election": null,
            "id": 93,
            "name": "Scarborough—Agincourt"
          }
        ],
        "pollDivisionIds": [
          10141527
        ],
        "postalCode": "M1W1J4",
        "streetName": "KILKENNY",
        "streetDirectionId": null,
        "streetTypeId": "DR",
        "placeName": "SCARBOROUGH",
        "streetNameDisplayText": "KILKENNY DR, SCARBOROUGH"
      }
    ]
  },
  {
    "postal": "M1W0W6",
    "result": []
  },
  {
    "postal": "M1W4C5",
    "result": []
  },
  {
    "postal": "M1W7E4",
    "result": []
  },
  {
    "postal": "M1W1R9",
    "result": [
      {
        "electoralDistricts": [
          {
            "election": null,
            "id": 93,
            "name": "Scarborough—Agincourt"
          }
        ],
        "pollDivisionIds": [
          10141527
        ],
        "postalCode": "M1W1R9",
        "streetName": "KENMANOR",
        "streetDirectionId": null,
        "streetTypeId": "BLVD",
        "placeName": "SCARBOROUGH",
        "streetNameDisplayText": "KENMANOR BLVD, SCARBOROUGH"
      }
    ]
  },
  {
    "postal": "M1W2P0",
    "result": []
  },
  {
    "postal": "M1W5S4",
    "result": []
  },
  {
    "postal": "M1W5K8",
    "result": []
  },
  {
    "postal": "M1W8K4",
    "result": []
  },
  {
    "postal": "M1W7C1",
    "result": []
  },
  {
    "postal": "M1W7K9",
    "result": []
  },
  {
    "postal": "M1W5J1",
    "result": []
  },
  {
    "postal": "M1W4P9",
    "result": []
  },
  {
    "postal": "M1W0N2",
    "result": []
  },
  {
    "postal": "M1W2G6",
    "result": [
      {
        "electoralDistricts": [
          {
            "election": null,
            "id": 93,
            "name": "Scarborough—Agincourt"
          }
        ],
        "pollDivisionIds": [
          10141524
        ],
        "postalCode": "M1W2G6",
        "streetName": "LA PEER",
        "streetDirectionId": null,
        "streetTypeId": "BLVD",
        "placeName": "SCARBOROUGH",
        "streetNameDisplayText": "LA PEER BLVD, SCARBOROUGH"
      }
    ]
  },
  {
    "postal": "M1W6P4",
    "result": []
  },
  {
    "postal": "M1W3J0",
    "result": []
  },
  {
    "postal": "M1W8X4",
    "result": []
  },
  {
    "postal": "M1W1Y3",
    "result": [
      {
        "electoralDistricts": [
          {
            "election": null,
            "id": 93,
            "name": "Scarborough—Agincourt"
          }
        ],
        "pollDivisionIds": [
          10141522
        ],
        "postalCode": "M1W1Y3",
        "streetName": "HILDENBORO",
        "streetDirectionId": null,
        "streetTypeId": "SQ",
        "placeName": "SCARBOROUGH",
        "streetNameDisplayText": "HILDENBORO SQ, SCARBOROUGH"
      }
    ]
  },
  {
    "postal": "M1W1A8",
    "result": [
      {
        "electoralDistricts": [
          {
            "election": null,
            "id": 93,
            "name": "Scarborough—Agincourt"
          }
        ],
        "pollDivisionIds": [
          10141526
        ],
        "postalCode": "M1W1A8",
        "streetName": "FAIRGLEN",
        "streetDirectionId": null,
        "streetTypeId": "AVE",
        "placeName": "SCARBOROUGH",
        "streetNameDisplayText": "FAIRGLEN AVE, SCARBOROUGH"
      }
    ]
  },
  {
    "postal": "M1W6Y5",
    "result": []
  },
  {
    "postal": "M1W0J6",
    "result": []
  },
  {
    "postal": "M1W2C9",
    "result": [
      {
        "electoralDistricts": [
          {
            "election": null,
            "id": 93,
            "name": "Scarborough—Agincourt"
          }
        ],
        "pollDivisionIds": [
          10141513
        ],
        "postalCode": "M1W2C9",
        "streetName": "BRIDELTOWNE",
        "streetDirectionId": null,
        "streetTypeId": "CIR",
        "placeName": "SCARBOROUGH",
        "streetNameDisplayText": "BRIDELTOWNE CIR, SCARBOROUGH"
      },
      {
        "electoralDistricts": [
          {
            "election": null,
            "id": 93,
            "name": "Scarborough—Agincourt"
          }
        ],
        "pollDivisionIds": [
          10141522
        ],
        "postalCode": "M1W2C9",
        "streetName": "BRIDLETOWNE",
        "streetDirectionId": null,
        "streetTypeId": "CIR",
        "placeName": "SCARBOROUGH",
        "streetNameDisplayText": "BRIDLETOWNE CIR, SCARBOROUGH"
      }
    ]
  },
  {
    "postal": "M1W8J6",
    "result": []
  },
  {
    "postal": "M1W8T4",
    "result": []
  },
  {
    "postal": "M1W1P7",
    "result": [
      {
        "electoralDistricts": [
          {
            "election": null,
            "id": 93,
            "name": "Scarborough—Agincourt"
          }
        ],
        "pollDivisionIds": [
          10141527
        ],
        "postalCode": "M1W1P7",
        "streetName": "SPRUCEWOOD",
        "streetDirectionId": null,
        "streetTypeId": "CRT",
        "placeName": "SCARBOROUGH",
        "streetNameDisplayText": "SPRUCEWOOD CRT, SCARBOROUGH"
      }
    ]
  },
  {
    "postal": "M1W9V9",
    "result": []
  },
  {
    "postal": "M1W0M1",
    "result": []
  },
  {
    "postal": "M1W6K5",
    "result": []
  },
  {
    "postal": "M1W2T5",
    "result": [
      {
        "electoralDistricts": [
          {
            "election": null,
            "id": 93,
            "name": "Scarborough—Agincourt"
          }
        ],
        "pollDivisionIds": [
          10141526
        ],
        "postalCode": "M1W2T5",
        "streetName": "ALTAIR",
        "streetDirectionId": null,
        "streetTypeId": "AVE",
        "placeName": "SCARBOROUGH",
        "streetNameDisplayText": "ALTAIR AVE, SCARBOROUGH"
      }
    ]
  },
  {
    "postal": "M1W7E9",
    "result": []
  },
  {
    "postal": "M1W5K5",
    "result": []
  },
  {
    "postal": "M1W3R5",
    "result": [
      {
        "electoralDistricts": [
          {
            "election": null,
            "id": 93,
            "name": "Scarborough—Agincourt"
          }
        ],
        "pollDivisionIds": [
          10141514
        ],
        "postalCode": "M1W3R5",
        "streetName": "HUNTSMILL",
        "streetDirectionId": null,
        "streetTypeId": "BLVD",
        "placeName": "SCARBOROUGH",
        "streetNameDisplayText": "HUNTSMILL BLVD, SCARBOROUGH"
      }
    ]
  },
  {
    "postal": "M1W5B1",
    "result": []
  },
  {
    "postal": "M1W2P1",
    "result": [
      {
        "electoralDistricts": [
          {
            "election": null,
            "id": 93,
            "name": "Scarborough—Agincourt"
          }
        ],
        "pollDivisionIds": [
          10141521
        ],
        "postalCode": "M1W2P1",
        "streetName": "HUNTINGDALE",
        "streetDirectionId": null,
        "streetTypeId": "BLVD",
        "placeName": "SCARBOROUGH",
        "streetNameDisplayText": "HUNTINGDALE BLVD, SCARBOROUGH"
      }
    ]
  },
  {
    "postal": "M1W7L0",
    "result": []
  },
  {
    "postal": "M1W3L6",
    "result": [
      {
        "electoralDistricts": [
          {
            "election": null,
            "id": 93,
            "name": "Scarborough—Agincourt"
          }
        ],
        "pollDivisionIds": [
          10141517
        ],
        "postalCode": "M1W3L6",
        "streetName": "WARDEN",
        "streetDirectionId": null,
        "streetTypeId": "AVE",
        "placeName": "SCARBOROUGH",
        "streetNameDisplayText": "WARDEN AVE, SCARBOROUGH"
      }
    ]
  },
  {
    "postal": "M1W2A4",
    "result": [
      {
        "electoralDistricts": [
          {
            "election": null,
            "id": 93,
            "name": "Scarborough—Agincourt"
          }
        ],
        "pollDivisionIds": [
          10141528
        ],
        "postalCode": "M1W2A4",
        "streetName": "TIMBERBANK",
        "streetDirectionId": null,
        "streetTypeId": "BLVD",
        "placeName": "SCARBOROUGH",
        "streetNameDisplayText": "TIMBERBANK BLVD, SCARBOROUGH"
      }
    ]
  },
  {
    "postal": "M1W8S0",
    "result": []
  },
  {
    "postal": "M1W3L5",
    "result": [
      {
        "electoralDistricts": [
          {
            "election": null,
            "id": 93,
            "name": "Scarborough—Agincourt"
          }
        ],
        "pollDivisionIds": [
          10141517,
          10141515
        ],
        "postalCode": "M1W3L5",
        "streetName": "WINTERMUTE",
        "streetDirectionId": null,
        "streetTypeId": "BLVD",
        "placeName": "SCARBOROUGH",
        "streetNameDisplayText": "WINTERMUTE BLVD, SCARBOROUGH"
      }
    ]
  },
  {
    "postal": "M1W2R5",
    "result": [
      {
        "electoralDistricts": [
          {
            "election": null,
            "id": 93,
            "name": "Scarborough—Agincourt"
          }
        ],
        "pollDivisionIds": [
          10141524
        ],
        "postalCode": "M1W2R5",
        "streetName": "FINCH",
        "streetDirectionId": "E",
        "streetTypeId": "AVE",
        "placeName": "SCARBOROUGH",
        "streetNameDisplayText": "FINCH AVE E, SCARBOROUGH"
      }
    ]
  },
  {
    "postal": "M1W9T6",
    "result": []
  },
  {
    "postal": "M1W8Z2",
    "result": []
  },
  {
    "postal": "M1W0E9",
    "result": []
  },
  {
    "postal": "M1W8C0",
    "result": []
  },
  {
    "postal": "M1W3K7",
    "result": [
      {
        "electoralDistricts": [
          {
            "election": null,
            "id": 93,
            "name": "Scarborough—Agincourt"
          }
        ],
        "pollDivisionIds": [
          10141531
        ],
        "postalCode": "M1W3K7",
        "streetName": "HUNTINGWOOD",
        "streetDirectionId": null,
        "streetTypeId": "DR",
        "placeName": "SCARBOROUGH",
        "streetNameDisplayText": "HUNTINGWOOD DR, SCARBOROUGH"
      }
    ]
  },
  {
    "postal": "M1W2H3",
    "result": [
      {
        "electoralDistricts": [
          {
            "election": null,
            "id": 93,
            "name": "Scarborough—Agincourt"
          }
        ],
        "pollDivisionIds": [
          10141524
        ],
        "postalCode": "M1W2H3",
        "streetName": "LA PEER",
        "streetDirectionId": null,
        "streetTypeId": "BLVD",
        "placeName": "SCARBOROUGH",
        "streetNameDisplayText": "LA PEER BLVD, SCARBOROUGH"
      }
    ]
  },
  {
    "postal": "M1W2Y6",
    "result": [
      {
        "electoralDistricts": [
          {
            "election": null,
            "id": 93,
            "name": "Scarborough—Agincourt"
          }
        ],
        "pollDivisionIds": [
          10141528
        ],
        "postalCode": "M1W2Y6",
        "streetName": "STONEHILL",
        "streetDirectionId": null,
        "streetTypeId": "CRT",
        "placeName": "SCARBOROUGH",
        "streetNameDisplayText": "STONEHILL CRT, SCARBOROUGH"
      }
    ]
  },
  {
    "postal": "M1W7M2",
    "result": []
  },
  {
    "postal": "M1W6E2",
    "result": []
  },
  {
    "postal": "M1W3R0",
    "result": []
  },
  {
    "postal": "M1W4J7",
    "result": []
  },
  {
    "postal": "M1W6N8",
    "result": []
  },
  {
    "postal": "M1W0J7",
    "result": []
  },
  {
    "postal": "M1W7P2",
    "result": []
  },
  {
    "postal": "M1W3T8",
    "result": [
      {
        "electoralDistricts": [
          {
            "election": null,
            "id": 93,
            "name": "Scarborough—Agincourt"
          }
        ],
        "pollDivisionIds": [
          10141517
        ],
        "postalCode": "M1W3T8",
        "streetName": "RIVER GROVE",
        "streetDirectionId": null,
        "streetTypeId": "DR",
        "placeName": "SCARBOROUGH",
        "streetNameDisplayText": "RIVER GROVE DR, SCARBOROUGH"
      }
    ]
  },
  {
    "postal": "M1W3S7",
    "result": [
      {
        "electoralDistricts": [
          {
            "election": null,
            "id": 93,
            "name": "Scarborough—Agincourt"
          }
        ],
        "pollDivisionIds": [
          10141528
        ],
        "postalCode": "M1W3S7",
        "streetName": "RAINTHORPE",
        "streetDirectionId": null,
        "streetTypeId": "CRES",
        "placeName": "SCARBOROUGH",
        "streetNameDisplayText": "RAINTHORPE CRES, SCARBOROUGH"
      }
    ]
  },
  {
    "postal": "M1W2S7",
    "result": [
      {
        "electoralDistricts": [
          {
            "election": null,
            "id": 93,
            "name": "Scarborough—Agincourt"
          }
        ],
        "pollDivisionIds": [
          10141513
        ],
        "postalCode": "M1W2S7",
        "streetName": "PHARMACY",
        "streetDirectionId": null,
        "streetTypeId": "AVE",
        "placeName": "SCARBOROUGH",
        "streetNameDisplayText": "PHARMACY AVE, SCARBOROUGH"
      }
    ]
  },
  {
    "postal": "M1W1S4",
    "result": [
      {
        "electoralDistricts": [
          {
            "election": null,
            "id": 93,
            "name": "Scarborough—Agincourt"
          }
        ],
        "pollDivisionIds": [
          10141527
        ],
        "postalCode": "M1W1S4",
        "streetName": "ALLANGROVE",
        "streetDirectionId": null,
        "streetTypeId": "CRES",
        "placeName": "SCARBOROUGH",
        "streetNameDisplayText": "ALLANGROVE CRES, SCARBOROUGH"
      }
    ]
  },
  {
    "postal": "M1W1L8",
    "result": [
      {
        "electoralDistricts": [
          {
            "election": null,
            "id": 93,
            "name": "Scarborough—Agincourt"
          }
        ],
        "pollDivisionIds": [
          10141527
        ],
        "postalCode": "M1W1L8",
        "streetName": "COLLINGSBROOK",
        "streetDirectionId": null,
        "streetTypeId": "BLVD",
        "placeName": "SCARBOROUGH",
        "streetNameDisplayText": "COLLINGSBROOK BLVD, SCARBOROUGH"
      }
    ]
  },
  {
    "postal": "M1W8E9",
    "result": []
  },
  {
    "postal": "M1W0T0",
    "result": []
  },
  {
    "postal": "M1W3G4",
    "result": [
      {
        "electoralDistricts": [
          {
            "election": null,
            "id": 93,
            "name": "Scarborough—Agincourt"
          }
        ],
        "pollDivisionIds": [
          10141541
        ],
        "postalCode": "M1W3G4",
        "streetName": "BAMBURGH",
        "streetDirectionId": null,
        "streetTypeId": "CIR",
        "placeName": "SCARBOROUGH",
        "streetNameDisplayText": "BAMBURGH CIR, SCARBOROUGH"
      }
    ]
  },
  {
    "postal": "M1W0V6",
    "result": []
  },
  {
    "postal": "M1W4W1",
    "result": []
  },
  {
    "postal": "M1W9G9",
    "result": []
  },
  {
    "postal": "M1W5W4",
    "result": []
  },
  {
    "postal": "M1W7M8",
    "result": []
  },
  {
    "postal": "M1W2C2",
    "result": [
      {
        "electoralDistricts": [
          {
            "election": null,
            "id": 93,
            "name": "Scarborough—Agincourt"
          }
        ],
        "pollDivisionIds": [
          10141528
        ],
        "postalCode": "M1W2C2",
        "streetName": "WAKEFIELD",
        "streetDirectionId": null,
        "streetTypeId": "CRES",
        "placeName": "SCARBOROUGH",
        "streetNameDisplayText": "WAKEFIELD CRES, SCARBOROUGH"
      }
    ]
  },
  {
    "postal": "M1W4Y2",
    "result": []
  },
  {
    "postal": "M1W9X9",
    "result": []
  },
  {
    "postal": "M1W3T0",
    "result": []
  },
  {
    "postal": "M1W4T8",
    "result": []
  },
  {
    "postal": "M1W9C4",
    "result": []
  },
  {
    "postal": "M1W8P2",
    "result": []
  },
  {
    "postal": "M1W0Y8",
    "result": []
  },
  {
    "postal": "M1W1G8",
    "result": [
      {
        "electoralDistricts": [
          {
            "election": null,
            "id": 93,
            "name": "Scarborough—Agincourt"
          }
        ],
        "pollDivisionIds": [
          10141528
        ],
        "postalCode": "M1W1G8",
        "streetName": "HUNTINGWOOD",
        "streetDirectionId": null,
        "streetTypeId": "DR",
        "placeName": "SCARBOROUGH",
        "streetNameDisplayText": "HUNTINGWOOD DR, SCARBOROUGH"
      }
    ]
  },
  {
    "postal": "M1W2T6",
    "result": [
      {
        "electoralDistricts": [
          {
            "election": null,
            "id": 93,
            "name": "Scarborough—Agincourt"
          }
        ],
        "pollDivisionIds": [
          10141513
        ],
        "postalCode": "M1W2T6",
        "streetName": "PHARMACY",
        "streetDirectionId": null,
        "streetTypeId": "AVE",
        "placeName": "SCARBOROUGH",
        "streetNameDisplayText": "PHARMACY AVE, SCARBOROUGH"
      }
    ]
  },
  {
    "postal": "M1W1N7",
    "result": [
      {
        "electoralDistricts": [
          {
            "election": null,
            "id": 93,
            "name": "Scarborough—Agincourt"
          }
        ],
        "pollDivisionIds": [
          10141527
        ],
        "postalCode": "M1W1N7",
        "streetName": "PINEMEADOW",
        "streetDirectionId": null,
        "streetTypeId": "BLVD",
        "placeName": "SCARBOROUGH",
        "streetNameDisplayText": "PINEMEADOW BLVD, SCARBOROUGH"
      }
    ]
  },
  {
    "postal": "M1W0L6",
    "result": []
  },
  {
    "postal": "M1W9V4",
    "result": []
  },
  {
    "postal": "M1W2V1",
    "result": [
      {
        "electoralDistricts": [
          {
            "election": null,
            "id": 93,
            "name": "Scarborough—Agincourt"
          }
        ],
        "pollDivisionIds": [
          10141513
        ],
        "postalCode": "M1W2V1",
        "streetName": "BRIDELTOWNE",
        "streetDirectionId": null,
        "streetTypeId": "CIR",
        "placeName": "SCARBOROUGH",
        "streetNameDisplayText": "BRIDELTOWNE CIR, SCARBOROUGH"
      },
      {
        "electoralDistricts": [
          {
            "election": null,
            "id": 93,
            "name": "Scarborough—Agincourt"
          }
        ],
        "pollDivisionIds": [
          10141513
        ],
        "postalCode": "M1W2V1",
        "streetName": "BRIDLETOWN",
        "streetDirectionId": null,
        "streetTypeId": "CIR",
        "placeName": "SCARBOROUGH",
        "streetNameDisplayText": "BRIDLETOWN CIR, SCARBOROUGH"
      },
      {
        "electoralDistricts": [
          {
            "election": null,
            "id": 93,
            "name": "Scarborough—Agincourt"
          }
        ],
        "pollDivisionIds": [
          10141528,
          10141513
        ],
        "postalCode": "M1W2V1",
        "streetName": "BRIDLETOWNE",
        "streetDirectionId": null,
        "streetTypeId": "CIR",
        "placeName": "SCARBOROUGH",
        "streetNameDisplayText": "BRIDLETOWNE CIR, SCARBOROUGH"
      }
    ]
  },
  {
    "postal": "M1W3L8",
    "result": [
      {
        "electoralDistricts": [
          {
            "election": null,
            "id": 93,
            "name": "Scarborough—Agincourt"
          }
        ],
        "pollDivisionIds": [
          10141524
        ],
        "postalCode": "M1W3L8",
        "streetName": "TAMBROOK",
        "streetDirectionId": null,
        "streetTypeId": "DR",
        "placeName": "SCARBOROUGH",
        "streetNameDisplayText": "TAMBROOK DR, SCARBOROUGH"
      }
    ]
  },
  {
    "postal": "M1W2R8",
    "result": [
      {
        "electoralDistricts": [
          {
            "election": null,
            "id": 93,
            "name": "Scarborough—Agincourt"
          }
        ],
        "pollDivisionIds": [
          10141520
        ],
        "postalCode": "M1W2R8",
        "streetName": "VICTORIA PARK",
        "streetDirectionId": null,
        "streetTypeId": "AVE",
        "placeName": "SCARBOROUGH",
        "streetNameDisplayText": "VICTORIA PARK AVE, SCARBOROUGH"
      }
    ]
  },
  {
    "postal": "M1W5C1",
    "result": []
  },
  {
    "postal": "M1W4W3",
    "result": []
  },
  {
    "postal": "M1W5X5",
    "result": []
  },
  {
    "postal": "M1W9W5",
    "result": []
  },
  {
    "postal": "M1W3C4",
    "result": [
      {
        "electoralDistricts": [
          {
            "election": null,
            "id": 93,
            "name": "Scarborough—Agincourt"
          }
        ],
        "pollDivisionIds": [
          10141517
        ],
        "postalCode": "M1W3C4",
        "streetName": "REDHEUGH",
        "streetDirectionId": null,
        "streetTypeId": "CRES",
        "placeName": "SCARBOROUGH",
        "streetNameDisplayText": "REDHEUGH CRES, SCARBOROUGH"
      }
    ]
  },
  {
    "postal": "M1W1N6",
    "result": [
      {
        "electoralDistricts": [
          {
            "election": null,
            "id": 93,
            "name": "Scarborough—Agincourt"
          }
        ],
        "pollDivisionIds": [
          10141527
        ],
        "postalCode": "M1W1N6",
        "streetName": "KELVINWAY",
        "streetDirectionId": null,
        "streetTypeId": "DR",
        "placeName": "SCARBOROUGH",
        "streetNameDisplayText": "KELVINWAY DR, SCARBOROUGH"
      }
    ]
  },
  {
    "postal": "M1W9S9",
    "result": []
  },
  {
    "postal": "M1W9M2",
    "result": []
  },
  {
    "postal": "M1W8Y4",
    "result": []
  },
  {
    "postal": "M1W7S4",
    "result": []
  },
  {
    "postal": "M1W0K6",
    "result": []
  },
  {
    "postal": "M1W1W3",
    "result": [
      {
        "electoralDistricts": [
          {
            "election": null,
            "id": 93,
            "name": "Scarborough—Agincourt"
          }
        ],
        "pollDivisionIds": [
          10141522
        ],
        "postalCode": "M1W1W3",
        "streetName": "BEVERLY GLEN",
        "streetDirectionId": null,
        "streetTypeId": "BLVD",
        "placeName": "SCARBOROUGH",
        "streetNameDisplayText": "BEVERLY GLEN BLVD, SCARBOROUGH"
      }
    ]
  },
  {
    "postal": "M1W7R2",
    "result": []
  },
  {
    "postal": "M1W2Y9",
    "result": [
      {
        "electoralDistricts": [
          {
            "election": null,
            "id": 93,
            "name": "Scarborough—Agincourt"
          }
        ],
        "pollDivisionIds": [
          10141513
        ],
        "postalCode": "M1W2Y9",
        "streetName": "HUNTSMILL",
        "streetDirectionId": null,
        "streetTypeId": "BLVD",
        "placeName": "SCARBOROUGH",
        "streetNameDisplayText": "HUNTSMILL BLVD, SCARBOROUGH"
      }
    ]
  },
  {
    "postal": "M1W7G4",
    "result": []
  },
  {
    "postal": "M1W7E5",
    "result": []
  },
  {
    "postal": "M1W9G2",
    "result": []
  },
  {
    "postal": "M1W7Y8",
    "result": []
  },
  {
    "postal": "M1W9V2",
    "result": []
  },
  {
    "postal": "M1W3T7",
    "result": [
      {
        "electoralDistricts": [
          {
            "election": null,
            "id": 93,
            "name": "Scarborough—Agincourt"
          }
        ],
        "pollDivisionIds": [
          10141514
        ],
        "postalCode": "M1W3T7",
        "streetName": "LESSKIM",
        "streetDirectionId": null,
        "streetTypeId": "CRT",
        "placeName": "SCARBOROUGH",
        "streetNameDisplayText": "LESSKIM CRT, SCARBOROUGH"
      }
    ]
  },
  {
    "postal": "M1W1H0",
    "result": []
  },
  {
    "postal": "M1W1M7",
    "result": [
      {
        "electoralDistricts": [
          {
            "election": null,
            "id": 93,
            "name": "Scarborough—Agincourt"
          }
        ],
        "pollDivisionIds": [
          10141527
        ],
        "postalCode": "M1W1M7",
        "streetName": "COLLINGSBROOK",
        "streetDirectionId": null,
        "streetTypeId": "BLVD",
        "placeName": "SCARBOROUGH",
        "streetNameDisplayText": "COLLINGSBROOK BLVD, SCARBOROUGH"
      }
    ]
  },
  {
    "postal": "M1W8V4",
    "result": []
  },
  {
    "postal": "M1W4M2",
    "result": []
  },
  {
    "postal": "M1W0X2",
    "result": []
  },
  {
    "postal": "M1W5Z4",
    "result": []
  },
  {
    "postal": "M1W6V4",
    "result": []
  },
  {
    "postal": "M1W8J3",
    "result": []
  },
  {
    "postal": "M1W8E5",
    "result": []
  },
  {
    "postal": "M1W2V5",
    "result": [
      {
        "electoralDistricts": [
          {
            "election": null,
            "id": 93,
            "name": "Scarborough—Agincourt"
          }
        ],
        "pollDivisionIds": [
          10141524
        ],
        "postalCode": "M1W2V5",
        "streetName": "BRIDELTOWNE",
        "streetDirectionId": null,
        "streetTypeId": "CIR",
        "placeName": "SCARBOROUGH",
        "streetNameDisplayText": "BRIDELTOWNE CIR, SCARBOROUGH"
      },
      {
        "electoralDistricts": [
          {
            "election": null,
            "id": 93,
            "name": "Scarborough—Agincourt"
          }
        ],
        "pollDivisionIds": [
          10141524
        ],
        "postalCode": "M1W2V5",
        "streetName": "BRIDLETOWN",
        "streetDirectionId": null,
        "streetTypeId": "CIR",
        "placeName": "SCARBOROUGH",
        "streetNameDisplayText": "BRIDLETOWN CIR, SCARBOROUGH"
      },
      {
        "electoralDistricts": [
          {
            "election": null,
            "id": 94,
            "name": "Scarborough Centre"
          }
        ],
        "pollDivisionIds": [
          10141588
        ],
        "postalCode": "M1W2V5",
        "streetName": "BRIDLETOWN CIRCLE",
        "streetDirectionId": null,
        "streetTypeId": "CIR",
        "placeName": "SCARBOROUGH",
        "streetNameDisplayText": "BRIDLETOWN CIRCLE CIR, SCARBOROUGH"
      },
      {
        "electoralDistricts": [
          {
            "election": null,
            "id": 93,
            "name": "Scarborough—Agincourt"
          }
        ],
        "pollDivisionIds": [
          10141524
        ],
        "postalCode": "M1W2V5",
        "streetName": "BRIDLETOWNE",
        "streetDirectionId": null,
        "streetTypeId": "CIR",
        "placeName": "SCARBOROGH",
        "streetNameDisplayText": "BRIDLETOWNE CIR, SCARBOROGH"
      },
      {
        "electoralDistricts": [
          {
            "election": null,
            "id": 93,
            "name": "Scarborough—Agincourt"
          }
        ],
        "pollDivisionIds": [
          10141524
        ],
        "postalCode": "M1W2V5",
        "streetName": "BRIDLETOWNE",
        "streetDirectionId": null,
        "streetTypeId": "CIR",
        "placeName": "SCARBOROUGH",
        "streetNameDisplayText": "BRIDLETOWNE CIR, SCARBOROUGH"
      }
    ]
  },
  {
    "postal": "M1W7S1",
    "result": []
  },
  {
    "postal": "M1W6V3",
    "result": []
  },
  {
    "postal": "M1W2L8",
    "result": [
      {
        "electoralDistricts": [
          {
            "election": null,
            "id": 93,
            "name": "Scarborough—Agincourt"
          }
        ],
        "pollDivisionIds": [
          10141513
        ],
        "postalCode": "M1W2L8",
        "streetName": "MCNICOLL",
        "streetDirectionId": null,
        "streetTypeId": "AVE",
        "placeName": "SCARBOROUGH",
        "streetNameDisplayText": "MCNICOLL AVE, SCARBOROUGH"
      }
    ]
  },
  {
    "postal": "M1W9V0",
    "result": []
  },
  {
    "postal": "M1W3M4",
    "result": [
      {
        "electoralDistricts": [
          {
            "election": null,
            "id": 93,
            "name": "Scarborough—Agincourt"
          }
        ],
        "pollDivisionIds": [
          10141517
        ],
        "postalCode": "M1W3M4",
        "streetName": "WINTERMUTE",
        "streetDirectionId": null,
        "streetTypeId": "BLVD",
        "placeName": "SCARBOROUGH",
        "streetNameDisplayText": "WINTERMUTE BLVD, SCARBOROUGH"
      }
    ]
  },
  {
    "postal": "M1W5B2",
    "result": []
  },
  {
    "postal": "M1W3X5",
    "result": []
  },
  {
    "postal": "M1W9R7",
    "result": []
  },
  {
    "postal": "M1W2X2",
    "result": [
      {
        "electoralDistricts": [
          {
            "election": null,
            "id": 93,
            "name": "Scarborough—Agincourt"
          }
        ],
        "pollDivisionIds": [
          10141513
        ],
        "postalCode": "M1W2X2",
        "streetName": "SPRINGHOUSE",
        "streetDirectionId": null,
        "streetTypeId": "SQ",
        "placeName": "SCARBOROUGH",
        "streetNameDisplayText": "SPRINGHOUSE SQ, SCARBOROUGH"
      }
    ]
  },
  {
    "postal": "M1W8Z6",
    "result": []
  },
  {
    "postal": "M1W4R4",
    "result": []
  },
  {
    "postal": "M1W2R1",
    "result": [
      {
        "electoralDistricts": [
          {
            "election": null,
            "id": 93,
            "name": "Scarborough—Agincourt"
          }
        ],
        "pollDivisionIds": [
          10141526
        ],
        "postalCode": "M1W2R1",
        "streetName": "ALTAIR",
        "streetDirectionId": null,
        "streetTypeId": "AVE",
        "placeName": "SCARBOROUGH",
        "streetNameDisplayText": "ALTAIR AVE, SCARBOROUGH"
      }
    ]
  },
  {
    "postal": "M1W3R8",
    "result": [
      {
        "electoralDistricts": [
          {
            "election": null,
            "id": 93,
            "name": "Scarborough—Agincourt"
          }
        ],
        "pollDivisionIds": [
          10141514
        ],
        "postalCode": "M1W3R8",
        "streetName": "HUNTSMILL",
        "streetDirectionId": null,
        "streetTypeId": "BLVD",
        "placeName": "SCARBOROUGH",
        "streetNameDisplayText": "HUNTSMILL BLVD, SCARBOROUGH"
      }
    ]
  },
  {
    "postal": "M1W9A1",
    "result": []
  },
  {
    "postal": "M1W8L3",
    "result": []
  },
  {
    "postal": "M1W9K4",
    "result": []
  },
  {
    "postal": "M1W9S3",
    "result": []
  },
  {
    "postal": "M1W8N7",
    "result": []
  },
  {
    "postal": "M1W1C6",
    "result": [
      {
        "electoralDistricts": [
          {
            "election": null,
            "id": 93,
            "name": "Scarborough—Agincourt"
          }
        ],
        "pollDivisionIds": [
          10141526
        ],
        "postalCode": "M1W1C6",
        "streetName": "ORANGEWOOD",
        "streetDirectionId": null,
        "streetTypeId": "CRES",
        "placeName": "SCARBOROUGH",
        "streetNameDisplayText": "ORANGEWOOD CRES, SCARBOROUGH"
      }
    ]
  },
  {
    "postal": "M1W3Z8",
    "result": [
      {
        "electoralDistricts": [
          {
            "election": null,
            "id": 93,
            "name": "Scarborough—Agincourt"
          }
        ],
        "pollDivisionIds": [
          10141527
        ],
        "postalCode": "M1W3Z8",
        "streetName": "BRIARGLEN",
        "streetDirectionId": null,
        "streetTypeId": "CRT",
        "placeName": "SCARBOROUGH",
        "streetNameDisplayText": "BRIARGLEN CRT, SCARBOROUGH"
      }
    ]
  },
  {
    "postal": "M1W8G5",
    "result": []
  },
  {
    "postal": "M1W5R6",
    "result": []
  },
  {
    "postal": "M1W2W3",
    "result": [
      {
        "electoralDistricts": [
          {
            "election": null,
            "id": 93,
            "name": "Scarborough—Agincourt"
          }
        ],
        "pollDivisionIds": [
          10141514
        ],
        "postalCode": "M1W2W3",
        "streetName": "HUNTSMILL",
        "streetDirectionId": null,
        "streetTypeId": "BLVD",
        "placeName": "SCARBOROUGH",
        "streetNameDisplayText": "HUNTSMILL BLVD, SCARBOROUGH"
      }
    ]
  },
  {
    "postal": "M1W0A0",
    "result": []
  },
  {
    "postal": "M1W6P8",
    "result": []
  },
  {
    "postal": "M1W8N9",
    "result": []
  },
  {
    "postal": "M1W0S9",
    "result": []
  },
  {
    "postal": "M1W8G0",
    "result": []
  },
  {
    "postal": "M1W8C7",
    "result": []
  },
  {
    "postal": "M1W5X8",
    "result": []
  },
  {
    "postal": "M1W7E8",
    "result": []
  },
  {
    "postal": "M1W6X2",
    "result": []
  },
  {
    "postal": "M1W4C6",
    "result": []
  },
  {
    "postal": "M1W7H2",
    "result": []
  },
  {
    "postal": "M1W4R0",
    "result": []
  },
  {
    "postal": "M1W6J3",
    "result": []
  },
  {
    "postal": "M1W4B8",
    "result": []
  },
  {
    "postal": "M1W6H6",
    "result": []
  },
  {
    "postal": "M1W0S1",
    "result": []
  },
  {
    "postal": "M1W4E3",
    "result": []
  },
  {
    "postal": "M1W7K2",
    "result": []
  },
  {
    "postal": "M1W7T8",
    "result": []
  },
  {
    "postal": "M1W0J9",
    "result": []
  },
  {
    "postal": "M1W5J9",
    "result": []
  },
  {
    "postal": "M1W5S7",
    "result": []
  },
  {
    "postal": "M1W0G9",
    "result": []
  },
  {
    "postal": "M1W3J9",
    "result": [
      {
        "electoralDistricts": [
          {
            "election": null,
            "id": 93,
            "name": "Scarborough—Agincourt"
          }
        ],
        "pollDivisionIds": [
          10141519
        ],
        "postalCode": "M1W3J9",
        "streetName": "AMBERCROFT",
        "streetDirectionId": null,
        "streetTypeId": "BLVD",
        "placeName": "SCARBOROUGH",
        "streetNameDisplayText": "AMBERCROFT BLVD, SCARBOROUGH"
      }
    ]
  },
  {
    "postal": "M1W2Y0",
    "result": []
  },
  {
    "postal": "M1W8X5",
    "result": []
  },
  {
    "postal": "M1W2M7",
    "result": [
      {
        "electoralDistricts": [
          {
            "election": null,
            "id": 93,
            "name": "Scarborough—Agincourt"
          }
        ],
        "pollDivisionIds": [
          10141520
        ],
        "postalCode": "M1W2M7",
        "streetName": "CHESTER LE",
        "streetDirectionId": null,
        "streetTypeId": "BLVD",
        "placeName": "SCARBOROUGH",
        "streetNameDisplayText": "CHESTER LE BLVD, SCARBOROUGH"
      }
    ]
  },
  {
    "postal": "M1W9Z3",
    "result": []
  },
  {
    "postal": "M1W7W2",
    "result": []
  },
  {
    "postal": "M1W3W0",
    "result": []
  },
  {
    "postal": "M1W3M1",
    "result": [
      {
        "electoralDistricts": [
          {
            "election": null,
            "id": 93,
            "name": "Scarborough—Agincourt"
          }
        ],
        "pollDivisionIds": [
          10141517
        ],
        "postalCode": "M1W3M1",
        "streetName": "BELINDA",
        "streetDirectionId": null,
        "streetTypeId": "SQ",
        "placeName": "SCARBOROUGH",
        "streetNameDisplayText": "BELINDA SQ, SCARBOROUGH"
      }
    ]
  },
  {
    "postal": "M1W6A5",
    "result": []
  },
  {
    "postal": "M1W2M9",
    "result": [
      {
        "electoralDistricts": [
          {
            "election": null,
            "id": 93,
            "name": "Scarborough—Agincourt"
          }
        ],
        "pollDivisionIds": [
          10141520
        ],
        "postalCode": "M1W2M9",
        "streetName": "CHESTER LE",
        "streetDirectionId": null,
        "streetTypeId": "BLVD",
        "placeName": "SCARBOROUGH",
        "streetNameDisplayText": "CHESTER LE BLVD, SCARBOROUGH"
      }
    ]
  },
  {
    "postal": "M1W5C3",
    "result": []
  },
  {
    "postal": "M1W0Y6",
    "result": []
  },
  {
    "postal": "M1W9H7",
    "result": []
  },
  {
    "postal": "M1W3L0",
    "result": []
  },
  {
    "postal": "M1W5N9",
    "result": []
  },
  {
    "postal": "M1W5E3",
    "result": []
  },
  {
    "postal": "M1W7M9",
    "result": []
  },
  {
    "postal": "M1W8N2",
    "result": []
  },
  {
    "postal": "M1W9H3",
    "result": []
  },
  {
    "postal": "M1W2K8",
    "result": [
      {
        "electoralDistricts": [
          {
            "election": null,
            "id": 93,
            "name": "Scarborough—Agincourt"
          }
        ],
        "pollDivisionIds": [
          10141520
        ],
        "postalCode": "M1W2K8",
        "streetName": "CHESTER LE",
        "streetDirectionId": null,
        "streetTypeId": "BLVD",
        "placeName": "SCARBOROUGH",
        "streetNameDisplayText": "CHESTER LE BLVD, SCARBOROUGH"
      }
    ]
  },
  {
    "postal": "M1W9L0",
    "result": []
  },
  {
    "postal": "M1W6L9",
    "result": []
  },
  {
    "postal": "M1W6A8",
    "result": []
  },
  {
    "postal": "M1W2K6",
    "result": [
      {
        "electoralDistricts": [
          {
            "election": null,
            "id": 93,
            "name": "Scarborough—Agincourt"
          }
        ],
        "pollDivisionIds": [
          10141520
        ],
        "postalCode": "M1W2K6",
        "streetName": "CHESTER LE",
        "streetDirectionId": null,
        "streetTypeId": "BLVD",
        "placeName": "SCARBOROUGH",
        "streetNameDisplayText": "CHESTER LE BLVD, SCARBOROUGH"
      }
    ]
  },
  {
    "postal": "M1W2M0",
    "result": []
  },
  {
    "postal": "M1W5X7",
    "result": []
  },
  {
    "postal": "M1W0M7",
    "result": []
  },
  {
    "postal": "M1W7A6",
    "result": []
  },
  {
    "postal": "M1W3C5",
    "result": [
      {
        "electoralDistricts": [
          {
            "election": null,
            "id": 93,
            "name": "Scarborough—Agincourt"
          }
        ],
        "pollDivisionIds": [
          10141517
        ],
        "postalCode": "M1W3C5",
        "streetName": "ELMARTIN",
        "streetDirectionId": null,
        "streetTypeId": "DR",
        "placeName": "SCARBOROUGH",
        "streetNameDisplayText": "ELMARTIN DR, SCARBOROUGH"
      }
    ]
  },
  {
    "postal": "M1W2P2",
    "result": [
      {
        "electoralDistricts": [
          {
            "election": null,
            "id": 93,
            "name": "Scarborough—Agincourt"
          }
        ],
        "pollDivisionIds": [
          10141527
        ],
        "postalCode": "M1W2P2",
        "streetName": "SPRUCEWOOD",
        "streetDirectionId": null,
        "streetTypeId": "CRT",
        "placeName": "SCARBOROUGH",
        "streetNameDisplayText": "SPRUCEWOOD CRT, SCARBOROUGH"
      }
    ]
  },
  {
    "postal": "M1W9N4",
    "result": []
  },
  {
    "postal": "M1W3M9",
    "result": [
      {
        "electoralDistricts": [
          {
            "election": null,
            "id": 93,
            "name": "Scarborough—Agincourt"
          }
        ],
        "pollDivisionIds": [
          10141517
        ],
        "postalCode": "M1W3M9",
        "streetName": "WINTERMUTE",
        "streetDirectionId": null,
        "streetTypeId": "BLVD",
        "placeName": "SCARBOROUGH",
        "streetNameDisplayText": "WINTERMUTE BLVD, SCARBOROUGH"
      }
    ]
  },
  {
    "postal": "M1W8K6",
    "result": []
  },
  {
    "postal": "M1W1L2",
    "result": [
      {
        "electoralDistricts": [
          {
            "election": null,
            "id": 93,
            "name": "Scarborough—Agincourt"
          }
        ],
        "pollDivisionIds": [
          10141527
        ],
        "postalCode": "M1W1L2",
        "streetName": "CARONRIDGE",
        "streetDirectionId": null,
        "streetTypeId": "CRES",
        "placeName": "SCARBOROUGH",
        "streetNameDisplayText": "CARONRIDGE CRES, SCARBOROUGH"
      }
    ]
  },
  {
    "postal": "M1W2Z9",
    "result": [
      {
        "electoralDistricts": [
          {
            "election": null,
            "id": 93,
            "name": "Scarborough—Agincourt"
          }
        ],
        "pollDivisionIds": [
          10141524
        ],
        "postalCode": "M1W2Z9",
        "streetName": "CALORA",
        "streetDirectionId": null,
        "streetTypeId": "CRT",
        "placeName": "SCARBOROUGH",
        "streetNameDisplayText": "CALORA CRT, SCARBOROUGH"
      }
    ]
  },
  {
    "postal": "M1W2S2",
    "result": [
      {
        "electoralDistricts": [
          {
            "election": null,
            "id": 93,
            "name": "Scarborough—Agincourt"
          }
        ],
        "pollDivisionIds": [
          10141528
        ],
        "postalCode": "M1W2S2",
        "streetName": "FINCH",
        "streetDirectionId": "E",
        "streetTypeId": "AVE",
        "placeName": "SCARBOROUGH",
        "streetNameDisplayText": "FINCH AVE E, SCARBOROUGH"
      }
    ]
  },
  {
    "postal": "M1W2W2",
    "result": [
      {
        "electoralDistricts": [
          {
            "election": null,
            "id": 93,
            "name": "Scarborough—Agincourt"
          }
        ],
        "pollDivisionIds": [
          10141514
        ],
        "postalCode": "M1W2W2",
        "streetName": "HUNTSMILL",
        "streetDirectionId": null,
        "streetTypeId": "BLVD",
        "placeName": "SCARBOROUGH",
        "streetNameDisplayText": "HUNTSMILL BLVD, SCARBOROUGH"
      }
    ]
  },
  {
    "postal": "M1W2C3",
    "result": [
      {
        "electoralDistricts": [
          {
            "election": null,
            "id": 93,
            "name": "Scarborough—Agincourt"
          }
        ],
        "pollDivisionIds": [
          10141528
        ],
        "postalCode": "M1W2C3",
        "streetName": "GLOXINIA",
        "streetDirectionId": null,
        "streetTypeId": "CRES",
        "placeName": "SCARBOROUGH",
        "streetNameDisplayText": "GLOXINIA CRES, SCARBOROUGH"
      }
    ]
  },
  {
    "postal": "M1W6L7",
    "result": []
  },
  {
    "postal": "M1W3K0",
    "result": []
  },
  {
    "postal": "M1W3C1",
    "result": [
      {
        "electoralDistricts": [
          {
            "election": null,
            "id": 93,
            "name": "Scarborough—Agincourt"
          }
        ],
        "pollDivisionIds": [
          10141519
        ],
        "postalCode": "M1W3C1",
        "streetName": "HOOD",
        "streetDirectionId": null,
        "streetTypeId": "CRES",
        "placeName": "SCARBOROUGH",
        "streetNameDisplayText": "HOOD CRES, SCARBOROUGH"
      }
    ]
  },
  {
    "postal": "M1W6M9",
    "result": []
  },
  {
    "postal": "M1W4N9",
    "result": []
  },
  {
    "postal": "M1W3Y7",
    "result": []
  },
  {
    "postal": "M1W2A9",
    "result": [
      {
        "electoralDistricts": [
          {
            "election": null,
            "id": 93,
            "name": "Scarborough—Agincourt"
          }
        ],
        "pollDivisionIds": [
          10141528
        ],
        "postalCode": "M1W2A9",
        "streetName": "CARONDALE",
        "streetDirectionId": null,
        "streetTypeId": "CRES",
        "placeName": "SCARBOROUGH",
        "streetNameDisplayText": "CARONDALE CRES, SCARBOROUGH"
      }
    ]
  },
  {
    "postal": "M1W6H5",
    "result": []
  },
  {
    "postal": "M1W8B4",
    "result": []
  },
  {
    "postal": "M1W4Z2",
    "result": []
  },
  {
    "postal": "M1W9J0",
    "result": []
  },
  {
    "postal": "M1W7V7",
    "result": []
  },
  {
    "postal": "M1W5T5",
    "result": []
  },
  {
    "postal": "M1W4W5",
    "result": []
  },
  {
    "postal": "M1W1T8",
    "result": [
      {
        "electoralDistricts": [
          {
            "election": null,
            "id": 93,
            "name": "Scarborough—Agincourt"
          }
        ],
        "pollDivisionIds": [
          10141522
        ],
        "postalCode": "M1W1T8",
        "streetName": "HEATHERSIDE",
        "streetDirectionId": null,
        "streetTypeId": "DR",
        "placeName": "SCARBOROUGH",
        "streetNameDisplayText": "HEATHERSIDE DR, SCARBOROUGH"
      }
    ]
  },
  {
    "postal": "M1W9G6",
    "result": []
  },
  {
    "postal": "M1W1H3",
    "result": [
      {
        "electoralDistricts": [
          {
            "election": null,
            "id": 93,
            "name": "Scarborough—Agincourt"
          }
        ],
        "pollDivisionIds": [
          10141528
        ],
        "postalCode": "M1W1H3",
        "streetName": "HUNTINGWOOD",
        "streetDirectionId": null,
        "streetTypeId": "DR",
        "placeName": "SCARBOROUGH",
        "streetNameDisplayText": "HUNTINGWOOD DR, SCARBOROUGH"
      }
    ]
  },
  {
    "postal": "M1W5R5",
    "result": []
  },
  {
    "postal": "M1W8A4",
    "result": []
  },
  {
    "postal": "M1W3T6",
    "result": [
      {
        "electoralDistricts": [
          {
            "election": null,
            "id": 93,
            "name": "Scarborough—Agincourt"
          }
        ],
        "pollDivisionIds": [
          10141516
        ],
        "postalCode": "M1W3T6",
        "streetName": "BAMBURGH",
        "streetDirectionId": null,
        "streetTypeId": "CIR",
        "placeName": "SCARBOROUGH",
        "streetNameDisplayText": "BAMBURGH CIR, SCARBOROUGH"
      }
    ]
  },
  {
    "postal": "M1W9W8",
    "result": []
  },
  {
    "postal": "M1W0N3",
    "result": []
  },
  {
    "postal": "M1W7V0",
    "result": []
  },
  {
    "postal": "M1W8T5",
    "result": []
  },
  {
    "postal": "M1W5N3",
    "result": []
  },
  {
    "postal": "M1W5G9",
    "result": []
  },
  {
    "postal": "M1W3X8",
    "result": [
      {
        "electoralDistricts": [
          {
            "election": null,
            "id": 93,
            "name": "Scarborough—Agincourt"
          }
        ],
        "pollDivisionIds": [
          10141514
        ],
        "postalCode": "M1W3X8",
        "streetName": "BAMBURGH",
        "streetDirectionId": null,
        "streetTypeId": "CIR",
        "placeName": "SCARBOROUGH",
        "streetNameDisplayText": "BAMBURGH CIR, SCARBOROUGH"
      }
    ]
  },
  {
    "postal": "M1W9R3",
    "result": []
  },
  {
    "postal": "M1W2S1",
    "result": [
      {
        "electoralDistricts": [
          {
            "election": null,
            "id": 93,
            "name": "Scarborough—Agincourt"
          }
        ],
        "pollDivisionIds": [
          10141528
        ],
        "postalCode": "M1W2S1",
        "streetName": "FINCH",
        "streetDirectionId": "E",
        "streetTypeId": "AVE",
        "placeName": "SCARBOROUGH",
        "streetNameDisplayText": "FINCH AVE E, SCARBOROUGH"
      }
    ]
  },
  {
    "postal": "M1W9J7",
    "result": []
  },
  {
    "postal": "M1W2J3",
    "result": [
      {
        "electoralDistricts": [
          {
            "election": null,
            "id": 93,
            "name": "Scarborough—Agincourt"
          }
        ],
        "pollDivisionIds": [
          10141520
        ],
        "postalCode": "M1W2J3",
        "streetName": "PARKDENE",
        "streetDirectionId": null,
        "streetTypeId": "CRT",
        "placeName": "SCARBOROUGH",
        "streetNameDisplayText": "PARKDENE CRT, SCARBOROUGH"
      }
    ]
  },
  {
    "postal": "M1W3B6",
    "result": [
      {
        "electoralDistricts": [
          {
            "election": null,
            "id": 93,
            "name": "Scarborough—Agincourt"
          }
        ],
        "pollDivisionIds": [
          10141513
        ],
        "postalCode": "M1W3B6",
        "streetName": "CRAYFORD",
        "streetDirectionId": null,
        "streetTypeId": "DR",
        "placeName": "SCARBOROUGH",
        "streetNameDisplayText": "CRAYFORD DR, SCARBOROUGH"
      }
    ]
  },
  {
    "postal": "M1W8J0",
    "result": []
  },
  {
    "postal": "M1W7R4",
    "result": []
  },
  {
    "postal": "M1W8K8",
    "result": []
  },
  {
    "postal": "M1W4P3",
    "result": []
  },
  {
    "postal": "M1W0A2",
    "result": []
  },
  {
    "postal": "M1W2G2",
    "result": [
      {
        "electoralDistricts": [
          {
            "election": null,
            "id": 93,
            "name": "Scarborough—Agincourt"
          }
        ],
        "pollDivisionIds": [
          10141524
        ],
        "postalCode": "M1W2G2",
        "streetName": "DARNBOROUGH",
        "streetDirectionId": null,
        "streetTypeId": "WAY",
        "placeName": "SCARBOROUGH",
        "streetNameDisplayText": "DARNBOROUGH WAY, SCARBOROUGH"
      }
    ]
  },
  {
    "postal": "M1W5Y9",
    "result": []
  },
  {
    "postal": "M1W7X0",
    "result": []
  },
  {
    "postal": "M1W7W3",
    "result": []
  },
  {
    "postal": "M1W7X5",
    "result": []
  },
  {
    "postal": "M1W5K6",
    "result": []
  },
  {
    "postal": "M1W5B6",
    "result": []
  },
  {
    "postal": "M1W7Z0",
    "result": []
  },
  {
    "postal": "M1W9H6",
    "result": []
  },
  {
    "postal": "M1W1B4",
    "result": [
      {
        "electoralDistricts": [
          {
            "election": null,
            "id": 93,
            "name": "Scarborough—Agincourt"
          }
        ],
        "pollDivisionIds": [
          10141526
        ],
        "postalCode": "M1W1B4",
        "streetName": "CORINTHIAN",
        "streetDirectionId": null,
        "streetTypeId": "BLVD",
        "placeName": "SCARBOROUGH",
        "streetNameDisplayText": "CORINTHIAN BLVD, SCARBOROUGH"
      }
    ]
  },
  {
    "postal": "M1W1A0",
    "result": []
  },
  {
    "postal": "M1W9A0",
    "result": []
  },
  {
    "postal": "M1W1M6",
    "result": [
      {
        "electoralDistricts": [
          {
            "election": null,
            "id": 93,
            "name": "Scarborough—Agincourt"
          }
        ],
        "pollDivisionIds": [
          10141513,
          10141527
        ],
        "postalCode": "M1W1M6",
        "streetName": "COLLINGSBROOK",
        "streetDirectionId": null,
        "streetTypeId": "BLVD",
        "placeName": "SCARBOROUGH",
        "streetNameDisplayText": "COLLINGSBROOK BLVD, SCARBOROUGH"
      }
    ]
  },
  {
    "postal": "M1W5H0",
    "result": []
  },
  {
    "postal": "M1W1K6",
    "result": [
      {
        "electoralDistricts": [
          {
            "election": null,
            "id": 93,
            "name": "Scarborough—Agincourt"
          }
        ],
        "pollDivisionIds": [
          10141527
        ],
        "postalCode": "M1W1K6",
        "streetName": "ROSSCOWAN",
        "streetDirectionId": null,
        "streetTypeId": "CRES",
        "placeName": "SCARBOROUGH",
        "streetNameDisplayText": "ROSSCOWAN CRES, SCARBOROUGH"
      }
    ]
  },
  {
    "postal": "M1W5E1",
    "result": []
  },
  {
    "postal": "M1W3T9",
    "result": [
      {
        "electoralDistricts": [
          {
            "election": null,
            "id": 93,
            "name": "Scarborough—Agincourt"
          }
        ],
        "pollDivisionIds": [
          10141517
        ],
        "postalCode": "M1W3T9",
        "streetName": "RIVER GROVE",
        "streetDirectionId": null,
        "streetTypeId": "DR",
        "placeName": "SCARBOROUGH",
        "streetNameDisplayText": "RIVER GROVE DR, SCARBOROUGH"
      }
    ]
  },
  {
    "postal": "M1W2M6",
    "result": [
      {
        "electoralDistricts": [
          {
            "election": null,
            "id": 93,
            "name": "Scarborough—Agincourt"
          }
        ],
        "pollDivisionIds": [
          10141527
        ],
        "postalCode": "M1W2M6",
        "streetName": "AURORA",
        "streetDirectionId": null,
        "streetTypeId": "CRT",
        "placeName": "SCARBOROUGH",
        "streetNameDisplayText": "AURORA CRT, SCARBOROUGH"
      }
    ]
  },
  {
    "postal": "M1W0G5",
    "result": []
  },
  {
    "postal": "M1W0Y2",
    "result": []
  },
  {
    "postal": "M1W2Y7",
    "result": [
      {
        "electoralDistricts": [
          {
            "election": null,
            "id": 93,
            "name": "Scarborough—Agincourt"
          }
        ],
        "pollDivisionIds": [
          10141513
        ],
        "postalCode": "M1W2Y7",
        "streetName": "RELROY",
        "streetDirectionId": null,
        "streetTypeId": "CRT",
        "placeName": "SCARBOROUGH",
        "streetNameDisplayText": "RELROY CRT, SCARBOROUGH"
      }
    ]
  },
  {
    "postal": "M1W2J7",
    "result": [
      {
        "electoralDistricts": [
          {
            "election": null,
            "id": 93,
            "name": "Scarborough—Agincourt"
          }
        ],
        "pollDivisionIds": [
          10141524
        ],
        "postalCode": "M1W2J7",
        "streetName": "BRIDELTOWNE",
        "streetDirectionId": null,
        "streetTypeId": "CIR",
        "placeName": "SCARBOROUGH",
        "streetNameDisplayText": "BRIDELTOWNE CIR, SCARBOROUGH"
      },
      {
        "electoralDistricts": [
          {
            "election": null,
            "id": 93,
            "name": "Scarborough—Agincourt"
          }
        ],
        "pollDivisionIds": [
          10141524
        ],
        "postalCode": "M1W2J7",
        "streetName": "BRIDLETOWNE",
        "streetDirectionId": null,
        "streetTypeId": "CIR",
        "placeName": "SCARBOROUGH",
        "streetNameDisplayText": "BRIDLETOWNE CIR, SCARBOROUGH"
      }
    ]
  },
  {
    "postal": "M1W4K7",
    "result": []
  },
  {
    "postal": "M1W7P9",
    "result": []
  },
  {
    "postal": "M1W8X0",
    "result": []
  },
  {
    "postal": "M1W3X1",
    "result": [
      {
        "electoralDistricts": [
          {
            "election": null,
            "id": 93,
            "name": "Scarborough—Agincourt"
          }
        ],
        "pollDivisionIds": [
          10141514
        ],
        "postalCode": "M1W3X1",
        "streetName": "SOUTER",
        "streetDirectionId": null,
        "streetTypeId": "CRT",
        "placeName": "SCARBOROUGH",
        "streetNameDisplayText": "SOUTER CRT, SCARBOROUGH"
      }
    ]
  },
  {
    "postal": "M1W1R5",
    "result": [
      {
        "electoralDistricts": [
          {
            "election": null,
            "id": 93,
            "name": "Scarborough—Agincourt"
          }
        ],
        "pollDivisionIds": [
          10141527
        ],
        "postalCode": "M1W1R5",
        "streetName": "KENMANOR",
        "streetDirectionId": null,
        "streetTypeId": "BLVD",
        "placeName": "SCARBOROUGH",
        "streetNameDisplayText": "KENMANOR BLVD, SCARBOROUGH"
      }
    ]
  },
  {
    "postal": "M1W6X6",
    "result": []
  },
  {
    "postal": "M1W0Y1",
    "result": []
  },
  {
    "postal": "M1W8G1",
    "result": []
  },
  {
    "postal": "M1W3J3",
    "result": [
      {
        "electoralDistricts": [
          {
            "election": null,
            "id": 93,
            "name": "Scarborough—Agincourt"
          }
        ],
        "pollDivisionIds": [
          10141517
        ],
        "postalCode": "M1W3J3",
        "streetName": "INNISLAWN",
        "streetDirectionId": null,
        "streetTypeId": "RD",
        "placeName": "SCARBOROUGH",
        "streetNameDisplayText": "INNISLAWN RD, SCARBOROUGH"
      }
    ]
  },
  {
    "postal": "M1W8C2",
    "result": []
  },
  {
    "postal": "M1W4X9",
    "result": []
  },
  {
    "postal": "M1W6G9",
    "result": []
  },
  {
    "postal": "M1W4M3",
    "result": []
  },
  {
    "postal": "M1W9P7",
    "result": []
  },
  {
    "postal": "M1W4E5",
    "result": []
  },
  {
    "postal": "M1W5K9",
    "result": []
  },
  {
    "postal": "M1W2V2",
    "result": [
      {
        "electoralDistricts": [
          {
            "election": null,
            "id": 93,
            "name": "Scarborough—Agincourt"
          }
        ],
        "pollDivisionIds": [
          10141545
        ],
        "postalCode": "M1W2V2",
        "streetName": "ECHO",
        "streetDirectionId": null,
        "streetTypeId": "PT",
        "placeName": "SCARBOROUGH",
        "streetNameDisplayText": "ECHO PT, SCARBOROUGH"
      }
    ]
  },
  {
    "postal": "M1W2N9",
    "result": [
      {
        "electoralDistricts": [
          {
            "election": null,
            "id": 93,
            "name": "Scarborough—Agincourt"
          }
        ],
        "pollDivisionIds": [
          10141521,
          10141513
        ],
        "postalCode": "M1W2N9",
        "streetName": "HUNTINGDALE",
        "streetDirectionId": null,
        "streetTypeId": "BLVD",
        "placeName": "SCARBOROUGH",
        "streetNameDisplayText": "HUNTINGDALE BLVD, SCARBOROUGH"
      }
    ]
  },
  {
    "postal": "M1W6L4",
    "result": []
  },
  {
    "postal": "M1W8E0",
    "result": []
  },
  {
    "postal": "M1W0N0",
    "result": []
  },
  {
    "postal": "M1W6R0",
    "result": []
  },
  {
    "postal": "M1W9C1",
    "result": []
  },
  {
    "postal": "M1W4H4",
    "result": []
  },
  {
    "postal": "M1W5W3",
    "result": []
  },
  {
    "postal": "M1W9N9",
    "result": []
  },
  {
    "postal": "M1W1V7",
    "result": [
      {
        "electoralDistricts": [
          {
            "election": null,
            "id": 93,
            "name": "Scarborough—Agincourt"
          }
        ],
        "pollDivisionIds": [
          10141522
        ],
        "postalCode": "M1W1V7",
        "streetName": "BEVERLY GLEN",
        "streetDirectionId": null,
        "streetTypeId": "BLVD",
        "placeName": "SCARBOROUGH",
        "streetNameDisplayText": "BEVERLY GLEN BLVD, SCARBOROUGH"
      }
    ]
  },
  {
    "postal": "M1W8J1",
    "result": []
  },
  {
    "postal": "M1W5V9",
    "result": []
  },
  {
    "postal": "M1W2S8",
    "result": [
      {
        "electoralDistricts": [
          {
            "election": null,
            "id": 93,
            "name": "Scarborough—Agincourt"
          }
        ],
        "pollDivisionIds": [
          10141522
        ],
        "postalCode": "M1W2S8",
        "streetName": "WARDEN",
        "streetDirectionId": null,
        "streetTypeId": "AVE",
        "placeName": "SCARBOROUGH",
        "streetNameDisplayText": "WARDEN AVE, SCARBOROUGH"
      }
    ]
  },
  {
    "postal": "M1W6P0",
    "result": []
  },
  {
    "postal": "M1W4J8",
    "result": []
  },
  {
    "postal": "M1W0N1",
    "result": []
  },
  {
    "postal": "M1W1Y7",
    "result": [
      {
        "electoralDistricts": [
          {
            "election": null,
            "id": 93,
            "name": "Scarborough—Agincourt"
          }
        ],
        "pollDivisionIds": [
          10141528
        ],
        "postalCode": "M1W1Y7",
        "streetName": "GARRYBROOK",
        "streetDirectionId": null,
        "streetTypeId": "DR",
        "placeName": "SCARBOROUGH",
        "streetNameDisplayText": "GARRYBROOK DR, SCARBOROUGH"
      }
    ]
  },
  {
    "postal": "M1W7W5",
    "result": []
  },
  {
    "postal": "M1W3Z1",
    "result": []
  },
  {
    "postal": "M1W7M6",
    "result": []
  },
  {
    "postal": "M1W1W7",
    "result": [
      {
        "electoralDistricts": [
          {
            "election": null,
            "id": 93,
            "name": "Scarborough—Agincourt"
          }
        ],
        "pollDivisionIds": [
          10141522
        ],
        "postalCode": "M1W1W7",
        "streetName": "BLAIRWOOD",
        "streetDirectionId": null,
        "streetTypeId": "TERR",
        "placeName": "SCARBOROUGH",
        "streetNameDisplayText": "BLAIRWOOD TERR, SCARBOROUGH"
      }
    ]
  },
  {
    "postal": "M1W1X1",
    "result": [
      {
        "electoralDistricts": [
          {
            "election": null,
            "id": 93,
            "name": "Scarborough—Agincourt"
          }
        ],
        "pollDivisionIds": [
          10141522
        ],
        "postalCode": "M1W1X1",
        "streetName": "LANEWOOD",
        "streetDirectionId": null,
        "streetTypeId": "CRES",
        "placeName": "SCARBOROUGH",
        "streetNameDisplayText": "LANEWOOD CRES, SCARBOROUGH"
      }
    ]
  },
  {
    "postal": "M1W0C1",
    "result": []
  },
  {
    "postal": "M1W4N3",
    "result": []
  },
  {
    "postal": "M1W4S8",
    "result": []
  },
  {
    "postal": "M1W1H6",
    "result": [
      {
        "electoralDistricts": [
          {
            "election": null,
            "id": 93,
            "name": "Scarborough—Agincourt"
          }
        ],
        "pollDivisionIds": [
          10141533,
          10141526
        ],
        "postalCode": "M1W1H6",
        "streetName": "HUNTINGWOOD",
        "streetDirectionId": null,
        "streetTypeId": "DR",
        "placeName": "SCARBOROUGH",
        "streetNameDisplayText": "HUNTINGWOOD DR, SCARBOROUGH"
      }
    ]
  },
  {
    "postal": "M1W2Z4",
    "result": [
      {
        "electoralDistricts": [
          {
            "election": null,
            "id": 93,
            "name": "Scarborough—Agincourt"
          }
        ],
        "pollDivisionIds": [
          10141513,
          10141519
        ],
        "postalCode": "M1W2Z4",
        "streetName": "HAWKSHEAD",
        "streetDirectionId": null,
        "streetTypeId": "CRES",
        "placeName": "SCARBOROUGH",
        "streetNameDisplayText": "HAWKSHEAD CRES, SCARBOROUGH"
      }
    ]
  },
  {
    "postal": "M1W7K3",
    "result": []
  },
  {
    "postal": "M1W8A2",
    "result": []
  },
  {
    "postal": "M1W6J1",
    "result": []
  },
  {
    "postal": "M1W5Z6",
    "result": []
  },
  {
    "postal": "M1W3Z0",
    "result": []
  },
  {
    "postal": "M1W8M0",
    "result": []
  },
  {
    "postal": "M1W1Z6",
    "result": [
      {
        "electoralDistricts": [
          {
            "election": null,
            "id": 93,
            "name": "Scarborough—Agincourt"
          }
        ],
        "pollDivisionIds": [
          10141528
        ],
        "postalCode": "M1W1Z6",
        "streetName": "TIMBERBANK",
        "streetDirectionId": null,
        "streetTypeId": "BLVD",
        "placeName": "SCARBOROUGH",
        "streetNameDisplayText": "TIMBERBANK BLVD, SCARBOROUGH"
      }
    ]
  },
  {
    "postal": "M1W8K7",
    "result": []
  },
  {
    "postal": "M1W1N3",
    "result": [
      {
        "electoralDistricts": [
          {
            "election": null,
            "id": 93,
            "name": "Scarborough—Agincourt"
          }
        ],
        "pollDivisionIds": [
          10141527
        ],
        "postalCode": "M1W1N3",
        "streetName": "KELVINWAY",
        "streetDirectionId": null,
        "streetTypeId": "DR",
        "placeName": "SCARBOROUGH",
        "streetNameDisplayText": "KELVINWAY DR, SCARBOROUGH"
      }
    ]
  },
  {
    "postal": "M1W9S2",
    "result": []
  },
  {
    "postal": "M1W2K1",
    "result": [
      {
        "electoralDistricts": [
          {
            "election": null,
            "id": 93,
            "name": "Scarborough—Agincourt"
          }
        ],
        "pollDivisionIds": [
          10141524
        ],
        "postalCode": "M1W2K1",
        "streetName": "BRIDLETOWNE",
        "streetDirectionId": null,
        "streetTypeId": "CIR",
        "placeName": "SCARBOROUGH",
        "streetNameDisplayText": "BRIDLETOWNE CIR, SCARBOROUGH"
      }
    ]
  },
  {
    "postal": "M1W1E8",
    "result": [
      {
        "electoralDistricts": [
          {
            "election": null,
            "id": 93,
            "name": "Scarborough—Agincourt"
          }
        ],
        "pollDivisionIds": [
          10141527
        ],
        "postalCode": "M1W1E8",
        "streetName": "HUNTINGWOOD",
        "streetDirectionId": null,
        "streetTypeId": "DR",
        "placeName": "SCARBOROUGH",
        "streetNameDisplayText": "HUNTINGWOOD DR, SCARBOROUGH"
      }
    ]
  },
  {
    "postal": "M1W9B8",
    "result": []
  },
  {
    "postal": "M1W7X4",
    "result": []
  },
  {
    "postal": "M1W1Z4",
    "result": [
      {
        "electoralDistricts": [
          {
            "election": null,
            "id": 93,
            "name": "Scarborough—Agincourt"
          }
        ],
        "pollDivisionIds": [
          10141528
        ],
        "postalCode": "M1W1Z4",
        "streetName": "HARRINGAY",
        "streetDirectionId": null,
        "streetTypeId": "CRES",
        "placeName": "SCARBOROUGH",
        "streetNameDisplayText": "HARRINGAY CRES, SCARBOROUGH"
      }
    ]
  },
  {
    "postal": "M1W2C7",
    "result": [
      {
        "electoralDistricts": [
          {
            "election": null,
            "id": 93,
            "name": "Scarborough—Agincourt"
          }
        ],
        "pollDivisionIds": [
          10141529
        ],
        "postalCode": "M1W2C7",
        "streetName": "BIRCHMOUNT",
        "streetDirectionId": null,
        "streetTypeId": "RD",
        "placeName": "SCARBOROUGH",
        "streetNameDisplayText": "BIRCHMOUNT RD, SCARBOROUGH"
      }
    ]
  },
  {
    "postal": "M1W2E7",
    "result": [
      {
        "electoralDistricts": [
          {
            "election": null,
            "id": 93,
            "name": "Scarborough—Agincourt"
          }
        ],
        "pollDivisionIds": [
          10141524
        ],
        "postalCode": "M1W2E7",
        "streetName": "STALEY",
        "streetDirectionId": null,
        "streetTypeId": "TERR",
        "placeName": "SCARBOROUGH",
        "streetNameDisplayText": "STALEY TERR, SCARBOROUGH"
      }
    ]
  },
  {
    "postal": "M1W3R1",
    "result": [
      {
        "electoralDistricts": [
          {
            "election": null,
            "id": 93,
            "name": "Scarborough—Agincourt"
          }
        ],
        "pollDivisionIds": [
          10141514
        ],
        "postalCode": "M1W3R1",
        "streetName": "CARL",
        "streetDirectionId": null,
        "streetTypeId": "CRES",
        "placeName": "SCARBOROUGH",
        "streetNameDisplayText": "CARL CRES, SCARBOROUGH"
      }
    ]
  },
  {
    "postal": "M1W4K4",
    "result": []
  },
  {
    "postal": "M1W9G3",
    "result": []
  },
  {
    "postal": "M1W6C9",
    "result": []
  },
  {
    "postal": "M1W9H5",
    "result": []
  },
  {
    "postal": "M1W1P5",
    "result": [
      {
        "electoralDistricts": [
          {
            "election": null,
            "id": 93,
            "name": "Scarborough—Agincourt"
          }
        ],
        "pollDivisionIds": [
          10141527
        ],
        "postalCode": "M1W1P5",
        "streetName": "SPRUCEWOOD",
        "streetDirectionId": null,
        "streetTypeId": "CRT",
        "placeName": "SCARBOROUGH",
        "streetNameDisplayText": "SPRUCEWOOD CRT, SCARBOROUGH"
      }
    ]
  },
  {
    "postal": "M1W2J5",
    "result": [
      {
        "electoralDistricts": [
          {
            "election": null,
            "id": 93,
            "name": "Scarborough—Agincourt"
          }
        ],
        "pollDivisionIds": [
          10141524
        ],
        "postalCode": "M1W2J5",
        "streetName": "LA PEER",
        "streetDirectionId": null,
        "streetTypeId": "BLVD",
        "placeName": "SCARBOROUGH",
        "streetNameDisplayText": "LA PEER BLVD, SCARBOROUGH"
      }
    ]
  },
  {
    "postal": "M1W4W6",
    "result": []
  },
  {
    "postal": "M1W8M8",
    "result": []
  },
  {
    "postal": "M1W6C5",
    "result": []
  },
  {
    "postal": "M1W9H0",
    "result": []
  },
  {
    "postal": "M1W1X8",
    "result": [
      {
        "electoralDistricts": [
          {
            "election": null,
            "id": 93,
            "name": "Scarborough—Agincourt"
          }
        ],
        "pollDivisionIds": [
          10141522,
          10141513
        ],
        "postalCode": "M1W1X8",
        "streetName": "GLEN SPRINGS",
        "streetDirectionId": null,
        "streetTypeId": "DR",
        "placeName": "SCARBOROUGH",
        "streetNameDisplayText": "GLEN SPRINGS DR, SCARBOROUGH"
      }
    ]
  },
  {
    "postal": "M1W3H4",
    "result": [
      {
        "electoralDistricts": [
          {
            "election": null,
            "id": 93,
            "name": "Scarborough—Agincourt"
          }
        ],
        "pollDivisionIds": [
          10141517
        ],
        "postalCode": "M1W3H4",
        "streetName": "PALE MOON",
        "streetDirectionId": null,
        "streetTypeId": "CRES",
        "placeName": "SCARBOROUGH",
        "streetNameDisplayText": "PALE MOON CRES, SCARBOROUGH"
      }
    ]
  },
  {
    "postal": "M1W4E7",
    "result": []
  },
  {
    "postal": "M1W8A0",
    "result": []
  },
  {
    "postal": "M1W1Z7",
    "result": [
      {
        "electoralDistricts": [
          {
            "election": null,
            "id": 93,
            "name": "Scarborough—Agincourt"
          }
        ],
        "pollDivisionIds": [
          10141528
        ],
        "postalCode": "M1W1Z7",
        "streetName": "TIMBERBANK",
        "streetDirectionId": null,
        "streetTypeId": "BLVD",
        "placeName": "SCARBOROUGH",
        "streetNameDisplayText": "TIMBERBANK BLVD, SCARBOROUGH"
      }
    ]
  },
  {
    "postal": "M1W7Z3",
    "result": []
  },
  {
    "postal": "M1W0L7",
    "result": []
  },
  {
    "postal": "M1W2C6",
    "result": [
      {
        "electoralDistricts": [
          {
            "election": null,
            "id": 93,
            "name": "Scarborough—Agincourt"
          }
        ],
        "pollDivisionIds": [
          10141529
        ],
        "postalCode": "M1W2C6",
        "streetName": "BIRCHMOUNT",
        "streetDirectionId": null,
        "streetTypeId": "RD",
        "placeName": "SCARBOROUGH",
        "streetNameDisplayText": "BIRCHMOUNT RD, SCARBOROUGH"
      }
    ]
  },
  {
    "postal": "M1W6M3",
    "result": []
  },
  {
    "postal": "M1W2J1",
    "result": [
      {
        "electoralDistricts": [
          {
            "election": null,
            "id": 93,
            "name": "Scarborough—Agincourt"
          }
        ],
        "pollDivisionIds": [
          10141520
        ],
        "postalCode": "M1W2J1",
        "streetName": "PETTIBONE",
        "streetDirectionId": null,
        "streetTypeId": "SQ",
        "placeName": "SCARBOROUGH",
        "streetNameDisplayText": "PETTIBONE SQ, SCARBOROUGH"
      }
    ]
  },
  {
    "postal": "M1W3E3",
    "result": [
      {
        "electoralDistricts": [
          {
            "election": null,
            "id": 93,
            "name": "Scarborough—Agincourt"
          }
        ],
        "pollDivisionIds": [
          10141517
        ],
        "postalCode": "M1W3E3",
        "streetName": "AMBERCROFT",
        "streetDirectionId": null,
        "streetTypeId": "BLVD",
        "placeName": "SCARBOROUGH",
        "streetNameDisplayText": "AMBERCROFT BLVD, SCARBOROUGH"
      }
    ]
  },
  {
    "postal": "M1W6Z9",
    "result": []
  },
  {
    "postal": "M1W3M3",
    "result": [
      {
        "electoralDistricts": [
          {
            "election": null,
            "id": 93,
            "name": "Scarborough—Agincourt"
          }
        ],
        "pollDivisionIds": [
          10141514
        ],
        "postalCode": "M1W3M3",
        "streetName": "HUNTSMILL",
        "streetDirectionId": null,
        "streetTypeId": "BLVD",
        "placeName": "SCARBOROUGH",
        "streetNameDisplayText": "HUNTSMILL BLVD, SCARBOROUGH"
      }
    ]
  },
  {
    "postal": "M1W9B1",
    "result": []
  },
  {
    "postal": "M1W9J5",
    "result": []
  },
  {
    "postal": "M1W4V8",
    "result": []
  },
  {
    "postal": "M1W6W2",
    "result": []
  },
  {
    "postal": "M1W0V5",
    "result": []
  },
  {
    "postal": "M1W0Z8",
    "result": []
  },
  {
    "postal": "M1W5G2",
    "result": []
  },
  {
    "postal": "M1W4N4",
    "result": []
  },
  {
    "postal": "M1W8G7",
    "result": []
  },
  {
    "postal": "M1W8W1",
    "result": []
  },
  {
    "postal": "M1W1S6",
    "result": [
      {
        "electoralDistricts": [
          {
            "election": null,
            "id": 93,
            "name": "Scarborough—Agincourt"
          }
        ],
        "pollDivisionIds": [
          10141527
        ],
        "postalCode": "M1W1S6",
        "streetName": "SOLWAY",
        "streetDirectionId": null,
        "streetTypeId": "CRT",
        "placeName": "SCARBOROUGH",
        "streetNameDisplayText": "SOLWAY CRT, SCARBOROUGH"
      }
    ]
  },
  {
    "postal": "M1W4E0",
    "result": []
  },
  {
    "postal": "M1W4L9",
    "result": []
  },
  {
    "postal": "M1W5Z9",
    "result": []
  },
  {
    "postal": "M1W5V3",
    "result": []
  },
  {
    "postal": "M1W4V2",
    "result": []
  },
  {
    "postal": "M1W7C0",
    "result": []
  },
  {
    "postal": "M1W6L0",
    "result": []
  },
  {
    "postal": "M1W1S9",
    "result": [
      {
        "electoralDistricts": [
          {
            "election": null,
            "id": 93,
            "name": "Scarborough—Agincourt"
          }
        ],
        "pollDivisionIds": [
          10141522
        ],
        "postalCode": "M1W1S9",
        "streetName": "HUNTINGDALE",
        "streetDirectionId": null,
        "streetTypeId": "BLVD",
        "placeName": "SCARBOROUGH",
        "streetNameDisplayText": "HUNTINGDALE BLVD, SCARBOROUGH"
      }
    ]
  },
  {
    "postal": "M1W7R6",
    "result": []
  },
  {
    "postal": "M1W7J0",
    "result": []
  },
  {
    "postal": "M1W5M0",
    "result": []
  },
  {
    "postal": "M1W2E5",
    "result": [
      {
        "electoralDistricts": [
          {
            "election": null,
            "id": 93,
            "name": "Scarborough—Agincourt"
          }
        ],
        "pollDivisionIds": [
          10141524
        ],
        "postalCode": "M1W2E5",
        "streetName": "BOUNDY",
        "streetDirectionId": null,
        "streetTypeId": "CRES",
        "placeName": "SCARBOROUGH",
        "streetNameDisplayText": "BOUNDY CRES, SCARBOROUGH"
      }
    ]
  },
  {
    "postal": "M1W7C7",
    "result": []
  },
  {
    "postal": "M1W5C0",
    "result": []
  },
  {
    "postal": "M1W8V9",
    "result": []
  },
  {
    "postal": "M1W7E0",
    "result": []
  },
  {
    "postal": "M1W6R4",
    "result": []
  },
  {
    "postal": "M1W3Z7",
    "result": [
      {
        "electoralDistricts": [
          {
            "election": null,
            "id": 93,
            "name": "Scarborough—Agincourt"
          }
        ],
        "pollDivisionIds": [
          10141527
        ],
        "postalCode": "M1W3Z7",
        "streetName": "BRIARGLEN",
        "streetDirectionId": null,
        "streetTypeId": "CRT",
        "placeName": "SCARBOROUGH",
        "streetNameDisplayText": "BRIARGLEN CRT, SCARBOROUGH"
      }
    ]
  },
  {
    "postal": "M1W1J9",
    "result": [
      {
        "electoralDistricts": [
          {
            "election": null,
            "id": 93,
            "name": "Scarborough—Agincourt"
          }
        ],
        "pollDivisionIds": [
          10141527
        ],
        "postalCode": "M1W1J9",
        "streetName": "KILKENNY",
        "streetDirectionId": null,
        "streetTypeId": "DR",
        "placeName": "SCARBOROUGH",
        "streetNameDisplayText": "KILKENNY DR, SCARBOROUGH"
      }
    ]
  },
  {
    "postal": "M1W7K6",
    "result": []
  },
  {
    "postal": "M1W7Y5",
    "result": []
  },
  {
    "postal": "M1W1B7",
    "result": [
      {
        "electoralDistricts": [
          {
            "election": null,
            "id": 93,
            "name": "Scarborough—Agincourt"
          }
        ],
        "pollDivisionIds": [
          10141526
        ],
        "postalCode": "M1W1B7",
        "streetName": "CORINTHIAN",
        "streetDirectionId": null,
        "streetTypeId": "BLVD",
        "placeName": "SCARBOROUGH",
        "streetNameDisplayText": "CORINTHIAN BLVD, SCARBOROUGH"
      }
    ]
  },
  {
    "postal": "M1W4S9",
    "result": []
  },
  {
    "postal": "M1W9R9",
    "result": []
  },
  {
    "postal": "M1W5K7",
    "result": []
  },
  {
    "postal": "M1W6P2",
    "result": []
  },
  {
    "postal": "M1W2C5",
    "result": [
      {
        "electoralDistricts": [
          {
            "election": null,
            "id": 93,
            "name": "Scarborough—Agincourt"
          }
        ],
        "pollDivisionIds": [
          10141528
        ],
        "postalCode": "M1W2C5",
        "streetName": "GLOXINIA",
        "streetDirectionId": null,
        "streetTypeId": "CRES",
        "placeName": "SCARBOROUGH",
        "streetNameDisplayText": "GLOXINIA CRES, SCARBOROUGH"
      }
    ]
  },
  {
    "postal": "M1W2N0",
    "result": []
  },
  {
    "postal": "M1W1G0",
    "result": []
  },
  {
    "postal": "M1W4K5",
    "result": []
  },
  {
    "postal": "M1W9B5",
    "result": []
  },
  {
    "postal": "M1W6T5",
    "result": []
  },
  {
    "postal": "M1W1N8",
    "result": [
      {
        "electoralDistricts": [
          {
            "election": null,
            "id": 93,
            "name": "Scarborough—Agincourt"
          }
        ],
        "pollDivisionIds": [
          10141527
        ],
        "postalCode": "M1W1N8",
        "streetName": "PINEMEADOW",
        "streetDirectionId": null,
        "streetTypeId": "BLVD",
        "placeName": "SCARBOROUGH",
        "streetNameDisplayText": "PINEMEADOW BLVD, SCARBOROUGH"
      }
    ]
  },
  {
    "postal": "M1W0C0",
    "result": []
  },
  {
    "postal": "M1W0R9",
    "result": []
  },
  {
    "postal": "M1W7L1",
    "result": []
  },
  {
    "postal": "M1W3Y8",
    "result": []
  },
  {
    "postal": "M1W7X9",
    "result": []
  },
  {
    "postal": "M1W1A7",
    "result": [
      {
        "electoralDistricts": [
          {
            "election": null,
            "id": 93,
            "name": "Scarborough—Agincourt"
          }
        ],
        "pollDivisionIds": [
          10141526
        ],
        "postalCode": "M1W1A7",
        "streetName": "FAIRGLEN",
        "streetDirectionId": null,
        "streetTypeId": "AVE",
        "placeName": "SCARBOROUGH",
        "streetNameDisplayText": "FAIRGLEN AVE, SCARBOROUGH"
      }
    ]
  },
  {
    "postal": "M1W2T9",
    "result": [
      {
        "electoralDistricts": [
          {
            "election": null,
            "id": 93,
            "name": "Scarborough—Agincourt"
          }
        ],
        "pollDivisionIds": [
          10141528
        ],
        "postalCode": "M1W2T9",
        "streetName": "BRIDLETOWNE",
        "streetDirectionId": null,
        "streetTypeId": "CIR",
        "placeName": "SCARBOROUGH",
        "streetNameDisplayText": "BRIDLETOWNE CIR, SCARBOROUGH"
      }
    ]
  },
  {
    "postal": "M1W2E6",
    "result": [
      {
        "electoralDistricts": [
          {
            "election": null,
            "id": 93,
            "name": "Scarborough—Agincourt"
          }
        ],
        "pollDivisionIds": [
          10141524
        ],
        "postalCode": "M1W2E6",
        "streetName": "STALEY",
        "streetDirectionId": null,
        "streetTypeId": "TERR",
        "placeName": "SCARBOROUGH",
        "streetNameDisplayText": "STALEY TERR, SCARBOROUGH"
      }
    ]
  },
  {
    "postal": "M1W8Y1",
    "result": []
  },
  {
    "postal": "M1W0J5",
    "result": []
  },
  {
    "postal": "M1W4J1",
    "result": []
  },
  {
    "postal": "M1W1A5",
    "result": [
      {
        "electoralDistricts": [
          {
            "election": null,
            "id": 93,
            "name": "Scarborough—Agincourt"
          }
        ],
        "pollDivisionIds": [
          10141526
        ],
        "postalCode": "M1W1A5",
        "streetName": "ALTAIR",
        "streetDirectionId": null,
        "streetTypeId": "AVE",
        "placeName": "SCARBOROUGH",
        "streetNameDisplayText": "ALTAIR AVE, SCARBOROUGH"
      }
    ]
  },
  {
    "postal": "M1W6Z6",
    "result": []
  },
  {
    "postal": "M1W5K4",
    "result": []
  },
  {
    "postal": "M1W7R9",
    "result": []
  },
  {
    "postal": "M1W6G4",
    "result": []
  }
]
