[
  {
    "postal": "L1W9J6",
    "result": []
  },
  {
    "postal": "L1W9Z5",
    "result": []
  },
  {
    "postal": "L1W7H8",
    "result": []
  },
  {
    "postal": "L1W0P6",
    "result": []
  },
  {
    "postal": "L1W0S7",
    "result": []
  },
  {
    "postal": "L1W8B9",
    "result": []
  },
  {
    "postal": "L1W2A6",
    "result": []
  },
  {
    "postal": "L1W7V2",
    "result": []
  },
  {
    "postal": "L1W9P4",
    "result": []
  },
  {
    "postal": "L1W6G0",
    "result": []
  },
  {
    "postal": "L1W2K0",
    "result": []
  },
  {
    "postal": "L1W7N6",
    "result": []
  },
  {
    "postal": "L1W5R3",
    "result": []
  },
  {
    "postal": "L1W7K0",
    "result": []
  },
  {
    "postal": "L1W3R2",
    "result": [
      {
        "electoralDistricts": [
          {
            "election": null,
            "id": 87,
            "name": "Pickering—Uxbridge"
          }
        ],
        "pollDivisionIds": [
          10143394
        ],
        "postalCode": "L1W3R2",
        "streetName": "BAYLY",
        "streetDirectionId": null,
        "streetTypeId": "ST",
        "placeName": "PICKERING",
        "streetNameDisplayText": "BAYLY ST, PICKERING"
      }
    ]
  },
  {
    "postal": "L1W0J1",
    "result": []
  },
  {
    "postal": "L1W0B0",
    "result": []
  },
  {
    "postal": "L1W5Z2",
    "result": []
  },
  {
    "postal": "L1W7P3",
    "result": []
  },
  {
    "postal": "L1W2K3",
    "result": [
      {
        "electoralDistricts": [
          {
            "election": null,
            "id": 87,
            "name": "Pickering—Uxbridge"
          }
        ],
        "pollDivisionIds": [
          10143391
        ],
        "postalCode": "L1W2K3",
        "streetName": "BREDA",
        "streetDirectionId": null,
        "streetTypeId": "AVE",
        "placeName": "PICKERING",
        "streetNameDisplayText": "BREDA AVE, PICKERING"
      }
    ]
  },
  {
    "postal": "L1W7Y6",
    "result": []
  },
  {
    "postal": "L1W1L9",
    "result": [
      {
        "electoralDistricts": [
          {
            "election": null,
            "id": 87,
            "name": "Pickering—Uxbridge"
          }
        ],
        "pollDivisionIds": [
          10143394
        ],
        "postalCode": "L1W1L9",
        "streetName": "BAYLY",
        "streetDirectionId": null,
        "streetTypeId": "ST",
        "placeName": "PICKERING",
        "streetNameDisplayText": "BAYLY ST, PICKERING"
      }
    ]
  },
  {
    "postal": "L1W8T0",
    "result": []
  },
  {
    "postal": "L1W3K8",
    "result": [
      {
        "electoralDistricts": [
          {
            "election": null,
            "id": 87,
            "name": "Pickering—Uxbridge"
          }
        ],
        "pollDivisionIds": [
          10143398
        ],
        "postalCode": "L1W3K8",
        "streetName": "ANTHONY",
        "streetDirectionId": null,
        "streetTypeId": "CRT",
        "placeName": "PICKERING",
        "streetNameDisplayText": "ANTHONY CRT, PICKERING"
      }
    ]
  },
  {
    "postal": "L1W5W9",
    "result": []
  },
  {
    "postal": "L1W6T9",
    "result": []
  },
  {
    "postal": "L1W4H1",
    "result": []
  },
  {
    "postal": "L1W7A2",
    "result": []
  },
  {
    "postal": "L1W5G0",
    "result": []
  },
  {
    "postal": "L1W8V5",
    "result": []
  },
  {
    "postal": "L1W2Y8",
    "result": []
  },
  {
    "postal": "L1W2B6",
    "result": [
      {
        "electoralDistricts": [
          {
            "election": null,
            "id": 87,
            "name": "Pickering—Uxbridge"
          }
        ],
        "pollDivisionIds": [
          10143398
        ],
        "postalCode": "L1W2B6",
        "streetName": "ROUGEMOUNT",
        "streetDirectionId": null,
        "streetTypeId": "DR",
        "placeName": "PICKERING",
        "streetNameDisplayText": "ROUGEMOUNT DR, PICKERING"
      }
    ]
  },
  {
    "postal": "L1W4W8",
    "result": []
  },
  {
    "postal": "L1W8H7",
    "result": []
  },
  {
    "postal": "L1W5P1",
    "result": []
  },
  {
    "postal": "L1W2B8",
    "result": [
      {
        "electoralDistricts": [
          {
            "election": null,
            "id": 87,
            "name": "Pickering—Uxbridge"
          }
        ],
        "pollDivisionIds": [
          10143398
        ],
        "postalCode": "L1W2B8",
        "streetName": "ROUGEMOUNT",
        "streetDirectionId": null,
        "streetTypeId": "DR",
        "placeName": "PICKERING",
        "streetNameDisplayText": "ROUGEMOUNT DR, PICKERING"
      }
    ]
  },
  {
    "postal": "L1W0P2",
    "result": []
  },
  {
    "postal": "L1W9M1",
    "result": []
  },
  {
    "postal": "L1W3G0",
    "result": []
  },
  {
    "postal": "L1W9Z2",
    "result": []
  },
  {
    "postal": "L1W2A0",
    "result": []
  },
  {
    "postal": "L1W6Y0",
    "result": []
  },
  {
    "postal": "L1W2Z8",
    "result": [
      {
        "electoralDistricts": [
          {
            "election": null,
            "id": 87,
            "name": "Pickering—Uxbridge"
          }
        ],
        "pollDivisionIds": [
          10143399
        ],
        "postalCode": "L1W2Z8",
        "streetName": "CREEKVIEW",
        "streetDirectionId": null,
        "streetTypeId": "CIR",
        "placeName": "PICKERING",
        "streetNameDisplayText": "CREEKVIEW CIR, PICKERING"
      }
    ]
  },
  {
    "postal": "L1W7Y3",
    "result": []
  },
  {
    "postal": "L1W6Z5",
    "result": []
  },
  {
    "postal": "L1W6E0",
    "result": []
  },
  {
    "postal": "L1W9B7",
    "result": []
  },
  {
    "postal": "L1W9S5",
    "result": []
  },
  {
    "postal": "L1W3X3",
    "result": [
      {
        "electoralDistricts": [
          {
            "election": null,
            "id": 87,
            "name": "Pickering—Uxbridge"
          }
        ],
        "pollDivisionIds": [
          10143396
        ],
        "postalCode": "L1W3X3",
        "streetName": "BROCK",
        "streetDirectionId": "S",
        "streetTypeId": "RD",
        "placeName": "PICKERING",
        "streetNameDisplayText": "BROCK RD S, PICKERING"
      },
      {
        "electoralDistricts": [
          {
            "election": null,
            "id": 87,
            "name": "Pickering—Uxbridge"
          }
        ],
        "pollDivisionIds": [
          10143396
        ],
        "postalCode": "L1W3X3",
        "streetName": "BROCK",
        "streetDirectionId": null,
        "streetTypeId": "RD",
        "placeName": "PICKERING",
        "streetNameDisplayText": "BROCK RD, PICKERING"
      }
    ]
  },
  {
    "postal": "L1W7R5",
    "result": []
  },
  {
    "postal": "L1W2X3",
    "result": [
      {
        "electoralDistricts": [
          {
            "election": null,
            "id": 87,
            "name": "Pickering—Uxbridge"
          }
        ],
        "pollDivisionIds": [
          10143391
        ],
        "postalCode": "L1W2X3",
        "streetName": "BREEZY",
        "streetDirectionId": null,
        "streetTypeId": "DR",
        "placeName": "PICKERING",
        "streetNameDisplayText": "BREEZY DR, PICKERING"
      }
    ]
  },
  {
    "postal": "L1W8Z9",
    "result": []
  },
  {
    "postal": "L1W0N4",
    "result": []
  },
  {
    "postal": "L1W1K1",
    "result": [
      {
        "electoralDistricts": [
          {
            "election": null,
            "id": 87,
            "name": "Pickering—Uxbridge"
          }
        ],
        "pollDivisionIds": [
          10143394
        ],
        "postalCode": "L1W1K1",
        "streetName": "FORDON",
        "streetDirectionId": null,
        "streetTypeId": "AVE",
        "placeName": "PICKERING",
        "streetNameDisplayText": "FORDON AVE, PICKERING"
      }
    ]
  },
  {
    "postal": "L1W1S3",
    "result": [
      {
        "electoralDistricts": [
          {
            "election": null,
            "id": 87,
            "name": "Pickering—Uxbridge"
          }
        ],
        "pollDivisionIds": [
          10143393
        ],
        "postalCode": "L1W1S3",
        "streetName": "LIVERPOOL",
        "streetDirectionId": null,
        "streetTypeId": "RD",
        "placeName": "PICKERING",
        "streetNameDisplayText": "LIVERPOOL RD, PICKERING"
      }
    ]
  },
  {
    "postal": "L1W6M4",
    "result": []
  },
  {
    "postal": "L1W9A9",
    "result": []
  },
  {
    "postal": "L1W9Z9",
    "result": []
  },
  {
    "postal": "L1W6T4",
    "result": []
  },
  {
    "postal": "L1W0B2",
    "result": [
      {
        "electoralDistricts": [
          {
            "election": null,
            "id": 87,
            "name": "Pickering—Uxbridge"
          }
        ],
        "pollDivisionIds": [
          10143399
        ],
        "postalCode": "L1W0B2",
        "streetName": "CLIFFVIEW",
        "streetDirectionId": null,
        "streetTypeId": "RD",
        "placeName": "PICKERING",
        "streetNameDisplayText": "CLIFFVIEW RD, PICKERING"
      },
      {
        "electoralDistricts": [
          {
            "election": null,
            "id": 87,
            "name": "Pickering—Uxbridge"
          }
        ],
        "pollDivisionIds": [
          10143399
        ],
        "postalCode": "L1W0B2",
        "streetName": "PARK",
        "streetDirectionId": null,
        "streetTypeId": "CRES",
        "placeName": "PICKERING",
        "streetNameDisplayText": "PARK CRES, PICKERING"
      }
    ]
  },
  {
    "postal": "L1W2L9",
    "result": [
      {
        "electoralDistricts": [
          {
            "election": null,
            "id": 87,
            "name": "Pickering—Uxbridge"
          }
        ],
        "pollDivisionIds": [
          10143391
        ],
        "postalCode": "L1W2L9",
        "streetName": "VISTULA",
        "streetDirectionId": null,
        "streetTypeId": "DR",
        "placeName": "PICKERING",
        "streetNameDisplayText": "VISTULA DR, PICKERING"
      }
    ]
  },
  {
    "postal": "L1W8K9",
    "result": []
  },
  {
    "postal": "L1W2H9",
    "result": [
      {
        "electoralDistricts": [
          {
            "election": null,
            "id": 87,
            "name": "Pickering—Uxbridge"
          }
        ],
        "pollDivisionIds": [
          10143391
        ],
        "postalCode": "L1W2H9",
        "streetName": "OKLAHOMA",
        "streetDirectionId": null,
        "streetTypeId": "DR",
        "placeName": "PICKERING",
        "streetNameDisplayText": "OKLAHOMA DR, PICKERING"
      }
    ]
  },
  {
    "postal": "L1W3Z6",
    "result": []
  },
  {
    "postal": "L1W3B0",
    "result": []
  },
  {
    "postal": "L1W2H8",
    "result": [
      {
        "electoralDistricts": [
          {
            "election": null,
            "id": 87,
            "name": "Pickering—Uxbridge"
          }
        ],
        "pollDivisionIds": [
          10143391
        ],
        "postalCode": "L1W2H8",
        "streetName": "OKLAHOMA",
        "streetDirectionId": null,
        "streetTypeId": "DR",
        "placeName": "PICKERING",
        "streetNameDisplayText": "OKLAHOMA DR, PICKERING"
      }
    ]
  },
  {
    "postal": "L1W3X2",
    "result": [
      {
        "electoralDistricts": [
          {
            "election": null,
            "id": 87,
            "name": "Pickering—Uxbridge"
          }
        ],
        "pollDivisionIds": [
          10143394
        ],
        "postalCode": "L1W3X2",
        "streetName": "ALLIANCE",
        "streetDirectionId": null,
        "streetTypeId": "RD",
        "placeName": "PICKERING",
        "streetNameDisplayText": "ALLIANCE RD, PICKERING"
      }
    ]
  },
  {
    "postal": "L1W2E9",
    "result": []
  },
  {
    "postal": "L1W9P6",
    "result": []
  },
  {
    "postal": "L1W9E2",
    "result": []
  },
  {
    "postal": "L1W9H2",
    "result": []
  },
  {
    "postal": "L1W1S8",
    "result": []
  },
  {
    "postal": "L1W3M6",
    "result": [
      {
        "electoralDistricts": [
          {
            "election": null,
            "id": 87,
            "name": "Pickering—Uxbridge"
          }
        ],
        "pollDivisionIds": [
          10143393
        ],
        "postalCode": "L1W3M6",
        "streetName": "ST MARTINS",
        "streetDirectionId": null,
        "streetTypeId": "DR",
        "placeName": "PICKERING",
        "streetNameDisplayText": "ST MARTINS DR, PICKERING"
      },
      {
        "electoralDistricts": [
          {
            "election": null,
            "id": 87,
            "name": "Pickering—Uxbridge"
          }
        ],
        "pollDivisionIds": [
          10143393
        ],
        "postalCode": "L1W3M6",
        "streetName": "ST. MARTINS",
        "streetDirectionId": null,
        "streetTypeId": "DR",
        "placeName": "PICKERING",
        "streetNameDisplayText": "ST. MARTINS DR, PICKERING"
      }
    ]
  },
  {
    "postal": "L1W6Z8",
    "result": []
  },
  {
    "postal": "L1W4J2",
    "result": []
  },
  {
    "postal": "L1W9Y1",
    "result": []
  },
  {
    "postal": "L1W8V6",
    "result": []
  },
  {
    "postal": "L1W6B2",
    "result": []
  },
  {
    "postal": "L1W1P8",
    "result": [
      {
        "electoralDistricts": [
          {
            "election": null,
            "id": 87,
            "name": "Pickering—Uxbridge"
          }
        ],
        "pollDivisionIds": [
          10143393
        ],
        "postalCode": "L1W1P8",
        "streetName": "PLEASANT",
        "streetDirectionId": null,
        "streetTypeId": "ST",
        "placeName": "PICKERING",
        "streetNameDisplayText": "PLEASANT ST, PICKERING"
      }
    ]
  },
  {
    "postal": "L1W0V8",
    "result": []
  },
  {
    "postal": "L1W4Y0",
    "result": []
  },
  {
    "postal": "L1W2T4",
    "result": [
      {
        "electoralDistricts": [
          {
            "election": null,
            "id": 87,
            "name": "Pickering—Uxbridge"
          }
        ],
        "pollDivisionIds": [
          10143391
        ],
        "postalCode": "L1W2T4",
        "streetName": "MARKSBURY",
        "streetDirectionId": null,
        "streetTypeId": "RD",
        "placeName": "PICKERING",
        "streetNameDisplayText": "MARKSBURY RD, PICKERING"
      }
    ]
  },
  {
    "postal": "L1W2S3",
    "result": [
      {
        "electoralDistricts": [
          {
            "election": null,
            "id": 87,
            "name": "Pickering—Uxbridge"
          }
        ],
        "pollDivisionIds": [
          10143399
        ],
        "postalCode": "L1W2S3",
        "streetName": "VICTORY",
        "streetDirectionId": null,
        "streetTypeId": "DR",
        "placeName": "PICKERING",
        "streetNameDisplayText": "VICTORY DR, PICKERING"
      }
    ]
  },
  {
    "postal": "L1W0K0",
    "result": []
  },
  {
    "postal": "L1W5N1",
    "result": []
  },
  {
    "postal": "L1W7T0",
    "result": []
  },
  {
    "postal": "L1W9N2",
    "result": []
  },
  {
    "postal": "L1W5L1",
    "result": []
  },
  {
    "postal": "L1W7G5",
    "result": []
  },
  {
    "postal": "L1W6K2",
    "result": []
  },
  {
    "postal": "L1W6P9",
    "result": []
  },
  {
    "postal": "L1W0E6",
    "result": []
  },
  {
    "postal": "L1W8R9",
    "result": []
  },
  {
    "postal": "L1W3G9",
    "result": [
      {
        "electoralDistricts": [
          {
            "election": null,
            "id": 87,
            "name": "Pickering—Uxbridge"
          }
        ],
        "pollDivisionIds": [
          10143399
        ],
        "postalCode": "L1W3G9",
        "streetName": "OKLAHOMA",
        "streetDirectionId": null,
        "streetTypeId": "DR",
        "placeName": "PICKERING",
        "streetNameDisplayText": "OKLAHOMA DR, PICKERING"
      }
    ]
  },
  {
    "postal": "L1W0V7",
    "result": []
  },
  {
    "postal": "L1W2Z1",
    "result": [
      {
        "electoralDistricts": [
          {
            "election": null,
            "id": 87,
            "name": "Pickering—Uxbridge"
          }
        ],
        "pollDivisionIds": [
          10143396
        ],
        "postalCode": "L1W2Z1",
        "streetName": "BAYLY",
        "streetDirectionId": null,
        "streetTypeId": "ST",
        "placeName": "PICKERING",
        "streetNameDisplayText": "BAYLY ST, PICKERING"
      }
    ]
  },
  {
    "postal": "L1W7N1",
    "result": []
  },
  {
    "postal": "L1W3C6",
    "result": []
  },
  {
    "postal": "L1W4M1",
    "result": []
  },
  {
    "postal": "L1W9K2",
    "result": []
  },
  {
    "postal": "L1W9S6",
    "result": []
  },
  {
    "postal": "L1W4X1",
    "result": []
  },
  {
    "postal": "L1W8W2",
    "result": []
  },
  {
    "postal": "L1W7N2",
    "result": []
  },
  {
    "postal": "L1W8S3",
    "result": []
  },
  {
    "postal": "L1W4V0",
    "result": []
  },
  {
    "postal": "L1W6W4",
    "result": []
  },
  {
    "postal": "L1W5M1",
    "result": []
  },
  {
    "postal": "L1W0S4",
    "result": []
  },
  {
    "postal": "L1W5X6",
    "result": []
  },
  {
    "postal": "L1W8L5",
    "result": []
  },
  {
    "postal": "L1W5M8",
    "result": []
  },
  {
    "postal": "L1W2G3",
    "result": [
      {
        "electoralDistricts": [
          {
            "election": null,
            "id": 87,
            "name": "Pickering—Uxbridge"
          }
        ],
        "pollDivisionIds": [
          10143391
        ],
        "postalCode": "L1W2G3",
        "streetName": "SUNRISE",
        "streetDirectionId": null,
        "streetTypeId": "AVE",
        "placeName": "PICKERING",
        "streetNameDisplayText": "SUNRISE AVE, PICKERING"
      }
    ]
  },
  {
    "postal": "L1W8E4",
    "result": []
  },
  {
    "postal": "L1W7S9",
    "result": []
  },
  {
    "postal": "L1W1K3",
    "result": [
      {
        "electoralDistricts": [
          {
            "election": null,
            "id": 87,
            "name": "Pickering—Uxbridge"
          }
        ],
        "pollDivisionIds": [
          10143394
        ],
        "postalCode": "L1W1K3",
        "streetName": "DRAVA",
        "streetDirectionId": null,
        "streetTypeId": "ST",
        "placeName": "PICKERING",
        "streetNameDisplayText": "DRAVA ST, PICKERING"
      }
    ]
  },
  {
    "postal": "L1W4E1",
    "result": []
  },
  {
    "postal": "L1W4R2",
    "result": []
  },
  {
    "postal": "L1W6T0",
    "result": []
  },
  {
    "postal": "L1W3K5",
    "result": [
      {
        "electoralDistricts": [
          {
            "election": null,
            "id": 87,
            "name": "Pickering—Uxbridge"
          }
        ],
        "pollDivisionIds": [
          10143398
        ],
        "postalCode": "L1W3K5",
        "streetName": "COWAN",
        "streetDirectionId": null,
        "streetTypeId": "CIR",
        "placeName": "PICKERING",
        "streetNameDisplayText": "COWAN CIR, PICKERING"
      }
    ]
  },
  {
    "postal": "L1W3S3",
    "result": [
      {
        "electoralDistricts": [
          {
            "election": null,
            "id": 87,
            "name": "Pickering—Uxbridge"
          }
        ],
        "pollDivisionIds": [
          10143396
        ],
        "postalCode": "L1W3S3",
        "streetName": "SQUIRES BEACH",
        "streetDirectionId": null,
        "streetTypeId": "RD",
        "placeName": "PICKERING",
        "streetNameDisplayText": "SQUIRES BEACH RD, PICKERING"
      }
    ]
  },
  {
    "postal": "L1W3L4",
    "result": [
      {
        "electoralDistricts": [
          {
            "election": null,
            "id": 87,
            "name": "Pickering—Uxbridge"
          }
        ],
        "pollDivisionIds": [
          10143398
        ],
        "postalCode": "L1W3L4",
        "streetName": "HOUSTON",
        "streetDirectionId": null,
        "streetTypeId": "CRT",
        "placeName": "PICKERING",
        "streetNameDisplayText": "HOUSTON CRT, PICKERING"
      }
    ]
  },
  {
    "postal": "L1W9Y2",
    "result": []
  },
  {
    "postal": "L1W1E0",
    "result": []
  },
  {
    "postal": "L1W9A4",
    "result": []
  },
  {
    "postal": "L1W1L3",
    "result": []
  },
  {
    "postal": "L1W6N1",
    "result": []
  },
  {
    "postal": "L1W6G7",
    "result": []
  },
  {
    "postal": "L1W7W1",
    "result": []
  },
  {
    "postal": "L1W4M6",
    "result": []
  },
  {
    "postal": "L1W1K0",
    "result": []
  },
  {
    "postal": "L1W3E2",
    "result": []
  },
  {
    "postal": "L1W5H4",
    "result": []
  },
  {
    "postal": "L1W1K7",
    "result": [
      {
        "electoralDistricts": [
          {
            "election": null,
            "id": 87,
            "name": "Pickering—Uxbridge"
          }
        ],
        "pollDivisionIds": [
          10143394
        ],
        "postalCode": "L1W1K7",
        "streetName": "TATRA",
        "streetDirectionId": null,
        "streetTypeId": "DR",
        "placeName": "PICKERING",
        "streetNameDisplayText": "TATRA DR, PICKERING"
      }
    ]
  },
  {
    "postal": "L1W0H0",
    "result": []
  },
  {
    "postal": "L1W0J3",
    "result": []
  },
  {
    "postal": "L1W1X6",
    "result": [
      {
        "electoralDistricts": [
          {
            "election": null,
            "id": 87,
            "name": "Pickering—Uxbridge"
          }
        ],
        "pollDivisionIds": [
          10143394
        ],
        "postalCode": "L1W1X6",
        "streetName": "MIRIAM",
        "streetDirectionId": null,
        "streetTypeId": "RD",
        "placeName": "PICKERING",
        "streetNameDisplayText": "MIRIAM RD, PICKERING"
      }
    ]
  },
  {
    "postal": "L1W2Z6",
    "result": [
      {
        "electoralDistricts": [
          {
            "election": null,
            "id": 87,
            "name": "Pickering—Uxbridge"
          }
        ],
        "pollDivisionIds": [
          10143399
        ],
        "postalCode": "L1W2Z6",
        "streetName": "CREEKVIEW",
        "streetDirectionId": null,
        "streetTypeId": "CIR",
        "placeName": "PICKERING",
        "streetNameDisplayText": "CREEKVIEW CIR, PICKERING"
      }
    ]
  },
  {
    "postal": "L1W4R9",
    "result": []
  },
  {
    "postal": "L1W0W8",
    "result": []
  },
  {
    "postal": "L1W1L4",
    "result": [
      {
        "electoralDistricts": [
          {
            "election": null,
            "id": 87,
            "name": "Pickering—Uxbridge"
          }
        ],
        "pollDivisionIds": [
          10143391
        ],
        "postalCode": "L1W1L4",
        "streetName": "BAYLY",
        "streetDirectionId": null,
        "streetTypeId": "ST",
        "placeName": "PICKERING",
        "streetNameDisplayText": "BAYLY ST, PICKERING"
      }
    ]
  },
  {
    "postal": "L1W0C8",
    "result": []
  },
  {
    "postal": "L1W9X7",
    "result": []
  },
  {
    "postal": "L1W4T1",
    "result": []
  },
  {
    "postal": "L1W0M0",
    "result": []
  },
  {
    "postal": "L1W6A2",
    "result": []
  },
  {
    "postal": "L1W9S8",
    "result": []
  },
  {
    "postal": "L1W9T4",
    "result": []
  },
  {
    "postal": "L1W9Y4",
    "result": []
  },
  {
    "postal": "L1W6G5",
    "result": []
  },
  {
    "postal": "L1W6H9",
    "result": []
  },
  {
    "postal": "L1W2P3",
    "result": [
      {
        "electoralDistricts": [
          {
            "election": null,
            "id": 87,
            "name": "Pickering—Uxbridge"
          }
        ],
        "pollDivisionIds": [
          10143399
        ],
        "postalCode": "L1W2P3",
        "streetName": "HILLCREST",
        "streetDirectionId": null,
        "streetTypeId": "RD",
        "placeName": "PICKERING",
        "streetNameDisplayText": "HILLCREST RD, PICKERING"
      }
    ]
  },
  {
    "postal": "L1W1T6",
    "result": [
      {
        "electoralDistricts": [
          {
            "election": null,
            "id": 87,
            "name": "Pickering—Uxbridge"
          }
        ],
        "pollDivisionIds": [
          10143393
        ],
        "postalCode": "L1W1T6",
        "streetName": "HEWSON",
        "streetDirectionId": null,
        "streetTypeId": "DR",
        "placeName": "PICKERING",
        "streetNameDisplayText": "HEWSON DR, PICKERING"
      }
    ]
  },
  {
    "postal": "L1W4P6",
    "result": []
  },
  {
    "postal": "L1W3K1",
    "result": [
      {
        "electoralDistricts": [
          {
            "election": null,
            "id": 87,
            "name": "Pickering—Uxbridge"
          }
        ],
        "pollDivisionIds": [
          10143398
        ],
        "postalCode": "L1W3K1",
        "streetName": "GRANITE",
        "streetDirectionId": null,
        "streetTypeId": "CRT",
        "placeName": "PICKERING",
        "streetNameDisplayText": "GRANITE CRT, PICKERING"
      }
    ]
  },
  {
    "postal": "L1W6X4",
    "result": []
  },
  {
    "postal": "L1W4M8",
    "result": []
  },
  {
    "postal": "L1W2Y1",
    "result": [
      {
        "electoralDistricts": [
          {
            "election": null,
            "id": 87,
            "name": "Pickering—Uxbridge"
          }
        ],
        "pollDivisionIds": [
          10143391
        ],
        "postalCode": "L1W2Y1",
        "streetName": "CECYLIA",
        "streetDirectionId": null,
        "streetTypeId": "CRT",
        "placeName": "PICKERING",
        "streetNameDisplayText": "CECYLIA CRT, PICKERING"
      }
    ]
  },
  {
    "postal": "L1W6M1",
    "result": []
  },
  {
    "postal": "L1W5L8",
    "result": []
  },
  {
    "postal": "L1W3P6",
    "result": []
  },
  {
    "postal": "L1W9A5",
    "result": []
  },
  {
    "postal": "L1W7K1",
    "result": []
  },
  {
    "postal": "L1W3J4",
    "result": [
      {
        "electoralDistricts": [
          {
            "election": null,
            "id": 87,
            "name": "Pickering—Uxbridge"
          }
        ],
        "pollDivisionIds": [
          10143398
        ],
        "postalCode": "L1W3J4",
        "streetName": "GILLMOSS",
        "streetDirectionId": null,
        "streetTypeId": "RD",
        "placeName": "PICKERING",
        "streetNameDisplayText": "GILLMOSS RD, PICKERING"
      }
    ]
  },
  {
    "postal": "L1W5E7",
    "result": []
  },
  {
    "postal": "L1W3A7",
    "result": [
      {
        "electoralDistricts": [
          {
            "election": null,
            "id": 87,
            "name": "Pickering—Uxbridge"
          }
        ],
        "pollDivisionIds": [
          10143399
        ],
        "postalCode": "L1W3A7",
        "streetName": "CREEKVIEW",
        "streetDirectionId": null,
        "streetTypeId": "CIR",
        "placeName": "PICKERING",
        "streetNameDisplayText": "CREEKVIEW CIR, PICKERING"
      }
    ]
  },
  {
    "postal": "L1W1B9",
    "result": [
      {
        "electoralDistricts": [
          {
            "election": null,
            "id": 87,
            "name": "Pickering—Uxbridge"
          }
        ],
        "pollDivisionIds": [
          10143393
        ],
        "postalCode": "L1W1B9",
        "streetName": "BROADVIEW",
        "streetDirectionId": null,
        "streetTypeId": "ST",
        "placeName": "PICKERING",
        "streetNameDisplayText": "BROADVIEW ST, PICKERING"
      }
    ]
  },
  {
    "postal": "L1W9E8",
    "result": []
  },
  {
    "postal": "L1W1C9",
    "result": [
      {
        "electoralDistricts": [
          {
            "election": null,
            "id": 87,
            "name": "Pickering—Uxbridge"
          }
        ],
        "pollDivisionIds": [
          10143393
        ],
        "postalCode": "L1W1C9",
        "streetName": "COMMERCE",
        "streetDirectionId": null,
        "streetTypeId": "ST",
        "placeName": "PICKERING",
        "streetNameDisplayText": "COMMERCE ST, PICKERING"
      }
    ]
  },
  {
    "postal": "L1W3B5",
    "result": [
      {
        "electoralDistricts": [
          {
            "election": null,
            "id": 87,
            "name": "Pickering—Uxbridge"
          }
        ],
        "pollDivisionIds": [
          10143399
        ],
        "postalCode": "L1W3B5",
        "streetName": "EDGE",
        "streetDirectionId": null,
        "streetTypeId": "LANE",
        "placeName": "PICKERING",
        "streetNameDisplayText": "EDGE LANE, PICKERING"
      }
    ]
  },
  {
    "postal": "L1W8R0",
    "result": []
  },
  {
    "postal": "L1W3P2",
    "result": []
  },
  {
    "postal": "L1W5V4",
    "result": []
  },
  {
    "postal": "L1W4H0",
    "result": []
  },
  {
    "postal": "L1W4S7",
    "result": []
  },
  {
    "postal": "L1W6C2",
    "result": []
  },
  {
    "postal": "L1W8W3",
    "result": []
  },
  {
    "postal": "L1W4M5",
    "result": []
  },
  {
    "postal": "L1W5T1",
    "result": []
  },
  {
    "postal": "L1W3B3",
    "result": [
      {
        "electoralDistricts": [
          {
            "election": null,
            "id": 87,
            "name": "Pickering—Uxbridge"
          }
        ],
        "pollDivisionIds": [
          10143399
        ],
        "postalCode": "L1W3B3",
        "streetName": "STONEBRIDGE",
        "streetDirectionId": null,
        "streetTypeId": "LANE",
        "placeName": "PICKERING",
        "streetNameDisplayText": "STONEBRIDGE LANE, PICKERING"
      }
    ]
  },
  {
    "postal": "L1W6C6",
    "result": []
  },
  {
    "postal": "L1W7N8",
    "result": []
  },
  {
    "postal": "L1W2Y3",
    "result": [
      {
        "electoralDistricts": [
          {
            "election": null,
            "id": 87,
            "name": "Pickering—Uxbridge"
          }
        ],
        "pollDivisionIds": [
          10143391
        ],
        "postalCode": "L1W2Y3",
        "streetName": "BAYSHORE",
        "streetDirectionId": null,
        "streetTypeId": "CRT",
        "placeName": "PICKERING",
        "streetNameDisplayText": "BAYSHORE CRT, PICKERING"
      }
    ]
  },
  {
    "postal": "L1W2R6",
    "result": [
      {
        "electoralDistricts": [
          {
            "election": null,
            "id": 87,
            "name": "Pickering—Uxbridge"
          }
        ],
        "pollDivisionIds": [
          10143399
        ],
        "postalCode": "L1W2R6",
        "streetName": "HILLVIEW",
        "streetDirectionId": null,
        "streetTypeId": "CRES",
        "placeName": "PICKERING",
        "streetNameDisplayText": "HILLVIEW CRES, PICKERING"
      }
    ]
  },
  {
    "postal": "L1W7N3",
    "result": []
  },
  {
    "postal": "L1W8J2",
    "result": []
  },
  {
    "postal": "L1W6A9",
    "result": []
  },
  {
    "postal": "L1W3V2",
    "result": [
      {
        "electoralDistricts": [
          {
            "election": null,
            "id": 87,
            "name": "Pickering—Uxbridge"
          }
        ],
        "pollDivisionIds": [
          10143394
        ],
        "postalCode": "L1W3V2",
        "streetName": "ALLIANCE",
        "streetDirectionId": null,
        "streetTypeId": "RD",
        "placeName": "PICKERING",
        "streetNameDisplayText": "ALLIANCE RD, PICKERING"
      }
    ]
  },
  {
    "postal": "L1W2N3",
    "result": [
      {
        "electoralDistricts": [
          {
            "election": null,
            "id": 87,
            "name": "Pickering—Uxbridge"
          }
        ],
        "pollDivisionIds": [
          10143398
        ],
        "postalCode": "L1W2N3",
        "streetName": "ROSEBANK",
        "streetDirectionId": null,
        "streetTypeId": "RD",
        "placeName": "PICKERING",
        "streetNameDisplayText": "ROSEBANK RD, PICKERING"
      }
    ]
  },
  {
    "postal": "L1W1S5",
    "result": [
      {
        "electoralDistricts": [
          {
            "election": null,
            "id": 87,
            "name": "Pickering—Uxbridge"
          }
        ],
        "pollDivisionIds": [
          10143393
        ],
        "postalCode": "L1W1S5",
        "streetName": "LIVERPOOL",
        "streetDirectionId": null,
        "streetTypeId": "RD",
        "placeName": "PICKERING",
        "streetNameDisplayText": "LIVERPOOL RD, PICKERING"
      }
    ]
  },
  {
    "postal": "L1W4T7",
    "result": []
  },
  {
    "postal": "L1W6Y7",
    "result": []
  },
  {
    "postal": "L1W0W7",
    "result": []
  },
  {
    "postal": "L1W2W9",
    "result": [
      {
        "electoralDistricts": [
          {
            "election": null,
            "id": 87,
            "name": "Pickering—Uxbridge"
          }
        ],
        "pollDivisionIds": [
          10143391
        ],
        "postalCode": "L1W2W9",
        "streetName": "YEREMI",
        "streetDirectionId": null,
        "streetTypeId": "ST",
        "placeName": "PICKERING",
        "streetNameDisplayText": "YEREMI ST, PICKERING"
      }
    ]
  },
  {
    "postal": "L1W8V0",
    "result": []
  },
  {
    "postal": "L1W0H4",
    "result": []
  },
  {
    "postal": "L1W2T1",
    "result": [
      {
        "electoralDistricts": [
          {
            "election": null,
            "id": 87,
            "name": "Pickering—Uxbridge"
          }
        ],
        "pollDivisionIds": [
          10143391
        ],
        "postalCode": "L1W2T1",
        "streetName": "MARKSBURY",
        "streetDirectionId": null,
        "streetTypeId": "RD",
        "placeName": "PICKERING",
        "streetNameDisplayText": "MARKSBURY RD, PICKERING"
      }
    ]
  },
  {
    "postal": "L1W1B1",
    "result": [
      {
        "electoralDistricts": [
          {
            "election": null,
            "id": 87,
            "name": "Pickering—Uxbridge"
          }
        ],
        "pollDivisionIds": [
          10143393
        ],
        "postalCode": "L1W1B1",
        "streetName": "ANNLAND",
        "streetDirectionId": null,
        "streetTypeId": "ST",
        "placeName": "PICKERING",
        "streetNameDisplayText": "ANNLAND ST, PICKERING"
      }
    ]
  },
  {
    "postal": "L1W8B6",
    "result": []
  },
  {
    "postal": "L1W6H1",
    "result": []
  },
  {
    "postal": "L1W8T8",
    "result": []
  },
  {
    "postal": "L1W0T4",
    "result": []
  },
  {
    "postal": "L1W2C4",
    "result": [
      {
        "electoralDistricts": [
          {
            "election": null,
            "id": 87,
            "name": "Pickering—Uxbridge"
          }
        ],
        "pollDivisionIds": [
          10143398
        ],
        "postalCode": "L1W2C4",
        "streetName": "ROUGEMOUNT",
        "streetDirectionId": null,
        "streetTypeId": "DR",
        "placeName": "PICKERING",
        "streetNameDisplayText": "ROUGEMOUNT DR, PICKERING"
      }
    ]
  },
  {
    "postal": "L1W8N3",
    "result": []
  },
  {
    "postal": "L1W4L8",
    "result": []
  },
  {
    "postal": "L1W2B5",
    "result": [
      {
        "electoralDistricts": [
          {
            "election": null,
            "id": 87,
            "name": "Pickering—Uxbridge"
          }
        ],
        "pollDivisionIds": [
          10143398
        ],
        "postalCode": "L1W2B5",
        "streetName": "ROUGEMOUNT",
        "streetDirectionId": null,
        "streetTypeId": "DR",
        "placeName": "PICKERING",
        "streetNameDisplayText": "ROUGEMOUNT DR, PICKERING"
      }
    ]
  },
  {
    "postal": "L1W3H1",
    "result": []
  },
  {
    "postal": "L1W4Y1",
    "result": []
  },
  {
    "postal": "L1W7E2",
    "result": []
  },
  {
    "postal": "L1W2P5",
    "result": [
      {
        "electoralDistricts": [
          {
            "election": null,
            "id": 87,
            "name": "Pickering—Uxbridge"
          }
        ],
        "pollDivisionIds": [
          10143399
        ],
        "postalCode": "L1W2P5",
        "streetName": "HILLCREST",
        "streetDirectionId": null,
        "streetTypeId": "RD",
        "placeName": "PICKERING",
        "streetNameDisplayText": "HILLCREST RD, PICKERING"
      }
    ]
  },
  {
    "postal": "L1W8R7",
    "result": []
  },
  {
    "postal": "L1W9P1",
    "result": []
  },
  {
    "postal": "L1W3B8",
    "result": [
      {
        "electoralDistricts": [
          {
            "election": null,
            "id": 87,
            "name": "Pickering—Uxbridge"
          }
        ],
        "pollDivisionIds": [
          10143393
        ],
        "postalCode": "L1W3B8",
        "streetName": "RADOM",
        "streetDirectionId": null,
        "streetTypeId": "ST",
        "placeName": "PICKERING",
        "streetNameDisplayText": "RADOM ST, PICKERING"
      }
    ]
  },
  {
    "postal": "L1W3P7",
    "result": []
  },
  {
    "postal": "L1W9B2",
    "result": []
  },
  {
    "postal": "L1W6Z3",
    "result": []
  },
  {
    "postal": "L1W4N5",
    "result": []
  },
  {
    "postal": "L1W8T3",
    "result": []
  },
  {
    "postal": "L1W1V2",
    "result": [
      {
        "electoralDistricts": [
          {
            "election": null,
            "id": 87,
            "name": "Pickering—Uxbridge"
          }
        ],
        "pollDivisionIds": [
          10143394
        ],
        "postalCode": "L1W1V2",
        "streetName": "HELEN",
        "streetDirectionId": null,
        "streetTypeId": "CRES",
        "placeName": "PICKERING",
        "streetNameDisplayText": "HELEN CRES, PICKERING"
      }
    ]
  },
  {
    "postal": "L1W1Y0",
    "result": []
  },
  {
    "postal": "L1W3G6",
    "result": [
      {
        "electoralDistricts": [
          {
            "election": null,
            "id": 87,
            "name": "Pickering—Uxbridge"
          }
        ],
        "pollDivisionIds": [
          10143398
        ],
        "postalCode": "L1W3G6",
        "streetName": "TOYNEVALE",
        "streetDirectionId": null,
        "streetTypeId": "RD",
        "placeName": "PICKERING",
        "streetNameDisplayText": "TOYNEVALE RD, PICKERING"
      }
    ]
  },
  {
    "postal": "L1W3H7",
    "result": [
      {
        "electoralDistricts": [
          {
            "election": null,
            "id": 87,
            "name": "Pickering—Uxbridge"
          }
        ],
        "pollDivisionIds": [
          10143399
        ],
        "postalCode": "L1W3H7",
        "streetName": "BROADGREEN",
        "streetDirectionId": null,
        "streetTypeId": "ST",
        "placeName": "PICKERING",
        "streetNameDisplayText": "BROADGREEN ST, PICKERING"
      }
    ]
  },
  {
    "postal": "L1W7X8",
    "result": []
  },
  {
    "postal": "L1W0C7",
    "result": []
  },
  {
    "postal": "L1W0W9",
    "result": []
  },
  {
    "postal": "L1W8E6",
    "result": []
  },
  {
    "postal": "L1W9Z8",
    "result": []
  },
  {
    "postal": "L1W3P4",
    "result": [
      {
        "electoralDistricts": [
          {
            "election": null,
            "id": 87,
            "name": "Pickering—Uxbridge"
          }
        ],
        "pollDivisionIds": [
          10143393
        ],
        "postalCode": "L1W3P4",
        "streetName": "DOUGLAS",
        "streetDirectionId": null,
        "streetTypeId": "AVE",
        "placeName": "PICKERING",
        "streetNameDisplayText": "DOUGLAS AVE, PICKERING"
      }
    ]
  },
  {
    "postal": "L1W6L8",
    "result": []
  },
  {
    "postal": "L1W2R4",
    "result": [
      {
        "electoralDistricts": [
          {
            "election": null,
            "id": 87,
            "name": "Pickering—Uxbridge"
          }
        ],
        "pollDivisionIds": [
          10143391
        ],
        "postalCode": "L1W2R4",
        "streetName": "SANOK",
        "streetDirectionId": null,
        "streetTypeId": "DR",
        "placeName": "PICKERING",
        "streetNameDisplayText": "SANOK DR, PICKERING"
      }
    ]
  },
  {
    "postal": "L1W2W1",
    "result": [
      {
        "electoralDistricts": [
          {
            "election": null,
            "id": 87,
            "name": "Pickering—Uxbridge"
          }
        ],
        "pollDivisionIds": [
          10143391
        ],
        "postalCode": "L1W2W1",
        "streetName": "CHIPMUNK",
        "streetDirectionId": null,
        "streetTypeId": "ST",
        "placeName": "PICKERING",
        "streetNameDisplayText": "CHIPMUNK ST, PICKERING"
      }
    ]
  },
  {
    "postal": "L1W9H8",
    "result": []
  },
  {
    "postal": "L1W8X9",
    "result": []
  },
  {
    "postal": "L1W7H4",
    "result": []
  },
  {
    "postal": "L1W3J1",
    "result": [
      {
        "electoralDistricts": [
          {
            "election": null,
            "id": 87,
            "name": "Pickering—Uxbridge"
          }
        ],
        "pollDivisionIds": [
          10143399
        ],
        "postalCode": "L1W3J1",
        "streetName": "PETTICOAT",
        "streetDirectionId": null,
        "streetTypeId": "LANE",
        "placeName": "PICKERING",
        "streetNameDisplayText": "PETTICOAT LANE, PICKERING"
      }
    ]
  },
  {
    "postal": "L1W1P4",
    "result": [
      {
        "electoralDistricts": [
          {
            "election": null,
            "id": 87,
            "name": "Pickering—Uxbridge"
          }
        ],
        "pollDivisionIds": [
          10143393
        ],
        "postalCode": "L1W1P4",
        "streetName": "CHAPLEAU",
        "streetDirectionId": null,
        "streetTypeId": "DR",
        "placeName": "PICKERING",
        "streetNameDisplayText": "CHAPLEAU DR, PICKERING"
      }
    ]
  },
  {
    "postal": "L1W2A3",
    "result": [
      {
        "electoralDistricts": [
          {
            "election": null,
            "id": 87,
            "name": "Pickering—Uxbridge"
          }
        ],
        "pollDivisionIds": [
          10143396
        ],
        "postalCode": "L1W2A3",
        "streetName": "BROCK",
        "streetDirectionId": null,
        "streetTypeId": "RD",
        "placeName": "PICKERING",
        "streetNameDisplayText": "BROCK RD, PICKERING"
      }
    ]
  },
  {
    "postal": "L1W0Z1",
    "result": []
  },
  {
    "postal": "L1W1C1",
    "result": [
      {
        "electoralDistricts": [
          {
            "election": null,
            "id": 87,
            "name": "Pickering—Uxbridge"
          }
        ],
        "pollDivisionIds": [
          10143393
        ],
        "postalCode": "L1W1C1",
        "streetName": "BROADVIEW",
        "streetDirectionId": null,
        "streetTypeId": "ST",
        "placeName": "PICKERING",
        "streetNameDisplayText": "BROADVIEW ST, PICKERING"
      }
    ]
  },
  {
    "postal": "L1W0H3",
    "result": []
  },
  {
    "postal": "L1W7B0",
    "result": []
  },
  {
    "postal": "L1W5K2",
    "result": []
  },
  {
    "postal": "L1W1E9",
    "result": [
      {
        "electoralDistricts": [
          {
            "election": null,
            "id": 87,
            "name": "Pickering—Uxbridge"
          }
        ],
        "pollDivisionIds": [
          10143393
        ],
        "postalCode": "L1W1E9",
        "streetName": "FOXGLOVE",
        "streetDirectionId": null,
        "streetTypeId": "AVE",
        "placeName": "PICKERING",
        "streetNameDisplayText": "FOXGLOVE AVE, PICKERING"
      }
    ]
  },
  {
    "postal": "L1W9W7",
    "result": []
  },
  {
    "postal": "L1W5W6",
    "result": []
  },
  {
    "postal": "L1W6S6",
    "result": []
  },
  {
    "postal": "L1W2P8",
    "result": [
      {
        "electoralDistricts": [
          {
            "election": null,
            "id": 87,
            "name": "Pickering—Uxbridge"
          }
        ],
        "pollDivisionIds": [
          10143391
        ],
        "postalCode": "L1W2P8",
        "streetName": "HILLCREST",
        "streetDirectionId": null,
        "streetTypeId": "RD",
        "placeName": "PICKERING",
        "streetNameDisplayText": "HILLCREST RD, PICKERING"
      }
    ]
  },
  {
    "postal": "L1W4P8",
    "result": []
  },
  {
    "postal": "L1W0V9",
    "result": []
  },
  {
    "postal": "L1W5Y2",
    "result": []
  },
  {
    "postal": "L1W7Z7",
    "result": []
  },
  {
    "postal": "L1W6Y8",
    "result": []
  },
  {
    "postal": "L1W2G7",
    "result": [
      {
        "electoralDistricts": [
          {
            "election": null,
            "id": 87,
            "name": "Pickering—Uxbridge"
          }
        ],
        "pollDivisionIds": [
          10143398
        ],
        "postalCode": "L1W2G7",
        "streetName": "TOYNEVALE",
        "streetDirectionId": null,
        "streetTypeId": "RD",
        "placeName": "PICKERING",
        "streetNameDisplayText": "TOYNEVALE RD, PICKERING"
      }
    ]
  },
  {
    "postal": "L1W8C1",
    "result": []
  },
  {
    "postal": "L1W5C5",
    "result": []
  },
  {
    "postal": "L1W2X8",
    "result": []
  },
  {
    "postal": "L1W1W5",
    "result": [
      {
        "electoralDistricts": [
          {
            "election": null,
            "id": 87,
            "name": "Pickering—Uxbridge"
          }
        ],
        "pollDivisionIds": [
          10143395
        ],
        "postalCode": "L1W1W5",
        "streetName": "BALATON",
        "streetDirectionId": null,
        "streetTypeId": "AVE",
        "placeName": "PICKERING",
        "streetNameDisplayText": "BALATON AVE, PICKERING"
      }
    ]
  },
  {
    "postal": "L1W7G0",
    "result": []
  },
  {
    "postal": "L1W8J8",
    "result": []
  },
  {
    "postal": "L1W3Y0",
    "result": []
  },
  {
    "postal": "L1W9T7",
    "result": []
  },
  {
    "postal": "L1W5P4",
    "result": []
  },
  {
    "postal": "L1W4B0",
    "result": []
  },
  {
    "postal": "L1W9N8",
    "result": []
  },
  {
    "postal": "L1W4A7",
    "result": [
      {
        "electoralDistricts": [
          {
            "election": null,
            "id": 87,
            "name": "Pickering—Uxbridge"
          }
        ],
        "pollDivisionIds": [
          10143396
        ],
        "postalCode": "L1W4A7",
        "streetName": "BROCK",
        "streetDirectionId": null,
        "streetTypeId": "RD",
        "placeName": "PICKERING",
        "streetNameDisplayText": "BROCK RD, PICKERING"
      }
    ]
  },
  {
    "postal": "L1W4H9",
    "result": []
  },
  {
    "postal": "L1W6X1",
    "result": []
  },
  {
    "postal": "L1W9Y7",
    "result": []
  },
  {
    "postal": "L1W2Y5",
    "result": [
      {
        "electoralDistricts": [
          {
            "election": null,
            "id": 87,
            "name": "Pickering—Uxbridge"
          }
        ],
        "pollDivisionIds": [
          10143396
        ],
        "postalCode": "L1W2Y5",
        "streetName": "DILLINGHAM",
        "streetDirectionId": null,
        "streetTypeId": "RD",
        "placeName": "PICKERING",
        "streetNameDisplayText": "DILLINGHAM RD, PICKERING"
      }
    ]
  },
  {
    "postal": "L1W8L7",
    "result": []
  },
  {
    "postal": "L1W2A8",
    "result": []
  },
  {
    "postal": "L1W2K9",
    "result": [
      {
        "electoralDistricts": [
          {
            "election": null,
            "id": 87,
            "name": "Pickering—Uxbridge"
          }
        ],
        "pollDivisionIds": [
          10143391
        ],
        "postalCode": "L1W2K9",
        "streetName": "BOXWORTH",
        "streetDirectionId": null,
        "streetTypeId": "PL",
        "placeName": "PICKERING",
        "streetNameDisplayText": "BOXWORTH PL, PICKERING"
      }
    ]
  },
  {
    "postal": "L1W3E5",
    "result": [
      {
        "electoralDistricts": [
          {
            "election": null,
            "id": 87,
            "name": "Pickering—Uxbridge"
          }
        ],
        "pollDivisionIds": [
          10143394
        ],
        "postalCode": "L1W3E5",
        "streetName": "BROCK",
        "streetDirectionId": null,
        "streetTypeId": "RD",
        "placeName": "PICKERING",
        "streetNameDisplayText": "BROCK RD, PICKERING"
      }
    ]
  },
  {
    "postal": "L1W8N6",
    "result": []
  },
  {
    "postal": "L1W8J4",
    "result": []
  },
  {
    "postal": "L1W4R7",
    "result": []
  },
  {
    "postal": "L1W9K1",
    "result": []
  },
  {
    "postal": "L1W8E1",
    "result": []
  },
  {
    "postal": "L1W0R1",
    "result": []
  },
  {
    "postal": "L1W4J3",
    "result": []
  },
  {
    "postal": "L1W7E7",
    "result": []
  },
  {
    "postal": "L1W0J0",
    "result": []
  },
  {
    "postal": "L1W7R8",
    "result": []
  },
  {
    "postal": "L1W9X0",
    "result": []
  },
  {
    "postal": "L1W7P6",
    "result": []
  },
  {
    "postal": "L1W0R7",
    "result": []
  },
  {
    "postal": "L1W5W1",
    "result": []
  },
  {
    "postal": "L1W0K4",
    "result": []
  },
  {
    "postal": "L1W7N9",
    "result": []
  },
  {
    "postal": "L1W1N0",
    "result": []
  },
  {
    "postal": "L1W6P3",
    "result": []
  },
  {
    "postal": "L1W5A1",
    "result": []
  },
  {
    "postal": "L1W9M9",
    "result": []
  },
  {
    "postal": "L1W7T6",
    "result": []
  },
  {
    "postal": "L1W3X0",
    "result": []
  },
  {
    "postal": "L1W2T0",
    "result": []
  },
  {
    "postal": "L1W5X9",
    "result": []
  },
  {
    "postal": "L1W2R3",
    "result": [
      {
        "electoralDistricts": [
          {
            "election": null,
            "id": 87,
            "name": "Pickering—Uxbridge"
          }
        ],
        "pollDivisionIds": [
          10143391
        ],
        "postalCode": "L1W2R3",
        "streetName": "SANOK",
        "streetDirectionId": null,
        "streetTypeId": "DR",
        "placeName": "PICKERING",
        "streetNameDisplayText": "SANOK DR, PICKERING"
      }
    ]
  },
  {
    "postal": "L1W5N2",
    "result": []
  },
  {
    "postal": "L1W4Y7",
    "result": []
  },
  {
    "postal": "L1W7M0",
    "result": []
  },
  {
    "postal": "L1W8P3",
    "result": []
  },
  {
    "postal": "L1W3N3",
    "result": [
      {
        "electoralDistricts": [
          {
            "election": null,
            "id": 87,
            "name": "Pickering—Uxbridge"
          }
        ],
        "pollDivisionIds": [
          10143396
        ],
        "postalCode": "L1W3N3",
        "streetName": "BAYLY",
        "streetDirectionId": null,
        "streetTypeId": "ST",
        "placeName": "PICKERING",
        "streetNameDisplayText": "BAYLY ST, PICKERING"
      }
    ]
  },
  {
    "postal": "L1W7S3",
    "result": []
  },
  {
    "postal": "L1W3V9",
    "result": [
      {
        "electoralDistricts": [
          {
            "election": null,
            "id": 87,
            "name": "Pickering—Uxbridge"
          }
        ],
        "pollDivisionIds": [
          10143394
        ],
        "postalCode": "L1W3V9",
        "streetName": "BAYLY",
        "streetDirectionId": null,
        "streetTypeId": "ST",
        "placeName": "PICKERING",
        "streetNameDisplayText": "BAYLY ST, PICKERING"
      }
    ]
  },
  {
    "postal": "L1W9N7",
    "result": []
  },
  {
    "postal": "L1W0G4",
    "result": []
  },
  {
    "postal": "L1W2E2",
    "result": [
      {
        "electoralDistricts": [
          {
            "election": null,
            "id": 87,
            "name": "Pickering—Uxbridge"
          }
        ],
        "pollDivisionIds": [
          10143399
        ],
        "postalCode": "L1W2E2",
        "streetName": "PARK",
        "streetDirectionId": null,
        "streetTypeId": "CRES",
        "placeName": "PICKERING",
        "streetNameDisplayText": "PARK CRES, PICKERING"
      }
    ]
  },
  {
    "postal": "L1W7W8",
    "result": []
  },
  {
    "postal": "L1W7M5",
    "result": []
  },
  {
    "postal": "L1W5W8",
    "result": []
  },
  {
    "postal": "L1W5E5",
    "result": []
  },
  {
    "postal": "L1W1P9",
    "result": [
      {
        "electoralDistricts": [
          {
            "election": null,
            "id": 87,
            "name": "Pickering—Uxbridge"
          }
        ],
        "pollDivisionIds": [
          10143393
        ],
        "postalCode": "L1W1P9",
        "streetName": "LIVERPOOL",
        "streetDirectionId": null,
        "streetTypeId": "RD",
        "placeName": "PICKERING",
        "streetNameDisplayText": "LIVERPOOL RD, PICKERING"
      }
    ]
  },
  {
    "postal": "L1W8V8",
    "result": []
  },
  {
    "postal": "L1W9G8",
    "result": []
  },
  {
    "postal": "L1W8H9",
    "result": []
  },
  {
    "postal": "L1W1Z1",
    "result": [
      {
        "electoralDistricts": [
          {
            "election": null,
            "id": 87,
            "name": "Pickering—Uxbridge"
          }
        ],
        "pollDivisionIds": [
          10143396
        ],
        "postalCode": "L1W1Z1",
        "streetName": "LUBLIN",
        "streetDirectionId": null,
        "streetTypeId": "AVE",
        "placeName": "PICKERING",
        "streetNameDisplayText": "LUBLIN AVE, PICKERING"
      }
    ]
  },
  {
    "postal": "L1W8M3",
    "result": []
  },
  {
    "postal": "L1W5H6",
    "result": []
  },
  {
    "postal": "L1W7W7",
    "result": []
  },
  {
    "postal": "L1W4L0",
    "result": []
  },
  {
    "postal": "L1W2N1",
    "result": [
      {
        "electoralDistricts": [
          {
            "election": null,
            "id": 87,
            "name": "Pickering—Uxbridge"
          }
        ],
        "pollDivisionIds": [
          10143398
        ],
        "postalCode": "L1W2N1",
        "streetName": "DYSON",
        "streetDirectionId": null,
        "streetTypeId": "RD",
        "placeName": "PICKERING",
        "streetNameDisplayText": "DYSON RD, PICKERING"
      }
    ]
  },
  {
    "postal": "L1W2H4",
    "result": [
      {
        "electoralDistricts": [
          {
            "election": null,
            "id": 87,
            "name": "Pickering—Uxbridge"
          }
        ],
        "pollDivisionIds": [
          10143399
        ],
        "postalCode": "L1W2H4",
        "streetName": "OKLAHOMA",
        "streetDirectionId": null,
        "streetTypeId": "DR",
        "placeName": "PICKERING",
        "streetNameDisplayText": "OKLAHOMA DR, PICKERING"
      }
    ]
  },
  {
    "postal": "L1W5C8",
    "result": []
  },
  {
    "postal": "L1W8B0",
    "result": []
  },
  {
    "postal": "L1W1T4",
    "result": [
      {
        "electoralDistricts": [
          {
            "election": null,
            "id": 87,
            "name": "Pickering—Uxbridge"
          }
        ],
        "pollDivisionIds": [
          10143394
        ],
        "postalCode": "L1W1T4",
        "streetName": "ANTONIO",
        "streetDirectionId": null,
        "streetTypeId": "ST",
        "placeName": "PICKERING",
        "streetNameDisplayText": "ANTONIO ST, PICKERING"
      }
    ]
  },
  {
    "postal": "L1W7N7",
    "result": []
  },
  {
    "postal": "L1W4L3",
    "result": []
  },
  {
    "postal": "L1W2N2",
    "result": [
      {
        "electoralDistricts": [
          {
            "election": null,
            "id": 87,
            "name": "Pickering—Uxbridge"
          }
        ],
        "pollDivisionIds": [
          10143398
        ],
        "postalCode": "L1W2N2",
        "streetName": "DYSON",
        "streetDirectionId": null,
        "streetTypeId": "RD",
        "placeName": "PICKERING",
        "streetNameDisplayText": "DYSON RD, PICKERING"
      }
    ]
  },
  {
    "postal": "L1W4N8",
    "result": []
  },
  {
    "postal": "L1W3M5",
    "result": [
      {
        "electoralDistricts": [
          {
            "election": null,
            "id": 87,
            "name": "Pickering—Uxbridge"
          }
        ],
        "pollDivisionIds": [
          10143398
        ],
        "postalCode": "L1W3M5",
        "streetName": "MCLEOD",
        "streetDirectionId": null,
        "streetTypeId": "CRES",
        "placeName": "PICKERING",
        "streetNameDisplayText": "MCLEOD CRES, PICKERING"
      }
    ]
  },
  {
    "postal": "L1W6H7",
    "result": []
  },
  {
    "postal": "L1W8Y8",
    "result": []
  },
  {
    "postal": "L1W5R9",
    "result": []
  },
  {
    "postal": "L1W8G3",
    "result": []
  },
  {
    "postal": "L1W4N7",
    "result": []
  },
  {
    "postal": "L1W0B9",
    "result": []
  },
  {
    "postal": "L1W9K7",
    "result": []
  },
  {
    "postal": "L1W9K9",
    "result": []
  },
  {
    "postal": "L1W3Z2",
    "result": [
      {
        "electoralDistricts": [
          {
            "election": null,
            "id": 87,
            "name": "Pickering—Uxbridge"
          }
        ],
        "pollDivisionIds": [
          10143398
        ],
        "postalCode": "L1W3Z2",
        "streetName": "LYTTON",
        "streetDirectionId": null,
        "streetTypeId": "CRT",
        "placeName": "PICKERING",
        "streetNameDisplayText": "LYTTON CRT, PICKERING"
      }
    ]
  },
  {
    "postal": "L1W6W7",
    "result": []
  },
  {
    "postal": "L1W0P1",
    "result": []
  },
  {
    "postal": "L1W3A0",
    "result": []
  },
  {
    "postal": "L1W8L9",
    "result": []
  },
  {
    "postal": "L1W6X0",
    "result": []
  },
  {
    "postal": "L1W3E9",
    "result": [
      {
        "electoralDistricts": [
          {
            "election": null,
            "id": 87,
            "name": "Pickering—Uxbridge"
          }
        ],
        "pollDivisionIds": [
          10143396
        ],
        "postalCode": "L1W3E9",
        "streetName": "MCPHERSON",
        "streetDirectionId": null,
        "streetTypeId": "CRT",
        "placeName": "PICKERING",
        "streetNameDisplayText": "MCPHERSON CRT, PICKERING"
      }
    ]
  },
  {
    "postal": "L1W0S5",
    "result": []
  },
  {
    "postal": "L1W1A2",
    "result": [
      {
        "electoralDistricts": [
          {
            "election": null,
            "id": 87,
            "name": "Pickering—Uxbridge"
          }
        ],
        "pollDivisionIds": [
          10143393
        ],
        "postalCode": "L1W1A2",
        "streetName": "WHARF",
        "streetDirectionId": null,
        "streetTypeId": "ST",
        "placeName": "PICKERING",
        "streetNameDisplayText": "WHARF ST, PICKERING"
      }
    ]
  },
  {
    "postal": "L1W5V8",
    "result": []
  },
  {
    "postal": "L1W8C5",
    "result": []
  },
  {
    "postal": "L1W6N0",
    "result": []
  },
  {
    "postal": "L1W9E6",
    "result": []
  },
  {
    "postal": "L1W5J7",
    "result": []
  },
  {
    "postal": "L1W2R2",
    "result": [
      {
        "electoralDistricts": [
          {
            "election": null,
            "id": 87,
            "name": "Pickering—Uxbridge"
          }
        ],
        "pollDivisionIds": [
          10143391
        ],
        "postalCode": "L1W2R2",
        "streetName": "SANOK",
        "streetDirectionId": null,
        "streetTypeId": "DR",
        "placeName": "PICKERING",
        "streetNameDisplayText": "SANOK DR, PICKERING"
      }
    ]
  },
  {
    "postal": "L1W0P5",
    "result": []
  },
  {
    "postal": "L1W5A7",
    "result": []
  },
  {
    "postal": "L1W1G1",
    "result": [
      {
        "electoralDistricts": [
          {
            "election": null,
            "id": 87,
            "name": "Pickering—Uxbridge"
          }
        ],
        "pollDivisionIds": [
          10143393
        ],
        "postalCode": "L1W1G1",
        "streetName": "OLD ORCHARD",
        "streetDirectionId": null,
        "streetTypeId": "AVE",
        "placeName": "PICKERING",
        "streetNameDisplayText": "OLD ORCHARD AVE, PICKERING"
      }
    ]
  },
  {
    "postal": "L1W9R6",
    "result": []
  },
  {
    "postal": "L1W4Z9",
    "result": []
  },
  {
    "postal": "L1W1V5",
    "result": [
      {
        "electoralDistricts": [
          {
            "election": null,
            "id": 87,
            "name": "Pickering—Uxbridge"
          }
        ],
        "pollDivisionIds": [
          10143394
        ],
        "postalCode": "L1W1V5",
        "streetName": "MODLIN",
        "streetDirectionId": null,
        "streetTypeId": "RD",
        "placeName": "PICKERING",
        "streetNameDisplayText": "MODLIN RD, PICKERING"
      }
    ]
  },
  {
    "postal": "L1W9Y5",
    "result": []
  },
  {
    "postal": "L1W1P2",
    "result": [
      {
        "electoralDistricts": [
          {
            "election": null,
            "id": 87,
            "name": "Pickering—Uxbridge"
          }
        ],
        "pollDivisionIds": [
          10143393
        ],
        "postalCode": "L1W1P2",
        "streetName": "FRONT",
        "streetDirectionId": null,
        "streetTypeId": "RD",
        "placeName": "PICKERING",
        "streetNameDisplayText": "FRONT RD, PICKERING"
      }
    ]
  },
  {
    "postal": "L1W5X0",
    "result": []
  },
  {
    "postal": "L1W7B8",
    "result": []
  },
  {
    "postal": "L1W0C6",
    "result": []
  },
  {
    "postal": "L1W6G1",
    "result": []
  },
  {
    "postal": "L1W3K3",
    "result": [
      {
        "electoralDistricts": [
          {
            "election": null,
            "id": 87,
            "name": "Pickering—Uxbridge"
          }
        ],
        "pollDivisionIds": [
          10143398
        ],
        "postalCode": "L1W3K3",
        "streetName": "MOORELANDS",
        "streetDirectionId": null,
        "streetTypeId": "CRES",
        "placeName": "PICKERING",
        "streetNameDisplayText": "MOORELANDS CRES, PICKERING"
      }
    ]
  },
  {
    "postal": "L1W9R0",
    "result": []
  },
  {
    "postal": "L1W4R8",
    "result": []
  },
  {
    "postal": "L1W5P9",
    "result": []
  },
  {
    "postal": "L1W8N4",
    "result": []
  },
  {
    "postal": "L1W8H4",
    "result": []
  },
  {
    "postal": "L1W4V1",
    "result": []
  },
  {
    "postal": "L1W1K5",
    "result": [
      {
        "electoralDistricts": [
          {
            "election": null,
            "id": 87,
            "name": "Pickering—Uxbridge"
          }
        ],
        "pollDivisionIds": [
          10143394
        ],
        "postalCode": "L1W1K5",
        "streetName": "TATRA",
        "streetDirectionId": null,
        "streetTypeId": "DR",
        "placeName": "PICKERING",
        "streetNameDisplayText": "TATRA DR, PICKERING"
      }
    ]
  },
  {
    "postal": "L1W1Z5",
    "result": [
      {
        "electoralDistricts": [
          {
            "election": null,
            "id": 87,
            "name": "Pickering—Uxbridge"
          }
        ],
        "pollDivisionIds": [
          10143396
        ],
        "postalCode": "L1W1Z5",
        "streetName": "SANDY BEACH",
        "streetDirectionId": null,
        "streetTypeId": "RD",
        "placeName": "PICKERING",
        "streetNameDisplayText": "SANDY BEACH RD, PICKERING"
      }
    ]
  },
  {
    "postal": "L1W9L9",
    "result": []
  },
  {
    "postal": "L1W5L2",
    "result": []
  },
  {
    "postal": "L1W0M2",
    "result": []
  },
  {
    "postal": "L1W1K8",
    "result": [
      {
        "electoralDistricts": [
          {
            "election": null,
            "id": 87,
            "name": "Pickering—Uxbridge"
          }
        ],
        "pollDivisionIds": [
          10143394
        ],
        "postalCode": "L1W1K8",
        "streetName": "TATRA",
        "streetDirectionId": null,
        "streetTypeId": "DR",
        "placeName": "PICKERING",
        "streetNameDisplayText": "TATRA DR, PICKERING"
      }
    ]
  },
  {
    "postal": "L1W3M7",
    "result": [
      {
        "electoralDistricts": [
          {
            "election": null,
            "id": 87,
            "name": "Pickering—Uxbridge"
          }
        ],
        "pollDivisionIds": [
          10143399
        ],
        "postalCode": "L1W3M7",
        "streetName": "ABINGDON",
        "streetDirectionId": null,
        "streetTypeId": "CRT",
        "placeName": "PICKERING",
        "streetNameDisplayText": "ABINGDON CRT, PICKERING"
      }
    ]
  },
  {
    "postal": "L1W1B2",
    "result": [
      {
        "electoralDistricts": [
          {
            "election": null,
            "id": 87,
            "name": "Pickering—Uxbridge"
          }
        ],
        "pollDivisionIds": [
          10143393
        ],
        "postalCode": "L1W1B2",
        "streetName": "ANNLAND",
        "streetDirectionId": null,
        "streetTypeId": "ST",
        "placeName": "PICKERING",
        "streetNameDisplayText": "ANNLAND ST, PICKERING"
      }
    ]
  },
  {
    "postal": "L1W0H9",
    "result": []
  },
  {
    "postal": "L1W8M4",
    "result": []
  },
  {
    "postal": "L1W2M5",
    "result": [
      {
        "electoralDistricts": [
          {
            "election": null,
            "id": 87,
            "name": "Pickering—Uxbridge"
          }
        ],
        "pollDivisionIds": [
          10143398
        ],
        "postalCode": "L1W2M5",
        "streetName": "PINE RIDGE",
        "streetDirectionId": null,
        "streetTypeId": "RD",
        "placeName": "PICKERING",
        "streetNameDisplayText": "PINE RIDGE RD, PICKERING"
      }
    ]
  },
  {
    "postal": "L1W0T9",
    "result": []
  },
  {
    "postal": "L1W3P1",
    "result": [
      {
        "electoralDistricts": [
          {
            "election": null,
            "id": 87,
            "name": "Pickering—Uxbridge"
          }
        ],
        "pollDivisionIds": [
          10143396
        ],
        "postalCode": "L1W3P1",
        "streetName": "TOY",
        "streetDirectionId": null,
        "streetTypeId": "AVE",
        "placeName": "PICKERING",
        "streetNameDisplayText": "TOY AVE, PICKERING"
      }
    ]
  },
  {
    "postal": "L1W1R6",
    "result": [
      {
        "electoralDistricts": [
          {
            "election": null,
            "id": 87,
            "name": "Pickering—Uxbridge"
          }
        ],
        "pollDivisionIds": [
          10143393
        ],
        "postalCode": "L1W1R6",
        "streetName": "LIVERPOOL",
        "streetDirectionId": null,
        "streetTypeId": "RD",
        "placeName": "PICKERING",
        "streetNameDisplayText": "LIVERPOOL RD, PICKERING"
      }
    ]
  },
  {
    "postal": "L1W9V5",
    "result": []
  },
  {
    "postal": "L1W9T0",
    "result": []
  },
  {
    "postal": "L1W0A9",
    "result": [
      {
        "electoralDistricts": [
          {
            "election": null,
            "id": 87,
            "name": "Pickering—Uxbridge"
          }
        ],
        "pollDivisionIds": [
          10143398
        ],
        "postalCode": "L1W0A9",
        "streetName": "COWAN",
        "streetDirectionId": null,
        "streetTypeId": "CIR",
        "placeName": "PICKERING",
        "streetNameDisplayText": "COWAN CIR, PICKERING"
      },
      {
        "electoralDistricts": [
          {
            "election": null,
            "id": 87,
            "name": "Pickering—Uxbridge"
          }
        ],
        "pollDivisionIds": [
          10143398
        ],
        "postalCode": "L1W0A9",
        "streetName": "GILLMOSS",
        "streetDirectionId": null,
        "streetTypeId": "RD",
        "placeName": "PICKERING",
        "streetNameDisplayText": "GILLMOSS RD, PICKERING"
      }
    ]
  },
  {
    "postal": "L1W1M3",
    "result": [
      {
        "electoralDistricts": [
          {
            "election": null,
            "id": 87,
            "name": "Pickering—Uxbridge"
          }
        ],
        "pollDivisionIds": [
          10143393
        ],
        "postalCode": "L1W1M3",
        "streetName": "SIMPSON",
        "streetDirectionId": null,
        "streetTypeId": "AVE",
        "placeName": "PICKERING",
        "streetNameDisplayText": "SIMPSON AVE, PICKERING"
      }
    ]
  },
  {
    "postal": "L1W1W8",
    "result": [
      {
        "electoralDistricts": [
          {
            "election": null,
            "id": 87,
            "name": "Pickering—Uxbridge"
          }
        ],
        "pollDivisionIds": [
          10143395
        ],
        "postalCode": "L1W1W8",
        "streetName": "ALDERWOOD",
        "streetDirectionId": null,
        "streetTypeId": "PL",
        "placeName": "PICKERING",
        "streetNameDisplayText": "ALDERWOOD PL, PICKERING"
      }
    ]
  },
  {
    "postal": "L1W9J1",
    "result": []
  },
  {
    "postal": "L1W8N5",
    "result": []
  },
  {
    "postal": "L1W5X1",
    "result": []
  },
  {
    "postal": "L1W6S2",
    "result": []
  },
  {
    "postal": "L1W2A2",
    "result": []
  },
  {
    "postal": "L1W6A6",
    "result": []
  },
  {
    "postal": "L1W0S3",
    "result": []
  },
  {
    "postal": "L1W3E7",
    "result": [
      {
        "electoralDistricts": [
          {
            "election": null,
            "id": 87,
            "name": "Pickering—Uxbridge"
          }
        ],
        "pollDivisionIds": [
          10143399
        ],
        "postalCode": "L1W3E7",
        "streetName": "PETTICOAT",
        "streetDirectionId": null,
        "streetTypeId": "LANE",
        "placeName": "PICKERING",
        "streetNameDisplayText": "PETTICOAT LANE, PICKERING"
      }
    ]
  },
  {
    "postal": "L1W5R7",
    "result": []
  },
  {
    "postal": "L1W3R6",
    "result": []
  },
  {
    "postal": "L1W6K4",
    "result": []
  },
  {
    "postal": "L1W2W5",
    "result": [
      {
        "electoralDistricts": [
          {
            "election": null,
            "id": 87,
            "name": "Pickering—Uxbridge"
          }
        ],
        "pollDivisionIds": [
          10143391
        ],
        "postalCode": "L1W2W5",
        "streetName": "BATORY",
        "streetDirectionId": null,
        "streetTypeId": "AVE",
        "placeName": "PICKERING",
        "streetNameDisplayText": "BATORY AVE, PICKERING"
      }
    ]
  },
  {
    "postal": "L1W8W4",
    "result": []
  },
  {
    "postal": "L1W9C2",
    "result": []
  },
  {
    "postal": "L1W2C0",
    "result": []
  },
  {
    "postal": "L1W0E1",
    "result": []
  },
  {
    "postal": "L1W1K9",
    "result": [
      {
        "electoralDistricts": [
          {
            "election": null,
            "id": 87,
            "name": "Pickering—Uxbridge"
          }
        ],
        "pollDivisionIds": [
          10143394
        ],
        "postalCode": "L1W1K9",
        "streetName": "POPRAD",
        "streetDirectionId": null,
        "streetTypeId": "AVE",
        "placeName": "PICKERING",
        "streetNameDisplayText": "POPRAD AVE, PICKERING"
      }
    ]
  },
  {
    "postal": "L1W1G7",
    "result": [
      {
        "electoralDistricts": [
          {
            "election": null,
            "id": 87,
            "name": "Pickering—Uxbridge"
          }
        ],
        "pollDivisionIds": [
          10143396
        ],
        "postalCode": "L1W1G7",
        "streetName": "KROSNO",
        "streetDirectionId": null,
        "streetTypeId": "BLVD",
        "placeName": "PICKERING",
        "streetNameDisplayText": "KROSNO BLVD, PICKERING"
      }
    ]
  },
  {
    "postal": "L1W4E9",
    "result": []
  },
  {
    "postal": "L1W9P0",
    "result": []
  },
  {
    "postal": "L1W5H3",
    "result": []
  },
  {
    "postal": "L1W9X6",
    "result": []
  },
  {
    "postal": "L1W5N7",
    "result": []
  },
  {
    "postal": "L1W5A6",
    "result": []
  },
  {
    "postal": "L1W4M0",
    "result": []
  },
  {
    "postal": "L1W3V6",
    "result": [
      {
        "electoralDistricts": [
          {
            "election": null,
            "id": 87,
            "name": "Pickering—Uxbridge"
          }
        ],
        "pollDivisionIds": [
          10143396
        ],
        "postalCode": "L1W3V6",
        "streetName": "CLEMENTS",
        "streetDirectionId": null,
        "streetTypeId": "RD",
        "placeName": "PICKERING",
        "streetNameDisplayText": "CLEMENTS RD, PICKERING"
      }
    ]
  },
  {
    "postal": "L1W1L7",
    "result": [
      {
        "electoralDistricts": [
          {
            "election": null,
            "id": 87,
            "name": "Pickering—Uxbridge"
          }
        ],
        "pollDivisionIds": [
          10141173
        ],
        "postalCode": "L1W1L7",
        "streetName": "BAYLY",
        "streetDirectionId": null,
        "streetTypeId": "ST",
        "placeName": "PICKERING",
        "streetNameDisplayText": "BAYLY ST, PICKERING"
      }
    ]
  },
  {
    "postal": "L1W2P9",
    "result": [
      {
        "electoralDistricts": [
          {
            "election": null,
            "id": 87,
            "name": "Pickering—Uxbridge"
          }
        ],
        "pollDivisionIds": [
          10143399
        ],
        "postalCode": "L1W2P9",
        "streetName": "SANOK",
        "streetDirectionId": null,
        "streetTypeId": "DR",
        "placeName": "PICKERING",
        "streetNameDisplayText": "SANOK DR, PICKERING"
      }
    ]
  },
  {
    "postal": "L1W5T4",
    "result": []
  },
  {
    "postal": "L1W5Z1",
    "result": []
  },
  {
    "postal": "L1W2X0",
    "result": []
  },
  {
    "postal": "L1W6Z2",
    "result": []
  },
  {
    "postal": "L1W0E0",
    "result": []
  },
  {
    "postal": "L1W3Z5",
    "result": [
      {
        "electoralDistricts": [
          {
            "election": null,
            "id": 87,
            "name": "Pickering—Uxbridge"
          }
        ],
        "pollDivisionIds": [
          10143396
        ],
        "postalCode": "L1W3Z5",
        "streetName": "SQUIRES BEACH",
        "streetDirectionId": null,
        "streetTypeId": "RD",
        "placeName": "PICKERING",
        "streetNameDisplayText": "SQUIRES BEACH RD, PICKERING"
      }
    ]
  },
  {
    "postal": "L1W8H3",
    "result": []
  },
  {
    "postal": "L1W7S6",
    "result": []
  },
  {
    "postal": "L1W4C1",
    "result": [
      {
        "electoralDistricts": [
          {
            "election": null,
            "id": 87,
            "name": "Pickering—Uxbridge"
          }
        ],
        "pollDivisionIds": [
          10143396
        ],
        "postalCode": "L1W4C1",
        "streetName": "CHURCH",
        "streetDirectionId": null,
        "streetTypeId": "ST",
        "placeName": "PICKERING",
        "streetNameDisplayText": "CHURCH ST, PICKERING"
      }
    ]
  },
  {
    "postal": "L1W3K2",
    "result": [
      {
        "electoralDistricts": [
          {
            "election": null,
            "id": 87,
            "name": "Pickering—Uxbridge"
          }
        ],
        "pollDivisionIds": [
          10143398
        ],
        "postalCode": "L1W3K2",
        "streetName": "COWAN",
        "streetDirectionId": null,
        "streetTypeId": "CIR",
        "placeName": "PICKERING",
        "streetNameDisplayText": "COWAN CIR, PICKERING"
      }
    ]
  },
  {
    "postal": "L1W1Y5",
    "result": [
      {
        "electoralDistricts": [
          {
            "election": null,
            "id": 87,
            "name": "Pickering—Uxbridge"
          }
        ],
        "pollDivisionIds": [
          10143394
        ],
        "postalCode": "L1W1Y5",
        "streetName": "REYTAN",
        "streetDirectionId": null,
        "streetTypeId": "BLVD",
        "placeName": "PICKERING",
        "streetNameDisplayText": "REYTAN BLVD, PICKERING"
      }
    ]
  },
  {
    "postal": "L1W6P6",
    "result": []
  },
  {
    "postal": "L1W3N9",
    "result": [
      {
        "electoralDistricts": [
          {
            "election": null,
            "id": 87,
            "name": "Pickering—Uxbridge"
          }
        ],
        "pollDivisionIds": [
          10143396
        ],
        "postalCode": "L1W3N9",
        "streetName": "TOY",
        "streetDirectionId": null,
        "streetTypeId": "AVE",
        "placeName": "PICKERING",
        "streetNameDisplayText": "TOY AVE, PICKERING"
      }
    ]
  },
  {
    "postal": "L1W3W2",
    "result": [
      {
        "electoralDistricts": [
          {
            "election": null,
            "id": 87,
            "name": "Pickering—Uxbridge"
          }
        ],
        "pollDivisionIds": [
          10143399
        ],
        "postalCode": "L1W3W2",
        "streetName": "CALLAHAN",
        "streetDirectionId": null,
        "streetTypeId": "ST",
        "placeName": "PICKERING",
        "streetNameDisplayText": "CALLAHAN ST, PICKERING"
      },
      {
        "electoralDistricts": [
          {
            "election": null,
            "id": 87,
            "name": "Pickering—Uxbridge"
          }
        ],
        "pollDivisionIds": [
          10143399
        ],
        "postalCode": "L1W3W2",
        "streetName": "ENGEL",
        "streetDirectionId": null,
        "streetTypeId": "CRT",
        "placeName": "PICKERING",
        "streetNameDisplayText": "ENGEL CRT, PICKERING"
      }
    ]
  },
  {
    "postal": "L1W6H8",
    "result": []
  },
  {
    "postal": "L1W9T3",
    "result": []
  },
  {
    "postal": "L1W5L9",
    "result": []
  },
  {
    "postal": "L1W7X7",
    "result": []
  },
  {
    "postal": "L1W3J5",
    "result": []
  },
  {
    "postal": "L1W4J5",
    "result": []
  },
  {
    "postal": "L1W6J2",
    "result": []
  },
  {
    "postal": "L1W5V6",
    "result": []
  },
  {
    "postal": "L1W3N2",
    "result": [
      {
        "electoralDistricts": [
          {
            "election": null,
            "id": 87,
            "name": "Pickering—Uxbridge"
          }
        ],
        "pollDivisionIds": [
          10143394
        ],
        "postalCode": "L1W3N2",
        "streetName": "BAYLY",
        "streetDirectionId": null,
        "streetTypeId": "ST",
        "placeName": "PICKERING",
        "streetNameDisplayText": "BAYLY ST, PICKERING"
      }
    ]
  },
  {
    "postal": "L1W3B1",
    "result": [
      {
        "electoralDistricts": [
          {
            "election": null,
            "id": 87,
            "name": "Pickering—Uxbridge"
          }
        ],
        "pollDivisionIds": [
          10143399
        ],
        "postalCode": "L1W3B1",
        "streetName": "DOWNLAND",
        "streetDirectionId": null,
        "streetTypeId": "DR",
        "placeName": "PICKERING",
        "streetNameDisplayText": "DOWNLAND DR, PICKERING"
      }
    ]
  },
  {
    "postal": "L1W8B5",
    "result": []
  },
  {
    "postal": "L1W0K1",
    "result": []
  },
  {
    "postal": "L1W7M7",
    "result": []
  },
  {
    "postal": "L1W2M2",
    "result": [
      {
        "electoralDistricts": [
          {
            "election": null,
            "id": 87,
            "name": "Pickering—Uxbridge"
          }
        ],
        "pollDivisionIds": [
          10143391
        ],
        "postalCode": "L1W2M2",
        "streetName": "MARINET",
        "streetDirectionId": null,
        "streetTypeId": "CRES",
        "placeName": "PICKERING",
        "streetNameDisplayText": "MARINET CRES, PICKERING"
      }
    ]
  },
  {
    "postal": "L1W9N3",
    "result": []
  },
  {
    "postal": "L1W4Y8",
    "result": []
  },
  {
    "postal": "L1W3V7",
    "result": [
      {
        "electoralDistricts": [
          {
            "election": null,
            "id": 87,
            "name": "Pickering—Uxbridge"
          }
        ],
        "pollDivisionIds": [
          10143396
        ],
        "postalCode": "L1W3V7",
        "streetName": "SILICONE",
        "streetDirectionId": null,
        "streetTypeId": "DR",
        "placeName": "PICKERING",
        "streetNameDisplayText": "SILICONE DR, PICKERING"
      }
    ]
  },
  {
    "postal": "L1W8Z1",
    "result": []
  },
  {
    "postal": "L1W7B3",
    "result": []
  },
  {
    "postal": "L1W3A8",
    "result": [
      {
        "electoralDistricts": [
          {
            "election": null,
            "id": 87,
            "name": "Pickering—Uxbridge"
          }
        ],
        "pollDivisionIds": [
          10143399
        ],
        "postalCode": "L1W3A8",
        "streetName": "EYER",
        "streetDirectionId": null,
        "streetTypeId": "DR",
        "placeName": "PICKERING",
        "streetNameDisplayText": "EYER DR, PICKERING"
      }
    ]
  },
  {
    "postal": "L1W7V5",
    "result": []
  },
  {
    "postal": "L1W2T2",
    "result": [
      {
        "electoralDistricts": [
          {
            "election": null,
            "id": 87,
            "name": "Pickering—Uxbridge"
          }
        ],
        "pollDivisionIds": [
          10143399
        ],
        "postalCode": "L1W2T2",
        "streetName": "MARKSBURY",
        "streetDirectionId": null,
        "streetTypeId": "RD",
        "placeName": "PICKERING",
        "streetNameDisplayText": "MARKSBURY RD, PICKERING"
      }
    ]
  },
  {
    "postal": "L1W6L3",
    "result": []
  },
  {
    "postal": "L1W0L2",
    "result": []
  },
  {
    "postal": "L1W5Y8",
    "result": []
  },
  {
    "postal": "L1W0B8",
    "result": []
  },
  {
    "postal": "L1W6R5",
    "result": []
  },
  {
    "postal": "L1W8W6",
    "result": []
  },
  {
    "postal": "L1W8G6",
    "result": []
  },
  {
    "postal": "L1W6X3",
    "result": []
  },
  {
    "postal": "L1W7R7",
    "result": []
  },
  {
    "postal": "L1W4B6",
    "result": []
  },
  {
    "postal": "L1W3P9",
    "result": []
  },
  {
    "postal": "L1W2T3",
    "result": [
      {
        "electoralDistricts": [
          {
            "election": null,
            "id": 87,
            "name": "Pickering—Uxbridge"
          }
        ],
        "pollDivisionIds": [
          10143391
        ],
        "postalCode": "L1W2T3",
        "streetName": "MARKSBURY",
        "streetDirectionId": null,
        "streetTypeId": "RD",
        "placeName": "PICKERING",
        "streetNameDisplayText": "MARKSBURY RD, PICKERING"
      }
    ]
  },
  {
    "postal": "L1W1M4",
    "result": [
      {
        "electoralDistricts": [
          {
            "election": null,
            "id": 87,
            "name": "Pickering—Uxbridge"
          }
        ],
        "pollDivisionIds": [
          10143393
        ],
        "postalCode": "L1W1M4",
        "streetName": "SIMPSON",
        "streetDirectionId": null,
        "streetTypeId": "AVE",
        "placeName": "PICKERING",
        "streetNameDisplayText": "SIMPSON AVE, PICKERING"
      }
    ]
  },
  {
    "postal": "L1W0H1",
    "result": []
  },
  {
    "postal": "L1W9W3",
    "result": []
  },
  {
    "postal": "L1W6P1",
    "result": []
  },
  {
    "postal": "L1W7G2",
    "result": []
  },
  {
    "postal": "L1W4J9",
    "result": []
  },
  {
    "postal": "L1W9E4",
    "result": []
  },
  {
    "postal": "L1W8H0",
    "result": []
  },
  {
    "postal": "L1W4M7",
    "result": []
  },
  {
    "postal": "L1W2G9",
    "result": [
      {
        "electoralDistricts": [
          {
            "election": null,
            "id": 87,
            "name": "Pickering—Uxbridge"
          }
        ],
        "pollDivisionIds": [
          10143398
        ],
        "postalCode": "L1W2G9",
        "streetName": "TOYNEVALE",
        "streetDirectionId": null,
        "streetTypeId": "RD",
        "placeName": "PICKERING",
        "streetNameDisplayText": "TOYNEVALE RD, PICKERING"
      }
    ]
  },
  {
    "postal": "L1W8T2",
    "result": []
  },
  {
    "postal": "L1W7G7",
    "result": []
  },
  {
    "postal": "L1W4Z3",
    "result": []
  },
  {
    "postal": "L1W5B3",
    "result": []
  },
  {
    "postal": "L1W1S7",
    "result": [
      {
        "electoralDistricts": [
          {
            "election": null,
            "id": 87,
            "name": "Pickering—Uxbridge"
          }
        ],
        "pollDivisionIds": [
          10143394
        ],
        "postalCode": "L1W1S7",
        "streetName": "LIVERPOOL",
        "streetDirectionId": null,
        "streetTypeId": "RD",
        "placeName": "PICKERING",
        "streetNameDisplayText": "LIVERPOOL RD, PICKERING"
      }
    ]
  },
  {
    "postal": "L1W2N7",
    "result": []
  },
  {
    "postal": "L1W0H8",
    "result": []
  },
  {
    "postal": "L1W7Z4",
    "result": []
  },
  {
    "postal": "L1W7B1",
    "result": []
  },
  {
    "postal": "L1W7P8",
    "result": []
  },
  {
    "postal": "L1W7N0",
    "result": []
  },
  {
    "postal": "L1W3Y5",
    "result": []
  },
  {
    "postal": "L1W6K1",
    "result": []
  },
  {
    "postal": "L1W9X5",
    "result": []
  },
  {
    "postal": "L1W7S5",
    "result": []
  },
  {
    "postal": "L1W0A4",
    "result": []
  },
  {
    "postal": "L1W4T5",
    "result": []
  },
  {
    "postal": "L1W5K1",
    "result": []
  },
  {
    "postal": "L1W0Z9",
    "result": []
  },
  {
    "postal": "L1W7T2",
    "result": []
  },
  {
    "postal": "L1W1L5",
    "result": []
  },
  {
    "postal": "L1W3N5",
    "result": []
  },
  {
    "postal": "L1W6H4",
    "result": []
  },
  {
    "postal": "L1W5A5",
    "result": []
  },
  {
    "postal": "L1W3R9",
    "result": [
      {
        "electoralDistricts": [
          {
            "election": null,
            "id": 87,
            "name": "Pickering—Uxbridge"
          }
        ],
        "pollDivisionIds": [
          10143398
        ],
        "postalCode": "L1W3R9",
        "streetName": "SANDSTONE",
        "streetDirectionId": null,
        "streetTypeId": "MANOR",
        "placeName": "PICKERING",
        "streetNameDisplayText": "SANDSTONE MANOR, PICKERING"
      }
    ]
  },
  {
    "postal": "L1W7L8",
    "result": []
  },
  {
    "postal": "L1W6T6",
    "result": []
  },
  {
    "postal": "L1W7Y7",
    "result": []
  },
  {
    "postal": "L1W3M8",
    "result": [
      {
        "electoralDistricts": [
          {
            "election": null,
            "id": 87,
            "name": "Pickering—Uxbridge"
          }
        ],
        "pollDivisionIds": [
          10143396
        ],
        "postalCode": "L1W3M8",
        "streetName": "ALLIANCE",
        "streetDirectionId": null,
        "streetTypeId": "RD",
        "placeName": "PICKERING",
        "streetNameDisplayText": "ALLIANCE RD, PICKERING"
      }
    ]
  },
  {
    "postal": "L1W2E0",
    "result": []
  },
  {
    "postal": "L1W4B5",
    "result": [
      {
        "electoralDistricts": [
          {
            "election": null,
            "id": 87,
            "name": "Pickering—Uxbridge"
          }
        ],
        "pollDivisionIds": [
          10143394
        ],
        "postalCode": "L1W4B5",
        "streetName": "SALK",
        "streetDirectionId": null,
        "streetTypeId": "RD",
        "placeName": "PICKERING",
        "streetNameDisplayText": "SALK RD, PICKERING"
      }
    ]
  },
  {
    "postal": "L1W1J3",
    "result": [
      {
        "electoralDistricts": [
          {
            "election": null,
            "id": 87,
            "name": "Pickering—Uxbridge"
          }
        ],
        "pollDivisionIds": [
          10143393
        ],
        "postalCode": "L1W1J3",
        "streetName": "RADOM",
        "streetDirectionId": null,
        "streetTypeId": "ST",
        "placeName": "PICKERING",
        "streetNameDisplayText": "RADOM ST, PICKERING"
      }
    ]
  },
  {
    "postal": "L1W5S6",
    "result": []
  },
  {
    "postal": "L1W8P7",
    "result": []
  },
  {
    "postal": "L1W7S7",
    "result": []
  },
  {
    "postal": "L1W4C2",
    "result": [
      {
        "electoralDistricts": [
          {
            "election": null,
            "id": 87,
            "name": "Pickering—Uxbridge"
          }
        ],
        "pollDivisionIds": [
          10143396
        ],
        "postalCode": "L1W4C2",
        "streetName": "CLEMENTS",
        "streetDirectionId": null,
        "streetTypeId": "RD",
        "placeName": "PICKERING",
        "streetNameDisplayText": "CLEMENTS RD, PICKERING"
      }
    ]
  },
  {
    "postal": "L1W5Y0",
    "result": []
  },
  {
    "postal": "L1W2V7",
    "result": [
      {
        "electoralDistricts": [
          {
            "election": null,
            "id": 87,
            "name": "Pickering—Uxbridge"
          }
        ],
        "pollDivisionIds": [
          10143391
        ],
        "postalCode": "L1W2V7",
        "streetName": "WEST SHORE",
        "streetDirectionId": null,
        "streetTypeId": "BLVD",
        "placeName": "PICKERING",
        "streetNameDisplayText": "WEST SHORE BLVD, PICKERING"
      }
    ]
  },
  {
    "postal": "L1W8P5",
    "result": []
  },
  {
    "postal": "L1W5P5",
    "result": []
  },
  {
    "postal": "L1W5Z0",
    "result": []
  },
  {
    "postal": "L1W9B0",
    "result": []
  },
  {
    "postal": "L1W1L0",
    "result": []
  },
  {
    "postal": "L1W0B5",
    "result": []
  },
  {
    "postal": "L1W3L2",
    "result": [
      {
        "electoralDistricts": [
          {
            "election": null,
            "id": 87,
            "name": "Pickering—Uxbridge"
          }
        ],
        "pollDivisionIds": [
          10143398
        ],
        "postalCode": "L1W3L2",
        "streetName": "COWAN",
        "streetDirectionId": null,
        "streetTypeId": "CIR",
        "placeName": "PICKERING",
        "streetNameDisplayText": "COWAN CIR, PICKERING"
      }
    ]
  },
  {
    "postal": "L1W3B7",
    "result": [
      {
        "electoralDistricts": [
          {
            "election": null,
            "id": 87,
            "name": "Pickering—Uxbridge"
          }
        ],
        "pollDivisionIds": [
          10143399
        ],
        "postalCode": "L1W3B7",
        "streetName": "EYER",
        "streetDirectionId": null,
        "streetTypeId": "DR",
        "placeName": "PICKERING",
        "streetNameDisplayText": "EYER DR, PICKERING"
      }
    ]
  },
  {
    "postal": "L1W8L1",
    "result": []
  },
  {
    "postal": "L1W5M4",
    "result": []
  },
  {
    "postal": "L1W4G9",
    "result": []
  },
  {
    "postal": "L1W0P0",
    "result": []
  },
  {
    "postal": "L1W8G2",
    "result": []
  },
  {
    "postal": "L1W1V9",
    "result": [
      {
        "electoralDistricts": [
          {
            "election": null,
            "id": 87,
            "name": "Pickering—Uxbridge"
          }
        ],
        "pollDivisionIds": [
          10143394
        ],
        "postalCode": "L1W1V9",
        "streetName": "MODLIN",
        "streetDirectionId": null,
        "streetTypeId": "RD",
        "placeName": "PICKERING",
        "streetNameDisplayText": "MODLIN RD, PICKERING"
      }
    ]
  },
  {
    "postal": "L1W8N8",
    "result": []
  },
  {
    "postal": "L1W6S8",
    "result": []
  },
  {
    "postal": "L1W8H2",
    "result": []
  },
  {
    "postal": "L1W5R8",
    "result": []
  },
  {
    "postal": "L1W5L4",
    "result": []
  },
  {
    "postal": "L1W9E1",
    "result": []
  },
  {
    "postal": "L1W1C4",
    "result": [
      {
        "electoralDistricts": [
          {
            "election": null,
            "id": 87,
            "name": "Pickering—Uxbridge"
          }
        ],
        "pollDivisionIds": [
          10143395
        ],
        "postalCode": "L1W1C4",
        "streetName": "COLMAR",
        "streetDirectionId": null,
        "streetTypeId": "AVE",
        "placeName": "PICKERING",
        "streetNameDisplayText": "COLMAR AVE, PICKERING"
      }
    ]
  },
  {
    "postal": "L1W8W5",
    "result": []
  },
  {
    "postal": "L1W1Y4",
    "result": [
      {
        "electoralDistricts": [
          {
            "election": null,
            "id": 87,
            "name": "Pickering—Uxbridge"
          }
        ],
        "pollDivisionIds": [
          10143396
        ],
        "postalCode": "L1W1Y4",
        "streetName": "CORTEZ",
        "streetDirectionId": null,
        "streetTypeId": "AVE",
        "placeName": "PICKERING",
        "streetNameDisplayText": "CORTEZ AVE, PICKERING"
      }
    ]
  },
  {
    "postal": "L1W1C0",
    "result": []
  },
  {
    "postal": "L1W2J2",
    "result": [
      {
        "electoralDistricts": [
          {
            "election": null,
            "id": 87,
            "name": "Pickering—Uxbridge"
          }
        ],
        "pollDivisionIds": [
          10143391
        ],
        "postalCode": "L1W2J2",
        "streetName": "ESSA",
        "streetDirectionId": null,
        "streetTypeId": "CRES",
        "placeName": "PICKERING",
        "streetNameDisplayText": "ESSA CRES, PICKERING"
      }
    ]
  },
  {
    "postal": "L1W2J0",
    "result": []
  },
  {
    "postal": "L1W7A3",
    "result": []
  },
  {
    "postal": "L1W8M1",
    "result": []
  },
  {
    "postal": "L1W7T9",
    "result": []
  },
  {
    "postal": "L1W6C0",
    "result": []
  },
  {
    "postal": "L1W7X1",
    "result": []
  },
  {
    "postal": "L1W0G1",
    "result": []
  },
  {
    "postal": "L1W4X2",
    "result": []
  },
  {
    "postal": "L1W0N6",
    "result": []
  },
  {
    "postal": "L1W8E3",
    "result": []
  },
  {
    "postal": "L1W5S8",
    "result": []
  },
  {
    "postal": "L1W0R0",
    "result": []
  },
  {
    "postal": "L1W6J6",
    "result": []
  },
  {
    "postal": "L1W4B4",
    "result": [
      {
        "electoralDistricts": [
          {
            "election": null,
            "id": 87,
            "name": "Pickering—Uxbridge"
          }
        ],
        "pollDivisionIds": [
          10143393
        ],
        "postalCode": "L1W4B4",
        "streetName": "BEGLEY",
        "streetDirectionId": null,
        "streetTypeId": "ST",
        "placeName": "PICKERING",
        "streetNameDisplayText": "BEGLEY ST, PICKERING"
      }
    ]
  },
  {
    "postal": "L1W7E3",
    "result": []
  },
  {
    "postal": "L1W3N6",
    "result": [
      {
        "electoralDistricts": [
          {
            "election": null,
            "id": 87,
            "name": "Pickering—Uxbridge"
          }
        ],
        "pollDivisionIds": [
          10143396
        ],
        "postalCode": "L1W3N6",
        "streetName": "SANDY BEACH",
        "streetDirectionId": null,
        "streetTypeId": "RD",
        "placeName": "PICKERING",
        "streetNameDisplayText": "SANDY BEACH RD, PICKERING"
      }
    ]
  },
  {
    "postal": "L1W3X6",
    "result": [
      {
        "electoralDistricts": [
          {
            "election": null,
            "id": 87,
            "name": "Pickering—Uxbridge"
          }
        ],
        "pollDivisionIds": [
          10143398
        ],
        "postalCode": "L1W3X6",
        "streetName": "GRANITE",
        "streetDirectionId": null,
        "streetTypeId": "CRT",
        "placeName": "PICKERING",
        "streetNameDisplayText": "GRANITE CRT, PICKERING"
      }
    ]
  },
  {
    "postal": "L1W8L0",
    "result": []
  },
  {
    "postal": "L1W8N1",
    "result": []
  },
  {
    "postal": "L1W4J0",
    "result": []
  },
  {
    "postal": "L1W0X7",
    "result": []
  },
  {
    "postal": "L1W6S4",
    "result": []
  },
  {
    "postal": "L1W0Z0",
    "result": []
  },
  {
    "postal": "L1W9X8",
    "result": []
  },
  {
    "postal": "L1W3H3",
    "result": [
      {
        "electoralDistricts": [
          {
            "election": null,
            "id": 87,
            "name": "Pickering—Uxbridge"
          }
        ],
        "pollDivisionIds": [
          10143394
        ],
        "postalCode": "L1W3H3",
        "streetName": "BROCK",
        "streetDirectionId": null,
        "streetTypeId": "RD",
        "placeName": "PICKERING",
        "streetNameDisplayText": "BROCK RD, PICKERING"
      }
    ]
  },
  {
    "postal": "L1W7S2",
    "result": []
  },
  {
    "postal": "L1W3T3",
    "result": [
      {
        "electoralDistricts": [
          {
            "election": null,
            "id": 87,
            "name": "Pickering—Uxbridge"
          }
        ],
        "pollDivisionIds": [
          10143398
        ],
        "postalCode": "L1W3T3",
        "streetName": "DUNN",
        "streetDirectionId": null,
        "streetTypeId": "CRES",
        "placeName": "PICKERING",
        "streetNameDisplayText": "DUNN CRES, PICKERING"
      }
    ]
  },
  {
    "postal": "L1W9P3",
    "result": []
  },
  {
    "postal": "L1W4H8",
    "result": []
  },
  {
    "postal": "L1W6R1",
    "result": []
  },
  {
    "postal": "L1W1S0",
    "result": []
  },
  {
    "postal": "L1W3W8",
    "result": [
      {
        "electoralDistricts": [
          {
            "election": null,
            "id": 87,
            "name": "Pickering—Uxbridge"
          }
        ],
        "pollDivisionIds": [
          10143398
        ],
        "postalCode": "L1W3W8",
        "streetName": "GRANITE",
        "streetDirectionId": null,
        "streetTypeId": "CRT",
        "placeName": "PICKERING",
        "streetNameDisplayText": "GRANITE CRT, PICKERING"
      }
    ]
  },
  {
    "postal": "L1W4S3",
    "result": []
  },
  {
    "postal": "L1W1B6",
    "result": [
      {
        "electoralDistricts": [
          {
            "election": null,
            "id": 87,
            "name": "Pickering—Uxbridge"
          }
        ],
        "pollDivisionIds": [
          10143393
        ],
        "postalCode": "L1W1B6",
        "streetName": "ANNLAND",
        "streetDirectionId": null,
        "streetTypeId": "ST",
        "placeName": "PICKERING",
        "streetNameDisplayText": "ANNLAND ST, PICKERING"
      }
    ]
  },
  {
    "postal": "L1W8R3",
    "result": []
  },
  {
    "postal": "L1W4V9",
    "result": []
  },
  {
    "postal": "L1W9W4",
    "result": []
  },
  {
    "postal": "L1W3T4",
    "result": [
      {
        "electoralDistricts": [
          {
            "election": null,
            "id": 87,
            "name": "Pickering—Uxbridge"
          }
        ],
        "pollDivisionIds": [
          10143398
        ],
        "postalCode": "L1W3T4",
        "streetName": "DUNN",
        "streetDirectionId": null,
        "streetTypeId": "CRES",
        "placeName": "PICKERING",
        "streetNameDisplayText": "DUNN CRES, PICKERING"
      },
      {
        "electoralDistricts": [
          {
            "election": null,
            "id": 87,
            "name": "Pickering—Uxbridge"
          }
        ],
        "pollDivisionIds": [
          10143398
        ],
        "postalCode": "L1W3T4",
        "streetName": "KIMTON",
        "streetDirectionId": null,
        "streetTypeId": "CRT",
        "placeName": "PICKERING",
        "streetNameDisplayText": "KIMTON CRT, PICKERING"
      }
    ]
  },
  {
    "postal": "L1W5C7",
    "result": []
  },
  {
    "postal": "L1W3Y1",
    "result": [
      {
        "electoralDistricts": [
          {
            "election": null,
            "id": 87,
            "name": "Pickering—Uxbridge"
          }
        ],
        "pollDivisionIds": [
          10143398
        ],
        "postalCode": "L1W3Y1",
        "streetName": "SANDSTONE",
        "streetDirectionId": null,
        "streetTypeId": "MANOR",
        "placeName": "PICKERING",
        "streetNameDisplayText": "SANDSTONE MANOR, PICKERING"
      }
    ]
  },
  {
    "postal": "L1W5V0",
    "result": []
  },
  {
    "postal": "L1W8G8",
    "result": []
  },
  {
    "postal": "L1W8B1",
    "result": []
  },
  {
    "postal": "L1W4P5",
    "result": []
  },
  {
    "postal": "L1W7B2",
    "result": []
  },
  {
    "postal": "L1W0R2",
    "result": []
  },
  {
    "postal": "L1W4M4",
    "result": []
  },
  {
    "postal": "L1W7M4",
    "result": []
  },
  {
    "postal": "L1W9S7",
    "result": []
  },
  {
    "postal": "L1W5Z7",
    "result": []
  },
  {
    "postal": "L1W7J7",
    "result": []
  },
  {
    "postal": "L1W8R8",
    "result": []
  },
  {
    "postal": "L1W9X1",
    "result": []
  },
  {
    "postal": "L1W5M9",
    "result": []
  },
  {
    "postal": "L1W9B4",
    "result": []
  },
  {
    "postal": "L1W0L9",
    "result": []
  },
  {
    "postal": "L1W9G4",
    "result": []
  },
  {
    "postal": "L1W1J4",
    "result": [
      {
        "electoralDistricts": [
          {
            "election": null,
            "id": 87,
            "name": "Pickering—Uxbridge"
          }
        ],
        "pollDivisionIds": [
          10143393
        ],
        "postalCode": "L1W1J4",
        "streetName": "RADOM",
        "streetDirectionId": null,
        "streetTypeId": "ST",
        "placeName": "PICKERING",
        "streetNameDisplayText": "RADOM ST, PICKERING"
      }
    ]
  },
  {
    "postal": "L1W0W6",
    "result": []
  }
]
