[
  {
    "postal": "N2N9J6",
    "result": []
  },
  {
    "postal": "N2N9Z5",
    "result": []
  },
  {
    "postal": "N2N7H8",
    "result": []
  },
  {
    "postal": "N2N0P6",
    "result": []
  },
  {
    "postal": "N2N0S7",
    "result": []
  },
  {
    "postal": "N2N8B9",
    "result": []
  },
  {
    "postal": "N2N2A6",
    "result": [
      {
        "electoralDistricts": [
          {
            "election": null,
            "id": 48,
            "name": "Kitchener—Conestoga"
          }
        ],
        "pollDivisionIds": [
          10139266
        ],
        "postalCode": "N2N2A6",
        "streetName": "CEDAR CREST",
        "streetDirectionId": null,
        "streetTypeId": "ST",
        "placeName": "KITCHENER",
        "streetNameDisplayText": "CEDAR CREST ST, KITCHENER"
      }
    ]
  },
  {
    "postal": "N2N7V2",
    "result": []
  },
  {
    "postal": "N2N9P4",
    "result": []
  },
  {
    "postal": "N2N6G0",
    "result": []
  },
  {
    "postal": "N2N2K0",
    "result": []
  },
  {
    "postal": "N2N7N6",
    "result": []
  },
  {
    "postal": "N2N5R3",
    "result": []
  },
  {
    "postal": "N2N7K0",
    "result": []
  },
  {
    "postal": "N2N3R2",
    "result": [
      {
        "electoralDistricts": [
          {
            "election": null,
            "id": 48,
            "name": "Kitchener—Conestoga"
          }
        ],
        "pollDivisionIds": [
          10139262
        ],
        "postalCode": "N2N3R2",
        "streetName": "WESTMEADOW",
        "streetDirectionId": null,
        "streetTypeId": "DR",
        "placeName": "KITCHENER",
        "streetNameDisplayText": "WESTMEADOW DR, KITCHENER"
      }
    ]
  },
  {
    "postal": "N2N0J1",
    "result": []
  },
  {
    "postal": "N2N0B0",
    "result": []
  },
  {
    "postal": "N2N5Z2",
    "result": []
  },
  {
    "postal": "N2N7P3",
    "result": []
  },
  {
    "postal": "N2N2K3",
    "result": [
      {
        "electoralDistricts": [
          {
            "election": null,
            "id": 48,
            "name": "Kitchener—Conestoga"
          }
        ],
        "pollDivisionIds": [
          10139267
        ],
        "postalCode": "N2N2K3",
        "streetName": "HIGHVIEW",
        "streetDirectionId": null,
        "streetTypeId": "DR",
        "placeName": "KITCHENER",
        "streetNameDisplayText": "HIGHVIEW DR, KITCHENER"
      },
      {
        "electoralDistricts": [
          {
            "election": null,
            "id": 48,
            "name": "Kitchener—Conestoga"
          }
        ],
        "pollDivisionIds": [
          10139267
        ],
        "postalCode": "N2N2K3",
        "streetName": "OLD MAPLE",
        "streetDirectionId": null,
        "streetTypeId": "LANE",
        "placeName": "KITCHENER",
        "streetNameDisplayText": "OLD MAPLE LANE, KITCHENER"
      }
    ]
  },
  {
    "postal": "N2N7Y6",
    "result": []
  },
  {
    "postal": "N2N1L9",
    "result": [
      {
        "electoralDistricts": [
          {
            "election": null,
            "id": 48,
            "name": "Kitchener—Conestoga"
          }
        ],
        "pollDivisionIds": [
          10139264
        ],
        "postalCode": "N2N1L9",
        "streetName": "CHERRYTREE",
        "streetDirectionId": null,
        "streetTypeId": "CRT",
        "placeName": "KITCHENER",
        "streetNameDisplayText": "CHERRYTREE CRT, KITCHENER"
      }
    ]
  },
  {
    "postal": "N2N8T0",
    "result": []
  },
  {
    "postal": "N2N3K8",
    "result": [
      {
        "electoralDistricts": [
          {
            "election": null,
            "id": 48,
            "name": "Kitchener—Conestoga"
          }
        ],
        "pollDivisionIds": [
          10139262
        ],
        "postalCode": "N2N3K8",
        "streetName": "MICHELLE",
        "streetDirectionId": null,
        "streetTypeId": "CRT",
        "placeName": "KITCHENER",
        "streetNameDisplayText": "MICHELLE CRT, KITCHENER"
      },
      {
        "electoralDistricts": [
          {
            "election": null,
            "id": 48,
            "name": "Kitchener—Conestoga"
          }
        ],
        "pollDivisionIds": [
          10139262
        ],
        "postalCode": "N2N3K8",
        "streetName": "WESTMEADOW",
        "streetDirectionId": null,
        "streetTypeId": "DR",
        "placeName": "KITCHENER",
        "streetNameDisplayText": "WESTMEADOW DR, KITCHENER"
      }
    ]
  },
  {
    "postal": "N2N5W9",
    "result": []
  },
  {
    "postal": "N2N6T9",
    "result": []
  },
  {
    "postal": "N2N4H1",
    "result": []
  },
  {
    "postal": "N2N7A2",
    "result": []
  },
  {
    "postal": "N2N5G0",
    "result": []
  },
  {
    "postal": "N2N8V5",
    "result": []
  },
  {
    "postal": "N2N2Y8",
    "result": [
      {
        "electoralDistricts": [
          {
            "election": null,
            "id": 48,
            "name": "Kitchener—Conestoga"
          }
        ],
        "pollDivisionIds": [
          10139260
        ],
        "postalCode": "N2N2Y8",
        "streetName": "NORTHFOREST",
        "streetDirectionId": null,
        "streetTypeId": "TRAIL",
        "placeName": "KITCHENER",
        "streetNameDisplayText": "NORTHFOREST TRAIL, KITCHENER"
      },
      {
        "electoralDistricts": [
          {
            "election": null,
            "id": 48,
            "name": "Kitchener—Conestoga"
          }
        ],
        "pollDivisionIds": [
          10139260
        ],
        "postalCode": "N2N2Y8",
        "streetName": "PARSONS",
        "streetDirectionId": null,
        "streetTypeId": "CRT",
        "placeName": "KITCHENER",
        "streetNameDisplayText": "PARSONS CRT, KITCHENER"
      }
    ]
  },
  {
    "postal": "N2N2B6",
    "result": [
      {
        "electoralDistricts": [
          {
            "election": null,
            "id": 48,
            "name": "Kitchener—Conestoga"
          }
        ],
        "pollDivisionIds": [
          10139266
        ],
        "postalCode": "N2N2B6",
        "streetName": "WESTHEIGHTS",
        "streetDirectionId": null,
        "streetTypeId": "DR",
        "placeName": "KITCHENER",
        "streetNameDisplayText": "WESTHEIGHTS DR, KITCHENER"
      }
    ]
  },
  {
    "postal": "N2N4W8",
    "result": []
  },
  {
    "postal": "N2N8H7",
    "result": []
  },
  {
    "postal": "N2N5P1",
    "result": []
  },
  {
    "postal": "N2N2B8",
    "result": [
      {
        "electoralDistricts": [
          {
            "election": null,
            "id": 48,
            "name": "Kitchener—Conestoga"
          }
        ],
        "pollDivisionIds": [
          10139261
        ],
        "postalCode": "N2N2B8",
        "streetName": "STOKE",
        "streetDirectionId": null,
        "streetTypeId": "DR",
        "placeName": "KITCHENER",
        "streetNameDisplayText": "STOKE DR, KITCHENER"
      }
    ]
  },
  {
    "postal": "N2N0P2",
    "result": []
  },
  {
    "postal": "N2N9M1",
    "result": []
  },
  {
    "postal": "N2N3G0",
    "result": []
  },
  {
    "postal": "N2N9Z2",
    "result": []
  },
  {
    "postal": "N2N2A0",
    "result": []
  },
  {
    "postal": "N2N6Y0",
    "result": []
  },
  {
    "postal": "N2N2Z8",
    "result": [
      {
        "electoralDistricts": [
          {
            "election": null,
            "id": 48,
            "name": "Kitchener—Conestoga"
          }
        ],
        "pollDivisionIds": [
          10139280
        ],
        "postalCode": "N2N2Z8",
        "streetName": "LANARK",
        "streetDirectionId": null,
        "streetTypeId": "CRES",
        "placeName": "KITCHENER",
        "streetNameDisplayText": "LANARK CRES, KITCHENER"
      },
      {
        "electoralDistricts": [
          {
            "election": null,
            "id": 48,
            "name": "Kitchener—Conestoga"
          }
        ],
        "pollDivisionIds": [
          10139264
        ],
        "postalCode": "N2N2Z8",
        "streetName": "SPRUCEDALE",
        "streetDirectionId": null,
        "streetTypeId": "CRES",
        "placeName": "KITCHENER",
        "streetNameDisplayText": "SPRUCEDALE CRES, KITCHENER"
      }
    ]
  },
  {
    "postal": "N2N7Y3",
    "result": []
  },
  {
    "postal": "N2N6Z5",
    "result": []
  },
  {
    "postal": "N2N6E0",
    "result": []
  },
  {
    "postal": "N2N9B7",
    "result": []
  },
  {
    "postal": "N2N9S5",
    "result": []
  },
  {
    "postal": "N2N3X3",
    "result": []
  },
  {
    "postal": "N2N7R5",
    "result": []
  },
  {
    "postal": "N2N2X3",
    "result": [
      {
        "electoralDistricts": [
          {
            "election": null,
            "id": 48,
            "name": "Kitchener—Conestoga"
          }
        ],
        "pollDivisionIds": [
          10139264
        ],
        "postalCode": "N2N2X3",
        "streetName": "COVINGTON",
        "streetDirectionId": null,
        "streetTypeId": "CRES",
        "placeName": "KITCHENER",
        "streetNameDisplayText": "COVINGTON CRES, KITCHENER"
      }
    ]
  },
  {
    "postal": "N2N8Z9",
    "result": []
  },
  {
    "postal": "N2N0N4",
    "result": []
  },
  {
    "postal": "N2N1K1",
    "result": [
      {
        "electoralDistricts": [
          {
            "election": null,
            "id": 48,
            "name": "Kitchener—Conestoga"
          }
        ],
        "pollDivisionIds": [
          10139266
        ],
        "postalCode": "N2N1K1",
        "streetName": "WESTHEIGHTS",
        "streetDirectionId": null,
        "streetTypeId": "DR",
        "placeName": "KITCHENER",
        "streetNameDisplayText": "WESTHEIGHTS DR, KITCHENER"
      }
    ]
  },
  {
    "postal": "N2N1S3",
    "result": [
      {
        "electoralDistricts": [
          {
            "election": null,
            "id": 48,
            "name": "Kitchener—Conestoga"
          }
        ],
        "pollDivisionIds": [
          10139266
        ],
        "postalCode": "N2N1S3",
        "streetName": "SOMERFIELD",
        "streetDirectionId": null,
        "streetTypeId": "PL",
        "placeName": "KITCHENER",
        "streetNameDisplayText": "SOMERFIELD PL, KITCHENER"
      }
    ]
  },
  {
    "postal": "N2N6M4",
    "result": []
  },
  {
    "postal": "N2N9A9",
    "result": []
  },
  {
    "postal": "N2N9Z9",
    "result": []
  },
  {
    "postal": "N2N6T4",
    "result": []
  },
  {
    "postal": "N2N0B2",
    "result": []
  },
  {
    "postal": "N2N2L9",
    "result": [
      {
        "electoralDistricts": [
          {
            "election": null,
            "id": 48,
            "name": "Kitchener—Conestoga"
          }
        ],
        "pollDivisionIds": [
          10139267
        ],
        "postalCode": "N2N2L9",
        "streetName": "GOLDEN MEADOW",
        "streetDirectionId": null,
        "streetTypeId": "CRES",
        "placeName": "KITCHENER",
        "streetNameDisplayText": "GOLDEN MEADOW CRES, KITCHENER"
      },
      {
        "electoralDistricts": [
          {
            "election": null,
            "id": 48,
            "name": "Kitchener—Conestoga"
          }
        ],
        "pollDivisionIds": [
          10139267
        ],
        "postalCode": "N2N2L9",
        "streetName": "GOLDEN MEADOW",
        "streetDirectionId": null,
        "streetTypeId": "DR",
        "placeName": "KITCHENER",
        "streetNameDisplayText": "GOLDEN MEADOW DR, KITCHENER"
      }
    ]
  },
  {
    "postal": "N2N8K9",
    "result": []
  },
  {
    "postal": "N2N2H9",
    "result": [
      {
        "electoralDistricts": [
          {
            "election": null,
            "id": 48,
            "name": "Kitchener—Conestoga"
          }
        ],
        "pollDivisionIds": [
          10139261
        ],
        "postalCode": "N2N2H9",
        "streetName": "MEDFORD",
        "streetDirectionId": null,
        "streetTypeId": "ST",
        "placeName": "KITCHENER",
        "streetNameDisplayText": "MEDFORD ST, KITCHENER"
      }
    ]
  },
  {
    "postal": "N2N3Z6",
    "result": []
  },
  {
    "postal": "N2N3B0",
    "result": []
  },
  {
    "postal": "N2N2H8",
    "result": [
      {
        "electoralDistricts": [
          {
            "election": null,
            "id": 48,
            "name": "Kitchener—Conestoga"
          }
        ],
        "pollDivisionIds": [
          10139261
        ],
        "postalCode": "N2N2H8",
        "streetName": "LENNOX",
        "streetDirectionId": null,
        "streetTypeId": "CRES",
        "placeName": "KITCHENER",
        "streetNameDisplayText": "LENNOX CRES, KITCHENER"
      }
    ]
  },
  {
    "postal": "N2N3X2",
    "result": []
  },
  {
    "postal": "N2N2E9",
    "result": []
  },
  {
    "postal": "N2N9P6",
    "result": []
  },
  {
    "postal": "N2N9E2",
    "result": []
  },
  {
    "postal": "N2N9H2",
    "result": []
  },
  {
    "postal": "N2N1S8",
    "result": [
      {
        "electoralDistricts": [
          {
            "election": null,
            "id": 48,
            "name": "Kitchener—Conestoga"
          }
        ],
        "pollDivisionIds": [
          10139263
        ],
        "postalCode": "N2N1S8",
        "streetName": "BLACKWELL",
        "streetDirectionId": null,
        "streetTypeId": "DR",
        "placeName": "KITCHENER",
        "streetNameDisplayText": "BLACKWELL DR, KITCHENER"
      }
    ]
  },
  {
    "postal": "N2N3M6",
    "result": [
      {
        "electoralDistricts": [
          {
            "election": null,
            "id": 48,
            "name": "Kitchener—Conestoga"
          }
        ],
        "pollDivisionIds": [
          10139261
        ],
        "postalCode": "N2N3M6",
        "streetName": "BANKSIDE",
        "streetDirectionId": null,
        "streetTypeId": "DR",
        "placeName": "KITCHENER",
        "streetNameDisplayText": "BANKSIDE DR, KITCHENER"
      }
    ]
  },
  {
    "postal": "N2N6Z8",
    "result": []
  },
  {
    "postal": "N2N4J2",
    "result": []
  },
  {
    "postal": "N2N9Y1",
    "result": []
  },
  {
    "postal": "N2N8V6",
    "result": []
  },
  {
    "postal": "N2N6B2",
    "result": []
  },
  {
    "postal": "N2N1P8",
    "result": [
      {
        "electoralDistricts": [
          {
            "election": null,
            "id": 48,
            "name": "Kitchener—Conestoga"
          }
        ],
        "pollDivisionIds": [
          10139263
        ],
        "postalCode": "N2N1P8",
        "streetName": "BLACKWELL",
        "streetDirectionId": null,
        "streetTypeId": "DR",
        "placeName": "KITCHENER",
        "streetNameDisplayText": "BLACKWELL DR, KITCHENER"
      }
    ]
  },
  {
    "postal": "N2N0V8",
    "result": []
  },
  {
    "postal": "N2N4Y0",
    "result": []
  },
  {
    "postal": "N2N2T4",
    "result": [
      {
        "electoralDistricts": [
          {
            "election": null,
            "id": 48,
            "name": "Kitchener—Conestoga"
          }
        ],
        "pollDivisionIds": [
          10139264
        ],
        "postalCode": "N2N2T4",
        "streetName": "SUMMERHILL",
        "streetDirectionId": null,
        "streetTypeId": "CRES",
        "placeName": "KITCHENER",
        "streetNameDisplayText": "SUMMERHILL CRES, KITCHENER"
      }
    ]
  },
  {
    "postal": "N2N2S3",
    "result": [
      {
        "electoralDistricts": [
          {
            "election": null,
            "id": 48,
            "name": "Kitchener—Conestoga"
          }
        ],
        "pollDivisionIds": [
          10139264
        ],
        "postalCode": "N2N2S3",
        "streetName": "HIGH ACRES",
        "streetDirectionId": null,
        "streetTypeId": "CRES",
        "placeName": "KITCHENER",
        "streetNameDisplayText": "HIGH ACRES CRES, KITCHENER"
      }
    ]
  },
  {
    "postal": "N2N0K0",
    "result": []
  },
  {
    "postal": "N2N5N1",
    "result": []
  },
  {
    "postal": "N2N7T0",
    "result": []
  },
  {
    "postal": "N2N9N2",
    "result": []
  },
  {
    "postal": "N2N5L1",
    "result": []
  },
  {
    "postal": "N2N7G5",
    "result": []
  },
  {
    "postal": "N2N6K2",
    "result": []
  },
  {
    "postal": "N2N6P9",
    "result": []
  },
  {
    "postal": "N2N0E6",
    "result": []
  },
  {
    "postal": "N2N8R9",
    "result": []
  },
  {
    "postal": "N2N3G9",
    "result": [
      {
        "electoralDistricts": [
          {
            "election": null,
            "id": 48,
            "name": "Kitchener—Conestoga"
          }
        ],
        "pollDivisionIds": [
          10139264
        ],
        "postalCode": "N2N3G9",
        "streetName": "ROLLING MEADOWS",
        "streetDirectionId": null,
        "streetTypeId": "DR",
        "placeName": "KITCHENER",
        "streetNameDisplayText": "ROLLING MEADOWS DR, KITCHENER"
      }
    ]
  },
  {
    "postal": "N2N0V7",
    "result": []
  },
  {
    "postal": "N2N2Z1",
    "result": [
      {
        "electoralDistricts": [
          {
            "election": null,
            "id": 48,
            "name": "Kitchener—Conestoga"
          }
        ],
        "pollDivisionIds": [
          10139260
        ],
        "postalCode": "N2N2Z1",
        "streetName": "GATSBY",
        "streetDirectionId": null,
        "streetTypeId": "CRT",
        "placeName": "KITCHENER",
        "streetNameDisplayText": "GATSBY CRT, KITCHENER"
      },
      {
        "electoralDistricts": [
          {
            "election": null,
            "id": 48,
            "name": "Kitchener—Conestoga"
          }
        ],
        "pollDivisionIds": [
          10139260
        ],
        "postalCode": "N2N2Z1",
        "streetName": "NORTHFOREST",
        "streetDirectionId": null,
        "streetTypeId": "TRAIL",
        "placeName": "KITCHENER",
        "streetNameDisplayText": "NORTHFOREST TRAIL, KITCHENER"
      }
    ]
  },
  {
    "postal": "N2N7N1",
    "result": []
  },
  {
    "postal": "N2N3C6",
    "result": [
      {
        "electoralDistricts": [
          {
            "election": null,
            "id": 48,
            "name": "Kitchener—Conestoga"
          }
        ],
        "pollDivisionIds": [
          10139267
        ],
        "postalCode": "N2N3C6",
        "streetName": "CORA",
        "streetDirectionId": null,
        "streetTypeId": "DR",
        "placeName": "KITCHENER",
        "streetNameDisplayText": "CORA DR, KITCHENER"
      }
    ]
  },
  {
    "postal": "N2N4M1",
    "result": []
  },
  {
    "postal": "N2N9K2",
    "result": []
  },
  {
    "postal": "N2N9S6",
    "result": []
  },
  {
    "postal": "N2N4X1",
    "result": []
  },
  {
    "postal": "N2N8W2",
    "result": []
  },
  {
    "postal": "N2N7N2",
    "result": []
  },
  {
    "postal": "N2N8S3",
    "result": []
  },
  {
    "postal": "N2N4V0",
    "result": []
  },
  {
    "postal": "N2N6W4",
    "result": []
  },
  {
    "postal": "N2N5M1",
    "result": []
  },
  {
    "postal": "N2N0S4",
    "result": []
  },
  {
    "postal": "N2N5X6",
    "result": []
  },
  {
    "postal": "N2N8L5",
    "result": []
  },
  {
    "postal": "N2N5M8",
    "result": []
  },
  {
    "postal": "N2N2G3",
    "result": []
  },
  {
    "postal": "N2N8E4",
    "result": []
  },
  {
    "postal": "N2N7S9",
    "result": []
  },
  {
    "postal": "N2N1K3",
    "result": [
      {
        "electoralDistricts": [
          {
            "election": null,
            "id": 48,
            "name": "Kitchener—Conestoga"
          }
        ],
        "pollDivisionIds": [
          10139265
        ],
        "postalCode": "N2N1K3",
        "streetName": "WESTHEIGHTS",
        "streetDirectionId": null,
        "streetTypeId": "DR",
        "placeName": "KITCHENER",
        "streetNameDisplayText": "WESTHEIGHTS DR, KITCHENER"
      }
    ]
  },
  {
    "postal": "N2N4E1",
    "result": []
  },
  {
    "postal": "N2N4R2",
    "result": []
  },
  {
    "postal": "N2N6T0",
    "result": []
  },
  {
    "postal": "N2N3K5",
    "result": [
      {
        "electoralDistricts": [
          {
            "election": null,
            "id": 48,
            "name": "Kitchener—Conestoga"
          }
        ],
        "pollDivisionIds": [
          10139267
        ],
        "postalCode": "N2N3K5",
        "streetName": "HIGHLAND",
        "streetDirectionId": "W",
        "streetTypeId": "RD",
        "placeName": "KITCHENER",
        "streetNameDisplayText": "HIGHLAND RD W, KITCHENER"
      }
    ]
  },
  {
    "postal": "N2N3S3",
    "result": [
      {
        "electoralDistricts": [
          {
            "election": null,
            "id": 48,
            "name": "Kitchener—Conestoga"
          }
        ],
        "pollDivisionIds": [
          10139260
        ],
        "postalCode": "N2N3S3",
        "streetName": "COUNTRYSTONE",
        "streetDirectionId": null,
        "streetTypeId": "CRES",
        "placeName": "KITCHENER",
        "streetNameDisplayText": "COUNTRYSTONE CRES, KITCHENER"
      },
      {
        "electoralDistricts": [
          {
            "election": null,
            "id": 48,
            "name": "Kitchener—Conestoga"
          }
        ],
        "pollDivisionIds": [
          10139260
        ],
        "postalCode": "N2N3S3",
        "streetName": "GARDEN PATH",
        "streetDirectionId": null,
        "streetTypeId": "PL",
        "placeName": "KITCHENER",
        "streetNameDisplayText": "GARDEN PATH PL, KITCHENER"
      },
      {
        "electoralDistricts": [
          {
            "election": null,
            "id": 48,
            "name": "Kitchener—Conestoga"
          }
        ],
        "pollDivisionIds": [
          10139260
        ],
        "postalCode": "N2N3S3",
        "streetName": "SASSAFRAS",
        "streetDirectionId": null,
        "streetTypeId": "ST",
        "placeName": "KITCHENER",
        "streetNameDisplayText": "SASSAFRAS ST, KITCHENER"
      }
    ]
  },
  {
    "postal": "N2N3L4",
    "result": [
      {
        "electoralDistricts": [
          {
            "election": null,
            "id": 48,
            "name": "Kitchener—Conestoga"
          }
        ],
        "pollDivisionIds": [
          10139262
        ],
        "postalCode": "N2N3L4",
        "streetName": "WESTFOREST",
        "streetDirectionId": null,
        "streetTypeId": "TRAIL",
        "placeName": "KITCHENER",
        "streetNameDisplayText": "WESTFOREST TRAIL, KITCHENER"
      }
    ]
  },
  {
    "postal": "N2N9Y2",
    "result": []
  },
  {
    "postal": "N2N1E0",
    "result": []
  },
  {
    "postal": "N2N9A4",
    "result": []
  },
  {
    "postal": "N2N1L3",
    "result": [
      {
        "electoralDistricts": [
          {
            "election": null,
            "id": 48,
            "name": "Kitchener—Conestoga"
          }
        ],
        "pollDivisionIds": [
          10139265
        ],
        "postalCode": "N2N1L3",
        "streetName": "CHARNWOOD",
        "streetDirectionId": null,
        "streetTypeId": "CRT",
        "placeName": "KITCHENER",
        "streetNameDisplayText": "CHARNWOOD CRT, KITCHENER"
      }
    ]
  },
  {
    "postal": "N2N6N1",
    "result": []
  },
  {
    "postal": "N2N6G7",
    "result": []
  },
  {
    "postal": "N2N7W1",
    "result": []
  },
  {
    "postal": "N2N4M6",
    "result": []
  },
  {
    "postal": "N2N1K0",
    "result": []
  },
  {
    "postal": "N2N3E2",
    "result": [
      {
        "electoralDistricts": [
          {
            "election": null,
            "id": 48,
            "name": "Kitchener—Conestoga"
          }
        ],
        "pollDivisionIds": [
          10139261
        ],
        "postalCode": "N2N3E2",
        "streetName": "BANKSIDE",
        "streetDirectionId": null,
        "streetTypeId": "DR",
        "placeName": "KITCHENER",
        "streetNameDisplayText": "BANKSIDE DR, KITCHENER"
      },
      {
        "electoralDistricts": [
          {
            "election": null,
            "id": 48,
            "name": "Kitchener—Conestoga"
          }
        ],
        "pollDivisionIds": [
          10139261
        ],
        "postalCode": "N2N3E2",
        "streetName": "OPRINGTON",
        "streetDirectionId": null,
        "streetTypeId": "CRT",
        "placeName": "KITCHENER",
        "streetNameDisplayText": "OPRINGTON CRT, KITCHENER"
      },
      {
        "electoralDistricts": [
          {
            "election": null,
            "id": 48,
            "name": "Kitchener—Conestoga"
          }
        ],
        "pollDivisionIds": [
          10139261
        ],
        "postalCode": "N2N3E2",
        "streetName": "OPRINGTON",
        "streetDirectionId": null,
        "streetTypeId": "DR",
        "placeName": "KITCHENER",
        "streetNameDisplayText": "OPRINGTON DR, KITCHENER"
      }
    ]
  },
  {
    "postal": "N2N5H4",
    "result": []
  },
  {
    "postal": "N2N1K7",
    "result": [
      {
        "electoralDistricts": [
          {
            "election": null,
            "id": 48,
            "name": "Kitchener—Conestoga"
          }
        ],
        "pollDivisionIds": [
          10139265
        ],
        "postalCode": "N2N1K7",
        "streetName": "AUTUMN HILL",
        "streetDirectionId": null,
        "streetTypeId": "CRES",
        "placeName": "KITCHENER",
        "streetNameDisplayText": "AUTUMN HILL CRES, KITCHENER"
      }
    ]
  },
  {
    "postal": "N2N0H0",
    "result": []
  },
  {
    "postal": "N2N0J3",
    "result": []
  },
  {
    "postal": "N2N1X6",
    "result": [
      {
        "electoralDistricts": [
          {
            "election": null,
            "id": 48,
            "name": "Kitchener—Conestoga"
          }
        ],
        "pollDivisionIds": [
          10139266
        ],
        "postalCode": "N2N1X6",
        "streetName": "DRIFTWOOD",
        "streetDirectionId": null,
        "streetTypeId": "DR",
        "placeName": "KITCHENER",
        "streetNameDisplayText": "DRIFTWOOD DR, KITCHENER"
      }
    ]
  },
  {
    "postal": "N2N2Z6",
    "result": [
      {
        "electoralDistricts": [
          {
            "election": null,
            "id": 48,
            "name": "Kitchener—Conestoga"
          }
        ],
        "pollDivisionIds": [
          10139264
        ],
        "postalCode": "N2N2Z6",
        "streetName": "WESTHEIGHTS",
        "streetDirectionId": null,
        "streetTypeId": "DR",
        "placeName": "KITCHENER",
        "streetNameDisplayText": "WESTHEIGHTS DR, KITCHENER"
      }
    ]
  },
  {
    "postal": "N2N4R9",
    "result": []
  },
  {
    "postal": "N2N0W8",
    "result": []
  },
  {
    "postal": "N2N1L4",
    "result": [
      {
        "electoralDistricts": [
          {
            "election": null,
            "id": 48,
            "name": "Kitchener—Conestoga"
          }
        ],
        "pollDivisionIds": [
          10139265
        ],
        "postalCode": "N2N1L4",
        "streetName": "CHARNWOOD",
        "streetDirectionId": null,
        "streetTypeId": "CRT",
        "placeName": "KITCHENER",
        "streetNameDisplayText": "CHARNWOOD CRT, KITCHENER"
      }
    ]
  },
  {
    "postal": "N2N0C8",
    "result": []
  },
  {
    "postal": "N2N9X7",
    "result": []
  },
  {
    "postal": "N2N4T1",
    "result": []
  },
  {
    "postal": "N2N0M0",
    "result": []
  },
  {
    "postal": "N2N6A2",
    "result": []
  },
  {
    "postal": "N2N9S8",
    "result": []
  },
  {
    "postal": "N2N9T4",
    "result": []
  },
  {
    "postal": "N2N9Y4",
    "result": []
  },
  {
    "postal": "N2N6G5",
    "result": []
  },
  {
    "postal": "N2N6H9",
    "result": []
  },
  {
    "postal": "N2N2P3",
    "result": [
      {
        "electoralDistricts": [
          {
            "election": null,
            "id": 48,
            "name": "Kitchener—Conestoga"
          }
        ],
        "pollDivisionIds": [
          10139267
        ],
        "postalCode": "N2N2P3",
        "streetName": "FRAN ELLEN",
        "streetDirectionId": null,
        "streetTypeId": "CRES",
        "placeName": "KITCHENER",
        "streetNameDisplayText": "FRAN ELLEN CRES, KITCHENER"
      },
      {
        "electoralDistricts": [
          {
            "election": null,
            "id": 48,
            "name": "Kitchener—Conestoga"
          }
        ],
        "pollDivisionIds": [
          10139267
        ],
        "postalCode": "N2N2P3",
        "streetName": "YELLOW BIRCH",
        "streetDirectionId": null,
        "streetTypeId": "DR",
        "placeName": "KITCHENER",
        "streetNameDisplayText": "YELLOW BIRCH DR, KITCHENER"
      }
    ]
  },
  {
    "postal": "N2N1T6",
    "result": [
      {
        "electoralDistricts": [
          {
            "election": null,
            "id": 48,
            "name": "Kitchener—Conestoga"
          }
        ],
        "pollDivisionIds": [
          10139264
        ],
        "postalCode": "N2N1T6",
        "streetName": "ROLLING MEADOWS",
        "streetDirectionId": null,
        "streetTypeId": "DR",
        "placeName": "KITCHENER",
        "streetNameDisplayText": "ROLLING MEADOWS DR, KITCHENER"
      }
    ]
  },
  {
    "postal": "N2N4P6",
    "result": []
  },
  {
    "postal": "N2N3K1",
    "result": [
      {
        "electoralDistricts": [
          {
            "election": null,
            "id": 48,
            "name": "Kitchener—Conestoga"
          }
        ],
        "pollDivisionIds": [
          10139262
        ],
        "postalCode": "N2N3K1",
        "streetName": "BANKSIDE",
        "streetDirectionId": null,
        "streetTypeId": "DR",
        "placeName": "KITCHENER",
        "streetNameDisplayText": "BANKSIDE DR, KITCHENER"
      }
    ]
  },
  {
    "postal": "N2N6X4",
    "result": []
  },
  {
    "postal": "N2N4M8",
    "result": []
  },
  {
    "postal": "N2N2Y1",
    "result": [
      {
        "electoralDistricts": [
          {
            "election": null,
            "id": 48,
            "name": "Kitchener—Conestoga"
          }
        ],
        "pollDivisionIds": [
          10139264
        ],
        "postalCode": "N2N2Y1",
        "streetName": "SUMMERHILL",
        "streetDirectionId": null,
        "streetTypeId": "CRES",
        "placeName": "KITCHENER",
        "streetNameDisplayText": "SUMMERHILL CRES, KITCHENER"
      },
      {
        "electoralDistricts": [
          {
            "election": null,
            "id": 48,
            "name": "Kitchener—Conestoga"
          }
        ],
        "pollDivisionIds": [
          10139264
        ],
        "postalCode": "N2N2Y1",
        "streetName": "WEST ACRES",
        "streetDirectionId": null,
        "streetTypeId": "CRES",
        "placeName": "KITCHENER",
        "streetNameDisplayText": "WEST ACRES CRES, KITCHENER"
      }
    ]
  },
  {
    "postal": "N2N6M1",
    "result": []
  },
  {
    "postal": "N2N5L8",
    "result": []
  },
  {
    "postal": "N2N3P6",
    "result": [
      {
        "electoralDistricts": [
          {
            "election": null,
            "id": 48,
            "name": "Kitchener—Conestoga"
          }
        ],
        "pollDivisionIds": [
          10139262
        ],
        "postalCode": "N2N3P6",
        "streetName": "HIGHBARRY",
        "streetDirectionId": null,
        "streetTypeId": "CRES",
        "placeName": "KITCHENER",
        "streetNameDisplayText": "HIGHBARRY CRES, KITCHENER"
      },
      {
        "electoralDistricts": [
          {
            "election": null,
            "id": 48,
            "name": "Kitchener—Conestoga"
          }
        ],
        "pollDivisionIds": [
          10139262
        ],
        "postalCode": "N2N3P6",
        "streetName": "UDVARI",
        "streetDirectionId": null,
        "streetTypeId": "CRES",
        "placeName": "KITCHENER",
        "streetNameDisplayText": "UDVARI CRES, KITCHENER"
      }
    ]
  },
  {
    "postal": "N2N9A5",
    "result": []
  },
  {
    "postal": "N2N7K1",
    "result": []
  },
  {
    "postal": "N2N3J4",
    "result": [
      {
        "electoralDistricts": [
          {
            "election": null,
            "id": 48,
            "name": "Kitchener—Conestoga"
          }
        ],
        "pollDivisionIds": [
          10139262
        ],
        "postalCode": "N2N3J4",
        "streetName": "DAWN RIDGE",
        "streetDirectionId": null,
        "streetTypeId": "DR",
        "placeName": "KITCHENER",
        "streetNameDisplayText": "DAWN RIDGE DR, KITCHENER"
      },
      {
        "electoralDistricts": [
          {
            "election": null,
            "id": 48,
            "name": "Kitchener—Conestoga"
          }
        ],
        "pollDivisionIds": [
          10139262
        ],
        "postalCode": "N2N3J4",
        "streetName": "WESTFOREST",
        "streetDirectionId": null,
        "streetTypeId": "TRAIL",
        "placeName": "KITCHENER",
        "streetNameDisplayText": "WESTFOREST TRAIL, KITCHENER"
      },
      {
        "electoralDistricts": [
          {
            "election": null,
            "id": 48,
            "name": "Kitchener—Conestoga"
          }
        ],
        "pollDivisionIds": [
          10139262
        ],
        "postalCode": "N2N3J4",
        "streetName": "WESTMEADOW",
        "streetDirectionId": null,
        "streetTypeId": "DR",
        "placeName": "KITCHENER",
        "streetNameDisplayText": "WESTMEADOW DR, KITCHENER"
      }
    ]
  },
  {
    "postal": "N2N5E7",
    "result": []
  },
  {
    "postal": "N2N3A7",
    "result": [
      {
        "electoralDistricts": [
          {
            "election": null,
            "id": 48,
            "name": "Kitchener—Conestoga"
          }
        ],
        "pollDivisionIds": [
          10139261
        ],
        "postalCode": "N2N3A7",
        "streetName": "GREENGABLE",
        "streetDirectionId": null,
        "streetTypeId": "WAY",
        "placeName": "KITCHENER",
        "streetNameDisplayText": "GREENGABLE WAY, KITCHENER"
      },
      {
        "electoralDistricts": [
          {
            "election": null,
            "id": 48,
            "name": "Kitchener—Conestoga"
          }
        ],
        "pollDivisionIds": [
          10139261
        ],
        "postalCode": "N2N3A7",
        "streetName": "WESTFOREST",
        "streetDirectionId": null,
        "streetTypeId": "TRAIL",
        "placeName": "KITCHENER",
        "streetNameDisplayText": "WESTFOREST TRAIL, KITCHENER"
      }
    ]
  },
  {
    "postal": "N2N1B9",
    "result": [
      {
        "electoralDistricts": [
          {
            "election": null,
            "id": 48,
            "name": "Kitchener—Conestoga"
          }
        ],
        "pollDivisionIds": [
          10139265
        ],
        "postalCode": "N2N1B9",
        "streetName": "FORESTWOOD",
        "streetDirectionId": null,
        "streetTypeId": "DR",
        "placeName": "KITCHENER",
        "streetNameDisplayText": "FORESTWOOD DR, KITCHENER"
      }
    ]
  },
  {
    "postal": "N2N9E8",
    "result": []
  },
  {
    "postal": "N2N1C9",
    "result": [
      {
        "electoralDistricts": [
          {
            "election": null,
            "id": 48,
            "name": "Kitchener—Conestoga"
          }
        ],
        "pollDivisionIds": [
          10139265
        ],
        "postalCode": "N2N1C9",
        "streetName": "FOREST GLEN",
        "streetDirectionId": null,
        "streetTypeId": "CRES",
        "placeName": "KITCHENER",
        "streetNameDisplayText": "FOREST GLEN CRES, KITCHENER"
      }
    ]
  },
  {
    "postal": "N2N3B5",
    "result": [
      {
        "electoralDistricts": [
          {
            "election": null,
            "id": 48,
            "name": "Kitchener—Conestoga"
          }
        ],
        "pollDivisionIds": [
          10139261
        ],
        "postalCode": "N2N3B5",
        "streetName": "BENESFORT",
        "streetDirectionId": null,
        "streetTypeId": "CRES",
        "placeName": "KITCHENER",
        "streetNameDisplayText": "BENESFORT CRES, KITCHENER"
      },
      {
        "electoralDistricts": [
          {
            "election": null,
            "id": 48,
            "name": "Kitchener—Conestoga"
          }
        ],
        "pollDivisionIds": [
          10139261
        ],
        "postalCode": "N2N3B5",
        "streetName": "BENESFORT CRES.",
        "streetDirectionId": null,
        "streetTypeId": "CRES",
        "placeName": "KITCHENER",
        "streetNameDisplayText": "BENESFORT CRES. CRES, KITCHENER"
      }
    ]
  },
  {
    "postal": "N2N8R0",
    "result": []
  },
  {
    "postal": "N2N3P2",
    "result": [
      {
        "electoralDistricts": [
          {
            "election": null,
            "id": 48,
            "name": "Kitchener—Conestoga"
          }
        ],
        "pollDivisionIds": [
          10139261
        ],
        "postalCode": "N2N3P2",
        "streetName": "OPRINGTON",
        "streetDirectionId": null,
        "streetTypeId": "DR",
        "placeName": "KITCHENER",
        "streetNameDisplayText": "OPRINGTON DR, KITCHENER"
      },
      {
        "electoralDistricts": [
          {
            "election": null,
            "id": 48,
            "name": "Kitchener—Conestoga"
          }
        ],
        "pollDivisionIds": [
          10139261
        ],
        "postalCode": "N2N3P2",
        "streetName": "OPRINGTON",
        "streetDirectionId": null,
        "streetTypeId": "PL",
        "placeName": "KITCHENER",
        "streetNameDisplayText": "OPRINGTON PL, KITCHENER"
      }
    ]
  },
  {
    "postal": "N2N5V4",
    "result": []
  },
  {
    "postal": "N2N4H0",
    "result": []
  },
  {
    "postal": "N2N4S7",
    "result": []
  },
  {
    "postal": "N2N6C2",
    "result": []
  },
  {
    "postal": "N2N8W3",
    "result": []
  },
  {
    "postal": "N2N4M5",
    "result": []
  },
  {
    "postal": "N2N5T1",
    "result": []
  },
  {
    "postal": "N2N3B3",
    "result": [
      {
        "electoralDistricts": [
          {
            "election": null,
            "id": 48,
            "name": "Kitchener—Conestoga"
          }
        ],
        "pollDivisionIds": [
          10139267
        ],
        "postalCode": "N2N3B3",
        "streetName": "OLD MAPLE",
        "streetDirectionId": null,
        "streetTypeId": "LANE",
        "placeName": "KITCHENER",
        "streetNameDisplayText": "OLD MAPLE LANE, KITCHENER"
      }
    ]
  },
  {
    "postal": "N2N6C6",
    "result": []
  },
  {
    "postal": "N2N7N8",
    "result": []
  },
  {
    "postal": "N2N2Y3",
    "result": [
      {
        "electoralDistricts": [
          {
            "election": null,
            "id": 48,
            "name": "Kitchener—Conestoga"
          }
        ],
        "pollDivisionIds": [
          10139264
        ],
        "postalCode": "N2N2Y3",
        "streetName": "HIGH ACRES",
        "streetDirectionId": null,
        "streetTypeId": "CRES",
        "placeName": "KITCHENER",
        "streetNameDisplayText": "HIGH ACRES CRES, KITCHENER"
      }
    ]
  },
  {
    "postal": "N2N2R6",
    "result": [
      {
        "electoralDistricts": [
          {
            "election": null,
            "id": 48,
            "name": "Kitchener—Conestoga"
          }
        ],
        "pollDivisionIds": [
          10139263
        ],
        "postalCode": "N2N2R6",
        "streetName": "CLAYCROFT",
        "streetDirectionId": null,
        "streetTypeId": "CRES",
        "placeName": "KITCHENER",
        "streetNameDisplayText": "CLAYCROFT CRES, KITCHENER"
      }
    ]
  },
  {
    "postal": "N2N7N3",
    "result": []
  },
  {
    "postal": "N2N8J2",
    "result": []
  },
  {
    "postal": "N2N6A9",
    "result": []
  },
  {
    "postal": "N2N3V2",
    "result": []
  },
  {
    "postal": "N2N2N3",
    "result": [
      {
        "electoralDistricts": [
          {
            "election": null,
            "id": 48,
            "name": "Kitchener—Conestoga"
          }
        ],
        "pollDivisionIds": [
          10139266
        ],
        "postalCode": "N2N2N3",
        "streetName": "HODDLE",
        "streetDirectionId": null,
        "streetTypeId": "CRES",
        "placeName": "KITCHENER",
        "streetNameDisplayText": "HODDLE CRES, KITCHENER"
      },
      {
        "electoralDistricts": [
          {
            "election": null,
            "id": 48,
            "name": "Kitchener—Conestoga"
          }
        ],
        "pollDivisionIds": [
          10139267
        ],
        "postalCode": "N2N2N3",
        "streetName": "YELLOW BIRCH",
        "streetDirectionId": null,
        "streetTypeId": "DR",
        "placeName": "KITCHENER",
        "streetNameDisplayText": "YELLOW BIRCH DR, KITCHENER"
      }
    ]
  },
  {
    "postal": "N2N1S5",
    "result": [
      {
        "electoralDistricts": [
          {
            "election": null,
            "id": 48,
            "name": "Kitchener—Conestoga"
          }
        ],
        "pollDivisionIds": [
          10139266
        ],
        "postalCode": "N2N1S5",
        "streetName": "MEADOW WOODS",
        "streetDirectionId": null,
        "streetTypeId": "CRES",
        "placeName": "KITCHENER",
        "streetNameDisplayText": "MEADOW WOODS CRES, KITCHENER"
      }
    ]
  },
  {
    "postal": "N2N4T7",
    "result": []
  },
  {
    "postal": "N2N6Y7",
    "result": []
  },
  {
    "postal": "N2N0W7",
    "result": []
  },
  {
    "postal": "N2N2W9",
    "result": [
      {
        "electoralDistricts": [
          {
            "election": null,
            "id": 48,
            "name": "Kitchener—Conestoga"
          }
        ],
        "pollDivisionIds": [
          10139264
        ],
        "postalCode": "N2N2W9",
        "streetName": "BURNABY",
        "streetDirectionId": null,
        "streetTypeId": "CRES",
        "placeName": "KITCHENER",
        "streetNameDisplayText": "BURNABY CRES, KITCHENER"
      },
      {
        "electoralDistricts": [
          {
            "election": null,
            "id": 48,
            "name": "Kitchener—Conestoga"
          }
        ],
        "pollDivisionIds": [
          10139264
        ],
        "postalCode": "N2N2W9",
        "streetName": "NEWBURY",
        "streetDirectionId": null,
        "streetTypeId": "DR",
        "placeName": "KITCHENER",
        "streetNameDisplayText": "NEWBURY DR, KITCHENER"
      }
    ]
  },
  {
    "postal": "N2N8V0",
    "result": []
  },
  {
    "postal": "N2N0H4",
    "result": []
  },
  {
    "postal": "N2N2T1",
    "result": [
      {
        "electoralDistricts": [
          {
            "election": null,
            "id": 48,
            "name": "Kitchener—Conestoga"
          }
        ],
        "pollDivisionIds": [
          10139264
        ],
        "postalCode": "N2N2T1",
        "streetName": "BLACKWELL",
        "streetDirectionId": null,
        "streetTypeId": "DR",
        "placeName": "KITCHENER",
        "streetNameDisplayText": "BLACKWELL DR, KITCHENER"
      },
      {
        "electoralDistricts": [
          {
            "election": null,
            "id": 48,
            "name": "Kitchener—Conestoga"
          }
        ],
        "pollDivisionIds": [
          10139264
        ],
        "postalCode": "N2N2T1",
        "streetName": "SPRUCEDALE",
        "streetDirectionId": null,
        "streetTypeId": "CRES",
        "placeName": "KITCHENER",
        "streetNameDisplayText": "SPRUCEDALE CRES, KITCHENER"
      }
    ]
  },
  {
    "postal": "N2N1B1",
    "result": [
      {
        "electoralDistricts": [
          {
            "election": null,
            "id": 48,
            "name": "Kitchener—Conestoga"
          }
        ],
        "pollDivisionIds": [
          10139265
        ],
        "postalCode": "N2N1B1",
        "streetName": "FORESTWOOD",
        "streetDirectionId": null,
        "streetTypeId": "DR",
        "placeName": "KITCHENER",
        "streetNameDisplayText": "FORESTWOOD DR, KITCHENER"
      }
    ]
  },
  {
    "postal": "N2N8B6",
    "result": []
  },
  {
    "postal": "N2N6H1",
    "result": []
  },
  {
    "postal": "N2N8T8",
    "result": []
  },
  {
    "postal": "N2N0T4",
    "result": []
  },
  {
    "postal": "N2N2C4",
    "result": []
  },
  {
    "postal": "N2N8N3",
    "result": []
  },
  {
    "postal": "N2N4L8",
    "result": []
  },
  {
    "postal": "N2N2B5",
    "result": [
      {
        "electoralDistricts": [
          {
            "election": null,
            "id": 48,
            "name": "Kitchener—Conestoga"
          }
        ],
        "pollDivisionIds": [
          10139266
        ],
        "postalCode": "N2N2B5",
        "streetName": "DRIFTWOOD",
        "streetDirectionId": null,
        "streetTypeId": "DR",
        "placeName": "KITCHENER",
        "streetNameDisplayText": "DRIFTWOOD DR, KITCHENER"
      }
    ]
  },
  {
    "postal": "N2N3H1",
    "result": [
      {
        "electoralDistricts": [
          {
            "election": null,
            "id": 48,
            "name": "Kitchener—Conestoga"
          }
        ],
        "pollDivisionIds": [
          10139260
        ],
        "postalCode": "N2N3H1",
        "streetName": "BEECHMANOR",
        "streetDirectionId": null,
        "streetTypeId": "CRES",
        "placeName": "KITCHENER",
        "streetNameDisplayText": "BEECHMANOR CRES, KITCHENER"
      },
      {
        "electoralDistricts": [
          {
            "election": null,
            "id": 48,
            "name": "Kitchener—Conestoga"
          }
        ],
        "pollDivisionIds": [
          10139260
        ],
        "postalCode": "N2N3H1",
        "streetName": "RESURRECTION",
        "streetDirectionId": null,
        "streetTypeId": "DR",
        "placeName": "KITCHENER",
        "streetNameDisplayText": "RESURRECTION DR, KITCHENER"
      }
    ]
  },
  {
    "postal": "N2N4Y1",
    "result": []
  },
  {
    "postal": "N2N7E2",
    "result": []
  },
  {
    "postal": "N2N2P5",
    "result": [
      {
        "electoralDistricts": [
          {
            "election": null,
            "id": 48,
            "name": "Kitchener—Conestoga"
          }
        ],
        "pollDivisionIds": [
          10139261
        ],
        "postalCode": "N2N2P5",
        "streetName": "LENNOX",
        "streetDirectionId": null,
        "streetTypeId": "CRES",
        "placeName": "KITCHENER",
        "streetNameDisplayText": "LENNOX CRES, KITCHENER"
      }
    ]
  },
  {
    "postal": "N2N8R7",
    "result": []
  },
  {
    "postal": "N2N9P1",
    "result": []
  },
  {
    "postal": "N2N3B8",
    "result": [
      {
        "electoralDistricts": [
          {
            "election": null,
            "id": 48,
            "name": "Kitchener—Conestoga"
          }
        ],
        "pollDivisionIds": [
          10139261
        ],
        "postalCode": "N2N3B8",
        "streetName": "BENESFORT",
        "streetDirectionId": null,
        "streetTypeId": "CRES",
        "placeName": "KITCHENER",
        "streetNameDisplayText": "BENESFORT CRES, KITCHENER"
      },
      {
        "electoralDistricts": [
          {
            "election": null,
            "id": 48,
            "name": "Kitchener—Conestoga"
          }
        ],
        "pollDivisionIds": [
          10139261
        ],
        "postalCode": "N2N3B8",
        "streetName": "BENESFORT",
        "streetDirectionId": null,
        "streetTypeId": "CRT",
        "placeName": "KITCHENER",
        "streetNameDisplayText": "BENESFORT CRT, KITCHENER"
      },
      {
        "electoralDistricts": [
          {
            "election": null,
            "id": 48,
            "name": "Kitchener—Conestoga"
          }
        ],
        "pollDivisionIds": [
          10139261
        ],
        "postalCode": "N2N3B8",
        "streetName": "BENESFORT",
        "streetDirectionId": null,
        "streetTypeId": "DR",
        "placeName": "KITCHENER",
        "streetNameDisplayText": "BENESFORT DR, KITCHENER"
      },
      {
        "electoralDistricts": [
          {
            "election": null,
            "id": 48,
            "name": "Kitchener—Conestoga"
          }
        ],
        "pollDivisionIds": [
          10139261
        ],
        "postalCode": "N2N3B8",
        "streetName": "OPRINGTON",
        "streetDirectionId": null,
        "streetTypeId": "DR",
        "placeName": "KITCHENER",
        "streetNameDisplayText": "OPRINGTON DR, KITCHENER"
      }
    ]
  },
  {
    "postal": "N2N3P7",
    "result": [
      {
        "electoralDistricts": [
          {
            "election": null,
            "id": 48,
            "name": "Kitchener—Conestoga"
          }
        ],
        "pollDivisionIds": [
          10139262
        ],
        "postalCode": "N2N3P7",
        "streetName": "WINDING MEADOW",
        "streetDirectionId": null,
        "streetTypeId": "CRT",
        "placeName": "KITCHENER",
        "streetNameDisplayText": "WINDING MEADOW CRT, KITCHENER"
      }
    ]
  },
  {
    "postal": "N2N9B2",
    "result": []
  },
  {
    "postal": "N2N6Z3",
    "result": []
  },
  {
    "postal": "N2N4N5",
    "result": []
  },
  {
    "postal": "N2N8T3",
    "result": []
  },
  {
    "postal": "N2N1V2",
    "result": [
      {
        "electoralDistricts": [
          {
            "election": null,
            "id": 48,
            "name": "Kitchener—Conestoga"
          }
        ],
        "pollDivisionIds": [
          10139263
        ],
        "postalCode": "N2N1V2",
        "streetName": "TRAILVIEW",
        "streetDirectionId": null,
        "streetTypeId": "DR",
        "placeName": "KITCHENER",
        "streetNameDisplayText": "TRAILVIEW DR, KITCHENER"
      }
    ]
  },
  {
    "postal": "N2N1Y0",
    "result": []
  },
  {
    "postal": "N2N3G6",
    "result": [
      {
        "electoralDistricts": [
          {
            "election": null,
            "id": 48,
            "name": "Kitchener—Conestoga"
          }
        ],
        "pollDivisionIds": [
          10139260
        ],
        "postalCode": "N2N3G6",
        "streetName": "GLASGOW",
        "streetDirectionId": null,
        "streetTypeId": "ST",
        "placeName": "KITCHENER",
        "streetNameDisplayText": "GLASGOW ST, KITCHENER"
      }
    ]
  },
  {
    "postal": "N2N3H7",
    "result": [
      {
        "electoralDistricts": [
          {
            "election": null,
            "id": 48,
            "name": "Kitchener—Conestoga"
          }
        ],
        "pollDivisionIds": [
          10139262
        ],
        "postalCode": "N2N3H7",
        "streetName": "SLEEPY HOLLOW",
        "streetDirectionId": null,
        "streetTypeId": "CRT",
        "placeName": "KITCHENER",
        "streetNameDisplayText": "SLEEPY HOLLOW CRT, KITCHENER"
      },
      {
        "electoralDistricts": [
          {
            "election": null,
            "id": 48,
            "name": "Kitchener—Conestoga"
          }
        ],
        "pollDivisionIds": [
          10139262
        ],
        "postalCode": "N2N3H7",
        "streetName": "WESTFOREST",
        "streetDirectionId": null,
        "streetTypeId": "TRAIL",
        "placeName": "KITCHENER",
        "streetNameDisplayText": "WESTFOREST TRAIL, KITCHENER"
      }
    ]
  },
  {
    "postal": "N2N7X8",
    "result": []
  },
  {
    "postal": "N2N0C7",
    "result": []
  },
  {
    "postal": "N2N0W9",
    "result": []
  },
  {
    "postal": "N2N8E6",
    "result": []
  },
  {
    "postal": "N2N9Z8",
    "result": []
  },
  {
    "postal": "N2N3P4",
    "result": [
      {
        "electoralDistricts": [
          {
            "election": null,
            "id": 48,
            "name": "Kitchener—Conestoga"
          }
        ],
        "pollDivisionIds": [
          10139261
        ],
        "postalCode": "N2N3P4",
        "streetName": "HEATHERWOOD",
        "streetDirectionId": null,
        "streetTypeId": "PL",
        "placeName": "KITCHENER",
        "streetNameDisplayText": "HEATHERWOOD PL, KITCHENER"
      }
    ]
  },
  {
    "postal": "N2N6L8",
    "result": []
  },
  {
    "postal": "N2N2R4",
    "result": [
      {
        "electoralDistricts": [
          {
            "election": null,
            "id": 48,
            "name": "Kitchener—Conestoga"
          }
        ],
        "pollDivisionIds": [
          10139263,
          10139280
        ],
        "postalCode": "N2N2R4",
        "streetName": "LANARK",
        "streetDirectionId": null,
        "streetTypeId": "CRES",
        "placeName": "KITCHENER",
        "streetNameDisplayText": "LANARK CRES, KITCHENER"
      },
      {
        "electoralDistricts": [
          {
            "election": null,
            "id": 48,
            "name": "Kitchener—Conestoga"
          }
        ],
        "pollDivisionIds": [
          10139263
        ],
        "postalCode": "N2N2R4",
        "streetName": "LANARK",
        "streetDirectionId": null,
        "streetTypeId": "CRT",
        "placeName": "KITCHENER",
        "streetNameDisplayText": "LANARK CRT, KITCHENER"
      }
    ]
  },
  {
    "postal": "N2N2W1",
    "result": [
      {
        "electoralDistricts": [
          {
            "election": null,
            "id": 48,
            "name": "Kitchener—Conestoga"
          }
        ],
        "pollDivisionIds": [
          10139264
        ],
        "postalCode": "N2N2W1",
        "streetName": "CUMBERLAND",
        "streetDirectionId": null,
        "streetTypeId": "PL",
        "placeName": "KITCHENER",
        "streetNameDisplayText": "CUMBERLAND PL, KITCHENER"
      },
      {
        "electoralDistricts": [
          {
            "election": null,
            "id": 48,
            "name": "Kitchener—Conestoga"
          }
        ],
        "pollDivisionIds": [
          10139264
        ],
        "postalCode": "N2N2W1",
        "streetName": "ROLLING MEADOWS",
        "streetDirectionId": null,
        "streetTypeId": "DR",
        "placeName": "KITCHENER",
        "streetNameDisplayText": "ROLLING MEADOWS DR, KITCHENER"
      }
    ]
  },
  {
    "postal": "N2N9H8",
    "result": []
  },
  {
    "postal": "N2N8X9",
    "result": []
  },
  {
    "postal": "N2N7H4",
    "result": []
  },
  {
    "postal": "N2N3J1",
    "result": [
      {
        "electoralDistricts": [
          {
            "election": null,
            "id": 48,
            "name": "Kitchener—Conestoga"
          }
        ],
        "pollDivisionIds": [
          10139262
        ],
        "postalCode": "N2N3J1",
        "streetName": "SHADYRIDGE",
        "streetDirectionId": null,
        "streetTypeId": "PL",
        "placeName": "KITCHENER",
        "streetNameDisplayText": "SHADYRIDGE PL, KITCHENER"
      },
      {
        "electoralDistricts": [
          {
            "election": null,
            "id": 48,
            "name": "Kitchener—Conestoga"
          }
        ],
        "pollDivisionIds": [
          10139262
        ],
        "postalCode": "N2N3J1",
        "streetName": "WESTFOREST",
        "streetDirectionId": null,
        "streetTypeId": "TRAIL",
        "placeName": "KITCHENER",
        "streetNameDisplayText": "WESTFOREST TRAIL, KITCHENER"
      }
    ]
  },
  {
    "postal": "N2N1P4",
    "result": [
      {
        "electoralDistricts": [
          {
            "election": null,
            "id": 48,
            "name": "Kitchener—Conestoga"
          }
        ],
        "pollDivisionIds": [
          10139263
        ],
        "postalCode": "N2N1P4",
        "streetName": "BLACKWELL",
        "streetDirectionId": null,
        "streetTypeId": "DR",
        "placeName": "KITCHENER",
        "streetNameDisplayText": "BLACKWELL DR, KITCHENER"
      }
    ]
  },
  {
    "postal": "N2N2A3",
    "result": [
      {
        "electoralDistricts": [
          {
            "election": null,
            "id": 48,
            "name": "Kitchener—Conestoga"
          }
        ],
        "pollDivisionIds": [
          10139266
        ],
        "postalCode": "N2N2A3",
        "streetName": "OLD FOREST",
        "streetDirectionId": null,
        "streetTypeId": "CRES",
        "placeName": "KITCHENER",
        "streetNameDisplayText": "OLD FOREST CRES, KITCHENER"
      }
    ]
  },
  {
    "postal": "N2N0Z1",
    "result": []
  },
  {
    "postal": "N2N1C1",
    "result": [
      {
        "electoralDistricts": [
          {
            "election": null,
            "id": 48,
            "name": "Kitchener—Conestoga"
          }
        ],
        "pollDivisionIds": [
          10139265
        ],
        "postalCode": "N2N1C1",
        "streetName": "FORESTWOOD",
        "streetDirectionId": null,
        "streetTypeId": "DR",
        "placeName": "KITCHENER",
        "streetNameDisplayText": "FORESTWOOD DR, KITCHENER"
      }
    ]
  },
  {
    "postal": "N2N0H3",
    "result": []
  },
  {
    "postal": "N2N7B0",
    "result": []
  },
  {
    "postal": "N2N5K2",
    "result": []
  },
  {
    "postal": "N2N1E9",
    "result": [
      {
        "electoralDistricts": [
          {
            "election": null,
            "id": 48,
            "name": "Kitchener—Conestoga"
          }
        ],
        "pollDivisionIds": [
          10139265
        ],
        "postalCode": "N2N1E9",
        "streetName": "MEADOWLANE",
        "streetDirectionId": null,
        "streetTypeId": "DR",
        "placeName": "KITCHENER",
        "streetNameDisplayText": "MEADOWLANE DR, KITCHENER"
      }
    ]
  },
  {
    "postal": "N2N9W7",
    "result": []
  },
  {
    "postal": "N2N5W6",
    "result": []
  },
  {
    "postal": "N2N6S6",
    "result": []
  },
  {
    "postal": "N2N2P8",
    "result": [
      {
        "electoralDistricts": [
          {
            "election": null,
            "id": 48,
            "name": "Kitchener—Conestoga"
          }
        ],
        "pollDivisionIds": [
          10139267,
          10139266
        ],
        "postalCode": "N2N2P8",
        "streetName": "HODDLE",
        "streetDirectionId": null,
        "streetTypeId": "CRES",
        "placeName": "KITCHENER",
        "streetNameDisplayText": "HODDLE CRES, KITCHENER"
      }
    ]
  },
  {
    "postal": "N2N4P8",
    "result": []
  },
  {
    "postal": "N2N0V9",
    "result": []
  },
  {
    "postal": "N2N5Y2",
    "result": []
  },
  {
    "postal": "N2N7Z7",
    "result": []
  },
  {
    "postal": "N2N6Y8",
    "result": []
  },
  {
    "postal": "N2N2G7",
    "result": []
  },
  {
    "postal": "N2N8C1",
    "result": []
  },
  {
    "postal": "N2N5C5",
    "result": []
  },
  {
    "postal": "N2N2X8",
    "result": [
      {
        "electoralDistricts": [
          {
            "election": null,
            "id": 48,
            "name": "Kitchener—Conestoga"
          }
        ],
        "pollDivisionIds": [
          10139264
        ],
        "postalCode": "N2N2X8",
        "streetName": "WESTVIEW",
        "streetDirectionId": null,
        "streetTypeId": "CRES",
        "placeName": "KITCHENER",
        "streetNameDisplayText": "WESTVIEW CRES, KITCHENER"
      }
    ]
  },
  {
    "postal": "N2N1W5",
    "result": [
      {
        "electoralDistricts": [
          {
            "election": null,
            "id": 48,
            "name": "Kitchener—Conestoga"
          }
        ],
        "pollDivisionIds": [
          10139267
        ],
        "postalCode": "N2N1W5",
        "streetName": "HIGHVIEW",
        "streetDirectionId": null,
        "streetTypeId": "DR",
        "placeName": "KITCHENER",
        "streetNameDisplayText": "HIGHVIEW DR, KITCHENER"
      }
    ]
  },
  {
    "postal": "N2N7G0",
    "result": []
  },
  {
    "postal": "N2N8J8",
    "result": []
  },
  {
    "postal": "N2N3Y0",
    "result": []
  },
  {
    "postal": "N2N9T7",
    "result": []
  },
  {
    "postal": "N2N5P4",
    "result": []
  },
  {
    "postal": "N2N4B0",
    "result": []
  },
  {
    "postal": "N2N9N8",
    "result": []
  },
  {
    "postal": "N2N4A7",
    "result": []
  },
  {
    "postal": "N2N4H9",
    "result": []
  },
  {
    "postal": "N2N6X1",
    "result": []
  },
  {
    "postal": "N2N9Y7",
    "result": []
  },
  {
    "postal": "N2N2Y5",
    "result": [
      {
        "electoralDistricts": [
          {
            "election": null,
            "id": 48,
            "name": "Kitchener—Conestoga"
          }
        ],
        "pollDivisionIds": [
          10139261
        ],
        "postalCode": "N2N2Y5",
        "streetName": "STOKE",
        "streetDirectionId": null,
        "streetTypeId": "DR",
        "placeName": "KITCHENER",
        "streetNameDisplayText": "STOKE DR, KITCHENER"
      }
    ]
  },
  {
    "postal": "N2N8L7",
    "result": []
  },
  {
    "postal": "N2N2A8",
    "result": [
      {
        "electoralDistricts": [
          {
            "election": null,
            "id": 48,
            "name": "Kitchener—Conestoga"
          }
        ],
        "pollDivisionIds": [
          10139265,
          10139279,
          10139263
        ],
        "postalCode": "N2N2A8",
        "streetName": "WESTHEIGHTS",
        "streetDirectionId": null,
        "streetTypeId": "DR",
        "placeName": "KITCHENER",
        "streetNameDisplayText": "WESTHEIGHTS DR, KITCHENER"
      }
    ]
  },
  {
    "postal": "N2N2K9",
    "result": [
      {
        "electoralDistricts": [
          {
            "election": null,
            "id": 48,
            "name": "Kitchener—Conestoga"
          }
        ],
        "pollDivisionIds": [
          10139267
        ],
        "postalCode": "N2N2K9",
        "streetName": "BENT WILLOW",
        "streetDirectionId": null,
        "streetTypeId": "DR",
        "placeName": "KITCHENER",
        "streetNameDisplayText": "BENT WILLOW DR, KITCHENER"
      }
    ]
  },
  {
    "postal": "N2N3E5",
    "result": [
      {
        "electoralDistricts": [
          {
            "election": null,
            "id": 48,
            "name": "Kitchener—Conestoga"
          }
        ],
        "pollDivisionIds": [
          10139262
        ],
        "postalCode": "N2N3E5",
        "streetName": "BANKSIDE",
        "streetDirectionId": null,
        "streetTypeId": "CRES",
        "placeName": "KITCHENER",
        "streetNameDisplayText": "BANKSIDE CRES, KITCHENER"
      },
      {
        "electoralDistricts": [
          {
            "election": null,
            "id": 48,
            "name": "Kitchener—Conestoga"
          }
        ],
        "pollDivisionIds": [
          10139262
        ],
        "postalCode": "N2N3E5",
        "streetName": "BANKSIDE",
        "streetDirectionId": null,
        "streetTypeId": "DR",
        "placeName": "KITCHENER",
        "streetNameDisplayText": "BANKSIDE DR, KITCHENER"
      }
    ]
  },
  {
    "postal": "N2N8N6",
    "result": []
  },
  {
    "postal": "N2N8J4",
    "result": []
  },
  {
    "postal": "N2N4R7",
    "result": []
  },
  {
    "postal": "N2N9K1",
    "result": []
  },
  {
    "postal": "N2N8E1",
    "result": []
  },
  {
    "postal": "N2N0R1",
    "result": []
  },
  {
    "postal": "N2N4J3",
    "result": []
  },
  {
    "postal": "N2N7E7",
    "result": []
  },
  {
    "postal": "N2N0J0",
    "result": []
  },
  {
    "postal": "N2N7R8",
    "result": []
  },
  {
    "postal": "N2N9X0",
    "result": []
  },
  {
    "postal": "N2N7P6",
    "result": []
  },
  {
    "postal": "N2N0R7",
    "result": []
  },
  {
    "postal": "N2N5W1",
    "result": []
  },
  {
    "postal": "N2N0K4",
    "result": []
  },
  {
    "postal": "N2N7N9",
    "result": []
  },
  {
    "postal": "N2N1N0",
    "result": []
  },
  {
    "postal": "N2N6P3",
    "result": []
  },
  {
    "postal": "N2N5A1",
    "result": []
  },
  {
    "postal": "N2N9M9",
    "result": []
  },
  {
    "postal": "N2N7T6",
    "result": []
  },
  {
    "postal": "N2N3X0",
    "result": []
  },
  {
    "postal": "N2N2T0",
    "result": []
  },
  {
    "postal": "N2N5X9",
    "result": []
  },
  {
    "postal": "N2N2R3",
    "result": [
      {
        "electoralDistricts": [
          {
            "election": null,
            "id": 48,
            "name": "Kitchener—Conestoga"
          }
        ],
        "pollDivisionIds": [
          10139263
        ],
        "postalCode": "N2N2R3",
        "streetName": "LANARK",
        "streetDirectionId": null,
        "streetTypeId": "CRT",
        "placeName": "KITCHENER",
        "streetNameDisplayText": "LANARK CRT, KITCHENER"
      }
    ]
  },
  {
    "postal": "N2N5N2",
    "result": []
  },
  {
    "postal": "N2N4Y7",
    "result": []
  },
  {
    "postal": "N2N7M0",
    "result": []
  },
  {
    "postal": "N2N8P3",
    "result": []
  },
  {
    "postal": "N2N3N3",
    "result": [
      {
        "electoralDistricts": [
          {
            "election": null,
            "id": 48,
            "name": "Kitchener—Conestoga"
          }
        ],
        "pollDivisionIds": [
          10139261,
          10139262
        ],
        "postalCode": "N2N3N3",
        "streetName": "HIDDEN CREEK",
        "streetDirectionId": null,
        "streetTypeId": "DR",
        "placeName": "KITCHENER",
        "streetNameDisplayText": "HIDDEN CREEK DR, KITCHENER"
      },
      {
        "electoralDistricts": [
          {
            "election": null,
            "id": 48,
            "name": "Kitchener—Conestoga"
          }
        ],
        "pollDivisionIds": [
          10139262
        ],
        "postalCode": "N2N3N3",
        "streetName": "HOLLYRIDGE",
        "streetDirectionId": null,
        "streetTypeId": "CRES",
        "placeName": "KITCHENER",
        "streetNameDisplayText": "HOLLYRIDGE CRES, KITCHENER"
      }
    ]
  },
  {
    "postal": "N2N7S3",
    "result": []
  },
  {
    "postal": "N2N3V9",
    "result": []
  },
  {
    "postal": "N2N9N7",
    "result": []
  },
  {
    "postal": "N2N0G4",
    "result": []
  },
  {
    "postal": "N2N2E2",
    "result": [
      {
        "electoralDistricts": [
          {
            "election": null,
            "id": 48,
            "name": "Kitchener—Conestoga"
          }
        ],
        "pollDivisionIds": [
          10139267
        ],
        "postalCode": "N2N2E2",
        "streetName": "HIGHVIEW",
        "streetDirectionId": null,
        "streetTypeId": "DR",
        "placeName": "KITCHENER",
        "streetNameDisplayText": "HIGHVIEW DR, KITCHENER"
      }
    ]
  },
  {
    "postal": "N2N7W8",
    "result": []
  },
  {
    "postal": "N2N7M5",
    "result": []
  },
  {
    "postal": "N2N5W8",
    "result": []
  },
  {
    "postal": "N2N5E5",
    "result": []
  },
  {
    "postal": "N2N1P9",
    "result": [
      {
        "electoralDistricts": [
          {
            "election": null,
            "id": 48,
            "name": "Kitchener—Conestoga"
          }
        ],
        "pollDivisionIds": [
          10139266
        ],
        "postalCode": "N2N1P9",
        "streetName": "RED MAPLE",
        "streetDirectionId": null,
        "streetTypeId": "PL",
        "placeName": "KITCHENER",
        "streetNameDisplayText": "RED MAPLE PL, KITCHENER"
      }
    ]
  },
  {
    "postal": "N2N8V8",
    "result": []
  },
  {
    "postal": "N2N9G8",
    "result": []
  },
  {
    "postal": "N2N8H9",
    "result": []
  },
  {
    "postal": "N2N1Z1",
    "result": [
      {
        "electoralDistricts": [
          {
            "election": null,
            "id": 48,
            "name": "Kitchener—Conestoga"
          }
        ],
        "pollDivisionIds": [
          10139266
        ],
        "postalCode": "N2N1Z1",
        "streetName": "HOMESTEAD",
        "streetDirectionId": null,
        "streetTypeId": "PL",
        "placeName": "KITCHENER",
        "streetNameDisplayText": "HOMESTEAD PL, KITCHENER"
      }
    ]
  },
  {
    "postal": "N2N8M3",
    "result": []
  },
  {
    "postal": "N2N5H6",
    "result": []
  },
  {
    "postal": "N2N7W7",
    "result": []
  },
  {
    "postal": "N2N4L0",
    "result": []
  },
  {
    "postal": "N2N2N1",
    "result": [
      {
        "electoralDistricts": [
          {
            "election": null,
            "id": 48,
            "name": "Kitchener—Conestoga"
          }
        ],
        "pollDivisionIds": [
          10139267
        ],
        "postalCode": "N2N2N1",
        "streetName": "STONEHENGE",
        "streetDirectionId": null,
        "streetTypeId": "PL",
        "placeName": "KITCHENER",
        "streetNameDisplayText": "STONEHENGE PL, KITCHENER"
      },
      {
        "electoralDistricts": [
          {
            "election": null,
            "id": 48,
            "name": "Kitchener—Conestoga"
          }
        ],
        "pollDivisionIds": [
          10139267
        ],
        "postalCode": "N2N2N1",
        "streetName": "YELLOW BIRCH",
        "streetDirectionId": null,
        "streetTypeId": "DR",
        "placeName": "KITCHENER",
        "streetNameDisplayText": "YELLOW BIRCH DR, KITCHENER"
      }
    ]
  },
  {
    "postal": "N2N2H4",
    "result": [
      {
        "electoralDistricts": [
          {
            "election": null,
            "id": 48,
            "name": "Kitchener—Conestoga"
          }
        ],
        "pollDivisionIds": [
          10139261
        ],
        "postalCode": "N2N2H4",
        "streetName": "LENNOX",
        "streetDirectionId": null,
        "streetTypeId": "CRES",
        "placeName": "KITCHENER",
        "streetNameDisplayText": "LENNOX CRES, KITCHENER"
      }
    ]
  },
  {
    "postal": "N2N5C8",
    "result": []
  },
  {
    "postal": "N2N8B0",
    "result": []
  },
  {
    "postal": "N2N1T4",
    "result": [
      {
        "electoralDistricts": [
          {
            "election": null,
            "id": 48,
            "name": "Kitchener—Conestoga"
          }
        ],
        "pollDivisionIds": [
          10139264
        ],
        "postalCode": "N2N1T4",
        "streetName": "ROLLING MEADOWS",
        "streetDirectionId": null,
        "streetTypeId": "DR",
        "placeName": "KITCHENER",
        "streetNameDisplayText": "ROLLING MEADOWS DR, KITCHENER"
      }
    ]
  },
  {
    "postal": "N2N7N7",
    "result": []
  },
  {
    "postal": "N2N4L3",
    "result": []
  },
  {
    "postal": "N2N2N2",
    "result": [
      {
        "electoralDistricts": [
          {
            "election": null,
            "id": 48,
            "name": "Kitchener—Conestoga"
          }
        ],
        "pollDivisionIds": [
          10139267,
          10139266
        ],
        "postalCode": "N2N2N2",
        "streetName": "HODDLE",
        "streetDirectionId": null,
        "streetTypeId": "CRES",
        "placeName": "KITCHENER",
        "streetNameDisplayText": "HODDLE CRES, KITCHENER"
      },
      {
        "electoralDistricts": [
          {
            "election": null,
            "id": 48,
            "name": "Kitchener—Conestoga"
          }
        ],
        "pollDivisionIds": [
          10139267
        ],
        "postalCode": "N2N2N2",
        "streetName": "YELLOW BIRCH",
        "streetDirectionId": null,
        "streetTypeId": "DR",
        "placeName": "KITCHENER",
        "streetNameDisplayText": "YELLOW BIRCH DR, KITCHENER"
      }
    ]
  },
  {
    "postal": "N2N4N8",
    "result": []
  },
  {
    "postal": "N2N3M5",
    "result": [
      {
        "electoralDistricts": [
          {
            "election": null,
            "id": 48,
            "name": "Kitchener—Conestoga"
          }
        ],
        "pollDivisionIds": [
          10139260
        ],
        "postalCode": "N2N3M5",
        "streetName": "GLASGOW",
        "streetDirectionId": null,
        "streetTypeId": "ST",
        "placeName": "KITCHENER",
        "streetNameDisplayText": "GLASGOW ST, KITCHENER"
      }
    ]
  },
  {
    "postal": "N2N6H7",
    "result": []
  },
  {
    "postal": "N2N8Y8",
    "result": []
  },
  {
    "postal": "N2N5R9",
    "result": []
  },
  {
    "postal": "N2N8G3",
    "result": []
  },
  {
    "postal": "N2N4N7",
    "result": []
  },
  {
    "postal": "N2N0B9",
    "result": [
      {
        "electoralDistricts": [
          {
            "election": null,
            "id": 48,
            "name": "Kitchener—Conestoga"
          }
        ],
        "pollDivisionIds": [
          10139260
        ],
        "postalCode": "N2N0B9",
        "streetName": "COUNTRYSTONE",
        "streetDirectionId": null,
        "streetTypeId": "DR",
        "placeName": "KITCHENER",
        "streetNameDisplayText": "COUNTRYSTONE DR, KITCHENER"
      }
    ]
  },
  {
    "postal": "N2N9K7",
    "result": []
  },
  {
    "postal": "N2N9K9",
    "result": []
  },
  {
    "postal": "N2N3Z2",
    "result": []
  },
  {
    "postal": "N2N6W7",
    "result": []
  },
  {
    "postal": "N2N0P1",
    "result": []
  },
  {
    "postal": "N2N3A0",
    "result": []
  },
  {
    "postal": "N2N8L9",
    "result": []
  },
  {
    "postal": "N2N6X0",
    "result": []
  },
  {
    "postal": "N2N3E9",
    "result": [
      {
        "electoralDistricts": [
          {
            "election": null,
            "id": 48,
            "name": "Kitchener—Conestoga"
          }
        ],
        "pollDivisionIds": [
          10139261
        ],
        "postalCode": "N2N3E9",
        "streetName": "EASTFOREST",
        "streetDirectionId": null,
        "streetTypeId": "TRAIL",
        "placeName": "KITCHENER",
        "streetNameDisplayText": "EASTFOREST TRAIL, KITCHENER"
      },
      {
        "electoralDistricts": [
          {
            "election": null,
            "id": 48,
            "name": "Kitchener—Conestoga"
          }
        ],
        "pollDivisionIds": [
          10139261
        ],
        "postalCode": "N2N3E9",
        "streetName": "WILDLARK",
        "streetDirectionId": null,
        "streetTypeId": "CRES",
        "placeName": "KITCHENER",
        "streetNameDisplayText": "WILDLARK CRES, KITCHENER"
      }
    ]
  },
  {
    "postal": "N2N0S5",
    "result": []
  },
  {
    "postal": "N2N1A2",
    "result": [
      {
        "electoralDistricts": [
          {
            "election": null,
            "id": 48,
            "name": "Kitchener—Conestoga"
          }
        ],
        "pollDivisionIds": [
          10139265
        ],
        "postalCode": "N2N1A2",
        "streetName": "MCGARRY",
        "streetDirectionId": null,
        "streetTypeId": "DR",
        "placeName": "KITCHENER",
        "streetNameDisplayText": "MCGARRY DR, KITCHENER"
      }
    ]
  },
  {
    "postal": "N2N5V8",
    "result": []
  },
  {
    "postal": "N2N8C5",
    "result": []
  },
  {
    "postal": "N2N6N0",
    "result": []
  },
  {
    "postal": "N2N9E6",
    "result": []
  },
  {
    "postal": "N2N5J7",
    "result": []
  },
  {
    "postal": "N2N2R2",
    "result": [
      {
        "electoralDistricts": [
          {
            "election": null,
            "id": 48,
            "name": "Kitchener—Conestoga"
          }
        ],
        "pollDivisionIds": [
          10139263
        ],
        "postalCode": "N2N2R2",
        "streetName": "MONTANA",
        "streetDirectionId": null,
        "streetTypeId": "CRES",
        "placeName": "KITCHENER",
        "streetNameDisplayText": "MONTANA CRES, KITCHENER"
      }
    ]
  },
  {
    "postal": "N2N0P5",
    "result": []
  },
  {
    "postal": "N2N5A7",
    "result": []
  },
  {
    "postal": "N2N1G1",
    "result": [
      {
        "electoralDistricts": [
          {
            "election": null,
            "id": 48,
            "name": "Kitchener—Conestoga"
          }
        ],
        "pollDivisionIds": [
          10139265
        ],
        "postalCode": "N2N1G1",
        "streetName": "GLEN PARK",
        "streetDirectionId": null,
        "streetTypeId": "CRES",
        "placeName": "KITCHENER",
        "streetNameDisplayText": "GLEN PARK CRES, KITCHENER"
      }
    ]
  },
  {
    "postal": "N2N9R6",
    "result": []
  },
  {
    "postal": "N2N4Z9",
    "result": []
  },
  {
    "postal": "N2N1V5",
    "result": [
      {
        "electoralDistricts": [
          {
            "election": null,
            "id": 48,
            "name": "Kitchener—Conestoga"
          }
        ],
        "pollDivisionIds": [
          10139264
        ],
        "postalCode": "N2N1V5",
        "streetName": "ROLLING MEADOWS",
        "streetDirectionId": null,
        "streetTypeId": "DR",
        "placeName": "KITCHENER",
        "streetNameDisplayText": "ROLLING MEADOWS DR, KITCHENER"
      }
    ]
  },
  {
    "postal": "N2N9Y5",
    "result": []
  },
  {
    "postal": "N2N1P2",
    "result": [
      {
        "electoralDistricts": [
          {
            "election": null,
            "id": 48,
            "name": "Kitchener—Conestoga"
          }
        ],
        "pollDivisionIds": [
          10139265
        ],
        "postalCode": "N2N1P2",
        "streetName": "WESTHEIGHTS",
        "streetDirectionId": null,
        "streetTypeId": "DR",
        "placeName": "KITCHENER",
        "streetNameDisplayText": "WESTHEIGHTS DR, KITCHENER"
      }
    ]
  },
  {
    "postal": "N2N5X0",
    "result": []
  },
  {
    "postal": "N2N7B8",
    "result": []
  },
  {
    "postal": "N2N0C6",
    "result": []
  },
  {
    "postal": "N2N6G1",
    "result": []
  },
  {
    "postal": "N2N3K3",
    "result": [
      {
        "electoralDistricts": [
          {
            "election": null,
            "id": 48,
            "name": "Kitchener—Conestoga"
          }
        ],
        "pollDivisionIds": [
          10139262
        ],
        "postalCode": "N2N3K3",
        "streetName": "BANKSIDE",
        "streetDirectionId": null,
        "streetTypeId": "DR",
        "placeName": "KITCHENER",
        "streetNameDisplayText": "BANKSIDE DR, KITCHENER"
      }
    ]
  },
  {
    "postal": "N2N9R0",
    "result": []
  },
  {
    "postal": "N2N4R8",
    "result": []
  },
  {
    "postal": "N2N5P9",
    "result": []
  },
  {
    "postal": "N2N8N4",
    "result": []
  },
  {
    "postal": "N2N8H4",
    "result": []
  },
  {
    "postal": "N2N4V1",
    "result": []
  },
  {
    "postal": "N2N1K5",
    "result": [
      {
        "electoralDistricts": [
          {
            "election": null,
            "id": 48,
            "name": "Kitchener—Conestoga"
          }
        ],
        "pollDivisionIds": [
          10139265
        ],
        "postalCode": "N2N1K5",
        "streetName": "AUTUMN HILL",
        "streetDirectionId": null,
        "streetTypeId": "CRES",
        "placeName": "KITCHENER",
        "streetNameDisplayText": "AUTUMN HILL CRES, KITCHENER"
      }
    ]
  },
  {
    "postal": "N2N1Z5",
    "result": [
      {
        "electoralDistricts": [
          {
            "election": null,
            "id": 48,
            "name": "Kitchener—Conestoga"
          }
        ],
        "pollDivisionIds": [
          10139261
        ],
        "postalCode": "N2N1Z5",
        "streetName": "STOKE",
        "streetDirectionId": null,
        "streetTypeId": "CRT",
        "placeName": "KITCHENER",
        "streetNameDisplayText": "STOKE CRT, KITCHENER"
      }
    ]
  },
  {
    "postal": "N2N9L9",
    "result": []
  },
  {
    "postal": "N2N5L2",
    "result": []
  },
  {
    "postal": "N2N0M2",
    "result": []
  },
  {
    "postal": "N2N1K8",
    "result": [
      {
        "electoralDistricts": [
          {
            "election": null,
            "id": 48,
            "name": "Kitchener—Conestoga"
          }
        ],
        "pollDivisionIds": [
          10139265
        ],
        "postalCode": "N2N1K8",
        "streetName": "AUTUMN HILL",
        "streetDirectionId": null,
        "streetTypeId": "CRES",
        "placeName": "KITCHENER",
        "streetNameDisplayText": "AUTUMN HILL CRES, KITCHENER"
      }
    ]
  },
  {
    "postal": "N2N3M7",
    "result": [
      {
        "electoralDistricts": [
          {
            "election": null,
            "id": 48,
            "name": "Kitchener—Conestoga"
          }
        ],
        "pollDivisionIds": [
          10139262
        ],
        "postalCode": "N2N3M7",
        "streetName": "HUCK",
        "streetDirectionId": null,
        "streetTypeId": "CRES",
        "placeName": "KITCHENER",
        "streetNameDisplayText": "HUCK CRES, KITCHENER"
      },
      {
        "electoralDistricts": [
          {
            "election": null,
            "id": 48,
            "name": "Kitchener—Conestoga"
          }
        ],
        "pollDivisionIds": [
          10139262
        ],
        "postalCode": "N2N3M7",
        "streetName": "KELLER",
        "streetDirectionId": null,
        "streetTypeId": "CRES",
        "placeName": "KITCHENER",
        "streetNameDisplayText": "KELLER CRES, KITCHENER"
      }
    ]
  },
  {
    "postal": "N2N1B2",
    "result": [
      {
        "electoralDistricts": [
          {
            "election": null,
            "id": 48,
            "name": "Kitchener—Conestoga"
          }
        ],
        "pollDivisionIds": [
          10139265
        ],
        "postalCode": "N2N1B2",
        "streetName": "FORESTWOOD",
        "streetDirectionId": null,
        "streetTypeId": "DR",
        "placeName": "KITCHENER",
        "streetNameDisplayText": "FORESTWOOD DR, KITCHENER"
      }
    ]
  },
  {
    "postal": "N2N0H9",
    "result": []
  },
  {
    "postal": "N2N8M4",
    "result": []
  },
  {
    "postal": "N2N2M5",
    "result": [
      {
        "electoralDistricts": [
          {
            "election": null,
            "id": 48,
            "name": "Kitchener—Conestoga"
          }
        ],
        "pollDivisionIds": [
          10139267
        ],
        "postalCode": "N2N2M5",
        "streetName": "STONEHENGE",
        "streetDirectionId": null,
        "streetTypeId": "PL",
        "placeName": "KITCHENER",
        "streetNameDisplayText": "STONEHENGE PL, KITCHENER"
      }
    ]
  },
  {
    "postal": "N2N0T9",
    "result": []
  },
  {
    "postal": "N2N3P1",
    "result": [
      {
        "electoralDistricts": [
          {
            "election": null,
            "id": 48,
            "name": "Kitchener—Conestoga"
          }
        ],
        "pollDivisionIds": [
          10139262
        ],
        "postalCode": "N2N3P1",
        "streetName": "WESTMEADOW",
        "streetDirectionId": null,
        "streetTypeId": "DR",
        "placeName": "KITCHENER",
        "streetNameDisplayText": "WESTMEADOW DR, KITCHENER"
      }
    ]
  },
  {
    "postal": "N2N1R6",
    "result": [
      {
        "electoralDistricts": [
          {
            "election": null,
            "id": 48,
            "name": "Kitchener—Conestoga"
          }
        ],
        "pollDivisionIds": [
          10139266
        ],
        "postalCode": "N2N1R6",
        "streetName": "ROYAL ORCHARD",
        "streetDirectionId": null,
        "streetTypeId": "DR",
        "placeName": "KITCHENER",
        "streetNameDisplayText": "ROYAL ORCHARD DR, KITCHENER"
      }
    ]
  },
  {
    "postal": "N2N9V5",
    "result": []
  },
  {
    "postal": "N2N9T0",
    "result": []
  },
  {
    "postal": "N2N0A9",
    "result": [
      {
        "electoralDistricts": [
          {
            "election": null,
            "id": 48,
            "name": "Kitchener—Conestoga"
          }
        ],
        "pollDivisionIds": [
          10139267
        ],
        "postalCode": "N2N0A9",
        "streetName": "TRUSSLER",
        "streetDirectionId": null,
        "streetTypeId": "RD",
        "placeName": "KITCHENER",
        "streetNameDisplayText": "TRUSSLER RD, KITCHENER"
      }
    ]
  },
  {
    "postal": "N2N1M3",
    "result": [
      {
        "electoralDistricts": [
          {
            "election": null,
            "id": 48,
            "name": "Kitchener—Conestoga"
          }
        ],
        "pollDivisionIds": [
          10139264
        ],
        "postalCode": "N2N1M3",
        "streetName": "WESTHEIGHTS",
        "streetDirectionId": null,
        "streetTypeId": "DR",
        "placeName": "KITCHENER",
        "streetNameDisplayText": "WESTHEIGHTS DR, KITCHENER"
      }
    ]
  },
  {
    "postal": "N2N1W8",
    "result": [
      {
        "electoralDistricts": [
          {
            "election": null,
            "id": 48,
            "name": "Kitchener—Conestoga"
          }
        ],
        "pollDivisionIds": [
          10139267
        ],
        "postalCode": "N2N1W8",
        "streetName": "HIGHVIEW",
        "streetDirectionId": null,
        "streetTypeId": "PL",
        "placeName": "KITCHENER",
        "streetNameDisplayText": "HIGHVIEW PL, KITCHENER"
      }
    ]
  },
  {
    "postal": "N2N9J1",
    "result": []
  },
  {
    "postal": "N2N8N5",
    "result": []
  },
  {
    "postal": "N2N5X1",
    "result": []
  },
  {
    "postal": "N2N6S2",
    "result": []
  },
  {
    "postal": "N2N2A2",
    "result": [
      {
        "electoralDistricts": [
          {
            "election": null,
            "id": 48,
            "name": "Kitchener—Conestoga"
          }
        ],
        "pollDivisionIds": [
          10139266
        ],
        "postalCode": "N2N2A2",
        "streetName": "OLD FOREST",
        "streetDirectionId": null,
        "streetTypeId": "CRES",
        "placeName": "KITCHENER",
        "streetNameDisplayText": "OLD FOREST CRES, KITCHENER"
      }
    ]
  },
  {
    "postal": "N2N6A6",
    "result": []
  },
  {
    "postal": "N2N0S3",
    "result": []
  },
  {
    "postal": "N2N3E7",
    "result": [
      {
        "electoralDistricts": [
          {
            "election": null,
            "id": 48,
            "name": "Kitchener—Conestoga"
          }
        ],
        "pollDivisionIds": [
          10139261
        ],
        "postalCode": "N2N3E7",
        "streetName": "EASTFOREST",
        "streetDirectionId": null,
        "streetTypeId": "TRAIL",
        "placeName": "KITCHENER",
        "streetNameDisplayText": "EASTFOREST TRAIL, KITCHENER"
      },
      {
        "electoralDistricts": [
          {
            "election": null,
            "id": 48,
            "name": "Kitchener—Conestoga"
          }
        ],
        "pollDivisionIds": [
          10139261
        ],
        "postalCode": "N2N3E7",
        "streetName": "OLIVER",
        "streetDirectionId": null,
        "streetTypeId": "CRT",
        "placeName": "KITCHENER",
        "streetNameDisplayText": "OLIVER CRT, KITCHENER"
      }
    ]
  },
  {
    "postal": "N2N5R7",
    "result": []
  },
  {
    "postal": "N2N3R6",
    "result": [
      {
        "electoralDistricts": [
          {
            "election": null,
            "id": 48,
            "name": "Kitchener—Conestoga"
          }
        ],
        "pollDivisionIds": [
          10139260
        ],
        "postalCode": "N2N3R6",
        "streetName": "IRON GATE",
        "streetDirectionId": null,
        "streetTypeId": "ST",
        "placeName": "KITCHENER",
        "streetNameDisplayText": "IRON GATE ST, KITCHENER"
      }
    ]
  },
  {
    "postal": "N2N6K4",
    "result": []
  },
  {
    "postal": "N2N2W5",
    "result": [
      {
        "electoralDistricts": [
          {
            "election": null,
            "id": 48,
            "name": "Kitchener—Conestoga"
          }
        ],
        "pollDivisionIds": [
          10139264
        ],
        "postalCode": "N2N2W5",
        "streetName": "COVINGTON",
        "streetDirectionId": null,
        "streetTypeId": "CRES",
        "placeName": "KITCHENER",
        "streetNameDisplayText": "COVINGTON CRES, KITCHENER"
      }
    ]
  },
  {
    "postal": "N2N8W4",
    "result": []
  },
  {
    "postal": "N2N9C2",
    "result": []
  },
  {
    "postal": "N2N2C0",
    "result": []
  },
  {
    "postal": "N2N0E1",
    "result": []
  },
  {
    "postal": "N2N1K9",
    "result": [
      {
        "electoralDistricts": [
          {
            "election": null,
            "id": 48,
            "name": "Kitchener—Conestoga"
          }
        ],
        "pollDivisionIds": [
          10139265
        ],
        "postalCode": "N2N1K9",
        "streetName": "AUTUMN HILL",
        "streetDirectionId": null,
        "streetTypeId": "CRES",
        "placeName": "KITCHENER",
        "streetNameDisplayText": "AUTUMN HILL CRES, KITCHENER"
      }
    ]
  },
  {
    "postal": "N2N1G7",
    "result": [
      {
        "electoralDistricts": [
          {
            "election": null,
            "id": 48,
            "name": "Kitchener—Conestoga"
          }
        ],
        "pollDivisionIds": [
          10139265
        ],
        "postalCode": "N2N1G7",
        "streetName": "RAMBLEWOOD",
        "streetDirectionId": null,
        "streetTypeId": "WAY",
        "placeName": "KITCHENER",
        "streetNameDisplayText": "RAMBLEWOOD WAY, KITCHENER"
      }
    ]
  },
  {
    "postal": "N2N4E9",
    "result": []
  },
  {
    "postal": "N2N9P0",
    "result": []
  },
  {
    "postal": "N2N5H3",
    "result": []
  },
  {
    "postal": "N2N9X6",
    "result": []
  },
  {
    "postal": "N2N5N7",
    "result": []
  },
  {
    "postal": "N2N5A6",
    "result": []
  },
  {
    "postal": "N2N4M0",
    "result": []
  },
  {
    "postal": "N2N3V6",
    "result": []
  },
  {
    "postal": "N2N1L7",
    "result": [
      {
        "electoralDistricts": [
          {
            "election": null,
            "id": 48,
            "name": "Kitchener—Conestoga"
          }
        ],
        "pollDivisionIds": [
          10139263
        ],
        "postalCode": "N2N1L7",
        "streetName": "ELM RIDGE",
        "streetDirectionId": null,
        "streetTypeId": "DR",
        "placeName": "KITCHENER",
        "streetNameDisplayText": "ELM RIDGE DR, KITCHENER"
      }
    ]
  },
  {
    "postal": "N2N2P9",
    "result": [
      {
        "electoralDistricts": [
          {
            "election": null,
            "id": 48,
            "name": "Kitchener—Conestoga"
          }
        ],
        "pollDivisionIds": [
          10139263
        ],
        "postalCode": "N2N2P9",
        "streetName": "BLACKWELL",
        "streetDirectionId": null,
        "streetTypeId": "DR",
        "placeName": "KITCHENER",
        "streetNameDisplayText": "BLACKWELL DR, KITCHENER"
      },
      {
        "electoralDistricts": [
          {
            "election": null,
            "id": 48,
            "name": "Kitchener—Conestoga"
          }
        ],
        "pollDivisionIds": [
          10139263
        ],
        "postalCode": "N2N2P9",
        "streetName": "LANARK",
        "streetDirectionId": null,
        "streetTypeId": "CRES",
        "placeName": "KITCHENER",
        "streetNameDisplayText": "LANARK CRES, KITCHENER"
      }
    ]
  },
  {
    "postal": "N2N5T4",
    "result": []
  },
  {
    "postal": "N2N5Z1",
    "result": []
  },
  {
    "postal": "N2N2X0",
    "result": []
  },
  {
    "postal": "N2N6Z2",
    "result": []
  },
  {
    "postal": "N2N0E0",
    "result": []
  },
  {
    "postal": "N2N3Z5",
    "result": []
  },
  {
    "postal": "N2N8H3",
    "result": []
  },
  {
    "postal": "N2N7S6",
    "result": []
  },
  {
    "postal": "N2N4C1",
    "result": []
  },
  {
    "postal": "N2N3K2",
    "result": [
      {
        "electoralDistricts": [
          {
            "election": null,
            "id": 48,
            "name": "Kitchener—Conestoga"
          }
        ],
        "pollDivisionIds": [
          10139262
        ],
        "postalCode": "N2N3K2",
        "streetName": "BANKSIDE",
        "streetDirectionId": null,
        "streetTypeId": "DR",
        "placeName": "KITCHENER",
        "streetNameDisplayText": "BANKSIDE DR, KITCHENER"
      }
    ]
  },
  {
    "postal": "N2N1Y5",
    "result": [
      {
        "electoralDistricts": [
          {
            "election": null,
            "id": 48,
            "name": "Kitchener—Conestoga"
          }
        ],
        "pollDivisionIds": [
          10139266
        ],
        "postalCode": "N2N1Y5",
        "streetName": "SUGAR MAPLE",
        "streetDirectionId": null,
        "streetTypeId": "ST",
        "placeName": "KITCHENER",
        "streetNameDisplayText": "SUGAR MAPLE ST, KITCHENER"
      }
    ]
  },
  {
    "postal": "N2N6P6",
    "result": []
  },
  {
    "postal": "N2N3N9",
    "result": [
      {
        "electoralDistricts": [
          {
            "election": null,
            "id": 48,
            "name": "Kitchener—Conestoga"
          }
        ],
        "pollDivisionIds": [
          10139262
        ],
        "postalCode": "N2N3N9",
        "streetName": "HIGHGATE",
        "streetDirectionId": null,
        "streetTypeId": "CRT",
        "placeName": "KITCHENER",
        "streetNameDisplayText": "HIGHGATE CRT, KITCHENER"
      }
    ]
  },
  {
    "postal": "N2N3W2",
    "result": []
  },
  {
    "postal": "N2N6H8",
    "result": []
  },
  {
    "postal": "N2N9T3",
    "result": []
  },
  {
    "postal": "N2N5L9",
    "result": []
  },
  {
    "postal": "N2N7X7",
    "result": []
  },
  {
    "postal": "N2N3J5",
    "result": [
      {
        "electoralDistricts": [
          {
            "election": null,
            "id": 48,
            "name": "Kitchener—Conestoga"
          }
        ],
        "pollDivisionIds": [
          10139262
        ],
        "postalCode": "N2N3J5",
        "streetName": "DAWN RIDGE",
        "streetDirectionId": null,
        "streetTypeId": "CRT",
        "placeName": "KITCHENER",
        "streetNameDisplayText": "DAWN RIDGE CRT, KITCHENER"
      },
      {
        "electoralDistricts": [
          {
            "election": null,
            "id": 48,
            "name": "Kitchener—Conestoga"
          }
        ],
        "pollDivisionIds": [
          10139262
        ],
        "postalCode": "N2N3J5",
        "streetName": "DAWN RIDGE",
        "streetDirectionId": null,
        "streetTypeId": "DR",
        "placeName": "KITCHENER",
        "streetNameDisplayText": "DAWN RIDGE DR, KITCHENER"
      }
    ]
  },
  {
    "postal": "N2N4J5",
    "result": []
  },
  {
    "postal": "N2N6J2",
    "result": []
  },
  {
    "postal": "N2N5V6",
    "result": []
  },
  {
    "postal": "N2N3N2",
    "result": [
      {
        "electoralDistricts": [
          {
            "election": null,
            "id": 48,
            "name": "Kitchener—Conestoga"
          }
        ],
        "pollDivisionIds": [
          10139261,
          10139262
        ],
        "postalCode": "N2N3N2",
        "streetName": "HIDDEN CREEK",
        "streetDirectionId": null,
        "streetTypeId": "DR",
        "placeName": "KITCHENER",
        "streetNameDisplayText": "HIDDEN CREEK DR, KITCHENER"
      }
    ]
  },
  {
    "postal": "N2N3B1",
    "result": [
      {
        "electoralDistricts": [
          {
            "election": null,
            "id": 48,
            "name": "Kitchener—Conestoga"
          }
        ],
        "pollDivisionIds": [
          10139261,
          10139262
        ],
        "postalCode": "N2N3B1",
        "streetName": "GREENGABLE",
        "streetDirectionId": null,
        "streetTypeId": "WAY",
        "placeName": "KITCHENER",
        "streetNameDisplayText": "GREENGABLE WAY, KITCHENER"
      },
      {
        "electoralDistricts": [
          {
            "election": null,
            "id": 48,
            "name": "Kitchener—Conestoga"
          }
        ],
        "pollDivisionIds": [
          10139261
        ],
        "postalCode": "N2N3B1",
        "streetName": "WESTFOREST",
        "streetDirectionId": null,
        "streetTypeId": "TRAIL",
        "placeName": "KITCHENER",
        "streetNameDisplayText": "WESTFOREST TRAIL, KITCHENER"
      }
    ]
  },
  {
    "postal": "N2N8B5",
    "result": []
  },
  {
    "postal": "N2N0K1",
    "result": []
  },
  {
    "postal": "N2N7M7",
    "result": []
  },
  {
    "postal": "N2N2M2",
    "result": [
      {
        "electoralDistricts": [
          {
            "election": null,
            "id": 48,
            "name": "Kitchener—Conestoga"
          }
        ],
        "pollDivisionIds": [
          10139266,
          10139267
        ],
        "postalCode": "N2N2M2",
        "streetName": "YELLOW BIRCH",
        "streetDirectionId": null,
        "streetTypeId": "DR",
        "placeName": "KITCHENER",
        "streetNameDisplayText": "YELLOW BIRCH DR, KITCHENER"
      }
    ]
  },
  {
    "postal": "N2N9N3",
    "result": []
  },
  {
    "postal": "N2N4Y8",
    "result": []
  },
  {
    "postal": "N2N3V7",
    "result": []
  },
  {
    "postal": "N2N8Z1",
    "result": []
  },
  {
    "postal": "N2N7B3",
    "result": []
  },
  {
    "postal": "N2N3A8",
    "result": [
      {
        "electoralDistricts": [
          {
            "election": null,
            "id": 48,
            "name": "Kitchener—Conestoga"
          }
        ],
        "pollDivisionIds": [
          10139261
        ],
        "postalCode": "N2N3A8",
        "streetName": "LYNNVALLEY",
        "streetDirectionId": null,
        "streetTypeId": "CRES",
        "placeName": "KITCHENER",
        "streetNameDisplayText": "LYNNVALLEY CRES, KITCHENER"
      },
      {
        "electoralDistricts": [
          {
            "election": null,
            "id": 48,
            "name": "Kitchener—Conestoga"
          }
        ],
        "pollDivisionIds": [
          10139261
        ],
        "postalCode": "N2N3A8",
        "streetName": "TRELAWNEY",
        "streetDirectionId": null,
        "streetTypeId": "ST",
        "placeName": "KITCHENER",
        "streetNameDisplayText": "TRELAWNEY ST, KITCHENER"
      },
      {
        "electoralDistricts": [
          {
            "election": null,
            "id": 48,
            "name": "Kitchener—Conestoga"
          }
        ],
        "pollDivisionIds": [
          10139261
        ],
        "postalCode": "N2N3A8",
        "streetName": "WESTFOREST",
        "streetDirectionId": null,
        "streetTypeId": "TRAIL",
        "placeName": "KITCHENER",
        "streetNameDisplayText": "WESTFOREST TRAIL, KITCHENER"
      }
    ]
  },
  {
    "postal": "N2N7V5",
    "result": []
  },
  {
    "postal": "N2N2T2",
    "result": [
      {
        "electoralDistricts": [
          {
            "election": null,
            "id": 48,
            "name": "Kitchener—Conestoga"
          }
        ],
        "pollDivisionIds": [
          10139264
        ],
        "postalCode": "N2N2T2",
        "streetName": "BLACKWELL",
        "streetDirectionId": null,
        "streetTypeId": "DR",
        "placeName": "KITCHENER",
        "streetNameDisplayText": "BLACKWELL DR, KITCHENER"
      },
      {
        "electoralDistricts": [
          {
            "election": null,
            "id": 48,
            "name": "Kitchener—Conestoga"
          }
        ],
        "pollDivisionIds": [
          10139264
        ],
        "postalCode": "N2N2T2",
        "streetName": "SPRUCEDALE",
        "streetDirectionId": null,
        "streetTypeId": "CRES",
        "placeName": "KITCHENER",
        "streetNameDisplayText": "SPRUCEDALE CRES, KITCHENER"
      },
      {
        "electoralDistricts": [
          {
            "election": null,
            "id": 48,
            "name": "Kitchener—Conestoga"
          }
        ],
        "pollDivisionIds": [
          10139264
        ],
        "postalCode": "N2N2T2",
        "streetName": "WEST ACRES",
        "streetDirectionId": null,
        "streetTypeId": "CRES",
        "placeName": "KITCHENER",
        "streetNameDisplayText": "WEST ACRES CRES, KITCHENER"
      }
    ]
  },
  {
    "postal": "N2N6L3",
    "result": []
  },
  {
    "postal": "N2N0L2",
    "result": []
  },
  {
    "postal": "N2N5Y8",
    "result": []
  },
  {
    "postal": "N2N0B8",
    "result": [
      {
        "electoralDistricts": [
          {
            "election": null,
            "id": 48,
            "name": "Kitchener—Conestoga"
          }
        ],
        "pollDivisionIds": [
          10139267
        ],
        "postalCode": "N2N0B8",
        "streetName": "RAUCH",
        "streetDirectionId": null,
        "streetTypeId": "CRT",
        "placeName": "KITCHENER",
        "streetNameDisplayText": "RAUCH CRT, KITCHENER"
      }
    ]
  },
  {
    "postal": "N2N6R5",
    "result": []
  },
  {
    "postal": "N2N8W6",
    "result": []
  },
  {
    "postal": "N2N8G6",
    "result": []
  },
  {
    "postal": "N2N6X3",
    "result": []
  },
  {
    "postal": "N2N7R7",
    "result": []
  },
  {
    "postal": "N2N4B6",
    "result": []
  },
  {
    "postal": "N2N3P9",
    "result": [
      {
        "electoralDistricts": [
          {
            "election": null,
            "id": 48,
            "name": "Kitchener—Conestoga"
          }
        ],
        "pollDivisionIds": [
          10139262
        ],
        "postalCode": "N2N3P9",
        "streetName": "WESTMEADOW",
        "streetDirectionId": null,
        "streetTypeId": "DR",
        "placeName": "KITCHENER",
        "streetNameDisplayText": "WESTMEADOW DR, KITCHENER"
      }
    ]
  },
  {
    "postal": "N2N2T3",
    "result": [
      {
        "electoralDistricts": [
          {
            "election": null,
            "id": 48,
            "name": "Kitchener—Conestoga"
          }
        ],
        "pollDivisionIds": [
          10139264
        ],
        "postalCode": "N2N2T3",
        "streetName": "SPRUCEDALE",
        "streetDirectionId": null,
        "streetTypeId": "CRES",
        "placeName": "KITCHENER",
        "streetNameDisplayText": "SPRUCEDALE CRES, KITCHENER"
      }
    ]
  },
  {
    "postal": "N2N1M4",
    "result": [
      {
        "electoralDistricts": [
          {
            "election": null,
            "id": 48,
            "name": "Kitchener—Conestoga"
          }
        ],
        "pollDivisionIds": [
          10139264
        ],
        "postalCode": "N2N1M4",
        "streetName": "WINDING",
        "streetDirectionId": null,
        "streetTypeId": "WAY",
        "placeName": "KITCHENER",
        "streetNameDisplayText": "WINDING WAY, KITCHENER"
      }
    ]
  },
  {
    "postal": "N2N0H1",
    "result": []
  },
  {
    "postal": "N2N9W3",
    "result": []
  },
  {
    "postal": "N2N6P1",
    "result": []
  },
  {
    "postal": "N2N7G2",
    "result": []
  },
  {
    "postal": "N2N4J9",
    "result": []
  },
  {
    "postal": "N2N9E4",
    "result": []
  },
  {
    "postal": "N2N8H0",
    "result": []
  },
  {
    "postal": "N2N4M7",
    "result": []
  },
  {
    "postal": "N2N2G9",
    "result": []
  },
  {
    "postal": "N2N8T2",
    "result": []
  },
  {
    "postal": "N2N7G7",
    "result": []
  },
  {
    "postal": "N2N4Z3",
    "result": []
  },
  {
    "postal": "N2N5B3",
    "result": []
  },
  {
    "postal": "N2N1S7",
    "result": [
      {
        "electoralDistricts": [
          {
            "election": null,
            "id": 48,
            "name": "Kitchener—Conestoga"
          }
        ],
        "pollDivisionIds": [
          10139266
        ],
        "postalCode": "N2N1S7",
        "streetName": "DRIFTWOOD",
        "streetDirectionId": null,
        "streetTypeId": "DR",
        "placeName": "KITCHENER",
        "streetNameDisplayText": "DRIFTWOOD DR, KITCHENER"
      }
    ]
  },
  {
    "postal": "N2N2N7",
    "result": [
      {
        "electoralDistricts": [
          {
            "election": null,
            "id": 48,
            "name": "Kitchener—Conestoga"
          }
        ],
        "pollDivisionIds": [
          10139264
        ],
        "postalCode": "N2N2N7",
        "streetName": "NEWBURY",
        "streetDirectionId": null,
        "streetTypeId": "DR",
        "placeName": "KITCHENER",
        "streetNameDisplayText": "NEWBURY DR, KITCHENER"
      }
    ]
  },
  {
    "postal": "N2N0H8",
    "result": []
  },
  {
    "postal": "N2N7Z4",
    "result": []
  },
  {
    "postal": "N2N7B1",
    "result": []
  },
  {
    "postal": "N2N7P8",
    "result": []
  },
  {
    "postal": "N2N7N0",
    "result": []
  },
  {
    "postal": "N2N3Y5",
    "result": []
  },
  {
    "postal": "N2N6K1",
    "result": []
  },
  {
    "postal": "N2N9X5",
    "result": []
  },
  {
    "postal": "N2N7S5",
    "result": []
  },
  {
    "postal": "N2N0A4",
    "result": [
      {
        "electoralDistricts": [
          {
            "election": null,
            "id": 48,
            "name": "Kitchener—Conestoga"
          }
        ],
        "pollDivisionIds": [
          10139262
        ],
        "postalCode": "N2N0A4",
        "streetName": "HUCK",
        "streetDirectionId": null,
        "streetTypeId": "CRES",
        "placeName": "KITCHENER",
        "streetNameDisplayText": "HUCK CRES, KITCHENER"
      }
    ]
  },
  {
    "postal": "N2N4T5",
    "result": []
  },
  {
    "postal": "N2N5K1",
    "result": []
  },
  {
    "postal": "N2N0Z9",
    "result": []
  },
  {
    "postal": "N2N7T2",
    "result": []
  },
  {
    "postal": "N2N1L5",
    "result": [
      {
        "electoralDistricts": [
          {
            "election": null,
            "id": 48,
            "name": "Kitchener—Conestoga"
          }
        ],
        "pollDivisionIds": [
          10139266
        ],
        "postalCode": "N2N1L5",
        "streetName": "WINDY WOOD",
        "streetDirectionId": null,
        "streetTypeId": "CRT",
        "placeName": "KITCHENER",
        "streetNameDisplayText": "WINDY WOOD CRT, KITCHENER"
      }
    ]
  },
  {
    "postal": "N2N3N5",
    "result": [
      {
        "electoralDistricts": [
          {
            "election": null,
            "id": 48,
            "name": "Kitchener—Conestoga"
          }
        ],
        "pollDivisionIds": [
          10139262
        ],
        "postalCode": "N2N3N5",
        "streetName": "HOLLYRIDGE",
        "streetDirectionId": null,
        "streetTypeId": "CRES",
        "placeName": "KITCHENER",
        "streetNameDisplayText": "HOLLYRIDGE CRES, KITCHENER"
      }
    ]
  },
  {
    "postal": "N2N6H4",
    "result": []
  },
  {
    "postal": "N2N5A5",
    "result": []
  },
  {
    "postal": "N2N3R9",
    "result": [
      {
        "electoralDistricts": [
          {
            "election": null,
            "id": 48,
            "name": "Kitchener—Conestoga"
          }
        ],
        "pollDivisionIds": [
          10139260
        ],
        "postalCode": "N2N3R9",
        "streetName": "COUNTRYSTONE",
        "streetDirectionId": null,
        "streetTypeId": "DR",
        "placeName": "KITCHENER",
        "streetNameDisplayText": "COUNTRYSTONE DR, KITCHENER"
      }
    ]
  },
  {
    "postal": "N2N7L8",
    "result": []
  },
  {
    "postal": "N2N6T6",
    "result": []
  },
  {
    "postal": "N2N7Y7",
    "result": []
  },
  {
    "postal": "N2N3M8",
    "result": [
      {
        "electoralDistricts": [
          {
            "election": null,
            "id": 48,
            "name": "Kitchener—Conestoga"
          }
        ],
        "pollDivisionIds": [
          10139262
        ],
        "postalCode": "N2N3M8",
        "streetName": "HIGHGATE",
        "streetDirectionId": null,
        "streetTypeId": "RD",
        "placeName": "KITCHENER",
        "streetNameDisplayText": "HIGHGATE RD, KITCHENER"
      },
      {
        "electoralDistricts": [
          {
            "election": null,
            "id": 48,
            "name": "Kitchener—Conestoga"
          }
        ],
        "pollDivisionIds": [
          10139262
        ],
        "postalCode": "N2N3M8",
        "streetName": "HUCK",
        "streetDirectionId": null,
        "streetTypeId": "CRES",
        "placeName": "KITCHENER",
        "streetNameDisplayText": "HUCK CRES, KITCHENER"
      }
    ]
  },
  {
    "postal": "N2N2E0",
    "result": []
  },
  {
    "postal": "N2N4B5",
    "result": []
  },
  {
    "postal": "N2N1J3",
    "result": [
      {
        "electoralDistricts": [
          {
            "election": null,
            "id": 48,
            "name": "Kitchener—Conestoga"
          }
        ],
        "pollDivisionIds": [
          10139263
        ],
        "postalCode": "N2N1J3",
        "streetName": "ELM RIDGE",
        "streetDirectionId": null,
        "streetTypeId": "DR",
        "placeName": "KITCHENER",
        "streetNameDisplayText": "ELM RIDGE DR, KITCHENER"
      }
    ]
  },
  {
    "postal": "N2N5S6",
    "result": []
  },
  {
    "postal": "N2N8P7",
    "result": []
  },
  {
    "postal": "N2N7S7",
    "result": []
  },
  {
    "postal": "N2N4C2",
    "result": []
  },
  {
    "postal": "N2N5Y0",
    "result": []
  },
  {
    "postal": "N2N2V7",
    "result": [
      {
        "electoralDistricts": [
          {
            "election": null,
            "id": 48,
            "name": "Kitchener—Conestoga"
          }
        ],
        "pollDivisionIds": [
          10139264
        ],
        "postalCode": "N2N2V7",
        "streetName": "WESTVIEW",
        "streetDirectionId": null,
        "streetTypeId": "CRES",
        "placeName": "KITCHENER",
        "streetNameDisplayText": "WESTVIEW CRES, KITCHENER"
      },
      {
        "electoralDistricts": [
          {
            "election": null,
            "id": 48,
            "name": "Kitchener—Conestoga"
          }
        ],
        "pollDivisionIds": [
          10139264
        ],
        "postalCode": "N2N2V7",
        "streetName": "WESTVIEW",
        "streetDirectionId": null,
        "streetTypeId": "CRT",
        "placeName": "KITCHENER",
        "streetNameDisplayText": "WESTVIEW CRT, KITCHENER"
      }
    ]
  },
  {
    "postal": "N2N8P5",
    "result": []
  },
  {
    "postal": "N2N5P5",
    "result": []
  },
  {
    "postal": "N2N5Z0",
    "result": []
  },
  {
    "postal": "N2N9B0",
    "result": []
  },
  {
    "postal": "N2N1L0",
    "result": []
  },
  {
    "postal": "N2N0B5",
    "result": [
      {
        "electoralDistricts": [
          {
            "election": null,
            "id": 48,
            "name": "Kitchener—Conestoga"
          }
        ],
        "pollDivisionIds": [
          10139260
        ],
        "postalCode": "N2N0B5",
        "streetName": "GLASGOW",
        "streetDirectionId": null,
        "streetTypeId": "ST",
        "placeName": "KITCHENER",
        "streetNameDisplayText": "GLASGOW ST, KITCHENER"
      }
    ]
  },
  {
    "postal": "N2N3L2",
    "result": [
      {
        "electoralDistricts": [
          {
            "election": null,
            "id": 48,
            "name": "Kitchener—Conestoga"
          }
        ],
        "pollDivisionIds": [
          10139262
        ],
        "postalCode": "N2N3L2",
        "streetName": "GOLDEN TERRACE",
        "streetDirectionId": null,
        "streetTypeId": "CRT",
        "placeName": "KITCHENER",
        "streetNameDisplayText": "GOLDEN TERRACE CRT, KITCHENER"
      }
    ]
  },
  {
    "postal": "N2N3B7",
    "result": [
      {
        "electoralDistricts": [
          {
            "election": null,
            "id": 48,
            "name": "Kitchener—Conestoga"
          }
        ],
        "pollDivisionIds": [
          10139261
        ],
        "postalCode": "N2N3B7",
        "streetName": "BENESFORT",
        "streetDirectionId": null,
        "streetTypeId": "CRT",
        "placeName": "KITCHENER",
        "streetNameDisplayText": "BENESFORT CRT, KITCHENER"
      },
      {
        "electoralDistricts": [
          {
            "election": null,
            "id": 48,
            "name": "Kitchener—Conestoga"
          }
        ],
        "pollDivisionIds": [
          10139261
        ],
        "postalCode": "N2N3B7",
        "streetName": "BENESFORT",
        "streetDirectionId": null,
        "streetTypeId": "DR",
        "placeName": "KITCHENER",
        "streetNameDisplayText": "BENESFORT DR, KITCHENER"
      }
    ]
  },
  {
    "postal": "N2N8L1",
    "result": []
  },
  {
    "postal": "N2N5M4",
    "result": []
  },
  {
    "postal": "N2N4G9",
    "result": []
  },
  {
    "postal": "N2N0P0",
    "result": []
  },
  {
    "postal": "N2N8G2",
    "result": []
  },
  {
    "postal": "N2N1V9",
    "result": [
      {
        "electoralDistricts": [
          {
            "election": null,
            "id": 48,
            "name": "Kitchener—Conestoga"
          }
        ],
        "pollDivisionIds": [
          10139263
        ],
        "postalCode": "N2N1V9",
        "streetName": "TRAILVIEW",
        "streetDirectionId": null,
        "streetTypeId": "DR",
        "placeName": "KITCHENER",
        "streetNameDisplayText": "TRAILVIEW DR, KITCHENER"
      }
    ]
  },
  {
    "postal": "N2N8N8",
    "result": []
  },
  {
    "postal": "N2N6S8",
    "result": []
  },
  {
    "postal": "N2N8H2",
    "result": []
  },
  {
    "postal": "N2N5R8",
    "result": []
  },
  {
    "postal": "N2N5L4",
    "result": []
  },
  {
    "postal": "N2N9E1",
    "result": []
  },
  {
    "postal": "N2N1C4",
    "result": [
      {
        "electoralDistricts": [
          {
            "election": null,
            "id": 48,
            "name": "Kitchener—Conestoga"
          }
        ],
        "pollDivisionIds": [
          10139265
        ],
        "postalCode": "N2N1C4",
        "streetName": "GLEN LAKE",
        "streetDirectionId": null,
        "streetTypeId": "CRES",
        "placeName": "KITCHENER",
        "streetNameDisplayText": "GLEN LAKE CRES, KITCHENER"
      }
    ]
  },
  {
    "postal": "N2N8W5",
    "result": []
  },
  {
    "postal": "N2N1Y4",
    "result": [
      {
        "electoralDistricts": [
          {
            "election": null,
            "id": 48,
            "name": "Kitchener—Conestoga"
          }
        ],
        "pollDivisionIds": [
          10139266
        ],
        "postalCode": "N2N1Y4",
        "streetName": "CEDAR CREST",
        "streetDirectionId": null,
        "streetTypeId": "ST",
        "placeName": "KITCHENER",
        "streetNameDisplayText": "CEDAR CREST ST, KITCHENER"
      }
    ]
  },
  {
    "postal": "N2N1C0",
    "result": []
  },
  {
    "postal": "N2N2J2",
    "result": [
      {
        "electoralDistricts": [
          {
            "election": null,
            "id": 48,
            "name": "Kitchener—Conestoga"
          }
        ],
        "pollDivisionIds": [
          10139266
        ],
        "postalCode": "N2N2J2",
        "streetName": "LORILEE",
        "streetDirectionId": null,
        "streetTypeId": "CRES",
        "placeName": "KITCHENER",
        "streetNameDisplayText": "LORILEE CRES, KITCHENER"
      }
    ]
  },
  {
    "postal": "N2N2J0",
    "result": []
  },
  {
    "postal": "N2N7A3",
    "result": []
  },
  {
    "postal": "N2N8M1",
    "result": []
  },
  {
    "postal": "N2N7T9",
    "result": []
  },
  {
    "postal": "N2N6C0",
    "result": []
  },
  {
    "postal": "N2N7X1",
    "result": []
  },
  {
    "postal": "N2N0G1",
    "result": []
  },
  {
    "postal": "N2N4X2",
    "result": []
  },
  {
    "postal": "N2N0N6",
    "result": []
  },
  {
    "postal": "N2N8E3",
    "result": []
  },
  {
    "postal": "N2N5S8",
    "result": []
  },
  {
    "postal": "N2N0R0",
    "result": []
  },
  {
    "postal": "N2N6J6",
    "result": []
  },
  {
    "postal": "N2N4B4",
    "result": []
  },
  {
    "postal": "N2N7E3",
    "result": []
  },
  {
    "postal": "N2N3N6",
    "result": [
      {
        "electoralDistricts": [
          {
            "election": null,
            "id": 48,
            "name": "Kitchener—Conestoga"
          }
        ],
        "pollDivisionIds": [
          10139261
        ],
        "postalCode": "N2N3N6",
        "streetName": "HIDDEN CREEK",
        "streetDirectionId": null,
        "streetTypeId": "DR",
        "placeName": "KITCHENER",
        "streetNameDisplayText": "HIDDEN CREEK DR, KITCHENER"
      }
    ]
  },
  {
    "postal": "N2N3X6",
    "result": []
  },
  {
    "postal": "N2N8L0",
    "result": []
  },
  {
    "postal": "N2N8N1",
    "result": []
  },
  {
    "postal": "N2N4J0",
    "result": []
  },
  {
    "postal": "N2N0X7",
    "result": []
  },
  {
    "postal": "N2N6S4",
    "result": []
  },
  {
    "postal": "N2N0Z0",
    "result": []
  },
  {
    "postal": "N2N9X8",
    "result": []
  },
  {
    "postal": "N2N3H3",
    "result": [
      {
        "electoralDistricts": [
          {
            "election": null,
            "id": 48,
            "name": "Kitchener—Conestoga"
          }
        ],
        "pollDivisionIds": [
          10139260
        ],
        "postalCode": "N2N3H3",
        "streetName": "BEECHMANOR",
        "streetDirectionId": null,
        "streetTypeId": "CRES",
        "placeName": "KITCHENER",
        "streetNameDisplayText": "BEECHMANOR CRES, KITCHENER"
      },
      {
        "electoralDistricts": [
          {
            "election": null,
            "id": 48,
            "name": "Kitchener—Conestoga"
          }
        ],
        "pollDivisionIds": [
          10139260
        ],
        "postalCode": "N2N3H3",
        "streetName": "RESURRECTION",
        "streetDirectionId": null,
        "streetTypeId": "DR",
        "placeName": "KITCHENER",
        "streetNameDisplayText": "RESURRECTION DR, KITCHENER"
      }
    ]
  },
  {
    "postal": "N2N7S2",
    "result": []
  },
  {
    "postal": "N2N3T3",
    "result": []
  },
  {
    "postal": "N2N9P3",
    "result": []
  },
  {
    "postal": "N2N4H8",
    "result": []
  },
  {
    "postal": "N2N6R1",
    "result": []
  },
  {
    "postal": "N2N1S0",
    "result": []
  },
  {
    "postal": "N2N3W8",
    "result": []
  },
  {
    "postal": "N2N4S3",
    "result": []
  },
  {
    "postal": "N2N1B6",
    "result": [
      {
        "electoralDistricts": [
          {
            "election": null,
            "id": 48,
            "name": "Kitchener—Conestoga"
          }
        ],
        "pollDivisionIds": [
          10139265
        ],
        "postalCode": "N2N1B6",
        "streetName": "FORESTWOOD",
        "streetDirectionId": null,
        "streetTypeId": "DR",
        "placeName": "KITCHENER",
        "streetNameDisplayText": "FORESTWOOD DR, KITCHENER"
      }
    ]
  },
  {
    "postal": "N2N8R3",
    "result": []
  },
  {
    "postal": "N2N4V9",
    "result": []
  },
  {
    "postal": "N2N9W4",
    "result": []
  },
  {
    "postal": "N2N3T4",
    "result": []
  },
  {
    "postal": "N2N5C7",
    "result": []
  },
  {
    "postal": "N2N3Y1",
    "result": []
  },
  {
    "postal": "N2N5V0",
    "result": []
  },
  {
    "postal": "N2N8G8",
    "result": []
  },
  {
    "postal": "N2N8B1",
    "result": []
  },
  {
    "postal": "N2N4P5",
    "result": []
  },
  {
    "postal": "N2N7B2",
    "result": []
  },
  {
    "postal": "N2N0R2",
    "result": []
  },
  {
    "postal": "N2N4M4",
    "result": []
  },
  {
    "postal": "N2N7M4",
    "result": []
  },
  {
    "postal": "N2N9S7",
    "result": []
  },
  {
    "postal": "N2N5Z7",
    "result": []
  },
  {
    "postal": "N2N7J7",
    "result": []
  },
  {
    "postal": "N2N8R8",
    "result": []
  },
  {
    "postal": "N2N9X1",
    "result": []
  },
  {
    "postal": "N2N5M9",
    "result": []
  },
  {
    "postal": "N2N9B4",
    "result": []
  },
  {
    "postal": "N2N0L9",
    "result": []
  },
  {
    "postal": "N2N9G4",
    "result": []
  },
  {
    "postal": "N2N1J4",
    "result": [
      {
        "electoralDistricts": [
          {
            "election": null,
            "id": 48,
            "name": "Kitchener—Conestoga"
          }
        ],
        "pollDivisionIds": [
          10139263
        ],
        "postalCode": "N2N1J4",
        "streetName": "HILLBROOK",
        "streetDirectionId": null,
        "streetTypeId": "CRES",
        "placeName": "KITCHENER",
        "streetNameDisplayText": "HILLBROOK CRES, KITCHENER"
      }
    ]
  },
  {
    "postal": "N2N0W6",
    "result": []
  },
  {
    "postal": "N2N4C5",
    "result": []
  },
  {
    "postal": "N2N7E4",
    "result": []
  },
  {
    "postal": "N2N1R9",
    "result": [
      {
        "electoralDistricts": [
          {
            "election": null,
            "id": 48,
            "setId": 0,
            "name": "Kitchener—Conestoga"
          }
        ],
        "pollDivisionIds": [
          10139266
        ],
        "postalCode": "N2N1R9",
        "streetName": "TOYNBEE",
        "streetDirectionId": null,
        "streetTypeId": "CRES",
        "placeName": "KITCHENER",
        "streetNameDisplayText": "TOYNBEE CRES, KITCHENER"
      }
    ]
  },
  {
    "postal": "N2N2P0",
    "result": []
  },
  {
    "postal": "N2N5S4",
    "result": []
  },
  {
    "postal": "N2N5K8",
    "result": []
  },
  {
    "postal": "N2N8K4",
    "result": []
  },
  {
    "postal": "N2N7C1",
    "result": []
  },
  {
    "postal": "N2N7K9",
    "result": []
  },
  {
    "postal": "N2N5J1",
    "result": []
  },
  {
    "postal": "N2N4P9",
    "result": []
  },
  {
    "postal": "N2N0N2",
    "result": []
  },
  {
    "postal": "N2N2G6",
    "result": []
  },
  {
    "postal": "N2N6P4",
    "result": []
  },
  {
    "postal": "N2N3J0",
    "result": []
  },
  {
    "postal": "N2N8X4",
    "result": []
  },
  {
    "postal": "N2N1Y3",
    "result": [
      {
        "electoralDistricts": [
          {
            "election": null,
            "id": 48,
            "setId": 0,
            "name": "Kitchener—Conestoga"
          }
        ],
        "pollDivisionIds": [
          10139266
        ],
        "postalCode": "N2N1Y3",
        "streetName": "SUGAR MAPLE",
        "streetDirectionId": null,
        "streetTypeId": "PL",
        "placeName": "KITCHENER",
        "streetNameDisplayText": "SUGAR MAPLE PL, KITCHENER"
      }
    ]
  },
  {
    "postal": "N2N1A8",
    "result": [
      {
        "electoralDistricts": [
          {
            "election": null,
            "id": 48,
            "setId": 0,
            "name": "Kitchener—Conestoga"
          }
        ],
        "pollDivisionIds": [
          10139265
        ],
        "postalCode": "N2N1A8",
        "streetName": "MCGARRY",
        "streetDirectionId": null,
        "streetTypeId": "DR",
        "placeName": "KITCHENER",
        "streetNameDisplayText": "MCGARRY DR, KITCHENER"
      }
    ]
  },
  {
    "postal": "N2N6Y5",
    "result": []
  },
  {
    "postal": "N2N0J6",
    "result": []
  },
  {
    "postal": "N2N2C9",
    "result": []
  },
  {
    "postal": "N2N8J6",
    "result": []
  },
  {
    "postal": "N2N8T4",
    "result": []
  },
  {
    "postal": "N2N1P7",
    "result": [
      {
        "electoralDistricts": [
          {
            "election": null,
            "id": 48,
            "setId": 0,
            "name": "Kitchener—Conestoga"
          }
        ],
        "pollDivisionIds": [
          10139265,
          10139263
        ],
        "postalCode": "N2N1P7",
        "streetName": "TRAILVIEW",
        "streetDirectionId": null,
        "streetTypeId": "DR",
        "placeName": "KITCHENER",
        "streetNameDisplayText": "TRAILVIEW DR, KITCHENER"
      }
    ]
  },
  {
    "postal": "N2N9V9",
    "result": []
  },
  {
    "postal": "N2N0M1",
    "result": []
  },
  {
    "postal": "N2N6K5",
    "result": []
  },
  {
    "postal": "N2N2T5",
    "result": [
      {
        "electoralDistricts": [
          {
            "election": null,
            "id": 48,
            "setId": 0,
            "name": "Kitchener—Conestoga"
          }
        ],
        "pollDivisionIds": [
          10139264
        ],
        "postalCode": "N2N2T5",
        "streetName": "SUMMERHILL",
        "streetDirectionId": null,
        "streetTypeId": "CRES",
        "placeName": "KITCHENER",
        "streetNameDisplayText": "SUMMERHILL CRES, KITCHENER"
      }
    ]
  },
  {
    "postal": "N2N7E9",
    "result": []
  },
  {
    "postal": "N2N5K5",
    "result": []
  },
  {
    "postal": "N2N3R5",
    "result": [
      {
        "electoralDistricts": [
          {
            "election": null,
            "id": 48,
            "setId": 0,
            "name": "Kitchener—Conestoga"
          }
        ],
        "pollDivisionIds": [
          10139260
        ],
        "postalCode": "N2N3R5",
        "streetName": "LEMON GRASS",
        "streetDirectionId": null,
        "streetTypeId": "CRES",
        "placeName": "KITCHENER",
        "streetNameDisplayText": "LEMON GRASS CRES, KITCHENER"
      },
      {
        "electoralDistricts": [
          {
            "election": null,
            "id": 48,
            "setId": 0,
            "name": "Kitchener—Conestoga"
          }
        ],
        "pollDivisionIds": [
          10139260
        ],
        "postalCode": "N2N3R5",
        "streetName": "LEMON GRASS",
        "streetDirectionId": null,
        "streetTypeId": "ST",
        "placeName": "KITCHENER",
        "streetNameDisplayText": "LEMON GRASS ST, KITCHENER"
      }
    ]
  },
  {
    "postal": "N2N5B1",
    "result": []
  },
  {
    "postal": "N2N2P1",
    "result": [
      {
        "electoralDistricts": [
          {
            "election": null,
            "id": 48,
            "setId": 0,
            "name": "Kitchener—Conestoga"
          }
        ],
        "pollDivisionIds": [
          10139266
        ],
        "postalCode": "N2N2P1",
        "streetName": "HODDLE",
        "streetDirectionId": null,
        "streetTypeId": "CRES",
        "placeName": "KITCHENER",
        "streetNameDisplayText": "HODDLE CRES, KITCHENER"
      },
      {
        "electoralDistricts": [
          {
            "election": null,
            "id": 48,
            "setId": 0,
            "name": "Kitchener—Conestoga"
          }
        ],
        "pollDivisionIds": [
          10139267
        ],
        "postalCode": "N2N2P1",
        "streetName": "YELLOW BIRCH",
        "streetDirectionId": null,
        "streetTypeId": "DR",
        "placeName": "KITCHENER",
        "streetNameDisplayText": "YELLOW BIRCH DR, KITCHENER"
      }
    ]
  },
  {
    "postal": "N2N7L0",
    "result": []
  },
  {
    "postal": "N2N3L6",
    "result": [
      {
        "electoralDistricts": [
          {
            "election": null,
            "id": 48,
            "setId": 0,
            "name": "Kitchener—Conestoga"
          }
        ],
        "pollDivisionIds": [
          10139263
        ],
        "postalCode": "N2N3L6",
        "streetName": "QUEEN'S",
        "streetDirectionId": null,
        "streetTypeId": "BLVD",
        "placeName": "KITCHENER",
        "streetNameDisplayText": "QUEEN'S BLVD, KITCHENER"
      }
    ]
  },
  {
    "postal": "N2N2A4",
    "result": [
      {
        "electoralDistricts": [
          {
            "election": null,
            "id": 48,
            "setId": 0,
            "name": "Kitchener—Conestoga"
          }
        ],
        "pollDivisionIds": [
          10139266
        ],
        "postalCode": "N2N2A4",
        "streetName": "HOMESTEAD",
        "streetDirectionId": null,
        "streetTypeId": "PL",
        "placeName": "KITCHENER",
        "streetNameDisplayText": "HOMESTEAD PL, KITCHENER"
      }
    ]
  },
  {
    "postal": "N2N8S0",
    "result": []
  },
  {
    "postal": "N2N3L5",
    "result": []
  },
  {
    "postal": "N2N2R5",
    "result": [
      {
        "electoralDistricts": [
          {
            "election": null,
            "id": 48,
            "setId": 0,
            "name": "Kitchener—Conestoga"
          }
        ],
        "pollDivisionIds": [
          10139263
        ],
        "postalCode": "N2N2R5",
        "streetName": "CLAYCROFT",
        "streetDirectionId": null,
        "streetTypeId": "CRES",
        "placeName": "KITCHENER",
        "streetNameDisplayText": "CLAYCROFT CRES, KITCHENER"
      }
    ]
  },
  {
    "postal": "N2N9T6",
    "result": []
  },
  {
    "postal": "N2N8Z2",
    "result": []
  },
  {
    "postal": "N2N0E9",
    "result": []
  },
  {
    "postal": "N2N8C0",
    "result": []
  },
  {
    "postal": "N2N3K7",
    "result": [
      {
        "electoralDistricts": [
          {
            "election": null,
            "id": 48,
            "setId": 0,
            "name": "Kitchener—Conestoga"
          }
        ],
        "pollDivisionIds": [
          10139262
        ],
        "postalCode": "N2N3K7",
        "streetName": "HIGHLAND",
        "streetDirectionId": "W",
        "streetTypeId": "RD",
        "placeName": "KITCHENER",
        "streetNameDisplayText": "HIGHLAND RD W, KITCHENER"
      }
    ]
  },
  {
    "postal": "N2N2H3",
    "result": [
      {
        "electoralDistricts": [
          {
            "election": null,
            "id": 48,
            "setId": 0,
            "name": "Kitchener—Conestoga"
          }
        ],
        "pollDivisionIds": [
          10139261
        ],
        "postalCode": "N2N2H3",
        "streetName": "LENNOX",
        "streetDirectionId": null,
        "streetTypeId": "CRES",
        "placeName": "KITCHENER",
        "streetNameDisplayText": "LENNOX CRES, KITCHENER"
      }
    ]
  },
  {
    "postal": "N2N2Y6",
    "result": [
      {
        "electoralDistricts": [
          {
            "election": null,
            "id": 48,
            "setId": 0,
            "name": "Kitchener—Conestoga"
          }
        ],
        "pollDivisionIds": [
          10139260
        ],
        "postalCode": "N2N2Y6",
        "streetName": "GLASGOW",
        "streetDirectionId": null,
        "streetTypeId": "ST",
        "placeName": "KITCHENER",
        "streetNameDisplayText": "GLASGOW ST, KITCHENER"
      },
      {
        "electoralDistricts": [
          {
            "election": null,
            "id": 48,
            "setId": 0,
            "name": "Kitchener—Conestoga"
          }
        ],
        "pollDivisionIds": [
          10139260
        ],
        "postalCode": "N2N2Y6",
        "streetName": "NORTHFOREST",
        "streetDirectionId": null,
        "streetTypeId": "TRAIL",
        "placeName": "KITCHENER",
        "streetNameDisplayText": "NORTHFOREST TRAIL, KITCHENER"
      },
      {
        "electoralDistricts": [
          {
            "election": null,
            "id": 48,
            "setId": 0,
            "name": "Kitchener—Conestoga"
          }
        ],
        "pollDivisionIds": [
          10139260
        ],
        "postalCode": "N2N2Y6",
        "streetName": "PARSONS",
        "streetDirectionId": null,
        "streetTypeId": "CRT",
        "placeName": "KITCHENER",
        "streetNameDisplayText": "PARSONS CRT, KITCHENER"
      }
    ]
  },
  {
    "postal": "N2N7M2",
    "result": []
  },
  {
    "postal": "N2N6E2",
    "result": []
  },
  {
    "postal": "N2N3R0",
    "result": []
  },
  {
    "postal": "N2N4J7",
    "result": []
  },
  {
    "postal": "N2N6N8",
    "result": []
  },
  {
    "postal": "N2N0J7",
    "result": []
  },
  {
    "postal": "N2N7P2",
    "result": []
  },
  {
    "postal": "N2N3T8",
    "result": []
  },
  {
    "postal": "N2N3S7",
    "result": []
  },
  {
    "postal": "N2N2S7",
    "result": [
      {
        "electoralDistricts": [
          {
            "election": null,
            "id": 48,
            "setId": 0,
            "name": "Kitchener—Conestoga"
          }
        ],
        "pollDivisionIds": [
          10139263
        ],
        "postalCode": "N2N2S7",
        "streetName": "CLAYCROFT",
        "streetDirectionId": null,
        "streetTypeId": "CRES",
        "placeName": "KITCHENER",
        "streetNameDisplayText": "CLAYCROFT CRES, KITCHENER"
      }
    ]
  },
  {
    "postal": "N2N1S4",
    "result": [
      {
        "electoralDistricts": [
          {
            "election": null,
            "id": 48,
            "setId": 0,
            "name": "Kitchener—Conestoga"
          }
        ],
        "pollDivisionIds": [
          10139266
        ],
        "postalCode": "N2N1S4",
        "streetName": "PARKLAND",
        "streetDirectionId": null,
        "streetTypeId": "CRES",
        "placeName": "KITCHENER",
        "streetNameDisplayText": "PARKLAND CRES, KITCHENER"
      }
    ]
  },
  {
    "postal": "N2N1L8",
    "result": [
      {
        "electoralDistricts": [
          {
            "election": null,
            "id": 48,
            "setId": 0,
            "name": "Kitchener—Conestoga"
          }
        ],
        "pollDivisionIds": [
          10139264
        ],
        "postalCode": "N2N1L8",
        "streetName": "GREENBOUGH",
        "streetDirectionId": null,
        "streetTypeId": "CRT",
        "placeName": "KITCHENER",
        "streetNameDisplayText": "GREENBOUGH CRT, KITCHENER"
      }
    ]
  },
  {
    "postal": "N2N8E9",
    "result": []
  },
  {
    "postal": "N2N0T0",
    "result": []
  },
  {
    "postal": "N2N3G4",
    "result": [
      {
        "electoralDistricts": [
          {
            "election": null,
            "id": 48,
            "setId": 0,
            "name": "Kitchener—Conestoga"
          }
        ],
        "pollDivisionIds": [
          10139264
        ],
        "postalCode": "N2N3G4",
        "streetName": "TRADEWINDS",
        "streetDirectionId": null,
        "streetTypeId": "PL",
        "placeName": "KITCHENER",
        "streetNameDisplayText": "TRADEWINDS PL, KITCHENER"
      }
    ]
  },
  {
    "postal": "N2N0V6",
    "result": []
  },
  {
    "postal": "N2N4W1",
    "result": []
  },
  {
    "postal": "N2N9G9",
    "result": []
  },
  {
    "postal": "N2N5W4",
    "result": []
  },
  {
    "postal": "N2N7M8",
    "result": []
  },
  {
    "postal": "N2N2C2",
    "result": [
      {
        "electoralDistricts": [
          {
            "election": null,
            "id": 48,
            "setId": 0,
            "name": "Kitchener—Conestoga"
          }
        ],
        "pollDivisionIds": [
          10139261
        ],
        "postalCode": "N2N2C2",
        "streetName": "STOKE",
        "streetDirectionId": null,
        "streetTypeId": "DR",
        "placeName": "KITCHENER",
        "streetNameDisplayText": "STOKE DR, KITCHENER"
      }
    ]
  },
  {
    "postal": "N2N4Y2",
    "result": []
  },
  {
    "postal": "N2N9X9",
    "result": []
  },
  {
    "postal": "N2N3T0",
    "result": []
  },
  {
    "postal": "N2N4T8",
    "result": []
  },
  {
    "postal": "N2N9C4",
    "result": []
  },
  {
    "postal": "N2N8P2",
    "result": []
  },
  {
    "postal": "N2N0Y8",
    "result": []
  },
  {
    "postal": "N2N1G8",
    "result": [
      {
        "electoralDistricts": [
          {
            "election": null,
            "id": 48,
            "setId": 0,
            "name": "Kitchener—Conestoga"
          }
        ],
        "pollDivisionIds": [
          10139265
        ],
        "postalCode": "N2N1G8",
        "streetName": "RAMBLEWOOD",
        "streetDirectionId": null,
        "streetTypeId": "WAY",
        "placeName": "KITCHENER",
        "streetNameDisplayText": "RAMBLEWOOD WAY, KITCHENER"
      }
    ]
  },
  {
    "postal": "N2N2T6",
    "result": [
      {
        "electoralDistricts": [
          {
            "election": null,
            "id": 48,
            "setId": 0,
            "name": "Kitchener—Conestoga"
          }
        ],
        "pollDivisionIds": [
          10139264
        ],
        "postalCode": "N2N2T6",
        "streetName": "CONNELLY",
        "streetDirectionId": null,
        "streetTypeId": "DR",
        "placeName": "KITCHENER",
        "streetNameDisplayText": "CONNELLY DR, KITCHENER"
      }
    ]
  },
  {
    "postal": "N2N1N7",
    "result": [
      {
        "electoralDistricts": [
          {
            "election": null,
            "id": 48,
            "setId": 0,
            "name": "Kitchener—Conestoga"
          }
        ],
        "pollDivisionIds": [
          10139264
        ],
        "postalCode": "N2N1N7",
        "streetName": "BROKEN OAK",
        "streetDirectionId": null,
        "streetTypeId": "CRES",
        "placeName": "KITCHENER",
        "streetNameDisplayText": "BROKEN OAK CRES, KITCHENER"
      }
    ]
  },
  {
    "postal": "N2N0L6",
    "result": []
  },
  {
    "postal": "N2N9V4",
    "result": []
  },
  {
    "postal": "N2N2V1",
    "result": [
      {
        "electoralDistricts": [
          {
            "election": null,
            "id": 48,
            "setId": 0,
            "name": "Kitchener—Conestoga"
          }
        ],
        "pollDivisionIds": [
          10139264
        ],
        "postalCode": "N2N2V1",
        "streetName": "CONNELLY",
        "streetDirectionId": null,
        "streetTypeId": "DR",
        "placeName": "KITCHENER",
        "streetNameDisplayText": "CONNELLY DR, KITCHENER"
      }
    ]
  },
  {
    "postal": "N2N3L8",
    "result": [
      {
        "electoralDistricts": [
          {
            "election": null,
            "id": 48,
            "setId": 0,
            "name": "Kitchener—Conestoga"
          }
        ],
        "pollDivisionIds": [
          10139261
        ],
        "postalCode": "N2N3L8",
        "streetName": "HIDDEN CREEK",
        "streetDirectionId": null,
        "streetTypeId": "DR",
        "placeName": "KITCHENER",
        "streetNameDisplayText": "HIDDEN CREEK DR, KITCHENER"
      },
      {
        "electoralDistricts": [
          {
            "election": null,
            "id": 48,
            "setId": 0,
            "name": "Kitchener—Conestoga"
          }
        ],
        "pollDivisionIds": [
          10139261,
          10139262
        ],
        "postalCode": "N2N3L8",
        "streetName": "HOLLYRIDGE",
        "streetDirectionId": null,
        "streetTypeId": "CRES",
        "placeName": "KITCHENER",
        "streetNameDisplayText": "HOLLYRIDGE CRES, KITCHENER"
      },
      {
        "electoralDistricts": [
          {
            "election": null,
            "id": 48,
            "setId": 0,
            "name": "Kitchener—Conestoga"
          }
        ],
        "pollDivisionIds": [
          10139262
        ],
        "postalCode": "N2N3L8",
        "streetName": "WESTFOREST",
        "streetDirectionId": null,
        "streetTypeId": "TRAIL",
        "placeName": "KITCHENER",
        "streetNameDisplayText": "WESTFOREST TRAIL, KITCHENER"
      }
    ]
  },
  {
    "postal": "N2N2R8",
    "result": [
      {
        "electoralDistricts": [
          {
            "election": null,
            "id": 48,
            "setId": 0,
            "name": "Kitchener—Conestoga"
          }
        ],
        "pollDivisionIds": [
          10139263
        ],
        "postalCode": "N2N2R8",
        "streetName": "BLACKWELL",
        "streetDirectionId": null,
        "streetTypeId": "DR",
        "placeName": "KITCHENER",
        "streetNameDisplayText": "BLACKWELL DR, KITCHENER"
      }
    ]
  },
  {
    "postal": "N2N5C1",
    "result": []
  },
  {
    "postal": "N2N4W3",
    "result": []
  },
  {
    "postal": "N2N5X5",
    "result": []
  },
  {
    "postal": "N2N9W5",
    "result": []
  },
  {
    "postal": "N2N3C4",
    "result": [
      {
        "electoralDistricts": [
          {
            "election": null,
            "id": 48,
            "setId": 0,
            "name": "Kitchener—Conestoga"
          }
        ],
        "pollDivisionIds": [
          10139260
        ],
        "postalCode": "N2N3C4",
        "streetName": "NORTHMANOR",
        "streetDirectionId": null,
        "streetTypeId": "CRES",
        "placeName": "KITCHENER",
        "streetNameDisplayText": "NORTHMANOR CRES, KITCHENER"
      }
    ]
  },
  {
    "postal": "N2N1N6",
    "result": [
      {
        "electoralDistricts": [
          {
            "election": null,
            "id": 48,
            "setId": 0,
            "name": "Kitchener—Conestoga"
          }
        ],
        "pollDivisionIds": [
          10139264
        ],
        "postalCode": "N2N1N6",
        "streetName": "WESTHEIGHTS",
        "streetDirectionId": null,
        "streetTypeId": "DR",
        "placeName": "KITCHENER",
        "streetNameDisplayText": "WESTHEIGHTS DR, KITCHENER"
      }
    ]
  },
  {
    "postal": "N2N9S9",
    "result": []
  },
  {
    "postal": "N2N9M2",
    "result": []
  },
  {
    "postal": "N2N8Y4",
    "result": []
  },
  {
    "postal": "N2N7S4",
    "result": []
  },
  {
    "postal": "N2N0K6",
    "result": []
  },
  {
    "postal": "N2N1W3",
    "result": [
      {
        "electoralDistricts": [
          {
            "election": null,
            "id": 48,
            "setId": 0,
            "name": "Kitchener—Conestoga"
          }
        ],
        "pollDivisionIds": [
          10139266
        ],
        "postalCode": "N2N1W3",
        "streetName": "DRIFTWOOD",
        "streetDirectionId": null,
        "streetTypeId": "PL",
        "placeName": "KITCHENER",
        "streetNameDisplayText": "DRIFTWOOD PL, KITCHENER"
      }
    ]
  },
  {
    "postal": "N2N7R2",
    "result": []
  },
  {
    "postal": "N2N2Y9",
    "result": [
      {
        "electoralDistricts": [
          {
            "election": null,
            "id": 48,
            "setId": 0,
            "name": "Kitchener—Conestoga"
          }
        ],
        "pollDivisionIds": [
          10139260
        ],
        "postalCode": "N2N2Y9",
        "streetName": "GATSBY",
        "streetDirectionId": null,
        "streetTypeId": "CRT",
        "placeName": "KITCHENER",
        "streetNameDisplayText": "GATSBY CRT, KITCHENER"
      }
    ]
  },
  {
    "postal": "N2N7G4",
    "result": []
  },
  {
    "postal": "N2N7E5",
    "result": []
  },
  {
    "postal": "N2N9G2",
    "result": []
  },
  {
    "postal": "N2N7Y8",
    "result": []
  },
  {
    "postal": "N2N9V2",
    "result": []
  },
  {
    "postal": "N2N3T7",
    "result": []
  },
  {
    "postal": "N2N1H0",
    "result": []
  },
  {
    "postal": "N2N1M7",
    "result": [
      {
        "electoralDistricts": [
          {
            "election": null,
            "id": 48,
            "setId": 0,
            "name": "Kitchener—Conestoga"
          }
        ],
        "pollDivisionIds": [
          10139264
        ],
        "postalCode": "N2N1M7",
        "streetName": "WESTHEIGHTS",
        "streetDirectionId": null,
        "streetTypeId": "DR",
        "placeName": "KITCHENER",
        "streetNameDisplayText": "WESTHEIGHTS DR, KITCHENER"
      }
    ]
  },
  {
    "postal": "N2N8V4",
    "result": []
  },
  {
    "postal": "N2N4M2",
    "result": []
  },
  {
    "postal": "N2N0X2",
    "result": []
  },
  {
    "postal": "N2N5Z4",
    "result": []
  },
  {
    "postal": "N2N6V4",
    "result": []
  },
  {
    "postal": "N2N8J3",
    "result": []
  },
  {
    "postal": "N2N8E5",
    "result": []
  },
  {
    "postal": "N2N2V5",
    "result": [
      {
        "electoralDistricts": [
          {
            "election": null,
            "id": 48,
            "setId": 0,
            "name": "Kitchener—Conestoga"
          }
        ],
        "pollDivisionIds": [
          10139264
        ],
        "postalCode": "N2N2V5",
        "streetName": "NEWBURY",
        "streetDirectionId": null,
        "streetTypeId": "DR",
        "placeName": "KITCHENER",
        "streetNameDisplayText": "NEWBURY DR, KITCHENER"
      },
      {
        "electoralDistricts": [
          {
            "election": null,
            "id": 48,
            "setId": 0,
            "name": "Kitchener—Conestoga"
          }
        ],
        "pollDivisionIds": [
          10139264
        ],
        "postalCode": "N2N2V5",
        "streetName": "ROLLING MEADOWS",
        "streetDirectionId": null,
        "streetTypeId": "DR",
        "placeName": "KITCHENER",
        "streetNameDisplayText": "ROLLING MEADOWS DR, KITCHENER"
      },
      {
        "electoralDistricts": [
          {
            "election": null,
            "id": 48,
            "setId": 0,
            "name": "Kitchener—Conestoga"
          }
        ],
        "pollDivisionIds": [
          10139264
        ],
        "postalCode": "N2N2V5",
        "streetName": "WESTVIEW",
        "streetDirectionId": null,
        "streetTypeId": "CRES",
        "placeName": "KITCHENER",
        "streetNameDisplayText": "WESTVIEW CRES, KITCHENER"
      }
    ]
  },
  {
    "postal": "N2N7S1",
    "result": []
  },
  {
    "postal": "N2N6V3",
    "result": []
  },
  {
    "postal": "N2N2L8",
    "result": [
      {
        "electoralDistricts": [
          {
            "election": null,
            "id": 48,
            "setId": 0,
            "name": "Kitchener—Conestoga"
          }
        ],
        "pollDivisionIds": [
          10139267
        ],
        "postalCode": "N2N2L8",
        "streetName": "GOLDEN MEADOW",
        "streetDirectionId": null,
        "streetTypeId": "CRES",
        "placeName": "KITCHENER",
        "streetNameDisplayText": "GOLDEN MEADOW CRES, KITCHENER"
      }
    ]
  },
  {
    "postal": "N2N9V0",
    "result": []
  },
  {
    "postal": "N2N3M4",
    "result": [
      {
        "electoralDistricts": [
          {
            "election": null,
            "id": 48,
            "setId": 0,
            "name": "Kitchener—Conestoga"
          }
        ],
        "pollDivisionIds": [
          10139261
        ],
        "postalCode": "N2N3M4",
        "streetName": "BANKSIDE",
        "streetDirectionId": null,
        "streetTypeId": "DR",
        "placeName": "KITCHENER",
        "streetNameDisplayText": "BANKSIDE DR, KITCHENER"
      }
    ]
  },
  {
    "postal": "N2N5B2",
    "result": []
  },
  {
    "postal": "N2N3X5",
    "result": []
  },
  {
    "postal": "N2N9R7",
    "result": []
  },
  {
    "postal": "N2N2X2",
    "result": [
      {
        "electoralDistricts": [
          {
            "election": null,
            "id": 48,
            "setId": 0,
            "name": "Kitchener—Conestoga"
          }
        ],
        "pollDivisionIds": [
          10139264
        ],
        "postalCode": "N2N2X2",
        "streetName": "COVINGTON",
        "streetDirectionId": null,
        "streetTypeId": "CRES",
        "placeName": "KITCHENER",
        "streetNameDisplayText": "COVINGTON CRES, KITCHENER"
      }
    ]
  },
  {
    "postal": "N2N8Z6",
    "result": []
  },
  {
    "postal": "N2N4R4",
    "result": []
  },
  {
    "postal": "N2N2R1",
    "result": [
      {
        "electoralDistricts": [
          {
            "election": null,
            "id": 48,
            "setId": 0,
            "name": "Kitchener—Conestoga"
          }
        ],
        "pollDivisionIds": [
          10139263
        ],
        "postalCode": "N2N2R1",
        "streetName": "LANARK",
        "streetDirectionId": null,
        "streetTypeId": "CRES",
        "placeName": "KITCHENER",
        "streetNameDisplayText": "LANARK CRES, KITCHENER"
      },
      {
        "electoralDistricts": [
          {
            "election": null,
            "id": 48,
            "setId": 0,
            "name": "Kitchener—Conestoga"
          }
        ],
        "pollDivisionIds": [
          10139263
        ],
        "postalCode": "N2N2R1",
        "streetName": "MONTANA",
        "streetDirectionId": null,
        "streetTypeId": "CRES",
        "placeName": "KITCHENER",
        "streetNameDisplayText": "MONTANA CRES, KITCHENER"
      }
    ]
  },
  {
    "postal": "N2N3R8",
    "result": [
      {
        "electoralDistricts": [
          {
            "election": null,
            "id": 48,
            "setId": 0,
            "name": "Kitchener—Conestoga"
          }
        ],
        "pollDivisionIds": [
          10139260
        ],
        "postalCode": "N2N3R8",
        "streetName": "COUNTRYSTONE",
        "streetDirectionId": null,
        "streetTypeId": "DR",
        "placeName": "KITCHENER",
        "streetNameDisplayText": "COUNTRYSTONE DR, KITCHENER"
      },
      {
        "electoralDistricts": [
          {
            "election": null,
            "id": 48,
            "setId": 0,
            "name": "Kitchener—Conestoga"
          }
        ],
        "pollDivisionIds": [
          10139260
        ],
        "postalCode": "N2N3R8",
        "streetName": "IRON GATE",
        "streetDirectionId": null,
        "streetTypeId": "ST",
        "placeName": "KITCHENER",
        "streetNameDisplayText": "IRON GATE ST, KITCHENER"
      }
    ]
  },
  {
    "postal": "N2N9A1",
    "result": []
  },
  {
    "postal": "N2N8L3",
    "result": []
  },
  {
    "postal": "N2N9K4",
    "result": []
  },
  {
    "postal": "N2N9S3",
    "result": []
  },
  {
    "postal": "N2N8N7",
    "result": []
  },
  {
    "postal": "N2N1C6",
    "result": [
      {
        "electoralDistricts": [
          {
            "election": null,
            "id": 48,
            "setId": 0,
            "name": "Kitchener—Conestoga"
          }
        ],
        "pollDivisionIds": [
          10139265
        ],
        "postalCode": "N2N1C6",
        "streetName": "ELM RIDGE",
        "streetDirectionId": null,
        "streetTypeId": "DR",
        "placeName": "KITCHENER",
        "streetNameDisplayText": "ELM RIDGE DR, KITCHENER"
      }
    ]
  },
  {
    "postal": "N2N3Z8",
    "result": []
  },
  {
    "postal": "N2N8G5",
    "result": []
  },
  {
    "postal": "N2N5R6",
    "result": []
  },
  {
    "postal": "N2N2W3",
    "result": [
      {
        "electoralDistricts": [
          {
            "election": null,
            "id": 48,
            "setId": 0,
            "name": "Kitchener—Conestoga"
          }
        ],
        "pollDivisionIds": [
          10139264
        ],
        "postalCode": "N2N2W3",
        "streetName": "ROLLING MEADOWS",
        "streetDirectionId": null,
        "streetTypeId": "DR",
        "placeName": "KITCHENER",
        "streetNameDisplayText": "ROLLING MEADOWS DR, KITCHENER"
      },
      {
        "electoralDistricts": [
          {
            "election": null,
            "id": 48,
            "setId": 0,
            "name": "Kitchener—Conestoga"
          }
        ],
        "pollDivisionIds": [
          10139264
        ],
        "postalCode": "N2N2W3",
        "streetName": "WINDERMERE",
        "streetDirectionId": null,
        "streetTypeId": "CRT",
        "placeName": "KITCHENER",
        "streetNameDisplayText": "WINDERMERE CRT, KITCHENER"
      }
    ]
  },
  {
    "postal": "N2N0A0",
    "result": []
  },
  {
    "postal": "N2N6P8",
    "result": []
  },
  {
    "postal": "N2N8N9",
    "result": []
  },
  {
    "postal": "N2N0S9",
    "result": []
  },
  {
    "postal": "N2N8G0",
    "result": []
  },
  {
    "postal": "N2N8C7",
    "result": []
  },
  {
    "postal": "N2N5X8",
    "result": []
  },
  {
    "postal": "N2N7E8",
    "result": []
  },
  {
    "postal": "N2N6X2",
    "result": []
  },
  {
    "postal": "N2N4C6",
    "result": []
  },
  {
    "postal": "N2N7H2",
    "result": []
  },
  {
    "postal": "N2N4R0",
    "result": []
  },
  {
    "postal": "N2N6J3",
    "result": []
  },
  {
    "postal": "N2N4B8",
    "result": []
  },
  {
    "postal": "N2N6H6",
    "result": []
  },
  {
    "postal": "N2N0S1",
    "result": []
  },
  {
    "postal": "N2N4E3",
    "result": []
  },
  {
    "postal": "N2N7K2",
    "result": []
  },
  {
    "postal": "N2N7T8",
    "result": []
  },
  {
    "postal": "N2N0J9",
    "result": []
  },
  {
    "postal": "N2N5J9",
    "result": []
  },
  {
    "postal": "N2N5S7",
    "result": []
  },
  {
    "postal": "N2N0G9",
    "result": []
  },
  {
    "postal": "N2N3J9",
    "result": [
      {
        "electoralDistricts": [
          {
            "election": null,
            "id": 48,
            "setId": 0,
            "name": "Kitchener—Conestoga"
          }
        ],
        "pollDivisionIds": [
          10139262
        ],
        "postalCode": "N2N3J9",
        "streetName": "BANKSIDE",
        "streetDirectionId": null,
        "streetTypeId": "DR",
        "placeName": "KITCHENER",
        "streetNameDisplayText": "BANKSIDE DR, KITCHENER"
      }
    ]
  },
  {
    "postal": "N2N2Y0",
    "result": []
  },
  {
    "postal": "N2N8X5",
    "result": []
  },
  {
    "postal": "N2N2M7",
    "result": [
      {
        "electoralDistricts": [
          {
            "election": null,
            "id": 48,
            "setId": 0,
            "name": "Kitchener—Conestoga"
          }
        ],
        "pollDivisionIds": [
          10139267
        ],
        "postalCode": "N2N2M7",
        "streetName": "STONEHENGE",
        "streetDirectionId": null,
        "streetTypeId": "PL",
        "placeName": "KITCHENER",
        "streetNameDisplayText": "STONEHENGE PL, KITCHENER"
      }
    ]
  },
  {
    "postal": "N2N9Z3",
    "result": []
  },
  {
    "postal": "N2N7W2",
    "result": []
  },
  {
    "postal": "N2N3W0",
    "result": []
  },
  {
    "postal": "N2N3M1",
    "result": [
      {
        "electoralDistricts": [
          {
            "election": null,
            "id": 48,
            "setId": 0,
            "name": "Kitchener—Conestoga"
          }
        ],
        "pollDivisionIds": [
          10139262
        ],
        "postalCode": "N2N3M1",
        "streetName": "HIDDEN CREEK",
        "streetDirectionId": null,
        "streetTypeId": "DR",
        "placeName": "KITCHENER",
        "streetNameDisplayText": "HIDDEN CREEK DR, KITCHENER"
      },
      {
        "electoralDistricts": [
          {
            "election": null,
            "id": 48,
            "setId": 0,
            "name": "Kitchener—Conestoga"
          }
        ],
        "pollDivisionIds": [
          10139262
        ],
        "postalCode": "N2N3M1",
        "streetName": "WESTFOREST",
        "streetDirectionId": null,
        "streetTypeId": "TRAIL",
        "placeName": "KITCHENER",
        "streetNameDisplayText": "WESTFOREST TRAIL, KITCHENER"
      }
    ]
  },
  {
    "postal": "N2N6A5",
    "result": []
  },
  {
    "postal": "N2N2M9",
    "result": [
      {
        "electoralDistricts": [
          {
            "election": null,
            "id": 48,
            "setId": 0,
            "name": "Kitchener—Conestoga"
          }
        ],
        "pollDivisionIds": [
          10139267
        ],
        "postalCode": "N2N2M9",
        "streetName": "STONEHENGE",
        "streetDirectionId": null,
        "streetTypeId": "PL",
        "placeName": "KITCHENER",
        "streetNameDisplayText": "STONEHENGE PL, KITCHENER"
      }
    ]
  },
  {
    "postal": "N2N5C3",
    "result": []
  },
  {
    "postal": "N2N0Y6",
    "result": []
  },
  {
    "postal": "N2N9H7",
    "result": []
  },
  {
    "postal": "N2N3L0",
    "result": []
  },
  {
    "postal": "N2N5N9",
    "result": []
  },
  {
    "postal": "N2N5E3",
    "result": []
  },
  {
    "postal": "N2N7M9",
    "result": []
  },
  {
    "postal": "N2N8N2",
    "result": []
  },
  {
    "postal": "N2N9H3",
    "result": []
  },
  {
    "postal": "N2N2K8",
    "result": [
      {
        "electoralDistricts": [
          {
            "election": null,
            "id": 48,
            "setId": 0,
            "name": "Kitchener—Conestoga"
          }
        ],
        "pollDivisionIds": [
          10139267
        ],
        "postalCode": "N2N2K8",
        "streetName": "BENT WILLOW",
        "streetDirectionId": null,
        "streetTypeId": "DR",
        "placeName": "KITCHENER",
        "streetNameDisplayText": "BENT WILLOW DR, KITCHENER"
      },
      {
        "electoralDistricts": [
          {
            "election": null,
            "id": 48,
            "setId": 0,
            "name": "Kitchener—Conestoga"
          }
        ],
        "pollDivisionIds": [
          10139267
        ],
        "postalCode": "N2N2K8",
        "streetName": "HIGHVIEW",
        "streetDirectionId": null,
        "streetTypeId": "DR",
        "placeName": "KITCHENER",
        "streetNameDisplayText": "HIGHVIEW DR, KITCHENER"
      }
    ]
  },
  {
    "postal": "N2N9L0",
    "result": []
  },
  {
    "postal": "N2N6L9",
    "result": []
  },
  {
    "postal": "N2N6A8",
    "result": []
  },
  {
    "postal": "N2N2K6",
    "result": [
      {
        "electoralDistricts": [
          {
            "election": null,
            "id": 48,
            "setId": 0,
            "name": "Kitchener—Conestoga"
          }
        ],
        "pollDivisionIds": [
          10139267
        ],
        "postalCode": "N2N2K6",
        "streetName": "HAVENWOOD",
        "streetDirectionId": null,
        "streetTypeId": "CRT",
        "placeName": "KITCHENER",
        "streetNameDisplayText": "HAVENWOOD CRT, KITCHENER"
      },
      {
        "electoralDistricts": [
          {
            "election": null,
            "id": 48,
            "setId": 0,
            "name": "Kitchener—Conestoga"
          }
        ],
        "pollDivisionIds": [
          10139267
        ],
        "postalCode": "N2N2K6",
        "streetName": "HIGHVIEW",
        "streetDirectionId": null,
        "streetTypeId": "DR",
        "placeName": "KITCHENER",
        "streetNameDisplayText": "HIGHVIEW DR, KITCHENER"
      }
    ]
  },
  {
    "postal": "N2N2M0",
    "result": []
  },
  {
    "postal": "N2N5X7",
    "result": []
  },
  {
    "postal": "N2N0M7",
    "result": []
  },
  {
    "postal": "N2N7A6",
    "result": []
  },
  {
    "postal": "N2N3C5",
    "result": [
      {
        "electoralDistricts": [
          {
            "election": null,
            "id": 48,
            "setId": 0,
            "name": "Kitchener—Conestoga"
          }
        ],
        "pollDivisionIds": [
          10139267
        ],
        "postalCode": "N2N3C5",
        "streetName": "PENELOPE",
        "streetDirectionId": null,
        "streetTypeId": "DR",
        "placeName": "KITCHENER",
        "streetNameDisplayText": "PENELOPE DR, KITCHENER"
      }
    ]
  },
  {
    "postal": "N2N2P2",
    "result": [
      {
        "electoralDistricts": [
          {
            "election": null,
            "id": 48,
            "setId": 0,
            "name": "Kitchener—Conestoga"
          }
        ],
        "pollDivisionIds": [
          10139267
        ],
        "postalCode": "N2N2P2",
        "streetName": "FRAN ELLEN",
        "streetDirectionId": null,
        "streetTypeId": "CRES",
        "placeName": "KITCHENER",
        "streetNameDisplayText": "FRAN ELLEN CRES, KITCHENER"
      }
    ]
  },
  {
    "postal": "N2N9N4",
    "result": []
  },
  {
    "postal": "N2N3M9",
    "result": [
      {
        "electoralDistricts": [
          {
            "election": null,
            "id": 48,
            "setId": 0,
            "name": "Kitchener—Conestoga"
          }
        ],
        "pollDivisionIds": [
          10139262
        ],
        "postalCode": "N2N3M9",
        "streetName": "HUCK",
        "streetDirectionId": null,
        "streetTypeId": "CRES",
        "placeName": "KITCHENER",
        "streetNameDisplayText": "HUCK CRES, KITCHENER"
      }
    ]
  },
  {
    "postal": "N2N8K6",
    "result": []
  },
  {
    "postal": "N2N1L2",
    "result": [
      {
        "electoralDistricts": [
          {
            "election": null,
            "id": 48,
            "setId": 0,
            "name": "Kitchener—Conestoga"
          }
        ],
        "pollDivisionIds": [
          10139265
        ],
        "postalCode": "N2N1L2",
        "streetName": "BLUE SPRUCE",
        "streetDirectionId": null,
        "streetTypeId": "CRT",
        "placeName": "KITCHENER",
        "streetNameDisplayText": "BLUE SPRUCE CRT, KITCHENER"
      }
    ]
  },
  {
    "postal": "N2N2Z9",
    "result": [
      {
        "electoralDistricts": [
          {
            "election": null,
            "id": 48,
            "setId": 0,
            "name": "Kitchener—Conestoga"
          }
        ],
        "pollDivisionIds": [
          10139264
        ],
        "postalCode": "N2N2Z9",
        "streetName": "BLACKWELL",
        "streetDirectionId": null,
        "streetTypeId": "DR",
        "placeName": "KITCHENER",
        "streetNameDisplayText": "BLACKWELL DR, KITCHENER"
      },
      {
        "electoralDistricts": [
          {
            "election": null,
            "id": 48,
            "setId": 0,
            "name": "Kitchener—Conestoga"
          }
        ],
        "pollDivisionIds": [
          10139264
        ],
        "postalCode": "N2N2Z9",
        "streetName": "HIGH ACRES",
        "streetDirectionId": null,
        "streetTypeId": "CRES",
        "placeName": "KITCHENER",
        "streetNameDisplayText": "HIGH ACRES CRES, KITCHENER"
      }
    ]
  },
  {
    "postal": "N2N2S2",
    "result": [
      {
        "electoralDistricts": [
          {
            "election": null,
            "id": 48,
            "setId": 0,
            "name": "Kitchener—Conestoga"
          }
        ],
        "pollDivisionIds": [
          10139264,
          10139263
        ],
        "postalCode": "N2N2S2",
        "streetName": "BLACKWELL",
        "streetDirectionId": null,
        "streetTypeId": "DR",
        "placeName": "KITCHENER",
        "streetNameDisplayText": "BLACKWELL DR, KITCHENER"
      }
    ]
  },
  {
    "postal": "N2N2W2",
    "result": [
      {
        "electoralDistricts": [
          {
            "election": null,
            "id": 48,
            "setId": 0,
            "name": "Kitchener—Conestoga"
          },
          {
            "election": null,
            "id": 47,
            "setId": 0,
            "name": "Kitchener Centre"
          }
        ],
        "pollDivisionIds": [
          10139264,
          10139205
        ],
        "postalCode": "N2N2W2",
        "streetName": "ROLLING MEADOWS",
        "streetDirectionId": null,
        "streetTypeId": "DR",
        "placeName": "KITCHENER",
        "streetNameDisplayText": "ROLLING MEADOWS DR, KITCHENER"
      }
    ]
  },
  {
    "postal": "N2N2C3",
    "result": [
      {
        "electoralDistricts": [
          {
            "election": null,
            "id": 48,
            "setId": 0,
            "name": "Kitchener—Conestoga"
          }
        ],
        "pollDivisionIds": [
          10139261
        ],
        "postalCode": "N2N2C3",
        "streetName": "STOKE",
        "streetDirectionId": null,
        "streetTypeId": "DR",
        "placeName": "KITCHENER",
        "streetNameDisplayText": "STOKE DR, KITCHENER"
      }
    ]
  },
  {
    "postal": "N2N6L7",
    "result": []
  },
  {
    "postal": "N2N3K0",
    "result": []
  },
  {
    "postal": "N2N3C1",
    "result": [
      {
        "electoralDistricts": [
          {
            "election": null,
            "id": 48,
            "setId": 0,
            "name": "Kitchener—Conestoga"
          }
        ],
        "pollDivisionIds": [
          10139260
        ],
        "postalCode": "N2N3C1",
        "streetName": "RESURRECTION",
        "streetDirectionId": null,
        "streetTypeId": "DR",
        "placeName": "KITCHENER",
        "streetNameDisplayText": "RESURRECTION DR, KITCHENER"
      }
    ]
  },
  {
    "postal": "N2N6M9",
    "result": []
  },
  {
    "postal": "N2N4N9",
    "result": []
  },
  {
    "postal": "N2N3Y7",
    "result": []
  },
  {
    "postal": "N2N2A9",
    "result": [
      {
        "electoralDistricts": [
          {
            "election": null,
            "id": 48,
            "setId": 0,
            "name": "Kitchener—Conestoga"
          }
        ],
        "pollDivisionIds": [
          10139266
        ],
        "postalCode": "N2N2A9",
        "streetName": "CEDAR CREST",
        "streetDirectionId": null,
        "streetTypeId": "ST",
        "placeName": "KITCHENER",
        "streetNameDisplayText": "CEDAR CREST ST, KITCHENER"
      }
    ]
  },
  {
    "postal": "N2N6H5",
    "result": []
  },
  {
    "postal": "N2N8B4",
    "result": []
  },
  {
    "postal": "N2N4Z2",
    "result": []
  },
  {
    "postal": "N2N9J0",
    "result": []
  },
  {
    "postal": "N2N7V7",
    "result": []
  },
  {
    "postal": "N2N5T5",
    "result": []
  },
  {
    "postal": "N2N4W5",
    "result": []
  },
  {
    "postal": "N2N1T8",
    "result": [
      {
        "electoralDistricts": [
          {
            "election": null,
            "id": 48,
            "setId": 0,
            "name": "Kitchener—Conestoga"
          }
        ],
        "pollDivisionIds": [
          10139266
        ],
        "postalCode": "N2N1T8",
        "streetName": "ROYAL ORCHARD",
        "streetDirectionId": null,
        "streetTypeId": "DR",
        "placeName": "KITCHENER",
        "streetNameDisplayText": "ROYAL ORCHARD DR, KITCHENER"
      }
    ]
  },
  {
    "postal": "N2N9G6",
    "result": []
  },
  {
    "postal": "N2N1H3",
    "result": [
      {
        "electoralDistricts": [
          {
            "election": null,
            "id": 48,
            "setId": 0,
            "name": "Kitchener—Conestoga"
          }
        ],
        "pollDivisionIds": [
          10139263
        ],
        "postalCode": "N2N1H3",
        "streetName": "HICKORY HEIGHTS",
        "streetDirectionId": null,
        "streetTypeId": "CRES",
        "placeName": "KITCHENER",
        "streetNameDisplayText": "HICKORY HEIGHTS CRES, KITCHENER"
      }
    ]
  },
  {
    "postal": "N2N5R5",
    "result": []
  },
  {
    "postal": "N2N8A4",
    "result": []
  },
  {
    "postal": "N2N3T6",
    "result": []
  },
  {
    "postal": "N2N9W8",
    "result": []
  },
  {
    "postal": "N2N0N3",
    "result": []
  },
  {
    "postal": "N2N7V0",
    "result": []
  },
  {
    "postal": "N2N8T5",
    "result": []
  },
  {
    "postal": "N2N5N3",
    "result": []
  },
  {
    "postal": "N2N5G9",
    "result": []
  },
  {
    "postal": "N2N3X8",
    "result": []
  },
  {
    "postal": "N2N9R3",
    "result": []
  },
  {
    "postal": "N2N2S1",
    "result": [
      {
        "electoralDistricts": [
          {
            "election": null,
            "id": 48,
            "setId": 0,
            "name": "Kitchener—Conestoga"
          }
        ],
        "pollDivisionIds": [
          10139263
        ],
        "postalCode": "N2N2S1",
        "streetName": "MONTANA",
        "streetDirectionId": null,
        "streetTypeId": "CRES",
        "placeName": "KITCHENER",
        "streetNameDisplayText": "MONTANA CRES, KITCHENER"
      }
    ]
  },
  {
    "postal": "N2N9J7",
    "result": []
  },
  {
    "postal": "N2N2J3",
    "result": [
      {
        "electoralDistricts": [
          {
            "election": null,
            "id": 48,
            "setId": 0,
            "name": "Kitchener—Conestoga"
          }
        ],
        "pollDivisionIds": [
          10139266
        ],
        "postalCode": "N2N2J3",
        "streetName": "LORILEE",
        "streetDirectionId": null,
        "streetTypeId": "CRES",
        "placeName": "KITCHENER",
        "streetNameDisplayText": "LORILEE CRES, KITCHENER"
      }
    ]
  },
  {
    "postal": "N2N3B6",
    "result": [
      {
        "electoralDistricts": [
          {
            "election": null,
            "id": 48,
            "setId": 0,
            "name": "Kitchener—Conestoga"
          }
        ],
        "pollDivisionIds": [
          10139261
        ],
        "postalCode": "N2N3B6",
        "streetName": "BENESFORT",
        "streetDirectionId": null,
        "streetTypeId": "CRES",
        "placeName": "KITCHENER",
        "streetNameDisplayText": "BENESFORT CRES, KITCHENER"
      },
      {
        "electoralDistricts": [
          {
            "election": null,
            "id": 48,
            "setId": 0,
            "name": "Kitchener—Conestoga"
          }
        ],
        "pollDivisionIds": [
          10139261
        ],
        "postalCode": "N2N3B6",
        "streetName": "BENESFORT",
        "streetDirectionId": null,
        "streetTypeId": "DR",
        "placeName": "KITCHENER",
        "streetNameDisplayText": "BENESFORT DR, KITCHENER"
      }
    ]
  },
  {
    "postal": "N2N8J0",
    "result": []
  },
  {
    "postal": "N2N7R4",
    "result": []
  },
  {
    "postal": "N2N8K8",
    "result": []
  },
  {
    "postal": "N2N4P3",
    "result": []
  },
  {
    "postal": "N2N0A2",
    "result": [
      {
        "electoralDistricts": [
          {
            "election": null,
            "id": 48,
            "setId": 0,
            "name": "Kitchener—Conestoga"
          }
        ],
        "pollDivisionIds": [
          10139262
        ],
        "postalCode": "N2N0A2",
        "streetName": "UDVARI",
        "streetDirectionId": null,
        "streetTypeId": "CRES",
        "placeName": "KITCHENER",
        "streetNameDisplayText": "UDVARI CRES, KITCHENER"
      }
    ]
  },
  {
    "postal": "N2N2G2",
    "result": []
  },
  {
    "postal": "N2N5Y9",
    "result": []
  },
  {
    "postal": "N2N7X0",
    "result": []
  },
  {
    "postal": "N2N7W3",
    "result": []
  },
  {
    "postal": "N2N7X5",
    "result": []
  },
  {
    "postal": "N2N5K6",
    "result": []
  },
  {
    "postal": "N2N5B6",
    "result": []
  },
  {
    "postal": "N2N7Z0",
    "result": []
  },
  {
    "postal": "N2N9H6",
    "result": []
  },
  {
    "postal": "N2N1B4",
    "result": [
      {
        "electoralDistricts": [
          {
            "election": null,
            "id": 48,
            "setId": 0,
            "name": "Kitchener—Conestoga"
          }
        ],
        "pollDivisionIds": [
          10139265
        ],
        "postalCode": "N2N1B4",
        "streetName": "FORESTWOOD",
        "streetDirectionId": null,
        "streetTypeId": "DR",
        "placeName": "KITCHENER",
        "streetNameDisplayText": "FORESTWOOD DR, KITCHENER"
      }
    ]
  },
  {
    "postal": "N2N1A0",
    "result": []
  },
  {
    "postal": "N2N9A0",
    "result": []
  },
  {
    "postal": "N2N1M6",
    "result": [
      {
        "electoralDistricts": [
          {
            "election": null,
            "id": 48,
            "setId": 0,
            "name": "Kitchener—Conestoga"
          }
        ],
        "pollDivisionIds": [
          10139264
        ],
        "postalCode": "N2N1M6",
        "streetName": "WESTHEIGHTS",
        "streetDirectionId": null,
        "streetTypeId": "DR",
        "placeName": "KITCHENER",
        "streetNameDisplayText": "WESTHEIGHTS DR, KITCHENER"
      }
    ]
  },
  {
    "postal": "N2N5H0",
    "result": []
  },
  {
    "postal": "N2N1K6",
    "result": [
      {
        "electoralDistricts": [
          {
            "election": null,
            "id": 48,
            "setId": 0,
            "name": "Kitchener—Conestoga"
          }
        ],
        "pollDivisionIds": [
          10139265
        ],
        "postalCode": "N2N1K6",
        "streetName": "AUTUMN HILL",
        "streetDirectionId": null,
        "streetTypeId": "CRES",
        "placeName": "KITCHENER",
        "streetNameDisplayText": "AUTUMN HILL CRES, KITCHENER"
      }
    ]
  },
  {
    "postal": "N2N5E1",
    "result": []
  },
  {
    "postal": "N2N3T9",
    "result": []
  },
  {
    "postal": "N2N2M6",
    "result": [
      {
        "electoralDistricts": [
          {
            "election": null,
            "id": 48,
            "setId": 0,
            "name": "Kitchener—Conestoga"
          }
        ],
        "pollDivisionIds": [
          10139267
        ],
        "postalCode": "N2N2M6",
        "streetName": "STONEHENGE",
        "streetDirectionId": null,
        "streetTypeId": "PL",
        "placeName": "KITCHENER",
        "streetNameDisplayText": "STONEHENGE PL, KITCHENER"
      }
    ]
  },
  {
    "postal": "N2N0G5",
    "result": []
  },
  {
    "postal": "N2N0Y2",
    "result": []
  },
  {
    "postal": "N2N2Y7",
    "result": [
      {
        "electoralDistricts": [
          {
            "election": null,
            "id": 48,
            "setId": 0,
            "name": "Kitchener—Conestoga"
          }
        ],
        "pollDivisionIds": [
          10139260
        ],
        "postalCode": "N2N2Y7",
        "streetName": "GLASGOW",
        "streetDirectionId": null,
        "streetTypeId": "ST",
        "placeName": "KITCHENER",
        "streetNameDisplayText": "GLASGOW ST, KITCHENER"
      },
      {
        "electoralDistricts": [
          {
            "election": null,
            "id": 48,
            "setId": 0,
            "name": "Kitchener—Conestoga"
          }
        ],
        "pollDivisionIds": [
          10139260
        ],
        "postalCode": "N2N2Y7",
        "streetName": "NORTHFOREST",
        "streetDirectionId": null,
        "streetTypeId": "TRAIL",
        "placeName": "KITCHENER",
        "streetNameDisplayText": "NORTHFOREST TRAIL, KITCHENER"
      }
    ]
  },
  {
    "postal": "N2N2J7",
    "result": [
      {
        "electoralDistricts": [
          {
            "election": null,
            "id": 48,
            "setId": 0,
            "name": "Kitchener—Conestoga"
          }
        ],
        "pollDivisionIds": [
          10139267
        ],
        "postalCode": "N2N2J7",
        "streetName": "OLD PARK",
        "streetDirectionId": null,
        "streetTypeId": "LANE",
        "placeName": "KITCHENER",
        "streetNameDisplayText": "OLD PARK LANE, KITCHENER"
      }
    ]
  },
  {
    "postal": "N2N4K7",
    "result": []
  },
  {
    "postal": "N2N7P9",
    "result": []
  },
  {
    "postal": "N2N8X0",
    "result": []
  },
  {
    "postal": "N2N3X1",
    "result": []
  },
  {
    "postal": "N2N1R5",
    "result": [
      {
        "electoralDistricts": [
          {
            "election": null,
            "id": 48,
            "setId": 0,
            "name": "Kitchener—Conestoga"
          }
        ],
        "pollDivisionIds": [
          10139266
        ],
        "postalCode": "N2N1R5",
        "streetName": "PARKLAND",
        "streetDirectionId": null,
        "streetTypeId": "CRES",
        "placeName": "KITCHENER",
        "streetNameDisplayText": "PARKLAND CRES, KITCHENER"
      }
    ]
  },
  {
    "postal": "N2N6X6",
    "result": []
  },
  {
    "postal": "N2N0Y1",
    "result": []
  },
  {
    "postal": "N2N8G1",
    "result": []
  },
  {
    "postal": "N2N3J3",
    "result": [
      {
        "electoralDistricts": [
          {
            "election": null,
            "id": 48,
            "setId": 0,
            "name": "Kitchener—Conestoga"
          }
        ],
        "pollDivisionIds": [
          10139262
        ],
        "postalCode": "N2N3J3",
        "streetName": "BANKSIDE",
        "streetDirectionId": null,
        "streetTypeId": "DR",
        "placeName": "KITCHENER",
        "streetNameDisplayText": "BANKSIDE DR, KITCHENER"
      }
    ]
  },
  {
    "postal": "N2N8C2",
    "result": []
  },
  {
    "postal": "N2N4X9",
    "result": []
  },
  {
    "postal": "N2N6G9",
    "result": []
  },
  {
    "postal": "N2N4M3",
    "result": []
  },
  {
    "postal": "N2N9P7",
    "result": []
  },
  {
    "postal": "N2N4E5",
    "result": []
  },
  {
    "postal": "N2N5K9",
    "result": []
  },
  {
    "postal": "N2N2V2",
    "result": [
      {
        "electoralDistricts": [
          {
            "election": null,
            "id": 48,
            "setId": 0,
            "name": "Kitchener—Conestoga"
          }
        ],
        "pollDivisionIds": [
          10139264
        ],
        "postalCode": "N2N2V2",
        "streetName": "CONNELLY",
        "streetDirectionId": null,
        "streetTypeId": "DR",
        "placeName": "KITCHENER",
        "streetNameDisplayText": "CONNELLY DR, KITCHENER"
      }
    ]
  },
  {
    "postal": "N2N2N9",
    "result": [
      {
        "electoralDistricts": [
          {
            "election": null,
            "id": 48,
            "setId": 0,
            "name": "Kitchener—Conestoga"
          }
        ],
        "pollDivisionIds": [
          10139267
        ],
        "postalCode": "N2N2N9",
        "streetName": "GOLDEN MEADOW",
        "streetDirectionId": null,
        "streetTypeId": "DR",
        "placeName": "KITCHENER",
        "streetNameDisplayText": "GOLDEN MEADOW DR, KITCHENER"
      },
      {
        "electoralDistricts": [
          {
            "election": null,
            "id": 48,
            "setId": 0,
            "name": "Kitchener—Conestoga"
          }
        ],
        "pollDivisionIds": [
          10139266,
          10139267
        ],
        "postalCode": "N2N2N9",
        "streetName": "HODDLE",
        "streetDirectionId": null,
        "streetTypeId": "CRES",
        "placeName": "KITCHENER",
        "streetNameDisplayText": "HODDLE CRES, KITCHENER"
      }
    ]
  },
  {
    "postal": "N2N6L4",
    "result": []
  },
  {
    "postal": "N2N8E0",
    "result": []
  },
  {
    "postal": "N2N0N0",
    "result": []
  },
  {
    "postal": "N2N6R0",
    "result": []
  },
  {
    "postal": "N2N9C1",
    "result": []
  },
  {
    "postal": "N2N4H4",
    "result": []
  },
  {
    "postal": "N2N5W3",
    "result": []
  },
  {
    "postal": "N2N9N9",
    "result": []
  },
  {
    "postal": "N2N1V7",
    "result": [
      {
        "electoralDistricts": [
          {
            "election": null,
            "id": 48,
            "setId": 0,
            "name": "Kitchener—Conestoga"
          }
        ],
        "pollDivisionIds": [
          10139264
        ],
        "postalCode": "N2N1V7",
        "streetName": "TRAILWOOD",
        "streetDirectionId": null,
        "streetTypeId": "CRES",
        "placeName": "KITCHENER",
        "streetNameDisplayText": "TRAILWOOD CRES, KITCHENER"
      }
    ]
  },
  {
    "postal": "N2N8J1",
    "result": []
  },
  {
    "postal": "N2N5V9",
    "result": []
  },
  {
    "postal": "N2N2S8",
    "result": [
      {
        "electoralDistricts": [
          {
            "election": null,
            "id": 48,
            "setId": 0,
            "name": "Kitchener—Conestoga"
          }
        ],
        "pollDivisionIds": [
          10139264,
          10139263
        ],
        "postalCode": "N2N2S8",
        "streetName": "CLAYCROFT",
        "streetDirectionId": null,
        "streetTypeId": "CRES",
        "placeName": "KITCHENER",
        "streetNameDisplayText": "CLAYCROFT CRES, KITCHENER"
      },
      {
        "electoralDistricts": [
          {
            "election": null,
            "id": 48,
            "setId": 0,
            "name": "Kitchener—Conestoga"
          }
        ],
        "pollDivisionIds": [
          10139264
        ],
        "postalCode": "N2N2S8",
        "streetName": "SPRUCEDALE",
        "streetDirectionId": null,
        "streetTypeId": "CRES",
        "placeName": "KITCHENER",
        "streetNameDisplayText": "SPRUCEDALE CRES, KITCHENER"
      }
    ]
  },
  {
    "postal": "N2N6P0",
    "result": []
  },
  {
    "postal": "N2N4J8",
    "result": []
  },
  {
    "postal": "N2N0N1",
    "result": []
  },
  {
    "postal": "N2N1Y7",
    "result": [
      {
        "electoralDistricts": [
          {
            "election": null,
            "id": 48,
            "setId": 0,
            "name": "Kitchener—Conestoga"
          }
        ],
        "pollDivisionIds": [
          10139266
        ],
        "postalCode": "N2N1Y7",
        "streetName": "DRIFTWOOD",
        "streetDirectionId": null,
        "streetTypeId": "DR",
        "placeName": "KITCHENER",
        "streetNameDisplayText": "DRIFTWOOD DR, KITCHENER"
      }
    ]
  },
  {
    "postal": "N2N7W5",
    "result": []
  },
  {
    "postal": "N2N3Z1",
    "result": []
  },
  {
    "postal": "N2N7M6",
    "result": []
  },
  {
    "postal": "N2N1W7",
    "result": [
      {
        "electoralDistricts": [
          {
            "election": null,
            "id": 48,
            "setId": 0,
            "name": "Kitchener—Conestoga"
          }
        ],
        "pollDivisionIds": [
          10139266
        ],
        "postalCode": "N2N1W7",
        "streetName": "DRIFTWOOD",
        "streetDirectionId": null,
        "streetTypeId": "DR",
        "placeName": "KITCHENER",
        "streetNameDisplayText": "DRIFTWOOD DR, KITCHENER"
      }
    ]
  },
  {
    "postal": "N2N1X1",
    "result": [
      {
        "electoralDistricts": [
          {
            "election": null,
            "id": 48,
            "setId": 0,
            "name": "Kitchener—Conestoga"
          }
        ],
        "pollDivisionIds": [
          10139267
        ],
        "postalCode": "N2N1X1",
        "streetName": "HIGHVIEW",
        "streetDirectionId": null,
        "streetTypeId": "DR",
        "placeName": "KITCHENER",
        "streetNameDisplayText": "HIGHVIEW DR, KITCHENER"
      }
    ]
  },
  {
    "postal": "N2N0C1",
    "result": []
  },
  {
    "postal": "N2N4N3",
    "result": []
  },
  {
    "postal": "N2N4S8",
    "result": []
  },
  {
    "postal": "N2N1H6",
    "result": [
      {
        "electoralDistricts": [
          {
            "election": null,
            "id": 48,
            "setId": 0,
            "name": "Kitchener—Conestoga"
          }
        ],
        "pollDivisionIds": [
          10139263
        ],
        "postalCode": "N2N1H6",
        "streetName": "ELM RIDGE",
        "streetDirectionId": null,
        "streetTypeId": "DR",
        "placeName": "KITCHENER",
        "streetNameDisplayText": "ELM RIDGE DR, KITCHENER"
      }
    ]
  },
  {
    "postal": "N2N2Z4",
    "result": [
      {
        "electoralDistricts": [
          {
            "election": null,
            "id": 48,
            "setId": 0,
            "name": "Kitchener—Conestoga"
          }
        ],
        "pollDivisionIds": [
          10139264
        ],
        "postalCode": "N2N2Z4",
        "streetName": "WESTHEIGHTS",
        "streetDirectionId": null,
        "streetTypeId": "DR",
        "placeName": "KITCHENER",
        "streetNameDisplayText": "WESTHEIGHTS DR, KITCHENER"
      }
    ]
  },
  {
    "postal": "N2N7K3",
    "result": []
  },
  {
    "postal": "N2N8A2",
    "result": []
  },
  {
    "postal": "N2N6J1",
    "result": []
  },
  {
    "postal": "N2N5Z6",
    "result": []
  },
  {
    "postal": "N2N3Z0",
    "result": []
  },
  {
    "postal": "N2N8M0",
    "result": []
  },
  {
    "postal": "N2N1Z6",
    "result": [
      {
        "electoralDistricts": [
          {
            "election": null,
            "id": 48,
            "setId": 0,
            "name": "Kitchener—Conestoga"
          }
        ],
        "pollDivisionIds": [
          10139266
        ],
        "postalCode": "N2N1Z6",
        "streetName": "ROYAL ORCHARD",
        "streetDirectionId": null,
        "streetTypeId": "PL",
        "placeName": "KITCHENER",
        "streetNameDisplayText": "ROYAL ORCHARD PL, KITCHENER"
      }
    ]
  },
  {
    "postal": "N2N8K7",
    "result": []
  },
  {
    "postal": "N2N1N3",
    "result": [
      {
        "electoralDistricts": [
          {
            "election": null,
            "id": 48,
            "setId": 0,
            "name": "Kitchener—Conestoga"
          }
        ],
        "pollDivisionIds": [
          10139264
        ],
        "postalCode": "N2N1N3",
        "streetName": "WINDING",
        "streetDirectionId": null,
        "streetTypeId": "WAY",
        "placeName": "KITCHENER",
        "streetNameDisplayText": "WINDING WAY, KITCHENER"
      }
    ]
  },
  {
    "postal": "N2N9S2",
    "result": []
  },
  {
    "postal": "N2N2K1",
    "result": [
      {
        "electoralDistricts": [
          {
            "election": null,
            "id": 48,
            "setId": 0,
            "name": "Kitchener—Conestoga"
          }
        ],
        "pollDivisionIds": [
          10139267
        ],
        "postalCode": "N2N2K1",
        "streetName": "OLD PARK",
        "streetDirectionId": null,
        "streetTypeId": "LANE",
        "placeName": "KITCHENER",
        "streetNameDisplayText": "OLD PARK LANE, KITCHENER"
      }
    ]
  },
  {
    "postal": "N2N1E8",
    "result": [
      {
        "electoralDistricts": [
          {
            "election": null,
            "id": 48,
            "setId": 0,
            "name": "Kitchener—Conestoga"
          }
        ],
        "pollDivisionIds": [
          10139265
        ],
        "postalCode": "N2N1E8",
        "streetName": "MEADOWLANE",
        "streetDirectionId": null,
        "streetTypeId": "DR",
        "placeName": "KITCHENER",
        "streetNameDisplayText": "MEADOWLANE DR, KITCHENER"
      }
    ]
  },
  {
    "postal": "N2N9B8",
    "result": []
  },
  {
    "postal": "N2N7X4",
    "result": []
  },
  {
    "postal": "N2N1Z4",
    "result": [
      {
        "electoralDistricts": [
          {
            "election": null,
            "id": 48,
            "setId": 0,
            "name": "Kitchener—Conestoga"
          }
        ],
        "pollDivisionIds": [
          10139261
        ],
        "postalCode": "N2N1Z4",
        "streetName": "STOKE",
        "streetDirectionId": null,
        "streetTypeId": "DR",
        "placeName": "KITCHENER",
        "streetNameDisplayText": "STOKE DR, KITCHENER"
      }
    ]
  },
  {
    "postal": "N2N2C7",
    "result": [
      {
        "electoralDistricts": [
          {
            "election": null,
            "id": 48,
            "setId": 0,
            "name": "Kitchener—Conestoga"
          }
        ],
        "pollDivisionIds": [
          10139263
        ],
        "postalCode": "N2N2C7",
        "streetName": "ELM RIDGE",
        "streetDirectionId": null,
        "streetTypeId": "DR",
        "placeName": "KITCHENER",
        "streetNameDisplayText": "ELM RIDGE DR, KITCHENER"
      }
    ]
  },
  {
    "postal": "N2N2E7",
    "result": []
  },
  {
    "postal": "N2N3R1",
    "result": [
      {
        "electoralDistricts": [
          {
            "election": null,
            "id": 48,
            "setId": 0,
            "name": "Kitchener—Conestoga"
          }
        ],
        "pollDivisionIds": [
          10139262
        ],
        "postalCode": "N2N3R1",
        "streetName": "WESTMEADOW",
        "streetDirectionId": null,
        "streetTypeId": "DR",
        "placeName": "KITCHENER",
        "streetNameDisplayText": "WESTMEADOW DR, KITCHENER"
      }
    ]
  },
  {
    "postal": "N2N4K4",
    "result": []
  },
  {
    "postal": "N2N9G3",
    "result": []
  },
  {
    "postal": "N2N6C9",
    "result": []
  },
  {
    "postal": "N2N9H5",
    "result": []
  },
  {
    "postal": "N2N1P5",
    "result": [
      {
        "electoralDistricts": [
          {
            "election": null,
            "id": 48,
            "setId": 0,
            "name": "Kitchener—Conestoga"
          }
        ],
        "pollDivisionIds": [
          10139263
        ],
        "postalCode": "N2N1P5",
        "streetName": "BLACKWELL",
        "streetDirectionId": null,
        "streetTypeId": "DR",
        "placeName": "KITCHENER",
        "streetNameDisplayText": "BLACKWELL DR, KITCHENER"
      }
    ]
  },
  {
    "postal": "N2N2J5",
    "result": [
      {
        "electoralDistricts": [
          {
            "election": null,
            "id": 48,
            "setId": 0,
            "name": "Kitchener—Conestoga"
          }
        ],
        "pollDivisionIds": [
          10139266
        ],
        "postalCode": "N2N2J5",
        "streetName": "LORILEE",
        "streetDirectionId": null,
        "streetTypeId": "CRES",
        "placeName": "KITCHENER",
        "streetNameDisplayText": "LORILEE CRES, KITCHENER"
      }
    ]
  },
  {
    "postal": "N2N4W6",
    "result": []
  },
  {
    "postal": "N2N8M8",
    "result": []
  },
  {
    "postal": "N2N6C5",
    "result": []
  },
  {
    "postal": "N2N9H0",
    "result": []
  },
  {
    "postal": "N2N1X8",
    "result": [
      {
        "electoralDistricts": [
          {
            "election": null,
            "id": 48,
            "setId": 0,
            "name": "Kitchener—Conestoga"
          }
        ],
        "pollDivisionIds": [
          10139264
        ],
        "postalCode": "N2N1X8",
        "streetName": "ROLLING MEADOWS",
        "streetDirectionId": null,
        "streetTypeId": "DR",
        "placeName": "KITCHENER",
        "streetNameDisplayText": "ROLLING MEADOWS DR, KITCHENER"
      }
    ]
  },
  {
    "postal": "N2N3H4",
    "result": [
      {
        "electoralDistricts": [
          {
            "election": null,
            "id": 48,
            "setId": 0,
            "name": "Kitchener—Conestoga"
          }
        ],
        "pollDivisionIds": [
          10139260
        ],
        "postalCode": "N2N3H4",
        "streetName": "COUNTRYSTONE",
        "streetDirectionId": null,
        "streetTypeId": "DR",
        "placeName": "KITCHENER",
        "streetNameDisplayText": "COUNTRYSTONE DR, KITCHENER"
      },
      {
        "electoralDistricts": [
          {
            "election": null,
            "id": 48,
            "setId": 0,
            "name": "Kitchener—Conestoga"
          }
        ],
        "pollDivisionIds": [
          10139260
        ],
        "postalCode": "N2N3H4",
        "streetName": "RESURRECTION",
        "streetDirectionId": null,
        "streetTypeId": "DR",
        "placeName": "KITCHENER",
        "streetNameDisplayText": "RESURRECTION DR, KITCHENER"
      }
    ]
  },
  {
    "postal": "N2N4E7",
    "result": []
  },
  {
    "postal": "N2N8A0",
    "result": []
  },
  {
    "postal": "N2N1Z7",
    "result": [
      {
        "electoralDistricts": [
          {
            "election": null,
            "id": 48,
            "setId": 0,
            "name": "Kitchener—Conestoga"
          }
        ],
        "pollDivisionIds": [
          10139261
        ],
        "postalCode": "N2N1Z7",
        "streetName": "WEXFORD",
        "streetDirectionId": null,
        "streetTypeId": "CRES",
        "placeName": "KITCHENER",
        "streetNameDisplayText": "WEXFORD CRES, KITCHENER"
      }
    ]
  },
  {
    "postal": "N2N7Z3",
    "result": []
  },
  {
    "postal": "N2N0L7",
    "result": []
  },
  {
    "postal": "N2N2C6",
    "result": []
  },
  {
    "postal": "N2N6M3",
    "result": []
  },
  {
    "postal": "N2N2J1",
    "result": [
      {
        "electoralDistricts": [
          {
            "election": null,
            "id": 48,
            "setId": 0,
            "name": "Kitchener—Conestoga"
          }
        ],
        "pollDivisionIds": [
          10139261
        ],
        "postalCode": "N2N2J1",
        "streetName": "MEDFORD",
        "streetDirectionId": null,
        "streetTypeId": "ST",
        "placeName": "KITCHENER",
        "streetNameDisplayText": "MEDFORD ST, KITCHENER"
      }
    ]
  },
  {
    "postal": "N2N3E3",
    "result": [
      {
        "electoralDistricts": [
          {
            "election": null,
            "id": 48,
            "setId": 0,
            "name": "Kitchener—Conestoga"
          }
        ],
        "pollDivisionIds": [
          10139261
        ],
        "postalCode": "N2N3E3",
        "streetName": "BANKSIDE",
        "streetDirectionId": null,
        "streetTypeId": "DR",
        "placeName": "KITCHENER",
        "streetNameDisplayText": "BANKSIDE DR, KITCHENER"
      },
      {
        "electoralDistricts": [
          {
            "election": null,
            "id": 48,
            "setId": 0,
            "name": "Kitchener—Conestoga"
          }
        ],
        "pollDivisionIds": [
          10139261
        ],
        "postalCode": "N2N3E3",
        "streetName": "BENESFORT",
        "streetDirectionId": null,
        "streetTypeId": "DR",
        "placeName": "KITCHENER",
        "streetNameDisplayText": "BENESFORT DR, KITCHENER"
      },
      {
        "electoralDistricts": [
          {
            "election": null,
            "id": 48,
            "setId": 0,
            "name": "Kitchener—Conestoga"
          }
        ],
        "pollDivisionIds": [
          10139261
        ],
        "postalCode": "N2N3E3",
        "streetName": "BENESFORT DR.",
        "streetDirectionId": null,
        "streetTypeId": "DR",
        "placeName": "KITCHENER",
        "streetNameDisplayText": "BENESFORT DR. DR, KITCHENER"
      }
    ]
  },
  {
    "postal": "N2N6Z9",
    "result": []
  },
  {
    "postal": "N2N3M3",
    "result": [
      {
        "electoralDistricts": [
          {
            "election": null,
            "id": 48,
            "setId": 0,
            "name": "Kitchener—Conestoga"
          }
        ],
        "pollDivisionIds": [
          10139262,
          10139261
        ],
        "postalCode": "N2N3M3",
        "streetName": "EASTFOREST",
        "streetDirectionId": null,
        "streetTypeId": "TRAIL",
        "placeName": "KITCHENER",
        "streetNameDisplayText": "EASTFOREST TRAIL, KITCHENER"
      }
    ]
  },
  {
    "postal": "N2N9B1",
    "result": []
  },
  {
    "postal": "N2N9J5",
    "result": []
  },
  {
    "postal": "N2N4V8",
    "result": []
  },
  {
    "postal": "N2N6W2",
    "result": []
  },
  {
    "postal": "N2N0V5",
    "result": []
  },
  {
    "postal": "N2N0Z8",
    "result": []
  },
  {
    "postal": "N2N5G2",
    "result": []
  },
  {
    "postal": "N2N4N4",
    "result": []
  },
  {
    "postal": "N2N8G7",
    "result": []
  },
  {
    "postal": "N2N8W1",
    "result": []
  },
  {
    "postal": "N2N1S6",
    "result": [
      {
        "electoralDistricts": [
          {
            "election": null,
            "id": 48,
            "setId": 0,
            "name": "Kitchener—Conestoga"
          }
        ],
        "pollDivisionIds": [
          10139266
        ],
        "postalCode": "N2N1S6",
        "streetName": "DRIFTWOOD",
        "streetDirectionId": null,
        "streetTypeId": "DR",
        "placeName": "KITCHENER",
        "streetNameDisplayText": "DRIFTWOOD DR, KITCHENER"
      }
    ]
  },
  {
    "postal": "N2N4E0",
    "result": []
  },
  {
    "postal": "N2N4L9",
    "result": []
  },
  {
    "postal": "N2N5Z9",
    "result": []
  },
  {
    "postal": "N2N5V3",
    "result": []
  },
  {
    "postal": "N2N4V2",
    "result": []
  },
  {
    "postal": "N2N7C0",
    "result": []
  },
  {
    "postal": "N2N6L0",
    "result": []
  },
  {
    "postal": "N2N1S9",
    "result": [
      {
        "electoralDistricts": [
          {
            "election": null,
            "id": 48,
            "setId": 0,
            "name": "Kitchener—Conestoga"
          }
        ],
        "pollDivisionIds": [
          10139264
        ],
        "postalCode": "N2N1S9",
        "streetName": "TIMBERLANE",
        "streetDirectionId": null,
        "streetTypeId": "CRES",
        "placeName": "KITCHENER",
        "streetNameDisplayText": "TIMBERLANE CRES, KITCHENER"
      }
    ]
  },
  {
    "postal": "N2N7R6",
    "result": []
  },
  {
    "postal": "N2N7J0",
    "result": []
  },
  {
    "postal": "N2N5M0",
    "result": []
  },
  {
    "postal": "N2N2E5",
    "result": []
  },
  {
    "postal": "N2N7C7",
    "result": []
  },
  {
    "postal": "N2N5C0",
    "result": []
  },
  {
    "postal": "N2N8V9",
    "result": []
  },
  {
    "postal": "N2N7E0",
    "result": []
  },
  {
    "postal": "N2N6R4",
    "result": []
  },
  {
    "postal": "N2N3Z7",
    "result": []
  },
  {
    "postal": "N2N1J9",
    "result": [
      {
        "electoralDistricts": [
          {
            "election": null,
            "id": 48,
            "setId": 0,
            "name": "Kitchener—Conestoga"
          }
        ],
        "pollDivisionIds": [
          10139265
        ],
        "postalCode": "N2N1J9",
        "streetName": "WESTHEIGHTS",
        "streetDirectionId": null,
        "streetTypeId": "DR",
        "placeName": "KITCHENER",
        "streetNameDisplayText": "WESTHEIGHTS DR, KITCHENER"
      }
    ]
  },
  {
    "postal": "N2N7K6",
    "result": []
  },
  {
    "postal": "N2N7Y5",
    "result": []
  },
  {
    "postal": "N2N1B7",
    "result": [
      {
        "electoralDistricts": [
          {
            "election": null,
            "id": 48,
            "setId": 0,
            "name": "Kitchener—Conestoga"
          }
        ],
        "pollDivisionIds": [
          10139265
        ],
        "postalCode": "N2N1B7",
        "streetName": "FORESTWOOD",
        "streetDirectionId": null,
        "streetTypeId": "DR",
        "placeName": "KITCHENER",
        "streetNameDisplayText": "FORESTWOOD DR, KITCHENER"
      }
    ]
  },
  {
    "postal": "N2N4S9",
    "result": []
  },
  {
    "postal": "N2N9R9",
    "result": []
  },
  {
    "postal": "N2N5K7",
    "result": []
  },
  {
    "postal": "N2N6P2",
    "result": []
  },
  {
    "postal": "N2N2C5",
    "result": []
  },
  {
    "postal": "N2N2N0",
    "result": []
  },
  {
    "postal": "N2N1G0",
    "result": []
  },
  {
    "postal": "N2N4K5",
    "result": []
  },
  {
    "postal": "N2N9B5",
    "result": []
  },
  {
    "postal": "N2N6T5",
    "result": []
  },
  {
    "postal": "N2N1N8",
    "result": [
      {
        "electoralDistricts": [
          {
            "election": null,
            "id": 48,
            "setId": 0,
            "name": "Kitchener—Conestoga"
          }
        ],
        "pollDivisionIds": [
          10139266,
          10139264
        ],
        "postalCode": "N2N1N8",
        "streetName": "BROKEN OAK",
        "streetDirectionId": null,
        "streetTypeId": "CRES",
        "placeName": "KITCHENER",
        "streetNameDisplayText": "BROKEN OAK CRES, KITCHENER"
      }
    ]
  },
  {
    "postal": "N2N0C0",
    "result": []
  },
  {
    "postal": "N2N0R9",
    "result": []
  },
  {
    "postal": "N2N7L1",
    "result": []
  },
  {
    "postal": "N2N3Y8",
    "result": []
  },
  {
    "postal": "N2N7X9",
    "result": []
  },
  {
    "postal": "N2N1A7",
    "result": [
      {
        "electoralDistricts": [
          {
            "election": null,
            "id": 48,
            "setId": 0,
            "name": "Kitchener—Conestoga"
          }
        ],
        "pollDivisionIds": [
          10139265
        ],
        "postalCode": "N2N1A7",
        "streetName": "MCGARRY",
        "streetDirectionId": null,
        "streetTypeId": "DR",
        "placeName": "KITCHENER",
        "streetNameDisplayText": "MCGARRY DR, KITCHENER"
      }
    ]
  },
  {
    "postal": "N2N2T9",
    "result": [
      {
        "electoralDistricts": [
          {
            "election": null,
            "id": 48,
            "setId": 0,
            "name": "Kitchener—Conestoga"
          }
        ],
        "pollDivisionIds": [
          10139264
        ],
        "postalCode": "N2N2T9",
        "streetName": "CONNELLY",
        "streetDirectionId": null,
        "streetTypeId": "DR",
        "placeName": "KITCHENER",
        "streetNameDisplayText": "CONNELLY DR, KITCHENER"
      }
    ]
  },
  {
    "postal": "N2N2E6",
    "result": []
  },
  {
    "postal": "N2N8Y1",
    "result": []
  },
  {
    "postal": "N2N0J5",
    "result": []
  },
  {
    "postal": "N2N4J1",
    "result": []
  },
  {
    "postal": "N2N1A5",
    "result": [
      {
        "electoralDistricts": [
          {
            "election": null,
            "id": 48,
            "setId": 0,
            "name": "Kitchener—Conestoga"
          }
        ],
        "pollDivisionIds": [
          10139265
        ],
        "postalCode": "N2N1A5",
        "streetName": "MCGARRY",
        "streetDirectionId": null,
        "streetTypeId": "DR",
        "placeName": "KITCHENER",
        "streetNameDisplayText": "MCGARRY DR, KITCHENER"
      }
    ]
  },
  {
    "postal": "N2N6Z6",
    "result": []
  },
  {
    "postal": "N2N5K4",
    "result": []
  },
  {
    "postal": "N2N7R9",
    "result": []
  },
  {
    "postal": "N2N6G4",
    "result": []
  }
]
